Origin Time       2025/03/30 22:55:00
Lat.              41.993
Long.             142.725
Depth. (km)       55
Mag.              4.6
Station Code      HDKH06
Station Lat.      42.3498
Station Long.     142.3572
Station Height(m) 10
Record Time       2025/03/30 22:56:11
Sampling Freq(Hz) 100Hz
Duration Time(s)  120
Dir.              6
Scale Factor      7845(gal)/8223790
Max. Acc. (gal)   1.224
Last Correction   2025/03/30 22:56:11
Memo.             
[...]
   -6430    -6427    -6428    -6428    -6430    -6428    -6427    -6428 
   -6428    -6426    -6428    -6431    -6430    -6428    -6431    -6431 
   -6430    -6430    -6428    -6427    -6431    -6434    -6430    -6428 
   -6431    -6431    -6428    -6428    -6428    -6428    -6428    -6430 
   -6428    -6427    -6430    -6428    -6428    -6431    -6428    -6427 
   -6427    -6427    -6428    -6428    -6428    -6430    -6430    -6430 
   -6431    -6428    -6426    -6427    -6428    -6430    -6430    -6430 
   -6432    -6431    -6427    -6428    -6432    -6431    -6428    -6430 
   -6431    -6428    -6428    -6430    -6428    -6428    -6428    -6428 
   -6430    -6430    -6430    -6428    -6428    -6430    -6428    -6428 
   -6431    -6430    -6428    -6430    -6431    -6431    -6430    -6428 
   -6430    -6430    -6430    -6430    -6427    -6427    -6430    -6430 
   -6430    -6428    -6426    -6430    -6432    -6430    -6428    -6431 
   -6431    -6428    -6428    -6428    -6427    -6427    -6428    -6427 
   -6428    -6430    -6430    -6430    -6430    -6430    -6431    -6431 
   -6431    -6431    -6430    -6431    -6428    -6427    -6431    -6430 
   -6426    -6428    -6430    -6430    -6430    -6428    -6427    -6430 
   -6431    -6431    -6428    -6428    -6431    -6431    -6428    -6430 
   -6431    -6430    -6430    -6430    -6427    -6426    -6428    -6431 
   -6431    -6431    -6430    -6428    -6430    -6428    -6427    -6428 
   -6428    -6427    -6428    -6431    -6431    -6428    -6430    -6430 
   -6426    -6427    -6430    -6426    -6426    -6427    -6428    -6430 
   -6430    -6428    -6430    -6430    -6430    -6430    -6428    -6430 
   -6430    -6431    -6431    -6428    -6427    -6428    -6427    -6427 
   -6430    -6431    -6428    -6427    -6430    -6430    -6428    -6428 
   -6431    -6431    -6427    -6427    -6430    -6430    -6428    -6428 
   -6428    -6428    -6427    -6428    -6431    -6428    -6427    -6430 
   -6430    -6431    -6432    -6432    -6434    -6436    -6438    -6440 
   -6446    -6453    -6461    -6467    -6470    -6474    -6474    -6473 
   -6475    -6478    -6481    -6492    -6507    -6519    -6535    -6548 
   -6552    -6551    -6543    -6534    -6531    -6538    -6550    -6567 
   -6585    -6596    -6592    -6578    -6567    -6555    -6539    -6521 
   -6500    -6471    -6443    -6411    -6363    -6292    -6210    -6138 
   -6103    -6124    -6200    -6295    -6365    -6370    -6304    -6187 
   -6053    -5956    -5925    -5964    -6076    -6246    -6430    -6566 
   -6617    -6588    -6517    -6462    -6446    -6458    -6471    -6478 
   -6500    -6546    -6589    -6573    -6446    -6216    -5984    -5896 
   -6035    -6362    -6705    -6867    -6766    -6498    -6277    -6285 
   -6534    -6847    -7005    -6887    -6570    -6254    -6104    -6157 
   -6336    -6512    -6575    -6482    -6269    -6035    -5890    -5907 
   -6084    -6355    -6639    -6860    -6945    -6862    -6644    -6390 
   -6204    -6123    -6119    -6143    -6165    -6165    -6145    -6118 
   -6106    -6137    -6246    -6461    -6752    -7047    -7230    -7218 
   -7026    -6768    -6575    -6523    -6594    -6681    -6636    -6392 
   -6015    -5675    -5541    -5651    -5880    -6076    -6166    -6192 
   -6249    -6413    -6705    -7063    -7372    -7518    -7441    -7163 
   -6789    -6435    -6201    -6143    -6251    -6446    -6617    -6690 
   -6625    -6443    -6212    -5994    -5826    -5763    -5836    -6034 
   -6326    -6677    -7020    -7257    -7312    -7175    -6890    -6543 
   -6231    -6004    -5857    -5779    -5767    -5833    -5994    -6231 
   -6480    -6666    -6760    -6781    -6766    -6759    -6781    -6816 
   -6832    -6809    -6766    -6712    -6616    -6430    -6145    -5822 
   -5586    -5547    -5714    -6006    -6300    -6524    -6660    -6744 
   -6820    -6887    -6907    -6839    -6679    -6466    -6251    -6075 
   -5962    -5917    -5923    -5975    -6070    -6218    -6390    -6538 
   -6625    -6644    -6613    -6565    -6515    -6465    -6416    -6372 
   -6336    -6330    -6380    -6496    -6644    -6756    -6786    -6725 
   -6586    -6409    -6247    -6146    -6119    -6142    -6197    -6288 
   -6420    -6592    -6777    -6934    -7006    -6945    -6745    -6465 
   -6203    -6054    -6058    -6177    -6336    -6454    -6478    -6424 
   -6349    -6301    -6312    -6367    -6430    -6469    -6481    -6466 
   -6428    -6394    -6396    -6439    -6492    -6513    -6496    -6466 
   -6450    -6463    -6500    -6544    -6577    -6570    -6512    -6404 
   -6266    -6142    -6087    -6143    -6319    -6551    -6758    -6886 
   -6912    -6821    -6628    -6373    -6130    -5957    -5865    -5850 
   -5911    -6030    -6197    -6405    -6617    -6781    -6874    -6897 
   -6847    -6733    -6585    -6444    -6357    -6338    -6376    -6438 
   -6482    -6492    -6467    -6416    -6331    -6214    -6106    -6049 
   -6054    -6119    -6219    -6315    -6384    -6431    -6485    -6563 
   -6656    -6729    -6741    -6689    -6610    -6559    -6562    -6593 
   -6605    -6565    -6467    -6338    -6215    -6110    -6022    -5965 
   -5962    -6042    -6204    -6399    -6558    -6652    -6693    -6721 
   -6764    -6804    -6816    -6782    -6700    -6593    -6512    -6489 
   -6498    -6475    -6363    -6157    -5903    -5684    -5587    -5671 
   -5918    -6250    -6590    -6886    -7119    -7276    -7338    -7281 
   -7079    -6758    -6405    -6106    -5913    -5856    -5919    -6050 
   -6188    -6319    -6440    -6529    -6570    -6574    -6566    -6567 
   -6589    -6647    -6747    -6855    -6924    -6926    -6831    -6624 
   -6315    -5950    -5621    -5416    -5368    -5452    -5602    -5778 
   -5985    -6255    -6601    -6990    -7334    -7514    -7461    -7218 
   -6878    -6548    -6308    -6162    -6084    -6049    -6043    -6084 
   -6189    -6347    -6513    -6639    -6704    -6712    -6685    -6644 
   -6593    -6521    -6439    -6350    -6259    -6199    -6196    -6254 
   -6363    -6502    -6625    -6681    -6637    -6515    -6378    -6297 
   -6304    -6374    -6459    -6504    -6477    -6407    -6340    -6308 
   -6299    -6293    -6288    -6278    -6254    -6219    -6203    -6230 
   -6304    -6412    -6525    -6616    -6664    -6667    -6624    -6535 
   -6412    -6293    -6220    -6214    -6274    -6399    -6543    -6647 
   -6689    -6675    -6632    -6593    -6551    -6467    -6328    -6169 
   -6042    -5975    -5976    -6048    -6187    -6385    -6610    -6817 
   -6963    -6997    -6901    -6701    -6450    -6239    -6133    -6114 
   -6131    -6153    -6174    -6223    -6324    -6490    -6690    -6859 
   -6936    -6894    -6740    -6497    -6208    -5946    -5799    -5817 
   -6004    -6289    -6543    -6679    -6682    -6588    -6477    -6421 
   -6440    -6502    -6555    -6574    -6559    -6524    -6475    -6403 
   -6324    -6277    -6269    -6292    -6347    -6453    -6601    -6764 
   -6912    -7010    -7029    -6953    -6782    -6544    -6305    -6116 
   -6002    -5971    -6007    -6097    -6224    -6339    -6389    -6359 
   -6304    -6299    -6396    -6588    -6804    -6939    -6937    -6809 
   -6604    -6389    -6223    -6127    -6095    -6114    -6164    -6237 
   -6332    -6442    -6525    -6552    -6515    -6428    -6322    -6242 
   -6234    -6313    -6453    -6604    -6728    -6766    -6683    -6498 
   -6273    -6081    -5969    -5940    -5973    -6068    -6235    -6469 
   -6724    -6929    -7032    -7010    -6872    -6647    -6390    -6180 
   -6070    -6062    -6137    -6254    -6373    -6465    -6547    -6621 
   -6677    -6716    -6725    -6679    -6575    -6428    -6274    -6162 
   -6119    -6149    -6235    -6351    -6477    -6596    -6682    -6709 
   -6655    -6539    -6432    -6396    -6438    -6525    -6616    -6664 
   -6631    -6516    -6365    -6232    -6154    -6139    -6150    -6147 
   -6139    -6154    -6205    -6311    -6462    -6621    -6754    -6833 
   -6832    -6740    -6583    -6405    -6262    -6197    -6200    -6224 
   -6245    -6255    -6257    -6259    -6292    -6365    -6465    -6548 
   -6554    -6466    -6332    -6212    -6143    -6134    -6176    -6242 
   -6292    -6303    -6280    -6264    -6297    -6385    -6501    -6625 
   -6741    -6840    -6902    -6889    -6763    -6528    -6238    -5999 
   -5913    -6019    -6276    -6582    -6845    -7017    -7075    -7020 
   -6894    -6762    -6659    -6589    -6523    -6428    -6313    -6208 
   -6129    -6092    -6097    -6127    -6181    -6277    -6416    -6563 
   -6678    -6713    -6648    -6517    -6370    -6249    -6178    -6176 
   -6227    -6309    -6403    -6497    -6577    -6623    -6619    -6567 
   -6480    -6373    -6270    -6207    -6218    -6332    -6539    -6755 
   -6882    -6862    -6708    -6496    -6304    -6181    -6130    -6122 
   -6129    -6127    -6115    -6112    -6131    -6166    -6224    -6324 
   -6475    -6673    -6880    -7040    -7102    -7052    -6906    -6700 
   -6488    -6305    -6146    -6000    -5881    -5822    -5859    -5995 
   -6200    -6440    -6681    -6863    -6936    -6887    -6751    -6577 
   -6413    -6307    -6284    -6334    -6420    -6509    -6588    -6652 
   -6686    -6663    -6565    -6394    -6196    -6033    -5961    -5999 
   -6127    -6305    -6484    -6631    -6745    -6843    -6932    -6998 
   -7002    -6903    -6700    -6431    -6151    -5927    -5800    -5771 
   -5810    -5877    -5957    -6069    -6239    -6466    -6689    -6809 
   -6779    -6629    -6434    -6296    -6288    -6394    -6524    -6582 
   -6539    -6428    -6327    -6307    -6374    -6481    -6556    -6539 
   -6416    -6232    -6066    -6002    -6064    -6204    -6347    -6440 
   -6481    -6511    -6566    -6651    -6744    -6817    -6847    -6814 
   -6732    -6633    -6536    -6454    -6393    -6359    -6361    -6384 
   -6401    -6403    -6388    -6373    -6374    -6388    -6390    -6373 
   -6350    -6332    -6324    -6327    -6331    -6336    -6366    -6426 
   -6500    -6571    -6604    -6582    -6534    -6485    -6454    -6470 
   -6548    -6669    -6758    -6751    -6646    -6505    -6415    -6419 
   -6493    -6558    -6539    -6415    -6222    -6034    -5923    -5910 
   -5971    -6076    -6196    -6309    -6417    -6524    -6623    -6702 
   -6756    -6782    -6768    -6724    -6659    -6582    -6496    -6404 
   -6300    -6191    -6103    -6048    -6016    -5999    -5989    -5991 
   -6030    -6120    -6253    -6408    -6567    -6700    -6772    -6775 
   -6725    -6663    -6632    -6635    -6623    -6535    -6345    -6084 
   -5823    -5640    -5584    -5660    -5840    -6080    -6342    -6606 
   -6859    -7059    -7148    -7113    -6995    -6858    -6739    -6640 
   -6534    -6393    -6230    -6073    -5984    -6007    -6131    -6293 
   -6413    -6447    -6419    -6386    -6397    -6470    -6604    -6779 
   -6948    -7055    -7064    -6967    -6768    -6490    -6176    -5888 
   -5686    -5607    -5663    -5832    -6080    -6351    -6575    -6702 
   -6727    -6673    -6574    -6484    -6450    -6488    -6577    -6690 
   -6793    -6852    -6860    -6804    -6667    -6478    -6297    -6164 
   -6099    -6110    -6181    -6293    -6424    -6558    -6675    -6779 
   -6864    -6897    -6847    -6724    -6563    -6415    -6331    -6327 
   -6369    -6416    -6450    -6459    -6457    -6451    -6438    -6408 
   -6357    -6296    -6259    -6266    -6309    -6365    -6427    -6498 
   -6579    -6667    -6768    -6876    -6961    -6984    -6912    -6718 
   -6434    -6139    -5931    -5857    -5896    -5988    -6080    -6158 
   -6227    -6293    -6373    -6471    -6578    -6658    -6673    -6624 
   -6567    -6532    -6511    -6484    -6428    -6353    -6292    -6277 
   -6312    -6374    -6435    -6469    -6461    -6426    -6380    -6316 
   -6247    -6210    -6232    -6322    -6439    -6531    -6548    -6484 
   -6367    -6245    -6158    -6139    -6192    -6291    -6388    -6458 
   -6504    -6534    -6550    -6555    -6550    -6539    -6539    -6543 
   -6534    -6490    -6407    -6297    -6189    -6138    -6178    -6295 
   -6443    -6575    -6656    -6687    -6682    -6652    -6617    -6586 
   -6551    -6485    -6372    -6220    -6076    -5994    -5995    -6069 
   -6191    -6339    -6477    -6561    -6559    -6475    -6357    -6259 
   -6214    -6205    -6215    -6220    -6224    -6266    -6386    -6586 
   -6828    -7033    -7121    -7044    -6814    -6501    -6203    -5981 
   -5865    -5856    -5930    -6065    -6242    -6416    -6548    -6624 
   -6642    -6608    -6532    -6424    -6326    -6285    -6316    -6393 
   -6485    -6569    -6629    -6674    -6710    -6725    -6701    -6639 
   -6544    -6430    -6326    -6261    -6239    -6250    -6289    -6346 
   -6397    -6428    -6443    -6469    -6529    -6617    -6694    -6729 
   -6713    -6648    -6558    -6467    -6404    -6382    -6412    -6473 
   -6531    -6581    -6627    -6656    -6654    -6604    -6505    -6386 
   -6289    -6231    -6207    -6199    -6203    -6241    -6322    -6408 
   -6448    -6419    -6349    -6292    -6301    -6376    -6477    -6535 
   -6492    -6353    -6170    -6004    -5910    -5904    -5976    -6115 
   -6324    -6602    -6902    -7142    -7257    -7215    -7029    -6755 
   -6465    -6223    -6066    -5989    -5967    -5989    -6070    -6214 
   -6409    -6640    -6859    -7015    -7078    -7029    -6879    -6667 
   -6423    -6164    -5904    -5663    -5468    -5360    -5370    -5516 
   -5796    -6181    -6613    -7029    -7377    -7614    -7712    -7682 
   -7541    -7291    -6956    -6579    -6205    -5879    -5651    -5548 
   -5553    -5649    -5833    -6093    -6415    -6779    -7137    -7391 
   -7452    -7308    -7018    -6674    -6358    -6112    -5945    -5865 
   -5863    -5911    -5992    -6088    -6178    -6242    -6255    -6208 
   -6093    -5934    -5788    -5710    -5742    -5898    -6146    -6420 
   -6670    -6870    -7010    -7091    -7118    -7083    -6971    -6786 
   -6558    -6326    -6139    -6042    -6034    -6096    -6195    -6295 
   -6394    -6520    -6700    -6929    -7159    -7327    -7404    -7384 
   -7276    -7099    -6876    -6628    -6363    -6096    -5848    -5661 
   -5582    -5629    -5794    -6045    -6332    -6608    -6817    -6916 
   -6890    -6756    -6535    -6254    -5961    -5706    -5539    -5493 
   -5572    -5751    -5983    -6235    -6488    -6717    -6898    -7021 
   -7075    -7051    -6956    -6801    -6616    -6450    -6343    -6311 
   -6343    -6412    -6492    -6573    -6633    -6652    -6612    -6504 
   -6324    -6097    -5868    -5687    -5618    -5709    -5964    -6326 
   -6709    -7026    -7223    -7288    -7236    -7106    -6941    -6762 
   -6581    -6407    -6234    -6068    -5929    -5833    -5802    -5852 
   -5979    -6151    -6346    -6543    -6712    -6818    -6836    -6755 
   -6605    -6442    -6304    -6223    -6216    -6274    -6363    -6466 
   -6574    -6677    -6771    -6839    -6841    -6759    -6600    -6389 
   -6177    -6022    -5969    -6030    -6174    -6353    -6527    -6681 
   -6799    -6858    -6851    -6799    -6714    -6575    -6374    -6133 
   -5898    -5719    -5629    -5638    -5744    -5927    -6153    -6386 
   -6602    -6777    -6891    -6930    -6897    -6808    -6685    -6536 
   -6367    -6192    -6043    -5948    -5904    -5898    -5918    -5975 
   -6095    -6282    -6500    -6691    -6821    -6875    -6870    -6839 
   -6797    -6745    -6678    -6593    -6492    -6392    -6303    -6227 
   -6158    -6091    -6029    -5984    -5979    -6034    -6146    -6292 
   -6444    -6585    -6700    -6802    -6922    -7061    -7191    -7276 
   -7284    -7207    -7056    -6847    -6593    -6323    -6069    -5848 
   -5661    -5533    -5491    -5552    -5714    -5950    -6220    -6482 
   -6693    -6824    -6863    -6814    -6693    -6519    -6330    -6168 
   -6076    -6079    -6164    -6293    -6413    -6509    -6601    -6694 
   -6791    -6889    -6955    -6951    -6874    -6743    -6606    -6523 
   -6517    -6577    -6673    -6759    -6806    -6821    -6809    -6756 
   -6666    -6558    -6453    -6353    -6264    -6177    -6089    -6014 
   -5972    -5962    -5983    -6025    -6080    -6146    -6218    -6304 
   -6417    -6565    -6724    -6872    -6988    -7052    -7052    -6993 
   -6866    -6656    -6390    -6111    -5875    -5742    -5746    -5879 
   -6111    -6397    -6689    -6936    -7099    -7159    -7106    -6960 
   -6754    -6504    -6232    -5975    -5769    -5657    -5651    -5734 
   -5884    -6068    -6243    -6380    -6458    -6474    -6427    -6345 
   -6255    -6170    -6108    -6079    -6088    -6151    -6273    -6434 
   -6621    -6817    -6988    -7119    -7187    -7161    -7034    -6820 
   -6540    -6243    -5987    -5840    -5841    -5988    -6241    -6528 
   -6770    -6928    -6987    -6948    -6828    -6658    -6444    -6214 
   -6010    -5879    -5848    -5918    -6062    -6235    -6400    -6517 
   -6562    -6546    -6501    -6450    -6390    -6322    -6232    -6131 
   -6054    -6031    -6075    -6177    -6316    -6455    -6570    -6643 
   -6675    -6671    -6647    -6625    -6619    -6628    -6656    -6694 
   -6724    -6733    -6706    -6629    -6507    -6366    -6222    -6097 
   -6037    -6057    -6151    -6318    -6529    -6743    -6917    -7024 
   -7042    -6971    -6835    -6662    -6466    -6262    -6073    -5910 
   -5807    -5805    -5894    -6039    -6211    -6374    -6507    -6605 
   -6659    -6656    -6598    -6505    -6400    -6303    -6242    -6219 
   -6205    -6196    -6193    -6195    -6211    -6237    -6269    -6323 
   -6409    -6523    -6648    -6762    -6841    -6870    -6839    -6758 
   -6635    -6480    -6309    -6151    -6029    -5965    -5972    -6030 
   -6127    -6272    -6463    -6681    -6897    -7056    -7118    -7078 
   -6947    -6748    -6521    -6300    -6112    -5989    -5950    -5994 
   -6114    -6289    -6478    -6636    -6729    -6740    -6666    -6529 
   -6374    -6246    -6174    -6162    -6197    -6281    -6421    -6589 
   -6733    -6820    -6824    -6744    -6601    -6428    -6262    -6134 
   -6069    -6079    -6151    -6264    -6386    -6480    -6519    -6489 
   -6399    -6280    -6172    -6106    -6111    -6196    -6340    -6515 
   -6677    -6783    -6806    -6739    -6597    -6420    -6243    -6093 
   -5996    -5973    -6025    -6135    -6292    -6477    -6671    -6845 
   -6963    -7005    -6976    -6891    -6785    -6689    -6616    -6561 
   -6502    -6419    -6301    -6161    -6027    -5926    -5886    -5923 
   -6035    -6197    -6372    -6520    -6620    -6660    -6640    -6590 
   -6538    -6505    -6505    -6519    -6529    -6529    -6523    -6524 
   -6540    -6565    -6588    -6600    -6597    -6585    -6567    -6552 
   -6535    -6511    -6496    -6496    -6512    -6544    -6588    -6642 
   -6706    -6772    -6822    -6839    -6808    -6737    -6636    -6513 
   -6378    -6235    -6096    -5988    -5938    -5952    -6016    -6107 
   -6195    -6245    -6241    -6189    -6108    -6027    -5980    -5998 
   -6089    -6243    -6420    -6586    -6712    -6781    -6797    -6775 
   -6729    -6675    -6620    -6552    -6473    -6376    -6257    -6131 
   -6031    -5995    -6049    -6192    -6401    -6635    -6845    -6993 
   -7053    -7024    -6928    -6798    -6678    -6593    -6547    -6525 
