Origin Time       2025/03/30 22:55:00
Lat.              41.993
Long.             142.725
Depth. (km)       55
Mag.              4.6
Station Code      HDKH05
Station Lat.      42.5977
Station Long.     142.5446
Station Height(m) 305
Record Time       2025/03/30 22:56:23
Sampling Freq(Hz) 100Hz
Duration Time(s)  120
Dir.              4
Scale Factor      3920(gal)/6170801
Max. Acc. (gal)   0.569
Last Correction   2025/03/30 22:56:07
Memo.             
[...]
   -4245    -4246    -4247    -4246    -4246    -4246    -4244    -4245 
   -4246    -4245    -4244    -4245    -4246    -4245    -4245    -4246 
   -4245    -4245    -4246    -4244    -4244    -4245    -4245    -4245 
   -4247    -4247    -4244    -4243    -4245    -4246    -4244    -4243 
   -4245    -4245    -4244    -4245    -4245    -4244    -4245    -4247 
   -4246    -4245    -4244    -4244    -4244    -4245    -4244    -4246 
   -4247    -4244    -4243    -4245    -4246    -4245    -4246    -4246 
   -4245    -4245    -4246    -4247    -4245    -4245    -4246    -4245 
   -4245    -4245    -4244    -4244    -4246    -4244    -4244    -4246 
   -4245    -4243    -4245    -4247    -4245    -4243    -4245    -4246 
   -4245    -4246    -4248    -4248    -4247    -4247    -4246    -4244 
   -4245    -4247    -4247    -4246    -4247    -4249    -4247    -4246 
   -4249    -4248    -4246    -4248    -4248    -4248    -4250    -4249 
   -4246    -4247    -4249    -4248    -4247    -4248    -4248    -4249 
   -4252    -4253    -4255    -4257    -4257    -4254    -4252    -4248 
   -4244    -4243    -4243    -4242    -4242    -4244    -4248    -4252 
   -4255    -4258    -4259    -4255    -4250    -4244    -4239    -4234 
   -4228    -4225    -4226    -4228    -4232    -4238    -4247    -4258 
   -4264    -4266    -4267    -4262    -4251    -4243    -4234    -4224 
   -4214    -4211    -4218    -4230    -4245    -4263    -4277    -4280 
   -4273    -4263    -4253    -4243    -4239    -4237    -4236    -4239 
   -4249    -4266    -4281    -4280    -4262    -4241    -4225    -4214 
   -4210    -4210    -4214    -4225    -4239    -4247    -4253    -4262 
   -4276    -4281    -4270    -4245    -4211    -4186    -4191    -4214 
   -4237    -4249    -4241    -4210    -4175    -4163    -4174    -4200 
   -4232    -4265    -4297    -4327    -4346    -4343    -4313    -4268 
   -4229    -4205    -4191    -4181    -4176    -4178    -4194    -4234 
   -4281    -4307    -4298    -4264    -4229    -4224    -4251    -4285 
   -4296    -4268    -4222    -4193    -4196    -4232    -4279    -4303 
   -4291    -4259    -4225    -4184    -4144    -4130    -4148    -4184 
   -4230    -4275    -4311    -4341    -4359    -4352    -4319    -4267 
   -4222    -4204    -4196    -4177    -4164    -4185    -4238    -4302 
   -4347    -4340    -4281    -4209    -4150    -4109    -4102    -4151 
   -4235    -4307    -4333    -4310    -4270    -4255    -4287    -4347 
   -4388    -4371    -4298    -4209    -4153    -4151    -4174    -4188 
   -4183    -4173    -4193    -4247    -4290    -4284    -4243    -4194 
   -4166    -4191    -4275    -4392    -4499    -4547    -4511    -4408 
   -4259    -4101    -3988    -3951    -3980    -4044    -4126    -4218 
   -4324    -4442    -4541    -4578    -4524    -4380    -4197    -4050 
   -3986    -4015    -4102    -4187    -4235    -4249    -4261    -4283 
   -4298    -4283    -4247    -4223    -4241    -4298    -4359    -4395 
   -4394    -4334    -4233    -4164    -4169    -4203    -4206    -4171 
   -4134    -4132    -4182    -4264    -4324    -4318    -4260    -4198 
   -4146    -4099    -4083    -4126    -4237    -4382    -4483    -4490 
   -4430    -4348    -4277    -4227    -4171    -4097    -4050    -4080 
   -4182    -4297    -4342    -4290    -4201    -4154    -4168    -4220 
   -4285    -4323    -4298    -4252    -4251    -4285    -4298    -4270 
   -4225    -4205    -4212    -4218    -4227    -4258    -4312    -4363 
   -4377    -4315    -4179    -4036    -3962    -3978    -4068    -4204 
   -4344    -4444    -4495    -4520    -4521    -4473    -4354    -4177 
   -4003    -3887    -3848    -3907    -4059    -4239    -4376    -4459 
   -4514    -4542    -4515    -4422    -4278    -4108    -3984    -3981 
   -4080    -4196    -4276    -4317    -4349    -4392    -4409    -4376 
   -4318    -4238    -4128    -4040    -4009    -4028    -4102    -4217 
   -4322    -4378    -4384    -4351    -4287    -4217    -4179    -4188 
   -4243    -4327    -4387    -4397    -4371    -4335    -4310    -4282 
   -4211    -4120    -4073    -4102    -4202    -4332    -4430    -4453 
   -4394    -4276    -4130    -4005    -3971    -4052    -4206    -4348 
   -4404    -4351    -4244    -4170    -4178    -4246    -4302    -4301 
   -4259    -4208    -4165    -4161    -4208    -4289    -4377    -4429 
   -4415    -4335    -4226    -4157    -4168    -4219    -4238    -4190 
   -4104    -4046    -4053    -4128    -4259    -4422    -4577    -4650 
   -4568    -4364    -4173    -4069    -4030    -4021    -4021    -4013 
   -4033    -4143    -4327    -4498    -4577    -4514    -4325    -4131 
   -4052    -4087    -4186    -4295    -4349    -4315    -4220    -4136 
   -4145    -4249    -4363    -4400    -4333    -4219    -4150    -4145 
   -4174    -4219    -4253    -4265    -4255    -4222    -4187    -4173 
   -4168    -4149    -4140    -4177    -4248    -4327    -4381    -4365 
   -4289    -4234    -4228    -4233    -4240    -4247    -4208    -4154 
   -4158    -4203    -4256    -4327    -4373    -4345    -4307    -4301 
   -4290    -4295    -4334    -4326    -4232    -4132    -4093    -4093 
   -4109    -4145    -4176    -4206    -4281    -4368    -4417    -4438 
   -4420    -4332    -4199    -4083    -4042    -4104    -4221    -4317 
   -4355    -4336    -4280    -4226    -4223    -4280    -4355    -4382 
   -4329    -4213    -4074    -3991    -4039    -4167    -4270    -4329 
   -4346    -4307    -4264    -4272    -4306    -4343    -4373    -4354 
   -4272    -4166    -4073    -4011    -4008    -4103    -4265    -4405 
   -4467    -4442    -4355    -4256    -4190    -4151    -4106    -4087 
   -4143    -4253    -4369    -4445    -4463    -4442    -4384    -4259 
   -4104    -4003    -3987    -4039    -4141    -4270    -4390    -4461 
   -4439    -4302    -4104    -3968    -3986    -4159    -4386    -4543 
   -4571    -4473    -4311    -4180    -4108    -4070    -4086    -4166 
   -4246    -4288    -4312    -4328    -4315    -4270    -4201    -4112 
   -4062    -4124    -4268    -4402    -4477    -4472    -4382    -4251 
   -4156    -4129    -4123    -4107    -4096    -4088    -4087    -4134 
   -4241    -4315    -4315    -4336    -4404    -4428    -4387    -4320 
   -4241    -4174    -4160    -4198    -4243    -4277    -4302    -4299 
   -4308    -4364    -4382    -4291    -4166    -4091    -4092    -4151 
   -4219    -4257    -4291    -4338    -4378    -4387    -4323    -4192 
   -4098    -4067    -4033    -3993    -3985    -4048    -4211    -4411 
   -4544    -4565    -4485    -4342    -4199    -4102    -4074    -4131 
   -4253    -4375    -4466    -4504    -4438    -4279    -4106    -3975 
   -3921    -3949    -4030    -4151    -4280    -4390    -4489    -4516 
   -4389    -4202    -4097    -4078    -4102    -4159    -4220    -4256 
   -4275    -4285    -4252    -4173    -4120    -4180    -4352    -4522 
   -4578    -4524    -4433    -4330    -4217    -4117    -4045    -4016 
   -4061    -4171    -4291    -4356    -4348    -4321    -4310    -4278 
   -4204    -4118    -4031    -3984    -4069    -4263    -4417    -4467 
   -4442    -4364    -4251    -4144    -4071    -4052    -4104    -4215 
   -4318    -4349    -4302    -4240    -4236    -4295    -4368    -4406 
   -4372    -4284    -4217    -4180    -4126    -4066    -4045    -4083 
   -4175    -4269    -4301    -4280    -4258    -4269    -4328    -4429 
   -4516    -4516    -4418    -4262    -4106    -4009    -3999    -4034 
   -4074    -4138    -4221    -4277    -4305    -4335    -4364    -4388 
   -4403    -4374    -4288    -4211    -4220    -4300    -4370    -4375 
   -4303    -4187    -4124    -4180    -4309    -4440    -4504    -4415 
   -4202    -3993    -3862    -3856    -4005    -4223    -4376    -4425 
   -4394    -4320    -4267    -4261    -4245    -4207    -4191    -4157 
   -4092    -4087    -4138    -4188    -4258    -4354    -4439    -4509 
   -4548    -4508    -4392    -4260    -4166    -4137    -4157    -4175 
   -4153    -4098    -4038    -4012    -4050    -4137    -4242    -4352 
   -4407    -4358    -4260    -4201    -4221    -4319    -4453    -4533 
   -4482    -4333    -4217    -4188    -4165    -4086    -4004    -3984 
   -4023    -4103    -4207    -4287    -4309    -4299    -4293    -4290 
   -4270    -4242    -4249    -4298    -4348    -4366    -4332    -4237 
   -4135    -4097    -4145    -4264    -4372    -4376    -4302    -4239 
   -4189    -4094    -4007    -4050    -4200    -4329    -4368    -4321 
   -4259    -4270    -4356    -4417    -4376    -4248    -4105    -4032 
   -4065    -4136    -4182    -4252    -4388    -4497    -4446    -4254 
   -4063    -3972    -4015    -4185    -4369    -4430    -4362    -4239 
   -4121    -4057    -4086    -4201    -4340    -4443    -4483    -4453 
   -4356    -4256    -4214    -4224    -4282    -4344    -4331    -4294 
   -4307    -4318    -4293    -4249    -4189    -4135    -4124    -4151 
   -4182    -4197    -4194    -4200    -4242    -4316    -4387    -4417 
   -4374    -4292    -4235    -4217    -4231    -4265    -4281    -4258 
   -4191    -4075    -3961    -3958    -4080    -4220    -4319    -4398 
   -4429    -4372    -4264    -4162    -4115    -4168    -4306    -4425 
   -4449    -4384    -4279    -4195    -4160    -4153    -4171    -4202 
   -4219    -4213    -4194    -4189    -4210    -4234    -4256    -4290 
   -4307    -4283    -4247    -4240    -4273    -4342    -4416    -4425 
   -4341    -4218    -4138    -4134    -4179    -4230    -4261    -4249 
   -4195    -4145    -4125    -4124    -4155    -4220    -4264    -4247 
   -4204    -4161    -4131    -4180    -4324    -4461    -4512    -4482 
   -4381    -4231    -4097    -4038    -4085    -4200    -4284    -4278 
   -4205    -4102    -4047    -4128    -4301    -4414    -4401    -4315 
   -4226    -4196    -4240    -4300    -4334    -4348    -4347    -4327 
   -4287    -4242    -4209    -4181    -4161    -4165    -4162    -4132 
   -4142    -4238    -4362    -4455    -4502    -4477    -4378    -4259 
   -4176    -4119    -4040    -3956    -3928    -3969    -4079    -4242 
   -4391    -4474    -4486    -4447    -4397    -4372    -4355    -4327 
   -4314    -4319    -4324    -4328    -4297    -4196    -4061    -3971 
   -3998    -4147    -4340    -4470    -4444    -4280    -4142    -4113 
   -4138    -4185    -4234    -4258    -4291    -4340    -4346    -4311 
   -4291    -4291    -4300    -4309    -4285    -4229    -4169    -4121 
   -4104    -4132    -4186    -4227    -4245    -4254    -4257    -4278 
   -4355    -4464    -4520    -4469    -4331    -4159    -4022    -3983 
   -4040    -4118    -4169    -4194    -4187    -4181    -4254    -4417 
   -4572    -4631    -4569    -4404    -4219    -4086    -3993    -3934 
   -3946    -4038    -4202    -4387    -4498    -4498    -4414    -4272 
   -4119    -4001    -3930    -3945    -4092    -4290    -4404    -4413 
   -4359    -4290    -4287    -4369    -4456    -4463    -4369    -4231 
   -4134    -4121    -4181    -4277    -4342    -4294    -4123    -3928 
   -3802    -3757    -3807    -3984    -4255    -4531    -4743    -4829 
   -4758    -4597    -4449    -4336    -4205    -4008    -3805    -3735 
   -3845    -4031    -4180    -4266    -4317    -4368    -4422    -4427 
   -4335    -4206    -4156    -4202    -4276    -4328    -4356    -4355 
   -4325    -4293    -4266    -4244    -4242    -4245    -4217    -4130 
   -3981    -3853    -3863    -4016    -4238    -4445    -4531    -4499 
   -4442    -4388    -4339    -4315    -4283    -4207    -4111    -4049 
   -4069    -4179    -4319    -4410    -4422    -4355    -4236    -4128 
   -4082    -4085    -4125    -4203    -4298    -4371    -4386    -4328 
   -4248    -4190    -4154    -4136    -4139    -4147    -4150    -4154 
   -4162    -4144    -4096    -4071    -4106    -4197    -4332    -4459 
   -4484    -4386    -4254    -4164    -4135    -4168    -4237    -4286 
   -4296    -4289    -4269    -4208    -4094    -3973    -3920    -3936 
   -3968    -4013    -4104    -4243    -4412    -4572    -4665    -4643 
   -4523    -4398    -4310    -4228    -4166    -4149    -4161    -4188 
   -4177    -4073    -3948    -3934    -4070    -4260    -4364    -4339 
   -4248    -4170    -4177    -4264    -4352    -4405    -4433    -4427 
   -4379    -4298    -4205    -4147    -4169    -4274    -4402    -4470 
   -4456    -4417    -4411    -4433    -4433    -4361    -4231    -4105 
   -4045    -4103    -4242    -4370    -4469    -4532    -4506    -4378 
   -4196    -4001    -3832    -3744    -3749    -3803    -3876    -3960 
   -4053    -4173    -4365    -4619    -4825    -4865    -4742    -4538 
   -4317    -4144    -4082    -4120    -4177    -4179    -4129    -4082 
   -4078    -4118    -4193    -4273    -4303    -4266    -4181    -4047 
   -3900    -3844    -3935    -4130    -4354    -4557    -4701    -4779 
   -4813    -4783    -4658    -4465    -4278    -4159    -4124    -4158 
   -4236    -4331    -4408    -4449    -4437    -4340    -4140    -3902 
   -3759    -3777    -3918    -4112    -4291    -4418    -4512    -4585 
   -4609    -4587    -4558    -4546    -4556    -4575    -4560    -4489 
   -4384    -4305    -4290    -4295    -4256    -4162    -4035    -3900 
   -3825    -3862    -3967    -4075    -4174    -4250    -4275    -4292 
   -4371    -4500    -4608    -4662    -4648    -4562    -4406    -4187 
   -3947    -3774    -3714    -3752    -3863    -4019    -4162    -4283 
   -4407    -4491    -4495    -4414    -4238    -3983    -3719    -3534 
   -3505    -3662    -3978    -4372    -4742    -5015    -5141    -5113 
   -4973    -4772    -4553    -4362    -4217    -4090    -3957    -3824 
   -3732    -3735    -3820    -3894    -3906    -3898    -3919    -4002 
   -4181    -4422    -4625    -4736    -4766    -4745    -4669    -4514 
   -4315    -4157    -4063    -3996    -3950    -3944    -3978    -4054 
   -4160    -4209    -4120    -3935    -3788    -3778    -3920    -4182 
   -4503    -4796    -4955    -4927    -4734    -4433    -4111    -3881 
   -3766    -3733    -3790    -3920    -4057    -4185    -4343    -4533 
   -4681    -4726    -4662    -4477    -4211    -3963    -3778    -3665 
   -3636    -3689    -3828    -4038    -4273    -4496    -4657    -4698 
   -4616    -4456    -4265    -4098    -3990    -3914    -3854    -3869 
   -4010    -4266    -4567    -4774    -4769    -4592    -4392    -4290 
   -4307    -4366    -4379    -4318    -4192    -4053    -4003    -4092 
   -4264    -4432    -4522    -4471    -4275    -4011    -3779    -3661 
   -3702    -3866    -4063    -4215    -4279    -4284    -4297    -4319 
   -4304    -4258    -4229    -4245    -4302    -4386    -4450    -4412 
   -4271    -4139    -4096    -4136    -4213    -4277    -4306    -4319 
   -4325    -4301    -4219    -4095    -4003    -4012    -4108    -4243 
   -4365    -4411    -4386    -4354    -4350    -4394    -4487    -4552 
   -4529    -4441    -4306    -4165    -4122    -4219    -4373    -4483 
   -4486    -4369    -4185    -4030    -4006    -4148    -4379    -4563 
   -4613    -4533    -4378    -4204    -4064    -3965    -3892    -3859 
   -3885    -3986    -4179    -4418    -4617    -4729    -4707    -4536 
   -4306    -4128    -4048    -4077    -4204    -4366    -4479    -4507 
   -4488    -4450    -4376    -4250    -4092    -3941    -3844    -3828 
   -3892    -4005    -4127    -4256    -4385    -4477    -4519    -4508 
   -4418    -4299    -4244    -4256    -4310    -4413    -4520    -4557 
   -4497    -4361    -4197    -4063    -4000    -4016    -4066    -4082 
   -4078    -4114    -4174    -4235    -4306    -4360    -4373    -4369 
   -4362    -4343    -4293    -4202    -4109    -4042    -3976    -3902 
   -3842    -3833    -3924    -4125    -4390    -4645    -4814    -4867 
   -4819    -4681    -4470    -4239    -4044    -3911    -3833    -3792 
   -3771    -3772    -3828    -3934    -4028    -4080    -4108    -4134 
   -4196    -4327    -4471    -4539    -4497    -4358    -4161    -3993 
   -3951    -4065    -4299    -4608    -4907    -5063    -5001    -4763 
   -4464    -4216    -4056    -3952    -3898    -3929    -4045    -4198 
   -4319    -4343    -4249    -4091    -3973    -3956    -4038    -4182 
   -4350    -4512    -4632    -4694    -4707    -4656    -4522    -4348 
   -4212    -4157    -4184    -4264    -4369    -4474    -4533    -4470 
   -4265    -3983    -3717    -3562    -3573    -3695    -3852    -4015 
   -4162    -4294    -4438    -4574    -4647    -4647    -4597    -4503 
   -4399    -4330    -4282    -4229    -4153    -4019    -3854    -3719 
   -3634    -3614    -3672    -3783    -3946    -4169    -4403    -4569 
   -4608    -4516    -4366    -4244    -4196    -4233    -4308    -4358 
   -4382    -4380    -4314    -4185    -4055    -3987    -4021    -4141 
   -4288    -4428    -4538    -4585    -4564    -4486    -4335    -4129 
   -3957    -3908    -4000    -4186    -4393    -4561    -4649    -4627 
   -4522    -4408    -4332    -4287    -4250    -4195    -4126    -4092 
   -4119    -4186    -4265    -4334    -4378    -4390    -4373    -4340 
   -4315    -4319    -4365    -4414    -4381    -4224    -3981    -3745 
   -3612    -3619    -3753    -3974    -4220    -4433    -4562    -4565 
   -4479    -4404    -4421    -4526    -4636    -4660    -4564    -4386 
   -4215    -4117    -4078    -4053    -4008    -3928    -3833    -3764 
   -3765    -3898    -4165    -4448    -4607    -4594    -4460    -4308 
   -4231    -4251    -4328    -4418    -4489    -4518    -4516    -4492 
   -4430    -4318    -4172    -4041    -3971    -3999    -4121    -4262 
   -4333    -4307    -4242    -4209    -4218    -4253    -4291    -4286 
   -4223    -4139    -4078    -4088    -4175    -4272    -4309    -4253 
   -4119    -3991    -3974    -4074    -4201    -4297    -4369    -4442 
   -4533    -4647    -4721    -4652    -4437    -4177    -3958    -3823 
   -3801    -3858    -3947    -4071    -4215    -4337    -4418    -4446 
   -4431    -4432    -4476    -4536    -4570    -4535    -4413    -4231 
   -4015    -3818    -3725    -3771    -3924    -4117    -4259    -4327 
   -4386    -4461    -4520    -4526    -4440    -4270    -4100    -4005 
   -4027    -4150    -4302    -4418    -4457    -4397    -4260    -4112 
   -4020    -4004    -4023    -4054    -4116    -4205    -4279    -4312 
   -4294    -4243    -4202    -4186    -4188    -4209    -4238    -4241 
   -4196    -4121    -4043    -3987    -3980    -4035    -4154    -4303 
   -4427    -4519    -4586    -4593    -4508    -4349    -4160    -4007 
   -3977    -4096    -4289    -4459    -4554    -4549    -4455    -4328 
   -4209    -4097    -4016    -4021    -4116    -4268    -4451    -4624 
   -4716    -4684    -4544    -4330    -4097    -3942    -3943    -4075 
   -4242    -4336    -4296    -4180    -4085    -4061    -4116    -4219 
   -4313    -4386    -4433    -4413    -4314    -4180    -4072    -4039 
   -4098    -4210    -4308    -4362    -4391    -4427    -4477    -4501 
   -4475    -4414    -4336    -4270    -4247    -4256    -4267    -4264 
   -4243    -4201    -4122    -4007    -3897    -3838    -3859    -3978 
   -4167    -4345    -4456    -4484    -4419    -4273    -4089    -3926 
   -3864    -3931    -4089    -4281    -4444    -4534    -4550    -4503 
   -4409    -4317    -4261    -4222    -4195    -4198    -4215    -4215 
   -4206    -4215    -4230    -4218    -4202    -4227    -4273    -4293 
