Origin Time       2025/03/30 22:55:00
Lat.              41.993
Long.             142.725
Depth. (km)       55
Mag.              4.6
Station Code      HDKH06
Station Lat.      42.3498
Station Long.     142.3572
Station Height(m) -105
Record Time       2025/03/30 22:56:11
Sampling Freq(Hz) 100Hz
Duration Time(s)  120
Dir.              1
Scale Factor      2942(gal)/8224139
Max. Acc. (gal)   0.251
Last Correction   2025/03/30 22:56:11
Memo.             
[...]
  107130   107126   107125   107127   107129   107126   107126   107127 
  107126   107127   107127   107126   107126   107127   107125   107125 
  107126   107126   107126   107126   107126   107126   107126   107127 
  107127   107125   107126   107129   107127   107126   107126   107126 
  107126   107125   107126   107126   107126   107125   107126   107126 
  107126   107126   107126   107126   107125   107125   107125   107125 
  107125   107123   107125   107126   107125   107123   107122   107123 
  107126   107126   107123   107123   107123   107123   107127   107129 
  107125   107125   107126   107126   107126   107127   107126   107123 
  107123   107126   107126   107125   107126   107126   107125   107125 
  107127   107126   107125   107123   107126   107125   107123   107125 
  107126   107126   107126   107126   107125   107123   107125   107127 
  107125   107125   107126   107125   107125   107126   107125   107125 
  107126   107125   107126   107127   107126   107125   107123   107123 
  107126   107127   107126   107125   107126   107127   107125   107123 
  107122   107121   107118   107114   107110   107107   107106   107103 
  107104   107107   107110   107111   107111   107109   107106   107102 
  107098   107092   107090   107090   107091   107092   107094   107094 
  107091   107087   107086   107083   107076   107068   107065   107063 
  107061   107064   107061   107052   107044   107038   107040   107053 
  107071   107087   107098   107106   107118   107140   107164   107173 
  107163   107144   107123   107111   107110   107117   107117   107099 
  107088   107106   107137   107149   107129   107092   107075   107113 
  107218   107330   107360   107280   107142   107042   107037   107107 
  107194   107253   107283   107306   107345   107393   107412   107347 
  107231   107157   107145   107137   107100   107048   106999   106996 
  107064   107163   107218   107203   107179   107222   107325   107400 
  107400   107346   107249   107125   107030   107011   107036   107063 
  107088   107123   107148   107142   107118   107100   107087   107057 
  107013   106986   106999   107048   107123   107199   107214   107141 
  107045   107010   107064   107188   107341   107451   107447   107337 
  107234   107204   107164   107032   106879   106829   106898   107023 
  107169   107325   107461   107546   107550   107453   107277   107091 
  106980   106969   106996   107007   107001   106990   106975   106960 
  106957   106978   107007   107033   107071   107138   107225   107299 
  107339   107329   107271   107187   107090   106980   106890   106875 
  106921   106928   106861   106801   106791   106809   106853   106930 
  107023   107125   107250   107372   107430   107385   107266   107150 
  107107   107144   107218   107287   107281   107156   106965   106821 
  106774   106793   106824   106851   106915   107053   107244   107416 
  107500   107477   107385   107268   107149   107063   107037   107068 
  107136   107207   107257   107256   107184   107065   106974   106963 
  106998   107032   107064   107122   107184   107198   107172   107158 
  107163   107165   107172   107181   107175   107156   107146   107131 
  107079   107003   106949   106937   106952   106968   106982   107013 
  107090   107194   107258   107245   107190   107142   107115   107100 
  107113   107152   107194   107198   107148   107075   107032   107042 
  107102   107179   107258   107337   107381   107361   107299   107233 
  107158   107069   107002   106972   106959   106957   106980   107005 
  107009   107025   107090   107184   107245   107235   107171   107110 
  107084   107075   107072   107096   107149   107183   107165   107103 
  107030   106995   107030   107129   107265   107377   107395   107323 
  107237   107175   107117   107060   107029   107029   107042   107057 
  107080   107119   107160   107169   107137   107092   107086   107131 
  107198   107238   107230   107157   107050   106995   107037   107134 
  107214   107244   107246   107262   107295   107302   107248   107138 
  107001   106895   106872   106914   106964   107009   107065   107156 
  107273   107380   107443   107469   107460   107401   107315   107242 
  107192   107150   107115   107102   107100   107083   107040   107001 
  106995   107017   107056   107115   107167   107173   107141   107122 
  107142   107168   107152   107090   107015   106971   106961   106971 
  107013   107091   107169   107208   107223   107253   107284   107266 
  107184   107079   107015   107002   107005   107007   107030   107087 
  107156   107199   107199   107171   107144   107131   107131   107114 
  107055   106975   106918   106909   106972   107080   107152   107148 
  107096   107023   106956   106936   106980   107065   107157   107230 
  107265   107287   107329   107352   107293   107187   107115   107106 
  107126   107152   107175   107171   107137   107109   107114   107136 
  107145   107141   107130   107096   107033   106967   106920   106890 
  106890   106942   107037   107134   107234   107330   107395   107416 
  107395   107335   107246   107131   107021   106941   106878   106822 
  106802   106852   106972   107137   107293   107388   107396   107326 
  107212   107087   106976   106924   106938   106995   107083   107200 
  107300   107350   107365   107356   107306   107218   107134   107083 
  107056   107037   107032   107049   107104   107187   107256   107293 
  107302   107284   107241   107160   107048   106956   106930   106953 
  106960   106925   106875   106880   106992   107156   107275   107323 
  107333   107315   107284   107268   107284   107310   107300   107265 
  107249   107249   107222   107169   107111   107044   106983   106949 
  106949   106978   107017   107052   107098   107152   107172   107150 
  107141   107176   107233   107285   107318   107312   107268   107234 
  107245   107261   107246   107223   107200   107160   107099   107028 
  106963   106915   106910   106952   107018   107080   107114   107133 
  107172   107219   107226   107190   107145   107103   107056   107005 
  106969   106961   106968   106999   107083   107175   107196   107140 
  107090   107102   107157   107221   107268   107283   107273   107250 
  107214   107169   107106   106980   106810   106690   106694   106797 
  106932   107068   107184   107253   107284   107300   107312   107316 
  107295   107250   107200   107165   107153   107150   107122   107065 
  107025   107022   107041   107071   107110   107140   107130   107088 
  107050   107019   106987   106990   107071   107203   107320   107374 
  107361   107312   107253   107184   107117   107063   107034   107044 
  107073   107080   107044   107003   107002   107044   107118   107210 
  107285   107304   107257   107160   107052   106974   106938   106955 
  107015   107079   107107   107102   107100   107118   107126   107098 
  107046   106999   106983   107014   107087   107167   107215   107212 
  107176   107152   107161   107179   107180   107168   107157   107146 
  107111   107046   106984   106959   106971   107005   107042   107083 
  107146   107233   107299   107323   107315   107283   107226   107175 
  107164   107180   107199   107211   107207   107165   107072   106942 
  106832   106809   106899   107046   107167   107242   107300   107352 
  107392   107419   107400   107314   107211   107149   107121   107102 
  107096   107099   107094   107090   107100   107096   107055   107013 
  107028   107083   107130   107160   107177   107195   107222   107256 
  107273   107252   107195   107134   107096   107086   107075   107037 
  107007   107036   107090   107090   107018   106949   106940   106969 
  107003   107036   107065   107084   107113   107165   107221   107226 
  107187   107149   107123   107083   107015   106947   106921   106967 
  107082   107221   107318   107333   107279   107214   107179   107152 
  107107   107055   106990   106901   106813   106767   106801   106920 
  107069   107204   107310   107380   107410   107412   107377   107310 
  107246   107202   107156   107103   107071   107050   107018   107002 
  107040   107117   107198   107258   107277   107252   107217   107206 
  107211   107200   107160   107106   107053   107023   107030   107057 
  107076   107091   107123   107177   107244   107303   107335   107326 
  107283   107230   107171   107096   107018   106983   107018   107090 
  107133   107141   107146   107164   107160   107115   107052   106984 
  106902   106840   106855   106933   107015   107080   107156   107256 
  107364   107439   107447   107383   107264   107130   107017   106947 
  106937   106969   107010   107060   107129   107198   107253   107304 
  107342   107349   107330   107287   107212   107144   107130   107154 
  107157   107130   107095   107063   107033   107025   107059   107113 
  107164   107208   107245   107269   107281   107288   107307   107330 
  107330   107307   107289   107295   107299   107269   107208   107144 
  107107   107113   107133   107131   107107   107071   107023   106982 
  106975   107006   107057   107104   107137   107163   107192   107234 
  107272   107262   107200   107126   107087   107083   107073   107021 
  106932   106847   106789   106766   106778   106816   106852   106864 
  106874   106903   106948   107001   107057   107111   107156   107200 
  107233   107226   107185   107137   107094   107057   107040   107063 
  107113   107149   107146   107106   107055   107023   107022   107049 
  107088   107102   107071   107022   106982   106951   106940   106963 
  107010   107067   107114   107138   107136   107115   107082   107050 
  107042   107048   107038   107011   106976   106933   106903   106925 
  106983   107037   107083   107138   107185   107190   107133   107044 
  106975   106955   106971   107003   107041   107079   107121   107152 
  107140   107086   107034   107029   107086   107199   107337   107449 
  107495   107469   107404   107338   107288   107244   107188   107121 
  107056   107007   106996   107034   107091   107123   107154   107217 
  107289   107329   107335   107334   107322   107311   107320   107335 
  107322   107300   107323   107412   107522   107578   107554   107474 
  107374   107280   107211   107165   107136   107152   107218   107283 
  107310   107307   107283   107252   107241   107276   107338   107373 
  107369   107377   107426   107473   107484   107472   107450   107408 
  107342   107262   107176   107084   107002   106942   106913   106933 
  107013   107115   107188   107227   107242   107233   107208   107171 
  107114   107042   106947   106837   106775   106794   106861   106941 
  107017   107077   107125   107142   107115   107067   107033   107019 
  107001   106957   106902   106861   106863   106903   106947   106975 
  107005   107041   107086   107140   107195   107230   107218   107149 
  107036   106897   106767   106698   106716   106779   106829   106856 
  106888   106952   107056   107191   107308   107362   107343   107258 
  107137   107044   107030   107084   107153   107212   107249   107242 
  107203   107156   107100   107028   106934   106830   106763   106762 
  106816   106907   107017   107117   107198   107254   107279   107254 
  107183   107095   107001   106903   106829   106795   106793   106828 
  106907   107010   107113   107206   107261   107265   107250   107252 
  107271   107292   107319   107349   107352   107310   107227   107106 
  106961   106832   106745   106702   106682   106694   106767   106890 
  107036   107187   107326   107437   107526   107612   107696   107739 
  107694   107557   107377   107233   107168   107161   107152   107113 
  107056   106987   106915   106867   106845   106829   106828   106868 
  106963   107094   107244   107391   107487   107480   107381   107241 
  107106   106999   106914   106849   106830   106868   106941   107028 
  107104   107152   107167   107158   107138   107115   107103   107111 
  107146   107191   107206   107158   107071   107009   107002   107046 
  107126   107226   107350   107499   107632   107707   107715   107665 
  107565   107423   107248   107064   106901   106793   106775   106857 
  107003   107168   107330   107472   107545   107532   107465   107373 
  107257   107126   107028   106998   107017   107049   107090   107154 
  107229   107281   107299   107275   107194   107069   106947   106863 
  106814   106780   106753   106747   106776   106859   106975   107080 
  107144   107160   107131   107065   106995   106967   107013   107134 
  107281   107389   107427   107397   107327   107253   107184   107114 
  107044   106988   106961   106953   106960   106994   107061   107142 
  107217   107280   107330   107352   107333   107291   107250   107233 
  107237   107227   107179   107115   107071   107050   107033   106984 
  106884   106758   106666   106659   106736   106860   106999   107140 
  107275   107385   107445   107445   107416   107388   107366   107325 
  107235   107113   106992   106903   106856   106853   106895   106971 
  107037   107053   107040   107028   107010   106983   106964   106960 
  106960   106949   106940   106949   106983   107046   107141   107248 
  107342   107404   107427   107401   107320   107191   107019   106833 
  106677   106591   106597   106678   106803   106938   107032   107050 
  107013   106957   106909   106878   106866   106879   106911   106948 
  106986   107038   107118   107238   107400   107569   107707   107798 
  107829   107781   107669   107530   107384   107250   107165   107156 
  107214   107292   107352   107383   107391   107383   107374   107356 
  107302   107212   107115   107046   107021   107003   106976   106978 
  107036   107127   107215   107268   107265   107230   107196   107176 
  107157   107148   107158   107169   107167   107169   107187   107210 
  107226   107227   107226   107244   107276   107306   107323   107329 
  107325   107302   107254   107199   107163   107148   107121   107046 
  106926   106809   106735   106701   106695   106713   106744   106772 
  106803   106847   106897   106928   106922   106902   106903   106925 
  106940   106945   106960   107001   107076   107177   107276   107343 
  107369   107361   107341   107323   107295   107234   107146   107049 
  106983   106986   107044   107118   107171   107194   107206   107217 
  107218   107217   107218   107202   107167   107131   107100   107088 
  107111   107161   107210   107237   107234   107194   107100   106964 
  106847   106795   106802   106830   106860   106880   106888   106888 
  106891   106898   106911   106942   107001   107092   107212   107339 
  107453   107523   107532   107480   107389   107310   107265   107242 
  107227   107214   107185   107131   107083   107059   107053   107053 
  107049   107033   107017   107019   107041   107068   107077   107049 
  106998   106955   106934   106951   106998   107056   107133   107249 
  107392   107522   107609   107654   107657   107605   107504   107404 
  107354   107365   107418   107474   107512   107519   107480   107401 
  107327   107287   107283   107319   107381   107431   107442   107408 
  107338   107246   107157   107068   106988   106932   106883   106836 
  106806   106813   106868   106957   107037   107076   107098   107144 
  107203   107231   107199   107118   107026   106956   106929   106942 
  106974   107011   107063   107118   107149   107148   107131   107109 
  107094   107114   107173   107238   107271   107261   107212   107115 
  107001   106917   106878   106875   106893   106907   106911   106897 
  106852   106779   106714   106702   106756   106863   106996   107129 
  107245   107341   107426   107493   107514   107461   107350   107199 
  107021   106829   106658   106542   106490   106488   106531   106627 
  106756   106890   107017   107136   107219   107242   107217   107161 
  107083   107005   106963   106967   107010   107082   107168   107230 
  107237   107199   107157   107148   107179   107245   107335   107419 
  107472   107492   107465   107392   107304   107238   107211   107202 
  107173   107123   107087   107094   107141   107196   107242   107269 
  107271   107261   107260   107262   107258   107256   107261   107261 
  107238   107184   107098   106992   106905   106872   106902   106971 
  107041   107092   107130   107169   107198   107200   107179   107146 
  107102   107044   106975   106899   106833   106795   106772   106748 
  106733   106739   106762   106797   106829   106847   106861   106895 
  106949   107032   107136   107242   107325   107370   107383   107357 
  107302   107257   107250   107277   107316   107352   107372   107370 
  107341   107296   107261   107253   107269   107298   107322   107334 
  107346   107360   107366   107369   107368   107358   107342   107327 
  107326   107318   107275   107199   107111   107022   106956   106924 
  106922   106956   107023   107106   107185   107257   107312   107339 
  107349   107368   107408   107451   107462   107426   107343   107234 
  107123   107034   106968   106914   106866   106832   106825   106844 
  106876   106909   106940   106969   106994   107023   107064   107090 
  107077   107037   106987   106940   106910   106921   106967   107014 
  107034   107028   107007   106982   106960   106949   106944   106940 
  106953   106987   107028   107063   107090   107119   107156   107183 
  107190   107192   107211   107238   107265   107303   107345   107369 
  107377   107381   107377   107358   107330   107299   107271   107233 
  107173   107104   107053   107034   107049   107096   107171   107250 
  107303   107304   107257   107169   107065   106974   106903   106861 
  106849   106852   106855   106871   106911   106969   107030   107099 
  107169   107222   107246   107242   107223   107208   107203   107198 
  107190   107187   107183   107180   107181   107199   107239   107285 
  107311   107306   107279   107248   107229   107211   107179   107152 
  107148   107148   107131   107096   107050   107005   106964   106936 
  106911   106891   106898   106945   107018   107099   107188   107288 
  107376   107431   107442   107406   107339   107271   107206   107144 
  107084   107028   106988   106980   106995   107015   107046   107098 
  107160   107200   107202   107184   107164   107141   107119   107109 
  107107   107118   107137   107137   107090   107015   106957   106949 
  106986   107044   107104   107169   107246   107342   107445   107505 
  107480   107388   107285   107206   107144   107080   107015   106960 
  106925   106914   106929   106963   107006   107052   107100   107154 
  107192   107191   107160   107126   107103   107095   107100   107114 
  107133   107157   107194   107235   107261   107258   107225   107164 
  107095   107042   107022   107010   106976   106932   106911   106944 
  107023   107114   107190   107229   107223   107198   107171   107154 
  107148   107134   107110   107082   107059   107053   107068   107095 
  107115   107115   107092   107052   107001   106944   106884   106839 
  106821   106825   106837   106861   106918   107006   107110   107200 
  107262   107307   107352   107397   107424   107411   107354   107273 
  107184   107099   107021   106949   106898   106883   106902   106941 
  106994   107034   107041   107015   106974   106932   106906   106905 
