Origin Time       2025/03/30 22:55:00
Lat.              41.993
Long.             142.725
Depth. (km)       55
Mag.              4.6
Station Code      HDKH07
Station Lat.      42.1330
Station Long.     142.9164
Station Height(m) -61
Record Time       2025/03/30 22:56:07
Sampling Freq(Hz) 100Hz
Duration Time(s)  120
Dir.              2
Scale Factor      2942(gal)/8224139
Max. Acc. (gal)   1.165
Last Correction   2025/03/30 22:56:07
Memo.             
[...]
  133520   133517   133519   133519   133516   133519   133520   133521 
  133520   133517   133519   133521   133520   133519   133520   133520 
  133519   133519   133520   133520   133519   133520   133521   133519 
  133520   133519   133520   133524   133520   133516   133520   133521 
  133519   133520   133520   133517   133519   133521   133520   133520 
  133519   133519   133520   133521   133523   133521   133520   133520 
  133519   133517   133519   133520   133519   133520   133521   133521 
  133520   133519   133520   133519   133521   133524   133519   133516 
  133520   133519   133516   133519   133519   133519   133520   133520 
  133519   133519   133517   133519   133521   133523   133520   133519 
  133519   133521   133523   133521   133521   133524   133523   133523 
  133521   133520   133523   133524   133521   133521   133521   133519 
  133519   133523   133523   133521   133523   133521   133521   133523 
  133523   133523   133525   133524   133521   133523   133524   133523 
  133521   133521   133524   133525   133523   133521   133524   133525 
  133525   133523   133523   133523   133523   133524   133523   133523 
  133524   133524   133523   133524   133525   133524   133523   133523 
  133525   133525   133524   133525   133525   133524   133523   133525 
  133524   133523   133524   133523   133523   133524   133527   133524 
  133523   133523   133523   133523   133525   133525   133523   133523 
  133523   133521   133523   133524   133521   133521   133524   133525 
  133524   133524   133525   133521   133521   133524   133523   133520 
  133523   133523   133523   133521   133521   133523   133523   133521 
  133523   133523   133521   133521   133521   133523   133524   133523 
  133520   133520   133521   133521   133521   133524   133523   133520 
  133521   133523   133520   133519   133523   133525   133524   133523 
  133521   133519   133520   133521   133517   133519   133523   133521 
  133520   133520   133519   133519   133521   133520   133520   133520 
  133520   133521   133520   133521   133521   133519   133519   133520 
  133519   133519   133520   133519   133519   133519   133520   133520 
  133520   133520   133520   133521   133521   133519   133519   133521 
  133521   133520   133520   133520   133519   133519   133520   133520 
  133519   133517   133517   133520   133523   133520   133519   133520 
  133520   133517   133517   133519   133519   133520   133519   133517 
  133520   133520   133520   133520   133519   133517   133519   133521 
  133520   133519   133517   133517   133517   133517   133520   133519 
  133516   133516   133519   133519   133520   133520   133520   133520 
  133517   133517   133520   133519   133519   133521   133520   133517 
  133519   133520   133517   133519   133519   133516   133516   133519 
  133519   133519   133520   133521   133520   133517   133516   133517 
  133519   133520   133520   133520   133519   133517   133519   133517 
  133517   133519   133519   133517   133517   133519   133521   133521 
  133520   133521   133523   133521   133520   133521   133521   133521 
  133521   133520   133521   133520   133519   133520   133521   133521 
  133523   133521   133519   133519   133521   133521   133519   133519 
  133520   133519   133520   133523   133521   133520   133519   133519 
  133520   133520   133519   133520   133521   133521   133521   133521 
  133521   133523   133523   133523   133524   133524   133521   133521 
  133521   133520   133521   133521   133521   133523   133521   133520 
  133523   133521   133520   133521   133523   133523   133521   133521 
  133523   133525   133524   133523   133523   133524   133524   133524 
  133523   133521   133523   133525   133525   133523   133523   133524 
  133523   133521   133521   133521   133523   133521   133520   133521 
  133521   133523   133523   133521   133520   133523   133524   133523 
  133520   133521   133521   133521   133521   133520   133524   133525 
  133524   133523   133523   133521   133520   133521   133521   133521 
  133521   133521   133520   133520   133523   133521   133520   133521 
  133521   133520   133521   133521   133521   133520   133520   133520 
  133519   133520   133520   133519   133519   133520   133523   133521 
  133520   133521   133521   133520   133521   133521   133523   133524 
  133521   133520   133523   133520   133520   133524   133523   133520 
  133521   133521   133521   133521   133521   133521   133523   133524 
  133521   133519   133520   133520   133521   133523   133523   133521 
  133520   133520   133521   133521   133520   133521   133523   133520 
  133519   133521   133521   133520   133521   133523   133521   133520 
  133520   133523   133523   133521   133521   133523   133520   133520 
  133521   133521   133523   133521   133519   133520   133519   133519 
  133523   133524   133521   133520   133521   133520   133521   133524 
  133521   133520   133524   133524   133519   133520   133521   133521 
  133523   133523   133523   133521   133520   133520   133523   133520 
  133520   133523   133521   133520   133520   133520   133519   133520 
  133521   133519   133517   133519   133520   133519   133521   133524 
  133521   133519   133523   133523   133520   133519   133519   133520 
  133521   133521   133520   133520   133520   133520   133520   133521 
  133524   133523   133519   133520   133521   133521   133521   133521 
  133521   133521   133521   133520   133519   133520   133520   133520 
  133520   133521   133520   133520   133521   133521   133520   133520 
  133520   133520   133520   133521   133520   133519   133519   133521 
  133520   133519   133520   133520   133519   133520   133521   133521 
  133520   133520   133520   133517   133520   133521   133519   133519 
  133521   133521   133521   133521   133521   133523   133521   133521 
  133524   133524   133527   133533   133539   133540   133543   133539 
  133525   133506   133482   133458   133438   133427   133435   133459 
  133492   133531   133577   133614   133637   133627   133560   133440 
  133316   133239   133227   133284   133411   133600   133824   133990 
  133984   133791   133543   133396   133389   133397   133320   133270 
  133405   133708   134010   134145   134084   133866   133477   133024 
  132771   132881   133253   133616   133882   134104   134238   134239 
  134042   133539   132960   132622   132482   132513   132889   133587 
  134298   134650   134437   133915   133662   133780   133708   133119 
  132368   132024   132310   132987   133718   134349   134815   135041 
  134887   134364   133725   133092   132436   131954   131912   132297 
  133011   133933   134680   134839   134424   133820   133400   133278 
  133216   133031   133073   133548   133888   133639   133197   133114 
  133400   133743   133914   133810   133548   133533   133830   133917 
  133614   133458   133685   133774   133428   133030   132827   132760 
  132869   133213   133690   134064   134212   134185   134064   134025 
  134011   133666   133078   132648   132529   132923   133659   134086 
  134060   133809   133397   133092   133154   133338   133285   133092 
  133080   133299   133465   133423   133462   133720   133814   133533 
  133195   133290   133893   134346   134033   133334   133084   133315 
  133386   133170   133081   133286   133660   134032   134195   134065 
  133725   133320   133056   133141   133483   133682   133616   133554 
  133559   133571   133706   133937   134092   134172   134090   133614 
  133072   133010   133294   133606   133872   133932   133771   133590 
  133469   133386   133267   133122   133130   133316   133591   133948 
  134177   134005   133614   133459   133706   134065   134010   133451 
  132892   132723   132948   133407   133810   133866   133583   133249 
  133078   133053   133123   133284   133452   133641   133920   134056 
  133848   133508   133205   133027   133205   133598   133751   133683 
  133609   133431   133259   133401   133760   133999   133834   133304 
  132899   132933   133247   133681   133996   133894   133577   133455 
  133494   133582   133789   133941   133759   133455   133408   133474 
  133505   133596   133571   133424   133436   133459   133313   133222 
  133307   133443   133394   133100   132926   133119   133373   133393 
  133382   133577   133782   133735   133451   133172   133242   133606 
  133748   133598   133654   134060   134383   134237   133733   133273 
  133158   133301   133253   132941   132885   133300   133830   134153 
  134188   133974   133656   133447   133361   133239   133173   133324 
  133486   133513   133489   133440   133465   133589   133532   133151 
  132825   133008   133571   134037   134161   134065   133964   133713 
  133358   133401   133666   133650   133601   133724   133751   133544 
  133201   132948   132962   133296   133779   133994   133926   133810 
  133458   132949   132826   133245   133793   133947   133645   133321 
  133348   133674   133952   134029   133964   133709   133382   133209 
  133177   133312   133564   133643   133571   133620   133745   133677 
  133344   133023   133085   133515   133809   133686   133456   133301 
  133168   133274   133664   133945   133940   133797   133609   133510 
  133620   133664   133454   133313   133385   133461   133493   133425 
  133204   133141   133505   134009   134152   133909   133652   133527 
  133398   133239   133172   133240   133380   133467   133451   133393 
  133347   133425   133651   133752   133670   133600   133479   133272 
  133199   133401   133687   133726   133532   133348   133313   133527 
  133832   133833   133536   133321   133311   133315   133262   133316 
  133497   133618   133655   133639   133547   133555   133764   133913 
  133785   133498   133309   133343   133447   133501   133672   133915 
  133882   133543   133132   132880   133035   133478   133714   133582 
  133408   133377   133390   133416   133375   133196   133100   133300 
  133728   134152   134322   134262   134227   134192   133956   133633 
  133494   133586   133745   133736   133473   133116   132912   132933 
  133101   133420   133802   134029   134041   133840   133554   133432 
  133344   133130   133118   133463   133812   133906   133795   133582 
  133432   133443   133470   133411   133398   133485   133569   133621 
  133679   133748   133767   133725   133614   133362   133027   132821 
  132825   133011   133316   133609   133782   133836   133847   133879 
  133913   133878   133744   133501   133181   132934   132858   132861 
  132914   133058   133250   133482   133768   133987   134064   134060 
  133948   133674   133423   133359   133366   133324   133261   133280 
  133446   133645   133770   133847   133855   133682   133380   133170 
  133204   133456   133775   133959   133926   133751   133509   133315 
  133340   133556   133686   133664   133702   133756   133648   133500 
  133411   133323   133286   133249   133131   133138   133347   133547 
  133602   133552   133513   133563   133637   133613   133479   133343 
  133285   133308   133343   133296   133235   133338   133550   133672 
  133637   133479   133335   133313   133339   133348   133398   133497 
  133589   133697   133824   133868   133867   133883   133824   133752 
  133731   133581   133343   133270   133382   133544   133659   133639 
  133531   133509   133618   133759   133867   133880   133697   133401 
  133240   133269   133394   133609   133836   133901   133752   133498 
  133357   133425   133536   133540   133528   133645   133782   133628 
  133193   132846   132771   132879   133095   133397   133767   134096 
  134141   133839   133448   133159   132969   132908   133062   133388 
  133695   133833   133806   133709   133590   133462   133361   133242 
  133128   133174   133294   133408   133706   134072   134148   133975 
  133799   133582   133281   133111   133151   133211   133273   133452 
  133695   133930   134100   134017   133713   133585   133686   133623 
  133361   133235   133340   133554   133732   133708   133559   133578 
  133771   133888   133822   133639   133456   133398   133474   133560 
  133566   133504   133335   133104   133058   133230   133369   133390 
  133382   133459   133686   133921   133979   133899   133817   133814 
  133895   134017   134115   134119   133984   133736   133521   133540 
  133857   134339   134761   134973   135101   135291   135346   135047 
  134555   134158   133874   133577   133382   133564   134061   134501 
  134592   134230   133566   132943   132579   132444   132345   132054 
  131585   131226   131126   131274   131631   131994   132140   132177 
  132343   132602   132725   132695   132723   132834   132900   132992 
  133226   133469   133574   133668   133794   133682   133211   132653 
  132371   132489   132791   132952   132798   132402   132101   132197 
  132675   133320   133834   133965   133732   133332   132961   132765 
  132808   133078   133544   134129   134639   134894   134896   134676 
  134196   133623   133258   133128   133093   133199   133520   133995 
  134433   134568   134338   133965   133628   133292   132934   132773 
  133068   133705   134311   134690   134910   135125   135373   135499 
  135419   135213   134893   134424   133844   133181   132534   132155 
  132231   132617   132995   133218   133312   133327   133270   133104 
  132871   132657   132518   132499   132534   132476   132345   132367 
  132732   133407   134299   135305   136167   136665   136777   136505 
  135918   135279   134794   134551   134615   134871   135018   134867 
  134411   133632   132553   131477   130767   130428   130339   130555 
  131116   131895   132675   133297   133736   133992   134015   133843 
  133721   133849   134233   134862   135646   136283   136502   136233 
  135627   134912   134181   133585   133404   133667   134079   134347 
  134327   133929   133208   132467   131919   131485   131094   130873 
  130927   131205   131665   132318   133064   133658   133996   134211 
  134410   134578   134639   134503   134254   134044   133812   133492 
  133215   133064   132999   132989   133041   133168   133319   133425 
  133539   133745   133980   134068   133897   133442   132765   132159 
  131990   132281   132753   133199   133535   133708   133702   133563 
  133421   133400   133497   133650   133810   133979   134191   134408 
  134496   134307   133836   133304   132925   132713   132628   132630 
  132605   132571   132742   133193   133764   134275   134561   134464 
  134034   133564   133289   133290   133594   134075   134481   134663 
  134582   134208   133632   133022   132507   132221   132291   132717 
  133350   133998   134451   134530   134207   133662   133081   132560 
  132136   131845   131711   131703   131799   132009   132283   132590 
  132988   133483   133964   134306   134474   134530   134491   134374 
  134283   134211   134007   133620   133174   132786   132507   132452 
  132763   133375   134030   134547   134937   135230   135342   135232 
  134906   134350   133712   133242   132999   132962   133097   133288 
  133455   133574   133631   133651   133670   133747   133963   134298 
  134613   134828   134937   134908   134661   134206   133699   133317 
  133126   133110   133201   133350   133560   133751   133718   133380 
  132883   132420   132084   131923   131915   131935   131927   131970 
  132170   132544   132993   133334   133432   133350   133274   133316 
  133498   133860   134364   134827   135095   135202   135251   135249 
  135176   135067   134902   134644   134311   133895   133425   133033 
  132803   132759   132911   133168   133358   133420   133386   133240 
  133006   132838   132817   132833   132834   132885   132983   133069 
  133083   132992   132891   132888   132939   133008   133135   133266 
  133342   133382   133365   133222   132980   132741   132526   132310 
  132167   132220   132526   133085   133832   134650   135356   135783 
  135924   135815   135452   134940   134439   134001   133621   133315 
  133080   132868   132598   132250   131943   131800   131808   131935 
  132194   132555   132957   133343   133589   133544   133224   132841 
  132621   132671   133019   133631   134366   135022   135496   135818 
  136048   136174   136094   135769   135329   134941   134670   134476 
  134283   134077   133848   133508   133038   132618   132451   132568 
  132875   133277   133728   134172   134535   134819   135033   135109 
  135004   134770   134480   134177   133884   133632   133444   133278 
  133095   132858   132518   132100   131724   131480   131452   131734 
  132270   132811   133149   133262   133240   133154   133014   132781 
  132507   132332   132309   132422   132696   133116   133582   134003 
  134295   134368   134191   133787   133258   132790   132440   132112 
  131842   131800   132011   132370   132845   133373   133814   134091 
  134219   134249   134256   134304   134399   134487   134524   134462 
  134208   133751   133247   132875   132659   132568   132598   132746 
  133019   133361   133624   133733   133766   133840   133972   134079 
  134106   134044   133930   133853   133844   133868   133934   134086 
  134331   134626   134873   134977   134941   134836   134639   134287 
  133818   133354   132960   132667   132510   132445   132381   132293 
  132229   132248   132375   132567   132761   132946   133154   133393 
  133578   133643   133647   133643   133601   133539   133519   133544 
  133582   133624   133660   133710   133853   134118   134372   134454 
  134362   134169   133901   133631   133475   133432   133429   133459 
  133532   133602   133600   133475   133250   133049   133006   133153 
  133401   133640   133856   134100   134334   134422   134307   134046 
  133756   133547   133435   133382   133409   133521   133672   133847 
  134050   134239   134330   134262   134059   133795   133531   133304 
  133154   133087   133062   133101   133278   133546   133775   133925 
  133969   133883   133762   133732   133806   133909   133961   133934 
  133843   133735   133674   133713   133828   133926   133938   133871 
  133735   133525   133261   132987   132753   132580   132499   132545 
  132678   132844   133051   133281   133477   133624   133716   133709 
  133594   133428   133253   133085   132962   132877   132795   132752 
  132808   132935   133047   133103   133127   133159   133238   133380 
  133562   133736   133843   133861   133841   133829   133844   133884 
  133903   133839   133693   133550   133501   133573   133733   133902 
  133999   133978   133853   133720   133648   133604   133512   133375 
  133282   133297   133392   133516   133660   133845   134038   134163 
  134164   134086   134015   133974   133906   133775   133605   133420 
  133232   133072   132989   133007   133095   133227   133369   133466 
  133510   133494   133374   133169   132987   132904   132926   133024 
  133146   133232   133266   133234   133116   132961   132841   132763 
  132711   132694   132736   132867   133083   133346   133623   133856 
  134003   134064   134040   133929   133713   133362   132961   132683 
  132590   132652   132853   133166   133510   133787   133978   134126 
  134252   134354   134434   134441   134322   134095   133814   133510 
