Origin Time       2025/03/30 22:55:00
Lat.              41.993
Long.             142.725
Depth. (km)       55
Mag.              4.6
Station Code      HDKH02
Station Lat.      42.7061
Station Long.     142.4054
Station Height(m) 120
Record Time       2025/03/30 22:56:13
Sampling Freq(Hz) 100Hz
Duration Time(s)  120
Dir.              2
Scale Factor      2940(gal)/6170270
Max. Acc. (gal)   0.191
Last Correction   2025/03/30 22:55:58
Memo.             
[...]
   55785    55786    55787    55787    55784    55784    55787    55787 
   55784    55785    55787    55787    55786    55785    55786    55786 
   55785    55786    55789    55789    55789    55793    55798    55800 
   55801    55800    55795    55788    55783    55779    55775    55777 
   55781    55790    55809    55830    55842    55843    55829    55808 
   55785    55764    55744    55720    55699    55702    55732    55786 
   55853    55901    55909    55887    55855    55830    55812    55779 
   55711    55631    55587    55610    55694    55795    55861    55881 
   55869    55856    55872    55923    55963    55927    55804    55649 
   55524    55475    55514    55605    55693    55742    55753    55774 
   55851    55983    56102    56124    56021    55831    55615    55448 
   55397    55480    55653    55815    55883    55872    55847    55845 
   55866    55897    55911    55878    55786    55661    55571    55576 
   55677    55798    55862    55870    55855    55826    55811    55838 
   55902    55954    55929    55813    55673    55576    55535    55543 
   55595    55682    55780    55861    55915    55941    55940    55916 
   55878    55842    55825    55812    55788    55763    55747    55748 
   55761    55761    55738    55708    55685    55697    55757    55817 
   55819    55777    55736    55713    55729    55798    55888    55955 
   55986    55977    55945    55921    55897    55834    55714    55580 
   55481    55435    55452    55542    55696    55862    55997    56099 
   56147    56094    55952    55792    55674    55632    55628    55604 
   55582    55612    55685    55778    55896    56037    56125    56070 
   55888    55678    55533    55482    55498    55574    55730    55892 
   55961    55968    55981    55985    55945    55879    55830    55798 
   55743    55660    55601    55624    55709    55757    55761    55800 
   55842    55822    55782    55772    55776    55757    55690    55631 
   55662    55760    55851    55921    55985    56008    55956    55859 
   55761    55669    55599    55559    55541    55571    55646    55712 
   55779    55890    55995    56034    56007    55916    55790    55684 
   55604    55563    55614    55741    55863    55936    55964    55946 
   55892    55860    55856    55804    55704    55639    55625    55628 
   55669    55772    55876    55921    55936    55940    55904    55845 
   55783    55708    55663    55680    55692    55675    55706    55789 
   55841    55858    55891    55896    55856    55854    55894    55903 
   55884    55849    55776    55683    55617    55603    55639    55713 
   55813    55898    55931    55904    55826    55752    55738    55747 
   55729    55710    55713    55721    55731    55781    55873    55928 
   55908    55846    55764    55697    55689    55700    55674    55636 
   55635    55677    55748    55842    55935    55977    55959    55910 
   55842    55770    55726    55714    55710    55689    55651    55633 
   55662    55722    55791    55841    55852    55837    55817    55809 
   55824    55855    55877    55865    55825    55784    55741    55697 
   55676    55684    55708    55748    55801    55855    55890    55877 
   55810    55728    55681    55691    55735    55767    55762    55742 
   55738    55752    55782    55844    55907    55906    55851    55815 
   55810    55794    55758    55723    55702    55696    55710    55730 
   55751    55796    55850    55864    55839    55820    55794    55725 
   55688    55750    55808    55798    55783    55780    55803    55868 
   55903    55887    55867    55817    55728    55675    55696    55733 
   55720    55693    55696    55698    55704    55739    55783    55838 
   55893    55911    55915    55930    55924    55880    55812    55751 
   55719    55692    55695    55763    55821    55811    55786    55793 
   55805    55800    55798    55797    55792    55793    55791    55791 
   55841    55902    55883    55825    55802    55777    55742    55755 
   55807    55839    55834    55791    55724    55676    55665    55652 
   55637    55664    55726    55796    55855    55890    55918    55956 
   55946    55874    55825    55805    55753    55687    55652    55648 
   55679    55729    55755    55762    55790    55816    55789    55754 
   55769    55777    55731    55699    55726    55787    55847    55885 
   55904    55905    55864    55805    55777    55756    55713    55674 
   55663    55684    55712    55721    55733    55760    55771    55761 
   55762    55779    55805    55848    55904    55926    55900    55877 
   55848    55778    55738    55755    55749    55729    55757    55800 
   55810    55790    55769    55753    55720    55689    55703    55734 
   55749    55773    55832    55890    55884    55836    55827    55850 
   55846    55801    55731    55680    55698    55730    55696    55649 
   55675    55736    55756    55767    55819    55868    55876    55878 
   55900    55919    55894    55819    55732    55675    55693    55780 
   55831    55806    55769    55747    55740    55759    55780    55789 
   55805    55819    55806    55767    55750    55802    55864    55878 
   55866    55831    55790    55782    55801    55832    55855    55826 
   55763    55720    55716    55737    55736    55709    55703    55738 
   55796    55847    55880    55884    55844    55798    55786    55777 
   55766    55790    55820    55838    55852    55841    55800    55768 
   55781    55831    55857    55815    55737    55675    55646    55650 
   55688    55755    55831    55884    55903    55901    55894    55875 
   55811    55713    55657    55657    55647    55615    55625    55700 
   55809    55898    55913    55880    55865    55850    55809    55778 
   55759    55715    55674    55678    55725    55784    55813    55797 
   55765    55772    55828    55861    55826    55775    55759    55744 
   55695    55651    55682    55785    55870    55914    55944    55918 
   55834    55786    55806    55856    55889    55838    55733    55668 
   55640    55618    55623    55657    55715    55780    55833    55875 
   55903    55902    55857    55768    55693    55669    55669    55692 
   55725    55746    55780    55803    55789    55778    55763    55725 
   55701    55723    55796    55852    55839    55813    55791    55746 
   55723    55748    55785    55799    55786    55795    55822    55819 
   55789    55759    55743    55739    55746    55788    55855    55893 
   55888    55858    55831    55819    55788    55724    55679    55696 
   55728    55737    55795    55916    55975    55936    55896    55895 
   55870    55787    55710    55688    55681    55677    55703    55747 
   55800    55840    55832    55815    55822    55793    55706    55657 
   55689    55726    55756    55816    55876    55919    55956    55958 
   55935    55901    55831    55744    55670    55615    55600    55607 
   55611    55630    55684    55764    55832    55869    55905    55940 
   55945    55926    55903    55877    55822    55738    55687    55706 
   55759    55807    55831    55824    55784    55716    55657    55654 
   55694    55736    55764    55786    55793    55785    55798    55844 
   55884    55893    55873    55830    55786    55757    55719    55664 
   55634    55650    55694    55755    55805    55822    55815    55779 
   55737    55751    55808    55851    55855    55821    55782    55773 
   55786    55811    55834    55833    55807    55779    55793    55821 
   55797    55765    55785    55802    55775    55739    55730    55741 
   55745    55754    55775    55784    55792    55813    55819    55807 
   55809    55834    55873    55891    55859    55798    55753    55751 
   55778    55801    55796    55752    55685    55630    55621    55671 
   55756    55830    55860    55852    55845    55848    55845    55851 
   55859    55842    55817    55797    55763    55707    55660    55683 
   55773    55853    55889    55878    55827    55784    55788    55800 
   55795    55813    55843    55828    55811    55843    55862    55838 
   55822    55801    55760    55743    55744    55730    55723    55733 
   55734    55742    55769    55787    55782    55794    55820    55807 
   55752    55712    55720    55760    55782    55761    55742    55755 
   55766    55759    55756    55760    55763    55767    55768    55767 
   55775    55776    55768    55777    55790    55792    55804    55817 
   55790    55734    55687    55664    55694    55762    55796    55789 
   55796    55807    55792    55801    55854    55867    55827    55794 
   55758    55727    55745    55787    55808    55822    55855    55872 
   55839    55790    55760    55724    55681    55674    55715    55785 
   55844    55844    55788    55735    55727    55745    55779    55845 
   55910    55934    55920    55880    55824    55768    55756    55811 
   55860    55852    55824    55790    55752    55745    55763    55783 
   55805    55804    55785    55787    55794    55772    55741    55731 
   55748    55789    55854    55925    55962    55949    55915    55882 
   55827    55738    55679    55690    55701    55667    55647    55660 
   55677    55707    55754    55780    55778    55786    55788    55754 
   55727    55747    55779    55811    55853    55874    55842    55769 
   55691    55644    55631    55629    55637    55652    55656    55661 
   55695    55754    55809    55838    55846    55863    55887    55883 
   55851    55829    55833    55823    55774    55719    55698    55719 
   55773    55813    55802    55764    55724    55677    55665    55723 
   55804    55862    55895    55900    55870    55831    55828    55845 
   55856    55873    55875    55834    55805    55820    55835    55839 
   55836    55805    55739    55682    55676    55714    55752    55775 
   55784    55774    55761    55787    55827    55837    55835    55826 
   55805    55801    55802    55785    55775    55777    55766    55736 
   55708    55704    55710    55721    55752    55766    55760    55788 
   55832    55835    55785    55719    55702    55747    55807    55873 
   55934    55931    55848    55746    55676    55654    55684    55753 
   55815    55823    55779    55732    55735    55785    55828    55851 
   55869    55856    55818    55818    55864    55906    55908    55874 
   55816    55740    55690    55720    55788    55825    55836    55835 
   55837    55847    55827    55766    55703    55670    55688    55743 
   55798    55839    55856    55869    55905    55923    55901    55886 
   55867    55799    55711    55667    55658    55661    55698    55741 
   55722    55693    55719    55765    55815    55879    55935    55962 
   55954    55916    55877    55866    55864    55829    55752    55672 
   55648    55693    55739    55749    55767    55817    55870    55907 
   55934    55959    55979    55985    55971    55958    55975    55997 
   55994    55971    55922    55875    55848    55788    55704    55654 
   55618    55572    55564    55635    55741    55804    55826    55857 
   55889    55915    55936    55919    55853    55766    55682    55607 
   55561    55570    55597    55588    55593    55637    55646    55617 
   55623    55644    55640    55640    55645    55634    55640    55683 
   55733    55793    55869    55906    55863    55775    55688    55609 
   55552    55543    55569    55602    55627    55643    55677    55725 
   55749    55779    55841    55868    55853    55857    55884    55916 
   55954    55967    55950    55958    56003    56025    55982    55904 
   55798    55668    55582    55583    55626    55668    55707    55736 
   55763    55820    55894    55927    55925    55917    55886    55842 
   55822    55798    55742    55682    55635    55612    55635    55715 
   55831    55931    55983    56001    55997    55973    55926    55849 
   55738    55615    55517    55466    55471    55534    55627    55730 
   55829    55890    55917    55926    55876    55777    55690    55646 
   55637    55648    55672    55698    55694    55683    55701    55707 
   55690    55678    55672    55692    55734    55768    55785    55770 
   55727    55687    55659    55649    55655    55677    55758    55888 
   56003    56077    56116    56134    56119    56053    55983    55938 
   55890    55872    55891    55886    55866    55858    55823    55758 
   55704    55690    55717    55741    55761    55818    55883    55909 
   55906    55873    55807    55742    55695    55673    55664    55654 
   55664    55674    55658    55654    55685    55730    55778    55781 
   55719    55650    55602    55572    55580    55601    55596    55589 
   55606    55631    55640    55644    55658    55670    55685    55737 
   55818    55865    55851    55836    55883    55942    55954    55975 
   56029    56048    56023    56007    55997    55985    55986    56000 
   56014    56016    55995    55951    55891    55841    55820    55824 
   55848    55863    55848    55827    55813    55815    55847    55884 
   55893    55879    55871    55863    55849    55874    55935    55952 
   55910    55859    55817    55779    55744    55707    55656    55590 
   55545    55533    55533    55543    55547    55525    55492    55462 
   55465    55509    55553    55583    55594    55572    55550    55563 
   55594    55618    55621    55626    55655    55682    55688    55691 
   55712    55756    55781    55757    55709    55635    55538    55480 
   55502    55566    55645    55746    55847    55903    55917    55935 
   55990    56067    56116    56128    56138    56155    56178    56184 
   56138    56060    55987    55914    55839    55795    55798    55803 
   55787    55800    55845    55871    55878    55860    55826    55846 
   55896    55910    55934    55984    55999    55971    55932    55877 
   55813    55781    55785    55788    55800    55823    55806    55767 
   55744    55697    55640    55618    55611    55621    55654    55669 
   55684    55747    55855    55956    55996    55989    55965    55897 
   55813    55769    55753    55739    55726    55718    55714    55696 
   55651    55608    55590    55612    55686    55794    55904    55989 
   56022    55985    55913    55854    55826    55837    55865    55867 
   55851    55834    55810    55788    55782    55800    55840    55854 
   55805    55741    55725    55762    55816    55868    55907    55894 
   55830    55789    55790    55775    55721    55666    55631    55623 
   55661    55731    55760    55711    55623    55544    55489    55474 
   55520    55579    55603    55619    55636    55640    55682    55775 
   55853    55882    55871    55854    55858    55868    55867    55862 
   55844    55829    55852    55907    55964    55995    55989    55964 
   55950    55969    55984    55932    55838    55782    55783    55817 
   55855    55859    55825    55784    55744    55716    55719    55743 
   55772    55812    55845    55853    55845    55813    55766    55755 
   55798    55821    55779    55737    55727    55717    55724    55747 
   55749    55723    55669    55593    55539    55517    55505    55518 
   55551    55581    55608    55636    55664    55678    55663    55651 
   55675    55711    55736    55747    55742    55747    55779    55811 
   55842    55879    55901    55887    55828    55746    55690    55656 
   55623    55613    55650    55734    55836    55910    55938    55947 
   55969    55990    55963    55901    55858    55819    55760    55719 
   55718    55738    55772    55809    55843    55873    55882    55867 
   55842    55835    55846    55841    55826    55844    55869    55859 
   55835    55813    55796    55809    55848    55893    55944    55998 
   56012    55928    55773    55628    55521    55467    55493    55573 
   55675    55771    55836    55880    55901    55885    55864    55847 
   55831    55837    55840    55819    55810    55823    55840    55835 
   55766    55653    55559    55516    55528    55572    55626    55668 
   55684    55703    55751    55821    55907    55977    55976    55923 
   55875    55835    55799    55807    55859    55899    55896    55836 
   55735    55657    55639    55657    55687    55725    55770    55803 
   55815    55828    55858    55901    55949    55997    56051    56095 
   56079    56002    55916    55854    55836    55838    55818    55774 
   55695    55591    55528    55508    55513    55577    55685    55773 
   55823    55843    55838    55814    55803    55837    55884    55904 
   55898    55852    55763    55680    55629    55602    55595    55589 
   55579    55583    55596    55615    55642    55656    55663    55664 
   55634    55598    55596    55615    55658    55742    55846    55948 
   56032    56066    56040    55980    55929    55888    55842    55822 
   55835    55845    55849    55835    55800    55807    55872    55948 
   56007    56026    55980    55896    55810    55747    55738    55795 
   55863    55876    55872    55907    55942    55943    55945    55940 
   55901    55844    55782    55717    55690    55742    55841    55930 
   55986    55988    55929    55853    55805    55783    55787    55800 
   55770    55696    55627    55575    55528    55512    55544    55601 
   55656    55698    55719    55732    55762    55800    55819    55824 
   55827    55818    55815    55839    55856    55835    55817    55834 
   55863    55895    55911    55885    55845    55817    55783    55751 
   55742    55711    55624    55537    55495    55484    55507    55563 
   55601    55603    55617    55669    55733    55778    55785    55777 
   55798    55824    55807    55753    55697    55679    55706    55725 
   55728    55769    55842    55876    55852    55823    55822    55821 
   55825    55841    55831    55793    55745    55696    55687    55714 
   55730    55748    55771    55789    55819    55838    55833    55842 
   55848    55809    55753    55743    55784    55815    55829    55878 
   55917    55912    55923    55941    55916    55871    55833    55816 
   55820    55819    55806    55787    55757    55719    55673    55632 
   55613    55615    55653    55717    55775    55840    55886    55867 
   55827    55820    55838    55848    55853    55867    55866    55833 
   55797    55764    55732    55734    55762    55785    55812    55840 
   55853    55854    55861    55885    55904    55904    55910    55909 
   55864    55796    55746    55728    55732    55737    55732    55711 
   55664    55619    55611    55637    55671    55695    55701    55709 
   55739    55779    55801    55807    55802    55793    55791    55795 
   55796    55801    55805    55793    55785    55793    55789    55777 
   55783    55808    55838    55850    55836    55839    55869    55881 
   55875    55893    55899    55852    55799    55772    55732    55665 
   55613    55598    55613    55650    55712    55787    55840    55844 
   55795    55712    55630    55606    55656    55726    55767    55790 
   55811    55825    55831    55817    55772    55724    55705    55718 
   55757    55800    55819    55819    55809    55794    55783    55769 
   55763    55783    55815    55841    55856    55841    55797    55754 
   55724    55737    55798    55855    55877    55875    55847    55813 
   55792    55775    55764    55762    55756    55761    55798    55846 
   55870    55876    55880    55881    55887    55898    55898    55878 
