Origin Time       2025/03/30 22:55:00
Lat.              41.993
Long.             142.725
Depth. (km)       55
Mag.              4.6
Station Code      IBUH05
Station Lat.      42.5629
Station Long.     141.3497
Station Height(m) -157
Record Time       2025/03/30 22:56:19
Sampling Freq(Hz) 100Hz
Duration Time(s)  120
Dir.              1
Scale Factor      2942(gal)/8224139
Max. Acc. (gal)   0.379
Last Correction   2025/03/30 22:56:19
Memo.             
[...]
  214466   214357   214228   214191   214254   214351   214354   214245 
  214185   214211   214246   214296   214309   214255   214247   214304 
  214338   214332   214336   214321   214253   214230   214273   214278 
  214311   214411   214447   214446   214455   214327   214151   214154 
  214232   214240   214218   214178   214158   214215   214258   214219 
  214184   214197   214227   214327   214477   214504   214451   214469 
  214446   214324   214280   214313   214309   214282   214231   214181 
  214219   214280   214284   214270   214273   214317   214374   214353 
  214262   214197   214201   214249   214290   214288   214251   214215 
  214220   214308   214435   214477   214402   214320   214293   214301 
  214317   214327   214320   214263   214165   214135   214203   214254 
  214254   214258   214239   214191   214236   214369   214416   214370 
  214303   214191   214085   214118   214280   214404   214427   214419 
  214401   214390   214381   214338   214330   214385   214362   214243 
  214174   214169   214188   214240   214230   214143   214181   214369 
  214501   214516   214471   214348   214192   214124   214138   214124 
  214084   214085   214137   214234   214362   214463   214513   214524 
  214488   214423   214384   214369   214299   214158   214078   214099 
  214142   214246   214405   214462   214394   214311   214238   214215 
  214247   214258   214254   214278   214254   214207   214247   214290 
  214265   214323   214447   214442   214388   214427   214424   214313 
  214200   214146   214153   214180   214185   214204   214266   214307 
  214262   214203   214213   214269   214312   214320   214316   214303 
  214266   214266   214274   214220   214185   214218   214272   214326 
  214353   214351   214353   214346   214340   214367   214428   214467 
  214402   214259   214145   214097   214139   214243   214292   214273 
  214272   214286   214267   214243   214254   214273   214288   214334 
  214390   214367   214266   214218   214285   214374   214402   214390 
  214375   214374   214365   214316   214245   214200   214165   214143 
  214238   214405   214458   214367   214238   214161   214215   214321 
  214280   214153   214172   214266   214269   214280   214355   214353 
  214285   214290   214316   214258   214216   214220   214192   214215 
  214334   214419   214425   214374   214276   214249   214334   214336 
  214234   214231   214316   214347   214320   214238   214122   214105 
  214234   214359   214346   214299   214371   214463   214470   214428 
  214321   214216   214223   214263   214265   214288   214358   214413 
  214381   214277   214238   214286   214292   214218   214197   214292 
  214348   214270   214177   214184   214267   214371   214431   214427 
  214419   214440   214408   214272   214168   214197   214220   214143 
  214099   214170   214282   214335   214296   214250   214303   214408 
  214448   214400   214313   214293   214351   214312   214154   214111 
  214259   214407   214404   214304   214208   214186   214258   214323 
  214311   214262   214204   214169   214209   214282   214288   214236 
  214203   214224   214321   214409   214371   214312   214343   214343 
  214269   214247   214259   214228   214203   214201   214211   214309 
  214451   214490   214475   214489   214477   214423   214374   214308 
  214173   214066   214066   214101   214191   214342   214382   214289 
  214234   214254   214289   214327   214336   214269   214219   214267 
  214272   214150   214089   214195   214330   214402   214408   214354 
  214332   214339   214270   214234   214330   214384   214303   214203 
  214158   214185   214249   214280   214296   214321   214331   214338 
  214348   214327   214243   214118   214070   214164   214255   214242 
  214262   214405   214544   214564   214505   214423   214307   214184 
  214095   214015   213991   214120   214315   214390   214374   214392 
  214390   214300   214228   214212   214212   214257   214323   214375 
  214416   214402   214369   214365   214323   214284   214353   214444 
  214407   214249   214147   214223   214334   214315   214240   214216 
  214247   214301   214294   214219   214177   214200   214262   214332 
  214363   214408   214475   214392   214212   214212   214335   214339 
  214240   214169   214170   214218   214232   214189   214174   214191 
  214165   214170   214239   214261   214297   214469   214579   214473 
  214347   214361   214408   214354   214193   214069   214087   214154 
  214212   214313   214378   214311   214220   214197   214203   214258 
  214365   214424   214404   214357   214331   214326   214315   214304 
  214319   214344   214320   214266   214267   214303   214321   214335 
  214320   214303   214331   214402   214477   214421   214235   214126 
  214138   214149   214157   214232   214344   214389   214359   214347 
  214432   214554   214533   214346   214165   214105   214115   214124 
  214173   214273   214273   214145   214081   214181   214350   214469 
  214435   214263   214164   214261   214384   214343   214235   214245 
  214304   214246   214181   214262   214382   214429   214412   214343 
  214277   214289   214361   214377   214261   214078   214016   214119 
  214195   214184   214266   214452   214527   214413   214243   214193 
  214313   214451   214456   214373   214303   214234   214128   214062 
  214089   214165   214254   214309   214308   214334   214405   214425 
  214412   214413   214392   214353   214305   214270   214307   214321 
  214227   214182   214272   214361   214390   214377   214328   214280 
  214236   214201   214230   214277   214284   214292   214301   214309 
  214342   214380   214404   214394   214317   214219   214173   214170 
  214176   214178   214168   214137   214123   214182   214282   214344 
  214388   214440   214402   214240   214132   214211   214327   214296 
  214213   214201   214232   214284   214342   214392   214443   214446 
  214386   214353   214343   214290   214239   214199   214091   214004 
  214062   214192   214289   214357   214448   214531   214481   214336 
  214294   214362   214347   214255   214211   214218   214293   214402 
  214417   214369   214331   214289   214263   214288   214332   214355 
  214350   214289   214185   214162   214251   214317   214315   214267 
  214199   214195   214277   214300   214227   214193   214224   214278 
  214346   214366   214316   214251   214234   214305   214400   214412 
  214392   214380   214317   214265   214276   214234   214138   214141 
  214207   214193   214147   214182   214281   214358   214365   214303 
  214253   214280   214327   214346   214389   214436   214408   214348 
  214301   214254   214285   214384   214386   214296   214257   214282 
  214311   214299   214259   214277   214359   214397   214321   214199 
  214170   214259   214323   214311   214301   214285   214240   214199 
  214180   214220   214282   214282   214267   214281   214285   214308 
  214338   214281   214195   214193   214195   214143   214188   214308 
  214344   214370   214429   214393   214330   214386   214452   214389 
  214251   214123   214056   214104   214204   214265   214321   214378 
  214367   214346   214366   214343   214278   214284   214321   214330 
  214351   214373   214357   214355   214386   214374   214321   214286 
  214278   214296   214309   214254   214193   214254   214384   214408 
  214305   214249   214308   214326   214243   214186   214230   214321 
  214351   214254   214126   214123   214224   214266   214184   214085 
  214076   214155   214242   214288   214336   214392   214393   214355 
  214327   214300   214296   214332   214303   214196   214178   214273 
  214353   214355   214320   214359   214431   214402   214336   214309 
  214317   214380   214380   214259   214204   214265   214301   214281 
  214246   214226   214240   214258   214227   214174   214181   214215 
  214207   214222   214296   214358   214419   214486   214501   214451 
  214344   214254   214278   214332   214292   214251   214320   214338 
  214249   214269   214375   214351   214246   214182   214137   214153 
  214277   214405   214419   214278   214111   214100   214168   214173 
  214211   214308   214315   214250   214263   214324   214342   214338 
  214365   214412   214419   214405   214429   214381   214232   214209 
  214300   214280   214185   214170   214231   214276   214276   214326 
  214409   214369   214263   214242   214227   214166   214153   214169 
  214149   214168   214266   214369   214454   214542   214587   214548 
  214467   214382   214282   214240   214289   214317   214334   214401 
  214483   214566   214596   214479   214317   214238   214204   214222 
  214277   214228   214088   214011   213999   214022   214135   214243 
  214246   214247   214304   214380   214475   214474   214297   214149 
  214128   214092   214065   214142   214259   214362   214401   214350 
  214319   214384   214443   214413   214355   214353   214377   214350 
  214332   214366   214336   214207   214127   214195   214305   214363 
  214366   214323   214335   214428   214409   214232   214038   213953 
  214060   214174   214091   214049   214231   214388   214367   214315 
  214365   214492   214555   214500   214392   214292   214238   214205 
  214154   214169   214324   214483   214436   214223   214116   214238 
  214378   214370   214299   214262   214311   214436   214469   214307 
  214101   214016   214039   214128   214240   214282   214311   214448 
  214547   214485   214428   214407   214284   214141   214101   214146 
  214242   214300   214267   214294   214421   214506   214567   214633 
  214570   214405   214293   214195   214065   214002   214010   214058 
  214224   214435   214478   214369   214285   214245   214159   214033 
  213957   213999   214111   214153   214046   213914   213953   214153 
  214331   214435   214500   214500   214463   214423   214312   214178 
  214157   214226   214292   214355   214423   214427   214378   214347 
  214316   214281   214276   214246   214192   214242   214371   214409 
  214297   214119   214000   214078   214319   214488   214494   214474 
  214456   214363   214231   214147   214141   214122   214039   214022 
  214145   214330   214463   214439   214357   214488   214782   214909 
  214778   214558   214390   214336   214292   214135   214027   214107 
  214193   214176   214153   214172   214220   214238   214185   214134 
  214150   214254   214390   214373   214189   214097   214191   214288 
  214255   214213   214281   214375   214416   214415   214357   214281 
  214247   214212   214147   214093   214114   214292   214559   214664 
  214548   214378   214262   214203   214247   214348   214319   214162 
  214058   214058   214147   214249   214254   214180   214089   214073 
  214280   214664   214901   214797   214556   214365   214211   214201 
  214343   214385   214308   214258   214224   214253   214400   214554 
  214583   214404   214056   213840   213938   214076   214038   214058 
  214236   214321   214247   214204   214270   214358   214340   214174 
  214034   214186   214550   214716   214577   214416   214350   214231 
  214084   214128   214320   214431   214411   214294   214154   214146 
  214258   214331   214385   214447   214394   214300   214317   214404 
  214558   214716   214645   214427   214427   214581   214470   214069 
  213727   213655   213837   214096   214211   214218   214354   214558 
  214556   214424   214366   214297   214215   214232   214201   213997 
  213806   213786   213956   214305   214632   214699   214613   214581 
  214519   214277   213977   213840   213902   214065   214226   214281 
  214272   214367   214517   214531   214443   214373   214284   214120 
  213989   214073   214304   214442   214452   214386   214284   214282 
  214374   214374   214281   214236   214284   214344   214326   214259 
  214249   214290   214312   214338   214470   214655   214726   214655 
  214525   214388   214324   214392   214429   214313   214161   214069 
  214027   213996   213954   214034   214255   214348   214300   214274 
  214201   214115   214191   214250   214066   213865   213948   214201 
  214331   214297   214292   214363   214439   214594   214821   214906 
  214770   214528   214278   214101   214047   214016   213980   214068 
  214178   214188   214266   214428   214429   214236   214014   213903 
  214024   214319   214525   214506   214347   214191   214138   214203 
  214357   214528   214614   214583   214394   214137   214107   214280 
  214361   214338   214297   214266   214344   214405   214247   214127 
  214293   214498   214513   214375   214176   214126   214412   214753 
  214762   214631   214663   214635   214327   213895   213506   213287 
  213332   213513   213725   214110   214648   214969   214826   214448 
  214251   214305   214324   214108   213800   213749   214085   214488 
  214668   214756   214855   214828   214652   214444   214321   214350 
  214367   214228   214118   214142   214199   214299   214462   214575 
  214604   214591   214474   214223   213968   213783   213649   213642 
  213817   214114   214431   214737   215041   215118   214830   214529 
  214450   214375   214141   213877   213813   213957   214112   214208 
  214280   214262   214231   214428   214708   214643   214294   214070 
  214073   214150   214180   214111   214022   213979   213861   213640 
  213599   213864   214228   214493   214551   214570   214899   215341 
  215347   214965   214614   214354   214069   213933   214045   214116 
  213999   213854   213765   213834   214143   214482   214689   214766 
  214618   214278   213945   213722   213692   213948   214389   214783 
  214971   214874   214552   214272   214236   214359   214392   214224 
  214014   213969   214069   214147   214114   213991   213976   214242 
  214625   214872   214951   214899   214708   214489   214398   214301 
  214027   213795   213776   213804   213792   213817   213899   214034 
  214261   214523   214660   214608   214389   214130   214065   214218 
  214344   214323   214243   214270   214494   214774   214887   214817 
  214666   214452   214188   214039   214137   214304   214272   213980 
  213611   213402   213447   213745   214220   214608   214764   214906 
  215077   214983   214578   214172   214007   214061   214137   214165 
  214227   214286   214251   214100   213854   213717   213911   214309 
  214558   214465   214122   213867   213999   214396   214663   214677 
  214593   214459   214284   214181   214188   214208   214188   214177 
  214243   214334   214420   214540   214521   214285   214205   214461 
  214666   214597   214443   214294   214146   214118   214172   214069 
  213858   213862   214196   214694   215094   215181   214974   214704 
  214552   214439   214165   213764   213514   213551   213759   213976 
  214181   214419   214581   214559   214509   214519   214425   214207 
  214026   213879   213729   213783   214130   214478   214613   214623 
  214610   214562   214493   214479   214463   214347   214235   214199 
  214134   213996   213903   213937   213984   213979   214142   214564 
  214932   214944   214641   214296   214142   214172   214218   214166 
  214070   214100   214308   214523   214600   214551   214423   214288 
  214259   214321   214311   214209   214246   214458   214519   214313 
  214143   214166   214278   214397   214459   214450   214416   214348 
  214258   214203   214077   213852   213754   213849   213973   214119 
  214321   214509   214641   214655   214492   214284   214197   214207 
  214191   214108   214056   214186   214465   214674   214752   214787 
  214748   214563   214277   214020   213927   213930   213807   213673 
  213918   214456   214776   214732   214570   214461   214455   214501 
  214443   214249   214073   213995   213946   213872   213788   213791 
  214018   214374   214544   214477   214386   214343   214339   214396 
  214447   214483   214467   214224   213912   213953   214285   214508 
  214492   214381   214367   214493   214578   214502   214332   214181 
  214064   213930   213896   214115   214438   214627   214640   214517 
  214305   214124   214061   214042   213983   213907   213869   213918 
  214123   214478   214735   214600   214180   213929   214050   214303 
  214420   214421   214427   214431   214408   214450   214571   214605 
  214504   214421   214427   214488   214594   214601   214344   214006 
  213877   213946   214068   214141   214119   214130   214247   214262 
  214096   213927   213876   214034   214365   214593   214658   214756 
  214837   214759   214635   214547   214463   214435   214417   214242 
  213969   213814   213880   214092   214200   214042   213867   214007 
  214316   214417   214294   214134   213989   213960   214200   214596 
  214830   214786   214600   214398   214181   213992   213939   213996 
  214012   213976   214068   214346   214582   214614   214629   214790 
  214921   214837   214621   214398   214211   214114   214054   213899 
  213765   213904   214196   214344   214363   214381   214366   214332 
  214335   214358   214386   214350   214155   213964   214054   214312 
  214420   214394   214393   214429   214470   214420   214236   214095 
  214124   214228   214270   214253   214251   214277   214300   214328 
  214353   214346   214311   214272   214289   214390   214447   214358 
  214255   214276   214348   214377   214354   214335   214377   214450 
  214505   214531   214462   214240   213933   213678   213609   213760 
  213975   214077   214120   214273   214563   214805   214779   214558 
  214411   214390   214363   214315   214292   214227   214096   213999 
  213997   214089   214205   214242   214240   214267   214261   214215 
  214177   214112   214038   214074   214223   214363   214456   214508 
  214539   214587   214644   214651   214587   214481   214373   214317 
  214335   214308   214174   214105   214231   214421   214508   214509 
  214502   214471   214411   214328   214231   214138   214073   214085 
  214173   214181   214020   213862   213938   214215   214434   214425 
  214273   214161   214178   214304   214456   214562   214648   214706 
  214659   214533   214392   214219   214039   213900   213800   213827 
  214024   214149   214081   214095   214273   214358   214327   214323 
  214320   214331   214459   214606   214647   214677   214774   214861 
  214855   214683   214371   214115   214006   213912   213845   213910 
  213999   213991   213956   213939   213966   214141   214381   214444 
  214380   214473   214720   214810   214617   214373   214284   214234 
  214084   213925   213869   213942   214097   214168   214060   213953 
  214018   214176   214282   214294   214292   214393   214546   214559 
  214390   214224   214232   214402   214578   214597   214456   214344 
  214369   214440   214519   214585   214548   214479   214509   214527 
  214434   214373   214424   214500   214582   214659   214605   214411 
  214231   214066   213846   213710   213776   213895   213895   213811 
  213802   213972   214230   214385   214416   214494   214610   214569 
  214394   214223   214054   214012   214180   214286   214207   214181 
  214265   214280   214212   214161   214132   214126   214181   214292 
  214436   214558   214586   214562   214555   214519   214447   214412 
