Origin Time       2025/03/30 22:55:00
Lat.              41.993
Long.             142.725
Depth. (km)       55
Mag.              4.6
Station Code      IBUH01
Station Lat.      42.8739
Station Long.     141.8191
Station Height(m) 60
Record Time       2025/03/30 22:56:18
Sampling Freq(Hz) 100Hz
Duration Time(s)  120
Dir.              6
Scale Factor      7845(gal)/8223790
Max. Acc. (gal)   0.910
Last Correction   2025/03/30 22:56:18
Memo.             
[...]
  -18463   -18477   -18553   -18594   -18566   -18511   -18457   -18436 
  -18516   -18731   -18963   -18997   -18755   -18422   -18262   -18364 
  -18578   -18701   -18678   -18600   -18584   -18651   -18692   -18616 
  -18468   -18360   -18364   -18503   -18694   -18769   -18639   -18430 
  -18337   -18408   -18528   -18605   -18647   -18702   -18794   -18835 
  -18675   -18343   -18090   -18131   -18463   -18870   -19032   -18790 
  -18373   -18181   -18360   -18700   -18913   -18878   -18673   -18470 
  -18373   -18381   -18477   -18607   -18671   -18665   -18648   -18636 
  -18612   -18553   -18485   -18509   -18647   -18758   -18709   -18523 
  -18380   -18436   -18617   -18715   -18646   -18511   -18449   -18492 
  -18527   -18428   -18284   -18296   -18499   -18736   -18859   -18816 
  -18670   -18543   -18477   -18457   -18489   -18563   -18611   -18569 
  -18478   -18465   -18558   -18673   -18732   -18716   -18636   -18542 
  -18459   -18387   -18364   -18466   -18692   -18866   -18804   -18554 
  -18364   -18399   -18574   -18706   -18725   -18669   -18604   -18584 
  -18559   -18463   -18395   -18468   -18605   -18666   -18654   -18634 
  -18615   -18577   -18544   -18543   -18527   -18436   -18326   -18316 
  -18453   -18667   -18792   -18705   -18507   -18399   -18423   -18480 
  -18516   -18562   -18631   -18692   -18709   -18663   -18567   -18472 
  -18438   -18511   -18643   -18713   -18663   -18578   -18561   -18607 
  -18631   -18598   -18543   -18505   -18526   -18630   -18766   -18831 
  -18755   -18562   -18387   -18376   -18511   -18584   -18470   -18306 
  -18306   -18524   -18813   -18929   -18767   -18462   -18253   -18270 
  -18463   -18681   -18797   -18792   -18760   -18785   -18828   -18787 
  -18604   -18351   -18237   -18404   -18706   -18805   -18577   -18272 
  -18180   -18312   -18496   -18607   -18642   -18657   -18669   -18654 
  -18582   -18439   -18274   -18231   -18423   -18762   -19014   -19010 
  -18766   -18501   -18453   -18616   -18755   -18720   -18598   -18516 
  -18459   -18399   -18399   -18519   -18715   -18870   -18850   -18623 
  -18316   -18091   -18036   -18192   -18534   -18897   -19044   -18893 
  -18607   -18370   -18241   -18230   -18364   -18644   -18960   -19091 
  -18912   -18526   -18169   -18041   -18183   -18462   -18715   -18862 
  -18897   -18821   -18662   -18517   -18477   -18513   -18515   -18445 
  -18414   -18512   -18650   -18705   -18697   -18719   -18775   -18748 
  -18522   -18179   -17986   -18119   -18482   -18819   -18962   -18910 
  -18756   -18582   -18434   -18360   -18416   -18570   -18689   -18704 
  -18655   -18581   -18499   -18488   -18601   -18756   -18809   -18706 
  -18497   -18299   -18239   -18346   -18507   -18598   -18604   -18578 
  -18589   -18640   -18689   -18711   -18702   -18655   -18590   -18531 
  -18457   -18376   -18365   -18488   -18686   -18797   -18738   -18571 
  -18418   -18355   -18400   -18527   -18688   -18787   -18716   -18489 
  -18273   -18233   -18415   -18720   -18929   -18890   -18700   -18581 
  -18596   -18620   -18570   -18490   -18459   -18524   -18644   -18716 
  -18711   -18671   -18605   -18509   -18423   -18395   -18450   -18555 
  -18620   -18604   -18584   -18592   -18534   -18400   -18335   -18451 
  -18697   -18883   -18833   -18576   -18349   -18331   -18482   -18640 
  -18698   -18677   -18648   -18628   -18578   -18473   -18338   -18270 
  -18341   -18505   -18663   -18746   -18728   -18654   -18611   -18608 
  -18566   -18466   -18418   -18505   -18670   -18781   -18760   -18640 
  -18500   -18439   -18505   -18640   -18739   -18743   -18638   -18462 
  -18337   -18382   -18540   -18619   -18530   -18399   -18376   -18453 
  -18517   -18546   -18639   -18846   -19008   -18909   -18566   -18241 
  -18207   -18477   -18759   -18771   -18566   -18426   -18501   -18704 
  -18847   -18794   -18576   -18370   -18308   -18387   -18532   -18613 
  -18563   -18482   -18507   -18650   -18805   -18832   -18689   -18497 
  -18424   -18496   -18581   -18586   -18526   -18474   -18482   -18534 
  -18613   -18715   -18775   -18727   -18605   -18488   -18385   -18293 
  -18258   -18355   -18593   -18858   -18986   -18873   -18586   -18355 
  -18333   -18455   -18569   -18589   -18546   -18516   -18528   -18571 
  -18625   -18640   -18565   -18443   -18395   -18470   -18598   -18690 
  -18696   -18615   -18543   -18567   -18640   -18661   -18624   -18565 
  -18493   -18457   -18538   -18705   -18794   -18697   -18484   -18315 
  -18280   -18343   -18445   -18576   -18747   -18909   -18921   -18711 
  -18420   -18250   -18252   -18346   -18462   -18577   -18665   -18677 
  -18655   -18711   -18804   -18786   -18638   -18466   -18388   -18449 
  -18542   -18485   -18316   -18293   -18519   -18797   -18905   -18823 
  -18663   -18508   -18374   -18316   -18391   -18517   -18580   -18574 
  -18585   -18657   -18755   -18797   -18715   -18540   -18404   -18450 
  -18642   -18758   -18651   -18435   -18311   -18388   -18646   -18912 
  -18963   -18759   -18488   -18342   -18337   -18377   -18408   -18446 
  -18534   -18702   -18887   -18924   -18723   -18430   -18307   -18458 
  -18713   -18832   -18746   -18562   -18428   -18403   -18434   -18477 
  -18558   -18673   -18754   -18743   -18652   -18549   -18458   -18357 
  -18293   -18334   -18450   -18557   -18590   -18553   -18531   -18625 
  -18779   -18810   -18666   -18504   -18465   -18540   -18639   -18682 
  -18647   -18563   -18441   -18292   -18238   -18397   -18701   -18943 
  -18975   -18778   -18497   -18349   -18384   -18499   -18594   -18635 
  -18632   -18630   -18613   -18544   -18430   -18362   -18462   -18696 
  -18827   -18708   -18455   -18285   -18327   -18563   -18836   -18960 
  -18874   -18650   -18400   -18231   -18233   -18412   -18648   -18790 
  -18801   -18742   -18667   -18569   -18422   -18303   -18337   -18508 
  -18654   -18663   -18581   -18507   -18507   -18573   -18628   -18611 
  -18550   -18535   -18596   -18657   -18623   -18490   -18401   -18505 
  -18727   -18841   -18754   -18516   -18269   -18204   -18384   -18627 
  -18752   -18747   -18669   -18567   -18488   -18422   -18354   -18349 
  -18500   -18766   -18975   -18983   -18796   -18554   -18423   -18430 
  -18488   -18550   -18607   -18632   -18585   -18461   -18341   -18330 
  -18443   -18608   -18727   -18751   -18697   -18609   -18535   -18527 
  -18590   -18677   -18721   -18651   -18489   -18342   -18265   -18277 
  -18396   -18576   -18742   -18837   -18831   -18727   -18578   -18484 
  -18501   -18573   -18632   -18662   -18647   -18611   -18584   -18558 
  -18528   -18524   -18584   -18693   -18746   -18646   -18436   -18254 
  -18185   -18229   -18373   -18593   -18825   -18964   -18910   -18669 
  -18400   -18280   -18331   -18451   -18546   -18582   -18605   -18654 
  -18682   -18631   -18534   -18478   -18511   -18616   -18713   -18693 
  -18550   -18416   -18430   -18596   -18798   -18906   -18859   -18688 
  -18477   -18293   -18211   -18299   -18503   -18681   -18798   -18866 
  -18843   -18719   -18563   -18438   -18391   -18454   -18580   -18667 
  -18632   -18507   -18404   -18366   -18366   -18447   -18648   -18866 
  -18939   -18816   -18580   -18384   -18330   -18377   -18434   -18489 
  -18582   -18690   -18758   -18763   -18706   -18594   -18477   -18436 
  -18513   -18640   -18698   -18655   -18558   -18451   -18392   -18412 
  -18462   -18492   -18530   -18620   -18732   -18750   -18593   -18350 
  -18222   -18318   -18563   -18778   -18831   -18751   -18665   -18639 
  -18634   -18576   -18472   -18408   -18434   -18524   -18631   -18685 
  -18647   -18567   -18524   -18550   -18598   -18594   -18524   -18459 
  -18488   -18581   -18617   -18547   -18439   -18384   -18422   -18547 
  -18696   -18786   -18789   -18704   -18559   -18450   -18445   -18499 
  -18517   -18477   -18430   -18463   -18605   -18759   -18797   -18708 
  -18601   -18582   -18662   -18740   -18673   -18485   -18377   -18423 
  -18500   -18540   -18549   -18534   -18549   -18623   -18663   -18586 
  -18462   -18409   -18435   -18477   -18519   -18580   -18651   -18693 
  -18681   -18663   -18666   -18620   -18517   -18428   -18385   -18387 
  -18443   -18538   -18639   -18735   -18798   -18775   -18674   -18584 
  -18561   -18585   -18619   -18638   -18612   -18520   -18366   -18229 
  -18219   -18366   -18569   -18705   -18747   -18735   -18684   -18577 
  -18431   -18328   -18387   -18630   -18905   -19002   -18878   -18669 
  -18531   -18512   -18534   -18476   -18345   -18283   -18382   -18569 
  -18673   -18628   -18542   -18528   -18582   -18612   -18562   -18499 
  -18526   -18613   -18640   -18565   -18457   -18411   -18453   -18535 
  -18630   -18738   -18812   -18806   -18743   -18642   -18507   -18405 
  -18412   -18526   -18684   -18789   -18758   -18615   -18485   -18439 
  -18447   -18477   -18511   -18542   -18619   -18732   -18774   -18682 
  -18531   -18419   -18408   -18520   -18673   -18733   -18647   -18472 
  -18318   -18280   -18415   -18696   -18952   -18994   -18785   -18476 
  -18295   -18351   -18517   -18570   -18457   -18331   -18333   -18457 
  -18631   -18773   -18825   -18801   -18747   -18661   -18540   -18465 
  -18481   -18534   -18555   -18532   -18495   -18493   -18554   -18630 
  -18648   -18609   -18563   -18531   -18468   -18360   -18285   -18341 
  -18522   -18706   -18769   -18700   -18607   -18567   -18584   -18624 
  -18636   -18603   -18604   -18665   -18674   -18554   -18381   -18301 
  -18360   -18457   -18499   -18508   -18515   -18522   -18544   -18586 
  -18634   -18704   -18767   -18736   -18617   -18522   -18495   -18509 
  -18581   -18733   -18882   -18858   -18594   -18243   -18057   -18165 
  -18462   -18729   -18851   -18839   -18729   -18551   -18365   -18247 
  -18296   -18539   -18835   -18985   -18944   -18786   -18555   -18319 
  -18227   -18364   -18628   -18844   -18886   -18715   -18434   -18223 
  -18181   -18299   -18512   -18705   -18756   -18661   -18519   -18427 
  -18424   -18524   -18659   -18715   -18663   -18576   -18528   -18547 
  -18603   -18651   -18708   -18783   -18833   -18794   -18635   -18404 
  -18261   -18331   -18522   -18646   -18659   -18613   -18543   -18499 
  -18484   -18399   -18270   -18272   -18434   -18609   -18698   -18716 
  -18713   -18735   -18774   -18759   -18657   -18516   -18412   -18382 
  -18442   -18570   -18717   -18802   -18758   -18616   -18499   -18450 
  -18401   -18324   -18327   -18485   -18711   -18862   -18870   -18721 
  -18493   -18362   -18415   -18530   -18584   -18623   -18713   -18809 
  -18846   -18785   -18625   -18480   -18499   -18665   -18794   -18747 
  -18544   -18333   -18272   -18384   -18520   -18500   -18295   -18083 
  -18100   -18370   -18669   -18790   -18712   -18547   -18486   -18624 
  -18790   -18759   -18544   -18355   -18378   -18647   -18968   -19041 
  -18792   -18478   -18366   -18468   -18619   -18661   -18573   -18481 
  -18505   -18620   -18682   -18598   -18442   -18354   -18358   -18389 
  -18401   -18399   -18430   -18511   -18594   -18625   -18604   -18594 
  -18697   -18909   -19067   -19008   -18756   -18463   -18241   -18157 
  -18261   -18443   -18546   -18569   -18588   -18589   -18553   -18528 
  -18539   -18590   -18716   -18873   -18912   -18787   -18630   -18546 
  -18536   -18571   -18588   -18511   -18380   -18335   -18447   -18651 
  -18833   -18905   -18796   -18504   -18160   -17928   -17896   -18065 
  -18351   -18673   -18978   -19165   -19117   -18832   -18435   -18141 
  -18149   -18447   -18790   -18963   -18948   -18863   -18806   -18744 
  -18574   -18306   -18100   -18131   -18412   -18792   -19044   -18999 
  -18704   -18374   -18157   -18060   -18103   -18308   -18593   -18828 
  -18931   -18893   -18738   -18524   -18377   -18393   -18531   -18657 
  -18679   -18609   -18527   -18512   -18592   -18701   -18759   -18797 
  -18881   -18936   -18825   -18567   -18330   -18225   -18203   -18206 
  -18273   -18411   -18554   -18655   -18657   -18512   -18296   -18179 
  -18262   -18517   -18821   -19039   -19080   -18937   -18709   -18536 
  -18486   -18526   -18585   -18604   -18557   -18488   -18465   -18495 
  -18488   -18358   -18168   -18092   -18252   -18625   -19048   -19313 
  -19290   -18971   -18495   -18114   -18045   -18319   -18754   -19074 
  -19111   -18890   -18577   -18343   -18260   -18314   -18446   -18543 
  -18508   -18400   -18355   -18401   -18468   -18507   -18520   -18524 
  -18536   -18577   -18654   -18747   -18844   -18939   -18972   -18839 
  -18542   -18273   -18242   -18457   -18733   -18825   -18608   -18225 
  -17986   -18077   -18428   -18805   -18989   -18906   -18689   -18532 
  -18515   -18562   -18547   -18393   -18199   -18181   -18416   -18755 
  -19029   -19155   -19114   -18955   -18765   -18561   -18324   -18123 
  -18076   -18233   -18522   -18801   -18924   -18843   -18638   -18419 
  -18256   -18180   -18166   -18199   -18341   -18615   -18897   -19029 
  -18954   -18727   -18493   -18404   -18488   -18642   -18754   -18816 
  -18850   -18832   -18723   -18509   -18239   -18025   -17976   -18096 
  -18257   -18364   -18462   -18621   -18793   -18871   -18809   -18675 
  -18605   -18678   -18832   -18928   -18898   -18789   -18697   -18686 
  -18748   -18763   -18596   -18249   -17872   -17659   -17706   -17971 
  -18334   -18715   -19059   -19263   -19213   -18921   -18555   -18301 
  -18225   -18266   -18364   -18492   -18630   -18767   -18936   -19145 
  -19314   -19257   -18848   -18223   -17721   -17614   -17946   -18531 
  -19009   -19089   -18792   -18372   -18094   -18088   -18310   -18585 
  -18779   -18886   -18940   -18916   -18760   -18492   -18284   -18322 
  -18582   -18855   -18948   -18800   -18503   -18265   -18223   -18335 
  -18492   -18646   -18746   -18747   -18689   -18624   -18528   -18412 
  -18354   -18405   -18551   -18723   -18805   -18732   -18561   -18414 
  -18349   -18342   -18374   -18419   -18434   -18435   -18488   -18589 
  -18693   -18797   -18893   -18940   -18922   -18825   -18632   -18391 
  -18202   -18149   -18261   -18499   -18756   -18878   -18777   -18523 
  -18270   -18161   -18254   -18455   -18601   -18655   -18708   -18819 
  -18982   -19145   -19174   -18952   -18519   -18064   -17790   -17780 
  -17992   -18345   -18723   -19009   -19113   -18998   -18715   -18397 
  -18195   -18223   -18484   -18808   -18979   -18917   -18721   -18631 
  -18785   -19008   -18993   -18675   -18266   -18000   -17983   -18173 
  -18445   -18661   -18739   -18652   -18478   -18397   -18511   -18702 
  -18783   -18700   -18531   -18395   -18377   -18505   -18708   -18850 
  -18831   -18674   -18480   -18353   -18312   -18331   -18408   -18543 
  -18678   -18725   -18648   -18524   -18455   -18485   -18581   -18627 
  -18574   -18527   -18603   -18769   -18863   -18779   -18580   -18415 
  -18400   -18522   -18642   -18657   -18580   -18468   -18361   -18299 
  -18331   -18462   -18617   -18694   -18657   -18576   -18559   -18642 
  -18743   -18773   -18719   -18634   -18554   -18469   -18381   -18350 
  -18420   -18561   -18725   -18851   -18864   -18758   -18603   -18469 
  -18357   -18237   -18133   -18095   -18169   -18392   -18693   -18937 
  -19055   -19029   -18832   -18536   -18345   -18372   -18504   -18562 
  -18480   -18360   -18393   -18623   -18868   -18922   -18728   -18418 
  -18215   -18218   -18351   -18549   -18777   -18948   -18989   -18910 
  -18771   -18619   -18474   -18357   -18280   -18253   -18288   -18370 
  -18468   -18571   -18657   -18671   -18636   -18616   -18635   -18686 
  -18739   -18733   -18663   -18607   -18616   -18647   -18652   -18631 
  -18588   -18535   -18482   -18399   -18311   -18315   -18422   -18509 
  -18496   -18436   -18457   -18601   -18774   -18808   -18648   -18432 
  -18365   -18524   -18789   -18966   -18972   -18870   -18744   -18616 
  -18482   -18353   -18276   -18333   -18524   -18720   -18771   -18627 
  -18387   -18257   -18350   -18555   -18704   -18729   -18674   -18619 
  -18592   -18532   -18414   -18324   -18362   -18515   -18681   -18783 
  -18790   -18719   -18638   -18644   -18746   -18831   -18775   -18580 
  -18376   -18335   -18513   -18758   -18847   -18711   -18439   -18183 
  -18060   -18088   -18199   -18349   -18551   -18750   -18837   -18808 
  -18729   -18624   -18527   -18503   -18558   -18631   -18657   -18612 
  -18547   -18547   -18640   -18770   -18835   -18774   -18608   -18435 
  -18384   -18507   -18719   -18835   -18748   -18549   -18396   -18346 
  -18319   -18239   -18179   -18288   -18558   -18790   -18821   -18663 
  -18473   -18435   -18577   -18746   -18809   -18775   -18716   -18674 
  -18650   -18628   -18594   -18550   -18481   -18358   -18239   -18277 
  -18509   -18789   -18914   -18793   -18531   -18349   -18355   -18461 
  -18520   -18485   -18407   -18362   -18430   -18613   -18804   -18901 
  -18878   -18765   -18640   -18550   -18477   -18438   -18468   -18554 
  -18642   -18667   -18608   -18516   -18496   -18584   -18715   -18789 
  -18709   -18447   -18150   -18052   -18220   -18492   -18696   -18804 
  -18868   -18913   -18882   -18700   -18388   -18117   -18076   -18318 
  -18692   -18963   -18997   -18846   -18644   -18516   -18505   -18531 
  -18495   -18430   -18441   -18546   -18661   -18684   -18559   -18369 
  -18299   -18415   -18586   -18666   -18611   -18480   -18415   -18532 
  -18787   -19016   -19045   -18810   -18422   -18121   -18080   -18281 
  -18573   -18793   -18852   -18765   -18631   -18544   -18530   -18544 
  -18535   -18523   -18584   -18720   -18831   -18814   -18665   -18472 
  -18355   -18360   -18428   -18492   -18539   -18562   -18523   -18436 
  -18373   -18362   -18405   -18508   -18631   -18696   -18706   -18716 
  -18760   -18832   -18866   -18759   -18508   -18258   -18158   -18252 
  -18472   -18704   -18860   -18910   -18848   -18684   -18465   -18297 
  -18266   -18370   -18516   -18605   -18604   -18559   -18526   -18524 
  -18557   -18597   -18586   -18527   -18507   -18592   -18756   -18897 
  -18914   -18786   -18577   -18374   -18252   -18237   -18297   -18381 
  -18455   -18531   -18625   -18696   -18665   -18527   -18392   -18378 
  -18508   -18706   -18870   -18901   -18796   -18625   -18458   -18339 
  -18303   -18341   -18418   -18515   -18603   -18650   -18646   -18577 
  -18455   -18388   -18458   -18620   -18762   -18801   -18732   -18643 
  -18607   -18621   -18628   -18559   -18427   -18338   -18387   -18557 
  -18739   -18802   -18706   -18561   -18507   -18551   -18597   -18571 
  -18492   -18436   -18459   -18563   -18713   -18844   -18877   -18778 
  -18601   -18430   -18331   -18316   -18339   -18374   -18463   -18607 
  -18706   -18682   -18588   -18534   -18566   -18642   -18670   -18603 
  -18490   -18400   -18346   -18334   -18362   -18420   -18530   -18698 
  -18843   -18875   -18790   -18662   -18593   -18604   -18632   -18632 
  -18596   -18538   -18484   -18469   -18523   -18608   -18643   -18594 
  -18492   -18392   -18343   -18341   -18364   -18443   -18616   -18827 
  -18947   -18900   -18727   -18539   -18439   -18466   -18570   -18651 
  -18658   -18620   -18590   -18600   -18625   -18600   -18500   -18393 
  -18346   -18357   -18420   -18534   -18658   -18744   -18760   -18692 
  -18573   -18499   -18508   -18570   -18647   -18719   -18759   -18743 
