Origin Time       2025/03/30 22:55:00
Lat.              41.993
Long.             142.725
Depth. (km)       55
Mag.              4.6
Station Code      IBUH01
Station Lat.      42.8739
Station Long.     141.8191
Station Height(m) -40.6
Record Time       2025/03/30 22:56:18
Sampling Freq(Hz) 100Hz
Duration Time(s)  120
Dir.              3
Scale Factor      2942(gal)/8224139
Max. Acc. (gal)   0.179
Last Correction   2025/03/30 22:56:18
Memo.             
[...]
  -21871   -21872   -21874   -21872   -21872   -21872   -21871   -21870 
  -21871   -21872   -21872   -21872   -21872   -21872   -21872   -21872 
  -21870   -21868   -21871   -21874   -21872   -21871   -21871   -21871 
  -21872   -21875   -21874   -21874   -21872   -21870   -21871   -21872 
  -21871   -21871   -21872   -21870   -21871   -21875   -21874   -21870 
  -21871   -21872   -21872   -21872   -21872   -21871   -21871   -21871 
  -21870   -21871   -21872   -21871   -21871   -21872   -21872   -21872 
  -21872   -21871   -21871   -21871   -21872   -21872   -21871   -21870 
  -21871   -21874   -21871   -21870   -21871   -21872   -21872   -21871 
  -21872   -21874   -21872   -21872   -21871   -21872   -21872   -21871 
  -21871   -21872   -21874   -21874   -21874   -21874   -21874   -21874 
  -21875   -21874   -21874   -21874   -21872   -21870   -21871   -21872 
  -21872   -21875   -21875   -21874   -21871   -21872   -21874   -21875 
  -21874   -21871   -21871   -21874   -21875   -21874   -21872   -21872 
  -21874   -21875   -21875   -21872   -21871   -21874   -21875   -21872 
  -21871   -21872   -21874   -21872   -21870   -21871   -21874   -21874 
  -21875   -21875   -21874   -21874   -21875   -21875   -21875   -21874 
  -21874   -21878   -21875   -21874   -21876   -21876   -21872   -21872 
  -21874   -21872   -21871   -21871   -21872   -21874   -21872   -21871 
  -21872   -21872   -21874   -21874   -21872   -21871   -21871   -21871 
  -21872   -21872   -21872   -21872   -21871   -21871   -21872   -21871 
  -21874   -21874   -21871   -21872   -21875   -21874   -21874   -21871 
  -21870   -21872   -21875   -21875   -21874   -21872   -21874   -21872 
  -21872   -21872   -21871   -21871   -21872   -21872   -21871   -21874 
  -21875   -21874   -21874   -21875   -21875   -21872   -21872   -21874 
  -21872   -21872   -21875   -21872   -21872   -21874   -21874   -21872 
  -21872   -21872   -21875   -21872   -21871   -21872   -21872   -21872 
  -21872   -21871   -21870   -21871   -21871   -21872   -21872   -21872 
  -21871   -21871   -21874   -21875   -21875   -21872   -21870   -21874 
  -21875   -21874   -21875   -21874   -21872   -21871   -21871   -21874 
  -21874   -21872   -21872   -21875   -21872   -21870   -21874   -21875 
  -21871   -21871   -21874   -21871   -21872   -21874   -21870   -21870 
  -21874   -21874   -21871   -21871   -21872   -21871   -21871   -21872 
  -21872   -21872   -21872   -21874   -21872   -21871   -21870   -21871 
  -21874   -21874   -21872   -21871   -21872   -21872   -21871   -21872 
  -21872   -21871   -21871   -21872   -21874   -21872   -21872   -21874 
  -21872   -21872   -21874   -21872   -21874   -21875   -21874   -21872 
  -21871   -21870   -21872   -21874   -21874   -21872   -21871   -21871 
  -21872   -21872   -21870   -21870   -21872   -21874   -21875   -21874 
  -21870   -21871   -21872   -21870   -21872   -21875   -21872   -21872 
  -21874   -21872   -21871   -21872   -21874   -21874   -21872   -21874 
  -21871   -21870   -21872   -21872   -21871   -21872   -21876   -21875 
  -21872   -21872   -21872   -21872   -21872   -21874   -21874   -21871 
  -21872   -21872   -21870   -21871   -21875   -21876   -21874   -21871 
  -21871   -21872   -21874   -21872   -21871   -21872   -21871   -21868 
  -21871   -21871   -21870   -21872   -21875   -21874   -21871   -21872 
  -21874   -21872   -21872   -21874   -21871   -21871   -21872   -21874 
  -21874   -21874   -21874   -21875   -21875   -21872   -21874   -21874 
  -21871   -21872   -21872   -21872   -21875   -21875   -21874   -21872 
  -21871   -21871   -21872   -21872   -21872   -21874   -21876   -21871 
  -21868   -21874   -21874   -21872   -21875   -21874   -21874   -21874 
  -21874   -21871   -21871   -21874   -21875   -21874   -21874   -21874 
  -21872   -21872   -21874   -21871   -21871   -21875   -21872   -21872 
  -21874   -21874   -21872   -21872   -21872   -21871   -21875   -21874 
  -21871   -21872   -21872   -21872   -21874   -21875   -21875   -21874 
  -21871   -21874   -21875   -21872   -21874   -21874   -21871   -21874 
  -21875   -21872   -21872   -21874   -21872   -21868   -21872   -21875 
  -21872   -21872   -21874   -21874   -21875   -21875   -21872   -21871 
  -21871   -21872   -21875   -21872   -21870   -21872   -21875   -21872 
  -21871   -21874   -21875   -21874   -21875   -21874   -21871   -21871 
  -21872   -21872   -21872   -21872   -21872   -21870   -21874   -21876 
  -21874   -21871   -21871   -21872   -21874   -21872   -21872   -21872 
  -21872   -21871   -21872   -21872   -21871   -21871   -21871   -21872 
  -21874   -21875   -21872   -21871   -21872   -21874   -21872   -21872 
  -21876   -21874   -21871   -21872   -21874   -21874   -21871   -21871 
  -21874   -21872   -21874   -21876   -21872   -21870   -21874   -21872 
  -21872   -21874   -21874   -21872   -21872   -21872   -21872   -21874 
  -21874   -21874   -21874   -21872   -21871   -21872   -21872   -21871 
  -21871   -21872   -21875   -21871   -21871   -21874   -21874   -21872 
  -21874   -21871   -21868   -21870   -21872   -21871   -21872   -21874 
  -21875   -21872   -21870   -21870   -21871   -21874   -21874   -21870 
  -21870   -21871   -21870   -21871   -21872   -21872   -21871   -21870 
  -21871   -21874   -21875   -21874   -21872   -21872   -21872   -21871 
  -21871   -21874   -21872   -21871   -21872   -21874   -21872   -21874 
  -21875   -21872   -21871   -21871   -21871   -21871   -21871   -21871 
  -21872   -21872   -21872   -21872   -21872   -21872   -21871   -21872 
  -21876   -21874   -21871   -21872   -21874   -21871   -21867   -21868 
  -21871   -21872   -21871   -21871   -21872   -21871   -21871   -21874 
  -21874   -21874   -21875   -21874   -21871   -21874   -21875   -21872 
  -21875   -21876   -21874   -21872   -21874   -21874   -21874   -21875 
  -21874   -21872   -21871   -21871   -21872   -21874   -21874   -21871 
  -21870   -21871   -21874   -21872   -21871   -21872   -21875   -21874 
  -21872   -21872   -21872   -21874   -21871   -21870   -21872   -21871 
  -21868   -21871   -21875   -21875   -21871   -21871   -21871   -21870 
  -21872   -21875   -21872   -21872   -21874   -21872   -21872   -21874 
  -21872   -21872   -21874   -21872   -21871   -21872   -21874   -21872 
  -21872   -21874   -21872   -21871   -21874   -21872   -21872   -21874 
  -21875   -21876   -21874   -21871   -21872   -21872   -21871   -21871 
  -21872   -21872   -21872   -21875   -21875   -21874   -21874   -21875 
  -21872   -21870   -21871   -21875   -21874   -21871   -21872   -21872 
  -21874   -21872   -21871   -21872   -21874   -21871   -21871   -21872 
  -21872   -21871   -21872   -21871   -21872   -21872   -21872   -21872 
  -21874   -21874   -21871   -21868   -21874   -21874   -21871   -21872 
  -21874   -21872   -21872   -21872   -21874   -21875   -21874   -21872 
  -21872   -21874   -21874   -21875   -21874   -21872   -21874   -21872 
  -21871   -21872   -21872   -21874   -21876   -21872   -21870   -21872 
  -21872   -21872   -21871   -21870   -21871   -21872   -21872   -21872 
  -21872   -21871   -21868   -21871   -21874   -21874   -21872   -21872 
  -21872   -21872   -21872   -21874   -21874   -21872   -21871   -21871 
  -21871   -21874   -21876   -21874   -21872   -21874   -21872   -21870 
  -21872   -21872   -21870   -21870   -21874   -21874   -21872   -21872 
  -21870   -21870   -21872   -21871   -21870   -21871   -21871   -21872 
  -21875   -21874   -21872   -21874   -21874   -21872   -21871   -21872 
  -21872   -21872   -21872   -21871   -21871   -21872   -21872   -21871 
  -21871   -21874   -21874   -21872   -21872   -21871   -21870   -21872 
  -21872   -21871   -21874   -21874   -21872   -21872   -21875   -21875 
  -21872   -21870   -21874   -21875   -21871   -21871   -21874   -21872 
  -21872   -21871   -21872   -21875   -21874   -21872   -21872   -21871 
  -21872   -21875   -21872   -21871   -21872   -21871   -21874   -21875 
  -21871   -21871   -21874   -21875   -21875   -21874   -21872   -21872 
  -21871   -21871   -21872   -21874   -21874   -21875   -21875   -21874 
  -21875   -21874   -21874   -21875   -21876   -21872   -21871   -21874 
  -21874   -21874   -21872   -21872   -21874   -21872   -21871   -21874 
  -21874   -21870   -21870   -21874   -21874   -21871   -21871   -21872 
  -21874   -21874   -21874   -21872   -21871   -21871   -21875   -21875 
  -21872   -21872   -21874   -21872   -21874   -21875   -21874   -21874 
  -21875   -21874   -21871   -21871   -21874   -21875   -21874   -21874 
  -21872   -21872   -21872   -21871   -21871   -21874   -21874   -21871 
  -21872   -21874   -21871   -21871   -21871   -21871   -21872   -21872 
  -21870   -21871   -21872   -21871   -21871   -21872   -21874   -21872 
  -21871   -21872   -21872   -21871   -21872   -21875   -21874   -21871 
  -21872   -21874   -21872   -21875   -21872   -21872   -21875   -21874 
  -21874   -21874   -21872   -21875   -21875   -21875   -21874   -21872 
  -21874   -21872   -21871   -21875   -21876   -21875   -21872   -21871 
  -21874   -21876   -21872   -21871   -21871   -21871   -21874   -21875 
  -21875   -21875   -21872   -21871   -21872   -21871   -21871   -21874 
  -21874   -21870   -21871   -21874   -21872   -21872   -21872   -21871 
  -21871   -21874   -21872   -21872   -21872   -21872   -21874   -21872 
  -21872   -21875   -21874   -21871   -21871   -21870   -21871   -21875 
  -21875   -21874   -21874   -21871   -21871   -21872   -21874   -21872 
  -21872   -21874   -21872   -21872   -21872   -21872   -21872   -21874 
  -21872   -21871   -21874   -21875   -21872   -21872   -21874   -21871 
  -21872   -21874   -21872   -21872   -21872   -21872   -21872   -21871 
  -21871   -21874   -21872   -21871   -21872   -21872   -21874   -21874 
  -21872   -21874   -21875   -21874   -21872   -21874   -21875   -21874 
  -21874   -21874   -21872   -21871   -21872   -21875   -21876   -21875 
  -21872   -21872   -21874   -21874   -21875   -21874   -21871   -21874 
  -21875   -21872   -21871   -21872   -21872   -21874   -21874   -21872 
  -21872   -21872   -21874   -21872   -21871   -21872   -21872   -21872 
  -21874   -21874   -21871   -21871   -21872   -21871   -21870   -21872 
  -21871   -21871   -21872   -21872   -21871   -21874   -21875   -21871 
  -21870   -21872   -21871   -21871   -21872   -21870   -21872   -21872 
  -21868   -21870   -21872   -21872   -21872   -21872   -21872   -21874 
  -21874   -21871   -21872   -21872   -21872   -21874   -21874   -21874 
  -21874   -21872   -21874   -21874   -21872   -21875   -21874   -21871 
  -21874   -21874   -21870   -21870   -21874   -21875   -21874   -21872 
  -21875   -21874   -21872   -21872   -21874   -21875   -21878   -21875 
  -21874   -21872   -21874   -21874   -21872   -21872   -21876   -21876 
  -21872   -21872   -21875   -21875   -21874   -21875   -21874   -21875 
  -21878   -21878   -21875   -21874   -21874   -21872   -21871   -21872 
  -21874   -21871   -21871   -21875   -21875   -21871   -21872   -21875 
  -21875   -21874   -21876   -21875   -21872   -21874   -21874   -21872 
  -21876   -21876   -21872   -21871   -21876   -21875   -21874   -21875 
  -21875   -21872   -21874   -21876   -21874   -21872   -21875   -21875 
  -21872   -21872   -21875   -21876   -21874   -21871   -21874   -21872 
  -21870   -21872   -21874   -21872   -21872   -21872   -21872   -21872 
  -21871   -21874   -21876   -21874   -21872   -21875   -21874   -21872 
  -21874   -21874   -21872   -21874   -21872   -21874   -21875   -21874 
  -21874   -21875   -21872   -21871   -21874   -21872   -21870   -21871 
  -21872   -21872   -21872   -21872   -21872   -21872   -21870   -21871 
  -21874   -21871   -21870   -21872   -21874   -21871   -21871   -21875 
  -21875   -21872   -21872   -21872   -21871   -21872   -21874   -21872 
  -21871   -21872   -21872   -21872   -21875   -21872   -21870   -21872 
  -21875   -21871   -21871   -21875   -21872   -21870   -21870   -21872 
  -21875   -21872   -21871   -21874   -21874   -21871   -21872   -21874 
  -21872   -21874   -21874   -21871   -21872   -21872   -21872   -21872 
  -21874   -21874   -21872   -21872   -21871   -21872   -21874   -21872 
  -21872   -21875   -21874   -21871   -21872   -21872   -21871   -21872 
  -21874   -21872   -21874   -21874   -21871   -21872   -21874   -21872 
  -21871   -21871   -21870   -21871   -21871   -21870   -21870   -21871 
  -21872   -21872   -21872   -21875   -21875   -21871   -21872   -21875 
  -21874   -21872   -21874   -21875   -21874   -21870   -21871   -21874 
  -21874   -21874   -21875   -21872   -21870   -21871   -21874   -21875 
  -21872   -21874   -21874   -21871   -21872   -21875   -21874   -21872 
  -21872   -21874   -21874   -21872   -21871   -21872   -21874   -21872 
  -21871   -21872   -21870   -21870   -21872   -21874   -21874   -21875 
  -21874   -21872   -21872   -21871   -21871   -21874   -21875   -21872 
  -21871   -21872   -21875   -21874   -21874   -21875   -21875   -21872 
  -21871   -21872   -21874   -21876   -21878   -21872   -21871   -21874 
  -21872   -21870   -21872   -21874   -21870   -21868   -21871   -21872 
  -21872   -21874   -21874   -21872   -21874   -21876   -21872   -21871 
  -21874   -21874   -21874   -21875   -21876   -21876   -21878   -21878 
  -21878   -21878   -21882   -21888   -21897   -21907   -21925   -21946 
  -21968   -21994   -22021   -22040   -22053   -22056   -22050   -22044 
  -22038   -22036   -22032   -22021   -21995   -21953   -21924   -21911 
  -21910   -21915   -21911   -21882   -21841   -21806   -21776   -21730 
  -21651   -21547   -21447   -21385   -21373   -21398   -21451   -21520 
  -21598   -21697   -21802   -21883   -21913   -21884   -21820   -21759 
  -21733   -21755   -21814   -21874   -21911   -21919   -21914   -21951 
  -22056   -22177   -22237   -22183   -22027   -21840   -21701   -21687 
  -21811   -21983   -22104   -22123   -22029   -21870   -21732   -21686 
  -21770   -21951   -22138   -22270   -22331   -22297   -22167   -21983 
  -21809   -21710   -21717   -21787   -21860   -21915   -21944   -21934 
  -21894   -21852   -21833   -21847   -21848   -21790   -21701   -21635 
  -21591   -21585   -21644   -21730   -21767   -21739   -21702   -21689 
  -21666   -21641   -21681   -21799   -21928   -21994   -22003   -22009 
  -22045   -22076   -22027   -21897   -21797   -21797   -21868   -21967 
  -22046   -22067   -22025   -21915   -21768   -21659   -21639   -21697 
  -21791   -21868   -21894   -21865   -21802   -21743   -21735   -21809 
  -21940   -22046   -22092   -22100   -22059   -21957   -21864   -21848 
  -21905   -21980   -22034   -22080   -22160   -22252   -22283   -22241 
  -22146   -21994   -21801   -21600   -21462   -21469   -21581   -21686 
  -21764   -21825   -21818   -21768   -21768   -21837   -21919   -21959 
  -21932   -21874   -21818   -21757   -21703   -21683   -21706   -21775 
  -21883   -22003   -22131   -22249   -22265   -22098   -21833   -21637 
  -21562   -21560   -21621   -21779   -22007   -22176   -22171   -22029 
  -21918   -21924   -21963   -21982   -22010   -22006   -21903   -21726 
  -21558   -21483   -21506   -21583   -21744   -22000   -22204   -22196 
  -22010   -21794   -21643   -21586   -21616   -21698   -21814   -21941 
  -22036   -22063   -22033   -21999   -22000   -22025   -22056   -22076 
  -22013   -21821   -21606   -21540   -21674   -21892   -22037   -22054 
  -22010   -21967   -21895   -21766   -21648   -21632   -21705   -21756 
  -21737   -21698   -21668   -21658   -21725   -21886   -22048   -22127 
  -22121   -22060   -22002   -21956   -21849   -21714   -21679   -21749 
  -21861   -21999   -22131   -22219   -22246   -22211   -22100   -21905 
  -21685   -21556   -21537   -21568   -21647   -21752   -21805   -21814 
  -21855   -21897   -21878   -21838   -21837   -21871   -21901   -21870 
  -21764   -21694   -21762   -21911   -22032   -22088   -22091   -22059 
  -22018   -21984   -21953   -21957   -22007   -22002   -21911   -21832 
  -21780   -21729   -21732   -21798   -21847   -21853   -21856   -21841 
  -21791   -21782   -21857   -21934   -21929   -21864   -21782   -21716 
  -21741   -21876   -21984   -21991   -21988   -22034   -22063   -22018 
  -21946   -21890   -21864   -21863   -21837   -21771   -21745   -21789 
  -21829   -21843   -21867   -21932   -22025   -22073   -22003   -21851 
  -21732   -21702   -21743   -21828   -21914   -21961   -21980   -22006 
  -22021   -21972   -21853   -21729   -21668   -21675   -21716   -21795 
  -21911   -22010   -22056   -22040   -21936   -21770   -21609   -21535 
  -21594   -21755   -21906   -21973   -21999   -22034   -22046   -21972 
  -21840   -21766   -21811   -21897   -21925   -21910   -21899   -21911 
  -21928   -21911   -21872   -21851   -21834   -21811   -21820   -21849 
  -21855   -21853   -21878   -21891   -21841   -21755   -21699   -21706 
  -21762   -21829   -21878   -21887   -21880   -21911   -21961   -21968 
  -21940   -21913   -21882   -21867   -21901   -21955   -21984   -21994 
  -21992   -21968   -21914   -21857   -21817   -21805   -21840   -21905 
  -21949   -21949   -21919   -21892   -21925   -21995   -22011   -21980 
  -21953   -21894   -21782   -21640   -21520   -21533   -21695   -21845 
  -21888   -21906   -21945   -21955   -21907   -21851   -21851   -21910 
  -21934   -21867   -21795   -21786   -21802   -21802   -21806   -21845 
  -21925   -22014   -22075   -22088   -22072   -22021   -21910   -21767 
  -21682   -21701   -21775   -21865   -21975   -22048   -22042   -21972 
  -21845   -21718   -21697   -21778   -21853   -21906   -21984   -22036 
  -21998   -21918   -21853   -21810   -21787   -21764   -21752   -21790 
  -21879   -21975   -22027   -22011   -21946   -21868   -21802   -21772 
  -21778   -21797   -21829   -21874   -21914   -21945   -21960   -21949 
  -21924   -21898   -21871   -21848   -21828   -21806   -21793   -21791 
  -21790   -21763   -21728   -21759   -21832   -21844   -21828   -21883 
  -21996   -22064   -22030   -21926   -21840   -21838   -21880   -21886 
  -21860   -21855   -21865   -21882   -21906   -21919   -21907   -21898 
  -21898   -21865   -21795   -21751   -21762   -21809   -21875   -21926 
  -21946   -21971   -22000   -21994   -21933   -21838   -21736   -21662 
  -21644   -21686   -21771   -21843   -21884   -21921   -21951   -21948 
  -21901   -21840   -21829   -21864   -21878   -21864   -21841   -21798 
  -21733   -21712   -21783   -21903   -21988   -22010   -22006   -22000 
  -21986   -21949   -21895   -21843   -21834   -21897   -21990   -22046 
  -22052   -22026   -21969   -21892   -21834   -21810   -21814   -21834 
  -21852   -21856   -21824   -21778   -21787   -21848   -21901   -21937 
  -21940   -21880   -21799   -21751   -21749   -21806   -21909   -21967 
  -21925   -21844   -21811   -21836   -21855   -21829   -21797   -21829 
  -21919   -21976   -21963   -21934   -21917   -21883   -21845   -21834 
  -21852   -21886   -21909   -21919   -21941   -21957   -21944   -21913 
  -21886   -21899   -21952   -21964   -21902   -21852   -21863   -21906 
  -21942   -21909   -21797   -21732   -21775   -21843   -21884   -21902 
  -21874   -21826   -21816   -21797   -21730   -21690   -21726   -21784 
  -21817   -21861   -21945   -21992   -21972   -21937   -21895   -21829 
  -21780   -21768   -21774   -21798   -21860   -21951   -22026   -22023 
  -21938   -21859   -21837   -21834   -21826   -21851   -21922   -22003 
  -22040   -22000   -21919   -21890   -21907   -21874   -21789   -21759 
