Origin Time       2025/03/30 22:55:00
Lat.              41.993
Long.             142.725
Depth. (km)       55
Mag.              4.6
Station Code      IBUH05
Station Lat.      42.5629
Station Long.     141.3497
Station Height(m) 20
Record Time       2025/03/30 22:56:19
Sampling Freq(Hz) 100Hz
Duration Time(s)  120
Dir.              5
Scale Factor      7845(gal)/8223790
Max. Acc. (gal)   0.887
Last Correction   2025/03/30 22:56:19
Memo.             
[...]
   39556    39665    39752    39744    39681    39676    39748    39750 
   39654    39580    39571    39619    39721    39768    39672    39555 
   39568    39685    39793    39765    39575    39461    39615    39847 
   39904    39791    39657    39633    39742    39822    39750    39621 
   39529    39542    39641    39636    39510    39521    39707    39850 
   39874    39806    39626    39503    39590    39718    39737    39690 
   39606    39549    39633    39772    39739    39569    39491    39575 
   39721    39831    39857    39776    39658    39623    39677    39753 
   39837    39889    39838    39704    39563    39417    39307    39401 
   39629    39696    39606    39559    39594    39708    39897    39980 
   39822    39618    39588    39704    39806    39769    39600    39483 
   39542    39656    39665    39560    39455    39529    39776    39897 
   39764    39579    39503    39591    39838    40030    39996    39850 
   39687    39548    39567    39691    39685    39564    39502    39544 
   39652    39761    39775    39691    39679    39776    39808    39735 
   39683    39650    39627    39658    39653    39537    39457    39507 
   39621    39729    39766    39691    39604    39622    39675    39681 
   39700    39733    39719    39691    39690    39715    39777    39852 
   39856    39769    39634    39529    39530    39594    39657    39749 
   39825    39800    39737    39723    39703    39588    39413    39306 
   39384    39604    39764    39784    39772    39789    39811    39835 
   39799    39615    39391    39382    39614    39827    39884    39914 
   39887    39717    39599    39626    39583    39426    39380    39533 
   39729    39815    39812    39793    39783    39785    39777    39710 
   39618    39602    39614    39569    39586    39722    39837    39854 
   39811    39738    39649    39579    39588    39621    39541    39453 
   39563    39750    39819    39780    39644    39498    39588    39823 
   39819    39594    39483    39598    39819    39962    39853    39567 
   39461    39650    39829    39762    39582    39506    39604    39793 
   39888    39781    39604    39556    39657    39739    39656    39488 
   39463    39663    39895    39922    39780    39633    39529    39530 
   39663    39753    39695    39599    39561    39610    39698    39737 
   39733    39723    39704    39691    39669    39610    39572    39615 
   39733    39845    39811    39641    39571    39717    39903    39933 
   39769    39556    39510    39631    39691    39568    39432    39445 
   39538    39633    39776    39920    39906    39771    39727    39788 
   39757    39586    39445    39453    39580    39677    39652    39629 
   39667    39627    39569    39649    39772    39830    39891    39926 
   39853    39757    39676    39548    39471    39537    39625    39668 
   39718    39788    39796    39676    39573    39644    39741    39695 
   39584    39528    39506    39499    39595    39787    39873    39733 
   39487    39360    39495    39826    40068    39953    39595    39394 
   39503    39742    39937    39993    39834    39611    39604    39775 
   39814    39604    39363    39356    39540    39694    39739    39688 
   39641    39765    39924    39869    39699    39592    39549    39640 
   39843    39829    39552    39421    39533    39609    39599    39652 
   39753    39802    39781    39707    39623    39642    39777    39852 
   39752    39545    39374    39398    39669    39945    39908    39672 
   39603    39722    39791    39722    39583    39479    39502    39633 
   39738    39750    39754    39802    39852    39843    39692    39457 
   39382    39530    39725    39842    39864    39768    39594    39501 
   39549    39614    39619    39604    39588    39604    39680    39726 
   39696    39719    39827    39858    39758    39649    39580    39537 
   39591    39707    39687    39592    39658    39825    39870    39781 
   39665    39588    39586    39641    39691    39704    39700    39760 
   39862    39835    39663    39519    39487    39537    39622    39673 
   39680    39725    39765    39665    39564    39668    39853    39933 
   39889    39729    39525    39469    39644    39837    39784    39548 
   39410    39483    39663    39822    39816    39594    39434    39564 
   39742    39725    39615    39592    39718    39904    39930    39737 
   39556    39575    39700    39734    39553    39295    39293    39615 
   39966    40095    39965    39739    39653    39681    39619    39517 
   39548    39629    39668    39684    39553    39347    39447    39843 
   40082    40007    39768    39476    39360    39630    39968    39911 
   39559    39399    39641    40003    40142    39970    39591    39218 
   39123    39388    39762    39923    39820    39637    39602    39768 
   39862    39715    39536    39521    39637    39765    39787    39683 
   39586    39582    39654    39788    39864    39749    39580    39575 
   39683    39717    39681    39722    39810    39816    39727    39530 
   39355    39422    39598    39660    39698    39730    39668    39650 
   39731    39715    39580    39503    39540    39671    39847    39899 
   39776    39692    39745    39812    39818    39685    39433    39360 
   39596    39864    39973    39933    39764    39584    39505    39509 
   39577    39631    39580    39549    39657    39775    39812    39830 
   39865    39854    39723    39525    39406    39461    39656    39834 
   39856    39787    39764    39760    39710    39654    39629    39615 
   39630    39675    39656    39556    39505    39534    39556    39622 
   39758    39775    39614    39507    39573    39690    39784    39858 
   39862    39827    39838    39835    39735    39607    39606    39725 
   39733    39577    39457    39476    39571    39694    39811    39810 
   39690    39623    39636    39633    39636    39656    39675    39702 
   39675    39587    39599    39700    39675    39553    39545    39631 
   39707    39777    39834    39822    39745    39677    39667    39671 
   39648    39640    39700    39765    39721    39625    39625    39680 
   39703    39704    39631    39469    39403    39569    39830    39943 
   39866    39730    39623    39573    39614    39729    39792    39729 
   39673    39673    39613    39575    39660    39715    39663    39613 
   39603    39619    39692    39798    39849    39775    39603    39506 
   39572    39660    39680    39710    39752    39712    39618    39545 
   39528    39584    39691    39791    39849    39812    39671    39567 
   39636    39757    39756    39684    39633    39584    39582    39625 
   39611    39607    39719    39823    39835    39787    39626    39453 
   39492    39680    39796    39771    39688    39661    39702    39752 
   39741    39634    39499    39436    39483    39602    39714    39781 
   39779    39733    39731    39714    39610    39561    39669    39849 
   39942    39820    39604    39550    39627    39694    39772    39812 
   39707    39565    39546    39588    39571    39528    39540    39610 
   39708    39777    39771    39700    39613    39622    39780    39885 
   39772    39609    39568    39569    39582    39687    39830    39896 
   39841    39702    39633    39664    39645    39577    39571    39572 
   39561    39692    39897    39881    39671    39514    39491    39626 
   39808    39772    39579    39523    39671    39880    39954    39807 
   39627    39590    39594    39575    39617    39649    39529    39424 
   39571    39802    39846    39741    39688    39769    39860    39804 
   39633    39499    39521    39649    39729    39700    39642    39629 
   39654    39704    39735    39677    39548    39465    39540    39771 
   39910    39776    39619    39673    39785    39806    39784    39731 
   39640    39600    39675    39780    39775    39645    39556    39587 
   39658    39727    39756    39717    39688    39761    39895    39915 
   39718    39474    39406    39522    39665    39704    39665    39633 
   39594    39565    39630    39742    39771    39672    39549    39565 
   39753    39918    39858    39694    39673    39745    39737    39706 
   39722    39700    39637    39603    39571    39525    39526    39586 
   39681    39784    39814    39757    39673    39603    39645    39766 
   39742    39610    39548    39506    39498    39669    39861    39798 
   39607    39517    39536    39641    39766    39818    39833    39831 
   39808    39814    39796    39694    39614    39606    39583    39565 
   39592    39615    39663    39734    39671    39465    39343    39456 
   39711    39879    39806    39563    39415    39552    39819    39912 
   39725    39460    39397    39577    39808    39903    39857    39765 
   39731    39765    39737    39621    39550    39559    39569    39600 
   39673    39675    39567    39505    39537    39587    39648    39676 
   39638    39591    39576    39636    39773    39868    39811    39692 
   39671    39772    39872    39795    39521    39321    39407    39672 
   39877    39864    39688    39600    39672    39695    39607    39548 
   39542    39544    39583    39640    39676    39714    39710    39617 
   39564    39677    39838    39820    39623    39503    39573    39661 
   39702    39792    39860    39773    39671    39714    39841    39937 
   39933    39819    39669    39561    39577    39730    39820    39707 
   39541    39499    39553    39626    39684    39634    39468    39366 
   39471    39726    39933    39927    39745    39552    39521    39618 
   39641    39615    39699    39827    39887    39852    39676    39498 
   39583    39827    39912    39837    39761    39711    39714    39793 
   39826    39718    39580    39536    39561    39573    39522    39422 
   39387    39515    39738    39892    39862    39685    39572    39690 
   39915    40007    39949    39843    39739    39692    39744    39838 
   39870    39792    39690    39673    39694    39685    39727    39812 
   39792    39644    39447    39302    39402    39703    39873    39769 
   39522    39285    39191    39291    39467    39598    39669    39688 
   39714    39819    39883    39779    39637    39606    39623    39649 
   39746    39881    39926    39835    39712    39703    39800    39842 
   39760    39672    39673    39739    39825    39866    39826    39746 
   39629    39463    39405    39522    39630    39663    39729    39758 
   39625    39469    39437    39507    39704    39947    39984    39815 
   39615    39417    39301    39425    39698    39864    39891    39858 
   39684    39414    39357    39627    39920    39923    39733    39627 
   39677    39808    39960    40070    40068    39933    39777    39741 
   39726    39522    39272    39289    39482    39580    39582    39577 
   39577    39591    39610    39563    39464    39424    39449    39609 
   40065    40498    40313    39641    39213    39402    39927    40289 
   40174    39622    39096    39132    39646    40032    40024    39823 
   39613    39519    39583    39609    39468    39326    39305    39340 
   39410    39587    39807    39845    39623    39343    39232    39397 
   39819    40213    40167    39739    39475    39623    39880    39877 
   39568    39260    39303    39673    40030    40057    39762    39505 
   39584    39834    39887    39684    39438    39384    39600    39773 
   39626    39441    39550    39820    39995    39950    39702    39455 
   39480    39784    40103    40135    39795    39339    39131    39309 
   39718    40028    39973    39621    39314    39324    39625    39928 
   39888    39577    39525    39883    40185    40097    39791    39613 
   39634    39649    39526    39328    39216    39299    39511    39680 
   39669    39505    39451    39753    40194    40259    39942    39726 
   39787    39993    40182    40069    39544    39005    38893    39131 
   39411    39611    39671    39538    39307    39185    39329    39679 
   40009    40163    40097    39922    39896    40027    39966    39687 
   39607    39806    39943    39938    39888    39710    39459    39453 
   39792    40130    40082    39708    39436    39436    39474    39455 
   39430    39283    39112    39294    39791    40198    40397    40387 
   40051    39496    39039    38894    39127    39594    39941    39941 
   39717    39549    39579    39717    39810    39758    39515    39309 
   39555    40144    40487    40360    40001    39690    39681    40003 
   40259    40097    39600    39071    38813    38925    39141    39220 
   39360    39811    40278    40189    39548    38963    38842    39114 
   39609    40084    40223    40046    39954    40068    40081    39873 
   39626    39440    39363    39522    39861    40020    39772    39360 
   39133    39139    39285    39540    39796    39910    39888    39806 
   39677    39542    39444    39403    39515    39766    39915    39845 
   39653    39424    39295    39343    39451    39571    39673    39586 
   39352    39360    39785    40270    40466    40433    40273    39988 
   39667    39459    39511    39845    40165    40150    39885    39599 
   39272    39037    39175    39530    39749    39756    39606    39384 
   39258    39376    39673    39903    39949    39900    39879    39862 
   39715    39513    39430    39399    39374    39521    39799    39926 
   39874    39806    39744    39692    39703    39729    39780    39955 
   40124    40076    39864    39664    39636    39858    40082    39912 
   39414    39069    39247    39849    40324    40221    39668    39070 
   38745    38882    39351    39765    39950    39997    39988    39897 
   39710    39537    39532    39734    40005    40108    39922    39550 
   39293    39386    39681    39857    39811    39644    39476    39444 
   39668    39996    40039    39707    39330    39268    39586    39987 
   40107    39899    39557    39213    39023    39210    39650    39896 
   39814    39567    39290    39193    39391    39680    39829    39860 
   39865    39845    39826    39901    40015    40019    39945    39865 
   39671    39336    39128    39224    39480    39729    39847    39690 
   39391    39366    39688    39980    40019    39884    39663    39436 
   39394    39683    40174    40544    40535    40097    39503    39214 
   39366    39696    39895    39789    39448    39166    39141    39325 
   39590    39796    39835    39742    39627    39534    39502    39594 
   39784    39958    39951    39644    39212    39044    39280    39729 
   40081    40072    39739    39433    39401    39596    39862    40074 
   40153    40081    39955    39899    39873    39775    39640    39544 
   39438    39291    39231    39321    39395    39347    39286    39270 
   39285    39478    39916    40292    40305    40038    39729    39550 
   39611    39904    40220    40277    40043    39680    39314    39114 
   39233    39594    39999    40217    40036    39560    39236    39340 
   39719    40027    39980    39622    39328    39339    39564    39744 
   39723    39629    39602    39594    39536    39367    39164    39217 
   39569    39866    39856    39650    39509    39622    39957    40246 
   40227    39904    39595    39594    39811    39968    39924    39710 
   39479    39447    39700    40050    40101    39656    39078    38952 
   39366    39880    40117    40008    39681    39420    39453    39642 
   39675    39556    39542    39694    39808    39721    39479    39297 
   39359    39638    39874    39841    39614    39430    39483    39815 
   40157    40109    39665    39285    39351    39750    40119    40234 
   40066    39754    39514    39420    39425    39580    39845    39978 
   39895    39737    39600    39530    39586    39712    39750    39636 
   39494    39475    39594    39680    39602    39452    39390    39476 
   39726    40004    40011    39714    39432    39380    39550    39822 
   39985    39945    39866    39843    39766    39617    39461    39360 
   39457    39711    39772    39537    39325    39415    39772    40107 
   40124    39804    39433    39343    39571    39843    39949    39912 
   39835    39785    39780    39748    39641    39538    39501    39509 
   39575    39681    39676    39510    39384    39475    39703    39835 
   39789    39730    39789    39865    39877    39876    39838    39669 
   39453    39440    39680    39903    39922    39829    39642    39388 
   39321    39510    39723    39842    39876    39799    39680    39648 
   39676    39649    39586    39577    39606    39641    39721    39796 
   39768    39649    39546    39541    39580    39592    39617    39596 
   39494    39536    39822    40065    40077    39981    39879    39775 
   39667    39567    39517    39496    39432    39348    39371    39530 
   39752    39949    39966    39668    39231    39004    39171    39625 
   40004    40016    39765    39564    39565    39726    39893    39912 
   39726    39456    39337    39460    39685    39866    39954    39933 
   39841    39758    39712    39734    39835    39923    39924    39842 
   39707    39636    39711    39812    39765    39550    39339    39306 
   39421    39537    39614    39681    39752    39793    39748    39653 
   39571    39505    39544    39714    39788    39592    39351    39366 
   39556    39699    39796    39872    39818    39653    39607    39780 
   39984    40005    39787    39451    39241    39318    39623    39922 
   39972    39741    39438    39328    39471    39650    39667    39576 
   39553    39644    39746    39761    39661    39557    39599    39788 
   39982    40027    39920    39858    39916    39927    39783    39557 
   39409    39426    39556    39726    39880    39914    39839    39793 
   39753    39627    39507    39475    39484    39540    39636    39653 
   39540    39436    39476    39596    39684    39703    39615    39469 
   39424    39506    39613    39691    39735    39729    39667    39604 
   39633    39722    39739    39691    39672    39654    39634    39733 
   39911    40030    40057    39985    39806    39557    39329    39282 
   39487    39749    39793    39650    39590    39745    39972    40081 
   40043    39897    39687    39571    39664    39831    39891    39777 
   39556    39415    39442    39498    39484    39467    39468    39420 
   39355    39414    39596    39777    39911    40008    40069    40088 
   40054    39950    39800    39692    39656    39619    39575    39540 
   39449    39334    39349    39488    39600    39703    39852    39915 
   39808    39710    39777    39877    39849    39741    39649    39641 
   39745    39843    39796    39592    39280    39021    39028    39267 
   39526    39723    39876    39950    39907    39789    39723    39807 
   39939    39943    39792    39594    39488    39517    39599    39654 
   39638    39550    39464    39456    39526    39587    39569    39586 
   39718    39823    39823    39839    39874    39820    39745    39733 
   39698    39599    39515    39501    39542    39606    39664    39710 
   39739    39804    39914    39980    39922    39731    39496    39383 
   39499    39738    39876    39815    39640    39488    39514    39729 
   39935    39995    39946    39862    39789    39708    39595    39490 
   39452    39499    39641    39837    39911    39766    39550    39402 
   39348    39417    39586    39741    39795    39765    39727    39702 
   39645    39560    39513    39538    39623    39704    39681    39572 
