Origin Time       2025/03/30 22:55:00
Lat.              41.993
Long.             142.725
Depth. (km)       55
Mag.              4.6
Station Code      IBUH05
Station Lat.      42.5629
Station Long.     141.3497
Station Height(m) -157
Record Time       2025/03/30 22:56:19
Sampling Freq(Hz) 100Hz
Duration Time(s)  120
Dir.              2
Scale Factor      2942(gal)/8224139
Max. Acc. (gal)   0.376
Last Correction   2025/03/30 22:56:19
Memo.             
[...]
   69094    69039    69016    69129    69263    69346    69369    69268 
   69097    69006    69010    69057    69142    69219    69236    69218 
   69211    69221    69213    69199    69188    69105    68997    68997 
   69059    69126    69183    69165    69107    69138    69275    69398 
   69387    69246    69082    68974    68936    68937    68955    68980 
   69033    69114    69186    69237    69271    69272    69280    69284 
   69218    69134    69130    69168    69145    69057    69032    69114 
   69151    69095    69126    69286    69383    69327    69248    69199 
   69133    69078    69044    69018    69040    69122    69233    69295 
   69290    69265    69194    69083    69025    69016    68987    68951 
   68976    69070    69175    69257    69267    69207    69190    69184 
   69106    69047    69051    69039    69063    69174    69228    69214 
   69292    69423    69439    69356    69286    69229    69137    69036 
   68967    68960    68987    68976    68995    69099    69156    69176 
   69241    69207    69079    69049    69066    69036    69061    69121 
   69138    69203    69276    69213    69124    69160    69226    69240 
   69232    69188    69121    69094    69125    69151    69113    69040 
   68990    69013    69136    69244    69238    69222    69230    69186 
   69141    69175    69190    69147    69144    69149    69126    69191 
   69303    69309    69261    69252    69195    69071    69029    69097 
   69157    69188    69182    69097    69024    69041    69055    69013 
   68971    68924    68902    69033    69257    69358    69302    69215 
   69163    69148    69157    69172    69169    69136    69111    69133 
   69171    69186    69172    69149    69129    69101    69067    69067 
   69076    69070    69133    69237    69248    69222    69268    69303 
   69248    69136    69030    68986    68978    68958    68976    69047 
   69080    69097    69179    69306    69403    69425    69361    69196 
   69005    68956    69041    69107    69121    69122    69122    69149 
   69205    69217    69178    69184    69225    69245    69245    69160 
   69013    68966    69039    69134    69182    69148    69124    69209 
   69282    69232    69161    69155    69157    69138    69113    69082 
   69036    68995    68986    69029    69102    69109    69102    69232 
   69375    69352    69244    69156    69094    69083    69118    69151 
   69152    69087    68966    68920    69016    69145    69257    69353 
   69346    69205    69068    69082    69169    69168    69107    69093 
   69103    69142    69206    69198    69153    69186    69209    69142 
   69117    69196    69271    69260    69209    69188    69199    69225 
   69271    69268    69180    69091    69057    69047    68991    68906 
   68882    68943    69047    69176    69313    69407    69396    69275 
   69132    69076    69121    69172    69178    69149    69097    69070 
   69102    69125    69113    69134    69165    69153    69140    69140 
   69153    69203    69205    69101    69016    69060    69161    69232 
   69273    69269    69205    69163    69187    69182    69097    69024 
   69021    69072    69180    69244    69157    69045    69048    69106 
   69130    69099    69074    69140    69230    69232    69172    69121 
   69125    69191    69249    69259    69228    69155    69090    69106 
   69165    69161    69103    69079    69103    69159    69192    69148 
   69111    69145    69180    69214    69241    69179    69071    69028 
   69057    69113    69172    69209    69203    69169    69137    69147 
   69164    69134    69084    69074    69134    69214    69201    69157 
   69192    69184    69091    69063    69078    69068    69129    69206 
   69134    69007    69016    69140    69230    69236    69205    69174 
   69132    69061    69016    69071    69160    69176    69152    69188 
   69257    69260    69237    69240    69217    69194    69201    69174 
   69080    68998    69033    69159    69240    69226    69179    69144 
   69101    69049    69049    69088    69097    69071    69066    69151 
   69302    69345    69237    69090    68956    68918    69014    69118 
   69168    69182    69155    69167    69242    69240    69157    69147 
   69202    69205    69165    69151    69113    69025    68974    69012 
   69099    69188    69263    69344    69394    69360    69269    69188 
   69129    69063    68985    68931    68939    68999    69074    69125 
   69164    69238    69341    69380    69284    69152    69122    69117 
   69029    69010    69165    69241    69120    69079    69187    69215 
   69199    69222    69145    69017    69013    69083    69145    69195 
   69196    69168    69205    69261    69210    69132    69141    69144 
   69091    69068    69132    69245    69302    69226    69067    68951 
   68956    69040    69107    69087    69013    69037    69168    69240 
   69233    69253    69249    69155    69071    69086    69195    69325 
   69341    69215    69068    69020    69057    69075    69049    69072 
   69169    69263    69283    69248    69223    69207    69178    69137 
   69091    69106    69179    69165    69088    69117    69187    69163 
   69101    69048    69040    69113    69120    69037    69049    69156 
   69237    69284    69255    69128    69043    69078    69105    69106 
   69168    69201    69152    69118    69086    69047    69115    69279 
   69336    69215    69063    68985    69014    69164    69280    69221 
   69115    69091    69105    69148    69225    69286    69240    69106 
   69059    69132    69188    69191    69155    69079    69012    68998 
   69014    69006    69025    69141    69264    69283    69187    69056 
   69076    69237    69256    69125    69122    69234    69286    69246 
   69111    69006    69101    69253    69273    69236    69207    69148 
   69093    69087    69091    69117    69183    69219    69199    69182 
   69163    69106    69064    69086    69118    69141    69157    69125 
   69098    69134    69155    69151    69178    69199    69209    69195 
   69126    69067    69036    68983    68953    68980    69005    69034 
   69141    69263    69275    69232    69233    69196    69117    69142 
   69219    69192    69111    69103    69137    69160    69202    69268 
   69346    69380    69292    69153    69117    69190    69205    69101 
   69016    69026    69102    69222    69283    69186    69048    69032 
   69080    69066    69026    69071    69187    69229    69140    69068 
   69115    69221    69303    69284    69151    69028    69010    69063 
   69128    69160    69178    69241    69264    69188    69171    69256 
   69271    69161    69086    69126    69161    69133    69117    69102 
   69041    69034    69136    69194    69167    69195    69275    69267 
   69151    69025    68986    69061    69124    69103    69124    69175 
   69149    69136    69183    69164    69110    69183    69284    69205 
   69053    69032    69086    69080    69045    69088    69192    69218 
   69182    69205    69215    69159    69171    69221    69159    69082 
   69103    69129    69118    69125    69133    69137    69179    69219 
   69209    69182    69129    69041    69013    69109    69222    69222 
   69152    69133    69178    69230    69253    69257    69240    69178 
   69128    69103    69086    69115    69121    69045    68963    68868 
   68837    69003    69207    69259    69264    69309    69323    69318 
   69314    69245    69133    69075    69052    69013    68989    69017 
   69107    69186    69190    69190    69260    69306    69255    69176 
   69117    69086    69102    69117    69093    69076    69074    69056 
   69063    69091    69093    69141    69233    69232    69167    69171 
   69214    69191    69107    69057    69088    69149    69164    69156 
   69186    69203    69155    69110    69152    69223    69206    69161 
   69156    69080    68997    69039    69106    69110    69103    69121 
   69144    69147    69136    69132    69132    69148    69217    69294 
   69304    69298    69306    69271    69213    69230    69276    69230 
   69136    69056    68983    69012    69106    69034    68874    68914 
   69111    69174    69071    69013    69084    69257    69430    69402 
   69210    69132    69159    69121    69045    68964    68940    69039 
   69118    69130    69199    69295    69318    69265    69175    69129 
   69138    69115    69061    69047    69034    69055    69176    69264 
   69242    69265    69345    69295    69113    69055    69145    69145 
   69053    69016    69039    69088    69136    69182    69261    69300 
   69219    69080    68997    69053    69253    69398    69275    69024 
   68951    69053    69138    69178    69225    69234    69199    69256 
   69369    69344    69222    69149    69063    68960    68991    69136 
   69211    69198    69205    69252    69294    69269    69183    69125 
   69083    69009    68980    69053    69140    69153    69141    69164 
   69199    69218    69187    69134    69109    69083    69064    69084 
   69087    69064    69072    69136    69202    69211    69221    69273 
   69294    69267    69248    69203    69151    69174    69213    69176 
   69090    69026    69026    69075    69134    69169    69186    69203 
   69163    69110    69179    69275    69250    69186    69132    69060 
   69025    69021    68985    68968    69026    69120    69218    69288 
   69282    69234    69188    69115    69032    69022    69078    69093 
   69095    69118    69074    69041    69140    69223    69179    69099 
   69055    69057    69083    69125    69218    69284    69195    69040 
   68995    69040    69080    69095    69057    69016    69047    69072 
   69052    69051    69055    69056    69093    69144    69209    69318 
   69414    69421    69369    69298    69223    69176    69122    69071 
   69086    69133    69167    69180    69122    69018    69024    69141 
   69206    69174    69090    68960    68851    68831    68804    68735 
   68781    68926    68980    68953    68983    69082    69175    69223 
   69222    69213    69245    69271    69290    69325    69272    69192 
   69257    69358    69325    69234    69217    69268    69292    69257 
   69246    69287    69272    69183    69111    69055    69003    68997 
   68974    68879    68805    68870    69028    69125    69136    69152 
   69174    69176    69163    69120    69153    69310    69363    69272 
   69230    69207    69176    69199    69136    68979    69016    69222 
   69300    69260    69273    69282    69226    69148    69037    68997 
   69105    69176    69068    68895    68786    68781    68875    69014 
   69105    69147    69244    69334    69298    69255    69345    69438 
   69394    69327    69371    69454    69504    69480    69331    69198 
   69255    69360    69306    69128    68952    68929    69068    69153 
   69098    69057    69124    69249    69338    69342    69232    69034 
   68909    68862    68754    68669    68706    68790    68910    69037 
   69079    69101    69152    69163    69163    69187    69172    69184 
   69295    69399    69435    69448    69438    69371    69252    69178 
   69194    69259    69368    69453    69402    69317    69360    69462 
   69462    69330    69142    68982    68879    68789    68712    68742 
   68870    69002    69174    69375    69454    69429    69368    69234 
   69126    69201    69365    69404    69271    69103    69045    69094 
   69169    69245    69271    69186    69098    69099    69090    69072 
   69157    69263    69241    69176    69184    69218    69187    69109 
   69072    69130    69196    69160    69053    68908    68737    68692 
   68814    68924    68971    69079    69240    69394    69547    69600 
   69412    69109    68921    68918    69130    69417    69515    69500 
   69518    69429    69286    69292    69264    69016    68759    68629 
   68543    68540    68629    68681    68732    68953    69323    69673 
   69834    69747    69498    69165    68858    68770    68878    68955 
   68918    68837    68829    69033    69417    69731    69789    69600 
   69352    69277    69300    69199    69041    68909    68744    68674 
   68825    69055    69250    69377    69358    69245    69132    69039 
   69087    69321    69484    69414    69269    69187    69115    69057 
   69044    68986    68871    68798    68817    68948    69167    69373 
   69466    69371    69219    69273    69417    69300    68891    68459 
   68332    68658    69155    69415    69426    69408    69376    69206 
   68955    68837    68921    68968    68802    68701    68999    69449 
   69496    69103    68856    69160    69692    69986    69928    69549 
   69068    68774    68643    68629    68783    68913    68809    68652 
   68747    69045    69269    69284    69105    68894    68922    69186 
   69365    69361    69361    69419    69456    69496    69599    69745 
   69819    69758    69600    69288    68843    68581    68580    68540 
   68474    68648    69012    69373    69634    69577    69148    68760 
   68739    68902    69028    69172    69408    69719    69993    70029 
   69766    69318    68898    68816    69083    69210    68882    68463 
   68377    68535    68737    68968    69205    69422    69573    69604 
   69620    69646    69585    69464    69272    69079    69163    69444 
   69468    69163    68823    68651    68690    68778    68736    68729 
   68901    68999    68855    68627    68538    68775    69263    69595 
   69593    69580    69849    70181    70110    69638    69195    68974 
   68872    68831    68814    68764    68661    68490    68253    68094 
   68277    68793    69233    69361    69458    69745    69888    69523 
   68929    68708    68960    69282    69375    69229    69005    69045 
   69508    69930    69828    69402    69049    68885    68889    69032 
   69230    69337    69307    69244    69207    69180    69214    69380 
   69468    69249    69002    69055    69242    69304    69175    68925 
   68706    68578    68519    68565    68701    68905    69165    69276 
   69145    69132    69414    69597    69472    69340    69394    69502 
   69480    69238    68889    68652    68613    68733    68918    69124 
   69446    69722    69514    68935    68592    68666    68886    69070 
   69148    69144    69233    69426    69441    69179    68883    68854 
   69225    69697    69743    69340    68931    68758    68770    68939 
   69176    69313    69435    69673    69816    69754    69677    69637 
   69493    69134    68656    68440    68692    69036    69037    68797 
   68628    68646    68854    69155    69314    69252    69228    69368 
   69396    69223    69132    69172    69109    68885    68727    68847 
   69191    69454    69407    69217    69148    69128    69048    69014 
   69109    69259    69336    69329    69331    69388    69473    69514 
   69396    69171    69094    69260    69365    69213    69087    69172 
   69245    69147    68899    68594    68449    68532    68689    68932 
   69342    69734    69934    69985    69839    69475    69206    69248 
   69318    69172    69021    69075    69126    68997    68874    68909 
   69016    69097    69094    68987    68866    68863    69056    69272 
   69159    68781    68688    69086    69556    69569    69076    68567 
   68423    68593    68943    69249    69280    69140    69025    68933 
   68949    69221    69592    69722    69523    69222    69134    69318 
   69535    69564    69331    69020    68925    68991    68958    68812 
   68686    68698    68828    68905    68920    69074    69333    69399 
   69250    69157    69183    69290    69516    69754    69831    69728 
   69542    69396    69356    69340    69218    69002    68845    68843 
   68953    68985    68760    68584    68878    69292    69223    68889 
   68843    69072    69223    69147    68944    68808    68805    68843 
   68921    69125    69372    69500    69491    69396    69300    69344 
   69442    69309    69003    68933    69180    69421    69444    69336 
   69246    69246    69344    69434    69371    69201    69088    69007 
   68858    68727    68751    68882    68944    68827    68682    68770 
   69020    69187    69263    69263    69124    68979    68979    69086 
   69245    69429    69574    69633    69591    69535    69549    69565 
   69411    69016    68575    68439    68694    69009    69057    68893 
   68787    68918    69229    69469    69414    69137    68870    68752 
   68804    68943    69122    69391    69635    69643    69444    69298 
   69394    69538    69377    69020    68868    68979    69140    69214 
   69211    69218    69269    69283    69215    69191    69276    69330 
   69313    69284    69172    68979    68908    68951    68859    68704 
   68767    68974    69093    69101    69076    69075    69047    68914 
   68804    68866    69028    69194    69311    69275    69159    69201 
   69368    69406    69300    69276    69387    69511    69542    69402 
   69184    69129    69271    69415    69400    69298    69336    69479 
   69419    69111    68851    68812    68917    69083    69182    69068 
   68878    68874    68983    68958    68902    69043    69237    69186 
   68978    69024    69350    69564    69525    69400    69300    69260 
   69282    69319    69303    69232    69161    69093    69032    69022 
   69056    69107    69120    69055    68974    68932    68935    69017 
   69153    69182    69084    69017    69032    69059    69025    68943 
   68912    68966    69067    69160    69176    69188    69350    69553 
   69546    69338    69198    69256    69377    69453    69572    69738 
   69688    69333    68979    68818    68812    68986    69213    69128 
   68706    68422    68575    68912    69053    68982    68910    68921 
   68955    69043    69277    69522    69502    69279    69165    69179 
   69191    69331    69610    69682    69466    69299    69358    69465 
   69417    69175    68940    68945    69101    69230    69304    69207 
   68926    68767    68843    68967    69034    69026    68916    68794 
   68812    68991    69167    69164    69014    68839    68748    68794 
   68827    68821    68962    69221    69410    69464    69434    69403 
   69421    69404    69269    69121    69095    69199    69323    69302 
   69172    69151    69214    69183    69068    68990    68983    69060 
   69184    69213    69074    68860    68782    68982    69259    69349 
   69358    69400    69321    69125    69002    68958    68943    69010 
   69142    69272    69388    69492    69535    69462    69323    69322 
   69554    69747    69615    69252    68894    68628    68463    68397 
   68419    68573    68832    69032    69091    69066    69039    69071 
   69113    69049    68909    68891    69071    69263    69311    69280 
   69214    69045    68843    68816    69033    69311    69398    69352 
   69403    69491    69473    69456    69454    69340    69172    69082 
   69053    69041    69066    69184    69354    69390    69290    69291 
   69363    69264    69091    69051    69026    68912    68856    68980 
   69218    69364    69256    69034    68921    68920    69037    69265 
   69406    69388    69373    69357    69219    69061    69043    69094 
   69125    69153    69161    69167    69244    69352    69373    69283 
   69144    69049    69032    69021    68976    68921    68878    68910 
   69080    69279    69296    69145    69029    68978    68912    68878 
