Origin Time       2025/03/30 22:55:00
Lat.              41.993
Long.             142.725
Depth. (km)       55
Mag.              4.6
Station Code      IBUH01
Station Lat.      42.8739
Station Long.     141.8191
Station Height(m) 60
Record Time       2025/03/30 22:56:18
Sampling Freq(Hz) 100Hz
Duration Time(s)  120
Dir.              5
Scale Factor      7845(gal)/8223790
Max. Acc. (gal)   3.694
Last Correction   2025/03/30 22:56:18
Memo.             
[...]
   -7053    -7241    -7350    -7348    -7211    -6964    -6701    -6532 
   -6505    -6609    -6808    -7042    -7253    -7395    -7437    -7376 
   -7233    -7048    -6886    -6799    -6818    -6932    -7069    -7160 
   -7176    -7111    -6971    -6789    -6644    -6606    -6662    -6751 
   -6853    -6964    -7041    -7034    -6945    -6836    -6783    -6813 
   -6913    -7069    -7242    -7371    -7388    -7273    -7098    -6937 
   -6801    -6697    -6675    -6771    -6961    -7167    -7299    -7295 
   -7156    -6967    -6810    -6683    -6586    -6577    -6693    -6886 
   -7095    -7276    -7372    -7353    -7268    -7167    -7048    -6905 
   -6782    -6723    -6723    -6743    -6740    -6714    -6710    -6759 
   -6870    -7056    -7302    -7516    -7603    -7522    -7302    -7014 
   -6733    -6520    -6436    -6515    -6702    -6880    -6952    -6914 
   -6847    -6825    -6885    -7015    -7163    -7264    -7287    -7227 
   -7109    -6984    -6897    -6851    -6836    -6852    -6897    -6960 
   -7017    -7061    -7111    -7157    -7173    -7157    -7110    -7038 
   -6964    -6883    -6778    -6670    -6613    -6632    -6733    -6897 
   -7049    -7138    -7188    -7225    -7240    -7218    -7146    -7029 
   -6905    -6814    -6802    -6891    -7030    -7136    -7167    -7102 
   -6944    -6764    -6648    -6624    -6670    -6789    -6991    -7199 
   -7298    -7272    -7176    -7032    -6864    -6717    -6620    -6612 
   -6740    -6993    -7252    -7408    -7441    -7354    -7145    -6870 
   -6628    -6488    -6478    -6628    -6933    -7280    -7516    -7557 
   -7392    -7064    -6689    -6415    -6347    -6507    -6836    -7202 
   -7449    -7500    -7377    -7157    -6934    -6774    -6700    -6702 
   -6743    -6802    -6872    -6939    -6987    -7021    -7040    -7028 
   -7003    -7010    -7057    -7123    -7180    -7200    -7155    -7034 
   -6879    -6755    -6717    -6774    -6886    -7007    -7091    -7111 
   -7052    -6920    -6790    -6759    -6835    -6940    -7001    -6988 
   -6905    -6785    -6689    -6674    -6755    -6924    -7132    -7306 
   -7392    -7383    -7273    -7102    -6934    -6822    -6771    -6764 
   -6809    -6926    -7098    -7250    -7312    -7246    -7044    -6758 
   -6517    -6454    -6605    -6899    -7203    -7385    -7373    -7184 
   -6932    -6759    -6732    -6840    -7018    -7157    -7192    -7125 
   -6987    -6840    -6740    -6701    -6721    -6797    -6914    -7044 
   -7148    -7188    -7146    -7045    -6937    -6867    -6878    -6983 
   -7138    -7290    -7387    -7379    -7256    -7067    -6863    -6689 
   -6582    -6559    -6593    -6655    -6768    -6949    -7148    -7267 
   -7248    -7101    -6879    -6664    -6556    -6625    -6862    -7168 
   -7415    -7514    -7433    -7203    -6917    -6701    -6651    -6782 
   -7024    -7261    -7381    -7325    -7101    -6777    -6473    -6327 
   -6412    -6690    -7047    -7329    -7419    -7294    -7015    -6706 
   -6507    -6494    -6647    -6872    -7079    -7221    -7280    -7260 
   -7206    -7156    -7117    -7105    -7128    -7167    -7196    -7183 
   -7098    -6939    -6745    -6582    -6502    -6524    -6648    -6853 
   -7080    -7254    -7317    -7258    -7132    -7002    -6889    -6767 
   -6654    -6613    -6677    -6822    -7011    -7192    -7321    -7357 
   -7280    -7099    -6855    -6631    -6539    -6623    -6831    -7083 
   -7308    -7446    -7447    -7304    -7074    -6859    -6737    -6710 
   -6731    -6758    -6781    -6806    -6848    -6914    -6998    -7075 
   -7122    -7090    -6944    -6748    -6627    -6651    -6805    -7021 
   -7206    -7314    -7360    -7357    -7298    -7203    -7119    -7052 
   -7002    -6971    -6949    -6930    -6924    -6929    -6905    -6808 
   -6669    -6571    -6569    -6648    -6770    -6887    -6953    -6972 
   -6987    -7015    -7055    -7115    -7182    -7200    -7145    -7056 
   -6987    -6974    -7024    -7106    -7176    -7207    -7180    -7064 
   -6878    -6704    -6642    -6714    -6855    -6982    -7061    -7072 
   -6994    -6851    -6702    -6627    -6705    -6939    -7237    -7458 
   -7476    -7287    -7014    -6772    -6617    -6596    -6713    -6910 
   -7101    -7229    -7264    -7199    -7069    -6928    -6802    -6710 
   -6678    -6721    -6837    -7003    -7187    -7325    -7364    -7292 
   -7145    -6980    -6880    -6885    -6963    -7018    -6971    -6824 
   -6658    -6566    -6605    -6752    -6930    -7068    -7118    -7072 
   -6960    -6855    -6835    -6902    -6997    -7084    -7160    -7215 
   -7234    -7219    -7191    -7155    -7096    -7010    -6910    -6794 
   -6686    -6650    -6723    -6879    -7044    -7153    -7167    -7092 
   -7001    -6948    -6937    -6957    -6998    -7003    -6944    -6856 
   -6793    -6782    -6831    -6934    -7090    -7246    -7321    -7298 
   -7219    -7103    -6955    -6804    -6694    -6655    -6685    -6772 
   -6882    -6970    -7034    -7083    -7090    -7034    -6959    -6914 
   -6905    -6917    -6963    -7028    -7072    -7078    -7044    -6964 
   -6859    -6768    -6721    -6723    -6779    -6903    -7063    -7192 
   -7267    -7300    -7279    -7172    -7015    -6883    -6795    -6755 
   -6790    -6901    -7024    -7092    -7096    -7055    -6978    -6898 
   -6868    -6899    -6951    -6974    -6939    -6862    -6799    -6791 
   -6831    -6895    -6963    -7022    -7076    -7113    -7130    -7136 
   -7118    -7052    -6948    -6859    -6825    -6866    -6984    -7146 
   -7295    -7388    -7408    -7349    -7221    -7052    -6859    -6654 
   -6466    -6365    -6392    -6519    -6705    -6925    -7129    -7250 
   -7271    -7214    -7106    -6986    -6905    -6874    -6879    -6899 
   -6909    -6910    -6906    -6907    -6929    -6970    -7015    -7052 
   -7060    -7065    -7123    -7234    -7329    -7331    -7230    -7068 
   -6894    -6745    -6621    -6508    -6446    -6492    -6632    -6802 
   -6976    -7132    -7226    -7223    -7129    -6999    -6930    -6988 
   -7141    -7298    -7379    -7338    -7163    -6909    -6687    -6573 
   -6588    -6712    -6883    -7032    -7129    -7171    -7172    -7153 
   -7109    -7006    -6853    -6720    -6654    -6667    -6755    -6898 
   -7068    -7225    -7311    -7294    -7188    -7042    -6902    -6789 
   -6735    -6768    -6863    -6963    -7042    -7094    -7099    -7051 
   -6993    -6953    -6917    -6882    -6876    -6918    -7015    -7161 
   -7294    -7327    -7236    -7055    -6836    -6642    -6531    -6531 
   -6616    -6750    -6903    -7037    -7115    -7150    -7180    -7203 
   -7182    -7094    -6956    -6820    -6752    -6795    -6920    -7059 
   -7173    -7231    -7183    -7033    -6859    -6740    -6721    -6787 
   -6899    -7021    -7121    -7168    -7126    -6987    -6802    -6655 
   -6597    -6635    -6782    -7038    -7339    -7569    -7646    -7535 
   -7257    -6914    -6642    -6509    -6521    -6660    -6879    -7106 
   -7265    -7307    -7222    -7036    -6805    -6612    -6515    -6529 
   -6659    -6872    -7078    -7198    -7225    -7192    -7134    -7075 
   -7034    -7032    -7065    -7110    -7141    -7126    -7028    -6843 
   -6613    -6443    -6439    -6621    -6920    -7234    -7456    -7495 
   -7326    -7015    -6693    -6482    -6463    -6664    -7002    -7308 
   -7460    -7431    -7254    -6995    -6748    -6606    -6610    -6735 
   -6914    -7060    -7121    -7126    -7137    -7188    -7261    -7304 
   -7264    -7103    -6859    -6625    -6482    -6470    -6615    -6872 
   -7134    -7294    -7306    -7188    -6999    -6822    -6716    -6698 
   -6768    -6898    -7028    -7103    -7092    -7017    -6913    -6821 
   -6805    -6898    -7059    -7214    -7329    -7373    -7323    -7223 
   -7150    -7109    -7042    -6916    -6750    -6612    -6551    -6569 
   -6652    -6783    -6903    -6953    -6930    -6880    -6853    -6885 
   -6964    -7051    -7123    -7186    -7236    -7253    -7233    -7188 
   -7121    -7024    -6922    -6848    -6829    -6899    -7047    -7194 
   -7268    -7256    -7177    -7056    -6917    -6782    -6670    -6613 
   -6627    -6689    -6760    -6831    -6914    -6967    -6918    -6786 
   -6663    -6640    -6731    -6890    -7053    -7191    -7288    -7330 
   -7311    -7240    -7128    -7001    -6899    -6836    -6790    -6763 
   -6809    -6972    -7200    -7387    -7469    -7434    -7292    -7086 
   -6902    -6806    -6808    -6863    -6886    -6802    -6627    -6457 
   -6370    -6386    -6497    -6704    -6972    -7227    -7399    -7441 
   -7358    -7222    -7103    -7028    -7005    -7044    -7137    -7249 
   -7330    -7338    -7236    -7028    -6817    -6720    -6739    -6809 
   -6887    -6975    -7053    -7060    -6959    -6793    -6639    -6543 
   -6523    -6558    -6619    -6700    -6806    -6909    -6983    -7037 
   -7099    -7183    -7268    -7325    -7341    -7326    -7290    -7229 
   -7119    -6943    -6736    -6582    -6532    -6612    -6809    -7060 
   -7287    -7450    -7514    -7441    -7242    -6979    -6739    -6606 
   -6609    -6720    -6895    -7074    -7183    -7186    -7086    -6913 
   -6698    -6475    -6291    -6212    -6292    -6529    -6894    -7330 
   -7739    -8023    -8102    -7947    -7609    -7221    -6906    -6737 
   -6736    -6879    -7069    -7206    -7233    -7142    -6971    -6778 
   -6616    -6524    -6525    -6624    -6793    -6982    -7136    -7196 
   -7126    -6937    -6682    -6448    -6330    -6385    -6610    -6928 
   -7237    -7458    -7539    -7479    -7350    -7236    -7163    -7126 
   -7092    -7021    -6894    -6729    -6567    -6463    -6467    -6588 
   -6760    -6928    -7080    -7230    -7345    -7365    -7291    -7172 
   -7060    -6978    -6918    -6856    -6786    -6720    -6679    -6687 
   -6741    -6813    -6851    -6839    -6798    -6743    -6683    -6681 
   -6782    -6975    -7192    -7335    -7341    -7219    -7045    -6901 
   -6847    -6930    -7153    -7408    -7569    -7589    -7488    -7318 
   -7160    -7071    -7069    -7144    -7236    -7237    -7080    -6793 
   -6447    -6120    -5906    -5877    -6043    -6366    -6768    -7128 
   -7327    -7353    -7280    -7186    -7141    -7231    -7465    -7726 
   -7874    -7871    -7736    -7470    -7099    -6698    -6355    -6119 
   -6019    -6052    -6156    -6277    -6420    -6585    -6729    -6831 
   -6910    -7014    -7202    -7516    -7915    -8243    -8372    -8267 
   -7929    -7416    -6841    -6332    -5989    -5864    -5938    -6123 
   -6338    -6563    -6790    -6984    -7118    -7180    -7176    -7141 
   -7132    -7194    -7290    -7325    -7241    -7030    -6696    -6288 
   -5949    -5853    -6091    -6605    -7264    -7905    -8360    -8494 
   -8283    -7840    -7346    -6979    -6841    -6883    -6953    -6937 
   -6797    -6546    -6258    -6021    -5894    -5919    -6131    -6508 
   -6960    -7384    -7716    -7906    -7885    -7630    -7219    -6783 
   -6435    -6282    -6396    -6732    -7153    -7500    -7654    -7585 
   -7342    -7022    -6748    -6612    -6644    -6836    -7132    -7404 
   -7514    -7395    -7068    -6586    -6049    -5593    -5335    -5382 
   -5819    -6601    -7520    -8328    -8816    -8884    -8557    -7958 
   -7241    -6554    -6033    -5806    -5941    -6369    -6916    -7387 
   -7641    -7641    -7445    -7164    -6895    -6705    -6654    -6744 
   -6863    -6898    -6862    -6822    -6805    -6789    -6750    -6675 
   -6563    -6459    -6469    -6660    -7010    -7454    -7911    -8256 
   -8365    -8172    -7676    -6971    -6268    -5811    -5780    -6210 
   -6967    -7767    -8279    -8299    -7827    -7018    -6142    -5498 
   -5327    -5717    -6554    -7555    -8365    -8679    -8378    -7566 
   -6542    -5692    -5341    -5607    -6374    -7342    -8139    -8456 
   -8190    -7477    -6600    -5860    -5472    -5476    -5788    -6269 
   -6762    -7179    -7528    -7790    -7881    -7754    -7442    -7026 
   -6654    -6500    -6635    -6986    -7423    -7796    -7936    -7778 
   -7396    -6924    -6513    -6324    -6415    -6705    -7048    -7319 
   -7447    -7365    -7017    -6409    -5647    -4959    -4648    -4915 
   -5755    -6972    -8230    -9146    -9437    -9076    -8282    -7385 
   -6700    -6458    -6717    -7281    -7827    -8114    -8047    -7591 
   -6825    -6016    -5495    -5468    -5908    -6592    -7236    -7627 
   -7657    -7310    -6693    -6037    -5593    -5514    -5811    -6396 
   -7132    -7846    -8382    -8635    -8554    -8124    -7380    -6454 
   -5547    -4869    -4602    -4873    -5682    -6831    -7954    -8683 
   -8816    -8430    -7801    -7257    -7076    -7352    -7927    -8495 
   -8753    -8482    -7643    -6408    -5108    -4114    -3704    -3983 
   -4855    -6046    -7221    -8127    -8640    -8735    -8490    -8027 
   -7453    -6875    -6463    -6396    -6721    -7329    -8016    -8571 
   -8822    -8661    -8066    -7134    -6045    -5013    -4278    -4020 
   -4325    -5135    -6230    -7311    -8133    -8545    -8490    -8050 
   -7454    -6982    -6806    -6947    -7330    -7805    -8154    -8186 
   -7865    -7325    -6771    -6357    -6143    -6129    -6284    -6527 
   -6728    -6806    -6770    -6656    -6486    -6286    -6130    -6095 
   -6228    -6555    -7065    -7681    -8268    -8725    -8984    -8976 
   -8677    -8159    -7511    -6821    -6199    -5763    -5576    -5651 
   -5929    -6235    -6326    -6064    -5535    -4973    -4675    -4945 
   -5934    -7493    -9192   -10469   -10843   -10153    -8653    -6870 
   -5341    -4479    -4469    -5225    -6426    -7674    -8648    -9138 
   -9055    -8467    -7595    -6731    -6138    -5956    -6158    -6589 
   -7038    -7299    -7250    -6910    -6399    -5887    -5537    -5476 
   -5783    -6413    -7180    -7867    -8351    -8579    -8525    -8206 
   -7717    -7190    -6728    -6390    -6180    -6068    -6038    -6114 
   -6342    -6731    -7221    -7682    -7985    -8051    -7877    -7551 
   -7203    -6907    -6704    -6619    -6606    -6544    -6361    -6085 
   -5810    -5648    -5691    -5967    -6421    -6944    -7412    -7767 
   -8035    -8264    -8459    -8552    -8469    -8144    -7566    -6841 
   -6173    -5775    -5764    -6103    -6654    -7211    -7543    -7487 
   -7057    -6463    -6002    -5886    -6151    -6714    -7426    -8052 
   -8329    -8120    -7465    -6529    -5560    -4827    -4557    -4888 
   -5799    -7092    -8430    -9423    -9774    -9404    -8491    -7400 
   -6482    -5930    -5784    -5981    -6404    -6949    -7550    -8097 
   -8418    -8349    -7808    -6864    -5745    -4799    -4364    -4604 
   -5410    -6459    -7389    -7977    -8197    -8152    -7982    -7804 
   -7663    -7533    -7392    -7275    -7223    -7272    -7398    -7492 
   -7449    -7211    -6748    -6120    -5529    -5208    -5269    -5678 
   -6308    -6971    -7465    -7678    -7619    -7373    -7090    -6913 
   -6917    -7105    -7412    -7707    -7850    -7781    -7523    -7144 
   -6709    -6282    -5937    -5773    -5907    -6363    -7010    -7618 
   -7970    -7958    -7603    -7041    -6455    -6016    -5869    -6089 
   -6605    -7213    -7736    -8083    -8198    -8056    -7689    -7194 
   -6721    -6434    -6428    -6662    -6993    -7275    -7410    -7322 
   -7020    -6629    -6295    -6100    -6068    -6177    -6400    -6704 
   -7015    -7287    -7460    -7434    -7182    -6777    -6313    -5950 
   -5884    -6183    -6759    -7445    -8012    -8301    -8324    -8174 
   -7977    -7850    -7796    -7769    -7730    -7593    -7298    -6874 
   -6376    -5892    -5552    -5402    -5379    -5432    -5574    -5838 
   -6258    -6810    -7398    -7913    -8278    -8429    -8357    -8100 
   -7685    -7188    -6737    -6430    -6318    -6407    -6651    -6982 
   -7279    -7385    -7229    -6872    -6455    -6160    -6153    -6480 
   -7052    -7685    -8144    -8267    -8041    -7562    -6975    -6462 
   -6169    -6127    -6268    -6473    -6643    -6752    -6817    -6875 
   -6974    -7117    -7254    -7354    -7392    -7312    -7128    -6930 
   -6771    -6660    -6644    -6771    -7024    -7321    -7557    -7643 
   -7531    -7215    -6779    -6381    -6176    -6237    -6542    -6966 
   -7339    -7550    -7546    -7330    -6993    -6675    -6484    -6455 
   -6575    -6774    -6978    -7137    -7225    -7260    -7267    -7207 
   -7065    -6894    -6762    -6713    -6789    -6983    -7207    -7341 
   -7292    -7034    -6633    -6220    -5927    -5869    -6112    -6648 
   -7366    -8055    -8514    -8664    -8523    -8145    -7618    -7036 
   -6485    -6035    -5748    -5678    -5837    -6165    -6550    -6875 
   -7076    -7140    -7086    -6983    -6924    -6961    -7094    -7291 
   -7495    -7649    -7719    -7692    -7589    -7435    -7252    -7072 
   -6902    -6720    -6531    -6373    -6286    -6272    -6304    -6378 
   -6485    -6569    -6583    -6558    -6579    -6704    -6913    -7146 
   -7345    -7487    -7576    -7620    -7646    -7682    -7703    -7651 
   -7514    -7281    -6953    -6586    -6280    -6130    -6162    -6309 
   -6474    -6625    -6758    -6876    -7009    -7169    -7334    -7457 
   -7487    -7418    -7299    -7198    -7134    -7098    -7078    -7045 
   -6932    -6710    -6439    -6235    -6192    -6316    -6556    -6843 
   -7125    -7360    -7497    -7508    -7398    -7187    -6930    -6717 
   -6650    -6782    -7060    -7358    -7589    -7708    -7649    -7360 
   -6914    -6481    -6216    -6230    -6538    -7013    -7462    -7712 
   -7643    -7248    -6639    -5998    -5509    -5314    -5479    -5964 
   -6644    -7349    -7900    -8168    -8121    -7851    -7554    -7385 
   -7380    -7485    -7622    -7704    -7663    -7474    -7171    -6825 
   -6485    -6197    -6012    -5938    -5931    -5976    -6103    -6336 
   -6621    -6858    -6990    -7049    -7105    -7215    -7431    -7753 
   -8089    -8310    -8309    -8043    -7561    -6986    -6474    -6160 
   -6087    -6199    -6378    -6532    -6604    -6569    -6458    -6355 
   -6355    -6513    -6812    -7176    -7496    -7676    -7695    -7620 
   -7551    -7537    -7560    -7581    -7584    -7542    -7402    -7150 
   -6839    -6516    -6216    -5988    -5906    -6026    -6339    -6748 
   -7126    -7385    -7476    -7375    -7117    -6787    -6492    -6332 
   -6366    -6602    -7011    -7515    -8009    -8370    -8475    -8241 
   -7680    -6924    -6189    -5675    -5483    -5603    -5957    -6404 
   -6797    -7047    -7141    -7115    -7055    -7045    -7113    -7263 
   -7481    -7696    -7819    -7807    -7662    -7433    -7156    -6849 
   -6556    -6357    -6318    -6448    -6689    -6916    -7028    -7010 
   -6922    -6833    -6797    -6836    -6917    -6963    -6920    -6812 
   -6696    -6608    -6556    -6558    -6612    -6683    -6745    -6835 
   -7021    -7334    -7719    -8062    -8229    -8144    -7839    -7416 
   -6999    -6697    -6550    -6520    -6555    -6640    -6772    -6916 
   -7013    -7028    -6953    -6818    -6671    -6551    -6493    -6528 
   -6646    -6793    -6932    -7060    -7157    -7180    -7113    -6998 
   -6875    -6770    -6712    -6729    -6837    -7033    -7290    -7564 
   -7777    -7843    -7708    -7389    -7006    -6720    -6636    -6736 
   -6910    -7025    -6960    -6677    -6235    -5798    -5556    -5625 
