Origin Time       2025/03/30 22:55:00
Lat.              41.993
Long.             142.725
Depth. (km)       55
Mag.              4.6
Station Code      IBUH05
Station Lat.      42.5629
Station Long.     141.3497
Station Height(m) 20
Record Time       2025/03/30 22:56:19
Sampling Freq(Hz) 100Hz
Duration Time(s)  120
Dir.              4
Scale Factor      7845(gal)/8223790
Max. Acc. (gal)   0.956
Last Correction   2025/03/30 22:56:19
Memo.             
[...]
     899     1003      935      760      642      580      626      781 
     911      993     1038      997      922      932     1017     1047 
    1048     1092     1017      777      615      641      784      996 
    1092      943      783      761      785      880     1007      970 
     827      795      895     1032     1104     1023      843      712 
     710      807      922      963      907      820      788      819 
     903     1000     1017      959      915      908      915      909 
     880      885      901      834      743      718      731      799 
     942     1074     1147     1155     1048      915      888      870 
     745      641      688      780      812      927     1125     1128 
     931      820      834      846      911     1046     1084      977 
     908      947      945      823      707      738      893      980 
     868      685      634      793     1057     1185     1101      905 
     689      557      660      949     1088      926      760      787 
     897     1061     1216     1154      878      638      557      637 
     911     1221     1215      916      719      778      959     1085 
    1007      756      567      572      723      942     1085     1044 
     928      918     1024     1090     1036      945      911      955 
    1013      936      796      835      962      926      804      757 
     741      738      800      911     1012     1046     1003      967 
     965      908      784      731      846     1008     1027      891 
     741      712      838      989      988      830      692      697 
     838     1043     1158     1075      931      870      903     1007 
    1082     1046      931      761      611      627      760      849 
     916      977      915      784      804     1032     1259     1189 
     866      664      675      692      720      877     1051     1069 
     989      972     1028     1054      938      708      598      751 
     977     1031      926      830      830      855      885      990 
    1055      947      812      827      963     1078     1053      935 
     884      915      888      741      615      684      854      913 
     946     1039     1003      800      689      808      959      958 
     905      913      915      858      827      954     1151     1151 
     927      726      711      853      965      881      676      515 
     499      738     1143     1314     1104      845      801      892 
     951      946      928      951      972      919      849      861 
     923      973     1048     1136     1070      804      595      610 
     693      761      882      976      958      899      834      842 
     963     1040      961      847      850      923      954      947 
     865      679      606      803     1088     1228     1192     1011 
     761      631      729      907      996     1004      988      954 
     924      893      832      837      961     1005      891      808 
     777      703      706      838      924      891      882      953 
     935      827      797      822      828      900     1019     1075 
    1078     1077     1057      957      776      638      638      737 
     858      951      966      923      896      854      774      804 
     954     1038     1066     1088     1005      880      897     1032 
    1059      885      711      687      723      834     1007     1020 
     900      842      826      803      777      799      931     1040 
     997      905      832      811      904     1036     1047      880 
     703      741      919     1042     1062      943      731      630 
     687      819     1005     1109     1048     1021     1055      918 
     718      723      843      913      912      832      784      897 
    1082     1147      994      758      688      762      805      818 
     822      800      811      903     1035     1117     1101     1016 
     939      913      872      774      793     1013     1196     1119 
     878      714      695      747      828      880      838      753 
     727      877     1144     1231     1050      874      869      955 
    1020      972      787      608      581      687      884     1100 
    1120      913      753      783      901      992      986      965 
     989      927      828      854      900      905      924      882 
     812      853      994     1073      999      896      841      783 
     787      850      842      797      762      751      872     1017 
     947      803      834      945      951      878      846      876 
     901      934      982      954      872      808      712      684 
     849     1024     1073     1086     1092     1069     1047     1008 
     891      724      634      619      589      683      953     1086 
    1008     1004     1070     1034      982      978      888      741 
     757      940     1044      961      823      708      596      568 
     692      864      974     1026     1059     1125     1169     1074 
     900      811      796      758      799      981     1046      878 
     762      801      832      878      980      989      876      776 
     823     1043     1210     1123      934      832      758      703 
     781      904      903      868      882      870      888      966 
     945      827      769      789      878     1020     1024      837 
     689      729      905     1120     1200     1057      861      785 
     815      896      996      993      830      700      738      793 
     792      864      969      992     1021     1080     1027      884 
     793      778      818      876      885      872      904      976 
     980      857      799      915      988      959      954      916 
     841      818      815      839      934     1015     1011      946 
     826      693      704      866      958      930      958     1024 
     992      897      769      612      549      668      888     1077 
    1170     1165     1078      984      963      966      868      672 
     575      697      912     1063     1146     1151     1016      808 
     735      812      834      805      859      911      913      913 
     891      947     1097     1074      861      753      756      718 
     777      931      877      727      795      882      838      834 
     873      924      992      965      928      990      982      888 
     924     1054     1035      904      864      827      723      765 
     940     1028     1046      999      804      665      787      996 
    1051      945      812      761      789      865      959      980 
     846      683      722      973     1159     1086      907      824 
     828      901     1035     1124     1111      988      768      618 
     668      784      805      768      781      826      830      851 
     993     1177     1169      935      770      861     1000      935 
     737      635      665      741      886     1098     1174      997 
     791      797      980     1107     1005      796      710      753 
     826      892      913      888      880      911      961     1051 
    1159     1159      988      766      696      797      861      796 
     762      789      792      807      858      924     1021     1062 
     940      750      684      764      897     1058     1165     1069 
     858      791      935     1119     1139      953      706      608 
     756      990     1094     1044      919      726      562      646 
     896      969      831      733      777      957     1185     1279 
    1129      847      685      746      878      932      884      764 
     656      687      866     1038     1112     1081      947      847 
     872      918      958     1020      997      855      766      862 
    1011      978      778      638      707      957     1197     1231 
    1086      938      888      970     1090     1057      912      846 
     841      842      897      953      940      904      855      795 
     778      816      901      988      959      846      795      816 
     830      793      734      745      823      889      970     1075 
    1085      946      734      596      675      908     1080     1067 
     918      818      904     1105     1304     1354     1155      876 
     727      733      868      977      903      735      619      672 
     904      999      854      797      831      753      683      680 
     684      745      839      934     1038     1001      789      661 
     781     1015     1136     1077      931      826      815      912 
    1080     1192     1166     1090      976      792      660      629 
     603      545      503      631      990     1320     1378     1216 
     945      680      627      796      963     1001      931      845 
     850      943     1008      942      807      776      839      872 
     878      823      724      814     1097     1324     1390     1267 
     963      657      525      565      675      772      866      959 
    1032     1120     1159     1042      900      858      816      765 
     791      822      791      747      679      573      533      568 
     567      545      592      724      990     1312     1453     1389 
    1258     1119     1061     1119     1150     1032      826      693 
     669      672      743      930     1112     1197     1170     1028 
     886      830      749      648      661      720      751      834 
     903      827      685      623      648      695      730      756 
     820      928      999      990      970     1020     1147     1260 
    1296     1277     1239     1179     1043      873      801      816 
     835      810      677      481      406      595      957     1204 
    1177      967      729      598      665      888     1065      977 
     731      675      854     1013     1046     1042     1003      877 
     711      600      641      834     1004     1065     1174     1291 
    1171      928      849      882      834      677      606      783 
    1075     1301     1436     1398     1089      672      436      421 
     475      638      943     1120     1067      922      714      633 
     928     1339     1393     1102      834      764      873     1102 
    1204     1026      846      869      859      611      340      330 
     503      697      909     1030      989      958      996     1061 
    1138     1132     1031      928      839      765      739      823 
     980      955      691      535      720     1082     1358     1351 
     996      557      436      684     1038     1242     1175      961 
     854      934     1096     1215     1173      990      862      876 
     977     1050      909      553      324      486      854     1071 
    1077      973      751      473      363      527      810      965 
     973      988     1003      945      881      911     1003      965 
     770      693      889     1178     1273     1042      703      656 
    1023     1449     1459     1019      514      321      537      926 
    1177     1167      953      761      766      846      872      880 
     814      626      567      788     1042     1189     1297     1159 
     696      395      598      984     1143     1104     1098     1177 
    1204     1139     1077     1034      915      750      681      722 
     719      611      499      488      553      598      680      903 
    1100     1058      891      849      916      876      745      734 
     815      861     1005     1273     1368     1225     1096     1065 
    1034     1015     1027     1039     1086     1167     1219     1196 
     953      429       20      182      718     1000      820      471 
     193      183      676     1391     1663     1343      876      695 
     881     1212     1448     1466     1166      680      365      434 
     796     1185     1328     1143      733      400      500      967 
    1397     1507     1254      819      499      464      731     1115 
    1293     1190     1043      999      980      909      762      580 
     521      607      684      839     1119     1107      638      207 
     164      342      548      765     1004     1291     1555     1571 
    1387     1263     1107      812      699      942     1225     1246 
    1102      984      913      963     1134     1140      842      457 
     253      355      650      858      847      680      534      684 
    1173     1618     1634     1309      957      696      553      561 
     673      824      855      704      679      946     1243     1370 
    1323     1100      761      494      548      866      992      750 
     461      346      390      612      950     1120      923      596 
     554      768      947     1090     1213     1197     1196     1410 
    1660     1703     1526     1162      672      207      -31      140 
     630     1032     1119     1017      851      679      710     1030 
    1246      988      480      244      540     1111     1458     1382 
    1000      535      395      841     1509     1772     1414      693 
      67      -76      325      972     1425     1405      957      445 
     298      650     1225     1622     1679     1459     1089      781 
     672      660      673      727      641      301       45      261 
     841     1355     1506     1309      974      730      712      949 
    1290     1426     1204      839      685      889     1256     1455 
    1266      703      125      -24      255      661     1011     1138 
     963      766      866     1247     1690     1895     1641     1089 
     596      332      302      433      595      726      810      820 
     777      727      718      773      841      876      896      884 
     897     1105     1371     1305      940      666      625      773 
    1073     1306     1274     1092      945      845      756      695 
     687      712      737      789      846      866      935     1050 
    1081     1039      993      904      796      826      989     1094 
    1054      934      849      908     1082     1237     1277     1131 
     795      379      130      261      673     1081     1233      973 
     534      456      896     1470     1711     1512     1104      719 
     514      602      797      804      683      650      722      792 
     780      629      438      457      783     1217     1487     1464 
    1209      915      768      800      940     1107     1143      924 
     654      610      689      729      811      970     1101     1154 
    1139     1096     1035      945      900      939      950      908 
     873      789      652      553      537      693     1019     1212 
    1050      756      691      900     1173     1329     1258      951 
     669      622      676      662      569      448      481      765 
    1088     1258     1235     1085      997     1000      982      958 
     903      730      542      513      673      919     1132     1275 
    1294     1132      903      774      812      954      990      793 
     560      548      778     1059     1132      949      730      703 
     931     1232     1309     1109      793      575      711     1108 
    1297     1089      706      454      546      830      945      819 
     610      457      506      768     1047     1162     1084      954 
     938      986     1032     1119     1155     1007      772      685 
     769      816      807      934     1182     1348     1323     1165 
     928      608      367      386      550      711      801      739 
     626      654      793      962     1197     1414     1367     1027 
     692      591      734     1034     1298     1350     1212     1003 
     826      753      795      934     1082     1048      837      749 
     916     1075      994      772      633      606      592      638 
     772      853      827      803      895     1086     1212     1206 
    1175     1147     1084     1004      901      803      761      711 
     589      483      490      615      797      999     1127     1082 
     974      903      795      716      742      784      876     1078 
    1219     1138      888      648      594      757      986     1127 
    1150     1089      943      758      699      842     1030     1078 
     990      881      815      801      854     1013     1159     1042 
     766      702      870     1048     1127     1090      931      684 
     537      673      980     1181     1146      928      684      522 
     510      712     1008     1165     1124     1019      992     1003 
     949      896      926     1003     1065     1030      881      741 
     731      865     1008      994      873      819      828      834 
     886      966      973      901      781      664      662      773 
     920     1084     1148      986      706      522      545      735 
     908      922      804      656      638      873     1243     1501 
    1478     1189      847      662      661      737      783      799 
     843      922     1016     1063      962      758      626      645 
     766      909      989      916      742      688      891     1192 
    1304     1140      891      739      699      751      870      908 
     774      599      589      804     1123     1356     1418     1351 
    1228     1097     1024     1074     1129      992      710      521 
     549      706      858      970      984      793      502      348 
     392      560      757      872      946     1086     1215     1248 
    1256     1248     1148      993      889      846      746      569 
     483      550      670      841     1048     1117     1012      882 
     800      807      946     1107     1175     1223     1258     1185 
    1046      923      765      568      479      581      797      967 
    1005      967      967     1036     1092     1071     1003      897 
     793      820      970     1059     1016      888      708      560 
     573      774     1011     1035      787      504      403      481 
     727     1042     1185     1093      935      896     1055     1264 
    1264     1058      818      645      646      868     1170     1331 
    1186      851      641      627      703      847      903      707 
     499      544      746      972     1192     1298     1183      967 
     853      859      882      855      756      654      661      818 
    1054     1205     1161      980      787      716      804      904 
     904      853      808      822      978     1220     1325     1185 
     924      704      567      521      591      715      785      826 
     943     1123     1193     1026      733      521      500      680 
     951     1117     1113     1021      959     1074     1335     1478 
    1397     1183      923      745      716      799      919      943 
     810      635      510      465      540      700      849      940 
    1012     1102     1181     1169     1040      896      837      854 
     888      876      792      724      742      750      719      780 
     949     1053     1026      951      847      719      638      642 
     750      918      989      943      909      876      807      835 
     994     1116     1121     1030      843      669      639      737 
     904     1075     1154     1132     1062      973      920      940 
     969      923      785      630      602      738      905      999 
