Origin Time       2025/03/30 22:55:00
Lat.              41.993
Long.             142.725
Depth. (km)       55
Mag.              4.6
Station Code      IBUH05
Station Lat.      42.5629
Station Long.     141.3497
Station Height(m) -157
Record Time       2025/03/30 22:56:19
Sampling Freq(Hz) 100Hz
Duration Time(s)  120
Dir.              3
Scale Factor      2942(gal)/8224139
Max. Acc. (gal)   0.271
Last Correction   2025/03/30 22:56:19
Memo.             
[...]
   85996    86032    86138    86247    86320    86393    86413    86343 
   86306    86347    86325    86217    86204    86321    86393    86400 
   86418    86350    86161    86036    86066    86128    86120    86084 
   86125    86239    86304    86308    86281    86246    86271    86348 
   86414    86478    86499    86378    86224    86242    86321    86281 
   86209    86216    86236    86177    86073    86058    86135    86219 
   86271    86277    86283    86327    86320    86250    86232    86255 
   86231    86254    86367    86417    86341    86248    86308    86440 
   86359    86159    86134    86197    86186    86182    86251    86239 
   86069    85939    86043    86285    86455    86490    86413    86273 
   86205    86262    86308    86269    86193    86147    86175    86215 
   86211    86262    86297    86178    86105    86188    86224    86216 
   86283    86302    86236    86231    86282    86323    86371    86378 
   86265    86113    86094    86213    86321    86348    86337    86293 
   86184    86063    86043    86119    86217    86314    86340    86274 
   86235    86275    86309    86310    86366    86400    86298    86236 
   86290    86274    86197    86185    86157    86081    86071    86123 
   86179    86239    86263    86252    86262    86310    86417    86503 
   86386    86115    85980    86055    86201    86366    86474    86405 
   86206    86062    86132    86331    86377    86243    86142    86143 
   86184    86277    86417    86460    86350    86251    86233    86224 
   86265    86374    86437    86381    86274    86277    86355    86290 
   86140    86124    86162    86120    86134    86266    86341    86348 
   86381    86336    86227    86236    86281    86220    86204    86306 
   86374    86348    86294    86208    86086    86023    86092    86239 
   86305    86205    86100    86204    86389    86397    86274    86089 
   85922    86040    86387    86597    86616    86505    86225    85981 
   86107    86476    86647    86474    86162    85958    85951    86011 
   86138    86406    86520    86305    86155    86283    86413    86431 
   86440    86366    86198    86143    86248    86401    86491    86387 
   86136    85988    85997    86082    86242    86371    86382    86352 
   86305    86247    86296    86420    86466    86414    86339    86271 
   86201    86158    86221    86314    86324    86270    86167    86084 
   86121    86232    86328    86340    86244    86170    86236    86364 
   86414    86341    86185    85989    85880    85965    86178    86371 
   86462    86433    86346    86286    86304    86343    86348    86297 
   86143    86013    86135    86393    86463    86355    86266    86178 
   86049    85996    86069    86167    86220    86228    86229    86260 
   86350    86431    86387    86204    86043    86092    86266    86300 
   86206    86220    86370    86459    86410    86374    86390    86324 
   86179    86092    86109    86159    86197    86259    86319    86317 
   86347    86436    86373    86152    86140    86356    86424    86341 
   86335    86309    86206    86123    86081    86103    86147    86121 
   86140    86310    86455    86441    86405    86382    86269    86146 
   86131    86166    86179    86178    86201    86236    86238    86243 
   86305    86331    86232    86109    86093    86173    86267    86358 
   86420    86379    86269    86231    86267    86282    86294    86294 
   86221    86179    86278    86400    86452    86468    86356    86113 
   86009    86089    86136    86130    86150    86131    86094    86179 
   86310    86363    86367    86331    86304    86340    86356    86310 
   86266    86265    86316    86386    86382    86259    86131    86093 
   86103    86154    86228    86204    86105    86089    86229    86470 
   86545    86341    86143    86140    86228    86329    86449    86501 
   86379    86178    86092    86136    86184    86182    86125    86004 
   85949    86080    86243    86277    86304    86360    86306    86254 
   86359    86460    86448    86378    86232    86123    86185    86294 
   86364    86377    86208    85970    85968    86171    86323    86298 
   86134    86059    86229    86391    86402    86466    86499    86314 
   86161    86223    86302    86298    86252    86220    86240    86227 
   86206    86274    86265    86120    86061    86049    85935    85954 
   86225    86378    86266    86212    86287    86297    86297    86370 
   86387    86296    86189    86190    86333    86421    86323    86202 
   86142    86049    86000    86130    86278    86267    86238    86282 
   86292    86283    86378    86498    86474    86351    86275    86208 
   86058    85977    86128    86281    86231    86178    86270    86359 
   86320    86246    86223    86161    86105    86205    86339    86358 
   86373    86404    86327    86266    86332    86347    86236    86163 
   86239    86340    86263    86121    86170    86292    86247    86150 
   86202    86281    86274    86293    86305    86243    86204    86233 
   86282    86273    86213    86211    86255    86277    86320    86381 
   86360    86273    86201    86174    86221    86317    86351    86305 
   86231    86139    86097    86197    86368    86455    86406    86277 
   86232    86409    86594    86514    86274    86128    86147    86217 
   86274    86347    86379    86317    86200    86128    86185    86292 
   86274    86144    86138    86360    86570    86536    86363    86256 
   86202    86098    86080    86256    86385    86314    86231    86190 
   86123    86109    86197    86304    86373    86378    86344    86319 
   86329    86428    86513    86404    86204    86085    86022    86012 
   86073    86089    86084    86206    86325    86301    86283    86297 
   86301    86368    86402    86313    86244    86248    86255    86286 
   86323    86277    86208    86177    86166    86260    86439    86499 
   86395    86235    86136    86177    86300    86368    86331    86219 
   86090    86031    86073    86130    86165    86211    86301    86393 
   86364    86246    86205    86239    86231    86175    86178    86267 
   86332    86355    86410    86413    86255    86059    85996    86078 
   86229    86321    86255    86120    86089    86181    86294    86341 
   86308    86282    86281    86252    86304    86418    86302    85999 
   85934    86151    86347    86420    86397    86300    86238    86271 
   86332    86346    86305    86274    86308    86308    86251    86305 
   86382    86259    86094    86138    86287    86314    86206    86104 
   86121    86211    86231    86220    86248    86219    86123    86086 
   86151    86259    86385    86458    86389    86278    86309    86435 
   86449    86335    86219    86127    86115    86213    86266    86229 
   86217    86201    86151    86161    86232    86286    86292    86250 
   86213    86246    86255    86151    86101    86232    86375    86395 
   86355    86317    86306    86343    86359    86294    86208    86162 
   86185    86262    86265    86139    86036    86054    86123    86215 
   86306    86319    86320    86401    86482    86503    86489    86390 
   86179    86042    86124    86244    86227    86135    86092    86125 
   86157    86155    86244    86412    86486    86443    86390    86354 
   86287    86227    86216    86205    86193    86235    86277    86258 
   86258    86328    86339    86250    86204    86240    86341    86474 
   86470    86305    86170    86124    86155    86217    86188    86098 
   86076    86084    86127    86277    86389    86363    86333    86309 
   86242    86236    86263    86193    86127    86212    86370    86393 
   86243    86121    86066    85961    85953    86189    86375    86296 
   86204    86258    86347    86375    86323    86266    86273    86273 
   86278    86410    86586    86590    86394    86193    86147    86205 
   86229    86190    86147    86101    86094    86228    86416    86437 
   86290    86144    86069    86070    86224    86428    86447    86301 
   86192    86235    86386    86502    86451    86244    86134    86224 
   86283    86228    86132    86042    86049    86120    86179    86271 
   86324    86224    86134    86202    86259    86225    86290    86414 
   86398    86316    86304    86343    86310    86147    86024    86069 
   86211    86395    86525    86508    86421    86316    86202    86208 
   86310    86317    86227    86161    86130    86109    86113    86157 
   86193    86155    86128    86217    86283    86259    86304    86354 
   86232    86138    86244    86304    86205    86136    86120    86120 
   86228    86427    86597    86637    86506    86287    86142    86150 
   86290    86449    86462    86282    86076    86047    86206    86305 
   86146    85905    85893    86090    86294    86466    86557    86413 
   86185    86192    86374    86456    86360    86175    86026    86017 
   86132    86170    86011    85846    85945    86258    86481    86551 
   86562    86421    86243    86297    86393    86258    86127    86243 
   86405    86441    86489    86539    86408    86132    85938    85928 
   86047    86233    86420    86439    86282    86220    86301    86282 
   86205    86267    86337    86250    86159    86143    86101    86130 
   86339    86513    86476    86336    86184    86071    86140    86327 
   86370    86283    86306    86443    86479    86371    86267    86236 
   86173    86063    86071    86197    86246    86247    86314    86283 
   86076    85995    86165    86314    86287    86256    86328    86336 
   86213    86131    86146    86211    86282    86225    86078    86171 
   86479    86502    86188    85981    85968    86023    86255    86563 
   86634    86535    86514    86529    86447    86332    86298    86233 
   86057    86011    86179    86251    86067    85841    85788    85959 
   86292    86529    86474    86316    86270    86213    86151    86273 
   86374    86231    86152    86321    86494    86516    86364    86119 
   86035    86188    86422    86572    86476    86246    86224    86394 
   86418    86309    86360    86449    86304    86113    86112    86211 
   86339    86512    86597    86439    86139    85914    85834    85887 
   86104    86351    86402    86350    86327    86238    86105    86030 
   86032    86131    86267    86323    86282    86289    86383    86431 
   86406    86418    86482    86470    86331    86219    86178    86074 
   85973    86055    86196    86177    86097    86148    86270    86329 
   86331    86278    86190    86161    86209    86320    86463    86505 
   86397    86262    86150    86058    86081    86197    86260    86281 
   86344    86347    86250    86258    86381    86414    86379    86340 
   86233    86131    86198    86347    86289    86035    85877    85884 
   85959    86055    86115    86163    86273    86410    86508    86553 
   86533    86427    86260    86089    85959    85961    86109    86248 
   86304    86394    86559    86656    86584    86393    86208    86119 
   86055    85891    85712    85746    85988    86200    86266    86305 
   86379    86340    86205    86252    86432    86435    86273    86125 
   86076    86151    86285    86364    86350    86300    86320    86408 
   86462    86482    86548    86570    86377    86062    85916    85999 
   86093    86070    85968    85915    86094    86436    86648    86649 
   86566    86468    86429    86521    86624    86501    86177    85985 
   86062    86158    86138    86094    85986    85801    85762    85938 
   86135    86309    86479    86541    86529    86487    86371    86283 
   86246    86194    86269    86468    86530    86435    86336    86252 
   86213    86216    86185    86213    86310    86285    86173    86082 
   86027    86105    86255    86271    86200    86161    86134    86182 
   86356    86475    86481    86524    86598    86624    86620    86543 
   86358    86148    85997    85908    85904    86027    86209    86321 
   86314    86290    86300    86235    86094    86028    86036    86040 
   86116    86271    86385    86427    86400    86337    86379    86487 
   86490    86417    86317    86135    85989    86036    86146    86201 
   86301    86386    86304    86174    86216    86347    86297    86135 
   86154    86320    86448    86503    86486    86383    86260    86201 
   86170    86070    85943    85905    85973    86104    86243    86286 
   86177    86069    86154    86324    86378    86382    86421    86397 
   86319    86316    86386    86433    86358    86185    86103    86139 
   86155    86162    86184    86121    86015    86035    86243    86489 
   86566    86502    86460    86397    86243    86140    86162    86182 
   86166    86221    86335    86391    86402    86437    86456    86387 
   86212    86012    85941    85942    85905    85943    86089    86239 
   86405    86540    86547    86535    86584    86539    86371    86306 
   86355    86306    86186    86208    86351    86383    86258    86127 
   86062    86020    85989    85980    85977    86009    86165    86387 
   86514    86517    86458    86341    86182    86066    86024    86046 
   86158    86275    86255    86177    86185    86211    86179    86192 
   86336    86537    86618    86539    86406    86269    86155    86193 
   86344    86394    86282    86136    86055    86067    86157    86260 
   86310    86305    86279    86277    86296    86238    86147    86157 
   86186    86209    86379    86598    86622    86479    86347    86313 
   86356    86398    86422    86409    86305    86139    85903    85614 
   85496    85625    85796    85989    86297    86571    86637    86576 
   86568    86653    86722    86678    86529    86316    86119    86080 
   86163    86157    86078    86090    86092    85988    85930    86017 
   86197    86354    86424    86456    86448    86395    86373    86373 
   86354    86337    86316    86300    86325    86337    86269    86140 
   86053    86073    86116    86080    86040    86074    86082    86078 
   86186    86333    86374    86320    86302    86377    86428    86395 
   86329    86247    86178    86166    86154    86109    86096    86154 
   86250    86356    86437    86429    86344    86265    86215    86170 
   86121    86125    86250    86452    86636    86755    86728    86525 
   86289    86109    85965    85878    85873    85930    85989    85995 
   86011    86108    86204    86240    86208    86115    86096    86247 
   86436    86556    86621    86614    86506    86337    86140    85942 
   85835    85878    86001    86116    86209    86327    86417    86404 
   86359    86364    86370    86333    86314    86344    86351    86273 
   86147    86078    86130    86227    86256    86212    86132    86039 
   86004    86094    86275    86462    86551    86474    86340    86266 
   86204    86154    86158    86127    86047    86082    86236    86364 
   86417    86402    86348    86286    86196    86116    86167    86294 
   86332    86341    86381    86344    86274    86279    86286    86258 
   86289    86382    86466    86514    86513    86467    86425    86387 
   86341    86309    86254    86181    86170    86205    86220    86188 
   86105    86027    86030    86104    86178    86223    86269    86362 
   86459    86464    86389    86337    86317    86263    86223    86236 
   86212    86188    86286    86354    86250    86131    86076    86027 
   86062    86223    86383    86452    86420    86344    86298    86248 
   86181    86186    86231    86184    86100    86107    86169    86204 
   86242    86290    86266    86206    86224    86270    86262    86236 
   86229    86238    86232    86216    86242    86312    86383    86394 
   86306    86188    86148    86211    86314    86373    86320    86213 
   86165    86192    86236    86236    86202    86220    86327    86412 
   86409    86382    86344    86305    86335    86418    86462    86377 
   86223    86152    86179    86196    86190    86254    86400    86491 
   86462    86359    86238    86151    86130    86151    86179    86221 
   86294    86337    86283    86221    86254    86356    86425    86383 
   86262    86157    86116    86124    86165    86202    86189    86138 
   86088    86081    86124    86178    86227    86263    86275    86289 
   86346    86406    86385    86294    86216    86163    86161    86283 
   86454    86502    86398    86236    86136    86132    86167    86213 
   86247    86240    86235    86233    86221    86275    86346    86287 
   86228    86312    86371    86316    86277    86269    86206    86151 
   86198    86277    86290    86248    86190    86132    86081    86069 
   86142    86246    86274    86228    86182    86190    86238    86256 
   86247    86233    86215    86200    86213    86271    86367    86447 
   86476    86470    86436    86350    86208    86086    86039    86031 
   86049    86092    86112    86135    86228    86368    86455    86435 
   86355    86282    86260    86286    86283    86251    86247    86247 
   86202    86144    86108    86066    86030    86061    86117    86136 
   86173    86269    86368    86425    86459    86476    86414    86293 
   86248    86271    86202    86111    86173    86255    86212    86197 
   86265    86281    86233    86229    86331    86472    86525    86478 
   86409    86325    86242    86225    86208    86098    86013    86030 
   86036    86047    86148    86260    86320    86395    86490    86532 
   86512    86460    86364    86254    86202    86215    86251    86263 
   86219    86198    86267    86304    86221    86146    86151    86162 
   86188    86274    86356    86387    86395    86381    86346    86313 
   86256    86188    86128    86065    86040    86074    86081    86061 
   86081    86109    86143    86216    86302    86383    86404    86316 
   86250    86302    86352    86313    86289    86309    86287    86247 
   86255    86251    86204    86189    86225    86265    86290    86309 
   86297    86252    86254    86320    86389    86406    86360    86304 
   86270    86258    86283    86317    86304    86278    86286    86313 
   86335    86331    86279    86208    86151    86128    86175    86269 
   86294    86252    86244    86258    86246    86238    86221    86174 
   86136    86131    86146    86174    86202    86239    86305    86368 
   86410    86421    86366    86275    86217    86161    86101    86092 
   86130    86186    86258    86352    86454    86509    86503    86449 
   86347    86242    86184    86163    86167    86206    86259    86282 
   86267    86224    86159    86112    86125    86189    86271    86344 
   86370    86337    86294    86279    86285    86323    86374    86370 
   86317    86267    86220    86140    86047    86034    86089    86115 
   86151    86248    86287    86229    86185    86181    86177    86202 
   86251    86252    86200    86154    86158    86181    86174    86190 
   86282    86367    86381    86420    86499    86497    86448    86487 
   86549    86535    86468    86373    86275    86232    86213    86130 
   86012    85954    85945    85931    85915    85930    85990    86047 
   86080    86144    86275    86404    86472    86510    86537    86526 
   86472    86424    86427    86435    86358    86232    86144    86101 
   86109    86184    86297    86394    86404    86325    86266    86281 
   86305    86277    86213    86169    86142    86078    86012    86040 
   86104    86111    86130    86202    86256    86273    86289    86298 
