Origin Time       2025/03/30 22:55:00
Lat.              41.993
Long.             142.725
Depth. (km)       55
Mag.              4.6
Station Code      IBUH01
Station Lat.      42.8739
Station Long.     141.8191
Station Height(m) -40.6
Record Time       2025/03/30 22:56:18
Sampling Freq(Hz) 100Hz
Duration Time(s)  120
Dir.              2
Scale Factor      2942(gal)/8224139
Max. Acc. (gal)   0.282
Last Correction   2025/03/30 22:56:18
Memo.             
[...]
  -51910   -51889   -51842   -51794   -51753   -51713   -51682   -51682 
  -51694   -51705   -51723   -51744   -51744   -51737   -51741   -51742 
  -51726   -51699   -51683   -51703   -51736   -51754   -51777   -51813 
  -51827   -51818   -51825   -51841   -51833   -51815   -51814   -51811 
  -51794   -51781   -51779   -51768   -51744   -51721   -51714   -51730 
  -51759   -51779   -51790   -51784   -51744   -51687   -51669   -51707 
  -51771   -51835   -51873   -51858   -51806   -51752   -51719   -51714 
  -51721   -51727   -51741   -51771   -51807   -51826   -51817   -51792 
  -51777   -51772   -51760   -51749   -51756   -51767   -51768   -51769 
  -51772   -51757   -51721   -51690   -51679   -51688   -51726   -51794 
  -51865   -51902   -51880   -51844   -51838   -51849   -51852   -51834 
  -51800   -51764   -51719   -51688   -51700   -51736   -51748   -51737 
  -51736   -51746   -51750   -51744   -51741   -51750   -51771   -51792 
  -51808   -51796   -51752   -51719   -51727   -51754   -51783   -51815 
  -51846   -51856   -51827   -51786   -51769   -51765   -51754   -51745 
  -51741   -51742   -51760   -51777   -51776   -51765   -51746   -51723 
  -51718   -51732   -51745   -51750   -51744   -51726   -51710   -51700 
  -51702   -51719   -51759   -51807   -51845   -51864   -51865   -51852 
  -51838   -51838   -51829   -51792   -51764   -51767   -51791   -51803 
  -51764   -51695   -51655   -51653   -51668   -51683   -51698   -51726 
  -51745   -51725   -51687   -51667   -51675   -51702   -51740   -51779 
  -51804   -51829   -51856   -51854   -51819   -51808   -51837   -51853 
  -51840   -51823   -51825   -51848   -51869   -51844   -51773   -51694 
  -51622   -51574   -51572   -51615   -51682   -51734   -51749   -51756 
  -51780   -51796   -51792   -51791   -51806   -51845   -51900   -51931 
  -51918   -51880   -51833   -51791   -51772   -51757   -51729   -51713 
  -51725   -51768   -51830   -51865   -51848   -51813   -51781   -51726 
  -51653   -51610   -51607   -51633   -51692   -51783   -51862   -51902 
  -51889   -51817   -51718   -51673   -51700   -51748   -51784   -51825 
  -51868   -51887   -51868   -51819   -51761   -51730   -51740   -51760 
  -51761   -51741   -51705   -51684   -51713   -51757   -51772   -51767 
  -51761   -51764   -51771   -51765   -51744   -51718   -51699   -51694 
  -51694   -51682   -51683   -51727   -51803   -51880   -51949   -51985 
  -51969   -51911   -51834   -51761   -51705   -51675   -51692   -51757 
  -51819   -51831   -51787   -51718   -51663   -51644   -51671   -51725 
  -51767   -51787   -51791   -51775   -51750   -51727   -51706   -51690 
  -51680   -51683   -51715   -51763   -51788   -51791   -51804   -51830 
  -51829   -51796   -51780   -51795   -51814   -51813   -51776   -51715 
  -51664   -51634   -51613   -51603   -51645   -51746   -51837   -51869 
  -51856   -51819   -51780   -51772   -51787   -51795   -51790   -51765 
  -51742   -51761   -51815   -51861   -51862   -51814   -51745   -51705 
  -51707   -51736   -51772   -51802   -51806   -51794   -51771   -51730 
  -51695   -51695   -51718   -51736   -51764   -51808   -51849   -51862 
  -51833   -51786   -51779   -51815   -51853   -51883   -51888   -51857 
  -51810   -51772   -51759   -51775   -51795   -51769   -51695   -51630 
  -51619   -51657   -51718   -51765   -51779   -51779   -51791   -51817 
  -51846   -51862   -51871   -51892   -51908   -51888   -51845   -51786 
  -51723   -51699   -51721   -51763   -51803   -51826   -51817   -51771 
  -51714   -51676   -51660   -51659   -51669   -51691   -51718   -51736 
  -51730   -51709   -51702   -51721   -51742   -51748   -51754   -51775 
  -51803   -51827   -51856   -51900   -51929   -51908   -51856   -51791 
  -51727   -51696   -51686   -51669   -51683   -51737   -51780   -51783 
  -51769   -51772   -51783   -51765   -51725   -51700   -51703   -51717 
  -51734   -51767   -51815   -51856   -51857   -51825   -51790   -51760 
  -51730   -51723   -51754   -51808   -51858   -51898   -51918   -51900 
  -51841   -51767   -51705   -51664   -51659   -51683   -51688   -51665 
  -51655   -51676   -51699   -51702   -51698   -51706   -51722   -51729 
  -51722   -51707   -51683   -51668   -51709   -51794   -51862   -51907 
  -51946   -51970   -51983   -51977   -51929   -51853   -51796   -51768 
  -51737   -51682   -51626   -51601   -51610   -51640   -51676   -51707 
  -51727   -51745   -51752   -51730   -51706   -51698   -51696   -51715 
  -51773   -51844   -51891   -51904   -51894   -51885   -51883   -51861 
  -51817   -51772   -51752   -51749   -51740   -51714   -51705   -51734 
  -51761   -51746   -51730   -51745   -51753   -51711   -51657   -51655 
  -51703   -51750   -51753   -51711   -51675   -51692   -51746   -51791 
  -51818   -51848   -51864   -51860   -51849   -51826   -51800   -51803 
  -51827   -51845   -51857   -51860   -51831   -51761   -51692   -51669 
  -51678   -51682   -51686   -51713   -51736   -51732   -51733   -51773 
  -51829   -51860   -51856   -51827   -51787   -51753   -51733   -51726 
  -51732   -51752   -51791   -51822   -51813   -51777   -51749   -51740 
  -51763   -51811   -51848   -51853   -51827   -51775   -51722   -51705 
  -51710   -51699   -51669   -51665   -51707   -51764   -51799   -51784 
  -51736   -51713   -51748   -51807   -51848   -51852   -51827   -51796 
  -51775   -51757   -51753   -51773   -51790   -51769   -51753   -51783 
  -51845   -51898   -51904   -51868   -51817   -51768   -51718   -51676 
  -51675   -51711   -51757   -51799   -51825   -51833   -51833   -51811 
  -51752   -51702   -51705   -51740   -51771   -51799   -51825   -51837 
  -51825   -51786   -51749   -51753   -51772   -51768   -51748   -51718 
  -51691   -51680   -51687   -51709   -51749   -51800   -51840   -51835 
  -51784   -51717   -51678   -51684   -51734   -51788   -51792   -51736 
  -51687   -51699   -51744   -51772   -51777   -51764   -51740   -51733 
  -51744   -51756   -51786   -51830   -51854   -51840   -51800   -51750 
  -51711   -51695   -51686   -51668   -51675   -51730   -51794   -51814 
  -51794   -51771   -51777   -51819   -51875   -51926   -51952   -51934 
  -51896   -51846   -51790   -51773   -51790   -51775   -51730   -51700 
  -51694   -51700   -51717   -51715   -51690   -51672   -51687   -51717 
  -51734   -51740   -51763   -51804   -51840   -51858   -51872   -51868 
  -51840   -51802   -51764   -51734   -51741   -51777   -51798   -51775 
  -51737   -51722   -51748   -51807   -51854   -51833   -51767   -51702 
  -51636   -51574   -51564   -51602   -51657   -51709   -51744   -51775 
  -51815   -51850   -51875   -51883   -51862   -51818   -51771   -51745 
  -51756   -51772   -51742   -51679   -51663   -51714   -51790   -51854 
  -51899   -51914   -51876   -51783   -51687   -51645   -51661   -51687 
  -51691   -51688   -51695   -51696   -51698   -51729   -51791   -51844 
  -51849   -51821   -51798   -51784   -51769   -51754   -51763   -51803 
  -51852   -51860   -51825   -51807   -51826   -51844   -51834   -51803 
  -51771   -51763   -51777   -51791   -51804   -51826   -51831   -51804 
  -51765   -51738   -51713   -51691   -51688   -51694   -51682   -51668 
  -51680   -51719   -51786   -51868   -51912   -51877   -51807   -51761 
  -51753   -51772   -51788   -51787   -51780   -51771   -51765   -51763 
  -51749   -51725   -51714   -51722   -51734   -51740   -51722   -51691 
  -51687   -51718   -51753   -51775   -51787   -51787   -51776   -51779 
  -51800   -51808   -51795   -51787   -51783   -51764   -51741   -51734 
  -51760   -51826   -51906   -51941   -51912   -51852   -51790   -51745 
  -51727   -51717   -51707   -51719   -51745   -51752   -51729   -51692 
  -51684   -51723   -51773   -51791   -51771   -51733   -51703   -51714 
  -51777   -51848   -51883   -51871   -51818   -51754   -51713   -51692 
  -51692   -51722   -51775   -51819   -51821   -51787   -51741   -51705 
  -51695   -51706   -51705   -51684   -51676   -51688   -51703   -51719 
  -51752   -51794   -51829   -51857   -51881   -51891   -51884   -51860 
  -51811   -51765   -51776   -51810   -51795   -51741   -51679   -51628 
  -51624   -51684   -51757   -51779   -51745   -51709   -51718   -51769 
  -51826   -51867   -51876   -51861   -51846   -51833   -51813   -51787 
  -51769   -51761   -51744   -51714   -51699   -51707   -51730   -51759 
  -51765   -51764   -51788   -51827   -51867   -51896   -51892   -51840 
  -51764   -51714   -51719   -51752   -51756   -51727   -51702   -51679 
  -51646   -51632   -51642   -51676   -51740   -51796   -51813   -51810 
  -51821   -51848   -51867   -51871   -51868   -51849   -51821   -51822 
  -51862   -51902   -51895   -51850   -51815   -51803   -51786   -51761 
  -51741   -51717   -51683   -51667   -51678   -51715   -51776   -51806 
  -51772   -51721   -51686   -51656   -51642   -51657   -51676   -51683 
  -51705   -51745   -51775   -51795   -51834   -51871   -51885   -51904 
  -51912   -51865   -51792   -51750   -51733   -51719   -51719   -51734 
  -51759   -51786   -51806   -51815   -51817   -51807   -51779   -51707 
  -51607   -51529   -51489   -51468   -51476   -51528   -51606   -51679 
  -51737   -51803   -51881   -51943   -51979   -51995   -52002   -52006 
  -51991   -51950   -51916   -51900   -51873   -51811   -51729   -51667 
  -51651   -51655   -51661   -51688   -51737   -51773   -51790   -51787 
  -51759   -51726   -51719   -51738   -51750   -51730   -51684   -51651 
  -51651   -51668   -51695   -51736   -51769   -51784   -51811   -51858 
  -51896   -51911   -51902   -51873   -51838   -51803   -51786   -51798 
  -51811   -51781   -51706   -51642   -51630   -51646   -51659   -51644 
  -51605   -51588   -51622   -51684   -51750   -51813   -51864   -51910 
  -51938   -51926   -51896   -51860   -51794   -51688   -51582   -51518 
  -51524   -51580   -51660   -51748   -51838   -51931   -52012   -52057 
  -52077   -52112   -52141   -52112   -52031   -51929   -51831   -51757 
  -51709   -51686   -51692   -51714   -51737   -51752   -51750   -51715 
  -51665   -51659   -51709   -51764   -51800   -51838   -51860   -51846 
  -51822   -51821   -51844   -51884   -51907   -51881   -51829   -51802 
  -51814   -51833   -51814   -51760   -51733   -51746   -51765   -51776 
  -51783   -51775   -51760   -51767   -51799   -51842   -51879   -51875 
  -51821   -51748   -51694   -51651   -51599   -51555   -51536   -51543 
  -51559   -51579   -51598   -51614   -51641   -51678   -51703   -51703 
  -51694   -51680   -51657   -51661   -51725   -51792   -51791   -51742 
  -51713   -51711   -51711   -51715   -51738   -51781   -51835   -51869 
  -51850   -51792   -51757   -51777   -51823   -51858   -51872   -51862 
  -51844   -51813   -51772   -51723   -51664   -51626   -51660   -51749 
  -51802   -51791   -51783   -51792   -51781   -51761   -51752   -51763 
  -51819   -51914   -51993   -52030   -52020   -51961   -51868   -51796 
  -51773   -51772   -51768   -51757   -51740   -51718   -51682   -51613 
  -51533   -51493   -51507   -51544   -51591   -51684   -51825   -51970 
  -52080   -52135   -52138   -52114   -52070   -51992   -51898   -51826 
  -51761   -51669   -51557   -51468   -51444   -51487   -51552   -51605 
  -51656   -51695   -51702   -51698   -51718   -51754   -51800   -51840 
  -51844   -51810   -51772   -51750   -51722   -51671   -51632   -51646 
  -51719   -51791   -51795   -51753   -51738   -51768   -51835   -51939 
  -52029   -52037   -51964   -51862   -51771   -51690   -51601   -51497 
  -51398   -51358   -51403   -51511   -51640   -51764   -51873   -51943 
  -51960   -51950   -51950   -51968   -51987   -51969   -51891   -51787 
  -51729   -51767   -51857   -51899   -51825   -51655   -51476   -51390 
  -51422   -51518   -51607   -51683   -51754   -51800   -51806   -51795 
  -51779   -51764   -51786   -51848   -51914   -51943   -51918   -51862 
  -51825   -51804   -51781   -51744   -51668   -51557   -51460   -51432 
  -51487   -51597   -51710   -51780   -51804   -51823   -51871   -51954 
  -52031   -52027   -51912   -51754   -51641   -51615   -51655   -51698 
  -51711   -51726   -51753   -51756   -51711   -51641   -51568   -51526 
  -51555   -51668   -51842   -52016   -52111   -52083   -51956   -51803 
  -51726   -51790   -51952   -52096   -52151   -52128   -52039   -51899 
  -51759   -51673   -51651   -51671   -51719   -51795   -51879   -51941 
  -51966   -51960   -51914   -51819   -51703   -51628   -51640   -51740 
  -51873   -51952   -51926   -51814   -51669   -51561   -51553   -51646 
  -51779   -51895   -51958   -51953   -51919   -51896   -51858   -51787 
  -51709   -51659   -51641   -51656   -51696   -51740   -51767   -51761 
  -51719   -51673   -51679   -51737   -51804   -51844   -51840   -51790 
  -51692   -51591   -51565   -51628   -51705   -51727   -51672   -51561 
  -51443   -51379   -51435   -51603   -51791   -51915   -51958   -51933 
  -51864   -51777   -51715   -51721   -51806   -51925   -52026   -52104 
  -52162   -52178   -52139   -52051   -51925   -51790   -51711   -51710 
  -51741   -51742   -51686   -51609   -51582   -51621   -51659   -51628 
  -51545   -51478   -51464   -51506   -51606   -51769   -51976   -52162 
  -52254   -52212   -52050   -51818   -51594   -51460   -51439   -51510 
  -51624   -51706   -51721   -51695   -51660   -51629   -51610   -51615 
  -51672   -51817   -52034   -52228   -52282   -52150   -51898   -51651 
  -51486   -51395   -51356   -51363   -51393   -51422   -51462   -51521 
  -51590   -51644   -51680   -51734   -51846   -52007   -52165   -52262 
  -52280   -52242   -52195   -52166   -52124   -52033   -51883   -51691 
  -51471   -51252   -51074   -50981   -51003   -51143   -51389   -51710 
  -52031   -52234   -52261   -52166   -52038   -51922   -51846   -51854 
  -51931   -52011   -52057   -52080   -52072   -52012   -51910   -51804 
  -51734   -51682   -51605   -51505   -51443   -51482   -51632   -51810 
  -51906   -51873   -51761   -51657   -51624   -51664   -51737   -51804 
  -51862   -51906   -51916   -51888   -51834   -51763   -51703   -51698 
  -51761   -51879   -52020   -52134   -52145   -52018   -51787   -51520 
  -51294   -51193   -51244   -51398   -51574   -51692   -51723   -51692 
  -51663   -51686   -51753   -51811   -51838   -51845   -51834   -51833 
  -51864   -51906   -51927   -51916   -51864   -51788   -51738   -51729 
  -51765   -51844   -51919   -51933   -51868   -51723   -51533   -51371 
  -51305   -51343   -51459   -51610   -51740   -51807   -51830   -51842 
  -51884   -51987   -52135   -52269   -52339   -52309   -52165   -51973 
  -51862   -51900   -51997   -52006   -51889   -51748   -51663   -51644 
  -51673   -51709   -51688   -51591   -51475   -51416   -51425   -51480 
  -51571   -51680   -51786   -51872   -51926   -51948   -51946   -51925 
  -51865   -51764   -51665   -51626   -51651   -51700   -51748   -51787 
  -51796   -51767   -51742   -51781   -51884   -51997   -52070   -52077 
  -52016   -51919   -51814   -51705   -51592   -51495   -51437   -51429 
  -51437   -51433   -51440   -51502   -51626   -51781   -51894   -51888 
  -51777   -51651   -51587   -51625   -51756   -51900   -51988   -52020 
  -52031   -52045   -52074   -52097   -52054   -51912   -51718   -51559 
  -51497   -51533   -51648   -51811   -51946   -51968   -51887   -51781 
  -51700   -51614   -51483   -51325   -51237   -51313   -51538   -51803 
  -52004   -52123   -52180   -52184   -52134   -52020   -51842   -51659 
  -51572   -51625   -51767   -51931   -52057   -52100   -52066   -51983 
  -51852   -51699   -51601   -51621   -51715   -51784   -51760   -51649 
  -51524   -51467   -51522   -51668   -51837   -51953   -51988   -51942 
  -51840   -51736   -51682   -51675   -51663   -51613   -51582   -51632 
  -51742   -51861   -51949   -51966   -51896   -51746   -51575   -51493 
  -51568   -51741   -51845   -51779   -51619   -51511   -51505   -51557 
  -51628   -51695   -51749   -51791   -51818   -51834   -51872   -51956 
  -52043   -52085   -52070   -52012   -51930   -51877   -51892   -51922 
  -51876   -51725   -51529   -51398   -51375   -51399   -51414   -51420 
  -51451   -51521   -51609   -51675   -51705   -51710   -51721   -51776 
  -51899   -52051   -52172   -52240   -52258   -52222   -52145   -52061 
  -51980   -51903   -51844   -51796   -51741   -51660   -51548   -51414 
  -51289   -51221   -51252   -51374   -51525   -51638   -51702   -51738 
  -51768   -51833   -51958   -52108   -52213   -52231   -52153   -52027 
  -51915   -51819   -51721   -51644   -51641   -51718   -51802   -51826 
  -51804   -51795   -51810   -51822   -51822   -51817   -51791   -51742 
  -51691   -51661   -51665   -51702   -51736   -51717   -51646   -51576 
  -51547   -51561   -51619   -51723   -51857   -51984   -52058   -52045 
  -51969   -51906   -51898   -51930   -51946   -51894   -51794   -51725 
  -51748   -51846   -51931   -51919   -51798   -51622   -51466   -51375 
  -51367   -51457   -51613   -51754   -51819   -51813   -51794   -51823 
  -51915   -52031   -52111   -52083   -51926   -51741   -51659   -51688 
  -51756   -51822   -51875   -51906   -51916   -51903   -51850   -51775 
  -51700   -51636   -51584   -51565   -51588   -51624   -51636   -51619 
  -51592   -51590   -51630   -51688   -51740   -51792   -51850   -51898 
  -51921   -51916   -51900   -51884   -51880   -51875   -51837   -51749 
  -51660   -51636   -51676   -51732   -51771   -51791   -51821   -51857 
  -51860   -51821   -51776   -51763   -51796   -51844   -51862   -51848 
  -51827   -51845   -51908   -51937   -51848   -51684   -51560   -51541 
  -51618   -51722   -51798   -51830   -51806   -51749   -51709   -51695 
  -51698   -51705   -51692   -51648   -51599   -51586   -51606   -51632 
  -51663   -51709   -51759   -51810   -51871   -51908   -51903   -51887 
  -51891   -51906   -51914   -51899   -51857   -51800   -51741   -51671 
  -51601   -51574   -51588   -51586   -51570   -51592   -51667   -51763 
  -51840   -51881   -51898   -51891   -51864   -51830   -51792   -51722 
  -51644   -51632   -51694   -51763   -51807   -51817   -51780   -51719 
  -51665   -51626   -51610   -51629   -51675   -51741   -51834   -51948 
  -52041   -52076   -52047   -51966   -51852   -51749   -51696   -51676 
  -51665   -51649   -51624   -51601   -51601   -51638   -51702   -51749 
  -51748   -51692   -51614   -51551   -51548   -51619   -51729   -51829 
  -51910   -51980   -52043   -52084   -52095   -52083   -52042   -51965 
  -51862   -51768   -51726   -51744   -51775   -51779   -51745   -51684 
  -51634   -51605   -51570   -51511   -51437   -51358   -51301   -51314 
  -51421   -51591   -51772   -51938   -52064   -52127   -52134   -52108 
  -52076   -52056   -52049   -52054   -52057   -52020   -51925   -51764 
  -51560   -51371   -51281   -51324   -51457   -51592   -51663   -51676 
  -51665   -51657   -51678   -51737   -51826   -51938   -52069   -52162 
  -52161   -52089   -52007   -51942   -51887   -51827   -51784   -51779 
  -51777   -51752   -51729   -51730   -51750   -51772   -51776   -51757 
  -51721   -51667   -51601   -51536   -51503   -51526   -51588   -51667 
  -51779   -51927   -52037   -52049   -52010   -51985   -51972   -51939 
  -51902   -51900   -51925   -51912   -51837   -51736   -51659   -51625 
  -51617   -51602   -51563   -51499   -51451   -51467   -51564   -51696 
  -51806   -51845   -51799   -51741   -51756   -51833   -51916   -51976 
  -51989   -51953   -51883   -51819   -51817   -51848   -51829   -51750 
  -51672   -51633   -51637   -51672   -51687   -51663   -51645   -51653 
