Origin Time       2025/03/30 22:55:00
Lat.              41.993
Long.             142.725
Depth. (km)       55
Mag.              4.6
Station Code      IBUH01
Station Lat.      42.8739
Station Long.     141.8191
Station Height(m) -40.6
Record Time       2025/03/30 22:56:18
Sampling Freq(Hz) 100Hz
Duration Time(s)  120
Dir.              1
Scale Factor      2942(gal)/8224139
Max. Acc. (gal)   0.270
Last Correction   2025/03/30 22:56:18
Memo.             
[...]
  133672   133668   133633   133593   133585   133621   133705   133799 
  133847   133829   133780   133728   133687   133664   133664   133693 
  133733   133759   133763   133743   133712   133712   133741   133755 
  133751   133748   133721   133685   133682   133694   133691   133681 
  133682   133710   133751   133775   133786   133763   133683   133608 
  133604   133641   133666   133674   133698   133749   133787   133783 
  133756   133732   133710   133699   133709   133717   133720   133718 
  133708   133686   133670   133675   133697   133712   133713   133713 
  133713   133725   133758   133785   133779   133744   133685   133618 
  133589   133624   133689   133741   133758   133732   133699   133706 
  133736   133749   133744   133747   133763   133778   133786   133787 
  133780   133764   133747   133736   133733   133744   133760   133762 
  133758   133749   133726   133698   133689   133710   133741   133740 
  133698   133644   133609   133608   133643   133693   133731   133748 
  133741   133710   133693   133744   133834   133878   133841   133778 
  133728   133685   133654   133663   133704   133714   133683   133658 
  133675   133729   133782   133801   133793   133766   133729   133718 
  133733   133747   133752   133743   133710   133678   133671   133695 
  133720   133721   133706   133685   133663   133668   133706   133739 
  133748   133740   133722   133704   133694   133682   133652   133620 
  133631   133704   133782   133799   133753   133695   133677   133701 
  133737   133753   133721   133637   133562   133570   133655   133748 
  133799   133806   133780   133733   133690   133675   133677   133682 
  133678   133658   133636   133635   133654   133694   133752   133798 
  133813   133795   133756   133721   133712   133705   133663   133602 
  133585   133643   133748   133844   133898   133893   133832   133758 
  133713   133702   133698   133695   133717   133745   133739   133718 
  133733   133770   133782   133762   133718   133672   133652   133675 
  133713   133732   133725   133702   133656   133614   133625   133675 
  133721   133741   133736   133740   133779   133801   133771   133737 
  133729   133726   133717   133717   133747   133787   133809   133798 
  133763   133714   133668   133636   133627   133645   133695   133744 
  133744   133718   133712   133717   133716   133714   133729   133756 
  133770   133753   133740   133753   133766   133741   133690   133656 
  133664   133698   133745   133797   133833   133837   133809   133759 
  133713   133687   133685   133694   133699   133687   133674   133664 
  133656   133660   133698   133766   133820   133832   133816   133790 
  133749   133710   133690   133685   133677   133666   133659   133644 
  133612   133593   133624   133683   133720   133735   133743   133745 
  133731   133704   133710   133756   133767   133731   133720   133749 
  133753   133710   133677   133695   133735   133756   133749   133721 
  133691   133667   133660   133687   133709   133679   133629   133617 
  133648   133678   133679   133666   133658   133682   133747   133810 
  133832   133825   133814   133789   133735   133682   133670   133687 
  133695   133678   133662   133671   133685   133675   133666   133697 
  133756   133794   133780   133740   133718   133733   133758   133758 
  133735   133694   133637   133585   133581   133631   133702   133760 
  133787   133780   133772   133783   133789   133778   133780   133805 
  133820   133806   133779   133775   133787   133767   133702   133645 
  133640   133685   133741   133759   133706   133629   133609   133654 
  133706   133744   133762   133747   133717   133701   133702   133712 
  133721   133721   133710   133706   133709   133706   133717   133755 
  133801   133825   133829   133810   133774   133745   133729   133699 
  133662   133647   133664   133695   133724   133739   133740   133733 
  133714   133690   133675   133686   133709   133710   133690   133682 
  133695   133706   133714   133739   133780   133814   133825   133813 
  133776   133709   133633   133600   133625   133666   133685   133694 
  133704   133698   133686   133685   133709   133760   133814   133829 
  133795   133733   133674   133635   133623   133650   133722   133809 
  133829   133744   133632   133589   133602   133629   133655   133668 
  133656   133650   133681   133724   133737   133717   133687   133668 
  133674   133697   133713   133713   133706   133697   133685   133683 
  133704   133755   133818   133845   133821   133797   133799   133785 
  133732   133679   133645   133623   133612   133633   133686   133743 
  133786   133809   133803   133763   133716   133699   133722   133743 
  133718   133672   133650   133655   133689   133758   133824   133843 
  133820   133779   133736   133708   133709   133721   133728   133732 
  133735   133736   133736   133741   133766   133795   133794   133755 
  133709   133682   133670   133651   133623   133600   133583   133587 
  133643   133747   133836   133863   133837   133782   133712   133660 
  133644   133650   133670   133693   133704   133710   133721   133741 
  133771   133780   133764   133759   133767   133762   133735   133701 
  133674   133654   133639   133644   133675   133712   133733   133725 
  133698   133685   133708   133744   133766   133756   133729   133704 
  133683   133677   133697   133729   133758   133790   133812   133798 
  133760   133725   133709   133701   133687   133670   133663   133675 
  133702   133736   133774   133802   133795   133749   133720   133736 
  133760   133766   133764   133749   133699   133645   133623   133621 
  133632   133660   133697   133726   133749   133780   133821   133843 
  133824   133763   133689   133641   133636   133660   133687   133699 
  133701   133708   133718   133728   133735   133737   133736   133736 
  133731   133713   133697   133695   133702   133695   133685   133687 
  133694   133694   133706   133736   133762   133785   133807   133789 
  133705   133612   133566   133570   133609   133674   133737   133772 
  133794   133822   133844   133843   133807   133745   133683   133641 
  133636   133674   133717   133712   133681   133674   133697   133718 
  133718   133701   133682   133668   133662   133666   133682   133708 
  133722   133704   133675   133682   133729   133771   133783   133778 
  133786   133812   133837   133857   133860   133818   133729   133636 
  133574   133567   133628   133708   133737   133710   133675   133666 
  133685   133720   133741   133718   133656   133609   133612   133660 
  133744   133841   133888   133848   133776   133732   133718   133726 
  133737   133721   133689   133671   133668   133667   133672   133679 
  133678   133682   133691   133681   133660   133670   133708   133745 
  133756   133735   133690   133635   133591   133601   133667   133751 
  133814   133844   133832   133790   133756   133753   133763   133758 
  133732   133702   133695   133716   133753   133798   133834   133844 
  133826   133802   133779   133755   133722   133667   133609   133583 
  133581   133586   133632   133721   133790   133797   133760   133724 
  133714   133739   133785   133818   133806   133775   133771   133780 
  133763   133712   133641   133587   133587   133641   133708   133752 
  133768   133759   133737   133736   133752   133767   133767   133737 
  133694   133670   133689   133731   133747   133714   133658   133601 
  133558   133546   133589   133666   133741   133798   133826   133817 
  133787   133767   133764   133768   133762   133735   133686   133640 
  133631   133670   133729   133760   133752   133737   133741   133753 
  133751   133728   133702   133679   133655   133636   133627   133633 
  133674   133732   133771   133776   133758   133740   133747   133760 
  133748   133717   133687   133682   133708   133735   133735   133708 
  133693   133710   133732   133737   133729   133710   133697   133698 
  133699   133699   133704   133698   133699   133740   133785   133774 
  133714   133660   133645   133672   133721   133774   133820   133829 
  133786   133731   133694   133660   133625   133601   133605   133655 
  133721   133752   133743   133729   133732   133744   133749   133744 
  133736   133735   133726   133712   133699   133693   133694   133705 
  133731   133766   133783   133760   133714   133686   133686   133693 
  133694   133697   133698   133693   133690   133695   133709   133729 
  133736   133710   133679   133667   133683   133726   133763   133763 
  133735   133701   133689   133724   133785   133805   133763   133710 
  133682   133662   133641   133668   133751   133818   133813   133752 
  133693   133671   133699   133748   133786   133797   133785   133772 
  133786   133806   133806   133786   133747   133705   133678   133660 
  133644   133635   133635   133633   133625   133621   133637   133670 
  133695   133698   133693   133701   133735   133766   133756   133731 
  133721   133717   133716   133724   133722   133709   133698   133704 
  133726   133762   133789   133791   133767   133714   133648   133596 
  133573   133574   133593   133631   133663   133672   133693   133740 
  133793   133832   133847   133845   133848   133856   133859   133847 
  133813   133760   133713   133679   133655   133643   133644   133648 
  133652   133660   133670   133679   133681   133677   133683   133701 
  133722   133748   133779   133816   133845   133843   133805   133749 
  133682   133621   133597   133625   133687   133755   133806   133834 
  133847   133864   133899   133920   133893   133826   133763   133712 
  133654   133590   133554   133558   133582   133612   133656   133708 
  133724   133687   133639   133631   133664   133722   133780   133810 
  133797   133752   133710   133694   133709   133737   133762   133779 
  133802   133828   133834   133810   133789   133791   133798   133801 
  133813   133826   133820   133795   133763   133728   133686   133644 
  133613   133585   133569   133589   133635   133683   133743   133820 
  133909   133976   133982   133938   133901   133906   133953   133980 
  133921   133805   133712   133667   133647   133640   133650   133659 
  133645   133618   133593   133582   133597   133647   133717   133779 
  133807   133799   133780   133763   133743   133735   133756   133786 
  133805   133821   133833   133832   133801   133729   133651   133596 
  133558   133521   133481   133444   133427   133434   133451   133475 
  133520   133577   133621   133628   133601   133585   133616   133687 
  133774   133839   133874   133884   133866   133810   133744   133694 
  133664   133632   133571   133498   133451   133454   133485   133524 
  133567   133600   133601   133594   133616   133667   133710   133720 
  133701   133681   133693   133725   133745   133739   133704   133662 
  133648   133671   133708   133751   133787   133795   133782   133767 
  133756   133767   133825   133905   133964   133967   133906   133822 
  133751   133691   133641   133625   133674   133798   133949   134045 
  134040   133959   133864   133825   133848   133888   133895   133841 
  133739   133632   133551   133489   133434   133398   133402   133438 
  133505   133600   133690   133751   133768   133747   133731   133748 
  133762   133752   133756   133801   133870   133920   133940   133942 
  133945   133949   133932   133855   133718   133582   133488   133423 
  133394   133427   133498   133574   133629   133643   133610   133566 
  133552   133585   133644   133731   133834   133894   133860   133755 
  133659   133624   133624   133628   133635   133647   133671   133698 
  133714   133705   133664   133613   133581   133570   133575   133608 
  133660   133713   133762   133799   133799   133755   133705   133691 
  133733   133807   133861   133876   133882   133895   133914   133926 
  133914   133871   133799   133729   133674   133613   133536   133462 
  133413   133396   133409   133444   133471   133488   133531   133610 
  133689   133740   133793   133874   133964   134029   134065   134098 
  134121   134098   134032   133965   133918   133884   133857   133822 
  133766   133693   133617   133552   133506   133492   133520   133602 
  133748   133917   133983   133875   133663   133471   133377   133392 
  133473   133564   133640   133679   133668   133654   133686   133753 
  133832   133917   133999   134034   134005   133942   133872   133798 
  133739   133714   133728   133763   133791   133783   133726   133650 
  133604   133621   133689   133748   133752   133706   133655   133631 
  133639   133659   133687   133749   133806   133786   133698   133591 
  133485   133404   133377   133408   133479   133548   133587   133637 
  133733   133853   133969   134060   134083   134040   134010   134025 
  134018   133921   133721   133470   133285   133272   133420   133623 
  133775   133841   133848   133861   133893   133914   133924   133928 
  133902   133821   133698   133583   133517   133496   133477   133425 
  133348   133270   133223   133239   133311   133392   133451   133512 
  133609   133732   133856   133980   134084   134144   134183   134242 
  134314   134338   134269   134138   134013   133914   133822   133722 
  133605   133498   133461   133490   133537   133575   133605   133616 
  133604   133601   133635   133682   133670   133559   133392   133243 
  133137   133089   133173   133429   133776   134098   134334   134462 
  134474   134391   134249   134075   133906   133790   133724   133667 
  133618   133594   133583   133597   133639   133678   133682   133635 
  133523   133375   133253   133191   133195   133251   133353   133502 
  133702   133920   134067   134077   133990   133887   133820   133779 
  133762   133758   133745   133720   133701   133716   133790   133905 
  133992   134034   134040   134001   133897   133728   133535   133388 
  133332   133353   133390   133400   133380   133377   133459   133636 
  133837   133979   134040   134068   134118   134172   134169   134071 
  133906   133753   133655   133612   133593   133567   133523   133475 
  133440   133436   133483   133570   133683   133822   133969   134075 
  134096   134048   133964   133868   133789   133747   133718   133675 
  133628   133583   133532   133463   133369   133265   133227   133330 
  133548   133779   133960   134113   134249   134314   134284   134207 
  134127   134025   133864   133667   133496   133378   133301   133266 
  133301   133401   133536   133675   133795   133898   133996   134075 
  134090   134014   133875   133735   133632   133564   133502   133423 
  133343   133321   133401   133540   133659   133741   133805   133822 
  133779   133704   133635   133608   133636   133699   133768   133816 
  133802   133712   133605   133564   133591   133604   133542   133452 
  133461   133635   133915   134160   134260   134215   134082   133925 
  133798   133720   133687   133698   133704   133647   133536   133436 
  133417   133494   133589   133610   133554   133498   133519   133614 
  133724   133787   133778   133720   133689   133758   133918   134098 
  134223   134252   134181   134056   133917   133759   133574   133404 
  133297   133259   133285   133362   133469   133594   133705   133762 
  133760   133725   133682   133682   133760   133878   133940   133905 
  133807   133693   133606   133598   133674   133799   133920   133956 
  133884   133748   133600   133475   133413   133427   133504   133617 
  133729   133821   133905   133994   134055   134052   133992   133898 
  133772   133644   133558   133539   133585   133648   133671   133648 
  133633   133674   133748   133795   133766   133667   133570   133542 
  133593   133682   133749   133762   133725   133685   133658   133624 
  133582   133567   133601   133670   133748   133812   133834   133797 
  133717   133682   133758   133902   134014   134030   133974   133903 
  133857   133806   133710   133578   133440   133327   133276   133305 
  133390   133498   133609   133720   133821   133880   133898   133913 
  133944   133969   133978   133982   133974   133921   133812   133699 
  133662   133710   133783   133816   133790   133731   133690   133712 
  133771   133790   133733   133632   133539   133502   133525   133558 
  133562   133563   133597   133655   133689   133651   133586   133597 
  133725   133917   134068   134109   134055   133978   133926   133901 
  133888   133883   133878   133860   133837   133832   133839   133822 
  133763   133677   133575   133471   133384   133335   133340   133405 
  133528   133690   133844   133933   133942   133898   133836   133783 
  133747   133724   133717   133722   133718   133686   133632   133601 
  133621   133670   133729   133801   133866   133898   133895   133882 
  133872   133860   133806   133681   133528   133419   133393   133432 
  133488   133536   133581   133610   133631   133656   133701   133767 
  133834   133857   133812   133744   133716   133726   133714   133633 
  133517   133446   133462   133546   133671   133803   133902   133945 
  133940   133911   133884   133856   133795   133687   133552   133439 
  133384   133381   133438   133552   133671   133737   133747   133721 
  133682   133662   133704   133807   133929   134015   134042   134030 
  134006   133976   133930   133832   133687   133574   133532   133505 
  133432   133335   133293   133343   133452   133570   133667   133731 
  133766   133789   133795   133783   133791   133855   133942   133986 
  133967   133907   133828   133751   133702   133691   133704   133728 
  133776   133832   133840   133779   133694   133644   133640   133652 
  133654   133654   133670   133695   133699   133679   133663   133662 
  133655   133644   133659   133697   133737   133772   133802   133822 
  133821   133810   133817   133836   133852   133857   133857   133853 
  133822   133747   133651   133567   133516   133500   133516   133583 
  133708   133839   133906   133891   133832   133771   133732   133714 
  133717   133741   133763   133744   133698   133672   133687   133698 
  133651   133566   133523   133558   133635   133695   133720   133733 
  133759   133791   133809   133805   133790   133783   133778   133760 
  133743   133747   133764   133745   133679   133597   133528   133501 
  133517   133537   133550   133579   133645   133748   133851   133903 
  133890   133844   133809   133824   133878   133914   133901   133837 
  133722   133573   133432   133339   133323   133390   133502   133600 
  133668   133726   133776   133809   133802   133763   133729   133729 
  133755   133775   133768   133759   133783   133837   133876   133883 
  133876   133871   133861   133844   133816   133759   133662   133551 
  133481   133479   133540   133610   133650   133668   133687   133712 
  133735   133744   133728   133704   133699   133732   133771   133778 
  133752   133732   133743   133783   133830   133860   133864   133843 
  133813   133824   133888   133941   133921   133829   133720   133652 
  133639   133666   133708   133733   133710   133625   133504   133415 
  133402   133463   133556   133650   133735   133802   133814   133778 
  133744   133736   133751   133786   133817   133809   133767   133728 
  133710   133724   133759   133793   133817   133825   133814   133787 
