Origin Time       2025/03/30 22:55:00
Lat.              41.993
Long.             142.725
Depth. (km)       55
Mag.              4.6
Station Code      IBUH01
Station Lat.      42.8739
Station Long.     141.8191
Station Height(m) 60
Record Time       2025/03/30 22:56:18
Sampling Freq(Hz) 100Hz
Duration Time(s)  120
Dir.              4
Scale Factor      7845(gal)/8223790
Max. Acc. (gal)   3.119
Last Correction   2025/03/30 22:56:18
Memo.             
[...]
  -12708   -12951   -13185   -13311   -13317   -13240   -13076   -12860 
  -12671   -12544   -12490   -12526   -12638   -12783   -12896   -12926 
  -12860   -12745   -12636   -12560   -12553   -12665   -12862   -13036 
  -13100   -13043   -12915   -12766   -12654   -12646   -12756   -12911 
  -12992   -12922   -12765   -12676   -12750   -12968   -13243   -13459 
  -13509   -13362   -13070   -12717   -12384   -12151   -12067   -12147 
  -12360   -12641   -12903   -13096   -13203   -13223   -13174   -13062 
  -12868   -12642   -12513   -12541   -12669   -12803   -12861   -12838 
  -12804   -12843   -12950   -13027   -12999   -12866   -12708   -12618 
  -12633   -12721   -12831   -12930   -12970   -12904   -12753   -12621 
  -12600   -12707   -12889   -13032   -13050   -12957   -12807   -12667 
  -12625   -12717   -12874   -13011   -13084   -13088   -13019   -12874 
  -12672   -12459   -12309   -12283   -12378   -12559   -12806   -13077 
  -13281   -13340   -13248   -13057   -12858   -12729   -12684   -12707 
  -12762   -12814   -12846   -12841   -12799   -12748   -12710   -12673 
  -12640   -12648   -12729   -12873   -13032   -13140   -13140   -13027 
  -12864   -12714   -12604   -12542   -12536   -12607   -12752   -12903 
  -12997   -13022   -12992   -12914   -12783   -12634   -12557   -12623 
  -12803   -12978   -13055   -13011   -12876   -12721   -12625   -12634 
  -12734   -12852   -12904   -12877   -12823   -12791   -12772   -12757 
  -12750   -12752   -12764   -12803   -12868   -12941   -12988   -12977 
  -12889   -12744   -12609   -12571   -12669   -12865   -13059   -13131 
  -13015   -12783   -12577   -12521   -12640   -12852   -13039   -13134 
  -13113   -12981   -12812   -12731   -12761   -12810   -12807   -12753 
  -12669   -12582   -12537   -12571   -12679   -12833   -12977   -13042 
  -13008   -12922   -12834   -12775   -12766   -12807   -12883   -12968 
  -13019   -12995   -12919   -12860   -12837   -12783   -12665   -12534 
  -12460   -12490   -12621   -12812   -13039   -13250   -13339   -13242 
  -13004   -12718   -12463   -12316   -12344   -12534   -12810   -13078 
  -13259   -13308   -13246   -13086   -12830   -12542   -12339   -12293 
  -12406   -12630   -12891   -13080   -13115   -12995   -12791   -12599 
  -12526   -12627   -12852   -13089   -13223   -13188   -13004   -12750 
  -12519   -12406   -12438   -12553   -12681   -12808   -12943   -13063 
  -13115   -13096   -13042   -12966   -12849   -12707   -12626   -12692 
  -12881   -13063   -13108   -12976   -12742   -12525   -12403   -12407 
  -12514   -12663   -12795   -12881   -12918   -12924   -12920   -12911 
  -12888   -12846   -12816   -12815   -12815   -12816   -12861   -12966 
  -13086   -13130   -13050   -12889   -12714   -12561   -12457   -12464 
  -12623   -12879   -13085   -13128   -12988   -12733   -12475   -12328 
  -12368   -12598   -12910   -13146   -13209   -13113   -12939   -12783 
  -12722   -12769   -12873   -12947   -12928   -12833   -12718   -12640 
  -12658   -12765   -12889   -12958   -12938   -12839   -12719   -12642 
  -12661   -12765   -12880   -12943   -12965   -12964   -12931   -12872 
  -12823   -12806   -12796   -12784   -12750   -12694   -12668   -12711 
  -12785   -12843   -12862   -12827   -12771   -12754   -12798   -12893 
  -13030   -13149   -13182   -13116   -12964   -12761   -12586   -12499 
  -12523   -12649   -12834   -12999   -13082   -13073   -12988   -12842 
  -12634   -12395   -12218   -12204   -12380   -12698   -13036   -13265 
  -13315   -13228   -13097   -12993   -12958   -12978   -12996   -12955 
  -12820   -12595   -12364   -12252   -12324   -12545   -12815   -13012 
  -13045   -12923   -12758   -12653   -12637   -12695   -12773   -12838 
  -12906   -12995   -13111   -13228   -13290   -13252   -13101   -12857 
  -12592   -12399   -12328   -12366   -12463   -12590   -12734   -12864 
  -12938   -12950   -12933   -12934   -12943   -12911   -12837   -12760 
  -12708   -12688   -12698   -12749   -12889   -13109   -13309   -13350 
  -13165   -12833   -12519   -12355   -12394   -12611   -12897   -13095 
  -13081   -12884   -12650   -12511   -12511   -12633   -12803   -12958 
  -13045   -13026   -12910   -12764   -12673   -12677   -12752   -12837 
  -12889   -12922   -12954   -12974   -12968   -12903   -12757   -12564 
  -12395   -12333   -12441   -12696   -12995   -13239   -13367   -13348 
  -13203   -12985   -12760   -12600   -12564   -12648   -12776   -12862 
  -12868   -12775   -12598   -12410   -12322   -12414   -12660   -12942 
  -13147   -13215   -13135   -12955   -12758   -12617   -12583   -12681 
  -12881   -13105   -13257   -13275   -13140   -12896   -12648   -12486 
  -12437   -12487   -12613   -12793   -12972   -13068   -13026   -12845 
  -12615   -12476   -12478   -12560   -12673   -12816   -12964   -13049 
  -13063   -13070   -13100   -13105   -13045   -12942   -12853   -12796 
  -12746   -12685   -12650   -12688   -12781   -12845   -12829   -12765 
  -12717   -12688   -12653   -12626   -12633   -12677   -12746   -12834 
  -12945   -13057   -13112   -13081   -13003   -12941   -12914   -12916 
  -12935   -12937   -12880   -12749   -12576   -12438   -12402   -12460 
  -12563   -12699   -12860   -12992   -13058   -13046   -12942   -12769 
  -12602   -12515   -12559   -12725   -12950   -13157   -13282   -13285 
  -13167   -12968   -12766   -12636   -12582   -12580   -12621   -12679 
  -12738   -12783   -12789   -12768   -12752   -12757   -12788   -12842 
  -12901   -12946   -12978   -13004   -12996   -12930   -12838   -12756 
  -12683   -12626   -12621   -12669   -12746   -12829   -12887   -12884 
  -12842   -12827   -12868   -12927   -12955   -12934   -12854   -12722 
  -12588   -12556   -12695   -12949   -13159   -13192   -13034   -12787 
  -12583   -12514   -12615   -12849   -13082   -13166   -13066   -12841 
  -12556   -12320   -12260   -12418   -12698   -12950   -13086   -13127 
  -13138   -13139   -13089   -12973   -12812   -12629   -12471   -12421 
  -12534   -12793   -13095   -13277   -13231   -12974   -12621   -12306 
  -12147   -12209   -12487   -12880   -13217   -13358   -13235   -12924 
  -12613   -12442   -12434   -12582   -12830   -13076   -13257   -13354 
  -13305   -13077   -12750   -12465   -12326   -12372   -12568   -12825 
  -13045   -13180   -13198   -13084   -12883   -12677   -12549   -12546 
  -12649   -12775   -12857   -12901   -12951   -13000   -13005   -12943 
  -12830   -12704   -12607   -12559   -12567   -12645   -12775   -12883 
  -12911   -12860   -12787   -12779   -12900   -13127   -13332   -13389 
  -13244   -12938   -12563   -12237   -12081   -12152   -12401   -12679 
  -12854   -12926   -12973   -13023   -13059   -13090   -13126   -13124 
  -13031   -12852   -12644   -12490   -12459   -12556   -12708   -12837 
  -12926   -12991   -13046   -13103   -13111   -12993   -12775   -12565 
  -12455   -12460   -12560   -12708   -12865   -12999   -13069   -13045 
  -12965   -12892   -12839   -12802   -12780   -12772   -12775   -12781 
  -12785   -12791   -12798   -12815   -12862   -12939   -13003   -12976 
  -12834   -12630   -12434   -12310   -12318   -12486   -12762   -13057 
  -13275   -13347   -13252   -13049   -12834   -12695   -12665   -12734 
  -12865   -13008   -13086   -13042   -12883   -12672   -12491   -12395 
  -12393   -12455   -12556   -12676   -12791   -12918   -13092   -13257 
  -13298   -13188   -13004   -12826   -12685   -12606   -12609   -12667 
  -12752   -12849   -12916   -12920   -12891   -12845   -12773   -12710 
  -12696   -12708   -12712   -12710   -12721   -12753   -12806   -12868 
  -12934   -12999   -13023   -12961   -12823   -12683   -12615   -12660 
  -12812   -13018   -13173   -13188   -13047   -12834   -12667   -12602 
  -12614   -12641   -12640   -12602   -12546   -12517   -12579   -12754 
  -12984   -13176   -13255   -13184   -12976   -12696   -12453   -12374 
  -12501   -12753   -13000   -13135   -13117   -12996   -12842   -12708 
  -12653   -12718   -12866   -13036   -13174   -13224   -13159   -13004 
  -12796   -12576   -12406   -12337   -12399   -12553   -12704   -12808 
  -12895   -12999   -13135   -13259   -13281   -13170   -12974   -12756 
  -12548   -12398   -12378   -12533   -12818   -13089   -13215   -13147 
  -12924   -12625   -12352   -12202   -12239   -12453   -12752   -13008 
  -13153   -13189   -13134   -13005   -12841   -12695   -12638   -12694 
  -12804   -12885   -12887   -12819   -12754   -12760   -12818   -12876 
  -12924   -12962   -12961   -12915   -12869   -12835   -12789   -12734 
  -12681   -12633   -12600   -12602   -12665   -12807   -12993   -13149 
  -13189   -13096   -12951   -12833   -12750   -12718   -12749   -12814 
  -12839   -12744   -12526   -12291   -12160   -12205   -12417   -12729 
  -13036   -13231   -13274   -13201   -13077   -12989   -13014   -13150 
  -13336   -13470   -13451   -13254   -12954   -12636   -12332   -12086 
  -11973   -12023   -12198   -12432   -12661   -12841   -12989   -13107 
  -13146   -13093   -12993   -12864   -12715   -12592   -12518   -12488 
  -12488   -12526   -12609   -12752   -12964   -13220   -13458   -13589 
  -13551   -13331   -12968   -12553   -12206   -12009   -11988   -12104 
  -12280   -12436   -12513   -12511   -12490   -12541   -12748   -13109 
  -13525   -13868   -14029   -13941   -13645   -13269   -12947   -12791 
  -12815   -12937   -12993   -12864   -12571   -12229   -11946   -11809 
  -11859   -12044   -12285   -12541   -12796   -13031   -13232   -13393 
  -13504   -13576   -13621   -13606   -13516   -13378   -13209   -13011 
  -12795   -12569   -12363   -12239   -12241   -12339   -12469   -12596 
  -12698   -12762   -12800   -12825   -12839   -12841   -12833   -12827 
  -12815   -12787   -12775   -12853   -13068   -13350   -13544   -13563 
  -13451   -13279   -13055   -12775   -12491   -12287   -12181   -12118 
  -12060   -12039   -12116   -12279   -12448   -12587   -12738   -12945 
  -13180   -13385   -13559   -13717   -13833   -13869   -13803   -13598 
  -13224   -12711   -12187   -11817   -11686   -11755   -11936   -12144 
  -12298   -12345   -12320   -12324   -12447   -12735   -13126   -13441 
  -13517   -13327   -12991   -12685   -12536   -12568   -12752   -13012 
  -13238   -13311   -13178   -12903   -12622   -12465   -12492   -12648 
  -12819   -12949   -13078   -13252   -13425   -13487   -13358   -13059 
  -12738   -12555   -12569   -12761   -13063   -13366   -13531   -13451 
  -13108   -12611   -12151   -11888   -11866   -12024   -12260   -12502 
  -12704   -12849   -12901   -12847   -12744   -12671   -12685   -12811 
  -13018   -13234   -13381   -13427   -13393   -13296   -13122   -12853 
  -12507   -12163   -11939   -11928   -12129   -12468   -12846   -13139 
  -13261   -13266   -13227   -13178   -13157   -13173   -13196   -13188 
  -13132   -13046   -12960   -12895   -12835   -12744   -12600   -12428 
  -12276   -12229   -12357   -12625   -12930   -13200   -13351   -13308 
  -13084   -12752   -12382   -12060   -11843   -11753   -11826   -12110 
  -12599   -13177   -13686   -14000   -14031   -13797   -13429   -13088 
  -12889   -12858   -12923   -12958   -12831   -12502   -12086   -11781 
  -11732   -11958   -12393   -12930   -13387   -13597   -13516   -13207 
  -12776   -12364   -12090   -12012   -12120   -12372   -12712   -13038 
  -13243   -13327   -13301   -13131   -12860   -12617   -12507   -12598 
  -12903   -13317   -13705   -13960   -14006   -13815   -13450   -13042 
  -12704   -12486   -12397   -12398   -12399   -12341   -12235   -12085 
  -11892   -11707   -11637   -11789   -12214   -12846   -13501   -13964 
  -14096   -13878   -13404   -12857   -12421   -12199   -12239   -12526 
  -12954   -13324   -13467   -13354   -13032   -12600   -12198   -11951 
  -11955   -12268   -12852   -13543   -14088   -14257   -13983   -13397 
  -12739   -12263   -12136   -12364   -12785   -13126   -13171   -12914 
  -12494   -12102   -11935   -12062   -12359   -12633   -12771   -12769 
  -12698   -12681   -12815   -13066   -13320   -13467   -13450   -13279 
  -13018   -12746   -12552   -12480   -12507   -12569   -12640   -12706 
  -12750   -12758   -12703   -12588   -12495   -12526   -12730   -13116 
  -13667   -14273   -14721   -14808   -14455   -13737   -12808   -11858 
  -11084   -10679   -10729   -11111   -11557   -11842   -11911   -11889 
  -11974   -12309   -12922   -13684   -14354   -14696   -14613   -14197 
  -13655   -13204   -12989   -13026   -13180   -13239   -13035   -12536 
  -11871   -11273   -10986   -11211   -11998   -13123   -14154   -14693 
  -14563   -13887   -12973   -12151   -11677   -11668   -12074   -12688 
  -13212   -13419   -13244   -12764   -12189   -11790   -11746   -12078 
  -12607   -13043   -13236   -13238   -13198   -13294   -13582   -13949 
  -14238   -14334   -14148   -13683   -13070   -12501   -12104   -11905 
  -11890   -12028   -12240   -12417   -12483   -12442   -12361   -12294 
  -12225   -12128   -12031   -11963   -11955   -12025   -12155   -12322 
  -12529   -12810   -13240   -13797   -14316   -14636   -14665   -14420 
  -14008   -13555   -13178   -12970   -12930   -12955   -12946   -12841 
  -12609   -12270   -11936   -11726   -11666   -11720   -11862   -12042 
  -12214   -12372   -12550   -12798   -13140   -13525   -13863   -14085 
  -14126   -13922   -13478   -12880   -12236   -11623   -11138   -10902 
  -10976   -11350   -11958   -12698   -13451   -14091   -14496   -14634 
  -14578   -14445   -14307   -14164   -13972   -13666   -13178   -12538 
  -11907   -11408   -11030   -10702   -10404   -10188   -10156   -10405 
  -11001   -11948   -13157   -14418   -15458   -16043   -16086   -15660 
  -14935   -14114   -13358   -12785   -12430   -12221   -12073   -11977 
  -11975   -12060   -12164   -12239   -12294   -12344   -12393   -12460 
  -12584   -12811   -13130   -13429   -13616   -13656   -13541   -13297 
  -12982   -12672   -12444   -12320   -12266   -12249   -12262   -12313 
  -12433   -12642   -12947   -13277   -13467   -13412   -13112   -12621 
  -12059   -11608   -11414   -11547   -11981   -12591   -13219   -13714 
  -13995   -14071   -14007   -13875   -13714   -13549   -13398   -13246 
  -13028   -12718   -12367   -12075   -11913   -11904   -12054   -12334 
  -12641   -12870   -12973   -12937   -12776   -12532   -12270   -12098 
  -12152   -12484   -13023   -13632   -14149   -14422   -14364   -13999 
  -13448   -12872   -12380   -12012   -11784   -11736   -11907   -12286 
  -12775   -13174   -13282   -13026   -12499   -11916   -11526   -11506 
  -11844   -12387   -12968   -13470   -13856   -14157   -14396   -14512 
  -14427   -14119   -13622   -13014   -12366   -11734   -11195   -10845 
  -10747   -10875   -11152   -11561   -12120   -12806   -13504   -14069 
  -14405   -14494   -14384   -14153   -13905   -13738   -13659   -13582 
  -13424   -13147   -12800   -12519   -12393   -12407   -12482   -12482 
  -12289   -11901   -11458   -11113   -10962   -11053   -11416   -12046 
  -12847   -13620   -14165   -14411   -14388   -14139   -13711   -13196 
  -12717   -12375   -12259   -12421   -12799   -13204   -13416   -13339 
  -13041   -12669   -12371   -12232   -12268   -12414   -12550   -12602 
  -12596   -12640   -12803   -13058   -13333   -13544   -13603   -13475 
  -13205   -12904   -12658   -12495   -12379   -12253   -12112   -11986 
  -11902   -11892   -11990   -12222   -12600   -13081   -13571   -13984 
  -14237   -14241   -14011   -13643   -13219   -12841   -12625   -12618 
  -12795   -13038   -13153   -13009   -12638   -12159   -11713   -11411 
  -11314   -11466   -11862   -12347   -12718   -12872   -12834   -12723 
  -12665   -12707   -12857   -13097   -13354   -13570   -13752   -13910 
  -14031   -14089   -14006   -13720   -13252   -12677   -12073   -11562 
  -11279   -11302   -11610   -12087   -12586   -12997   -13289   -13487 
  -13636   -13745   -13788   -13718   -13525   -13239   -12923   -12671 
  -12533   -12472   -12425   -12345   -12233   -12136   -12096   -12120 
  -12201   -12325   -12474   -12656   -12864   -13084   -13336   -13645 
  -13964   -14172   -14134   -13790   -13224   -12615   -12118   -11821 
  -11740   -11817   -11994   -12266   -12600   -12943   -13250   -13454 
  -13478   -13309   -12955   -12468   -12001   -11734   -11767   -12101 
  -12634   -13216   -13702   -13994   -14071   -13992   -13824   -13625 
  -13458   -13319   -13138   -12857   -12472   -12055   -11723   -11545 
  -11500   -11556   -11711   -11923   -12144   -12405   -12739   -13103 
  -13409   -13581   -13581   -13487   -13470   -13620   -13891   -14180 
  -14330   -14158   -13589   -12717   -11772   -11030   -10686   -10751 
  -11125   -11686   -12283   -12776   -13108   -13306   -13405   -13431 
  -13440   -13474   -13505   -13501   -13471   -13447   -13458   -13467 
  -13383   -13130   -12739   -12336   -12002   -11761   -11618   -11591 
  -11686   -11896   -12218   -12660   -13173   -13641   -13948   -14037 
  -13913   -13603   -13182   -12792   -12567   -12549   -12695   -12906 
  -13041   -12964   -12617   -12112   -11695   -11562   -11763   -12187 
  -12645   -12982   -13149   -13161   -13086   -13051   -13151   -13363 
  -13622   -13883   -14067   -14061   -13798   -13306   -12679   -12021 
  -11466   -11171   -11225   -11614   -12237   -12903   -13396   -13601 
  -13493   -13131   -12685   -12351   -12239   -12380   -12717   -13150 
  -13560   -13817   -13818   -13558   -13117   -12636   -12262   -12093 
  -12150   -12405   -12781   -13165   -13444   -13552   -13475   -13239 
  -12906   -12563   -12283   -12102   -12015   -11994   -12012   -12082 
  -12271   -12592   -12949   -13235   -13416   -13517   -13603   -13706 
  -13767   -13690   -13429   -13023   -12580   -12232   -12060   -12074 
  -12212   -12384   -12509   -12553   -12537   -12502   -12526   -12663 
  -12858   -13036   -13178   -13292   -13379   -13424   -13385   -13244 
  -13016   -12725   -12414   -12151   -12033   -12128   -12395   -12730 
  -13018   -13165   -13146   -13041   -12942   -12889   -12889   -12928 
  -12999   -13069   -13084   -13009   -12876   -12768   -12749   -12808 
  -12895   -12976   -13023   -12991   -12820   -12517   -12183   -11955 
  -11905   -12013   -12212   -12437   -12638   -12773   -12830   -12847 
  -12888   -13026   -13321   -13747   -14193   -14512   -14553   -14207 
  -13486   -12556   -11684   -11121   -11022   -11365   -11943   -12514 
  -12915   -13070   -13004   -12827   -12675   -12642   -12741   -12916 
  -13095   -13196   -13177   -13063   -12935   -12872   -12893   -12981 
  -13095   -13189   -13250   -13285   -13293   -13248   -13116   -12887 
  -12596   -12322   -12155   -12137   -12247   -12411   -12586   -12756 
  -12899   -12988   -13008   -12960   -12858   -12750   -12700   -12772 
  -12976   -13250   -13502   -13653   -13644   -13414   -12946   -12333 
  -11781   -11475   -11484   -11769   -12221   -12718   -13157   -13475 
  -13664   -13767   -13809   -13764   -13590   -13309   -13004   -12737 
  -12514   -12329   -12201   -12160   -12210   -12302   -12388   -12464 
  -12533   -12563   -12536   -12488   -12456   -12472   -12594   -12852 
  -13235   -13662   -13969   -14015   -13780   -13347   -12860   -12463 
  -12251   -12222   -12302   -12390   -12425   -12421   -12434   -12509 
  -12650   -12845   -13035   -13135   -13109   -12997   -12857   -12748 
  -12696   -12694   -12699   -12660   -12583   -12546   -12631   -12856 
  -13157   -13421   -13563   -13537   -13321   -12955   -12565   -12286 
