Origin Time       2025/03/30 22:55:00
Lat.              41.993
Long.             142.725
Depth. (km)       55
Mag.              4.6
Station Code      IBUH05
Station Lat.      42.5629
Station Long.     141.3497
Station Height(m) 20
Record Time       2025/03/30 22:56:19
Sampling Freq(Hz) 100Hz
Duration Time(s)  120
Dir.              6
Scale Factor      7845(gal)/8223790
Max. Acc. (gal)   0.571
Last Correction   2025/03/30 22:56:19
Memo.             
[...]
    3689     3696     3704     3697     3689     3693     3701     3701 
    3694     3692     3700     3700     3694     3697     3701     3700 
    3693     3692     3700     3703     3693     3692     3700     3701 
    3696     3693     3700     3704     3699     3693     3696     3703 
    3700     3694     3697     3701     3696     3689     3696     3705 
    3700     3692     3696     3700     3696     3693     3696     3703 
    3699     3690     3696     3705     3700     3692     3696     3703 
    3700     3693     3694     3704     3704     3692     3690     3701 
    3703     3693     3693     3700     3701     3694     3693     3701 
    3704     3694     3690     3701     3704     3692     3690     3701 
    3701     3690     3693     3700     3699     3696     3693     3696 
    3701     3697     3690     3699     3705     3699     3692     3697 
    3705     3700     3693     3697     3700     3696     3693     3694 
    3700     3699     3692     3693     3701     3701     3693     3692 
    3697     3699     3692     3689     3696     3700     3693     3689 
    3696     3699     3693     3692     3699     3703     3693     3686 
    3694     3701     3693     3688     3694     3701     3696     3692 
    3696     3700     3696     3692     3696     3700     3693     3688 
    3693     3700     3694     3685     3690     3704     3700     3690 
    3694     3701     3699     3692     3692     3697     3700     3692 
    3689     3700     3703     3692     3686     3696     3703     3694 
    3689     3697     3700     3689     3688     3700     3703     3690 
    3684     3693     3703     3694     3685     3692     3703     3694 
    3686     3696     3703     3694     3685     3692     3701     3697 
    3688     3688     3699     3703     3690     3686     3700     3700 
    3688     3689     3701     3700     3692     3693     3700     3699 
    3689     3690     3700     3700     3692     3689     3697     3700 
    3690     3689     3703     3703     3688     3688     3699     3699 
    3692     3690     3697     3704     3697     3686     3693     3704 
    3697     3689     3694     3703     3700     3692     3693     3703 
    3700     3688     3693     3705     3703     3690     3689     3700 
    3704     3690     3689     3703     3701     3688     3688     3703 
    3704     3690     3686     3699     3701     3689     3686     3700 
    3704     3693     3689     3697     3703     3693     3686     3696 
    3705     3696     3688     3693     3703     3696     3686     3696 
    3704     3696     3690     3697     3705     3699     3688     3693 
    3705     3699     3684     3690     3704     3699     3688     3692 
    3701     3699     3686     3686     3699     3701     3692     3689 
    3700     3705     3693     3686     3697     3704     3692     3688 
    3697     3700     3693     3689     3693     3703     3699     3689 
    3694     3704     3696     3686     3696     3705     3696     3688 
    3693     3700     3694     3689     3696     3705     3697     3682 
    3688     3703     3703     3689     3688     3703     3701     3688 
    3689     3703     3701     3689     3689     3701     3703     3690 
    3688     3700     3704     3692     3688     3699     3703     3692 
    3686     3697     3703     3692     3688     3696     3701     3694 
    3688     3694     3703     3696     3688     3696     3705     3697 
    3688     3694     3703     3700     3689     3690     3701     3700 
    3688     3693     3704     3697     3685     3690     3704     3701 
    3686     3686     3700     3700     3689     3692     3703     3700 
    3688     3686     3700     3704     3692     3685     3699     3703 
    3689     3688     3701     3703     3693     3690     3697     3701 
    3696     3688     3697     3705     3696     3686     3694     3703 
    3696     3689     3693     3703     3701     3690     3690     3700 
    3699     3686     3690     3703     3700     3688     3692     3701 
    3697     3689     3694     3704     3701     3692     3689     3700 
    3704     3692     3689     3703     3705     3692     3689     3703 
    3704     3692     3686     3696     3704     3696     3688     3694 
    3704     3696     3686     3696     3704     3693     3686     3697 
    3705     3694     3688     3697     3701     3696     3689     3692 
    3703     3700     3689     3692     3701     3696     3685     3690 
    3704     3703     3688     3686     3699     3703     3692     3689 
    3700     3705     3692     3685     3699     3701     3684     3682 
    3703     3707     3692     3688     3700     3705     3693     3686 
    3696     3705     3697     3685     3693     3705     3696     3682 
    3693     3704     3693     3686     3694     3703     3699     3688 
    3690     3703     3700     3686     3692     3705     3700     3685 
    3689     3704     3701     3686     3686     3701     3703     3688 
    3682     3699     3707     3689     3682     3699     3705     3693 
    3688     3699     3705     3694     3686     3697     3705     3696 
    3686     3694     3705     3697     3686     3696     3707     3694 
    3681     3693     3708     3699     3684     3692     3705     3697 
    3684     3692     3705     3703     3688     3689     3703     3700 
    3686     3688     3703     3703     3686     3686     3703     3704 
    3692     3686     3697     3704     3694     3692     3701     3703 
    3692     3688     3699     3705     3692     3684     3697     3705 
    3694     3688     3699     3708     3699     3684     3693     3708 
    3700     3685     3693     3707     3700     3688     3693     3704 
    3700     3688     3690     3705     3703     3688     3689     3705 
    3701     3685     3689     3707     3704     3688     3688     3705 
    3707     3690     3689     3703     3705     3694     3689     3700 
    3705     3693     3688     3701     3707     3694     3690     3700 
    3705     3696     3690     3700     3707     3697     3688     3696 
    3707     3701     3688     3693     3709     3700     3682     3694 
    3709     3699     3686     3693     3703     3701     3690     3688 
    3701     3705     3689     3686     3705     3704     3685     3688 
    3704     3701     3688     3690     3703     3703     3690     3685 
    3697     3707     3693     3684     3699     3707     3692     3684 
    3697     3707     3696     3685     3693     3708     3700     3688 
    3696     3707     3700     3686     3692     3707     3701     3684 
    3686     3703     3703     3689     3688     3703     3703     3688 
    3688     3703     3703     3688     3686     3700     3704     3693 
    3688     3700     3704     3688     3685     3704     3708     3689 
    3681     3697     3707     3693     3685     3699     3707     3694 
    3685     3697     3707     3696     3686     3697     3707     3696 
    3685     3693     3708     3700     3682     3692     3709     3700 
    3684     3692     3707     3703     3689     3692     3704     3701 
    3690     3689     3703     3705     3690     3688     3705     3705 
    3688     3688     3703     3708     3694     3685     3697     3711 
    3700     3688     3699     3705     3693     3686     3700     3709 
    3697     3684     3694     3711     3700     3686     3696     3708 
    3696     3682     3693     3711     3701     3688     3693     3703 
    3701     3688     3689     3705     3703     3686     3690     3707 
    3704     3686     3688     3705     3705     3688     3684     3700 
    3708     3693     3684     3699     3709     3692     3682     3700 
    3708     3690     3684     3699     3707     3697     3686     3693 
    3707     3697     3685     3697     3709     3697     3684     3693 
    3709     3700     3684     3693     3707     3697     3685     3693 
    3705     3701     3686     3688     3707     3707     3685     3685 
    3703     3703     3686     3686     3705     3705     3686     3688 
    3703     3701     3690     3688     3700     3705     3692     3684 
    3697     3707     3693     3685     3699     3708     3693     3685 
    3699     3707     3692     3680     3694     3709     3696     3681 
    3690     3707     3696     3680     3693     3708     3699     3685 
    3693     3707     3703     3686     3689     3705     3700     3684 
    3690     3708     3703     3685     3689     3705     3707     3689 
    3684     3703     3708     3693     3686     3700     3709     3694 
    3684     3700     3708     3690     3686     3700     3705     3696 
    3688     3696     3705     3694     3684     3696     3708     3699 
    3686     3694     3709     3700     3684     3693     3711     3701 
    3685     3693     3708     3700     3686     3689     3704     3703 
    3686     3686     3704     3705     3689     3688     3705     3707 
    3689     3685     3704     3709     3692     3685     3700     3708 
    3697     3685     3696     3705     3693     3682     3697     3709 
    3694     3684     3697     3708     3697     3686     3697     3708 
    3694     3681     3693     3705     3696     3682     3690     3707 
    3699     3681     3689     3707     3700     3685     3690     3705 
    3704     3689     3688     3705     3709     3688     3682     3705 
    3711     3690     3685     3704     3709     3690     3684     3700 
    3708     3692     3681     3696     3709     3697     3684     3693 
    3705     3697     3684     3694     3708     3701     3686     3693 
    3708     3700     3685     3693     3709     3700     3684     3690 
    3708     3701     3685     3692     3708     3701     3685     3688 
    3704     3704     3685     3685     3707     3708     3685     3685 
    3705     3705     3686     3685     3701     3705     3692     3685 
    3699     3707     3696     3685     3696     3707     3694     3684 
    3697     3708     3697     3685     3696     3709     3699     3682 
    3692     3709     3699     3682     3693     3711     3701     3685 
    3692     3711     3704     3685     3690     3707     3701     3685 
    3690     3708     3707     3688     3686     3705     3708     3689 
    3685     3704     3709     3692     3686     3701     3707     3693 
    3685     3699     3711     3696     3682     3696     3713     3699 
    3682     3696     3709     3696     3684     3696     3707     3699 
    3689     3693     3703     3700     3686     3693     3709     3703 
    3682     3689     3709     3701     3682     3689     3704     3701 
    3690     3689     3701     3707     3690     3685     3705     3711 
    3686     3680     3704     3707     3685     3684     3704     3707 
    3690     3684     3697     3707     3693     3684     3696     3704 
    3693     3682     3694     3708     3696     3682     3696     3707 
    3697     3685     3692     3707     3699     3681     3689     3707 
    3701     3685     3689     3707     3700     3682     3685     3707 
    3708     3688     3685     3703     3704     3688     3685     3701 
    3708     3693     3682     3696     3708     3693     3684     3699 
    3705     3690     3684     3699     3705     3690     3686     3699 
    3705     3694     3682     3693     3709     3699     3681     3693 
    3708     3694     3678     3692     3709     3700     3684     3690 
    3708     3703     3686     3692     3707     3703     3686     3689 
    3707     3705     3686     3686     3705     3705     3689     3686 
    3701     3705     3692     3686     3701     3708     3690     3681 
    3699     3709     3694     3684     3697     3708     3694     3684 
    3694     3709     3700     3685     3696     3709     3701     3686 
    3694     3709     3701     3684     3694     3712     3700     3684 
    3693     3708     3703     3688     3689     3707     3708     3688 
    3686     3707     3708     3688     3688     3705     3708     3689 
    3688     3704     3707     3693     3689     3703     3708     3693 
    3688     3703     3709     3694     3686     3700     3708     3696 
    3688     3700     3709     3696     3684     3697     3712     3701 
    3686     3693     3708     3701     3682     3690     3709     3703 
    3684     3688     3705     3701     3685     3689     3705     3703 
    3685     3685     3703     3705     3686     3684     3700     3696 
    3676     3670     3678     3670     3642     3622     3619     3609 
    3582     3576     3601     3624     3628     3628     3636     3632 
    3607     3596     3623     3658     3676     3707     3785     3881 
    3933     3929     3901     3861     3808     3782     3794     3798 
    3761     3738     3785     3867     3896     3835     3721     3618 
    3564     3565     3586     3566     3501     3493     3609     3754 
    3805     3792     3785     3770     3748     3753     3757     3708 
    3612     3554     3608     3676     3635     3564     3566     3608 
    3661     3738     3840     3920     3892     3767     3685     3678 
    3653     3572     3489     3484     3564     3632     3672     3765 
    3863     3854     3792     3744     3662     3584     3618     3740 
    3863     3913     3825     3692     3696     3786     3771     3642 
    3545     3528     3512     3522     3622     3676     3635     3732 
    3950     3964     3743     3565     3566     3611     3572     3578 
    3755     3882     3774     3620     3649     3804     3921     3990 
    4062     4083     3996     3875     3865     3950     3866     3512 
    3226     3198     3176     3098     3181     3416     3615     3686 
    3654     3640     3757     3933     4043     4079     4086     4039 
    3904     3708     3526     3389     3335     3466     3739     3844 
    3684     3588     3703     3811     3808     3781     3790     3797 
    3769     3696     3524     3331     3327     3516     3724     3786 
    3643     3500     3542     3605     3613     3693     3730     3628 
    3599     3744     3997     4159     4025     3827     3815     3792 
    3677     3618     3600     3574     3523     3491     3615     3785 
    3774     3715     3792     3836     3726     3650     3763     3885 
    3753     3438     3280     3474     3785     3848     3769     3805 
    3827     3711     3631     3654     3704     3765     3804     3789 
    3742     3665     3636     3743     3790     3638     3566     3730 
    3836     3724     3576     3523     3585     3778     3900     3700 
    3434     3488     3724     3815     3735     3653     3724     3861 
    3819     3699     3740     3817     3755     3689     3676     3586 
    3473     3511     3632     3636     3570     3612     3720     3790 
    3847     3870     3815     3712     3577     3573     3782     3821 
    3546     3423     3608     3762     3831     3975     4062     3897 
    3639     3549     3553     3508     3542     3716     3835     3820 
    3739     3601     3550     3740     3908     3753     3545     3635 
    3827     3850     3797     3761     3631     3393     3275     3392 
    3522     3566     3717     3928     3983     3913     3798     3659 
    3593     3604     3623     3712     3838     3871     3840     3789 
    3692     3604     3605     3678     3726     3703     3639     3558 
    3500     3554     3681     3715     3673     3672     3653     3603 
    3645     3766     3890     4020     4051     3836     3531     3470 
    3607     3651     3620     3611     3539     3557     3838     4055 
    3896     3616     3553     3680     3796     3784     3711     3666 
    3623     3600     3649     3735     3859     3974     3855     3535 
    3395     3542     3758     3856     3736     3546     3565     3711 
    3735     3653     3547     3472     3584     3824     3921     3847 
    3715     3636     3754     3877     3763     3674     3765     3740 
    3537     3424     3531     3778     3979     3936     3705     3584 
    3642     3699     3676     3616     3595     3643     3707     3769 
    3809     3775     3716     3665     3581     3541     3603     3626 
    3577     3622     3712     3721     3763     3855     3770     3558 
    3504     3662     3881     4004     3937     3712     3503     3465 
    3565     3670     3757     3825     3771     3655     3709     3850 
    3832     3692     3545     3516     3699     3892     3900     3778 
    3618     3489     3484     3642     3800     3728     3566     3619 
    3754     3763     3807     3901     3851     3680     3511     3431 
    3555     3817     3927     3771     3595     3596     3662     3699 
    3757     3715     3550     3574     3744     3731     3662     3724 
    3728     3599     3566     3757     3975     3986     3827     3647 
    3497     3493     3693     3817     3613     3312     3312     3615 
    3920     4058     4012     3831     3642     3545     3589     3744 
    3828     3740     3627     3632     3726     3793     3789     3782 
    3794     3676     3434     3389     3600     3746     3713     3659 
    3719     3856     3889     3856     3886     3802     3572     3472 
    3570     3676     3673     3663     3759     3809     3681     3586 
    3688     3824     3828     3653     3447     3566     3873     3836 
    3615     3697     3885     3809     3651     3681     3788     3757 
    3646     3618     3586     3519     3561     3632     3640     3703 
    3743     3681     3709     3804     3717     3549     3543     3655 
    3742     3808     3866     3874     3809     3684     3570     3539 
    3543     3526     3580     3784     3943     3827     3586     3559 
    3727     3827     3856     3889     3809     3609     3470     3522 
    3717     3861     3827     3694     3620     3657     3674     3622 
    3632     3713     3747     3738     3744     3753     3689     3581 
    3537     3549     3576     3694     3840     3858     3805     3742 
    3638     3611     3739     3863     3821     3674     3568     3538 
    3604     3790     3905     3762     3527     3457     3599     3832 
    3928     3792     3613     3541     3519     3550     3692     3829 
    3840     3828     3871     3831     3699     3604     3542     3546 
    3685     3761     3623     3500     3578     3738     3825     3824 
    3790     3774     3754     3717     3659     3549     3483     3565 
    3677     3730     3816     3885     3802     3649     3589     3677 
    3813     3870     3832     3766     3711     3638     3503     3408 
    3483     3628     3739     3819     3800     3674     3581     3591 
    3654     3715     3757     3804     3836     3792     3654     3516 
    3514     3635     3746     3747     3649     3577     3627     3719 
    3769     3762     3743     3800     3878     3897     3889     3805 
    3673     3640     3665     3696     3767     3700     3503     3505 
    3627     3586     3570     3726     3800     3721     3699     3763 
    3802     3759     3628     3514     3546     3705     3866     3912 
    3827     3711     3650     3636     3653     3694     3748     3773 
    3750     3724     3659     3539     3545     3720     3757     3595 
    3620     3838     3839     3659     3609     3657     3723     3847 
    3870     3712     3611     3643     3627     3534     3503     3601 
    3753     3839     3843     3786     3680     3618     3607     3565 
    3573     3654     3677     3721     3885     3974     3877     3762 
