Origin Time       2025/03/30 22:55:00
Lat.              41.993
Long.             142.725
Depth. (km)       55
Mag.              4.6
Station Code      IKRH03
Station Lat.      42.8880
Station Long.     141.6399
Station Height(m) 10
Record Time       2025/03/30 22:56:21
Sampling Freq(Hz) 100Hz
Duration Time(s)  120
Dir.              4
Scale Factor      7845(gal)/8223790
Max. Acc. (gal)   1.474
Last Correction   2025/03/30 22:56:21
Memo.             
[...]
   -6258    -6292    -6277    -6241    -6237    -6238    -6254    -6286 
   -6316    -6342    -6326    -6281    -6243    -6183    -6129    -6120 
   -6146    -6211    -6274    -6305    -6340    -6358    -6342    -6320 
   -6305    -6324    -6374    -6417    -6442    -6420    -6372    -6347 
   -6319    -6268    -6212    -6164    -6156    -6173    -6177    -6188 
   -6214    -6247    -6280    -6266    -6218    -6196    -6219    -6282 
   -6342    -6365    -6385    -6419    -6434    -6417    -6359    -6286 
   -6237    -6197    -6170    -6156    -6160    -6237    -6334    -6367 
   -6362    -6331    -6297    -6288    -6274    -6262    -6264    -6281 
   -6311    -6296    -6249    -6245    -6274    -6327    -6382    -6386 
   -6366    -6326    -6241    -6156    -6083    -6058    -6116    -6197 
   -6297    -6408    -6461    -6465    -6434    -6374    -6326    -6257 
   -6187    -6191    -6239    -6305    -6359    -6361    -6355    -6347 
   -6313    -6289    -6265    -6264    -6322    -6343    -6289    -6203 
   -6131    -6130    -6158    -6161    -6189    -6254    -6330    -6385 
   -6386    -6392    -6426    -6417    -6369    -6292    -6228    -6257 
   -6308    -6313    -6316    -6303    -6280    -6285    -6284    -6262 
   -6246    -6265    -6318    -6327    -6292    -6262    -6243    -6257 
   -6274    -6234    -6196    -6200    -6218    -6242    -6246    -6238 
   -6255    -6295    -6355    -6403    -6394    -6354    -6313    -6285 
   -6282    -6265    -6235    -6247    -6292    -6339    -6385    -6404 
   -6384    -6338    -6286    -6245    -6195    -6145    -6135    -6169 
   -6222    -6270    -6304    -6335    -6345    -6312    -6286    -6289 
   -6307    -6338    -6346    -6331    -6323    -6305    -6277    -6247 
   -6222    -6243    -6308    -6377    -6420    -6413    -6392    -6385 
   -6353    -6293    -6222    -6139    -6099    -6106    -6142    -6212 
   -6266    -6291    -6301    -6289    -6278    -6255    -6218    -6224 
   -6251    -6272    -6311    -6327    -6331    -6353    -6345    -6328 
   -6327    -6326    -6350    -6363    -6351    -6339    -6280    -6207 
   -6191    -6210    -6258    -6299    -6297    -6299    -6301    -6304 
   -6336    -6358    -6347    -6312    -6264    -6241    -6223    -6201 
   -6222    -6265    -6309    -6349    -6338    -6323    -6346    -6346 
   -6332    -6320    -6258    -6187    -6172    -6210    -6253    -6276 
   -6303    -6359    -6411    -6428    -6399    -6343    -6319    -6303 
   -6258    -6218    -6181    -6147    -6150    -6184    -6224    -6254 
   -6266    -6305    -6361    -6376    -6355    -6300    -6237    -6230 
   -6268    -6309    -6338    -6339    -6331    -6335    -6326    -6278 
   -6193    -6137    -6173    -6237    -6249    -6216    -6184    -6210 
   -6280    -6347    -6409    -6444    -6454    -6458    -6419    -6350 
   -6288    -6232    -6228    -6261    -6258    -6241    -6237    -6239 
   -6246    -6228    -6235    -6285    -6332    -6378    -6388    -6342 
   -6309    -6268    -6216    -6199    -6174    -6168    -6201    -6218 
   -6241    -6293    -6366    -6455    -6477    -6432    -6382    -6307 
   -6247    -6210    -6147    -6131    -6168    -6210    -6272    -6300 
   -6308    -6350    -6374    -6380    -6365    -6331    -6353    -6384 
   -6361    -6307    -6212    -6143    -6161    -6192    -6234    -6293 
   -6331    -6338    -6297    -6227    -6180    -6149    -6160    -6226 
   -6289    -6355    -6411    -6434    -6465    -6470    -6412    -6345 
   -6273    -6215    -6212    -6227    -6246    -6259    -6239    -6232 
   -6251    -6277    -6319    -6359    -6382    -6386    -6339    -6276 
   -6219    -6153    -6100    -6064    -6052    -6108    -6215    -6346 
   -6478    -6548    -6565    -6542    -6477    -6413    -6361    -6297 
   -6247    -6207    -6183    -6185    -6174    -6169    -6193    -6211 
   -6222    -6239    -6264    -6292    -6303    -6296    -6284    -6253 
   -6243    -6273    -6303    -6334    -6351    -6339    -6335    -6319 
   -6273    -6247    -6268    -6316    -6339    -6303    -6268    -6264 
   -6284    -6340    -6373    -6346    -6289    -6211    -6156    -6147 
   -6166    -6243    -6351    -6405    -6382    -6288    -6192    -6170 
   -6207    -6284    -6339    -6315    -6286    -6269    -6232    -6219 
   -6214    -6216    -6272    -6327    -6342    -6320    -6289    -6304 
   -6319    -6291    -6261    -6234    -6237    -6285    -6316    -6328 
   -6343    -6338    -6332    -6322    -6292    -6274    -6268    -6281 
   -6313    -6307    -6276    -6264    -6254    -6270    -6303    -6303 
   -6291    -6264    -6222    -6214    -6227    -6259    -6328    -6366 
   -6354    -6307    -6237    -6207    -6231    -6289    -6362    -6399 
   -6407    -6411    -6382    -6354    -6336    -6305    -6296    -6274 
   -6207    -6151    -6131    -6158    -6231    -6301    -6354    -6373 
   -6353    -6339    -6328    -6295    -6259    -6243    -6261    -6288 
   -6278    -6258    -6265    -6311    -6386    -6419    -6382    -6324 
   -6270    -6243    -6241    -6227    -6227    -6258    -6281    -6282 
   -6266    -6243    -6243    -6249    -6251    -6250    -6222    -6208 
   -6245    -6280    -6293    -6288    -6284    -6312    -6340    -6366 
   -6388    -6361    -6319    -6278    -6220    -6199    -6200    -6188 
   -6210    -6243    -6268    -6299    -6335    -6409    -6469    -6453 
   -6411    -6339    -6257    -6223    -6188    -6153    -6157    -6170 
   -6231    -6316    -6340    -6330    -6309    -6301    -6323    -6319 
   -6312    -6332    -6319    -6285    -6249    -6204    -6212    -6246 
   -6265    -6286    -6274    -6228    -6196    -6185    -6211    -6235 
   -6232    -6261    -6282    -6272    -6297    -6339    -6378    -6411 
   -6389    -6369    -6384    -6376    -6349    -6308    -6261    -6228 
   -6183    -6165    -6195    -6218    -6257    -6289    -6264    -6241 
   -6227    -6230    -6292    -6346    -6349    -6345    -6350    -6377 
   -6404    -6405    -6401    -6372    -6322    -6278    -6219    -6173 
   -6181    -6220    -6265    -6278    -6250    -6223    -6210    -6214 
   -6246    -6286    -6340    -6394    -6401    -6359    -6308    -6258 
   -6234    -6247    -6289    -6335    -6358    -6370    -6374    -6338 
   -6295    -6278    -6268    -6262    -6243    -6208    -6219    -6259 
   -6273    -6264    -6247    -6261    -6305    -6324    -6335    -6355 
   -6366    -6366    -6330    -6292    -6307    -6316    -6304    -6297 
   -6276    -6246    -6212    -6183    -6193    -6211    -6231    -6264 
   -6272    -6292    -6331    -6338    -6346    -6353    -6335    -6340 
   -6358    -6355    -6331    -6288    -6280    -6301    -6288    -6251 
   -6212    -6197    -6235    -6253    -6250    -6295    -6336    -6327 
   -6281    -6212    -6169    -6146    -6129    -6154    -6208    -6273 
   -6328    -6331    -6351    -6426    -6493    -6555    -6581    -6507 
   -6385    -6264    -6164    -6104    -6084    -6134    -6231    -6296 
   -6316    -6291    -6243    -6222    -6178    -6111    -6096    -6134 
   -6197    -6272    -6332    -6382    -6408    -6407    -6403    -6373 
   -6323    -6299    -6293    -6301    -6315    -6311    -6305    -6288 
   -6237    -6183    -6156    -6178    -6261    -6351    -6405    -6412 
   -6366    -6301    -6228    -6153    -6120    -6145    -6205    -6300 
   -6389    -6448    -6461    -6393    -6300    -6230    -6166    -6149 
   -6191    -6268    -6357    -6386    -6357    -6319    -6277    -6265 
   -6276    -6264    -6264    -6270    -6264    -6274    -6281    -6286 
   -6308    -6305    -6297    -6288    -6265    -6272    -6281    -6296 
   -6342    -6365    -6374    -6370    -6307    -6257    -6231    -6200 
   -6220    -6254    -6286    -6349    -6367    -6338    -6295    -6245 
   -6239    -6254    -6255    -6278    -6281    -6262    -6264    -6241 
   -6215    -6230    -6255    -6304    -6351    -6366    -6389    -6400 
   -6376    -6335    -6251    -6164    -6120    -6111    -6169    -6270 
   -6355    -6428    -6444    -6385    -6316    -6253    -6224    -6235 
   -6237    -6241    -6257    -6280    -6323    -6345    -6350    -6390 
   -6423    -6432    -6419    -6347    -6265    -6200    -6134    -6095 
   -6083    -6102    -6173    -6259    -6331    -6373    -6373    -6377 
   -6388    -6367    -6342    -6305    -6272    -6270    -6257    -6223 
   -6208    -6224    -6274    -6316    -6324    -6331    -6331    -6316 
   -6295    -6249    -6205    -6193    -6189    -6197    -6211    -6227 
   -6270    -6313    -6346    -6381    -6386    -6370    -6350    -6316 
   -6309    -6334    -6357    -6359    -6303    -6214    -6162    -6146 
   -6158    -6178    -6183    -6203    -6226    -6223    -6241    -6276 
   -6305    -6335    -6326    -6285    -6257    -6243    -6272    -6315 
   -6323    -6303    -6251    -6219    -6243    -6269    -6295    -6301 
   -6232    -6164    -6158    -6184    -6251    -6332    -6373    -6366 
   -6311    -6241    -6189    -6169    -6222    -6304    -6339    -6355 
   -6346    -6318    -6338    -6374    -6388    -6389    -6361    -6326 
   -6284    -6216    -6164    -6118    -6070    -6070    -6085    -6111 
   -6176    -6218    -6247    -6307    -6362    -6400    -6409    -6394 
   -6404    -6423    -6430    -6419    -6386    -6396    -6436    -6430 
   -6403    -6358    -6296    -6270    -6249    -6211    -6203    -6220 
   -6253    -6268    -6234    -6197    -6184    -6199    -6257    -6309 
   -6380    -6500    -6602    -6648    -6632    -6554    -6454    -6324 
   -6203    -6156    -6142    -6135    -6135    -6130    -6158    -6212 
   -6245    -6280    -6320    -6366    -6423    -6442    -6420    -6392 
   -6358    -6334    -6311    -6272    -6261    -6297    -6367    -6431 
   -6431    -6396    -6353    -6282    -6228    -6215    -6219    -6265 
   -6323    -6342    -6343    -6334    -6316    -6295    -6242    -6162 
   -6080    -6014    -6006    -6021    -6039    -6108    -6201    -6297 
   -6399    -6474    -6547    -6605    -6588    -6525    -6440    -6330 
   -6235    -6150    -6088    -6093    -6137    -6196    -6251    -6259 
   -6258    -6253    -6219    -6196    -6181    -6177    -6211    -6238 
   -6237    -6219    -6195    -6220    -6277    -6305    -6335    -6347 
   -6350    -6390    -6411    -6405    -6428    -6443    -6444    -6397 
   -6286    -6208    -6176    -6173    -6210    -6223    -6224    -6235 
   -6227    -6241    -6262    -6273    -6334    -6412    -6496    -6605 
   -6674    -6709    -6717    -6632    -6484    -6296    -6106    -5991 
   -5942    -5952    -5996    -6011    -6030    -6058    -6064    -6081 
   -6097    -6130    -6242    -6381    -6519    -6646    -6732    -6802 
   -6820    -6729    -6585    -6428    -6316    -6282    -6253    -6220 
   -6210    -6197    -6180    -6115    -5988    -5900    -5876    -5865 
   -5856    -5848    -5877    -5965    -6049    -6110    -6162    -6224 
   -6323    -6444    -6561    -6659    -6723    -6781    -6832    -6801 
   -6686    -6527    -6323    -6131    -5996    -5927    -5945    -6004 
   -6050    -6061    -6007    -5937    -5910    -5930    -6026    -6166 
   -6299    -6416    -6466    -6458    -6474    -6502    -6512    -6508 
   -6478    -6439    -6392    -6331    -6286    -6231    -6162    -6153 
   -6218    -6330    -6450    -6516    -6531    -6507    -6416    -6308 
   -6222    -6165    -6138    -6099    -6050    -6029    -6026    -6093 
   -6241    -6382    -6486    -6531    -6525    -6531    -6513    -6463 
   -6431    -6411    -6413    -6439    -6458    -6493    -6516    -6470 
   -6357    -6177    -5999    -5887    -5833    -5857    -5938    -6035 
   -6177    -6331    -6451    -6542    -6566    -6529    -6444    -6292 
   -6133    -6021    -5984    -6070    -6234    -6399    -6515    -6519 
   -6440    -6339    -6228    -6145    -6104    -6110    -6177    -6222 
   -6192    -6114    -5995    -5880    -5811    -5795    -5895    -6137 
   -6471    -6818    -7060    -7123    -7002    -6720    -6384    -6089 
   -5899    -5899    -6064    -6269    -6442    -6516    -6481    -6396 
   -6259    -6122    -6068    -6091    -6160    -6210    -6204    -6187 
   -6138    -6060    -6006    -5980    -6039    -6227    -6475    -6760 
   -7007    -7113    -7084    -6925    -6663    -6372    -6087    -5904 
   -5880    -5919    -5995    -6102    -6184    -6231    -6234    -6210 
   -6220    -6273    -6361    -6461    -6520    -6546    -6509    -6403 
   -6322    -6273    -6232    -6270    -6363    -6447    -6485    -6424 
   -6308    -6189    -6056    -5961    -5930    -5950    -6021    -6073 
   -6114    -6189    -6245    -6278    -6312    -6286    -6189    -6037 
   -5903    -5921    -6085    -6335    -6613    -6822    -6941    -6941 
   -6785    -6539    -6246    -5976    -5880    -5949    -6085    -6226 
   -6318    -6390    -6420    -6318    -6146    -5994    -5935    -6035 
   -6214    -6399    -6569    -6656    -6660    -6578    -6384    -6174 
   -6042    -6022    -6093    -6168    -6235    -6324    -6389    -6431 
   -6446    -6436    -6474    -6527    -6525    -6471    -6351    -6204 
   -6075    -5965    -5922    -5949    -6010    -6099    -6158    -6133 
   -6046    -5933    -5895    -5983    -6139    -6354    -6583    -6723 
   -6737    -6605    -6386    -6243    -6235    -6369    -6602    -6779 
   -6831    -6777    -6633    -6454    -6261    -6097    -6008    -5958 
   -5925    -5877    -5803    -5799    -5902    -6053    -6204    -6280 
   -6227    -6076    -5861    -5665    -5593    -5713    -6079    -6640 
   -7221    -7657    -7831    -7686    -7292    -6759    -6226    -5829 
   -5628    -5638    -5796    -5973    -6149    -6309    -6390    -6401 
   -6331    -6183    -6045    -5957    -5938    -6002    -6087    -6177 
   -6247    -6241    -6197    -6141    -6111    -6189    -6336    -6485 
   -6608    -6666    -6655    -6548    -6343    -6166    -6079    -6087 
   -6199    -6322    -6427    -6543    -6600    -6589    -6538    -6447 
   -6354    -6253    -6160    -6119    -6100    -6123    -6173    -6200 
   -6266    -6382    -6482    -6573    -6609    -6593    -6581    -6538 
   -6432    -6266    -6064    -5918    -5852    -5867    -5969    -6102 
   -6258    -6407    -6423    -6312    -6127    -5914    -5786    -5768 
   -5853    -6076    -6374    -6647    -6831    -6880    -6851    -6791 
   -6713    -6652    -6573    -6446    -6331    -6220    -6131    -6116 
   -6150    -6223    -6292    -6274    -6191    -6077    -5964    -5917 
   -5914    -5934    -5987    -6053    -6146    -6257    -6324    -6354 
   -6374    -6401    -6454    -6478    -6467    -6496    -6558    -6619 
   -6656    -6612    -6482    -6291    -6054    -5863    -5769    -5788 
   -5925    -6108    -6274    -6413    -6470    -6446    -6374    -6242 
   -6116    -6069    -6095    -6187    -6292    -6388    -6474    -6488 
   -6431    -6335    -6232    -6237    -6336    -6446    -6543    -6573 
   -6550    -6535    -6477    -6362    -6218    -6058    -5964    -5934 
   -5918    -5923    -5918    -5922    -5960    -5971    -6007    -6114 
   -6255    -6454    -6644    -6745    -6787    -6767    -6704    -6629 
   -6524    -6448    -6405    -6343    -6284    -6199    -6084    -6006 
   -5946    -5929    -5984    -6073    -6201    -6319    -6358    -6362 
   -6363    -6397    -6466    -6496    -6489    -6474    -6432    -6399 
   -6358    -6322    -6372    -6485    -6592    -6640    -6559    -6400 
   -6246    -6118    -6054    -6030    -6008    -6021    -6054    -6091 
   -6130    -6147    -6180    -6238    -6282    -6336    -6389    -6419 
   -6461    -6501    -6520    -6525    -6475    -6385    -6311    -6255 
   -6222    -6185    -6138    -6120    -6104    -6061    -6019    -5996 
   -6043    -6192    -6388    -6586    -6732    -6783    -6777    -6716 
   -6590    -6423    -6220    -6034    -5929    -5884    -5902    -5973 
   -6045    -6138    -6254    -6350    -6432    -6457    -6416    -6366 
   -6301    -6230    -6170    -6133    -6151    -6196    -6218    -6243 
   -6277    -6355    -6473    -6543    -6569    -6586    -6561    -6504 
   -6405    -6230    -6056    -5938    -5892    -5933    -6023    -6157 
   -6322    -6455    -6543    -6546    -6444    -6326    -6216    -6120 
   -6081    -6093    -6173    -6315    -6459    -6583    -6633    -6602 
   -6540    -6404    -6212    -6033    -5857    -5751    -5761    -5837 
   -5956    -6069    -6166    -6297    -6431    -6539    -6602    -6590 
   -6556    -6532    -6500    -6473    -6413    -6320    -6250    -6177 
   -6112    -6083    -6072    -6106    -6162    -6183    -6192    -6184 
   -6165    -6189    -6255    -6345    -6413    -6394    -6340    -6307 
   -6281    -6286    -6308    -6330    -6373    -6389    -6369    -6340 
   -6278    -6224    -6220    -6257    -6338    -6409    -6430    -6427 
   -6369    -6266    -6176    -6110    -6106    -6149    -6185    -6231 
   -6251    -6214    -6185    -6205    -6284    -6415    -6535    -6635 
   -6693    -6652    -6527    -6354    -6193    -6114    -6068    -6037 
   -6053    -6073    -6089    -6111    -6107    -6110    -6122    -6112 
   -6111    -6107    -6116    -6181    -6273    -6389    -6525    -6633 
   -6712    -6720    -6600    -6413    -6231    -6096    -6057    -6084 
   -6147    -6227    -6261    -6264    -6278    -6292    -6326    -6343 
   -6327    -6326    -6303    -6265    -6253    -6215    -6168    -6139 
   -6120    -6166    -6251    -6332    -6417    -6459    -6469    -6465 
   -6423    -6419    -6448    -6442    -6424    -6382    -6332    -6335 
   -6346    -6369    -6400    -6361    -6277    -6154    -5988    -5856 
   -5760    -5745    -5865    -6035    -6227    -6423    -6562    -6658 
   -6679    -6608    -6525    -6436    -6365    -6369    -6413    -6507 
   -6625    -6683    -6689    -6602    -6412    -6216    -6038    -5918 
   -5915    -5984    -6106    -6232    -6284    -6292    -6273    -6232 
   -6203    -6134    -6046    -5992    -5958    -5988    -6079    -6173 
   -6292    -6404    -6485    -6567    -6601    -6567    -6508    -6419 
   -6345    -6297    -6245    -6220    -6224    -6238    -6278    -6297 
   -6272    -6258    -6258    -6277    -6312    -6318    -6304    -6277 
   -6201    -6089    -5972    -5903    -5941    -6058    -6210    -6369 
   -6488    -6558    -6569    -6484    -6358    -6261    -6216    -6251 
   -6331    -6405    -6490    -6548    -6529    -6438    -6299    -6181 
   -6111    -6072    -6088    -6139    -6205    -6292    -6363    -6427 
   -6473    -6444    -6408    -6397    -6367    -6331    -6273    -6218 
   -6216    -6230    -6239    -6238    -6215    -6223    -6243    -6246 
   -6255    -6224    -6176    -6174    -6181    -6189    -6207    -6231 
   -6303    -6394    -6488    -6586    -6628    -6616    -6561    -6415 
   -6249    -6089    -5937    -5890    -5950    -6062    -6204    -6301 
   -6346    -6339    -6254    -6151    -6064    -6004    -6046    -6150 
   -6268    -6386    -6455    -6497    -6520    -6471    -6407    -6355 
   -6311    -6324    -6355    -6365    -6374    -6358    -6340    -6327 
   -6273    -6239    -6249    -6261    -6284    -6285    -6270    -6292 
   -6316    -6326    -6345    -6353    -6353    -6340    -6282    -6208 
   -6130    -6068    -6084    -6164    -6281    -6412    -6473    -6455 
   -6380    -6242    -6114    -6038    -6025    -6110    -6241    -6358 
   -6446    -6448    -6394    -6338    -6286    -6276    -6282    -6291 
