Origin Time       2025/03/30 22:55:00
Lat.              41.993
Long.             142.725
Depth. (km)       55
Mag.              4.6
Station Code      IKRH03
Station Lat.      42.8880
Station Long.     141.6399
Station Height(m) 10
Record Time       2025/03/30 22:56:21
Sampling Freq(Hz) 100Hz
Duration Time(s)  120
Dir.              6
Scale Factor      7845(gal)/8223790
Max. Acc. (gal)   0.519
Last Correction   2025/03/30 22:56:21
Memo.             
[...]
  -11090   -11087   -11088   -11091   -11110   -11102   -11091   -11094 
  -11087   -11097   -11106   -11099   -11099   -11086   -11082   -11102 
  -11105   -11099   -11092   -11082   -11095   -11111   -11103   -11094 
  -11082   -11086   -11109   -11107   -11097   -11087   -11078   -11097 
  -11111   -11101   -11094   -11086   -11087   -11103   -11101   -11099 
  -11102   -11087   -11087   -11099   -11097   -11099   -11095   -11090 
  -11097   -11092   -11090   -11097   -11094   -11098   -11101   -11088 
  -11091   -11095   -11095   -11103   -11098   -11086   -11092   -11098 
  -11099   -11097   -11090   -11095   -11095   -11091   -11098   -11091 
  -11091   -11101   -11091   -11092   -11101   -11094   -11097   -11097 
  -11087   -11092   -11094   -11098   -11101   -11088   -11091   -11099 
  -11094   -11101   -11102   -11092   -11094   -11091   -11094   -11103 
  -11099   -11094   -11088   -11090   -11107   -11106   -11088   -11088 
  -11090   -11101   -11114   -11101   -11088   -11088   -11092   -11107 
  -11109   -11092   -11088   -11092   -11105   -11110   -11094   -11090 
  -11097   -11095   -11103   -11103   -11095   -11097   -11094   -11095 
  -11105   -11098   -11094   -11094   -11091   -11103   -11105   -11092 
  -11097   -11098   -11098   -11106   -11094   -11087   -11099   -11099 
  -11101   -11097   -11090   -11102   -11101   -11091   -11098   -11097 
  -11103   -11109   -11091   -11092   -11099   -11095   -11103   -11095 
  -11090   -11107   -11103   -11097   -11092   -11084   -11103   -11113 
  -11097   -11095   -11088   -11088   -11105   -11103   -11101   -11094 
  -11084   -11097   -11102   -11097   -11103   -11094   -11087   -11099 
  -11102   -11103   -11098   -11084   -11094   -11105   -11105   -11102 
  -11086   -11086   -11103   -11105   -11102   -11094   -11082   -11094 
  -11105   -11102   -11099   -11090   -11090   -11099   -11102   -11103 
  -11095   -11086   -11091   -11094   -11098   -11103   -11092   -11088 
  -11099   -11098   -11094   -11095   -11094   -11095   -11095   -11092 
  -11095   -11094   -11099   -11105   -11092   -11087   -11094   -11094 
  -11103   -11103   -11090   -11091   -11097   -11098   -11102   -11094 
  -11090   -11097   -11094   -11099   -11099   -11090   -11102   -11101 
  -11087   -11092   -11092   -11099   -11111   -11098   -11090   -11090 
  -11086   -11099   -11107   -11101   -11095   -11083   -11090   -11106 
  -11099   -11099   -11092   -11079   -11102   -11111   -11098   -11094 
  -11082   -11091   -11115   -11105   -11092   -11083   -11082   -11106 
  -11110   -11097   -11088   -11078   -11094   -11109   -11094   -11095 
  -11091   -11083   -11101   -11102   -11102   -11106   -11087   -11084 
  -11099   -11102   -11106   -11097   -11087   -11098   -11094   -11091 
  -11097   -11094   -11102   -11106   -11088   -11086   -11092   -11102 
  -11109   -11097   -11087   -11091   -11095   -11103   -11101   -11092 
  -11094   -11091   -11091   -11101   -11099   -11094   -11095   -11091 
  -11090   -11098   -11105   -11102   -11092   -11088   -11092   -11095 
  -11099   -11101   -11091   -11091   -11095   -11095   -11099   -11101 
  -11090   -11092   -11097   -11095   -11101   -11098   -11091   -11091 
  -11092   -11105   -11107   -11091   -11086   -11087   -11097   -11113 
  -11102   -11086   -11088   -11090   -11098   -11105   -11094   -11094 
  -11094   -11094   -11103   -11098   -11092   -11097   -11091   -11097 
  -11101   -11092   -11098   -11097   -11091   -11101   -11101   -11098 
  -11101   -11092   -11094   -11097   -11090   -11098   -11101   -11098 
  -11103   -11091   -11090   -11102   -11095   -11097   -11099   -11091 
  -11099   -11097   -11091   -11102   -11099   -11097   -11099   -11090 
  -11098   -11107   -11098   -11098   -11090   -11086   -11105   -11107 
  -11098   -11090   -11079   -11095   -11111   -11105   -11099   -11087 
  -11080   -11097   -11102   -11106   -11105   -11087   -11086   -11097 
  -11105   -11111   -11098   -11080   -11088   -11105   -11111   -11101 
  -11082   -11084   -11103   -11109   -11102   -11088   -11084   -11099 
  -11103   -11098   -11097   -11091   -11094   -11102   -11101   -11101 
  -11095   -11091   -11099   -11102   -11105   -11099   -11084   -11091 
  -11101   -11098   -11102   -11095   -11087   -11101   -11102   -11094 
  -11095   -11094   -11099   -11102   -11095   -11095   -11090   -11094 
  -11113   -11103   -11094   -11097   -11090   -11101   -11110   -11095 
  -11094   -11095   -11095   -11101   -11097   -11098   -11103   -11095 
  -11094   -11090   -11092   -11109   -11105   -11091   -11094   -11090 
  -11097   -11107   -11103   -11102   -11094   -11083   -11095   -11106 
  -11110   -11106   -11086   -11087   -11101   -11099   -11103   -11099 
  -11086   -11097   -11105   -11098   -11098   -11088   -11088   -11105 
  -11105   -11095   -11088   -11084   -11103   -11110   -11098   -11095 
  -11087   -11091   -11107   -11103   -11099   -11095   -11086   -11097 
  -11105   -11099   -11103   -11095   -11088   -11097   -11095   -11099 
  -11101   -11094   -11101   -11099   -11090   -11095   -11095   -11099 
  -11107   -11092   -11090   -11095   -11091   -11105   -11105   -11092 
  -11098   -11095   -11097   -11103   -11095   -11101   -11099   -11086 
  -11098   -11101   -11092   -11097   -11088   -11090   -11101   -11099 
  -11101   -11092   -11087   -11101   -11097   -11094   -11103   -11095 
  -11097   -11099   -11087   -11097   -11102   -11094   -11094   -11091 
  -11095   -11103   -11094   -11091   -11091   -11090   -11109   -11106 
  -11086   -11086   -11090   -11098   -11107   -11098   -11091   -11090 
  -11088   -11102   -11102   -11092   -11095   -11091   -11091   -11099 
  -11095   -11092   -11097   -11092   -11094   -11098   -11095   -11097 
  -11094   -11090   -11095   -11097   -11092   -11095   -11097   -11098 
  -11098   -11087   -11091   -11105   -11102   -11099   -11091   -11087 
  -11101   -11099   -11091   -11098   -11097   -11097   -11098   -11090 
  -11094   -11097   -11095   -11101   -11094   -11095   -11103   -11095 
  -11094   -11092   -11087   -11103   -11107   -11095   -11094   -11086 
  -11092   -11109   -11103   -11099   -11092   -11082   -11095   -11102 
  -11102   -11107   -11088   -11080   -11095   -11099   -11109   -11102 
  -11080   -11086   -11099   -11109   -11110   -11088   -11086   -11099 
  -11103   -11109   -11095   -11084   -11097   -11098   -11101   -11103 
  -11087   -11091   -11099   -11098   -11102   -11094   -11086   -11092 
  -11095   -11105   -11103   -11087   -11092   -11098   -11094   -11098 
  -11094   -11092   -11103   -11103   -11097   -11090   -11087   -11098 
  -11103   -11099   -11097   -11088   -11094   -11107   -11102   -11092 
  -11092   -11090   -11097   -11103   -11101   -11099   -11098   -11091 
  -11092   -11095   -11101   -11105   -11095   -11091   -11092   -11091 
  -11099   -11106   -11098   -11095   -11092   -11088   -11102   -11109 
  -11099   -11090   -11086   -11094   -11105   -11103   -11103   -11090 
  -11082   -11102   -11106   -11101   -11099   -11084   -11094   -11109 
  -11098   -11098   -11090   -11086   -11106   -11102   -11094   -11098 
  -11088   -11097   -11102   -11091   -11098   -11095   -11090   -11102 
  -11098   -11099   -11102   -11087   -11095   -11103   -11095   -11102 
  -11092   -11088   -11103   -11097   -11094   -11095   -11092   -11106 
  -11103   -11090   -11095   -11088   -11097   -11111   -11099   -11094 
  -11094   -11092   -11107   -11103   -11094   -11095   -11090   -11098 
  -11101   -11091   -11101   -11101   -11087   -11095   -11098   -11099 
  -11103   -11095   -11090   -11091   -11097   -11109   -11103   -11095 
  -11097   -11090   -11092   -11106   -11106   -11101   -11092   -11088 
  -11098   -11107   -11106   -11094   -11084   -11098   -11110   -11103 
  -11095   -11090   -11088   -11105   -11111   -11095   -11084   -11090 
  -11099   -11105   -11102   -11094   -11088   -11094   -11105   -11105 
  -11094   -11092   -11098   -11101   -11106   -11099   -11086   -11090 
  -11097   -11102   -11109   -11095   -11087   -11092   -11095   -11102 
  -11099   -11088   -11094   -11097   -11098   -11106   -11094   -11091 
  -11099   -11095   -11102   -11103   -11090   -11095   -11095   -11094 
  -11103   -11095   -11094   -11099   -11090   -11095   -11099   -11091 
  -11098   -11092   -11091   -11102   -11097   -11094   -11092   -11087 
  -11098   -11101   -11098   -11098   -11087   -11090   -11099   -11094 
  -11102   -11101   -11084   -11088   -11094   -11099   -11107   -11090 
  -11082   -11095   -11102   -11109   -11101   -11083   -11087   -11094 
  -11101   -11105   -11088   -11087   -11095   -11095   -11103   -11102 
  -11092   -11097   -11094   -11092   -11099   -11094   -11090   -11095 
  -11098   -11099   -11094   -11088   -11092   -11092   -11098   -11105 
  -11094   -11087   -11094   -11095   -11099   -11099   -11092   -11095 
  -11099   -11097   -11094   -11091   -11101   -11106   -11095   -11094 
  -11094   -11092   -11107   -11105   -11090   -11097   -11098   -11095 
  -11099   -11095   -11098   -11099   -11091   -11094   -11094   -11099 
  -11110   -11098   -11091   -11097   -11091   -11098   -11107   -11099 
  -11095   -11090   -11086   -11102   -11107   -11101   -11095   -11083 
  -11094   -11109   -11105   -11103   -11091   -11080   -11099   -11106 
  -11099   -11099   -11088   -11091   -11105   -11102   -11101   -11097 
  -11091   -11102   -11102   -11098   -11099   -11088   -11095   -11107 
  -11097   -11097   -11099   -11091   -11101   -11102   -11097   -11098 
  -11091   -11095   -11102   -11092   -11098   -11101   -11094   -11101 
  -11097   -11090   -11098   -11097   -11102   -11106   -11090   -11087 
  -11094   -11102   -11114   -11102   -11087   -11090   -11091   -11102 
  -11102   -11090   -11095   -11095   -11094   -11103   -11094   -11095 
  -11106   -11094   -11091   -11097   -11095   -11103   -11101   -11092 
  -11092   -11088   -11101   -11111   -11099   -11092   -11090   -11087 
  -11106   -11110   -11098   -11088   -11082   -11094   -11111   -11103 
  -11094   -11086   -11088   -11109   -11107   -11098   -11091   -11084 
  -11097   -11109   -11099   -11095   -11092   -11092   -11103   -11103 
  -11097   -11094   -11091   -11095   -11099   -11098   -11098   -11092 
  -11090   -11103   -11106   -11095   -11087   -11090   -11101   -11107 
  -11099   -11088   -11091   -11102   -11109   -11101   -11090   -11092 
  -11099   -11105   -11107   -11095   -11086   -11097   -11099   -11102 
  -11107   -11094   -11087   -11094   -11099   -11107   -11103   -11095 
  -11099   -11097   -11101   -11110   -11103   -11105   -11102   -11092 
  -11106   -11110   -11102   -11107   -11101   -11101   -11111   -11107 
  -11111   -11107   -11094   -11103   -11106   -11109   -11118   -11103 
  -11098   -11105   -11109   -11124   -11115   -11099   -11102   -11097 
  -11099   -11106   -11095   -11099   -11103   -11105   -11125   -11124 
  -11111   -11105   -11083   -11074   -11079   -11090   -11122   -11137 
  -11130   -11133   -11132   -11138   -11151   -11140   -11128   -11101 
  -11068   -11072   -11082   -11086   -11088   -11068   -11056   -11057 
  -11041   -11048   -11065   -11065   -11061   -11041   -11016   -11003 
  -10982   -10960   -10944   -10930   -10955   -11028   -11132   -11214 
  -11196   -11106   -11041   -11047   -11091   -11140   -11199   -11237 
  -11188   -11090   -11040   -11064   -11126   -11178   -11209   -11217 
  -11151   -11010   -10912   -10939   -11074   -11253   -11362   -11322 
  -11175   -10994   -10879   -10928   -11071   -11176   -11202   -11175 
  -11164   -11183   -11205   -11237   -11244   -11202   -11167   -11138 
  -11063   -10929   -10814   -10825   -10944   -11082   -11163   -11114 
  -10979   -10899   -10913   -10993   -11074   -11075   -11033   -11037 
  -11099   -11169   -11190   -11176   -11152   -11119   -11095   -11034 
  -10944   -10933   -11009   -11117   -11200   -11205   -11192   -11199 
  -11176   -11186   -11219   -11182   -11121   -11102   -11110   -11097 
  -11024   -10979   -11067   -11225   -11281   -11152   -10963   -10889 
  -10984   -11188   -11267   -11109   -10924   -10844   -10883   -11086 
  -11308   -11356   -11277   -11180   -11109   -11114   -11183   -11184 
  -11047   -10951   -11043   -11168   -11217   -11233   -11227   -11229 
  -11225   -11192   -11145   -10979   -10706   -10593   -10724   -10971 
  -11217   -11338   -11327   -11267   -11214   -11199   -11171   -11156 
  -11244   -11286   -11098   -10778   -10562   -10642   -10982   -11299 
  -11423   -11369   -11195   -11034   -11001   -11084   -11167   -11110 
  -10966   -10898   -10909   -10949   -11028   -11146   -11307   -11457 
  -11543   -11508   -11256   -10894   -10679   -10647   -10712   -10882 
  -11124   -11281   -11254   -11118   -10994   -10928   -11006   -11227 
  -11379   -11331   -11130   -10852   -10698   -10854   -11223   -11531 
  -11595   -11485   -11364   -11263   -11165   -11049   -10872   -10766 
  -10852   -10978   -11002   -10984   -10968   -10970   -11036   -11103 
  -11041   -10935   -10962   -11044   -11057   -11097   -11125   -11055 
  -11080   -11284   -11457   -11491   -11407   -11245   -11109   -11084 
  -11086   -10968   -10840   -10906   -11071   -11152   -11130   -11022 
  -10936   -10997   -11130   -11207   -11182   -11129   -11134   -11090 
  -10909   -10760   -10744   -10840   -11097   -11439   -11612   -11488 
  -11209   -10964   -10845   -10921   -11114   -11199   -11145   -11074 
  -10987   -10889   -10840   -10933   -11227   -11531   -11632   -11588 
  -11469   -11229   -10890   -10602   -10552   -10736   -10937   -11021 
  -11018   -11034   -11095   -11164   -11284   -11415   -11408   -11238 
  -10983   -10828   -10886   -11014   -11152   -11326   -11384   -11268 
  -11115   -11034   -11068   -11146   -11178   -11188   -11160   -11040 
  -10895   -10832   -10878   -10945   -10983   -11051   -11138   -11186 
  -11168   -11084   -11064   -11168   -11246   -11245   -11194   -11048 
  -10912   -10955   -11105   -11191   -11188   -11178   -11210   -11190 
  -11055   -10979   -11072   -11163   -11115   -11036   -11049   -11115 
  -11140   -11110   -11087   -11107   -11122   -11106   -11098   -11057 
  -10976   -11003   -11188   -11335   -11272   -11052   -10901   -10939 
  -11053   -11126   -11137   -11082   -11014   -11025   -11086   -11101 
  -11095   -11144   -11157   -11094   -11076   -11110   -11124   -11153 
  -11172   -11125   -11048   -10987   -10976   -11020   -11059   -11074 
  -11086   -11132   -11190   -11145   -11052   -11048   -11084   -11105 
  -11140   -11182   -11210   -11198   -11156   -11121   -11055   -10986 
  -11014   -11099   -11159   -11176   -11168   -11172   -11199   -11219 
  -11171   -11044   -10975   -11021   -11080   -11068   -10957   -10851 
  -10893   -11021   -11149   -11272   -11283   -11144   -11036   -11075 
  -11111   -11002   -10898   -10933   -11026   -11167   -11331   -11349 
  -11219   -11106   -11063   -11067   -11101   -11153   -11167   -11082 
  -11001   -11026   -11074   -11068   -11037   -11021   -11045   -11034 
  -10902   -10812   -10957   -11211   -11357   -11362   -11242   -11047 
  -10933   -11021   -11196   -11246   -11161   -11072   -11006   -10976 
  -11005   -11065   -11152   -11246   -11307   -11272   -11103   -10957 
  -10990   -11130   -11248   -11246   -11072   -10866   -10832   -11010 
  -11246   -11350   -11286   -11137   -11024   -10997   -10974   -10945 
  -10998   -11083   -11133   -11144   -11076   -10976   -10974   -11111 
  -11281   -11306   -11171   -11041   -11013   -11086   -11156   -11138 
  -11128   -11164   -11187   -11182   -11117   -11029   -11007   -11024 
  -11078   -11152   -11134   -11029   -10924   -10885   -10956   -11037 
  -11092   -11205   -11264   -11164   -11036   -11020   -11091   -11130 
  -11119   -11110   -11070   -11047   -11107   -11145   -11140   -11173 
  -11217   -11229   -11205   -11133   -11029   -10949   -10971   -11045 
  -11071   -11107   -11167   -11142   -11087   -11084   -11075   -11033 
  -11029   -11091   -11161   -11184   -11176   -11155   -11086   -11009 
  -10976   -10990   -11080   -11222   -11290   -11265   -11211   -11121 
  -11025   -11011   -11061   -11075   -11076   -11134   -11178   -11132 
  -11051   -11016   -11075   -11134   -11067   -10960   -10930   -10935 
  -11005   -11138   -11195   -11155   -11092   -11045   -11048   -11098 
  -11130   -11115   -11119   -11187   -11230   -11217   -11164   -11025 
  -10924   -11032   -11207   -11240   -11167   -11119   -11095   -11047 
  -11048   -11092   -11051   -10980   -11016   -11084   -11083   -11045 
  -11063   -11142   -11183   -11186   -11209   -11192   -11126   -11070 
  -11032   -11022   -11011   -10991   -11041   -11125   -11140   -11130 
  -11161   -11175   -11102   -11052   -11141   -11222   -11179   -11102 
  -10987   -10867   -10905   -11070   -11194   -11194   -11094   -11028 
  -11071   -11167   -11218   -11182   -11126   -11119   -11115   -11082 
  -11038   -11025   -11057   -11063   -11086   -11221   -11307   -11205 
  -11028   -10887   -10831   -10902   -11086   -11269   -11302   -11192 
  -11079   -10999   -10978   -11034   -11055   -11040   -11118   -11214 
  -11210   -11136   -11030   -10939   -10928   -11010   -11103   -11118 
  -11128   -11202   -11248   -11246   -11246   -11195   -11095   -11037 
  -11036   -11021   -10976   -10987   -11065   -11092   -11064   -11068 
  -11097   -11138   -11211   -11269   -11260   -11182   -11076   -10978 
  -10940   -11024   -11137   -11148   -11095   -11018   -10933   -10948 
  -11118   -11323   -11358   -11200   -11079   -11099   -11138   -11106 
  -11036   -10986   -10995   -11063   -11144   -11142   -11048   -10998 
  -11044   -11078   -11064   -11084   -11163   -11214   -11169   -11074 
  -10997   -10990   -11064   -11114   -11064   -11013   -11034   -11080 
  -11107   -11103   -11106   -11133   -11122   -11115   -11161   -11160 
  -11094   -11045   -11034   -11057   -11101   -11141   -11163   -11149 
  -11160   -11195   -11173   -11119   -11092   -11099   -11125   -11094 
  -11043   -11074   -11091   -11034   -11022   -11094   -11173   -11153 
  -11032   -10941   -10972   -11119   -11234   -11160   -11044   -11070 
  -11172   -11248   -11218   -11111   -11080   -11095   -11063   -11048 
  -11067   -11090   -11103   -11078   -11041   -11005   -10989   -11072 
  -11172   -11164   -11097   -11045   -11038   -11056   -11078   -11130 
  -11153   -11124   -11107   -11055   -10979   -11006   -11111   -11202 
  -11236   -11198   -11145   -11137   -11156   -11102   -10975   -10963 
  -11095   -11195   -11222   -11173   -11030   -10940   -11003   -11090 
  -11092   -11068   -11091   -11136   -11160   -11148   -11071   -10976 
  -11007   -11157   -11276   -11268   -11165   -11083   -11053   -11022 
  -11018   -11041   -11005   -10953   -11010   -11119   -11142   -11122 
  -11146   -11164   -11137   -11118   -11130   -11103   -11024   -11021 
  -11176   -11341   -11341   -11214   -11079   -10975   -10949   -11016 
  -11097   -11133   -11121   -11068   -11025   -11029   -11043   -11037 
  -11053   -11125   -11178   -11149   -11119   -11119   -11110   -11101 
  -11074   -11036   -11059   -11113   -11114   -11061   -11011   -11018 
  -11063   -11118   -11214   -11280   -11240   -11146   -11052   -10955 
  -10899   -10966   -11129   -11218   -11190   -11157   -11098   -11016 
  -11002   -11024   -11057   -11103   -11098   -11071   -11082   -11134 
