Origin Time       2025/03/30 22:55:00
Lat.              41.993
Long.             142.725
Depth. (km)       55
Mag.              4.6
Station Code      IKRH03
Station Lat.      42.8880
Station Long.     141.6399
Station Height(m) -242.5
Record Time       2025/03/30 22:56:21
Sampling Freq(Hz) 100Hz
Duration Time(s)  120
Dir.              2
Scale Factor      2942(gal)/8224139
Max. Acc. (gal)   0.572
Last Correction   2025/03/30 22:56:21
Memo.             
[...]
   54986    54963    54967    55035    55124    55197    55242    55227 
   55147    55055    54996    54989    55046    55143    55225    55250 
   55216    55163    55129    55105    55057    55004    54993    55017 
   55047    55069    55086    55102    55107    55096    55069    55035 
   55007    54970    54903    54841    54854    54965    55125    55264 
   55329    55310    55246    55185    55161    55154    55132    55102 
   55089    55111    55156    55182    55156    55107    55097    55123 
   55109    55039    54972    54943    54940    54963    55032    55131 
   55205    55221    55179    55102    55005    54957    55036    55151 
   55162    55096    55036    55020    55044    55061    55055    55071 
   55109    55136    55128    55080    55034    55028    55050    55067 
   55069    55084    55125    55161    55154    55119    55090    55085 
   55073    55021    54969    54970    55020    55078    55108    55111 
   55121    55159    55198    55216    55225    55242    55252    55239 
   55196    55113    54986    54859    54822    54895    55000    55100 
   55193    55243    55243    55221    55155    55044    54962    54946 
   54958    54986    55035    55074    55100    55131    55158    55165 
   55173    55169    55102    55012    54996    55066    55161    55221 
   55219    55169    55120    55067    54996    54946    54939    54919 
   54869    54854    54912    55011    55102    55171    55225    55244 
   55216    55175    55155    55152    55165    55171    55147    55084 
   55005    54984    55043    55112    55132    55120    55111    55102 
   55081    55084    55128    55170    55165    55105    55034    55005 
   55032    55097    55152    55146    55100    55085    55116    55144 
   55140    55128    55105    55065    55051    55080    55113    55117 
   55093    55067    55044    55007    54973    54977    55013    55053 
   55101    55150    55167    55158    55128    55074    55038    55059 
   55105    55116    55093    55073    55050    55019    55008    55012 
   55035    55093    55144    55144    55124    55102    55074    55061 
   55084    55131    55179    55223    55248    55242    55196    55119 
   55047    55028    55071    55120    55115    55075    55036    54997 
   54978    55009    55070    55128    55159    55148    55102    55062 
   55047    55048    55075    55124    55136    55096    55043    55024 
   55059    55112    55115    55061    55007    55016    55074    55100 
   55073    55046    55053    55101    55165    55171    55115    55061 
   55057    55071    55058    55026    55015    55059    55117    55135 
   55152    55186    55193    55171    55146    55112    55066    55028 
   55019    55035    55062    55090    55112    55127    55124    55094 
   55051    55021    55026    55044    55050    55047    55075    55143 
   55198    55219    55233    55221    55154    55086    55070    55081 
   55063    55003    54957    54986    55048    55086    55098    55094 
   55085    55080    55084    55104    55124    55113    55085    55069 
   55077    55088    55077    55071    55104    55144    55146    55108 
   55062    55051    55075    55101    55102    55090    55098    55139 
   55183    55193    55173    55140    55093    55057    55053    55054 
   55054    55077    55094    55077    55047    55021    55004    55032 
   55125    55215    55206    55105    55001    54950    54945    54970 
   55030    55111    55166    55175    55177    55192    55200    55181 
   55140    55090    55032    54970    54951    55004    55073    55098 
   55096    55112    55128    55104    55050    55000    54980    55000 
   55038    55047    55040    55071    55116    55121    55128    55158 
   55155    55123    55111    55102    55065    55035    55057    55109 
   55163    55206    55216    55190    55155    55102    55036    55021 
   55038    55000    54947    54954    54980    54997    55057    55165 
   55242    55229    55159    55093    55082    55124    55154    55161 
   55188    55190    55121    55047    55023    55019    55027    55062 
   55102    55120    55120    55111    55109    55107    55090    55061 
   55007    54949    54934    54974    55048    55116    55147    55134 
   55069    54990    54973    55027    55094    55124    55116    55120 
   55143    55124    55061    55027    55034    55061    55112    55165 
   55165    55125    55113    55150    55188    55173    55121    55104 
   55132    55143    55098    55024    54984    55020    55089    55124 
   55119    55102    55098    55092    55066    55040    55026    55035 
   55069    55107    55124    55094    55030    54997    55027    55084 
   55124    55155    55186    55188    55156    55150    55178    55189 
   55148    55069    54994    54970    54992    55008    54997    54985 
   55016    55096    55154    55138    55084    55065    55124    55217 
   55239    55178    55123    55113    55104    55057    54986    54958 
   54997    55034    55035    55044    55058    55075    55109    55121 
   55069    55001    55009    55111    55224    55273    55260    55194 
   55085    54989    54940    54923    54932    54982    55048    55089 
   55102    55102    55115    55166    55206    55186    55152    55146 
   55147    55155    55171    55161    55139    55132    55108    55063 
   55040    55048    55104    55185    55196    55115    55017    54958 
   54955    54994    55008    54974    54961    55024    55138    55217 
   55219    55158    55104    55108    55140    55135    55089    55046 
   55042    55089    55138    55144    55125    55107    55073    55027 
   54992    54977    54981    55032    55125    55190    55189    55143 
   55078    55024    55001    55019    55088    55186    55260    55259 
   55156    54999    54893    54893    54946    54982    55005    55048 
   55115    55178    55200    55177    55139    55102    55069    55063 
   55090    55144    55209    55240    55210    55161    55101    55020 
   54959    54945    54957    54984    55026    55069    55097    55108 
   55139    55201    55243    55219    55143    55071    55058    55074 
   55061    55053    55097    55158    55179    55154    55098    55044 
   55016    54999    54973    54950    54954    54957    54949    54963 
   54996    55044    55135    55231    55266    55227    55135    55046 
   55021    55062    55121    55155    55144    55115    55082    55046 
   55040    55097    55169    55178    55134    55105    55097    55065 
   55001    54958    54977    55034    55062    55051    55047    55070 
   55105    55146    55194    55215    55173    55120    55101    55098 
   55098    55111    55139    55179    55179    55101    55036    55053 
   55081    55075    55085    55111    55105    55092    55093    55093 
   55098    55139    55189    55201    55155    55057    54958    54928 
   54958    54973    54966    54993    55077    55201    55294    55296 
   55242    55166    55084    55053    55088    55098    55023    54932 
   54931    55003    55058    55084    55111    55136    55155    55162 
   55161    55173    55162    55093    55021    54989    54996    55053 
   55135    55175    55144    55075    55011    54982    54992    54992 
   54973    54986    55057    55128    55134    55085    55080    55146 
   55197    55177    55111    55034    54981    54988    55054    55143 
   55198    55201    55174    55140    55109    55070    55009    54977 
   55043    55152    55181    55112    55024    54955    54935    54999 
   55082    55113    55120    55123    55121    55150    55201    55243 
   55274    55298    55266    55166    55073    55047    55090    55173 
   55223    55173    55027    54859    54774    54835    54974    55074 
   55104    55086    55062    55067    55101    55134    55156    55163 
   55128    55059    55005    55005    55062    55152    55251    55302 
   55264    55179    55113    55069    55013    54951    54923    54955 
   55020    55066    55081    55097    55136    55179    55206    55200 
   55143    55067    55019    54988    54949    54920    54916    54945 
   55036    55159    55242    55252    55217    55177    55132    55074 
   55043    55066    55115    55166    55198    55194    55163    55127 
   55075    55026    55031    55081    55124    55135    55115    55086 
   55062    55035    55004    54982    54990    55020    55051    55097 
   55139    55134    55100    55088    55115    55162    55177    55139 
   55124    55178    55233    55217    55146    55073    55031    55000 
   54969    54955    54955    54970    55027    55105    55140    55131 
   55125    55129    55102    55034    54959    54916    54920    54969 
   55047    55115    55146    55161    55197    55246    55251    55192 
   55131    55144    55194    55197    55147    55104    55098    55101 
   55088    55078    55090    55113    55150    55182    55162    55063 
   54936    54865    54884    54940    54966    54977    55027    55080 
   55080    55048    55039    55063    55086    55078    55058    55069 
   55120    55174    55183    55146    55113    55115    55127    55144 
   55158    55143    55112    55092    55093    55117    55152    55193 
   55219    55186    55071    54919    54835    54870    54967    55051 
   55105    55139    55123    55047    54959    54918    54949    55036 
   55115    55150    55179    55227    55251    55236    55216    55178 
   55086    54965    54859    54789    54788    54858    54934    54958 
   54949    54939    54963    55039    55128    55166    55152    55138 
   55131    55109    55047    54955    54911    54966    55069    55158 
   55240    55335    55408    55420    55370    55291    55223    55174 
   55134    55071    54958    54827    54777    54857    54981    55034 
   55012    55015    55082    55171    55229    55216    55147    55108 
   55142    55192    55216    55225    55233    55259    55283    55259 
   55194    55152    55158    55163    55142    55117    55113    55117 
   55121    55121    55107    55098    55116    55108    55030    54946 
   54888    54843    54841    54878    54889    54876    54909    55004 
   55132    55271    55378    55394    55321    55202    55067    54958 
   54936    55013    55120    55210    55291    55345    55332    55246 
   55120    54981    54849    54753    54719    54764    54869    54981 
   55065    55120    55151    55175    55188    55152    55061    54932 
   54823    54797    54896    55101    55318    55439    55422    55309 
   55173    55074    55040    55050    55043    54992    54967    55043 
   55155    55198    55179    55161    55146    55104    55026    54946 
   54920    54954    54993    55016    55024    55026    55038    55075 
   55111    55123    55136    55185    55266    55362    55467    55543 
   55522    55395    55197    54985    54874    54911    54993    55026 
   54994    54907    54823    54828    54904    54980    55020    55009 
   54939    54858    54832    54868    54954    55102    55256    55327 
   55301    55237    55174    55127    55105    55090    55069    55063 
   55078    55120    55196    55291    55375    55424    55413    55324 
   55200    55129    55142    55217    55336    55445    55447    55314 
   55109    54916    54826    54853    54893    54873    54827    54835 
   54912    54982    54981    54928    54903    54958    55069    55156 
   55194    55197    55178    55159    55158    55174    55216    55290 
   55348    55351    55333    55320    55273    55138    54911    54656 
   54495    54519    54729    55013    55217    55255    55161    55039 
   54984    55013    55080    55148    55235    55304    55286    55177 
   55051    54959    54900    54899    54972    55059    55101    55089 
   55063    55089    55143    55120    54997    54872    54820    54870 
   55024    55212    55296    55229    55142    55174    55316    55436 
   55413    55243    55034    54900    54893    54951    54976    54970 
   54978    55001    55048    55098    55074    54959    54872    54922 
   55113    55370    55544    55471    55162    54827    54680    54803 
   55117    55406    55507    55440    55310    55237    55293    55378 
   55325    55096    54807    54634    54679    54911    55217    55432 
   55455    55377    55321    55290    55221    55044    54754    54469 
   54340    54467    54859    55325    55557    55452    55152    54839 
   54637    54591    54672    54843    55075    55336    55553    55601 
   55416    55086    54791    54676    54760    54940    55150    55387 
   55606    55675    55509    55185    54900    54824    54977    55204 
   55312    55271    55209    55194    55131    54931    54685    54619 
   54845    55227    55502    55482    55166    54726    54384    54279 
   54413    54670    54927    55143    55347    55545    55719    55865 
   55921    55771    55387    54919    54610    54592    54788    55035 
   55233    55339    55306    55127    54884    54704    54638    54649 
   54687    54737    54835    55048    55362    55641    55749    55613 
   55291    54961    54762    54751    54936    55235    55479    55525 
   55355    55107    54924    54835    54785    54715    54614    54550 
   54611    54819    55093    55317    55432    55441    55375    55266 
   55139    55038    55020    55098    55259    55482    55688    55748 
   55572    55171    54681    54337    54307    54598    55065    55475 
   55652    55584    55374    55111    54843    54638    54569    54626 
   54724    54838    55047    55424    55912    56290    56313    55972 
   55480    55044    54738    54472    54110    53692    53491    53734 
   54284    54795    55078    55212    55358    55584    55814    55921 
   55888    55784    55603    55360    55208    55259    55466    55706 
   55800    55571    55038    54453    54083    54037    54257    54603 
   54959    55250    55406    55395    55283    55200    55185    55210 
   55275    55377    55443    55394    55243    55071    54955    54924 
   54970    55031    55007    54895    54803    54814    54932    55098 
   55189    55094    54847    54626    54573    54693    54908    55116 
   55248    55304    55318    55327    55387    55553    55740    55804 
   55728    55566    55340    55066    54826    54716    54722    54735 
   54673    54540    54436    54495    54737    55026    55224    55298 
   55297    55312    55416    55563    55625    55499    55223    54949 
   54785    54723    54739    54873    55112    55333    55421    55363 
   55202    54993    54797    54669    54611    54596    54618    54700 
   54868    55077    55220    55287    55374    55514    55620    55591 
   55449    55291    55181    55146    55193    55251    55247    55175 
   55059    54930    54846    54850    54924    55008    55031    54989 
   54955    55009    55132    55208    55158    55051    54970    54897 
   54780    54648    54585    54638    54791    55011    55256    55470 
   55586    55570    55475    55374    55285    55217    55210    55260 
   55274    55166    54992    54857    54774    54700    54629    54627 
   54776    55067    55397    55618    55626    55443    55182    54974 
   54881    54872    54870    54857    54874    54924    54974    55034 
   55146    55290    55351    55236    55004    54819    54814    54982 
   55202    55360    55398    55328    55228    55146    55059    54982 
   54982    55050    55101    55111    55132    55202    55278    55293 
   55227    55094    54908    54683    54490    54413    54481    54673 
   54915    55096    55144    55101    55124    55355    55717    55939 
   55854    55539    55194    54988    54966    55053    55119    55101 
   55020    54926    54855    54831    54870    54967    55048    55013 
   54853    54720    54827    55193    55580    55769    55753    55624 
   55451    55289    55113    54874    54618    54471    54517    54703 
   54881    54984    55059    55163    55282    55348    55333    55304 
   55294    55267    55204    55104    54978    54869    54789    54702 
   54615    54614    54762    55031    55327    55559    55683    55687 
   55593    55432    55212    54947    54715    54598    54627    54820 
   55121    55358    55389    55233    55023    54899    54943    55132 
   55390    55630    55738    55647    55405    55119    54891    54751 
   54649    54550    54507    54576    54762    55020    55243    55318 
   55229    55059    54939    54953    55071    55181    55190    55124 
   55067    55059    55100    55179    55270    55305    55250    55142 
   55027    54946    54961    55088    55248    55325    55236    55003 
   54739    54569    54583    54816    55169    55417    55439    55320 
   55243    55274    55308    55231    55069    54958    54976    55053 
   55077    55031    54990    55024    55120    55192    55185    55147 
   55152    55192    55198    55154    55127    55167    55197    55116 
   54958    54865    54936    55144    55358    55467    55451    55363 
   55275    55228    55193    55111    54985    54916    54976    55094 
   55151    55113    55008    54850    54666    54508    54433    54465 
   54577    54718    54866    55021    55190    55363    55493    55510 
   55422    55332    55312    55320    55289    55220    55151    55082 
   54994    54881    54778    54756    54841    54966    55057    55131 
   55251    55402    55506    55498    55382    55239    55138    55073 
   55023    54999    54978    54935    54897    54923    55030    55175 
   55301    55358    55318    55210    55088    54977    54900    54847 
   54780    54706    54719    54873    55069    55161    55144    55134 
   55186    55256    55309    55327    55309    55269    55192    55065 
   54935    54870    54918    55051    55136    55054    54899    54872 
   55000    55138    55181    55131    55054    55012    55005    55007 
   55038    55171    55418    55647    55687    55522    55270    55066 
   54974    54938    54876    54822    54862    54985    55092    55104 
   55003    54841    54708    54661    54700    54797    54934    55096 
   55250    55358    55425    55479    55518    55517    55474    55386 
   55258    55135    55075    55089    55134    55151    55104    54973 
   54781    54589    54477    54514    54697    54945    55163    55331 
   55458    55498    55390    55192    55027    54951    54916    54859 
   54780    54747    54799    54886    54946    54949    54939    55016 
   55182    55341    55424    55436    55433    55447    55409    55254 
   55065    55004    55120    55298    55381    55323    55204    55094 
   54993    54878    54774    54693    54616    54545    54542    54673 
   54931    55243    55509    55617    55530    55337    55166    55080 
   55066    55097    55144    55200    55256    55289    55262    55179 
   55109    55109    55171    55236    55254    55216    55129    54989 
   54826    54722    54715    54774    54868    54996    55151    55313 
   55451    55528    55503    55332    55069    54866    54827    54915 
   55020    55090    55156    55246    55318    55317    55221    55075 
   54954    54904    54919    54953    54963    54957    54982    55054 
   55121    55131    55078    55008    54967    54977    55047    55165 
   55302    55420    55451    55375    55224    55035    54866    54765 
   54722    54742    54853    55030    55178    55219    55165    55088 
   55035    55007    54974    54912    54847    54853    54957    55104 
