Origin Time       2025/03/30 22:55:00
Lat.              41.993
Long.             142.725
Depth. (km)       55
Mag.              4.6
Station Code      IKRH03
Station Lat.      42.8880
Station Long.     141.6399
Station Height(m) -242.5
Record Time       2025/03/30 22:56:21
Sampling Freq(Hz) 100Hz
Duration Time(s)  120
Dir.              1
Scale Factor      2942(gal)/8224139
Max. Acc. (gal)   0.401
Last Correction   2025/03/30 22:56:21
Memo.             
[...]
  104149   104129   104134   104183   104236   104225   104149   104087 
  104097   104152   104187   104178   104153   104151   104191   104247 
  104292   104326   104299   104183   104066   104013   104005   104040 
  104114   104184   104249   104292   104264   104163   104036   103960 
  103990   104085   104170   104229   104257   104234   104195   104179 
  104180   104188   104171   104116   104093   104140   104193   104225 
  104267   104303   104299   104259   104187   104102   104031   103987 
  103995   104056   104117   104148   104160   104171   104197   104213 
  104201   104172   104133   104116   104132   104134   104129   104151 
  104178   104182   104147   104101   104109   104160   104198   104206 
  104201   104183   104159   104159   104205   104247   104222   104161 
  104145   104175   104176   104125   104052   104021   104086   104188 
  104232   104228   104240   104269   104251   104151   104035   103968 
  103997   104121   104218   104191   104148   104198   104264   104267 
  104224   104166   104129   104139   104151   104152   104155   104148 
  104141   104149   104163   104149   104118   104129   104188   104206 
  104157   104110   104112   104130   104114   104074   104045   104033 
  104044   104086   104161   104248   104286   104280   104274   104248 
  104191   104126   104091   104122   104179   104180   104143   104133 
  104164   104210   104253   104279   104280   104263   104225   104168 
  104102   104040   104004   104026   104124   104237   104282   104251 
  104179   104113   104101   104110   104102   104103   104144   104213 
  104257   104242   104214   104230   104283   104291   104205   104101 
  104068   104089   104116   104124   104101   104064   104040   104049 
  104095   104149   104176   104184   104188   104194   104182   104126 
  104068   104074   104110   104122   104122   104167   104260   104334 
  104346   104319   104252   104139   104036   104009   104049   104109 
  104159   104193   104228   104278   104315   104314   104274   104215 
  104167   104122   104068   104031   104039   104070   104101   104145 
  104188   104176   104120   104075   104086   104152   104215   104222 
  104195   104179   104172   104141   104074   104009   104016   104117 
  104251   104319   104292   104215   104147   104132   104161   104172 
  104153   104143   104129   104089   104051   104075   104149   104209 
  104217   104164   104089   104045   104036   104043   104076   104130 
  104176   104206   104234   104265   104269   104238   104206   104199 
  104206   104203   104201   104217   104238   104230   104178   104099 
  104043   104037   104059   104066   104070   104121   104213   104275 
  104261   104202   104159   104163   104205   104247   104260   104245 
  104213   104151   104075   104031   104062   104139   104198   104209 
  104164   104079   104035   104071   104134   104152   104122   104112 
  104139   104164   104164   104144   104134   104143   104144   104130 
  104105   104068   104062   104118   104195   104241   104276   104321 
  104322   104259   104178   104103   104053   104051   104086   104143 
  104193   104209   104203   104224   104248   104214   104155   104156 
  104198   104202   104151   104101   104107   104160   104210   104207 
  104129   104049   104047   104093   104113   104091   104070   104105 
  104215   104329   104352   104288   104197   104095   104044   104082 
  104153   104205   104229   104240   104220   104152   104086   104059 
  104045   104040   104043   104032   104020   104045   104112   104184 
  104241   104264   104247   104209   104175   104141   104117   104130 
  104188   104248   104257   104202   104141   104133   104161   104180 
  104183   104175   104147   104126   104140   104155   104134   104101 
  104093   104120   104149   104144   104125   104151   104203   104217 
  104206   104205   104202   104201   104210   104203   104164   104122 
  104117   104151   104184   104187   104163   104155   104215   104301 
  104294   104194   104125   104134   104170   104166   104094   103998 
  103959   104001   104074   104121   104125   104118   104134   104180 
  104263   104353   104379   104322   104220   104079   103944   103905 
  103974   104079   104183   104280   104330   104317   104283   104253 
  104236   104221   104175   104105   104063   104082   104134   104188 
  104241   104272   104249   104188   104114   104056   104052   104094 
  104136   104156   104174   104203   104226   104225   104186   104102 
  104024   104037   104129   104197   104194   104172   104184   104225 
  104256   104252   104209   104130   104043   104006   104047   104118 
  104160   104178   104215   104252   104237   104187   104139   104102 
  104082   104078   104072   104079   104112   104132   104141   104182 
  104228   104238   104217   104190   104186   104205   104199   104155 
  104107   104102   104130   104147   104124   104097   104107   104152 
  104187   104186   104140   104067   104029   104064   104120   104136 
  104133   104153   104190   104217   104214   104193   104187   104218 
  104249   104240   104215   104222   104225   104183   104145   104147 
  104148   104136   104132   104125   104114   104132   104166   104164 
  104116   104078   104102   104157   104201   104218   104176   104091 
  104072   104160   104265   104311   104291   104230   104172   104130 
  104080   104036   104048   104091   104133   104191   104241   104237 
  104215   104222   104236   104213   104168   104126   104097   104097 
  104118   104145   104157   104151   104149   104159   104151   104113 
  104085   104093   104118   104153   104184   104179   104186   104252 
  104302   104301   104286   104248   104171   104112   104116   104144 
  104161   104160   104132   104112   104137   104170   104168   104145 
  104118   104099   104083   104079   104107   104174   104247   104261 
  104214   104174   104166   104184   104221   104237   104191   104090 
  103994   103989   104079   104182   104220   104191   104148   104134 
  104151   104166   104164   104157   104157   104152   104133   104116 
  104107   104107   104124   104147   104143   104120   104099   104089 
  104107   104160   104214   104222   104175   104133   104137   104160 
  104140   104087   104090   104143   104153   104121   104109   104137 
  104194   104251   104268   104256   104248   104244   104222   104201 
  104195   104182   104153   104145   104168   104179   104156   104116 
  104064   104020   104016   104040   104064   104091   104156   104249 
  104305   104305   104295   104261   104180   104116   104114   104136 
  104124   104085   104066   104093   104141   104164   104156   104140 
  104124   104098   104076   104093   104153   104215   104230   104201 
  104191   104222   104229   104183   104128   104103   104114   104186 
  104313   104403   104375   104279   104197   104141   104089   104032 
  103995   104031   104114   104168   104179   104180   104166   104134 
  104125   104121   104089   104051   104036   104052   104121   104207 
  104241   104237   104264   104303   104290   104229   104184   104179 
  104159   104106   104089   104113   104137   104155   104156   104141 
  104152   104178   104171   104149   104155   104174   104172   104153 
  104136   104113   104082   104068   104083   104133   104201   104229 
  104203   104175   104153   104112   104076   104094   104144   104170 
  104152   104136   104174   104234   104252   104207   104137   104106 
  104147   104203   104207   104164   104129   104129   104132   104110 
  104090   104112   104175   104234   104255   104240   104198   104136 
  104070   104040   104067   104109   104133   104141   104134   104124 
  104130   104160   104201   104222   104190   104107   104049   104051 
  104085   104141   104220   104280   104294   104282   104245   104183 
  104133   104106   104093   104098   104117   104122   104105   104094 
  104125   104195   104255   104265   104244   104211   104179   104178 
  104202   104184   104117   104074   104074   104083   104074   104059 
  104097   104193   104272   104301   104295   104267   104222   104199 
  104186   104136   104067   104040   104067   104101   104101   104101 
  104132   104168   104191   104195   104178   104171   104178   104156 
  104118   104121   104190   104283   104321   104268   104160   104055 
  104022   104083   104156   104197   104226   104226   104195   104191 
  104211   104209   104187   104153   104116   104121   104186   104234 
  104220   104191   104184   104172   104157   104170   104183   104171 
  104152   104128   104083   104041   104045   104071   104072   104064 
  104085   104143   104241   104329   104341   104299   104263   104257 
  104263   104252   104213   104159   104126   104122   104125   104122 
  104133   104160   104190   104193   104152   104095   104079   104126 
  104198   104226   104180   104107   104094   104152   104210   104225 
  104230   104261   104282   104259   104214   104179   104156   104126 
  104093   104074   104090   104141   104180   104198   104211   104206 
  104176   104156   104160   104175   104186   104193   104199   104207 
  104241   104264   104221   104163   104156   104170   104172   104175 
  104178   104175   104186   104191   104160   104097   104014   103951 
  103955   104002   104037   104064   104105   104140   104155   104163 
  104166   104149   104121   104114   104141   104191   104248   104267 
  104218   104152   104125   104128   104118   104087   104031   103970 
  103941   103952   103997   104074   104168   104260   104336   104361 
  104330   104283   104236   104174   104118   104099   104106   104124 
  104164   104213   104205   104126   104064   104072   104094   104079 
  104025   103962   103943   103989   104055   104110   104141   104145 
  104144   104157   104194   104240   104283   104340   104384   104364 
  104284   104198   104153   104180   104272   104364   104400   104379 
  104313   104225   104126   104008   103898   103839   103801   103765 
  103790   103924   104136   104344   104484   104557   104571   104502 
  104360   104211   104109   104051   104033   104079   104183   104298 
  104379   104417   104390   104276   104140   104066   104051   104075 
  104126   104163   104167   104149   104101   104037   104001   103999 
  103995   103994   104009   104017   104009   104041   104157   104319 
  104440   104454   104371   104274   104222   104179   104087   103982 
  103927   103917   103932   103963   103979   103964   103962   103974 
  103974   103983   104036   104143   104275   104355   104346   104309 
  104291   104301   104333   104356   104325   104264   104190   104078 
  103954   103864   103828   103851   103896   103889   103847   103842 
  103878   103943   104052   104174   104268   104346   104442   104553 
  104653   104703   104664   104521   104325   104176   104137   104175 
  104221   104238   104222   104163   104064   103937   103788   103648 
  103585   103654   103852   104090   104263   104342   104360   104342 
  104325   104349   104427   104492   104448   104286   104110   104012 
  104022   104116   104209   104234   104202   104174   104201   104275 
  104295   104156   103927   103778   103797   103974   104209   104371 
  104407   104313   104134   103989   103935   103944   103966   103959 
  103955   104009   104124   104292   104506   104676   104677   104458 
  104155   104010   104118   104319   104396   104302   104151   104047 
  104014   104059   104167   104257   104225   104101   104024   104020 
  104004   103940   103871   103851   103923   104078   104233   104321 
  104332   104242   104041   103831   103763   103879   104083   104263 
  104364   104415   104444   104445   104460   104503   104472   104318 
  104113   103933   103869   103983   104186   104301   104248   104106 
  104005   103985   103989   103998   104060   104198   104380   104515 
  104529   104429   104272   104121   103994   103867   103752   103727 
  103848   104060   104225   104280   104310   104345   104318   104218 
  104139   104159   104280   104414   104418   104233   103999   103928 
  104085   104392   104699   104824   104722   104492   104218   103923 
  103646   103470   103449   103551   103681   103761   103817   103933 
  104151   104423   104612   104607   104483   104417   104473   104556 
  104534   104387   104201   104078   104014   103912   103765   103711 
  103824   104012   104139   104151   104095   104090   104214   104375 
  104400   104248   103986   103755   103728   103913   104151   104326 
  104456   104592   104715   104743   104656   104506   104337   104184 
  104079   104005   103936   103874   103833   103864   103971   104071 
  104072   103994   103959   104025   104148   104271   104340   104310 
  104193   104053   103990   104018   104068   104121   104190   104253 
  104291   104333   104387   104386   104259   104013   103712   103474 
  103439   103648   104013   104357   104527   104535   104518   104553 
  104571   104485   104322   104143   103982   103902   103935   104025 
  104113   104187   104238   104276   104299   104287   104272   104314 
  104383   104409   104380   104325   104267   104241   104255   104272 
  104278   104291   104315   104302   104247   104160   103998   103767 
  103617   103688   103950   104203   104268   104110   103844   103648 
  103658   103855   104128   104391   104589   104685   104697   104637 
  104483   104284   104187   104256   104388   104441   104386   104313 
  104291   104257   104076   103721   103306   103036   103123   103543 
  104006   104256   104294   104299   104340   104295   104113   103928 
  103860   103932   104085   104203   104236   104276   104409   104587 
  104684   104622   104431   104225   104128   104183   104274   104274 
  104228   104245   104329   104387   104341   104234   104201   104274 
  104330   104236   103997   103756   103661   103739   103905   104045 
  104097   104091   104097   104128   104147   104101   104017   104024 
  104176   104360   104454   104436   104341   104255   104234   104253 
  104245   104147   103959   103755   103621   103647   103866   104171 
  104430   104596   104661   104633   104562   104467   104315   104126 
  103974   103914   103943   103985   103968   103939   104006   104182 
  104349   104380   104255   104079   103979   103994   104090   104207 
  104303   104365   104364   104255   104064   103882   103827   103981 
  104271   104504   104566   104471   104294   104133   104044   103989 
  103945   103935   103958   104024   104139   104282   104454   104622 
  104626   104364   103936   103565   103439   103613   103979   104377 
  104662   104741   104629   104438   104301   104295   104411   104533 
  104506   104272   103967   103775   103740   103752   103713   103628 
  103582   103626   103720   103851   104048   104310   104554   104666 
  104593   104403   104260   104264   104382   104499   104511   104388 
  104214   104072   103991   103977   104058   104249   104463   104544 
  104440   104213   103981   103878   103971   104166   104286   104238 
  104094   103966   103914   103939   103968   103951   103927   103937 
  103962   104017   104145   104311   104417   104399   104292   104161 
  104047   103950   103839   103715   103666   103781   104033   104307 
  104481   104472   104290   104062   103904   103847   103882   103987 
  104132   104286   104422   104527   104614   104658   104581   104325 
  103963   103681   103608   103701   103851   103989   104117   104255 
  104369   104386   104271   104102   104022   104106   104283   104438 
  104512   104504   104441   104342   104209   104047   103898   103796 
  103763   103851   104029   104170   104220   104242   104274   104283 
  104226   104116   104013   103944   103891   103863   103893   103990 
  104149   104337   104490   104535   104444   104290   104184   104148 
  104126   104106   104126   104211   104332   104411   104394   104307 
  104234   104191   104145   104085   104002   103881   103766   103734 
  103823   103989   104134   104238   104353   104480   104534   104434 
  104215   104002   103890   103901   103995   104094   104161   104210 
  104251   104288   104332   104349   104318   104268   104238   104207 
  104133   104062   104094   104232   104386   104467   104437   104332 
  104215   104110   103995   103891   103860   103933   104080   104253 
  104398   104456   104413   104294   104110   103887   103712   103689 
  103833   104064   104248   104267   104156   104085   104113   104134 
  104105   104076   104078   104098   104136   104183   104230   104274 
  104332   104404   104437   104361   104155   103897   103725   103724 
  103863   104029   104178   104337   104469   104504   104444   104325 
  104206   104137   104116   104101   104053   103979   103944   103998 
  104101   104168   104152   104091   104068   104112   104153   104144 
  104120   104122   104157   104209   104228   104205   104172   104163 
  104186   104214   104225   104260   104346   104440   104500   104519 
  104480   104395   104307   104215   104114   104031   103987   103964 
  103943   103941   103985   104056   104132   104197   104228   104229 
  104236   104245   104229   104179   104122   104098   104143   104264 
  104375   104368   104245   104106   104021   103993   103967   103921 
  103898   103917   103924   103920   103975   104094   104197   104240 
  104268   104338   104433   104506   104522   104463   104334   104172 
  104013   103874   103767   103729   103792   103932   104074   104161 
  104236   104369   104549   104654   104587   104411   104269   104221 
  104240   104264   104245   104190   104148   104134   104122   104083 
  104002   103905   103851   103867   103927   104012   104113   104232 
  104344   104373   104280   104128   104028   104041   104152   104299 
  104398   104406   104364   104323   104299   104309   104357   104396 
  104364   104237   104062   103904   103817   103815   103842   103840 
  103836   103889   103983   104055   104082   104094   104124   104176 
  104241   104269   104245   104224   104257   104344   104450   104517 
  104479   104359   104263   104252   104279   104272   104210   104091 
  103943   103813   103732   103728   103852   104098   104325   104406 
  104355   104274   104248   104282   104325   104357   104365   104311 
  104187   104062   104012   104024   104021   103990   103991   104059 
  104143   104163   104128   104118   104171   104253   104326   104345 
  104305   104253   104218   104197   104163   104091   104017   103994 
  104002   104006   104026   104097   104203   104271   104247   104157 
  104075   104039   104037   104041   104016   103962   103933   103968 
  104064   104195   104301   104341   104328   104288   104252   104245 
  104282   104369   104472   104517   104458   104310   104126   103991 
  103952   103982   104036   104089   104120   104107   104068   104016 
  103936   103842   103788   103810   103890   104004   104134   104272 
  104422   104576   104665   104616   104441   104218   104029   103923 
  103909   103935   103955   103999   104071   104103   104093   104105 
  104166   104245   104323   104369   104336   104237   104137   104067 
  104035   104076   104199   104341   104406   104350   104213   104085 
  104047   104093   104179   104276   104341   104348   104318   104265 
