Origin Time       2025/03/30 22:55:00
Lat.              41.993
Long.             142.725
Depth. (km)       55
Mag.              4.6
Station Code      IKRH03
Station Lat.      42.8880
Station Long.     141.6399
Station Height(m) -242.5
Record Time       2025/03/30 22:56:21
Sampling Freq(Hz) 100Hz
Duration Time(s)  120
Dir.              3
Scale Factor      2942(gal)/8224139
Max. Acc. (gal)   0.257
Last Correction   2025/03/30 22:56:21
Memo.             
[...]
  125564   125567   125567   125566   125564   125567   125568   125567 
  125564   125563   125567   125567   125566   125564   125564   125564 
  125566   125564   125563   125564   125566   125566   125564   125566 
  125566   125567   125570   125568   125566   125567   125567   125564 
  125566   125568   125564   125564   125567   125566   125566   125566 
  125564   125566   125567   125570   125568   125564   125567   125570 
  125568   125568   125568   125568   125572   125572   125568   125567 
  125568   125568   125567   125568   125570   125570   125567   125570 
  125571   125568   125568   125570   125570   125571   125571   125568 
  125568   125571   125570   125567   125570   125570   125568   125571 
  125571   125570   125570   125570   125567   125566   125567   125567 
  125568   125570   125570   125568   125570   125571   125568   125566 
  125567   125570   125570   125567   125567   125568   125568   125568 
  125568   125567   125568   125568   125570   125567   125564   125567 
  125567   125566   125568   125570   125567   125564   125564   125564 
  125567   125567   125567   125567   125566   125564   125564   125564 
  125566   125567   125564   125563   125563   125566   125566   125564 
  125564   125562   125560   125562   125564   125564   125562   125563 
  125564   125564   125562   125562   125563   125563   125562   125563 
  125563   125564   125564   125563   125563   125564   125566   125567 
  125567   125564   125564   125566   125562   125562   125564   125562 
  125562   125564   125563   125562   125563   125563   125560   125563 
  125564   125562   125562   125564   125562   125563   125566   125563 
  125563   125563   125562   125564   125566   125564   125564   125563 
  125560   125562   125563   125563   125563   125564   125566   125564 
  125563   125563   125564   125564   125564   125566   125563   125560 
  125562   125564   125564   125562   125563   125567   125567   125566 
  125563   125560   125562   125567   125566   125560   125562   125564 
  125563   125562   125564   125564   125563   125563   125563   125564 
  125564   125566   125564   125562   125560   125560   125560   125564 
  125567   125564   125564   125564   125560   125562   125563   125563 
  125566   125567   125564   125563   125564   125564   125566   125568 
  125566   125562   125566   125567   125564   125564   125564   125563 
  125562   125564   125566   125564   125563   125566   125567   125567 
  125567   125568   125568   125567   125567   125567   125566   125568 
  125570   125566   125566   125568   125568   125566   125566   125566 
  125566   125568   125568   125568   125567   125567   125566   125564 
  125564   125567   125567   125566   125568   125568   125567   125567 
  125567   125567   125570   125571   125570   125567   125568   125567 
  125567   125570   125570   125568   125568   125566   125566   125568 
  125568   125566   125566   125567   125567   125566   125566   125567 
  125566   125567   125568   125566   125567   125567   125567   125571 
  125570   125566   125567   125570   125567   125566   125567   125568 
  125568   125568   125566   125564   125564   125564   125564   125567 
  125568   125567   125566   125567   125568   125570   125571   125571 
  125570   125567   125566   125567   125568   125568   125570   125571 
  125570   125566   125566   125568   125568   125567   125566   125567 
  125568   125568   125567   125571   125572   125571   125571   125571 
  125570   125571   125570   125566   125566   125568   125570   125567 
  125567   125570   125568   125564   125567   125568   125564   125564 
  125566   125567   125567   125568   125568   125567   125566   125568 
  125568   125566   125566   125567   125566   125564   125564   125566 
  125566   125566   125564   125566   125567   125563   125562   125566 
  125564   125563   125563   125562   125562   125564   125563   125564 
  125566   125564   125564   125566   125566   125564   125564   125566 
  125566   125563   125562   125563   125564   125564   125563   125563 
  125564   125562   125560   125563   125563   125564   125564   125564 
  125563   125563   125563   125563   125566   125568   125567   125564 
  125566   125567   125567   125564   125564   125566   125566   125566 
  125568   125567   125563   125563   125563   125564   125563   125560 
  125562   125562   125563   125564   125563   125564   125566   125564 
  125564   125563   125566   125567   125563   125563   125566   125566 
  125566   125567   125567   125566   125567   125567   125564   125564 
  125566   125564   125564   125566   125564   125564   125566   125564 
  125566   125567   125566   125567   125568   125566   125566   125567 
  125564   125566   125566   125566   125567   125566   125562   125564 
  125567   125563   125560   125563   125563   125560   125562   125564 
  125564   125563   125563   125564   125564   125563   125563   125564 
  125567   125567   125567   125566   125563   125566   125570   125567 
  125564   125566   125566   125563   125563   125563   125563   125564 
  125566   125564   125562   125562   125564   125566   125567   125570 
  125568   125563   125564   125568   125567   125566   125568   125568 
  125567   125567   125566   125567   125567   125563   125564   125566 
  125563   125563   125564   125564   125566   125567   125567   125564 
  125564   125566   125566   125567   125568   125568   125566   125564 
  125566   125567   125567   125566   125563   125563   125566   125566 
  125563   125562   125562   125563   125566   125567   125566   125566 
  125568   125566   125564   125564   125567   125567   125564   125564 
  125567   125566   125566   125566   125567   125567   125566   125567 
  125568   125564   125563   125564   125564   125563   125563   125566 
  125567   125567   125568   125567   125566   125568   125567   125567 
  125568   125570   125570   125568   125566   125564   125568   125571 
  125570   125570   125568   125567   125567   125566   125566   125568 
  125566   125566   125568   125567   125567   125570   125570   125568 
  125567   125567   125567   125568   125568   125568   125567   125570 
  125568   125566   125566   125568   125567   125564   125566   125568 
  125566   125564   125564   125566   125568   125570   125567   125566 
  125566   125567   125568   125570   125568   125566   125563   125566 
  125567   125566   125566   125566   125566   125568   125568   125564 
  125563   125563   125566   125568   125566   125563   125563   125564 
  125566   125566   125564   125566   125564   125563   125568   125567 
  125562   125563   125567   125564   125563   125566   125566   125564 
  125564   125564   125563   125563   125562   125560   125563   125564 
  125566   125564   125563   125564   125564   125563   125566   125570 
  125568   125566   125567   125567   125563   125563   125564   125566 
  125564   125566   125566   125563   125564   125566   125562   125563 
  125566   125564   125560   125563   125566   125566   125564   125567 
  125568   125566   125563   125564   125567   125566   125563   125566 
  125568   125567   125567   125567   125567   125567   125566   125564 
  125563   125563   125564   125566   125566   125566   125566   125566 
  125567   125567   125567   125570   125568   125567   125566   125566 
  125566   125567   125567   125567   125568   125567   125567   125564 
  125563   125563   125563   125564   125564   125564   125564   125566 
  125564   125564   125566   125566   125563   125566   125570   125568 
  125564   125564   125566   125567   125566   125564   125563   125566 
  125568   125566   125563   125563   125564   125566   125564   125564 
  125566   125564   125563   125566   125567   125567   125567   125566 
  125564   125564   125568   125568   125566   125563   125564   125563 
  125563   125564   125564   125563   125564   125564   125563   125562 
  125564   125564   125562   125563   125563   125563   125564   125567 
  125567   125566   125566   125566   125563   125563   125566   125567 
  125566   125564   125566   125564   125563   125564   125564   125562 
  125563   125563   125564   125564   125563   125563   125566   125562 
  125560   125564   125564   125564   125566   125564   125566   125567 
  125566   125567   125570   125567   125563   125564   125564   125564 
  125563   125562   125562   125562   125560   125564   125566   125566 
  125564   125564   125564   125564   125564   125567   125568   125567 
  125566   125568   125568   125566   125567   125571   125568   125564 
  125566   125567   125566   125564   125566   125566   125563   125566 
  125570   125570   125567   125567   125568   125568   125568   125571 
  125571   125568   125570   125570   125567   125568   125570   125571 
  125570   125568   125568   125570   125570   125566   125563   125567 
  125568   125568   125570   125570   125566   125567   125570   125570 
  125571   125571   125570   125571   125570   125568   125568   125567 
  125567   125568   125567   125566   125567   125567   125564   125564 
  125567   125566   125563   125564   125568   125568   125567   125566 
  125564   125566   125570   125568   125567   125568   125568   125567 
  125566   125564   125564   125566   125566   125567   125567   125563 
  125560   125563   125563   125563   125566   125563   125563   125566 
  125567   125564   125564   125567   125566   125562   125563   125564 
  125566   125564   125564   125566   125566   125566   125566   125564 
  125563   125564   125566   125566   125563   125563   125563   125563 
  125563   125564   125566   125567   125566   125564   125566   125567 
  125567   125564   125564   125566   125568   125567   125567   125566 
  125564   125564   125566   125567   125567   125564   125563   125563 
  125563   125563   125566   125567   125566   125566   125567   125568 
  125566   125564   125568   125568   125566   125567   125567   125567 
  125568   125568   125568   125570   125570   125567   125564   125564 
  125566   125566   125566   125564   125564   125566   125566   125568 
  125570   125570   125570   125568   125567   125567   125570   125570 
  125571   125571   125568   125567   125567   125567   125567   125566 
  125566   125567   125567   125568   125567   125563   125562   125564 
  125567   125570   125568   125567   125567   125567   125567   125568 
  125570   125568   125567   125567   125566   125564   125566   125567 
  125566   125567   125566   125566   125567   125566   125564   125566 
  125566   125562   125562   125564   125567   125566   125566   125567 
  125563   125563   125564   125563   125566   125566   125563   125562 
  125562   125560   125560   125562   125559   125555   125556   125556 
  125556   125558   125555   125554   125556   125558   125555   125556 
  125558   125554   125552   125554   125552   125554   125554   125551 
  125550   125551   125550   125545   125544   125543   125541   125544 
  125550   125555   125556   125555   125555   125550   125544   125539 
  125531   125528   125541   125560   125574   125574   125559   125539 
  125527   125521   125517   125509   125496   125483   125487   125506 
  125536   125566   125581   125575   125568   125575   125589   125599 
  125608   125614   125612   125599   125585   125585   125610   125649 
  125676   125686   125705   125728   125739   125737   125687   125575 
  125463   125420   125466   125545   125572   125552   125525   125490 
  125469   125512   125602   125662   125641   125581   125555   125551 
  125525   125532   125620   125737   125805   125753   125597   125490 
  125520   125618   125733   125786   125686   125506   125425   125497 
  125594   125572   125443   125315   125251   125273   125375   125477 
  125520   125556   125640   125732   125763   125694   125609   125632 
  125726   125782   125736   125581   125437   125446   125586   125759 
  125806   125651   125463   125389   125406   125481   125523   125498 
  125516   125572   125579   125551   125504   125483   125541   125606 
  125647   125678   125622   125528   125523   125587   125674   125718 
  125680   125674   125720   125686   125574   125521   125559   125604 
  125625   125583   125442   125381   125520   125713   125878   125937 
  125733   125393   125234   125329   125481   125513   125413   125257 
  125247   125504   125707   125622   125493   125470   125489   125504 
  125394   125226   125243   125463   125818   126161   126189   125932 
  125666   125521   125541   125594   125497   125301   125167   125220 
  125363   125373   125336   125455   125697   125975   126114   125910 
  125520   125243   125180   125351   125572   125550   125342   125261 
  125450   125813   126142   126239   126056   125768   125535   125320 
  125127   125008   124976   125161   125533   125751   125729   125752 
  125891   125961   125922   125825   125660   125543   125563   125547 
  125415   125329   125365   125487   125678   125847   125828   125605 
  125383   125302   125311   125289   125173   125047   125105   125382 
  125671   125842   125991   126095   126033   125911   125778   125581 
  125544   125745   125848   125756   125652   125543   125381   125355 
  125587   125778   125647   125312   124987   124877   125082   125329 
  125329   125246   125392   125722   125982   126040   125901   125729 
  125726   125802   125760   125659   125564   125510   125597   125740 
  125807   125852   125844   125767   125751   125660   125324   124976 
  124846   124965   125297   125628   125716   125597   125536   125703 
  125899   125871   125753   125736   125714   125570   125371   125205 
  125080   125041   125176   125494   125842   126018   126041   126096 
  126175   126110   125817   125375   125032   124985   125134   125278 
  125431   125656   125809   125774   125676   125620   125587   125579 
  125587   125587   125517   125316   125097   125005   125011   125128 
  125454   125864   126102   126129   126085   126064   126041   125909 
  125645   125433   125366   125285   125145   125126   125290   125527 
  125736   125801   125644   125447   125440   125551   125602   125566 
  125509   125486   125443   125371   125388   125478   125570   125671 
  125714   125747   125865   125886   125737   125628   125591   125571 
  125544   125442   125316   125261   125257   125339   125520   125680 
  125743   125703   125594   125531   125581   125691   125770   125741 
  125602   125450   125436   125587   125725   125663   125467   125409 
  125494   125481   125415   125448   125539   125676   125783   125672 
  125443   125351   125408   125566   125772   125811   125686   125617 
  125594   125544   125541   125539   125481   125473   125509   125536 
  125614   125695   125686   125591   125427   125325   125427   125540 
  125500   125446   125496   125609   125701   125709   125685   125690 
  125701   125718   125728   125616   125371   125267   125444   125614 
  125560   125473   125535   125649   125743   125799   125671   125397 
  125296   125404   125475   125455   125448   125482   125527   125582 
  125666   125695   125609   125558   125648   125784   125826   125698 
  125574   125652   125748   125667   125501   125344   125282   125431 
  125697   125845   125744   125458   125262   125339   125554   125716 
  125743   125636   125532   125525   125545   125532   125514   125550 
  125604   125578   125493   125423   125423   125587   125872   125995 
  125772   125362   125088   125162   125474   125717   125766   125713 
  125652   125601   125572   125581   125606   125633   125656   125617 
  125477   125327   125324   125500   125744   125855   125663   125374 
  125298   125367   125470   125620   125655   125504   125359   125359 
  125504   125662   125664   125583   125633   125799   125878   125782 
  125662   125625   125587   125545   125566   125545   125450   125425 
  125513   125617   125671   125668   125625   125556   125520   125544 
  125506   125396   125369   125400   125410   125478   125578   125617 
  125625   125641   125694   125760   125734   125626   125532   125505 
  125547   125594   125609   125599   125529   125464   125514   125616 
  125667   125671   125659   125593   125448   125339   125315   125304 
  125354   125471   125551   125643   125747   125720   125614   125544 
  125497   125512   125577   125563   125532   125606   125712   125733 
  125680   125620   125575   125552   125560   125602   125674   125680 
  125540   125413   125439   125470   125388   125304   125329   125463 
  125644   125763   125721   125595   125563   125597   125564   125531 
  125544   125525   125555   125676   125737   125728   125695   125613 
  125567   125590   125590   125594   125589   125478   125366   125404 
  125521   125562   125505   125500   125601   125689   125702   125617 
  125467   125428   125527   125602   125577   125481   125416   125451 
  125550   125682   125809   125833   125745   125635   125550   125501 
  125501   125482   125405   125374   125409   125467   125552   125587 
  125579   125656   125740   125728   125718   125655   125406   125197 
  125293   125554   125695   125671   125617   125608   125626   125651 
  125662   125625   125583   125577   125605   125710   125768   125582 
  125343   125305   125401   125564   125714   125733   125701   125682 
  125647   125610   125521   125362   125223   125193   125347   125598 
  125730   125718   125660   125635   125675   125710   125706   125717 
  125722   125674   125606   125516   125398   125361   125412   125479 
  125595   125701   125635   125498   125479   125566   125672   125687 
  125556   125389   125288   125340   125547   125667   125591   125525 
  125577   125648   125699   125736   125686   125543   125474   125532 
  125559   125501   125483   125543   125579   125581   125581   125556 
  125545   125602   125652   125631   125626   125690   125659   125477 
  125361   125451   125618   125656   125563   125544   125620   125622 
  125575   125589   125622   125605   125540   125487   125504   125575 
  125625   125555   125417   125390   125510   125636   125663   125629 
  125635   125666   125652   125625   125597   125532   125471   125481 
  125550   125639   125701   125641   125474   125423   125570   125693 
  125621   125454   125381   125420   125463   125464   125478   125575 
  125670   125641   125597   125598   125572   125551   125558   125550 
  125531   125547   125601   125594   125527   125575   125713   125776 
  125716   125550   125406   125450   125612   125705   125628   125454 
  125385   125447   125478   125469   125487   125524   125593   125653 
  125633   125616   125636   125618   125601   125635   125655   125622 
  125598   125579   125524   125502   125518   125479   125454   125547 
  125685   125729   125678   125594   125514   125471   125448   125447 
  125513   125555   125521   125591   125744   125709   125512   125398 
  125436   125550   125658   125675   125609   125563   125620   125737 
  125707   125487   125340   125365   125419   125486   125566   125570 
  125513   125485   125524   125583   125618   125649   125643   125612 
  125662   125743   125712   125577   125458   125413   125429   125460 
  125508   125581   125629   125640   125668   125705   125667   125537 
  125435   125479   125583   125560   125428   125347   125362   125460 
