Origin Time       2025/03/30 22:55:00
Lat.              41.993
Long.             142.725
Depth. (km)       55
Mag.              4.6
Station Code      IKRH03
Station Lat.      42.8880
Station Long.     141.6399
Station Height(m) 10
Record Time       2025/03/30 22:56:21
Sampling Freq(Hz) 100Hz
Duration Time(s)  120
Dir.              5
Scale Factor      7845(gal)/8223790
Max. Acc. (gal)   1.127
Last Correction   2025/03/30 22:56:21
Memo.             
[...]
   -3554    -3470    -3407    -3376    -3402    -3462    -3514    -3566 
   -3615    -3628    -3589    -3507    -3431    -3384    -3372    -3412 
   -3481    -3550    -3627    -3667    -3634    -3562    -3497    -3443 
   -3416    -3454    -3535    -3605    -3661    -3697    -3680    -3609 
   -3503    -3388    -3327    -3338    -3357    -3366    -3404    -3466 
   -3496    -3496    -3518    -3542    -3520    -3478    -3469    -3512 
   -3574    -3604    -3591    -3572    -3564    -3531    -3477    -3454 
   -3472    -3497    -3519    -3550    -3592    -3622    -3616    -3584 
   -3545    -3510    -3470    -3429    -3387    -3345    -3339    -3414 
   -3535    -3620    -3627    -3591    -3539    -3481    -3439    -3422 
   -3419    -3449    -3524    -3608    -3634    -3597    -3569    -3578 
   -3577    -3522    -3419    -3341    -3357    -3443    -3514    -3539 
   -3568    -3632    -3693    -3674    -3565    -3450    -3407    -3403 
   -3369    -3322    -3330    -3402    -3495    -3582    -3659    -3719 
   -3736    -3684    -3581    -3470    -3377    -3316    -3292    -3327 
   -3418    -3512    -3581    -3642    -3693    -3727    -3711    -3631 
   -3542    -3464    -3400    -3364    -3356    -3400    -3487    -3541 
   -3530    -3487    -3466    -3485    -3476    -3410    -3368    -3396 
   -3477    -3555    -3603    -3665    -3748    -3792    -3766    -3684 
   -3596    -3541    -3497    -3445    -3376    -3322    -3331    -3366 
   -3385    -3403    -3427    -3473    -3530    -3545    -3526    -3526 
   -3547    -3550    -3503    -3450    -3462    -3522    -3577    -3585 
   -3547    -3531    -3545    -3522    -3472    -3456    -3470    -3487 
   -3510    -3538    -3531    -3510    -3537    -3584    -3582    -3535 
   -3468    -3410    -3396    -3422    -3460    -3512    -3576    -3632 
   -3670    -3673    -3618    -3523    -3446    -3406    -3403    -3445 
   -3480    -3474    -3478    -3491    -3469    -3426    -3404    -3416 
   -3442    -3484    -3568    -3673    -3734    -3726    -3684    -3646 
   -3603    -3532    -3460    -3406    -3364    -3337    -3338    -3360 
   -3384    -3402    -3426    -3476    -3534    -3570    -3593    -3622 
   -3643    -3634    -3604    -3582    -3565    -3527    -3478    -3437 
   -3404    -3383    -3379    -3404    -3460    -3516    -3558    -3600 
   -3643    -3658    -3608    -3532    -3495    -3483    -3476    -3484 
   -3503    -3535    -3570    -3572    -3554    -3530    -3491    -3456 
   -3441    -3451    -3478    -3503    -3534    -3554    -3545    -3539 
   -3530    -3518    -3527    -3523    -3495    -3480    -3476    -3478 
   -3474    -3453    -3439    -3462    -3514    -3550    -3545    -3534 
   -3535    -3526    -3512    -3491    -3488    -3549    -3624    -3636 
   -3576    -3478    -3395    -3360    -3369    -3389    -3399    -3427 
   -3480    -3523    -3559    -3584    -3561    -3534    -3564    -3603 
   -3588    -3551    -3561    -3612    -3659    -3685    -3658    -3578 
   -3507    -3470    -3426    -3358    -3306    -3302    -3349    -3408 
   -3434    -3420    -3424    -3493    -3595    -3665    -3663    -3613 
   -3564    -3539    -3523    -3493    -3468    -3480    -3510    -3531 
   -3551    -3564    -3532    -3473    -3442    -3450    -3465    -3499 
   -3559    -3609    -3638    -3632    -3574    -3516    -3485    -3456 
   -3429    -3445    -3505    -3546    -3537    -3512    -3488    -3462 
   -3426    -3377    -3368    -3422    -3470    -3487    -3492    -3516 
   -3589    -3677    -3720    -3712    -3669    -3631    -3601    -3554 
   -3518    -3493    -3473    -3480    -3483    -3461    -3453    -3460 
   -3466    -3464    -3433    -3391    -3361    -3376    -3420    -3454 
   -3495    -3551    -3596    -3628    -3631    -3605    -3584    -3546 
   -3489    -3454    -3457    -3488    -3518    -3538    -3554    -3558 
   -3562    -3564    -3538    -3514    -3495    -3445    -3404    -3427 
   -3485    -3522    -3520    -3508    -3493    -3466    -3443    -3434 
   -3438    -3462    -3489    -3507    -3523    -3522    -3512    -3543 
   -3596    -3620    -3607    -3589    -3592    -3595    -3582    -3554 
   -3503    -3454    -3441    -3458    -3469    -3450    -3430    -3460 
   -3512    -3530    -3531    -3537    -3550    -3570    -3577    -3547 
   -3501    -3489    -3528    -3549    -3515    -3481    -3447    -3392 
   -3350    -3349    -3395    -3492    -3601    -3666    -3666    -3618 
   -3566    -3519    -3474    -3450    -3450    -3466    -3510    -3577 
   -3628    -3631    -3603    -3580    -3531    -3429    -3335    -3334 
   -3415    -3508    -3558    -3555    -3527    -3515    -3523    -3515 
   -3474    -3427    -3397    -3407    -3449    -3474    -3501    -3574 
   -3650    -3653    -3592    -3524    -3477    -3439    -3439    -3496 
   -3565    -3609    -3620    -3592    -3543    -3484    -3426    -3408 
   -3431    -3469    -3492    -3499    -3527    -3580    -3622    -3626 
   -3586    -3534    -3495    -3466    -3451    -3456    -3477    -3496 
   -3481    -3439    -3424    -3461    -3530    -3611    -3688    -3717 
   -3677    -3607    -3543    -3473    -3414    -3392    -3402    -3450 
   -3527    -3578    -3581    -3551    -3515    -3489    -3462    -3400 
   -3330    -3318    -3376    -3445    -3481    -3527    -3604    -3662 
   -3670    -3627    -3546    -3489    -3492    -3511    -3501    -3474 
   -3466    -3489    -3522    -3532    -3493    -3415    -3362    -3365 
   -3393    -3437    -3501    -3582    -3639    -3636    -3601    -3574 
   -3551    -3538    -3537    -3530    -3527    -3538    -3554    -3577 
   -3591    -3578    -3546    -3504    -3462    -3427    -3403    -3404 
   -3429    -3458    -3500    -3551    -3585    -3607    -3612    -3593 
   -3561    -3515    -3477    -3460    -3441    -3414    -3396    -3416 
   -3469    -3503    -3523    -3545    -3546    -3550    -3569    -3569 
   -3553    -3543    -3557    -3580    -3577    -3564    -3559    -3553 
   -3546    -3520    -3466    -3426    -3415    -3430    -3458    -3458 
   -3420    -3391    -3404    -3449    -3501    -3565    -3623    -3636 
   -3612    -3568    -3510    -3470    -3469    -3493    -3535    -3574 
   -3607    -3639    -3640    -3595    -3543    -3514    -3487    -3439 
   -3404    -3422    -3456    -3476    -3476    -3453    -3439    -3447 
   -3464    -3491    -3520    -3542    -3562    -3565    -3547    -3524 
   -3478    -3433    -3434    -3466    -3496    -3523    -3566    -3623 
   -3650    -3635    -3592    -3539    -3501    -3446    -3368    -3338 
   -3369    -3402    -3418    -3431    -3468    -3524    -3557    -3565 
   -3588    -3627    -3655    -3651    -3620    -3574    -3511    -3464 
   -3451    -3419    -3357    -3334    -3379    -3457    -3527    -3578 
   -3623    -3654    -3649    -3599    -3542    -3524    -3530    -3503 
   -3461    -3441    -3416    -3381    -3356    -3353    -3399    -3472 
   -3496    -3495    -3545    -3622    -3646    -3615    -3582    -3557 
   -3535    -3522    -3484    -3445    -3472    -3528    -3559    -3570 
   -3566    -3557    -3554    -3546    -3528    -3503    -3497    -3507 
   -3492    -3473    -3477    -3497    -3534    -3562    -3553    -3542 
   -3551    -3538    -3472    -3397    -3383    -3426    -3480    -3520 
   -3542    -3562    -3592    -3591    -3546    -3489    -3427    -3375 
   -3372    -3427    -3511    -3580    -3626    -3653    -3657    -3640 
   -3611    -3576    -3551    -3514    -3465    -3438    -3418    -3392 
   -3385    -3410    -3461    -3520    -3561    -3582    -3591    -3568 
   -3491    -3391    -3325    -3311    -3323    -3364    -3431    -3518 
   -3627    -3730    -3782    -3781    -3743    -3667    -3546    -3424 
   -3381    -3410    -3447    -3483    -3514    -3535    -3541    -3512 
   -3461    -3426    -3404    -3375    -3366    -3395    -3435    -3492 
   -3568    -3630    -3653    -3636    -3597    -3547    -3500    -3472 
   -3450    -3431    -3433    -3453    -3496    -3566    -3628    -3672 
   -3704    -3705    -3676    -3608    -3511    -3434    -3407    -3424 
   -3435    -3414    -3416    -3443    -3460    -3468    -3453    -3423 
   -3426    -3460    -3501    -3526    -3512    -3499    -3505    -3534 
   -3586    -3630    -3647    -3649    -3623    -3568    -3493    -3439 
   -3437    -3450    -3456    -3478    -3516    -3550    -3554    -3514 
   -3469    -3443    -3411    -3364    -3326    -3339    -3412    -3497 
   -3565    -3603    -3601    -3592    -3589    -3569    -3528    -3474 
   -3442    -3464    -3516    -3554    -3568    -3601    -3677    -3719 
   -3673    -3592    -3519    -3454    -3412    -3385    -3368    -3381 
   -3431    -3484    -3489    -3454    -3433    -3429    -3430    -3434 
   -3429    -3447    -3523    -3611    -3661    -3665    -3638    -3604 
   -3557    -3499    -3468    -3481    -3541    -3613    -3657    -3677 
   -3693    -3689    -3645    -3557    -3470    -3422    -3389    -3365 
   -3368    -3387    -3411    -3433    -3449    -3468    -3481    -3495 
   -3534    -3576    -3592    -3577    -3537    -3487    -3464    -3484 
   -3522    -3542    -3555    -3561    -3538    -3531    -3541    -3503 
   -3443    -3420    -3418    -3427    -3462    -3532    -3624    -3708 
   -3740    -3697    -3611    -3549    -3504    -3438    -3368    -3308 
   -3279    -3323    -3418    -3510    -3588    -3678    -3767    -3817 
   -3835    -3836    -3804    -3753    -3693    -3608    -3522    -3460 
   -3420    -3408    -3407    -3397    -3381    -3380    -3399    -3419 
   -3437    -3464    -3480    -3474    -3484    -3510    -3514    -3512 
   -3535    -3569    -3586    -3572    -3534    -3518    -3545    -3568 
   -3550    -3528    -3537    -3551    -3541    -3496    -3423    -3368 
   -3368    -3384    -3389    -3422    -3487    -3538    -3534    -3478 
   -3412    -3334    -3260    -3229    -3256    -3341    -3447    -3531 
   -3592    -3631    -3635    -3595    -3491    -3365    -3292    -3298 
   -3365    -3451    -3520    -3584    -3665    -3742    -3777    -3751 
   -3709    -3672    -3596    -3485    -3377    -3296    -3276    -3307 
   -3342    -3380    -3442    -3516    -3564    -3574    -3577    -3570 
   -3538    -3484    -3392    -3307    -3312    -3395    -3505    -3643 
   -3786    -3902    -3956    -3910    -3773    -3596    -3429    -3314 
   -3264    -3289    -3388    -3527    -3676    -3777    -3781    -3719 
   -3638    -3541    -3433    -3337    -3279    -3261    -3285    -3339 
   -3392    -3447    -3530    -3593    -3609    -3616    -3620    -3584 
   -3519    -3468    -3453    -3458    -3483    -3539    -3607    -3646 
   -3638    -3609    -3585    -3528    -3426    -3343    -3310    -3271 
   -3207    -3160    -3172    -3246    -3341    -3404    -3437    -3462 
   -3505    -3574    -3646    -3704    -3739    -3742    -3732    -3727 
   -3708    -3672    -3635    -3640    -3685    -3694    -3630    -3523 
   -3424    -3369    -3325    -3276    -3269    -3326    -3422    -3515 
   -3574    -3623    -3672    -3696    -3692    -3636    -3543    -3473 
   -3427    -3376    -3287    -3179    -3121    -3118    -3129    -3150 
   -3208    -3345    -3550    -3736    -3863    -3942    -3994    -4014 
   -3937    -3780    -3636    -3534    -3496    -3530    -3584    -3649 
   -3738    -3798    -3771    -3626    -3402    -3194    -3071    -3045 
   -3106    -3248    -3456    -3631    -3701    -3674    -3555    -3377 
   -3250    -3240    -3337    -3507    -3719    -3915    -3978    -3859 
   -3636    -3406    -3237    -3183    -3252    -3419    -3611    -3713 
   -3673    -3537    -3391    -3302    -3315    -3450    -3658    -3855 
   -4000    -4056    -3978    -3758    -3450    -3159    -2988    -2964 
   -3060    -3226    -3400    -3532    -3597    -3584    -3519    -3456 
   -3449    -3510    -3604    -3703    -3793    -3850    -3836    -3747 
   -3611    -3484    -3392    -3331    -3299    -3311    -3380    -3485 
   -3591    -3651    -3651    -3619    -3574    -3515    -3453    -3426 
   -3453    -3522    -3601    -3646    -3627    -3557    -3450    -3327 
   -3233    -3187    -3173    -3172    -3200    -3267    -3341    -3431 
   -3568    -3701    -3773    -3765    -3678    -3588    -3568    -3595 
   -3630    -3657    -3686    -3738    -3770    -3731    -3611    -3449 
   -3329    -3287    -3308    -3392    -3518    -3682    -3850    -3931 
   -3901    -3804    -3647    -3438    -3225    -3072    -3029    -3092 
   -3234    -3391    -3480    -3503    -3504    -3469    -3414    -3377 
   -3353    -3334    -3333    -3345    -3346    -3319    -3312    -3376 
   -3473    -3584    -3711    -3819    -3881    -3897    -3883    -3877 
   -3871    -3856    -3840    -3821    -3809    -3777    -3686    -3542 
   -3361    -3163    -2974    -2812    -2712    -2716    -2826    -3019 
   -3248    -3466    -3639    -3738    -3769    -3746    -3685    -3632 
   -3626    -3677    -3778    -3901    -4017    -4102    -4098    -3951 
   -3694    -3414    -3165    -2976    -2887    -2932    -3084    -3277 
   -3466    -3630    -3751    -3808    -3774    -3655    -3504    -3384 
   -3334    -3365    -3445    -3539    -3647    -3759    -3829    -3786 
   -3624    -3426    -3272    -3186    -3145    -3137    -3192    -3306 
   -3423    -3518    -3600    -3696    -3815    -3923    -3991    -4012 
   -3964    -3846    -3636    -3353    -3078    -2891    -2863    -3017 
   -3281    -3578    -3825    -3952    -3936    -3757    -3453    -3133 
   -2862    -2701    -2691    -2801    -3032    -3381    -3797    -4220 
   -4545    -4692    -4672    -4511    -4257    -3959    -3640    -3376 
   -3200    -3065    -2922    -2749    -2602    -2585    -2701    -2921 
   -3240    -3597    -3936    -4191    -4268    -4148    -3906    -3651 
   -3488    -3447    -3508    -3611    -3688    -3717    -3640    -3426 
   -3181    -3026    -2998    -3079    -3202    -3319    -3415    -3492 
   -3564    -3609    -3645    -3707    -3778    -3820    -3834    -3815 
   -3751    -3646    -3515    -3350    -3184    -3127    -3240    -3451 
   -3703    -3950    -4129    -4179    -4071    -3812    -3434    -3029 
   -2705    -2490    -2394    -2466    -2728    -3145    -3639    -4083 
   -4353    -4434    -4376    -4213    -3986    -3762    -3585    -3465 
   -3400    -3348    -3250    -3114    -2997    -2928    -2913    -2988 
   -3177    -3422    -3653    -3836    -3943    -3974    -3919    -3766 
   -3581    -3461    -3466    -3580    -3731    -3875    -3973    -3981 
   -3879    -3655    -3376    -3156    -3014    -2952    -2982    -3088 
   -3265    -3472    -3643    -3755    -3808    -3815    -3746    -3562 
   -3316    -3082    -2924    -2901    -2998    -3191    -3461    -3732 
   -3974    -4182    -4301    -4286    -4159    -3979    -3801    -3608 
   -3406    -3244    -3165    -3190    -3289    -3422    -3569    -3677 
   -3696    -3634    -3489    -3287    -3096    -2970    -2936    -2988 
   -3111    -3296    -3488    -3638    -3732    -3758    -3748    -3742 
   -3743    -3757    -3770    -3780    -3778    -3734    -3636    -3518 
   -3407    -3322    -3264    -3261    -3345    -3484    -3611    -3670 
   -3640    -3535    -3410    -3342    -3372    -3487    -3643    -3797 
   -3898    -3900    -3782    -3586    -3381    -3218    -3091    -2991 
   -2955    -3013    -3132    -3262    -3368    -3450    -3547    -3653 
   -3746    -3839    -3936    -4020    -4059    -4025    -3906    -3715 
   -3511    -3380    -3354    -3430    -3561    -3689    -3798    -3847 
   -3775    -3608    -3375    -3102    -2835    -2625    -2577    -2736 
   -3040    -3408    -3742    -3966    -4067    -4039    -3917    -3744 
   -3546    -3403    -3357    -3370    -3416    -3445    -3456    -3487 
   -3501    -3458    -3354    -3235    -3186    -3219    -3337    -3547 
   -3793    -4013    -4135    -4072    -3852    -3549    -3248    -3064 
   -3024    -3091    -3241    -3426    -3604    -3721    -3734    -3667 
   -3565    -3469    -3429    -3435    -3485    -3573    -3651    -3701 
   -3701    -3620    -3488    -3338    -3213    -3148    -3137    -3204 
   -3356    -3539    -3713    -3820    -3794    -3659    -3495    -3384 
   -3388    -3514    -3716    -3885    -3928    -3834    -3627    -3357 
   -3103    -2953    -2980    -3194    -3526    -3858    -4072    -4110 
   -3966    -3667    -3306    -3021    -2910    -2992    -3229    -3539 
   -3850    -4075    -4128    -3978    -3681    -3339    -3076    -2974 
   -3042    -3237    -3492    -3751    -3960    -4047    -3963    -3755 
   -3532    -3368    -3264    -3215    -3248    -3358    -3489    -3576 
   -3561    -3458    -3341    -3238    -3183    -3229    -3358    -3532 
   -3720    -3856    -3896    -3838    -3726    -3604    -3481    -3381 
   -3323    -3271    -3244    -3272    -3338    -3443    -3559    -3654 
   -3728    -3759    -3736    -3673    -3561    -3435    -3319    -3221 
   -3175    -3186    -3248    -3365    -3483    -3565    -3601    -3586 
   -3562    -3546    -3546    -3593    -3665    -3730    -3800    -3877 
   -3952    -3989    -3935    -3811    -3654    -3487    -3352    -3275 
   -3265    -3298    -3318    -3315    -3300    -3273    -3269    -3311 
   -3393    -3500    -3611    -3711    -3770    -3765    -3717    -3640 
   -3532    -3422    -3341    -3321    -3357    -3407    -3466    -3524 
   -3542    -3518    -3485    -3462    -3460    -3492    -3555    -3623 
   -3672    -3692    -3674    -3622    -3549    -3476    -3441    -3465 
   -3512    -3557    -3620    -3689    -3717    -3681    -3576    -3442 
   -3343    -3277    -3207    -3149    -3146    -3204    -3281    -3348 
   -3384    -3402    -3437    -3495    -3554    -3627    -3734    -3838 
   -3901    -3919    -3867    -3767    -3672    -3589    -3514    -3438 
   -3383    -3361    -3346    -3327    -3292    -3227    -3184    -3190 
   -3233    -3326    -3460    -3624    -3781    -3851    -3808    -3670 
   -3508    -3402    -3343    -3354    -3472    -3638    -3807    -3928 
   -3932    -3856    -3739    -3588    -3453    -3349    -3292    -3291 
   -3329    -3415    -3507    -3547    -3550    -3500    -3387    -3249 
   -3105    -3022    -3063    -3202    -3420    -3685    -3929    -4105 
   -4158    -4090    -3946    -3728    -3493    -3326    -3260    -3295 
   -3380    -3468    -3555    -3609    -3624    -3620    -3597    -3578 
   -3559    -3518    -3474    -3418    -3356    -3326    -3310    -3304 
   -3330    -3381    -3451    -3504    -3523    -3535    -3541    -3511 
   -3435    -3343    -3295    -3296    -3316    -3375    -3481    -3619 
   -3758    -3838    -3825    -3747    -3634    -3505    -3361    -3217 
   -3148    -3196    -3348    -3551    -3721    -3812    -3817    -3743 
   -3607    -3445    -3315    -3254    -3249    -3284    -3341    -3396 
   -3466    -3557    -3646    -3705    -3721    -3693    -3627    -3543 
   -3464    -3403    -3385    -3422    -3472    -3483    -3435    -3364 
   -3304    -3284    -3319    -3368    -3411    -3480    -3576    -3673 
   -3743    -3781    -3812    -3824    -3798    -3740    -3662    -3601 
   -3550    -3460    -3376    -3335    -3310    -3304    -3339    -3426 
   -3537    -3605    -3631    -3636    -3612    -3576    -3527    -3472 
   -3449    -3450    -3470    -3522    -3555    -3569    -3588    -3608 
   -3630    -3619    -3566    -3524    -3528    -3570    -3619    -3651 
   -3701    -3761    -3780    -3757    -3678    -3555    -3446    -3376 
