Origin Time       2025/03/30 22:55:00
Lat.              41.993
Long.             142.725
Depth. (km)       55
Mag.              4.6
Station Code      IWTH07
Station Lat.      40.2705
Station Long.     141.5709
Station Height(m) 260
Record Time       2025/03/30 22:56:57
Sampling Freq(Hz) 100Hz
Duration Time(s)  120
Dir.              4
Scale Factor      7845(gal)/8223790
Max. Acc. (gal)   0.719
Last Correction   2025/03/30 22:56:58
Memo.             
    4198     4164     4090     4087     4152     4180     4167     4141 
    4094     4050     4058     4114     4170     4149     4085     4102 
    4175     4176     4153     4194     4232     4210     4168     4133 
    4098     4068     4077     4121     4145     4128     4078     4023 
    4039     4117     4162     4182     4186     4118     4082     4175 
    4234     4178     4132     4133     4167     4226     4207     4121 
    4094     4078     4063     4131     4159     4085     4091     4167 
    4159     4144     4186     4148     4043     4055     4195     4282 
    4233     4164     4139     4101     4055     4090     4152     4098 
    3979     3987     4114     4202     4207     4220     4230     4160 
    4070     4072     4124     4149     4162     4166     4164     4144 
    4077     4054     4151     4217     4159     4091     4070     4074 
    4112     4156     4176     4195     4199     4162     4141     4168 
    4168     4124     4105     4106     4091     4101     4135     4141 
    4139     4149     4162     4148     4079     4032     4116     4239 
    4230     4141     4109     4122     4126     4153     4190     4186 
    4160     4106     4032     4055     4153     4174     4137     4148 
    4147     4068     4016     4075     4155     4171     4172     4205 
    4220     4187     4159     4170     4167     4122     4090     4110 
    4159     4178     4128     4070     4097     4174     4185     4147 
    4167     4180     4067     3962     4041     4159     4126     4083 
    4132     4139     4109     4175     4282     4302     4229     4140 
    4109     4118     4105     4085     4098     4143     4168     4104 
    3990     3982     4072     4113     4104     4151     4228     4239 
    4207     4225     4278     4252     4139     4063     4081     4099 
    4068     4047     4068     4105     4153     4194     4159     4086 
    4090     4122     4113     4166     4249     4166     4039     4071 
    4122     4113     4133     4147     4147     4175     4147     4113 
    4199     4280     4232     4148     4106     4093     4102     4108 
    4109     4136     4163     4148     4106     4101     4160     4189 
    4148     4166     4228     4141     3952     3908     4055     4230 
    4286     4197     4089     4077     4124     4190     4248     4230 
    4141     4043     3983     4024     4128     4160     4110     4104 
    4145     4168     4210     4241     4168     4114     4193     4236 
    4147     4085     4144     4194     4108     4002     4031     4079 
    4041     4074     4222     4286     4193     4097     4124     4229 
    4267     4193     4104     4050     3997     3996     4101     4178 
    4145     4148     4174     4114     4122     4252     4270     4168 
    4129     4116     4072     4078     4120     4128     4118     4135 
    4190     4197     4106     4059     4117     4160     4158     4151 
    4110     4068     4120     4224     4241     4158     4093     4071 
    4025     4000     4063     4129     4141     4182     4257     4266 
    4210     4160     4137     4117     4106     4137     4159     4113 
    4083     4131     4163     4125     4102     4108     4074     4062 
    4158     4237     4198     4153     4158     4137     4109     4121 
    4131     4112     4077     4047     4089     4171     4201     4193 
    4180     4148     4104     4072     4116     4237     4278     4149 
    4031     4078     4162     4124     4062     4068     4087     4101 
    4126     4160     4218     4272     4214     4054     3982     4074 
    4178     4187     4159     4152     4160     4163     4163     4168 
    4180     4178     4097     3994     4033     4156     4179     4159 
    4160     4114     4090     4143     4159     4152     4176     4179 
    4180     4185     4135     4105     4121     4110     4090     4067 
    4051     4116     4193     4168     4147     4198     4218     4183 
    4147     4118     4086     4039     4051     4164     4206     4151 
    4183     4218     4125     4086     4135     4120     4114     4164 
    4167     4131     4083     4037     4058     4114     4120     4122 
    4176     4206     4149     4068     4054     4121     4207     4225 
    4174     4148     4183     4179     4110     4105     4144     4083 
    4010     4072     4139     4090     4070     4158     4248     4268 
    4237     4199     4175     4136     4079     4081     4135     4153 
    4124     4131     4193     4193     4077     4035     4151     4158 
    3989     3970     4143     4240     4226     4203     4160     4097 
    4083     4148     4186     4136     4108     4122     4071     4052 
    4171     4249     4175     4089     4078     4094     4148     4226 
    4212     4132     4132     4155     4098     4059     4113     4159 
    4137     4153     4203     4131     3979     3975     4122     4220 
    4194     4140     4137     4170     4168     4133     4124     4149 
    4171     4155     4120     4139     4195     4178     4098     4079 
    4125     4155     4133     4089     4101     4174     4171     4094 
    4117     4212     4198     4116     4109     4126     4086     4067 
    4122     4176     4189     4172     4131     4060     4039     4132 
    4226     4178     4094     4117     4149     4132     4162     4209 
    4158     4079     4090     4140     4148     4148     4178     4179 
    4101     4017     4059     4212     4237     4087     4036     4101 
    4064     4058     4230     4322     4179     4023     4039     4143 
    4176     4176     4251     4272     4109     3977     4070     4222 
    4222     4124     4082     4106     4113     4121     4186     4218 
    4132     4035     4058     4143     4179     4174     4182     4164 
    4114     4131     4176     4131     4105     4152     4091     3998 
    4052     4116     4102     4139     4212     4239     4247     4241 
    4197     4129     4081     4095     4144     4139     4093     4064 
    4058     4078     4132     4189     4195     4121     4074     4129 
    4149     4089     4106     4205     4232     4224     4253     4195 
    4039     3998     4079     4105     4083     4083     4068     4074 
    4143     4168     4140     4182     4241     4187     4113     4145 
    4180     4104     4070     4189     4263     4172     4066     4093 
    4171     4148     4081     4075     4105     4167     4206     4143 
    4074     4089     4117     4143     4176     4162     4124     4126 
    4151     4163     4148     4104     4070     4072     4131     4240 
    4261     4159     4085     4098     4128     4136     4144     4162 
    4143     4098     4114     4178     4175     4104     4066     4097 
    4137     4144     4143     4151     4155     4167     4182     4172 
    4144     4132     4159     4176     4122     4059     4071     4110 
    4126     4136     4137     4126     4112     4105     4132     4153 
    4118     4087     4145     4229     4213     4113     4070     4097 
    4102     4110     4166     4182     4124     4089     4148     4232 
    4191     4047     4014     4122     4198     4217     4218     4143 
    4051     4035     4060     4124     4220     4256     4195     4091 
    4062     4164     4224     4133     4078     4126     4137     4078 
    4023     4052     4167     4218     4168     4153     4190     4197 
    4186     4191     4199     4149     4062     4074     4194     4216 
    4087     4000     4024     4087     4186     4266     4213     4101 
    4072     4094     4121     4194     4226     4116     4024     4101 
    4176     4091     4032     4132     4190     4122     4113     4167 
    4151     4108     4118     4168     4212     4180     4105     4125 
    4186     4128     4052     4098     4133     4079     4077     4159 
    4187     4137     4098     4089     4098     4141     4178     4179 
    4209     4264     4210     4087     4086     4136     4089     4058 
    4105     4118     4101     4137     4166     4109     4086     4185 
    4260     4205     4122     4128     4174     4141     4079     4114 
    4155     4081     4020     4097     4190     4141     4041     4074 
    4175     4171     4128     4183     4224     4140     4074     4116 
    4149     4139     4152     4183     4182     4151     4125     4118 
    4139     4183     4199     4148     4091     4085     4113     4133 
    4133     4145     4159     4141     4112     4101     4109     4114 
    4112     4133     4174     4185     4187     4202     4179     4136 
    4174     4232     4159     4052     4063     4091     4059     4045 
    4074     4091     4104     4129     4149     4117     4089     4164 
    4236     4171     4124     4189     4228     4217     4206     4139 
    4029     3996     4041     4078     4086     4110     4159     4212 
    4234     4205     4193     4226     4212     4133     4071     4062 
    4129     4210     4145     4005     4021     4121     4122     4132 
    4207     4164     4009     3959     4072     4229     4315     4293 
    4162     4016     3991     4089     4198     4239     4174     4067 
    4048     4085     4060     4017     4062     4147     4170     4183 
    4259     4286     4197     4139     4209     4264     4172     4031 
    4005     4085     4135     4144     4189     4214     4175     4159 
    4159     4081     4013     4070     4141     4135     4113     4124 
    4143     4128     4114     4176     4220     4163     4122     4122 
    4094     4102     4195     4253     4207     4121     4036     4004 
    4090     4214     4233     4170     4112     4101     4162     4197 
    4077     3937     4008     4186     4247     4199     4122     4031 
    3978     4043     4167     4199     4140     4118     4132     4125 
    4149     4207     4213     4164     4140     4125     4074     4051 
    4114     4156     4091     4051     4166     4328     4368     4293 
    4180     4082     4055     4116     4199     4255     4239     4116 
    3971     3915     3909     3916     4025     4253     4410     4351 
    4199     4116     4083     4064     4060     4064     4110     4212 
    4279     4226     4114     4052     4062     4105     4163     4194 
    4133     4083     4191     4302     4255     4251     4365     4305 
    4037     3902     3944     3919     3861     3967     4147     4183 
    4120     4151     4259     4267     4210     4229     4253     4193 
    4139     4174     4183     4071     3987     4033     4067     4081 
    4166     4171     4029     3993     4132     4232     4234     4221 
    4151     4054     4072     4131     4045     3925     3978     4139 
    4212     4172     4140     4139     4116     4144     4299     4409 
    4349     4257     4174     4045     4025     4148     4167     4048 
    4017     4128     4220     4162     4043     4041     4121     4144 
    4125     4144     4206     4256     4225     4144     4122     4128 
    4060     3977     3960     3963     3946     3967     4126     4410 
    4585     4461     4249     4226     4275     4170     3927     3721 
    3680     3742     3811     3966     4194     4279     4224     4251 
    4375     4388     4193     3924     3794     3893     4128     4301 
    4345     4399     4472     4430     4334     4313     4291     4172 
    3991     3839     3782     3817     3974     4186     4309     4419 
    4549     4476     4266     4209     4237     4159     4027     3916 
    3827     3790     3770     3743     3894     4214     4386     4413 
    4488     4440     4163     3928     3893     3937     3956     3947 
    3936     3942     3989     4159     4419     4518     4321     4036 
    3931     4071     4305     4417     4388     4394     4519     4631 
    4542     4243     3928     3740     3704     3831     4047     4125 
    4020     3986     4108     4151     4091     4143     4230     4141 
    4020     4090     4183     4095     4045     4230     4386     4241 
    3997     3975     4162     4329     4361     4305     4221     4121 
    4056     4047     4020     3950     3843     3731     3786     4066 
    4329     4448     4519     4504     4322     4148     4162     4209 
    4087     3875     3757     3784     3871     3946     4025     4144 
    4282     4340     4293     4279     4320     4226     3978     3771 
    3740     3882     4126     4333     4391     4367     4401     4504 
    4537     4396     4266     4322     4307     3993     3682     3638 
    3742     3902     4120     4288     4306     4226     4168     4105 
    3937     3827     4040     4450     4645     4471     4114     3844 
    3793     3933     4171     4364     4342     4086     3817     3771 
    3940     4099     4099     3991     3877     3843     4039     4434 
    4665     4560     4402     4349     4239     4072     3998     3913 
    3711     3623     3863     4314     4723     4889     4669     4128 
    3716     3824     4175     4283     4183     4168     4239     4257 
    4275     4353     4386     4255     3979     3767     3836     4070 
    4171     4106     4055     4091     4155     4116     3964     3877 
    3871     3836     3912     4213     4448     4450     4450     4525 
    4457     4259     4106     3994     3921     3955     4017     4055 
    4082     4027     3975     4052     4101     4097     4282     4598 
    4718     4506     4131     3937     3985     3909     3717     3838 
    4074     3931     3642     3619     3769     3937     4137     4307 
    4378     4392     4406     4382     4291     4212     4212     4221 
    4168     4141     4280     4477     4444     4217     4113     4132 
    4106     4093     4074     3925     3881     4174     4441     4325 
    4110     4156     4310     4255     4023     3894     3963     4091 
    4209     4301     4217     3932     3786     3989     4326     4544 
    4500     4213     3958     3923     3998     4121     4240     4121 
    3780     3546     3584     3869     4272     4517     4418     4105 
    3889     3959     4189     4388     4461     4307     4017     3831 
    3854     4064     4297     4322     4160     4014     4018     4136 
    4275     4394     4380     4213     4199     4417     4469     4276 
    4145     4109     4037     3994     4023     4024     3960     3883 
    3931     4197     4490     4498     4252     4032     3924     3877 
    3931     4070     4167     4151     4070     4024     4071     4203 
    4380     4507     4492     4363     4251     4263     4317     4225 
    4013     3817     3640     3568     3773     4090     4153     3966 
    3869     4025     4328     4594     4596     4311     4078     4079 
    4112     4085     4097     4051     3838     3686     3824     4081 
    4206     4261     4361     4379     4232     4102     4160     4261 
    4214     4126     4129     4120     4144     4429     4741     4618 
    4240     4031     3909     3785     3888     4120     4105     3865 
    3721     3816     4025     4176     4241     4364     4541     4519 
    4244     3994     3964     4078     4190     4263     4271     4117 
    3875     3802     3942     4071     4083     4066     4051     4082 
    4309     4612     4618     4348     4164     4112     4027     3967 
    4018     4047     4028     4171     4367     4270     4031     4012 
    4090     4094     4193     4375     4374     4167     3958     3874 
    3962     4126     4117     3893     3738     3823     4024     4186 
    4330     4437     4347     4124     4064     4187     4251     4212 
    4136     3964     3794     3910     4249     4444     4394     4247 
    4098     4052     4140     4245     4311     4322     4234     4149 
    4140     4139     4180     4302     4360     4237     4029     3958 
    4028     4000     3879     3877     3959     4000     4040     4098 
    4082     4018     4040     4172     4330     4368     4203     3975 
    3932     4167     4518     4664     4456     4117     3960     4005 
    4059     4091     4213     4333     4268     4074     3900     3774 
    3789     4012     4202     4147     4041     4141     4345     4383 
    4225     4108     4085     3952     3728     3673     3819     4017 
    4279     4590     4761     4688     4411     4095     3987     4072 
    4118     4126     4198     4234     4166     4082     4033     4009 
    4002     3985     3979     4016     4081     4217     4401     4483 
    4442     4356     4203     3991     3869     3893     3882     3751 
    3762     4052     4255     4093     3889     3958     4148     4315 
    4504     4571     4338     4068     4122     4318     4275     4055 
    3933     3951     4009     4110     4212     4179     4077     4110 
    4217     4226     4193     4187     4182     4220     4275     4189 
    4020     3991     4058     4075     4083     4089     4051     4059 
    4120     4167     4288     4415     4255     3925     3885     4180 
    4436     4446     4372     4361     4299     4078     3848     3807 
    3947     4132     4228     4158     3933     3747     3831     4075 
    4149     4070     4106     4240     4336     4407     4359     4132 
    3985     4040     4137     4153     4021     3896     4052     4297 
    4294     4229     4321     4341     4135     3929     3928     4083 
    4257     4329     4271     4149     4037     3964     3933     3951 
    4016     4010     3888     3916     4248     4541     4526     4348 
    4164     4089     4198     4279     4144     3993     4000     4082 
    4203     4334     4306     4114     3967     3944     4012     4155 
    4315     4356     4266     4187     4147     4097     4136     4298 
    4376     4222     3935     3713     3662     3774     3987     4207 
    4353     4355     4194     4095     4243     4380     4266     4129 
    4185     4194     3979     3812     3909     4110     4249     4294 
    4218     4087     4054     4156     4197     4055     3975     4132 
    4328     4386     4322     4210     4086     3952     3879     3908 
    3947     3971     4051     4182     4297     4276     4060     3888 
    4041     4379     4550     4490     4305     4095     3998     4087 
    4263     4374     4301     4071     3885     3904     4068     4156 
    4044     3931     3951     3932     3906     4102     4348     4344 
    4201     4139     4140     4207     4418     4584     4455     4109 
    3831     3798     3940     4072     4120     4058     3896     3861 
    4120     4411     4456     4394     4384     4271     3983     3823 
    3997     4248     4212     3989     3975     4128     4106     4028 
    4156     4321     4315     4198     4064     4006     4102     4276 
    4315     4159     3993     3952     4037     4163     4168     4081 
    4102     4176     4074     3935     4097     4406     4459     4295 
    4144     4002     3917     4027     4229     4311     4241     4135 
    4074     4075     4124     4147     4091     4055     4114     4133 
    4055     4081     4288     4432     4303     4067     3983     4009 
    3996     3971     4014     4128     4267     4356     4356     4283 
    4139     3928     3775     3843     4032     4125     4158     4233 
    4301     4333     4351     4314     4198     4059     3960     3916 
    3909     3935     4029     4159     4182     4148     4243     4344 
    4247     4144     4230     4309     4249     4218     4275     4272 
    4129     3935     3848     3889     3979     4152     4302     4232 
