Origin Time       2025/03/30 22:55:00
Lat.              41.993
Long.             142.725
Depth. (km)       55
Mag.              4.6
Station Code      IWTH07
Station Lat.      40.2705
Station Long.     141.5709
Station Height(m) 140
Record Time       2025/03/30 22:56:57
Sampling Freq(Hz) 100Hz
Duration Time(s)  120
Dir.              3
Scale Factor      2942(gal)/8224139
Max. Acc. (gal)   0.114
Last Correction   2025/03/30 22:56:58
Memo.             
  -41489   -41481   -41477   -41459   -41408   -41370   -41382   -41420 
  -41455   -41451   -41415   -41392   -41388   -41408   -41447   -41443 
  -41407   -41412   -41458   -41480   -41455   -41403   -41377   -41413 
  -41450   -41411   -41369   -41418   -41481   -41478   -41454   -41413 
  -41376   -41413   -41485   -41528   -41534   -41466   -41380   -41385 
  -41450   -41501   -41511   -41476   -41450   -41467   -41431   -41345 
  -41355   -41411   -41400   -41392   -41409   -41405   -41396   -41393 
  -41416   -41467   -41467   -41428   -41449   -41492   -41457   -41403 
  -41423   -41458   -41449   -41440   -41459   -41472   -41440   -41399 
  -41423   -41474   -41462   -41416   -41380   -41376   -41397   -41405 
  -41420   -41434   -41386   -41342   -41405   -41496   -41524   -41503 
  -41432   -41366   -41389   -41465   -41488   -41482   -41512   -41509 
  -41466   -41449   -41420   -41386   -41416   -41472   -41463   -41403 
  -41357   -41357   -41405   -41462   -41458   -41439   -41445   -41430 
  -41432   -41469   -41463   -41443   -41449   -41461   -41481   -41458 
  -41384   -41384   -41462   -41484   -41440   -41423   -41416   -41382 
  -41400   -41492   -41532   -41493   -41443   -41395   -41369   -41405 
  -41440   -41416   -41372   -41380   -41443   -41481   -41447   -41405 
  -41409   -41442   -41480   -41508   -41476   -41399   -41396   -41463 
  -41493   -41450   -41393   -41386   -41407   -41408   -41430   -41497 
  -41530   -41480   -41404   -41386   -41442   -41476   -41445   -41419 
  -41404   -41376   -41378   -41404   -41413   -41462   -41520   -41500 
  -41489   -41513   -41439   -41328   -41323   -41396   -41434   -41404 
  -41369   -41359   -41357   -41378   -41409   -41403   -41409   -41453 
  -41443   -41466   -41563   -41543   -41422   -41376   -41401   -41431 
  -41462   -41497   -41528   -41526   -41477   -41447   -41473   -41459 
  -41430   -41453   -41445   -41423   -41449   -41431   -41397   -41405 
  -41393   -41384   -41434   -41473   -41469   -41442   -41397   -41388 
  -41442   -41472   -41411   -41357   -41409   -41486   -41470   -41420 
  -41438   -41480   -41474   -41461   -41480   -41492   -41493   -41476 
  -41401   -41399   -41511   -41519   -41405   -41343   -41351   -41389 
  -41442   -41477   -41454   -41365   -41318   -41385   -41467   -41472 
  -41399   -41350   -41403   -41472   -41476   -41432   -41382   -41365 
  -41366   -41405   -41499   -41523   -41472   -41465   -41466   -41459 
  -41466   -41440   -41434   -41457   -41447   -41438   -41426   -41404 
  -41409   -41440   -41504   -41542   -41501   -41458   -41434   -41423 
  -41455   -41458   -41419   -41438   -41457   -41411   -41359   -41350 
  -41388   -41419   -41404   -41428   -41499   -41492   -41412   -41376 
  -41404   -41446   -41478   -41470   -41416   -41422   -41484   -41447 
  -41357   -41349   -41386   -41396   -41393   -41413   -41439   -41439 
  -41459   -41499   -41493   -41474   -41486   -41467   -41423   -41409 
  -41404   -41393   -41392   -41389   -41399   -41424   -41431   -41423 
  -41415   -41404   -41412   -41465   -41530   -41508   -41436   -41457 
  -41489   -41435   -41411   -41450   -41467   -41436   -41393   -41388 
  -41401   -41392   -41401   -41458   -41489   -41442   -41397   -41432 
  -41462   -41443   -41412   -41407   -41466   -41497   -41442   -41422 
  -41439   -41438   -41440   -41412   -41374   -41389   -41426   -41458 
  -41454   -41422   -41428   -41439   -41404   -41377   -41409   -41486 
  -41520   -41480   -41451   -41449   -41449   -41466   -41461   -41440 
  -41453   -41450   -41432   -41459   -41474   -41419   -41372   -41385 
  -41393   -41372   -41378   -41420   -41463   -41461   -41408   -41403 
  -41423   -41397   -41422   -41465   -41467   -41515   -41521   -41462 
  -41485   -41492   -41422   -41419   -41476   -41519   -41519   -41440 
  -41346   -41318   -41357   -41409   -41432   -41435   -41413   -41382 
  -41395   -41436   -41467   -41473   -41454   -41447   -41463   -41457 
  -41436   -41431   -41422   -41422   -41408   -41369   -41347   -41328 
  -41315   -41392   -41516   -41538   -41459   -41412   -41408   -41404 
  -41449   -41497   -41467   -41430   -41413   -41396   -41415   -41435 
  -41427   -41434   -41440   -41457   -41501   -41496   -41435   -41419 
  -41457   -41472   -41447   -41412   -41393   -41419   -41446   -41418 
  -41399   -41455   -41511   -41481   -41436   -41449   -41465   -41473 
  -41503   -41508   -41458   -41404   -41401   -41457   -41497   -41439 
  -41350   -41343   -41396   -41432   -41392   -41319   -41359   -41461 
  -41461   -41422   -41449   -41497   -41500   -41477   -41455   -41418 
  -41404   -41449   -41467   -41420   -41400   -41419   -41418   -41427 
  -41447   -41436   -41430   -41439   -41462   -41478   -41434   -41370 
  -41346   -41391   -41478   -41481   -41420   -41424   -41450   -41449 
  -41480   -41500   -41481   -41493   -41480   -41415   -41419   -41440 
  -41403   -41373   -41368   -41407   -41459   -41423   -41377   -41424 
  -41488   -41494   -41453   -41426   -41454   -41484   -41481   -41461 
  -41431   -41399   -41405   -41472   -41492   -41413   -41359   -41351 
  -41365   -41436   -41484   -41423   -41346   -41374   -41427   -41397 
  -41358   -41355   -41372   -41415   -41443   -41443   -41461   -41474 
  -41467   -41474   -41474   -41442   -41443   -41508   -41534   -41469 
  -41416   -41443   -41473   -41449   -41423   -41447   -41516   -41544 
  -41488   -41438   -41411   -41370   -41401   -41474   -41467   -41397 
  -41331   -41347   -41427   -41435   -41407   -41436   -41462   -41467 
  -41478   -41470   -41462   -41443   -41413   -41445   -41497   -41493 
  -41480   -41490   -41488   -41472   -41420   -41372   -41405   -41439 
  -41401   -41400   -41443   -41408   -41308   -41247   -41285   -41404 
  -41488   -41494   -41473   -41426   -41386   -41404   -41430   -41431 
  -41478   -41542   -41515   -41430   -41378   -41368   -41413   -41466 
  -41458   -41435   -41445   -41454   -41451   -41435   -41407   -41427 
  -41508   -41547   -41497   -41418   -41392   -41434   -41467   -41459 
  -41409   -41365   -41403   -41449   -41428   -41408   -41427   -41451 
  -41440   -41442   -41477   -41474   -41438   -41403   -41416   -41503 
  -41507   -41407   -41351   -41351   -41428   -41494   -41438   -41419 
  -41462   -41449   -41436   -41453   -41488   -41513   -41459   -41411 
  -41419   -41391   -41357   -41386   -41401   -41388   -41403   -41391 
  -41353   -41412   -41501   -41493   -41473   -41494   -41497   -41473 
  -41450   -41473   -41543   -41554   -41485   -41431   -41407   -41389 
  -41405   -41422   -41382   -41351   -41384   -41440   -41485   -41473 
  -41396   -41364   -41420   -41477   -41493   -41461   -41399   -41396 
  -41434   -41426   -41409   -41407   -41392   -41389   -41400   -41428 
  -41474   -41446   -41388   -41395   -41405   -41428   -41486   -41467 
  -41405   -41391   -41403   -41430   -41453   -41463   -41477   -41447 
  -41403   -41403   -41413   -41453   -41513   -41496   -41453   -41457 
  -41440   -41449   -41527   -41559   -41527   -41486   -41427   -41411 
  -41447   -41407   -41359   -41427   -41496   -41470   -41408   -41349 
  -41339   -41420   -41497   -41488   -41465   -41465   -41447   -41423 
  -41407   -41393   -41378   -41366   -41388   -41446   -41442   -41372 
  -41357   -41384   -41392   -41416   -41427   -41415   -41459   -41521 
  -41515   -41477   -41453   -41432   -41430   -41458   -41485   -41463 
  -41401   -41384   -41431   -41436   -41395   -41415   -41449   -41401 
  -41380   -41439   -41492   -41528   -41505   -41407   -41374   -41396 
  -41374   -41382   -41445   -41474   -41420   -41361   -41411   -41467 
  -41430   -41408   -41443   -41501   -41535   -41463   -41369   -41395 
  -41478   -41490   -41455   -41428   -41401   -41399   -41419   -41431 
  -41430   -41405   -41389   -41422   -41455   -41480   -41492   -41442 
  -41369   -41354   -41416   -41474   -41438   -41388   -41411   -41424 
  -41420   -41443   -41469   -41496   -41484   -41443   -41458   -41500 
  -41492   -41434   -41370   -41358   -41374   -41392   -41426   -41449 
  -41459   -41477   -41469   -41462   -41465   -41445   -41450   -41486 
  -41507   -41492   -41449   -41408   -41403   -41416   -41416   -41415 
  -41439   -41447   -41418   -41393   -41395   -41411   -41442   -41470 
  -41440   -41376   -41385   -41443   -41435   -41405   -41435   -41489 
  -41482   -41405   -41385   -41434   -41430   -41432   -41497   -41486 
  -41419   -41434   -41473   -41451   -41435   -41455   -41473   -41469 
  -41434   -41399   -41397   -41412   -41439   -41450   -41411   -41395 
  -41449   -41467   -41434   -41434   -41447   -41438   -41430   -41423 
  -41411   -41416   -41413   -41376   -41369   -41409   -41438   -41457 
  -41478   -41462   -41439   -41486   -41548   -41550   -41534   -41513 
  -41458   -41416   -41436   -41476   -41467   -41403   -41370   -41415 
  -41458   -41461   -41430   -41389   -41408   -41466   -41488   -41501 
  -41505   -41434   -41359   -41408   -41478   -41447   -41407   -41400 
  -41373   -41370   -41438   -41484   -41436   -41366   -41359   -41413 
  -41453   -41422   -41370   -41339   -41331   -41377   -41416   -41382 
  -41368   -41407   -41447   -41480   -41490   -41463   -41435   -41440 
  -41457   -41467   -41504   -41489   -41413   -41416   -41440   -41415 
  -41438   -41462   -41423   -41388   -41384   -41408   -41439   -41435 
  -41395   -41364   -41378   -41423   -41481   -41508   -41446   -41380 
  -41409   -41476   -41497   -41489   -41476   -41455   -41459   -41500 
  -41523   -41507   -41480   -41447   -41438   -41459   -41440   -41393 
  -41389   -41399   -41366   -41331   -41362   -41434   -41451   -41424 
  -41427   -41465   -41499   -41477   -41416   -41411   -41455   -41480 
  -41494   -41503   -41458   -41404   -41405   -41422   -41400   -41373 
  -41384   -41420   -41457   -41480   -41458   -41420   -41420   -41455 
  -41470   -41453   -41470   -41499   -41451   -41408   -41419   -41404 
  -41378   -41368   -41357   -41408   -41494   -41511   -41482   -41473 
  -41486   -41530   -41531   -41434   -41376   -41440   -41492   -41446 
  -41407   -41418   -41413   -41396   -41399   -41413   -41405   -41370 
  -41359   -41385   -41416   -41457   -41455   -41374   -41315   -41351 
  -41420   -41449   -41424   -41422   -41486   -41493   -41423   -41395 
  -41419   -41493   -41585   -41565   -41462   -41432   -41466   -41463 
  -41426   -41419   -41420   -41403   -41424   -41469   -41472   -41418 
  -41351   -41362   -41446   -41486   -41463   -41450   -41443   -41418 
  -41399   -41377   -41365   -41411   -41480   -41492   -41445   -41420 
  -41443   -41439   -41426   -41467   -41520   -41519   -41457   -41399 
  -41389   -41396   -41400   -41392   -41396   -41446   -41473   -41419 
  -41369   -41391   -41462   -41508   -41449   -41353   -41342   -41372 
  -41373   -41380   -41377   -41355   -41392   -41435   -41411   -41430 
  -41496   -41500   -41478   -41455   -41435   -41480   -41523   -41486 
  -41445   -41434   -41470   -41550   -41536   -41427   -41376   -41400 
  -41438   -41453   -41408   -41373   -41388   -41403   -41435   -41476 
  -41458   -41447   -41440   -41396   -41418   -41469   -41443   -41430 
  -41458   -41474   -41463   -41428   -41404   -41391   -41386   -41420 
  -41447   -41446   -41450   -41463   -41478   -41474   -41455   -41385 
  -41303   -41385   -41512   -41494   -41494   -41526   -41497   -41526 
  -41589   -41594   -41561   -41500   -41458   -41484   -41516   -41469 
  -41372   -41318   -41293   -41243   -41199   -41188   -41181   -41150 
  -41135   -41203   -41310   -41385   -41413   -41409   -41443   -41512 
  -41553   -41624   -41709   -41728   -41743   -41751   -41694   -41620 
  -41578   -41539   -41467   -41424   -41428   -41405   -41393   -41427 
  -41419   -41369   -41307   -41239   -41237   -41304   -41380   -41408 
  -41378   -41345   -41358   -41401   -41450   -41517   -41548   -41493 
  -41426   -41423   -41458   -41454   -41396   -41369   -41369   -41346 
  -41358   -41395   -41395   -41396   -41435   -41461   -41432   -41416 
  -41450   -41461   -41454   -41434   -41345   -41305   -41416   -41521 
  -41523   -41507   -41478   -41374   -41299   -41380   -41527   -41594 
  -41554   -41467   -41434   -41470   -41508   -41517   -41519   -41538 
  -41527   -41449   -41405   -41442   -41455   -41439   -41451   -41463 
  -41466   -41438   -41335   -41226   -41237   -41323   -41326   -41287 
  -41303   -41285   -41268   -41370   -41443   -41413   -41465   -41550 
  -41531   -41535   -41607   -41650   -41670   -41666   -41585   -41480 
  -41432   -41449   -41481   -41486   -41467   -41447   -41415   -41401 
  -41405   -41377   -41366   -41391   -41408   -41436   -41465   -41485 
  -41488   -41420   -41354   -41400   -41513   -41554   -41481   -41405 
  -41397   -41413   -41432   -41397   -41342   -41400   -41453   -41353 
  -41283   -41355   -41439   -41439   -41378   -41326   -41338   -41416 
  -41484   -41423   -41303   -41293   -41334   -41339   -41365   -41388 
  -41395   -41427   -41459   -41489   -41503   -41481   -41550   -41682 
  -41654   -41530   -41488   -41493   -41539   -41573   -41476   -41354 
  -41310   -41301   -41347   -41403   -41439   -41532   -41590   -41511 
  -41439   -41482   -41553   -41605   -41605   -41531   -41494   -41512 
  -41470   -41442   -41517   -41577   -41535   -41461   -41408   -41382 
  -41382   -41346   -41226   -41123   -41172   -41257   -41197   -41115 
  -41131   -41173   -41246   -41347   -41393   -41399   -41420   -41451 
  -41499   -41547   -41511   -41447   -41473   -41507   -41511   -41546 
  -41557   -41501   -41445   -41447   -41465   -41427   -41411   -41455 
  -41476   -41465   -41476   -41516   -41551   -41538   -41505   -41507 
  -41507   -41497   -41501   -41480   -41431   -41422   -41454   -41461 
  -41450   -41459   -41461   -41482   -41542   -41544   -41503   -41493 
  -41499   -41505   -41493   -41450   -41393   -41326   -41239   -41166 
  -41183   -41272   -41330   -41331   -41273   -41207   -41251   -41395 
  -41536   -41598   -41548   -41469   -41432   -41435   -41494   -41538 
  -41469   -41365   -41326   -41323   -41319   -41322   -41377   -41466 
  -41494   -41499   -41543   -41585   -41601   -41557   -41474   -41470 
  -41496   -41466   -41453   -41465   -41435   -41391   -41366   -41334 
  -41323   -41370   -41426   -41449   -41449   -41408   -41345   -41366 
  -41472   -41501   -41447   -41411   -41400   -41418   -41476   -41492 
  -41432   -41396   -41416   -41458   -41554   -41640   -41638   -41600 
  -41574   -41543   -41482   -41461   -41540   -41594   -41523   -41412 
  -41353   -41359   -41396   -41419   -41424   -41388   -41332   -41316 
  -41292   -41239   -41266   -41357   -41374   -41337   -41355   -41397 
  -41389   -41365   -41349   -41366   -41457   -41523   -41477   -41418 
  -41435   -41476   -41478   -41509   -41589   -41586   -41469   -41366 
  -41362   -41428   -41466   -41413   -41365   -41409   -41443   -41413 
  -41418   -41477   -41544   -41581   -41555   -41500   -41440   -41386 
  -41381   -41381   -41320   -41281   -41319   -41358   -41380   -41400 
  -41420   -41449   -41485   -41499   -41467   -41436   -41445   -41485 
  -41526   -41517   -41508   -41557   -41566   -41485   -41401   -41389 
  -41418   -41396   -41353   -41361   -41373   -41357   -41328   -41349 
  -41401   -41366   -41319   -41359   -41409   -41432   -41389   -41285 
  -41274   -41377   -41500   -41602   -41629   -41555   -41492   -41520 
  -41565   -41573   -41592   -41623   -41607   -41571   -41555   -41515 
  -41472   -41477   -41462   -41416   -41381   -41341   -41324   -41339 
  -41345   -41359   -41392   -41385   -41345   -41384   -41509   -41551 
  -41465   -41388   -41343   -41278   -41280   -41392   -41449   -41422 
  -41416   -41380   -41330   -41380   -41439   -41450   -41484   -41505 
  -41494   -41477   -41430   -41397   -41413   -41420   -41388   -41347 
  -41350   -41420   -41486   -41501   -41532   -41577   -41554   -41519 
  -41523   -41507   -41470   -41439   -41423   -41458   -41500   -41494 
  -41467   -41447   -41419   -41349   -41284   -41312   -41397   -41465 
  -41486   -41443   -41365   -41320   -41353   -41407   -41427   -41455 
  -41463   -41397   -41342   -41342   -41365   -41409   -41457   -41488 
  -41486   -41463   -41467   -41500   -41530   -41534   -41497   -41443 
  -41407   -41403   -41454   -41523   -41517   -41462   -41422   -41385 
  -41389   -41385   -41289   -41226   -41272   -41335   -41351   -41339 
  -41370   -41428   -41436   -41428   -41446   -41466   -41476   -41499 
  -41548   -41571   -41540   -41508   -41470   -41426   -41430   -41434 
  -41420   -41432   -41427   -41424   -41438   -41400   -41376   -41428 
  -41453   -41423   -41430   -41457   -41438   -41424   -41445   -41467 
  -41503   -41527   -41515   -41515   -41520   -41519   -41524   -41501 
  -41486   -41497   -41447   -41384   -41408   -41427   -41396   -41385 
  -41380   -41362   -41358   -41359   -41359   -41343   -41307   -41303 
  -41343   -41384   -41422   -41480   -41480   -41422   -41442   -41508 
  -41526   -41535   -41532   -41509   -41516   -41508   -41463   -41445 
  -41449   -41442   -41443   -41426   -41385   -41416   -41494   -41500 
  -41465   -41436   -41391   -41372   -41420   -41474   -41472   -41434 
  -41388   -41349   -41362   -41400   -41377   -41346   -41364   -41365 
  -41366   -41405   -41385   -41346   -41405   -41473   -41488   -41490 
  -41466   -41423   -41416   -41462   -41515   -41497   -41449   -41434 
  -41420   -41418   -41458   -41499   -41505   -41500   -41482   -41459 
  -41454   -41482   -41489   -41438   -41413   -41454   -41476   -41458 
  -41420   -41373   -41393   -41470   -41496   -41474   -41436   -41370 
  -41330   -41330   -41341   -41373   -41392   -41384   -41426   -41478 
  -41459   -41422   -41418   -41430   -41463   -41509   -41565   -41600 
  -41557   -41473   -41409   -41388   -41424   -41447   -41400   -41341 
  -41315   -41326   -41365   -41388   -41391   -41419   -41431   -41400 
  -41427   -41489   -41478   -41443   -41446   -41447   -41436   -41438 
  -41435   -41434   -41482   -41519   -41449   -41368   -41380   -41439 
  -41497   -41538   -41530   -41482   -41461   -41478   -41474   -41446 
  -41431   -41401   -41357   -41342   -41357   -41384   -41411   -41418 
  -41423   -41422   -41404   -41407   -41424   -41412   -41415   -41455 
  -41449   -41405   -41409   -41454   -41480   -41462   -41436   -41455 
  -41490   -41499   -41504   -41501   -41451   -41412   -41438   -41446 
  -41397   -41399   -41488   -41520   -41430   -41346   -41345   -41373 
  -41397   -41430   -41451   -41454   -41459   -41458   -41453   -41435 
  -41397   -41393   -41423   -41428   -41422   -41395   -41359   -41369 
  -41413   -41454   -41474   -41474   -41467   -41503   -41557   -41550 
  -41512   -41482   -41430   -41376   -41337   -41323   -41357   -41404 
  -41422   -41419   -41422   -41409   -41386   -41408   -41427   -41409 
  -41430   -41465   -41439   -41416   -41408   -41350   -41327   -41407 
  -41469   -41462   -41461   -41455   -41420   -41418   -41458   -41485 
  -41469   -41453   -41484   -41534   -41534   -41477   -41403   -41377 
  -41419   -41445   -41442   -41467   -41481   -41443   -41388   -41376 
  -41411   -41422   -41407   -41436   -41490   -41509   -41499   -41466 
