Origin Time       2025/03/30 22:55:00
Lat.              41.993
Long.             142.725
Depth. (km)       55
Mag.              4.6
Station Code      IWTH07
Station Lat.      40.2705
Station Long.     141.5709
Station Height(m) 140
Record Time       2025/03/30 22:56:57
Sampling Freq(Hz) 100Hz
Duration Time(s)  120
Dir.              1
Scale Factor      2942(gal)/8224139
Max. Acc. (gal)   0.150
Last Correction   2025/03/30 22:56:58
Memo.             
  -38199   -38178   -38134   -38134   -38172   -38188   -38192   -38198 
  -38187   -38179   -38188   -38203   -38190   -38160   -38152   -38151 
  -38167   -38210   -38221   -38196   -38160   -38134   -38152   -38180 
  -38198   -38199   -38182   -38188   -38203   -38188   -38183   -38214 
  -38237   -38214   -38180   -38160   -38152   -38176   -38192   -38173 
  -38178   -38190   -38157   -38133   -38151   -38172   -38182   -38173 
  -38145   -38128   -38161   -38210   -38218   -38187   -38159   -38157 
  -38142   -38115   -38144   -38207   -38217   -38205   -38226   -38254 
  -38252   -38205   -38155   -38156   -38175   -38165   -38148   -38146 
  -38163   -38202   -38240   -38229   -38192   -38194   -38192   -38144 
  -38113   -38134   -38163   -38192   -38233   -38259   -38238   -38199 
  -38194   -38182   -38133   -38119   -38149   -38157   -38148   -38159 
  -38183   -38207   -38236   -38238   -38198   -38152   -38133   -38125 
  -38126   -38148   -38156   -38161   -38207   -38230   -38202   -38192 
  -38195   -38184   -38182   -38175   -38171   -38153   -38111   -38128 
  -38190   -38207   -38194   -38196   -38200   -38191   -38172   -38168 
  -38182   -38184   -38176   -38190   -38200   -38203   -38221   -38213 
  -38165   -38145   -38165   -38167   -38149   -38160   -38172   -38155 
  -38152   -38172   -38186   -38178   -38163   -38153   -38130   -38110 
  -38145   -38213   -38244   -38232   -38210   -38195   -38194   -38211 
  -38200   -38161   -38165   -38186   -38175   -38173   -38182   -38164 
  -38151   -38160   -38159   -38167   -38196   -38200   -38191   -38199 
  -38206   -38230   -38256   -38232   -38179   -38145   -38134   -38134 
  -38134   -38134   -38142   -38151   -38157   -38183   -38207   -38213 
  -38219   -38219   -38198   -38167   -38136   -38151   -38210   -38244 
  -38226   -38187   -38153   -38148   -38164   -38165   -38165   -38206 
  -38248   -38230   -38203   -38209   -38214   -38206   -38171   -38126 
  -38111   -38113   -38121   -38146   -38195   -38241   -38225   -38163 
  -38136   -38141   -38153   -38175   -38179   -38161   -38151   -38146 
  -38129   -38128   -38183   -38244   -38249   -38203   -38142   -38128 
  -38173   -38195   -38171   -38159   -38175   -38203   -38210   -38178 
  -38172   -38222   -38238   -38206   -38194   -38198   -38196   -38209 
  -38210   -38176   -38152   -38169   -38180   -38159   -38171   -38213 
  -38198   -38157   -38145   -38142   -38149   -38168   -38178   -38176 
  -38175   -38168   -38171   -38200   -38206   -38182   -38171   -38146 
  -38130   -38190   -38244   -38219   -38180   -38167   -38160   -38153 
  -38160   -38191   -38219   -38198   -38138   -38101   -38107   -38160 
  -38214   -38210   -38188   -38205   -38236   -38242   -38191   -38119 
  -38110   -38153   -38180   -38188   -38192   -38187   -38187   -38184 
  -38172   -38179   -38179   -38152   -38134   -38156   -38199   -38230 
  -38245   -38245   -38230   -38211   -38182   -38155   -38172   -38209 
  -38206   -38171   -38138   -38126   -38141   -38164   -38171   -38184 
  -38207   -38202   -38182   -38176   -38169   -38164   -38171   -38163 
  -38156   -38191   -38225   -38206   -38169   -38161   -38171   -38183 
  -38206   -38226   -38215   -38179   -38148   -38144   -38142   -38144 
  -38190   -38237   -38222   -38187   -38165   -38156   -38186   -38205 
  -38156   -38117   -38165   -38233   -38242   -38246   -38249   -38186 
  -38125   -38109   -38098   -38130   -38207   -38254   -38245   -38209 
  -38191   -38192   -38180   -38163   -38168   -38175   -38173   -38183 
  -38186   -38172   -38179   -38186   -38163   -38156   -38163   -38165 
  -38198   -38213   -38168   -38145   -38176   -38187   -38156   -38142 
  -38172   -38215   -38227   -38205   -38180   -38159   -38136   -38149 
  -38194   -38219   -38215   -38195   -38153   -38107   -38101   -38141 
  -38186   -38207   -38210   -38190   -38159   -38160   -38179   -38163 
  -38134   -38138   -38176   -38205   -38195   -38173   -38183   -38206 
  -38217   -38215   -38176   -38115   -38128   -38202   -38232   -38213 
  -38202   -38210   -38226   -38225   -38184   -38153   -38172   -38191 
  -38169   -38133   -38142   -38200   -38240   -38225   -38191   -38169 
  -38159   -38180   -38219   -38225   -38196   -38186   -38186   -38159 
  -38144   -38153   -38138   -38129   -38137   -38149   -38179   -38187 
  -38153   -38134   -38149   -38179   -38194   -38165   -38148   -38176 
  -38217   -38230   -38215   -38188   -38149   -38122   -38133   -38142 
  -38151   -38202   -38237   -38210   -38202   -38241   -38226   -38160 
  -38138   -38161   -38199   -38242   -38225   -38169   -38160   -38182 
  -38191   -38173   -38137   -38125   -38132   -38149   -38173   -38173 
  -38163   -38183   -38234   -38272   -38246   -38196   -38164   -38132 
  -38148   -38202   -38211   -38190   -38183   -38190   -38199   -38198 
  -38195   -38207   -38205   -38155   -38102   -38126   -38184   -38173 
  -38129   -38134   -38171   -38194   -38198   -38184   -38167   -38153 
  -38140   -38153   -38200   -38222   -38203   -38191   -38203   -38194 
  -38175   -38179   -38163   -38146   -38186   -38210   -38183   -38168 
  -38167   -38169   -38195   -38205   -38176   -38163   -38179   -38190 
  -38182   -38186   -38209   -38222   -38214   -38186   -38146   -38148 
  -38180   -38161   -38119   -38148   -38198   -38218   -38257   -38311 
  -38284   -38194   -38156   -38173   -38167   -38151   -38167   -38180 
  -38163   -38149   -38171   -38196   -38173   -38118   -38099   -38130 
  -38172   -38206   -38237   -38236   -38182   -38142   -38142   -38134 
  -38148   -38179   -38160   -38142   -38179   -38195   -38176   -38156 
  -38132   -38136   -38161   -38173   -38192   -38226   -38241   -38223 
  -38190   -38160   -38151   -38159   -38164   -38157   -38163   -38180 
  -38183   -38180   -38194   -38192   -38192   -38222   -38218   -38178 
  -38152   -38130   -38118   -38157   -38215   -38233   -38225   -38227 
  -38233   -38217   -38191   -38163   -38113   -38078   -38095   -38136 
  -38172   -38194   -38222   -38265   -38267   -38232   -38200   -38175 
  -38172   -38165   -38148   -38184   -38232   -38215   -38186   -38192 
  -38200   -38180   -38165   -38153   -38126   -38132   -38157   -38140 
  -38140   -38186   -38207   -38217   -38222   -38175   -38149   -38198 
  -38218   -38151   -38101   -38149   -38221   -38229   -38190   -38155 
  -38146   -38133   -38138   -38205   -38225   -38171   -38168   -38203 
  -38186   -38163   -38178   -38192   -38188   -38180   -38187   -38218 
  -38217   -38164   -38128   -38140   -38164   -38163   -38152   -38164 
  -38172   -38167   -38192   -38214   -38165   -38134   -38167   -38167 
  -38159   -38182   -38168   -38161   -38207   -38218   -38176   -38157 
  -38186   -38213   -38199   -38171   -38168   -38186   -38217   -38230 
  -38198   -38164   -38153   -38172   -38219   -38211   -38153   -38149 
  -38171   -38172   -38199   -38230   -38206   -38161   -38130   -38140 
  -38215   -38281   -38265   -38202   -38146   -38145   -38192   -38232 
  -38245   -38219   -38148   -38082   -38074   -38121   -38200   -38236 
  -38188   -38155   -38165   -38169   -38176   -38173   -38165   -38196 
  -38227   -38203   -38172   -38179   -38179   -38144   -38130   -38144 
  -38151   -38182   -38225   -38217   -38148   -38095   -38117   -38153 
  -38178   -38213   -38205   -38157   -38138   -38163   -38195   -38196 
  -38176   -38148   -38125   -38161   -38236   -38240   -38188   -38184 
  -38198   -38160   -38148   -38180   -38175   -38168   -38199   -38222 
  -38227   -38230   -38218   -38195   -38186   -38195   -38199   -38192 
  -38172   -38153   -38160   -38159   -38138   -38142   -38160   -38171 
  -38207   -38263   -38280   -38234   -38175   -38176   -38209   -38190 
  -38140   -38118   -38133   -38168   -38195   -38198   -38176   -38161 
  -38176   -38183   -38178   -38198   -38217   -38205   -38175   -38146 
  -38153   -38200   -38206   -38171   -38171   -38186   -38173   -38180 
  -38188   -38164   -38151   -38167   -38184   -38199   -38218   -38230 
  -38206   -38155   -38137   -38192   -38253   -38230   -38187   -38190 
  -38183   -38172   -38179   -38159   -38141   -38186   -38210   -38151 
  -38117   -38152   -38178   -38175   -38171   -38165   -38129   -38101 
  -38132   -38153   -38145   -38180   -38210   -38188   -38173   -38179 
  -38175   -38163   -38172   -38187   -38175   -38179   -38175   -38115 
  -38101   -38144   -38155   -38179   -38218   -38206   -38198   -38227 
  -38221   -38195   -38202   -38202   -38188   -38186   -38168   -38164 
  -38187   -38206   -38222   -38215   -38180   -38180   -38210   -38199 
  -38176   -38179   -38172   -38180   -38219   -38206   -38151   -38148 
  -38163   -38133   -38111   -38126   -38146   -38175   -38196   -38184 
  -38182   -38215   -38233   -38219   -38190   -38153   -38130   -38136 
  -38173   -38223   -38245   -38227   -38190   -38160   -38161   -38191 
  -38202   -38182   -38175   -38176   -38184   -38214   -38237   -38244 
  -38252   -38257   -38253   -38230   -38186   -38152   -38140   -38124 
  -38138   -38191   -38187   -38133   -38126   -38137   -38124   -38148 
  -38206   -38225   -38214   -38190   -38145   -38109   -38098   -38113 
  -38142   -38160   -38165   -38187   -38241   -38292   -38286   -38227 
  -38186   -38179   -38165   -38134   -38109   -38099   -38144   -38217 
  -38236   -38207   -38164   -38113   -38109   -38148   -38176   -38179 
  -38172   -38187   -38221   -38225   -38199   -38168   -38160   -38206 
  -38260   -38234   -38165   -38151   -38198   -38241   -38246   -38229 
  -38205   -38194   -38207   -38206   -38198   -38226   -38219   -38167 
  -38172   -38194   -38176   -38183   -38211   -38206   -38202   -38222 
  -38237   -38233   -38215   -38169   -38115   -38091   -38095   -38125 
  -38173   -38186   -38144   -38074   -38024   -38051   -38134   -38200 
  -38242   -38294   -38310   -38233   -38118   -38059   -38076   -38119 
  -38144   -38168   -38221   -38281   -38287   -38221   -38140   -38102 
  -38119   -38182   -38257   -38287   -38244   -38164   -38132   -38167 
  -38161   -38082   -38070   -38126   -38102   -38038   -38067   -38111 
  -38099   -38138   -38234   -38261   -38236   -38259   -38310   -38299 
  -38206   -38121   -38095   -38095   -38129   -38194   -38237   -38229 
  -38192   -38182   -38225   -38264   -38240   -38188   -38138   -38092 
  -38114   -38203   -38245   -38213   -38171   -38140   -38118   -38125 
  -38179   -38232   -38249   -38284   -38331   -38314   -38265   -38253 
  -38211   -38152   -38180   -38225   -38188   -38146   -38140   -38124 
  -38121   -38151   -38159   -38119   -38092   -38145   -38218   -38217 
  -38165   -38124   -38125   -38145   -38129   -38086   -38084   -38119 
  -38144   -38155   -38159   -38161   -38180   -38188   -38191   -38233 
  -38260   -38234   -38237   -38275   -38254   -38165   -38067   -38025 
  -38045   -38092   -38126   -38140   -38188   -38326   -38483   -38557 
  -38524   -38411   -38272   -38183   -38172   -38159   -38095   -38049 
  -38074   -38199   -38421   -38556   -38475   -38321   -38223   -38137 
  -38040   -37994   -38028   -38059   -38016   -37978   -38029   -38128 
  -38200   -38234   -38237   -38210   -38157   -38068   -37925   -37825 
  -37862   -37929   -37952   -38007   -38101   -38167   -38240   -38310 
  -38342   -38369   -38349   -38233   -38117   -38067   -38041   -38047 
  -38152   -38280   -38340   -38396   -38427   -38379   -38337   -38341 
  -38375   -38384   -38284   -38159   -38119   -38152   -38222   -38253 
  -38182   -38101   -38105   -38117   -38041   -37917   -37814   -37810 
  -37944   -38121   -38218   -38202   -38109   -38056   -38138   -38261 
  -38280   -38240   -38248   -38240   -38156   -38134   -38190   -38176 
  -38133   -38148   -38161   -38173   -38191   -38165   -38141   -38163 
  -38182   -38163   -38130   -38119   -38122   -38132   -38173   -38233 
  -38286   -38337   -38367   -38356   -38319   -38271   -38210   -38132 
  -38032   -37971   -37995   -38048   -38071   -38086   -38144   -38260 
  -38357   -38380   -38372   -38377   -38381   -38353   -38275   -38207 
  -38222   -38264   -38213   -38102   -38090   -38238   -38422   -38485 
  -38433   -38321   -38211   -38144   -38051   -37951   -37959   -38057 
  -38115   -38079   -38017   -38002   -38014   -38051   -38148   -38242 
  -38227   -38122   -38047   -38057   -38080   -38055   -38067   -38183 
  -38300   -38295   -38207   -38164   -38219   -38284   -38306   -38326 
  -38300   -38141   -37986   -38026   -38203   -38365   -38470   -38479 
  -38368   -38286   -38329   -38372   -38326   -38240   -38148   -38097 
  -38122   -38182   -38199   -38182   -38186   -38214   -38254   -38331 
  -38380   -38275   -38072   -37881   -37759   -37841   -38103   -38268 
  -38217   -38083   -38022   -38083   -38171   -38183   -38134   -38055 
  -37951   -37905   -37978   -38078   -38083   -37986   -37924   -37984 
  -38106   -38206   -38223   -38168   -38159   -38207   -38226   -38277 
  -38388   -38433   -38403   -38367   -38287   -38165   -38083   -38079 
  -38130   -38203   -38323   -38458   -38507   -38453   -38342   -38207 
  -38067   -37972   -37999   -38061   -38028   -37949   -37899   -37890 
  -37956   -38074   -38157   -38242   -38357   -38356   -38283   -38353 
  -38506   -38566   -38537   -38481   -38427   -38348   -38287   -38295 
  -38272   -38217   -38246   -38280   -38198   -38091   -38078   -38092 
  -38021   -37913   -37887   -37966   -38072   -38126   -38126   -38101 
  -38079   -38106   -38144   -38115   -38086   -38115   -38144   -38159 
  -38152   -38094   -38047   -38044   -38064   -38107   -38106   -38038 
  -38045   -38141   -38190   -38192   -38178   -38118   -38083   -38129 
  -38226   -38338   -38395   -38346   -38225   -38132   -38179   -38326 
  -38449   -38476   -38362   -38169   -38076   -38155   -38290   -38358 
  -38342   -38287   -38261   -38318   -38406   -38443   -38464   -38430 
  -38261   -38090   -38075   -38130   -38133   -38090   -38036   -38018 
  -38106   -38234   -38218   -38057   -37944   -37937   -37949   -37968 
  -38033   -38144   -38206   -38169   -38133   -38167   -38188   -38106 
  -37941   -37835   -37918   -38122   -38257   -38280   -38259   -38273 
  -38313   -38298   -38298   -38373   -38395   -38322   -38226   -38129 
  -38051   -38025   -38043   -38055   -38029   -38029   -38092   -38153 
  -38209   -38276   -38265   -38146   -38065   -38121   -38205   -38237 
  -38214   -38132   -38068   -38090   -38199   -38367   -38493   -38520 
  -38470   -38410   -38411   -38439   -38395   -38259   -38159   -38172 
  -38186   -38144   -38146   -38182   -38190   -38196   -38186   -38161 
  -38194   -38233   -38229   -38140   -37956   -37835   -37836   -37863 
  -37906   -37980   -38075   -38144   -38145   -38178   -38275   -38319 
  -38299   -38249   -38168   -38115   -38075   -38022   -38074   -38236 
  -38372   -38392   -38284   -38146   -38097   -38124   -38161   -38219 
  -38283   -38286   -38256   -38240   -38249   -38287   -38288   -38205 
  -38119   -38114   -38137   -38126   -38133   -38182   -38195   -38182 
  -38182   -38118   -37987   -37963   -38097   -38205   -38190   -38130 
  -38070   -38044   -38060   -38099   -38213   -38333   -38317   -38200 
  -38114   -38110   -38198   -38317   -38330   -38240   -38213   -38261 
  -38294   -38325   -38331   -38284   -38232   -38160   -38105   -38218 
  -38412   -38412   -38246   -38151   -38145   -38173   -38225   -38229 
  -38161   -38074   -37986   -37964   -38016   -38032   -38057   -38141 
  -38152   -38075   -38011   -37971   -37987   -38088   -38164   -38179 
  -38215   -38292   -38326   -38244   -38142   -38146   -38196   -38254 
  -38317   -38280   -38161   -38080   -38109   -38279   -38438   -38395 
  -38232   -38107   -38068   -38109   -38171   -38199   -38219   -38257 
  -38225   -38087   -37995   -38021   -38082   -38137   -38192   -38218 
  -38200   -38184   -38191   -38171   -38111   -38109   -38192   -38276 
  -38334   -38387   -38394   -38357   -38349   -38391   -38400   -38303 
  -38130   -37959   -37917   -38056   -38188   -38205   -38217   -38217 
  -38125   -38020   -37999   -38036   -38059   -38065   -38101   -38149 
  -38163   -38169   -38184   -38149   -38092   -38088   -38132   -38183 
  -38203   -38188   -38172   -38149   -38145   -38198   -38264   -38279 
  -38254   -38273   -38365   -38418   -38388   -38306   -38172   -38083 
  -38118   -38206   -38236   -38164   -38101   -38145   -38222   -38281 
  -38330   -38319   -38259   -38186   -38138   -38145   -38145   -38094 
  -38065   -38083   -38111   -38138   -38149   -38152   -38178   -38192 
  -38186   -38210   -38221   -38198   -38180   -38121   -38047   -38074 
  -38109   -38052   -38036   -38114   -38186   -38227   -38250   -38234 
  -38179   -38067   -37953   -37975   -38103   -38194   -38221   -38218 
  -38179   -38132   -38171   -38298   -38358   -38294   -38188   -38153 
  -38227   -38300   -38261   -38209   -38238   -38306   -38338   -38308 
  -38221   -38128   -38128   -38199   -38190   -38122   -38145   -38199 
  -38142   -38099   -38182   -38230   -38213   -38227   -38187   -38094 
  -38086   -38124   -38144   -38187   -38227   -38215   -38180   -38188 
  -38259   -38325   -38298   -38214   -38175   -38206   -38249   -38226 
  -38179   -38171   -38157   -38140   -38155   -38165   -38126   -38065 
  -38071   -38126   -38146   -38152   -38140   -38080   -38049   -38097 
  -38172   -38178   -38138   -38155   -38160   -38059   -37945   -37959 
  -38075   -38176   -38248   -38321   -38367   -38340   -38242   -38164 
  -38175   -38202   -38173   -38128   -38129   -38184   -38196   -38151 
  -38195   -38346   -38422   -38348   -38215   -38122   -38129   -38180 
  -38179   -38148   -38148   -38195   -38268   -38271   -38146   -38034 
  -38055   -38126   -38190   -38254   -38259   -38213   -38218   -38238 
  -38221   -38199   -38171   -38141   -38190   -38306   -38371   -38317 
  -38161   -38011   -37999   -38086   -38152   -38191   -38183   -38088 
  -37997   -38018   -38113   -38202   -38250   -38256   -38244   -38244 
  -38284   -38352   -38341   -38237   -38144   -38067   -38033   -38125 
  -38249   -38232   -38098   -37994   -37980   -38044   -38156   -38245 
  -38286   -38319   -38327   -38296   -38276   -38245   -38136   -38025 
  -38032   -38098   -38110   -38103   -38161   -38245   -38260   -38207 
  -38183   -38218   -38232   -38213   -38249   -38284   -38211   -38106 
  -38070   -38101   -38160   -38232   -38280   -38245   -38157   -38133 
  -38176   -38203   -38187   -38130   -38076   -38110   -38215   -38273 
  -38283   -38310   -38306   -38209   -38083   -38026   -38056   -38132 
  -38192   -38195   -38163   -38142   -38134   -38124   -38133   -38149 
  -38155   -38172   -38215   -38221   -38165   -38145   -38199   -38249 
  -38250   -38199   -38114   -38080   -38149   -38257   -38321   -38318 
  -38259   -38148   -38038   -37994   -38002   -38038   -38109   -38219 
  -38321   -38314   -38237   -38206   -38207   -38236   -38281   -38269 
  -38234   -38229   -38227   -38244   -38238   -38159   -38101   -38178 
  -38294   -38286   -38219   -38229   -38202   -38090   -38055   -38086 
  -38060   -38063   -38148   -38191   -38163   -38125   -38118   -38157 
  -38186   -38178   -38205   -38230   -38178   -38115   -38094   -38079 
  -38109   -38146   -38118   -38122   -38199   -38241   -38219   -38164 
