Origin Time       2025/03/30 22:55:00
Lat.              41.993
Long.             142.725
Depth. (km)       55
Mag.              4.6
Station Code      IWTH07
Station Lat.      40.2705
Station Long.     141.5709
Station Height(m) 140
Record Time       2025/03/30 22:56:57
Sampling Freq(Hz) 100Hz
Duration Time(s)  120
Dir.              2
Scale Factor      2942(gal)/8224139
Max. Acc. (gal)   0.115
Last Correction   2025/03/30 22:56:58
Memo.             
[...]
    5331     5324     5297     5285     5316     5360     5351     5310 
    5294     5278     5277     5323     5351     5317     5271     5269 
    5308     5332     5312     5298     5310     5304     5298     5309 
    5278     5233     5251     5300     5335     5351     5350     5347 
    5337     5323     5340     5367     5347     5313     5298     5282 
    5270     5290     5313     5287     5271     5316     5344     5348 
    5364     5327     5265     5278     5304     5281     5269     5286 
    5304     5317     5331     5331     5340     5374     5367     5323 
    5312     5321     5292     5250     5263     5327     5343     5279 
    5233     5259     5294     5309     5323     5329     5323     5305 
    5290     5308     5351     5364     5340     5314     5282     5246 
    5244     5283     5302     5309     5341     5366     5368     5364 
    5341     5316     5296     5282     5294     5310     5287     5259 
    5282     5312     5305     5314     5346     5331     5292     5306 
    5336     5306     5271     5282     5293     5287     5290     5297 
    5302     5306     5304     5297     5312     5373     5400     5341 
    5293     5296     5302     5312     5348     5350     5298     5287 
    5317     5328     5343     5335     5285     5287     5323     5297 
    5271     5312     5335     5309     5304     5309     5282     5260 
    5283     5332     5341     5304     5289     5298     5282     5269 
    5302     5337     5332     5323     5331     5323     5321     5346 
    5321     5271     5304     5355     5336     5312     5324     5333 
    5327     5301     5262     5271     5328     5364     5360     5337 
    5320     5298     5259     5254     5296     5329     5331     5304 
    5274     5297     5350     5343     5304     5310     5321     5324 
    5344     5329     5287     5278     5290     5287     5287     5320 
    5360     5351     5313     5289     5274     5282     5309     5317 
    5308     5293     5287     5312     5314     5301     5313     5297 
    5256     5244     5260     5293     5309     5310     5346     5367 
    5325     5305     5336     5341     5321     5308     5294     5293 
    5293     5282     5294     5327     5329     5309     5312     5328 
    5319     5300     5296     5298     5304     5314     5317     5317 
    5321     5327     5328     5308     5286     5308     5333     5301 
    5273     5294     5312     5312     5305     5283     5300     5347 
    5343     5309     5309     5327     5343     5346     5337     5350 
    5343     5294     5281     5300     5285     5274     5290     5289 
    5285     5298     5305     5314     5356     5378     5331     5285 
    5293     5310     5304     5283     5282     5300     5321     5355 
    5382     5375     5340     5304     5302     5332     5331     5297 
    5279     5262     5246     5281     5331     5335     5320     5292 
    5255     5273     5333     5344     5301     5260     5251     5273 
    5301     5323     5341     5347     5336     5310     5269     5236 
    5247     5304     5354     5347     5325     5352     5374     5348 
    5317     5294     5281     5293     5297     5285     5296     5310 
    5314     5333     5339     5328     5352     5383     5358     5297 
    5259     5266     5298     5324     5332     5325     5289     5246 
    5259     5308     5325     5327     5335     5301     5246     5269 
    5332     5340     5317     5306     5327     5362     5368     5344 
    5321     5328     5348     5306     5246     5271     5308     5287 
    5292     5304     5281     5283     5309     5314     5317     5320 
    5320     5319     5310     5300     5300     5312     5325     5325 
    5306     5281     5265     5259     5293     5343     5328     5290 
    5281     5273     5297     5340     5347     5346     5344     5341 
    5348     5340     5335     5347     5333     5302     5298     5313 
    5309     5286     5294     5327     5308     5254     5260     5320 
    5328     5292     5296     5337     5350     5328     5325     5331 
    5306     5297     5328     5325     5297     5321     5325     5279 
    5287     5316     5285     5265     5298     5329     5333     5329 
    5317     5294     5285     5275     5252     5251     5283     5316 
    5341     5362     5343     5308     5323     5344     5327     5305 
    5304     5321     5350     5367     5355     5319     5306     5320 
    5312     5294     5275     5240     5248     5302     5321     5310 
    5309     5298     5286     5300     5309     5300     5308     5323 
    5324     5331     5319     5279     5273     5298     5304     5297 
    5309     5316     5319     5321     5296     5292     5324     5312 
    5289     5339     5387     5355     5301     5281     5294     5312 
    5317     5314     5312     5289     5273     5297     5319     5305 
    5297     5296     5287     5286     5285     5301     5341     5347 
    5296     5281     5332     5383     5382     5336     5292     5287 
    5321     5344     5331     5298     5262     5270     5332     5367 
    5337     5304     5293     5281     5265     5263     5271     5281 
    5289     5293     5310     5321     5283     5271     5325     5358 
    5354     5350     5339     5339     5351     5331     5320     5350 
    5329     5282     5314     5343     5308     5310     5332     5321 
    5321     5309     5262     5251     5279     5278     5256     5267 
    5297     5309     5305     5298     5310     5343     5340     5300 
    5300     5339     5343     5323     5337     5358     5325     5287 
    5309     5336     5309     5283     5319     5359     5359     5336 
    5287     5252     5287     5347     5363     5331     5275     5258 
    5285     5296     5296     5304     5283     5250     5244     5266 
    5296     5319     5310     5278     5263     5293     5336     5341 
    5317     5296     5281     5293     5348     5370     5317     5290 
    5327     5346     5333     5328     5351     5371     5359     5323 
    5277     5265     5321     5366     5320     5266     5283     5313 
    5293     5255     5256     5302     5355     5362     5314     5279 
    5306     5341     5336     5317     5332     5358     5352     5327 
    5313     5319     5325     5324     5325     5328     5308     5281 
    5274     5278     5290     5297     5301     5320     5317     5300 
    5320     5337     5306     5292     5325     5339     5285     5223 
    5238     5285     5273     5247     5286     5340     5346     5332 
    5320     5301     5297     5324     5356     5378     5373     5317 
    5281     5313     5331     5308     5314     5333     5340     5352 
    5336     5294     5274     5278     5310     5327     5281     5263 
    5327     5362     5316     5269     5248     5255     5300     5312 
    5265     5250     5274     5289     5290     5319     5370     5344 
    5269     5263     5293     5312     5340     5347     5317     5296 
    5304     5317     5323     5312     5266     5227     5278     5355 
    5360     5343     5324     5274     5248     5258     5256     5277 
    5331     5354     5337     5327     5324     5298     5282     5319 
    5351     5333     5316     5325     5325     5314     5343     5368 
    5327     5277     5271     5274     5254     5246     5300     5343 
    5317     5325     5378     5344     5275     5289     5309     5269 
    5277     5344     5354     5310     5289     5282     5287     5304 
    5293     5273     5287     5301     5302     5329     5355     5378 
    5378     5310     5258     5277     5279     5255     5281     5321 
    5323     5317     5331     5354     5350     5306     5267     5248 
    5242     5269     5321     5331     5312     5317     5331     5331 
    5328     5310     5302     5317     5304     5292     5352     5409 
    5378     5323     5300     5289     5282     5279     5290     5317 
    5327     5310     5306     5335     5367     5362     5343     5343 
    5325     5298     5302     5319     5328     5350     5367     5358 
    5317     5302     5340     5344     5308     5323     5368     5351 
    5294     5271     5255     5217     5236     5304     5325     5302 
    5305     5337     5344     5328     5333     5332     5301     5294 
    5323     5336     5355     5385     5389     5368     5325     5278 
    5259     5236     5215     5243     5275     5281     5287     5279 
    5243     5217     5217     5248     5317     5366     5351     5340 
    5363     5367     5352     5352     5332     5292     5305     5343 
    5354     5387     5408     5375     5339     5304     5265     5263 
    5300     5344     5362     5350     5350     5362     5333     5293 
    5294     5302     5302     5325     5333     5324     5324     5287 
    5232     5209     5190     5201     5275     5337     5358     5371 
    5352     5327     5358     5370     5320     5277     5273     5325 
    5394     5383     5324     5310     5313     5281     5262     5286 
    5287     5240     5182     5175     5259     5320     5296     5302 
    5340     5333     5302     5256     5232     5277     5302     5255 
    5219     5236     5292     5363     5393     5374     5366     5377 
    5351     5305     5300     5333     5348     5325     5316     5336 
    5314     5233     5179     5209     5298     5390     5406     5328 
    5254     5247     5259     5246     5247     5296     5339     5350 
    5343     5289     5196     5159     5231     5339     5381     5375 
    5381     5368     5329     5340     5362     5314     5282     5294 
    5281     5279     5329     5363     5374     5383     5378     5350 
    5320     5309     5293     5270     5293     5339     5354     5375 
    5428     5452     5401     5317     5282     5313     5329     5294 
    5266     5247     5205     5193     5242     5302     5333     5356 
    5405     5435     5427     5437     5418     5339     5312     5336 
    5332     5360     5413     5377     5296     5278     5273     5232 
    5206     5209     5197     5181     5194     5219     5231     5246 
    5265     5240     5177     5165     5233     5287     5282     5281 
    5301     5294     5271     5286     5337     5398     5466     5518 
    5510     5439     5350     5296     5281     5290     5336     5409 
    5444     5406     5347     5337     5350     5329     5252     5134 
    5066     5089     5108     5090     5117     5198     5260     5273 
    5262     5263     5275     5298     5366     5456     5487     5501 
    5557     5564     5499     5444     5382     5294     5235     5170 
    5096     5112     5198     5274     5324     5371     5451     5521 
    5489     5405     5341     5258     5204     5224     5182     5082 
    5066     5112     5171     5238     5255     5236     5219     5192 
    5209     5324     5452     5460     5373     5341     5389     5422 
    5436     5431     5356     5248     5221     5286     5325     5319 
    5343     5360     5279     5169     5117     5077     5046     5107 
    5238     5366     5472     5514     5454     5382     5387     5401 
    5354     5327     5382     5433     5404     5316     5263     5335 
    5449     5485     5460     5410     5337     5294     5289     5266 
    5221     5193     5228     5368     5521     5553     5481     5385 
    5313     5298     5360     5456     5479     5414     5381     5391 
    5354     5286     5270     5265     5201     5165     5227     5282 
    5312     5395     5443     5381     5271     5163     5124     5167 
    5205     5220     5248     5312     5393     5441     5459     5470 
    5467     5462     5441     5375     5281     5217     5221     5223 
    5186     5188     5198     5144     5108     5146     5190     5206 
    5229     5265     5250     5184     5147     5148     5159     5167 
    5186     5297     5445     5466     5433     5467     5466     5417 
    5408     5394     5364     5362     5325     5260     5248     5233 
    5189     5173     5201     5258     5279     5255     5325     5499 
    5594     5548     5470     5400     5286     5189     5231     5354 
    5408     5364     5256     5175     5219     5294     5317     5356 
    5373     5308     5252     5211     5147     5109     5128     5188 
    5270     5362     5425     5432     5405     5398     5445     5495 
    5437     5327     5312     5402     5476     5468     5404     5329 
    5290     5266     5184     5094     5135     5282     5356     5301 
    5223     5170     5159     5197     5221     5209     5209     5208 
    5177     5158     5163     5186     5250     5316     5385     5448 
    5424     5386     5451     5528     5532     5481     5390     5304 
    5297     5359     5404     5433     5479     5517     5526     5436 
    5254     5124     5101     5142     5209     5260     5256     5219 
    5223     5274     5317     5370     5466     5520     5447     5332 
    5283     5297     5325     5317     5258     5206     5197     5204 
    5235     5279     5337     5428     5466     5401     5341     5296 
    5228     5236     5310     5350     5343     5317     5269     5186 
    5169     5279     5389     5418     5405     5350     5262     5192 
    5194     5273     5341     5344     5323     5335     5382     5401 
    5350     5293     5339     5440     5436     5389     5408     5370 
    5242     5206     5312     5386     5341     5300     5325     5356 
    5379     5378     5317     5224     5131     5100     5152     5189 
    5197     5217     5202     5127     5024     4989     5047     5086 
    5103     5142     5167     5211     5296     5370     5435     5489 
    5505     5499     5471     5429     5422     5456     5510     5518 
    5437     5359     5360     5364     5350     5398     5491     5528 
    5494     5454     5418     5383     5354     5316     5274     5246 
    5248     5293     5317     5271     5194     5111     5058     5108 
    5215     5271     5289     5296     5285     5285     5327     5381 
    5417     5452     5454     5409     5412     5459     5409     5274 
    5208     5216     5231     5274     5321     5301     5221     5151 
    5150     5238     5352     5367     5242     5119     5147     5258 
    5327     5378     5394     5337     5314     5363     5381     5337 
    5231     5105     5076     5144     5225     5273     5306     5370 
    5460     5512     5505     5505     5524     5482     5420     5382 
    5297     5227     5255     5274     5248     5229     5204     5225 
    5316     5366     5343     5305     5258     5219     5225     5282 
    5387     5493     5490     5381     5281     5227     5190     5200 
    5287     5381     5401     5397     5393     5332     5281     5296 
    5337     5394     5408     5348     5320     5337     5294     5198 
    5159     5186     5213     5198     5108     5032     5105     5251 
    5328     5341     5351     5381     5359     5248     5184     5239 
    5286     5243     5238     5339     5405     5409     5416     5367 
    5298     5306     5350     5390     5390     5319     5259     5273 
    5319     5347     5362     5393     5400     5358     5344     5377 
    5395     5381     5356     5336     5293     5229     5227     5293 
    5316     5265     5231     5258     5300     5329     5359     5381 
    5413     5451     5413     5309     5235     5208     5212     5232 
    5244     5289     5402     5520     5549     5460     5316     5204 
    5165     5201     5244     5246     5266     5298     5262     5229 
    5260     5304     5377     5431     5354     5255     5267     5306 
    5294     5300     5377     5401     5277     5163     5223     5364 
    5447     5478     5466     5366     5240     5216     5287     5344 
    5324     5266     5252     5287     5310     5317     5293     5225 
    5193     5189     5175     5258     5402     5427     5373     5370 
    5370     5339     5343     5375     5368     5309     5247     5247 
    5254     5209     5217     5266     5213     5111     5078     5112 
    5179     5240     5281     5327     5359     5366     5375     5377 
    5371     5366     5328     5286     5310     5379     5443     5493 
    5509     5448     5341     5329     5397     5377     5316     5340 
    5404     5452     5459     5416     5383     5391     5371     5290 
    5227     5208     5175     5144     5144     5159     5223     5316 
    5348     5312     5260     5251     5316     5400     5424     5360 
    5289     5298     5317     5282     5256     5292     5343     5305 
    5201     5174     5228     5281     5312     5327     5347     5377 
    5400     5390     5323     5266     5286     5321     5317     5296 
    5275     5277     5302     5323     5347     5364     5335     5294 
    5274     5239     5170     5120     5155     5227     5250     5278 
    5355     5383     5368     5416     5428     5309     5231     5278 
    5304     5278     5289     5363     5421     5390     5329     5281 
    5283     5377     5429     5383     5366     5374     5335     5260 
    5221     5275     5333     5312     5298     5343     5351     5292 
    5225     5200     5270     5377     5371     5294     5242     5213 
    5238     5282     5252     5198     5244     5356     5437     5494 
    5548     5566     5522     5445     5405     5381     5309     5246 
    5244     5250     5238     5239     5239     5221     5235     5247 
    5192     5171     5260     5329     5302     5259     5259     5269 
    5275     5314     5351     5356     5379     5418     5421     5366 
    5258     5167     5151     5189     5227     5217     5193     5233 
    5341     5445     5471     5393     5275     5216     5219     5248 
    5282     5290     5309     5409     5493     5429     5314     5283 
    5333     5387     5383     5332     5305     5285     5271     5314 
    5346     5343     5377     5393     5340     5270     5239     5262 
    5294     5314     5367     5470     5521     5429     5310     5287 
    5294     5290     5340     5421     5416     5339     5290     5229 
    5148     5155     5204     5224     5250     5296     5358     5389 
    5324     5224     5201     5246     5293     5356     5400     5354 
    5290     5256     5193     5136     5148     5220     5310     5377 
    5405     5374     5278     5204     5243     5327     5328     5292 
    5285     5258     5262     5321     5321     5298     5340     5341 
    5260     5201     5231     5305     5329     5300     5274     5271 
    5305     5329     5306     5325     5381     5352     5304     5323 
    5347     5350     5355     5352     5343     5337     5355     5404 
    5413     5339     5271     5306     5417     5478     5435     5382 
    5371     5395     5443     5439     5370     5340     5352     5301 
    5219     5243     5343     5386     5356     5279     5224     5251 
    5256     5216     5238     5258     5251     5337     5418     5368 
    5293     5265     5258     5239     5192     5184     5250     5302 
    5289     5254     5256     5293     5301     5263     5262     5320 
    5335     5297     5287     5292     5269     5231     5236     5305 
    5347     5332     5329     5341     5347     5366     5346     5251 
    5175     5190     5236     5278     5327     5358     5364     5371 
    5373     5386     5398     5386     5412     5471     5460     5351 
