Origin Time       2025/03/30 22:55:00
Lat.              41.993
Long.             142.725
Depth. (km)       55
Mag.              4.6
Station Code      IWTH07
Station Lat.      40.2705
Station Long.     141.5709
Station Height(m) 260
Record Time       2025/03/30 22:56:57
Sampling Freq(Hz) 100Hz
Duration Time(s)  120
Dir.              6
Scale Factor      7845(gal)/8223790
Max. Acc. (gal)   0.359
Last Correction   2025/03/30 22:56:58
Memo.             
   -1128    -1117    -1175    -1161    -1165    -1260    -1289    -1196 
   -1115    -1127    -1171    -1173    -1139    -1136    -1178    -1204 
   -1240    -1304    -1262    -1121    -1101    -1216    -1236    -1155 
   -1167    -1185    -1138    -1201    -1262    -1144    -1102    -1233 
   -1251    -1174    -1186    -1173    -1129    -1200    -1264    -1243 
   -1216    -1169    -1181    -1275    -1246    -1152    -1178    -1188 
   -1173    -1224    -1166    -1062    -1152    -1206    -1101    -1116 
   -1215    -1223    -1235    -1263    -1246    -1210    -1171    -1186 
   -1239    -1183    -1082    -1115    -1213    -1225    -1192    -1213 
   -1264    -1242    -1169    -1186    -1221    -1132    -1085    -1154 
   -1152    -1136    -1231    -1274    -1219    -1183    -1136    -1119 
   -1205    -1243    -1197    -1200    -1202    -1174    -1229    -1281 
   -1196    -1162    -1248    -1210    -1123    -1169    -1177    -1139 
   -1216    -1243    -1144    -1129    -1200    -1219    -1220    -1196 
   -1135    -1148    -1204    -1189    -1193    -1231    -1206    -1208 
   -1269    -1246    -1158    -1112    -1131    -1185    -1204    -1178 
   -1188    -1225    -1215    -1188    -1224    -1232    -1140    -1125 
   -1205    -1181    -1139    -1201    -1196    -1101    -1129    -1258 
   -1278    -1197    -1174    -1216    -1227    -1204    -1215    -1209 
   -1128    -1096    -1193    -1269    -1202    -1124    -1173    -1229 
   -1174    -1136    -1212    -1287    -1258    -1169    -1144    -1182 
   -1165    -1113    -1134    -1181    -1177    -1190    -1243    -1225 
   -1202    -1296    -1314    -1167    -1119    -1174    -1112    -1050 
   -1121    -1185    -1170    -1144    -1182    -1266    -1262    -1192 
   -1185    -1159    -1124    -1163    -1177    -1231    -1336    -1254 
   -1123    -1171    -1209    -1158    -1170    -1213    -1228    -1251 
   -1248    -1251    -1256    -1154    -1096    -1131    -1085    -1135 
   -1285    -1233    -1192    -1277    -1200    -1127    -1221    -1192 
   -1094    -1147    -1189    -1163    -1205    -1252    -1200    -1163 
   -1243    -1269    -1131    -1107    -1266    -1290    -1158    -1138 
   -1227    -1243    -1182    -1127    -1109    -1201    -1290    -1196 
   -1107    -1156    -1179    -1181    -1224    -1225    -1166    -1109 
   -1129    -1233    -1274    -1174    -1105    -1193    -1250    -1156 
   -1139    -1213    -1181    -1129    -1170    -1225    -1255    -1235 
   -1217    -1250    -1219    -1158    -1151    -1165    -1198    -1193 
   -1159    -1189    -1189    -1165    -1212    -1255    -1263    -1239 
   -1198    -1219    -1193    -1105    -1125    -1148    -1116    -1216 
   -1300    -1193    -1152    -1244    -1225    -1111    -1065    -1135 
   -1224    -1205    -1189    -1273    -1279    -1201    -1183    -1159 
   -1125    -1201    -1212    -1067    -1066    -1231    -1263    -1167 
   -1173    -1264    -1246    -1174    -1237    -1281    -1167    -1131 
   -1198    -1146    -1080    -1148    -1202    -1179    -1188    -1233 
   -1243    -1197    -1175    -1188    -1155    -1125    -1175    -1243 
   -1269    -1225    -1205    -1275    -1219    -1070    -1120    -1217 
   -1159    -1138    -1216    -1208    -1147    -1197    -1264    -1221 
   -1169    -1167    -1208    -1278    -1233    -1112    -1119    -1186 
   -1198    -1166    -1148    -1204    -1248    -1210    -1178    -1150 
   -1120    -1181    -1267    -1219    -1111    -1163    -1314    -1264 
   -1093    -1128    -1256    -1220    -1136    -1167    -1240    -1247 
   -1227    -1215    -1154    -1128    -1212    -1232    -1183    -1209 
   -1193    -1127    -1186    -1216    -1092    -1071    -1175    -1181 
   -1194    -1287    -1271    -1209    -1206    -1173    -1146    -1162 
   -1221    -1286    -1205    -1174    -1316    -1246    -1061    -1155 
   -1264    -1189    -1142    -1134    -1134    -1166    -1159    -1163 
   -1202    -1171    -1161    -1247    -1255    -1196    -1229    -1235 
   -1150    -1148    -1198    -1186    -1179    -1179    -1174    -1200 
   -1170    -1098    -1102    -1120    -1135    -1235    -1306    -1248 
   -1229    -1290    -1251    -1152    -1143    -1148    -1094    -1097 
   -1179    -1227    -1231    -1237    -1254    -1243    -1177    -1167 
   -1235    -1178    -1078    -1150    -1235    -1194    -1178    -1219 
   -1221    -1204    -1200    -1177    -1163    -1223    -1271    -1196 
   -1128    -1190    -1236    -1193    -1182    -1206    -1181    -1177 
   -1228    -1242    -1189    -1107    -1066    -1128    -1213    -1185 
   -1090    -1146    -1323    -1318    -1186    -1194    -1260    -1244 
   -1192    -1140    -1112    -1107    -1138    -1224    -1248    -1170 
   -1159    -1232    -1228    -1182    -1192    -1177    -1132    -1167 
   -1228    -1194    -1146    -1186    -1198    -1193    -1256    -1231 
   -1167    -1231    -1213    -1129    -1196    -1223    -1169    -1205 
   -1183    -1140    -1229    -1237    -1139    -1116    -1147    -1212 
   -1209    -1123    -1185    -1318    -1291    -1190    -1143    -1178 
   -1235    -1202    -1125    -1096    -1115    -1213    -1339    -1310 
   -1148    -1098    -1156    -1113    -1104    -1229    -1192    -1047 
   -1158    -1347    -1255    -1085    -1136    -1216    -1166    -1139 
   -1174    -1231    -1289    -1297    -1254    -1205    -1170    -1139 
   -1162    -1227    -1155    -1057    -1196    -1332    -1217    -1138 
   -1248    -1300    -1236    -1197    -1170    -1144    -1124    -1116 
   -1192    -1232    -1136    -1078    -1148    -1251    -1271    -1186 
   -1167    -1227    -1201    -1202    -1283    -1246    -1139    -1129 
   -1163    -1204    -1225    -1210    -1258    -1270    -1175    -1174 
   -1181    -1078    -1097    -1158    -1084    -1124    -1287    -1262 
   -1125    -1135    -1221    -1212    -1147    -1170    -1240    -1231 
   -1201    -1205    -1179    -1190    -1271    -1262    -1129    -1075 
   -1143    -1200    -1206    -1155    -1093    -1169    -1302    -1309 
   -1267    -1221    -1136    -1175    -1298    -1236    -1085    -1098 
   -1198    -1216    -1178    -1148    -1119    -1158    -1279    -1271 
   -1116    -1116    -1271    -1255    -1120    -1171    -1262    -1194 
   -1158    -1178    -1186    -1224    -1158    -1096    -1190    -1235 
   -1237    -1242    -1170    -1201    -1285    -1212    -1143    -1188 
   -1212    -1165    -1140    -1201    -1209    -1098    -1078    -1174 
   -1197    -1169    -1185    -1192    -1198    -1267    -1298    -1232 
   -1190    -1212    -1208    -1152    -1148    -1237    -1262    -1163 
   -1129    -1201    -1223    -1205    -1210    -1151    -1046    -1092 
   -1247    -1290    -1242    -1188    -1140    -1185    -1278    -1228 
   -1100    -1093    -1156    -1196    -1215    -1193    -1167    -1182 
   -1205    -1192    -1129    -1148    -1242    -1190    -1142    -1228 
   -1196    -1177    -1290    -1227    -1111    -1166    -1174    -1125 
   -1197    -1262    -1216    -1156    -1140    -1174    -1229    -1242 
   -1209    -1181    -1206    -1248    -1227    -1239    -1310    -1251 
   -1148    -1171    -1166    -1127    -1134    -1046    -1039    -1242 
   -1323    -1240    -1192    -1154    -1194    -1271    -1186    -1125 
   -1246    -1285    -1185    -1146    -1154    -1129    -1109    -1116 
   -1169    -1242    -1224    -1182    -1233    -1240    -1175    -1158 
   -1124    -1098    -1208    -1312    -1269    -1208    -1215    -1204 
   -1165    -1167    -1174    -1117    -1081    -1159    -1260    -1246 
   -1182    -1220    -1236    -1131    -1129    -1237    -1239    -1192 
   -1166    -1159    -1198    -1170    -1132    -1229    -1255    -1142 
   -1125    -1239    -1312    -1193    -1040    -1131    -1262    -1240 
   -1216    -1177    -1123    -1215    -1304    -1181    -1082    -1183 
   -1227    -1152    -1174    -1227    -1156    -1109    -1205    -1251 
   -1193    -1215    -1233    -1139    -1092    -1167    -1277    -1244 
   -1093    -1155    -1304    -1200    -1131    -1246    -1242    -1156 
   -1140    -1177    -1252    -1260    -1182    -1147    -1144    -1097 
   -1092    -1200    -1264    -1220    -1237    -1282    -1250    -1239 
   -1233    -1166    -1134    -1158    -1167    -1156    -1158    -1197 
   -1256    -1250    -1155    -1129    -1206    -1196    -1129    -1159 
   -1209    -1200    -1205    -1227    -1196    -1178    -1223    -1194 
   -1100    -1113    -1235    -1298    -1201    -1097    -1174    -1239 
   -1167    -1178    -1227    -1152    -1136    -1233    -1259    -1217 
   -1194    -1200    -1233    -1196    -1108    -1129    -1175    -1151 
   -1190    -1223    -1156    -1217    -1332    -1235    -1140    -1193 
   -1185    -1135    -1150    -1161    -1143    -1158    -1193    -1196 
   -1198    -1232    -1244    -1224    -1197    -1159    -1182    -1282 
   -1287    -1206    -1202    -1215    -1169    -1159    -1179    -1165 
   -1131    -1108    -1155    -1262    -1290    -1216    -1150    -1154 
   -1182    -1188    -1210    -1266    -1258    -1167    -1134    -1209 
   -1223    -1140    -1117    -1148    -1136    -1150    -1274    -1324 
   -1171    -1094    -1198    -1210    -1116    -1097    -1124    -1124 
   -1171    -1263    -1255    -1192    -1215    -1252    -1194    -1113 
   -1102    -1140    -1198    -1260    -1235    -1188    -1263    -1286 
   -1188    -1186    -1173    -1088    -1142    -1212    -1163    -1167 
   -1216    -1174    -1143    -1186    -1159    -1104    -1174    -1243 
   -1255    -1291    -1223    -1101    -1182    -1286    -1170    -1096 
   -1208    -1243    -1200    -1286    -1347    -1227    -1125    -1154 
   -1196    -1143    -1054    -1101    -1216    -1186    -1139    -1240 
   -1300    -1197    -1107    -1136    -1190    -1209    -1231    -1244 
   -1224    -1210    -1215    -1204    -1182    -1167    -1143    -1132 
   -1175    -1215    -1189    -1167    -1179    -1171    -1171    -1185 
   -1190    -1258    -1314    -1264    -1205    -1166    -1140    -1125 
   -1086    -1123    -1213    -1200    -1177    -1233    -1252    -1239 
   -1240    -1183    -1123    -1170    -1282    -1328    -1201    -1059 
   -1169    -1294    -1146    -1024    -1140    -1231    -1183    -1166 
   -1224    -1229    -1159    -1161    -1200    -1129    -1127    -1251 
   -1210    -1094    -1188    -1286    -1197    -1109    -1123    -1198 
   -1267    -1221    -1189    -1248    -1217    -1194    -1259    -1188 
   -1092    -1224    -1333    -1177    -1066    -1183    -1182    -1059 
   -1150    -1263    -1181    -1156    -1231    -1232    -1215    -1206 
   -1183    -1221    -1246    -1177    -1140    -1152    -1166    -1236 
   -1290    -1213    -1107    -1152    -1233    -1169    -1124    -1200 
   -1242    -1240    -1239    -1223    -1205    -1144    -1077    -1098 
   -1144    -1183    -1216    -1209    -1223    -1273    -1277    -1217 
   -1098    -1032    -1113    -1152    -1067    -1081    -1197    -1263 
   -1286    -1221    -1142    -1242    -1323    -1220    -1161    -1159 
   -1162    -1262    -1313    -1229    -1174    -1155    -1129    -1150 
   -1193    -1196    -1162    -1175    -1246    -1219    -1124    -1166 
   -1204    -1105    -1128    -1232    -1201    -1215    -1282    -1233 
   -1212    -1260    -1247    -1186    -1147    -1161    -1155    -1123 
   -1174    -1216    -1189    -1217    -1235    -1185    -1194    -1260 
   -1237    -1132    -1098    -1092    -1080    -1219    -1281    -1140 
   -1177    -1309    -1273    -1263    -1294    -1217    -1142    -1136 
   -1128    -1136    -1193    -1212    -1192    -1205    -1163    -1067 
   -1093    -1213    -1206    -1059    -1000    -1108    -1193    -1192 
   -1197    -1204    -1217    -1296    -1394    -1444    -1385    -1267 
   -1209    -1182    -1162    -1198    -1219    -1134    -1039    -1081 
   -1190    -1210    -1178    -1170    -1152    -1142    -1170    -1174 
   -1166    -1219    -1220    -1100    -1081    -1213    -1279    -1264 
   -1282    -1297    -1223    -1111    -1104    -1156    -1124    -1030 
   -1007    -1121    -1227    -1192    -1177    -1259    -1293    -1269 
   -1224    -1144    -1136    -1225    -1236    -1175    -1205    -1206 
   -1111    -1139    -1251    -1229    -1202    -1308    -1296    -1108 
   -1116    -1296    -1264    -1090    -1028    -1098    -1244    -1308 
   -1236    -1205    -1258    -1318    -1313    -1201    -1167    -1251 
   -1229    -1165    -1150    -1073    -1039    -1119    -1136    -1105 
   -1155    -1177    -1094    -1084    -1165    -1109    -1026    -1169 
   -1304    -1259    -1313    -1390    -1262    -1171    -1242    -1291 
   -1290    -1232    -1131    -1100    -1148    -1236    -1318    -1296 
   -1205    -1158    -1143    -1146    -1161    -1185    -1220    -1158 
   -1071    -1124    -1193    -1259    -1314    -1148     -970    -1078 
   -1240    -1290    -1356    -1379    -1216    -1075    -1124    -1107 
   -1053    -1202    -1258    -1107    -1156    -1358    -1375    -1228 
   -1030     -915    -1004    -1181    -1260    -1220    -1192    -1248 
   -1242    -1143    -1113    -1094    -1040    -1077    -1143    -1205 
   -1324    -1451    -1566    -1495    -1208    -1132    -1262    -1185 
   -1042    -1005     -954    -1031    -1210    -1239    -1224    -1235 
   -1204    -1243    -1270    -1174    -1183    -1274    -1246    -1225 
   -1262    -1256    -1267    -1243    -1138    -1131    -1202    -1165 
   -1123    -1189    -1237    -1244    -1220    -1125    -1031     -973 
    -997    -1067    -1034    -1048    -1200    -1225    -1186    -1282 
   -1321    -1194    -1120    -1132    -1167    -1283    -1328    -1227 
   -1231    -1308    -1289    -1247    -1223    -1159    -1097    -1142 
   -1196    -1132    -1140    -1209    -1125    -1062    -1169    -1267 
   -1267    -1244    -1300    -1350    -1240    -1151    -1210    -1155 
   -1004    -1093    -1300    -1304    -1237    -1252    -1233    -1198 
   -1209    -1219    -1213    -1183    -1127    -1097    -1158    -1275 
   -1286    -1151     -997     -927    -1004    -1165    -1286    -1317 
   -1221    -1139    -1205    -1263    -1266    -1262    -1189    -1125 
   -1138    -1163    -1210    -1215    -1135    -1078    -1074    -1134 
   -1266    -1325    -1281    -1212    -1096    -1085    -1262    -1359 
   -1287    -1139    -1032    -1128    -1244    -1212    -1240    -1285 
   -1148    -1058    -1165    -1205    -1134    -1175    -1281    -1275 
   -1239    -1236    -1192    -1175    -1213    -1140    -1005    -1026 
   -1158    -1254    -1317    -1323    -1200    -1127    -1250    -1335 
   -1277    -1224    -1201    -1169    -1177    -1225    -1233    -1204 
   -1177    -1121    -1105    -1178    -1231    -1217    -1178    -1177 
   -1220    -1215    -1215    -1247    -1139    -1001    -1061    -1134 
   -1069    -1096    -1293    -1389    -1278    -1154    -1081    -1054 
   -1139    -1219    -1192    -1192    -1231    -1235    -1301    -1397 
   -1302    -1092    -1035    -1115    -1179    -1188    -1128    -1098 
   -1178    -1254    -1244    -1229    -1254    -1243    -1196    -1179 
   -1158    -1105    -1097    -1154    -1239    -1314    -1306    -1213 
   -1142    -1165    -1177    -1104    -1115    -1216    -1200    -1132 
   -1165    -1220    -1225    -1209    -1196    -1190    -1216    -1289 
   -1327    -1227    -1074    -1069    -1143    -1128    -1154    -1225 
   -1162    -1065    -1112    -1278    -1335    -1178    -1107    -1213 
   -1233    -1158    -1112    -1116    -1189    -1236    -1210    -1225 
   -1260    -1274    -1350    -1362    -1185    -1073    -1209    -1348 
   -1293    -1200    -1194    -1156    -1120    -1200    -1219    -1125 
   -1088    -1108    -1136    -1155    -1159    -1221    -1269    -1188 
   -1096    -1144    -1252    -1251    -1178    -1159    -1100     -958 
   -1063    -1390    -1401    -1171    -1148    -1212    -1227    -1279 
   -1227    -1101    -1127    -1201    -1175    -1140    -1188    -1221 
   -1129    -1028    -1061    -1143    -1250    -1387    -1378    -1236 
   -1197    -1198    -1150    -1231    -1339    -1246    -1147    -1173 
   -1177    -1170    -1196    -1190    -1162    -1159    -1181    -1175 
   -1128    -1117    -1158    -1169    -1147    -1197    -1260    -1232 
   -1231    -1229    -1117    -1117    -1244    -1201    -1088    -1125 
   -1198    -1186    -1202    -1296    -1308    -1237    -1193    -1140 
   -1113    -1150    -1151    -1138    -1165    -1206    -1327    -1418 
   -1258    -1086    -1100    -1088    -1081    -1144    -1115    -1066 
   -1132    -1233    -1269    -1237    -1236    -1250    -1193    -1170 
   -1233    -1243    -1178    -1154    -1178    -1198    -1236    -1252 
   -1182    -1140    -1169    -1159    -1209    -1325    -1283    -1159 
   -1123    -1116    -1165    -1239    -1188    -1109    -1159    -1236 
   -1216    -1147    -1131    -1208    -1318    -1290    -1188    -1255 
   -1337    -1236    -1131    -1100    -1086    -1112    -1158    -1213 
   -1229    -1132    -1085    -1192    -1274    -1255    -1179    -1100 
   -1115    -1167    -1151    -1124    -1125    -1146    -1210    -1281 
   -1266    -1237    -1298    -1290    -1147    -1093    -1174    -1235 
   -1233    -1219    -1233    -1264    -1273    -1251    -1217    -1146 
   -1065    -1112    -1210    -1186    -1166    -1223    -1186    -1131 
   -1215    -1286    -1236    -1179    -1169    -1166    -1143    -1090 
   -1069    -1119    -1134    -1098    -1163    -1244    -1208    -1220 
   -1285    -1204    -1128    -1223    -1283    -1236    -1217    -1212 
   -1170    -1125    -1147    -1216    -1206    -1154    -1204    -1263 
   -1224    -1206    -1209    -1140    -1111    -1147    -1140    -1142 
   -1250    -1350    -1301    -1208    -1186    -1159    -1150    -1179 
   -1129    -1093    -1179    -1256    -1266    -1189    -1082    -1108 
   -1186    -1206    -1208    -1161    -1132    -1192    -1229    -1244 
   -1258    -1228    -1232    -1266    -1254    -1205    -1109    -1082 
   -1217    -1247    -1107    -1094    -1148    -1098    -1138    -1254 
   -1240    -1210    -1192    -1105    -1162    -1297    -1248    -1196 
   -1232    -1159    -1093    -1183    -1255    -1243    -1232    -1188 
   -1136    -1155    -1216    -1275    -1269    -1209    -1181    -1162 
   -1179    -1237    -1192    -1112    -1128    -1138    -1166    -1259 
   -1217    -1081    -1078    -1139    -1185    -1248    -1258    -1247 
   -1274    -1258    -1237    -1223    -1111    -1050    -1150    -1208 
   -1171    -1155    -1148    -1177    -1251    -1240    -1216    -1279 
   -1254    -1129    -1104    -1155    -1186    -1227    -1255    -1183 
   -1085    -1117    -1221    -1232    -1179    -1177    -1179    -1154 
   -1202    -1287    -1281    -1200    -1102    -1048    -1080    -1177 
   -1250    -1227    -1196    -1224    -1247    -1262    -1246    -1173 
   -1161    -1258    -1304    -1225    -1158    -1146    -1111    -1086 
   -1111    -1136    -1151    -1183    -1223    -1242    -1264    -1247 
   -1166    -1138    -1115    -1065    -1165    -1248    -1136    -1151 
   -1286    -1221    -1150    -1259    -1255    -1105    -1116    -1248 
   -1281    -1263    -1259    -1205    -1142    -1135    -1159    -1154 
   -1107    -1128    -1233    -1289    -1239    -1129    -1096    -1198 
   -1251    -1209    -1227    -1266    -1225    -1171    -1210    -1283 
