Origin Time       2025/03/30 22:55:00
Lat.              41.993
Long.             142.725
Depth. (km)       55
Mag.              4.6
Station Code      IWTH07
Station Lat.      40.2705
Station Long.     141.5709
Station Height(m) 260
Record Time       2025/03/30 22:56:57
Sampling Freq(Hz) 100Hz
Duration Time(s)  120
Dir.              5
Scale Factor      7845(gal)/8223790
Max. Acc. (gal)   0.736
Last Correction   2025/03/30 22:56:58
Memo.             
    6019     5989     6043     6130     6149     6153     6191     6178 
    6120     6093     6102     6141     6170     6122     6072     6096 
    6119     6106     6106     6095     6039     6011     6073     6150 
    6127     6065     6069     6099     6149     6223     6193     6093 
    6104     6169     6139     6097     6100     6079     6069     6123 
    6158     6116     6021     5960     6039     6183     6227     6183 
    6135     6111     6130     6161     6150     6130     6110     6070 
    6103     6183     6143     6037     6011     6057     6111     6137 
    6111     6058     6007     5973     6022     6169     6289     6264 
    6139     6077     6130     6173     6153     6129     6081     6018 
    6043     6138     6166     6139     6130     6124     6100     6080 
    6069     6072     6106     6127     6102     6073     6081     6130 
    6196     6196     6108     6045     6026     6003     6060     6164 
    6147     6079     6114     6177     6176     6146     6107     6087 
    6107     6091     6050     6096     6158     6130     6111     6162 
    6176     6135     6108     6092     6053     6033     6103     6192 
    6169     6095     6077     6089     6072     6046     6069     6120 
    6127     6100     6103     6124     6154     6177     6157     6122 
    6131     6150     6126     6080     6064     6065     6050     6053 
    6081     6066     6033     6081     6189     6237     6189     6150 
    6151     6126     6093     6131     6185     6161     6075     5996 
    5980     6048     6112     6116     6156     6214     6165     6087 
    6087     6099     6083     6069     6077     6124     6149     6081 
    6019     6069     6164     6223     6246     6230     6173     6081 
    5988     5984     6049     6080     6097     6130     6130     6119 
    6110     6066     6038     6079     6131     6149     6172     6210 
    6210     6168     6122     6093     6053     6029     6045     6039 
    6058     6142     6154     6112     6147     6173     6138     6149 
    6174     6118     6045     6038     6072     6114     6142     6119 
    6064     6065     6122     6119     6081     6111     6134     6075 
    6033     6089     6164     6165     6134     6110     6099     6133 
    6157     6122     6091     6084     6085     6130     6193     6180 
    6080     6019     6081     6195     6197     6079     6030     6111 
    6147     6116     6126     6099     6004     5996     6115     6230 
    6215     6079     5995     6053     6127     6138     6143     6165 
    6141     6095     6122     6164     6119     6046     6029     6083 
    6153     6147     6106     6097     6085     6080     6123     6170 
    6180     6147     6095     6103     6158     6135     6058     6050 
    6107     6169     6173     6092     6022     6037     6087     6119 
    6127     6115     6104     6108     6108     6115     6166     6204 
    6134     6029     6058     6158     6156     6110     6099     6072 
    6073     6143     6166     6118     6080     6069     6081     6123 
    6162     6141     6066     6026     6058     6097     6119     6158 
    6183     6156     6095     6053     6097     6151     6096     6052 
    6111     6135     6089     6084     6108     6088     6069     6112 
    6180     6197     6138     6079     6107     6157     6112     6041 
    6052     6112     6147     6139     6130     6139     6119     6087 
    6092     6088     6064     6092     6146     6146     6131     6150 
    6156     6096     6018     6014     6079     6138     6146     6134 
    6126     6114     6116     6131     6122     6115     6135     6133 
    6130     6135     6085     6062     6138     6158     6088     6097 
    6153     6138     6119     6095     6030     6026     6077     6085 
    6100     6173     6228     6176     6069     6054     6092     6062 
    6058     6151     6210     6160     6075     6049     6100     6156 
    6166     6157     6130     6099     6114     6150     6137     6072 
    5996     5957     5996     6085     6154     6201     6231     6197 
    6118     6058     6061     6096     6106     6091     6103     6135 
    6126     6080     6075     6104     6088     6050     6081     6143 
    6161     6168     6184     6178     6162     6137     6099     6075 
    6068     6083     6091     6061     6057     6119     6161     6135 
    6118     6133     6123     6112     6127     6126     6102     6096 
    6095     6072     6065     6084     6097     6127     6166     6135 
    6070     6095     6177     6205     6156     6061     6003     6041 
    6115     6130     6123     6160     6150     6069     6088     6199 
    6207     6110     6037     6029     6058     6106     6156     6184 
    6161     6088     6043     6062     6072     6064     6084     6119 
    6150     6172     6164     6137     6134     6116     6069     6096 
    6139     6058     6002     6077     6124     6118     6131     6120 
    6110     6143     6174     6173     6127     6054     6048     6138 
    6231     6200     6062     6011     6083     6134     6146     6142 
    6091     6011     5977     6049     6173     6196     6123     6118 
    6174     6149     6068     6068     6123     6141     6138     6137 
    6134     6160     6192     6133     6003     5952     6002     6072 
    6142     6168     6134     6135     6172     6153     6093     6070 
    6083     6104     6157     6181     6100     6027     6057     6108 
    6122     6139     6147     6135     6137     6115     6068     6104 
    6189     6188     6135     6114     6102     6072     6060     6073 
    6056     6018     6053     6134     6164     6146     6131     6123 
    6115     6097     6091     6129     6138     6088     6068     6070 
    6064     6076     6095     6127     6157     6127     6124     6230 
    6262     6104     5972     6016     6100     6130     6150     6160 
    6108     6043     6045     6083     6120     6169     6200     6157 
    6062     6016     6037     6083     6145     6173     6156     6161 
    6169     6107     6016     5995     6069     6180     6212     6129 
    6045     6060     6138     6219     6239     6142     6011     6016 
    6114     6134     6093     6092     6110     6095     6087     6133 
    6180     6160     6087     6048     6087     6080     6004     6015 
    6097     6160     6199     6191     6162     6145     6093     6058 
    6110     6160     6133     6106     6145     6181     6127     6053 
    6081     6154     6141     6081     6073     6083     6065     6073 
    6120     6123     6069     6041     6073     6110     6122     6119 
    6104     6116     6160     6164     6124     6107     6114     6116 
    6143     6207     6215     6124     6035     6029     6081     6151 
    6162     6066     5985     6058     6193     6234     6180     6099 
    6039     6034     6070     6097     6102     6110     6100     6089 
    6131     6127     6068     6108     6169     6104     6037     6066 
    6114     6153     6192     6174     6080     5989     6012     6137 
    6201     6139     6061     6075     6172     6215     6154     6134 
    6162     6135     6115     6114     6058     6027     6062     6130 
    6210     6162     6002     5960     6026     6077     6145     6205 
    6185     6142     6130     6139     6158     6157     6096     6021 
    6029     6127     6222     6223     6116     6004     6002     6070 
    6129     6153     6153     6157     6173     6181     6124     6023 
    5992     6050     6112     6126     6095     6084     6146     6204 
    6188     6112     6012     5967     6022     6118     6187     6176 
    6091     6023     6035     6099     6160     6187     6193     6177 
    6146     6129     6122     6141     6164     6104     6035     6061 
    6099     6089     6072     6048     6070     6174     6234     6183 
    6133     6120     6080     6053     6081     6092     6048     6053 
    6124     6139     6099     6065     6052     6088     6135     6169 
    6200     6147     6066     6108     6154     6096     6073     6088 
    6050     6029     6081     6154     6201     6185     6115     6070 
    6085     6103     6129     6161     6126     6058     6052     6083 
    6131     6154     6093     6039     6066     6112     6143     6176 
    6153     6088     6077     6100     6116     6160     6161     6092 
    6083     6130     6150     6168     6172     6099     6014     6029 
    6080     6068     6064     6118     6157     6131     6081     6097 
    6160     6160     6142     6164     6107     6012     6053     6149 
    6150     6123     6135     6143     6126     6072     6012     6026 
    6111     6181     6170     6085     6034     6075     6129     6151 
    6164     6137     6099     6103     6134     6149     6124     6110 
    6135     6120     6058     6050     6089     6110     6106     6050 
    6002     6056     6156     6218     6214     6126     6058     6092 
    6137     6129     6112     6123     6157     6177     6143     6085 
    6072     6100     6111     6104     6111     6118     6093     6056 
    6077     6161     6184     6124     6103     6149     6164     6151 
    6147     6064     5960     6029     6188     6242     6188     6080 
    5998     6052     6197     6266     6201     6116     6110     6133 
    6091     6016     5969     5934     5952     6062     6165     6199 
    6178     6122     6130     6211     6218     6151     6116     6108 
    6110     6151     6200     6188     6127     6057     5996     6004 
    6066     6088     6058     6016     5988     6039     6183     6254 
    6170     6069     6016     5987     6057     6204     6223     6104 
    6053     6149     6286     6338     6265     6143     6041     6000 
    6057     6161     6197     6135     6073     6076     6077     6030 
    5988     6014     6103     6185     6201     6170     6160     6161 
    6126     6091     6097     6106     6077     6041     6037     6072 
    6089     6050     6048     6126     6165     6131     6137     6227 
    6299     6232     6108     6081     6115     6100     6052     6019 
    6025     6057     6050     6003     6026     6137     6220     6197 
    6111     6054     6031     6023     6075     6131     6126     6120 
    6127     6126     6131     6123     6110     6135     6153     6146 
    6153     6116     6045     6072     6176     6189     6118     6085 
    6115     6133     6081     6018     6029     6057     6085     6161 
    6173     6066     6004     6061     6115     6133     6214     6266 
    6151     6053     6110     6133     6062     6039     6062     6112 
    6201     6200     6038     5877     5864     6003     6219     6347 
    6288     6164     6114     6124     6187     6249     6166     5995 
    5944     6007     6081     6147     6196     6220     6197     6120 
    6066     6060     6049     6034     6039     6097     6176     6193 
    6201     6257     6258     6200     6174     6145     6085     6034 
    5985     5979     5968     5859     5818     5985     6172     6272 
    6358     6435     6458     6392     6230     6079     6042     6058 
    6034     5999     5981     5965     6010     6158     6253     6149 
    5946     5805     5765     5872     6091     6230     6215     6154 
    6106     6100     6145     6169     6138     6120     6173     6181 
    6083     6077     6181     6173     6104     6116     6138     6154 
    6197     6172     6058     6026     6087     6118     6222     6376 
    6308     6130     6088     6050     5981     6031     6085     5975 
    5786     5687     5765     5989     6162     6207     6261     6299 
    6203     6119     6174     6262     6273     6214     6177     6242 
    6315     6282     6195     6129     6081     6023     5923     5798 
    5729     5788     5968     6162     6250     6218     6199     6300 
    6436     6442     6278     6033     5832     5775     5852     5938 
    5927     5859     5906     6110     6280     6308     6274     6207 
    6131     6189     6373     6436     6293     6131     6077     6091 
    6112     6103     6046     5952     5830     5771     5884     6064 
    6130     6123     6141     6173     6205     6189     6061     5921 
    5926     6085     6326     6521     6490     6249     6081     6134 
    6172     6066     6014     6070     6081     6010     5988     6106 
    6259     6311     6250     6141     6092     6126     6072     5915 
    5872     5948     6049     6228     6424     6465     6349     6203 
    6102     6050     6060     6143     6243     6259     6157     6025 
    5999     6058     6035     5925     5864     5849     5884     6076 
    6342     6438     6313     6135     6035     6004     5977     5948 
    5958     5999     6023     6118     6336     6488     6430     6305 
    6226     6174     6219     6266     6103     5838     5702     5749 
    5945     6137     6130     5973     5853     5823     5902     6112 
    6266     6181     6061     6089     6153     6228     6327     6270 
    6050     5952     6079     6262     6373     6409     6345     6177 
    6077     6133     6134     5984     5833     5790     5892     6069 
    6131     5973     5710     5660     5923     6220     6471     6763 
    6882     6710     6454     6254     6123     6002     5806     5647 
    5698     5867     5977     6018     6018     6033     6114     6214 
    6319     6384     6266     6064     5960     5915     5911     6002 
    6106     6135     6122     6160     6265     6288     6192     6191 
    6292     6288     6169     6076     6133     6292     6312     6156 
    6021     5944     5856     5807     5823     5873     6026     6177 
    6058     5822     5811     6004     6195     6253     6191     6110 
    6110     6201     6265     6249     6232     6254     6309     6342 
    6262     6131     6083     6143     6237     6216     6027     5844 
    5832     5981     6226     6390     6292     6081     6035     6112 
    6139     6088     5950     5779     5765     6012     6324     6454 
    6385     6216     6053     6025     6172     6366     6409     6230 
    5965     5798     5832     6019     6147     6076     5910     5782 
    5738     5875     6200     6475     6520     6421     6296     6181 
    6127     6095     6021     6002     6091     6141     6102     6081 
    6079     6052     6034     6091     6265     6407     6304     6061 
    5892     5856     5960     6138     6168     5985     5856     5945 
    6116     6237     6297     6303     6300     6346     6389     6342 
    6200     6023     5915     5934     6003     5957     5825     5887 
    6147     6274     6178     6061     6002     5981     6035     6118 
    6146     6161     6142     6043     5949     5872     5813     5886 
    6056     6154     6156     6156     6212     6276     6343     6431 
    6428     6281     6143     6139     6211     6232     6188     6150 
    6118     6089     6110     6099     6002     5922     5930     6026 
    6166     6208     6104     6019     6072     6201     6293     6228 
    6026     5922     6034     6188     6215     6131     6027     5998 
    6076     6165     6146     6061     6015     6053     6169     6245 
    6177     6093     6133     6178     6156     6176     6208     6102 
    5953     5964     6069     6103     6083     6102     6137     6118 
    6075     6056     6053     6065     6075     6031     5962     5989 
    6115     6191     6193     6192     6208     6272     6301     6183 
    6029     5998     6035     6008     5934     5940     6062     6224 
    6372     6442     6366     6218     6127     6122     6151     6180 
    6189     6097     5892     5761     5786     5849     5913     5950 
    5957     6069     6268     6390     6405     6313     6164     6120 
    6222     6355     6426     6377     6189     5926     5757     5787 
    5926     6084     6243     6274     6126     5989     5971     6029 
    6164     6261     6180     6056     6069     6151     6169     6081 
    5910     5791     5914     6197     6300     6107     5891     5904 
    6066     6204     6259     6239     6207     6193     6143     6114 
    6177     6191     6080     5985     5985     6031     6115     6226 
    6268     6195     6137     6201     6273     6177     5992     5910 
    5931     6033     6215     6312     6228     6103     6039     6062 
    6174     6237     6139     6046     6069     6057     6003     6049 
    6110     6087     6043     6012     6046     6189     6312     6334 
    6307     6174     5989     5977     6077     6103     6081     6015 
    5913     5962     6226     6463     6463     6297     6099     5941 
    5911     5992     6042     6011     5994     6039     6081     6061 
    5987     5935     6034     6297     6496     6466     6307     6129 
    6027     6087     6172     6123     6004     5892     5827     5923 
    6177     6357     6335     6200     6043     6010     6149     6220 
    6130     6039     5976     5956     6053     6157     6154     6083 
    5991     5946     5977     6041     6164     6327     6372     6249 
    6111     6123     6255     6305     6197     6042     5927     5900 
    6014     6149     6107     5981     5945     5935     5895     5907 
    6018     6166     6242     6218     6189     6258     6351     6334 
    6246     6166     6108     6111     6147     6149     6111     6050 
    6035     6116     6183     6157     6135     6127     6048     6002 
    6099     6208     6208     6151     6115     6134     6154     6066 
    5913     5857     5942     6077     6193     6227     6129     6008 
    6031     6153     6197     6139     6099     6141     6239     6326 
    6309     6185     6077     6049     6025     6003     6061     6119 
    6030     5890     5929     6088     6127     6076     6058     6102 
    6228     6336     6293     6169     6079     6038     6019     6011 
    6057     6133     6162     6151     6130     6112     6118     6166 
    6199     6089     5886     5795     5864     6000     6123     6156 
    6157     6273     6399     6367     6276     6211     6100     6025 
    6103     6126     5965     5876     6014     6220     6304     6189 
    6022     6002     6129     6264     6315     6268     6141     6003 
    5940     5971     6025     6035     6019     6035     6108     6178 
    6147     6054     6060     6165     6253     6274     6210     6079 
    6016     6068     6089     5977     5859     5962     6291     6513 
    6427     6234     6160     6149     6112     6116     6164     6096 
    5918     5836     5907     6026     6127     6184     6138     6021 
    6002     6087     6141     6177     6211     6160     6066     6039 
    6050     6062     6145     6235     6184     6083     6139     6278 
    6284     6129     5921     5769     5769     5881     5967     6030 
    6183     6390     6497     6454     6304     6084     5914     5952 
    6120     6191     6103     6030     6080     6137     6092     6031 
    6077     6204     6282     6235     6126     6053     5994     5980 
    6085     6181     6188     6223     6272     6241     6137     5980 
    5854     5896     6075     6250     6381     6417     6249     6014 
    5971     6054     6080     6097     6156     6130     6011     5972 
    6025     6050     6075     6127     6099     6030     6037     6097 
    6188     6224     6115     5992     6018     6138     6237     6250 
