Origin Time       2025/03/30 22:55:00
Lat.              41.993
Long.             142.725
Depth. (km)       55
Mag.              4.6
Station Code      KSRH09
Station Lat.      42.9856
Station Long.     143.9841
Station Height(m) -73
Record Time       2025/03/30 22:56:42
Sampling Freq(Hz) 100Hz
Duration Time(s)  120
Dir.              3
Scale Factor      2942(gal)/8224139
Max. Acc. (gal)   0.175
Last Correction   2025/03/30 22:56:42
Memo.             
[...]
  184935   184851   184823   184844   184833   184805   184796   184794 
  184810   184874   184951   184978   184963   184959   184972   184979 
  184967   184923   184862   184810   184782   184844   184990   185049 
  184974   184910   184909   184901   184852   184796   184778   184820 
  184912   185002   185017   184993   185002   185005   184944   184871 
  184840   184843   184862   184890   184935   184963   184958   184960 
  184978   184954   184912   184904   184913   184927   184947   184979 
  184999   184958   184878   184836   184837   184840   184850   184869 
  184877   184867   184877   184908   184890   184819   184805   184852 
  184855   184831   184839   184863   184866   184839   184815   184831 
  184855   184864   184894   184924   184898   184862   184869   184882 
  184904   184967   184997   184937   184890   184954   185045   185029 
  184933   184877   184881   184925   184978   184987   184955   184913 
  184867   184821   184793   184813   184850   184870   184918   184967 
  184959   184933   184897   184837   184817   184829   184824   184825 
  184854   184887   184912   184927   184947   184966   184963   184945 
  184927   184921   184932   184913   184870   184878   184910   184882 
  184820   184800   184812   184835   184873   184891   184863   184815 
  184815   184862   184891   184894   184898   184897   184881   184860 
  184848   184852   184855   184860   184906   184956   184959   184960 
  184991   185018   185018   184998   184937   184878   184893   184900 
  184829   184800   184848   184883   184881   184859   184847   184893 
  184967   184999   184963   184894   184862   184858   184848   184847 
  184843   184820   184810   184843   184896   184920   184931   184966 
  184987   184954   184891   184808   184715   184697   184804   184937 
  184995   184997   184977   184933   184891   184864   184828   184802 
  184831   184904   184954   184943   184923   184940   184940   184894 
  184887   184947   184978   184944   184904   184859   184793   184758 
  184781   184790   184794   184873   184981   185028   185006   184937 
  184833   184748   184746   184793   184810   184827   184894   184955 
  184986   185018   185029   184970   184873   184829   184848   184855 
  184804   184725   184705   184806   184940   184993   184990   184975 
  184933   184894   184900   184939   184945   184897   184859   184846 
  184824   184852   184939   184974   184951   184955   184989   185014 
  184999   184943   184871   184815   184801   184833   184894   184960 
  185002   185036   185067   185037   184929   184831   184796   184817 
  184886   184941   184935   184906   184896   184909   184924   184889 
  184858   184883   184928   184997   185063   185056   185014   184954 
  184846   184752   184731   184766   184816   184901   185041   185118 
  185047   184981   185001   184971   184867   184792   184767   184788 
  184854   184932   184986   184964   184886   184842   184851   184874 
  184908   184956   184982   184981   185005   185036   185024   184983 
  184941   184913   184886   184860   184871   184887   184863   184842 
  184867   184904   184887   184848   184856   184906   184974   185010 
  184955   184862   184827   184846   184852   184839   184851   184875 
  184882   184906   184951   184967   184947   184883   184765   184661 
  184648   184702   184758   184802   184839   184847   184856   184923 
  184959   184905   184824   184756   184740   184796   184839   184850 
  184887   184905   184869   184846   184844   184823   184812   184825 
  184825   184802   184797   184846   184877   184854   184859   184869 
  184793   184715   184734   184779   184796   184808   184809   184817 
  184886   184963   184998   185016   185009   184963   184925   184918 
  184927   184948   184993   185022   185001   185004   185064   185080 
  185001   184909   184881   184897   184883   184870   184904   184904 
  184877   184924   184971   184931   184891   184920   184959   184951 
  184947   184962   184932   184889   184908   184925   184900   184906 
  184979   185014   184943   184852   184817   184816   184840   184896 
  184952   184998   185026   185029   184994   184925   184883   184883 
  184863   184843   184855   184855   184858   184897   184902   184835 
  184762   184748   184777   184829   184921   185009   185008   184936 
  184874   184859   184863   184850   184860   184920   184971   184974 
  184959   184982   185025   185022   184977   184939   184931   184947 
  184964   184985   184987   184963   184955   184943   184851   184771 
  184825   184931   184963   184897   184788   184727   184713   184724 
  184785   184827   184801   184788   184812   184835   184854   184877 
  184896   184897   184871   184874   184940   184990   184977   184974 
  184978   184929   184878   184881   184906   184937   184966   184987 
  185004   184994   184967   184916   184817   184762   184821   184885 
  184885   184877   184860   184816   184801   184848   184877   184847 
  184835   184847   184833   184837   184897   184936   184920   184882 
  184856   184862   184881   184901   184936   184968   184945   184852 
  184771   184779   184810   184840   184933   185008   184960   184908 
  184941   184978   184927   184823   184773   184806   184862   184887 
  184889   184883   184873   184882   184916   184881   184793   184819 
  184932   184979   184959   184925   184871   184850   184894   184944 
  184935   184902   184913   184956   184986   184999   185001   184974 
  184941   184945   184990   185043   185039   184945   184843   184823 
  184867   184900   184887   184862   184840   184833   184866   184878 
  184820   184789   184846   184902   184933   184993   185037   185005 
  184933   184867   184789   184758   184829   184860   184790   184801 
  184917   184958   184933   184959   185002   184987   184928   184893 
  184900   184900   184896   184885   184839   184805   184812   184804 
  184794   184819   184837   184866   184890   184863   184846   184879 
  184916   184954   184977   184955   184928   184924   184921   184883 
  184850   184882   184891   184844   184875   184970   184979   184935 
  184913   184881   184854   184871   184896   184905   184889   184848 
  184846   184890   184918   184913   184921   184947   184917   184843 
  184821   184829   184808   184821   184914   184967   184906   184852 
  184864   184870   184870   184906   184936   184927   184918   184944 
  184959   184913   184850   184797   184731   184732   184825   184894 
  184928   185002   185083   185095   185043   184968   184881   184806 
  184790   184833   184883   184906   184952   185028   185047   184993 
  184917   184870   184886   184905   184878   184867   184878   184873 
  184890   184928   184910   184844   184793   184743   184705   184729 
  184788   184839   184887   184908   184912   184933   184951   184952 
  184944   184935   184924   184881   184828   184810   184813   184802 
  184804   184867   184967   185022   185033   185071   185121   185078 
  184959   184906   184917   184921   184939   184967   184966   184966 
  184987   184982   184918   184855   184882   184940   184908   184836 
  184820   184819   184802   184797   184778   184742   184756   184836 
  184905   184921   184910   184863   184809   184837   184910   184948 
  184933   184878   184851   184879   184925   184998   185072   185118 
  185136   185090   184983   184866   184788   184762   184766   184797 
  184847   184896   184958   184990   184983   184983   184951   184859 
  184766   184717   184747   184801   184804   184797   184810   184802 
  184800   184851   184929   184978   184972   184921   184878   184914 
  184989   185006   184989   184991   185017   185002   184870   184729 
  184743   184850   184917   184896   184801   184723   184743   184828 
  184879   184867   184870   184891   184867   184863   184955   185051 
  185051   185001   184964   184916   184871   184929   185036   185079 
  185110   185151   185116   185026   184960   184866   184689   184527 
  184516   184626   184731   184827   184940   184995   184968   184952 
  184971   184932   184866   184870   184890   184893   184927   184913 
  184779   184654   184658   184727   184802   184898   184967   184948 
  184894   184897   184943   184958   184944   184941   184947   184971 
  185020   185029   184944   184819   184743   184700   184646   184631 
  184686   184751   184820   184936   185041   185063   185025   184945 
  184821   184750   184816   184944   185001   184978   184952   184945 
  184948   184987   184994   184885   184771   184781   184847   184893 
  184932   184968   184960   184920   184944   185035   185074   185025 
  184989   185025   185063   185049   185033   185025   184997   184977 
  184989   185010   185017   185029   185066   185037   184923   184832 
  184762   184671   184624   184640   184675   184708   184736   184761 
  184761   184747   184767   184819   184862   184893   184917   184936 
  184920   184831   184717   184651   184681   184796   184890   184886 
  184813   184708   184616   184581   184585   184609   184674   184783 
  184890   184962   185018   185043   185012   184982   184966   184936 
  184924   184896   184789   184692   184678   184713   184793   184898 
  184975   185064   185206   185326   185346   185291   185183   184989 
  184819   184850   184975   185020   184991   184905   184790   184729 
  184720   184742   184827   184939   185022   185051   185026   184972 
  184885   184796   184771   184782   184778   184770   184801   184893 
  184993   185017   184968   184905   184848   184823   184852   184873 
  184858   184889   184944   184954   184941   184912   184878   184886 
  184933   184995   185009   184960   184939   184927   184896   184916 
  184948   184920   184886   184893   184939   185016   185056   185044 
  185052   185082   185060   185005   184978   184972   184963   184940 
  184908   184927   184989   185012   184997   184954   184850   184732 
  184689   184752   184823   184805   184801   184862   184898   184917 
  184940   184928   184923   184963   185017   185058   185059   185048 
  185062   185045   184970   184896   184866   184866   184887   184936 
  184963   184940   184904   184889   184889   184882   184879   184894 
  184871   184800   184744   184727   184742   184775   184809   184847 
  184879   184916   184985   185035   185048   185067   185070   185044 
  185010   184964   184923   184883   184820   184743   184663   184586 
  184531   184538   184626   184752   184889   185002   185025   184985 
  184964   184977   184978   184943   184940   184970   184925   184839 
  184755   184636   184567   184632   184758   184848   184864   184850 
  184844   184804   184712   184613   184572   184623   184739   184859 
  184925   184933   184962   185025   185045   185024   185029   185064 
  185072   185060   185058   185002   184894   184839   184808   184729 
  184696   184762   184843   184897   184951   185008   185051   185082 
  185090   185052   185001   184997   185018   185006   184978   184975 
  184968   184927   184885   184851   184794   184739   184701   184677 
  184681   184704   184742   184798   184864   184956   185031   185028 
  185004   184985   184917   184835   184828   184887   184935   184952 
  184935   184862   184793   184779   184720   184569   184489   184577 
  184701   184750   184773   184836   184914   184987   185045   185063 
  185099   185209   185287   185257   185180   185110   185012   184898 
  184856   184877   184889   184916   184989   185049   185079   185098 
  185066   184959   184864   184816   184769   184743   184739   184717 
  184690   184657   184599   184572   184651   184808   184936   184999 
  185016   184974   184904   184863   184829   184802   184825   184885 
  184940   184997   185067   185114   185117   185107   185106   185102 
  185076   185012   184941   184890   184821   184763   184790   184898 
  185009   185026   184933   184867   184879   184874   184836   184808 
  184798   184831   184896   184929   184869   184767   184724   184666 
  184545   184499   184570   184673   184809   184966   185067   185106 
  185120   185091   185022   184948   184879   184823   184767   184705 
  184712   184823   184935   185001   185033   185025   184999   184968 
  184925   184944   185053   185164   185224   185236   185236   185237 
  185175   185043   184924   184856   184851   184896   184941   184981 
  184983   184947   184914   184824   184646   184512   184509   184596 
  184686   184728   184754   184781   184786   184796   184794   184761 
  184763   184829   184914   184960   184935   184902   184906   184894 
  184875   184882   184881   184862   184859   184889   184943   184960 
  184947   184947   184933   184921   184918   184864   184779   184751 
  184802   184864   184887   184917   184971   185014   185075   185133 
  185105   185006   184924   184886   184854   184801   184758   184747 
  184754   184740   184688   184650   184694   184788   184840   184829 
  184833   184918   185022   185082   185136   185184   185152   185072 
  185036   185020   184982   184950   184898   184809   184758   184778 
  184837   184886   184869   184837   184860   184877   184858   184812 
  184724   184678   184701   184704   184692   184709   184762   184821 
  184844   184881   184962   185018   185055   185082   185043   184958 
  184896   184875   184883   184908   184937   184954   184978   185070 
  185188   185269   185342   185384   185311   185159   185020   184904 
  184804   184750   184759   184804   184850   184908   184972   184994 
  184959   184883   184779   184711   184715   184739   184766   184798 
  184816   184817   184804   184782   184747   184717   184763   184851 
  184870   184852   184886   184936   184955   184981   185039   185094 
  185116   185102   185079   185060   185028   184990   184956   184894 
  184809   184738   184680   184626   184588   184588   184609   184619 
  184654   184750   184832   184848   184842   184860   184906   184958 
  184997   185017   185026   185064   185110   185095   185032   184964 
  184886   184809   184789   184820   184823   184788   184785   184821 
  184835   184831   184831   184793   184742   184762   184819   184833 
  184836   184866   184881   184848   184805   184817   184906   185021 
  185086   185078   185039   185041   185087   185098   185066   185029 
  184971   184873   184774   184736   184789   184881   184941   184955 
  184931   184896   184873   184848   184810   184788   184813   184847 
  184813   184739   184698   184719   184786   184860   184905   184924 
  184925   184931   184970   185020   185033   185033   185058   185067 
  185022   184928   184820   184781   184843   184935   184994   185006 
  185037   185124   185171   185132   185072   184983   184863   184797 
  184775   184747   184747   184788   184816   184832   184873   184910 
  184916   184902   184869   184809   184723   184608   184527   184528 
  184549   184577   184651   184717   184744   184806   184901   184940 
  184941   184990   185059   185076   185089   185149   185199   185195 
  185164   185132   185086   185026   184967   184910   184877   184885 
  184920   184941   184943   184950   184963   184985   185013   185010 
  184975   184960   184974   184981   184991   185013   184986   184910 
  184848   184827   184851   184879   184869   184869   184883   184869 
  184885   184948   184955   184910   184882   184825   184746   184743 
  184808   184854   184875   184909   184955   184985   184990   184966 
  184928   184900   184891   184894   184885   184894   184924   184927 
  184935   184944   184860   184738   184673   184631   184589   184582 
  184646   184773   184875   184902   184897   184901   184923   184947 
  184960   184950   184909   184906   184963   184987   184952   184912 
  184893   184887   184867   184833   184827   184813   184759   184715 
  184696   184701   184750   184813   184844   184833   184813   184833 
  184863   184858   184859   184875   184886   184923   184970   184982 
  185002   185024   184982   184912   184885   184879   184871   184864 
  184863   184874   184870   184825   184766   184709   184696   184762 
  184840   184863   184867   184869   184864   184886   184943   185002 
  185043   185067   185064   185022   184968   184937   184920   184894 
  184901   184972   185047   185052   185039   185087   185149   185129 
  185047   184972   184901   184850   184874   184948   184983   184990 
  185021   185040   185013   184977   184940   184897   184891   184945 
  184995   184987   184940   184893   184862   184839   184825   184835 
  184848   184840   184840   184894   184959   184939   184848   184802 
  184819   184823   184808   184785   184731   184681   184682   184711 
  184734   184793   184891   184937   184891   184817   184755   184723 
  184713   184707   184729   184794   184847   184883   184902   184852 
  184767   184719   184690   184651   184628   184650   184677   184682 
  184713   184763   184786   184817   184905   185022   185147   185261 
  185306   185256   185186   185151   185141   185137   185128   185116 
  185105   185095   185080   185035   184974   184941   184929   184929 
  184940   184925   184886   184839   184806   184808   184802   184781 
  184800   184862   184931   185008   185062   185053   185004   184990 
  185010   184972   184878   184793   184720   184669   184655   184665 
  184709   184775   184825   184869   184886   184844   184815   184851 
  184863   184812   184777   184801   184864   184939   184983   185009 
  185041   185053   185053   185067   185066   185066   185106   185149 
  185153   185126   185094   185082   185058   184983   184904   184862 
  184846   184852   184860   184863   184866   184839   184806   184831 
  184889   184920   184900   184860   184855   184885   184928   184967 
  184990   184999   184995   184971   184941   184936   184925   184859 
  184765   184697   184686   184729   184779   184806   184819   184821 
  184801   184779   184788   184800   184794   184805   184809   184794 
  184827   184896   184929   184947   184991   185044   185087   185107 
  185087   185063   185053   185029   184989   184966   184967   184972 
  184977   184986   184970   184918   184881   184882   184894   184893 
  184863   184842   184854   184874   184902   184929   184914   184881 
  184858   184813   184752   184725   184727   184732   184754   184804 
  184844   184843   184827   184829   184831   184836   184871   184924 
  184968   185004   185006   184960   184886   184790   184663   184562 
  184546   184558   184531   184503   184545   184658   184769   184821 
  184832   184808   184759   184744   184766   184782   184801   184840 
  184902   184958   184987   185020   185037   184998   184960   184974 
  184983   184962   184970   185031   185064   185031   184987   184966 
  184936   184916   184932   184935   184905   184882   184889   184917 
  184936   184933   184923   184886   184846   184831   184816   184800 
  184827   184894   184947   184970   185002   185037   185022   184975 
  184962   184966   184962   184982   184998   184967   184925   184902 
  184882   184869   184874   184898   184917   184896   184850   184819 
  184786   184747   184724   184701   184677   184694   184738   184747 
