Origin Time       2025/03/30 22:55:00
Lat.              41.993
Long.             142.725
Depth. (km)       55
Mag.              4.6
Station Code      KSRH09
Station Lat.      42.9856
Station Long.     143.9841
Station Height(m) 27
Record Time       2025/03/30 22:56:42
Sampling Freq(Hz) 100Hz
Duration Time(s)  120
Dir.              5
Scale Factor      7845(gal)/8223790
Max. Acc. (gal)   1.065
Last Correction   2025/03/30 22:56:42
Memo.             
[...]
   11630    11564    11491    11452    11457    11503    11581    11658 
   11688    11657    11585    11514    11466    11446    11445    11454 
   11469    11495    11529    11554    11576    11603    11623    11623 
   11599    11550    11502    11481    11485    11503    11533    11572 
   11604    11607    11570    11508    11454    11442    11481    11541 
   11577    11587    11573    11543    11504    11470    11448    11452 
   11504    11581    11647    11695    11718    11701    11653    11587 
   11514    11460    11452    11483    11522    11557    11577    11562 
   11514    11472    11468    11485    11504    11522    11545    11564 
   11569    11565    11564    11569    11568    11556    11537    11531 
   11545    11558    11556    11538    11500    11466    11464    11488 
   11519    11543    11560    11566    11562    11547    11526    11508 
   11515    11561    11626    11666    11662    11626    11574    11514 
   11464    11460    11495    11534    11569    11612    11651    11659 
   11637    11600    11562    11514    11456    11415    11411    11441 
   11499    11566    11610    11623    11603    11554    11507    11492 
   11508    11543    11584    11607    11597    11570    11535    11492 
   11464    11464    11475    11479    11487    11515    11564    11607 
   11623    11608    11574    11543    11522    11511    11516    11514 
   11489    11476    11492    11518    11539    11570    11623    11673 
   11697    11689    11632    11538    11441    11373    11341    11352 
   11421    11524    11593    11600    11564    11516    11496    11514 
   11551    11587    11605    11611    11616    11630    11647    11643 
   11605    11558    11530    11524    11531    11542    11554    11568 
   11566    11543    11526    11526    11516    11495    11484    11493 
   11519    11537    11533    11531    11539    11549    11561    11580 
   11593    11595    11585    11565    11538    11511    11499    11511 
   11538    11564    11588    11601    11587    11550    11522    11516 
   11527    11533    11520    11500    11493    11510    11538    11574 
   11600    11599    11569    11522    11469    11430    11418    11439 
   11493    11566    11627    11646    11623    11583    11550    11547 
   11570    11595    11615    11647    11688    11699    11661    11589 
   11514    11454    11433    11450    11481    11504    11511    11510 
   11504    11495    11487    11480    11473    11472    11477    11488 
   11511    11547    11589    11627    11650    11634    11564    11469 
   11415    11431    11488    11554    11608    11641    11649    11634 
   11591    11523    11457    11427    11456    11519    11573    11593 
   11593    11603    11627    11634    11608    11566    11538    11533 
   11535    11535    11541    11554    11569    11580    11569    11510 
   11419    11357    11348    11387    11456    11537    11608    11653 
   11673    11686    11691    11669    11632    11595    11562    11531 
   11495    11466    11472    11511    11570    11623    11622    11553 
   11464    11406    11389    11410    11448    11492    11539    11568 
   11566    11534    11480    11430    11414    11442    11493    11534 
   11553    11569    11592    11607    11603    11588    11574    11560 
   11547    11554    11585    11630    11661    11669    11666    11654 
   11622    11578    11539    11520    11529    11554    11578    11573 
   11523    11445    11385    11380    11416    11475    11547    11616 
   11649    11645    11623    11593    11572    11562    11553    11535 
   11510    11487    11487    11503    11526    11549    11565    11572 
   11577    11574    11561    11545    11535    11533    11530    11519 
   11508    11522    11560    11591    11601    11604    11605    11592 
   11558    11514    11481    11479    11502    11533    11564    11584 
   11570    11530    11488    11466    11466    11484    11507    11534 
   11551    11543    11523    11518    11527    11533    11535    11541 
   11545    11550    11562    11588    11620    11635    11618    11592 
   11576    11569    11570    11574    11566    11539    11512    11496 
   11484    11462    11445    11446    11481    11538    11592    11627 
   11639    11637    11630    11619    11599    11568    11538    11537 
   11561    11585    11600    11595    11558    11512    11473    11435 
   11402    11381    11384    11416    11468    11512    11534    11529 
   11503    11479    11481    11520    11577    11626    11653    11662 
   11662    11651    11626    11587    11542    11519    11535    11566 
   11577    11566    11547    11526    11508    11504    11510    11520 
   11543    11574    11604    11618    11608    11574    11531    11497 
   11489    11519    11570    11597    11600    11608    11615    11607 
   11589    11558    11512    11462    11416    11383    11365    11371 
   11398    11438    11484    11518    11535    11557    11600    11643 
   11654    11634    11608    11576    11537    11506    11488    11481 
   11502    11556    11612    11638    11638    11615    11576    11538 
   11511    11492    11493    11520    11556    11580    11589    11589 
   11592    11611    11630    11630    11608    11561    11500    11460 
   11462    11507    11574    11630    11650    11623    11568    11511 
   11458    11410    11384    11394    11438    11491    11520    11526 
   11519    11515    11519    11526    11538    11561    11585    11607 
   11631    11645    11627    11592    11561    11531    11497    11481 
   11499    11549    11611    11653    11659    11638    11607    11580 
   11565    11558    11546    11524    11493    11457    11429    11423 
   11446    11487    11526    11550    11550    11519    11462    11412 
   11404    11454    11546    11641    11712    11751    11755    11723 
   11655    11564    11484    11449    11456    11489    11541    11591 
   11626    11639    11614    11547    11454    11380    11362    11385 
   11422    11466    11522    11572    11593    11581    11542    11503 
   11492    11515    11557    11587    11592    11585    11576    11570 
   11576    11584    11592    11591    11580    11572    11558    11520 
   11470    11448    11460    11489    11520    11549    11581    11611 
   11618    11604    11587    11572    11560    11558    11574    11597 
   11603    11583    11546    11510    11480    11457    11446    11456 
   11489    11547    11612    11657    11668    11653    11623    11589 
   11560    11539    11529    11530    11543    11561    11562    11542 
   11510    11477    11449    11433    11438    11465    11512    11566 
   11587    11550    11488    11446    11442    11470    11522    11578 
   11614    11615    11588    11529    11452    11395    11376    11400 
   11473    11581    11682    11743    11767    11758    11713    11639 
   11557    11500    11495    11537    11585    11608    11601    11576 
   11543    11507    11465    11435    11442    11469    11495    11500 
   11472    11421    11385    11391    11425    11479    11539    11583 
   11599    11600    11601    11595    11578    11576    11593    11619 
   11646    11658    11639    11596    11549    11527    11538    11561 
   11576    11566    11534    11507    11497    11489    11473    11466 
   11470    11472    11470    11458    11441    11433    11449    11491 
   11535    11556    11554    11557    11596    11662    11723    11753 
   11745    11708    11659    11611    11573    11545    11520    11515 
   11554    11624    11664    11626    11529    11421    11356    11369 
   11456    11554    11608    11618    11604    11580    11550    11515 
   11489    11491    11526    11589    11649    11665    11639    11599 
   11558    11524    11495    11466    11448    11453    11476    11500 
   11511    11503    11473    11446    11448    11472    11507    11543 
   11574    11593    11601    11596    11578    11557    11550    11566 
   11580    11577    11561    11551    11564    11588    11600    11596 
   11578    11554    11531    11500    11466    11452    11470    11510 
   11557    11591    11596    11589    11589    11604    11638    11666 
   11661    11634    11603    11578    11568    11574    11580    11574 
   11565    11551    11507    11442    11391    11368    11360    11372 
   11411    11448    11450    11430    11418    11423    11442    11487 
   11558    11632    11669    11659    11638    11624    11607    11584 
   11578    11589    11603    11619    11642    11674    11701    11692 
   11639    11566    11496    11426    11369    11361    11414    11487 
   11542    11574    11581    11557    11511    11465    11445    11460 
   11508    11570    11620    11649    11647    11615    11551    11475 
   11410    11376    11391    11449    11538    11631    11692    11696 
   11650    11583    11519    11477    11469    11497    11551    11620 
   11696    11751    11754    11695    11597    11499    11438    11434 
   11460    11487    11518    11547    11553    11533    11504    11466 
   11423    11388    11372    11362    11344    11327    11348    11402 
   11466    11538    11616    11689    11746    11772    11762    11722 
   11670    11638    11637    11653    11666    11668    11655    11622 
   11570    11500    11418    11345    11308    11315    11364    11443 
   11526    11589    11608    11581    11535    11495    11470    11481 
   11535    11605    11664    11695    11691    11662    11637    11615 
   11595    11584    11580    11568    11518    11427    11331    11279 
   11295    11360    11435    11495    11524    11531    11538    11542 
   11533    11526    11533    11546    11572    11614    11658    11696 
   11708    11699    11678    11650    11618    11583    11539    11495 
   11465    11453    11454    11476    11514    11556    11596    11626 
   11637    11645    11651    11659    11657    11630    11595    11576 
   11577    11593    11608    11605    11588    11558    11506    11438 
   11375    11322    11295    11307    11349    11404    11456    11487 
   11506    11507    11485    11460    11469    11531    11626    11704 
   11743    11747    11730    11703    11677    11647    11614    11588 
   11583    11585    11580    11556    11512    11466    11441    11441 
   11446    11454    11477    11504    11522    11531    11537    11529 
   11511    11506    11516    11516    11493    11465    11453    11460 
   11476    11497    11515    11537    11583    11645    11677    11662 
   11604    11526    11462    11427    11414    11414    11439    11493 
   11557    11596    11583    11520    11442    11394    11394    11427 
   11472    11530    11604    11670    11700    11678    11618    11558 
   11537    11554    11588    11619    11641    11649    11653    11659 
   11661    11655    11657    11674    11696    11715    11713    11659 
   11573    11510    11481    11480    11510    11557    11584    11573 
   11530    11462    11375    11279    11206    11187    11209    11253 
   11323    11426    11543    11631    11662    11650    11618    11576 
   11550    11554    11591    11653    11719    11763    11781    11763 
   11703    11615    11543    11516    11508    11500    11495    11500 
   11504    11495    11481    11484    11496    11508    11495    11446 
   11381    11327    11315    11352    11414    11484    11558    11623 
   11662    11674    11681    11696    11712    11732    11772    11819 
   11859    11897    11919    11882    11794    11704    11623    11545 
   11481    11448    11449    11470    11492    11503    11495    11472 
   11438    11398    11364    11349    11348    11361    11399    11453 
   11504    11551    11600    11623    11595    11523    11449    11412 
   11430    11480    11534    11580    11620    11635    11597    11508 
   11388    11286    11237    11233    11245    11265    11310    11384 
   11477    11580    11674    11735    11749    11719    11661    11603 
   11574    11601    11657    11707    11745    11773    11776    11743 
   11681    11610    11542    11491    11473    11496    11542    11600 
   11662    11719    11763    11774    11731    11649    11561    11484 
   11425    11396    11400    11427    11452    11469    11499    11542 
   11596    11664    11722    11755    11786    11816    11816    11769 
   11685    11591    11511    11443    11384    11333    11300    11291 
   11298    11307    11307    11291    11261    11230    11217    11227 
   11261    11300    11345    11398    11453    11492    11503    11500 
   11512    11546    11581    11612    11632    11646    11680    11761 
   11878    11998    12085    12114    12075    11958    11770    11546 
   11331    11187    11157    11223    11345    11484    11593    11635 
   11608    11535    11458    11402    11353    11300    11267    11288 
   11369    11483    11580    11639    11682    11731    11761    11732 
   11643    11539    11457    11410    11385    11368    11349    11341 
   11369    11430    11506    11581    11634    11645    11618    11573 
   11534    11518    11547    11647    11785    11893    11934    11882 
   11718    11479    11245    11071    10987    11033    11203    11402 
   11541    11592    11562    11487    11414    11384    11416    11530 
   11699    11847    11901    11839    11692    11515    11371    11286 
   11246    11232    11225    11232    11286    11415    11604    11820 
   12023    12174    12247    12236    12145    12005    11877    11817 
   11831    11881    11921    11923    11878    11793    11668    11476 
   11215    10929    10677    10500    10427    10459    10577    10770 
   11022    11292    11546    11758    11911    12013    12096    12181 
   12270    12330    12324    12253    12156    12043    11900    11730 
   11547    11375    11248    11198    11210    11253    11296    11317 
   11302    11261    11218    11206    11241    11304    11367    11407 
   11435    11468    11500    11531    11592    11693    11777    11772 
   11653    11461    11268    11145    11142    11271    11492    11742 
   11955    12093    12136    12081    11954    11797    11642    11520 
   11461    11464    11497    11533    11553    11537    11462    11338 
   11186    11029    10910    10872    10922    11060    11279    11534 
   11765    11916    11965    11927    11836    11746    11705    11743 
   11866    12024    12123    12086    11912    11664    11431    11269 
   11186    11159    11167    11206    11269    11338    11379    11371 
   11346    11350    11396    11464    11529    11570    11584    11581 
   11589    11641    11746    11869    11971    12025    12004    11896 
   11753    11632    11547    11497    11500    11524    11499    11392 
   11240    11090    10971    10903    10917    11026    11205    11377 
   11499    11562    11584    11591    11614    11650    11677    11685 
   11691    11712    11746    11769    11776    11763    11720    11643 
   11561    11502    11464    11437    11426    11435    11462    11507 
   11574    11658    11728    11758    11743    11695    11637    11593 
   11568    11541    11519    11512    11515    11514    11506    11496 
   11500    11533    11597    11680    11765    11835    11873    11859 
   11780    11655    11516    11381    11286    11269    11335    11454 
   11583    11680    11712    11678    11628    11597    11569    11508 
   11414    11327    11281    11299    11407    11580    11740    11844 
   11886    11844    11724    11568    11404    11263    11195    11219 
   11302    11391    11443    11446    11430    11429    11460    11529 
   11623    11703    11749    11758    11731    11681    11624    11581 
   11558    11531    11489    11445    11408    11367    11318    11295 
   11319    11387    11492    11623    11750    11832    11843    11797 
   11736    11680    11628    11584    11539    11495    11453    11427 
   11429    11461    11508    11547    11565    11558    11538    11514 
   11488    11448    11391    11354    11379    11430    11472    11527 
   11597    11645    11655    11637    11585    11524    11489    11493 
   11523    11549    11572    11611    11655    11670    11622    11519 
   11404    11317    11279    11298    11362    11446    11519    11580 
   11645    11699    11723    11726    11716    11688    11646    11616 
   11612    11626    11659    11719    11777    11819    11828    11773 
   11655    11537    11468    11437    11414    11381    11321    11238 
   11180    11171    11191    11226    11280    11322    11319    11296 
   11286    11296    11353    11468    11616    11750    11843    11886 
   11892    11882    11882    11886    11882    11854    11793    11701 
   11581    11448    11335    11287    11321    11434    11578    11691 
   11738    11726    11684    11649    11642    11658    11685    11723 
   11755    11750    11681    11549    11383    11232    11149    11152 
   11205    11269    11348    11434    11495    11516    11503    11446 
   11352    11259    11205    11229    11323    11441    11550    11647 
   11742    11854    11979    12083    12129    12085    11938    11740 
   11562    11425    11308    11223    11191    11195    11213    11256 
   11326    11400    11466    11526    11581    11626    11643    11622 
   11558    11470    11400    11394    11468    11581    11677    11728 
   11731    11691    11624    11560    11530    11565    11661    11790 
   11917    11971    11901    11734    11546    11398    11330    11346 
   11423    11535    11631    11662    11624    11541    11445    11364 
   11296    11245    11215    11190    11160    11141    11148    11180 
   11250    11365    11512    11662    11782    11855    11901    11965 
   12067    12172    12233    12214    12101    11913    11701    11512 
   11371    11287    11271    11306    11329    11280    11148    10987 
   10866    10824    10862    10957    11075    11191    11303    11412 
   11516    11616    11727    11847    11954    12013    12013    11988 
   11988    12015    12031    12009    11934    11801    11643    11502 
   11408    11380    11426    11537    11682    11800    11842    11793 
   11657    11450    11238    11094    11051    11094    11186    11284 
   11384    11515    11661    11780    11859    11912    11942    11940 
   11900    11813    11695    11560    11429    11333    11271    11223 
   11195    11188    11175    11157    11163    11179    11187    11191 
   11207    11267    11379    11524    11674    11805    11925    12050 
   12147    12190    12187    12155    12090    11986    11846    11695 
   11547    11423    11342    11306    11295    11290    11281    11283 
   11308    11352    11404    11466    11529    11576    11603    11610 
   11583    11500    11376    11250    11159    11134    11209    11353 
   11510    11635    11707    11732    11731    11712    11676    11623 
   11572    11549    11562    11608    11657    11668    11634    11576 
   11531    11526    11560    11632    11730    11804    11839    11847 
   11835    11794    11724    11616    11477    11334    11221    11136 
   11070    11055    11122    11264    11435    11601    11738    11817 
   11831    11801    11754    11697    11646    11619    11618    11612 
   11578    11514    11416    11299    11211    11175    11176    11205 
   11260    11335    11418    11497    11570    11641    11719    11808 
   11885    11908    11865    11781    11699    11647    11634    11649 
