Origin Time       2025/03/30 22:55:00
Lat.              41.993
Long.             142.725
Depth. (km)       55
Mag.              4.6
Station Code      KSRH09
Station Lat.      42.9856
Station Long.     143.9841
Station Height(m) -73
Record Time       2025/03/30 22:56:42
Sampling Freq(Hz) 100Hz
Duration Time(s)  120
Dir.              1
Scale Factor      2942(gal)/8224139
Max. Acc. (gal)   0.227
Last Correction   2025/03/30 22:56:42
Memo.             
[...]
  159721   159800   159799   159759   159765   159817   159815   159733 
  159667   159700   159792   159845   159823   159776   159737   159710 
  159710   159742   159788   159815   159802   159756   159715   159710 
  159736   159788   159854   159884   159837   159742   159686   159706 
  159746   159748   159738   159748   159775   159803   159792   159730 
  159680   159673   159691   159736   159803   159852   159862   159841 
  159784   159733   159730   159746   159742   159736   159750   159788 
  159827   159841   159826   159815   159806   159775   159733   159715 
  159742   159777   159763   159702   159652   159663   159737   159826 
  159876   159869   159844   159838   159829   159788   159742   159713 
  159691   159687   159683   159672   159686   159726   159753   159745 
  159736   159767   159825   159841   159772   159684   159683   159745 
  159763   159715   159679   159725   159807   159804   159726   159703 
  159777   159854   159840   159759   159714   159730   159749   159756 
  159787   159842   159887   159895   159887   159891   159883   159823 
  159736   159679   159669   159657   159628   159638   159717   159804 
  159827   159796   159796   159835   159838   159780   159719   159713 
  159760   159802   159787   159737   159706   159711   159730   159733 
  159703   159655   159652   159722   159813   159856   159837   159792 
  159771   159771   159769   159761   159764   159784   159798   159790 
  159780   159794   159806   159786   159753   159742   159769   159819 
  159840   159792   159730   159730   159783   159825   159817   159771 
  159734   159726   159723   159718   159729   159753   159750   159705 
  159661   159690   159796   159888   159889   159818   159757   159746 
  159736   159706   159698   159727   159765   159787   159798   159813 
  159819   159775   159691   159659   159719   159788   159783   159733 
  159717   159767   159804   159750   159675   159698   159791   159846 
  159829   159803   159826   159858   159814   159705   159653   159714 
  159786   159773   159715   159706   159757   159784   159754   159726 
  159734   159748   159733   159709   159732   159802   159838   159803 
  159765   159786   159837   159837   159771   159725   159742   159764 
  159769   159798   159861   159902   159861   159764   159690   159687 
  159717   159710   159688   159706   159754   159786   159786   159777 
  159781   159779   159768   159771   159767   159723   159664   159655 
  159723   159821   159835   159737   159636   159626   159713   159833 
  159906   159922   159916   159869   159784   159729   159734   159767 
  159779   159761   159752   159777   159803   159798   159791   159811 
  159834   159803   159710   159637   159659   159725   159737   159687 
  159656   159714   159826   159884   159864   159822   159779   159741 
  159737   159764   159796   159813   159788   159738   159715   159736 
  159756   159763   159753   159726   159707   159713   159725   159733 
  159736   159737   159732   159711   159690   159690   159721   159783 
  159865   159923   159911   159844   159788   159788   159827   159845 
  159802   159734   159695   159680   159648   159629   159695   159817 
  159888   159869   159792   159722   159692   159682   159672   159690 
  159736   159779   159788   159767   159753   159765   159754   159741 
  159791   159879   159926   159907   159842   159777   159729   159675 
  159637   159648   159699   159761   159802   159814   159831   159869 
  159889   159868   159817   159765   159738   159727   159695   159645 
  159624   159667   159760   159838   159846   159794   159738   159709 
  159695   159695   159692   159680   159686   159717   159749   159777 
  159803   159826   159833   159810   159779   159761   159759   159769 
  159769   159727   159676   159686   159753   159807   159808   159788 
  159799   159831   159834   159795   159764   159775   159791   159769 
  159736   159753   159822   159853   159795   159721   159714   159764 
  159787   159768   159773   159831   159871   159818   159727   159700 
  159738   159754   159713   159673   159702   159776   159813   159761 
  159684   159676   159730   159773   159780   159783   159799   159803 
  159780   159754   159757   159792   159833   159823   159746   159676 
  159665   159665   159651   159664   159733   159818   159861   159849 
  159819   159795   159775   159746   159713   159721   159776   159817 
  159817   159800   159781   159742   159691   159682   159722   159765 
  159783   159790   159823   159871   159861   159788   159719   159722 
  159769   159784   159761   159765   159804   159840   159826   159779 
  159753   159764   159771   159750   159721   159713   159752   159804 
  159800   159738   159707   159741   159791   159811   159811   159825 
  159829   159750   159628   159595   159675   159756   159757   159707 
  159686   159719   159746   159727   159734   159826   159923   159946 
  159906   159842   159769   159683   159609   159605   159673   159765 
  159827   159845   159844   159826   159773   159715   159709   159742 
  159771   159783   159784   159776   159791   159825   159830   159813 
  159792   159765   159760   159773   159746   159692   159664   159680 
  159723   159744   159719   159695   159721   159784   159822   159804 
  159771   159773   159788   159752   159698   159719   159810   159860 
  159799   159702   159703   159799   159834   159754   159676   159695 
  159752   159746   159711   159729   159792   159829   159800   159764 
  159799   159842   159791   159700   159709   159826   159925   159896 
  159784   159711   159721   159746   159733   159703   159707   159765 
  159818   159783   159698   159675   159715   159723   159672   159638 
  159683   159754   159753   159680   159642   159696   159800   159853 
  159822   159773   159779   159817   159842   159844   159833   159829 
  159823   159811   159796   159780   159783   159798   159784   159725 
  159649   159645   159752   159857   159861   159810   159783   159803 
  159821   159779   159709   159678   159695   159726   159733   159732 
  159767   159810   159804   159771   159763   159798   159826   159795 
  159733   159688   159661   159652   159657   159678   159707   159736 
  159767   159800   159827   159829   159806   159818   159887   159923 
  159862   159757   159699   159727   159783   159784   159738   159721 
  159737   159726   159706   159749   159834   159888   159883   159837 
  159781   159736   159699   159678   159709   159790   159825   159775 
  159715   159711   159745   159744   159682   159626   159637   159676 
  159702   159729   159767   159787   159787   159772   159740   159707 
  159703   159729   159786   159872   159934   159916   159844   159772 
  159727   159719   159737   159741   159723   159723   159752   159802 
  159858   159883   159846   159772   159717   159729   159796   159860 
  159856   159783   159725   159736   159777   159806   159819   159813 
  159784   159734   159678   159657   159682   159695   159686   159683 
  159711   159767   159815   159827   159819   159819   159802   159745 
  159682   159656   159692   159760   159799   159796   159772   159742 
  159721   159734   159777   159798   159769   159742   159769   159833 
  159871   159858   159822   159796   159787   159790   159775   159718 
  159652   159644   159722   159841   159903   159868   159773   159709 
  159725   159767   159749   159695   159657   159664   159710   159752 
  159760   159757   159769   159803   159840   159834   159773   159700 
  159655   159637   159653   159721   159800   159823   159768   159698 
  159676   159702   159757   159813   159844   159846   159838   159818 
  159791   159775   159780   159781   159776   159790   159810   159804 
  159781   159769   159769   159776   159786   159796   159814   159808 
  159749   159678   159655   159696   159771   159792   159745   159687 
  159653   159645   159664   159696   159729   159738   159737   159763 
  159821   159879   159899   159884   159869   159850   159827   159813 
  159788   159763   159745   159710   159683   159711   159791   159850 
  159850   159821   159798   159777   159736   159684   159648   159642 
  159683   159730   159741   159740   159754   159794   159837   159833 
  159792   159750   159696   159646   159642   159679   159726   159777 
  159822   159844   159838   159831   159840   159856   159856   159834 
  159808   159806   159837   159867   159850   159783   159703   159676 
  159718   159761   159752   159707   159678   159690   159713   159719 
  159723   159737   159744   159713   159659   159636   159664   159698 
  159696   159680   159703   159772   159852   159894   159872   159798 
  159711   159660   159678   159737   159780   159804   159844   159894 
  159930   159923   159875   159835   159835   159831   159779   159703 
  159657   159667   159699   159695   159668   159690   159763   159833 
  159849   159814   159790   159807   159825   159817   159786   159753 
  159754   159788   159818   159817   159803   159784   159750   159723 
  159726   159722   159683   159651   159684   159775   159850   159860 
  159825   159802   159790   159754   159723   159741   159795   159833 
  159818   159768   159729   159700   159678   159706   159802   159876 
  159815   159661   159588   159678   159804   159829   159769   159752 
  159810   159854   159814   159736   159721   159783   159817   159765 
  159702   159707   159749   159757   159732   159698   159680   159695 
  159717   159732   159748   159749   159745   159767   159799   159817 
  159810   159777   159750   159733   159688   159638   159644   159692 
  159745   159781   159798   159815   159833   159806   159741   159709 
  159746   159800   159792   159744   159737   159765   159763   159723 
  159713   159779   159860   159858   159792   159759   159791   159829 
  159813   159765   159745   159771   159796   159780   159745   159733 
  159733   159737   159752   159756   159744   159736   159753   159788 
  159804   159796   159804   159831   159858   159861   159830   159786 
  159752   159732   159738   159781   159803   159771   159736   159725 
  159729   159734   159726   159714   159742   159800   159852   159879 
  159865   159814   159746   159696   159683   159687   159679   159651 
  159634   159656   159686   159695   159710   159753   159830   159904 
  159903   159827   159749   159725   159772   159831   159841   159829 
  159841   159869   159891   159881   159842   159822   159829   159799 
  159718   159651   159664   159736   159777   159763   159744   159765 
  159792   159764   159711   159705   159721   159711   159673   159660 
  159711   159780   159810   159788   159738   159702   159683   159671 
  159678   159714   159761   159802   159817   159787   159734   159706 
  159722   159763   159767   159740   159744   159792   159841   159849 
  159842   159848   159838   159803   159783   159803   159838   159821 
  159754   159717   159745   159783   159756   159696   159699   159742 
  159736   159675   159624   159629   159668   159673   159641   159636 
  159709   159827   159881   159834   159750   159713   159741   159777 
  159795   159799   159771   159732   159722   159736   159771   159827 
  159868   159887   159888   159845   159768   159709   159702   159726 
  159737   159736   159740   159725   159713   159754   159833   159910 
  159938   159877   159780   159709   159653   159587   159514   159498 
  159564   159672   159757   159786   159784   159802   159825   159796 
  159715   159664   159709   159817   159904   159923   159900   159891 
  159906   159927   159941   159946   159946   159943   159921   159864 
  159802   159788   159838   159922   159941   159818   159625   159486 
  159432   159452   159529   159614   159679   159714   159707   159673 
  159665   159707   159722   159653   159583   159613   159715   159788 
  159796   159784   159784   159773   159730   159713   159795   159914 
  159946   159895   159864   159926   159997   159945   159819   159773 
  159807   159786   159648   159486   159420   159457   159509   159548 
  159628   159740   159777   159682   159574   159606   159742   159830 
  159791   159690   159610   159557   159526   159536   159598   159682 
  159736   159791   159935   160114   160157   160023   159852   159821 
  159942   160050   160027   159938   159875   159819   159700   159559 
  159557   159726   159912   159972   159891   159788   159781   159811 
  159765   159692   159706   159819   159929   159899   159742   159590 
  159517   159495   159490   159505   159564   159645   159679   159680 
  159757   159918   160043   160066   160010   159939   159919   159926 
  159903   159867   159835   159779   159694   159634   159649   159741 
  159857   159927   159960   160006   160070   160085   159969   159752 
  159580   159576   159714   159802   159733   159597   159483   159383 
  159294   159256   159344   159553   159752   159826   159814   159827 
  159892   159977   160066   160141   160164   160066   159835   159590 
  159441   159422   159518   159678   159860   160049   160157   160114 
  159999   159922   159877   159829   159818   159902   160022   160049 
  159958   159860   159842   159854   159790   159686   159659   159715 
  159772   159771   159745   159791   159926   160056   160083   160011 
  159908   159749   159513   159325   159287   159371   159467   159460 
  159366   159332   159418   159517   159567   159665   159869   160076 
  160182   160197   160227   160324   160397   160317   160107   159888 
  159732   159615   159494   159391   159403   159563   159765   159861 
  159822   159768   159773   159795   159791   159759   159729   159729 
  159714   159605   159410   159278   159322   159464   159544   159511 
  159437   159452   159626   159835   159927   159912   159861   159833 
  159850   159861   159813   159740   159676   159594   159494   159421 
  159410   159474   159557   159583   159578   159642   159814   160008 
  160124   160149   160135   160099   159992   159804   159640   159595 
  159663   159763   159818   159823   159819   159792   159740   159744 
  159853   159993   160033   159891   159636   159443   159406   159501 
  159615   159663   159696   159771   159840   159860   159838   159844 
  159930   160062   160165   160173   160095   159980   159852   159744 
  159732   159835   159954   159953   159831   159687   159592   159584 
  159630   159638   159584   159553   159598   159648   159628   159555 
  159483   159479   159548   159574   159489   159389   159383   159490 
  159656   159814   159958   160095   160150   160087   160004   159992 
  159999   159952   159895   159922   160022   160072   159970   159787 
  159686   159710   159750   159745   159757   159818   159844   159757 
  159628   159598   159675   159744   159726   159618   159511   159505 
  159541   159524   159491   159545   159688   159831   159934   160031 
  160124   160151   160087   159966   159873   159844   159802   159678 
  159522   159452   159489   159556   159599   159605   159579   159553 
  159556   159601   159669   159713   159771   159935   160181   160354 
  160316   160087   159846   159713   159632   159559   159548   159642 
  159803   159933   160000   160051   160103   160095   159973   159773 
  159637   159633   159638   159567   159509   159548   159661   159780 
  159829   159788   159727   159694   159652   159594   159590   159680 
  159783   159792   159717   159641   159613   159621   159619   159592 
  159580   159602   159642   159719   159865   160047   160169   160177 
  160126   160093   160096   160112   160110   160053   159934   159779 
  159618   159482   159378   159305   159285   159340   159444   159543 
  159641   159768   159921   160023   159975   159792   159645   159651 
  159744   159796   159740   159629   159571   159602   159695   159819 
  159934   160007   160030   160014   159981   159950   159904   159803 
  159678   159614   159619   159622   159614   159641   159715   159804 
  159871   159900   159934   160004   160057   160031   159935   159813 
  159719   159699   159756   159850   159927   159960   159966   159956 
  159896   159796   159715   159664   159599   159521   159480   159520 
  159632   159744   159773   159752   159768   159810   159768   159630 
  159540   159599   159742   159811   159729   159610   159630   159815 
  160012   160078   160027   159960   159912   159853   159767   159703 
  159726   159799   159835   159835   159822   159779   159717   159684 
  159703   159744   159750   159713   159707   159763   159779   159717 
  159673   159745   159872   159895   159756   159556   159453   159491 
  159570   159618   159659   159705   159741   159756   159784   159850 
  159912   159929   159906   159868   159844   159845   159860   159857 
  159834   159798   159733   159634   159544   159499   159472   159457 
  159497   159586   159676   159727   159705   159644   159625   159664 
  159703   159695   159651   159590   159526   159511   159598   159760 
  159900   159921   159842   159784   159799   159819   159794   159781 
  159865   159989   160012   159891   159767   159777   159894   159992 
  159995   159937   159929   159993   160035   159985   159880   159790 
  159730   159668   159582   159493   159441   159459   159522   159561 
  159551   159513   159499   159556   159653   159744   159848   159999 
  160141   160177   160061   159869   159761   159777   159803   159749 
  159657   159622   159661   159690   159644   159583   159594   159657 
  159698   159703   159727   159791   159856   159915   159964   159976 
  159923   159799   159676   159644   159684   159726   159738   159737 
  159771   159861   159958   160006   160022   160043   160051   160027 
  159950   159795   159597   159449   159401   159440   159522   159619 
  159723   159833   159915   159941   159927   159914   159927   159939 
  159898   159818   159750   159695   159633   159591   159622   159736 
  159849   159892   159873   159856   159899   159980   159999   159935 
  159856   159813   159814   159823   159773   159665   159580   159598 
  159703   159786   159746   159621   159572   159676   159800   159807 
  159709   159586   159514   159518   159574   159668   159784   159862 
  159885   159908   159968   160000   159925   159756   159630   159648 
  159745   159818   159852   159896   159985   160076   160095   160051 
  159995   159933   159852   159752   159680   159676   159683   159663 
  159656   159705   159803   159877   159846   159737   159629   159557 
  159534   159540   159555   159594   159663   159760   159871   159916 
  159849   159752   159717   159719   159675   159579   159507   159529 
  159598   159595   159544   159580   159706   159798   159794   159779 
  159888   160091   160184   160058   159844   159703   159634   159560 
  159478   159445   159520   159648   159710   159714   159750   159834 
  159902   159898   159838   159794   159800   159823   159807   159756 
  159740   159818   159946   160006   159941   159799   159683   159682 
  159763   159814   159826   159865   159923   159958   159933   159837 
  159737   159707   159719   159698   159628   159574   159579   159618 
  159630   159584   159524   159534   159609   159653   159638   159603 
  159583   159588   159622   159695   159811   159926   159954   159848 
