Origin Time       2025/03/30 22:55:00
Lat.              41.993
Long.             142.725
Depth. (km)       55
Mag.              4.6
Station Code      KSRH09
Station Lat.      42.9856
Station Long.     143.9841
Station Height(m) 27
Record Time       2025/03/30 22:56:42
Sampling Freq(Hz) 100Hz
Duration Time(s)  120
Dir.              4
Scale Factor      7845(gal)/8223790
Max. Acc. (gal)   0.914
Last Correction   2025/03/30 22:56:42
Memo.             
[...]
   -2493    -2497    -2501    -2502    -2485    -2447    -2425    -2447 
   -2490    -2520    -2531    -2535    -2546    -2562    -2573    -2559 
   -2521    -2482    -2459    -2457    -2467    -2475    -2478    -2481 
   -2488    -2497    -2500    -2489    -2475    -2477    -2504    -2555 
   -2613    -2650    -2644    -2600    -2532    -2465    -2428    -2440 
   -2493    -2556    -2600    -2612    -2606    -2592    -2562    -2516 
   -2469    -2420    -2374    -2350    -2362    -2417    -2494    -2547 
   -2559    -2547    -2533    -2531    -2536    -2551    -2577    -2597 
   -2586    -2543    -2511    -2517    -2554    -2594    -2623    -2624 
   -2592    -2529    -2471    -2444    -2432    -2411    -2390    -2401 
   -2440    -2489    -2529    -2550    -2548    -2531    -2513    -2506 
   -2511    -2519    -2540    -2575    -2583    -2555    -2511    -2467 
   -2440    -2439    -2462    -2500    -2540    -2567    -2583    -2583 
   -2547    -2474    -2397    -2349    -2335    -2362    -2428    -2511 
   -2579    -2623    -2650    -2658    -2644    -2616    -2587    -2550 
   -2508    -2479    -2484    -2519    -2566    -2598    -2602    -2579 
   -2539    -2501    -2485    -2493    -2511    -2528    -2547    -2567 
   -2573    -2538    -2462    -2388    -2339    -2313    -2315    -2353 
   -2428    -2521    -2594    -2628    -2623    -2590    -2555    -2532 
   -2525    -2525    -2521    -2501    -2466    -2440    -2448    -2494 
   -2543    -2569    -2566    -2551    -2536    -2521    -2511    -2521 
   -2542    -2548    -2550    -2548    -2538    -2524    -2515    -2504 
   -2500    -2505    -2521    -2543    -2555    -2552    -2550    -2547 
   -2529    -2505    -2489    -2485    -2488    -2488    -2482    -2478 
   -2477    -2477    -2469    -2450    -2439    -2455    -2492    -2529 
   -2555    -2565    -2566    -2560    -2547    -2532    -2517    -2502 
   -2497    -2509    -2529    -2547    -2555    -2559    -2555    -2535 
   -2502    -2479    -2459    -2419    -2382    -2377    -2398    -2435 
   -2474    -2520    -2583    -2641    -2662    -2644    -2619    -2601 
   -2601    -2623    -2644    -2635    -2589    -2535    -2502    -2485 
   -2466    -2443    -2420    -2401    -2403    -2435    -2478    -2500 
   -2485    -2443    -2389    -2357    -2376    -2458    -2575    -2674 
   -2721    -2720    -2683    -2628    -2565    -2498    -2434    -2378 
   -2347    -2350    -2378    -2409    -2440    -2482    -2515    -2517 
   -2502    -2489    -2488    -2498    -2512    -2538    -2587    -2635 
   -2655    -2654    -2652    -2654    -2644    -2620    -2582    -2539 
   -2500    -2462    -2432    -2435    -2473    -2516    -2529    -2504 
   -2447    -2394    -2369    -2390    -2455    -2532    -2579    -2589 
   -2582    -2578    -2575    -2558    -2513    -2458    -2415    -2385 
   -2384    -2419    -2466    -2511    -2552    -2578    -2579    -2574 
   -2573    -2556    -2516    -2473    -2470    -2505    -2542    -2552 
   -2542    -2516    -2489    -2481    -2494    -2520    -2543    -2567 
   -2608    -2643    -2635    -2594    -2560    -2544    -2523    -2506 
   -2519    -2548    -2566    -2556    -2523    -2477    -2432    -2394 
   -2378    -2381    -2403    -2451    -2519    -2565    -2562    -2523 
   -2481    -2455    -2451    -2474    -2533    -2613    -2671    -2674 
   -2616    -2538    -2485    -2452    -2417    -2392    -2400    -2443 
   -2490    -2523    -2539    -2552    -2552    -2524    -2496    -2497 
   -2528    -2570    -2606    -2635    -2650    -2644    -2619    -2585 
   -2536    -2482    -2452    -2454    -2469    -2485    -2502    -2509 
   -2501    -2490    -2489    -2494    -2490    -2473    -2455    -2448 
   -2447    -2454    -2473    -2485    -2484    -2484    -2494    -2508 
   -2505    -2481    -2451    -2443    -2452    -2482    -2521    -2554 
   -2583    -2614    -2624    -2610    -2590    -2566    -2529    -2484 
   -2442    -2434    -2466    -2501    -2517    -2538    -2570    -2586 
   -2567    -2540    -2532    -2543    -2562    -2571    -2571    -2589 
   -2616    -2627    -2617    -2596    -2563    -2517    -2466    -2424 
   -2403    -2400    -2407    -2425    -2444    -2440    -2415    -2386 
   -2369    -2388    -2444    -2513    -2570    -2590    -2574    -2544 
   -2525    -2525    -2540    -2565    -2592    -2617    -2635    -2631 
   -2604    -2555    -2500    -2473    -2466    -2451    -2424    -2413 
   -2428    -2469    -2531    -2598    -2652    -2668    -2643    -2589 
   -2532    -2505    -2515    -2533    -2544    -2547    -2547    -2538 
   -2524    -2501    -2457    -2386    -2319    -2285    -2307    -2380 
   -2466    -2524    -2548    -2547    -2527    -2505    -2502    -2512 
   -2516    -2498    -2469    -2463    -2505    -2569    -2616    -2633 
   -2625    -2597    -2566    -2544    -2539    -2539    -2533    -2520 
   -2513    -2523    -2542    -2551    -2539    -2516    -2484    -2444 
   -2423    -2439    -2486    -2546    -2593    -2605    -2581    -2540 
   -2489    -2434    -2400    -2405    -2436    -2473    -2513    -2550 
   -2562    -2554    -2544    -2528    -2500    -2481    -2479    -2493 
   -2525    -2577    -2617    -2621    -2596    -2563    -2544    -2533 
   -2509    -2475    -2457    -2455    -2466    -2485    -2496    -2492 
   -2473    -2462    -2482    -2531    -2592    -2639    -2666    -2679 
   -2685    -2670    -2624    -2555    -2486    -2431    -2389    -2371 
   -2384    -2424    -2479    -2532    -2567    -2574    -2546    -2486 
   -2420    -2374    -2346    -2332    -2349    -2396    -2438    -2443 
   -2425    -2408    -2403    -2421    -2471    -2536    -2600    -2671 
   -2743    -2781    -2776    -2745    -2704    -2656    -2600    -2548 
   -2533    -2556    -2592    -2627    -2660    -2673    -2627    -2525 
   -2436    -2407    -2417    -2421    -2393    -2338    -2274    -2215 
   -2187    -2212    -2272    -2334    -2394    -2462    -2542    -2612 
   -2652    -2666    -2662    -2644    -2613    -2585    -2583    -2605 
   -2633    -2655    -2658    -2643    -2613    -2575    -2540    -2515 
   -2494    -2478    -2471    -2457    -2417    -2362    -2317    -2296 
   -2303    -2361    -2484    -2647    -2794    -2878    -2879    -2803 
   -2679    -2554    -2458    -2403    -2378    -2378    -2398    -2430 
   -2448    -2443    -2425    -2403    -2366    -2334    -2338    -2393 
   -2484    -2579    -2651    -2679    -2664    -2620    -2570    -2535 
   -2531    -2547    -2563    -2581    -2610    -2635    -2639    -2623 
   -2578    -2511    -2447    -2405    -2390    -2404    -2428    -2443 
   -2461    -2504    -2563    -2612    -2628    -2602    -2528    -2434 
   -2370    -2365    -2404    -2455    -2500    -2533    -2547    -2546 
   -2538    -2506    -2458    -2427    -2446    -2515    -2597    -2644 
   -2647    -2613    -2554    -2479    -2408    -2358    -2334    -2344 
   -2380    -2419    -2457    -2500    -2529    -2528    -2502    -2488 
   -2506    -2547    -2594    -2633    -2646    -2629    -2612    -2600 
   -2589    -2577    -2554    -2531    -2520    -2515    -2502    -2488 
   -2475    -2471    -2475    -2484    -2490    -2498    -2516    -2540 
   -2562    -2569    -2567    -2592    -2647    -2694    -2702    -2656 
   -2559    -2440    -2347    -2330    -2385    -2463    -2519    -2538 
   -2536    -2525    -2513    -2520    -2542    -2551    -2558    -2578 
   -2609    -2643    -2664    -2662    -2623    -2543    -2444    -2359 
   -2309    -2308    -2349    -2407    -2459    -2482    -2474    -2451 
   -2431    -2421    -2431    -2459    -2486    -2489    -2488    -2509 
   -2544    -2575    -2602    -2616    -2608    -2590    -2581    -2582 
   -2577    -2550    -2498    -2446    -2416    -2413    -2431    -2466 
   -2512    -2554    -2581    -2594    -2587    -2558    -2524    -2512 
   -2516    -2519    -2516    -2512    -2497    -2466    -2442    -2439 
   -2461    -2490    -2512    -2527    -2540    -2546    -2555    -2575 
   -2574    -2535    -2488    -2463    -2458    -2458    -2470    -2496 
   -2513    -2502    -2481    -2481    -2505    -2532    -2550    -2563 
   -2578    -2594    -2621    -2662    -2690    -2678    -2633    -2575 
   -2519    -2481    -2469    -2474    -2477    -2455    -2409    -2384 
   -2396    -2420    -2444    -2459    -2459    -2455    -2446    -2428 
   -2413    -2413    -2415    -2405    -2411    -2461    -2555    -2648 
   -2693    -2677    -2629    -2574    -2523    -2488    -2475    -2489 
   -2540    -2619    -2706    -2772    -2778    -2708    -2582    -2439 
   -2311    -2230    -2189    -2187    -2234    -2330    -2461    -2590 
   -2670    -2675    -2619    -2527    -2440    -2405    -2452    -2560 
   -2681    -2775    -2835    -2847    -2805    -2714    -2597    -2486 
   -2407    -2370    -2397    -2467    -2523    -2550    -2558    -2547 
   -2524    -2494    -2471    -2479    -2520    -2556    -2558    -2540 
   -2542    -2558    -2569    -2563    -2543    -2517    -2498    -2474 
   -2444    -2427    -2415    -2394    -2369    -2351    -2367    -2435 
   -2524    -2582    -2598    -2582    -2538    -2473    -2412    -2378 
   -2365    -2358    -2369    -2403    -2442    -2469    -2496    -2517 
   -2516    -2496    -2465    -2443    -2451    -2484    -2517    -2524 
   -2497    -2470    -2484    -2556    -2666    -2779    -2868    -2911 
   -2909    -2871    -2812    -2743    -2648    -2525    -2408    -2335 
   -2322    -2361    -2434    -2513    -2574    -2582    -2529    -2440 
   -2347    -2270    -2223    -2222    -2259    -2304    -2340    -2376 
   -2419    -2463    -2502    -2546    -2596    -2647    -2686    -2716 
   -2741    -2751    -2733    -2701    -2664    -2625    -2585    -2555 
   -2536    -2531    -2531    -2528    -2523    -2506    -2473    -2436 
   -2413    -2403    -2405    -2444    -2521    -2600    -2628    -2589 
   -2498    -2377    -2246    -2164    -2169    -2259    -2417    -2597 
   -2751    -2853    -2889    -2866    -2805    -2721    -2629    -2544 
   -2484    -2458    -2454    -2478    -2556    -2659    -2712    -2704 
   -2658    -2583    -2512    -2478    -2489    -2512    -2520    -2516 
   -2505    -2467    -2371    -2235    -2114    -2045    -2046    -2118 
   -2232    -2349    -2424    -2444    -2427    -2419    -2461    -2551 
   -2658    -2747    -2795    -2801    -2775    -2722    -2664    -2614 
   -2569    -2524    -2473    -2415    -2366    -2343    -2367    -2438 
   -2516    -2571    -2620    -2660    -2663    -2629    -2594    -2578 
   -2581    -2601    -2623    -2616    -2563    -2469    -2344    -2227 
   -2162    -2164    -2204    -2265    -2357    -2493    -2652    -2785 
   -2866    -2909    -2917    -2866    -2740    -2574    -2417    -2293 
   -2201    -2153    -2181    -2281    -2404    -2511    -2612    -2729 
   -2845    -2913    -2905    -2817    -2667    -2496    -2346    -2255 
   -2241    -2282    -2338    -2381    -2424    -2478    -2515    -2508 
   -2481    -2463    -2474    -2502    -2521    -2497    -2423    -2335 
   -2282    -2288    -2340    -2419    -2502    -2567    -2616    -2656 
   -2666    -2614    -2511    -2398    -2319    -2286    -2281    -2286 
   -2290    -2278    -2261    -2269    -2328    -2428    -2532    -2619 
   -2712    -2836    -2992    -3141    -3234    -3249    -3192    -3100 
   -3009    -2910    -2795    -2681    -2567    -2442    -2285    -2111 
   -1957    -1857    -1818    -1823    -1864    -1942    -2061    -2220 
   -2411    -2612    -2798    -2941    -3010    -2998    -2934    -2872 
   -2851    -2844    -2805    -2722    -2620    -2504    -2381    -2272 
   -2205    -2214    -2316    -2486    -2664    -2799    -2886    -2928 
   -2902    -2790    -2606    -2389    -2192    -2068    -2037    -2096 
   -2226    -2396    -2560    -2681    -2732    -2729    -2710    -2694 
   -2671    -2650    -2643    -2637    -2614    -2565    -2484    -2380 
   -2289    -2239    -2214    -2185    -2166    -2189    -2255    -2331 
   -2382    -2397    -2380    -2353    -2338    -2351    -2397    -2444 
   -2470    -2490    -2535    -2620    -2755    -2926    -3099    -3242 
   -3335    -3348    -3242    -3037    -2797    -2598    -2479    -2419 
   -2363    -2266    -2107    -1918    -1746    -1647    -1663    -1794 
   -1992    -2196    -2373    -2533    -2660    -2704    -2647    -2535 
   -2434    -2394    -2435    -2556    -2743    -2948    -3122    -3246 
   -3314    -3295    -3184    -3028    -2867    -2720    -2590    -2485 
   -2403    -2320    -2209    -2074    -1942    -1853    -1845    -1917 
   -2054    -2239    -2438    -2610    -2740    -2809    -2803    -2732 
   -2619    -2516    -2463    -2457    -2467    -2489    -2535    -2610 
   -2681    -2695    -2652    -2579    -2500    -2431    -2381    -2366 
   -2413    -2517    -2637    -2727    -2758    -2728    -2662    -2589 
   -2502    -2397    -2299    -2262    -2301    -2370    -2428    -2463 
   -2463    -2428    -2376    -2338    -2346    -2408    -2505    -2623 
   -2740    -2844    -2930    -2972    -2921    -2759    -2508    -2232 
   -2008    -1875    -1852    -1953    -2145    -2361    -2548    -2658 
   -2658    -2574    -2443    -2308    -2235    -2280    -2440    -2690 
   -2968    -3187    -3280    -3256    -3145    -2970    -2767    -2585 
   -2459    -2407    -2407    -2408    -2389    -2363    -2331    -2284 
   -2235    -2212    -2228    -2296    -2443    -2678    -2953    -3169 
   -3242    -3149    -2924    -2616    -2285    -1980    -1736    -1584 
   -1557    -1659    -1846    -2046    -2207    -2334    -2452    -2554 
   -2625    -2702    -2820    -2965    -3099    -3190    -3234    -3241 
   -3188    -3059    -2879    -2695    -2552    -2466    -2419    -2390 
   -2363    -2316    -2228    -2120    -2042    -2027    -2079    -2195 
   -2344    -2482    -2590    -2670    -2714    -2714    -2667    -2590 
   -2509    -2439    -2390    -2357    -2328    -2311    -2319    -2354 
   -2386    -2389    -2374    -2369    -2401    -2474    -2560    -2631 
   -2678    -2716    -2747    -2744    -2678    -2556    -2417    -2307 
   -2254    -2273    -2366    -2509    -2655    -2764    -2829    -2839 
   -2783    -2685    -2590    -2531    -2517    -2539    -2594    -2668 
   -2713    -2693    -2625    -2539    -2461    -2419    -2425    -2475 
   -2542    -2594    -2609    -2562    -2444    -2288    -2155    -2092 
   -2115    -2207    -2326    -2438    -2521    -2560    -2548    -2496 
   -2431    -2389    -2382    -2398    -2438    -2500    -2587    -2675 
   -2731    -2749    -2759    -2782    -2840    -2922    -2988    -3011 
   -3005    -2979    -2913    -2793    -2636    -2473    -2340    -2249 
   -2189    -2172    -2201    -2262    -2323    -2361    -2380    -2409 
   -2455    -2512    -2562    -2583    -2583    -2581    -2559    -2486 
   -2355    -2205    -2111    -2111    -2189    -2320    -2481    -2632 
   -2745    -2802    -2772    -2670    -2552    -2454    -2397    -2405 
   -2478    -2598    -2728    -2812    -2824    -2782    -2706    -2594 
   -2463    -2365    -2320    -2316    -2338    -2362    -2365    -2338 
   -2282    -2223    -2191    -2200    -2269    -2392    -2524    -2627 
   -2700    -2759    -2806    -2832    -2824    -2791    -2752    -2704 
   -2648    -2602    -2590    -2639    -2756    -2890    -2964    -2937 
   -2817    -2637    -2443    -2282    -2203    -2218    -2309    -2428 
   -2519    -2543    -2482    -2354    -2195    -2049    -1979    -2019 
   -2149    -2316    -2473    -2577    -2610    -2587    -2538    -2482 
   -2440    -2435    -2473    -2539    -2612    -2667    -2671    -2609 
   -2505    -2380    -2254    -2147    -2077    -2061    -2122    -2259 
   -2443    -2641    -2840    -3007    -3117    -3173    -3177    -3125 
   -3041    -2947    -2840    -2721    -2590    -2448    -2307    -2192 
   -2135    -2133    -2176    -2261    -2370    -2470    -2536    -2566 
   -2550    -2479    -2365    -2232    -2116    -2052    -2034    -2041 
   -2060    -2107    -2212    -2381    -2589    -2797    -2986    -3145 
   -3254    -3288    -3244    -3148    -3015    -2847    -2671    -2528 
   -2439    -2388    -2334    -2266    -2193    -2110    -2018    -1937 
   -1894    -1911    -2006    -2172    -2384    -2605    -2794    -2917 
   -2953    -2899    -2785    -2660    -2565    -2528    -2543    -2574 
   -2593    -2598    -2578    -2527    -2469    -2409    -2344    -2290 
   -2274    -2316    -2417    -2558    -2724    -2905    -3068    -3176 
   -3222    -3211    -3132    -2964    -2712    -2401    -2095    -1875 
   -1779    -1773    -1806    -1853    -1931    -2069    -2246    -2412 
   -2554    -2681    -2794    -2890    -2965    -3007    -3006    -2949 
   -2835    -2679    -2524    -2394    -2309    -2274    -2278    -2317 
   -2398    -2506    -2593    -2613    -2577    -2520    -2477    -2465 
   -2469    -2474    -2479    -2485    -2484    -2463    -2428    -2400 
   -2398    -2436    -2506    -2587    -2654    -2694    -2705    -2698 
   -2667    -2605    -2531    -2466    -2411    -2367    -2342    -2350 
   -2417    -2529    -2647    -2745    -2798    -2781    -2700    -2596 
   -2508    -2461    -2446    -2440    -2446    -2466    -2486    -2504 
   -2524    -2554    -2592    -2612    -2598    -2578    -2566    -2558 
   -2548    -2519    -2459    -2388    -2317    -2255    -2218    -2214 
   -2253    -2334    -2435    -2543    -2654    -2759    -2845    -2905 
   -2921    -2894    -2824    -2710    -2586    -2488    -2415    -2343 
   -2270    -2228    -2239    -2286    -2347    -2400    -2425    -2417 
   -2404    -2417    -2455    -2497    -2536    -2569    -2594    -2601 
   -2587    -2571    -2555    -2521    -2486    -2478    -2502    -2527 
   -2525    -2488    -2423    -2354    -2307    -2308    -2362    -2454 
   -2562    -2666    -2762    -2839    -2879    -2875    -2829    -2748 
   -2667    -2604    -2533    -2454    -2384    -2336    -2315    -2312 
   -2317    -2326    -2322    -2319    -2355    -2425    -2493    -2524 
   -2515    -2492    -2470    -2442    -2408    -2388    -2398    -2448 
   -2528    -2601    -2636    -2635    -2609    -2565    -2516    -2501 
   -2531    -2590    -2655    -2718    -2779    -2816    -2810    -2766 
   -2689    -2585    -2475    -2382    -2316    -2289    -2309    -2371 
   -2447    -2509    -2552    -2581    -2583    -2555    -2516    -2481 
   -2446    -2421    -2432    -2485    -2554    -2590    -2574    -2529 
   -2477    -2424    -2382    -2357    -2343    -2342    -2358    -2386 
   -2416    -2440    -2454    -2448    -2424    -2404    -2423    -2482 
   -2566    -2664    -2774    -2887    -2967    -2968    -2897    -2785 
   -2639    -2469    -2322    -2235    -2203    -2209    -2246    -2290 
   -2328    -2346    -2336    -2319    -2311    -2305    -2309    -2327 
   -2358    -2407    -2466    -2520    -2547    -2535    -2498    -2465 
   -2466    -2528    -2643    -2774    -2878    -2929    -2926    -2882 
   -2793    -2663    -2528    -2434    -2398    -2423    -2486    -2560 
   -2614    -2617    -2566    -2509    -2492    -2509    -2539    -2571 
   -2604    -2616    -2593    -2552    -2523    -2498    -2458    -2400 
   -2338    -2296    -2297    -2336    -2396    -2458    -2494    -2489 
   -2463    -2439    -2424    -2428    -2451    -2474    -2492    -2513 
   -2559    -2643    -2737    -2802    -2825    -2797    -2724    -2632 
