Origin Time       2025/03/30 22:55:00
Lat.              41.993
Long.             142.725
Depth. (km)       55
Mag.              4.6
Station Code      KSRH09
Station Lat.      42.9856
Station Long.     143.9841
Station Height(m) -73
Record Time       2025/03/30 22:56:42
Sampling Freq(Hz) 100Hz
Duration Time(s)  120
Dir.              2
Scale Factor      2942(gal)/8224139
Max. Acc. (gal)   0.221
Last Correction   2025/03/30 22:56:42
Memo.             
[...]
  147270   147286   147283   147276   147294   147307   147279   147240 
  147222   147217   147204   147199   147216   147225   147216   147226 
  147272   147312   147293   147231   147202   147247   147290   147251 
  147170   147152   147222   147290   147272   147226   147260   147337 
  147344   147255   147155   147120   147139   147168   147198   147244 
  147272   147249   147218   147224   147247   147241   147213   147218 
  147262   147266   147205   147140   147139   147197   147239   147229 
  147212   147240   147301   147334   147313   147271   147252   147264 
  147263   147228   147190   147182   147186   147174   147172   147225 
  147289   147286   147237   147217   147247   147263   147239   147237 
  147278   147279   147222   147181   147198   147232   147231   147198 
  147193   147221   147226   147189   147167   147204   147262   147279 
  147249   147229   147233   147240   147247   147256   147260   147259 
  147243   147233   147253   147285   147306   147320   147317   147285 
  147217   147156   147156   147201   147218   147183   147151   147181 
  147240   147258   147237   147232   147245   147245   147236   147237 
  147259   147282   147294   147299   147287   147235   147186   147175 
  147152   147113   147114   147167   147237   147289   147310   147330 
  147336   147291   147239   147232   147251   147263   147258   147239 
  147222   147206   147191   147213   147259   147275   147263   147256 
  147264   147267   147258   147251   147248   147218   147160   147141 
  147199   147276   147295   147239   147163   147120   147121   147158 
  147201   147218   147205   147193   147206   147232   147251   147270 
  147299   147322   147305   147262   147232   147216   147222   147251 
  147267   147258   147231   147213   147225   147237   147213   147187 
  147216   147282   147316   147287   147248   147235   147221   147187 
  147170   147214   147299   147353   147328   147258   147213   147204 
  147201   147199   147199   147197   147189   147185   147204   147228 
  147217   147194   147199   147235   147299   147374   147403   147364 
  147293   147240   147214   147191   147167   147166   147206   147276 
  147347   147366   147312   147237   147202   147198   147182   147166 
  147189   147245   147291   147287   147258   147253   147275   147280 
  147253   147224   147216   147208   147178   147154   147170   147206 
  147225   147195   147136   147120   147185   147290   147345   147310 
  147253   147256   147297   147305   147270   147229   147208   147189 
  147162   147159   147201   147256   147267   147237   147224   147245 
  147280   147297   147282   147252   147224   147212   147217   147220 
  147212   147224   147255   147268   147248   147229   147262   147348 
  147407   147359   147244   147189   147208   147201   147139   147108 
  147155   147205   147175   147110   147110   147177   147240   147267 
  147270   147262   147233   147189   147189   147266   147329   147279 
  147191   147198   147252   147231   147174   147205   147307   147341 
  147256   147175   147216   147317   147352   147297   147245   147255 
  147271   147224   147143   147139   147210   147247   147222   147191 
  147185   147193   147190   147191   147221   147233   147205   147198 
  147232   147256   147235   147197   147198   147228   147240   147239 
  147244   147251   147255   147267   147289   147299   147275   147217 
  147175   147177   147182   147177   147181   147186   147177   147178 
  147232   147314   147341   147294   147263   147301   147324   147245 
  147129   147123   147241   147349   147332   147239   147189   147206 
  147228   147224   147228   147264   147291   147271   147231   147225 
  147267   147313   147320   147280   147224   147199   147226   147267 
  147287   147276   147235   147201   147222   147272   147302   147305 
  147301   147286   147221   147131   147120   147213   147299   147278 
  147204   147190   147226   147222   147158   147121   147172   147244 
  147241   147191   147185   147243   147290   147285   147297   147352 
  147367   147316   147263   147240   147220   147195   147187   147205 
  147222   147202   147171   147182   147217   147229   147213   147204 
  147244   147312   147316   147258   147239   147280   147297   147252 
  147209   147226   147264   147252   147204   147189   147209   147205 
  147164   147147   147194   147262   147274   147241   147241   147280 
  147294   147260   147236   147253   147263   147218   147187   147220 
  147255   147236   147182   147159   147205   147260   147256   147226 
  147232   147256   147233   147181   147187   147262   147303   147266 
  147217   147224   147264   147278   147232   147167   147156   147194 
  147209   147197   147217   147280   147324   147316   147298   147295 
  147276   147239   147228   147252   147267   147233   147177   147167 
  147229   147280   147252   147206   147220   147259   147253   147217 
  147208   147233   147256   147253   147240   147237   147216   147156 
  147121   147162   147233   147252   147202   147162   147194   147252 
  147264   147237   147239   147289   147320   147290   147248   147241 
  147259   147267   147245   147209   147198   147229   147267   147283 
  147276   147248   147229   147249   147271   147255   147220   147183 
  147143   147114   147141   147226   147307   147334   147317   147294 
  147283   147278   147266   147243   147205   147178   147186   147205 
  147195   147162   147160   147220   147283   147295   147276   147275 
  147297   147307   147310   147336   147347   147318   147287   147271 
  147262   147247   147220   147194   147179   147164   147129   147096 
  147117   147171   147172   147128   147124   147191   147249   147236 
  147208   147252   147328   147330   147270   147248   147278   147289 
  147255   147210   147208   147253   147287   147274   147274   147303 
  147293   147237   147208   147221   147232   147214   147209   147245 
  147267   147225   147170   147152   147145   147128   147128   147181 
  147267   147318   147303   147278   147295   147340   147364   147345 
  147310   147286   147260   147216   147158   147136   147171   147191 
  147159   147136   147166   147222   147253   147244   147245   147282 
  147294   147240   147172   147167   147209   147220   147193   147190 
  147236   147278   147263   147231   147248   147285   147259   147155 
  147077   147109   147220   147320   147363   147374   147380   147356 
  147280   147210   147199   147228   147231   147202   147183   147198 
  147228   147258   147275   147272   147262   147270   147291   147298 
  147272   147237   147243   147285   147303   147286   147255   147225 
  147205   147199   147183   147144   147110   147114   147158   147213 
  147235   147235   147263   147318   147340   147298   147233   147217 
  147248   147274   147271   147244   147204   147175   147171   147171 
  147158   147159   147190   147225   147237   147243   147258   147270 
  147272   147260   147243   147235   147232   147222   147195   147177 
  147189   147190   147167   147158   147171   147194   147205   147204 
  147204   147225   147266   147289   147272   147251   147247   147244 
  147236   147231   147216   147186   147163   147204   147306   147363 
  147316   147253   147249   147245   147191   147147   147167   147220 
  147244   147217   147204   147256   147320   147329   147287   147240 
  147212   147190   147171   147186   147225   147255   147287   147322 
  147325   147263   147155   147081   147093   147148   147179   147199 
  147248   147302   147328   147316   147283   147268   147286   147307 
  147318   147326   147339   147359   147367   147329   147256   147201 
  147185   147193   147210   147206   147164   147144   147205   147302 
  147353   147343   147306   147275   147266   147268   147267   147262 
  147245   147222   147210   147213   147225   147231   147212   147179 
  147159   147183   147239   147271   147252   147225   147228   147249 
  147255   147247   147258   147274   147255   147197   147147   147162 
  147220   147259   147256   147237   147222   147213   147225   147268 
  147297   147280   147256   147249   147241   147204   147163   147168 
  147209   147243   147259   147263   147258   147244   147241   147266 
  147295   147305   147291   147272   147264   147266   147275   147285 
  147280   147271   147267   147251   147235   147240   147247   147249 
  147266   147275   147243   147186   147155   147174   147208   147217 
  147186   147121   147064   147070   147140   147216   147245   147232 
  147210   147179   147164   147189   147222   147236   147232   147228 
  147251   147309   147343   147322   147276   147237   147208   147181 
  147148   147135   147160   147205   147247   147282   147297   147285 
  147266   147256   147253   147266   147293   147303   147271   147221 
  147204   147229   147268   147295   147298   147283   147268   147253 
  147222   147170   147147   147212   147310   147337   147289   147248 
  147249   147253   147218   147152   147116   147154   147209   147213 
  147191   147218   147283   147303   147258   147206   147175   147156 
  147147   147156   147194   147253   147301   147314   147293   147249 
  147216   147213   147229   147226   147205   147216   147260   147272 
  147239   147202   147178   147150   147128   147141   147175   147189 
  147177   147175   147228   147317   147371   147359   147322   147317 
  147337   147325   147282   147240   147214   147191   147177   147185 
  147197   147187   147156   147106   147066   147081   147140   147190 
  147210   147239   147291   147336   147361   147368   147353   147310 
  147244   147187   147174   147189   147208   147226   147240   147232 
  147208   147189   147190   147201   147214   147228   147222   147208 
  147224   147289   147359   147386   147366   147326   147298   147295 
  147307   147299   147240   147154   147101   147121   147187   147248 
  147285   147313   147337   147339   147306   147274   147251   147208 
  147145   147105   147109   147132   147145   147170   147235   147305 
  147317   147285   147274   147295   147309   147268   147209   147209 
  147280   147360   147382   147322   147237   147212   147241   147240 
  147166   147096   147121   147209   147252   147236   147247   147305 
  147322   147248   147167   147170   147236   147285   147259   147190 
  147152   147154   147156   147141   147137   147162   147191   147212 
  147228   147235   147221   147198   147204   147245   147271   147262 
  147251   147255   147252   147229   147204   147217   147278   147309 
  147263   147186   147144   147167   147218   147210   147150   147139 
  147189   147225   147204   147164   147191   147285   147366   147382 
  147352   147316   147280   147224   147158   147118   147109   147102 
  147097   147128   147198   147278   147334   147352   147330   147287 
  147248   147231   147212   147172   147137   147132   147150   147168 
  147194   147266   147356   147394   147366   147321   147312   147324 
  147322   147324   147325   147283   147221   147204   147222   147232 
  147216   147195   147197   147218   147224   147167   147110   147151 
  147264   147334   147299   147214   147178   147187   147168   147131 
  147158   147264   147376   147413   147348   147237   147160   147147 
  147167   147195   147204   147197   147224   147303   147394   147437 
  147434   147444   147459   147406   147280   147167   147131   147133 
  147143   147205   147302   147353   147321   147258   147255   147305 
  147317   147259   147205   147226   147283   147293   147252   147222 
  147233   147256   147268   147305   147356   147344   147253   147186 
  147233   147348   147383   147295   147208   147206   147225   147178 
  147091   147055   147091   147139   147139   147117   147150   147233 
  147287   147312   147368   147430   147430   147384   147356   147341 
  147305   147267   147266   147266   147195   147081   147029   147085 
  147155   147166   147154   147171   147221   147253   147241   147236 
  147267   147290   147271   147237   147214   147175   147087   146982 
  146924   146940   146998   147048   147114   147241   147394   147523 
  147596   147623   147646   147661   147623   147549   147476   147405 
  147330   147249   147167   147093   147039   147029   147091   147206 
  147305   147333   147298   147245   147210   147216   147237   147214 
  147151   147098   147058   146994   146923   146886   146924   147021 
  147118   147195   147266   147330   147361   147352   147374   147501 
  147656   147687   147571   147417   147285   147141   146974   146851 
  146846   146948   147078   147183   147259   147303   147306   147310 
  147371   147471   147540   147503   147367   147231   147139   147046 
  146954   146909   146940   147023   147097   147125   147127   147136 
  147167   147218   147248   147204   147124   147106   147163   147241 
  147283   147266   147233   147222   147182   147062   146923   146885 
  147012   147220   147349   147382   147405   147440   147463   147447 
  147390   147348   147339   147321   147295   147268   147212   147114 
  147000   146888   146817   146836   146938   147082   147244   147387 
  147464   147475   147441   147356   147220   147094   147025   146969 
  146874   146812   146885   147089   147309   147457   147561   147660 
  147712   147644   147461   147279   147201   147208   147220   147243 
  147340   147498   147591   147555   147448   147321   147144   146897 
  146677   146616   146705   146831   146908   146974   147123   147328 
  147472   147522   147530   147502   147411   147268   147152   147145 
  147218   147282   147306   147321   147368   147467   147555   147542 
  147467   147482   147644   147793   147758   147569   147371   147236 
  147124   146965   146828   146885   147121   147341   147422   147411 
  147401   147386   147303   147154   147008   146935   146929   146954 
  147000   147079   147179   147255   147283   147312   147345   147287 
  147097   146894   146816   146844   146908   147002   147160   147374 
  147590   147722   147723   147631   147518   147440   147374   147252 
  147082   146944   146913   146998   147121   147205   147264   147344 
  147421   147424   147366   147352   147387   147339   147166   147010 
  146985   147036   147050   147016   147028   147128   147239   147301 
  147341   147395   147425   147357   147209   147106   147086   147029 
  146875   146763   146850   147094   147309   147383   147372   147379 
  147407   147406   147383   147383   147407   147384   147282   147195 
  147248   147414   147556   147568   147478   147384   147287   147118 
  146944   146896   146970   147054   147078   147087   147141   147214 
  147231   147166   147085   147051   147054   147081   147140   147224 
  147274   147253   147218   147231   147231   147144   147054   147074 
  147182   147290   147352   147378   147383   147321   147162   147010 
  146997   147091   147133   147067   147032   147124   147225   147198 
  147102   147097   147195   147262   147216   147145   147172   147298 
  147442   147553   147591   147530   147407   147317   147313   147382 
  147445   147445   147415   147417   147424   147390   147322   147255 
  147244   147307   147388   147433   147448   147456   147464   147463 
  147442   147424   147414   147386   147333   147293   147279   147270 
  147259   147258   147244   147182   147094   147059   147108   147191 
  147237   147210   147163   147166   147199   147191   147145   147133 
  147150   147117   147040   147027   147102   147177   147195   147212 
  147270   147316   147264   147152   147094   147117   147147   147144 
  147170   147294   147460   147544   147540   147541   147565   147526 
  147387   147239   147177   147166   147137   147140   147232   147344 
  147371   147312   147251   147240   147262   147267   147251   147241 
  147221   147127   146982   146904   146956   147050   147062   147016 
  147031   147121   147195   147202   147178   147163   147140   147082 
  147036   147067   147171   147278   147316   147283   147256   147287 
  147388   147518   147591   147555   147434   147298   147212   147159 
  147094   147051   147098   147206   147270   147259   147237   147225 
  147179   147101   147055   147073   147100   147083   147089   147206 
  147386   147491   147484   147460   147496   147521   147403   147171 
  146993   146950   146981   147036   147101   147135   147102   147037 
  147019   147051   147074   147102   147177   147276   147356   147383 
  147397   147465   147537   147506   147402   147314   147266   147253 
  147282   147333   147351   147302   147235   147235   147313   147413 
  147472   147448   147374   147306   147263   147228   147189   147145 
  147125   147150   147197   147218   147186   147141   147163   147259 
  147351   147359   147307   147253   147197   147106   146977   146867 
  146857   146928   147001   147037   147050   147047   147066   147143 
  147243   147321   147384   147460   147545   147572   147490   147361 
  147279   147229   147158   147070   147020   147027   147043   147048 
  147081   147150   147225   147303   147414   147552   147644   147603 
  147433   147236   147105   147048   147039   147055   147086   147127 
  147204   147343   147503   147594   147560   147460   147410   147441 
  147460   147387   147239   147070   146913   146797   146765   146799 
  146840   146881   146951   147085   147270   147415   147463   147478 
  147525   147546   147451   147264   147121   147097   147133   147131 
  147114   147164   147240   147224   147124   147069   147120   147195 
  147217   147231   147309   147415   147438   147359   147285   147321 
  147428   147474   147426   147374   147357   147301   147175   147082 
  147091   147147   147163   147100   146973   146847   146780   146811 
  146927   147039   147087   147124   147210   147330   147395   147361 
  147310   147310   147320   147283   147218   147198   147272   147361 
  147386   147380   147403   147422   147378   147275   147186   147148 
  147156   147208   147282   147329   147329   147313   147316   147344 
  147402   147479   147528   147510   147420   147283   147154   147079 
  147054   147036   147025   147069   147164   147245   147286   147325 
  147372   147393   147379   147340   147303   147297   147291   147232 
  147155   147152   147229   147312   147368   147425   147494   147540 
  147526   147463   147386   147330   147328   147378   147410   147359 
  147233   147090   146982   146915   146866   146843   146878   146961 
  147010   146989   146973   147032   147125   147175   147172   147158 
  147136   147104   147086   147110   147168   147239   147307   147349 
  147339   147279   147209   147190   147267   147379   147415   147364 
  147312   147326   147390   147403   147333   147245   147210   147228 
  147251   147248   147255   147326   147448   147545   147579   147573 
  147563   147523   147418   147280   147160   147085   147059   147047 
  147037   147085   147193   147279   147293   147272   147264   147247 
  147187   147114   147081   147074   147029   146975   147021   147162 
  147232   147102   146885   146811   146924   147073   147141   147166 
  147243   147372   147447   147406   147306   147255   147279   147317 
  147312   147280   147251   147221   147210   147253   147334   147405 
