Origin Time       2025/03/30 22:55:00
Lat.              41.993
Long.             142.725
Depth. (km)       55
Mag.              4.6
Station Code      KSRH09
Station Lat.      42.9856
Station Long.     143.9841
Station Height(m) 27
Record Time       2025/03/30 22:56:42
Sampling Freq(Hz) 100Hz
Duration Time(s)  120
Dir.              6
Scale Factor      7845(gal)/8223790
Max. Acc. (gal)   0.458
Last Correction   2025/03/30 22:56:42
Memo.             
[...]
  -12391   -12393   -12390   -12374   -12326   -12249   -12189   -12199 
  -12276   -12367   -12414   -12402   -12357   -12313   -12279   -12260 
  -12278   -12330   -12370   -12359   -12307   -12245   -12194   -12170 
  -12190   -12241   -12290   -12316   -12330   -12343   -12334   -12295 
  -12258   -12243   -12244   -12266   -12321   -12384   -12375   -12268 
  -12155   -12155   -12285   -12444   -12515   -12465   -12337   -12199 
  -12133   -12185   -12303   -12379   -12364   -12302   -12263   -12283 
  -12341   -12384   -12388   -12360   -12301   -12224   -12185   -12253 
  -12409   -12533   -12533   -12420   -12270   -12172   -12168   -12241 
  -12343   -12394   -12359   -12283   -12226   -12204   -12205   -12233 
  -12299   -12382   -12405   -12334   -12221   -12145   -12132   -12158 
  -12202   -12275   -12379   -12456   -12426   -12336   -12309   -12370 
  -12415   -12375   -12282   -12218   -12232   -12280   -12317   -12352 
  -12405   -12436   -12401   -12306   -12201   -12168   -12233   -12317 
  -12337   -12302   -12282   -12306   -12343   -12352   -12349   -12372 
  -12414   -12410   -12332   -12241   -12195   -12187   -12198   -12243 
  -12329   -12406   -12421   -12378   -12302   -12236   -12231   -12290 
  -12347   -12326   -12225   -12117   -12083   -12135   -12233   -12347 
  -12442   -12480   -12457   -12391   -12287   -12168   -12121   -12210 
  -12372   -12469   -12445   -12370   -12312   -12267   -12216   -12186 
  -12213   -12270   -12291   -12266   -12263   -12337   -12440   -12467 
  -12394   -12299   -12260   -12268   -12272   -12264   -12262   -12272 
  -12289   -12283   -12237   -12178   -12171   -12240   -12325   -12356 
  -12341   -12341   -12360   -12329   -12244   -12204   -12268   -12378 
  -12440   -12415   -12353   -12314   -12297   -12262   -12229   -12255 
  -12359   -12472   -12492   -12420   -12330   -12271   -12220   -12148 
  -12093   -12110   -12189   -12268   -12320   -12351   -12375   -12380 
  -12343   -12297   -12314   -12379   -12387   -12302   -12218   -12237 
  -12324   -12366   -12324   -12268   -12252   -12264   -12289   -12333 
  -12410   -12464   -12422   -12290   -12160   -12120   -12170   -12244 
  -12298   -12348   -12398   -12403   -12347   -12276   -12253   -12286 
  -12330   -12343   -12318   -12279   -12258   -12278   -12317   -12322 
  -12274   -12214   -12222   -12298   -12359   -12363   -12351   -12361 
  -12371   -12343   -12291   -12268   -12298   -12351   -12370   -12329 
  -12256   -12195   -12175   -12204   -12258   -12324   -12402   -12459 
  -12449   -12393   -12316   -12228   -12152   -12139   -12206   -12310 
  -12375   -12360   -12287   -12228   -12225   -12267   -12343   -12424 
  -12434   -12343   -12232   -12208   -12289   -12395   -12442   -12403 
  -12313   -12228   -12177   -12179   -12252   -12368   -12464   -12483 
  -12441   -12391   -12339   -12263   -12179   -12128   -12125   -12183 
  -12286   -12386   -12451   -12460   -12395   -12275   -12166   -12131 
  -12181   -12264   -12317   -12325   -12312   -12297   -12286   -12286 
  -12306   -12348   -12386   -12386   -12343   -12299   -12294   -12293 
  -12249   -12193   -12197   -12287   -12407   -12486   -12486   -12418 
  -12321   -12226   -12168   -12193   -12298   -12426   -12510   -12503 
  -12415   -12280   -12139   -12063   -12110   -12259   -12418   -12491 
  -12417   -12236   -12074   -12040   -12133   -12276   -12397   -12472 
  -12518   -12530   -12471   -12348   -12229   -12166   -12162   -12209 
  -12286   -12334   -12302   -12221   -12181   -12244   -12374   -12469 
  -12478   -12429   -12359   -12264   -12160   -12097   -12112   -12208 
  -12322   -12380   -12371   -12333   -12291   -12241   -12195   -12189 
  -12226   -12266   -12293   -12343   -12418   -12463   -12422   -12299 
  -12162   -12096   -12127   -12224   -12345   -12451   -12510   -12506 
  -12432   -12306   -12167   -12073   -12077   -12182   -12344   -12487 
  -12529   -12440   -12278   -12137   -12079   -12094   -12172   -12306 
  -12414   -12393   -12270   -12197   -12272   -12432   -12522   -12484 
  -12360   -12217   -12117   -12128   -12266   -12453   -12561   -12501 
  -12305   -12098   -12001   -12058   -12222   -12391   -12467   -12413 
  -12285   -12174   -12132   -12158   -12241   -12383   -12518   -12530 
  -12405   -12258   -12178   -12147   -12129   -12140   -12225   -12374 
  -12495   -12517   -12465   -12410   -12383   -12360   -12325   -12299 
  -12283   -12259   -12221   -12191   -12222   -12333   -12456   -12494 
  -12424   -12303   -12214   -12213   -12310   -12453   -12553   -12553 
  -12448   -12294   -12177   -12145   -12202   -12310   -12401   -12405 
  -12330   -12237   -12181   -12175   -12199   -12233   -12276   -12345 
  -12421   -12457   -12440   -12394   -12345   -12299   -12272   -12295 
  -12356   -12390   -12364   -12314   -12291   -12313   -12341   -12329 
  -12271   -12193   -12118   -12093   -12152   -12280   -12413   -12490 
  -12479   -12388   -12262   -12168   -12150   -12190   -12247   -12298 
  -12339   -12344   -12289   -12208   -12162   -12175   -12251   -12349 
  -12393   -12349   -12262   -12190   -12171   -12214   -12294   -12388 
  -12461   -12469   -12410   -12314   -12206   -12132   -12141   -12212 
  -12302   -12405   -12498   -12540   -12507   -12405   -12275   -12189 
  -12164   -12163   -12167   -12193   -12249   -12303   -12326   -12324 
  -12324   -12321   -12299   -12270   -12260   -12287   -12352   -12428 
  -12474   -12461   -12380   -12259   -12166   -12154   -12239   -12374 
  -12449   -12391   -12235   -12064   -11965   -12000   -12193   -12459 
  -12629   -12587   -12384   -12178   -12086   -12108   -12182   -12280 
  -12386   -12449   -12432   -12341   -12252   -12256   -12353   -12441 
  -12447   -12393   -12366   -12402   -12444   -12426   -12352   -12249 
  -12145   -12090   -12123   -12225   -12343   -12418   -12415   -12336 
  -12226   -12160   -12177   -12231   -12259   -12266   -12299   -12359 
  -12402   -12395   -12328   -12226   -12155   -12145   -12197   -12290 
  -12380   -12424   -12430   -12437   -12434   -12388   -12314   -12268 
  -12262   -12270   -12287   -12330   -12388   -12406   -12340   -12226 
  -12155   -12191   -12307   -12421   -12483   -12486   -12437   -12356 
  -12258   -12175   -12155   -12206   -12285   -12347   -12383   -12390 
  -12348   -12278   -12220   -12178   -12156   -12201   -12322   -12438 
  -12449   -12355   -12249   -12191   -12168   -12170   -12222   -12340 
  -12457   -12501   -12483   -12460   -12453   -12426   -12313   -12150 
  -12063   -12098   -12194   -12285   -12332   -12337   -12325   -12303 
  -12263   -12218   -12194   -12194   -12206   -12216   -12220   -12251 
  -12340   -12441   -12474   -12424   -12368   -12357   -12345   -12256 
  -12112   -12032   -12110   -12297   -12463   -12525   -12506   -12456 
  -12387   -12301   -12240   -12232   -12240   -12231   -12228   -12270 
  -12355   -12447   -12471   -12401   -12325   -12313   -12305   -12243 
  -12191   -12229   -12322   -12347   -12260   -12186   -12237   -12347 
  -12393   -12370   -12360   -12383   -12359   -12251   -12145   -12129 
  -12181   -12228   -12260   -12341   -12488   -12595   -12563   -12413 
  -12240   -12136   -12145   -12229   -12314   -12367   -12390   -12361 
  -12263   -12160   -12155   -12253   -12366   -12382   -12279   -12150 
  -12100   -12141   -12252   -12395   -12498   -12505   -12422   -12298 
  -12194   -12167   -12220   -12307   -12379   -12414   -12413   -12378 
  -12348   -12356   -12370   -12340   -12287   -12276   -12332   -12384 
  -12371   -12312   -12244   -12183   -12144   -12154   -12216   -12291 
  -12314   -12259   -12195   -12197   -12258   -12337   -12398   -12410 
  -12366   -12298   -12253   -12241   -12256   -12299   -12353   -12397 
  -12409   -12376   -12318   -12267   -12239   -12249   -12301   -12359 
  -12379   -12345   -12307   -12310   -12325   -12307   -12278   -12276 
  -12294   -12293   -12259   -12226   -12232   -12262   -12285   -12303 
  -12333   -12370   -12399   -12405   -12366   -12291   -12216   -12178 
  -12177   -12190   -12224   -12307   -12411   -12464   -12444   -12399 
  -12375   -12372   -12384   -12384   -12351   -12282   -12214   -12182 
  -12179   -12187   -12216   -12259   -12282   -12263   -12222   -12201 
  -12231   -12305   -12364   -12355   -12310   -12310   -12359   -12395 
  -12390   -12371   -12375   -12414   -12434   -12375   -12245   -12120 
  -12056   -12066   -12136   -12248   -12374   -12464   -12480   -12440 
  -12395   -12370   -12347   -12313   -12251   -12156   -12055   -12000 
  -12046   -12198   -12364   -12453   -12457   -12420   -12359   -12297 
  -12272   -12318   -12401   -12428   -12364   -12286   -12289   -12367 
  -12438   -12442   -12384   -12312   -12249   -12197   -12177   -12202 
  -12235   -12243   -12237   -12241   -12258   -12262   -12247   -12280 
  -12413   -12572   -12637   -12564   -12421   -12297   -12194   -12066 
  -11951   -11961   -12121   -12345   -12532   -12622   -12615   -12536 
  -12411   -12285   -12205   -12204   -12240   -12232   -12172   -12124 
  -12152   -12267   -12394   -12424   -12312   -12125   -11975   -11939 
  -12009   -12125   -12258   -12402   -12529   -12596   -12603   -12559 
  -12467   -12348   -12233   -12177   -12217   -12330   -12425   -12436 
  -12378   -12306   -12259   -12262   -12322   -12417   -12510   -12561 
  -12523   -12384   -12212   -12086   -12032   -12050   -12129   -12232 
  -12314   -12329   -12289   -12260   -12285   -12352   -12430   -12476 
  -12455   -12378   -12310   -12283   -12286   -12280   -12244   -12206 
  -12220   -12266   -12278   -12264   -12276   -12349   -12465   -12552 
  -12529   -12391   -12212   -12086   -12067   -12150   -12302   -12469 
  -12576   -12565   -12455   -12320   -12221   -12151   -12075   -11993 
  -11943   -11977   -12105   -12287   -12478   -12633   -12702   -12645 
  -12478   -12275   -12135   -12078   -12048   -11993   -11913   -11840 
  -11826   -11902   -12052   -12241   -12456   -12657   -12769   -12750 
  -12642   -12541   -12514   -12553   -12582   -12552   -12483   -12395 
  -12278   -12162   -12110   -12177   -12341   -12498   -12550   -12519 
  -12498   -12519   -12511   -12406   -12237   -12097   -12033   -12036 
  -12096   -12210   -12351   -12463   -12499   -12444   -12322   -12199 
  -12114   -12062   -12010   -11965   -11990   -12124   -12301   -12418 
  -12463   -12480   -12461   -12374   -12252   -12162   -12152   -12241 
  -12391   -12541   -12657   -12704   -12642   -12495   -12332   -12177 
  -12029   -11942   -11971   -12097   -12248   -12341   -12321   -12217 
  -12101   -12044   -12096   -12244   -12406   -12506   -12541   -12545 
  -12513   -12395   -12208   -12055   -12031   -12117   -12245   -12372 
  -12486   -12587   -12657   -12657   -12583   -12480   -12402   -12344 
  -12252   -12112   -11982   -11923   -11961   -12073   -12209   -12326 
  -12401   -12444   -12468   -12457   -12406   -12305   -12144   -11967 
  -11862   -11913   -12129   -12405   -12586   -12594   -12453   -12225 
  -11993   -11869   -11932   -12154   -12410   -12571   -12600   -12540 
  -12409   -12228   -12087   -12071   -12174   -12332   -12472   -12538 
  -12510   -12413   -12322   -12303   -12376   -12501   -12592   -12583 
  -12468   -12290   -12121   -12042   -12074   -12163   -12229   -12216 
  -12141   -12094   -12132   -12236   -12367   -12482   -12528   -12469 
  -12303   -12074   -11912   -11935   -12114   -12305   -12399   -12438 
  -12513   -12618   -12656   -12571   -12422   -12283   -12177   -12113 
  -12106   -12166   -12291   -12429   -12499   -12487   -12424   -12349 
  -12295   -12255   -12201   -12141   -12112   -12113   -12140   -12213 
  -12328   -12451   -12533   -12544   -12509   -12490   -12476   -12410 
  -12290   -12194   -12177   -12202   -12214   -12224   -12271   -12363 
  -12447   -12445   -12361   -12267   -12212   -12210   -12235   -12232 
  -12214   -12252   -12353   -12430   -12425   -12387   -12410   -12519 
  -12619   -12604   -12488   -12384   -12337   -12289   -12201   -12129 
  -12152   -12245   -12305   -12263   -12164   -12098   -12105   -12137 
  -12154   -12191   -12276   -12357   -12348   -12209   -12015   -11920 
  -12008   -12189   -12322   -12391   -12475   -12595   -12675   -12648 
  -12549   -12441   -12337   -12228   -12145   -12135   -12185   -12237 
  -12263   -12276   -12282   -12267   -12243   -12263   -12344   -12420 
  -12434   -12417   -12382   -12290   -12154   -12062   -12082   -12205 
  -12367   -12495   -12564   -12596   -12607   -12582   -12523   -12467 
  -12442   -12438   -12402   -12313   -12201   -12109   -12044   -12000 
  -11997   -12091   -12295   -12510   -12590   -12488   -12285   -12071 
  -11912   -11836   -11859   -11988   -12195   -12405   -12523   -12525 
  -12449   -12336   -12236   -12217   -12295   -12441   -12582   -12629 
  -12560   -12432   -12306   -12222   -12193   -12193   -12194   -12208 
  -12266   -12359   -12433   -12447   -12398   -12306   -12204   -12117 
  -12058   -12029   -12037   -12082   -12177   -12312   -12441   -12521 
  -12552   -12549   -12517   -12467   -12393   -12286   -12168   -12089 
  -12105   -12224   -12367   -12444   -12460   -12457   -12448   -12421 
  -12375   -12321   -12274   -12231   -12178   -12125   -12124   -12208 
  -12345   -12455   -12480   -12433   -12355   -12272   -12197   -12160 
  -12201   -12306   -12440   -12536   -12538   -12455   -12340   -12226 
  -12136   -12089   -12082   -12117   -12208   -12330   -12436   -12476 
  -12394   -12194   -11975   -11839   -11823   -11916   -12078   -12264 
  -12438   -12546   -12532   -12406   -12279   -12249   -12329   -12459 
  -12561   -12590   -12548   -12447   -12310   -12202   -12195   -12316 
  -12514   -12668   -12687   -12573   -12387   -12206   -12096   -12081 
  -12141   -12226   -12286   -12278   -12186   -12047   -11961   -11998 
  -12135   -12282   -12388   -12463   -12506   -12490   -12409   -12295 
  -12208   -12194   -12253   -12340   -12424   -12503   -12564   -12567 
  -12502   -12390   -12263   -12168   -12141   -12155   -12175   -12217 
  -12286   -12353   -12403   -12424   -12383   -12262   -12083   -11916 
  -11857   -11948   -12128   -12286   -12367   -12407   -12475   -12544 
  -12542   -12467   -12375   -12297   -12237   -12202   -12202   -12248 
  -12333   -12415   -12444   -12414   -12370   -12340   -12332   -12351 
  -12394   -12451   -12499   -12495   -12429   -12326   -12226   -12182 
  -12220   -12301   -12387   -12460   -12459   -12351   -12212   -12132 
  -12117   -12132   -12156   -12182   -12212   -12243   -12279   -12322 
  -12343   -12307   -12244   -12199   -12187   -12183   -12167   -12162 
  -12190   -12218   -12208   -12202   -12267   -12384   -12471   -12452 
  -12325   -12172   -12087   -12101   -12181   -12287   -12390   -12471 
  -12541   -12595   -12595   -12529   -12422   -12301   -12187   -12114 
  -12114   -12178   -12260   -12329   -12366   -12360   -12322   -12286 
  -12279   -12294   -12310   -12345   -12405   -12468   -12518   -12536 
  -12511   -12440   -12317   -12164   -12017   -11915   -11897   -11978 
  -12132   -12306   -12441   -12506   -12503   -12465   -12418   -12343 
  -12244   -12199   -12264   -12405   -12528   -12563   -12519   -12437 
  -12321   -12166   -12028   -11993   -12087   -12243   -12371   -12441 
  -12460   -12420   -12332   -12249   -12205   -12171   -12140   -12135 
  -12183   -12279   -12378   -12445   -12490   -12529   -12555   -12537 
  -12457   -12343   -12256   -12245   -12276   -12275   -12209   -12135 
  -12120   -12162   -12194   -12182   -12164   -12185   -12221   -12251 
  -12307   -12421   -12546   -12583   -12476   -12285   -12140   -12128 
  -12240   -12397   -12501   -12502   -12429   -12343   -12303   -12347 
  -12455   -12552   -12571   -12491   -12340   -12159   -12002   -11923 
  -11948   -12042   -12140   -12209   -12247   -12263   -12262   -12256 
  -12280   -12344   -12394   -12367   -12278   -12204   -12191   -12224 
  -12271   -12339   -12426   -12503   -12532   -12492   -12405   -12326 
  -12293   -12290   -12290   -12286   -12278   -12252   -12218   -12206 
  -12228   -12272   -12326   -12376   -12399   -12371   -12307   -12282 
  -12337   -12421   -12476   -12517   -12553   -12549   -12468   -12337 
  -12228   -12195   -12236   -12275   -12240   -12145   -12059   -12029 
  -12070   -12158   -12252   -12312   -12298   -12202   -12079   -12024 
  -12093   -12253   -12417   -12502   -12474   -12356   -12205   -12101 
  -12102   -12198   -12314   -12364   -12330   -12270   -12235   -12239 
  -12270   -12321   -12394   -12456   -12461   -12428   -12409   -12409 
  -12397   -12366   -12325   -12270   -12214   -12181   -12168   -12182 
  -12218   -12243   -12233   -12209   -12210   -12258   -12329   -12375 
  -12382   -12374   -12372   -12374   -12360   -12330   -12321   -12357 
  -12425   -12486   -12505   -12478   -12420   -12353   -12298   -12252 
  -12210   -12201   -12249   -12330   -12402   -12449   -12472   -12465 
  -12426   -12379   -12345   -12329   -12321   -12294   -12239   -12189 
  -12174   -12205   -12279   -12357   -12380   -12330   -12240   -12150 
  -12090   -12078   -12121   -12228   -12355   -12418   -12397   -12355 
  -12359   -12415   -12483   -12510   -12475   -12394   -12314   -12275 
  -12285   -12325   -12363   -12359   -12313   -12258   -12220   -12213 
  -12225   -12221   -12181   -12129   -12102   -12104   -12140   -12216 
  -12299   -12345   -12339   -12307   -12301   -12321   -12344   -12366 
  -12388   -12401   -12406   -12438   -12517   -12596   -12586   -12447 
  -12241   -12063   -11983   -12016   -12117   -12235   -12326   -12351 
  -12295   -12187   -12075   -12008   -12010   -12070   -12147   -12210 
  -12267   -12339   -12420   -12487   -12522   -12536   -12537   -12517 
  -12467   -12411   -12384   -12397   -12424   -12421   -12361   -12279 
  -12239   -12270   -12334   -12351   -12289   -12205   -12150   -12131 
  -12151   -12214   -12309   -12397   -12426   -12374   -12278   -12210 
  -12191   -12197   -12226   -12301   -12401   -12488   -12526   -12510 
  -12471   -12441   -12429   -12430   -12429   -12407   -12386   -12374 
  -12355   -12330   -12318   -12322   -12325   -12299   -12243   -12178 
  -12136   -12118   -12114   -12135   -12181   -12220   -12229   -12222 
  -12216   -12206   -12189   -12174   -12174   -12179   -12189   -12220 
  -12286   -12380   -12474   -12509   -12445   -12314   -12186   -12125 
  -12154   -12244   -12348   -12415   -12426   -12402   -12378   -12359 
  -12359   -12380   -12388   -12359   -12317   -12301   -12293   -12256 
  -12187   -12143   -12178   -12295   -12440   -12550   -12582   -12525 
  -12418   -12325   -12280   -12263   -12240   -12189   -12116   -12060 
  -12064   -12120   -12190   -12247   -12271   -12256   -12210   -12154 
  -12137   -12197   -12314   -12429   -12486   -12463   -12391   -12318 
  -12278   -12287   -12341   -12417   -12472   -12452   -12347   -12210 
  -12102   -12047   -12047   -12098   -12197   -12301   -12347   -12324 
  -12275   -12244   -12243   -12271   -12332   -12410   -12464   -12464 
  -12410   -12333   -12280   -12270   -12283   -12320   -12405   -12511 
  -12583   -12569   -12468   -12349   -12268   -12216   -12189   -12210 
  -12274   -12329   -12339   -12307   -12262   -12206   -12152   -12116 
  -12127   -12193   -12279   -12332   -12328   -12280   -12236   -12229 
