Origin Time       2025/03/30 22:55:00
Lat.              41.993
Long.             142.725
Depth. (km)       55
Mag.              4.6
Station Code      NMRH03
Station Lat.      43.5508
Station Long.     144.9665
Station Height(m) -197.5
Record Time       2025/03/30 22:57:06
Sampling Freq(Hz) 100Hz
Duration Time(s)  120
Dir.              1
Scale Factor      2942(gal)/8224139
Max. Acc. (gal)   0.178
Last Correction   2025/03/30 22:57:06
Memo.             
[...]
  263780   263780   263773   263803   263834   263765   263740   263810 
  263814   263798   263811   263800   263821   263842   263815   263810 
  263853   263861   263810   263800   263807   263775   263808   263853 
  263806   263790   263838   263839   263806   263819   263861   263848 
  263795   263798   263826   263803   263791   263772   263742   263802 
  263857   263848   263872   263860   263783   263757   263785   263795 
  263795   263822   263804   263798   263861   263856   263788   263749 
  263749   263792   263812   263794   263806   263819   263792   263799 
  263831   263834   263810   263775   263827   263868   263767   263757 
  263826   263777   263757   263818   263803   263760   263803   263829 
  263798   263818   263829   263790   263795   263819   263796   263784 
  263814   263825   263808   263819   263841   263823   263814   263834 
  263818   263822   263857   263815   263745   263763   263807   263791 
  263756   263745   263753   263800   263858   263868   263873   263852 
  263767   263736   263748   263733   263757   263810   263829   263822 
  263849   263877   263848   263812   263773   263749   263775   263803 
  263826   263838   263817   263792   263788   263783   263785   263823 
  263823   263804   263831   263815   263788   263810   263833   263856 
  263873   263826   263756   263753   263760   263754   263804   263829 
  263845   263853   263787   263795   263839   263779   263772   263830 
  263796   263777   263817   263796   263754   263757   263806   263860 
  263838   263818   263850   263826   263791   263779   263767   263829 
  263873   263831   263794   263785   263804   263818   263817   263798 
  263758   263761   263785   263800   263848   263876   263837   263792 
  263808   263838   263811   263769   263784   263798   263757   263783 
  263841   263777   263748   263852   263895   263860   263842   263812 
  263776   263785   263810   263834   263845   263785   263737   263794 
  263819   263794   263825   263808   263772   263802   263781   263744 
  263783   263821   263803   263758   263767   263818   263842   263826 
  263788   263800   263829   263821   263834   263821   263752   263744 
  263802   263833   263850   263848   263821   263811   263791   263791 
  263818   263785   263761   263781   263784   263772   263764   263819 
  263877   263849   263827   263837   263810   263771   263769   263804 
  263839   263852   263812   263776   263784   263773   263769   263811 
  263821   263792   263798   263835   263838   263826   263823   263792 
  263796   263831   263799   263775   263830   263848   263835   263899 
  263899   263812   263802   263781   263731   263763   263800   263814 
  263822   263800   263795   263815   263811   263792   263800   263821 
  263819   263803   263818   263857   263812   263756   263788   263791 
  263802   263862   263815   263754   263784   263764   263741   263795 
  263822   263819   263829   263812   263779   263803   263864   263823 
  263750   263804   263848   263806   263794   263791   263777   263796 
  263829   263834   263810   263799   263814   263804   263802   263837 
  263803   263769   263826   263833   263830   263887   263861   263787 
  263799   263819   263780   263758   263791   263837   263841   263783 
  263723   263765   263858   263854   263785   263804   263864   263792 
  263707   263749   263787   263784   263798   263811   263814   263800 
  263812   263814   263754   263741   263812   263872   263838   263783 
  263807   263821   263780   263760   263781   263841   263823   263744 
  263769   263823   263854   263865   263803   263780   263795   263790 
  263803   263817   263834   263823   263775   263768   263783   263811 
  263853   263842   263829   263830   263780   263795   263858   263811 
  263806   263869   263829   263754   263729   263756   263790   263794 
  263815   263825   263814   263811   263779   263761   263775   263790 
  263821   263861   263877   263866   263827   263767   263757   263818 
  263811   263767   263811   263799   263741   263833   263872   263734 
  263723   263846   263842   263790   263825   263861   263821   263785 
  263837   263846   263800   263780   263733   263745   263798   263790 
  263819   263845   263818   263814   263803   263780   263776   263815 
  263866   263834   263769   263761   263787   263826   263846   263833 
  263812   263817   263810   263757   263750   263835   263877   263857 
  263849   263800   263783   263845   263830   263792   263846   263876 
  263861   263853   263819   263794   263812   263823   263794   263748 
  263734   263765   263776   263763   263764   263815   263879   263815 
  263745   263807   263831   263808   263811   263790   263785   263795 
  263788   263812   263812   263779   263807   263873   263883   263839 
  263829   263850   263826   263757   263744   263785   263787   263772 
  263808   263853   263842   263807   263818   263835   263850   263876 
  263848   263790   263777   263833   263883   263818   263734   263741 
  263742   263714   263763   263848   263881   263879   263833   263808 
  263850   263823   263771   263810   263818   263772   263792   263838 
  263817   263768   263772   263790   263779   263800   263826   263798 
  263821   263845   263783   263771   263783   263773   263807   263798 
  263781   263811   263799   263807   263873   263853   263796   263830 
  263814   263757   263804   263817   263795   263844   263842   263829 
  263845   263798   263784   263812   263787   263799   263821   263796 
  263781   263761   263784   263856   263865   263848   263804   263727 
  263736   263803   263819   263806   263821   263838   263817   263781 
  263798   263831   263804   263781   263823   263858   263835   263812 
  263829   263821   263787   263771   263749   263763   263850   263879 
  263814   263827   263866   263815   263772   263730   263718   263802 
  263830   263834   263885   263879   263838   263788   263749   263784 
  263814   263806   263819   263810   263769   263791   263831   263803 
  263788   263817   263854   263895   263858   263775   263753   263773 
  263803   263808   263812   263864   263830   263764   263833   263879 
  263817   263777   263763   263757   263780   263785   263802   263845 
  263821   263779   263776   263780   263807   263864   263929   263898 
  263769   263738   263794   263799   263794   263846   263879   263848 
  263838   263825   263784   263799   263810   263756   263737   263783 
  263807   263794   263775   263796   263850   263830   263775   263811 
  263829   263733   263715   263802   263802   263802   263873   263880 
  263842   263817   263785   263795   263844   263862   263850   263812 
  263785   263825   263852   263825   263835   263864   263839   263784 
  263746   263748   263765   263760   263802   263872   263825   263768 
  263790   263768   263771   263827   263822   263806   263829   263823 
  263773   263726   263753   263830   263825   263804   263842   263826 
  263788   263834   263865   263833   263811   263811   263831   263865 
  263854   263803   263779   263780   263783   263821   263845   263796 
  263772   263783   263757   263780   263850   263846   263798   263781 
  263804   263819   263784   263756   263748   263734   263773   263808 
  263788   263842   263895   263808   263767   263810   263831   263814 
  263754   263775   263850   263837   263841   263853   263776   263748 
  263790   263806   263842   263854   263795   263784   263795   263776 
  263815   263862   263850   263849   263844   263802   263790   263818 
  263850   263865   263845   263845   263871   263831   263769   263784 
  263787   263757   263811   263889   263885   263842   263837   263873 
  263865   263804   263785   263826   263853   263835   263811   263812 
  263796   263749   263727   263723   263741   263802   263860   263862 
  263814   263768   263760   263785   263821   263818   263761   263731 
  263754   263768   263807   263852   263839   263831   263817   263785 
  263785   263808   263830   263783   263746   263810   263810   263780 
  263796   263768   263777   263804   263802   263844   263823   263781 
  263817   263808   263776   263776   263784   263808   263810   263783 
  263794   263818   263825   263803   263742   263756   263818   263790 
  263764   263812   263833   263806   263814   263829   263796   263827 
  263873   263829   263819   263806   263742   263772   263838   263822 
  263765   263753   263788   263800   263831   263875   263844   263783 
  263783   263815   263795   263754   263792   263827   263777   263756 
  263819   263834   263777   263757   263772   263796   263830   263845 
  263854   263858   263833   263848   263903   263866   263808   263844 
  263883   263892   263896   263853   263825   263835   263833   263839 
  263815   263800   263868   263869   263826   263879   263881   263784 
  263733   263730   263783   263850   263810   263750   263734   263672 
  263642   263744   263826   263802   263792   263787   263781   263865 
  263898   263857   263866   263850   263831   263835   263787   263803 
  263907   263920   263837   263795   263822   263825   263795   263771 
  263757   263765   263729   263740   263860   263821   263696   263715 
  263740   263749   263794   263804   263776   263750   263794   263891 
  263916   263864   263842   263854   263822   263740   263692   263707 
  263703   263717   263791   263821   263858   263933   263945   263950 
  263918   263791   263767   263803   263750   263761   263812   263775 
  263748   263752   263773   263815   263835   263893   263918   263841 
  263814   263772   263668   263671   263726   263740   263772   263823 
  263850   263839   263795   263730   263718   263757   263756   263719 
  263679   263682   263781   263876   263866   263794   263745   263768 
  263817   263825   263787   263790   263827   263817   263798   263811 
  263848   263962   264091   264060   263906   263812   263795   263721 
  263634   263637   263675   263733   263753   263753   263807   263806 
  263771   263758   263734   263721   263742   263854   263954   263946 
  263927   263861   263830   263916   263887   263776   263730   263694 
  263698   263753   263818   263837   263767   263733   263773   263792 
  263815   263850   263838   263854   263934   263964   263926   263869 
  263806   263812   263912   263987   264014   264023   263935   263784 
  263752   263848   263879   263827   263833   263833   263829   263852 
  263772   263725   263775   263764   263757   263731   263676   263749 
  263854   263907   263962   263933   263835   263825   263830   263738 
  263710   263825   263962   264034   263957   263826   263819   263822 
  263727   263650   263660   263665   263637   263633   263606   263630 
  263784   263877   263830   263785   263800   263776   263750   263846 
  263880   263838   263903   263907   263790   263744   263783   263838 
  263861   263823   263777   263783   263765   263665   263640   263700 
  263669   263614   263675   263754   263835   263976   264037   263965 
  263922   263846   263740   263790   263810   263680   263609   263610 
  263645   263730   263821   263964   264095   264082   264049   263981 
  263815   263788   263826   263710   263668   263748   263777   263781 
  263722   263607   263586   263607   263567   263582   263753   263918 
  263918   263883   263869   263795   263731   263699   263684   263721 
  263717   263709   263787   263853   263883   263911   263889   263911 
  264055   264118   264037   264018   264030   263976   263881   263776 
  263769   263792   263737   263750   263852   263922   263956   263968 
  264000   264046   264034   264024   264004   263910   263860   263796 
  263667   263622   263619   263698   263848   263818   263744   263771 
  263746   263748   263791   263757   263753   263806   263803   263814 
  263841   263772   263731   263806   263868   263907   263953   263900 
  263775   263691   263667   263731   263808   263767   263652   263601 
  263663   263733   263744   263767   263799   263799   263833   263865 
  263798   263740   263749   263719   263740   263861   263930   263943 
  263942   263900   263860   263787   263663   263640   263737   263827 
  263869   263860   263777   263671   263652   263711   263788   263858 
  263849   263833   263911   263985   263984   263889   263727   263659 
  263710   263771   263845   263929   263965   264003   263979   263785 
  263656   263692   263703   263729   263799   263790   263781   263814 
  263779   263687   263649   263682   263686   263667   263660   263659 
  263699   263768   263866   263937   263910   263889   263899   263880 
  263862   263858   263898   263954   263919   263817   263772   263761 
  263764   263853   263968   264058   264105   264004   263871   263781 
  263646   263638   263780   263784   263709   263781   263889   263888 
  263856   263842   263827   263806   263749   263741   263864   263974 
  263969   263930   263919   263925   263893   263772   263617   263517 
  263483   263517   263565   263578   263637   263783   263927   264015 
  264024   263954   263888   263844   263746   263713   263776   263779 
  263764   263788   263808   263837   263926   264115   264265   264203 
  263980   263734   263605   263615   263601   263572   263611   263641 
  263730   263912   263981   263889   263814   263807   263800   263799 
  263763   263717   263742   263726   263682   263737   263812   263850 
  263866   263862   263871   263980   264176   264247   264109   263888 
  263648   263416   263312   263389   263525   263663   263795   263830 
  263802   263787   263772   263841   264001   264081   264080   264050 
  263945   263871   263856   263769   263671   263699   263787   263803 
  263757   263750   263860   263964   263916   263844   263806   263752 
  263740   263748   263730   263742   263792   263792   263738   263746 
  263795   263815   263854   263911   263972   263977   263837   263714 
  263754   263838   263846   263826   263812   263796   263830   263854 
  263808   263784   263776   263752   263767   263754   263660   263646 
  263745   263803   263862   263946   263864   263703   263680   263621 
  263494   263506   263595   263729   263903   263987   264022   264043 
  263962   263875   263927   263992   263969   263904   263765   263632 
  263601   263557   263549   263704   263831   263849   263945   264057 
  264026   263942   263880   263852   263881   263911   263861   263775 
  263795   263856   263767   263638   263682   263825   263893   263919 
  263929   263856   263850   263947   263898   263745   263691   263667 
  263607   263575   263576   263599   263698   263835   263853   263830 
  263939   264023   263958   263896   263848   263800   263875   263949 
  263817   263650   263640   263672   263736   263862   263869   263767 
  263763   263818   263837   263830   263826   263889   263952   263926 
  263916   263899   263748   263628   263633   263637   263737   263891 
  263846   263756   263852   263999   263999   263910   263876   263885 
  263883   263856   263785   263698   263665   263703   263765   263796 
  263765   263749   263773   263734   263657   263648   263740   263871 
  263922   263930   263961   263838   263574   263449   263468   263560 
  263729   263830   263871   263922   263907   263919   264007   264055 
  264028   263952   263929   263950   263931   263869   263745   263707 
  263849   263954   263942   263898   263830   263819   263839   263736 
  263594   263560   263586   263626   263676   263769   263929   264038 
  264039   263997   263927   263830   263804   263883   263857   263668 
  263571   263582   263586   263696   263862   263918   263950   264004 
  263956   263800   263700   263749   263849   263883   263861   263764 
  263613   263605   263717   263731   263713   263780   263817   263783 
  263784   263791   263742   263725   263769   263833   263896   263893 
  263872   263898   263896   263916   263929   263775   263656   263775 
  263937   263977   263881   263725   263691   263748   263753   263779 
  263833   263873   263938   263945   263842   263758   263765   263792 
  263757   263704   263733   263784   263756   263741   263817   263900 
  263970   264011   263973   263943   263933   263827   263699   263668 
  263718   263757   263752   263765   263787   263754   263737   263753 
  263752   263763   263776   263748   263731   263740   263700   263684 
  263727   263711   263736   263831   263815   263799   263903   264000 
  264092   264169   264105   263930   263757   263703   263775   263808 
  263754   263733   263763   263671   263509   263514   263596   263714 
  263927   264101   264174   264190   264151   264027   263862   263823 
  263934   263956   263776   263533   263366   263433   263659   263731 
  263763   263930   264012   263927   263807   263713   263671   263687 
  263726   263710   263640   263591   263603   263646   263700   263817 
  263915   263937   263957   263954   263942   263956   263919   263881 
  263920   263973   263973   263947   263961   263945   263835   263780 
  263817   263808   263758   263723   263692   263669   263686   263734 
  263785   263833   263849   263826   263849   263846   263784   263810 
  263841   263823   263862   263891   263879   263911   263911   263819 
  263769   263787   263776   263745   263772   263806   263729   263665 
  263722   263800   263822   263767   263698   263659   263683   263810 
  263873   263823   263835   263871   263798   263746   263848   263952 
  263947   263916   263896   263934   263985   263907   263804   263787 
  263725   263656   263709   263744   263741   263819   263815   263691 
  263615   263595   263642   263733   263744   263730   263767   263841 
  263954   264026   264062   264118   264062   263899   263800   263713 
  263586   263582   263648   263630   263672   263756   263687   263655 
  263798   263862   263839   263915   264006   263969   263849   263760 
  263776   263891   263938   263831   263772   263850   263907   263887 
  263871   263875   263806   263726   263807   263862   263744   263698 
  263748   263698   263668   263773   263881   263889   263812   263794 
  263877   263911   263918   263879   263723   263664   263714   263707 
  263750   263860   263927   263985   264003   263918   263796   263703 
  263668   263702   263794   263892   263930   263947   264018   264088 
  264061   263970   263915   263911   263916   263857   263711   263548 
  263409   263358   263459   263641   263799   263898   263957   263983 
  263912   263768   263628   263595   263718   263812   263812   263821 
  263802   263794   263853   263899   263848   263796   263848   263818 
  263727   263740   263692   263634   263702   263744   263718   263719 
  263777   263862   263918   263931   263956   263977   263934   263873 
  263834   263833   263852   263837   263858   263912   263892   263806 
  263695   263663   263734   263719   263625   263619   263621   263682 
  263914   264003   263850   263733   263729   263783   263819   263794 
  263781   263864   263965   263889   263706   263679   263822   263920 
  263899   263856   263807   263744   263695   263605   263545   263634 
  263731   263746   263748   263752   263769   263829   263892   263946 
  263984   263968   263949   263954   263898   263823   263860   263887 
  263818   263796   263792   263780   263885   263992   264008   263981 
