Origin Time       2025/03/30 22:55:00
Lat.              41.993
Long.             142.725
Depth. (km)       55
Mag.              4.6
Station Code      NMRH03
Station Lat.      43.5508
Station Long.     144.9665
Station Height(m) 30
Record Time       2025/03/30 22:57:06
Sampling Freq(Hz) 100Hz
Duration Time(s)  120
Dir.              6
Scale Factor      7845(gal)/8223790
Max. Acc. (gal)   0.264
Last Correction   2025/03/30 22:57:06
Memo.             
[...]
  -14534   -14532   -14534   -14521   -14520   -14526   -14513   -14523 
  -14602   -14688   -14666   -14555   -14490   -14535   -14594   -14571 
  -14500   -14470   -14509   -14566   -14571   -14546   -14551   -14558 
  -14538   -14548   -14600   -14619   -14558   -14489   -14524   -14620 
  -14646   -14594   -14558   -14565   -14569   -14534   -14488   -14480 
  -14530   -14590   -14604   -14584   -14570   -14565   -14570   -14604 
  -14625   -14588   -14517   -14501   -14563   -14613   -14590   -14551 
  -14550   -14586   -14634   -14638   -14563   -14440   -14382   -14477 
  -14643   -14701   -14588   -14436   -14418   -14532   -14627   -14596 
  -14516   -14520   -14607   -14666   -14639   -14567   -14500   -14462 
  -14501   -14629   -14721   -14652   -14497   -14440   -14539   -14651 
  -14623   -14499   -14459   -14546   -14624   -14605   -14540   -14509 
  -14516   -14531   -14547   -14574   -14592   -14574   -14555   -14562 
  -14574   -14577   -14584   -14577   -14530   -14494   -14538   -14611 
  -14604   -14530   -14504   -14553   -14578   -14540   -14515   -14548 
  -14594   -14594   -14554   -14532   -14561   -14586   -14561   -14530 
  -14548   -14581   -14566   -14528   -14543   -14596   -14601   -14573 
  -14578   -14589   -14555   -14526   -14561   -14611   -14596   -14546 
  -14547   -14600   -14613   -14563   -14538   -14575   -14594   -14557 
  -14520   -14521   -14547   -14562   -14551   -14532   -14540   -14578 
  -14615   -14625   -14615   -14575   -14523   -14505   -14534   -14546 
  -14523   -14515   -14550   -14593   -14608   -14596   -14570   -14540 
  -14530   -14544   -14573   -14588   -14563   -14523   -14543   -14612 
  -14629   -14586   -14550   -14535   -14526   -14534   -14550   -14532 
  -14486   -14474   -14513   -14563   -14585   -14573   -14565   -14586 
  -14604   -14577   -14548   -14559   -14585   -14588   -14586   -14604 
  -14593   -14526   -14489   -14557   -14640   -14623   -14532   -14474 
  -14492   -14532   -14528   -14503   -14535   -14627   -14673   -14616 
  -14535   -14515   -14540   -14559   -14559   -14551   -14553   -14562 
  -14554   -14524   -14519   -14550   -14557   -14520   -14527   -14600 
  -14636   -14600   -14553   -14551   -14586   -14589   -14534   -14494 
  -14527   -14574   -14565   -14520   -14509   -14526   -14543   -14557 
  -14558   -14550   -14551   -14574   -14609   -14611   -14554   -14492 
  -14488   -14540   -14581   -14575   -14574   -14620   -14671   -14659 
  -14577   -14494   -14490   -14544   -14574   -14565   -14570   -14592 
  -14577   -14531   -14511   -14543   -14594   -14616   -14589   -14540 
  -14531   -14575   -14608   -14577   -14508   -14459   -14484   -14588 
  -14674   -14636   -14513   -14445   -14494   -14577   -14605   -14592 
  -14578   -14565   -14546   -14544   -14573   -14601   -14596   -14558 
  -14524   -14532   -14577   -14619   -14620   -14575   -14503   -14451 
  -14470   -14548   -14612   -14600   -14544   -14536   -14574   -14586 
  -14558   -14528   -14524   -14548   -14575   -14584   -14585   -14605 
  -14631   -14612   -14540   -14485   -14496   -14553   -14613   -14631 
  -14588   -14524   -14507   -14535   -14566   -14574   -14569   -14577 
  -14589   -14569   -14542   -14553   -14580   -14557   -14503   -14515 
  -14584   -14624   -14615   -14571   -14524   -14524   -14546   -14536 
  -14520   -14551   -14611   -14600   -14517   -14488   -14547   -14620 
  -14654   -14631   -14551   -14473   -14463   -14512   -14573   -14631 
  -14639   -14567   -14501   -14534   -14605   -14600   -14528   -14499 
  -14532   -14571   -14596   -14605   -14573   -14509   -14478   -14511 
  -14558   -14563   -14538   -14532   -14563   -14594   -14608   -14608 
  -14588   -14551   -14530   -14543   -14580   -14608   -14601   -14567 
  -14550   -14575   -14598   -14540   -14459   -14476   -14562   -14612 
  -14594   -14551   -14530   -14550   -14580   -14581   -14554   -14539 
  -14569   -14598   -14566   -14509   -14494   -14527   -14561   -14563 
  -14558   -14571   -14580   -14566   -14547   -14544   -14559   -14561 
  -14555   -14567   -14580   -14563   -14536   -14534   -14577   -14625 
  -14604   -14532   -14505   -14547   -14596   -14594   -14573   -14575 
  -14567   -14528   -14512   -14553   -14600   -14605   -14575   -14547 
  -14546   -14575   -14604   -14588   -14535   -14494   -14519   -14588 
  -14613   -14566   -14511   -14501   -14547   -14596   -14588   -14526 
  -14477   -14512   -14594   -14634   -14616   -14592   -14581   -14557 
  -14517   -14497   -14539   -14648   -14712   -14615   -14454   -14420 
  -14520   -14625   -14661   -14629   -14553   -14490   -14513   -14597 
  -14638   -14608   -14571   -14544   -14512   -14488   -14484   -14511 
  -14571   -14621   -14617   -14574   -14520   -14488   -14520   -14598 
  -14638   -14601   -14539   -14524   -14555   -14571   -14565   -14575 
  -14593   -14582   -14553   -14528   -14516   -14523   -14565   -14620 
  -14625   -14569   -14511   -14500   -14517   -14540   -14557   -14554 
  -14554   -14594   -14640   -14612   -14507   -14436   -14462   -14535 
  -14602   -14631   -14592   -14515   -14496   -14558   -14627   -14632 
  -14570   -14496   -14496   -14578   -14638   -14607   -14544   -14524 
  -14553   -14584   -14578   -14546   -14536   -14554   -14563   -14543 
  -14531   -14551   -14565   -14548   -14535   -14546   -14562   -14571 
  -14580   -14567   -14542   -14554   -14597   -14593   -14547   -14534 
  -14563   -14598   -14612   -14594   -14554   -14527   -14546   -14589 
  -14593   -14535   -14486   -14520   -14604   -14636   -14584   -14512 
  -14493   -14523   -14558   -14571   -14573   -14562   -14542   -14547 
  -14571   -14567   -14548   -14557   -14577   -14567   -14538   -14546 
  -14586   -14589   -14542   -14513   -14544   -14600   -14611   -14558 
  -14520   -14565   -14627   -14594   -14519   -14515   -14550   -14546 
  -14550   -14604   -14635   -14585   -14515   -14504   -14547   -14580 
  -14582   -14575   -14571   -14554   -14528   -14527   -14559   -14588 
  -14574   -14540   -14544   -14585   -14604   -14581   -14540   -14521 
  -14543   -14565   -14546   -14513   -14520   -14558   -14580   -14561 
  -14535   -14544   -14575   -14590   -14574   -14538   -14517   -14536 
  -14567   -14577   -14578   -14598   -14607   -14570   -14528   -14530 
  -14547   -14553   -14569   -14609   -14628   -14594   -14547   -14524 
  -14520   -14517   -14526   -14563   -14597   -14578   -14542   -14535 
  -14559   -14592   -14590   -14557   -14538   -14543   -14551   -14538 
  -14508   -14526   -14589   -14621   -14580   -14523   -14524   -14577 
  -14624   -14621   -14566   -14521   -14536   -14566   -14563   -14559 
  -14582   -14598   -14575   -14544   -14543   -14551   -14566   -14598 
  -14604   -14553   -14520   -14559   -14600   -14574   -14527   -14521 
  -14538   -14534   -14526   -14538   -14555   -14554   -14535   -14520 
  -14526   -14553   -14575   -14577   -14598   -14650   -14647   -14553 
  -14459   -14463   -14532   -14584   -14615   -14638   -14616   -14567 
  -14538   -14516   -14493   -14492   -14538   -14608   -14631   -14594 
  -14558   -14543   -14546   -14563   -14585   -14598   -14605   -14600 
  -14567   -14534   -14546   -14567   -14534   -14488   -14517   -14600 
  -14612   -14532   -14480   -14520   -14593   -14629   -14620   -14590 
  -14562   -14544   -14543   -14548   -14544   -14539   -14547   -14561 
  -14565   -14551   -14534   -14532   -14566   -14621   -14625   -14550 
  -14489   -14516   -14574   -14585   -14574   -14575   -14558   -14516 
  -14503   -14517   -14535   -14563   -14592   -14589   -14555   -14536 
  -14536   -14521   -14523   -14573   -14607   -14566   -14511   -14527 
  -14592   -14620   -14589   -14547   -14548   -14596   -14619   -14566 
  -14490   -14482   -14544   -14588   -14548   -14499   -14531   -14629 
  -14675   -14612   -14521   -14494   -14528   -14575   -14596   -14586 
  -14563   -14534   -14516   -14528   -14551   -14562   -14561   -14571 
  -14601   -14598   -14526   -14466   -14509   -14605   -14631   -14581 
  -14543   -14565   -14598   -14588   -14539   -14515   -14542   -14578 
  -14596   -14615   -14628   -14597   -14538   -14505   -14519   -14548 
  -14571   -14582   -14573   -14548   -14524   -14500   -14494   -14543 
  -14628   -14666   -14615   -14534   -14490   -14496   -14544   -14600 
  -14611   -14582   -14559   -14551   -14544   -14554   -14586   -14608 
  -14574   -14507   -14496   -14582   -14667   -14646   -14551   -14486 
  -14492   -14540   -14574   -14574   -14574   -14586   -14571   -14524 
  -14489   -14505   -14558   -14601   -14617   -14611   -14584   -14557 
  -14548   -14536   -14521   -14540   -14581   -14597   -14573   -14542 
  -14544   -14559   -14536   -14501   -14507   -14555   -14607   -14616 
  -14588   -14554   -14540   -14578   -14620   -14600   -14544   -14515 
  -14516   -14540   -14559   -14536   -14497   -14517   -14588   -14615 
  -14578   -14536   -14535   -14581   -14639   -14658   -14602   -14499 
  -14451   -14521   -14613   -14616   -14562   -14523   -14513   -14535 
  -14569   -14586   -14597   -14600   -14575   -14540   -14516   -14508 
  -14521   -14544   -14567   -14575   -14559   -14540   -14524   -14500 
  -14509   -14567   -14604   -14584   -14558   -14569   -14596   -14609 
  -14600   -14557   -14509   -14508   -14539   -14562   -14586   -14619 
  -14617   -14557   -14497   -14508   -14574   -14632   -14631   -14569 
  -14503   -14490   -14530   -14570   -14586   -14590   -14578   -14546 
  -14527   -14547   -14589   -14598   -14558   -14516   -14526   -14588 
  -14636   -14604   -14523   -14480   -14497   -14548   -14582   -14554 
  -14496   -14485   -14557   -14644   -14662   -14605   -14538   -14516 
  -14550   -14592   -14597   -14577   -14558   -14548   -14551   -14588 
  -14631   -14620   -14571   -14557   -14573   -14571   -14540   -14508 
  -14504   -14530   -14565   -14586   -14580   -14531   -14466   -14455 
  -14516   -14589   -14613   -14569   -14503   -14503   -14578   -14640 
  -14638   -14602   -14586   -14597   -14609   -14589   -14530   -14473 
  -14484   -14571   -14658   -14658   -14573   -14481   -14451   -14481 
  -14515   -14548   -14608   -14646   -14608   -14557   -14561   -14561 
  -14499   -14446   -14476   -14555   -14615   -14631   -14608   -14558 
  -14513   -14509   -14536   -14551   -14569   -14627   -14666   -14616 
  -14509   -14430   -14454   -14586   -14706   -14700   -14601   -14531 
  -14530   -14526   -14480   -14474   -14558   -14638   -14611   -14508 
  -14459   -14521   -14604   -14613   -14561   -14511   -14511   -14569 
  -14628   -14608   -14534   -14538   -14625   -14659   -14592   -14496 
  -14449   -14466   -14500   -14526   -14557   -14585   -14592   -14582 
  -14573   -14573   -14582   -14585   -14584   -14590   -14569   -14526 
  -14542   -14611   -14615   -14536   -14499   -14558   -14625   -14631 
  -14604   -14573   -14542   -14526   -14534   -14534   -14511   -14511 
  -14553   -14580   -14573   -14547   -14515   -14530   -14620   -14690 
  -14642   -14527   -14469   -14501   -14538   -14513   -14478   -14511 
  -14573   -14580   -14534   -14519   -14575   -14636   -14613   -14557 
  -14566   -14624   -14647   -14615   -14573   -14547   -14534   -14539 
  -14569   -14593   -14571   -14515   -14482   -14497   -14531   -14551 
  -14554   -14555   -14582   -14602   -14565   -14515   -14539   -14611 
  -14643   -14623   -14589   -14553   -14535   -14589   -14685   -14673 
  -14497   -14358   -14424   -14570   -14608   -14567   -14575   -14646 
  -14665   -14570   -14453   -14430   -14499   -14542   -14513   -14496 
  -14540   -14593   -14616   -14643   -14667   -14631   -14553   -14523 
  -14563   -14619   -14627   -14569   -14523   -14548   -14584   -14546 
  -14482   -14492   -14558   -14596   -14601   -14607   -14578   -14526 
  -14515   -14540   -14551   -14551   -14546   -14517   -14493   -14503 
  -14520   -14528   -14567   -14663   -14727   -14679   -14588   -14546 
  -14550   -14551   -14542   -14573   -14640   -14658   -14586   -14496 
  -14481   -14517   -14500   -14447   -14462   -14540   -14588   -14573 
  -14569   -14640   -14708   -14683   -14602   -14527   -14482   -14482 
  -14512   -14551   -14573   -14574   -14574   -14589   -14604   -14561 
  -14454   -14400   -14465   -14578   -14629   -14588   -14520   -14509 
  -14557   -14604   -14600   -14569   -14571   -14607   -14619   -14555 
  -14450   -14435   -14540   -14631   -14629   -14580   -14528   -14474 
  -14416   -14418   -14507   -14578   -14578   -14588   -14631   -14650 
  -14634   -14625   -14625   -14594   -14582   -14636   -14662   -14594 
  -14516   -14488   -14490   -14513   -14551   -14588   -14601   -14588 
  -14563   -14527   -14501   -14527   -14600   -14682   -14715   -14640 
  -14499   -14408   -14439   -14526   -14561   -14543   -14540   -14562 
  -14571   -14563   -14578   -14604   -14577   -14534   -14562   -14608 
  -14554   -14431   -14378   -14427   -14503   -14563   -14609   -14628 
  -14604   -14546   -14492   -14507   -14615   -14737   -14746   -14631 
  -14521   -14509   -14557   -14578   -14559   -14562   -14605   -14605 
  -14527   -14473   -14526   -14628   -14663   -14600   -14526   -14511 
  -14521   -14524   -14542   -14571   -14566   -14496   -14424   -14426 
  -14489   -14571   -14640   -14656   -14586   -14496   -14520   -14650 
  -14724   -14679   -14619   -14624   -14635   -14588   -14513   -14470 
  -14461   -14455   -14465   -14523   -14593   -14598   -14551   -14536 
  -14584   -14628   -14635   -14644   -14650   -14567   -14395   -14283 
  -14351   -14528   -14651   -14665   -14617   -14566   -14543   -14534 
  -14548   -14602   -14652   -14655   -14623   -14577   -14544   -14532 
  -14531   -14523   -14507   -14542   -14632   -14661   -14586   -14512 
  -14542   -14647   -14689   -14597   -14497   -14523   -14627   -14665 
  -14592   -14515   -14512   -14509   -14432   -14366   -14415   -14547 
  -14643   -14639   -14577   -14569   -14656   -14717   -14642   -14500 
  -14432   -14472   -14544   -14580   -14551   -14488   -14463   -14490 
  -14496   -14467   -14494   -14596   -14651   -14604   -14559   -14598 
  -14667   -14689   -14625   -14516   -14466   -14527   -14589   -14542 
  -14459   -14474   -14570   -14659   -14705   -14716   -14700   -14635 
  -14542   -14486   -14482   -14493   -14507   -14524   -14523   -14505 
  -14515   -14571   -14625   -14613   -14542   -14494   -14540   -14639 
  -14666   -14593   -14512   -14485   -14489   -14501   -14543   -14604 
  -14589   -14474   -14440   -14590   -14723   -14658   -14494   -14430 
  -14509   -14617   -14631   -14550   -14463   -14445   -14489   -14536 
  -14563   -14596   -14612   -14573   -14539   -14554   -14550   -14523 
  -14563   -14635   -14628   -14590   -14629   -14710   -14700   -14574 
  -14472   -14507   -14615   -14666   -14601   -14457   -14369   -14439 
  -14571   -14609   -14544   -14472   -14465   -14539   -14631   -14632 
  -14527   -14458   -14536   -14670   -14717   -14674   -14615   -14566 
  -14526   -14508   -14526   -14557   -14575   -14581   -14577   -14566 
  -14558   -14543   -14526   -14503   -14466   -14461   -14532   -14632 
  -14658   -14607   -14554   -14544   -14588   -14667   -14700   -14639 
  -14553   -14517   -14535   -14555   -14538   -14505   -14511   -14566 
  -14627   -14611   -14520   -14474   -14526   -14592   -14611   -14586 
  -14509   -14443   -14484   -14578   -14596   -14526   -14488   -14535 
  -14586   -14594   -14609   -14639   -14627   -14555   -14478   -14450 
  -14467   -14515   -14566   -14573   -14516   -14459   -14507   -14629 
  -14701   -14679   -14631   -14616   -14636   -14624   -14550   -14485 
  -14485   -14520   -14532   -14508   -14496   -14540   -14619   -14679 
  -14682   -14629   -14575   -14581   -14623   -14600   -14517   -14490 
  -14559   -14621   -14580   -14486   -14455   -14517   -14612   -14644 
  -14570   -14447   -14388   -14451   -14581   -14669   -14665   -14612 
  -14593   -14617   -14620   -14588   -14575   -14586   -14578   -14540 
  -14508   -14490   -14473   -14462   -14484   -14526   -14550   -14538 
  -14539   -14582   -14624   -14632   -14639   -14659   -14623   -14496 
  -14403   -14459   -14584   -14598   -14459   -14339   -14399   -14581 
  -14706   -14679   -14555   -14485   -14544   -14652   -14697   -14656 
  -14607   -14604   -14635   -14654   -14613   -14523   -14466   -14488 
  -14555   -14615   -14629   -14598   -14540   -14497   -14503   -14535 
  -14551   -14559   -14570   -14553   -14493   -14426   -14415   -14465 
  -14499   -14501   -14543   -14621   -14669   -14671   -14656   -14640 
  -14612   -14571   -14542   -14536   -14540   -14517   -14481   -14485 
  -14536   -14570   -14535   -14478   -14501   -14601   -14658   -14613 
  -14534   -14508   -14542   -14580   -14612   -14644   -14632   -14562 
  -14504   -14507   -14542   -14561   -14569   -14581   -14578   -14574 
  -14600   -14619   -14609   -14605   -14636   -14673   -14644   -14553 
  -14497   -14535   -14598   -14598   -14539   -14500   -14521   -14566 
  -14577   -14540   -14520   -14550   -14588   -14590   -14566   -14520 
  -14463   -14442   -14490   -14547   -14532   -14473   -14476   -14561 
  -14634   -14621   -14553   -14490   -14480   -14550   -14647   -14673 
  -14629   -14613   -14627   -14592   -14519   -14511   -14600   -14693 
  -14689   -14601   -14524   -14526   -14567   -14562   -14515   -14517 
  -14574   -14611   -14601   -14553   -14463   -14397   -14438   -14535 
  -14578   -14547   -14484   -14451   -14512   -14627   -14688   -14670 
  -14635   -14624   -14625   -14598   -14535   -14474   -14457   -14496 
  -14566   -14609   -14612   -14601   -14570   -14513   -14486   -14554 
  -14661   -14679   -14577   -14473   -14485   -14551   -14558   -14520 
  -14513   -14548   -14565   -14508   -14430   -14432   -14499   -14521 
  -14488   -14509   -14627   -14692   -14613   -14504   -14484   -14534 
  -14593   -14642   -14671   -14648   -14594   -14567   -14569   -14580 
  -14589   -14569   -14542   -14571   -14644   -14661   -14555   -14420 
  -14388   -14469   -14593   -14674   -14655   -14580   -14534   -14542 
  -14559   -14569   -14615   -14678   -14659   -14563   -14494   -14482 
  -14485   -14489   -14516   -14570   -14604   -14598   -14581   -14570 
  -14555   -14538   -14547   -14585   -14570   -14494   -14467   -14515 
  -14543   -14540   -14553   -14584   -14589   -14551   -14511   -14519 
  -14588   -14667   -14686   -14669   -14665   -14628   -14540   -14489 
  -14527   -14586   -14589   -14558   -14557   -14590   -14600   -14532 
  -14432   -14400   -14455   -14548   -14638   -14679   -14635   -14542 
  -14490   -14513   -14566   -14609   -14616   -14588   -14539   -14484 
  -14457   -14490   -14535   -14547   -14559   -14607   -14671   -14683 
  -14597   -14474   -14455   -14565   -14677   -14677   -14574   -14477 
  -14454   -14480   -14520   -14569   -14607   -14613   -14609   -14605 
  -14567   -14486   -14436   -14493   -14627   -14701   -14638   -14519 
  -14480   -14547   -14643   -14674   -14612   -14523   -14478   -14490 
  -14546   -14613   -14646   -14628   -14589   -14553   -14528   -14517 
  -14519   -14535   -14530   -14482   -14480   -14584   -14678   -14634 
  -14516   -14474   -14530   -14594   -14597   -14555   -14547   -14593 
  -14621   -14590   -14542   -14534   -14569   -14598   -14608   -14625 
