Origin Time       2025/03/30 22:55:00
Lat.              41.993
Long.             142.725
Depth. (km)       55
Mag.              4.6
Station Code      NMRH03
Station Lat.      43.5508
Station Long.     144.9665
Station Height(m) -197.5
Record Time       2025/03/30 22:57:06
Sampling Freq(Hz) 100Hz
Duration Time(s)  120
Dir.              3
Scale Factor      2942(gal)/8224139
Max. Acc. (gal)   0.067
Last Correction   2025/03/30 22:57:06
Memo.             
 -137724  -137700  -137671  -137652  -137641  -137662  -137697  -137686 
 -137658  -137660  -137650  -137620  -137647  -137704  -137683  -137613 
 -137577  -137602  -137685  -137741  -137727  -137698  -137683  -137683 
 -137690  -137675  -137660  -137664  -137662  -137651  -137644  -137629 
 -137617  -137639  -137673  -137683  -137673  -137659  -137652  -137664 
 -137690  -137702  -137690  -137675  -137664  -137662  -137675  -137687 
 -137674  -137659  -137664  -137656  -137636  -137641  -137637  -137604 
 -137610  -137674  -137705  -137681  -137652  -137658  -137695  -137712 
 -137667  -137629  -137639  -137660  -137675  -137668  -137682  -137729 
 -137714  -137663  -137677  -137694  -137670  -137646  -137623  -137617 
 -137637  -137637  -137635  -137666  -137690  -137705  -137716  -137681 
 -137628  -137627  -137659  -137666  -137655  -137658  -137656  -137652 
 -137685  -137714  -137698  -137668  -137654  -137654  -137650  -137639 
 -137639  -137646  -137682  -137741  -137770  -137752  -137701  -137647 
 -137644  -137674  -137660  -137601  -137558  -137577  -137620  -137641 
 -137652  -137674  -137694  -137713  -137755  -137772  -137736  -137681 
 -137608  -137583  -137666  -137744  -137733  -137691  -137683  -137720 
 -137739  -137674  -137594  -137596  -137625  -137639  -137662  -137662 
 -137629  -137610  -137609  -137616  -137644  -137662  -137658  -137685 
 -137709  -137691  -137686  -137690  -137650  -137602  -137624  -137712 
 -137755  -137690  -137629  -137652  -137689  -137666  -137640  -137673 
 -137708  -137709  -137695  -137659  -137633  -137646  -137647  -137639 
 -137659  -137670  -137656  -137655  -137658  -137659  -137682  -137691 
 -137677  -137679  -137682  -137660  -137654  -137670  -137667  -137646 
 -137627  -137636  -137673  -137681  -137655  -137682  -137728  -137708 
 -137681  -137678  -137659  -137660  -137681  -137663  -137631  -137619 
 -137635  -137675  -137720  -137747  -137733  -137698  -137685  -137668 
 -137629  -137624  -137655  -137670  -137682  -137690  -137671  -137660 
 -137664  -137666  -137689  -137716  -137701  -137654  -137631  -137650 
 -137682  -137685  -137677  -137693  -137690  -137674  -137695  -137693 
 -137625  -137582  -137587  -137593  -137619  -137656  -137655  -137650 
 -137682  -137690  -137668  -137677  -137687  -137674  -137679  -137709 
 -137722  -137702  -137647  -137609  -137651  -137718  -137727  -137690 
 -137656  -137641  -137635  -137610  -137578  -137586  -137641  -137687 
 -137697  -137702  -137690  -137663  -137670  -137675  -137663  -137670 
 -137668  -137641  -137640  -137671  -137690  -137677  -137647  -137648 
 -137675  -137678  -137662  -137647  -137646  -137666  -137664  -137627 
 -137620  -137654  -137668  -137655  -137663  -137679  -137659  -137640 
 -137641  -137629  -137627  -137646  -137664  -137687  -137700  -137673 
 -137633  -137624  -137631  -137635  -137650  -137694  -137735  -137744 
 -137739  -137708  -137659  -137639  -137636  -137616  -137620  -137674 
 -137700  -137662  -137631  -137624  -137617  -137632  -137668  -137686 
 -137675  -137683  -137709  -137694  -137654  -137627  -137602  -137617 
 -137704  -137771  -137763  -137736  -137706  -137671  -137651  -137644 
 -137647  -137651  -137658  -137663  -137673  -137686  -137678  -137666 
 -137666  -137652  -137641  -137664  -137697  -137724  -137728  -137686 
 -137628  -137596  -137601  -137646  -137686  -137704  -137712  -137690 
 -137647  -137631  -137625  -137612  -137612  -137631  -137655  -137691 
 -137737  -137755  -137718  -137656  -137616  -137625  -137666  -137694 
 -137691  -137663  -137635  -137633  -137639  -137641  -137663  -137687 
 -137706  -137713  -137689  -137660  -137656  -137646  -137613  -137609 
 -137654  -137679  -137691  -137727  -137724  -137679  -137659  -137652 
 -137629  -137616  -137647  -137704  -137705  -137656  -137635  -137635 
 -137641  -137675  -137698  -137690  -137698  -137701  -137658  -137639 
 -137667  -137654  -137617  -137651  -137702  -137705  -137691  -137670 
 -137643  -137647  -137663  -137674  -137689  -137664  -137625  -137636 
 -137659  -137646  -137627  -137628  -137658  -137678  -137667  -137670 
 -137679  -137654  -137635  -137655  -137671  -137673  -137683  -137686 
 -137681  -137695  -137718  -137706  -137659  -137627  -137637  -137652 
 -137646  -137639  -137640  -137656  -137689  -137693  -137671  -137666 
 -137668  -137677  -137695  -137690  -137662  -137643  -137641  -137641 
 -137639  -137658  -137704  -137724  -137695  -137678  -137690  -137682 
 -137647  -137632  -137643  -137651  -137654  -137654  -137658  -137675 
 -137681  -137666  -137655  -137662  -137679  -137690  -137685  -137682 
 -137678  -137654  -137623  -137631  -137660  -137670  -137668  -137670 
 -137655  -137647  -137671  -137689  -137677  -137663  -137651  -137660 
 -137689  -137681  -137651  -137641  -137650  -137686  -137724  -137700 
 -137639  -137616  -137655  -137702  -137708  -137702  -137700  -137678 
 -137660  -137655  -137650  -137651  -137705  -137766  -137741  -137674 
 -137629  -137609  -137650  -137714  -137714  -137686  -137668  -137655 
 -137663  -137674  -137683  -137698  -137667  -137614  -137613  -137627 
 -137635  -137666  -137690  -137694  -137691  -137671  -137640  -137654 
 -137702  -137709  -137682  -137666  -137658  -137651  -137648  -137662 
 -137694  -137706  -137679  -137655  -137650  -137629  -137623  -137651 
 -137677  -137674  -137646  -137623  -137627  -137637  -137662  -137693 
 -137678  -137652  -137673  -137695  -137678  -137663  -137667  -137670 
 -137674  -137678  -137675  -137673  -137658  -137646  -137667  -137691 
 -137679  -137639  -137608  -137629  -137681  -137689  -137674  -137687 
 -137677  -137650  -137675  -137686  -137654  -137655  -137679  -137682 
 -137658  -137628  -137631  -137646  -137637  -137639  -137662  -137663 
 -137654  -137664  -137666  -137655  -137677  -137704  -137682  -137658 
 -137667  -137667  -137663  -137685  -137695  -137690  -137700  -137700 
 -137677  -137648  -137612  -137596  -137632  -137682  -137683  -137654 
 -137633  -137625  -137641  -137671  -137690  -137709  -137698  -137667 
 -137687  -137709  -137667  -137631  -137640  -137656  -137660  -137675 
 -137697  -137697  -137675  -137646  -137627  -137631  -137659  -137677 
 -137664  -137668  -137713  -137729  -137670  -137632  -137659  -137654 
 -137621  -137673  -137747  -137744  -137710  -137678  -137648  -137647 
 -137646  -137631  -137639  -137644  -137624  -137620  -137646  -137647 
 -137637  -137663  -137700  -137706  -137705  -137712  -137709  -137679 
 -137633  -137619  -137631  -137632  -137640  -137679  -137704  -137687 
 -137675  -137689  -137698  -137695  -137685  -137660  -137635  -137614 
 -137605  -137621  -137647  -137670  -137695  -137705  -137697  -137695 
 -137705  -137702  -137681  -137667  -137682  -137698  -137677  -137643 
 -137619  -137609  -137617  -137614  -137635  -137675  -137668  -137652 
 -137658  -137646  -137650  -137662  -137659  -137659  -137664  -137693 
 -137710  -137682  -137667  -137689  -137691  -137660  -137639  -137664 
 -137708  -137733  -137731  -137686  -137650  -137640  -137614  -137600 
 -137637  -137673  -137681  -137683  -137675  -137664  -137659  -137673 
 -137702  -137690  -137652  -137658  -137671  -137643  -137624  -137648 
 -137675  -137678  -137671  -137673  -137685  -137689  -137668  -137652 
 -137650  -137643  -137652  -137671  -137668  -137685  -137725  -137718 
 -137666  -137636  -137640  -137656  -137694  -137739  -137745  -137725 
 -137713  -137683  -137635  -137606  -137589  -137600  -137652  -137666 
 -137635  -137629  -137647  -137656  -137668  -137697  -137724  -137732 
 -137727  -137706  -137695  -137693  -137670  -137628  -137605  -137636 
 -137687  -137685  -137647  -137648  -137675  -137679  -137659  -137639 
 -137643  -137664  -137678  -137693  -137713  -137695  -137648  -137636 
 -137648  -137647  -137664  -137693  -137682  -137686  -137729  -137709 
 -137635  -137604  -137606  -137628  -137664  -137690  -137687  -137655 
 -137629  -137640  -137660  -137660  -137662  -137685  -137693  -137666 
 -137648  -137637  -137633  -137646  -137655  -137654  -137639  -137609 
 -137612  -137660  -137689  -137667  -137640  -137650  -137691  -137717 
 -137702  -137673  -137647  -137641  -137648  -137633  -137612  -137629 
 -137683  -137720  -137708  -137682  -137659  -137643  -137660  -137675 
 -137659  -137636  -137612  -137613  -137648  -137671  -137678  -137678 
 -137685  -137710  -137708  -137663  -137648  -137664  -137658  -137651 
 -137662  -137654  -137650  -137677  -137695  -137704  -137716  -137706 
 -137678  -137664  -137681  -137700  -137679  -137646  -137640  -137652 
 -137664  -137674  -137677  -137685  -137694  -137670  -137624  -137606 
 -137625  -137655  -137675  -137674  -137664  -137663  -137667  -137683 
 -137687  -137678  -137683  -137689  -137674  -137662  -137660  -137682 
 -137718  -137697  -137637  -137647  -137701  -137717  -137701  -137693 
 -137677  -137632  -137606  -137602  -137596  -137631  -137685  -137677 
 -137628  -137610  -137635  -137664  -137691  -137709  -137710  -137714 
 -137712  -137685  -137650  -137635  -137663  -137693  -137694  -137705 
 -137728  -137737  -137718  -137660  -137606  -137596  -137609  -137629 
 -137654  -137668  -137663  -137662  -137675  -137681  -137693  -137720 
 -137724  -137701  -137694  -137691  -137640  -137581  -137604  -137650 
 -137656  -137671  -137677  -137655  -137675  -137709  -137695  -137656 
 -137606  -137585  -137629  -137671  -137673  -137675  -137677  -137660 
 -137659  -137673  -137675  -137683  -137686  -137670  -137679  -137678 
 -137620  -137589  -137613  -137640  -137658  -137656  -137648  -137663 
 -137673  -137685  -137721  -137714  -137662  -137656  -137691  -137697 
 -137697  -137695  -137663  -137627  -137624  -137635  -137659  -137714 
 -137754  -137733  -137686  -137635  -137593  -137590  -137643  -137694 
 -137698  -137673  -137633  -137605  -137610  -137639  -137673  -137695 
 -137698  -137689  -137695  -137714  -137698  -137655  -137629  -137619 
 -137632  -137666  -137679  -137681  -137677  -137652  -137641  -137650 
 -137629  -137621  -137648  -137668  -137683  -137700  -137704  -137697 
 -137689  -137691  -137693  -137678  -137668  -137675  -137673  -137667 
 -137675  -137683  -137670  -137658  -137679  -137698  -137694  -137689 
 -137666  -137627  -137614  -137621  -137636  -137659  -137660  -137655 
 -137670  -137690  -137698  -137687  -137655  -137613  -137608  -137655 
 -137691  -137687  -137687  -137689  -137685  -137697  -137718  -137724 
 -137704  -137686  -137689  -137682  -137662  -137644  -137628  -137628 
 -137641  -137644  -137659  -137685  -137666  -137632  -137648  -137677 
 -137651  -137605  -137601  -137628  -137644  -137670  -137702  -137713 
 -137713  -137710  -137681  -137629  -137583  -137592  -137668  -137748 
 -137764  -137725  -137663  -137614  -137619  -137654  -137686  -137722 
 -137737  -137717  -137682  -137633  -137600  -137602  -137601  -137590 
 -137587  -137602  -137632  -137651  -137659  -137682  -137701  -137679 
 -137671  -137720  -137747  -137729  -137739  -137744  -137706  -137679 
 -137651  -137613  -137613  -137627  -137640  -137702  -137755  -137720 
 -137670  -137663  -137658  -137654  -137660  -137667  -137671  -137636 
 -137587  -137623  -137698  -137712  -137713  -137721  -137679  -137644 
 -137663  -137681  -137668  -137631  -137597  -137600  -137612  -137612 
 -137619  -137627  -137631  -137652  -137664  -137656  -137693  -137749 
 -137751  -137732  -137724  -137670  -137608  -137608  -137617  -137616 
 -137658  -137698  -137685  -137659  -137651  -137670  -137698  -137690 
 -137685  -137714  -137712  -137683  -137670  -137647  -137616  -137610 
 -137654  -137741  -137825  -137841  -137789  -137706  -137637  -137594 
 -137559  -137546  -137578  -137629  -137662  -137668  -137667  -137668 
 -137663  -137656  -137679  -137722  -137728  -137677  -137637  -137664 
 -137691  -137663  -137675  -137772  -137818  -137758  -137694  -137695 
 -137721  -137702  -137632  -137581  -137581  -137590  -137597  -137592 
 -137569  -137586  -137654  -137712  -137751  -137774  -137762  -137731 
 -137687  -137646  -137650  -137662  -137613  -137581  -137621  -137641 
 -137644  -137712  -137797  -137837  -137852  -137829  -137748  -137651 
 -137604  -137613  -137605  -137583  -137604  -137605  -137582  -137619 
 -137671  -137682  -137697  -137720  -137717  -137720  -137720  -137693 
 -137691  -137728  -137731  -137713  -137712  -137694  -137677  -137677 
 -137650  -137616  -137583  -137536  -137552  -137641  -137693  -137683 
 -137660  -137641  -137632  -137621  -137616  -137632  -137654  -137700 
 -137764  -137775  -137736  -137702  -137670  -137629  -137613  -137644 
 -137664  -137643  -137633  -137628  -137605  -137621  -137660  -137648 
 -137614  -137640  -137698  -137712  -137701  -137705  -137689  -137658 
 -137629  -137598  -137628  -137721  -137775  -137767  -137722  -137662 
 -137602  -137536  -137524  -137593  -137624  -137606  -137636  -137694 
 -137724  -137716  -137686  -137664  -137664  -137695  -137763  -137785 
 -137720  -137662  -137658  -137646  -137624  -137643  -137678  -137686 
 -137681  -137673  -137658  -137644  -137644  -137652  -137667  -137679 
 -137690  -137704  -137694  -137679  -137706  -137721  -137705  -137694 
 -137641  -137571  -137578  -137623  -137617  -137589  -137625  -137714 
 -137748  -137722  -137686  -137612  -137544  -137563  -137627  -137683 
 -137739  -137795  -137813  -137776  -137727  -137691  -137679  -137677 
 -137655  -137627  -137598  -137567  -137565  -137600  -137663  -137720 
 -137694  -137612  -137601  -137656  -137689  -137700  -137697  -137673 
 -137678  -137697  -137689  -137682  -137668  -137662  -137689  -137678 
 -137623  -137627  -137666  -137683  -137681  -137637  -137598  -137635 
 -137694  -137736  -137756  -137751  -137740  -137695  -137617  -137600 
 -137635  -137651  -137675  -137714  -137717  -137691  -137664  -137643 
 -137655  -137675  -137651  -137629  -137670  -137706  -137675  -137619 
 -137592  -137600  -137637  -137695  -137752  -137760  -137722  -137705 
 -137675  -137606  -137567  -137552  -137552  -137594  -137609  -137582 
 -137616  -137714  -137771  -137775  -137781  -137770  -137709  -137643 
 -137627  -137651  -137664  -137637  -137614  -137635  -137683  -137697 
 -137637  -137604  -137655  -137697  -137702  -137732  -137754  -137725 
 -137674  -137651  -137670  -137673  -137652  -137650  -137641  -137623 
 -137608  -137581  -137601  -137668  -137697  -137682  -137667  -137650 
 -137620  -137582  -137575  -137633  -137722  -137770  -137770  -137754 
 -137725  -137714  -137743  -137754  -137728  -137725  -137739  -137706 
 -137644  -137617  -137605  -137569  -137531  -137521  -137543  -137587 
 -137612  -137627  -137670  -137697  -137659  -137593  -137577  -137627 
 -137678  -137712  -137762  -137795  -137785  -137763  -137741  -137698 
 -137655  -137635  -137637  -137662  -137647  -137581  -137559  -137616 
 -137693  -137705  -137648  -137646  -137717  -137735  -137690  -137677 
 -137681  -137650  -137612  -137578  -137555  -137583  -137627  -137637 
 -137651  -137677  -137709  -137736  -137728  -137708  -137709  -137708 
 -137716  -137725  -137695  -137660  -137659  -137663  -137687  -137724 
 -137706  -137683  -137706  -137698  -137633  -137574  -137548  -137554 
 -137575  -137619  -137693  -137736  -137705  -137668  -137667  -137662 
 -137635  -137601  -137594  -137640  -137693  -137728  -137771  -137793 
 -137768  -137725  -137709  -137733  -137737  -137693  -137648  -137639 
 -137648  -137652  -137637  -137623  -137619  -137610  -137614  -137659 
 -137698  -137710  -137718  -137697  -137621  -137577  -137602  -137610 
 -137601  -137654  -137728  -137743  -137698  -137647  -137632  -137673 
 -137718  -137714  -137685  -137674  -137670  -137658  -137670  -137697 
 -137690  -137663  -137647  -137625  -137598  -137583  -137585  -137629 
 -137704  -137748  -137754  -137744  -137732  -137728  -137740  -137739 
 -137695  -137628  -137587  -137602  -137639  -137623  -137562  -137544 
 -137594  -137666  -137729  -137747  -137708  -137678  -137674  -137647 
 -137610  -137581  -137562  -137600  -137652  -137658  -137693  -137776 
 -137816  -137786  -137731  -137678  -137664  -137698  -137722  -137717 
 -137712  -137689  -137648  -137632  -137609  -137578  -137614  -137689 
 -137713  -137701  -137689  -137689  -137697  -137704  -137708  -137683 
 -137617  -137585  -137620  -137663  -137685  -137728  -137785  -137790 
 -137735  -137666  -137613  -137586  -137593  -137629  -137683  -137694 
 -137629  -137600  -137640  -137656  -137646  -137664  -137708  -137718 
 -137658  -137616  -137655  -137678  -137640  -137621  -137641  -137650 
 -137663  -137727  -137797  -137801  -137732  -137673  -137667  -137656 
 -137635  -137632  -137592  -137540  -137547  -137555  -137559  -137614 
 -137664  -137691  -137731  -137745  -137713  -137678  -137660  -137644 
 -137628  -137629  -137648  -137686  -137731  -137744  -137710  -137686 
 -137683  -137655  -137636  -137671  -137702  -137686  -137660  -137639 
 -137608  -137575  -137555  -137540  -137565  -137655  -137743  -137760 
 -137721  -137666  -137632  -137624  -137637  -137695  -137770  -137789 
 -137743  -137686  -137654  -137629  -137610  -137628  -137655  -137655 
 -137662  -137697  -137702  -137660  -137640  -137670  -137697  -137683 
 -137663  -137651  -137623  -137604  -137627  -137674  -137716  -137716 
 -137689  -137686  -137725  -137752  -137724  -137691  -137659  -137608 
 -137605  -137628  -137604  -137597  -137647  -137689  -137700  -137708 
 -137708  -137691  -137675  -137654  -137633  -137629  -137617  -137598 
 -137613  -137650  -137666  -137673  -137687  -137687  -137689  -137709 
 -137718  -137733  -137768  -137778  -137744  -137698  -137668  -137660 
 -137655  -137648  -137659  -137658  -137637  -137651  -137694  -137702 
 -137668  -137633  -137624  -137636  -137640  -137636  -137666  -137713 
 -137712  -137674  -137627  -137565  -137533  -137569  -137629  -137679 
 -137720  -137736  -137729  -137744  -137760  -137732  -137695  -137673 
 -137646  -137620  -137608  -137614  -137621  -137619  -137629  -137643 
 -137629  -137633  -137673  -137673  -137652  -137686  -137706  -137683 
 -137679  -137673  -137637  -137609  -137592  -137594  -137640  -137679 
 -137668  -137662  -137687  -137713  -137693  -137643  -137635  -137639 
 -137604  -137579  -137612  -137658  -137640  -137602  -137625  -137648 
 -137620  -137612  -137652  -137702  -137720  -137694  -137670  -137646 
 -137620  -137641  -137675  -137693  -137735  -137781  -137798  -137787 
 -137736  -137677  -137628  -137593  -137606  -137652  -137685  -137702 
 -137686  -137635  -137605  -137629  -137685  -137714  -137705  -137690 
 -137681  -137660  -137616  -137583  -137578  -137569  -137585  -137646 
 -137677  -137691  -137729  -137740  -137708  -137681  -137681  -137683 
 -137689  -137724  -137740  -137712  -137704  -137709  -137691  -137683 
 -137683  -137655  -137608  -137563  -137538  -137543  -137571  -137609 
 -137613  -137585  -137627  -137733  -137802  -137824  -137825  -137787 
 -137720  -137659  -137609  -137570  -137575  -137597  -137614  -137668 
 -137704  -137705  -137745  -137776  -137760  -137764  -137776  -137752 
 -137708  -137640  -137552  -137509  -137523  -137544  -137577  -137617 
 -137660  -137722  -137754  -137718  -137677  -137652  -137658  -137708 
