Origin Time       2025/03/30 22:55:00
Lat.              41.993
Long.             142.725
Depth. (km)       55
Mag.              4.6
Station Code      NMRH03
Station Lat.      43.5508
Station Long.     144.9665
Station Height(m) -197.5
Record Time       2025/03/30 22:57:06
Sampling Freq(Hz) 100Hz
Duration Time(s)  120
Dir.              2
Scale Factor      2942(gal)/8224139
Max. Acc. (gal)   0.164
Last Correction   2025/03/30 22:57:06
Memo.             
[...]
  167976   167968   167965   167980   167977   167945   167935   167958 
  167985   167995   167975   167945   167937   167957   167981   167977 
  167962   167969   167981   167999   168006   167983   167958   167945 
  167926   167921   167938   167960   167973   167976   167962   167940 
  167942   167988   168037   168039   168000   167948   167903   167887 
  167911   167940   167957   167983   167999   167992   167972   167950 
  167946   167965   167979   167972   167958   167953   167971   168002 
  168015   167989   167949   167935   167962   167983   167964   167937 
  167919   167921   167957   167996   168000   167973   167941   167940 
  167952   167954   167954   167945   167946   167975   168004   168027 
  168046   168033   167991   167953   167929   167930   167948   167935 
  167913   167927   167961   167988   168004   168003   167979   167952 
  167958   167977   167976   167969   167977   167988   167969   167933 
  167937   167972   167985   167965   167931   167923   167949   167971 
  167967   167945   167917   167910   167931   167964   167991   167996 
  167973   167945   167938   167956   167973   167984   168002   168002 
  167967   167944   167948   167949   167960   167973   167962   167961 
  167979   167977   167968   167976   167967   167933   167911   167933 
  167979   167991   167956   167941   167967   167994   167991   167952 
  167913   167919   167962   167983   167967   167967   168003   168038 
  168027   167969   167910   167895   167921   167958   167979   167979 
  167979   167981   167991   167998   167983   167964   167945   167921 
  167929   167960   167950   167923   167929   167940   167940   167946 
  167961   167954   167945   167967   167988   167987   167981   167984 
  167992   167988   167977   167976   167975   167964   167962   167967 
  167960   167960   167960   167952   167960   167976   167977   167980 
  167991   167987   167971   167954   167937   167934   167967   168004 
  168016   168004   167983   167967   167965   167968   167958   167944 
  167941   167960   167992   168006   167988   167967   167953   167945 
  167967   167998   167984   167952   167944   167942   167933   167931 
  167940   167942   167953   167987   167996   167973   167968   167981 
  167975   167942   167914   167904   167911   167957   168008   168010 
  167983   167961   167957   167975   167984   167969   167949   167950 
  167973   167976   167957   167957   167964   167976   168000   167995 
  167969   167961   167961   167956   167944   167949   167975   167985 
  167977   167969   167946   167937   167956   167972   167969   167961 
  167964   167971   167962   167957   167956   167946   167949   167973 
  167992   167984   167968   167964   167961   167949   167944   167946 
  167956   167964   167972   167991   168000   167989   167976   167960 
  167941   167937   167942   167946   167944   167950   167977   167998 
  167992   167985   167971   167952   167950   167948   167945   167948 
  167941   167922   167917   167946   167985   167998   168000   168011 
  168003   167975   167960   167964   167969   167972   167971   167948 
  167921   167931   167952   167944   167935   167944   167957   167977 
  167985   167969   167949   167933   167914   167914   167956   168012 
  168049   168043   168008   167976   167954   167938   167952   167996 
  168014   167985   167958   167958   167975   167998   168010   167996 
  167965   167933   167913   167915   167938   167944   167934   167944 
  167958   167960   167953   167945   167937   167926   167933   167953 
  167956   167962   167991   168002   167984   167975   167979   167980 
  167967   167940   167921   167938   167988   168025   168023   168015 
  168015   168000   167972   167958   167960   167958   167954   167956 
  167968   167977   167961   167940   167931   167922   167927   167965 
  168000   168007   167992   167971   167938   167896   167881   167902 
  167934   167958   167961   167958   167980   168003   167996   167961 
  167931   167949   167992   168003   167981   167971   167980   168004 
  168004   167960   167919   167925   167954   167961   167946   167945 
  167952   167956   167961   167972   167991   168008   168008   167988 
  167953   167931   167935   167934   167923   167917   167915   167940 
  167967   167967   167971   167994   168008   168003   167979   167962 
  167976   167980   167958   167942   167908   167880   167923   168006 
  168046   168023   167983   167965   167945   167911   167906   167938 
  167975   167992   167994   167985   167971   167971   167972   167960 
  167953   167954   167958   167975   167987   167996   168026   168037 
  167999   167972   167969   167944   167917   167922   167954   167991 
  167992   167964   167958   167973   167971   167942   167915   167914 
  167945   167984   168003   168003   167969   167919   167904   167907 
  167900   167903   167930   167980   168027   168042   168037   168029 
  168006   167975   167953   167938   167934   167954   167977   167981 
  167973   167964   167958   167957   167952   167938   167937   167969 
  168016   168038   168018   167980   167967   167977   167968   167941 
  167946   167971   167971   167950   167940   167961   167984   167964 
  167923   167894   167890   167918   167975   168034   168042   167998 
  167964   167953   167931   167899   167899   167935   167960   167958 
  167957   167950   167940   167952   167980   167992   167994   167998 
  167987   167969   167972   167995   168015   168007   167975   167956 
  167954   167960   167956   167937   167937   167968   167987   167981 
  167975   167967   167953   167956   167969   167958   167937   167940 
  167962   167971   167957   167930   167907   167910   167944   167988 
  168019   168041   168054   168030   167971   167921   167917   167949 
  167956   167921   167896   167898   167922   167972   168004   167998 
  167985   167987   167988   167987   167979   167971   167971   167965 
  167953   167960   167983   167991   167995   167996   167983   167977 
  167979   167968   167954   167950   167952   167946   167934   167918 
  167907   167927   167969   167988   167998   168008   167976   167923 
  167911   167929   167942   167944   167940   167942   167969   167999 
  167999   167976   167956   167964   167981   167972   167960   167972 
  167979   167969   167967   167968   167968   167971   167957   167929 
  167930   167954   167969   167975   167971   167958   167954   167971 
  167995   167999   167980   167949   167922   167923   167935   167941 
  167948   167950   167948   167958   167983   167998   167992   167984 
  167989   167988   167983   167977   167952   167933   167944   167960 
  167967   167965   167950   167942   167964   167988   167987   167979 
  167989   167994   167976   167961   167949   167919   167907   167948 
  167983   167983   168000   168022   168004   167983   167981   167975 
  167956   167942   167941   167944   167968   167985   167969   167973 
  168008   168021   168007   167976   167948   167964   167988   167957 
  167894   167873   167915   167958   167965   167956   167944   167910 
  167868   167879   167948   167996   167994   167979   167969   167967 
  167985   168007   168008   168019   168046   168039   167980   167915 
  167902   167942   167989   168014   168016   168011   168007   168000 
  167969   167925   167910   167927   167952   167981   168003   168003 
  167984   167979   167987   167972   167941   167917   167903   167919 
  167957   167975   167964   167957   167964   167964   167945   167925 
  167929   167949   167954   167954   167956   167942   167927   167935 
  167971   167994   167979   167958   167968   167984   167975   167948 
  167945   167965   167981   167987   167984   167976   167979   167987 
  167977   167954   167934   167910   167903   167945   167998   168007 
  167994   167991   167992   167987   167981   167964   167941   167927 
  167915   167903   167904   167925   167937   167926   167937   167967 
  167965   167953   167960   167967   167972   167973   167948   167922 
  167944   167969   167965   167957   167956   167945   167944   167948 
  167938   167937   167960   167980   167994   168002   167988   167968 
  167962   167967   167972   167985   167992   167980   167948   167922 
  167952   168011   168027   167992   167957   167948   167954   167964 
  167969   167975   167977   167989   167998   167979   167954   167942 
  167910   167880   167894   167919   167933   167952   167981   167998 
  167980   167962   167962   167961   167969   167976   167958   167957 
  167996   168026   168029   168026   168025   168010   167977   167957 
  167975   168002   168018   168021   168016   168004   167987   167981 
  167998   167996   167957   167910   167877   167881   167922   167964 
  167981   167976   167964   167979   168006   168000   167956   167906 
  167894   167914   167913   167895   167910   167940   167948   167940 
  167925   167914   167927   167957   167996   168026   167998   167945 
  167964   168029   168050   168019   167985   167995   168016   167996 
  167957   167934   167910   167875   167849   167854   167902   167961 
  167984   167981   167987   167992   168006   168039   168065   168066 
  168069   168070   168049   168016   167981   167935   167877   167832 
  167848   167929   167992   167992   167960   167913   167861   167838 
  167848   167875   167925   167980   167999   167980   167964   167965 
  167984   168019   168048   168030   167994   167972   167957   167935 
  167923   167940   167987   168037   168061   168031   167964   167902 
  167840   167786   167815   167927   168029   168072   168058   168004 
  167941   167898   167902   167957   168037   168091   168080   168026 
  167967   167931   167923   167908   167887   167913   167968   167994 
  167967   167926   167935   167969   167950   167898   167871   167848 
  167821   167836   167892   167972   168072   168166   168218   168211 
  168157   168104   168080   168076   168075   168052   167992   167940 
  167911   167867   167822   167850   167930   167989   168018   168035 
  168064   168102   168116   168080   168007   167937   167900   167871 
  167827   167796   167784   167786   167813   167872   167968   168050 
  168050   168007   167979   167960   167957   167968   167987   168026 
  168045   167996   167915   167887   167960   168077   168134   168114 
  168062   168014   167995   167999   167964   167873   167821   167856 
  167921   167946   167929   167892   167867   167849   167818   167794 
  167819   167875   167927   167961   167954   167917   167907   167940 
  167967   167984   168023   168053   168042   168033   168046   168038 
  167998   167964   167954   167958   167985   168037   168061   168026 
  167949   167894   167922   167988   168002   167975   167935   167880 
  167860   167890   167906   167910   167940   167980   167988   167960 
  167944   167977   168006   167981   167968   168026   168103   168115 
  168050   167965   167911   167861   167769   167683   167691   167799 
  167937   168023   168045   168057   168066   168038   167976   167884 
  167780   167755   167836   167918   167956   167984   168000   168006 
  168019   168053   168116   168189   168237   168208   168122   168079 
  168088   168061   167989   167911   167832   167791   167819   167834 
  167805   167844   167992   168160   168249   168212   168097   168023 
  167985   167903   167814   167802   167856   167927   167988   168007 
  167995   168010   168054   168070   168025   167950   167900   167883 
  167913   167995   168076   168093   168027   167899   167787   167742 
  167751   167787   167840   167937   168089   168199   168164   167995 
  167802   167699   167714   167818   167953   168041   168033   167937 
  167836   167834   167896   167910   167913   167961   168014   168088 
  168191   168223   168160   168070   167979   167876   167791   167767 
  167796   167846   167908   167987   168046   168046   168023   168038 
  168103   168178   168204   168193   168193   168185   168123   168006 
  167863   167740   167705   167778   167863   167915   167972   168002 
  167979   167933   167849   167752   167749   167845   167945   167971 
  167915   167871   167904   167971   168025   168058   168068   168092 
  168153   168158   168049   167925   167894   167946   168011   168043 
  168031   167992   167972   167975   167937   167867   167864   167910 
  167875   167744   167640   167657   167763   167852   167880   167894 
  167956   168050   168127   168173   168180   168142   168131   168210 
  168305   168305   168211   168075   167952   167888   167868   167809 
  167725   167740   167892   168070   168172   168168   168081   167999 
  167977   167942   167844   167759   167713   167702   167782   167888 
  167913   167914   167981   168111   168261   168334   168269   168127 
  167975   167822   167721   167734   167841   167948   167967   167880 
  167798   167813   167867   167895   167915   167919   167908   167923 
  167933   167925   167940   167962   167979   167989   167981   167965 
  167994   168054   168077   168027   167976   167998   168022   167975 
  167940   167980   168050   168129   168207   168234   168177   168056 
  167900   167767   167702   167726   167827   167956   168062   168124 
  168118   168043   167964   167937   167961   167962   167886   167794 
  167769   167795   167850   167922   167980   168023   168056   168079 
  168087   168054   167988   167898   167810   167786   167818   167842 
  167840   167844   167884   167960   168056   168184   168336   168423 
  168392   168261   168084   167975   167962   167948   167888   167815 
  167790   167860   167952   167968   167917   167853   167833   167880 
  167957   167991   167958   167895   167845   167799   167757   167780 
  167900   168054   168131   168100   168023   167980   168008   168070 
  168062   167967   167900   167934   167995   167994   167958   167979 
  168052   168070   168004   167975   168072   168183   168146   167987 
  167838   167741   167674   167632   167638   167729   167911   168079 
  168115   168056   168002   167979   167956   167921   167871   167842 
  167886   167960   167975   167930   167915   167937   167950   167983 
  168012   167977   167952   168010   168102   168154   168126   168019 
  167904   167844   167857   167950   168058   168077   168008   167925 
  167857   167823   167834   167888   167992   168106   168131   168045 
  167945   167946   168053   168124   168079   167994   167927   167892 
  167894   167896   167890   167926   168027   168123   168112   168000 
  167886   167827   167854   167926   167922   167857   167873   167969 
  168049   168112   168131   168058   167976   167941   167908   167917 
  167985   168021   167981   167888   167809   167821   167911   168006 
  168075   168124   168149   168137   168097   168023   167923   167857 
  167841   167838   167852   167913   168008   168068   168069   168039 
  167983   167931   167929   167976   168025   168008   167944   167890 
  167869   167864   167848   167846   167872   167896   167930   167969 
  167976   167968   167988   168056   168180   168295   168274   168103 
  167903   167783   167730   167701   167740   167848   167908   167883 
  167873   167956   168127   168305   168367   168296   168188   168111 
  168038   167930   167800   167701   167663   167691   167772   167898 
  168010   167989   167900   167906   167945   167881   167783   167784 
  167884   167980   168002   167985   167976   167984   168015   168045 
  168068   168110   168119   168052   167995   167992   167960   167892 
  167873   167894   167908   167940   167953   167900   167871   167913 
  167973   168033   168088   168137   168211   168278   168269   168199 
  168118   168019   167935   167907   167876   167790   167694   167626 
  167632   167730   167848   167941   167998   168002   168008   168064 
  168115   168115   168029   167869   167771   167832   167965   168039 
  168007   167925   167914   168000   168075   168087   168100   168146 
  168173   168146   168054   167937   167899   167981   168073   168073 
  168000   167857   167663   167547   167583   167725   167888   167975 
  167977   168029   168133   168162   168141   168157   168178   168145 
  168065   167961   167842   167769   167809   167919   167996   167994 
  167946   167904   167911   167964   168030   168079   168072   168010 
  167919   167842   167817   167827   167836   167854   167899   167950 
  167981   167968   167942   167961   168000   168037   168096   168119 
  168038   167915   167840   167834   167863   167867   167859   167910 
  168027   168089   168015   167915   167925   168025   168124   168139 
  168061   167968   167958   168023   168034   167952   167881   167875 
  167890   167922   167991   168058   168053   168003   167964   167925 
  167891   167886   167907   167948   167971   167971   167960   167907 
  167895   167998   168100   168087   167996   167914   167899   167931 
  167954   167968   168000   168046   168041   167941   167880   167976 
  168130   168222   168222   168102   167935   167827   167737   167667 
  167746   167975   168168   168191   168095   168000   167980   168046 
  168116   168119   168064   167971   167888   167849   167832   167825 
  167830   167842   167872   167919   167957   167940   167898   167919 
  167967   167938   167852   167776   167778   167879   168003   168069 
  168083   168088   168114   168158   168188   168145   168048   167965 
  167923   167923   167976   168039   168034   167948   167846   167786 
  167761   167760   167827   167967   168091   168129   168072   167972 
  167923   167922   167903   167867   167815   167787   167869   167999 
  168052   168041   168029   168030   168043   168037   167983   167914 
  167903   167969   168021   167992   167962   168003   168061   168062 
  167994   167902   167873   167877   167825   167752   167744   167821 
  167965   168076   168077   168066   168110   168135   168093   167983 
  167834   167760   167794   167848   167926   168061   168141   168070 
  167935   167900   168000   168096   168070   167979   167922   167913 
  167894   167825   167757   167768   167852   167927   167946   167958 
  167989   168003   167975   167900   167833   167840   167898   167975 
  168066   168127   168150   168191   168237   168210   168092   167958 
  167892   167880   167863   167865   167911   167934   167950   168038 
  168131   168158   168158   168118   168050   168031   168000   167923 
  167891   167891   167832   167756   167780   167856   167892   167922 
  167952   167933   167931   167976   167985   167971   168000   168037 
  168037   168000   167942   167911   167902   167853   167815   167890 
  168014   168052   168023   168016   168027   168035   168050   168065 
  168081   168088   168052   167983   167908   167840   167829   167863 
  167860   167842   167884   167937   167952   167949   167903   167783 
  167690   167726   167829   167906   167988   168126   168268   168334 
  168285   168146   167995   167918   167945   167976   167933   167850 
  167788   167786   167837   167886   167917   167937   167926   167927 
  167972   168008   168010   168045   168156   168228   168123   167899 
  167763   167784   167860   167933   168004   168039   168039   168064 
  168079   168035   168011   168034   168016   167938   167842   167773 
