Origin Time       2025/03/30 22:55:00
Lat.              41.993
Long.             142.725
Depth. (km)       55
Mag.              4.6
Station Code      NMRH03
Station Lat.      43.5508
Station Long.     144.9665
Station Height(m) 30
Record Time       2025/03/30 22:57:06
Sampling Freq(Hz) 100Hz
Duration Time(s)  120
Dir.              5
Scale Factor      7845(gal)/8223790
Max. Acc. (gal)   0.545
Last Correction   2025/03/30 22:57:06
Memo.             
  -10096   -10119   -10112   -10085   -10062   -10058   -10062   -10061 
  -10058   -10058   -10054   -10049   -10052   -10076   -10110   -10139 
  -10157   -10141   -10099   -10068   -10056   -10054   -10060   -10081 
  -10104   -10107   -10083   -10058   -10054   -10069   -10099   -10133 
  -10125   -10069   -10029   -10034   -10053   -10057   -10061   -10096 
  -10157   -10200   -10173   -10079    -9987    -9968   -10019   -10083 
  -10133   -10176   -10197   -10172   -10110   -10033    -9981    -9998 
  -10058   -10102   -10095   -10069   -10072   -10108   -10133   -10108 
  -10057   -10027   -10031   -10068   -10119   -10150   -10142   -10110 
  -10076   -10045   -10037   -10061   -10084   -10072   -10039   -10029 
  -10058   -10102   -10110   -10100   -10108   -10130   -10126   -10087 
  -10049   -10054   -10095   -10126   -10127   -10111   -10100   -10095 
  -10081   -10062   -10054   -10058   -10060   -10061   -10065   -10073 
  -10093   -10119   -10127   -10114   -10089   -10054   -10027   -10029 
  -10056   -10102   -10142   -10139   -10100   -10075   -10087   -10098 
  -10069   -10031   -10027   -10068   -10126   -10162   -10156   -10110 
  -10057   -10038   -10046   -10057   -10058   -10052   -10068   -10123 
  -10174   -10150   -10062   -10000   -10014   -10064   -10084   -10079 
  -10104   -10154   -10173   -10142   -10081   -10031   -10030   -10066 
  -10104   -10122   -10116   -10083   -10042   -10049   -10102   -10131 
  -10106   -10081   -10102   -10134   -10134   -10081   -10010    -9996 
  -10066   -10137   -10137   -10091   -10056   -10054   -10054   -10041 
  -10046   -10080   -10108   -10099   -10079   -10091   -10129   -10135 
  -10096   -10061   -10069   -10095   -10081   -10042   -10035   -10071 
  -10103   -10098   -10080   -10080   -10088   -10085   -10076   -10069 
  -10068   -10072   -10079   -10081   -10080   -10085   -10111   -10145 
  -10147   -10114   -10075   -10054   -10044   -10033   -10038   -10072 
  -10112   -10129   -10115   -10095   -10077   -10062   -10062   -10073 
  -10083   -10096   -10110   -10103   -10073   -10042   -10034   -10068 
  -10127   -10173   -10170   -10131   -10103   -10095   -10073   -10039 
  -10023   -10027   -10048   -10077   -10106   -10131   -10142   -10115 
  -10062   -10041   -10064   -10091   -10103   -10118   -10125   -10102 
  -10054   -10011    -9998   -10037   -10114   -10174   -10177   -10115 
  -10030    -9987   -10007   -10049   -10084   -10120   -10154   -10147 
  -10085   -10010    -9972    -9992   -10056   -10130   -10177   -10169 
  -10108   -10045   -10026   -10057   -10104   -10127   -10107   -10062 
  -10030   -10017   -10011   -10039   -10116   -10206   -10246   -10206 
  -10104   -10015    -9988   -10008   -10045   -10103   -10177   -10214 
  -10164   -10071   -10004    -9995   -10033   -10084   -10133   -10165 
  -10146   -10061    -9976    -9977   -10050   -10112   -10127   -10119 
  -10111   -10099   -10062   -10012   -10004   -10061   -10127   -10138 
  -10091   -10038   -10026   -10050   -10083   -10095   -10093   -10100 
  -10107   -10100   -10084   -10071   -10075   -10107   -10141   -10126 
  -10075   -10041   -10042   -10053   -10068   -10088   -10112   -10135 
  -10134   -10088   -10033   -10030   -10083   -10127   -10138   -10131 
  -10120   -10107   -10080   -10038    -9999   -10002   -10061   -10133 
  -10164   -10152   -10129   -10130   -10134   -10103   -10054   -10023 
  -10012   -10017   -10033   -10056   -10093   -10149   -10180   -10153 
  -10098   -10062   -10060   -10069   -10066   -10045   -10027   -10035 
  -10058   -10080   -10087   -10084   -10089   -10114   -10135   -10127 
  -10085   -10044   -10037   -10075   -10123   -10145   -10139   -10120 
  -10085   -10039   -10011   -10018   -10062   -10130   -10177   -10165 
  -10106   -10052   -10034   -10044   -10057   -10066   -10083   -10107 
  -10115   -10108   -10111   -10118   -10104   -10077   -10054   -10041 
  -10037   -10035   -10027   -10044   -10111   -10179   -10170   -10107 
  -10050   -10026   -10029   -10039   -10046   -10062   -10111   -10156 
  -10141   -10084   -10044   -10031   -10026   -10038   -10077   -10110 
  -10111   -10095   -10084   -10079   -10084   -10103   -10126   -10142 
  -10142   -10127   -10095   -10054   -10039   -10075   -10134   -10158 
  -10122   -10062   -10027   -10030   -10060   -10088   -10099   -10092 
  -10076   -10056   -10034   -10033   -10066   -10106   -10123   -10134 
  -10138   -10103   -10029    -9961    -9940    -9984   -10084   -10173 
  -10180   -10129   -10081   -10053   -10037   -10046   -10084   -10141 
  -10183   -10166   -10095   -10022   -10008   -10062   -10133   -10166 
  -10162   -10142   -10104   -10058   -10033   -10037   -10060   -10081 
  -10106   -10145   -10176   -10157   -10091   -10022    -9988    -9991 
  -10017   -10058   -10102   -10122   -10115   -10103   -10102   -10108 
  -10106   -10071   -10025   -10003   -10026   -10068   -10091   -10088 
  -10085   -10089   -10088   -10072   -10053   -10060   -10103   -10142 
  -10142   -10120   -10104   -10107   -10115   -10103   -10073   -10049 
  -10050   -10058   -10052   -10037   -10035   -10068   -10134   -10180 
  -10156   -10110   -10098   -10098   -10084   -10069   -10065   -10076 
  -10103   -10119   -10088   -10029   -10008   -10056   -10110   -10120 
  -10111   -10091   -10057   -10039   -10060   -10102   -10147   -10185 
  -10188   -10146   -10080   -10014    -9965    -9968   -10026   -10092 
  -10120   -10104   -10077   -10077   -10096   -10108   -10104   -10098 
  -10091   -10087   -10081   -10054   -10027   -10038   -10079   -10108 
  -10107   -10079   -10049   -10035   -10044   -10062   -10065   -10068 
  -10104   -10154   -10166   -10118   -10030    -9963    -9960   -10010 
  -10083   -10142   -10162   -10145   -10118   -10095   -10076   -10052 
  -10037   -10060   -10106   -10125   -10102   -10071   -10066   -10095 
  -10143   -10174   -10158   -10106   -10064   -10056   -10060   -10057 
  -10054   -10061   -10066   -10058   -10046   -10052   -10080   -10111 
  -10114   -10085   -10057   -10053   -10066   -10085   -10085   -10073 
  -10076   -10099   -10114   -10096   -10064   -10058   -10087   -10104 
  -10089   -10076   -10099   -10130   -10130   -10100   -10066   -10054 
  -10068   -10095   -10107   -10093   -10077   -10081   -10114   -10150 
  -10154   -10135   -10123   -10108   -10071   -10025   -10002   -10017 
  -10057   -10099   -10131   -10162   -10184   -10164   -10087   -10008 
   -9999   -10052   -10103   -10123   -10125   -10110   -10080   -10048 
  -10015    -9999   -10023   -10071   -10108   -10126   -10126   -10104 
  -10068   -10039   -10026   -10038   -10069   -10093   -10087   -10058 
  -10037   -10048   -10089   -10134   -10160   -10157   -10127   -10095 
  -10084   -10083   -10076   -10062   -10054   -10057   -10057   -10061 
  -10091   -10141   -10169   -10153   -10104   -10065   -10061   -10084 
  -10103   -10118   -10142   -10160   -10138   -10076   -10019    -9998 
  -10010   -10039   -10065   -10080   -10085   -10066   -10033   -10026 
  -10061   -10102   -10120   -10115   -10087   -10056   -10046   -10052 
  -10061   -10072   -10085   -10107   -10129   -10127   -10088   -10031 
   -9996   -10012   -10075   -10141   -10165   -10142   -10114   -10100 
  -10087   -10076   -10089   -10131   -10162   -10141   -10076   -10023 
  -10019   -10057   -10102   -10127   -10134   -10137   -10127   -10089 
  -10034   -10012   -10046   -10093   -10108   -10096   -10077   -10060 
  -10048   -10031   -10019   -10038   -10073   -10076   -10042   -10021 
  -10034   -10068   -10104   -10139   -10170   -10168   -10122   -10066 
  -10030   -10031   -10072   -10114   -10114   -10080   -10057   -10060 
  -10057   -10033   -10015   -10035   -10095   -10166   -10200   -10176 
  -10134   -10120   -10116   -10085   -10053   -10049   -10057   -10056 
  -10058   -10072   -10089   -10099   -10100   -10106   -10112   -10108 
  -10076   -10019    -9981   -10006   -10076   -10135   -10150   -10131 
  -10106   -10087   -10065   -10034   -10017   -10027   -10053   -10076 
  -10084   -10083   -10075   -10068   -10079   -10096   -10091   -10076 
  -10077   -10096   -10120   -10133   -10119   -10100   -10110   -10133 
  -10134   -10114   -10092   -10079   -10065   -10060   -10072   -10073 
  -10062   -10073   -10100   -10131   -10150   -10130   -10084   -10039 
  -10010   -10000    -9999   -10011   -10071   -10149   -10173   -10129 
  -10044    -9981    -9988   -10019   -10044   -10089   -10157   -10199 
  -10174   -10088   -10004    -9995   -10056   -10134   -10176   -10165 
  -10130   -10092   -10050   -10018   -10014   -10042   -10100   -10170 
  -10208   -10177   -10106   -10053   -10046   -10080   -10120   -10147 
  -10168   -10184   -10160   -10089   -10017    -9994   -10025   -10076 
  -10115   -10125   -10096   -10044    -9998    -9992   -10041   -10102 
  -10130   -10126   -10114   -10096   -10068   -10034   -10015   -10035 
  -10091   -10131   -10118   -10084   -10081   -10107   -10118   -10102 
  -10085   -10095   -10130   -10153   -10138   -10108   -10093   -10077 
  -10037   -10006   -10034   -10106   -10152   -10130   -10076   -10039 
  -10038   -10045   -10045   -10061   -10110   -10143   -10126   -10071 
  -10004    -9969    -9990   -10031   -10056   -10075   -10104   -10123 
  -10104   -10052   -10014   -10026   -10065   -10096   -10107   -10114 
  -10114   -10087   -10045   -10031   -10061   -10111   -10142   -10137 
  -10096   -10053   -10045   -10052   -10048   -10050   -10064   -10091 
  -10131   -10152   -10127   -10102   -10096   -10085   -10073   -10065 
  -10050   -10039   -10058   -10108   -10161   -10184   -10152   -10076 
  -10003    -9969    -9972    -9990   -10012   -10057   -10119   -10164 
  -10160   -10122   -10072   -10007    -9952    -9938    -9964   -10008 
  -10062   -10111   -10134   -10137   -10143   -10141   -10114   -10093 
  -10091   -10066   -10030   -10034   -10080   -10135   -10183   -10201 
  -10183   -10158   -10149   -10130   -10095   -10076   -10072   -10058 
  -10038   -10037   -10064   -10104   -10134   -10129   -10088   -10038 
  -10004   -10000   -10012   -10038   -10085   -10137   -10143   -10116 
  -10099   -10106   -10106   -10085   -10061   -10050   -10071   -10099 
  -10092   -10057   -10034   -10031   -10044   -10056   -10050   -10041 
  -10042   -10048   -10052   -10071   -10098   -10125   -10168   -10218 
  -10237   -10207   -10141   -10064   -10008   -10012   -10073   -10152 
  -10218   -10249   -10223   -10147   -10058    -9996    -9988   -10033 
  -10103   -10162   -10184   -10162   -10112   -10061   -10022   -10006 
  -10018   -10031   -10000    -9933    -9898    -9934   -10022   -10139 
  -10260   -10335   -10346   -10291   -10162    -9992    -9859    -9832 
   -9927   -10095   -10242   -10287   -10211   -10072    -9940    -9864 
   -9891   -10019   -10183   -10296   -10307   -10208   -10041    -9877 
   -9807    -9883   -10064   -10257   -10359   -10323   -10183   -10030 
   -9949    -9956   -10012   -10083   -10129   -10108   -10017    -9886 
   -9775    -9772    -9913   -10112   -10255   -10305   -10278   -10206 
  -10118   -10027    -9958    -9956   -10018   -10066   -10042    -9976 
   -9931    -9927    -9941    -9948    -9953   -10003   -10120   -10245 
  -10305   -10300   -10282   -10268   -10224   -10145   -10054    -9996 
   -9998   -10042   -10098   -10147   -10172   -10153   -10114   -10077 
  -10065   -10089   -10131   -10162   -10172   -10157   -10110   -10050 
   -9995    -9937    -9898    -9922   -10008   -10112   -10197   -10235 
  -10226   -10204   -10200   -10204   -10195   -10158   -10116   -10118 
  -10173   -10239   -10260   -10215   -10138   -10060    -9990    -9952 
   -9975   -10035   -10093   -10108   -10042    -9921    -9826    -9821 
   -9907   -10027   -10129   -10195   -10219   -10161   -10031    -9921 
   -9902    -9968   -10075   -10168   -10224   -10246   -10245   -10219 
  -10169   -10108   -10056   -10003    -9941    -9902    -9926    -9999 
  -10081   -10147   -10173   -10137   -10064   -10003    -9985   -10031 
  -10116   -10172   -10164   -10125   -10131   -10216   -10308   -10315 
  -10235   -10125   -10026    -9956    -9917    -9933   -10053   -10250 
  -10393   -10393   -10293   -10160   -10014    -9884    -9814    -9822 
   -9915   -10073   -10207   -10216   -10099    -9927    -9776    -9718 
   -9794    -9956   -10100   -10181   -10223   -10237   -10235   -10245 
  -10264   -10270   -10242   -10139    -9930    -9695    -9583    -9664 
   -9898   -10208   -10493   -10629   -10546   -10274    -9930    -9656 
   -9567    -9690    -9954   -10246   -10440   -10463   -10324   -10098 
   -9882    -9755    -9748    -9849   -10010   -10161   -10258   -10305 
  -10323   -10299   -10219   -10108   -10000    -9907    -9840    -9844 
   -9975   -10226   -10490   -10612   -10504   -10218    -9907    -9695 
   -9637    -9748    -9983   -10260   -10473   -10507   -10318   -10011 
   -9759    -9648    -9690    -9860   -10077   -10220   -10242   -10189 
  -10141   -10149   -10207   -10284   -10345   -10327   -10164    -9896 
   -9668    -9583    -9655    -9830   -10045   -10237   -10349   -10366 
  -10332   -10291   -10234   -10161   -10095   -10033    -9965    -9927 
   -9949   -10021   -10125   -10242   -10320   -10293   -10154    -9995 
   -9937   -10023   -10199   -10357   -10408   -10326   -10123    -9845 
   -9605    -9529    -9668    -9953   -10250   -10428   -10409   -10201 
   -9895    -9622    -9512    -9620    -9894   -10215   -10438   -10463 
  -10346   -10215   -10145   -10161   -10264   -10399   -10470   -10415 
  -10238   -10007    -9814    -9718    -9732    -9834    -9985   -10125 
  -10174   -10102    -9963    -9868    -9904   -10049   -10192   -10262 
  -10257   -10177   -10030    -9867    -9783    -9850   -10034   -10222 
  -10327   -10342   -10309   -10262   -10189   -10110   -10079   -10093 
  -10098   -10057    -9985    -9930    -9923    -9945    -9963    -9991 
  -10062   -10157   -10218   -10227   -10214   -10206   -10206   -10188 
  -10142   -10107   -10114   -10133   -10127   -10107   -10110   -10145 
  -10185   -10207   -10201   -10170   -10103   -10000    -9899    -9834 
   -9825    -9898   -10050   -10211   -10272   -10197   -10045    -9900 
   -9844    -9903   -10012   -10076   -10071   -10026    -9969    -9926 
   -9942   -10053   -10246   -10434   -10493   -10363   -10099    -9818 
   -9637    -9640    -9848   -10181   -10488   -10619   -10528   -10318 
  -10129   -10014    -9971   -10004   -10114   -10233   -10249   -10095 
   -9860    -9721    -9747    -9865    -9998   -10134   -10287   -10401 
  -10378   -10206    -9992    -9849    -9791    -9768    -9738    -9710 
   -9744    -9884   -10077   -10231   -10314   -10347   -10346   -10301 
  -10227   -10183   -10199   -10234   -10200   -10054    -9859    -9736 
   -9748    -9853    -9999   -10188   -10380   -10473   -10427   -10287 
  -10137   -10068   -10099   -10157   -10164   -10118   -10048    -9967 
   -9892    -9868    -9936   -10079   -10226   -10303   -10264   -10120 
   -9949    -9842    -9830    -9865    -9904    -9965   -10042   -10093 
  -10104   -10091   -10072   -10077   -10127   -10214   -10285   -10284 
  -10191   -10062    -9992   -10034   -10177   -10343   -10444   -10466 
  -10427   -10308   -10116    -9930    -9836    -9830    -9865    -9914 
   -9969   -10000    -9987    -9933    -9861    -9832    -9902   -10080 
  -10301   -10449   -10439   -10295   -10098    -9918    -9805    -9796 
   -9917   -10135   -10339   -10392   -10254   -10021    -9829    -9755 
   -9799    -9922   -10057   -10146   -10165   -10116   -10011    -9913 
   -9933   -10115   -10366   -10544   -10554   -10384   -10126    -9909 
   -9821    -9888   -10058   -10218   -10277   -10215   -10075    -9923 
   -9838    -9875   -10017   -10183   -10301   -10324   -10245   -10116 
   -9999    -9910    -9867    -9899    -9980   -10046   -10072   -10066 
  -10045   -10041   -10073   -10115   -10143   -10185   -10277   -10380 
  -10405   -10312   -10147    -9985    -9883    -9850    -9872    -9930 
  -10027   -10147   -10233   -10223   -10125   -10022    -9999   -10054 
  -10123   -10161   -10169   -10153   -10104   -10018    -9910    -9832 
   -9832    -9910   -10021   -10103   -10118   -10089   -10073   -10091 
  -10142   -10222   -10295   -10327   -10299   -10211   -10098   -10007 
   -9964    -9954    -9965    -9984   -10000   -10012   -10035   -10079 
  -10125   -10172   -10253   -10355   -10389   -10291   -10096    -9892 
   -9751    -9709    -9763    -9882   -10060   -10280   -10439   -10435 
  -10281   -10091    -9990   -10019   -10111   -10181   -10192   -10145 
  -10056    -9952    -9875    -9860    -9927   -10053   -10174   -10227 
  -10196   -10115   -10014    -9922    -9864    -9852    -9890    -9988 
  -10131   -10254   -10301   -10266   -10179   -10064    -9949    -9865 
   -9868    -9995   -10187   -10319   -10347   -10308   -10239   -10162 
  -10089   -10033   -10012   -10048   -10103   -10112   -10044    -9942 
   -9890    -9926   -10000   -10042   -10060   -10102   -10147   -10158 
  -10149   -10143   -10149   -10145   -10099   -10023    -9958    -9922 
   -9922    -9990   -10126   -10265   -10342   -10334   -10245   -10099 
   -9940    -9825    -9810    -9926   -10127   -10288   -10301   -10168 
   -9953    -9749    -9667    -9764    -9992   -10235   -10407   -10469 
  -10396   -10216   -10019    -9923    -9992   -10170   -10316   -10341 
  -10264   -10142   -10019    -9946    -9960   -10034   -10108   -10134 
  -10093   -10012    -9948    -9946   -10012   -10103   -10173   -10212 
  -10210   -10134   -10004    -9907    -9907    -9977   -10035   -10057 
  -10088   -10162   -10235   -10250   -10215   -10191   -10197   -10199 
  -10150   -10069   -10011   -10012   -10054   -10083   -10071   -10031 
  -10002   -10002   -10018   -10031   -10044   -10061   -10080   -10092 
  -10099   -10092   -10056   -10003    -9983   -10006   -10049   -10118 
  -10203   -10257   -10257   -10222   -10170   -10116   -10091   -10075 
  -10019    -9938    -9887    -9888    -9952   -10095   -10293   -10439 
  -10454   -10341   -10127    -9884    -9729    -9717    -9828    -9996 
  -10129   -10152   -10081    -9988    -9942    -9979   -10095   -10237 
  -10309   -10243   -10030    -9761    -9593    -9625    -9864   -10211 
  -10481   -10524   -10346   -10066    -9810    -9687    -9778   -10049 
  -10353   -10530   -10511   -10338   -10118    -9967    -9934   -10008 
  -10162   -10328   -10386   -10296   -10142   -10012    -9923    -9879 
   -9902    -9985   -10084   -10161   -10179   -10125   -10039    -9985 
   -9981   -10018   -10077   -10120   -10111   -10076   -10053   -10037 
  -10011    -9987    -9983   -10010   -10058   -10087   -10064   -10017 
  -10008   -10072   -10158   -10201   -10215   -10246   -10273   -10233 
  -10139   -10069   -10061   -10079   -10056    -9992    -9958    -9995 
  -10077   -10172   -10251   -10285   -10242   -10133   -10017    -9949 
   -9963   -10052   -10161   -10227   -10231   -10189   -10107   -10014 
   -9953    -9937    -9960   -10010   -10042   -10023    -9996   -10007 
  -10052   -10108   -10162   -10192   -10169   -10093   -10003    -9946 
   -9980   -10100   -10233   -10318   -10349   -10332   -10253   -10119 
  -10004    -9977   -10053   -10195   -10319   -10339   -10238   -10058 
   -9877    -9765    -9757    -9826    -9930   -10017   -10041   -10022 
