Origin Time       2025/03/30 22:55:00
Lat.              41.993
Long.             142.725
Depth. (km)       55
Mag.              4.6
Station Code      NMRH03
Station Lat.      43.5508
Station Long.     144.9665
Station Height(m) 30
Record Time       2025/03/30 22:57:06
Sampling Freq(Hz) 100Hz
Duration Time(s)  120
Dir.              4
Scale Factor      7845(gal)/8223790
Max. Acc. (gal)   0.630
Last Correction   2025/03/30 22:57:06
Memo.             
  -17896   -17864   -17855   -17868   -17894   -17928   -17945   -17914 
  -17860   -17841   -17864   -17891   -17909   -17919   -17911   -17884 
  -17861   -17848   -17849   -17872   -17892   -17890   -17886   -17894 
  -17901   -17898   -17886   -17874   -17857   -17849   -17879   -17930 
  -17942   -17901   -17849   -17829   -17836   -17863   -17895   -17915 
  -17915   -17898   -17875   -17863   -17876   -17910   -17930   -17911 
  -17879   -17874   -17894   -17907   -17902   -17887   -17864   -17832 
  -17821   -17853   -17901   -17928   -17937   -17936   -17914   -17882 
  -17864   -17859   -17851   -17836   -17820   -17822   -17853   -17901 
  -17933   -17942   -17938   -17923   -17888   -17855   -17856   -17891 
  -17932   -17941   -17915   -17880   -17860   -17857   -17865   -17874 
  -17875   -17871   -17859   -17852   -17875   -17918   -17944   -17942 
  -17929   -17910   -17884   -17857   -17834   -17811   -17798   -17813 
  -17872   -17952   -18002   -17988   -17917   -17821   -17756   -17759 
  -17818   -17892   -17949   -17969   -17950   -17929   -17919   -17906 
  -17875   -17841   -17824   -17838   -17863   -17879   -17895   -17913 
  -17913   -17902   -17898   -17902   -17896   -17868   -17849   -17874 
  -17914   -17925   -17902   -17876   -17864   -17860   -17859   -17867 
  -17882   -17879   -17861   -17859   -17879   -17907   -17936   -17961 
  -17972   -17952   -17887   -17801   -17747   -17760   -17822   -17896 
  -17956   -17996   -17999   -17955   -17879   -17807   -17779   -17810 
  -17868   -17917   -17933   -17913   -17882   -17876   -17887   -17898 
  -17911   -17925   -17917   -17876   -17834   -17821   -17840   -17865 
  -17894   -17936   -17979   -17976   -17911   -17822   -17772   -17794 
  -17856   -17914   -17952   -17963   -17960   -17945   -17906   -17855 
  -17824   -17820   -17825   -17840   -17869   -17907   -17938   -17957 
  -17949   -17907   -17855   -17815   -17805   -17828   -17878   -17936 
  -17968   -17957   -17921   -17876   -17841   -17836   -17851   -17864 
  -17880   -17910   -17936   -17942   -17929   -17906   -17879   -17863 
  -17863   -17863   -17856   -17863   -17888   -17906   -17894   -17861 
  -17834   -17847   -17901   -17946   -17955   -17936   -17894   -17838 
  -17810   -17826   -17865   -17909   -17948   -17960   -17937   -17883 
  -17826   -17794   -17799   -17842   -17902   -17946   -17959   -17937 
  -17895   -17857   -17844   -17848   -17863   -17879   -17882   -17869 
  -17863   -17871   -17899   -17941   -17963   -17941   -17895   -17838 
  -17783   -17763   -17797   -17861   -17928   -17975   -17976   -17937 
  -17884   -17837   -17815   -17832   -17878   -17934   -17972   -17963 
  -17914   -17863   -17832   -17822   -17842   -17886   -17915   -17917 
  -17907   -17892   -17879   -17883   -17903   -17918   -17917   -17899 
  -17860   -17815   -17799   -17814   -17842   -17884   -17934   -17965 
  -17963   -17936   -17883   -17821   -17793   -17811   -17857   -17909 
  -17942   -17944   -17929   -17918   -17905   -17880   -17856   -17836 
  -17824   -17833   -17867   -17905   -17940   -17967   -17971   -17950 
  -17914   -17868   -17817   -17791   -17813   -17863   -17909   -17933 
  -17921   -17887   -17859   -17848   -17851   -17863   -17878   -17886 
  -17890   -17907   -17923   -17907   -17871   -17849   -17856   -17879 
  -17894   -17894   -17892   -17898   -17901   -17896   -17899   -17898 
  -17869   -17847   -17856   -17872   -17869   -17857   -17852   -17856 
  -17871   -17898   -17925   -17945   -17941   -17910   -17864   -17828 
  -17825   -17861   -17903   -17923   -17922   -17911   -17891   -17868 
  -17855   -17855   -17868   -17906   -17952   -17979   -17964   -17913 
  -17853   -17820   -17824   -17860   -17909   -17942   -17940   -17906 
  -17864   -17848   -17860   -17875   -17876   -17868   -17861   -17863 
  -17872   -17892   -17905   -17888   -17861   -17853   -17865   -17890 
  -17910   -17906   -17876   -17861   -17876   -17905   -17932   -17942 
  -17915   -17855   -17803   -17794   -17815   -17864   -17918   -17938 
  -17922   -17907   -17907   -17918   -17921   -17905   -17879   -17864 
  -17871   -17890   -17906   -17909   -17888   -17857   -17841   -17849 
  -17874   -17901   -17921   -17918   -17898   -17895   -17903   -17891 
  -17876   -17884   -17906   -17925   -17942   -17955   -17944   -17906 
  -17855   -17802   -17768   -17783   -17851   -17925   -17963   -17948 
  -17888   -17814   -17771   -17782   -17832   -17895   -17940   -17933 
  -17891   -17856   -17847   -17859   -17892   -17928   -17936   -17926 
  -17915   -17891   -17857   -17838   -17845   -17880   -17932   -17964 
  -17964   -17933   -17878   -17821   -17805   -17834   -17890   -17940 
  -17967   -17971   -17953   -17909   -17860   -17824   -17797   -17788 
  -17810   -17853   -17901   -17936   -17944   -17919   -17872   -17838 
  -17836   -17851   -17876   -17910   -17938   -17945   -17923   -17888 
  -17863   -17845   -17833   -17832   -17837   -17842   -17857   -17884 
  -17921   -17941   -17934   -17923   -17914   -17883   -17855   -17860 
  -17883   -17898   -17910   -17917   -17914   -17907   -17898   -17884 
  -17871   -17865   -17863   -17860   -17869   -17882   -17880   -17887 
  -17909   -17925   -17914   -17887   -17861   -17845   -17851   -17869 
  -17887   -17899   -17906   -17910   -17911   -17910   -17896   -17875 
  -17868   -17883   -17894   -17891   -17894   -17891   -17874   -17876 
  -17907   -17928   -17922   -17910   -17895   -17869   -17849   -17847 
  -17849   -17844   -17832   -17817   -17828   -17876   -17940   -17995 
  -18017   -17984   -17905   -17821   -17779   -17793   -17844   -17911 
  -17969   -17984   -17944   -17875   -17815   -17783   -17786   -17822 
  -17872   -17906   -17903   -17883   -17878   -17891   -17901   -17894 
  -17880   -17867   -17849   -17840   -17857   -17891   -17919   -17937 
  -17952   -17961   -17944   -17886   -17820   -17793   -17803   -17842 
  -17905   -17965   -17987   -17957   -17903   -17868   -17868   -17883 
  -17887   -17869   -17849   -17838   -17841   -17853   -17868   -17888 
  -17906   -17905   -17892   -17883   -17878   -17879   -17891   -17907 
  -17913   -17905   -17886   -17859   -17841   -17841   -17849   -17869 
  -17899   -17907   -17895   -17883   -17882   -17894   -17911   -17917 
  -17907   -17895   -17888   -17884   -17878   -17869   -17857   -17853 
  -17868   -17895   -17918   -17936   -17942   -17929   -17895   -17867 
  -17861   -17874   -17890   -17907   -17923   -17923   -17903   -17888 
  -17898   -17917   -17923   -17910   -17894   -17878   -17859   -17857 
  -17878   -17894   -17895   -17898   -17891   -17863   -17834   -17821 
  -17813   -17820   -17855   -17895   -17915   -17915   -17903   -17879 
  -17860   -17856   -17867   -17883   -17909   -17940   -17963   -17961 
  -17936   -17895   -17857   -17845   -17861   -17882   -17892   -17896 
  -17884   -17865   -17872   -17906   -17932   -17922   -17887   -17851 
  -17825   -17814   -17829   -17868   -17901   -17903   -17891   -17884 
  -17886   -17896   -17907   -17901   -17882   -17855   -17834   -17851 
  -17903   -17944   -17938   -17906   -17867   -17821   -17793   -17805 
  -17844   -17886   -17910   -17907   -17880   -17847   -17828   -17841 
  -17886   -17942   -17986   -17988   -17950   -17891   -17837   -17811 
  -17836   -17898   -17956   -17976   -17957   -17906   -17842   -17801 
  -17806   -17848   -17896   -17923   -17923   -17907   -17883   -17860 
  -17857   -17875   -17898   -17922   -17936   -17918   -17876   -17841 
  -17825   -17825   -17837   -17860   -17880   -17883   -17872   -17867 
  -17872   -17879   -17891   -17906   -17917   -17925   -17914   -17879 
  -17836   -17805   -17806   -17840   -17884   -17914   -17913   -17890 
  -17876   -17882   -17901   -17928   -17963   -17987   -17968   -17917 
  -17876   -17875   -17890   -17898   -17901   -17911   -17919   -17905 
  -17874   -17860   -17869   -17884   -17899   -17905   -17887   -17859 
  -17834   -17824   -17828   -17852   -17894   -17928   -17926   -17898 
  -17861   -17830   -17821   -17851   -17895   -17921   -17926   -17923 
  -17913   -17894   -17878   -17868   -17861   -17861   -17863   -17872 
  -17896   -17918   -17932   -17938   -17934   -17918   -17886   -17856 
  -17847   -17860   -17895   -17936   -17948   -17917   -17857   -17802 
  -17783   -17802   -17847   -17894   -17922   -17937   -17942   -17926 
  -17905   -17899   -17898   -17884   -17876   -17886   -17899   -17911 
  -17923   -17921   -17903   -17890   -17891   -17894   -17894   -17899 
  -17898   -17869   -17830   -17806   -17810   -17844   -17887   -17922 
  -17937   -17921   -17876   -17828   -17801   -17807   -17847   -17892 
  -17921   -17929   -17913   -17876   -17838   -17820   -17822   -17847 
  -17884   -17915   -17928   -17906   -17861   -17837   -17838   -17848 
  -17864   -17898   -17925   -17918   -17890   -17856   -17828   -17813 
  -17822   -17848   -17874   -17891   -17896   -17879   -17848   -17828 
  -17840   -17871   -17901   -17917   -17913   -17898   -17890   -17879 
  -17860   -17860   -17887   -17917   -17937   -17934   -17905   -17868 
  -17840   -17826   -17853   -17925   -17987   -18002   -17983   -17940 
  -17886   -17852   -17855   -17883   -17926   -17967   -17973   -17944 
  -17901   -17865   -17852   -17869   -17905   -17929   -17933   -17923 
  -17902   -17879   -17874   -17891   -17910   -17917   -17909   -17879 
  -17847   -17838   -17845   -17852   -17859   -17867   -17875   -17890 
  -17913   -17934   -17946   -17946   -17933   -17910   -17898   -17891 
  -17869   -17845   -17833   -17834   -17867   -17925   -17967   -17977 
  -17967   -17930   -17884   -17851   -17840   -17860   -17894   -17919 
  -17929   -17930   -17913   -17879   -17842   -17794   -17747   -17734 
  -17776   -17852   -17928   -17987   -18017   -18004   -17963   -17918 
  -17878   -17845   -17828   -17825   -17826   -17822   -17821   -17838 
  -17871   -17901   -17918   -17919   -17888   -17829   -17783   -17784 
  -17828   -17890   -17949   -17973   -17950   -17906   -17871   -17845 
  -17817   -17786   -17761   -17760   -17790   -17837   -17872   -17891 
  -17913   -17944   -17971   -17990   -18007   -18006   -17977   -17949 
  -17953   -17968   -17968   -17959   -17941   -17899   -17838   -17786 
  -17749   -17725   -17725   -17755   -17793   -17832   -17876   -17911 
  -17915   -17895   -17844   -17770   -17716   -17716   -17776   -17878 
  -17987   -18075   -18102   -18050   -17957   -17869   -17825   -17844 
  -17903   -17944   -17934   -17878   -17806   -17756   -17752   -17814 
  -17932   -18041   -18076   -18033   -17928   -17791   -17698   -17724 
  -17852   -18004   -18100   -18081   -17932   -17720   -17562   -17547 
  -17689   -17919   -18127   -18230   -18199   -18054   -17852   -17683 
  -17617   -17659   -17771   -17895   -17969   -17957   -17882   -17803 
  -17770   -17813   -17922   -18036   -18084   -18038   -17923   -17825 
  -17820   -17925   -18090   -18235   -18292   -18226   -18049   -17826 
  -17655   -17618   -17717   -17878   -18009   -18052   -18014   -17941 
  -17876   -17844   -17855   -17899   -17941   -17942   -17890   -17798 
  -17712   -17689   -17741   -17818   -17882   -17921   -17928   -17892 
  -17849   -17838   -17875   -17944   -18017   -18045   -18006   -17928 
  -17857   -17822   -17848   -17919   -17977   -17996   -17972   -17911 
  -17853   -17838   -17864   -17914   -17971   -17990   -17948   -17875 
  -17806   -17749   -17717   -17722   -17763   -17820   -17868   -17878 
  -17826   -17724   -17628   -17604   -17666   -17763   -17845   -17894 
  -17898   -17869   -17840   -17842   -17864   -17882   -17890   -17887 
  -17874   -17869   -17878   -17876   -17849   -17817   -17805   -17830 
  -17888   -17953   -18011   -18049   -18036   -17957   -17848   -17743 
  -17674   -17662   -17714   -17813   -17906   -17956   -17967   -17949 
  -17917   -17898   -17903   -17919   -17926   -17923   -17922   -17928 
  -17940   -17959   -17984   -18018   -18038   -17991   -17874   -17764 
  -17726   -17760   -17834   -17919   -18013   -18096   -18118   -18060 
  -17964   -17879   -17813   -17733   -17645   -17624   -17716   -17878 
  -18037   -18139   -18142   -18038   -17895   -17805   -17801   -17863 
  -17942   -17984   -17959   -17880   -17782   -17689   -17631   -17649 
  -17718   -17775   -17818   -17879   -17938   -17984   -18034   -18073 
  -18068   -18027   -17972   -17891   -17787   -17694   -17635   -17647 
  -17771   -17976   -18173   -18292   -18304   -18216   -18077   -17955 
  -17894   -17902   -17942   -17972   -17961   -17929   -17923   -17940 
  -17945   -17930   -17888   -17814   -17720   -17640   -17639   -17755 
  -17938   -18098   -18162   -18091   -17864   -17539   -17275   -17224 
  -17413   -17768   -18162   -18438   -18466   -18233   -17871   -17577 
  -17482   -17589   -17814   -18049   -18177   -18130   -17936   -17701 
  -17525   -17478   -17566   -17720   -17848   -17894   -17845   -17747 
  -17697   -17771   -17955   -18176   -18358   -18411   -18289   -18048 
  -17783   -17598   -17563   -17652   -17783   -17905   -17988   -18018 
  -17998   -17936   -17832   -17728   -17683   -17709   -17778   -17865 
  -17953   -18033   -18115   -18192   -18208   -18117   -17928   -17725 
  -17621   -17664   -17832   -18050   -18210   -18204   -18036   -17805 
  -17620   -17540   -17583   -17725   -17910   -18049   -18069   -17972 
  -17825   -17717   -17705   -17774   -17864   -17911   -17874   -17766 
  -17671   -17667   -17774   -17971   -18191   -18324   -18300   -18139 
  -17910   -17703   -17612   -17685   -17876   -18081   -18187   -18141 
  -17963   -17722   -17524   -17474   -17597   -17809   -18006   -18145 
  -18203   -18145   -17999   -17837   -17698   -17594   -17572   -17666 
  -17845   -18048   -18189   -18202   -18084   -17907   -17763   -17707 
  -17748   -17834   -17902   -17917   -17878   -17790   -17698   -17670 
  -17736   -17871   -18007   -18076   -18049   -17956   -17847   -17778 
  -17795   -17894   -18014   -18073   -18030   -17918   -17793   -17703 
  -17697   -17779   -17909   -18011   -18023   -17952   -17868   -17842 
  -17888   -17971   -18046   -18081   -18048   -17955   -17869   -17857 
  -17929   -18023   -18053   -17991   -17871   -17745   -17663   -17674 
  -17799   -17991   -18157   -18226   -18162   -17986   -17766   -17575 
  -17494   -17578   -17786   -18010   -18156   -18156   -18009   -17794 
  -17604   -17496   -17505   -17618   -17768   -17891   -17957   -17953 
  -17919   -17923   -17969   -18000   -17983   -17934   -17874   -17807 
  -17764   -17795   -17907   -18029   -18081   -18046   -17937   -17799 
  -17713   -17714   -17774   -17857   -17949   -18017   -18015   -17933 
  -17829   -17778   -17786   -17826   -17871   -17898   -17917   -17942 
  -17969   -17996   -18036   -18090   -18112   -18061   -17949   -17822 
  -17712   -17643   -17628   -17664   -17726   -17771   -17780   -17778 
  -17767   -17759   -17797   -17905   -18030   -18095   -18071   -17968 
  -17845   -17767   -17739   -17736   -17759   -17806   -17844   -17876 
  -17934   -18013   -18071   -18094   -18114   -18142   -18144   -18084 
  -17964   -17825   -17733   -17716   -17761   -17863   -17987   -18085 
  -18119   -18056   -17928   -17807   -17732   -17714   -17767   -17861 
  -17933   -17928   -17855   -17770   -17703   -17663   -17680   -17779 
  -17921   -18027   -18049   -18007   -17942   -17879   -17844   -17845 
  -17849   -17832   -17806   -17790   -17780   -17768   -17763   -17788 
  -17863   -17977   -18081   -18112   -18057   -17946   -17820   -17726 
  -17709   -17772   -17880   -17968   -17995   -17968   -17899   -17807 
  -17744   -17748   -17810   -17892   -17950   -17953   -17903   -17825 
  -17760   -17745   -17801   -17928   -18081   -18177   -18183   -18112 
  -17975   -17805   -17687   -17675   -17763   -17914   -18060   -18115 
  -18071   -17995   -17949   -17952   -17980   -17998   -17995   -17975 
  -17907   -17788   -17685   -17643   -17667   -17726   -17794   -17880 
  -17977   -18033   -18021   -17960   -17890   -17860   -17890   -17933 
  -17923   -17849   -17752   -17682   -17674   -17736   -17837   -17941 
  -18025   -18076   -18068   -17998   -17884   -17764   -17674   -17631 
  -17637   -17689   -17774   -17879   -17987   -18056   -18060   -18018 
  -17988   -18007   -18050   -18063   -18009   -17898   -17774   -17685 
  -17674   -17760   -17919   -18067   -18129   -18077   -17940   -17788 
  -17698   -17690   -17737   -17801   -17852   -17887   -17918   -17952 
  -17988   -18015   -18022   -17999   -17956   -17911   -17876   -17830 
  -17772   -17707   -17637   -17598   -17622   -17679   -17725   -17767 
  -17828   -17903   -17955   -17979   -18017   -18085   -18157   -18196 
  -18175   -18076   -17929   -17797   -17732   -17741   -17795   -17852 
  -17882   -17879   -17864   -17859   -17879   -17928   -17994   -18061 
  -18091   -18038   -17926   -17824   -17757   -17729   -17736   -17759 
  -17784   -17795   -17791   -17813   -17872   -17928   -17963   -17996 
  -18034   -18065   -18087   -18087   -18033   -17917   -17779   -17676 
  -17640   -17674   -17768   -17883   -17955   -17952   -17903   -17849 
  -17806   -17801   -17874   -18013   -18114   -18090   -17961   -17815 
  -17713   -17678   -17721   -17814   -17895   -17922   -17902   -17851 
  -17799   -17776   -17788   -17833   -17892   -17932   -17948   -17968 
  -17987   -17971   -17923   -17879   -17845   -17817   -17806   -17821 
  -17851   -17895   -17956   -18017   -18049   -18041   -17998   -17936 
  -17847   -17734   -17645   -17633   -17703   -17815   -17919   -17984 
  -18004   -18002   -18006   -18029   -18069   -18126   -18150   -18083 
  -17933   -17779   -17682   -17652   -17683   -17764   -17861   -17934 
  -17955   -17925   -17883   -17865   -17896   -17983   -18081   -18131 
  -18117   -18038   -17919   -17813   -17743   -17697   -17659   -17613 
  -17559   -17536   -17581   -17659   -17729   -17822   -17964   -18108 
  -18184   -18181   -18134   -18065   -17992   -17928   -17878   -17848 
  -17825   -17788   -17764   -17802   -17905   -18013   -18087   -18115 
  -18064   -17922   -17740   -17587   -17537   -17645   -17903   -18207 
  -18414   -18416   -18204   -17871   -17554   -17381   -17401   -17555 
  -17707   -17767   -17743   -17674   -17590   -17554   -17633   -17832 
  -18087   -18288   -18324   -18171   -17914   -17682   -17559   -17591 
  -17771   -17996   -18122   -18110   -18017   -17911   -17855   -17886 
  -17975   -18068   -18125   -18110   -18013   -17874   -17756   -17713 
  -17766   -17894   -18018   -18060   -18019   -17946   -17887   -17875 
  -17914   -17973   -18007   -17988   -17913   -17813   -17747   -17751 
  -17828   -17952   -18075   -18122   -18049   -17894   -17717   -17570 
  -17500   -17535   -17635   -17732   -17778   -17767   -17743   -17748 
  -17793   -17861   -17949   -18025   -18050   -18030   -17994   -17972 
  -17991   -18037   -18069   -18080   -18061   -17980   -17852   -17749 
  -17724   -17775   -17872   -17937   -17905   -17817   -17757   -17756 
  -17834   -17986   -18142   -18234   -18222   -18095   -17905   -17761 
  -17745   -17838   -17972   -18083   -18103   -17980   -17745   -17512 
  -17401   -17467   -17675   -17915   -18069   -18085   -17973   -17806 
  -17690   -17697   -17801   -17929   -18015   -18014   -17909   -17752 
