Origin Time       2025/03/30 22:55:00
Lat.              41.993
Long.             142.725
Depth. (km)       55
Mag.              4.6
Station Code      TKCH08
Station Lat.      42.4865
Station Long.     143.1520
Station Height(m) 360
Record Time       2025/03/30 22:56:11
Sampling Freq(Hz) 100Hz
Duration Time(s)  120
Dir.              4
Scale Factor      7845(gal)/8223790
Max. Acc. (gal)   8.044
Last Correction   2025/03/30 22:56:11
Memo.             
[...]
  -20129   -20129   -20133   -20132   -20129   -20131   -20131   -20131 
  -20132   -20132   -20131   -20133   -20132   -20125   -20128   -20133 
  -20131   -20132   -20135   -20133   -20129   -20128   -20132   -20133 
  -20131   -20132   -20133   -20131   -20131   -20132   -20131   -20129 
  -20129   -20131   -20129   -20129   -20131   -20132   -20133   -20132 
  -20132   -20136   -20133   -20128   -20129   -20127   -20125   -20133 
  -20135   -20131   -20132   -20133   -20131   -20128   -20129   -20131 
  -20132   -20133   -20132   -20131   -20129   -20129   -20131   -20133 
  -20131   -20128   -20129   -20133   -20132   -20129   -20133   -20135 
  -20132   -20131   -20131   -20129   -20128   -20129   -20133   -20132 
  -20129   -20129   -20127   -20127   -20129   -20132   -20133   -20131 
  -20129   -20131   -20129   -20128   -20131   -20132   -20132   -20132 
  -20131   -20131   -20131   -20132   -20133   -20128   -20127   -20131 
  -20131   -20128   -20131   -20129   -20128   -20129   -20131   -20129 
  -20133   -20133   -20129   -20128   -20129   -20129   -20131   -20133 
  -20133   -20133   -20131   -20131   -20129   -20129   -20132   -20132 
  -20132   -20132   -20129   -20129   -20131   -20131   -20131   -20129 
  -20129   -20133   -20135   -20132   -20131   -20132   -20133   -20132 
  -20133   -20132   -20129   -20131   -20132   -20129   -20125   -20128 
  -20133   -20133   -20132   -20132   -20131   -20131   -20131   -20129 
  -20131   -20132   -20129   -20129   -20131   -20132   -20131   -20129 
  -20131   -20129   -20128   -20131   -20131   -20128   -20128   -20131 
  -20131   -20131   -20132   -20131   -20127   -20131   -20133   -20131 
  -20131   -20131   -20131   -20129   -20131   -20131   -20131   -20131 
  -20131   -20131   -20131   -20128   -20128   -20131   -20129   -20131 
  -20135   -20132   -20128   -20131   -20131   -20129   -20131   -20131 
  -20132   -20132   -20132   -20131   -20128   -20129   -20128   -20128 
  -20133   -20133   -20129   -20132   -20133   -20131   -20129   -20128 
  -20129   -20131   -20131   -20132   -20132   -20131   -20129   -20127 
  -20128   -20132   -20132   -20129   -20128   -20131   -20131   -20132 
  -20133   -20129   -20129   -20132   -20132   -20133   -20132   -20129 
  -20129   -20132   -20131   -20129   -20131   -20132   -20132   -20133 
  -20132   -20131   -20132   -20132   -20132   -20133   -20133   -20129 
  -20128   -20131   -20131   -20129   -20132   -20135   -20132   -20131 
  -20132   -20131   -20129   -20129   -20129   -20129   -20132   -20133 
  -20131   -20131   -20132   -20128   -20128   -20132   -20129   -20129 
  -20132   -20131   -20131   -20133   -20131   -20129   -20133   -20135 
  -20132   -20128   -20127   -20129   -20131   -20132   -20133   -20132 
  -20131   -20128   -20128   -20129   -20128   -20128   -20129   -20132 
  -20132   -20132   -20133   -20132   -20129   -20132   -20131   -20128 
  -20129   -20132   -20131   -20129   -20131   -20131   -20131   -20132 
  -20131   -20128   -20129   -20131   -20131   -20131   -20131   -20131 
  -20131   -20129   -20131   -20131   -20132   -20132   -20129   -20129 
  -20129   -20131   -20133   -20133   -20131   -20131   -20131   -20129 
  -20127   -20128   -20131   -20131   -20132   -20131   -20129   -20131 
  -20131   -20129   -20131   -20133   -20132   -20131   -20129   -20129 
  -20129   -20131   -20129   -20129   -20131   -20131   -20129   -20131 
  -20133   -20131   -20127   -20128   -20129   -20129   -20131   -20133 
  -20131   -20131   -20132   -20129   -20129   -20129   -20128   -20127 
  -20129   -20129   -20131   -20132   -20132   -20129   -20129   -20131 
  -20129   -20131   -20132   -20133   -20133   -20133   -20131   -20131 
  -20129   -20128   -20129   -20131   -20133   -20132   -20129   -20132 
  -20132   -20128   -20128   -20129   -20131   -20132   -20135   -20132 
  -20128   -20129   -20131   -20128   -20132   -20132   -20128   -20129 
  -20131   -20129   -20128   -20128   -20131   -20132   -20132   -20132 
  -20133   -20132   -20129   -20129   -20132   -20131   -20133   -20137 
  -20135   -20131   -20132   -20131   -20131   -20131   -20131   -20131 
  -20131   -20132   -20131   -20132   -20133   -20131   -20131   -20132 
  -20131   -20131   -20131   -20132   -20133   -20132   -20131   -20128 
  -20127   -20131   -20132   -20131   -20133   -20135   -20133   -20131 
  -20129   -20127   -20124   -20119   -20115   -20109   -20108   -20110 
  -20121   -20136   -20142   -20131   -20108   -20075   -20046   -20035 
  -20046   -20065   -20073   -20075   -20083   -20112   -20174   -20244 
  -20277   -20255   -20185   -20101   -20024   -19954   -19896   -19888 
  -19970   -20142   -20362   -20592   -20779   -20792   -20520   -20029 
  -19550   -19291   -19333   -19643   -20125   -20660   -21095   -21265 
  -21103   -20660   -20063   -19468   -19026   -18916   -19261   -19975 
  -20744   -21255   -21348   -21010   -20360   -19692   -19302   -19271 
  -19504   -19889   -20289   -20545   -20563   -20363   -20083   -19882 
  -19796   -19766   -19759   -19803   -19954   -20232   -20552   -20740 
  -20634   -20244   -19820   -19600   -19529   -19489   -19562   -19853 
  -20289   -20677   -20896   -20942   -20808   -20466   -19951   -19369 
  -18887   -18777   -19226   -20110   -21060   -21714   -21814   -21321 
  -20576   -19959   -19522   -19225   -19175   -19456   -19989   -20529 
  -20769   -20661   -20514   -20542   -20537   -20260   -19874   -19701 
  -19818   -19970   -19967   -19954   -20062   -20175   -20240   -20305 
  -20343   -20278   -20131   -20029   -19997   -19892   -19742   -19743 
  -19878   -19926   -19838   -19872   -20209   -20547   -20484   -20123 
  -19840   -19820   -19946   -20056   -20255   -20567   -20668   -20433 
  -20071   -19707   -19406   -19376   -19915   -20941   -21698   -21573 
  -20834   -20112   -19703   -19460   -19206   -19132   -19516   -20275 
  -20970   -21259   -21132   -20676   -19985   -19349   -19137   -19419 
  -19828   -20015   -20070   -20268   -20548   -20518   -20148   -19957 
  -20221   -20594   -20565   -20031   -19445   -19330   -19688   -20071 
  -20129   -20019   -20096   -20393   -20667   -20668   -20367   -20002 
  -19781   -19681   -19635   -19701   -19974   -20433   -20933   -21139 
  -20709   -19826   -19179   -19263   -19973   -20691   -20844   -20452 
  -19958   -19687   -19649   -19712   -19873   -20287   -20964   -21506 
  -21396   -20557   -19519   -18920   -18991   -19498   -20047   -20422 
  -20637   -20825   -21012   -20965   -20448   -19611   -18971   -18955 
  -19539   -20324   -20866   -20966   -20686   -20208   -19728   -19340 
  -19134   -19286   -19774   -20335   -20671   -20667   -20484   -20283 
  -20032   -19776   -19649   -19723   -20056   -20542   -20821   -20690 
  -20372   -20178   -20178   -20252   -20229   -20082   -20021   -20092 
  -20089   -20115   -20382   -20580   -20281   -19624   -19165   -19207 
  -19573   -20046   -20611   -21120   -21277   -21037   -20586   -20019 
  -19527   -19410   -19531   -19506   -19384   -19534   -20066   -20688 
  -21033   -20908   -20332   -19654   -19387   -19703   -20331   -20757 
  -20636   -20090   -19521   -19317   -19654   -20266   -20798   -21155 
  -21238   -20885   -20217   -19588   -19240   -19186   -19423   -19974 
  -20549   -20702   -20382   -19986   -19911   -20128   -20263   -20206 
  -20285   -20702   -21116   -20965   -20202   -19310   -18686   -18569 
  -19138   -20218   -21265   -21832   -21824   -21294   -20247   -18991 
  -18292   -18566   -19465   -20390   -20927   -21014   -20837   -20525 
  -20129   -19764   -19546   -19595   -19915   -20221   -20227   -19981 
  -19657   -19386   -19391   -19793   -20328   -20709   -20934   -21031 
  -20931   -20514   -19757   -19079   -19001   -19444   -19932   -20240 
  -20526   -20925   -21217   -21150   -20748   -20274   -20028   -19989 
  -19930   -19780   -19558   -19417   -19610   -20081   -20526   -20808 
  -20979   -21064   -20893   -20309   -19519   -18909   -18771   -19242 
  -20069   -20683   -20734   -20401   -20069   -19889   -19832   -19886 
  -20052   -20386   -20750   -20668   -19980   -19197   -18874   -19147 
  -19861   -20680   -21216   -21292   -20981   -20437   -19836   -19381 
  -19311   -19754   -20375   -20652   -20611   -20629   -20696   -20542 
  -20143   -19705   -19483   -19620   -19951   -20259   -20503   -20553 
  -20304   -19926   -19635   -19548   -19656   -19857   -20173   -20672 
  -21112   -21022   -20304   -19525   -19298   -19588   -19934   -20059 
  -20047   -20046   -20073   -20136   -20278   -20490   -20632   -20513 
  -20170   -19905   -19930   -20000   -19808   -19637   -19966   -20646 
  -21041   -20765   -20110   -19715   -19813   -20117   -20205   -19942 
  -19651   -19664   -19948   -20262   -20414   -20488   -20704   -21027 
  -21084   -20503   -19462   -18727   -18841   -19585   -20402   -20934 
  -21024   -20672   -20101   -19619   -19425   -19566   -19888   -20159 
  -20344   -20398   -20125   -19643   -19417   -19711   -20405   -21076 
  -21288   -21049   -20617   -20034   -19315   -18816   -18925   -19589 
  -20440   -21186   -21622   -21463   -20595   -19429   -18670   -18674 
  -19264   -20100   -20930   -21520   -21602   -21053   -20090   -19201 
  -18850   -19224   -20074   -20850   -21153   -20979   -20479   -19845 
  -19332   -19105   -19240   -19687   -20152   -20401   -20464   -20393 
  -20154   -19882   -19903   -20355   -20918   -21132   -20860   -20243 
  -19469   -18858   -18835   -19413   -20131   -20702   -21105   -21250 
  -21003   -20275   -19218   -18411   -18404   -19180   -20331   -21382 
  -21978   -22010   -21582   -20771   -19704   -18732   -18274   -18577 
  -19548   -20730   -21536   -21648   -21180   -20432   -19600   -18801 
  -18335   -18561   -19469   -20690   -21743   -22230   -22017   -21128 
  -19738   -18403   -17766   -18061   -19111   -20471   -21570   -21991 
  -21660   -20741   -19526   -18534   -18324   -18945   -19944   -20927 
  -21602   -21664   -21064   -20148   -19410   -19132   -19346   -19996 
  -20860   -21452   -21346   -20530   -19454   -18708   -18593   -19044 
  -19795   -20575   -21285   -21782   -21622   -20636   -19448   -18797 
  -18817   -19364   -20271   -21138   -21482   -21142   -20322   -19350 
  -18558   -18258   -18584   -19400   -20395   -21219   -21608   -21415 
  -20752   -20058   -19669   -19553   -19623   -19917   -20355   -20675 
  -20695   -20518   -20367   -20259   -20082   -19939   -20098   -20538 
  -20771   -20407   -19726   -19388   -19660   -20108   -20258   -20182 
  -20144   -20121   -20001   -19872   -19824   -19774   -19776   -20070 
  -20524   -20617   -20140   -19507   -19271   -19619   -20231   -20607 
  -20568   -20349   -20231   -20233   -20245   -20309   -20509   -20704 
  -20653   -20254   -19576   -18970   -18925   -19526   -20312   -20819 
  -20915   -20699   -20410   -20272   -20272   -20216   -20016   -19745 
  -19573   -19657   -19951   -20293   -20545   -20622   -20582   -20525 
  -20345   -19943   -19519   -19363   -19506   -19722   -19803   -19839 
  -20115   -20676   -21246   -21498   -21266   -20595   -19755   -19172 
  -19149   -19629   -20247   -20632   -20683   -20565   -20387   -20106 
  -19734   -19403   -19322   -19634   -20186   -20623   -20731   -20518 
  -20132   -19780   -19576   -19549   -19696   -19971   -20391   -20911 
  -21212   -21049   -20571   -20074   -19699   -19481   -19467   -19678 
  -20028   -20328   -20433   -20309   -20023   -19751   -19608   -19649 
  -20020   -20699   -21296   -21374   -20864   -20098   -19485   -19136 
  -18987   -19175   -19836   -20691   -21247   -21298   -20937   -20299 
  -19615   -19183   -19099   -19170   -19309   -19699   -20367   -20989 
  -21258   -21166   -20857   -20364   -19765   -19371   -19375   -19668 
  -20115   -20580   -20849   -20794   -20430   -19885   -19441   -19359 
  -19568   -19730   -19656   -19554   -19754   -20306   -20977   -21431 
  -21428   -20993   -20352   -19685   -19106   -18847   -19086   -19658 
  -20278   -20763   -21054   -21169   -20985   -20430   -19839   -19615 
  -19724   -19778   -19653   -19742   -20301   -20915   -21027   -20637 
  -20170   -19932   -19916   -19946   -19816   -19472   -19215   -19445 
  -20092   -20713   -21008   -20946   -20615   -20164   -19680   -19213 
  -18982   -19248   -19919   -20574   -20908   -20916   -20684   -20267 
  -19828   -19592   -19568   -19646   -19881   -20301   -20683   -20811 
  -20696   -20506   -20304   -20017   -19726   -19722   -20054   -20390 
  -20540   -20609   -20640   -20565   -20348   -20043   -19830   -19818 
  -19824   -19616   -19354   -19373   -19672   -20021   -20260   -20339 
  -20368   -20455   -20501   -20441   -20353   -20239   -20046   -19800 
  -19612   -19677   -20089   -20591   -20827   -20781   -20667   -20575 
  -20461   -20251   -19943   -19676   -19562   -19597   -19732   -19978 
  -20401   -20954   -21370   -21375   -20927   -20214   -19511   -19087 
  -19116   -19503   -19904   -20088   -20135   -20237   -20448   -20637 
  -20621   -20345   -20007   -19884   -20074   -20409   -20578   -20449 
  -20277   -20233   -20083   -19688   -19264   -19147   -19592   -20497 
  -21296   -21523   -21342   -21161   -21004   -20707   -20291   -19865 
  -19606   -19707   -20016   -20109   -19818   -19364   -19021   -18797 
  -18600   -18586   -19036   -19990   -21232   -22387   -22897   -22233 
  -20433   -18216   -16536   -16206   -17497   -19734   -21772   -22808 
  -22360   -20233   -17142   -14628   -14075   -16025   -19992   -24522 
  -27797   -28563   -26593   -22519   -17668   -13790   -12271   -13552 
  -17128   -21709   -25617   -27422   -26580   -23708   -20137   -17085 
  -15344   -15429   -17293   -19851   -21667   -22107   -21492   -20501 
  -19651   -19205   -19326   -20040   -21053   -21735   -21540   -20615 
  -19626   -19074   -19076   -19454   -19992   -20536   -20903   -21000 
  -20880   -20549   -20039   -19565   -19342   -19360   -19596   -20237 
  -21284   -22211   -22435   -21837   -20599   -18983   -17524   -17011 
  -17923   -19876   -21766   -22650   -22296   -21004   -19259   -17622 
  -16627   -16575   -17533   -19275   -21084   -22211   -22430   -21941 
  -21026   -19989   -19326   -19457   -20218   -21061   -21624   -21816 
  -21597   -21042   -20475   -20217   -20317   -20636   -21011   -21344 
  -21482   -21093   -19880   -18007   -16313   -15734   -16579   -18609 
  -21212   -23487   -24617   -24077   -21899   -19035   -16877   -16282 
  -17220   -19016   -20781   -21973   -22420   -22022   -20903   -19597 
  -18686   -18465   -18978   -20050   -21277   -22148   -22192   -21239 
  -19701   -18360   -17786   -18173   -19492   -21320   -22781   -23207 
  -22549   -21068   -19180   -17502   -16680   -17003   -18203   -19674 
  -20785   -21111   -20601   -19685   -19032   -18947   -19395   -20352 
  -21622   -22647   -22859   -22226   -21270   -20506   -20136   -20093 
  -20214   -20317   -20089   -19345   -18387   -17766   -17945   -19129 
  -21130   -23313   -24675   -24340   -22165   -18895   -15813   -14084 
  -14327   -16582   -20119   -23442   -25099   -24606   -22527   -19963 
  -18010   -17328   -18033   -19681   -21297   -21945   -21455   -20389 
  -19519   -19302   -19782   -20758   -21709   -21944   -21169   -19687 
  -18122   -17132   -17239   -18611   -20821   -22948   -24020   -23517 
  -21647   -19183   -17008   -15831   -16114   -17937   -20734   -23313 
  -24503   -23958   -22176   -19969   -18069   -17023   -17138   -18308 
  -19851   -20900   -21115   -20807   -20406   -20212   -20429   -20942 
  -21257   -20899   -19849   -18662   -18056   -18318   -19345   -20842 
  -22212   -22747   -22026   -20212   -18150   -16831   -16767   -17909 
  -19822   -21832   -23170   -23301   -22304   -20916   -19997   -19880 
  -20325   -20860   -21035   -20556   -19333   -17709   -16518   -16551 
  -18004   -20387   -22736   -24001   -23521   -21514   -18986   -17012 
  -16379   -17533   -20197   -23205   -25057   -24769   -22578   -19712 
  -17346   -16170   -16681   -18951   -21976   -24075   -24081   -22015 
  -18986   -16463   -15398   -16144   -18634   -21988   -24661   -25442 
  -24128   -21363   -18118   -15376   -14029   -14439   -16244   -18823 
  -21556   -23693   -24533   -23943   -22468   -20779   -19225   -18049 
  -17616   -18108   -19282   -20783   -22283   -23244   -23159   -22006 
  -20306   -18846   -18188   -18459   -19542   -21115   -22545   -23072 
  -22277   -20471   -18562   -17313   -16915   -17300   -18288   -19541 
  -20713   -21532   -21747   -21270   -20358   -19539   -19237   -19531 
  -20243   -21046   -21625   -21762   -21284   -20244   -19045   -18219 
  -18160   -18855   -19885   -20850   -21420   -21177   -20093   -18864 
  -18376   -18979   -20340   -21748   -22489   -22091   -20552   -18535 
  -17146   -17271   -19005   -21505   -23498   -24100   -23110   -20869 
  -18245   -16375   -16023   -17200   -19322   -21564   -23225   -23811 
  -23021   -21069   -18867   -17433   -17189   -17957   -19417   -21251 
  -22860   -23454   -22670   -20931   -19133   -18044   -17986   -18932 
  -20491   -21910   -22469   -21878   -20293   -18388   -17223   -17533 
  -19130   -21131   -22594   -22889   -21789   -19657   -17393   -15974 
  -15992   -17493   -19916   -22215   -23417   -23141   -21695   -19838 
  -18364   -17829   -18439   -19784   -21046   -21690   -21705   -21348 
  -20823   -20294   -20038   -20235   -20709   -21033   -20850   -20113 
  -19057   -18057   -17474   -17517   -18235   -19612   -21483   -23291 
  -24148   -23517   -21705   -19553   -17848   -17089   -17566   -19165 
  -21101   -22411   -22705   -22117   -20837   -19130   -17589   -16933 
  -17487   -18868   -20279   -21168   -21485   -21358   -20918   -20582 
  -20862   -21702   -22491   -22696   -22060   -20586   -18747   -17332 
  -16877   -17466   -18837   -20386   -21429   -21672   -21239   -20448 
  -19680   -19255   -19325   -19804   -20397   -20858   -21122   -21115 
  -20707   -19971   -19259   -18848   -18805   -19063   -19372   -19403 
  -19098   -18750   -18820   -19630   -21038   -22504   -23445   -23419 
  -22192   -19961   -17582   -16205   -16460   -18166   -20615   -22909 
  -24196   -23913   -22122   -19596   -17432   -16540   -17269   -19205 
  -21432   -23059   -23522   -22719   -21141   -19608   -18696   -18569 
  -19184   -20310   -21485   -22153   -21979   -21072   -19743   -18257 
  -16977   -16329   -16530   -17599   -19354   -21290   -22777   -23342 
  -22756   -21138   -19048   -17285   -16606   -17437   -19407   -21524 
  -22987   -23446   -22747   -21020   -18941   -17525   -17467   -18655 
  -20368   -21883   -22736   -22600   -21442   -19719   -18149   -17388 
  -17683   -18715   -19961   -21037   -21624   -21456   -20582   -19465 
  -18728   -18841   -19843   -21228   -22431   -23211   -23400   -22723 
  -21146   -19230   -17821   -17361   -17760   -18796   -20236   -21708 
  -22712   -22852   -22135   -20985   -19826   -18779   -17905   -17452 
  -17705   -18612   -19846   -21072   -21982   -22326   -22006   -21155 
  -20112   -19184   -18580   -18495   -18900   -19368   -19549   -19550 
  -19604   -19762   -20055   -20505   -20974   -21236   -21151   -20761 
  -20268   -19889   -19761   -19939   -20360   -20883   -21300   -21324 
  -20906   -20313   -19731   -19199   -18832   -18746   -18864   -19124 
  -19610   -20183   -20480   -20506   -20622   -20922   -21111   -20937 
