Origin Time       2025/03/30 22:55:00
Lat.              41.993
Long.             142.725
Depth. (km)       55
Mag.              4.6
Station Code      TKCH05
Station Lat.      43.1211
Station Long.     143.6181
Station Height(m) 65
Record Time       2025/03/30 22:56:39
Sampling Freq(Hz) 100Hz
Duration Time(s)  120
Dir.              4
Scale Factor      7845(gal)/8223790
Max. Acc. (gal)   1.365
Last Correction   2025/03/30 22:56:39
Memo.             
[...]
   31322    31379    31317    31172    31056    31010    31035    31093 
   31122    31135    31163    31172    31178    31243    31334    31383 
   31391    31352    31249    31143    31078    31040    31040    31089 
   31126    31118    31108    31091    31078    31141    31257    31326 
   31337    31326    31305    31280    31226    31126    31044    31028 
   31071    31159    31236    31266    31290    31314    31305    31284 
   31252    31168    31075    31035    31021    31041    31139    31256 
   31307    31287    31233    31201    31224    31260    31249    31189 
   31122    31075    31035    31008    31025    31070    31135    31251 
   31394    31491    31491    31367    31182    31054    30997    30977 
   31016    31071    31074    31089    31176    31278    31357    31392 
   31333    31229    31185    31201    31230    31245    31197    31102 
   31031    30990    30971    31018    31118    31213    31294    31344 
   31356    31379    31386    31313    31217    31168    31131    31077 
   31031    31010    31021    31095    31221    31310    31325    31313 
   31299    31272    31224    31151    31078    31054    31068    31105 
   31187    31263    31251    31199    31195    31212    31216    31218 
   31194    31143    31126    31163    31206    31221    31203    31158 
   31093    31074    31136    31210    31245    31302    31368    31351 
   31255    31158    31093    31091    31167    31234    31189    31081 
   31033    31052    31106    31209    31295    31278    31220    31207 
   31230    31280    31353    31348    31222    31110    31079    31056 
   31056    31106    31133    31097    31051    31028    31071    31205 
   31340    31403    31413    31360    31268    31233    31225    31163 
   31105    31108    31109    31105    31136    31162    31149    31128 
   31085    31045    31106    31236    31315    31340    31359    31364 
   31340    31288    31212    31128    31074    31051    31036    31041 
   31082    31131    31182    31252    31288    31261    31224    31210 
   31214    31251    31294    31248    31136    31086    31121    31151 
   31148    31145    31137    31128    31149    31202    31256    31290 
   31286    31230    31164    31151    31190    31220    31220    31198 
   31143    31086    31070    31074    31108    31191    31256    31236 
   31207    31260    31359    31410    31374    31264    31121    31018 
   31012    31064    31077    31025    30983    31024    31153    31321 
   31428    31428    31374    31305    31216    31128    31079    31105 
   31185    31229    31186    31094    31025    31056    31172    31244 
   31224    31198    31197    31201    31230    31264    31252    31214 
   31185    31153    31129    31133    31144    31139    31124    31094 
   31063    31077    31148    31236    31324    31395    31387    31291 
   31187    31136    31144    31201    31241    31194    31105    31078 
   31124    31178    31193    31171    31133    31101    31094    31128 
   31172    31199    31233    31276    31291    31309    31367    31405 
   31379    31286    31117    30943    30871    30908    31004    31090 
   31101    31097    31207    31384    31463    31405    31302    31249 
   31282    31322    31267    31126    30989    30925    30963    31079 
   31205    31264    31247    31220    31221    31222    31212    31185 
   31120    31083    31167    31294    31344    31352    31324    31202 
   31085    31094    31156    31180    31182    31145    31066    31031 
   31083    31145    31180    31226    31260    31248    31239    31261 
   31279    31280    31261    31193    31121    31121    31151    31129 
   31071    31039    31055    31117    31198    31257    31282    31291 
   31318    31361    31375    31341    31274    31159    31023    30956 
   30986    31070    31174    31259    31280    31249    31210    31187 
   31194    31214    31206    31147    31082    31082    31143    31229 
   31326    31383    31317    31175    31093    31093    31116    31164 
   31241    31282    31233    31143    31102    31151    31239    31284 
   31225    31101    31002    30959    30966    31044    31171    31286 
   31365    31401    31371    31330    31349    31360    31267    31104 
   30947    30866    30931    31129    31302    31326    31249    31159 
   31105    31156    31267    31287    31229    31216    31226    31209 
   31197    31178    31131    31113    31129    31133    31153    31205 
   31228    31197    31144    31117    31149    31207    31225    31212 
   31216    31253    31302    31299    31226    31164    31163    31160 
   31124    31097    31095    31105    31128    31156    31194    31232 
   31237    31209    31171    31164    31228    31318    31325    31226 
   31114    31044    31031    31093    31186    31230    31226    31214 
   31193    31147    31105    31110    31135    31128    31108    31118 
   31194    31333    31459    31476    31394    31259    31094    30974 
   30970    31040    31102    31152    31189    31185    31172    31207 
   31271    31302    31302    31290    31237    31168    31155    31162 
   31121    31091    31129    31182    31202    31190    31174    31199 
   31260    31287    31249    31187    31149    31145    31153    31152 
   31145    31139    31136    31143    31166    31220    31287    31307 
   31248    31162    31122    31144    31205    31268    31263    31178 
   31105    31090    31124    31207    31280    31274    31222    31180 
   31147    31112    31079    31070    31089    31114    31163    31241 
   31294    31310    31311    31275    31217    31209    31225    31203 
   31172    31167    31156    31129    31122    31136    31156    31197 
   31236    31225    31185    31178    31206    31236    31271    31290 
   31251    31198    31195    31209    31186    31121    31045    31017 
   31050    31112    31199    31293    31338    31333    31303    31245 
   31174    31143    31156    31136    31039    30936    30942    31064 
   31202    31294    31341    31340    31295    31243    31225    31244 
   31249    31203    31141    31087    31047    31054    31140    31266 
   31363    31379    31315    31226    31167    31128    31095    31075 
   31060    31050    31089    31164    31201    31197    31214    31239 
   31228    31224    31253    31260    31244    31259    31293    31293 
   31251    31185    31117    31070    31055    31074    31106    31124 
   31106    31087    31137    31229    31264    31249    31233    31206 
   31191    31224    31263    31280    31280    31234    31164    31147 
   31174    31174    31132    31079    31040    31052    31132    31224 
   31276    31318    31369    31382    31318    31198    31074    31009 
   31013    31043    31078    31118    31156    31198    31264    31326 
   31347    31318    31240    31120    31036    31058    31141    31194 
   31186    31135    31091    31136    31256    31340    31340    31294 
   31232    31190    31199    31202    31143    31064    31044    31082 
   31141    31216    31275    31278    31244    31213    31178    31144 
   31132    31124    31109    31105    31104    31133    31230    31325 
   31325    31256    31166    31077    31035    31059    31101    31117 
   31114    31129    31193    31306    31411    31426    31349    31256 
   31183    31132    31109    31099    31081    31063    31063    31099 
   31193    31284    31311    31317    31360    31394    31383    31352 
   31297    31187    31058    30962    30905    30894    30964    31086 
   31186    31245    31278    31272    31237    31202    31164    31131 
   31118    31098    31060    31091    31236    31386    31425    31347 
   31234    31182    31199    31199    31149    31125    31168    31213 
   31212    31194    31180    31193    31241    31275    31261    31266 
   31338    31411    31386    31288    31195    31090    30979    30923 
   30910    30923    30996    31104    31195    31297    31409    31460 
   31422    31330    31195    31063    31018    31083    31193    31303 
   31395    31415    31328    31198    31081    30954    30858    30886 
   31001    31094    31152    31214    31283    31359    31430    31438 
   31345    31207    31110    31072    31070    31110    31178    31230 
   31232    31190    31168    31218    31290    31310    31264    31158 
   31024    30962    31009    31089    31152    31203    31221    31206 
   31201    31220    31229    31186    31101    31077    31148    31228 
   31259    31280    31315    31341    31326    31260    31147    31037 
   30987    31002    31029    31051    31082    31126    31207    31342 
   31467    31500    31452    31364    31260    31166    31070    30951 
   30852    30840    30893    30975    31091    31202    31275    31363 
   31456    31468    31399    31324    31261    31216    31224    31272 
   31255    31132    30987    30883    30838    30874    30994    31151 
   31302    31440    31534    31526    31425    31336    31320    31359 
   31368    31220    30924    30693    30672    30790    30909    30990 
   31055    31109    31182    31293    31394    31452    31469    31417 
   31255    31044    30915    30900    30943    31050    31260    31515 
   31692    31723    31607    31376    31108    30861    30653    30568 
   30685    30928    31168    31392    31629    31833    31928    31896 
   31765    31548    31197    30715    30253    30010    30068    30357 
   30723    31056    31367    31675    31932    32092    32138    32073 
   31911    31652    31302    30920    30597    30366    30188    30090 
   30177    30500    31013    31583    32035    32275    32335    32259 
   32065    31772    31411    31010    30603    30241    29957    29816 
   29937    30318    30774    31176    31529    31810    32026    32265 
   32482    32489    32189    31661    31087    30666    30446    30321 
   30258    30321    30514    30815    31187    31499    31637    31660 
   31621    31460    31205    31000    30940    31045    31257    31425 
   31456    31417    31376    31297    31160    31021    30874    30721 
   30677    30762    30861    30974    31201    31472    31710    31945 
   32115    32088    31888    31604    31256    30885    30549    30256 
   30044    30014    30202    30489    30723    30892    31082    31363 
   31764    32205    32509    32571    32417    32112    31704    31230 
   30770    30458    30357    30429    30586    30704    30738    30786 
   30920    31132    31415    31702    31824    31715    31492    31297 
   31180    31124    31071    30998    30943    30932    30924    30855 
   30789    30924    31321    31760    31976    31846    31446    31059 
   30909    30946    31017    31063    31085    31108    31156    31178 
   31114    31068    31153    31270    31263    31124    30894    30672 
   30663    30960    31379    31695    31820    31760    31634    31615 
   31662    31526    31078    30504    30156    30285    30842    31468 
   31785    31715    31475    31282    31203    31233    31321    31367 
   31291    31067    30740    30484    30462    30622    30800    30947 
   31106    31321    31598    31873    32024    32012    31915    31708 
   31306    30823    30437    30219    30225    30473    30861    31268 
   31675    32035    32240    32213    31985    31646    31257    30861 
   30519    30264    30092    30046    30184    30538    31074    31633 
   32012    32138    32092    31981    31806    31548    31307    31163 
   31043    30878    30640    30323    30094    30176    30550    31021 
   31469    31828    32026    32066    32005    31806    31440    31051 
   30813    30778    30874    31010    31105    31098    31048    31056 
   31099    31141    31221    31317    31369    31376    31322    31210 
   31109    31037    30979    30966    30986    31000    31040    31166 
   31401    31681    31828    31668    31251    30870    30778    30924 
   31064    31078    31005    30915    30896    31039    31264    31418 
   31480    31487    31432    31376    31390    31375    31240    31086 
   31012    30993    31004    31005    30955    30962    31139    31379 
   31492    31407    31224    31126    31191    31303    31309    31199 
   31137    31251    31475    31607    31536    31306    31027    30770 
   30549    30396    30396    30570    30871    31247    31584    31777 
   31824    31726    31502    31283    31166    31117    31112    31172 
   31294    31432    31521    31507    31392    31248    31110    30916 
   30609    30300    30206    30464    31014    31623    32049    32196 
   32166    32096    31959    31646    31190    30721    30308    29998 
   29890    30041    30372    30788    31234    31649    31982    32243 
   32410    32367    31993    31368    30777    30427    30308    30361 
   30555    30823    31075    31259    31359    31391    31409    31455 
   31500    31465    31306    31077    30893    30846    30931    31064 
   31139    31074    30932    30897    31058    31340    31622    31799 
   31827    31768    31698    31580    31369    31167    31060    30952 
   30728    30469    30329    30346    30507    30829    31240    31591 
   31812    31887    31797    31600    31406    31282    31193    31081 
   30971    30932    30956    30979    30939    30824    30736    30796 
   31018    31359    31737    31990    32036    31936    31719    31398 
   31072    30782    30495    30244    30099    30110    30368    30923 
   31633    32242    32560    32526    32185    31676    31155    30689 
   30294    30021    29938    30075    30407    30898    31490    32069 
   32481    32617    32470    32078    31521    30939    30519    30315 
   30234    30244    30402    30672    30977    31333    31727    31978 
   31959    31780    31598    31436    31290    31198    31152    31137 
   31182    31252    31241    31102    30916    30782    30739    30793 
   30936    31120    31275    31360    31378    31337    31256    31162 
   31075    31002    30971    31025    31145    31264    31356    31387 
   31330    31241    31168    31056    30881    30738    30757    30986 
   31383    31810    32089    32165    32115    31978    31703    31279 
   30778    30311    30032    30046    30323    30734    31151    31500 
   31753    31869    31828    31672    31421    31099    30844    30784 
   30842    30854    30790    30728    30723    30809    31036    31353 
   31573    31598    31513    31426    31401    31457    31502    31390 
   31143    30951    30951    31121    31320    31363    31197    30975 
   30909    31058    31325    31561    31657    31587    31432    31299 
   31193    31060    30862    30604    30385    30362    30580    30916 
   31202    31337    31352    31369    31430    31491    31503    31437 
   31322    31229    31212    31303    31496    31689    31730    31544 
   31171    30750    30427    30260    30252    30430    30785    31210 
   31581    31835    31957    31976    31926    31793    31568    31297 
   31082    30943    30807    30677    30657    30812    31125    31483 
   31657    31523    31225    31012    30997    31091    31094    30906 
   30650    30535    30651    30947    31309    31612    31780    31801 
   31706    31523    31313    31145    31024    30897    30762    30676 
   30697    30882    31229    31617    31889    31997    31969    31808 
   31519    31207    30989    30855    30717    30551    30411    30385 
   30541    30875    31301    31660    31842    31892    31895    31855 
   31764    31608    31342    30959    30578    30342    30295    30376 
   30505    30678    30933    31280    31695    32096    32351    32360 
   32138    31777    31360    30948    30585    30311    30179    30186 
   30267    30415    30653    30910    31108    31261    31417    31598 
   31807    31968    31977    31857    31730    31638    31523    31345 
   31122    30896    30707    30608    30616    30677    30747    30847 
   30997    31193    31423    31604    31619    31469    31282    31166 
   31149    31212    31275    31241    31156    31164    31263    31298 
   31221    31114    31027    30951    30888    30819    30748    30736 
   30828    31012    31234    31415    31500    31534    31618    31791 
   31974    32016    31816    31436    31037    30748    30595    30547 
   30597    30744    30902    30978    31029    31144    31259    31280 
   31236    31207    31225    31299    31413    31448    31325    31141 
   31050    31110    31293    31494    31614    31623    31549    31426 
   31280    31125    30946    30754    30620    30627    30771    30956 
   31090    31172    31257    31380    31491    31509    31421    31305 
   31216    31135    31040    30974    30986    31066    31168    31240 
   31260    31248    31251    31307    31380    31387    31297    31125 
   30923    30790    30809    30940    31097    31233    31341    31442 
   31592    31774    31835    31657    31325    31002    30798    30771 
   30875    30977    31008    30996    30997    31068    31199    31305 
   31363    31417    31463    31475    31473    31468    31414    31313 
   31203    31090    30996    30937    30862    30753    30682    30734 
   30952    31301    31596    31653    31482    31237    31050    30952 
   30925    30913    30881    30886    30987    31156    31345    31526 
   31611    31526    31357    31230    31160    31133    31148    31172 
   31178    31172    31163    31170    31225    31351    31490    31527 
   31395    31158    30946    30851    30894    31009    31077    31032 
   30955    30971    31108    31315    31498    31529    31390    31203 
   31060    30979    30967    31008    31060    31124    31205    31240 
   31206    31210    31328    31483    31567    31542    31445    31337 
   31255    31190    31124    31024    30881    30759    30742    30824 
   30944    31039    31091    31153    31299    31522    31700    31745 
   31677    31560    31421    31274    31141    31043    30993    30975 
   30964    30939    30906    30877    30829    30781    30831    31045 
   31357    31635    31779    31752    31618    31467    31324    31170 
   31005    30863    30790    30789    30812    30824    30863    30996 
   31198    31391    31537    31626    31648    31638    31617    31533 
   31371    31168    30948    30784    30747    30785    30808    30816 
   30843    30923    31063    31206    31291    31363    31471    31565 
   31596    31567    31487    31380    31288    31201    31098    31002 
   30925    30861    30859    30956    31086    31148    31129    31066 
   30998    30997    31099    31255    31392    31461    31444    31382 
   31351    31374    31383    31328    31226    31101    30983    30942 
   30983    31055    31152    31284    31391    31411    31383    31392 
   31434    31434    31351    31218    31109    31071    31116    31186 
   31199    31133    31020    30892    30815    30846    30960    31114 
   31282    31413    31460    31440    31399    31379    31387    31391 
   31345    31217    31045    30902    30807    30753    30778    30897 
   31077    31276    31426    31457    31359    31176    31024    31021 
   31143    31259    31279    31195    31083    31048    31108    31194 
   31252    31260    31218    31156    31091    31029    30983    30958 
   30974    31059    31201    31361    31522    31652    31706    31676 
   31576    31417    31229    31051    30900    30819    30843    30920 
   30982    31013    31031    31050    31051    31004    30950    30989 
