Origin Time       2025/03/30 22:55:00
Lat.              41.993
Long.             142.725
Depth. (km)       55
Mag.              4.6
Station Code      TKCH04
Station Lat.      43.1739
Station Long.     142.9176
Station Height(m) 48
Record Time       2025/03/30 22:56:35
Sampling Freq(Hz) 100Hz
Duration Time(s)  120
Dir.              3
Scale Factor      2942(gal)/8224139
Max. Acc. (gal)   0.147
Last Correction   2025/03/30 22:56:36
Memo.             
[...]
   50931    50787    50626    50526    50456    50390    50403    50495 
   50587    50683    50743    50741    50762    50805    50796    50738 
   50645    50538    50468    50463    50526    50615    50673    50685 
   50649    50610    50602    50596    50620    50661    50649    50642 
   50662    50654    50666    50696    50652    50600    50592    50557 
   50548    50611    50673    50706    50708    50660    50615    50639 
   50716    50766    50731    50657    50599    50568    50569    50581 
   50608    50665    50677    50633    50620    50626    50639    50693 
   50733    50764    50787    50719    50626    50591    50576    50580 
   50588    50568    50539    50518    50541    50611    50689    50800 
   50872    50800    50662    50581    50531    50415    50360    50507 
   50646    50672    50749    50805    50742    50719    50772    50777 
   50731    50643    50510    50402    50379    50410    50461    50557 
   50715    50877    50969    50947    50841    50731    50616    50484 
   50417    50494    50674    50784    50724    50643    50625    50584 
   50557    50635    50728    50693    50565    50492    50512    50580 
   50656    50685    50681    50689    50670    50592    50557    50630 
   50699    50676    50635    50618    50584    50576    50604    50619 
   50684    50773    50720    50589    50533    50529    50560    50637 
   50689    50726    50766    50733    50669    50662    50626    50584 
   50691    50816    50745    50589    50548    50576    50598    50633 
   50656    50677    50727    50707    50588    50507    50517    50538 
   50568    50630    50708    50808    50853    50750    50631    50634 
   50626    50553    50544    50549    50485    50473    50544    50620 
   50683    50683    50638    50664    50743    50799    50835    50766 
   50546    50394    50422    50481    50558    50712    50777    50685 
   50600    50537    50531    50700    50899    50965    50897    50707 
   50521    50463    50475    50512    50565    50635    50738    50773 
   50692    50602    50542    50588    50772    50859    50768    50703 
   50688    50619    50600    50656    50607    50504    50527    50571 
   50521    50525    50615    50669    50720    50784    50760    50711 
   50695    50616    50512    50502    50552    50626    50710    50692 
   50562    50481    50485    50487    50549    50715    50819    50784 
   50696    50660    50706    50693    50598    50638    50731    50620 
   50460    50477    50561    50614    50697    50772    50738    50657 
   50623    50610    50643    50739    50776    50766    50782    50731 
   50612    50550    50556    50626    50733    50724    50616    50556 
   50572    50627    50672    50718    50751    50699    50631    50622 
   50593    50583    50610    50579    50549    50607    50687    50684 
   50595    50514    50472    50492    50610    50727    50762    50772 
   50749    50650    50558    50544    50549    50537    50556    50581 
   50569    50587    50677    50805    50911    50886    50733    50599 
   50579    50627    50654    50622    50584    50604    50662    50685 
   50681    50669    50639    50652    50689    50660    50633    50649 
   50612    50568    50611    50700    50754    50745    50688    50585 
   50471    50472    50560    50608    50719    50820    50679    50507 
   50531    50554    50542    50603    50653    50629    50565    50535 
   50596    50696    50774    50793    50737    50658    50568    50475 
   50461    50539    50668    50754    50733    50737    50792    50764 
   50722    50714    50661    50625    50611    50519    50407    50423 
   50576    50734    50831    50861    50818    50778    50758    50681 
   50580    50523    50542    50593    50577    50519    50519    50560 
   50595    50664    50781    50830    50761    50679    50584    50463 
   50422    50480    50550    50599    50647    50712    50737    50704 
   50661    50603    50537    50496    50508    50629    50769    50795 
   50766    50780    50791    50692    50527    50495    50589    50625 
   50576    50565    50641    50751    50851    50876    50795    50703 
   50646    50576    50510    50498    50550    50607    50576    50545 
   50622    50704    50737    50727    50641    50602    50652    50665 
   50649    50641    50610    50580    50568    50566    50591    50614 
   50649    50711    50716    50654    50603    50641    50753    50746 
   50591    50527    50626    50716    50688    50602    50615    50746 
   50797    50701    50573    50475    50468    50588    50685    50642 
   50587    50633    50677    50650    50661    50712    50712    50716 
   50712    50615    50539    50587    50646    50647    50668    50660 
   50527    50488    50661    50733    50608    50571    50653    50687 
   50704    50761    50746    50656    50641    50680    50629    50535 
   50519    50552    50589    50662    50728    50760    50823    50836 
   50741    50637    50510    50414    50517    50673    50700    50650 
   50585    50564    50623    50734    50826    50870    50854    50714 
   50557    50514    50411    50309    50483    50703    50707    50693 
   50753    50710    50565    50526    50615    50660    50641    50584 
   50472    50449    50552    50626    50697    50818    50822    50684 
   50620    50610    50499    50464    50610    50730    50774    50770 
   50712    50714    50734    50622    50498    50535    50641    50681 
   50696    50727    50731    50699    50652    50610    50620    50652 
   50642    50656    50697    50691    50689    50704    50653    50591 
   50539    50467    50464    50564    50630    50589    50599    50737 
   50797    50743    50720    50646    50525    50498    50494    50519 
   50668    50750    50649    50598    50670    50697    50668    50634 
   50552    50548    50692    50772    50747    50734    50674    50599 
   50596    50575    50545    50608    50685    50703    50700    50643 
   50558    50614    50811    50927    50815    50592    50463    50431 
   50460    50599    50761    50835    50805    50661    50531    50539 
   50604    50610    50576    50591    50625    50595    50575    50614 
   50630    50657    50739    50745    50633    50537    50537    50598 
   50660    50722    50749    50699    50630    50622    50680    50699 
   50618    50549    50558    50583    50595    50627    50708    50753 
   50692    50643    50662    50683    50707    50719    50693    50670 
   50666    50664    50627    50587    50614    50618    50557    50533 
   50538    50554    50620    50738    50814    50726    50627    50666 
   50653    50587    50647    50714    50716    50757    50770    50658 
   50477    50398    50472    50550    50576    50602    50657    50718 
   50688    50612    50706    50888    50841    50614    50476    50461 
   50539    50652    50679    50660    50666    50672    50714    50778 
   50735    50620    50589    50610    50565    50502    50548    50676 
   50782    50872    50862    50695    50598    50629    50573    50480 
   50538    50626    50585    50533    50556    50620    50739    50816 
   50757    50693    50724    50718    50608    50502    50457    50446 
   50475    50514    50502    50518    50654    50796    50869    50912 
   50830    50649    50553    50521    50496    50512    50553    50622 
   50677    50681    50681    50660    50641    50685    50696    50661 
   50662    50625    50562    50588    50662    50701    50687    50656 
   50653    50637    50606    50602    50596    50612    50660    50708 
   50785    50791    50608    50454    50527    50668    50716    50700 
   50661    50592    50531    50620    50800    50830    50722    50635 
   50525    50357    50313    50437    50604    50773    50895    50868 
   50764    50710    50673    50652    50695    50670    50542    50487 
   50499    50503    50538    50565    50611    50724    50765    50764 
   50823    50830    50745    50631    50548    50527    50539    50584 
   50641    50666    50677    50635    50599    50708    50799    50751 
   50714    50665    50577    50580    50620    50564    50495    50531 
   50604    50642    50708    50795    50768    50673    50635    50615 
   50566    50523    50519    50573    50627    50643    50645    50595 
   50560    50653    50747    50738    50716    50692    50670    50714 
   50753    50730    50695    50666    50634    50595    50557    50558 
   50623    50716    50724    50614    50542    50560    50626    50739 
   50761    50654    50600    50595    50533    50517    50585    50635 
   50670    50731    50734    50672    50642    50637    50616    50620 
   50604    50527    50503    50592    50669    50633    50572    50592 
   50660    50683    50631    50554    50562    50664    50718    50696 
   50703    50734    50733    50697    50641    50645    50733    50742 
   50642    50572    50556    50548    50529    50527    50579    50662 
   50770    50849    50795    50688    50635    50619    50629    50674 
   50741    50719    50579    50484    50445    50411    50504    50666 
   50722    50733    50777    50803    50777    50719    50630    50519 
   50494    50571    50587    50542    50492    50417    50453    50604 
   50679    50701    50772    50816    50742    50627    50595    50589 
   50557    50564    50611    50620    50604    50630    50693    50772 
   50849    50853    50753    50629    50529    50463    50463    50514 
   50596    50708    50793    50803    50750    50684    50660    50661 
   50638    50603    50602    50630    50645    50647    50683    50734 
   50751    50737    50697    50629    50568    50514    50445    50425 
   50434    50457    50592    50815    50946    50889    50739    50661 
   50670    50661    50620    50592    50537    50490    50538    50606 
   50630    50681    50764    50824    50811    50722    50642    50573 
   50554    50622    50596    50521    50642    50807    50793    50701 
   50633    50584    50568    50598    50604    50606    50674    50707 
   50661    50689    50751    50724    50693    50669    50588    50518 
   50508    50550    50611    50616    50592    50618    50658    50684 
   50670    50588    50541    50603    50650    50610    50593    50637 
   50668    50707    50747    50738    50701    50647    50583    50537 
   50521    50566    50691    50778    50728    50629    50616    50660 
   50683    50687    50680    50701    50722    50653    50579    50585 
   50608    50606    50603    50604    50598    50616    50693    50737 
   50722    50751    50812    50793    50691    50569    50460    50382 
   50407    50537    50623    50666    50724    50700    50637    50656 
   50662    50633    50635    50615    50603    50641    50615    50535 
   50529    50614    50701    50755    50816    50812    50719    50696 
   50680    50548    50442    50450    50517    50591    50645    50715 
   50738    50696    50747    50797    50733    50726    50738    50627 
   50526    50545    50573    50549    50552    50615    50699    50766 
   50782    50742    50687    50662    50666    50627    50538    50483 
   50498    50568    50634    50633    50634    50706    50760    50714 
   50641    50633    50643    50608    50573    50546    50519    50576 
   50650    50611    50575    50654    50735    50733    50695    50638 
   50561    50533    50610    50738    50760    50650    50577    50588 
   50599    50610    50652    50695    50719    50720    50683    50614 
   50568    50589    50618    50602    50616    50649    50645    50660 
   50687    50680    50635    50603    50638    50627    50504    50477 
   50565    50569    50575    50677    50716    50706    50761    50814 
   50796    50746    50660    50519    50419    50421    50471    50598 
   50762    50807    50795    50836    50836    50754    50664    50568 
   50464    50430    50504    50591    50626    50647    50664    50683 
   50700    50707    50747    50751    50656    50541    50441    50387 
   50440    50575    50718    50761    50683    50626    50668    50712 
   50692    50695    50745    50708    50599    50577    50607    50587 
   50544    50537    50583    50669    50778    50841    50764    50615 
   50518    50514    50615    50703    50672    50656    50695    50676 
   50629    50593    50531    50511    50566    50626    50681    50711 
   50654    50584    50616    50728    50804    50741    50599    50552 
   50618    50662    50652    50681    50720    50635    50550    50643 
   50764    50751    50707    50668    50607    50589    50585    50565 
   50631    50703    50679    50708    50761    50665    50553    50552 
   50560    50549    50585    50670    50770    50855    50896    50868 
   50797    50697    50587    50556    50593    50600    50608    50588 
   50448    50341    50392    50495    50623    50797    50927    50977 
   50899    50673    50506    50545    50627    50591    50511    50503 
   50527    50569    50714    50877    50899    50828    50708    50538 
   50480    50583    50646    50608    50568    50553    50545    50576 
   50665    50718    50670    50635    50639    50616    50608    50634 
   50677    50751    50774    50661    50521    50495    50581    50685 
   50703    50623    50544    50515    50527    50544    50514    50475 
   50480    50539    50693    50900    51004    50942    50873    50908 
   50899    50777    50677    50620    50568    50542    50503    50467 
   50508    50589    50656    50749    50905    50990    50828    50620 
   50602    50604    50549    50552    50461    50251    50229    50402 
   50534    50618    50715    50777    50796    50807    50793    50750 
   50695    50600    50461    50382    50457    50569    50642    50773 
   50878    50815    50708    50668    50630    50608    50616    50568 
   50517    50530    50530    50527    50585    50604    50537    50511 
   50550    50598    50676    50742    50739    50760    50847    50927 
   50959    50942    50878    50797    50723    50642    50537    50467 
   50458    50444    50450    50492    50526    50591    50672    50707 
   50716    50691    50608    50521    50521    50608    50680    50668 
   50566    50458    50485    50627    50728    50773    50834    50884 
   50846    50755    50710    50674    50603    50577    50614    50685 
   50805    50831    50701    50592    50534    50461    50398    50353 
   50360    50440    50527    50596    50669    50766    50841    50827 
   50734    50650    50653    50685    50620    50514    50488    50515 
   50519    50488    50490    50587    50689    50670    50620    50699 
   50845    50872    50770    50664    50573    50487    50414    50360 
   50391    50527    50635    50669    50758    50913    51008    51008 
   50916    50724    50527    50431    50475    50589    50643    50635 
   50625    50602    50615    50726    50904    51039    51008    50878 
   50791    50724    50642    50554    50468    50437    50481    50572 
   50658    50670    50658    50680    50658    50599    50561    50510 
   50463    50475    50553    50634    50608    50499    50426    50421 
   50485    50606    50666    50654    50683    50747    50801    50824 
   50778    50674    50607    50681    50836    50870    50777    50679 
   50565    50436    50363    50333    50315    50333    50371    50488 
   50733    50913    50932    50909    50866    50787    50747    50719 
   50635    50611    50689    50701    50674    50791    50942    50936 
   50835    50707    50585    50556    50549    50468    50410    50434 
   50460    50490    50581    50653    50650    50649    50673    50664 
   50623    50600    50606    50620    50631    50679    50805    50939 
   50970    50839    50577    50367    50322    50372    50476    50630 
   50747    50757    50718    50707    50693    50615    50494    50404 
   50423    50531    50595    50558    50538    50641    50799    50909 
   50967    50981    50913    50769    50619    50583    50689    50816 
   50812    50662    50496    50406    50377    50406    50506    50643 
   50711    50689    50660    50638    50627    50666    50701    50680 
   50660    50642    50588    50561    50592    50612    50618    50641 
   50607    50477    50395    50481    50588    50596    50619    50660 
   50634    50595    50591    50627    50741    50872    50904    50846 
   50777    50719    50657    50623    50650    50716    50788    50788 
   50693    50631    50638    50595    50488    50438    50518    50652 
   50714    50733    50776    50807    50801    50785    50735    50642 
   50566    50496    50383    50318    50410    50593    50737    50769 
   50680    50531    50457    50465    50407    50279    50247    50353 
   50515    50679    50820    50943    51005    50953    50838    50718 
   50589    50503    50511    50581    50666    50739    50819    50876 
   50822    50716    50685    50699    50676    50652    50676    50715 
   50711    50685    50681    50653    50588    50572    50579    50539 
   50491    50491    50561    50700    50820    50861    50834    50760 
   50665    50575    50498    50458    50446    50436    50454    50508 
   50541    50602    50734    50780    50701    50645    50638    50638 
   50670    50753    50772    50674    50646    50727    50747    50761 
   50828    50801    50664    50545    50529    50593    50618    50615 
   50653    50653    50602    50544    50483    50504    50581    50564 
   50511    50544    50622    50695    50745    50753    50747    50723 
   50637    50519    50472    50521    50571    50579    50598    50625 
   50661    50691    50614    50530    50611    50711    50697    50708 
   50761    50765    50750    50715    50620    50504    50446    50487 
   50581    50638    50622    50596    50645    50730    50762    50743 
   50728    50711    50645    50614    50711    50835    50869    50807 
   50688    50587    50538    50525    50548    50562    50557    50623 
   50728    50761    50743    50718    50668    50599    50546    50527 
   50545    50645    50787    50807    50697    50622    50593    50587 
   50652    50726    50716    50645    50560    50519    50557    50618 
   50641    50656    50656    50610    50608    50668    50697    50712 
   50724    50674    50618    50653    50733    50737    50660    50602 
   50577    50585    50658    50710    50712    50784    50830    50697 
   50503    50402    50392    50434    50506    50588    50685    50778 
   50755    50616    50519    50523    50569    50620    50642    50635 
   50656    50679    50639    50573    50566    50589    50541    50480 
   50539    50683    50828    50919    50882    50751    50643    50589 
   50537    50506    50552    50604    50588    50598    50673    50727 
   50807    50889    50819    50720    50743    50776    50787    50804 
   50761    50665    50584    50534    50535    50577    50614    50657 
   50722    50758    50750    50722    50665    50610    50603    50629 
   50647    50615    50525    50449    50434    50440    50446    50477 
   50548    50612    50599    50552    50521    50491    50502    50537 
   50546    50604    50714    50747    50722    50742    50757    50711 
   50684    50704    50676    50572    50506    50515    50546    50612 
   50661    50631    50633    50711    50731    50676    50674    50715 
   50687    50606    50569    50576    50611    50666    50662    50625 
