Origin Time       2025/03/30 22:55:00
Lat.              41.993
Long.             142.725
Depth. (km)       55
Mag.              4.6
Station Code      TKCH08
Station Lat.      42.4865
Station Long.     143.1520
Station Height(m) 360
Record Time       2025/03/30 22:56:11
Sampling Freq(Hz) 100Hz
Duration Time(s)  120
Dir.              6
Scale Factor      7845(gal)/8223790
Max. Acc. (gal)   4.247
Last Correction   2025/03/30 22:56:11
Memo.             
[...]
  -22050   -22048   -22042   -22045   -22045   -22045   -22045   -22046 
  -22046   -22045   -22046   -22046   -22045   -22048   -22045   -22044 
  -22048   -22045   -22045   -22048   -22048   -22048   -22046   -22046 
  -22049   -22048   -22049   -22049   -22045   -22048   -22048   -22048 
  -22049   -22048   -22046   -22048   -22048   -22048   -22046   -22046 
  -22050   -22048   -22045   -22048   -22045   -22046   -22048   -22045 
  -22046   -22048   -22048   -22046   -22046   -22046   -22046   -22048 
  -22048   -22046   -22049   -22046   -22045   -22046   -22045   -22046 
  -22048   -22046   -22048   -22048   -22048   -22048   -22045   -22048 
  -22049   -22044   -22046   -22048   -22046   -22048   -22048   -22048 
  -22046   -22046   -22048   -22045   -22046   -22050   -22046   -22046 
  -22046   -22045   -22048   -22048   -22048   -22049   -22046   -22046 
  -22046   -22045   -22046   -22046   -22046   -22046   -22046   -22046 
  -22046   -22046   -22048   -22045   -22045   -22048   -22048   -22046 
  -22045   -22045   -22048   -22046   -22046   -22048   -22048   -22049 
  -22046   -22044   -22048   -22049   -22046   -22045   -22048   -22052 
  -22049   -22046   -22045   -22045   -22048   -22048   -22045   -22046 
  -22048   -22048   -22049   -22046   -22044   -22045   -22045   -22048 
  -22049   -22049   -22049   -22048   -22050   -22049   -22045   -22048 
  -22049   -22048   -22048   -22045   -22046   -22049   -22048   -22046 
  -22045   -22045   -22048   -22046   -22045   -22045   -22046   -22048 
  -22045   -22045   -22046   -22046   -22048   -22046   -22046   -22048 
  -22044   -22042   -22045   -22046   -22048   -22046   -22046   -22048 
  -22046   -22045   -22045   -22044   -22046   -22046   -22046   -22049 
  -22048   -22048   -22046   -22044   -22046   -22048   -22048   -22049 
  -22049   -22045   -22046   -22049   -22048   -22045   -22046   -22048 
  -22048   -22045   -22044   -22046   -22049   -22045   -22046   -22048 
  -22044   -22044   -22046   -22046   -22049   -22049   -22048   -22045 
  -22045   -22048   -22048   -22046   -22045   -22044   -22046   -22046 
  -22042   -22045   -22046   -22046   -22048   -22045   -22048   -22049 
  -22046   -22048   -22046   -22045   -22050   -22050   -22046   -22045 
  -22046   -22048   -22046   -22045   -22045   -22045   -22048   -22046 
  -22045   -22049   -22048   -22048   -22048   -22044   -22046   -22048 
  -22045   -22048   -22046   -22045   -22048   -22046   -22045   -22048 
  -22048   -22048   -22046   -22048   -22048   -22046   -22046   -22046 
  -22046   -22046   -22046   -22048   -22048   -22046   -22049   -22046 
  -22045   -22049   -22048   -22045   -22045   -22046   -22046   -22045 
  -22045   -22048   -22046   -22048   -22049   -22048   -22048   -22046 
  -22045   -22046   -22045   -22048   -22048   -22046   -22048   -22045 
  -22046   -22049   -22046   -22046   -22046   -22045   -22046   -22044 
  -22042   -22045   -22046   -22049   -22048   -22045   -22046   -22045 
  -22044   -22045   -22044   -22045   -22045   -22045   -22049   -22048 
  -22045   -22045   -22045   -22048   -22046   -22044   -22046   -22045 
  -22048   -22046   -22042   -22045   -22045   -22044   -22046   -22046 
  -22049   -22050   -22048   -22046   -22046   -22050   -22048   -22042 
  -22048   -22050   -22045   -22046   -22045   -22041   -22044   -22046 
  -22046   -22046   -22045   -22046   -22046   -22046   -22046   -22046 
  -22048   -22045   -22046   -22049   -22046   -22046   -22048   -22044 
  -22045   -22046   -22046   -22049   -22048   -22046   -22049   -22048 
  -22046   -22046   -22046   -22048   -22046   -22046   -22045   -22045 
  -22049   -22048   -22046   -22048   -22045   -22046   -22049   -22046 
  -22046   -22048   -22048   -22048   -22045   -22046   -22049   -22048 
  -22045   -22044   -22048   -22049   -22045   -22046   -22048   -22046 
  -22046   -22046   -22048   -22048   -22044   -22046   -22049   -22048 
  -22049   -22049   -22048   -22044   -22045   -22048   -22046   -22046 
  -22049   -22048   -22048   -22048   -22048   -22049   -22048   -22048 
  -22049   -22045   -22046   -22048   -22046   -22048   -22046   -22046 
  -22048   -22046   -22045   -22045   -22045   -22050   -22049   -22045 
  -22044   -22042   -22045   -22048   -22045   -22045   -22045   -22046 
  -22048   -22044   -22046   -22046   -22045   -22049   -22046   -22045 
  -22045   -22045   -22048   -22045   -22044   -22046   -22046   -22045 
  -22045   -22044   -22048   -22049   -22048   -22048   -22046   -22048 
  -22048   -22045   -22046   -22048   -22048   -22048   -22045   -22045 
  -22046   -22048   -22049   -22046   -22046   -22048   -22046   -22049 
  -22048   -22044   -22045   -22045   -22045   -22046   -22048   -22049 
  -22045   -22042   -22045   -22046   -22048   -22048   -22045   -22046 
  -22046   -22045   -22049   -22048   -22046   -22046   -22046   -22048 
  -22048   -22048   -22049   -22046   -22045   -22046   -22046   -22048 
  -22048   -22046   -22046   -22045   -22048   -22049   -22045   -22046 
  -22048   -22048   -22048   -22044   -22045   -22046   -22045   -22048 
  -22049   -22048   -22046   -22045   -22046   -22046   -22045   -22046 
  -22045   -22046   -22046   -22044   -22048   -22048   -22045   -22048 
  -22049   -22048   -22049   -22048   -22046   -22046   -22048   -22049 
  -22046   -22048   -22050   -22049   -22050   -22046   -22045   -22050 
  -22048   -22045   -22045   -22044   -22048   -22050   -22048   -22048 
  -22046   -22046   -22048   -22048   -22048   -22046   -22046   -22048 
  -22046   -22046   -22048   -22049   -22049   -22048   -22049   -22046 
  -22044   -22048   -22050   -22049   -22049   -22049   -22049   -22046 
  -22045   -22048   -22048   -22046   -22049   -22046   -22045   -22045 
  -22046   -22050   -22048   -22044   -22048   -22048   -22046   -22046 
  -22044   -22048   -22049   -22046   -22046   -22046   -22048   -22048 
  -22048   -22049   -22048   -22046   -22049   -22049   -22049   -22048 
  -22045   -22046   -22046   -22048   -22048   -22048   -22049   -22048 
  -22046   -22048   -22048   -22048   -22048   -22046   -22049   -22049 
  -22046   -22049   -22049   -22049   -22049   -22046   -22045   -22045 
  -22046   -22048   -22044   -22046   -22048   -22046   -22048   -22046 
  -22046   -22048   -22046   -22048   -22048   -22046   -22049   -22046 
  -22044   -22048   -22046   -22046   -22049   -22046   -22046   -22048 
  -22045   -22044   -22045   -22048   -22048   -22048   -22048   -22046 
  -22046   -22046   -22045   -22048   -22048   -22045   -22046   -22045 
  -22045   -22046   -22045   -22048   -22049   -22048   -22049   -22046 
  -22045   -22048   -22048   -22048   -22046   -22046   -22048   -22045 
  -22044   -22048   -22046   -22045   -22048   -22049   -22046   -22044 
  -22046   -22048   -22046   -22048   -22046   -22046   -22048   -22046 
  -22048   -22048   -22046   -22049   -22048   -22048   -22048   -22045 
  -22046   -22048   -22045   -22048   -22048   -22046   -22046   -22045 
  -22046   -22046   -22045   -22048   -22046   -22046   -22049   -22046 
  -22045   -22045   -22045   -22048   -22046   -22048   -22049   -22046 
  -22048   -22046   -22045   -22049   -22046   -22044   -22045   -22045 
  -22048   -22045   -22044   -22048   -22046   -22046   -22048   -22045 
  -22049   -22049   -22046   -22046   -22046   -22046   -22046   -22046 
  -22048   -22048   -22048   -22048   -22045   -22048   -22048   -22046 
  -22046   -22045   -22045   -22048   -22048   -22048   -22048   -22045 
  -22046   -22048   -22046   -22045   -22045   -22048   -22045   -22045 
  -22050   -22046   -22044   -22048   -22048   -22045   -22044   -22046 
  -22049   -22049   -22049   -22048   -22045   -22049   -22049   -22046 
  -22048   -22046   -22046   -22048   -22048   -22045   -22045   -22046 
  -22048   -22046   -22048   -22048   -22045   -22048   -22049   -22048 
  -22048   -22048   -22048   -22048   -22048   -22045   -22044   -22048 
  -22049   -22048   -22050   -22048   -22045   -22048   -22046   -22046 
  -22049   -22046   -22048   -22050   -22048   -22048   -22045   -22048 
  -22050   -22048   -22046   -22046   -22046   -22048   -22044   -22046 
  -22048   -22046   -22050   -22046   -22041   -22046   -22049   -22046 
  -22044   -22045   -22049   -22046   -22046   -22048   -22045   -22048 
  -22048   -22045   -22048   -22046   -22046   -22049   -22048   -22048 
  -22048   -22046   -22048   -22045   -22046   -22049   -22048   -22046 
  -22046   -22045   -22046   -22048   -22049   -22049   -22048   -22049 
  -22048   -22045   -22048   -22046   -22048   -22046   -22045   -22048 
  -22046   -22045   -22048   -22048   -22048   -22048   -22046   -22048 
  -22048   -22045   -22045   -22044   -22046   -22048   -22046   -22049 
  -22048   -22048   -22050   -22046   -22045   -22049   -22048   -22048 
  -22045   -22045   -22046   -22045   -22048   -22048   -22046   -22046 
  -22044   -22045   -22048   -22045   -22048   -22048   -22045   -22046 
  -22046   -22046   -22048   -22048   -22048   -22048   -22048   -22048 
  -22046   -22046   -22048   -22046   -22048   -22048   -22045   -22049 
  -22049   -22048   -22048   -22046   -22046   -22046   -22045   -22046 
  -22045   -22046   -22048   -22046   -22046   -22045   -22046   -22048 
  -22046   -22048   -22048   -22045   -22045   -22042   -22036   -22022 
  -21990   -21942   -21894   -21863   -21874   -21941   -22050   -22156 
  -22206   -22165   -22044   -21956   -22032   -22229   -22343   -22184 
  -21786   -21438   -21423   -21786   -22308   -22711   -22816   -22539 
  -22042   -21833   -22169   -22561   -22337   -21482   -20667   -20709 
  -21840   -23213   -23661   -23058   -22175   -21570   -21406   -21732 
  -22257   -22438   -22110   -21649   -21450   -21666   -22299   -22967 
  -22967   -22145   -21293   -21249   -22011   -22928   -23148   -22214 
  -20902   -20617   -21516   -22480   -22638   -21930   -21041   -21069 
  -22216   -23170   -22925   -22127   -21851   -22285   -22709   -22304 
  -21238   -20636   -21168   -22141   -22550   -22377   -22218   -22381 
  -22642   -22470   -21701   -21045   -21435   -22488   -22836   -22146 
  -21315   -21298   -22396   -23620   -23386   -21667   -20366   -20915 
  -22546   -23446   -22783   -21392   -20976   -22103   -23228   -22936 
  -21911   -21331   -21348   -21805   -22503   -22897   -22592   -21853 
  -21331   -21347   -21595   -21736   -21886   -22169   -22308   -22206 
  -22268   -22561   -22480   -21735   -20942   -21118   -22366   -23226 
  -22527   -21208   -20768   -21442   -22576   -23282   -23022   -22122 
  -21411   -21471   -22056   -22347   -22034   -21779   -22230   -22869 
  -22581   -21455   -21022   -22158   -23762   -23959   -22102   -19712 
  -19221   -21381   -24237   -25069   -23166   -20285   -19003   -20695 
  -23818   -24914   -22566   -19350   -18886   -21728   -24746   -24615 
  -21591   -19241   -20259   -23441   -25336   -24031   -20974   -19318 
  -20375   -22385   -23029   -22225   -21648   -22032   -22515   -22256 
  -21568   -21733   -23180   -24151   -22778   -20086   -19059   -20939 
  -24008   -25288   -23024   -19202   -18181   -21220   -24962   -25764 
  -23245   -20128   -19599   -21976   -24185   -23406   -20575   -19252 
  -21219   -24217   -24791   -22458   -19962   -20015   -22458   -24522 
  -23849   -21151   -19421   -20556   -23248   -24358   -22527   -19888 
  -19353   -21331   -23830   -24598   -22967   -20610   -20193   -22300 
  -24513   -24254   -21652   -19140   -18959   -21332   -24131   -24624 
  -22577   -20252   -19469   -20694   -23322   -25338   -24953   -22747 
  -20451   -19381   -20661   -23637   -25095   -23198   -19869   -18134 
  -19418   -22651   -25116   -25158   -23298   -20872   -19496   -20576 
  -23228   -24626   -23296   -20505   -18800   -19683   -22423   -24877 
  -24985   -22603   -20294   -20398   -21874   -22443   -22103   -21949 
  -22064   -22268   -22410   -21878   -20800   -20545   -21748   -23267 
  -23816   -23089   -21681   -20969   -21767   -23120   -23356   -21978 
  -20306   -20150   -21874   -23939   -24291   -22430   -20158   -19772 
  -21784   -24568   -25396   -22734   -18724   -17759   -21240   -25392 
  -25677   -22087   -18715   -19003   -22360   -25209   -24915   -22153 
  -19662   -19612   -21762   -23591   -23268   -22011   -21689   -22056 
  -22122   -21789   -21486   -21635   -22258   -22762   -22572   -22134 
  -22277   -22727   -22446   -21093   -19755   -20047   -22191   -24310 
  -24223   -22195   -20564   -20638   -22096   -23746   -23676   -21551 
  -20024   -20965   -22728   -23197   -22434   -21744   -22053   -22671 
  -22180   -20931   -20599   -21505   -22408   -22547   -22127   -21770 
  -22365   -23572   -23504   -21710   -20227   -20745   -22509   -23419 
  -22497   -20861   -20452   -22007   -24094   -24462   -22586   -20162 
  -19408   -21136   -23600   -24169   -22462   -20560   -20466   -21957 
  -23112   -22808   -21762   -21485   -22542   -23595   -23197   -21710 
  -20524   -20555   -21547   -22276   -22014   -21567   -21847   -22392 
  -22557   -22596   -22720   -22642   -22179   -21466   -21151   -21941 
  -23021   -22681   -21024   -19997   -20891   -23099   -24609   -23820 
  -21532   -20008   -20389   -22117   -23642   -23400   -21408   -19878 
  -21030   -23863   -24965   -22958   -20039   -19229   -21332   -24158 
  -24698   -22403   -19773   -19431   -21444   -23850   -24657   -23164 
  -20567   -19219   -20641   -23869   -25816   -24181   -20232   -18038 
  -20124   -24278   -25864   -23008   -18746   -17853   -21524   -25868 
  -26119   -21880   -17595   -17898   -22414   -25971   -24861   -21162 
  -19471   -21293   -24079   -24497   -22076   -19795   -20206   -22329 
  -23673   -23341   -22040   -20798   -20675   -21870   -22968   -22736 
  -21609   -20860   -21450   -23005   -23714   -22547   -20877   -20560 
  -21652   -22869   -23091   -22389   -21786   -21756   -21941   -22149 
  -22297   -22111   -21906   -22455   -23303   -23106   -21810   -20672 
  -20665   -21574   -22233   -22102   -21960   -22353   -22719   -22464 
  -21752   -21166   -21336   -22493   -23545   -22936   -21178   -20382 
  -21242   -22518   -23040   -22592   -21575   -21000   -21590   -22739 
  -23309   -22758   -21519   -20683   -21054   -22491   -23800   -23737 
  -22465   -21131   -20548   -21188   -22719   -23242   -21629   -19930 
  -20536   -22802   -24578   -24329   -21852   -19387   -19782   -22553 
  -24459   -23707   -21492   -20154   -21043   -23180   -24005   -22469 
  -20210   -19514   -21204   -23772   -24592   -22932   -20790   -20360 
  -21691   -23079   -23117   -21948   -20916   -21280   -22738   -23664 
  -23218   -22064   -21124   -20868   -21298   -21969   -22265   -21998 
  -21548   -21351   -21648   -22284   -22684   -22527   -22060   -21834 
  -22226   -22840   -22889   -22233   -21585   -21523   -21768   -21721 
  -21388   -21435   -22237   -23145   -23170   -22238   -21439   -21772 
  -22616   -22403   -21147   -20645   -21936   -23949   -24521   -22642 
  -20021   -19218   -20660   -22833   -23958   -23145   -21357   -20605 
  -21648   -23178   -23438   -22180   -20691   -20394   -21563   -23076 
  -23479   -22512   -21367   -21170   -21844   -22586   -22767   -22284 
  -21544   -21216   -21733   -22924   -23863   -23314   -21273   -19668 
  -20360   -22628   -23742   -22476   -20659   -20522   -22111   -23784 
  -23904   -22262   -20614   -20900   -22642   -23502   -22324   -20267 
  -19650   -21733   -24603   -24831   -21888   -18894   -19067   -22480 
  -25787   -25448   -21772   -18651   -19111   -22253   -24648   -24117 
  -21733   -20247   -21030   -22891   -23733   -22925   -21671   -21134 
  -21215   -21428   -21655   -21843   -22092   -22447   -22453   -22022 
  -21903   -22424   -23016   -23106   -22477   -21190   -20097   -20474 
  -22324   -23957   -23604   -21459   -19755   -20343   -22696   -24516 
  -23976   -21651   -20008   -20619   -22577   -23807   -23172   -21348 
  -20256   -21196   -23237   -24189   -22928   -20513   -19480   -21288 
  -24209   -25116   -22993   -19784   -18482   -20385   -23672   -25137 
  -23629   -20929   -19537   -20494   -22681   -23873   -22997   -21058 
  -20001   -20923   -22875   -23884   -23309   -22157   -21590   -22053 
  -23070   -23491   -22782   -21622   -20804   -20742   -21455   -22077 
  -21672   -20779   -20891   -22248   -23425   -23319   -22401   -21925 
  -22329   -22739   -22356   -21613   -21455   -22044   -22617   -22365 
  -21289   -20482   -21060   -22631   -23484   -22611   -21077   -20729 
  -21938   -23458   -23893   -22966   -21652   -20980   -21099   -21647 
  -22192   -22291   -21829   -21331   -21366   -21887   -22366   -22400 
  -22215   -22322   -22667   -22684   -22188   -21679   -21656   -22127 
  -22681   -22681   -21895   -21163   -21474   -22423   -22725   -22011 
  -21132   -20893   -21578   -22954   -23865   -23234   -21456   -20123 
  -20757   -22952   -24232   -22997   -20587   -19700   -21289   -23569 
  -24011   -22110   -20131   -20480   -22832   -24628   -23787   -20939 
  -19071   -20282   -23207   -24520   -22952   -20614   -20102   -21678 
  -23427   -23503   -22046   -20765   -20841   -21926   -22975   -23206 
  -22519   -21570   -21149   -21442   -22002   -22389   -22558   -22426 
  -21979   -21826   -22372   -22943   -22712   -21811   -21093   -21254 
  -22146   -22750   -22383   -21668   -21554   -22050   -22503   -22408 
  -21810   -21123   -20787   -21132   -22195   -23444   -23900   -23139 
  -21817   -20852   -20893   -21890   -22707   -22535   -22013   -21770 
  -21644   -21787   -22496   -23210   -23170   -22268   -21001   -20468 
  -21483   -23062   -23295   -21875   -20374   -20390   -21948   -23344 
  -23120   -21867   -21099   -21419   -22404   -23120   -22765   -21635 
  -20891   -21315   -22758   -24042   -23718   -21872   -20274   -20366 
  -21879   -23248   -23020   -21474   -20663   -21813   -23579   -23789 
  -21933   -19719   -19592   -22053   -24489   -24090   -21483   -19789 
  -20817   -23353   -24669   -23301   -20547   -19224   -20630   -23045 
  -23787   -22360   -20781   -20949   -22532   -23741   -23433   -22107 
  -21177   -21390   -22150   -22538   -22387   -22185   -22239   -22273 
  -22026   -21600   -21234   -21344   -22038   -22627   -22515   -21972 
  -21625   -21861   -22515   -22812   -22208   -21190   -20598   -20812 
  -21712   -22657   -23026   -22846   -22389   -21820   -21525   -21730 
  -21988   -21861   -21510   -21384   -21849   -22850   -23634   -23360 
  -22029   -20479   -19747   -20486   -22427   -24391   -25045   -23957 
  -22090   -20822   -20653   -21188   -21838   -22372   -22820   -23067 
  -22871   -22188   -21439   -21201   -21536   -21980   -22125   -22083 
  -22273   -22727   -22881   -22102   -20665   -19931   -20830   -22828 
  -24530   -24592   -22805   -20644   -19907   -20856   -22195   -22751 
  -22516   -22104   -22040   -22288   -22210   -21608   -21257   -21699 
  -22462   -22747   -22261   -21483   -21228   -21732   -22276   -22110 
  -21689   -21980   -22854   -23313   -22843   -21861   -21057   -20719 
  -20983   -21984   -23284   -23854   -23147   -21675   -20451   -20301 
  -21406   -23008   -23812   -23079   -21536   -20841   -21679   -23024 
  -23458   -22599   -21305   -20740   -21312   -22387   -22852   -22040 
  -20478   -19668   -20538   -22420   -23915   -24178   -23345   -22264 
  -21728   -21735   -21666   -21105   -20329   -20181   -21155   -22708 
