Origin Time       2025/03/30 22:55:00
Lat.              41.993
Long.             142.725
Depth. (km)       55
Mag.              4.6
Station Code      TKCH04
Station Lat.      43.1739
Station Long.     142.9176
Station Height(m) 220
Record Time       2025/03/30 22:56:35
Sampling Freq(Hz) 100Hz
Duration Time(s)  120
Dir.              5
Scale Factor      7845(gal)/8223790
Max. Acc. (gal)   0.925
Last Correction   2025/03/30 22:56:36
Memo.             
[...]
    -137      -99      -12       40       18      -40      -95      -90 
       1      153      321      413      353      171      -25     -125 
     -66      103      233      190        8     -136     -144      -51 
     101      202      145       -4     -128     -144       -9      178 
     299      322      270      201      148      112      101       81 
      -5     -136     -252     -284     -179       18      175      203 
     162      132       95       59       82      145      168      128 
      52       -6       -6       62      149      178      135       48 
     -47      -89      -40       74      184      197       85      -52 
     -87       22      193      292      261      101     -105     -210 
    -159      -17      110      163      153      118       91      102 
     126      137      137      108       22      -72     -106      -71 
       4       97      151      156      166      153       85       35 
      40       31       -4        6       70      140      198      202 
     128       37       -9      -27      -24       31      116      128 
      12     -157     -205      -36      199      313      265      129 
      -2      -40       35      157      228      198       95       -8 
     -45      -27        0       33       76      109      120       78 
     -10      -60      -22       66      162      218      216      156 
      51      -40      -81      -62       47      191      224      114 
     -40     -148     -182     -151      -51      113      292      398 
     333      147        1      -20       79      228      282      171 
     -24     -183     -228     -136       44      190      202      106 
     -49     -175     -140       24      155      190      183      168 
     176      241      292      203       -5     -178     -217     -121 
      45      148      103       -4      -48       20      172      322 
     359      236       14     -172     -229     -139       55      270 
     384      301       45     -168     -156       29      195      249 
     209      106      -22     -122     -152      -97       31      145 
     126       -1     -108      -81       64      199      229      166 
      81       55      101      152      160      129       67       10 
       0       37       95      114       63      -21      -98      -89 
      44      186      218      132      -41     -167      -94      122 
     286      283      168       54       24      102      183      137 
      27      -35      -64      -85      -79      -63       -5      148 
     297      314      206       41      -91     -109       -5      145 
     252      261      170       -8     -172     -195      -71      105 
     201      145       18      -33       29      121      147       97 
      21      -12       37      109      128      136      149      120 
      63       43       68       82       20      -74      -95      -20 
      97      193      214      184      129       55       21       29 
       9       -1       28       47       48       40       14      -10 
       0       83      184      207      168       85      -28      -60 
      22      126      201      225      160       31      -75      -89 
     -14       86      151      124       24      -41        4      120 
     213      209      109       17       20       74      114       95 
       5      -72      -60       16      101      143      108        8 
     -90     -102      -10      126      224      203       98       36 
      68      116      137      178      197      125       29      -32 
     -70      -78      -56       -5       67      109      112       85 
      48       37       49      110      207      205       89       -1 
     -10       20        4      -70     -105      -48       74      206 
     261      198       74       12       49      105      157      224 
     236      152        5     -148     -229     -197      -86       31 
     120      176      184      143       83       31       25      121 
     267      317      243      137       54       17       32       41 
     -10     -112     -214     -268     -217      -43      164      297 
     345      317      209       70      -48      -87      -16      121 
     240      251      135       -5      -67      -44        2       33 
      75      120      112       41      -44      -64       -6       60 
     130      202      211      168      145      124       62        4 
      18       66       59       -6      -59      -63      -41       17 
      93      114       95       72       59       78       78       27 
       0       45      139      209      209      162       83        8 
      -5       28       76      139      170      170      155       89 
     -21      -93      -74       -6       52      106      136       86 
     -24     -116     -129      -54       78      210      274      259 
     199      108       33        6      -31      -75      -49       54 
     171      236      228      126      -64     -217     -202      -40 
     164      295      267      113      -40      -94      -37       63 
     152      195      148       25      -72      -75       -6       94 
     199      261      232      133       28      -55     -101      -74 
      35      171      238      176       37      -51      -60      -40 
      43      210      330      287      114      -67     -132      -27 
     162      249      160        5      -93     -105      -60      -10 
      16       21       -2      -49      -37       83      207      190 
      76       40      130      270      357      290       64     -140 
    -172      -48      118      205      156        4     -175     -257 
    -143      130      407      503      346       37     -236     -301 
    -117      157      360      411      287       78     -106     -205 
    -152        0       98       97       52       36      112      225 
     233       97      -62     -118      -52      112      305      382 
     241      -55     -302     -333     -147      140      328      267 
      13     -243     -310     -135      156      396      464      315 
      68     -113     -117       33      172      193      120       17 
      -2       83      166      179      137       81       25      -36 
     -55       -4       47       64       56      -24     -152     -176 
     -54      101      205      263      274      221      135       62 
      25       68      153      162       94       47       44       64 
      74       56       27        4       -5       -9      -36      -82 
     -71       41      187      238      167       71       47       83 
     139      180      152       14     -187     -306     -207       85 
     346      364      183       13      -41        5       99      149 
     118       75       85      110      103      101      144      178 
     137       21      -86      -71       29       75       29      -44 
     -62       18      139      214      209      145       71       -2 
     -21       54      130      137       79      -36     -125      -83 
      48      178      251      234      132       -8      -81      -55 
      -1       44       72       62       48       63       63       40 
      24       14       18       48       99      170      232      248 
     197       91       -4      -33      -22       -9       -9      -35 
     -55      -20       49      106      147      195      244      248 
     195      120       58       27       20       33       67       81 
      27      -66     -102      -36       59      106       91        5 
     -76      -44       71      164      171      102       41       45 
     129      263      298      187       59       -5       -1       48 
      64        5      -98     -184     -183      -71      108      283 
     355      265       95      -47      -81        9      128      157 
     114       81       98      152      176       89     -112     -259 
    -202       13      270      433      357      102     -118     -187 
     -99       95      259      234       58     -114     -207     -186 
     -10      203      294      264      206      145       72       16 
       4       33       51       -1      -85     -109      -22      139 
     274      295      202       71       -9      -14       18       48 
      67       60       -1      -78      -54       81      210      253 
     195       83       20       74      197      270      217       55 
    -159     -311     -307     -174       13      148      132        9 
     -72        0      211      375      340      151      -47     -143 
    -129      -44      103      222      206       97       16       31 
     128      234      274      201       76       18       37       98 
     170      186      118       16      -47      -58      -60      -55 
     -32      -37      -67      -56       13      110      199      251 
     232      137       29        1       78      178      195      109 
       5      -33      -18       10       25      -25     -112     -132 
     -71       35      174      271      247      133       17      -21 
      67      245      392      378      182      -58     -216     -283 
    -292     -253     -139       47      233      356      356      197 
       5      -62        2      125      220      211      133       70 
      68      137      220      228      139        5     -101     -129 
    -114     -113     -102      -54       44      164      184       82 
     -27      -63       -2      124      225      241      153       -1 
    -110     -108       28      233      330      251      129       83 
     102      112       58      -28      -66      -12       64       82 
      43      -28      -95      -85       21      147      221      245 
     189       52      -27       55      216      302      234       55 
    -124     -189     -139      -68      -18       25       64      101 
     136      108       12      -47       17      182      349      396 
     245      -32     -260     -321     -205       18      209      230 
     122       17      -41      -43       44      171      271      333 
     314      197       54      -56      -97      -43       45      108 
     148      143       44      -78      -94       -8       68       95 
      98       94      144      244      256      160       54      -44 
    -122     -152     -129      -28      139      303      372      290 
     143       27      -48      -78      -86      -89      -47        9 
      16        0        9       32       28       -2       18      101 
     179      233      252      230      206      187      149       94 
      20      -58     -125     -155      -95       40      144      132 
      18      -87      -79       31      162      257      279      248 
     220      163       63      -13      -29      -31      -54      -54 
       4       62       68       56       45       31       59      144 
     191      140       55        4      -10       27      102      170 
     206      202      126       13      -18       55      136      190 
     203      130        4      -81     -102      -68      -12        5 
      16      103      237      319      302      221      114       10 
      -6       71      114       39     -125     -275     -279     -147 
       8      136      220      233      191      136      103       89 
      89      108      108       45      -39      -75      -31       64 
     144      155       90        5      -45      -68      -93     -122 
    -124      -66       25      120      210      271      263      164 
      45      -14      -48      -48       37      145      194      191 
     168      130       98      118      183      201      128       25 
     -28        6       95      147       97      -37     -182     -240 
    -159       20      187      290      317      275      228      213 
     186       99      -29     -136     -170     -149     -130     -117 
     -81      -28       27       91      179      282      342      310 
     198       40      -95     -128      -51       59      135      151 
     114       33      -94     -233     -283     -172       48      280 
     437      419      186     -143     -380     -429     -286      -18 
     221      315      276      164       39      -14       29      128 
     233      314      352      338      284      189       63      -27 
     -35       58      236      359      301      122      -58     -189 
    -240     -198      -98       -6       56       89       76       13 
     -93     -197     -199      -39      232      468      538      430 
     261      174      182      195      132      -35     -225     -275 
    -152        4       79       64      -10      -66        6      201 
     368      411      337      176       -5     -122     -148     -108 
     -68     -144     -360     -538     -481     -182      224      552 
     666      564      337      110        9      114      364      569 
     584      363      -47     -484     -757     -750     -492     -175 
      24       85       72       87      234      510      769      828 
     623      252     -136     -422     -568     -619     -607     -530 
    -396     -183       89      288      355      407      558      750 
     862      814      560      149     -251     -445     -353      -59 
     233      324      203       24      -78      -39       99      156 
      28     -145     -201     -124       20      145      174      102 
      -9     -135     -301     -503     -633     -567     -306       12 
     288      534      772      967     1035      927      703      442 
     182      -51     -244     -390     -483     -548     -621     -706 
    -696     -432       55      522      712      518       86     -275 
    -338      -66      371      703      756      527      162     -164 
    -332     -305     -147       39      238      480      726      855 
     760      430      -25     -379     -436     -244      -27       27 
    -159     -467     -626     -472     -105      222      375      402 
     399      437      549      645      575      299      -87     -422 
    -537     -411     -211     -144     -238     -319     -224       52 
     395      622      608      410      197      101      122      160 
     130       22     -121     -255     -325     -260      -63      147 
     275      288      168      -55     -272     -355     -271     -128 
     -55      -85     -159     -195     -155      -44      105      220 
     251      233      241      307      396      483      542      495 
     284       -8     -255     -363     -282      -66      153      278 
     271      220      261      418      568      569      369       60 
    -202     -279     -128       72       81     -143     -434     -587 
    -476     -141      236      453      417      247      110       67 
      79       72      -10     -149     -238     -144      164      529 
     738      707      483      189      -56     -182     -164      -85 
     -93     -218     -394     -545     -585     -461     -211       72 
     338      560      675      619      395       91     -140     -209 
    -152      -37       86      152      147      125       90       17 
     -72     -163     -264     -345     -355     -278     -129      110 
     411      633      653      472      198      -29     -118      -52 
     155      432      606      508      124     -338     -579     -450 
     -43      445      795      839      584      211     -116     -341 
    -403     -247       29      253      346      307      176       16 
    -113     -149      -85       18       71       -2     -167     -280 
    -233      -32      175      201        5     -252     -371     -224 
     149      535      711      610      324       24     -189     -295 
    -237       17      367      608      571      241     -209     -531 
    -550     -315      -66       43       51       32       22       35 
      25      -44     -103      -78        0       64       94      124 
     206      295      270      120       -2       36      201      322 
     301      190      108      121      213      290      299      280 
     286      288      211       43     -145     -284     -357     -367 
    -326     -194       91      440      643      554      201     -214 
    -460     -456     -279      -51      197      463      638      618 
     405       74     -183     -174       35      184       97     -162 
    -352     -290      -27      218      238       -5     -359     -598 
    -573     -297       70      355      480      487      459      434 
     386      282      149       32      -75     -197     -294     -307 
    -225      -81       89      268      425      486      391      179 
     -31     -184     -295     -333     -252      -41      279      629 
     851      791      426      -54     -403     -502     -387     -170 
      43      179      236      268      274      202       87      -21 
     -94      -67       49      168      240      260      249      257 
     290      302      234       52     -176     -368     -454     -380 
    -179       67      313      499      557      460      233      -48 
    -286     -376     -280     -105        0        5      -22      -35 
     -35       -8       72      190      253      228      160       79 
      14       22       74       66      -39     -187     -303     -302 
    -110      230      556      700      584      275      -29     -163 
     -91      125      363      459      321       10     -317     -542 
    -626     -538     -267      106      423      544      405      105 
    -139     -184      -40      187      322      271      129       78 
     167      257      187      -55     -357     -575     -569     -303 
     106      460      634      660      656      673      654      525 
     291       17     -211     -321     -334     -330     -325     -324 
    -346     -368     -329     -202      -10      211      400      441 
     310      124        6       -1       56      101       95       74 
      59       59      101      205      338      417      386      261 
     109       35       97      194      170      -33     -321     -517 
    -511     -306       -8      233      317      209        6      -93 
     -17      116      190      178      114       43        1        2 
      36       82      144      230      341      426      425      352 
     225       17     -228     -396     -402     -245       -6      210 
     309      274      195      162      218      325      357      252 
      74      -95     -210     -248     -210     -145     -149     -243 
    -333     -360     -319     -175       64      298      454      530 
     511      390      236      125       70       60       91      135 
     189      271      361      383      259       10     -233     -360 
    -360     -298     -226     -136      -16       85      102       25 
     -71      -79       29      203      352      384      275       97 
     -10       32      170      280      280      153       -9      -71 
     -28       13       12        8       28       91      191      229 
     130      -29     -137     -174     -159      -74       68      195 
     248      230      190      170      201      298      426      480 
     367       90     -251     -537     -684     -668     -508     -241 
      75      364      560      639      625      546      410      240 
