Origin Time       2025/03/30 22:55:00
Lat.              41.993
Long.             142.725
Depth. (km)       55
Mag.              4.6
Station Code      TKCH05
Station Lat.      43.1211
Station Long.     143.6181
Station Height(m) 65
Record Time       2025/03/30 22:56:39
Sampling Freq(Hz) 100Hz
Duration Time(s)  120
Dir.              6
Scale Factor      7845(gal)/8223790
Max. Acc. (gal)   0.466
Last Correction   2025/03/30 22:56:39
Memo.             
[...]
    8997     9067     9144     9173     9078     9009     9123     9224 
    9108     8965     9004     9113     9157     9161     9166     9136 
    9028     8935     9019     9227     9321     9235     9108     9040 
    9012     8982     9016     9154     9255     9197     9055     8986 
    9032     9092     9097     9113     9178     9213     9169     9082 
    8988     8908     8946     9090     9175     9186     9186     9131 
    9080     9120     9150     9074     8964     8923     8996     9135 
    9224     9192     9113     9082     9089     9108     9136     9174 
    9212     9150     8958     8853     9005     9246     9296     9124 
    8943     8920     9004     9077     9123     9180     9236     9212 
    9065     8943     9042     9228     9209     9074     9065     9096 
    9062     9085     9140     9104     9040     9040     9080     9073 
    9019     9055     9194     9239     9157     9080     9022     8986 
    9047     9169     9236     9215     9162     9132     9135     9124 
    9013     8907     9039     9275     9248     9001     8910     9062 
    9188     9166     9143     9151     9066     8932     8970     9190 
    9275     9103     8965     9007     9059     9057     9063     9092 
    9124     9135     9111     9093     9096     9094     9124     9205 
    9200     9049     8949     8985     9009     9042     9198     9319 
    9238     9081     9003     9027     9094     9138     9147     9140 
    9120     9092     9055     9069     9169     9205     9086     8959 
    8918     8905     8939     9090     9285     9335     9227     9175 
    9215     9148     9003     8962     9012     9067     9123     9159 
    9155     9113     9062     9054     9023     8938     8984     9192 
    9324     9279     9184     9130     9059     8934     8877     8973 
    9101     9148     9128     9132     9212     9234     9104     8974 
    8957     9001     9062     9123     9134     9045     8932     8981 
    9188     9306     9204     9058     9043     9032     8935     8962 
    9212     9431     9387     9158     8974     8934     8972     9046 
    9153     9215     9162     9062     8992     8997     9078     9100 
    9055     9138     9281     9256     9113     9024     9032     9086 
    9130     9181     9215     9092     8891     8858     8986     9131 
    9242     9259     9178     9092     9013     8974     9058     9171 
    9167     9081     9040     9103     9212     9255     9196     9100 
    8984     8843     8791     8918     9130     9277     9296     9177 
    9043     9053     9146     9159     9104     9069     9058     9042 
    9054     9124     9208     9225     9142     9031     9028     9105 
    9120     9086     9085     9107     9100     9034     8974     9026 
    9144     9202     9192     9184     9171     9119     9053     9026 
    9045     9063     9080     9115     9113     9043     8973     8947 
    8989     9126     9298     9342     9201     9061     9054     9089 
    9093     9099     9076     9009     8955     8935     8964     9076 
    9216     9293     9279     9196     9101     9062     9081     9123 
    9157     9158     9103     9031     9031     9050     8969     8905 
    9039     9262     9339     9225     9047     8950     8974     9018 
    9036     9128     9243     9189     9026     9004     9124     9190 
    9192     9234     9227     9094     8988     9004     9040     9051 
    9070     9093     9097     9049     8978     9022     9193     9304 
    9248     9147     9119     9111     9034     8955     9005     9130 
    9159     9085     9026     8996     8991     9076     9194     9238 
    9250     9198     9000     8850     8922     9073     9161     9193 
    9173     9093     9008     8993     9067     9170     9212     9167 
    9084     8966     8866     8916     9090     9229     9315     9359 
    9306     9165     9005     8907     8958     9136     9274     9258 
    9139     9004     8899     8891     9039     9220     9231     9132 
    9089     9051     8964     8949     9072     9231     9278     9216 
    9186     9166     9012     8849     8900     9063     9143     9151 
    9134     9063     8995     9047     9213     9312     9231     9072 
    8959     8923     8945     9032     9182     9315     9324     9184 
    9004     8959     9022     9032     9063     9182     9188     9027 
    8972     9107     9186     9128     9132     9204     9204     9169 
    9139     9055     8961     8964     9028     9073     9136     9220 
    9225     9154     9082     9040     9035     9045     9059     9078 
    9054     9018     9051     9136     9223     9247     9140     8997 
    8950     8961     9005     9086     9138     9193     9262     9193 
    9019     8958     9024     9062     9082     9234     9432     9386 
    9094     8851     8788     8868     9082     9310     9348     9181 
    8959     8849     8938     9117     9201     9219     9243     9185 
    9042     8977     9036     9109     9117     9077     9043     9051 
    9067     9084     9143     9190     9134     9065     9069     9046 
    8999     9036     9121     9215     9337     9339     9100     8861 
    8876     9042     9166     9232     9242     9170     9038     8901 
    8866     9019     9240     9316     9232     9126     9062     9032 
    9027     9018     9005     9053     9155     9204     9157     9090 
    9045     8996     8999     9092     9208     9242     9165     9057 
    9018     9035     9030     9026     9099     9205     9234     9158 
    9066     9053     9107     9124     9080     9054     9093     9124 
    9050     8949     8995     9151     9239     9204     9105     9018 
    8958     8924     8961     9077     9247     9414     9412     9162 
    8884     8820     8932     9055     9167     9274     9271     9142 
    9020     9013     9126     9221     9158     9059     9069     9093 
    9053     9047     9157     9263     9198     9058     9045     9073 
    9007     8992     9113     9150     9013     8938     9024     9123 
    9150     9146     9134     9107     9085     9073     9051     9034 
    9076     9157     9190     9130     9018     8942     8959     9072 
    9220     9286     9213     9090     9035     9063     9113     9143 
    9144     9135     9124     9120     9121     9072     8955     8926 
    9043     9154     9192     9223     9189     9059     9005     9099 
    9169     9081     8897     8827     8986     9223     9364     9381 
    9236     9019     8949     9013     9034     9027     9074     9103 
    9070     9096     9217     9263     9136     9020     9073     9189 
    9208     9155     9080     8974     8922     8993     9113     9217 
    9265     9189     9072     9030     8995     8937     8950     9028 
    9108     9200     9248     9167     9057     9078     9155     9146 
    9107     9130     9161     9154     9113     9024     8943     8969 
    9066     9104     9062     9066     9154     9209     9180     9146 
    9136     9082     9000     8982     9027     9067     9077     9073 
    9120     9220     9231     9111     9032     9067     9100     9084 
    9099     9177     9227     9185     9130     9115     9100     9046 
    8972     8951     9003     9026     8999     9054     9201     9255 
    9182     9146     9159     9104     9009     8978     9035     9155 
    9236     9185     9073     9026     9047     9077     9063     9030 
    9080     9207     9270     9207     9096     9012     8980     8993 
    9050     9162     9229     9147     9027     9009     9030     9034 
    9077     9123     9088     9039     9061     9121     9150     9111 
    9024     9007     9134     9267     9278     9240     9178     9019 
    8897     8972     9081     9054     9001     9059     9182     9228 
    9166     9116     9130     9136     9123     9116     9104     9081 
    9034     8964     8961     9043     9131     9212     9244     9107 
    8912     8903     9030     9166     9328     9409     9244     8954 
    8796     8851     9027     9194     9315     9377     9261     8973 
    8807     8883     9011     9123     9261     9329     9254     9103 
    8961     8887     8891     8955     9043     9103     9112     9107 
    9116     9165     9265     9329     9262     9121     9004     8931 
    8947     9058     9138     9140     9158     9165     9078     9038 
    9163     9275     9192     9046     9015     9030     9050     9167 
    9301     9285     9143     8982     8860     8834     8964     9189 
    9312     9231     9094     9047     9046     9015     8978     9024 
    9162     9252     9219     9170     9143     9045     8955     9019 
    9150     9180     9104     9031     9013     9045     9101     9136 
    9134     9131     9135     9101     9051     9088     9208     9232 
    9124     9049     9008     8943     8974     9134     9242     9209 
    9119     9063     9058     9051     9039     9090     9173     9189 
    9144     9096     9078     9088     9088     9058     9057     9107 
    9142     9117     9051     8996     8984     9045     9202     9339 
    9278     9088     8986     9003     9038     9031     9023     9108 
    9227     9215     9120     9080     9057     9015     9005     9062 
    9158     9196     9111     9019     9028     9036     8973     8941 
    9009     9139     9242     9200     9050     9011     9146     9269 
    9258     9185     9121     9026     8904     8901     9066     9204 
    9181     9115     9116     9128     9085     9031     9038     9105 
    9180     9197     9146     9101     9089     9062     9076     9181 
    9215     9074     8989     9070     9096     8989     8930     9004 
    9128     9200     9198     9169     9157     9147     9076     8999 
    9045     9144     9151     9115     9105     9097     9111     9128 
    9092     9027     8978     9004     9139     9235     9202     9192 
    9254     9248     9146     9039     8934     8853     8914     9082 
    9177     9159     9135     9136     9094     9027     9022     9063 
    9096     9128     9165     9148     9038     8943     9011     9163 
    9189     9086     9053     9147     9202     9115     8964     8895 
    8988     9134     9171     9132     9097     9080     9131     9238 
    9235     9096     8991     8992     9028     9086     9196     9279 
    9236     9143     9121     9104     9009     8938     8988     9077 
    9089     9045     9032     9066     9092     9115     9194     9281 
    9255     9126     9016     9032     9127     9155     9090     9050 
    9094     9150     9127     9045     8999     9024     9074     9130 
    9158     9096     9027     9081     9196     9228     9155     9069 
    9058     9092     9086     9061     9099     9148     9093     9000 
    9016     9076     9076     9093     9167     9175     9066     8982 
    9040     9215     9355     9270     8997     8847     8938     9050 
    9073     9120     9190     9177     9100     9031     9023     9128 
    9256     9234     9103     9028     9005     8993     9031     9077 
    9088     9166     9266     9196     9000     8903     8976     9135 
    9258     9288     9232     9116     9039     9035     9015     9026 
    9153     9274     9258     9136     8993     8916     8931     8982 
    9045     9116     9142     9119     9112     9143     9197     9228 
    9196     9109     9013     8959     9011     9132     9207     9181 
    9100     9009     8937     8915     8962     9045     9123     9186 
    9240     9258     9185     9031     8942     9028     9153     9161 
    9104     9072     9105     9184     9197     9103     9005     8973 
    8964     9012     9174     9306     9258     9103     8982     8943 
    8986     9069     9140     9213     9258     9205     9070     8937 
    8908     9018     9182     9279     9239     9103     8993     8962 
    8980     9040     9138     9201     9170     9081     9023     9018 
    9036     9084     9166     9202     9111     8939     8878     9012 
    9188     9271     9269     9197     9136     9146     9140     9085 
    9050     9054     9057     9020     9001     9072     9131     9112 
    9090     9067     9038     9085     9171     9163     9111     9162 
    9223     9103     8923     8927     9069     9162     9163     9100 
    9007     8984     9127     9333     9346     9103     8884     8934 
    9158     9294     9224     9119     9162     9220     9093     8915 
    8903     9012     9097     9123     9130     9161     9192     9165 
    9063     8984     9024     9109     9158     9248     9362     9317 
    9117     8941     8904     9015     9153     9155     9015     8864 
    8824     8926     9078     9215     9356     9432     9292     9027 
    8878     8888     8970     9090     9174     9162     9120     9089 
    9040     9050     9196     9324     9282     9143     9008     8919 
    8938     9046     9158     9251     9301     9258     9121     8961 
    8891     8993     9209     9364     9331     9147     8935     8804 
    8857     9069     9254     9279     9207     9123     9019     8954 
    9005     9093     9166     9225     9161     8973     8896     9028 
    9201     9251     9189     9127     9099     9057     9000     8977 
    8992     9036     9136     9271     9347     9292     9138     8988 
    8938     8996     9078     9082     9022     9022     9100     9115 
    9072     9115     9173     9108     9026     9005     8973     8955 
    9047     9207     9300     9242     9061     8851     8716     8730 
    8904     9184     9462     9586     9423     9051     8773     8777 
    8981     9201     9320     9343     9298     9167     9007     8957 
    9063     9240     9347     9308     9130     8872     8661     8653 
    8827     9013     9143     9208     9162     9065     9035     9061 
    9111     9197     9274     9285     9220     9061     8878     8897 
    9177     9456     9499     9308     9051     8896     8847     8857 
    8949     9067     9124     9181     9244     9166     8970     8907 
    9020     9105     9076     9022     9040     9193     9390     9410 
    9208     8982     8926     9020     9078     9013     8978     9101 
    9261     9275     9161     9038     8974     9008     9166     9339 
    9356     9184     8935     8754     8741     8928     9217     9363 
    9261     9101     9063     9123     9202     9247     9229     9170 
    9119     9081     9023     8986     9063     9194     9224     9069 
    8804     8722     9001     9374     9541     9541     9431     9171 
    8873     8680     8622     8739     8986     9134     9051     8919 
    8977     9163     9274     9339     9474     9559     9424     9148 
    8985     9050     9182     9153     8950     8780     8800     8938 
    9001     8974     8996     9088     9174     9242     9289     9282 
    9204     9089     9013     9011     9036     9053     9027     8972 
    9027     9262     9447     9394     9258     9180     9026     8787 
    8684     8807     9038     9217     9255     9213     9159     9063 
    8947     8920     9078     9343     9410     9151     8874     8841 
    8985     9162     9234     9147     9043     9012     8988     9005 
    9143     9313     9413     9404     9234     8970     8811     8841 
    8989     9142     9173     9023     8858     8876     9032     9175 
    9205     9103     9001     9039     9155     9267     9374     9418 
    9363     9251     9084     8900     8819     8853     8942     9092 
    9228     9197     9054     9040     9250     9460     9397     9135 
    8922     8820     8806     8865     8959     9084     9185     9167 
    9089     9093     9200     9323     9331     9201     9074     9015 
    8966     8935     8955     8977     8954     8943     8995     9063 
    9113     9155     9197     9266     9327     9282     9151     9004 
    8857     8824     8970     9143     9262     9390     9443     9294 
    9080     8999     9007     8991     8993     9109     9308     9427 
    9342     9132     8947     8861     8857     8858     8861     9001 
    9263     9366     9213     9072     9081     9116     9127     9185 
    9258     9262     9185     9047     8866     8718     8715     8877 
    9089     9212     9224     9211     9184     9128     9134     9224 
    9271     9174     8984     8835     8799     8872     9047     9258 
    9364     9281     9093     8970     8988     9113     9217     9198 
    9162     9189     9169     9074     8999     8985     9040     9139 
    9213     9225     9204     9204     9202     9088     8923     8904 
    8968     8962     8974     9035     9043     9058     9132     9134 
    9050     9035     9135     9236     9246     9154     9022     8951 
    8984     9081     9178     9236     9248     9234     9229     9232 
    9177     9093     9059     9013     8868     8768     8912     9158 
    9221     9128     9066     9104     9185     9216     9175     9108 
    9035     8996     8977     8910     8897     9067     9275     9319 
    9223     9171     9232     9211     9004     8861     8924     9013 
    9053     9135     9232     9234     9182     9200     9259     9250 
    9175     9077     8966     8905     8935     8995     9057     9131 
    9184     9162     9093     9105     9244     9360     9337     9228 
    9112     9018     8937     8883     8900     8997     9113     9147 
    9057     8943     8943     9073     9244     9317     9219     9096 
    9038     8911     8745     8773     9011     9247     9347     9315 
    9212     9119     9113     9224     9373     9397     9220     8953 
    8769     8769     8916     9096     9250     9308     9212     9076 
    9040     9065     9086     9127     9170     9167     9101     8972 
    8842     8838     8981     9147     9263     9323     9266     9109 
    9015     9099     9286     9393     9310     9070     8837     8802 
    8934     9054     9101     9103     9074     9046     9043     9096 
    9200     9248     9193     9093     8959     8846     8926     9159 
    9271     9151     8943     8838     8939     9170     9313     9298 
    9216     9107     8996     8988     9128     9296     9352     9274 
    9132     9011     8950     8955     9031     9144     9232     9251 
    9201     9111     8995     8877     8853     8923     8964     8972 
    9049     9180     9269     9278     9216     9157     9182     9232 
    9170     8997     8868     8884     8986     9105     9208     9215 
    9132     9112     9215     9306     9267     9115     8991     9013 
    9094     9069     8954     8885     8920     8996     9051     9097 
    9135     9146     9142     9128     9121     9166     9228     9227 
    9130     8985     8938     9080     9293     9397     9306     9062 
    8885     8949     9108     9159     9113     9085     9123     9154 
    9107     9049     9062     9111     9126     9067     8973     8922 
    8938     9000     9065     9096     9148     9254     9335     9309 
    9171     9004     8916     8899     8888     8930     9043     9127 
    9170     9259     9347     9312     9167     9011     8934     8961 
    9024     9057     9070     9099     9120     9065     8961     8938 
    9019     9104     9158     9242     9315     9239     9069     9009 
    9059     9065     9073     9184     9271     9211     9067     8973 
    9016     9158     9242     9217     9159     9124     9105     9051 
