Origin Time       2025/03/30 22:55:00
Lat.              41.993
Long.             142.725
Depth. (km)       55
Mag.              4.6
Station Code      TKCH08
Station Lat.      42.4865
Station Long.     143.1520
Station Height(m) 260
Record Time       2025/03/30 22:56:11
Sampling Freq(Hz) 100Hz
Duration Time(s)  120
Dir.              1
Scale Factor      2942(gal)/8224139
Max. Acc. (gal)   0.967
Last Correction   2025/03/30 22:56:11
Memo.             
[...]
  192248   192246   192245   192249   192248   192245   192246   192248 
  192244   192242   192246   192249   192249   192246   192244   192245 
  192244   192246   192249   192246   192245   192246   192245   192242 
  192244   192245   192245   192249   192250   192246   192244   192245 
  192246   192248   192249   192246   192246   192249   192246   192246 
  192248   192248   192250   192248   192244   192245   192244   192244 
  192248   192246   192245   192248   192244   192242   192246   192245 
  192246   192254   192253   192246   192246   192248   192245   192245 
  192245   192245   192248   192249   192248   192241   192235   192246 
  192250   192240   192244   192252   192246   192244   192246   192248 
  192248   192246   192244   192246   192249   192246   192245   192245 
  192244   192245   192249   192250   192249   192246   192244   192246 
  192248   192248   192246   192245   192246   192248   192246   192245 
  192245   192248   192245   192242   192242   192244   192246   192249 
  192248   192245   192245   192246   192245   192244   192244   192245 
  192246   192246   192245   192245   192248   192248   192244   192242 
  192245   192246   192248   192248   192246   192246   192245   192244 
  192244   192246   192246   192245   192245   192246   192246   192248 
  192248   192245   192244   192245   192248   192246   192245   192245 
  192246   192246   192242   192240   192244   192249   192250   192246 
  192246   192248   192244   192242   192246   192245   192244   192248 
  192248   192244   192244   192245   192246   192245   192244   192246 
  192246   192244   192244   192242   192242   192245   192245   192244 
  192248   192249   192249   192245   192244   192245   192246   192246 
  192246   192245   192246   192248   192246   192245   192246   192249 
  192246   192245   192249   192246   192245   192248   192249   192246 
  192244   192246   192249   192248   192246   192246   192245   192245 
  192248   192252   192244   192241   192246   192244   192241   192246 
  192246   192245   192246   192246   192246   192244   192242   192249 
  192246   192244   192256   192254   192238   192242   192250   192242 
  192244   192249   192245   192244   192245   192244   192246   192245 
  192242   192246   192246   192246   192249   192249   192246   192241 
  192242   192249   192248   192242   192244   192245   192246   192250 
  192246   192240   192241   192245   192246   192245   192244   192244 
  192245   192246   192245   192244   192245   192244   192242   192248 
  192246   192240   192244   192246   192241   192242   192244   192245 
  192248   192248   192242   192244   192248   192245   192242   192244 
  192244   192244   192245   192245   192245   192245   192245   192246 
  192246   192246   192248   192245   192245   192245   192242   192244 
  192246   192244   192245   192246   192245   192246   192245   192242 
  192244   192248   192248   192244   192244   192245   192245   192242 
  192244   192246   192248   192246   192246   192246   192246   192248 
  192249   192246   192246   192248   192245   192245   192248   192245 
  192242   192245   192245   192245   192245   192245   192246   192248 
  192248   192244   192240   192241   192249   192248   192245   192249 
  192249   192245   192245   192244   192244   192248   192249   192249 
  192248   192248   192248   192245   192248   192248   192244   192246 
  192246   192245   192248   192248   192246   192248   192245   192245 
  192246   192246   192246   192245   192246   192246   192244   192245 
  192248   192245   192244   192248   192246   192245   192249   192248 
  192242   192245   192245   192240   192245   192252   192246   192242 
  192248   192249   192244   192244   192248   192244   192242   192249 
  192252   192248   192244   192245   192248   192246   192246   192246 
  192248   192250   192252   192246   192238   192240   192252   192252 
  192244   192245   192245   192244   192248   192245   192245   192248 
  192245   192242   192246   192248   192245   192242   192245   192245 
  192245   192250   192253   192246   192244   192249   192246   192242 
  192244   192246   192248   192245   192244   192248   192249   192248 
  192246   192242   192244   192248   192248   192246   192244   192242 
  192248   192248   192242   192245   192248   192245   192245   192245 
  192244   192244   192248   192250   192249   192249   192246   192242 
  192246   192249   192244   192246   192252   192254   192253   192246 
  192249   192258   192261   192273   192296   192314   192326   192329 
  192316   192292   192265   192256   192257   192257   192252   192229 
  192192   192177   192214   192315   192454   192538   192468   192249 
  192034   191999   192126   192198   192137   192082   192113   192226 
  192456   192696   192696   192399   192017   191774   191775   191983 
  192211   192307   192329   192408   192441   192284   192156   192246 
  192304   192152   191997   191970   192017   192138   192312   192372 
  192254   192161   192171   192150   192134   192234   192404   192550 
  192555   192395   192283   192299   192218   192009   191856   191867 
  192046   192249   192352   192451   192616   192784   192755   192419 
  192090   191968   191917   192029   192304   192360   192173   192210 
  192524   192635   192510   192445   192229   191863   191798   192007 
  192242   192414   192487   192514   192481   192402   192223   191933 
  191936   192206   192208   192037   191971   192024   192253   192429 
  192342   192210   192226   192326   192256   192052   192091   192403 
  192651   192512   192038   191781   191984   192250   192318   192248 
  192118   192114   192284   192442   192607   192742   192608   192276 
  191963   191835   191953   192105   192253   192478   192549   192352 
  192091   192079   192410   192573   192288   191965   191736   191681 
  192145   192744   192825   192541   192262   192029   191874   192021 
  192387   192491   192288   192163   192203   192276   192337   192356 
  192337   192457   192568   192279   191866   191813   192006   192240 
  192412   192364   192157   192106   192312   192402   192164   192011 
  192187   192478   192622   192346   191816   191635   191934   192377 
  192719   192736   192348   192051   192353   192755   192608   192244 
  192117   192195   192279   192136   191901   191957   192252   192511 
  192604   192485   192215   191997   192053   192258   192296   192192 
  192086   192017   192075   192192   192281   192380   192365   192277 
  192315   192287   192154   192177   192287   192322   192256   192122 
  192130   192221   192060   191917   192133   192331   192311   192238 
  192252   192418   192472   192449   192576   192547   192350   192175 
  191814   191462   191674   192368   192802   192588   192167   191930 
  191991   192343   192597   192762   192909   192468   191764   191690 
  192041   192316   192330   192064   191894   192060   192334   192569 
  192759   192719   192404   192060   191758   191593   191845   192364 
  192707   192723   192439   192006   191826   192187   192744   192834 
  192454   192096   191817   191604   191814   192439   192834   192586 
  192115   191968   192115   192319   192445   192404   192312   192326 
  192337   192194   191934   191764   191933   192327   192584   192607 
  192427   192260   192354   192408   192202   191932   191799   192025 
  192376   192410   192271   192188   192180   192288   192399   192358 
  192194   192040   192028   192156   192195   192096   192098   192222 
  192356   192331   192105   192099   192379   192570   192559   192323 
  192122   192192   192206   192076   192055   192183   192325   192250 
  192134   192312   192511   192596   192615   192357   192082   191961 
  191818   192015   192524   192748   192642   192453   192311   192267 
  192330   192362   192082   191766   191837   192007   192033   192065 
  192237   192520   192715   192747   192596   192180   191833   191911 
  192103   192113   192144   192210   192214   192238   192268   192369 
  192526   192537   192477   192396   192171   191856   191728   191984 
  192181   191947   191862   192230   192591   192780   192713   192375 
  192229   192343   192424   192443   192222   191741   191640   192119 
  192424   192230   192084   192245   192524   192816   192816   192393 
  192041   192041   192200   192304   192191   192051   192065   192007 
  192001   192337   192673   192596   192260   192051   192150   192279 
  192121   191956   192033   192218   192420   192446   192302   192281 
  192337   192321   192300   192322   192330   192136   191794   191833 
  192269   192419   192198   192010   192030   192372   192777   192763 
  192430   192113   192038   192235   192370   192292   192235   192300 
  192392   192331   192073   191862   191897   192181   192470   192460 
  192248   192126   192156   192222   192265   192321   192331   192233 
  192127   192137   192238   192385   192511   192446   192276   192237 
  192244   192198   192233   192342   192350   192181   191897   191763 
  192075   192508   192665   192707   192518   191957   191632   191809 
  192072   192264   192396   192422   192400   192284   192144   192227 
  192342   192314   192424   192607   192538   192192   191853   191857 
  192041   192150   192311   192420   192327   192227   192208   192222 
  192238   192184   192096   192114   192312   192543   192581   192395 
  192115   191882   191760   191872   192191   192345   192331   192501 
  192724   192686   192445   192148   191862   191754   191998   192380 
  192559   192503   192323   192250   192281   192148   191995   192051 
  192215   192341   192352   192304   192279   192294   192342   192291 
  192087   191936   192019   192260   192435   192508   192600   192543 
  192234   191932   191729   191739   191987   192110   192133   192349 
  192657   192813   192720   192562   192510   192396   192206   192033 
  191809   191729   191945   192191   192330   192397   192353   192234 
  192161   192244   192499   192684   192460   192019   191918   192140 
  192230   192107   192053   192186   192318   192348   192307   192186 
  192098   192244   192489   192623   192654   192491   192211   192190 
  192329   192217   191980   192032   192245   192240   192195   192370 
  192505   192360   192094   192072   192316   192342   192103   192025 
  192048   192028   192168   192415   192480   192323   192172   192175 
  192196   192214   192331   192352   192171   192055   192181   192381 
  192254   191941   192090   192447   192298   191938   192059   192543 
  192866   192898   192670   192175   191729   191718   192082   192411 
  192441   192292   192194   192123   192026   192056   192238   192415 
  192488   192389   192226   192153   192122   192146   192233   192233 
  192172   192144   192198   192426   192709   192740   192495   192321 
  192352   192296   192065   191926   191913   191886   191959   192196 
  192429   192628   192769   192692   192402   192145   192145   192260 
  192217   192067   192033   192149   192210   192160   192157   192227 
  192316   192312   192172   192091   192123   192126   192141   192261 
  192341   192250   192127   192007   191926   192195   192624   192593 
  192181   191961   192030   192127   192164   192190   192289   192408 
  192360   192361   192564   192603   192474   192345   192071   191809 
  191799   191920   192017   192100   192218   192253   192136   192082 
  192192   192352   192510   192681   192815   192672   192275   192007 
  191918   191848   191778   191818   192125   192424   192429   192365 
  192373   192483   192709   192744   192419   192067   192022   192231 
  192381   192288   192106   191974   191849   191803   191920   192152 
  192499   192711   192518   192330   192384   192329   192244   192334 
  192338   192215   192157   192056   191909   191976   192242   192464 
  192588   192657   192553   192237   191938   191943   192222   192410 
  192403   192424   192470   192408   192310   192307   192275   192113 
  192075   192214   192223   192010   191794   191814   192069   192379 
  192565   192530   192403   192364   192380   192304   192156   192184 
  192356   192366   192237   192156   192110   192096   192176   192241 
  192196   192169   192281   192404   192383   192260   192210   192388 
  192580   192415   192042   191824   191867   192148   192420   192451 
  192391   192393   192364   192257   192153   192094   192107   192240 
  192370   192265   192087   192262   192624   192693   192443   192086 
  191866   191876   191875   191857   192084   192481   192755   192777 
  192599   192384   192345   192442   192307   191957   191884   192053 
  192103   192121   192196   192268   192343   192248   191925   191768 
  191995   192349   192554   192492   192244   192073   192105   192179 
  192171   192226   192393   192393   192130   191891   191852   191947 
  192063   192119   192149   192080   191825   191682   191839   192113 
  192369   192484   192414   192272   192199   192221   192157   192017 
  191980   191902   191766   191772   191682   191519   191887   192699 
  193241   193090   192268   191447   191339   191745   192064   192176 
  192137   191866   191474   191185   191189   191656   192387   192815 
  192581   192025   191841   192284   193137   194032   194486   194020 
  192620   191069   190385   190809   191766   192642   193156   193278 
  193167   192985   192672   192240   192117   192581   193214   193626 
  193850   193865   193772   193467   192383   190776   189645   189542 
  190641   192485   193901   194185   193633   192920   192572   192726 
  193139   193367   193052   192306   191473   190741   190521   191315 
  192697   193503   193411   193189   193264   193378   193311   193117 
  192932   192827   192774   192561   191938   191101   190613   190705 
  191162   191853   192497   192559   192198   191979   191772   191478 
  191651   192481   193195   192985   192129   191322   190652   190255 
  190610   191809   193175   193729   193209   192221   191377   191062 
  191593   192655   193360   193429   193121   192580   192102   192013 
  192287   192570   192653   192639   192564   192601   192836   192871 
  192523   191778   190880   190663   191419   192299   192423   191990 
  191629   191438   191417   191605   191787   191893   191887   191687 
  191575   192019   192954   193658   193684   193216   192696   192555 
  192645   192396   191853   191558   191639   191693   191486   191274 
  191481   192160   192802   193104   193095   192570   191756   191454 
  191751   192073   192129   191963   191768   191720   191856   192152 
  192464   192765   193037   192951   192665   192736   193027   193145 
  192824   192009   191300   191110   191351   192009   192740   193027 
  193000   193060   193167   193141   192925   192516   192156   191949 
  191832   191955   192061   191706   191116   190813   191089   191706 
  192233   192736   193180   193170   192792   192488   192346   192073 
  191617   191398   191509   191735   192098   192365   192354   192387 
  192524   192674   192982   193351   193391   192956   192288   191674 
  191235   191034   191089   191336   191567   191712   191844   191898 
  192040   192402   192723   192990   193263   193280   192877   192284 
  192055   192167   191941   191328   190925   191182   192171   193293 
  193838   193758   193314   192734   192168   191586   191238   191340 
  191452   191320   191201   191430   192230   193059   193158   192917 
  192906   192746   192304   192082   192137   192258   192358   192283 
  192280   192595   192586   191964   191405   191309   191687   192227 
  192433   192667   193175   193236   192829   192516   192407   192577 
  192905   192983   192731   192370   191965   191478   191128   191376 
  192364   193376   193585   193163   192562   191871   191251   190930 
  191020   191493   192362   193477   193749   192542   191060   190206 
  189924   190595   191906   192906   193695   194208   193857   193072 
  192514   192082   191683   191512   191705   192269   192910   193058 
  192618   192167   192007   191997   192148   192505   192731   192333 
  191608   191413   191817   192271   192693   193117   193113   192439 
  191508   190950   191099   191685   192311   192808   192747   192026 
  191479   191619   192163   192672   192697   192368   192412   192889 
  193118   192739   192025   191558   191605   191910   192234   192688 
  193116   192896   192192   191897   192153   192588   192890   192747 
  192306   191983   191812   191718   191821   191991   191910   191662 
  191479   191450   191606   191793   191929   192233   192616   192607 
  192289   192284   192712   193129   193180   192924   192586   192190 
  191687   191389   191567   191964   192403   192712   192613   192426 
  192339   192165   192194   192526   192727   192742   192882   193113 
  193106   192848   192542   192261   192145   192048   191623   191338 
  191697   192142   192206   192171   192315   192477   192327   191911 
  191605   191778   192341   192497   191998   191400   190899   190783 
  191436   192265   192651   192727   192508   192063   191828   191986 
  192357   192672   192838   192979   193035   192873   192694   192636 
  192349   191808   191625   191918   192287   192615   192852   192986 
  193037   192840   192461   192122   191860   191787   191948   192040 
  191857   191675   191732   191972   192353   192731   192940   193070 
  193087   192816   192356   192078   192172   192235   192044   192073 
  192372   192562   192532   192306   192091   191860   191501   191482 
  191961   192473   192812   192959   192940   192881   192663   192222 
  191886   191876   192038   192160   192175   192146   191982   191519 
  191188   191452   191866   192040   192154   192053   191786   191897 
  192145   192076   192180   192645   192807   192520   192168   191929 
  191848   191760   191741   192206   192862   193110   193148   193194 
  192956   192491   192223   192173   192125   192206   192505   192694 
  192495   191891   191108   190659   190938   191714   192358   192635 
  192902   193183   193036   192592   192294   192180   192167   192123 
  192007   192069   192412   192765   192758   192338   191917   191727 
  191660   191884   192437   192802   192773   192620   192450   192252 
  191976   191555   191285   191398   191677   192032   192430   192669 
  192861   193085   192991   192549   192145   191894   191740   191936 
  192573   193116   193221   192981   192357   191770   191790   192125 
  192352   192399   192343   192307   192149   191844   191705   191862 
  192148   192441   192716   192743   192622   192836   193163   193253 
  193282   193118   192755   192507   192291   192002   191883   192073 
  192188   191953   191793   191859   191862   191778   191694   191830 
  192272   192591   192596   192457   192206   191895   191589   191230 
  190998   191104   191393   191781   192234   192496   192553   192500 
  192354   192279   192264   192086   191845   191791   191735   191520 
  191511   191832   192051   192071   192280   192539   192447   192287 
  192345   192460   192646   192888   192875   192553   192169   191909 
  191840   191801   191673   191720   191884   192011   192370   192753 
  192790   192653   192456   192187   192021   192222   192643   192825 
