Origin Time       2025/03/30 22:55:00
Lat.              41.993
Long.             142.725
Depth. (km)       55
Mag.              4.6
Station Code      TKCH04
Station Lat.      43.1739
Station Long.     142.9176
Station Height(m) 220
Record Time       2025/03/30 22:56:35
Sampling Freq(Hz) 100Hz
Duration Time(s)  120
Dir.              4
Scale Factor      7845(gal)/8223790
Max. Acc. (gal)   1.148
Last Correction   2025/03/30 22:56:36
Memo.             
[...]
   15133    15241    15384    15422    15330    15202    15088    15030 
   15107    15257    15337    15300    15180    15043    14966    15002 
   15118    15225    15294    15348    15367    15348    15350    15338 
   15259    15183    15169    15232    15327    15333    15226    15099 
   15034    15060    15147    15264    15349    15317    15236    15213 
   15174    15097    15103    15198    15287    15326    15283    15165 
   15084    15125    15257    15400    15460    15387    15238    15132 
   15110    15124    15165    15241    15264    15196    15099    15013 
   15018    15172    15369    15487    15477    15369    15246    15156 
   15124    15165    15219    15230    15198    15132    15079    15074 
   15114    15203    15338    15441    15422    15306    15191    15120 
   15095    15140    15234    15304    15356    15391    15322    15176 
   15057    14968    14906    14937    15114    15372    15549    15576 
   15462    15234    15043    15013    15109    15295    15462    15446 
   15288    15109    14963    14939    15086    15338    15533    15498 
   15269    15079    15037    15117    15291    15450    15429    15248 
   15067    14978    14974    15024    15111    15215    15279    15286 
   15263    15223    15221    15279    15329    15345    15337    15267 
   15138    15045    15053    15095    15107    15145    15219    15275 
   15317    15368    15368    15286    15215    15233    15280    15294 
   15263    15182    15074    15005    15014    15106    15272    15445 
   15506    15450    15346    15190    15037    15034    15174    15326 
   15391    15357    15294    15187    15036    14978    15045    15148 
   15259    15345    15380    15350    15264    15182    15120    15093 
   15160    15269    15341    15376    15334    15161    14985    14970 
   15072    15218    15414    15550    15514    15368    15206    15066 
   14990    15001    15088    15210    15280    15248    15156    15051 
   15005    15093    15277    15449    15492    15368    15228    15191 
   15213    15265    15338    15357    15292    15179    15068    15025 
   15051    15114    15219    15327    15376    15367    15331    15275 
   15207    15149    15136    15199    15282    15267    15157    15061 
   15040    15091    15180    15249    15259    15222    15240    15318 
   15323    15272    15252    15249    15267    15280    15238    15159 
   15079    15049    15117    15252    15368    15392    15323    15246 
   15207    15164    15155    15265    15371    15340    15253    15163 
   15090    15087    15095    15121    15210    15257    15245    15255 
   15277    15291    15283    15229    15142    15076    15067    15137 
   15302    15473    15504    15417    15299    15151    15034    15047 
   15122    15183    15226    15234    15215    15196    15155    15074 
   15030    15098    15240    15407    15549    15577    15435    15160 
   14936    14929    15088    15265    15356    15304    15164    15024 
   14958    15049    15259    15417    15453    15412    15336    15225 
   15079    14971    14998    15134    15294    15456    15537    15404 
   15117    14893    14882    15083    15341    15468    15457    15353 
   15132    14933    14959    15172    15383    15469    15472    15418 
   15263    15130    15149    15237    15329    15360    15234    15067 
   14971    14910    14941    15111    15269    15318    15331    15384 
   15458    15471    15341    15142    15014    15012    15125    15288 
   15385    15345    15182    14985    14909    15043    15300    15515 
   15574    15435    15191    15022    15018    15178    15404    15492 
   15357    15101    14843    14763    14947    15232    15466    15583 
   15477    15246    15110    15117    15203    15303    15345    15298 
   15192    15134    15183    15249    15268    15222    15088    14956 
   14975    15144    15341    15466    15457    15318    15148    15052 
   15083    15219    15361    15437    15396    15225    15063    15059 
   15159    15244    15269    15267    15287    15298    15253    15192 
   15149    15141    15178    15244    15264    15161    15013    14972 
   15072    15234    15365    15400    15371    15358    15403    15453 
   15419    15286    15086    14886    14824    14963    15182    15302 
   15241    15082    15020    15145    15350    15511    15612    15635 
   15560    15435    15300    15129    14952    14871    14918    15024 
   15091    15067    15022    15082    15233    15364    15426    15426 
   15357    15277    15290    15365    15396    15329    15179    15044 
   15040    15149    15233    15245    15267    15272    15188    15105 
   15107    15147    15182    15237    15296    15306    15261    15188 
   15137    15155    15199    15198    15192    15229    15263    15256 
   15222    15206    15232    15282    15338    15348    15268    15141 
   14997    14898    14948    15106    15276    15399    15419    15360 
   15280    15205    15188    15255    15346    15396    15349    15222 
   15071    14959    14982    15115    15215    15267    15291    15267 
   15244    15237    15202    15167    15188    15283    15387    15402 
   15326    15222    15113    15078    15159    15240    15264    15263 
   15218    15155    15153    15218    15275    15271    15248    15252 
   15244    15217    15194    15124    15056    15111    15269    15434 
   15535    15498    15313    15098    15007    15068    15176    15252 
   15260    15178    15071    15022    15107    15303    15454    15489 
   15418    15277    15151    15043    14978    15043    15184    15290 
   15321    15298    15263    15221    15213    15260    15236    15124 
   15084    15144    15244    15336    15326    15229    15164    15161 
   15201    15269    15307    15277    15229    15236    15280    15237 
   15074    14931    14917    15048    15300    15552    15611    15442 
   15191    15010    14967    15074    15234    15311    15330    15353 
   15329    15290    15273    15223    15187    15232    15283    15290 
   15221    15033    14847    14852    15026    15244    15410    15439 
   15353    15272    15263    15331    15444    15488    15387    15210 
   15064    14990    15009    15102    15157    15107    15045    15066 
   15160    15303    15472    15574    15527    15369    15199    15110 
   15141    15203    15209    15148    15020    14893    14890    15045 
   15292    15500    15553    15450    15291    15202    15205    15238 
   15276    15265    15157    15047    15053    15149    15259    15348 
   15415    15427    15363    15284    15223    15151    15071    14985 
   14925    14949    15016    15095    15206    15313    15391    15419 
   15404    15392    15367    15300    15238    15213    15207    15194 
   15159    15124    15118    15130    15115    15095    15125    15169 
   15180    15201    15268    15331    15344    15340    15336    15310 
   15290    15286    15275    15237    15184    15156    15152    15144 
   15120    15049    14951    14937    15068    15277    15461    15530 
   15492    15408    15280    15179    15203    15276    15317    15337 
   15290    15157    15012    14951    15057    15279    15437    15457 
   15357    15178    15018    14966    15024    15140    15241    15310 
   15330    15259    15142    15067    15056    15134    15314    15491 
   15533    15427    15246    15101    15063    15133    15294    15439 
   15488    15466    15330    15107    14956    14886    14854    14929 
   15140    15352    15408    15336    15226    15126    15128    15267 
   15427    15515    15496    15325    15080    14959    14999    15084 
   15180    15273    15286    15203    15124    15117    15187    15294 
   15369    15372    15319    15264    15229    15215    15210    15206 
   15219    15250    15277    15245    15091    14894    14843    14978 
   15213    15441    15554    15502    15323    15142    15105    15207 
   15313    15356    15364    15311    15196    15095    15052    15071 
   15122    15153    15167    15218    15273    15260    15222    15221 
   15225    15245    15349    15473    15471    15338    15159    14987 
   14918    15010    15160    15288    15380    15390    15309    15217 
   15188    15237    15286    15271    15202    15098    15006    15002 
   15091    15256    15392    15381    15321    15276    15198    15180 
   15260    15340    15381    15364    15275    15126    14948    14841 
   14867    14980    15126    15271    15385    15457    15472    15438 
   15388    15356    15336    15280    15171    15070    15029    15051 
   15151    15273    15313    15283    15228    15156    15130    15178 
   15223    15253    15302    15327    15288    15221    15157    15078 
   15012    15043    15153    15257    15340    15419    15435    15325 
   15152    15047    15052    15113    15187    15221    15175    15117 
   15130    15245    15458    15647    15634    15429    15187    14998 
   14899    14926    15039    15142    15167    15138    15149    15213 
   15276    15311    15337    15394    15442    15403    15290    15152 
   15003    14908    14925    15039    15214    15358    15406    15419 
   15403    15315    15206    15168    15255    15395    15469    15457 
   15340    15132    14966    14929    15010    15156    15234    15178 
   15107    15114    15156    15241    15377    15456    15412    15319 
   15234    15161    15103    15064    15057    15074    15087    15093 
   15076    15083    15183    15319    15375    15358    15337    15348 
   15387    15441    15471    15357    15109    14899    14827    14877 
   15026    15217    15375    15435    15361    15238    15218    15295 
   15381    15461    15488    15388    15196    15001    14863    14854 
   14985    15198    15398    15453    15346    15190    15053    14979 
   14991    15083    15279    15499    15566    15475    15331    15155 
   14993    14964    15086    15287    15449    15473    15390    15240 
   15028    14868    14909    15107    15307    15414    15408    15322 
   15219    15151    15169    15276    15349    15318    15230    15113 
   14999    14979    15098    15314    15520    15583    15458    15241 
   15016    14851    14874    15105    15367    15522    15522    15356 
   15152    15045    15007    15024    15118    15215    15257    15271 
   15276    15279    15284    15279    15249    15218    15214    15245 
   15284    15271    15174    15059    15029    15105    15250    15410 
   15466    15392    15310    15272    15245    15261    15298    15240 
   15088    14964    14918    14926    14993    15129    15307    15462 
   15531    15471    15313    15194    15232    15400    15572    15595 
   15399    15093    14856    14747    14759    14881    15034    15122 
   15141    15179    15314    15558    15847    16021    15900    15496 
   15003    14629    14470    14501    14683    14925    15125    15325 
   15546    15685    15708    15664    15556    15384    15248    15203 
   15157    15036    14851    14650    14571    14729    15051    15431 
   15789    15970    15927    15762    15529    15218    14868    14569 
   14405    14396    14548    14850    15171    15425    15639    15784 
   15817    15757    15597    15395    15255    15137    14963    14790 
   14693    14702    14899    15326    15849    16189    16113    15622 
   14960    14509    14527    14904    15294    15437    15304    15109 
   15093    15207    15245    15124    14914    14798    14945    15310 
   15649    15757    15603    15325    15144    15167    15276    15311 
   15203    14960    14732    14725    14989    15404    15750    15839 
   15682    15442    15288    15260    15275    15226    15082    14924 
   14831    14783    14739    14673    14609    14650    14910    15384 
   15900    16267    16337    15990    15344    14762    14490    14523 
   14736    15003    15253    15473    15665    15769    15669    15407 
   15202    15159    15236    15350    15367    15219    14964    14716 
   14638    14797    15033    15155    15182    15280    15541    15888 
   16125    16090    15770    15288    14863    14665    14690    14843 
   14997    15039    14980    14935    14953    15041    15196    15354 
   15433    15456    15535    15699    15781    15634    15303    14951 
   14721    14688    14833    15064    15226    15192    15018    14890 
   14964    15291    15755    16128    16229    15975    15419    14844 
   14509    14408    14427    14497    14575    14667    14837    15152 
   15585    15997    16239    16244    16070    15836    15573    15261 
   14931    14571    14211    14022    14133    14501    14958    15325 
   15589    15800    15935    15982    15955    15877    15819    15804 
   15759    15646    15434    15074    14620    14268    14187    14400 
   14804    15233    15485    15483    15357    15261    15214    15199 
   15223    15261    15294    15317    15309    15246    15141    15048 
   14964    14858    14824    14925    15113    15391    15678    15824 
   15850    15826    15716    15506    15226    14885    14542    14316 
   14250    14372    14715    15165    15525    15703    15674    15477 
   15299    15321    15531    15777    15862    15699    15383    15039 
   14770    14720    14904    15164    15327    15327    15191    15014 
   14917    14910    14937    15053    15298    15580    15815    15893 
   15657    15102    14507    14212    14338    14793    15364    15804 
   15974    15880    15654    15473    15425    15520    15689    15796 
   15741    15484    15056    14574    14187    14017    14099    14405 
   14848    15279    15560    15692    15762    15849    16002    16144 
   16079    15688    15068    14511    14277    14431    14843    15241 
   15342    15125    14796    14548    14508    14728    15149    15618 
   15955    16013    15765    15373    15061    14945    15017    15217 
   15465    15681    15804    15769    15500    15052    14629    14403 
   14462    14774    15138    15377    15433    15309    15128    15052 
   15118    15318    15589    15785    15792    15601    15277    14939 
   14715    14647    14655    14697    14847    15122    15417    15655 
   15819    15888    15876    15803    15630    15364    15078    14828 
   14685    14671    14717    14791    14956    15291    15741    16066 
   16082    15808    15407    15082    14939    14959    15047    15053 
   14947    14866    14889    14982    15126    15295    15466    15631 
   15705    15597    15326    15010    14759    14656    14736    14887 
   14948    14913    14875    14883    14987    15215    15468    15620 
   15660    15658    15693    15774    15805    15681    15388    15003 
   14673    14554    14709    15033    15302    15377    15341    15295 
   15246    15271    15402    15546    15634    15608    15403    15061 
   14717    14542    14661    15014    15379    15506    15327    15057 
   14941    15082    15477    15935    16148    15989    15538    14999 
   14590    14372    14323    14438    14667    14970    15294    15514 
   15579    15518    15369    15230    15198    15267    15350    15364 
   15341    15331    15252    15080    14939    14898    14989    15215 
   15476    15637    15662    15626    15589    15537    15464    15371 
   15210    15018    14878    14808    14841    14972    15107    15241 
   15361    15369    15272    15191    15199    15267    15334    15350 
   15288    15142    14924    14721    14674    14851    15186    15523 
   15723    15722    15546    15286    15087    15063    15195    15377 
   15539    15642    15610    15363    15002    14769    14785    14985 
   15217    15369    15372    15192    14937    14806    14878    15044 
   15169    15226    15298    15418    15538    15619    15599    15412 
   15124    14887    14809    14874    14979    15021    14995    14976 
   14998    15076    15241    15454    15637    15753    15777    15700 
   15547    15367    15171    14972    14841    14829    14918    15087 
   15295    15434    15433    15306    15136    15061    15155    15303 
   15358    15294    15156    14994    14879    14909    15068    15250 
   15398    15477    15503    15535    15623    15770    15888    15842 
   15581    15144    14681    14374    14300    14494    14914    15338 
   15558    15580    15518    15439    15385    15361    15304    15157 
   14952    14762    14698    14825    15043    15226    15321    15291 
   15180    15106    15141    15234    15259    15160    15045    15047 
   15175    15367    15545    15612    15499    15296    15165    15178 
   15302    15452    15492    15357    15137    14991    15007    15138 
   15255    15267    15205    15160    15191    15291    15356    15318 
   15265    15292    15360    15398    15385    15315    15174    14999 
   14881    14883    15003    15225    15516    15773    15876    15790 
   15533    15202    14978    14912    14899    14870    14814    14733 
   14670    14697    14814    14948    15072    15236    15457    15707 
   15934    16012    15838    15504    15196    15018    14985    15057 
   15160    15215    15190    15107    15016    14916    14832    14872 
   15088    15404    15691    15817    15724    15471    15152    14866 
   14731    14808    15025    15244    15353    15302    15128    14952 
   14901    15024    15259    15483    15604    15630    15584    15444 
   15211    14983    14843    14814    14904    15114    15377    15569 
   15604    15535    15487    15473    15452    15408    15291    15087 
   14901    14804    14782    14824    14908    14974    14999    15032 
   15088    15151    15221    15307    15439    15599    15688    15670 
   15557    15387    15233    15142    15122    15160    15187    15159 
   15120    15090    15059    15068    15164    15317    15454    15491 
   15406    15272    15118    14944    14833    14879    15076    15321 
   15515    15619    15579    15356    15043    14773    14632    14715 
   15030    15419    15688    15705    15488    15210    15028    15010 
   15156    15358    15502    15570    15588    15539    15429    15290 
   15138    15012    14968    14991    14993    14924    14804    14704 
   14704    14850    15103    15363    15541    15620    15603    15538 
   15481    15456    15502    15601    15615    15448    15140    14824 
   14669    14771    15087    15422    15583    15526    15345    15169 
   15124    15217    15345    15380    15232    14958    14727    14658 
   14764    14998    15233    15363    15371    15322    15303    15340 
   15361    15350    15352    15371    15377    15372    15330    15202 
   15047    14983    15022    15109    15165    15128    15068    15088 
   15174    15286    15385    15423    15400    15330    15206    15071 
   15018    15110    15311    15503    15574    15489    15272    15067 
   15006    15070    15201    15350    15419    15346    15129    14825 
   14566    14499    14686    15048    15407    15633    15676    15552 
   15367    15259    15277    15371    15431    15403    15319    15221 
   15160    15206    15333    15446    15506    15492    15383    15196 
   14987    14809    14736    14809    14993    15190    15323    15349 
   15253    15095    14989    15021    15196    15417    15543    15546 
   15495    15471    15484    15493    15430    15256    15026    14855 
   14797    14847    14975    15109    15182    15191    15191    15233 
