Origin Time       2025/03/30 22:55:00
Lat.              41.993
Long.             142.725
Depth. (km)       55
Mag.              4.6
Station Code      TKCH08
Station Lat.      42.4865
Station Long.     143.1520
Station Height(m) 260
Record Time       2025/03/30 22:56:11
Sampling Freq(Hz) 100Hz
Duration Time(s)  120
Dir.              2
Scale Factor      2942(gal)/8224139
Max. Acc. (gal)   0.734
Last Correction   2025/03/30 22:56:11
Memo.             
[...]
   98983    98984    98983    98982    98982    98982    98982    98986 
   98984    98979    98982    98983    98979    98980    98982    98982 
   98984    98987    98980    98977    98982    98984    98982    98979 
   98977    98979    98983    98983    98979    98977    98982    98982 
   98975    98979    98982    98977    98980    98983    98980    98980 
   98980    98980    98982    98980    98979    98982    98982    98980 
   98980    98982    98980    98979    98980    98984    98984    98982 
   98976    98976    98980    98980    98980    98982    98977    98977 
   98980    98980    98983    98983    98979    98977    98980    98980 
   98979    98979    98980    98980    98982    98982    98982    98982 
   98983    98982    98977    98979    98983    98982    98982    98983 
   98980    98979    98982    98980    98980    98983    98982    98983 
   98986    98984    98979    98979    98980    98979    98979    98983 
   98984    98982    98980    98984    98983    98979    98982    98986 
   98983    98979    98980    98984    98980    98979    98983    98980 
   98977    98982    98980    98980    98982    98977    98980    98984 
   98982    98980    98983    98982    98980    98982    98983    98986 
   98984    98983    98982    98980    98982    98980    98979    98982 
   98982    98979    98979    98980    98979    98979    98983    98984 
   98984    98984    98982    98979    98982    98986    98984    98982 
   98982    98980    98979    98983    98984    98980    98983    98984 
   98979    98980    98984    98977    98977    98984    98983    98980 
   98982    98983    98980    98980    98983    98980    98982    98982 
   98980    98987    98992    98998    99015    99034    99048    99060 
   99056    99037    99013    98986    98971    98972    98977    98976 
   98959    98938    98948    98996    99064    99125    99142    99091 
   98994    98902    98844    98826    98849    98868    98851    98865 
   98975    99119    99219    99235    99125    98945    98834    98795 
   98784    98832    98915    98955    98914    98857    98905    99065 
   99172    99133    99025    98874    98757    98815    98932    98907 
   98814    98760    98788    98950    99123    99117    99069    99144 
   99187    99142    99119    99045    98887    98810    98803    98763 
   98730    98712    98772    99075    99439    99558    99432    99211 
   99000    98857    98790    98822    98930    98956    98930    99058 
   99148    99115    99250    99366    99187    98934    98753    98670 
   98848    99146    99171    98950    98882    99065    99193    99087 
   98906    98806    98856    98980    98941    98807    98837    98880 
   98779    98736    98826    98965    99125    99158    99090    99076 
   99050    99000    98895    98636    98525    98768    99046    99181 
   99108    98780    98664    98999    99287    99285    99169    99049 
   98957    98917    98959    98950    98851    98899    99011    98973 
   99041    99179    99133    99130    99162    99022    98868    98755 
   98752    98955    99123    99153    99118    99007    98914    98917 
   99042    99266    99280    99010    98811    98822    98987    99157 
   99091    99036    99131    98973    98757    98875    98946    98844 
   98793    98694    98697    98949    99094    99058    99091    99057 
   98849    98811    99004    99026    98865    98791    98783    98815 
   99038    99276    99241    99133    99092    99044    99173    99318 
   99104    98861    98840    98815    98807    98864    98914    99010 
   99162    99306    99323    99153    98937    98814    98818    98946 
   99054    99007    98913    98799    98710    98855    99007    98960 
   99002    99134    99133    99030    98942    98911    98845    98763 
   98837    98910    98767    98660    98814    99083    99260    99243 
   99150    99125    99107    99064    99057    99073    99037    98980 
   98921    98763    98621    98659    98820    99010    99023    98856 
   98929    99238    99427    99535    99536    99192    98648    98316 
   98410    98833    99180    99133    98957    98950    99036    99272 
   99490    99333    99046    98825    98579    98567    98767    98838 
   98991    99239    99057    98716    98805    99068    99345    99607 
   99435    99002    98788    98656    98524    98612    98803    98928 
   99148    99349    99281    99198    99211    99067    98782    98670 
   98794    98884    98919    98975    98871    98739    98783    98911 
   99212    99482    99339    99260    99461    99245    98691    98501 
   98595    98658    98734    98834    98999    99241    99272    99011 
   98795    98716    98709    98949    99183    99003    98842    99000 
   99064    98955    98861    98768    98852    99141    99269    99222 
   99141    98964    98867    98838    98807    98968    99058    98915 
   98841    98813    98921    99219    99220    98987    99053    99250 
   99193    98995    98845    98836    99002    99130    99133    99180 
   99219    99091    98868    98764    98790    98744    98741    99026 
   99270    99135    98977    99069    99144    99025    98847    98794 
   98959    99176    99168    99002    98901    98874    98875    98953 
   99049    98995    98875    98933    99031    98898    98744    98817 
   98910    98861    98802    98898    99087    99139    99102    99087 
   99042    99046    99069    99009    98984    98922    98695    98591 
   98707    98822    98896    98973    99126    99287    99280    99164 
   99048    98891    98685    98608    98772    99130    99505    99436 
   99038    99036    99270    99231    99048    98841    98760    98944 
   98925    98636    98691    98994    99226    99458    99458    99233 
   99037    98721    98525    98764    99018    99054    99018    98926 
   99000    99180    99034    98768    98760    98965    99283    99458 
   99276    98899    98527    98361    98551    98879    99121    99183 
   99072    99075    99206    99127    98867    98695    98690    98837 
   99015    98936    98729    98859    99156    99211    99166    99234 
   99265    99061    98799    98867    99176    99188    98860    98712 
   98932    99192    99177    99077    99173    99164    98965    98926 
   98937    98915    98975    98898    98787    98857    98820    98743 
   98929    99117    99172    99206    99130    99040    99042    98988 
   98864    98809    98883    98988    98986    98933    98842    98712 
   98768    98965    99058    99158    99175    98979    98879    98942 
   99053    99108    98884    98606    98653    98936    99172    99177 
   99040    98948    98871    98830    98896    98934    98925    98938 
   98959    99107    99289    99215    98991    98818    98771    98938 
   99175    99235    99161    99099    99041    98980    98971    98884 
   98626    98548    98809    99061    99293    99474    99254    98903 
   98790    98776    98905    99135    99175    99058    98926    98887 
   98930    98763    98535    98664    98986    99152    99080    98964 
   99103    99330    99299    99112    99036    99102    99177    99172 
   99007    98694    98525    98676    98913    98982    98923    98895 
   98907    98922    99022    99111    99018    98952    99050    99114 
   99104    99031    98882    98818    98909    99053    99057    98857 
   98732    98734    98736    98883    99165    99365    99393    99185 
   98887    98824    98984    99096    99053    98987    99056    99134 
   99007    98833    98869    99004    99003    98944    98992    99027 
   98917    98794    98861    99149    99369    99233    98909    98703 
   98675    98799    98999    99057    98925    98886    99048    99150 
   99045    98907    99003    99231    99227    99014    98868    98783 
   98815    99130    99420    99365    99073    98730    98680    99048 
   99253    99029    98801    98730    98783    99014    99154    99002 
   98764    98612    98656    98986    99346    99438    99327    99168 
   98987    98830    98767    98802    98906    98965    98948    98988 
   99053    99054    99084    99118    99152    99157    98932    98674 
   98690    98849    99010    99085    98952    98712    98639    98876 
   99215    99318    99202    99108    99069    98996    98957    98983 
   99007    99014    99031    99040    98910    98706    98633    98701 
   98915    99154    99146    98911    98636    98640    99058    99382 
   99361    99206    98955    98764    98730    98691    98788    99076 
   99219    99198    99234    99285    99316    99351    99246    98983 
   98770    98614    98408    98370    98624    98857    98977    99111 
   99173    99154    99165    99172    99169    99168    99011    98757 
   98744    98891    98830    98621    98585    98767    98911    98887 
   98859    98892    98977    99229    99535    99588    99306    98898 
   98739    98919    99095    99030    98849    98752    98802    98917 
   98964    98910    98875    98883    98852    98928    99204    99395 
   99373    99373    99424    99246    98914    98868    98983    98911 
   98851    98861    98836    98928    98990    98841    98841    99063 
   99172    99117    98987    98953    99141    99331    99291    98994 
   98724    98801    98972    98937    98817    98710    98694    98832 
   98902    98925    99181    99334    99161    99060    98959    98740 
   98701    98720    98713    98847    98923    98901    98971    99096 
   99171    99091    98888    98874    99121    99322    99324    99260 
   99223    99175    99034    98848    98748    98702    98695    98815 
   98984    99150    99273    99146    98847    98689    98756    98964 
   99150    99104    98952    98992    99162    99274    99319    99276 
   99118    98907    98772    98790    98859    98848    98748    98685 
   98761    98905    99072    99195    99130    98977    98892    98944 
   99148    99231    99073    98963    98979    98953    98821    98621 
   98505    98689    99073    99212    99029    98874    98871    98929 
   98959    98942    99071    99370    99470    99300    99135    98944 
   98743    98774    99014    99318    99450    99264    99091    99176 
   99364    99431    99281    99168    99354    99634    99711    99593 
   99291    98907    98806    98901    98729    98406    98371    98717 
   99382   100147   100453   100047    99254    98494    98159    98370 
   98609    98405    98022    97861    97923    98158    98567    98946 
   99045    98783    98316    98022    98132    98574    99198    99755 
   99928    99677    99122    98324    97640    97453    97613    97887 
   98239    98616    98999    99395    99679    99677    99342    98775 
   98255    98266    98950    99844   100302    99987    99108    98269 
   98166    98887    99580    99657    99314    98753    98323    98497 
   98955    99152    99257    99311    99023    98671    98504    98385 
   98454    98861    99505   100099   100124    99573    99056    98937 
   99168    99544    99975   100407   100550   100299    99889    99347 
   98578    97881    97744    98138    98601    98964    99254    99200 
   98752    98285    97773    97178    97081    97650    98550    99748 
  100793   100912   100307    99590    98849    98207    98095    98458 
   98678    98662    98780    99025    99304    99566    99547    99160 
   98771    98636    98633    98741    98967    99087    99181    99557 
  100051   100319   100325    99987    99300    98716    98527    98618 
   98953    99355    99449    99199    98775    98247    97920    98039 
   98327    98666    99111    99351    99320    99231    99025    98830 
   98817    98703    98460    98479    98936    99670   100273   100263 
   99817    99598    99532    99165    98695    98323    97831    97437 
   97526    97802    98027    98340    98532    98668    99157    99705 
   99929    99927    99635    99057    98662    98598    98585    98624 
   98658    98404    98178    98383    98749    99057    99353    99586 
   99877   100307   100464   100051    99391    98803    98344    97953 
   97514    97310    97650    98242    98847    99538   100192   100630 
  100820   100786   100437    99716    98869    98189    97870    98010 
   98410    98757    98949    99036    98996    98898    99108    99700 
  100210   100325   100014    99397    98806    98466    98243    98050 
   98024    98112    98230    98601    99145    99360    99126    98744 
   98452    98344    98420    98618    98859    99091    99216    99091 
   98886    98983    99343    99698    99935    99928    99665    99301 
   98751    97920    97328    97559    98401    99241    99675    99489 
   98928    98500    98329    98481    98930    99200    99112    98988 
   98857    98648    98555    98632    98890    99345    99661    99639 
   99457    99257    99238    99435    99588    99623    99540    99306 
   99141    99216    99333    99301    99080    98687    98374    98377 
   98605    98868    99107    99404    99605    99327    98529    97625 
   97162    97340    98000    99085   100265   100867   100643    99824 
   98852    98184    97984    98172    98560    99004    99424    99704 
   99970   100192    99832    98979    98381    98169    98126    98367 
   98918    99503    99922   100053    99582    98617    97945    97776 
   97823    98167    98537    98589    98691    99022    99387    99705 
   99770    99504    99203    98992    98842    98932    99289    99543 
   99333    98795    98374    98162    98085    98185    98336    98439 
   98641    99195   100063   100778   101034   100819   100230    99697 
   99620    99713    99405    98751    98227    98023    98100    98350 
   98548    98517    98265    97962    97923    98348    98972    99411 
   99535    99403    99225    99009    98527    98039    98072    98617 
   99273    99675    99724    99673    99762    99794    99534    99220 
   99162    99208    99069    98747    98375    98043    97957    98149 
   98335    98525    98786    98805    98641    98710    99015    99297 
   99365    99177    98876    98566    98307    98235    98363    98644 
   98967    99084    99050    99100    99152    99171    99311    99567 
   99748    99644    99246    98818    98643    98836    99258    99480 
   99295    98965    98729    98697    98898    99148    99380    99617 
   99700    99584    99364    99131    99050    99104    99077    98853 
   98475    98153    98101    98278    98544    98857    99150    99343 
   99414    99436    99582    99713    99478    98982    98536    98211 
   98151    98533    99106    99531    99889   100163   100048    99551 
   98923    98351    97938    97714    97819    98240    98578    98698 
   98717    98582    98390    98332    98377    98524    98832    99145 
   99327    99512    99679    99679    99678    99729    99565    99211 
   98919    98778    98906    99334    99682    99717    99620    99412 
   99037    98666    98334    97951    97707    97780    97973    98243 
   98757    99162    99126    99013    99026    99048    99141    99349 
   99666    99922    99817    99513    99322    99231    99324    99454 
   99256    98999    98871    98672    98725    99172    99489    99392 
   98953    98486    98421    98659    98842    98896    98690    98281 
   98088    98194    98406    98653    98946    99346    99725    99847 
   99778    99674    99490    99320    99370    99585    99688    99517 
   99196    98929    98807    98825    98918    98983    98809    98451 
   98358    98647    99046    99306    99337    99368    99504    99445 
   99081    98641    98401    98563    99000    99436    99654    99396 
   98810    98401    98251    98274    98509    98702    98690    98647 
   98610    98633    98797    98872    98815    98778    98664    98512 
   98539    98726    98955    99252    99516    99461    99226    99161 
   99085    98837    98680    98672    98671    98766    98963    99049 
   99034    99061    99017    98826    98694    98724    98797    98861 
   98869    98761    98675    98622    98462    98393    98695    99206 
   99567    99632    99585    99665    99769    99725    99527    99210 
   99025    99121    99204    99129    99058    99054    99040    99002 
   99056    99127    99108    99142    99218    99226    99198    99094 
   98987    99031    99157    99233    99100    98760    98558    98577 
   98690    99007    99261    99114    98971    99054    99056    99002 
   98992    98933    98911    98906    98864    98901    98882    98786 
   98803    98767    98616    98523    98420    98401    98614    98872 
   99123    99423    99582    99550    99468    99351    99206    99081 
   99006    99003    99064    99068    98987    98965    99025    99079 
   99075    98875    98602    98578    98703    98859    99085    99084 
   98745    98440    98289    98220    98286    98442    98613    98833 
   99064    99218    99307    99382    99391    99346    99381    99401 
   99300    99223    99161    99063    99091    99196    99134    99006 
   99013    99040    98956    98817    98713    98755    98998    99269 
   99354    99225    98884    98335    97815    97625    97825    98300 
   98787    99087    99306    99519    99640    99701    99754    99717 
   99558    99358    99192    99125    99153    99214    99308    99265 
   98953    98687    98618    98575    98633    98802    98810    98652 
   98643    98825    98946    98968    98915    98676    98413    98321 
   98315    98486    98976    99499    99790    99855    99708    99441 
   99185    99022    99017    99115    99214    99225    99090    98911 
   98874    99038    99274    99307    99026    98680    98514    98523 
   98652    98790    98857    98875    98733    98474    98433    98624 
   98757    98914    99301    99681    99746    99570    99333    99138 
   99073    99085    99034    98963    98986    99018    99091    99291 
   99388    99252    99076    98907    98671    98523    98520    98504 
   98548    98768    98921    98918    98987    99148    99276    99328 
   99337    99388    99414    99295    99164    99114    99068    98975 
   98842    98759    98828    98967    99104    99318    99520    99507 
   99351    99238    99129    98991    98837    98647    98574    98612 
   98501    98347    98410    98620    98855    99050    99107    99004 
   98874    98829    98840    98886    98841    98617    98551    98722 
   98793    98820    98896    98886    98892    98936    98867    98829 
   98933    99065    99184    99304    99442    99581    99666    99621 
   99391    99144    99018    98853    98601    98419    98350    98397 
   98544    98703    98906    99050    98984    98982    99204    99420 
   99481    99314    99022    98801    98613    98577    98784    99025 
   99250    99472    99594    99719    99829    99697    99442    99328 
   99185    98832    98494    98307    98190    98139    98139    98220 
   98469    98779    98933    98945    98990    99038    99048    99130 
   99210    99218    99262    99280    99164    98991    98830    98720 
   98759    98949    99112    99200    99322    99499    99647    99650 
   99501    99285    98998    98656    98361    98166    98099    98161 
   98336    98644    99003    99185    99156    99156    99249    99284 
   99181    98983    98826    98768    98740    98756    98833    98910 
   98983    98968    98821    98770    98926    99131    99337    99517 
