Origin Time       2025/03/30 22:55:00
Lat.              41.993
Long.             142.725
Depth. (km)       55
Mag.              4.6
Station Code      TKCH05
Station Lat.      43.1211
Station Long.     143.6181
Station Height(m) 65
Record Time       2025/03/30 22:56:39
Sampling Freq(Hz) 100Hz
Duration Time(s)  120
Dir.              5
Scale Factor      7845(gal)/8223790
Max. Acc. (gal)   1.262
Last Correction   2025/03/30 22:56:39
Memo.             
[...]
   -1372    -1381    -1248    -1061    -1000    -1105    -1209    -1185 
   -1127    -1155    -1221    -1240    -1202    -1142    -1125    -1193 
   -1267    -1267    -1213    -1142    -1086    -1120    -1224    -1246 
   -1166    -1138    -1201    -1239    -1209    -1156    -1094    -1057 
   -1112    -1227    -1298    -1283    -1215    -1147    -1121    -1128 
   -1119    -1098    -1121    -1169    -1175    -1186    -1229    -1227 
   -1170    -1158    -1215    -1263    -1244    -1201    -1228    -1274 
   -1204    -1071    -1048    -1123    -1170    -1179    -1182    -1155 
   -1111    -1113    -1166    -1197    -1190    -1210    -1286    -1345 
   -1329    -1264    -1188    -1104    -1038    -1032    -1054    -1036 
   -1032    -1127    -1264    -1323    -1287    -1262    -1285    -1291 
   -1254    -1194    -1107     -969     -873     -958    -1188    -1343 
   -1313    -1198    -1152    -1201    -1235    -1194    -1140    -1140 
   -1178    -1216    -1227    -1200    -1162    -1143    -1162    -1220 
   -1247    -1182    -1109    -1116    -1119    -1065    -1057    -1165 
   -1289    -1309    -1242    -1185    -1188    -1224    -1255    -1250 
   -1197    -1107    -1023    -1040    -1177    -1290    -1267    -1188 
   -1150    -1140    -1152    -1190    -1206    -1194    -1192    -1193 
   -1193    -1223    -1247    -1219    -1188    -1189    -1146    -1046 
    -985     -999    -1046    -1132    -1262    -1378    -1431    -1394 
   -1278    -1155    -1069     -997     -966    -1015    -1102    -1185 
   -1255    -1281    -1239    -1201    -1236    -1301    -1313    -1274 
   -1219    -1124    -1007     -966    -1004    -1028    -1057    -1155 
   -1285    -1386    -1425    -1374    -1277    -1220    -1178    -1094 
   -1001     -977    -1043    -1138    -1170    -1125    -1096    -1162 
   -1279    -1345    -1324    -1251    -1181    -1139    -1135    -1159 
   -1179    -1182    -1194    -1221    -1190    -1078    -1008    -1092 
   -1251    -1336    -1317    -1263    -1225    -1210    -1179    -1100 
   -1007     -966    -1004    -1111    -1246    -1316    -1302    -1305 
   -1341    -1327    -1251    -1162    -1081    -1042    -1048    -1048 
   -1057    -1116    -1189    -1242    -1283    -1279    -1237    -1246 
   -1290    -1263    -1193    -1155    -1093     -996     -972    -1028 
   -1078    -1113    -1143    -1148    -1205    -1337    -1408    -1348 
   -1252    -1177    -1116    -1102    -1138    -1174    -1200    -1225 
   -1251    -1264    -1233    -1151    -1069    -1023    -1009    -1031 
   -1081    -1127    -1165    -1215    -1291    -1372    -1414    -1394 
   -1316    -1206    -1113    -1063    -1023     -988    -1013    -1115 
   -1190    -1190    -1188    -1220    -1237    -1229    -1258    -1302 
   -1282    -1200    -1148    -1173    -1209    -1179    -1097    -1047 
   -1058    -1097    -1155    -1229    -1258    -1197    -1134    -1138 
   -1159    -1162    -1178    -1229    -1278    -1285    -1254    -1215 
   -1171    -1104    -1050    -1078    -1155    -1201    -1223    -1237 
   -1197    -1128    -1125    -1154    -1135    -1102    -1115    -1155 
   -1198    -1223    -1229    -1271    -1345    -1337    -1190    -1035 
    -986     -992    -1023    -1148    -1309    -1351    -1298    -1308 
   -1378    -1359    -1233    -1105    -1019     -958     -940     -973 
   -1020    -1048    -1111    -1247    -1372    -1385    -1325    -1285 
   -1275    -1247    -1196    -1148    -1093    -1036    -1038    -1094 
   -1151    -1193    -1240    -1283    -1275    -1208    -1163    -1192 
   -1205    -1148    -1092    -1085    -1078    -1062    -1073    -1109 
   -1192    -1336    -1441    -1421    -1348    -1290    -1205    -1102 
   -1047    -1005     -951     -959    -1028    -1073    -1112    -1193 
   -1283    -1347    -1391    -1406    -1367    -1273    -1150    -1031 
    -970    -1031    -1156    -1190    -1090     -990    -1011    -1132 
   -1285    -1405    -1435    -1363    -1279    -1247    -1224    -1146 
   -1032     -969    -1008    -1109    -1193    -1217    -1200    -1161 
   -1120    -1108    -1131    -1167    -1220    -1277    -1291    -1262 
   -1252    -1277    -1275    -1225    -1148    -1053     -972     -972 
   -1055    -1167    -1267    -1337    -1355    -1321    -1255    -1183 
   -1152    -1167    -1165    -1125    -1096    -1082    -1053    -1043 
   -1090    -1132    -1147    -1197    -1262    -1266    -1221    -1189 
   -1201    -1236    -1228    -1178    -1152    -1150    -1121    -1104 
   -1155    -1196    -1150    -1090    -1094    -1134    -1167    -1202 
   -1240    -1267    -1287    -1328    -1382    -1382    -1293    -1167 
   -1077    -1030    -1001     -989     -988    -1005    -1101    -1263 
   -1370    -1362    -1291    -1232    -1225    -1247    -1242    -1206 
   -1165    -1120    -1088    -1096    -1128    -1134    -1088    -1043 
   -1102    -1246    -1323    -1291    -1246    -1220    -1179    -1131 
   -1082    -1062    -1121    -1225    -1266    -1233    -1190    -1143 
   -1102    -1123    -1171    -1158    -1107    -1100    -1139    -1179 
   -1210    -1246    -1274    -1270    -1215    -1146    -1116    -1135 
   -1188    -1256    -1306    -1302    -1254    -1213    -1193    -1158 
   -1111    -1100    -1119    -1097    -1050    -1109    -1274    -1362 
   -1287    -1155    -1075    -1051    -1047    -1077    -1152    -1194 
   -1174    -1198    -1287    -1318    -1260    -1212    -1204    -1208 
   -1233    -1235    -1150    -1024     -957     -961    -1009    -1086 
   -1185    -1282    -1336    -1344    -1337    -1325    -1290    -1219 
   -1128    -1050     -994     -986    -1058    -1178    -1273    -1304 
   -1275    -1205    -1131    -1121    -1205    -1302    -1321    -1277 
   -1204    -1113    -1062    -1080    -1090    -1065    -1061    -1096 
   -1125    -1155    -1210    -1256    -1262    -1278    -1337    -1362 
   -1274    -1151    -1104    -1089    -1034     -993    -1023    -1104 
   -1192    -1239    -1248    -1267    -1281    -1244    -1193    -1154 
   -1085    -1027    -1082    -1194    -1231    -1213    -1219    -1240 
   -1260    -1269    -1215    -1120    -1094    -1143    -1162    -1158 
   -1204    -1251    -1250    -1251    -1239    -1175    -1129    -1154 
   -1173    -1129    -1073    -1071    -1148    -1236    -1247    -1205 
   -1169    -1128    -1100    -1129    -1173    -1179    -1201    -1260 
   -1291    -1273    -1223    -1147    -1093    -1105    -1135    -1117 
   -1069    -1057    -1121    -1231    -1318    -1329    -1277    -1236 
   -1252    -1278    -1232    -1115    -1008     -965     -993    -1096 
   -1210    -1219    -1143    -1127    -1198    -1258    -1254    -1232 
   -1221    -1200    -1188    -1219    -1255    -1248    -1213    -1163 
   -1101    -1067    -1069    -1077    -1115    -1183    -1212    -1194 
   -1198    -1232    -1278    -1336    -1341    -1235    -1097    -1026 
   -1011    -1026    -1061    -1104    -1171    -1266    -1331    -1337 
   -1313    -1262    -1183    -1104    -1026     -973    -1009    -1105 
   -1147    -1142    -1169    -1215    -1227    -1225    -1236    -1264 
   -1318    -1355    -1323    -1259    -1210    -1165    -1113    -1084 
   -1094    -1117    -1134    -1154    -1179    -1213    -1256    -1279 
   -1258    -1221    -1188    -1140    -1089    -1066    -1061    -1048 
   -1062    -1116    -1173    -1209    -1220    -1215    -1229    -1258 
   -1240    -1193    -1174    -1167    -1136    -1096    -1077    -1104 
   -1183    -1264    -1302    -1286    -1231    -1197    -1223    -1235 
   -1162    -1065    -1050    -1117    -1179    -1200    -1196    -1175 
   -1146    -1152    -1208    -1260    -1286    -1305    -1306    -1255 
   -1148    -1019     -951    -1005    -1116    -1200    -1255    -1281 
   -1262    -1223    -1175    -1113    -1084    -1109    -1138    -1109 
   -1054    -1050    -1129    -1239    -1308    -1332    -1320    -1273 
   -1217    -1182    -1135    -1070    -1066    -1146    -1219    -1204 
   -1120    -1073    -1123    -1194    -1202    -1183    -1181    -1150 
   -1094    -1105    -1169    -1208    -1255    -1358    -1416    -1331 
   -1169    -1062    -1070    -1129    -1143    -1112    -1098    -1128 
   -1217    -1343    -1395    -1320    -1228    -1212    -1221    -1188 
   -1109    -1021     -977    -1008    -1088    -1144    -1128    -1074 
   -1093    -1213    -1318    -1320    -1266    -1237    -1243    -1250 
   -1236    -1194    -1138    -1101    -1109    -1134    -1129    -1066 
   -1001    -1036    -1148    -1213    -1215    -1225    -1262    -1324 
   -1417    -1470    -1383    -1208    -1088    -1062    -1073    -1092 
   -1100    -1070    -1034    -1034    -1071    -1132    -1190    -1208 
   -1201    -1225    -1281    -1310    -1296    -1256    -1198    -1144 
   -1136    -1158    -1155    -1116    -1088    -1115    -1174    -1221 
   -1246    -1252    -1250    -1259    -1255    -1190    -1102    -1069 
   -1093    -1124    -1116    -1081    -1085    -1156    -1233    -1273 
   -1275    -1243    -1198    -1173    -1161    -1138    -1131    -1155 
   -1174    -1169    -1158    -1129    -1107    -1174    -1294    -1300 
   -1189    -1150    -1227    -1281    -1250    -1173    -1077    -1040 
   -1120    -1210    -1177    -1067    -1020    -1093    -1243    -1348 
   -1337    -1283    -1246    -1192    -1143    -1144    -1135    -1078 
   -1031    -1032    -1063    -1113    -1178    -1250    -1333    -1405 
   -1394    -1290    -1167    -1075    -1017     -990     -981     -946 
    -892     -909    -1051    -1267    -1441    -1503    -1501    -1505 
   -1490    -1393    -1209     -997     -828     -764     -827     -976 
   -1121    -1240    -1377    -1493    -1518    -1472    -1382    -1256 
   -1147    -1059     -920     -781     -788     -932    -1096    -1231 
   -1321    -1344    -1356    -1398    -1379    -1255    -1143    -1100 
   -1074    -1055    -1061    -1069    -1100    -1192    -1293    -1355 
   -1383    -1352    -1271    -1200    -1136    -1074    -1073    -1120 
   -1127    -1120    -1193    -1317    -1395    -1416    -1410    -1360 
   -1285    -1235    -1204    -1148    -1065     -976     -918     -930 
    -996    -1048    -1047    -1011    -1005    -1104    -1271    -1377 
   -1382    -1368    -1350    -1273    -1167    -1074     -984     -931 
    -982    -1107    -1217    -1296    -1371    -1455    -1518    -1530 
   -1474    -1327    -1089     -865     -783     -827     -895     -963 
   -1078    -1256    -1459    -1572    -1524    -1377    -1223    -1105 
   -1053    -1030     -959     -882     -931    -1109    -1278    -1360 
   -1395    -1397    -1339    -1251    -1189    -1129    -1054    -1032 
   -1082    -1119    -1088    -1027     -999    -1040    -1159    -1271 
   -1273    -1206    -1242    -1402    -1544    -1555    -1421    -1198 
   -1008     -947     -984    -1000     -954     -962    -1096    -1250 
   -1337    -1367    -1336    -1255    -1182    -1128    -1044     -924 
    -832     -801     -804     -832     -877     -949    -1105    -1300 
   -1406    -1439    -1474    -1476    -1406    -1321    -1243    -1124 
   -1009     -990    -1031    -1039    -1042    -1102    -1233    -1421 
   -1622    -1742    -1687    -1458    -1192    -1021     -949     -909 
    -854     -818     -926    -1210    -1478    -1541    -1458    -1339 
   -1194    -1058     -973     -884     -785     -766     -864    -1017 
   -1182    -1340    -1474    -1586    -1669    -1625    -1351     -947 
    -657     -575     -598     -633     -706     -888    -1217    -1626 
   -1946    -2010    -1803    -1487    -1213     -986     -765     -602 
    -599     -797    -1113    -1385    -1507    -1536    -1552    -1563 
   -1561    -1528    -1371    -1092     -853     -747     -720     -716 
    -720     -756     -888    -1148    -1421    -1570    -1584    -1539 
   -1486    -1432    -1363    -1279    -1224    -1197    -1156    -1080 
    -985     -934     -999    -1131    -1201    -1201    -1221    -1269 
   -1294    -1348    -1464    -1517    -1406    -1209    -1008     -783 
    -548     -432     -507     -720    -1015    -1362    -1686    -1900 
   -1992    -1969    -1806    -1522    -1204     -915     -703     -591 
    -575     -635     -772     -973    -1188    -1367    -1485    -1545 
   -1583    -1606    -1556    -1343     -977     -660     -612     -826 
   -1094    -1247    -1260    -1244    -1339    -1539    -1675    -1642 
   -1509    -1354    -1158     -909     -676     -558     -598     -738 
    -918    -1113    -1285    -1401    -1494    -1578    -1591    -1498 
   -1351    -1223    -1136    -1081    -1027     -981    -1003    -1111 
   -1254    -1383    -1479    -1526    -1498    -1355    -1105     -901 
    -911    -1063    -1170    -1193    -1165    -1074     -967     -911 
    -901     -986    -1190    -1414    -1591    -1706    -1656    -1393 
   -1090     -896     -749     -572     -444     -481     -707    -1026 
   -1336    -1599    -1791    -1917    -1993    -1929    -1586    -1058 
    -656     -584     -749     -905     -926     -913    -1040    -1273 
   -1416    -1379    -1232    -1090    -1085    -1248    -1436    -1506 
   -1479    -1395    -1229     -977     -727     -610     -670     -822 
    -999    -1232    -1502    -1734    -1899    -1948    -1783    -1410 
    -962     -603     -445     -423     -369     -268     -294     -553 
    -990    -1491    -1949    -2262    -2382    -2307    -2095    -1865 
   -1647    -1331     -897     -463     -126       17      -68     -267 
    -476     -799    -1305    -1858    -2296    -2500    -2381    -1995 
   -1514    -1036     -591     -276     -145     -184     -417     -846 
   -1347    -1752    -1966    -1966    -1787    -1505    -1204     -992 
    -973    -1104    -1169    -1055     -889     -808     -866    -1080 
   -1331    -1424    -1343    -1290    -1362    -1448    -1466    -1426 
   -1316    -1132     -928     -745     -623     -623     -784    -1096 
   -1463    -1719    -1741    -1568    -1391    -1333    -1313    -1229 
   -1105     -977     -810     -646     -631     -788     -996    -1174 
   -1304    -1383    -1418    -1412    -1382    -1358    -1332    -1273 
   -1179    -1047     -886     -822     -950    -1140    -1260    -1378 
   -1549    -1680    -1682    -1541    -1291    -1011     -799     -724 
    -773     -839     -847     -819     -832     -954    -1177    -1409 
   -1609    -1798    -1946    -1960    -1769    -1401     -974     -619 
    -382     -234     -201     -392     -823    -1278    -1563    -1692 
   -1749    -1748    -1687    -1559    -1350    -1092     -889     -843 
    -922     -974     -951     -969    -1140    -1393    -1574    -1607 
   -1479    -1250    -1097    -1111    -1156    -1093     -972     -969 
   -1139    -1347    -1467    -1516    -1507    -1364    -1075     -805 
    -685     -688     -811    -1088    -1416    -1653    -1757    -1684 
   -1398     -961     -502     -152      -45     -259     -703    -1182 
   -1553    -1772    -1888    -1991    -2096    -2100    -1900    -1547 
   -1198     -949     -765     -606     -513     -549     -696     -893 
   -1085    -1200    -1231    -1296    -1479    -1688    -1756    -1659 
   -1537    -1479    -1393    -1178     -893     -643     -448     -326 
    -352     -562     -882    -1205    -1474    -1674    -1821    -1910 
   -1858    -1617    -1310    -1129    -1139    -1239    -1252    -1102 
    -886     -754     -761     -881    -1012    -1048    -1028    -1116 
   -1358    -1579    -1610    -1539    -1541    -1548    -1370    -1027 
    -689     -472     -453     -638     -881    -1082    -1289    -1509 
   -1648    -1714    -1784    -1810    -1698    -1467    -1156     -787 
    -473     -319     -301     -402     -670    -1053    -1381    -1583 
   -1717    -1798    -1765    -1586    -1298    -1007     -791     -679 
    -692     -805     -967    -1197    -1466    -1637    -1637    -1487 
   -1263    -1090    -1046    -1058    -1066    -1102    -1175    -1262 
   -1386    -1501    -1468    -1274    -1078     -976     -938     -967 
   -1092    -1256    -1385    -1460    -1468    -1362    -1144     -928 
    -815     -805     -882    -1028    -1186    -1308    -1382    -1414 
   -1410    -1355    -1206     -993     -826     -761     -774     -876 
   -1108    -1410    -1665    -1817    -1800    -1584    -1273     -951 
    -615     -353     -283     -371     -565     -912    -1356    -1738 
   -2012    -2184    -2174    -1952    -1597    -1215     -884     -696 
    -707     -857     -994     -990     -880     -851    -1042    -1378 
   -1667    -1782    -1684    -1402    -1081     -874     -761     -646 
    -589     -672     -816     -939    -1092    -1298    -1471    -1551 
   -1597    -1652    -1702    -1738    -1736    -1647    -1487    -1282 
   -1005     -711     -522     -492     -595     -780     -972    -1120 
   -1239    -1378    -1541    -1638    -1601    -1455    -1246     -990 
    -760     -652     -697     -874    -1139    -1414    -1605    -1671 
   -1672    -1674    -1617    -1394    -1034     -677     -410     -243 
    -218     -394     -765    -1243    -1699    -1996    -2047    -1892 
   -1656    -1410    -1182    -1016     -920     -849     -816     -893 
   -1042    -1117    -1088    -1093    -1235    -1417    -1478    -1378 
   -1228    -1147    -1140    -1155    -1174    -1188    -1161    -1117 
   -1150    -1269    -1375    -1386    -1317    -1262    -1252    -1196 
   -1026     -862     -846     -939     -986     -907     -772     -712 
    -827    -1107    -1417    -1632    -1768    -1906    -2037    -2057 
   -1877    -1495    -1015     -576     -261      -64       24      -82 
    -440     -932    -1385    -1741    -1999    -2093    -1962    -1649 
   -1285     -989     -804     -727     -764     -905    -1138    -1441 
   -1746    -1949    -1988    -1848    -1567    -1237     -934     -672 
    -454     -319     -326     -487     -749    -1011    -1215    -1394 
   -1591    -1752    -1806    -1755    -1632    -1455    -1285    -1213 
   -1223    -1188    -1046     -869     -735     -661     -650     -731 
    -932    -1198    -1402    -1463    -1406    -1317    -1260    -1208 
   -1136    -1098    -1096    -1032     -913     -850     -882    -1000 
   -1183    -1382    -1563    -1714    -1791    -1741    -1571    -1351 
   -1151     -988     -870     -820     -814     -800     -837    -1067 
   -1459    -1749    -1765    -1597    -1368    -1109     -882     -778 
    -776     -796     -857    -1011    -1204    -1355    -1480    -1576 
   -1544    -1347    -1112     -962     -870     -792     -784     -889 
   -1046    -1223    -1436    -1588    -1539    -1317    -1105     -999 
    -951     -930     -972    -1063    -1147    -1236    -1366    -1494 
   -1570    -1575    -1499    -1331    -1061     -760     -594     -654 
    -886    -1215    -1570    -1856    -2010    -2023    -1906    -1651 
   -1278     -868     -526     -295     -160     -148     -315     -639 
   -1019    -1370    -1626    -1757    -1795    -1765    -1649    -1480 
   -1328    -1182    -1019     -864     -741     -661     -689     -877 
   -1170    -1478    -1725    -1853    -1834    -1698    -1512    -1325 
   -1125     -903     -715     -645     -691     -781     -876    -1004 
   -1200    -1441    -1651    -1759    -1744    -1610    -1386    -1154 
    -980     -865     -804     -780     -733     -680     -723     -864 
