Origin Time       2025/03/30 22:55:00
Lat.              41.993
Long.             142.725
Depth. (km)       55
Mag.              4.6
Station Code      TKCH05
Station Lat.      43.1211
Station Long.     143.6181
Station Height(m) -35
Record Time       2025/03/30 22:56:39
Sampling Freq(Hz) 100Hz
Duration Time(s)  120
Dir.              2
Scale Factor      2942(gal)/8224139
Max. Acc. (gal)   0.242
Last Correction   2025/03/30 22:56:39
Memo.             
[...]
  155825   155871   155906   155884   155841   155876   155970   155969 
  155891   155861   155879   155883   155853   155879   155979   155992 
  155885   155826   155853   155877   155893   155933   155950   155912 
  155853   155812   155846   155916   155919   155889   155889   155889 
  155895   155902   155885   155885   155908   155876   155849   155946 
  156049   156010   155920   155858   155811   155802   155810   155839 
  155889   155865   155819   155852   155893   155895   155914   155950 
  155966   155957   155915   155821   155781   155849   155845   155784 
  155881   156030   156024   155953   155902   155818   155761   155810 
  155866   155881   155911   155914   155837   155773   155852   156007 
  156055   156014   155993   155941   155852   155846   155908   155910 
  155844   155806   155807   155825   155908   156006   156007   155966 
  155958   155931   155858   155792   155804   155868   155884   155858 
  155864   155875   155888   155952   155972   155891   155852   155864 
  155830   155817   155853   155850   155839   155922   156016   155983 
  155891   155857   155856   155869   155925   155969   155949   155915 
  155891   155830   155785   155829   155877   155869   155866   155898 
  155919   155937   155988   156006   155934   155857   155818   155787 
  155780   155800   155827   155869   155930   155962   155937   155927 
  155965   155956   155877   155831   155866   155910   155919   155915 
  155881   155817   155764   155773   155861   155957   155977   155946 
  155945   155960   155950   155934   155892   155823   155790   155803 
  155823   155831   155839   155889   155983   156022   155962   155892 
  155854   155837   155856   155893   155893   155865   155876   155900 
  155883   155889   155941   155969   155956   155914   155875   155842 
  155779   155749   155806   155883   155950   155985   155949   155885 
  155858   155877   155914   155934   155922   155910   155910   155861 
  155783   155769   155838   155933   155976   155929   155860   155831 
  155861   155935   155991   155958   155891   155868   155856   155856 
  155903   155925   155907   155895   155856   155819   155834   155871 
  155919   155947   155920   155939   156014   156012   155947   155892 
  155829   155763   155740   155768   155812   155854   155929   155985 
  155956   155912   155895   155872   155854   155844   155844   155858 
  155875   155927   155985   155954   155887   155862   155831   155804 
  155849   155929   155966   155956   155947   155949   155930   155923 
  155927   155866   155768   155769   155884   155965   155954   155908 
  155856   155844   155892   155926   155957   156008   155981   155861 
  155773   155794   155864   155892   155891   155911   155931   155931 
  155926   155900   155875   155883   155881   155861   155852   155841 
  155837   155838   155846   155908   155983   155974   155906   155860 
  155888   155964   155995   155965   155919   155860   155795   155806 
  155879   155904   155908   155945   155965   155949   155912   155876 
  155885   155903   155837   155738   155731   155799   155858   155942 
  156014   155969   155877   155871   155912   155942   155981   156015 
  155995   155938   155885   155826   155757   155754   155868   155969 
  155907   155790   155796   155887   155927   155912   155933   155952 
  155868   155791   155833   155895   155911   155914   155906   155884 
  155869   155872   155884   155919   155964   155939   155866   155835 
  155821   155829   155903   155946   155930   155925   155927   155922 
  155906   155885   155891   155937   155962   155918   155881   155888 
  155875   155862   155900   155941   155930   155900   155873   155826 
  155810   155865   155915   155937   155950   155927   155876   155848 
  155868   155912   155934   155903   155839   155802   155804   155835 
  155906   155987   156006   155974   155942   155885   155857   155922 
  155935   155845   155802   155794   155772   155799   155862   155942 
  155980   155876   155753   155772   155857   155916   155946   155956 
  155970   155961   155883   155781   155765   155856   155938   155943 
  155922   155908   155885   155864   155873   155904   155907   155877 
  155846   155814   155818   155875   155938   155996   156045   156014 
  155912   155841   155833   155853   155879   155868   155834   155850 
  155891   155922   155962   155992   155979   155920   155865   155858 
  155872   155861   155821   155771   155768   155879   155987   155956 
  155887   155883   155881   155876   155919   155934   155864   155795 
  155753   155765   155891   155989   155942   155893   155939   155989 
  155954   155833   155742   155791   155904   155961   155952   155943 
  155960   155956   155922   155873   155844   155852   155846   155822 
  155858   155950   156006   156012   156004   155976   155941   155906 
  155861   155853   155899   155926   155923   155915   155860   155791 
  155807   155841   155807   155787   155827   155860   155875   155910 
  155943   155947   155914   155873   155871   155910   155937   155918 
  155876   155850   155864   155893   155881   155877   155923   155922 
  155872   155883   155930   155920   155912   155964   155989   155968 
  155931   155862   155811   155834   155892   155935   155942   155929 
  155891   155839   155846   155892   155880   155861   155893   155896 
  155881   155907   155907   155868   155861   155860   155841   155869 
  155906   155892   155896   155910   155876   155834   155821   155831 
  155876   155935   155954   155937   155923   155898   155877   155887 
  155873   155818   155803   155900   156000   155993   155964   155954 
  155903   155849   155850   155884   155908   155908   155902   155876 
  155831   155839   155918   155970   155956   155923   155896   155862 
  155864   155899   155916   155931   155926   155844   155758   155777 
  155877   155970   156012   156010   155969   155907   155861   155854 
  155872   155887   155891   155869   155837   155852   155898   155914 
  155918   155912   155868   155829   155823   155799   155781   155856 
  155962   155996   155987   155945   155868   155862   155906   155908 
  155952   156016   155993   155927   155869   155838   155865   155872 
  155811   155783   155850   155935   155962   155947   155933   155906 
  155853   155818   155831   155860   155879   155915   155938   155903 
  155869   155862   155849   155858   155903   155942   155946   155903 
  155838   155808   155812   155815   155822   155838   155875   155914 
  155907   155926   156007   156049   156030   155995   155933   155850 
  155794   155783   155795   155807   155838   155907   155958   155952 
  155929   155908   155906   155925   155923   155895   155864   155830 
  155822   155865   155898   155873   155845   155841   155837   155858 
  155916   155976   156001   155977   155929   155893   155876   155842 
  155785   155776   155846   155934   155979   155953   155910   155919 
  155943   155941   155920   155876   155848   155864   155881   155893 
  155912   155908   155881   155868   155876   155902   155946   155977 
  155985   155958   155883   155850   155880   155869   155860   155923 
  155973   155969   155964   155968   155979   155958   155862   155753 
  155707   155744   155818   155850   155866   155914   155942   155918 
  155907   155945   155977   155965   155935   155900   155873   155873 
  155860   155788   155722   155726   155763   155804   155900   156004 
  156027   156004   155972   155949   155949   155915   155844   155798 
  155787   155810   155838   155872   155934   155957   155916   155898 
  155929   155964   155943   155861   155823   155858   155887   155914 
  155925   155879   155858   155884   155879   155898   155958   155933 
  155845   155833   155904   155947   155925   155908   155910   155903 
  155902   155876   155837   155834   155865   155906   155941   155929 
  155885   155883   155902   155861   155796   155781   155806   155860 
  155916   155930   155922   155931   155938   155926   155918   155925 
  155920   155914   155926   155922   155875   155822   155830   155879 
  155876   155846   155888   155956   155958   155904   155815   155746 
  155772   155846   155889   155907   155937   155981   155987   155947 
  155925   155877   155806   155827   155884   155903   155961   156016 
  155968   155895   155889   155915   155953   155985   155938   155833 
  155796   155823   155834   155856   155889   155893   155908   155950 
  155941   155875   155846   155898   155945   155902   155807   155749 
  155764   155850   155960   156011   155985   155938   155903   155889 
  155939   156026   156055   155999   155907   155823   155771   155783 
  155852   155916   155935   155910   155877   155884   155918   155956 
  155981   155973   155896   155784   155737   155775   155850   155960 
  156031   155974   155900   155923   155926   155850   155821   155844 
  155829   155826   155858   155856   155860   155922   155968   155980 
  155962   155929   155908   155866   155839   155877   155893   155880 
  155877   155860   155868   155910   155918   155908   155904   155888 
  155889   155899   155873   155835   155804   155767   155756   155767 
  155758   155765   155773   155757   155792   155881   155945   156012 
  156066   156028   155974   155938   155871   155852   155902   155935 
  155933   155887   155823   155822   155880   155916   155907   155877 
  155825   155756   155710   155692   155733   155826   155892   155941 
  155989   155962   155895   155871   155868   155904   156003   156068 
  156062   156034   155976   155908   155887   155908   155912   155858 
  155783   155752   155757   155775   155817   155845   155844   155879 
  155922   155875   155803   155833   155891   155895   155896   155885 
  155869   155938   156018   155993   155961   155949   155849   155749 
  155818   155956   155970   155879   155767   155699   155750   155875 
  155966   155995   155934   155838   155790   155772   155765   155798 
  155876   155958   156019   156078   156114   156096   156074   156081 
  156051   155987   155965   155962   155922   155906   155949   155992 
  156000   156007   156001   155893   155757   155754   155842   155927 
  156015   156082   156089   156022   155939   155908   155902   155880 
  155835   155795   155771   155726   155710   155806   155937   156004 
  156049   156092   156064   155910   155744   155752   155883   155946 
  155922   155875   155848   155857   155853   155826   155830   155853 
  155883   155908   155895   155879   155860   155781   155740   155804 
  155852   155842   155900   156042   156154   156162   156080   155966 
  155895   155865   155817   155763   155784   155879   155984   156076 
  156139   156114   155985   155860   155837   155854   155848   155862 
  155883   155864   155862   155865   155852   155912   155996   155997 
  155993   156037   156033   155949   155912   155945   155916   155869 
  155920   156022   156116   156132   155931   155572   155294   155225 
  155328   155491   155637   155776   155916   156006   156020   156007 
  156066   156243   156365   156244   155965   155715   155598   155638 
  155794   155969   156037   155977   155903   155850   155781   155731 
  155767   155854   155941   156019   155976   155749   155564   155583 
  155704   155858   156064   156199   156104   155872   155752   155827 
  155966   156038   156015   155933   155881   155934   156008   156007 
  155981   155966   155907   155852   155844   155771   155611   155497 
  155474   155532   155655   155754   155852   155991   156087   156136 
  156181   156188   156189   156151   156026   155937   155929   155888 
  155834   155837   155854   155857   155842   155775   155715   155733 
  155718   155598   155493   155509   155638   155799   155900   155945 
  155946   155892   155918   156054   156142   156170   156168   156093 
  156018   155958   155842   155744   155744   155783   155795   155761 
  155723   155748   155792   155854   155996   156108   156061   155912 
  155765   155726   155846   156031   156120   156047   155880   155726 
  155659   155667   155715   155831   155988   156123   156172   156055 
  155968   156103   156238   156166   156003   155923   155957   155960 
  155844   155714   155648   155665   155831   156043   156080   155974 
  155848   155645   155451   155490   155691   155831   155902   155923 
  155914   156024   156234   156338   156303   156244   156213   156147 
  156003   155841   155711   155680   155768   155794   155717   155706 
  155722   155692   155713   155821   155946   155988   155900   155829 
  155906   155996   155976   155945   155972   156001   156008   156012 
  156028   156049   156068   156072   156022   155935   155837   155703 
  155595   155595   155667   155798   155968   156080   156124   156101 
  155973   155830   155794   155826   155888   155934   155865   155714 
  155592   155556   155645   155856   156076   156189   156200   156146 
  156019   155884   155848   155891   155903   155804   155598   155399 
  155333   155445   155695   155943   156047   155985   155862   155825 
  155884   155946   156037   156181   156266   156236   156151   156027 
  155907   155895   155964   155961   155896   155839   155764   155719 
  155754   155802   155841   155864   155860   155872   155908   155908 
  155785   155582   155538   155772   156028   156097   156030   155947 
  155933   155976   156020   156080   156143   156162   156132   156055 
  155925   155682   155353   155214   155395   155687   155950   156161 
  156269   156258   156178   156088   155981   155884   155923   156066 
  156123   156068   155996   155945   155881   155792   155695   155617 
  155614   155686   155790   155965   156143   156199   156143   155981 
  155726   155530   155511   155629   155784   155935   156091   156188 
  156141   155985   155802   155656   155568   155564   155704   155910 
  156054   156186   156274   156196   155980   155703   155491   155484 
  155655   155902   156143   156298   156338   156230   155984   155780 
  155752   155787   155792   155831   155915   155984   156034   155997 
  155833   155672   155602   155587   155617   155722   155868   155981 
  156084   156165   156108   155947   155795   155668   155652   155818 
  155992   155997   155911   155860   155835   155815   155860   155960 
  155996   155968   155918   155812   155696   155650   155669   155741 
  155877   156016   156091   156108   156023   155788   155551   155526 
  155714   155881   155918   155943   156019   156114   156181   156139 
  155980   155842   155815   155825   155795   155758   155780   155846 
  155923   155980   155952   155841   155750   155737   155738   155719 
  155779   155964   156111   156107   156027   155919   155796   155768 
  155856   155916   155916   155939   155973   155993   156041   156112 
  156134   156078   156018   155965   155880   155804   155768   155754 
  155763   155752   155707   155709   155825   156014   156145   156168 
  156168   156143   156050   155954   155902   155866   155845   155852 
  155873   155866   155839   155834   155839   155875   155950   155935 
  155757   155529   155387   155463   155758   156055   156172   156101 
  155923   155760   155692   155741   155881   156014   156068   156103 
  156143   156122   156064   156043   155974   155798   155638   155598 
  155640   155746   155899   155965   155877   155750   155672   155648 
  155734   155929   156084   156158   156254   156347   156303   156162 
  156039   155930   155835   155779   155746   155776   155823   155791 
  155733   155679   155569   155538   155731   155996   156157   156192 
  156105   155961   155860   155856   155958   156049   156033   155993 
  155941   155811   155737   155814   155888   155865   155822   155790 
  155760   155744   155744   155760   155807   155852   155815   155729 
  155714   155749   155775   155829   155881   155865   155811   155790 
  155826   155915   156030   156135   156186   156200   156236   156242 
  156082   155811   155628   155605   155655   155698   155731   155785 
  155821   155765   155703   155769   155893   155923   155893   155914 
  155973   156053   156112   156070   155988   155973   156024   156099 
  156142   156138   156084   155953   155781   155692   155702   155687 
  155636   155628   155679   155763   155850   155904   155984   156101 
  156088   155964   155927   155983   156069   156146   156120   156076 
  156077   155966   155769   155700   155800   155933   155938   155856 
  155827   155804   155719   155630   155571   155584   155684   155817 
  155957   156091   156166   156147   156060   155929   155794   155731 
  155741   155779   155892   156045   156103   156069   156011   155945 
  155925   155930   155898   155910   155957   155946   155988   156128 
  156190   156078   155893   155758   155652   155569   155607   155738 
  155842   155858   155790   155713   155746   155900   156092   156227 
  156230   156127   156018   155960   155941   155907   155853   155806 
  155764   155702   155652   155692   155790   155853   155899   155884 
  155749   155626   155623   155686   155760   155795   155780   155796 
  155858   155930   156007   156066   156122   156201   156235   156223 
  156200   156120   156018   155976   156001   156023   155981   155904 
  155838   155784   155730   155675   155649   155703   155795   155802 
  155737   155750   155858   155969   156031   156053   156064   156047 
  155969   155865   155818   155838   155869   155895   155931   155942 
  155871   155769   155731   155706   155652   155656   155709   155713 
  155704   155756   155830   155907   156037   156180   156239   156190 
  156085   155984   155933   155957   156027   156095   156138   156122 
  156049   155933   155776   155649   155578   155551   155607   155691 
  155723   155748   155806   155884   155972   156061   156105   156069 
  156018   155970   155866   155760   155753   155803   155792   155753 
  155783   155845   155861   155846   155879   155987   156092   156119 
  156050   155920   155846   155873   155926   155934   155920   155923 
  155899   155841   155821   155823   155783   155733   155734   155790 
  155822   155771   155694   155661   155672   155714   155783   155852 
  155933   156031   156082   156065   156028   156039   156114   156158 
  156065   155885   155771   155760   155773   155771   155775   155803 
  155871   155961   156007   155980   155920   155880   155877   155910 
  156010   156116   156104   156041   156022   155943   155779   155655 
  155579   155557   155663   155825   155937   156020   156072   156065 
  156034   155964   155861   155804   155814   155854   155942   156055 
  156100   156073   156045   156015   155969   155918   155877   155849 
  155827   155895   156068   156166   156055   155823   155675   155649 
  155632   155633   155706   155791   155864   155903   155891   155898 
  155945   155974   155972   155946   155895   155826   155785   155811 
  155903   155997   155987   155896   155861   155871   155872   155938 
  156043   156057   155976   155887   155858   155888   155892   155852 
  155846   155827   155706   155601   155633   155763   155919   156038 
  156066   156004   155872   155722   155628   155619   155645   155668 
  155734   155830   155856   155819   155842   155935   156016   156028 
