Origin Time       2025/03/30 22:55:00
Lat.              41.993
Long.             142.725
Depth. (km)       55
Mag.              4.6
Station Code      TKCH04
Station Lat.      43.1739
Station Long.     142.9176
Station Height(m) 220
Record Time       2025/03/30 22:56:35
Sampling Freq(Hz) 100Hz
Duration Time(s)  120
Dir.              6
Scale Factor      7845(gal)/8223790
Max. Acc. (gal)   0.605
Last Correction   2025/03/30 22:56:36
Memo.             
[...]
    4229     4259     4199     4087     4020     4097     4237     4315 
    4328     4333     4361     4294     4106     4004     4036     4118 
    4170     4156     4164     4193     4193     4198     4147     4141 
    4337     4449     4302     4151     4074     3960     3920     4091 
    4283     4336     4415     4479     4290     4055     4044     4109 
    4132     4193     4267     4244     4129     4035     4033     4121 
    4280     4465     4572     4492     4226     3947     3809     3824 
    3983     4244     4510     4634     4465     4122     3916     3894 
    3982     4180     4352     4315     4136     4050     4101     4176 
    4253     4274     4224     4249     4310     4224     4056     4036 
    4167     4225     4180     4162     4160     4205     4286     4222 
    4102     4201     4395     4398     4233     4101     4052     4056 
    4089     4182     4375     4455     4267     4070     4004     4000 
    4152     4395     4434     4284     4182     4118     4021     4028 
    4153     4278     4369     4340     4156     3993     3956     3993 
    4081     4290     4545     4569     4291     4008     3974     4105 
    4172     4149     4206     4320     4267     4098     4023     4060 
    4148     4179     4139     4218     4391     4444     4383     4217 
    3962     3881     4070     4268     4314     4284     4222     4131 
    4114     4159     4167     4266     4413     4348     4179     4075 
    4014     4067     4236     4368     4371     4278     4212     4213 
    4210     4121     3981     3981     4190     4359     4311     4236 
    4298     4298     4135     4052     4058     4040     4152     4287 
    4217     4133     4172     4189     4166     4203     4253     4252 
    4213     4131     4063     4094     4199     4348     4461     4347 
    4002     3747     3817     4078     4290     4432     4477     4310 
    4062     4031     4279     4452     4267     4035     4093     4229 
    4224     4185     4183     4176     4210     4325     4337     4162 
    4070     4148     4185     4190     4263     4306     4293     4297 
    4249     4114     4013     3997     4095     4290     4442     4440 
    4299     4152     4028     3929     4014     4182     4199     4198 
    4249     4191     4086     4078     4099     4118     4228     4384 
    4344     4110     3977     4029     4163     4301     4361     4337 
    4309     4280     4187     4033     3947     4044     4253     4372 
    4336     4275     4236     4199     4201     4203     4212     4247 
    4241     4229     4195     4097     4101     4210     4259     4260 
    4247     4163     4048     4071     4221     4247     4163     4183 
    4213     4121     4063     4128     4213     4272     4279     4202 
    4089     4020     4045     4153     4306     4448     4390     4145 
    4059     4124     4090     4082     4179     4245     4268     4236 
    4171     4186     4257     4298     4267     4182     4147     4158 
    4125     4121     4199     4226     4172     4243     4401     4360 
    4182     4094     4089     4131     4194     4222     4202     4135 
    4104     4171     4264     4313     4298     4252     4205     4155 
    4109     4031     4004     4152     4302     4311     4259     4176 
    4095     4089     4180     4276     4264     4230     4197     4031 
    3905     4067     4298     4320     4261     4291     4276     4162 
    4068     4002     4020     4162     4275     4334     4391     4388 
    4330     4233     4174     4195     4174     4155     4210     4174 
    4040     3986     4139     4422     4531     4428     4283     4085 
    3927     3969     4086     4110     4155     4332     4387     4197 
    4040     3991     4014     4139     4205     4212     4303     4375 
    4301     4145     4078     4159     4237     4224     4202     4229 
    4237     4216     4199     4160     4170     4279     4351     4268 
    4040     3871     4024     4360     4506     4406     4272     4229 
    4195     4060     3909     3890     4010     4182     4325     4363 
    4255     4153     4186     4226     4229     4260     4263     4205 
    4114     4050     4070     4135     4213     4305     4384     4396 
    4194     3937     4040     4287     4268     4124     4110     4264 
    4388     4301     4117     3993     4035     4268     4450     4345 
    4101     3996     4008     4081     4279     4428     4448     4450 
    4305     4041     3901     3906     4052     4248     4329     4321 
    4251     4166     4163     4218     4239     4174     4141     4163 
    4086     4033     4086     4090     4185     4406     4429     4295 
    4266     4237     4047     3861     3937     4183     4318     4295 
    4229     4207     4207     4153     4121     4186     4270     4256 
    4145     4095     4081     4014     4094     4347     4545     4587 
    4411     4132     3985     3955     4028     4249     4426     4399 
    4268     4159     4116     4139     4128     4056     4089     4212 
    4287     4336     4311     4147     4013     4023     4109     4225 
    4266     4164     4051     4048     4159     4253     4282     4398 
    4456     4221     4008     4028     4052     4079     4202     4321 
    4407     4406     4191     3955     3991     4198     4293     4216 
    4060     4001     4183     4461     4544     4372     4148     4047 
    4029     4025     4122     4298     4329     4217     4175     4183 
    4155     4167     4256     4353     4284     4029     3958     4175 
    4341     4376     4340     4171     4041     4081     4102     4090 
    4140     4185     4187     4193     4202     4198     4214     4267 
    4205     4047     4089     4284     4306     4207     4203     4222 
    4143     4094     4226     4399     4423     4320     4195     4102 
    4013     3962     4008     4126     4305     4421     4328     4144 
    4001     3936     4039     4280     4519     4552     4290     4014 
    4004     4176     4266     4156     4064     4137     4271     4374 
    4332     4140     4002     4031     4186     4297     4255     4195 
    4139     4050     4114     4305     4398     4414     4425     4321 
    4068     3877     3888     3998     4112     4206     4302     4407 
    4344     4066     3913     4099     4338     4347     4237     4168 
    4144     4185     4271     4325     4305     4240     4244     4328 
    4279     4020     3839     3923     4087     4214     4371     4492 
    4411     4195     4050     4024     4109     4266     4280     4131 
    4128     4286     4252     4047     4010     4180     4367     4433 
    4295     4068     4027     4171     4228     4083     3905     3896 
    4090     4342     4467     4390     4260     4241     4253     4210 
    4144     4068     4060     4132     4189     4251     4302     4293 
    4280     4271     4251     4186     4041     3975     4043     4140 
    4260     4321     4249     4179     4178     4203     4237     4247 
    4263     4267     4191     4137     4153     4176     4214     4220 
    4178     4159     4112     4021     4051     4224     4364     4388 
    4314     4147     3964     3954     4171     4355     4291     4172 
    4167     4122     4079     4205     4330     4321     4291     4270 
    4194     4120     4140     4191     4167     4075     4010     4108 
    4318     4406     4287     4089     3997     4163     4390     4422 
    4328     4185     4055     4012     4044     4166     4294     4342 
    4341     4263     4218     4259     4213     4144     4153     4124 
    4089     4077     4018     4044     4228     4372     4311     4136 
    4041     4077     4185     4303     4318     4194     4095     4128 
    4191     4229     4302     4337     4229     4105     4106     4164 
    4195     4256     4309     4230     4151     4158     4152     4221 
    4321     4279     4214     4202     4162     4128     4126     4132 
    4189     4301     4315     4145     3966     3969     4156     4365 
    4378     4213     4095     4091     4110     4131     4222     4348 
    4348     4245     4174     4122     4098     4143     4179     4168 
    4148     4105     4102     4221     4298     4221     4143     4141 
    4190     4274     4290     4197     4095     4071     4117     4156 
    4186     4260     4345     4378     4293     4163     4171     4237 
    4232     4233     4224     4141     4048     4021     4085     4205 
    4380     4498     4322     4047     4056     4194     4214     4187 
    4210     4261     4174     3998     4006     4128     4213     4267 
    4240     4185     4191     4193     4133     4093     4153     4210 
    4186     4217     4278     4259     4193     4067     3979     4095 
    4305     4411     4380     4256     4101     4012     4043     4105 
    4152     4232     4317     4328     4224     4116     4140     4221 
    4298     4365     4353     4276     4164     4005     3931     4048 
    4257     4455     4538     4417     4218     4060     3931     3925 
    4047     4148     4225     4299     4325     4284     4201     4120 
    4098     4141     4224     4274     4189     4035     3946     3982 
    4144     4309     4403     4469     4444     4214     3928     3894 
    4140     4372     4386     4245     4102     4023     4081     4253 
    4317     4306     4403     4444     4290     4102     4037     4059 
    4052     4104     4226     4252     4294     4383     4253     3987 
    3916     4067     4276     4387     4309     4117     4054     4162 
    4244     4267     4286     4232     4164     4179     4182     4091 
    4010     4071     4183     4190     4168     4206     4197     4108 
    4075     4160     4267     4364     4426     4365     4229     4108 
    4032     4087     4233     4320     4313     4207     4066     4054 
    4124     4143     4214     4365     4348     4145     4071     4163 
    4206     4199     4230     4294     4342     4301     4175     4099 
    4135     4172     4132     4124     4179     4210     4255     4283 
    4197     4140     4198     4216     4141     4095     4114     4093 
    4043     4132     4295     4338     4310     4240     4091     4047 
    4132     4170     4205     4220     4171     4203     4214     4105 
    4051     4137     4310     4433     4442     4418     4345     4270 
    4234     4112     3950     3912     4018     4191     4294     4291 
    4225     4104     4085     4225     4307     4280     4234     4108 
    3931     3936     4137     4294     4351     4396     4365     4237 
    4116     4063     4128     4299     4409     4330     4137     3997 
    3990     4082     4174     4155     4109     4251     4492     4479 
    4175     3974     4056     4185     4239     4282     4249     4131 
    4062     4037     4008     4071     4233     4334     4321     4252 
    4140     4044     4102     4317     4464     4402     4290     4220 
    4095     4009     4060     4144     4205     4263     4309     4324 
    4253     4128     4079     4112     4166     4230     4218     4121 
    4052     4048     4060     4058     4131     4270     4261     4189 
    4257     4291     4190     4164     4252     4332     4369     4330 
    4214     4101     4017     3970     4039     4214     4334     4364 
    4369     4322     4224     4147     4149     4191     4139     4008 
    3951     3998     4108     4234     4282     4259     4268     4334 
    4337     4172     4027     4058     4093     4101     4193     4263 
    4259     4276     4318     4294     4180     4074     4094     4228 
    4299     4252     4195     4128     4041     4082     4222     4301 
    4299     4283     4297     4283     4189     4136     4152     4109 
    4047     4029     4052     4137     4244     4311     4363     4367 
    4243     4091     4060     4099     4128     4139     4155     4209 
    4263     4283     4315     4318     4217     4112     4108     4136 
    4128     4110     4121     4228     4380     4391     4290     4236 
    4209     4158     4102     4083     4159     4275     4293     4220 
    4186     4156     4085     4128     4297     4345     4247     4158 
    4052     3946     3983     4175     4380     4444     4372     4271 
    4139     3985     3950     4102     4284     4310     4260     4249 
    4198     4101     4083     4202     4403     4549     4499     4288 
    4068     3858     3703     3801     4126     4371     4421     4378 
    4283     4198     4234     4302     4225     4110     4124     4152 
    4089     4070     4159     4237     4252     4244     4267     4342 
    4379     4243     4000     3897     4014     4175     4216     4104 
    3940     3912     4118     4406     4549     4549     4491     4345 
    4101     3854     3788     3979     4271     4450     4372     4128 
    4009     4108     4284     4382     4359     4288     4234     4280 
    4359     4297     4233     4288     4286     4199     4101     3923 
    3712     3703     3998     4374     4503     4391     4236     4174 
    4253     4329     4229     4075     3994     3942     3951     4095 
    4243     4252     4220     4261     4363     4445     4423     4329 
    4284     4239     4067     3909     3985     4166     4164     4052 
    4044     4104     4194     4374     4510     4459     4286     4062 
    3816     3727     3989     4465     4733     4556     4179     3991 
    4040     4094     4102     4195     4334     4367     4276     4197 
    4249     4305     4216     4116     4126     4230     4361     4371 
    4163     3812     3557     3649     4009     4340     4441     4333 
    4264     4367     4533     4585     4423     4166     3973     3885 
    3865     3889     4083     4442     4646     4581     4445     4303 
    4068     3808     3754     3920     4050     4105     4189     4232 
    4249     4334     4401     4361     4314     4367     4419     4293 
    4043     3885     3921     4086     4229     4284     4257     4164 
    4125     4272     4542     4635     4348     3920     3724     3804 
    3951     3987     3951     4029     4252     4449     4518     4496 
    4399     4217     4035     3967     3963     3932     3998     4221 
    4348     4276     4236     4324     4409     4407     4353     4280 
    4151     4009     4009     4136     4225     4232     4224     4267 
    4380     4479     4500     4464     4372     4203     3950     3750 
    3748     3874     4037     4199     4326     4476     4618     4606 
    4473     4321     4118     3932     3878     3901     3917     3928 
    3963     4044     4093     4056     4023     4079     4255     4496 
    4612     4477     4257     4178     4247     4359     4425     4329 
    4016     3709     3693     3963     4326     4572     4591     4460 
    4288     4120     3928     3735     3700     3920     4249     4519 
    4679     4611     4352     4201     4137     3987     3909     3997 
    4159     4394     4599     4513     4155     3882     3871     4036 
    4263     4384     4353     4287     4152     3935     3817     3862 
    3977     4168     4467     4741     4803     4607     4307     4085 
    3955     3897     3964     4118     4209     4249     4415     4585 
    4464     4117     3775     3557     3573     3773     3937     4044 
    4245     4500     4633     4602     4425     4172     4110     4306 
    4463     4428     4328     4251     4182     4152     4144     4045 
    3927     3959     4167     4450     4603     4554     4396     4155 
    3920     3825     3816     3839     3923     4067     4283     4502 
    4580     4529     4405     4166     3867     3688     3734     3979 
    4264     4394     4344     4206     4060     4035     4183     4365 
    4422     4364     4279     4180     4041     3881     3788     3879 
    4143     4398     4482     4475     4556     4648     4560     4330 
    4086     3906     3873     3982     4147     4287     4401     4531 
    4608     4513     4274     4002     3797     3747     3910     4180 
    4307     4284     4276     4232     4072     3910     3844     3900 
    4074     4293     4415     4391     4306     4249     4239     4186 
    4035     3923     3997     4171     4220     4091     4001     4056 
    4156     4264     4369     4446     4506     4526     4477     4340 
    4120     4000     4135     4344     4379     4286     4239     4234 
    4194     4166     4175     4145     4075     4032     4054     4104 
    4105     4112     4179     4218     4187     4163     4156     4136 
    4149     4241     4324     4280     4148     4027     3946     3935 
    4056     4247     4328     4287     4257     4251     4241     4266 
    4287     4291     4348     4399     4365     4314     4291     4276 
    4241     4183     4143     4077     3989     3964     3973     4031 
    4160     4198     4140     4183     4297     4317     4222     4089 
    4041     4099     4152     4172     4183     4186     4174     4139 
    4144     4234     4297     4243     4113     4020     4106     4318 
    4430     4383     4303     4270     4244     4195     4149     4102 
    4087     4156     4197     4162     4210     4314     4295     4259 
    4295     4241     4052     3867     3851     4041     4206     4245 
    4320     4394     4334     4203     4148     4202     4278     4294 
    4272     4263     4234     4158     4137     4214     4218     4131 
    4089     4110     4144     4179     4226     4274     4247     4125 
    4009     3986     4047     4098     4113     4174     4311     4449 
    4506     4483     4414     4259     4082     4054     4152     4260 
    4329     4283     4128     3994     3924     3931     4047     4179 
    4232     4237     4232     4201     4194     4251     4229     4083 
    4023     4113     4266     4429     4526     4473     4302     4172 
    4152     4137     4098     4066     4040     4074     4158     4190 
    4187     4249     4383     4464     4388     4202     4055     4054 
    4121     4109     4031     4032     4131     4234     4282     4205 
    4054     3977     3978     3966     3952     4051     4239     4341 
    4411     4548     4550     4372     4218     4166     4179     4174 
    4082     3990     4013     4135     4260     4384     4487     4437 
    4279     4171     4104     4072     4133     4216     4259     4252 
    4205     4159     4118     4121     4197     4272     4301     4278 
    4207     4132     4071     4068     4095     4023     3923     3973 
    4164     4390     4537     4507     4348     4201     4109     4054 
    4070     4149     4197     4164     4083     3994     3964     4059 
    4221     4297     4255     4182     4124     4120     4176     4190 
    4128     4117     4186     4232     4286     4399     4429     4315 
    4207     4153     4105     4090     4120     4163     4243     4363 
    4410     4288     4131     4082     4098     4147     4214     4218 
    4182     4216     4264     4226     4168     4166     4187     4240 
    4340     4387     4290     4109     4025     4101     4167     4149 
    4135     4114     4081     4125     4230     4257     4193     4137 
    4118     4121     4133     4120     4097     4114     4135     4089 
    4051     4125     4306     4490     4531     4392     4230     4194 
    4241     4283     4290     4247     4172     4129     4125     4102 
    4060     4063     4152     4279     4315     4266     4237     4201 
