Origin Time       2025/03/30 22:55:00
Lat.              41.993
Long.             142.725
Depth. (km)       55
Mag.              4.6
Station Code      TKCH04
Station Lat.      43.1739
Station Long.     142.9176
Station Height(m) 48
Record Time       2025/03/30 22:56:35
Sampling Freq(Hz) 100Hz
Duration Time(s)  120
Dir.              2
Scale Factor      2942(gal)/8224139
Max. Acc. (gal)   0.241
Last Correction   2025/03/30 22:56:36
Memo.             
[...]
    2682     2704     2677     2608     2606     2673     2679     2648 
    2710     2836     2887     2857     2829     2817     2836     2866 
    2812     2729     2736     2752     2705     2668     2671     2667 
    2612     2540     2567     2701     2825     2857     2810     2771 
    2779     2768     2762     2855     2937     2867     2772     2762 
    2756     2722     2712     2698     2648     2606     2601     2625 
    2659     2720     2803     2828     2764     2749     2825     2853 
    2799     2779     2839     2849     2740     2656     2678     2708 
    2731     2775     2768     2705     2691     2743     2751     2695 
    2681     2728     2775     2809     2821     2791     2739     2677 
    2629     2633     2664     2733     2828     2856     2833     2835 
    2825     2755     2690     2743     2826     2783     2666     2578 
    2552     2605     2710     2808     2843     2841     2874     2867 
    2756     2700     2776     2818     2772     2766     2793     2754 
    2660     2610     2689     2830     2852     2736     2655     2694 
    2728     2656     2619     2718     2790     2740     2725     2791 
    2810     2766     2755     2793     2813     2774     2722     2720 
    2736     2720     2712     2727     2716     2731     2817     2856 
    2760     2682     2745     2814     2790     2760     2736     2705 
    2745     2833     2828     2728     2670     2690     2718     2733 
    2727     2694     2685     2712     2700     2679     2733     2775 
    2779     2817     2836     2806     2770     2749     2772     2785 
    2733     2709     2743     2758     2727     2644     2606     2732 
    2856     2808     2731     2724     2708     2686     2729     2829 
    2875     2806     2733     2716     2671     2623     2651     2727 
    2793     2825     2775     2702     2718     2783     2828     2816 
    2745     2717     2747     2722     2650     2617     2650     2731 
    2848     2921     2875     2797     2779     2767     2722     2698 
    2731     2763     2720     2677     2706     2728     2714     2751 
    2805     2762     2646     2628     2755     2833     2779     2732 
    2779     2826     2786     2770     2790     2708     2658     2783 
    2871     2803     2724     2685     2663     2681     2741     2768 
    2700     2646     2706     2774     2762     2733     2763     2812 
    2786     2708     2681     2731     2806     2833     2767     2662 
    2629     2698     2756     2722     2670     2674     2704     2739 
    2803     2867     2866     2817     2785     2787     2806     2816 
    2820     2818     2760     2683     2675     2683     2647     2663 
    2744     2768     2736     2731     2735     2728     2740     2785 
    2837     2841     2786     2748     2722     2666     2641     2674 
    2690     2702     2748     2781     2743     2673     2682     2783 
    2852     2830     2775     2733     2736     2805     2853     2791 
    2733     2728     2658     2590     2650     2728     2744     2760 
    2802     2835     2806     2766     2798     2849     2840     2760 
    2632     2570     2646     2743     2740     2720     2809     2870 
    2794     2762     2805     2758     2679     2674     2700     2737 
    2797     2824     2799     2786     2762     2710     2710     2737 
    2721     2708     2712     2697     2714     2775     2795     2741 
    2679     2658     2695     2760     2781     2770     2776     2789 
    2786     2766     2728     2722     2790     2876     2878     2787 
    2714     2674     2643     2682     2758     2759     2741     2786 
    2825     2764     2674     2689     2774     2786     2695     2616 
    2608     2651     2729     2774     2754     2764     2812     2816 
    2813     2814     2767     2702     2679     2737     2817     2805 
    2749     2740     2729     2673     2600     2555     2590     2725 
    2852     2864     2812     2774     2771     2824     2903     2891 
    2740     2619     2671     2779     2814     2779     2674     2606 
    2675     2764     2772     2768     2814     2851     2783     2693 
    2709     2764     2778     2763     2741     2729     2712     2686 
    2704     2733     2729     2706     2679     2687     2732     2752 
    2745     2752     2764     2758     2764     2767     2724     2720 
    2783     2844     2856     2779     2732     2817     2849     2770 
    2768     2839     2805     2700     2666     2701     2735     2727 
    2682     2679     2687     2613     2579     2677     2762     2768 
    2751     2737     2749     2760     2766     2790     2791     2778 
    2817     2864     2847     2790     2752     2724     2694     2713 
    2735     2691     2656     2690     2737     2743     2731     2758 
    2809     2820     2786     2760     2728     2668     2667     2752 
    2795     2779     2781     2758     2694     2685     2749     2787 
    2783     2829     2891     2832     2682     2620     2681     2755 
    2787     2778     2743     2712     2675     2662     2736     2795 
    2754     2714     2748     2783     2736     2658     2689     2781 
    2768     2705     2731     2782     2763     2741     2758     2716 
    2619     2606     2728     2845     2832     2766     2748     2732 
    2708     2754     2835     2820     2727     2695     2722     2737 
    2779     2828     2808     2772     2786     2799     2754     2686 
    2644     2654     2725     2775     2747     2732     2767     2774 
    2747     2756     2820     2872     2829     2702     2635     2693 
    2754     2708     2650     2690     2752     2763     2740     2694 
    2685     2712     2722     2779     2849     2848     2849     2839 
    2744     2671     2648     2662     2760     2870     2879     2787 
    2652     2602     2675     2756     2795     2801     2764     2759 
    2806     2803     2743     2718     2760     2812     2795     2743 
    2725     2721     2689     2644     2648     2721     2786     2782 
    2755     2760     2785     2793     2762     2679     2637     2717 
    2801     2806     2802     2778     2695     2660     2739     2837 
    2847     2774     2722     2745     2752     2673     2614     2654 
    2693     2720     2797     2801     2668     2616     2747     2863 
    2840     2749     2671     2660     2758     2866     2862     2801 
    2774     2712     2608     2628     2775     2805     2704     2685 
    2747     2781     2825     2859     2833     2787     2744     2728 
    2774     2798     2713     2608     2641     2803     2907     2829 
    2663     2590     2641     2704     2724     2721     2663     2614 
    2705     2832     2836     2808     2849     2882     2848     2805 
    2776     2712     2658     2716     2806     2767     2654     2633 
    2678     2678     2714     2816     2843     2794     2787     2805 
    2749     2651     2654     2767     2844     2839     2782     2682 
    2641     2716     2779     2767     2720     2644     2619     2735 
    2878     2891     2843     2836     2810     2720     2675     2735 
    2816     2830     2783     2737     2713     2690     2641     2578 
    2581     2691     2801     2816     2768     2741     2747     2722 
    2682     2683     2732     2803     2828     2736     2640     2679 
    2776     2821     2818     2781     2704     2663     2752     2876 
    2840     2709     2679     2690     2681     2752     2860     2866 
    2795     2755     2754     2710     2648     2695     2770     2713 
    2647     2689     2727     2705     2706     2737     2755     2793 
    2857     2856     2798     2775     2752     2720     2756     2802 
    2760     2678     2652     2700     2759     2795     2786     2731 
    2728     2797     2816     2778     2759     2762     2740     2656 
    2605     2705     2793     2722     2685     2783     2844     2795 
    2745     2722     2687     2675     2735     2789     2751     2716 
    2772     2828     2787     2728     2747     2771     2745     2779 
    2855     2813     2687     2656     2736     2772     2714     2666 
    2659     2652     2670     2720     2759     2762     2752     2771 
    2809     2820     2822     2833     2820     2782     2721     2652 
    2652     2709     2709     2664     2690     2766     2799     2801 
    2806     2806     2833     2872     2821     2705     2654     2681 
    2736     2785     2764     2722     2763     2779     2698     2697 
    2763     2702     2620     2681     2762     2709     2612     2647 
    2767     2760     2641     2625     2747     2841     2830     2790 
    2795     2860     2921     2910     2851     2770     2664     2614 
    2681     2772     2789     2736     2635     2583     2705     2845 
    2783     2652     2671     2787     2864     2847     2752     2686 
    2709     2744     2754     2797     2867     2863     2760     2667 
    2682     2759     2774     2755     2803     2825     2710     2605 
    2631     2721     2795     2826     2821     2820     2855     2882 
    2824     2675     2529     2524     2658     2771     2778     2714 
    2624     2577     2627     2736     2825     2859     2844     2786 
    2729     2751     2820     2832     2774     2690     2651     2720 
    2839     2898     2893     2836     2747     2690     2677     2663 
    2646     2619     2582     2610     2717     2824     2891     2880 
    2814     2793     2783     2728     2720     2752     2721     2631 
    2577     2621     2677     2697     2767     2832     2839     2884 
    2938     2901     2794     2686     2654     2708     2725     2694 
    2683     2677     2695     2764     2822     2820     2755     2697 
    2721     2776     2785     2771     2748     2721     2747     2813 
    2849     2841     2775     2648     2578     2656     2754     2743 
    2729     2789     2826     2814     2812     2828     2808     2725 
    2663     2710     2798     2774     2643     2547     2550     2593 
    2648     2724     2763     2748     2766     2848     2910     2895 
    2835     2781     2721     2647     2636     2695     2749     2781 
    2786     2756     2725     2732     2770     2789     2775     2760 
    2722     2652     2628     2710     2820     2832     2803     2820 
    2776     2683     2720     2828     2839     2793     2768     2766 
    2744     2693     2708     2817     2889     2856     2778     2700 
    2659     2674     2705     2683     2609     2608     2717     2793 
    2772     2740     2720     2702     2731     2801     2851     2857 
    2839     2787     2694     2628     2637     2678     2720     2760 
    2787     2822     2853     2820     2732     2683     2721     2791 
    2825     2793     2728     2693     2709     2767     2778     2700 
    2658     2673     2674     2710     2778     2798     2790     2799 
    2786     2735     2712     2702     2648     2631     2731     2833 
    2836     2829     2864     2843     2775     2786     2843     2825 
    2739     2686     2704     2721     2712     2716     2727     2749 
    2798     2832     2812     2782     2797     2855     2902     2884 
    2789     2650     2593     2683     2768     2736     2687     2687 
    2690     2675     2658     2693     2787     2870     2883     2816 
    2706     2652     2705     2785     2789     2747     2755     2803 
    2822     2809     2809     2802     2716     2617     2614     2668 
    2694     2658     2643     2740     2833     2785     2682     2651 
    2710     2789     2758     2606     2511     2613     2775     2820 
    2814     2840     2871     2895     2874     2803     2713     2614 
    2570     2575     2590     2656     2754     2816     2817     2768 
    2756     2789     2770     2755     2810     2841     2808     2798 
    2812     2735     2598     2566     2666     2783     2814     2766 
    2704     2639     2597     2648     2771     2853     2851     2799 
    2770     2806     2868     2894     2895     2852     2772     2789 
    2868     2836     2710     2592     2506     2481     2536     2641 
    2724     2764     2798     2771     2623     2505     2562     2643 
    2614     2589     2651     2754     2836     2859     2808     2727 
    2693     2749     2836     2855     2835     2849     2845     2791 
    2764     2768     2752     2755     2778     2752     2733     2775 
    2781     2740     2718     2713     2778     2872     2782     2563 
    2498     2582     2637     2670     2741     2839     2957     3060 
    3069     2975     2816     2652     2554     2535     2563     2587 
    2614     2695     2816     2891     2951     3018     3040     3067 
    3072     2941     2794     2760     2740     2637     2548     2659 
    2847     2806     2609     2506     2498     2477     2450     2497 
    2621     2781     2922     2970     2925     2893     2910     2951 
    2982     2948     2878     2793     2585     2297     2160     2205 
    2309     2459     2652     2774     2853     3065     3322     3397 
    3265     2984     2704     2583     2542     2465     2373     2319 
    2350     2446     2528     2593     2670     2801     3024     3191 
    3164     3045     2941     2837     2755     2691     2655     2745 
    2910     2938     2816     2705     2656     2693     2841     2880 
    2682     2505     2566     2766     2882     2841     2803     2818 
    2745     2628     2569     2471     2317     2234     2278     2405 
    2511     2558     2651     2875     3195     3418     3400     3339 
    3388     3323     3042     2781     2702     2728     2659     2452 
    2280     2278     2467     2735     2860     2771     2601     2455 
    2463     2698     2938     2951     2758     2546     2517     2635 
    2685     2682     2767     2867     2844     2826     2976     3071 
    2874     2609     2581     2748     2914     3001     3018     2976 
    2944     2953     2890     2716     2552     2439     2355     2361 
    2470     2623     2795     2953     3032     3032     3001     3009 
    3038     2953     2759     2628     2610     2616     2593     2565 
    2606     2770     2980     3033     2862     2743     2866     2926 
    2716     2490     2473     2582     2670     2713     2763     2817 
    2855     2891     2945     2964     2862     2678     2516     2447 
    2496     2543     2498     2462     2521     2606     2663     2721 
    2775     2763     2667     2535     2520     2694     2889     2960 
    2930     2821     2768     2849     2830     2689     2702     2797 
    2739     2708     2890     3082     3133     3142     3024     2650 
    2277     2208     2339     2421     2415     2400     2452     2641 
    2890     3041     3099     3121     3057     2897     2712     2608 
    2639     2743     2862     2988     3051     3022     3030     3075 
    2965     2728     2606     2668     2768     2828     2897     2987 
    2988     2832     2605     2459     2444     2484     2560     2721 
    2913     3018     2943     2697     2442     2322     2296     2300 
    2397     2556     2635     2705     2895     3082     3095     2961 
    2764     2565     2512     2659     2776     2659     2442     2384 
    2519     2697     2857     2990     3025     2951     2824     2714 
    2717     2832     2893     2806     2683     2612     2575     2617 
    2743     2822     2790     2739     2744     2779     2837     2945 
    2994     2859     2728     2793     2812     2683     2691     2851 
    2932     2926     2874     2721     2558     2492     2451     2405 
    2477     2747     3076     3226     3130     2982     2889     2752 
    2619     2640     2722     2686     2505     2371     2482     2705 
    2829     2956     3168     3288     3273     3227     3095     2841 
    2631     2602     2640     2567     2479     2505     2528     2492 
    2470     2477     2475     2451     2462     2555     2652     2643 
    2540     2481     2538     2632     2700     2733     2774     2902 
    2999     2876     2667     2633     2812     3011     3021     2913 
    2921     3051     3140     3098     2944     2774     2658     2596 
    2608     2712     2781     2708     2589     2525     2570     2693 
    2763     2768     2785     2779     2698     2571     2533     2675 
    2878     2998     3049     3092     3100     3009     2795     2583 
    2571     2718     2805     2816     2809     2775     2755     2716 
    2604     2529     2523     2508     2563     2716     2830     2844 
    2814     2772     2732     2736     2795     2828     2775     2697 
    2691     2785     2875     2839     2721     2640     2619     2621 
    2612     2581     2583     2627     2581     2497     2619     2933 
    3159     3140     2970     2808     2698     2658     2670     2606 
    2494     2523     2639     2648     2578     2562     2596     2671 
    2810     2949     3007     3009     3040     3119     3159     3057 
    2802     2556     2519     2617     2663     2651     2646     2678 
    2760     2891     3083     3258     3258     3087     2901     2783 
    2716     2681     2673     2662     2606     2505     2455     2529 
    2589     2540     2556     2702     2810     2835     2864     2909 
    2936     2884     2737     2575     2427     2330     2404     2604 
    2786     2934     3045     3045     2965     2947     2986     2934 
    2735     2531     2504     2633     2778     2862     2826     2675 
    2594     2668     2690     2602     2632     2741     2725     2619 
    2524     2506     2594     2685     2714     2693     2641     2694 
    2870     2984     2978     2867     2674     2573     2613     2628 
    2635     2739     2862     2938     3006     3080     3161     3180 
    3065     2883     2766     2717     2608     2421     2316     2365 
    2458     2477     2467     2535     2655     2751     2843     2955 
    2984     2868     2752     2758     2809     2812     2748     2675 
    2668     2739     2843     2878     2802     2728     2686     2629 
    2662     2843     2992     3010     3018     3014     2894     2751 
    2701     2708     2721     2710     2656     2593     2532     2461 
    2428     2444     2454     2492     2558     2604     2687     2821 
    2929     3013     3011     2883     2795     2855     2929     2893 
    2774     2686     2721     2801     2766     2691     2781     2957 
    2979     2897     2936     3009     2880     2637     2531     2551 
    2538     2493     2490     2515     2521     2547     2655     2785 
    2826     2803     2766     2698     2640     2662     2745     2836 
    2880     2866     2828     2821     2882     2975     2968     2855 
    2805     2856     2859     2818     2839     2862     2806     2702 
    2582     2516     2532     2590     2687     2762     2687     2539 
    2512     2597     2632     2628     2686     2767     2810     2853 
    2883     2848     2772     2763     2870     2953     2871     2732 
    2678     2631     2513     2431     2498     2662     2754     2764 
    2829     2960     3051     3019     2920     2864     2808     2733 
    2732     2749     2693     2646     2708     2821     2836     2748 
    2694     2708     2733     2740     2733     2720     2673     2617 
    2682     2826     2852     2747     2682     2758     2897     2937 
