Origin Time       2025/03/30 22:55:00
Lat.              41.993
Long.             142.725
Depth. (km)       55
Mag.              4.6
Station Code      TKCH08
Station Lat.      42.4865
Station Long.     143.1520
Station Height(m) 260
Record Time       2025/03/30 22:56:11
Sampling Freq(Hz) 100Hz
Duration Time(s)  120
Dir.              3
Scale Factor      2942(gal)/8224139
Max. Acc. (gal)   0.673
Last Correction   2025/03/30 22:56:11
Memo.             
[...]
  204515   204520   204520   204516   204516   204519   204519   204516 
  204519   204522   204515   204512   204519   204519   204516   204515 
  204518   204520   204520   204516   204514   204514   204516   204520 
  204519   204516   204518   204520   204519   204518   204519   204518 
  204516   204519   204516   204515   204522   204522   204516   204515 
  204515   204515   204519   204520   204518   204518   204516   204518 
  204520   204518   204514   204516   204519   204519   204519   204520 
  204519   204516   204516   204514   204515   204520   204519   204514 
  204518   204518   204514   204515   204515   204514   204512   204515 
  204519   204515   204514   204518   204516   204516   204520   204520 
  204519   204516   204516   204519   204518   204514   204516   204522 
  204520   204515   204516   204522   204520   204514   204515   204516 
  204518   204520   204519   204516   204516   204514   204512   204519 
  204522   204516   204515   204518   204519   204518   204519   204520 
  204518   204515   204518   204518   204518   204520   204518   204514 
  204516   204518   204516   204518   204520   204519   204518   204515 
  204516   204518   204512   204514   204519   204520   204518   204516 
  204516   204518   204520   204520   204518   204516   204518   204520 
  204523   204520   204516   204516   204515   204516   204522   204522 
  204516   204516   204522   204520   204518   204518   204514   204515 
  204518   204519   204520   204515   204514   204519   204516   204514 
  204520   204520   204515   204516   204518   204515   204514   204518 
  204519   204516   204516   204519   204518   204516   204515   204515 
  204519   204522   204518   204515   204519   204518   204512   204516 
  204519   204515   204515   204520   204520   204518   204515   204512 
  204518   204523   204518   204515   204519   204519   204518   204518 
  204515   204514   204519   204516   204515   204522   204519   204515 
  204520   204520   204518   204519   204516   204518   204522   204520 
  204518   204516   204515   204519   204523   204519   204514   204518 
  204522   204516   204515   204518   204519   204519   204518   204518 
  204519   204518   204519   204520   204516   204519   204523   204519 
  204516   204519   204518   204518   204518   204515   204518   204522 
  204518   204515   204520   204519   204516   204520   204519   204514 
  204515   204516   204516   204515   204516   204518   204518   204516 
  204514   204514   204516   204516   204516   204519   204516   204516 
  204522   204519   204514   204518   204519   204514   204515   204520 
  204522   204519   204516   204519   204514   204514   204522   204519 
  204514   204515   204519   204519   204516   204515   204520   204520 
  204514   204514   204516   204519   204519   204519   204518   204514 
  204514   204518   204516   204514   204518   204519   204515   204515 
  204519   204519   204512   204515   204519   204516   204516   204516 
  204518   204519   204516   204515   204518   204518   204516   204516 
  204516   204519   204518   204516   204518   204515   204514   204518 
  204518   204518   204514   204514   204522   204519   204514   204515 
  204516   204515   204518   204518   204515   204518   204519   204520 
  204518   204516   204518   204516   204516   204516   204514   204512 
  204516   204518   204515   204516   204516   204515   204522   204523 
  204518   204516   204518   204519   204518   204515   204518   204523 
  204520   204516   204516   204518   204518   204518   204516   204518 
  204520   204516   204515   204520   204520   204516   204519   204515 
  204516   204526   204520   204515   204522   204520   204515   204516 
  204519   204522   204523   204519   204514   204514   204520   204522 
  204515   204515   204519   204515   204515   204522   204520   204515 
  204518   204522   204522   204522   204520   204518   204516   204519 
  204519   204519   204516   204514   204516   204519   204518   204519 
  204519   204516   204518   204519   204519   204520   204519   204514 
  204514   204519   204520   204518   204516   204516   204516   204518 
  204516   204515   204516   204522   204519   204515   204518   204516 
  204512   204514   204519   204520   204514   204514   204519   204519 
  204516   204514   204515   204518   204518   204518   204518   204516 
  204518   204519   204519   204522   204522   204515   204514   204519 
  204516   204515   204518   204518   204519   204522   204520   204518 
  204516   204516   204520   204525   204520   204519   204519   204519 
  204519   204519   204518   204518   204516   204518   204522   204519 
  204518   204519   204518   204514   204515   204518   204518   204516 
  204518   204520   204516   204512   204518   204522   204516   204514 
  204518   204520   204518   204514   204515   204520   204519   204515 
  204518   204520   204516   204518   204520   204516   204516   204518 
  204520   204522   204522   204520   204520   204519   204515   204516 
  204522   204518   204515   204518   204516   204514   204518   204518 
  204515   204518   204522   204519   204514   204514   204516   204515 
  204515   204518   204516   204518   204519   204518   204518   204518 
  204520   204518   204515   204518   204522   204519   204512   204515 
  204520   204518   204518   204519   204516   204518   204522   204520 
  204519   204518   204516   204514   204515   204519   204516   204518 
  204520   204515   204515   204520   204516   204515   204518   204520 
  204519   204512   204511   204516   204522   204518   204515   204522 
  204523   204518   204519   204516   204516   204523   204522   204515 
  204515   204518   204519   204520   204522   204520   204515   204515 
  204519   204518   204516   204522   204519   204514   204519   204523 
  204519   204519   204519   204518   204516   204516   204516   204516 
  204518   204519   204519   204519   204522   204522   204519   204518 
  204518   204519   204515   204516   204522   204519   204515   204518 
  204520   204515   204516   204523   204516   204510   204516   204520 
  204519   204522   204519   204518   204518   204518   204516   204518 
  204519   204522   204520   204515   204515   204522   204523   204516 
  204518   204522   204518   204514   204519   204520   204516   204516 
  204518   204518   204520   204520   204516   204514   204516   204518 
  204516   204518   204522   204520   204515   204516   204519   204516 
  204519   204522   204519   204518   204520   204518   204515   204520 
  204522   204518   204519   204522   204518   204516   204519   204516 
  204519   204525   204520   204519   204522   204522   204520   204520 
  204519   204520   204522   204520   204518   204519   204519   204518 
  204519   204522   204522   204519   204516   204519   204523   204519 
  204515   204520   204522   204516   204515   204516   204518   204515 
  204514   204518   204518   204518   204520   204519   204515   204516 
  204516   204518   204519   204518   204518   204518   204518   204516 
  204515   204515   204519   204520   204516   204519   204522   204516 
  204515   204520   204519   204516   204518   204516   204516   204519 
  204519   204515   204516   204518   204516   204516   204520   204519 
  204518   204519   204518   204515   204516   204516   204519   204519 
  204514   204518   204520   204515   204515   204519   204515   204516 
  204526   204519   204512   204515   204519   204522   204519   204515 
  204516   204516   204516   204522   204518   204516   204520   204516 
  204515   204520   204516   204515   204516   204515   204516   204519 
  204520   204520   204518   204519   204520   204518   204516   204516 
  204515   204515   204516   204520   204519   204515   204519   204520 
  204519   204520   204519   204516   204519   204516   204515   204519 
  204519   204514   204518   204523   204516   204512   204518   204518 
  204516   204519   204516   204512   204515   204520   204523   204520 
  204514   204515   204519   204518   204518   204519   204518   204518 
  204520   204520   204516   204518   204518   204516   204522   204520 
  204514   204519   204522   204519   204516   204516   204519   204525 
  204522   204514   204516   204520   204515   204515   204522   204523 
  204519   204516   204515   204519   204526   204522   204516   204516 
  204519   204519   204518   204518   204519   204516   204518   204518 
  204515   204516   204519   204520   204519   204518   204518   204514 
  204515   204519   204520   204519   204518   204519   204516   204518 
  204525   204519   204514   204519   204519   204520   204522   204516 
  204519   204522   204516   204516   204518   204514   204515   204519 
  204518   204518   204519   204514   204514   204520   204518   204514 
  204519   204523   204519   204515   204518   204522   204519   204516 
  204518   204519   204516   204514   204516   204522   204520   204518 
  204518   204518   204515   204516   204516   204520   204525   204520 
  204519   204520   204515   204515   204523   204523   204516   204519 
  204523   204518   204518   204519   204519   204520   204516   204514 
  204522   204523   204516   204518   204522   204519   204516   204519 
  204523   204520   204514   204518   204525   204519   204519   204522 
  204518   204516   204520   204520   204518   204519   204518   204518 
  204522   204519   204515   204519   204519   204516   204519   204519 
  204516   204514   204516   204519   204516   204515   204522   204522 
  204518   204515   204518   204520   204514   204515   204523   204519 
  204516   204516   204512   204518   204522   204514   204516   204520 
  204515   204520   204522   204515   204515   204518   204518   204518 
  204515   204515   204519   204518   204519   204523   204519   204512 
  204516   204519   204515   204515   204519   204519   204516   204516 
  204519   204519   204519   204519   204518   204515   204518   204520 
  204522   204520   204515   204512   204519   204520   204515   204518 
  204519   204515   204518   204519   204516   204514   204515   204519 
  204518   204516   204519   204519   204518   204518   204519   204522 
  204520   204516   204516   204519   204519   204520   204518   204515 
  204520   204518   204514   204519   204520   204515   204518   204522 
  204518   204516   204518   204516   204518   204519   204516   204518 
  204523   204523   204518   204516   204519   204516   204518   204523 
  204523   204519   204522   204519   204512   204514   204519   204518 
  204515   204518   204520   204518   204516   204515   204515   204519 
  204518   204515   204514   204516   204522   204520   204519   204520 
  204519   204516   204516   204516   204518   204516   204514   204515 
  204518   204518   204518   204518   204520   204519   204518   204520 
  204520   204518   204520   204518   204514   204516   204522   204519 
  204515   204516   204518   204519   204519   204516   204515   204519 
  204526   204539   204564   204601   204649   204688   204701   204678 
  204611   204522   204457   204457   204527   204616   204635   204573 
  204527   204565   204661   204763   204832   204819   204651   204288 
  203874   203758   204055   204376   204454   204537   204800   205051 
  205140   205012   204651   204183   203715   203278   203166   203735 
  204735   205445   205484   205128   204813   204591   204302   204039 
  203922   203829   203809   204093   204533   204780   204851   204877 
  204800   204653   204500   204356   204379   204537   204631   204773 
  204882   204672   204489   204719   204905   204677   204268   203985 
  204206   204927   205409   205239   204884   204819   204754   204261 
  203667   203493   203804   204434   205136   205467   205146   204711 
  204751   204828   204527   204175   203881   203640   203845   204419 
  204749   204807   204936   205046   204896   204485   203932   203593 
  203904   204402   204294   204099   204606   205171   204977   204372 
  204105   204317   204543   204499   204546   204853   204901   204508 
  204260   204435   204518   204306   204433   205089   205482   205070 
  204411   204348   204682   204591   204277   204506   204948   204859 
  204291   203893   204196   204809   204925   204805   204959   204822 
  204028   203493   203993   204854   204913   204178   203542   203548 
  204194   204992   205320   205146   204730   204126   203643   203871 
  204593   204807   204406   204385   205004   205345   204893   204225 
  204180   204921   205580   205128   204070   203762   204070   204244 
  204488   204862   205141   205451   205595   204990   203771   203092 
  203520   204377   204920   204790   204250   204157   204688   205141 
  205198   204932   204276   203740   204051   204572   204479   204369 
  204699   204940   204886   204596   203997   203717   204340   205167 
  205459   205098   204133   203449   203912   204592   204433   204105 
  204304   204595   204662   204637   204566   204484   204325   204295 
  204697   204967   204766   204649   204639   204456   204364   204516 
  204626   204483   204221   204245   204707   205150   205195   204939 
  204577   204246   203975   204022   204687   205181   204757   204160 
  203836   203531   203955   205147   205422   204666   204411   204499 
  204337   204462   204666   204687   204811   204209   202926   203067 
  204655   205491   205336   205271   205294   205046   204526   204205 
  204435   204444   203814   203480   203693   203998   204831   206109 
  206400   205382   204253   203675   203578   203829   204398   205222 
  205686   205194   204244   203832   204084   204445   204697   204754 
  204596   204596   204819   204822   204439   203978   203786   203991 
  204400   204691   204691   204333   203949   204383   205437   205511 
  204394   203777   204222   204601   204257   203837   204230   205077 
  205151   204500   204377   204742   204611   204442   204817   204734 
  203908   203524   203958   204684   205146   205012   204797   204885 
  204673   204024   203690   203899   204326   205065   205815   205621 
  204604   203937   203951   203910   203763   204265   204978   205008 
  204990   205271   204888   204083   204110   204673   204778   204229 
  203362   203396   204843   205762   205201   204978   205545   205324 
  204388   203775   203334   203249   204082   205066   205332   205117 
  204809   204660   204761   204654   204187   203841   203747   203786 
  204101   204755   205366   205339   204835   204568   204427   204034 
  203777   204068   204699   205096   204963   204465   203971   203987 
  204399   204511   204495   204822   205074   205039   204963   204557 
  203983   204059   204516   204541   204257   204226   204677   205386 
  205519   204716   204101   204379   204699   204526   204175   203827 
  203798   204217   204520   204755   205220   205318   204836   204407 
  204410   204479   203989   203389   203802   204928   205464   205070 
  204460   204348   204589   204506   204302   204595   204961   204643 
  203886   203570   204057   204940   205364   204691   203750   204001 
  205075   205270   204385   203863   204287   204921   205055   204541 
  203886   203816   204340   205035   205561   205410   204765   204654 
  204928   204503   203608   203350   203918   204784   205325   205089 
  204660   204693   204560   203910   203612   204174   204754   204620 
  204354   204595   205059   205051   204326   203774   204276   205059 
  204979   204552   204687   205033   205012   204542   203916   203879 
  204469   204727   204491   204502   204696   204338   203621   203470 
  204109   204835   204944   204769   205039   205171   204345   203476 
  203628   204265   204645   204896   205129   204955   204430   204314 
  204661   204797   204745   204938   205054   204649   204097   203933 
  204210   204529   204570   204612   204859   205031   204912   204539 
  204120   203850   203710   203889   204604   205102   204765   204568 
  205012   205042   204414   203921   203723   203898   204599   205023 
  204827   204835   205009   204838   204696   204573   204071   203797 
  204172   204527   204711   205043   204977   204383   204184   204372 
  204283   204157   204337   204670   204903   204808   204502   204303 
  204272   204264   204196   204198   204391   204611   204719   204708 
  204596   204539   204720   204988   204940   204719   204714   204701 
  204495   204367   204403   204458   204581   204857   204985   204723 
  204433   204543   204809   204651   204057   203663   203856   204241 
  204322   204144   204198   204862   205507   205262   204429   203650 
  203315   203781   204484   204835   205318   205664   205104   204383 
  204261   204259   204167   204283   204585   204878   204998   204904 
  204735   204581   204506   204487   204375   204229   204242   204379 
  204429   204417   204601   204952   205055   204469   203581   203565 
  204412   204877   204637   204500   205000   205563   205194   204245 
  203940   204250   204408   204348   204286   204329   204561   204803 
  204989   205356   205376   204376   203408   203704   204542   204944 
  204954   204623   204228   204286   204462   204361   204419   204777 
  205042   204967   204453   203851   203786   204133   204369   204352 
  204167   204152   204655   205290   205410   205079   204634   204253 
  204088   203987   203889   204129   204577   204697   204678   205038 
  205459   205320   204583   203737   203520   204013   204410   204410 
  204511   204889   205147   205004   204612   204361   204430   204539 
  204511   204522   204481   204232   203986   203970   204340   205077 
  205483   204940   204113   203891   204056   204337   204789   205012 
  204858   204619   204255   203968   204222   204734   205008   205094 
  205025   204805   204647   204446   204246   204415   204487   204036 
  203832   204136   204221   204118   204268   204568   204928   205065 
  204716   204483   204780   204971   204462   203679   203544   204214 
  204788   204627   204433   204938   205494   205241   204503   204155 
  204257   204313   204352   204496   204466   204233   204190   204564 
  204904   204736   204491   204649   204780   204429   203994   204102 
  204728   205143   204871   204491   204529   204592   204472   204399 
  204481   204726   204759   204341   204094   204423   204822   204938 
  204869   204627   204252   203978   204032   204322   204465   204354 
  204390   204677   204761   204657   204626   204395   204002   203914 
  204367   205056   205036   204300   204215   204877   205063   204646 
  204390   204570   204966   205043   204495   203947   203859   203908 
  204198   204977   205565   205355   204835   204669   204674   204326 
  203790   203724   204253   204738   204705   204488   204647   205067 
  205123   204735   204391   204295   204331   204398   204511   204615 
  204461   204229   204315   204429   204196   204013   204249   204660 
  204888   204749   204445   204496   204707   204434   204041   204175 
  204553   204755   204780   204838   205198   205563   205154   204093 
  203481   203604   203925   204410   204962   205204   205245   205051 
  204363   203789   203906   204160   204114   204032   204053   204334 
  204940   205228   204836   204506   204654   204759   204616   204434 
  204414   204846   205294   204944   204292   204237   204445   204471 
