Origin Time       2025/03/30 22:55:00
Lat.              41.993
Long.             142.725
Depth. (km)       55
Mag.              4.6
Station Code      TKCH05
Station Lat.      43.1211
Station Long.     143.6181
Station Height(m) -35
Record Time       2025/03/30 22:56:39
Sampling Freq(Hz) 100Hz
Duration Time(s)  120
Dir.              3
Scale Factor      2942(gal)/8224139
Max. Acc. (gal)   0.154
Last Correction   2025/03/30 22:56:39
Memo.             
[...]
   24894    24934    25019    25099    25128    25081    24993    24894 
   24795    24756    24814    24879    24896    24927    24962    24972 
   25015    25022    24911    24788    24748    24796    24894    24949 
   24957    24987    25008    24980    24966    25007    25038    24991 
   24896    24876    24925    24910    24880    24960    25069    25095 
   25027    24919    24849    24867    24957    25057    25096    25066 
   24984    24892    24833    24807    24831    24896    24939    24984 
   25073    25099    25008    24899    24823    24815    24860    24869 
   24889    24975    25020    25008    24988    24958    24935    24935 
   24939    24962    24993    24958    24853    24790    24867    25012 
   25095    25057    24933    24841    24856    24908    24953    24977 
   24970    24975    24981    24946    24934    24964    24937    24875 
   24861    24869    24915    25004    25039    25007    24964    24929 
   24931    24958    24939    24903    24949    25026    25006    24918 
   24858    24846    24883    24966    25037    25038    25018    25026 
   25019    25002    24962    24854    24802    24899    24979    24968 
   24991    25069    25080    24996    24946    24960    24910    24808 
   24802    24908    25020    25037    24981    24938    24919    24915 
   24907    24869    24841    24844    24868    24938    24993    24954 
   24945    25035    25034    24923    24906    24937    24876    24849 
   24938    24996    24966    24946    24965    24999    25019    24979 
   24911    24911    24979    25031    25011    24972    24980    24960 
   24892    24871    24880    24845    24802    24846    24972    25057 
   25078    25100    25091    25008    24888    24764    24719    24830 
   25004    25108    25128    25077    24985    24945    24937    24862 
   24800    24854    24958    25029    25042    25054    25095    25016 
   24798    24679    24744    24871    24999    25103    25159    25127 
   24983    24818    24734    24744    24821    24904    24950    24929 
   24865    24872    24993    25062    24950    24813    24817    24864 
   24853    24868    24953    25038    25092    25096    25043    24968 
   24904    24849    24840    24935    25049    25062    25014    24981 
   24993    25003    24935    24846    24840    24894    24958    25015 
   25053    25068    25022    24943    24918    24899    24850    24864 
   24919    24948    24987    25038    25039    25014    25000    24960 
   24884    24808    24771    24806    24910    25029    25103    25100 
   25066    25049    24976    24813    24700    24740    24854    24991 
   25118    25108    24973    24912    24937    24880    24784    24795 
   24862    24902    24954    25026    25085    25126    25120    25042 
   24930    24850    24825    24821    24838    24900    24972    24991 
   24958    24952    25010    25053    25027    24975    24896    24846 
   24922    25010    24981    24929    24950    25000    25010    24969 
   24894    24811    24795    24871    24953    24976    24956    24939 
   24952    24975    24984    24953    24898    24907    24960    24943 
   24921    24966    24970    24910    24921    25002    25011    24931 
   24854    24860    24952    25051    25077    25020    24941    24931 
   24949    24906    24883    24931    24969    24987    24989    24950 
   24921    24892    24806    24776    24894    25018    25014    24962 
   24999    25064    25069    25049    24999    24921    24879    24877 
   24921    24969    24930    24864    24891    24918    24864    24875 
   25002    25087    25077    25034    24979    24941    24930    24911 
   24912    24948    24950    24894    24869    24898    24895    24884 
   24927    24997    25066    25064    24954    24850    24827    24864 
   24922    24939    24921    24925    24935    24933    24933    24921 
   24884    24877    24931    24970    24919    24848    24858    24935 
   25003    25039    25069    25060    24968    24858    24845    24921 
   24996    25049    25087    25076    25006    24942    24943    24975 
   24956    24910    24904    24911    24887    24848    24837    24898 
   24970    24968    24968    25042    25033    24894    24817    24850 
   24881    24937    25026    25039    24965    24896    24895    24942 
   24961    24907    24864    24896    24929    24930    24954    24993 
   25015    25006    24997    25012    24975    24879    24842    24885 
   24915    24907    24907    24941    24983    25007    25018    24995 
   24956    24985    25034    25010    24958    24934    24943    24976 
   25006    25033    25033    24979    24885    24803    24796    24853 
   24906    24960    24993    24970    24949    24952    24976    25023 
   25015    24953    24903    24845    24798    24810    24860    24941 
   25019    25007    24953    24964    24985    24950    24881    24858 
   24939    25023    25020    25003    24984    24939    24929    24949 
   24983    25035    25018    24892    24811    24845    24888    24915 
   24983    25057    25060    24991    24918    24898    24911    24908 
   24906    24922    24942    24961    24975    24980    24973    24923 
   24831    24773    24817    24900    24929    24972    25101    25186 
   25105    24966    24925    24952    24948    24930    24957    24985 
   24934    24834    24803    24864    24952    25018    25039    25020 
   24980    24946    24943    24911    24821    24800    24887    24973 
   25042    25083    25024    24933    24876    24837    24844    24931 
   25008    24995    24957    24948    24922    24889    24929    25003 
   25019    24976    24938    24938    24977    25004    24948    24857 
   24850    24923    24949    24891    24868    24931    24988    24987 
   24958    24938    24922    24876    24807    24802    24912    25065 
   25151    25093    24925    24804    24806    24818    24796    24848 
   25004    25142    25155    25084    25014    24975    24929    24876 
   24888    24954    25010    25060    25096    25085    25030    24948 
   24904    24918    24906    24877    24912    24973    24966    24895 
   24850    24892    24961    24995    24981    24915    24845    24813 
   24804    24841    24934    25022    25053    25007    24918    24873 
   24862    24846    24867    24912    24949    24991    25014    24992 
   24954    24925    24916    24958    25027    25051    25026    24984 
   24915    24841    24821    24845    24918    25038    25085    25004 
   24914    24910    24950    24954    24900    24849    24889    24981 
   25019    25026    25006    24935    24908    24948    24935    24858 
   24833    24883    24923    24962    25053    25124    25095    25020 
   24991    24992    24976    24975    24996    24953    24842    24768 
   24791    24918    25060    25088    25026    24964    24896    24825 
   24798    24818    24864    24962    25093    25120    25006    24904 
   24911    24937    24915    24895    24948    25045    25101    25062 
   24958    24868    24821    24806    24825    24864    24929    25018 
   25060    25042    25008    24942    24860    24861    24931    24930 
   24834    24794    24916    25101    25164    25077    24965    24898 
   24856    24852    24885    24927    24968    24996    25002    24997 
   24993    24965    24898    24875    24957    25037    25020    24975 
   24962    24961    24927    24862    24814    24827    24873    24871 
   24858    24945    25061    25097    25092    25058    24976    24911 
   24900    24906    24927    24988    25053    25070    25007    24885 
   24764    24687    24718    24879    25056    25143    25120    25051 
   25002    24938    24864    24833    24815    24784    24804    24900 
   25012    25062    25029    24976    24946    24904    24861    24876 
   24958    25012    24975    24930    24935    24935    24911    24921 
   24985    25010    24938    24898    24949    24987    24976    24979 
   24981    24960    24934    24927    24943    24952    24923    24916 
   24954    24946    24891    24889    24927    24956    25023    25056 
   24964    24858    24821    24818    24844    24856    24894    25029 
   25135    25089    24985    24921    24892    24902    24950    24996 
   25008    24991    24966    24957    24942    24857    24740    24710 
   24790    24894    24958    24970    24960    24954    24958    24975 
   24980    24945    24927    24969    24985    24954    24950    24980 
   25011    25033    25064    25095    25030    24900    24862    24900 
   24921    24956    25056    25165    25170    25062    24915    24769 
   24702    24802    24984    25081    25064    25029    25015    24950 
   24833    24775    24796    24848    24916    24993    25038    25030 
   24989    24954    24941    24927    24918    24945    24985    24995 
   24972    24933    24883    24871    24911    24914    24868    24872 
   24930    24980    25024    25083    25092    25015    24946    24958 
   24987    24965    24902    24837    24818    24848    24908    25004 
   25087    25105    25085    25034    24948    24888    24887    24907 
   24929    24942    24931    24919    24911    24891    24881    24879 
   24900    24984    25069    25085    25041    24964    24907    24884 
   24850    24860    24942    24962    24935    24988    25023    24953 
   24884    24868    24887    24929    24922    24849    24819    24862 
   24903    24919    24927    24953    25003    25007    24938    24892 
   24922    24945    24933    24942    24983    25015    24960    24850 
   24844    24926    24966    24958    24969    25019    25039    24973 
   24903    24894    24877    24834    24872    24993    25051    24993 
   24954    25023    25101    25060    24948    24907    24948    24965 
   24904    24852    24908    25003    25014    24946    24877    24850 
   24833    24822    24868    24966    25045    25056    25030    25000 
   24979    24970    24968    24954    24906    24867    24922    24996 
   24995    25011    25074    25099    25074    24983    24830    24757 
   24821    24904    24941    24968    25000    25018    25014    24973 
   24926    24900    24872    24848    24894    24966    24949    24854 
   24799    24846    24948    24983    24953    24946    24937    24907 
   24875    24841    24844    24872    24885    24939    25011    25006 
   24954    24927    24907    24900    24925    24938    24911    24902 
   24993    25138    25177    25087    25006    24993    24970    24911 
   24884    24892    24895    24911    24939    24942    24922    24902 
   24912    24981    25076    25081    24977    24899    24929    24968 
   24941    24916    24939    24961    24961    24964    24954    24922 
   24915    24953    24999    25020    25022    25007    24977    24933 
   24861    24779    24757    24829    24939    25007    25024    25034 
   25030    25010    25002    24977    24899    24813    24806    24894 
   24984    25006    24977    24970    25002    25007    24979    24952 
   24933    24923    24919    24921    24934    24949    24945    24887 
   24819    24860    24954    24991    25000    24996    24929    24858 
   24872    24918    24956    25033    25074    25015    24946    24911 
   24888    24885    24885    24908    25000    25100    25110    25011 
   24865    24784    24827    24931    25022    25078    25087    25066 
   25050    25019    24972    24929    24899    24902    24930    24938 
   24948    24958    24911    24849    24841    24871    24938    25022 
   25049    25030    25007    24954    24856    24786    24799    24852 
   24892    24912    24938    24975    24984    24941    24885    24884 
   24954    25018    25002    24961    24979    25023    25012    24933 
   24869    24849    24807    24786    24883    25051    25162    25139 
   25014    24879    24815    24819    24835    24867    24933    25022 
   25096    25095    25020    24966    24962    24934    24837    24737 
   24738    24837    24942    25019    25062    25041    24985    24954 
   24945    24919    24848    24757    24733    24817    24949    25024 
   25030    25046    25076    25060    24975    24877    24858    24912 
   24939    24908    24891    24929    24966    24964    24948    24956 
   24989    25008    24973    24898    24826    24814    24871    24921 
   24935    24976    25027    25003    24919    24892    24953    25007 
   24984    24911    24849    24825    24871    25002    25097    25062 
   24992    24968    24979    25024    25060    25057    25069    25080 
   25008    24877    24810    24861    24927    24949    24965    25000 
   25053    25078    24997    24842    24726    24730    24858    25046 
   25188    25204    25091    24931    24823    24795    24817    24867 
   24935    24987    24968    24911    24931    25041    25132    25161 
   25122    25007    24871    24783    24730    24694    24722    24796 
   24846    24881    24942    25031    25112    25151    25149    25084 
   25000    25010    25051    25007    24933    24912    24919    24939 
   24969    24934    24835    24798    24813    24823    24910    25080 
   25236    25323    25308    25166    24946    24750    24657    24690 
   24813    24934    24968    24899    24840    24914    25049    25100 
   25092    25101    25101    25034    24902    24768    24722    24813 
   24942    25014    25062    25112    25101    25020    24946    24899 
   24795    24669    24673    24779    24857    24926    25004    25034 
   25043    25058    25027    24996    25020    25023    24925    24733 
   24552    24513    24629    24852    25087    25170    25060    24896 
   24788    24746    24784    24900    25042    25149    25164    25073 
   24939    24840    24787    24769    24803    24904    25029    25111 
   25116    25029    24876    24786    24826    24934    25066    25155 
   25092    24922    24783    24730    24744    24757    24741    24761 
   24873    25056    25250    25355    25290    25118    24989    24915 
   24791    24687    24721    24818    24899    24956    24922    24815 
   24753    24725    24709    24787    24965    25169    25319    25330 
   25174    24966    24881    24953    25034    24983    24840    24748 
   24744    24783    24842    24889    24948    25042    25076    24979 
   24875    24883    24962    25034    25101    25157    25110    24960 
   24835    24775    24726    24727    24815    24937    25046    25124 
   25162    25172    25204    25223    25149    25061    25066    25076 
   24995    24883    24802    24742    24719    24777    24907    24992 
   25014    25047    25054    25046    25122    25173    25054    24849 
   24699    24679    24792    24929    24964    24931    24937    24965 
   24938    24877    24871    24919    24969    25008    25061    25120 
   25112    24996    24881    24872    24916    24939    24949    25002 
   25070    25060    24923    24765    24713    24729    24768    24865 
   24975    25049    25122    25169    25155    25097    24981    24817 
   24694    24673    24736    24852    24961    24980    24923    24864 
   24849    24922    25061    25189    25274    25309    25265    25114 
   24883    24665    24580    24649    24761    24852    24899    24867 
   24822    24849    24941    25060    25130    25127    25114    25093 
   25054    25037    25015    24950    24906    24907    24876    24830 
   24827    24822    24813    24865    24929    24887    24786    24756 
   24821    24939    25076    25159    25157    25078    24925    24811 
   24846    24914    24923    24922    24921    24933    24995    25039 
   24997    24926    24906    24926    24952    24985    25061    25150 
   25143    25027    24894    24838    24914    25050    25141    25158 
   25110    25000    24880    24790    24718    24667    24655    24694 
   24777    24861    24896    24875    24848    24854    24846    24838 
   24915    25046    25146    25169    25092    24968    24873    24879 
   25004    25101    25019    24861    24769    24733    24744    24860 
   25027    25104    25088    25096    25158    25166    25062    24957 
   24984    25100    25162    25119    25006    24900    24869    24862 
   24860    24953    25088    25108    25053    24989    24881    24775 
   24757    24819    24910    24953    24930    24880    24814    24804 
   24908    24976    24916    24862    24916    25039    25150    25162 
   25053    24896    24803    24813    24831    24788    24723    24667 
   24655    24764    24960    25105    25155    25182    25203    25118 
   24933    24788    24741    24736    24723    24703    24744    24902 
   25093    25199    25199    25150    25088    25019    24976    24952 
   24945    25037    25176    25169    25045    24975    24943    24895 
   24840    24761    24711    24730    24738    24742    24806    24906 
   24991    25007    24962    24979    25045    25029    24941    24915 
   24985    25085    25153    25119    24976    24829    24746    24736 
   24802    24922    25015    25034    25014    24995    24980    24969 
   24969    24983    24981    24958    24922    24835    24717    24676 
   24748    24844    24894    24950    25078    25173    25132    25035 
   24931    24815    24772    24887    25099    25228    25165    24993 
   24852    24792    24827    24935    25073    25154    25101    25010 
   24999    25010    25011    25034    25002    24914    24880    24911 
   24935    24921    24872    24823    24799    24817    24907    25045 
   25128    25132    25097    25022    24914    24849    24862    24867 
   24803    24783    24864    24948    24991    24992    24937    24891 
   24881    24877    24895    24934    24949    24943    24948    24969 
   25008    25018    24965    24945    25030    25139    25174    25072 
   24830    24597    24534    24656    24877    25068    25147    25137 
   25072    25018    25039    25107    25139    25119    25084    25031 
   24916    24806    24753    24722    24722    24746    24750    24784 
   24877    25003    25126    25182    25169    25124    25066    25008 
   24942    24862    24826    24856    24906    24956    24997    24977 
   24883    24795    24772    24772    24741    24699    24742    24911 
   25107    25203    25199    25139    25030    24900    24803    24796 
   24864    24911    24945    25030    25119    25137    25084    24995 
   24927    24927    24923    24840    24729    24687    24754    24876 
   24948    24972    24969    24923    24877    24860    24845    24908 
   25084    25218    25223    25177    25122    25031    24929    24867 
   24841    24833    24854    24915    24992    25016    24969    24915 
   24902    24902    24884    24853    24854    24871    24853    24826 
   24835    24884    24934    24931    24875    24848    24914    25043 
   25146    25154    25108    25042    24948    24884    24896    24946 
   24996    25004    24969    24960    24962    24934    24903    24904 
   24916    24945    25015    25081    25060    24997    24980    24995 
   24992    24945    24883    24861    24879    24895    24904    24888 
   24852    24869    24930    24937    24912    24918    24896    24865 
   24904    24957    24962    24935    24907    24902    24883    24823 
   24781    24813    24871    24910    24941    24984    25027    25047 
   25027    24980    24926    24876    24862    24934    25056    25088 
   25012    24962    24958    24902    24831    24833    24842    24826 
