Origin Time       2025/03/30 22:55:00
Lat.              41.993
Long.             142.725
Depth. (km)       55
Mag.              4.6
Station Code      TKCH05
Station Lat.      43.1211
Station Long.     143.6181
Station Height(m) -35
Record Time       2025/03/30 22:56:39
Sampling Freq(Hz) 100Hz
Duration Time(s)  120
Dir.              1
Scale Factor      2942(gal)/8224139
Max. Acc. (gal)   0.232
Last Correction   2025/03/30 22:56:39
Memo.             
[...]
 -174120  -174136  -174175  -174220  -174221  -174164  -174124  -174154 
 -174190  -174178  -174155  -174150  -174123  -174059  -174027  -174055 
 -174109  -174179  -174235  -174228  -174199  -174190  -174143  -174069 
 -174062  -174086  -174070  -174094  -174185  -174240  -174232  -174221 
 -174212  -174168  -174143  -174177  -174171  -174105  -174083  -174102 
 -174102  -174086  -174081  -174114  -174178  -174214  -174195  -174135 
 -174071  -174070  -174135  -174177  -174158  -174151  -174167  -174139 
 -174090  -174140  -174268  -174291  -174179  -174082  -174056  -174055 
 -174083  -174168  -174243  -174228  -174162  -174085  -174013  -174035 
 -174131  -174171  -174182  -174204  -174135  -174037  -174071  -174155 
 -174194  -174229  -174236  -174178  -174117  -174123  -174170  -174164 
 -174101  -174070  -174075  -174086  -174145  -174237  -174267  -174233 
 -174167  -174096  -174075  -174090  -174063  -174009  -174020  -174133 
 -174240  -174235  -174194  -174216  -174228  -174187  -174151  -174124 
 -174094  -174096  -174136  -174154  -174117  -174104  -174160  -174201 
 -174177  -174147  -174140  -174118  -174101  -174109  -174110  -174127 
 -174171  -174170  -174141  -174179  -174247  -174245  -174179  -174128 
 -174094  -174051  -174050  -174097  -174121  -174125  -174127  -174113 
 -174128  -174183  -174216  -174204  -174194  -174187  -174148  -174104 
 -174059  -174004  -174006  -174110  -174198  -174179  -174141  -174160 
 -174193  -174191  -174158  -174118  -174131  -174201  -174225  -174162 
 -174137  -174206  -174225  -174151  -174093  -174075  -174069  -174102 
 -174163  -174189  -174174  -174175  -174204  -174216  -174199  -174160 
 -174101  -174087  -174137  -174145  -174090  -174085  -174110  -174113 
 -174156  -174206  -174139  -174055  -174121  -174221  -174212  -174185 
 -174174  -174135  -174132  -174183  -174201  -174166  -174106  -174036 
 -173998  -174046  -174132  -174151  -174113  -174139  -174213  -174218 
 -174186  -174216  -174232  -174160  -174101  -174085  -174073  -174106 
 -174166  -174189  -174175  -174127  -174087  -174121  -174163  -174139 
 -174097  -174081  -174077  -174085  -174125  -174195  -174249  -174274 
 -174266  -174201  -174128  -174109  -174109  -174100  -174109  -174135 
 -174140  -174121  -174120  -174162  -174202  -174177  -174110  -174075 
 -174098  -174170  -174220  -174185  -174158  -174171  -174116  -174064 
 -174116  -174172  -174164  -174127  -174105  -174131  -174167  -174159 
 -174135  -174132  -174131  -174150  -174190  -174182  -174159  -174208 
 -174263  -174228  -174147  -174075  -174013  -173996  -174043  -174110 
 -174144  -174118  -174100  -174152  -174225  -174240  -174229  -174252 
 -174264  -174186  -174083  -174060  -174048  -174008  -174025  -174082 
 -174108  -174110  -174110  -174131  -174193  -174259  -174258  -174212 
 -174179  -174137  -174096  -174105  -174121  -174148  -174222  -174253 
 -174185  -174102  -174062  -174051  -174063  -174101  -174170  -174239 
 -174217  -174124  -174098  -174137  -174140  -174123  -174136  -174141 
 -174123  -174152  -174225  -174222  -174132  -174110  -174189  -174228 
 -174205  -174187  -174131  -174039  -174019  -174066  -174082  -174079 
 -174132  -174213  -174240  -174213  -174193  -174178  -174136  -174079 
 -174047  -174054  -174090  -174118  -174154  -174208  -174226  -174206 
 -174181  -174147  -174118  -174108  -174101  -174117  -174136  -174125 
 -174124  -174124  -174116  -174147  -174201  -174214  -174189  -174166 
 -174174  -174194  -174172  -174106  -174064  -174082  -174098  -174062 
 -174039  -174090  -174131  -174109  -174118  -174209  -174303  -174307 
 -174221  -174132  -174085  -174060  -174071  -174124  -174166  -174189 
 -174186  -174133  -174085  -174100  -174133  -174139  -174128  -174145 
 -174210  -174255  -174231  -174186  -174151  -174129  -174133  -174128 
 -174109  -174150  -174201  -174152  -174109  -174164  -174198  -174164 
 -174132  -174082  -174021  -174012  -174055  -174129  -174220  -174274 
 -174278  -174264  -174244  -174199  -174128  -174075  -174055  -174044 
 -174055  -174077  -174082  -174104  -174168  -174240  -174243  -174170 
 -174100  -174071  -174087  -174143  -174155  -174093  -174058  -174089 
 -174117  -174129  -174158  -174204  -174239  -174222  -174170  -174140 
 -174148  -174151  -174132  -174145  -174195  -174205  -174164  -174127 
 -174089  -174079  -174136  -174199  -174197  -174132  -174073  -174056 
 -174048  -174052  -174112  -174183  -174189  -174151  -174150  -174187 
 -174212  -174228  -174231  -174181  -174135  -174127  -174113  -174104 
 -174102  -174079  -174079  -174124  -174160  -174172  -174160  -174118 
 -174082  -174090  -174129  -174191  -174247  -174248  -174236  -174209 
 -174123  -174051  -174067  -174108  -174109  -174091  -174085  -174094 
 -174145  -174232  -174275  -174253  -174199  -174117  -174063  -174094 
 -174160  -174191  -174177  -174159  -174171  -174172  -174139  -174104 
 -174083  -174075  -174074  -174081  -174137  -174218  -174237  -174183 
 -174127  -174117  -174132  -174124  -174097  -174105  -174128  -174091 
 -174043  -174066  -174137  -174208  -174240  -174235  -174221  -174209 
 -174197  -174170  -174114  -174078  -174070  -174055  -174040  -174039 
 -174078  -174170  -174247  -174268  -174259  -174226  -174182  -174144 
 -174108  -174081  -174078  -174089  -174123  -174172  -174178  -174136 
 -174125  -174181  -174231  -174216  -174168  -174125  -174090  -174073 
 -174071  -174097  -174145  -174163  -174133  -174114  -174143  -174174 
 -174158  -174136  -174168  -174226  -174231  -174179  -174139  -174106 
 -174063  -174043  -174091  -174158  -174154  -174120  -174143  -174194 
 -174222  -174218  -174152  -174070  -174083  -174178  -174249  -174259 
 -174228  -174210  -174201  -174141  -174032  -173939  -173967  -174121 
 -174221  -174183  -174136  -174154  -174187  -174194  -174194  -174198 
 -174177  -174128  -174097  -174117  -174167  -174195  -174190  -174179 
 -174154  -174110  -174116  -174182  -174206  -174125  -174020  -174029 
 -174118  -174135  -174100  -174117  -174174  -174216  -174175  -174118 
 -174167  -174214  -174182  -174187  -174205  -174140  -174083  -174077 
 -174047  -174042  -174114  -174172  -174172  -174172  -174191  -174189 
 -174156  -174123  -174105  -174104  -174127  -174177  -174222  -174229 
 -174209  -174185  -174129  -174066  -174058  -174090  -174117  -174156 
 -174204  -174233  -174243  -174226  -174175  -174104  -174048  -174032 
 -174025  -174031  -174086  -174170  -174218  -174209  -174197  -174224 
 -174228  -174156  -174073  -174054  -174078  -174070  -174040  -174093 
 -174197  -174231  -174201  -174166  -174123  -174079  -174063  -174083 
 -174148  -174226  -174262  -174258  -174263  -174271  -174217  -174121 
 -174071  -174060  -174037  -174023  -174058  -174118  -174139  -174128 
 -174128  -174098  -174052  -174078  -174156  -174205  -174228  -174252 
 -174233  -174171  -174152  -174187  -174185  -174121  -174047  -174013 
 -174033  -174051  -174048  -174075  -174117  -174139  -174179  -174222 
 -174225  -174218  -174218  -174236  -174264  -174232  -174131  -174047 
 -174017  -174043  -174091  -174077  -174010  -174019  -174105  -174182 
 -174241  -174297  -174303  -174228  -174133  -174096  -174085  -174077 
 -174110  -174151  -174154  -174148  -174164  -174172  -174139  -174105 
 -174129  -174168  -174172  -174156  -174154  -174155  -174133  -174118 
 -174159  -174220  -174209  -174127  -174074  -174089  -174127  -174148 
 -174154  -174189  -174243  -174239  -174160  -174090  -174074  -174078 
 -174077  -174104  -174166  -174220  -174240  -174213  -174151  -174116 
 -174128  -174150  -174162  -174139  -174078  -174040  -174059  -174104 
 -174139  -174170  -174194  -174187  -174168  -174167  -174156  -174143 
 -174148  -174152  -174158  -174186  -174217  -174232  -174245  -174245 
 -174195  -174141  -174132  -174135  -174129  -174112  -174101  -174133 
 -174166  -174129  -174055  -174035  -174101  -174177  -174187  -174179 
 -174204  -174202  -174131  -174058  -174066  -174140  -174225  -174287 
 -174285  -174209  -174132  -174090  -174074  -174083  -174087  -174059 
 -174037  -174042  -174058  -174090  -174158  -174232  -174252  -174225 
 -174212  -174194  -174152  -174128  -174123  -174104  -174062  -174028 
 -174075  -174172  -174195  -174162  -174159  -174158  -174164  -174216 
 -174239  -174199  -174148  -174094  -174058  -174059  -174058  -174066 
 -174114  -174158  -174167  -174167  -174160  -174158  -174174  -174179 
 -174160  -174136  -174128  -174140  -174132  -174074  -174043  -174118 
 -174243  -174286  -174218  -174133  -174096  -174093  -174127  -174164 
 -174152  -174104  -174079  -174082  -174078  -174110  -174210  -174266 
 -174216  -174136  -174059  -173992  -174021  -174154  -174249  -174247 
 -174206  -174167  -174116  -174073  -174067  -174096  -174117  -174129 
 -174129  -174101  -174079  -174116  -174175  -174168  -174091  -174077 
 -174158  -174197  -174162  -174148  -174185  -174224  -174225  -174179 
 -174125  -174109  -174137  -174172  -174168  -174128  -174110  -174136 
 -174163  -174185  -174214  -174214  -174179  -174135  -174071  -174019 
 -174044  -174128  -174181  -174185  -174171  -174139  -174098  -174090 
 -174125  -174167  -174174  -174137  -174096  -174081  -174085  -174101 
 -174137  -174191  -174244  -174241  -174174  -174125  -174129  -174144 
 -174163  -174172  -174159  -174151  -174160  -174156  -174136  -174131 
 -174125  -174093  -174062  -174074  -174135  -174197  -174191  -174150 
 -174147  -174162  -174155  -174127  -174097  -174114  -174162  -174164 
 -174132  -174109  -174116  -174158  -174195  -174189  -174170  -174172 
 -174170  -174136  -174114  -174125  -174140  -174136  -174110  -174102 
 -174135  -174160  -174172  -174195  -174190  -174143  -174125  -174166 
 -174191  -174177  -174178  -174182  -174127  -174074  -174098  -174133 
 -174118  -174074  -174055  -174112  -174186  -174217  -174256  -174317 
 -174301  -174208  -174158  -174164  -174147  -174096  -174054  -174052 
 -174069  -174090  -174152  -174226  -174247  -174224  -174187  -174143 
 -174121  -174120  -174114  -174132  -174171  -174197  -174210  -174217 
 -174225  -174239  -174209  -174133  -174078  -174098  -174152  -174147 
 -174094  -174085  -174137  -174208  -174260  -174268  -174229  -174170 
 -174106  -174051  -174019  -174023  -174046  -174093  -174154  -174154 
 -174117  -174129  -174159  -174156  -174150  -174152  -174141  -174112 
 -174089  -174117  -174202  -174282  -174298  -174262  -174190  -174101 
 -174043  -174054  -174101  -174145  -174168  -174158  -174137  -174143 
 -174129  -174073  -174039  -174062  -174089  -174077  -174069  -174109 
 -174162  -174198  -174232  -174252  -174239  -174175  -174100  -174060 
 -174042  -174044  -174094  -174151  -174175  -174182  -174167  -174123 
 -174087  -174059  -174021  -174025  -174069  -174091  -174120  -174171 
 -174168  -174097  -174060  -174102  -174137  -174136  -174118  -174060 
 -173978  -173940  -173978  -174078  -174187  -174244  -174216  -174136 
 -174082  -174085  -174104  -174132  -174205  -174280  -174289  -174237 
 -174186  -174170  -174140  -174073  -174028  -174051  -174123  -174156 
 -174081  -174010  -174077  -174197  -174247  -174236  -174201  -174156 
 -174143  -174158  -174148  -174121  -174113  -174112  -174101  -174120 
 -174198  -174283  -174282  -174209  -174160  -174143  -174098  -174039 
 -174005  -174001  -174023  -174064  -174136  -174220  -174252  -174239 
 -174236  -174222  -174190  -174212  -174241  -174187  -174131  -174139 
 -174135  -174104  -174086  -174089  -174116  -174168  -174239  -174298 
 -174291  -174220  -174159  -174139  -174113  -174077  -174062  -174051 
 -174058  -174127  -174205  -174236  -174259  -174245  -174135  -174029 
 -174064  -174174  -174232  -174233  -174194  -174132  -174125  -174158 
 -174141  -174077  -174066  -174209  -174415  -174441  -174255  -174040 
 -173913  -173936  -174105  -174293  -174357  -174264  -174136  -174086 
 -174089  -174137  -174214  -174239  -174216  -174168  -174075  -174016 
 -174081  -174231  -174383  -174449  -174388  -174241  -174048  -173901 
 -173886  -173921  -173956  -174062  -174181  -174237  -174278  -174295 
 -174249  -174182  -174159  -174213  -174268  -174210  -174086  -173994 
 -173948  -173977  -174063  -174154  -174237  -174303  -174328  -174303 
 -174268  -174260  -174251  -174240  -174214  -174108  -173986  -173943 
 -173890  -173792  -173759  -173800  -173888  -174113  -174442  -174644 
 -174614  -174447  -174199  -173913  -173728  -173753  -173888  -173971 
 -173966  -173967  -174052  -174204  -174368  -174499  -174561  -174548 
 -174469  -174391  -174359  -174316  -174205  -174039  -173894  -173862 
 -173888  -173836  -173761  -173809  -173927  -173996  -174090  -174262 
 -174366  -174316  -174202  -174113  -174042  -174002  -174008  -174032 
 -174085  -174179  -174301  -174410  -174424  -174321  -174205  -174186 
 -174236  -174264  -174275  -174289  -174260  -174171  -174064  -173965 
 -173885  -173869  -173939  -174029  -174032  -173963  -173938  -173939 
 -173898  -173867  -173954  -174164  -174341  -174378  -174363  -174376 
 -174402  -174448  -174498  -174530  -174519  -174361  -174121  -174035 
 -174074  -174058  -173978  -173878  -173789  -173766  -173821  -173965 
 -174148  -174218  -174137  -174002  -173897  -173929  -174071  -174179 
 -174252  -174313  -174268  -174154  -174159  -174330  -174492  -174487 
 -174336  -174191  -174123  -174086  -174109  -174248  -174421  -174459 
 -174293  -174009  -173719  -173515  -173495  -173688  -173978  -174152 
 -174141  -174091  -174110  -174164  -174221  -174236  -174206  -174252 
 -174413  -174523  -174463  -174328  -174243  -174259  -174370  -174480 
 -174415  -174091  -173750  -173684  -173826  -173975  -174090  -174164 
 -174208  -174243  -174253  -174247  -174172  -173981  -173812  -173781 
 -173804  -173873  -174058  -174282  -174379  -174306  -174187  -174175 
 -174243  -174313  -174420  -174501  -174421  -174241  -174110  -174121 
 -174224  -174214  -174085  -174023  -174029  -174002  -173986  -174047 
 -174174  -174276  -174239  -174108  -174037  -174020  -173939  -173851 
 -173888  -173997  -174077  -174128  -174170  -174214  -174313  -174464 
 -174633  -174735  -174652  -174406  -174178  -174077  -174044  -173990 
 -173902  -173807  -173728  -173735  -173877  -174083  -174212  -174214 
 -174163  -174097  -174021  -174017  -174118  -174214  -174239  -174209 
 -174152  -174137  -174213  -174307  -174387  -174469  -174464  -174349 
 -174236  -174120  -173988  -173901  -173851  -173851  -173939  -174020 
 -174013  -173955  -173928  -174001  -174131  -174225  -174324  -174402 
 -174306  -174144  -174179  -174401  -174640  -174726  -174555  -174209 
 -173893  -173770  -173863  -174006  -174087  -174156  -174225  -174245 
 -174172  -174027  -173939  -173959  -173981  -173967  -173969  -174017 
 -174087  -174133  -174194  -174312  -174395  -174386  -174344  -174297 
 -174239  -174181  -174133  -174125  -174114  -174036  -173951  -173932 
 -173952  -174037  -174190  -174290  -174352  -174474  -174549  -174451 
 -174216  -173913  -173634  -173510  -173576  -173773  -174050  -174317 
 -174521  -174684  -174750  -174622  -174375  -174167  -174037  -173946 
 -173919  -173985  -174058  -174062  -174024  -173954  -173882  -173853 
 -173853  -173943  -174160  -174360  -174424  -174378  -174262  -174121 
 -174083  -174167  -174163  -173974  -173826  -173881  -174032  -174186 
 -174320  -174357  -174316  -174245  -174144  -174105  -174231  -174418 
 -174461  -174325  -174144  -173978  -173839  -173803  -173888  -173997 
 -174056  -174071  -174096  -174175  -174302  -174382  -174363  -174322 
 -174330  -174329  -174245  -174109  -174002  -173996  -174079  -174096 
 -173975  -173890  -173982  -174201  -174353  -174266  -174047  -173974 
 -174098  -174297  -174463  -174502  -174390  -174233  -174118  -174069 
 -174089  -174113  -174047  -173939  -173950  -174054  -174096  -174096 
 -174147  -174187  -174151  -174136  -174241  -174372  -174345  -174212 
 -174162  -174191  -174194  -174139  -174050  -173946  -173866  -173885 
 -174008  -174117  -174117  -174069  -174086  -174186  -174317  -174425 
 -174447  -174340  -174125  -173934  -173874  -173929  -174079  -174263 
 -174344  -174318  -174303  -174318  -174302  -174249  -174201  -174155 
 -174087  -174002  -173959  -174023  -174136  -174194  -174212  -174256 
 -174294  -174275  -174232  -174179  -174121  -174089  -174075  -174059 
 -174019  -173956  -173944  -173992  -174029  -174086  -174201  -174330 
 -174432  -174469  -174434  -174397  -174386  -174317  -174152  -173998 
 -173938  -173885  -173790  -173762  -173867  -174031  -174155  -174189 
 -174117  -174019  -174012  -174127  -174279  -174333  -174229  -174044 
 -173880  -173799  -173838  -173983  -174185  -174386  -174494  -174426 
 -174241  -174087  -174027  -174036  -174129  -174259  -174309  -174287 
 -174260  -174202  -174129  -174131  -174162  -174120  -174029  -173985 
 -174002  -173996  -173939  -173965  -174133  -174290  -174322  -174287 
 -174217  -174105  -174005  -173950  -173970  -174113  -174294  -174340 
 -174231  -174128  -174141  -174191  -174186  -174124  -174064  -174067 
 -174116  -174189  -174249  -174225  -174166  -174182  -174229  -174205 
 -174120  -174029  -173977  -173993  -174040  -174071  -174156  -174321 
 -174388  -174253  -174089  -174052  -174071  -174064  -174100  -174175 
 -174198  -174198  -174229  -174245  -174222  -174132  -173979  -173917 
 -174008  -174118  -174217  -174336  -174422  -174478  -174522  -174471 
 -174316  -174177  -174075  -173958  -173890  -173925  -174010  -174112 
 -174163  -174094  -173973  -173869  -173781  -173742  -173816  -174021 
 -174239  -174341  -174395  -174490  -174518  -174393  -174275  -174305 
 -174374  -174402  -174410  -174341  -174210  -174133  -174097  -174027 
 -173973  -173969  -173962  -173956  -173993  -174048  -174055  -174004 
 -173951  -173947  -173994  -174051  -174058  -174090  -174225  -174314 
 -174294  -174301  -174340  -174325  -174233  -174064  -173942  -173996 
 -174089  -174055  -173982  -173977  -174005  -174029  -174081  -174174 
 -174252  -174253  -174159  -174031  -173992  -174067  -174164  -174260 
 -174372  -174452  -174438  -174343  -174229  -174160  -174156  -174190 
 -174214  -174191  -174116  -174039  -174023  -174060  -174077  -174048 
 -173982  -173904  -173897  -173959  -174016  -174098  -174212  -174245 
 -174183  -174118  -174091  -174112  -174164  -174168  -174108  -174046 
 -173992  -173958  -174019  -174147  -174264  -174348  -174383  -174370 
 -174347  -174320  -174295  -174340  -174397  -174328  -174162  -174006 
 -173884  -173816  -173850  -173951  -174047  -174102  -174121  -174125 
 -174148  -174205  -174267  -174289  -174285  -174299  -174303  -174248 
 -174189  -174187  -174198  -174210  -174271  -174328  -174295  -174202 
 -174110  -174019  -173940  -173912  -173893  -173873  -173928  -174056 
 -174178  -174255  -174267  -174251  -174286  -174370  -174407  -174356 
 -174276  -174225  -174189  -174179  -174233  -174287  -174232  -174090 
 -173985  -173974  -174019  -174060  -174089  -174132  -174148  -174055 
 -173925  -173885  -173948  -174085  -174222  -174275  -174279  -174320 
 -174352  -174289  -174163  -174081  -174074  -174121  -174199  -174268 
 -174294  -174240  -174075  -173900  -173854  -173911  -173932  -173884 
