Origin Time       2025/03/30 22:55:00
Lat.              41.993
Long.             142.725
Depth. (km)       55
Mag.              4.6
Station Code      TKCH08
Station Lat.      42.4865
Station Long.     143.1520
Station Height(m) 360
Record Time       2025/03/30 22:56:11
Sampling Freq(Hz) 100Hz
Duration Time(s)  120
Dir.              5
Scale Factor      7845(gal)/8223790
Max. Acc. (gal)   7.854
Last Correction   2025/03/30 22:56:11
Memo.             
[...]
   -6010    -6011    -6007    -6008    -6011    -6008    -6006    -6008 
   -6010    -6008    -6004    -6006    -6008    -6008    -6011    -6012 
   -6010    -6006    -6006    -6011    -6010    -6006    -6011    -6012 
   -6010    -6011    -6011    -6011    -6010    -6007    -6010    -6010 
   -6010    -6011    -6010    -6008    -6008    -6008    -6010    -6008 
   -6008    -6010    -6008    -6007    -6007    -6008    -6011    -6011 
   -6011    -6008    -6007    -6007    -6006    -6008    -6014    -6011 
   -6008    -6011    -6010    -6011    -6012    -6010    -6008    -6010 
   -6011    -6010    -6007    -6008    -6010    -6008    -6008    -6010 
   -6011    -6011    -6010    -6012    -6010    -6008    -6011    -6010 
   -6008    -6008    -6010    -6011    -6008    -6008    -6012    -6011 
   -6008    -6008    -6010    -6011    -6010    -6010    -6012    -6011 
   -6008    -6008    -6008    -6010    -6010    -6011    -6012    -6007 
   -6007    -6010    -6010    -6010    -6010    -6011    -6010    -6006 
   -6010    -6011    -6007    -6007    -6010    -6008    -6007    -6010 
   -6014    -6010    -6008    -6012    -6008    -6007    -6010    -6011 
   -6012    -6010    -6006    -6008    -6010    -6010    -6010    -6008 
   -6011    -6011    -6010    -6011    -6010    -6011    -6012    -6008 
   -6007    -6008    -6010    -6011    -6012    -6011    -6008    -6008 
   -6011    -6010    -6010    -6011    -6007    -6010    -6012    -6010 
   -6010    -6010    -6010    -6011    -6010    -6010    -6008    -6007 
   -6011    -6011    -6007    -6007    -6008    -6010    -6007    -6006 
   -6008    -6010    -6010    -6011    -6011    -6010    -6007    -6007 
   -6010    -6007    -6008    -6011    -6008    -6007    -6010    -6012 
   -6011    -6008    -6012    -6011    -6008    -6011    -6010    -6008 
   -6011    -6008    -6007    -6008    -6007    -6010    -6010    -6007 
   -6008    -6007    -6008    -6008    -6006    -6008    -6006    -6002 
   -6002    -6007    -6010    -6007    -5999    -5987    -5965    -5937 
   -5917    -5926    -5972    -6023    -6045    -6029    -6006    -6019 
   -6064    -6097    -6091    -6050    -5979    -5881    -5826    -5884 
   -6004    -6076    -6068    -6050    -6122    -6299    -6448    -6394 
   -6129    -5823    -5611    -5501    -5503    -5665    -5957    -6273 
   -6525    -6675    -6693    -6552    -6280    -5903    -5445    -5054 
   -4977    -5300    -5869    -6475    -6913    -7033    -6878    -6562 
   -6079    -5487    -5031    -4939    -5262    -5852    -6389    -6573 
   -6436    -6274    -6192    -6038    -5714    -5355    -5277    -5640 
   -6210    -6655    -6813    -6659    -6258    -5740    -5259    -4989 
   -5080    -5589    -6292    -6770    -6817    -6593    -6353    -6174 
   -5984    -5675    -5239    -4945    -5134    -5761    -6461    -6937 
   -7096    -7033    -6822    -6334    -5526    -4791    -4637    -5113 
   -5861    -6588    -7086    -7179    -6894    -6415    -5931    -5566 
   -5355    -5351    -5575    -5863    -6045    -6151    -6292    -6447 
   -6478    -6353    -6255    -6272    -6154    -5660    -5030    -4789 
   -5143    -5803    -6404    -6735    -6727    -6515    -6258    -5953 
   -5622    -5351    -5231    -5431    -5903    -6277    -6407    -6473 
   -6527    -6450    -6116    -5522    -4995    -5022    -5713    -6646 
   -7217    -7105    -6490    -5852    -5544    -5544    -5563    -5443 
   -5404    -5776    -6480    -6988    -6913    -6378    -5857    -5724 
   -5853    -5783    -5409    -5235    -5672    -6461    -7029    -7030 
   -6601    -6230    -6145    -6069    -5719    -5236    -5030    -5270 
   -5728    -6103    -6331    -6571    -6814    -6743    -6166    -5323 
   -4784    -5049    -5927    -6610    -6528    -5895    -5413    -5641 
   -6497    -7209    -7053    -6133    -5152    -4730    -4961    -5427 
   -5842    -6338    -6917    -7236    -6970    -6131    -5181    -4792 
   -5250    -6119    -6673    -6625    -6309    -6174    -6318    -6525 
   -6532    -6200    -5683    -5351    -5420    -5779    -6177    -6394 
   -6382    -6284    -6227    -6139    -5899    -5587    -5421    -5474 
   -5633    -5796    -5929    -5995    -6021    -6103    -6211    -6289 
   -6380    -6308    -5853    -5328    -5306    -5908    -6700    -7088 
   -6763    -5981    -5224    -4754    -4803    -5491    -6399    -6979 
   -7103    -6836    -6370    -5981    -5702    -5405    -5131    -5113 
   -5568    -6270    -6681    -6763    -6868    -6947    -6728    -6211 
   -5521    -4951    -4961    -5589    -6291    -6578    -6330    -5691 
   -5150    -5229    -5899    -6631    -6910    -6600    -6021    -5583 
   -5425    -5549    -5895    -6203    -6335    -6421    -6490    -6407 
   -6103    -5713    -5603    -5923    -6254    -6093    -5522    -5186 
   -5532    -6180    -6442    -6138    -5641    -5514    -6026    -6793 
   -7114    -6716    -6006    -5525    -5367    -5374    -5574    -6039 
   -6555    -6826    -6758    -6436    -6170    -6191    -6228    -5954 
   -5448    -4974    -4819    -5169    -5815    -6305    -6535    -6724 
   -6898    -6859    -6474    -5764    -5036    -4776    -5161    -5871 
   -6411    -6589    -6571    -6516    -6401    -6060    -5475    -5094 
   -5269    -5725    -6107    -6354    -6477    -6512    -6454    -6111 
   -5463    -4966    -5085    -5752    -6505    -6902    -6894    -6735 
   -6523    -6156    -5618    -5090    -4919    -5320    -6100    -6787 
   -6910    -6377    -5713    -5544    -5886    -6255    -6291    -6064 
   -5957    -6114    -6250    -6199    -6096    -6112    -6276    -6343 
   -6065    -5584    -5274    -5374    -5763    -6100    -6326    -6516 
   -6532    -6251    -5784    -5437    -5520    -5915    -6166    -6084 
   -5940    -6085    -6463    -6647    -6401    -5887    -5447    -5319 
   -5475    -5810    -6184    -6347    -6254    -6129    -6016    -5728 
   -5248    -4924    -5125    -5813    -6585    -6940    -6658    -6192 
   -6127    -6420    -6658    -6529    -5983    -5266    -4746    -4735 
   -5374    -6403    -7249    -7499    -7249    -6905    -6538    -5857 
   -4850    -4064    -4240    -5544    -7086    -7696    -7146    -6220 
   -5815    -6069    -6293    -5950    -5408    -5331    -5749    -6093 
   -5937    -5494    -5385    -5854    -6457    -6647    -6423    -6114 
   -5913    -5857    -5958    -6129    -6137    -5872    -5545    -5439 
   -5665    -6107    -6408    -6378    -6195    -5989    -5761    -5548 
   -5462    -5684    -6168    -6509    -6459    -6160    -5838    -5626 
   -5652    -5984    -6431    -6741    -6891    -6880    -6606    -6033 
   -5298    -4783    -4854    -5404    -6043    -6570    -6845    -6809 
   -6617    -6319    -5806    -5316    -5258    -5641    -6106    -6349 
   -6363    -6301    -6246    -6172    -6043    -5877    -5709    -5572 
   -5540    -5702    -6062    -6367    -6312    -5969    -5672    -5563 
   -5683    -6069    -6393    -6242    -5846    -5751    -6016    -6338 
   -6474    -6322    -6046    -5994    -6137    -6076    -5709    -5352 
   -5350    -5837    -6516    -6791    -6411    -5719    -5247    -5294 
   -5798    -6405    -6825    -7064    -7134    -6810    -6029    -5115 
   -4488    -4513    -5282    -6372    -7150    -7298    -6876    -6120 
   -5320    -4835    -4881    -5305    -5806    -6219    -6511    -6710 
   -6797    -6666    -6282    -5783    -5435    -5395    -5575    -5809 
   -6049    -6319    -6532    -6486    -6176    -5845    -5703    -5810 
   -6039    -6139    -6030    -5923    -5999    -6122    -6031    -5761 
   -5653    -5950    -6467    -6718    -6475    -6010    -5769    -5907 
   -6112    -6006    -5671    -5439    -5493    -5860    -6332    -6593 
   -6569    -6377    -6138    -5915    -5709    -5530    -5424    -5427 
   -5595    -5881    -6075    -6079    -6022    -6004    -5983    -5964 
   -6052    -6243    -6361    -6249    -6012    -5996    -6257    -6369 
   -6093    -5786    -5881    -6318    -6650    -6536    -5949    -5287 
   -5165    -5641    -6160    -6346    -6231    -6050    -6050    -6138 
   -5991    -5620    -5433    -5717    -6265    -6552    -6212    -5483 
   -5139    -5651    -6613    -7240    -7068    -6272    -5505    -5266 
   -5475    -5813    -6160    -6505    -6640    -6320    -5634    -4999 
   -4841    -5286    -6023    -6573    -6708    -6566    -6392    -6277 
   -6189    -6092    -5938    -5691    -5447    -5422    -5706    -6129 
   -6485    -6700    -6774    -6677    -6315    -5736    -5283    -5310 
   -5810    -6377    -6565    -6296    -5840    -5506    -5485    -5737 
   -5960    -5907    -5725    -5767    -6218    -6847    -7090    -6644 
   -5827    -5188    -5044    -5308    -5649    -5892    -6111    -6424 
   -6743    -6766    -6370    -5752    -5238    -5204    -5728    -6394 
   -6690    -6399    -5765    -5246    -5076    -5266    -5726    -6269 
   -6709    -6947    -7003    -6974    -6882    -6617    -6135    -5644 
   -5354    -5209    -5094    -5117    -5510    -6297    -7063    -7307 
   -6963    -6320    -5682    -5229    -5031    -5136    -5607    -6339 
   -6940    -7003    -6517    -5913    -5609    -5610    -5645    -5548 
   -5359    -5227    -5313    -5636    -6075    -6477    -6659    -6539 
   -6262    -6103    -6195    -6349    -6358    -6269    -6091    -5744 
   -5340    -5074    -5127    -5602    -6304    -6797    -6732    -6129 
   -5448    -5202    -5452    -5923    -6392    -6725    -6812    -6639 
   -6353    -6187    -6254    -6362    -6299    -6168    -6089    -5903 
   -5456    -4968    -4887    -5417    -6224    -6740    -6716    -6442 
   -6316    -6319    -6064    -5404    -4779    -4812    -5728    -7036 
   -7809    -7605    -6801    -5996    -5470    -5117    -4834    -4774 
   -5046    -5557    -6145    -6586    -6782    -6814    -6683    -6328 
   -5788    -5166    -4695    -4675    -5150    -5899    -6720    -7396 
   -7628    -7225    -6284    -5209    -4521    -4480    -4968    -5691 
   -6465    -7204    -7676    -7576    -6934    -6083    -5325    -4876 
   -4841    -5202    -5849    -6544    -7057    -7288    -7217    -6921 
   -6505    -5915    -5125    -4414    -4164    -4476    -5186    -6116 
   -7020    -7510    -7356    -6659    -5798    -5254    -5217    -5413 
   -5586    -5830    -6246    -6667    -6816    -6571    -6134    -5834 
   -5706    -5594    -5491    -5413    -5332    -5309    -5374    -5494 
   -5692    -5913    -6069    -6292    -6694    -7056    -6986    -6251 
   -5146    -4417    -4556    -5336    -6138    -6507    -6436    -6259 
   -6205    -6092    -5661    -5189    -5282    -6064    -6980    -7414 
   -7136    -6311    -5391    -4766    -4440    -4356    -4741    -5853 
   -7569    -9186    -9888    -9410    -8048    -6389    -5065    -4328 
   -4136    -4506    -5390    -6532    -7618    -8379    -8625    -8230 
   -7160    -5536    -3726    -2343    -2038    -3222    -5742    -8721 
  -10972   -11607   -10253    -7219    -3523     -533      568     -666 
   -3738    -7446   -10261   -11003    -9499    -6473    -3152     -903 
    -545    -1998    -4526    -7132    -8910    -9406    -8779    -7520 
   -6137    -5117    -4747    -4919    -5449    -6293    -7314    -8163 
   -8452    -7960    -6764    -5202    -3726    -2878    -3091    -4396 
   -6434    -8519    -9748    -9451    -7711    -5321    -3260    -2296 
   -2808    -4631    -7098    -9248   -10226    -9680    -7797    -5225 
   -2992    -2047    -2644    -4305    -6304    -7975    -8891    -8877 
   -7803    -5788    -3530    -1939    -1620    -2619    -4515    -6697 
   -8571    -9775   -10123    -9435    -7751    -5489    -3365    -2145 
   -2249    -3663    -6030    -8581   -10282   -10382    -8854    -6328 
   -3682    -1664     -799    -1325    -3110    -5744    -8537   -10586 
  -11191   -10153    -7882    -5302    -3327    -2494    -3042    -4725 
   -6708    -8148    -8637    -8113    -6808    -5193    -3834    -3267 
   -3713    -4932    -6578    -8187    -9001    -8523    -6939    -4888 
   -3279    -2882    -3778    -5474    -7248    -8380    -8611    -8235 
   -7643    -7145    -6879    -6604    -5972    -5051    -4256    -4008 
   -4491    -5417    -6212    -6477    -6168    -5601    -5235    -5462 
   -6389    -7578    -8368    -8320    -7225    -5401    -3746    -2947 
   -3049    -3774    -4769    -5730    -6455    -6774    -6727    -6706 
   -7095    -7811    -8421    -8445    -7570    -5952    -4168    -2832 
   -2373    -2901    -4139    -5733    -7384    -8652    -9197    -9035 
   -8197    -6694    -4888    -3433    -2889    -3437    -4691    -5925 
   -6644    -6805    -6601    -6293    -6172    -6362    -6693    -6940 
   -6930    -6515    -5933    -5752    -6147    -6799    -7327    -7387 
   -6841    -6003    -5359    -5229    -5746    -6744    -7719    -8066 
   -7372    -5746    -3916    -2689    -2455    -3179    -4479    -5809 
   -6744    -7180    -7322    -7372    -7319    -7082    -6524    -5590 
   -4587    -3933    -3816    -4391    -5713    -7387    -8737    -9234 
   -8716    -7419    -5811    -4372    -3492    -3369    -3950    -5035 
   -6343    -7578    -8495    -8834    -8359    -7061    -5259    -3470 
   -2236    -2022    -3011    -4878    -6880    -8299    -8733    -8167 
   -7047    -6015    -5441    -5359    -5616    -5952    -6201    -6463 
   -6909    -7577    -8364    -8915    -8623    -7110    -4621    -1925 
     -54       14    -2106    -5876   -10014   -12924   -13338   -10898 
   -6342    -1402     1796     1925     -886    -5433   -10131   -13450 
  -14242   -12201    -8118    -3478      247     1949     1170    -1633 
   -5418    -9038   -11483   -12181   -11156    -8887    -6138    -3748 
   -2263    -1858    -2548    -4193    -6326    -8226    -9140    -8694 
   -7283    -5740    -4644    -4271    -4730    -5852    -7338    -8815 
   -9618    -9084    -7142    -4476    -2108     -778     -757    -2010 
   -4174    -6548    -8417    -9317    -9078    -7869    -6338    -5352 
   -5325    -5989    -6781    -7275    -7458    -7443    -7105    -6324 
   -5225    -4118    -3426    -3392    -3979    -5059    -6384    -7561 
   -8235    -8189    -7389    -6122    -4919    -4270    -4445    -5373 
   -6635    -7731    -8326    -8333    -7867    -7164    -6478    -5896 
   -5298    -4629    -4062    -3882    -4357    -5532    -6966    -7873 
   -7636    -6220    -4337    -3194    -3761    -6021    -8920   -11011 
  -11260    -9455    -6239    -2956     -962     -839    -2254    -4278 
   -5911    -6571    -6191    -5242    -4580    -4830    -5918    -7246 
   -8147    -8275    -7685    -6705    -5877    -5741    -6350    -7075 
   -7198    -6519    -5309    -4143    -3597    -3801    -4531    -5529 
   -6562    -7425    -7971    -8220    -8271    -8087    -7628    -6929 
   -5969    -4842    -3905    -3593    -4140    -5413    -6952    -8148 
   -8554    -8122    -7032    -5587    -4170    -3006    -2251    -2169 
   -2936    -4531    -6751    -9151   -11113   -12010   -11427    -9342 
   -6219    -3018     -903     -608    -2034    -4446    -6939    -8718 
   -9385    -8997    -7766    -5923    -3902    -2347    -1885    -2748 
   -4583    -6744    -8704   -10056   -10422    -9591    -7653    -5031 
   -2509     -974     -977    -2542    -5147    -7857    -9767   -10361 
   -9525    -7611    -5497    -4112    -3850    -4546    -5722    -6816 
   -7412    -7360    -6860    -6428    -6365    -6501    -6474    -5941 
   -4904    -3883    -3439    -3753    -4646    -5684    -6386    -6602 
   -6507    -6284    -6114    -6201    -6534    -6862    -6968    -6845 
   -6701    -6698    -6799    -6880    -6821    -6509    -5873    -5013 
   -4244    -3916    -4176    -4866    -5651    -6251    -6478    -6278 
   -5884    -5634    -5740    -6192    -6729    -6993    -6794    -6265 
   -5746    -5544    -5752    -6188    -6540    -6610    -6264    -5564 
   -4938    -4800    -5302    -6296    -7276    -7685    -7294    -6273 
   -5136    -4475    -4621    -5526    -6764    -7742    -8082    -7734 
   -6949    -6138    -5589    -5356    -5452    -5868    -6408    -6798 
   -7011    -7137    -7084    -6671    -5849    -4756    -3690    -3049 
   -3177    -4251    -6043    -7805    -8733    -8552    -7504    -6112 
   -4977    -4459    -4546    -5013    -5576    -5972    -6045    -5872 
   -5773    -6052    -6690    -7341    -7578    -7194    -6268    -5094 
   -4133    -3832    -4248    -4962    -5524    -5787    -5830    -5811 
   -5923    -6218    -6508    -6609    -6539    -6332    -5956    -5539 
   -5387    -5632    -6177    -6837    -7348    -7472    -7184    -6652 
   -6084    -5616    -5344    -5381    -5709    -6191    -6755    -7268 
   -7454    -7157    -6497    -5765    -5263    -5071    -5039    -5058 
   -5103    -5128    -5104    -5076    -5170    -5463    -5860    -6200 
   -6336    -6176    -5929    -5980    -6396    -6870    -7128    -7171 
   -7101    -6871    -6399    -5783    -5263    -5057    -5251    -5755 
   -6322    -6690    -6702    -6377    -5921    -5574    -5441    -5503 
   -5690    -5941    -6246    -6536    -6666    -6589    -6377    -6127 
   -5964    -5872    -5684    -5448    -5513    -6023    -6708    -7163 
   -7114    -6590    -5877    -5229    -4773    -4646    -4957    -5579 
   -6196    -6496    -6335    -5853    -5391    -5223    -5387    -5761 
   -6185    -6525    -6637    -6389    -5856    -5348    -5165    -5394 
   -5888    -6407    -6781    -6986    -7123    -7292    -7508    -7681 
   -7593    -7111    -6330    -5413    -4523    -3848    -3569    -3805 
   -4552    -5584    -6517    -7042    -7059    -6623    -5933    -5231 
   -4735    -4700    -5251    -6242    -7388    -8299    -8586    -8181 
   -7265    -6015    -4737    -3898    -3796    -4368    -5340    -6340 
   -7028    -7284    -7150    -6697    -6079    -5463    -4966    -4710 
   -4781    -5201    -5880    -6588    -7115    -7327    -7142    -6558 
   -5667    -4745    -4182    -4202    -4765    -5634    -6454    -6998 
   -7318    -7519    -7573    -7422    -7111    -6763    -6475    -6284 
   -6177    -6154    -6141    -5969    -5590    -5103    -4622    -4280 
   -4266    -4684    -5393    -6100    -6538    -6496    -6033    -5493 
   -5173    -5209    -5611    -6219    -6812    -7269    -7508    -7434 
   -7013    -6295    -5437    -4750    -4491    -4629    -5023    -5578 
   -6165    -6642    -6893    -6824    -6461    -5998    -5717    -5765 
   -6048    -6334    -6432    -6369    -6307    -6291    -6261    -6199 
   -6097    -5903    -5579    -5281    -5244    -5490    -5865    -6268 
   -6687    -7088    -7323    -7277    -6966    -6481    -5989    -5637 
   -5435    -5348    -5335    -5358    -5449    -5609    -5775    -5890 
   -5914    -5891    -5814    -5655    -5528    -5576    -5861    -6370 
   -6984    -7497    -7669    -7325    -6544    -5622    -4855    -4409 
   -4338    -4612    -5136    -5811    -6561    -7256    -7668    -7630 
   -7184    -6500    -5759    -5100    -4665    -4585    -4853    -5354 
   -5981    -6612    -7038    -7060    -6693    -6195    -5765    -5441 
   -5271    -5305    -5476    -5664    -5764    -5697    -5479    -5316 
   -5485    -6092    -6960    -7705    -7978    -7712    -7086    -6297 
   -5547    -5036    -4861    -4996    -5336    -5710    -5965    -6058 
   -6052    -6033    -6072    -6170    -6250    -6304    -6417    -6606 
   -6786    -6848    -6762    -6563    -6253    -5805    -5262    -4742 
