Origin Time       2025/03/30 22:55:00
Lat.              41.993
Long.             142.725
Depth. (km)       55
Mag.              4.6
Station Code      TKCH04
Station Lat.      43.1739
Station Long.     142.9176
Station Height(m) 48
Record Time       2025/03/30 22:56:35
Sampling Freq(Hz) 100Hz
Duration Time(s)  120
Dir.              1
Scale Factor      2942(gal)/8224139
Max. Acc. (gal)   0.206
Last Correction   2025/03/30 22:56:36
Memo.             
[...]
   80028    80087    80082    80003    79967    80011    80060    80086 
   80087    80104    80150    80176    80190    80206    80195    80177 
   80163    80113    80068    80060    80059    80060    80034    79976 
   79959    79990    80046    80126    80180    80153    80073    80042 
   80110    80179    80167    80131    80106    80077    80073    80048 
   79982    79978    80056    80114    80150    80188    80181    80142 
   80109    80115    80173    80164    80104    80122    80131    80068 
   80045    80090    80118    80072    79982    79942    79982    80037 
   80069    80071    80067    80084    80106    80152    80231    80276 
   80264    80198    80080    80018    80069    80115    80067    79990 
   79984    80052    80114    80100    80032    80003    80037    80063 
   80042    80048    80140    80222    80196    80149    80207    80299 
   80269    80137    80044    80063    80092    80033    79968    79983 
   80032    80038    80013    80050    80136    80148    80076    80022 
   80067    80133    80129    80127    80157    80161    80164    80163 
   80104    80029    80019    80057    80065    80057    80075    80088 
   80055    80014    80030    80077    80072    80057    80118    80158 
   80098    80044    80082    80148    80176    80184    80202    80227 
   80208    80083    79953    79955    80010    80040    80090    80113 
   80071    80076    80121    80110    80130    80191    80152    80065 
   80052    80069    80052    80018    80042    80118    80130    80088 
   80100    80158    80217    80207    80106    80053    80102    80090 
   80007    79998    80076    80157    80161    80091    80064    80099 
   80099    80086    80100    80090    80090    80138    80119    80010 
   79971    80059    80160    80191    80171    80172    80207    80149 
   79998    79968    80067    80077    80022    80052    80113    80133 
   80104    80030    80042    80185    80276    80234    80175    80158 
   80099    79956    79890    80003    80115    80071    79984    80001 
   80094    80153    80104    80018    79982    80030    80179    80284 
   80227    80141    80104    80059    80028    80037    80055    80104 
   80183    80173    80100    80121    80163    80121    80106    80125 
   80084    80029    80026    80056    80095    80094    80013    79982 
   80098    80206    80214    80172    80127    80123    80119    80079 
   80083    80131    80146    80129    80103    80063    80071    80129 
   80111    80028    80002    80046    80115    80150    80107    80057 
   80053    80072    80125    80165    80118    80063    80041    80021 
   80092    80234    80237    80100    79991    79959    80053    80203 
   80181    80037    80013    80077    80102    80118    80160    80187 
   80199    80194    80111    79963    79882    79928    79976    79941 
   79960    80107    80234    80268    80245    80196    80195    80234 
   80215    80145    80049    79937    79928    80023    80072    80073 
   80069    80049    80057    80083    80090    80110    80131    80160 
   80190    80149    80077    80082    80122    80126    80088    80053 
   80067    80088    80084    80079    80072    80083    80114    80111 
   80060    80033    80077    80140    80161    80142    80086    80030 
   80049    80118    80163    80150    80091    80059    80071    80064 
   80075    80107    80079    80050    80094    80110    80063    80067 
   80114    80088    80017    80018    80136    80233    80177    80063 
   80010    80014    80053    80061    80018    80077    80227    80248 
   80167    80194    80241    80129    80015    80056    80086    80036 
   80014    80025    80055    80125    80195    80230    80204    80095 
   79982    79968    80017    80032    80021    80069    80156    80149 
   80063    80079    80198    80199    80086    80059    80087    80042 
   80009    80055    80069    80017    80009    80076    80141    80160 
   80122    80061    80083    80171    80195    80146    80090    80095 
   80172    80156    80037    80010    80040    80049    80100    80114 
   80060    80065    80102    80068    80030    80059    80127    80190 
   80177    80086    79999    79983    80042    80096    80110    80149 
   80177    80154    80142    80118    80064    80017    79969    80007 
   80140    80172    80144    80176    80113    79956    79951    80099 
   80188    80156    80129    80144    80115    80068    80094    80137 
   80113    80113    80138    80080    80041    80110    80173    80183 
   80109    79976    79996    80179    80249    80153    80079    80059 
   80033    80032    80048    80040    80032    80048    80109    80175 
   80149    80104    80142    80133    80022    79945    79991    80136 
   80219    80129    80022    80064    80165    80179    80123    80055 
   80015    80056    80122    80133    80084    80034    80060    80118 
   80119    80098    80092    80122    80138    80077    80046    80113 
   80153    80146    80152    80153    80127    80037    79955    80025 
   80134    80109    80046    80104    80198    80176    80079    79999 
   80018    80129    80152    80083    80087    80145    80165    80122 
   80071    80098    80163    80171    80114    80053    80044    80049 
   80038    80064    80103    80086    80049    80045    80076    80144 
   80156    80065    80037    80118    80149    80126    80141    80127 
   80059    80060    80142    80172    80138    80123    80115    80073 
   80065    80137    80176    80083    79963    79968    80053    80055 
   80005    80028    80080    80055    79991    80021    80095    80100 
   80104    80176    80252    80266    80207    80094    79984    79960 
   79999    80034    80113    80191    80148    80067    80015    79991 
   80055    80098    80044    80040    80104    80115    80126    80177 
   80165    80109    80098    80129    80183    80195    80133    80103 
   80140    80130    80038    80011    80094    80119    80042    80005 
   80036    80083    80098    80029    79991    80075    80083    80018 
   80110    80234    80194    80099    80023    79978    80059    80210 
   80250    80179    80118    80125    80168    80148    80034    79982 
   80041    80068    80038    80055    80119    80158    80163    80173 
   80161    80065    79974    80025    80149    80185    80144    80098 
   80082    80115    80137    80115    80111    80115    80055    79974 
   79959    79995    80041    80069    80055    80028    80071    80184 
   80215    80146    80153    80237    80241    80167    80126    80150 
   80175    80104    79991    79983    80038    80037    79998    79991 
   80090    80234    80221    80073    79986    79947    79891    79951 
   80165    80307    80271    80188    80181    80248    80292    80215 
   80036    79901    79937    80056    80087    80003    79917    79921 
   79975    79992    80028    80160    80302    80307    80192    80164 
   80265    80295    80239    80198    80077    79937    79947    80010 
   80021    80021    79972    79915    79971    80037    80015    80019 
   80080    80168    80253    80235    80187    80198    80168    80137 
   80198    80254    80249    80188    80053    79915    79897    79982 
   80036    80038    80067    80076    80034    80028    80071    80092 
   80095    80163    80288    80303    80179    80153    80249    80196 
   80021    79949    79998    80059    80037    79934    79909    80033 
   80160    80165    80106    80080    80092    80113    80111    80073 
   80055    80084    80090    80026    80007    80106    80188    80180 
   80154    80114    80073    80068    80042    80010    80037    80056 
   80059    80103    80107    80040    80015    80065    80137    80183 
   80164    80118    80104    80119    80119    80088    80067    80082 
   80106    80111    80121    80122    80082    80067    80087    80015 
   79938    80021    80122    80138    80142    80123    80114    80167 
   80210    80199    80161    80113    80106    80133    80109    80044 
   80032    80055    80048    80028    80028    80084    80184    80239 
   80219    80140    80029    79959    79972    80010    79998    79959 
   79953    80001    80090    80184    80258    80300    80258    80185 
   80210    80277    80284    80241    80130    79992    79953    79971 
   79994    80071    80102    80010    79938    79978    80034    80015 
   79986    80032    80071    80061    80130    80276    80323    80214 
   80107    80152    80261    80260    80161    80056    79968    79971 
   80033    80026    80002    80032    80053    80064    80071    80059 
   80071    80084    80055    80061    80130    80145    80099    80103 
   80154    80171    80133    80073    80091    80203    80234    80094 
   79960    79991    80109    80160    80103    80005    79974    80034 
   80122    80192    80222    80204    80183    80175    80153    80107 
   80082    80099    80129    80177    80210    80095    79913    79893 
   79986    79978    79897    79909    80049    80226    80248    80092 
   80017    80061    80076    80086    80134    80207    80241    80172 
   80099    80100    80148    80230    80246    80109    79964    79945 
   79988    79984    79917    79907    80026    80184    80249    80185 
   80130    80198    80257    80200    80160    80218    80212    80083 
   80007    80009    79986    79994    80019    79995    79976    79986 
   80009    80046    80082    80113    80142    80140    80130    80185 
   80238    80198    80157    80175    80160    80086    80006    79971 
   79991    79998    79924    79863    79938    80072    80118    80091 
   80073    80110    80188    80222    80206    80210    80180    80100 
   80113    80200    80210    80160    80114    80052    80021    80014 
   79953    79903    79941    80036    80119    80158    80221    80288 
   80218    80113    80140    80161    80092    80063    80076    80069 
   80076    80071    80021    80037    80110    80102    80092    80169 
   80212    80136    79974    79872    79961    80140    80246    80219 
   80127    80106    80172    80225    80172    80053    80017    80028 
   79967    79948    80053    80154    80180    80161    80122    80092 
   80107    80137    80114    80010    79926    80011    80212    80334 
   80289    80129    80014    80036    80119    80176    80148    80049 
   79986    79999    80034    80041    80040    80073    80099    80055 
   79996    80022    80127    80188    80117    80053    80098    80160 
   80199    80222    80215    80215    80211    80152    80069    80011 
   79974    79937    79903    79920    80002    80071    80082    80088 
   80115    80076    80011    80091    80235    80230    80113    80052 
   80113    80214    80222    80195    80230    80215    80121    80060 
   80030    80013    80057    80100    80044    79992    80046    80109 
   80094    80050    80086    80180    80200    80123    80048    80044 
   80125    80180    80096    80034    80104    80153    80136    80084 
   80003    79991    80036    80042    80079    80165    80192    80140 
   80059    80022    80080    80146    80140    80091    80044    80014 
   80052    80126    80122    80068    80077    80107    80104    80121 
   80137    80094    80056    80069    80080    80117    80206    80242 
   80191    80138    80113    80079    80018    79964    79976    80018 
   80005    79971    79990    80046    80100    80168    80225    80172 
   80063    80042    80102    80161    80177    80142    80156    80222 
   80218    80160    80073    79961    79942    80005    80040    80079 
   80119    80115    80087    80050    80032    80050    80053    80037 
   80044    80034    79999    80018    80136    80249    80233    80179 
   80217    80239    80175    80114    80100    80106    80055    79930 
   79878    79969    80067    80083    80115    80192    80184    80086 
   80014    80021    80061    80076    80110    80218    80283    80254 
   80229    80163    80057    80055    80077    80001    79917    79870 
   79860    79957    80059    80045    80071    80192    80222    80137 
   80086    80110    80154    80140    80094    80113    80169    80202 
   80215    80190    80126    80083    80040    79956    79915    80029 
   80212    80260    80163    80073    80023    79967    79925    79925 
   79978    80111    80241    80233    80095    79960    79928    79957 
   80005    80056    80079    80084    80091    80113    80169    80199 
   80133    80076    80106    80133    80129    80156    80207    80244 
   80225    80133    80048    80021    79988    79974    80048    80106 
   80084    80053    80003    79976    80075    80238    80338    80302 
   80122    79918    79851    79928    80045    80117    80094    80042 
   80103    80214    80203    80129    80076    80011    79998    80050 
   80057    80072    80145    80169    80169    80192    80144    80079 
   80134    80215    80177    80063    79978    79945    79940    79945 
   79990    80075    80126    80145    80192    80233    80230    80221 
   80180    80086    80009    80002    80011    79979    79947    79965 
   80034    80110    80069    79897    79849    80036    80206    80262 
   80354    80434    80331    80165    80149    80221    80229    80171 
   80088    80014    79995    80065    80196    80310    80306    80184 
   80071    80030    80029    80061    80109    80140    80142    80086 
   79974    79887    79866    79884    79944    80063    80208    80331 
   80350    80222    80087    80059    80011    79880    79832    79855 
   79807    79810    79964    80148    80330    80538    80670    80639 
   80509    80347    80091    79813    79732    79814    79863    79857 
   79875    79942    80040    80110    80164    80218    80217    80190 
   80168    80055    79893    79893    80034    80114    80110    80100 
   80095    80099    80153    80279    80418    80460    80373    80225 
   80069    79948    79887    79859    79856    79915    79979    79928 
   79891    80044    80149    80011    79898    79949    79964    79963 
   80123    80365    80495    80466    80364    80293    80185    79986 
   79860    79855    79890    80030    80257    80370    80364    80376 
   80396    80364    80273    80141    80015    79901    79779    79729 
   79814    79929    79955    79910    79836    79743    79704    79770 
   79899    80057    80214    80310    80325    80280    80195    80110 
   80133    80277    80370    80308    80210    80227    80291    80241 
   80114    79990    79872    79810    79797    79793    79902    80158 
   80333    80308    80269    80252    80214    80304    80439    80345 
   80130    80018    79930    79768    79616    79636    79901    80179 
   80177    80023    80064    80280    80365    80206    79976    79887 
   79949    80079    80284    80505    80562    80410    80202    80090 
   80090    80087    80015    79980    80050    80145    80199    80212 
   80179    80098    79999    79952    79988    80038    80029    79959 
   79898    79926    79967    79960    80041    80190    80199    80086 
   80057    80199    80397    80482    80427    80254    79955    79666 
   79567    79632    79733    79837    79956    80092    80188    80179 
   80123    80134    80215    80229    80125    80057    80065    80106 
   80253    80470    80577    80527    80455    80450    80418    80277 
   80073    79875    79728    79656    79667    79764    79910    80001 
   80046    80185    80337    80343    80311    80312    80233    80115 
   80079    80086    80056    80002    79944    79864    79840    79942 
   80077    80163    80188    80134    80113    80226    80285    80191 
   80109    80092    80129    80221    80233    80119    80050    80096 
   80165    80165    80057    79886    79766    79767    79851    79926 
   79972    80009    80080    80225    80311    80196    79959    79787 
   79866    80168    80418    80487    80434    80346    80334    80343 
   80222    80057    79982    79880    79737    79697    79733    79822 
   80018    80188    80214    80187    80239    80366    80354    80131 
   79921    79872    80007    80206    80285    80273    80253    80223 
   80122    79914    79760    79760    79822    79956    80184    80407 
   80499    80426    80331    80291    80226    80164    80168    80212 
   80252    80158    79910    79729    79724    79785    79925    80099 
   80086    79947    79897    79920    79979    80082    80196    80349 
   80492    80549    80554    80470    80264    80038    79875    79779 
   79701    79582    79535    79671    79874    79987    80006    79983 
   79986    80042    80088    80126    80217    80285    80295    80315 
   80330    80291    80225    80165    80100    80028    79994    80017 
   80038    80041    80076    80131    80192    80257    80275    80250 
   80210    80118    80049    80090    80148    80158    80169    80194 
   80202    80146    80022    79905    79818    79783    79903    80073 
   80073    80003    80096    80292    80411    80418    80325    80144 
   79967    79934    80056    80171    80208    80261    80370    80407 
   80248    79991    79874    79906    79859    79710    79690    79851 
   80030    80175    80347    80450    80384    80298    80280    80253 
   80199    80131    80055    79967    79893    79921    80028    80098 
   80114    80065    79986    79968    79982    79917    79806    79826 
   79996    80113    80117    80176    80308    80298    80107    79964 
   79961    80038    80212    80419    80531    80536    80415    80172 
   79982    79915    79876    79851    79897    80015    80137    80164 
   80107    80119    80219    80218    80082    79955    79857    79775 
   79807    79969    80140    80244    80323    80449    80549    80468 
   80212    79992    79949    80041    80130    80086    79965    79934 
   79969    79980    79988    79975    79957    80023    80072    79967 
   79894    80046    80250    80307    80254    80167    80068    79988 
   79996    80113    80218    80227    80199    80107    79922    79829 
   79949    80113    80145    80055    79983    80045    80226    80433 
   80585    80651    80607    80412    80160    80021    80009    80040 
   80094    80096    79944    79741    79616    79542    79550    79674 
   79855    80045    80257    80496    80642    80572    80329    80068 
   79947    79972    80030    80092    80157    80142    79984    79778 
   79701    79775    79894    80017    80142    80242    80285    80264 
   80241    80311    80379    80304    80188    80131    80092    80071 
   80114    80176    80191    80177    80121    79929    79705    79662 
   79763    79841    79910    80014    80075    80110    80227    80361 
   80391    80338    80252    80176    80184    80223    80218    80248 
   80307    80244    80063    79886    79780    79825    79992    80129 
   80169    80141    80142    80237    80298    80252    80187    80103 
   79991    79942    79978    80057    80115    80083    80068    80181 
   80245    80122    79945    79839    79843    79936    80009    80026 
   80053    80102    80191    80341    80427    80366    80244    80163 
   80145    80129    80067    79975    79883    79829    79822    79830 
   79879    79972    80018    80019    80050    80098    80125    80145 
   80207    80329    80410    80376    80322    80250    80034    79798 
   79799    79978    80113    80183    80249    80291    80292    80279 
