Origin Time       2025/03/30 10:18:00
Lat.              34.667
Long.             140.825
Depth. (km)       69
Mag.              4.9
Station Code      CHBH17
Station Lat.      35.1714
Station Long.     140.3398
Station Height(m) -811.7
Record Time       2025/03/30 10:18:50
Sampling Freq(Hz) 100Hz
Duration Time(s)  120
Dir.              1
Scale Factor      2942(gal)/8224139
Max. Acc. (gal)   0.976
Last Correction   2025/03/30 10:18:50
Memo.             
[...]
 -246510  -246511  -246511  -246511  -246511  -246511  -246510  -246511 
 -246511  -246508  -246507  -246508  -246511  -246511  -246510  -246510 
 -246512  -246512  -246510  -246508  -246508  -246507  -246508  -246510 
 -246510  -246511  -246512  -246508  -246507  -246508  -246507  -246505 
 -246508  -246511  -246511  -246510  -246510  -246508  -246510  -246511 
 -246511  -246510  -246510  -246511  -246512  -246512  -246511  -246508 
 -246508  -246511  -246511  -246510  -246510  -246508  -246507  -246507 
 -246508  -246510  -246507  -246507  -246511  -246511  -246508  -246510 
 -246511  -246508  -246507  -246510  -246511  -246511  -246511  -246512 
 -246511  -246508  -246511  -246510  -246505  -246508  -246511  -246510 
 -246508  -246511  -246508  -246508  -246510  -246507  -246508  -246511 
 -246510  -246510  -246511  -246510  -246510  -246510  -246508  -246510 
 -246512  -246510  -246508  -246511  -246511  -246511  -246511  -246511 
 -246512  -246514  -246511  -246510  -246508  -246510  -246511  -246512 
 -246511  -246510  -246510  -246510  -246510  -246508  -246508  -246508 
 -246508  -246508  -246507  -246510  -246511  -246508  -246508  -246511 
 -246511  -246510  -246511  -246511  -246511  -246511  -246508  -246508 
 -246511  -246510  -246511  -246512  -246512  -246512  -246510  -246508 
 -246508  -246510  -246510  -246510  -246510  -246508  -246510  -246512 
 -246512  -246510  -246511  -246512  -246510  -246508  -246510  -246510 
 -246511  -246512  -246511  -246510  -246511  -246511  -246511  -246510 
 -246510  -246510  -246511  -246510  -246510  -246508  -246510  -246511 
 -246510  -246510  -246511  -246510  -246510  -246508  -246508  -246510 
 -246512  -246512  -246511  -246510  -246510  -246510  -246508  -246507 
 -246507  -246508  -246510  -246510  -246511  -246512  -246511  -246510 
 -246510  -246510  -246510  -246508  -246511  -246512  -246508  -246508 
 -246510  -246511  -246512  -246511  -246508  -246511  -246511  -246511 
 -246510  -246510  -246510  -246511  -246510  -246510  -246508  -246507 
 -246511  -246512  -246511  -246511  -246511  -246512  -246514  -246512 
 -246510  -246511  -246512  -246510  -246508  -246510  -246510  -246510 
 -246512  -246512  -246511  -246511  -246510  -246510  -246512  -246514 
 -246511  -246510  -246511  -246510  -246510  -246511  -246512  -246511 
 -246511  -246511  -246508  -246510  -246512  -246510  -246508  -246510 
 -246508  -246507  -246510  -246511  -246510  -246510  -246511  -246511 
 -246510  -246510  -246510  -246510  -246510  -246510  -246511  -246510 
 -246510  -246510  -246510  -246510  -246512  -246511  -246510  -246510 
 -246510  -246510  -246512  -246512  -246510  -246510  -246510  -246508 
 -246508  -246510  -246508  -246508  -246510  -246511  -246510  -246508 
 -246511  -246511  -246508  -246508  -246511  -246511  -246510  -246510 
 -246508  -246508  -246512  -246512  -246510  -246512  -246514  -246511 
 -246508  -246510  -246510  -246508  -246510  -246510  -246508  -246511 
 -246511  -246508  -246510  -246511  -246508  -246507  -246510  -246511 
 -246510  -246508  -246510  -246510  -246508  -246508  -246510  -246510 
 -246510  -246511  -246512  -246512  -246511  -246510  -246510  -246511 
 -246510  -246507  -246510  -246511  -246510  -246511  -246510  -246508 
 -246510  -246511  -246510  -246510  -246511  -246510  -246508  -246510 
 -246510  -246511  -246511  -246511  -246512  -246512  -246510  -246508 
 -246510  -246511  -246510  -246507  -246510  -246510  -246510  -246510 
 -246510  -246510  -246511  -246511  -246511  -246511  -246508  -246508 
 -246510  -246511  -246510  -246505  -246504  -246505  -246507  -246507 
 -246510  -246512  -246510  -246499  -246499  -246510  -246523  -246527 
 -246514  -246492  -246489  -246507  -246520  -246514  -246501  -246500 
 -246514  -246528  -246524  -246507  -246501  -246508  -246514  -246520 
 -246519  -246507  -246507  -246527  -246551  -246557  -246534  -246496 
 -246457  -246430  -246442  -246489  -246530  -246538  -246520  -246510 
 -246538  -246586  -246582  -246499  -246407  -246387  -246442  -246520 
 -246568  -246581  -246589  -246573  -246527  -246491  -246481  -246465 
 -246437  -246441  -246493  -246553  -246608  -246659  -246643  -246546 
 -246460  -246435  -246445  -246466  -246501  -246516  -246487  -246460 
 -246485  -246535  -246557  -246526  -246462  -246423  -246441  -246488 
 -246542  -246586  -246599  -246585  -246541  -246461  -246403  -246419 
 -246511  -246612  -246628  -246561  -246511  -246491  -246483  -246505 
 -246520  -246470  -246391  -246380  -246477  -246609  -246673  -246608 
 -246477  -246437  -246535  -246622  -246582  -246477  -246410  -246415 
 -246470  -246558  -246620  -246561  -246427  -246368  -246418  -246503 
 -246547  -246534  -246508  -246516  -246546  -246565  -246580  -246582 
 -246527  -246453  -246419  -246352  -246244  -246245  -246420  -246654 
 -246801  -246802  -246678  -246500  -246388  -246396  -246465  -246530 
 -246558  -246542  -246527  -246558  -246615  -246634  -246537  -246368 
 -246319  -246420  -246493  -246487  -246449  -246415  -246442  -246515 
 -246554  -246532  -246485  -246485  -246526  -246515  -246466  -246484 
 -246558  -246588  -246541  -246483  -246495  -246600  -246713  -246677 
 -246519  -246424  -246423  -246474  -246600  -246690  -246632  -246507 
 -246414  -246422  -246523  -246569  -246514  -246465  -246430  -246369 
 -246349  -246395  -246469  -246559  -246565  -246435  -246383  -246496 
 -246600  -246667  -246736  -246682  -246558  -246504  -246420  -246349 
 -246493  -246694  -246677  -246515  -246423  -246435  -246487  -246555 
 -246597  -246586  -246535  -246407  -246260  -246291  -246531  -246757 
 -246792  -246665  -246491  -246372  -246365  -246456  -246559  -246599 
 -246565  -246472  -246381  -246389  -246522  -246665  -246659  -246503 
 -246387  -246410  -246485  -246550  -246532  -246403  -246258  -246196 
 -246276  -246460  -246593  -246624  -246592  -246546  -246524  -246519 
 -246555  -246657  -246746  -246732  -246631  -246549  -246492  -246404 
 -246406  -246546  -246595  -246512  -246454  -246383  -246323  -246427 
 -246605  -246673  -246591  -246402  -246264  -246296  -246373  -246358 
 -246357  -246491  -246666  -246747  -246771  -246807  -246762  -246566 
 -246326  -246226  -246358  -246559  -246619  -246559  -246447  -246381 
 -246487  -246593  -246495  -246358  -246396  -246545  -246608  -246541 
 -246564  -246716  -246699  -246515  -246468  -246558  -246588  -246474 
 -246294  -246213  -246283  -246391  -246501  -246689  -246847  -246748 
 -246472  -246350  -246472  -246577  -246532  -246496  -246561  -246635 
 -246653  -246631  -246585  -246511  -246442  -246426  -246487  -246568 
 -246550  -246474  -246460  -246434  -246381  -246420  -246564  -246681 
 -246604  -246404  -246339  -246395  -246392  -246331  -246329  -246469 
 -246638  -246666  -246654  -246639  -246516  -246437  -246585  -246782 
 -246751  -246519  -246366  -246420  -246554  -246616  -246577  -246499 
 -246429  -246387  -246419  -246501  -246531  -246469  -246385  -246364 
 -246412  -246489  -246539  -246516  -246461  -246456  -246508  -246604 
 -246744  -246829  -246690  -246427  -246354  -246464  -246538  -246566 
 -246541  -246450  -246453  -246528  -246537  -246500  -246451  -246416 
 -246393  -246326  -246323  -246464  -246604  -246635  -246558  -246443 
 -246407  -246443  -246473  -246483  -246483  -246538  -246657  -246707 
 -246640  -246534  -246465  -246477  -246522  -246530  -246578  -246650 
 -246592  -246497  -246501  -246464  -246370  -246383  -246458  -246515 
 -246593  -246657  -246634  -246570  -246532  -246489  -246416  -246397 
 -246501  -246562  -246423  -246333  -246497  -246678  -246699  -246636 
 -246488  -246275  -246214  -246366  -246512  -246543  -246524  -246449 
 -246383  -246468  -246628  -246693  -246682  -246696  -246732  -246692 
 -246528  -246389  -246397  -246460  -246478  -246522  -246580  -246528 
 -246399  -246312  -246272  -246273  -246362  -246507  -246685  -246820 
 -246739  -246512  -246400  -246389  -246369  -246435  -246535  -246507 
 -246478  -246609  -246747  -246724  -246607  -246555  -246581  -246524 
 -246326  -246146  -246163  -246400  -246693  -246767  -246569  -246395 
 -246415  -246424  -246315  -246272  -246392  -246604  -246777  -246790 
 -246708  -246672  -246662  -246589  -246473  -246416  -246439  -246501 
 -246580  -246642  -246642  -246595  -246566  -246546  -246469  -246383 
 -246349  -246366  -246397  -246381  -246380  -246474  -246557  -246551 
 -246526  -246518  -246574  -246663  -246578  -246383  -246379  -246507 
 -246595  -246713  -246821  -246734  -246565  -246542  -246572  -246480 
 -246325  -246215  -246238  -246443  -246646  -246603  -246370  -246202 
 -246206  -246223  -246194  -246395  -246831  -247104  -247090  -246931 
 -246682  -246437  -246321  -246291  -246253  -246285  -246445  -246635 
 -246723  -246608  -246373  -246244  -246307  -246474  -246580  -246554 
 -246539  -246627  -246684  -246645  -246616  -246595  -246503  -246458 
 -246524  -246624  -246728  -246703  -246451  -246150  -245972  -245988 
 -246183  -246393  -246508  -246569  -246618  -246576  -246427  -246399 
 -246581  -246731  -246773  -246802  -246711  -246485  -246368  -246434 
 -246549  -246630  -246659  -246643  -246663  -246727  -246650  -246423 
 -246298  -246333  -246402  -246430  -246453  -246554  -246651  -246591 
 -246460  -246410  -246372  -246326  -246418  -246530  -246478  -246453 
 -246515  -246477  -246434  -246464  -246453  -246532  -246715  -246701 
 -246528  -246449  -246445  -246446  -246511  -246640  -246744  -246721 
 -246616  -246585  -246588  -246472  -246326  -246325  -246406  -246424 
 -246380  -246329  -246370  -246561  -246708  -246620  -246431  -246304 
 -246269  -246399  -246643  -246739  -246653  -246624  -246682  -246692 
 -246646  -246601  -246595  -246578  -246481  -246366  -246335  -246397 
 -246504  -246549  -246474  -246403  -246376  -246312  -246327  -246487 
 -246582  -246535  -246501  -246562  -246665  -246748  -246797  -246812 
 -246738  -246557  -246365  -246237  -246200  -246258  -246333  -246418 
 -246566  -246728  -246788  -246642  -246349  -246203  -246337  -246547 
 -246693  -246771  -246728  -246612  -246578  -246639  -246672  -246582 
 -246458  -246437  -246464  -246422  -246326  -246213  -246142  -246196 
 -246345  -246460  -246501  -246534  -246565  -246576  -246592  -246638 
 -246743  -246836  -246734  -246451  -246252  -246277  -246392  -246442 
 -246468  -246572  -246703  -246680  -246503  -246399  -246451  -246531 
 -246551  -246547  -246608  -246690  -246646  -246550  -246505  -246361 
 -246200  -246298  -246495  -246565  -246674  -246870  -246942  -246850 
 -246669  -246465  -246353  -246306  -246294  -246453  -246681  -246666 
 -246418  -246223  -246238  -246395  -246550  -246585  -246491  -246410 
 -246457  -246537  -246510  -246412  -246357  -246416  -246541  -246584 
 -246522  -246418  -246327  -246337  -246422  -246500  -246558  -246554 
 -246473  -246396  -246418  -246514  -246565  -246585  -246620  -246605 
 -246570  -246591  -246581  -246493  -246456  -246511  -246555  -246628 
 -246790  -246861  -246730  -246586  -246607  -246705  -246686  -246532 
 -246399  -246329  -246253  -246221  -246285  -246381  -246489  -246619 
 -246700  -246690  -246597  -246453  -246291  -246154  -246150  -246311 
 -246503  -246619  -246685  -246750  -246739  -246615  -246519  -246527 
 -246589  -246645  -246600  -246518  -246547  -246605  -246562  -246438 
 -246308  -246310  -246458  -246584  -246634  -246669  -246677  -246622 
 -246539  -246503  -246516  -246550  -246539  -246414  -246323  -246372 
 -246364  -246268  -246279  -246368  -246424  -246420  -246306  -246183 
 -246246  -246437  -246570  -246596  -246553  -246535  -246573  -246593 
 -246600  -246591  -246555  -246585  -246627  -246564  -246514  -246541 
 -246574  -246658  -246755  -246738  -246615  -246407  -246180  -246129 
 -246321  -246595  -246782  -246865  -246851  -246704  -246507  -246414 
 -246392  -246358  -246346  -246358  -246383  -246439  -246507  -246557 
 -246588  -246605  -246600  -246553  -246522  -246564  -246642  -246690 
 -246704  -246696  -246584  -246369  -246307  -246466  -246582  -246576 
 -246566  -246555  -246474  -246342  -246265  -246325  -246420  -246379 
 -246258  -246234  -246314  -246473  -246680  -246775  -246738  -246716 
 -246711  -246666  -246626  -246570  -246451  -246350  -246348  -246395 
 -246446  -246491  -246495  -246470  -246492  -246527  -246468  -246348 
 -246318  -246392  -246447  -246464  -246537  -246650  -246735  -246789 
 -246771  -246665  -246559  -246487  -246447  -246503  -246600  -246643 
 -246647  -246605  -246524  -246485  -246507  -246537  -246532  -246524 
 -246557  -246574  -246534  -246468  -246379  -246321  -246342  -246364 
 -246346  -246383  -246485  -246551  -246581  -246643  -246694  -246665 
 -246535  -246393  -246419  -246577  -246659  -246647  -246599  -246495 
 -246387  -246349  -246387  -246485  -246599  -246707  -246746  -246642 
 -246541  -246582  -246661  -246685  -246655  -246578  -246472  -246364 
 -246298  -246316  -246408  -246491  -246474  -246402  -246447  -246642 
 -246775  -246713  -246570  -246465  -246411  -246426  -246435  -246298 
 -246096  -246024  -246136  -246377  -246558  -246574  -246601  -246727 
 -246828  -246813  -246624  -246304  -246037  -245889  -245810  -245893 
 -246184  -246433  -246408  -246176  -245871  -245566  -245324  -245180 
 -245149  -245263  -245520  -245895  -246291  -246543  -246612  -246628 
 -246713  -246929  -247375  -248080  -248788  -249189  -249237  -249003 
 -248508  -247766  -246905  -246173  -245770  -245901  -246693  -247795 
 -248655  -248979  -248602  -247590  -246360  -245300  -244556  -244225 
 -244401  -245031  -245874  -246574  -246832  -246518  -245749  -244945 
 -244579  -244841  -245605  -246565  -247361  -247784  -247892  -247812 
 -247498  -246836  -245926  -245093  -244601  -244439  -244485  -244705 
 -245150  -245772  -246426  -247033  -247568  -248009  -248324  -248358 
 -248003  -247459  -246962  -246554  -246314  -246341  -246531  -246720 
 -246836  -246897  -246969  -247043  -247097  -247145  -247082  -246785 
 -246377  -246073  -246002  -246199  -246546  -246790  -246744  -246443 
 -246118  -245933  -245871  -245876  -245938  -246071  -246267  -246531 
 -246843  -247081  -247122  -246954  -246655  -246387  -246275  -246233 
 -246088  -245893  -245866  -246086  -246383  -246546  -246577  -246612 
 -246690  -246709  -246565  -246260  -245933  -245790  -245872  -246025 
 -246190  -246375  -246530  -246686  -246912  -247135  -247185  -246996 
 -246692  -246418  -246219  -246096  -246084  -246285  -246717  -247186 
 -247436  -247342  -247054  -246869  -246819  -246789  -246869  -247070 
 -247135  -246873  -246326  -245685  -245189  -245022  -245199  -245577 
 -245957  -246300  -246638  -246844  -246913  -247009  -247089  -247014 
 -246736  -246252  -245731  -245382  -245218  -245215  -245357  -245560 
 -245756  -245889  -245990  -246195  -246473  -246686  -246835  -246958 
 -247068  -247183  -247310  -247514  -247831  -248173  -248428  -248516 
 -248401  -248132  -247734  -247183  -246550  -246068  -245924  -246029 
 -246231  -246512  -246754  -246815  -246784  -246797  -246882  -246970 
 -246902  -246612  -246199  -245756  -245324  -244961  -244771  -244911 
 -245407  -246002  -246406  -246478  -246280  -246073  -246130  -246454 
 -246844  -247066  -246986  -246682  -246357  -246122  -246006  -246082 
 -246373  -246762  -247090  -247241  -247125  -246717  -246217  -245965 
 -246025  -246191  -246362  -246541  -246765  -247064  -247334  -247418 
 -247256  -246925  -246636  -246542  -246546  -246508  -246478  -246584 
 -246835  -247121  -247218  -246967  -246493  -245994  -245539  -245234 
 -245195  -245373  -245674  -246046  -246383  -246595  -246705  -246712 
 -246622  -246508  -246391  -246271  -246227  -246364  -246732  -247193 
 -247479  -247465  -247167  -246708  -246308  -246055  -245916  -245883 
 -245921  -245998  -246130  -246342  -246623  -246901  -247136  -247360 
 -247513  -247422  -247063  -246566  -246011  -245501  -245222  -245281 
 -245705  -246385  -247008  -247344  -247436  -247379  -247216  -247016 
 -246840  -246678  -246546  -246512  -246551  -246545  -246492  -246500 
 -246570  -246611  -246566  -246437  -246306  -246300  -246434  -246561 
 -246516  -246268  -245913  -245619  -245529  -245608  -245713  -245870 
 -246122  -246392  -246654  -246940  -247220  -247438  -247558  -247525 
 -247272  -246850  -246446  -246164  -245960  -245812  -245771  -245844 
 -245932  -246001  -246164  -246522  -246998  -247388  -247541  -247419 
 -247129  -246821  -246504  -246153  -245844  -245620  -245496  -245559 
 -245911  -246499  -247091  -247571  -247958  -248134  -247996  -247668 
 -247330  -247118  -247021  -246848  -246557  -246273  -245978  -245614 
 -245232  -244871  -244571  -244448  -244679  -245377  -246419  -247471 
 -248171  -248348  -248084  -247596  -247055  -246500  -246019  -245830 
 -245943  -246059  -245983  -245774  -245600  -245648  -245953  -246385 
 -246782  -247002  -247023  -246973  -246932  -246873  -246773  -246584 
 -246279  -245999  -245929  -246148  -246588  -247000  -247172  -247114 
 -246958  -246834  -246808  -246851  -246942  -247048  -247017  -246750 
 -246375  -246068  -245913  -245891  -245894  -245876  -245974  -246292 
 -246707  -247010  -247114  -247040  -246878  -246701  -246539  -246423 
 -246361  -246354  -246406  -246492  -246559  -246558  -246538  -246592 
 -246704  -246754  -246616  -246311  -245992  -245776  -245720  -245830 
 -246045  -246273  -246491  -246766  -247077  -247198  -247028  -246734 
 -246488  -246335  -246272  -246307  -246460  -246700  -246954  -247136 
 -247139  -246925  -246582  -246231  -245932  -245641  -245408  -245447 
 -245774  -246156  -246485  -246757  -246888  -246859  -246699  -246443 
 -246275  -246346  -246638  -247035  -247340  -247421  -247334  -247122 
 -246820  -246580  -246450  -246323  -246175  -246078  -246109  -246284 
 -246520  -246724  -246839  -246819  -246684  -246534  -246441  -246373 
 -246264  -246129  -246073  -246156  -246346  -246546  -246649  -246672 
 -246667  -246597  -246410  -246148  -245930  -245859  -245959  -246133 
 -246277  -246423  -246619  -246801  -246909  -246955  -246969  -247006 
 -247105  -247163  -247085  -246888  -246613  -246337  -246168  -246119 
 -246129  -246167  -246241  -246356  -246495  -246626  -246747  -246870 
 -246931  -246861  -246723  -246628  -246615  -246676  -246767  -246827 
 -246829  -246802  -246771  -246720  -246631  -246499  -246380  -246342 
 -246370  -246380  -246289  -246126  -246007  -245941  -245878  -245833 
 -245817  -245843  -245916  -245997  -246090  -246222  -246375  -246584 
 -246858  -247075  -247164  -247179  -247159  -247052  -246774  -246365 
 -246033  -245953  -246065  -246240  -246423  -246530  -246507  -246472 
 -246528  -246665  -246840  -247014  -247203  -247411  -247523  -247472 
 -247286  -247002  -246684  -246362  -246059  -245871  -245901  -246092 
 -246231  -246191  -246068  -245991  -245967  -245982  -246076  -246288 
 -246588  -246871  -247032  -247071  -247036  -246886  -246612  -246341 
 -246156  -246072  -246065  -246067  -246130  -246327  -246514  -246572 
 -246559  -246528  -246464  -246350  -246202  -246107  -246092  -246133 
 -246269  -246480  -246682  -246867  -246985  -246978  -246951  -246954 
