Origin Time       2025/03/30 10:18:00
Lat.              34.667
Long.             140.825
Depth. (km)       69
Mag.              4.9
Station Code      CHBH11
Station Lat.      35.2867
Station Long.     140.1529
Station Height(m) -1920
Record Time       2025/03/30 10:18:47
Sampling Freq(Hz) 100Hz
Duration Time(s)  120
Dir.              1
Scale Factor      2942(gal)/8224139
Max. Acc. (gal)   0.646
Last Correction   2025/03/30 10:18:47
Memo.             
[...]
  220976   220973   220973   220977   220977   220976   220974   220974 
  220976   220977   220977   220977   220976   220974   220973   220976 
  220977   220976   220976   220976   220976   220976   220976   220976 
  220978   220978   220974   220974   220976   220976   220976   220976 
  220977   220974   220973   220976   220977   220976   220976   220977 
  220977   220977   220974   220974   220976   220977   220976   220974 
  220977   220978   220977   220974   220976   220976   220976   220976 
  220976   220976   220974   220974   220974   220974   220974   220976 
  220977   220974   220974   220973   220972   220974   220977   220976 
  220976   220974   220973   220972   220976   220977   220974   220976 
  220977   220976   220976   220977   220977   220977   220977   220976 
  220976   220976   220976   220976   220974   220972   220976   220977 
  220973   220972   220973   220974   220976   220976   220974   220974 
  220976   220976   220976   220976   220974   220973   220973   220973 
  220973   220974   220977   220976   220974   220977   220978   220976 
  220976   220977   220974   220974   220978   220978   220973   220972 
  220972   220974   220976   220974   220974   220976   220973   220973 
  220977   220977   220977   220977   220973   220973   220978   220977 
  220973   220973   220976   220974   220974   220976   220977   220976 
  220974   220974   220976   220977   220976   220974   220976   220977 
  220976   220974   220977   220977   220977   220976   220973   220974 
  220974   220973   220974   220976   220974   220976   220977   220976 
  220977   220978   220977   220976   220977   220977   220974   220973 
  220976   220976   220974   220976   220976   220974   220974   220977 
  220977   220976   220977   220977   220974   220974   220976   220974 
  220974   220974   220976   220977   220976   220974   220974   220976 
  220978   220977   220976   220977   220977   220976   220976   220978 
  220976   220973   220976   220976   220973   220974   220976   220974 
  220977   220977   220974   220976   220978   220976   220974   220974 
  220974   220976   220974   220974   220977   220978   220977   220977 
  220976   220974   220974   220976   220977   220977   220977   220977 
  220976   220974   220974   220974   220976   220977   220976   220976 
  220978   220976   220973   220974   220974   220974   220974   220976 
  220976   220977   220976   220974   220973   220974   220976   220976 
  220977   220976   220973   220974   220974   220974   220977   220977 
  220973   220974   220976   220973   220976   220977   220976   220976 
  220976   220974   220976   220976   220972   220968   220965   220968 
  220973   220969   220963   220962   220962   220962   220959   220953 
  220954   220961   220973   220984   220980   220973   220989   221013 
  221009   220990   221000   221022   221019   221016   221034   220996 
  220878   220845   220959   221055   221035   220985   220938   220860 
  220808   220881   221004   221034   221004   221012   221023   221027 
  221061   221069   220974   220830   220754   220807   220931   221049 
  221135   221146   221097   221071   221058   221050   221074   221069 
  220980   220877   220847   220882   220935   220995   220995   220900 
  220882   220981   221008   220943   220928   220961   220965   220957 
  220973   220985   220973   220961   220965   220950   220908   220897 
  220939   221004   221096   221155   221109   221003   220915   220880 
  220905   220938   220926   220887   220862   220897   220982   221032 
  221059   221115   221093   220932   220860   220977   221077   221069 
  221043   221023   221005   221000   220999   220976   220904   220838 
  220872   220950   220955   220961   221054   221105   221066   221034 
  221008   220941   220907   220973   221023   220957   220896   220928 
  220958   220955   220977   220974   220922   220903   220954   221009 
  220997   220961   221022   221128   221117   221035   221024   220992 
  220860   220801   220889   220957   220901   220849   220941   221088 
  221105   221015   220955   220970   220966   220903   220892   220961 
  221030   221051   220989   220972   221124   221148   220885   220719 
  220791   220882   220982   221123   221165   221086   221067   221120 
  221107   221050   220985   220841   220703   220757   220934   221066 
  221108   221038   220912   220861   220897   220981   221078   221098 
  221000   220887   220866   220931   221028   221098   221090   221040 
  220995   220900   220827   220932   221040   220958   220880   220942 
  221054   221115   221074   221015   220996   220936   220851   220855 
  220986   221108   221001   220756   220734   220846   220766   220693 
  220862   221093   221252   221265   221081   220870   220795   220877 
  221036   221139   221186   221158   220996   220936   221074   221131 
  221077   221078   221028   220845   220765   220977   221248   221279 
  221113   220915   220793   220783   220884   221044   221009   220769 
  220743   220920   220953   220927   220977   220958   220887   220931 
  221069   221151   221148   221061   220885   220766   220803   220904 
  221007   221063   221022   220905   220807   220865   221049   221154 
  221173   221221   221224   221069   220885   220855   220957   221036 
  220957   220779   220729   220789   220803   220822   220882   220908 
  220986   221193   221286   221108   220918   220943   221057   221065 
  221008   221039   221125   221117   220996   220873   220818   220815 
  220873   220986   221046   220989   220878   220841   220904   220995 
  221050   220996   220850   220799   220907   221013   221016   221005 
  221061   221103   221082   221059   221015   220951   220996   221071 
  221034   221031   221067   220949   220865   221015   221146   221026 
  220808   220727   220746   220773   220908   221073   221013   220915 
  221050   221188   221162   221101   220961   220752   220711   220881 
  221073   221121   221031   220928   220903   220966   221082   221113 
  220992   220892   220932   220996   220990   220958   220945   220924 
  220881   220872   220887   220882   220920   221043   221134   220995 
  220793   220918   221192   221223   221090   221012   221008   221024 
  221036   221022   220999   221097   221175   220945   220684   220764 
  220965   221013   220901   220746   220779   220972   221071   221107 
  221150   221112   221004   220932   220970   221008   220951   220942 
  220926   220735   220606   220729   220919   221136   221360   221316 
  221038   220897   220973   221061   221071   221098   221074   220857 
  220664   220737   220923   220995   220969   220957   221005   221117 
  221157   221034   220923   220918   220912   220845   220806   220915 
  221057   221073   220993   220901   220892   220934   220955   221069 
  221233   221274   221211   221117   221058   221043   221031   221040 
  221034   220981   220911   220807   220708   220696   220841   221054 
  221093   221022   221005   220932   220780   220711   220808   220974 
  221053   221065   221089   221094   221062   221066   221092   221039 
  221003   221058   220972   220777   220810   221004   221055   220919 
  220769   220712   220730   220830   220928   220928   221003   221169 
  221235   221182   221028   220950   221120   221213   221071   220990 
  220953   220872   220939   221077   221057   220955   220919   220950 
  220950   220834   220746   220870   221039   220986   220842   220881 
  221031   221105   221059   220954   221005   221182   221165   221039 
  221036   221016   220899   220828   220855   220908   220896   220818 
  220831   220976   221108   221166   221117   221023   221053   221127 
  221030   220784   220634   220741   220962   221090   221101   221043 
  220997   221032   221078   221027   220881   220789   220880   221011 
  220995   220909   220908   220984   221030   220997   220965   220995 
  221035   221080   221107   221003   220811   220757   220846   220893 
  220941   221121   221256   221206   221093   220962   220843   220849 
  220942   220988   220943   220897   220930   220926   220862   220909 
  221028   221067   221011   220903   220846   220841   220837   220881 
  220957   221063   221177   221123   220973   220934   220968   221036 
  221142   221166   221107   221069   221030   220958   220897   220864 
  220903   221023   221111   221071   220939   220853   220851   220818 
  220818   220995   221148   221047   220837   220772   220907   221130 
  221231   221139   221070   221030   220846   220774   221016   221208 
  221109   220912   220801   220810   220860   220887   220936   220992 
  221020   221023   220939   220841   220855   220880   220868   220941 
  221067   221125   221089   221049   221082   221113   221090   221057 
  220955   220853   220884   220919   220915   220978   221028   220990 
  220943   220986   221034   220961   220896   220950   221053   221148 
  221198   221204   221169   221097   221055   221036   221005   221030 
  221054   220981   220872   220769   220746   220827   220868   220847 
  220872   220945   220995   220978   220941   220974   221034   220976 
  220869   220841   220872   220966   221023   220957   220936   220997 
  221055   221078   220978   220831   220807   220873   220899   220887 
  220909   220911   220889   220935   220965   220947   221001   221076 
  221049   221004   221039   221086   221092   221082   221039   221005 
  221081   221146   221076   220980   220973   221017   221031   221022 
  221031   221043   221040   220972   220823   220733   220787   220893 
  220974   221071   221205   221256   221120   220905   220797   220793 
  220792   220833   220941   220969   220969   221080   221165   221127 
  221054   220966   220857   220791   220822   220870   220826   220723 
  220675   220764   220968   221107   221113   221094   221086   221097 
  221173   221219   221190   221159   221100   221015   220946   220899 
  220880   220815   220760   220864   221013   221070   221054   221011 
  221020   221047   220976   220876   220846   220860   220904   220972 
  220977   220923   220899   220870   220826   220888   221051   221139 
  221059   220961   221040   221192   221201   221101   220989   220907 
  220932   221073   221175   221101   220946   220878   220909   221017 
  221103   221047   220966   220914   220858   220897   220963   220935 
  220891   220850   220858   221020   221165   221066   220843   220737 
  220803   220957   221059   221066   221049   221044   221067   221098 
  221078   221011   220955   221015   221194   221225   220995   220839 
  220885   220845   220695   220618   220588   220635   220834   221034 
  221080   221000   220905   220864   220862   220885   220884   220845 
  220851   220928   221044   221136   221152   221188   221281   221314 
  221246   221150   221023   220815   220692   220796   220958   221028 
  221057   221076   221062   221051   221093   221113   221069   221017 
  220949   220861   220847   220872   220846   220862   220943   220958 
  220908   220884   220920   221024   221086   220999   220888   220884 
  220889   220877   220976   221121   221115   220980   220865   220858 
  220918   220846   220692   220741   220943   221050   221059   221061 
  221051   221069   221142   221120   220934   220833   221013   221279 
  221382   221381   221343   221169   220935   220820   220795   220804 
  220900   221040   221125   221142   221088   220953   220872   220955 
  221012   220885   220781   220862   220957   220922   220865   220900 
  220920   220826   220762   220897   221147   221246   221104   220915 
  220804   220784   220847   220945   221013   221001   220980   221049 
  221090   221080   221092   221058   221008   220992   220963   220992 
  221073   221062   220984   220943   220920   220904   220896   220872 
  220934   221077   221101   221012   220911   220810   220816   220912 
  220892   220827   220912   221058   221085   221017   220950   220891 
  220831   220792   220834   220953   221061   221131   221155   221131 
  221071   220974   220919   220942   220982   221044   221103   221123 
  221121   221069   221024   221061   221078   221005   220903   220887 
  220947   220968   221047   221220   221255   221150   221059   220989 
  220943   220930   220936   220961   220945   220901   220909   220941 
  220930   220897   220928   220984   220915   220756   220618   220565 
  220658   220807   220903   221005   221117   221174   221144   221061 
  221036   221059   220976   220826   220753   220738   220773   220884 
  220953   220968   221059   221158   221188   221235   221263   221193 
  221082   221001   220961   220954   220954   220947   220950   220980 
  221015   221062   221142   221197   221188   221204   221215   221084 
  220922   220846   220803   220864   221007   221046   220989   220895 
  220760   220642   220588   220612   220692   220739   220753   220837 
  220982   221051   221053   221094   221096   221004   220949   220935 
  220897   220872   220857   220824   220806   220816   220853   220914 
  220955   220996   221120   221266   221333   221367   221344   221219 
  221077   220990   221013   221116   221138   221066   221019   221047 
  221121   221146   221047   220897   220818   220800   220762   220725 
  220734   220745   220742   220733   220681   220652   220729   220754 
  220648   220621   220693   220683   220557   220422   220386   220450 
  220529   220614   220787   221080   221416   221713   221998   222300 
  222575   222750   222782   222696   222567   222389   222073   221691 
  221413   221158   220803   220460   220162   219852   219673   219726 
  219870   220027   220237   220469   220639   220704   220653   220495 
  220244   219942   219731   219740   219916   220160   220467   220792 
  221038   221175   221314   221522   221706   221834   221944   221962 
  221887   221876   221992   222087   222023   221814   221544   221313 
  221155   220978   220729   220429   220139   219959   219923   219947 
  219979   220070   220218   220344   220484   220719   220953   221103 
  221201   221244   221231   221266   221381   221412   221289   221206 
  221260   221296   221312   221471   221779   222089   222201   222000 
  221638   221292   220943   220592   220313   220158   220126   220180 
  220305   220442   220475   220421   220444   220607   220839   221094 
  221335   221435   221362   221216   221046   220800   220461   220149 
  220028   220124   220330   220621   221024   221422   221668   221771 
  221790   221736   221586   221324   221008   220776   220747   220911 
  221140   221304   221336   221273   221157   220949   220633   220306 
  220112   220180   220472   220835   221201   221497   221602   221529 
  221393   221231   221062   220904   220685   220384   220148   220083 
  220124   220229   220536   221124   221783   222262   222439   222238 
  221745   221197   220793   220679   220808   220912   220861   220789 
  220828   220912   220915   220874   220904   220988   221050   221103 
  221184   221267   221286   221194   221044   220930   220853   220818 
  220888   221080   221278   221304   221135   220919   220676   220384 
  220203   220247   220402   220550   220725   220936   221117   221233 
  221243   221113   220965   220911   220908   220957   221071   221161 
  221132   221007   220972   221151   221404   221579   221645   221526 
  221213   220903   220833   221028   221351   221638   221707   221481 
  221104   220735   220428   220220   220156   220218   220376   220594 
  220715   220569   220294   220214   220413   220773   221205   221591 
  221790   221729   221398   220924   220594   220627   220950   221265 
  221373   221309   221157   220908   220545   220206   220109   220257 
  220453   220517   220388   220166   220083   220291   220665   221013 
  221262   221390   221471   221695   222110   222486   222601   222485 
  222246   221875   221400   220958   220693   220658   220811   221119 
  221555   221896   221853   221440   220907   220411   220016   219797 
  219793   219969   220271   220618   220869   220990   221105   221229 
  221219   221040   220841   220716   220629   220626   220774   220951 
  221024   221017   220928   220706   220434   220320   220496   220895 
  221313   221547   221516   221343   221178   221024   220831   220648 
  220523   220492   220634   220959   221366   221707   221871   221832 
  221610   221267   220941   220671   220453   220401   220588   220931 
  221321   221638   221715   221532   221293   221105   220912   220687 
  220453   220270   220232   220449   220922   221410   221628   221513 
  221263   221071   220986   221013   221031   220862   220592   220414 
  220347   220329   220325   220367   220553   220882   221247   221553 
  221765   221875   221830   221580   221182   220758   220417   220209 
  220129   220209   220495   220870   221151   221286   221297   221204 
  221081   221000   220934   220816   220610   220360   220224   220313 
  220598   220927   221136   221165   221113   221152   221406   221848 
  222299   222562   222542   222320   222064   221850   221682   221579 
  221501   221329   221047   220764   220603   220602   220731   220908 
  221016   220970   220718   220288   219865   219611   219559   219688 
  219910   220122   220336   220567   220689   220612   220476   220479 
  220646   220872   221026   221049   221092   221286   221493   221563 
  221549   221518   221422   221220   220986   220787   220596   220475 
  220526   220672   220754   220766   220814   220949   221146   221290 
  221258   221082   220912   220835   220807   220723   220611   220623 
  220788   220981   221119   221239   221373   221493   221643   221832 
  221929   221900   221891   221915   221863   221721   221549   221412 
  221373   221432   221478   221406   221225   221066   221054   221163 
  221242   221177   220931   220575   220226   219944   219777   219766 
  219850   219928   219987   220104   220297   220475   220560   220525 
  220399   220295   220320   220523   220819   221001   221016   220932 
  220818   220773   220835   220959   221130   221336   221559   221761 
  221863   221823   221665   221445   221247   221098   220974   220887 
  220888   220968   221046   221103   221178   221285   221378   221348 
  221115   220758   220446   220283   220336   220563   220799   220916 
  220918   220878   220870   220915   220992   221062   221130   221197 
  221219   221228   221285   221321   221252   221111   220996   221027 
  221202   221373   221490   221621   221730   221732   221610   221416 
  221209   221000   220776   220573   220399   220267   220236   220318 
  220452   220580   220685   220800   220919   220958   220872   220708 
  220602   220704   220943   221081   221071   221042   221050   221116 
  221227   221228   221063   220915   220914   221000   221115   221202 
  221147   220949   220804   220850   221016   221185   221293   221305 
  221239   221113   220926   220789   220816   220923   220995   221001 
  220942   220851   220768   220725   220754   220841   220941   220993 
  220974   220965   221003   221005   220930   220793   220595   220384 
  220317   220472   220716   220895   220984   221053   221190   221347 
  221404   221417   221459   221433   221283   221093   221016   221119 
  221286   221366   221302   221155   220997   220814   220633   220544 
