Origin Time       2025/03/30 10:18:00
Lat.              34.667
Long.             140.825
Depth. (km)       69
Mag.              4.9
Station Code      CHBH06
Station Lat.      35.7215
Station Long.     140.5046
Station Height(m) -145
Record Time       2025/03/30 10:19:08
Sampling Freq(Hz) 100Hz
Duration Time(s)  120
Dir.              3
Scale Factor      3923(gal)/8224838
Max. Acc. (gal)   0.126
Last Correction   2025/03/30 10:19:08
Memo.             
[...]
     108      168      191      218      228      155      101      160 
     241      252      213      175      155      147      144       95 
      13       12       78       98       66       49       74      121 
     149      159      189      206      182      167      143       90 
      83      147      190      184      202      221      151       32 
      -9       63      125       76       10       18       52       76 
     108      105       59       55      117      164      172      183 
     199      171      108       83      109      128      120      124 
     172      216      180      124      116      128      160      220 
     226      149       81       55       44       58       90       97 
      89       89       90      101      122      139      162      199 
     206      160      112      114      174      218      190      136 
     132      151      162      153      103       58       62       56 
      33       62      112      124      121      133      126       66 
       0        8       93      184      224      202      160      135 
     116      112      132      137      112       71       13      -27 
       6       55       58       81      171      217      139       58 
      90      174      209      202      184      152      141      211 
     265      178       43       27      110      167      174      193 
     211      193      160      122       94      106      157      210 
     201      133      126      170      121        5       -6      124 
     256      272      187       93       68      103      117       99 
     112      155      180      143       62       35       79      112 
      91       66       87      160      203      160       71       29 
      79      164      184      109       25       14       52       87 
     117      130       99       78      122      184      228      238 
     190      116       49       13       78      184      174       95 
      91      149      198      186      108       63      132      233 
     261      240      184       95       35       16       39      139 
     218      198      175      203      229      221      170      109 
      99      118       99       74       82      116      162      201 
     209      202      210      216      149       18      -75      -71 
     -14       28       67      116      128      106       85       37 
      -1       40      121      166      186      197      199      194 
     145       76       75      145      205      197      143      118 
     135      128       74       14        1       33       59       76 
     140      220      237      182      110       79       97      143 
     197      222      198      159      133       93       41       36 
      78       98       71       35       27       60      109      151 
     191      205      195      217      218      151       90       72 
      71       83       90       91      122      148      120       79 
      97      160      203      193      151      125      130      125 
      79       39       52      105      156      194      245      301 
     295      222      145      114      118       97       59       72 
     105       98       78       44        9       60      155      194 
     199      174      120       94       81       86      149      193 
     178      193      252      256      191      140      118      109 
     118      135      139      122       82       67       63       13 
       6       93      153      145      124       93       54       36 
      52       91      152      230      284      272      190       89 
      41       66      101       99       86      117      152      120 
      86      108      126      122      129      141      155      210 
     270      237      133       72      118      175      132       45 
      21       48       62       71      133      207      214      179 
     139       81       36       56      116      184      245      274 
     265      232      178      103       37       32       81      114 
     108       67       52      120      171      112       18      -14 
      24       94      152      201      216      175      101       36 
      47      114      153      183      217      213      202      211 
     193      157      144      135      124      117       97       87 
     117      147      135       79       13        4       71      137 
     126       85       79       94      122      170      210      230 
     224      178      151      166      147      109      118      106 
      60       81      125       91       29       24       47       86 
     174      251      230      130       31       -2       28       90 
     172      222      218      217      213      172      114       51 
       6       14       70      112       86        9      -36        1 
      78      143      171      147       93       71      109      167 
     179      124       39      -12       32      160      251      229 
     205      243      257      228      207      176      120       95 
     109      117      137      182      222      225      184      160 
     168      121       52       83      152      159      148      106 
     -10      -98      -82       -4      109      216      260      237 
     162       93      108      166      184      159      103       67 
     109      170      174      139       93       63       95      155 
     163       99       22       -6       14       66      137      182 
     159      110       95      114      114       83       64       85 
     132      184      216      214      178      116       83       91 
      87       60       63      106      135      109       70       58 
      85      152      238      291      282      241      199      163 
     132       98       68       86      133      170      214      238 
     179      109      128      171      180      216      253      210 
     153      144      118       85       87       91      113      184 
     221      187      133       51      -29      -36        8       49 
      68       70       75       94      118      145      184      222 
     224      195      162      133      128      144      168      198 
     197      159      137      166      211      202      120       22 
     -36      -10       89      175      217      193      117       76 
      60       18       13       72      147      209      249      260 
     221      124       40       17       21       45       91      148 
     203      206      145       70       -8      -59      -78      -91 
     -68       16      125      176      122       35      -12      -48 
     -62      -20       35       97      168      193      168      145 
     135      109       56       12       29       97      135      114 
      82       71      102      159      172      136      139      190 
     210      209      220      211      203      213      209      233 
     302      337      313      265      213      172      148      144 
     189      260      260      175       82       45       64       93 
     133      184      201      187      180      174      147      105 
      35      -54      -66       32      113      128      151      160 
      98       44       81      180      257      225      117       68 
      90      112      155      189      152      120      144      186 
     224      232      184      121       93       90       91       97 
      93       86      117      159      167      171      178      157 
     120      109      135      145      101       51       78      182 
     272      287      240      149       55       17       32       55 
      67       70       76       59       20       14       32       43 
      83      133      141      140      166      171      137      110 
      99       79       45       29       97      229      287      216 
      85      -40     -103      -83      -31       13       59      105 
     141      174      197      193      155       72       -1       20 
     108      184      247      309      355      357      299      225 
     197      191      187      218      253      222      145       56 
     -51     -129     -108      -24       52      155      290      346 
     267      125       14       -8       40      102      171      229 
     230      202      179      128       44      -24      -49      -33 
      12       64       67       16        8       66      120      152 
     167      171      202      228      217      203      186      152 
     105       49       27       54       98      147      170      153 
     128      101       82       81       83      117      155      144 
     140      153      152      156      160      147      143      121 
      72       51       66       86      102      129      155      132 
      99      149      238      276      278      272      238      198 
     191      195      184      178      195      202      190      183 
     153      116      116      106       72       58       62       90 
     147      171      133       78       40        6       -4       18 
      33       40       40        1      -29       20       98      132 
     136      118       97      112      137      145      162      175 
     175      213      248      222      211      240      229      189 
     155      120      112      101       33      -31      -31        1 
      31       63      103      139      172      198      189      176 
     187      186      157      120       94      102      125      133 
     153      186      205      203      176      133      103      108 
     143      201      249      247      197      136       64        4 
     -12      -10      -14       -5       16       48      103      144 
     124       67       24       28      103      203      241      214 
     172      126       83       79      132      205      233      206 
     162       94        0      -67      -99     -114      -71       22 
     109      160      199      260      342      382      364      330 
     310      314      326      309      244      144       59       29 
      56      124      191      214      172      102       81       89 
      60       27        9       -5       35      105      120      106 
     113      109      106      122       98       55       85      156 
     203      205      139       64       66       94       93       93 
     101       98      109      133      144      147      168      195 
     202      206      211      175       93       29       28       63 
     116      193      259      274      229      148       72       21 
     -13      -29      -20        1       37       66       59       62 
     102      139      148      155      182      214      213      160 
      74       20       32       58       70       85      105      118 
     117      101       98      132      182      202      187      170 
     144       90       36       25       56      106      144      168 
     198      236      248      211      135       60       12        4 
      29       76      120      141      151      170      193      202 
     190      167      139      102       85      106      135      153 
     198      257      276      255      238      207      139       99 
     117      122      105      110      139      145      125      120 
     145      145      103       93      130      153      153      155 
     120       51       17       24       17        6       18       21 
       5       -6        8       48       89      108      125      148 
     164      187      205      183      168      189      189      159 
     129       97       76       90      135      174      189      195 
     206      211      193      163      167      206      241      247 
     210      167      164      179      168      130       67        5 
     -17      -27      -39      -10       37       35      -10      -44 
     -40        6       67       90       87       83       67       94 
     179      220      179      136      112       71       43       62 
     120      214      317      365      338      275      218      178 
     140       91       41       -2      -55     -101      -94      -24 
      66      145      214      255      260      259      245      189 
     125      109      124      156      197      218      209      172 
     133      113      105      105      137      179      180      170 
     190      220      225      197      136       76       70      110 
     126       99       72       67       60       41       37       66 
     103      126      120      102      125      178      198      155 
      67       -1        8       85      170      232      272      287 
     267      218      152      109      140      203      230      236 
     237      213      160       98       56       49       70       86 
      48      -12       -4       56       82       63       22       -8 
       6       54       85       83       62       44       52       82 
     112      137      167      182      162      143      153      176 
     205      232      233      206      171      135       95       76 
      93      126      145      152      159      164      163      159 
     148      122       98      106      130      144      143      137 
     141      162      202      243      252      221      179      155 
     137      109       62       -5      -55      -54      -40      -68 
    -117     -140     -125      -85      -25       35       68       74 
      74       95      159      241      279      255      221      238 
     303      341      314      271      259      252      230      203 
     183      155      116      105      113       91       44       -9 
     -70      -85      -18       64      120      171      244      324 
     369      364      325      271      252      290      328      329 
     294      214      112       41       29       47       58       76 
     105      126      143      133       97       68       41       12 
      -2      -21      -37      -12       35       62       67       49 
      16      -12      -12       16       45       47       49       85 
     108       78       39       21       18       44       94      151 
     183      163      106       36      -28      -48      -27      -12 
       5       56      147      243      265      197      128      137 
     179      197      194      183      180      198      224      247 
     268      292      301      278      233      176      137      124 
      86       48       89      172      226      226      186      147 
     149      170      164      137      128      148      189      222 
     214      203      216      214      214      229      226      201 
     143       70       31        6      -36      -89     -135     -136 
     -59       62      149      168      147      114       68       29 
      27       62      124      184      234      276      270      209 
     152      120      105      120      168      203      175      116 
     102      125      133      116       95      102      151      198 
     193      160      122       72       44       76      120      137 
     137      129      122      148      197      228      224      205 
     184      155       99       43       17        5       -9        2 
      40       82      132      171      183      182      179      174 
     163      140      112       89       59       41       74      132 
     174      202      209      167      113      112      143      153 
     135      101       62       40       60      117      182      224 
     245      252      225      175      135      103       81       76 
      90       98       86       47      -16      -66      -59       -5 
      47       72       70       49       29        1      -29      -39 
     -39      -10       64      145      206      252      263      241 
     220      218      229      244      265      279      278      287 
     280      243      211      197      189      189      184      171 
     144      118      108       75       29       21       41       58 
      63       67       70       52       13      -21      -21       -1 
       8       14       25       25       40       90      147      189 
     224      261      278      255      226      217      195      166 
     163      162      129       99       93       90      101      141 
     187      224      255      267      260      264      270      248 
     226      213      178      132       98       78       67       59 
      56       63       78       87       64       33       27       29 
      28       36       58       75       87      105      113      106 
     102       83       60       71       94       94       94       93 
      70       66      102      113       83       75       86       91 
     118      156      182      209      218      176       97       35 
      36       78      103      120      145      147      116       85 
      66       45       29       29       32       36       52       75 
      94      105      132      180      211      216      226      247 
     251      253      270      270      229      171      140      147 
     170      199      226      233      229      222      195      153 
     141      168      178      157      162      195      206      180 
     139       94       49       17       10       28       60       83 
      86       63       25       31       58       55       66      118 
     153      162      170      155      114       75       51       59 
      99      143      180      213      214      201      205      183 
     116       75       79       79       81      114      151      143 
      97       74       93      121      140      160      175      163 
     129       87       36       -8      -24      -10       25       64 
      99      117      109      117      160      205      216      189 
     164      178      189      175      157      151      164      194 
     220      230      217      180      147      130      136      156 
     176      191      197      183      156      148      159      159 
     148      147      160      170      170      155      121       86 
      64       52       31        0       -8        5        1       -6 
       5        1      -17        6       70      125      182      240 
     257      232      199      189      199      218      224      203 
     167      145      136      101       51       16       16       40 
      55       55       68      105      143      172      198      211 
     195      175      167      156      141      125       93       62 
      54       62       81       89       70       48       16      -29 
     -51      -37       -9       20       32       28       37       51 
      62       97      143      164      166      189      222      240 
     271      319      340      330      310      286      264      243 
     228      214      180      132       97       82       67       56 
      72       99       94       72       72       81       82       90 
     108      128      151      175      205      213      180      144 
     128      128      132      136      143      149      140      114 
      94       86       91      105      114      124      149      176 
