Origin Time       2025/03/30 10:18:00
Lat.              34.667
Long.             140.825
Depth. (km)       69
Mag.              4.9
Station Code      CHBH16
Station Lat.      35.1384
Station Long.     139.9649
Station Height(m) 160
Record Time       2025/03/30 10:18:49
Sampling Freq(Hz) 100Hz
Duration Time(s)  120
Dir.              6
Scale Factor      7845(gal)/8223790
Max. Acc. (gal)   0.903
Last Correction   2025/03/30 10:18:49
Memo.             
[...]
   27306    27213    27075    26944    26848    26819    26859    26923 
   26987    27051    27105    27157    27180    27145    27066    26982 
   26948    26978    27055    27133    27152    27093    26998    26928 
   26916    26954    27022    27113    27178    27168    27094    26964 
   26798    26671    26657    26792    27029    27268    27418    27405 
   27245    27032    26854    26766    26778    26866    26973    27064 
   27162    27274    27334    27279    27121    26898    26688    26592 
   26640    26790    26955    27071    27140    27175    27201    27233 
   27238    27201    27140    27085    27060    27075    27097    27075 
   26987    26863    26774    26739    26769    26879    27036    27170 
   27230    27226    27186    27108    27018    26951    26905    26892 
   26921    26955    26948    26913    26913    26989    27093    27182 
   27245    27259    27211    27121    27012    26921    26877    26893 
   26940    26971    27014    27081    27125    27136    27118    27082 
   27028    26959    26914    26906    26904    26902    26916    26947 
   27008    27079    27121    27108    27070    27048    27051    27052 
   27045    27028    26981    26931    26910    26920    26952    26989 
   27025    27048    27056    27060    27045    26998    26936    26874 
   26840    26859    26943    27079    27198    27241    27228    27186 
   27129    27079    27029    26968    26927    26927    26962    27010 
   27043    27052    27037    27024    27056    27105    27114    27082 
   27039    27032    27055    27090    27120    27091    27000    26894 
   26804    26752    26784    26902    27054    27201    27330    27403 
   27376    27247    27063    26879    26743    26686    26713    26794 
   26881    26963    27048    27093    27094    27083    27076    27082 
   27076    27049    27009    26970    26950    26956    26971    26983 
   26979    26947    26914    26901    26916    26951    26979    27017 
   27063    27082    27094    27126    27171    27216    27228    27191 
   27120    27040    26971    26914    26863    26850    26882    26948 
   27043    27126    27156    27129    27056    26985    26944    26943 
   27000    27082    27128    27132    27097    27033    26975    26955 
   26989    27064    27149    27238    27299    27292    27226    27144 
   27068    27009    26983    26995    27010    26986    26931    26870 
   26824    26811    26821    26854    26890    26924    26981    27037 
   27058    27064    27070    27063    27047    27018    27002    27027 
   27089    27159    27189    27151    27063    26944    26817    26739 
   26746    26836    26964    27076    27145    27149    27095    27021 
   26951    26933    26993    27087    27172    27210    27193    27144 
   27075    27013    26993    26995    27000    27014    27035    27040 
   26997    26908    26820    26775    26809    26935    27089    27197 
   27221    27172    27086    26990    26935    26935    26948    26967 
   27004    27041    27066    27063    27014    26948    26910    26939 
   27028    27121    27179    27198    27172    27108    27001    26875 
   26775    26721    26728    26794    26904    27041    27164    27238 
   27286    27317    27302    27217    27086    26975    26933    26956 
   27018    27086    27136    27149    27116    27054    26993    26935 
   26892    26870    26877    26919    26971    27008    27033    27045 
   27045    27051    27058    27063    27072    27070    27047    26998 
   26954    26948    26977    27013    27043    27066    27085    27081 
   27039    26983    26940    26936    26998    27101    27193    27245 
   27234    27152    27006    26852    26766    26757    26800    26870 
   26955    27058    27137    27147    27109    27048    26981    26924 
   26890    26898    26955    27040    27128    27195    27229    27222 
   27167    27066    26960    26882    26851    26871    26929    27004 
   27074    27128    27172    27193    27168    27093    26983    26879 
   26816    26805    26843    26917    27012    27105    27172    27189 
   27153    27085    27005    26944    26929    26967    27021    27070 
   27110    27122    27106    27062    26985    26917    26898    26925 
   26974    27022    27072    27116    27125    27102    27070    27032 
   26995    26963    26921    26873    26840    26865    26947    27021 
   27063    27071    27049    27021    27006    27008    27013    27014 
   27033    27048    27035    27004    26966    26917    26885    26909 
   26985    27085    27159    27191    27193    27155    27094    27041 
   26993    26958    26948    26974    27012    27043    27083    27108 
   27074    27004    26939    26901    26901    26937    27018    27112 
   27166    27182    27160    27083    27002    26973    26985    27013 
   27047    27071    27068    27037    27021    27033    27045    27062 
   27093    27110    27102    27086    27081    27071    27031    26971 
   26902    26838    26819    26858    26933    27005    27045    27060 
   27055    27041    27055    27075    27081    27093    27106    27097 
   27052    26983    26928    26887    26873    26909    26978    27043 
   27093    27108    27075    27022    26983    26973    26970    26977 
   27021    27076    27105    27120    27109    27071    27037    27018 
   27021    27016    27008    27025    27039    27028    27004    26973 
   26924    26867    26838    26859    26913    26986    27086    27180 
   27220    27210    27186    27149    27085    27013    26959    26914 
   26898    26935    26997    27040    27047    27027    26995    26963 
   26954    26987    27029    27052    27062    27052    27031    26997 
   26959    26948    26959    26997    27051    27078    27068    27033 
   26985    26952    26940    26944    26971    27022    27094    27164 
   27189    27170    27129    27063    26994    26947    26929    26936 
   26936    26936    26952    26982    27017    27033    27016    27002 
   27028    27083    27139    27157    27133    27081    27002    26939 
   26927    26944    26981    27029    27082    27114    27114    27099 
   27070    27024    26987    26979    26989    26997    26990    26968 
   26958    26964    26990    27037    27072    27085    27067    27012 
   26944    26887    26869    26893    26944    27017    27095    27157 
   27189    27167    27108    27049    27008    26979    26963    26948 
   26946    26974    27036    27114    27156    27140    27085    27009 
   26954    26946    26959    26975    26983    26994    27027    27070 
   27108    27113    27066    26990    26929    26897    26906    26958 
   27024    27081    27102    27109    27121    27116    27089    27032 
   26970    26951    26982    27054    27133    27190    27222    27214 
   27153    27068    26981    26902    26858    26858    26904    26982 
   27056    27118    27153    27137    27101    27064    27009    26958 
   26933    26946    26985    27025    27045    27025    26964    26901 
   26855    26832    26850    26893    26950    27009    27047    27048 
   27014    26970    26955    26985    27049    27116    27144    27124 
   27079    27036    26995    26955    26948    26997    27079    27157 
   27210    27213    27166    27086    26995    26931    26909    26928 
   26964    26978    26979    26983    26974    26967    26979    27014 
   27063    27101    27133    27155    27136    27082    27009    26933 
   26881    26867    26886    26928    26989    27052    27090    27078 
   27033    26981    26936    26925    26960    27020    27083    27129 
   27152    27113    27010    26906    26836    26809    26840    26921 
   27029    27144    27225    27255    27226    27155    27094    27055 
   27013    26979    26968    26983    27017    27070    27129    27163 
   27162    27145    27114    27058    27001    26967    26960    26985 
   27027    27066    27082    27062    27035    27017    27002    27004 
   27010    27001    26985    26978    26985    26963    26913    26885 
   26874    26860    26859    26890    26948    27004    27037    27043 
   27009    26939    26881    26874    26913    26985    27079    27175 
   27236    27247    27210    27108    26962    26839    26773    26784 
   26855    26939    27018    27071    27086    27086    27093    27117 
   27164    27199    27197    27163    27102    27036    26981    26960 
   27002    27086    27193    27287    27314    27259    27140    26983 
   26831    26732    26716    26773    26870    26982    27099    27195 
   27256    27272    27237    27171    27093    27016    26962    26909 
   26842    26755    26663    26613    26642    26762    26958    27170 
   27344    27444    27434    27328    27167    26989    26833    26744 
   26754    26844    26962    27078    27160    27175    27125    27047 
   26978    26947    26963    27012    27064    27090    27098    27101 
   27101    27121    27162    27186    27172    27118    27041    26951 
   26866    26831    26844    26904    27018    27140    27220    27238 
   27194    27095    26956    26816    26747    26762    26844    26977 
   27098    27172    27190    27155    27086    27008    26939    26916 
   26952    27017    27085    27137    27153    27129    27058    26937 
   26789    26649    26592    26651    26815    27048    27271    27419 
   27444    27333    27149    26962    26828    26792    26840    26941 
   27072    27201    27276    27260    27141    26952    26765    26642 
   26627    26723    26897    27086    27222    27279    27256    27159 
   27032    26939    26912    26948    27031    27151    27288    27368 
   27361    27292    27189    27070    26939    26819    26757    26767 
   26854    26979    27093    27164    27160    27071    26923    26773 
   26688    26681    26730    26824    26958    27079    27157    27187 
   27163    27090    26983    26886    26832    26833    26902    27013 
   27144    27309    27475    27584    27583    27467    27263    27006 
   26759    26597    26568    26655    26808    26966    27079    27144 
   27167    27145    27078    26989    26927    26906    26931    27014 
   27125    27205    27214    27163    27070    26943    26817    26752 
   26771    26858    26995    27136    27232    27276    27268    27225 
   27155    27072    27012    26973    26970    27027    27114    27198 
   27237    27187    27044    26846    26665    26550    26520    26584 
   26724    26908    27097    27238    27268    27166    26964    26731 
   26562    26519    26624    26847    27116    27380    27592    27699 
   27679    27531    27290    27004    26738    26562    26519    26586 
   26721    26879    27016    27113    27153    27130    27062    26967 
   26889    26858    26875    26955    27103    27283    27441    27529 
   27533    27454    27299    27097    26909    26789    26758    26798 
   26878    26977    27041    27029    26968    26897    26851    26854 
   26925    27059    27197    27288    27313    27259    27145    27017 
   26908    26817    26757    26759    26835    26931    27010    27091 
   27172    27240    27290    27334    27360    27328    27237    27118 
   26987    26878    26804    26758    26742    26757    26782    26798 
   26801    26813    26839    26854    26889    26987    27125    27256 
   27342    27360    27301    27190    27083    27005    26951    26948 
   27004    27059    27072    27049    26993    26912    26842    26829 
   26897    27020    27172    27315    27388    27373    27288    27164 
   27039    26932    26866    26844    26850    26882    26909    26889 
   26829    26752    26685    26640    26630    26670    26742    26817 
   26900    26982    27054    27130    27209    27260    27282    27279 
   27264    27238    27190    27130    27066    27010    26985    26971 
   26948    26897    26821    26758    26720    26723    26790    26908 
   27047    27190    27322    27438    27529    27571    27558    27495 
   27386    27261    27153    27090    27090    27132    27186    27214 
   27191    27130    27043    26927    26808    26730    26719    26781 
   26877    26974    27059    27095    27072    27002    26898    26773 
   26646    26563    26546    26584    26671    26777    26860    26935 
   27004    27058    27079    27063    27039    27037    27067    27147 
   27267    27383    27479    27525    27496    27398    27256    27110 
   26977    26877    26839    26855    26913    27000    27064    27074 
   27025    26932    26825    26744    26723    26781    26890    27012 
   27114    27170    27172    27147    27114    27095    27098    27108 
   27109    27075    27009    26940    26874    26835    26840    26867 
   26893    26898    26889    26890    26900    26928    26998    27099 
   27233    27399    27564    27689    27731    27670    27535    27348 
   27135    26931    26762    26655    26604    26582    26582    26590 
   26599    26616    26636    26657    26681    26715    26765    26804 
   26820    26838    26870    26931    27029    27141    27237    27306 
   27344    27360    27345    27303    27252    27182    27105    27068 
   27068    27082    27090    27091    27097    27085    27037    26987 
   26950    26927    26927    26954    27006    27087    27175    27232 
   27228    27159    27049    26914    26778    26681    26642    26666 
   26728    26820    26936    27024    27045    27018    26960    26913 
   26914    26973    27059    27144    27222    27302    27382    27475 
   27598    27729    27830    27878    27859    27770    27589    27328 
   27039    26744    26464    26235    26095    26075    26175    26361 
   26590    26817    27010    27157    27264    27328    27341    27301 
   27216    27095    26959    26843    26763    26732    26759    26817 
   26869    26875    26832    26766    26694    26650    26649    26671 
   26716    26779    26833    26886    26954    27032    27117    27205 
   27292    27395    27480    27519    27496    27406    27267    27108 
   26966    26886    26867    26889    26923    26947    26987    27071 
   27197    27348    27498    27608    27657    27623    27515    27353 
   27164    27005    26908    26866    26883    26932    26977    26998 
   26985    26941    26879    26815    26774    26738    26676    26599 
   26523    26464    26447    26487    26573    26677    26789    26904 
   26991    27043    27078    27091    27087    27094    27117    27179 
   27275    27390    27504    27561    27531    27436    27291    27129 
   26995    26916    26898    26920    26963    27014    27040    27037 
   27033    27035    27063    27137    27232    27290    27275    27199 
   27099    26987    26902    26878    26897    26948    27006    27041 
   27054    27024    26962    26910    26893    26928    27004    27081 
   27143    27174    27156    27108    27040    26983    26952    26939 
   26955    27004    27058    27099    27109    27078    27025    26955 
   26871    26775    26665    26563    26493    26465    26489    26554 
   26659    26813    26989    27164    27338    27491    27591    27606 
   27538    27427    27294    27172    27101    27072    27066    27044 
   26991    26929    26866    26821    26828    26889    26994    27113 
   27178    27147    27028    26850    26644    26464    26357    26370 
   26493    26696    26937    27157    27326    27427    27453    27427 
   27373    27319    27270    27207    27147    27087    27020    26963 
   26928    26916    26931    26968    27017    27074    27139    27209 
   27274    27305    27318    27332    27341    27351    27346    27305 
   27195    27014    26821    26654    26519    26450    26457    26522 
   26622    26725    26808    26846    26838    26817    26798    26800 
   26863    26986    27136    27272    27348    27367    27349    27301 
   27238    27170    27116    27099    27110    27149    27218    27282 
   27321    27334    27315    27265    27195    27118    27047    26979 
   26943    26959    26997    27025    27016    26948    26847    26744 
   26688    26697    26750    26850    26979    27095    27179    27220 
   27218    27186    27128    27078    27047    27005    26936    26839 
   26713    26599    26527    26501    26530    26595    26696    26844 
   27027    27224    27402    27522    27569    27546    27481    27403 
   27315    27225    27141    27071    27022    26975    26894    26798 
   26697    26596    26515    26481    26509    26574    26651    26739 
   26817    26866    26886    26887    26886    26908    26947    27009 
   27108    27230    27345    27421    27453    27469    27477    27490 
   27521    27552    27571    27557    27498    27402    27265    27103 
   26946    26801    26703    26661    26666    26715    26805    26921 
   27035    27130    27206    27261    27282    27272    27261    27260 
   27274    27302    27324    27314    27263    27184    27095    27010 
   26955    26924    26873    26779    26649    26499    26369    26291 
   26289    26361    26478    26635    26802    26940    27043    27110 
   27143    27162    27189    27233    27275    27287    27275    27229 
   27152    27081    27043    27035    27039    27028    27004    26979 
   26959    26960    26982    27021    27083    27156    27241    27340 
   27427    27481    27481    27415    27298    27135    26943    26767 
   26617    26504    26445    26439    26481    26551    26634    26727 
   26802    26850    26879    26883    26863    26829    26800    26789 
   26786    26798    26832    26866    26892    26906    26908    26925 
   26994    27105    27236    27360    27450    27487    27456    27386 
   27321    27263    27225    27217    27240    27288    27338    27395 
   27461    27507    27518    27494    27426    27333    27237    27137 
   27059    27022    27016    27009    26966    26893    26794    26663 
   26538    26460    26457    26549    26709    26900    27071    27190 
   27255    27280    27268    27232    27174    27098    27047    27047 
   27093    27145    27153    27110    27016    26897    26813    26767 
   26744    26734    26700    26646    26595    26565    26582    26654 
   26767    26917    27074    27189    27247    27233    27168    27093 
   27025    26968    26921    26901    26914    26933    26968    27043 
   27141    27256    27367    27446    27473    27429    27317    27170 
   27010    26874    26801    26804    26862    26925    26960    26964 
   26944    26939    26985    27072    27186    27301    27392    27449 
   27442    27364    27244    27116    27013    26944    26900    26887 
   26890    26878    26848    26813    26784    26766    26761    26782 
   26847    26932    27021    27099    27140    27137    27097    27024 
   26951    26893    26862    26865    26890    26933    26978    27010 
   27036    27049    27045    27039    27033    27039    27070    27122 
   27183    27233    27265    27288    27283    27238    27157    27045 
   26920    26813    26747    26742    26784    26838    26889    26906 
   26885    26855    26827    26815    26825    26858    26909    26962 
   26998    27008    26979    26927    26855    26784    26750    26767 
   26835    26951    27090    27232    27356    27442    27487    27488 
   27445    27392    27355    27336    27359    27406    27453    27488 
   27491    27471    27427    27342    27222    27086    26959    26867 
   26802    26763    26758    26761    26757    26739    26709    26688 
