Origin Time       2025/03/30 10:18:00
Lat.              34.667
Long.             140.825
Depth. (km)       69
Mag.              4.9
Station Code      CHBH11
Station Lat.      35.2867
Station Long.     140.1529
Station Height(m) -1920
Record Time       2025/03/30 10:18:47
Sampling Freq(Hz) 100Hz
Duration Time(s)  120
Dir.              2
Scale Factor      2942(gal)/8224139
Max. Acc. (gal)   0.486
Last Correction   2025/03/30 10:18:47
Memo.             
[...]
   38580    38578    38578    38580    38581    38580    38578    38578 
   38578    38578    38578    38578    38578    38583    38581    38578 
   38578    38578    38580    38581    38578    38578    38580    38580 
   38581    38581    38580    38580    38578    38578    38580    38577 
   38577    38578    38580    38578    38577    38578    38580    38580 
   38580    38581    38578    38578    38580    38581    38578    38580 
   38581    38580    38580    38578    38577    38580    38581    38578 
   38577    38580    38581    38580    38578    38580    38578    38576 
   38577    38580    38578    38578    38580    38578    38578    38583 
   38580    38576    38578    38580    38578    38578    38576    38578 
   38581    38580    38578    38578    38580    38580    38580    38578 
   38580    38578    38577    38580    38578    38577    38577    38577 
   38577    38580    38580    38578    38578    38577    38578    38578 
   38578    38578    38578    38577    38578    38580    38578    38576 
   38577    38580    38576    38573    38576    38578    38577    38578 
   38580    38578    38577    38578    38578    38576    38577    38578 
   38577    38580    38580    38578    38580    38580    38578    38577 
   38577    38578    38578    38578    38577    38577    38578    38577 
   38577    38580    38580    38576    38578    38581    38580    38580 
   38578    38576    38577    38581    38578    38577    38576    38577 
   38577    38577    38578    38578    38578    38580    38580    38578 
   38577    38577    38578    38580    38578    38577    38578    38577 
   38577    38578    38577    38577    38577    38577    38577    38580 
   38580    38577    38576    38578    38581    38580    38578    38578 
   38578    38578    38578    38578    38578    38577    38578    38578 
   38578    38580    38578    38578    38580    38578    38577    38580 
   38581    38578    38578    38578    38577    38577    38578    38580 
   38581    38578    38580    38581    38578    38578    38581    38578 
   38577    38580    38580    38578    38581    38581    38580    38577 
   38578    38578    38577    38577    38578    38578    38578    38577 
   38580    38583    38578    38577    38578    38580    38578    38578 
   38578    38578    38578    38580    38578    38577    38580    38580 
   38577    38578    38581    38581    38580    38584    38585    38581 
   38580    38584    38585    38588    38587    38583    38587    38589 
   38585    38578    38574    38570    38570    38576    38576    38565 
   38562    38576    38584    38574    38565    38564    38566    38587 
   38618    38616    38580    38557    38562    38574    38587    38610 
   38630    38611    38565    38543    38547    38553    38560    38566 
   38573    38599    38628    38627    38619    38619    38597    38546 
   38499    38504    38535    38538    38543    38556    38545    38542 
   38583    38639    38658    38619    38580    38580    38593    38603 
   38581    38541    38542    38583    38616    38620    38573    38530 
   38568    38626    38611    38568    38574    38615    38628    38596 
   38566    38551    38515    38495    38537    38607    38642    38627 
   38591    38569    38562    38565    38583    38608    38620    38597 
   38556    38541    38562    38595    38605    38583    38561    38557 
   38542    38542    38596    38654    38653    38627    38622    38605 
   38569    38551    38553    38547    38531    38519    38522    38520 
   38527    38587    38641    38611    38572    38604    38654    38659 
   38637    38610    38577    38539    38488    38454    38488    38573 
   38637    38628    38585    38584    38595    38553    38549    38627 
   38642    38547    38483    38511    38570    38583    38565    38595 
   38630    38610    38577    38550    38535    38581    38630    38603 
   38558    38558    38589    38597    38554    38541    38591    38641 
   38688    38703    38628    38535    38524    38580    38589    38518 
   38477    38519    38580    38619    38624    38591    38562    38578 
   38628    38665    38639    38551    38493    38516    38538    38524 
   38530    38576    38622    38638    38642    38612    38523    38449 
   38464    38574    38680    38653    38581    38583    38610    38631 
   38651    38639    38607    38562    38545    38576    38591    38584 
   38554    38502    38516    38596    38635    38635    38627    38569 
   38481    38464    38504    38506    38526    38641    38722    38677 
   38601    38556    38492    38466    38554    38635    38638    38634 
   38593    38510    38523    38637    38686    38585    38431    38415 
   38550    38661    38658    38581    38516    38541    38639    38724 
   38680    38551    38561    38684    38696    38618    38561    38512 
   38483    38508    38556    38596    38630    38632    38587    38561 
   38616    38676    38649    38546    38452    38443    38479    38484 
   38519    38589    38597    38557    38583    38662    38670    38583 
   38496    38475    38479    38454    38485    38616    38681    38658 
   38693    38742    38707    38647    38645    38669    38643    38592 
   38566    38573    38599    38584    38529    38489    38491    38543 
   38565    38518    38512    38560    38577    38564    38562    38607 
   38670    38691    38649    38589    38603    38653    38578    38414 
   38356    38473    38634    38662    38591    38520    38425    38402 
   38574    38747    38757    38734    38740    38680    38562    38510 
   38561    38615    38618    38601    38531    38442    38472    38531 
   38510    38518    38538    38533    38612    38727    38746    38645 
   38510    38511    38584    38556    38550    38611    38603    38587 
   38573    38508    38534    38658    38691    38592    38470    38437 
   38502    38570    38622    38692    38684    38545    38487    38612 
   38669    38580    38561    38616    38577    38487    38487    38570 
   38623    38616    38604    38580    38551    38565    38545    38466 
   38496    38638    38641    38502    38538    38723    38716    38574 
   38537    38543    38519    38484    38448    38506    38654    38709 
   38691    38767    38834    38677    38443    38385    38445    38488 
   38541    38623    38696    38719    38680    38608    38578    38587 
   38508    38398    38438    38556    38614    38597    38499    38446 
   38558    38697    38742    38738    38726    38685    38619    38560 
   38483    38406    38429    38550    38601    38520    38435    38438 
   38527    38647    38693    38642    38593    38601    38587    38520 
   38527    38599    38600    38568    38576    38566    38516    38533 
   38630    38655    38608    38619    38638    38551    38457    38510 
   38632    38658    38627    38646    38659    38624    38608    38634 
   38634    38589    38580    38604    38604    38624    38641    38568 
   38488    38502    38518    38448    38408    38507    38584    38543 
   38530    38581    38605    38596    38584    38585    38585    38570 
   38595    38615    38570    38573    38651    38682    38645    38562 
   38470    38456    38518    38554    38562    38610    38647    38638 
   38646    38647    38626    38653    38669    38619    38601    38608 
   38560    38519    38541    38558    38526    38533    38605    38641 
   38620    38568    38462    38408    38492    38557    38503    38484 
   38553    38601    38638    38699    38735    38736    38730    38712 
   38638    38500    38414    38437    38488    38543    38570    38551 
   38576    38597    38512    38430    38491    38653    38727    38626 
   38531    38566    38654    38709    38692    38615    38530    38446 
   38412    38469    38562    38610    38580    38522    38518    38549 
   38569    38597    38624    38637    38646    38620    38593    38639 
   38730    38784    38754    38682    38632    38577    38485    38448 
   38504    38541    38519    38549    38618    38618    38574    38585 
   38632    38630    38566    38537    38578    38605    38556    38470 
   38423    38453    38524    38593    38650    38669    38618    38523 
   38446    38411    38437    38523    38588    38614    38658    38668 
   38611    38584    38607    38603    38573    38573    38601    38628 
   38635    38645    38719    38767    38646    38502    38520    38572 
   38529    38515    38628    38730    38713    38657    38588    38472 
   38425    38524    38592    38542    38515    38519    38462    38456 
   38570    38635    38581    38580    38654    38665    38611    38596 
   38616    38587    38510    38466    38477    38511    38573    38665 
   38722    38672    38551    38487    38495    38476    38469    38537 
   38632    38750    38846    38766    38527    38391    38443    38534 
   38623    38719    38708    38627    38655    38742    38712    38665 
   38720    38731    38624    38507    38433    38395    38408    38488 
   38527    38485    38531    38630    38557    38365    38275    38341 
   38456    38524    38564    38593    38585    38558    38502    38431 
   38485    38658    38745    38673    38576    38568    38615    38624 
   38608    38641    38700    38696    38610    38533    38558    38655 
   38754    38816    38800    38719    38682    38723    38730    38659 
   38596    38580    38569    38551    38504    38411    38345    38368 
   38427    38458    38468    38477    38479    38476    38484    38458 
   38404    38427    38560    38708    38782    38767    38713    38666 
   38665    38718    38734    38634    38488    38418    38431    38475 
   38566    38676    38693    38639    38612    38601    38570    38562 
   38623    38703    38719    38696    38691    38651    38561    38527 
   38569    38569    38481    38377    38360    38431    38499    38515 
   38533    38595    38662    38664    38604    38601    38691    38730 
   38674    38614    38545    38461    38426    38464    38545    38591 
   38560    38568    38676    38750    38731    38728    38731    38603 
   38414    38353    38385    38398    38400    38423    38479    38561 
   38614    38603    38584    38618    38686    38699    38628    38589 
   38624    38661    38697    38724    38723    38716    38665    38570 
   38523    38493    38453    38458    38504    38577    38653    38686 
   38684    38624    38556    38593    38647    38604    38546    38529 
   38524    38558    38624    38647    38601    38538    38493    38472 
   38493    38530    38543    38585    38653    38651    38601    38605 
   38641    38616    38553    38503    38465    38445    38450    38476 
   38524    38589    38649    38668    38641    38654    38740    38786 
   38723    38604    38469    38367    38404    38558    38673    38701 
   38677    38624    38569    38516    38479    38481    38518    38566 
   38605    38624    38597    38539    38574    38674    38670    38584 
   38512    38458    38431    38449    38502    38522    38481    38473 
   38549    38637    38680    38689    38688    38670    38618    38546 
   38491    38464    38489    38570    38632    38666    38735    38789 
   38730    38597    38516    38542    38618    38651    38615    38542 
   38508    38556    38597    38576    38556    38574    38620    38654 
   38638    38591    38581    38635    38703    38713    38634    38503 
   38441    38477    38497    38475    38485    38496    38461    38469 
   38539    38558    38499    38456    38502    38647    38789    38804 
   38716    38610    38527    38529    38593    38624    38626    38631 
   38605    38558    38524    38515    38531    38547    38541    38527 
   38534    38564    38591    38581    38589    38662    38722    38723 
   38693    38596    38484    38480    38551    38587    38587    38589 
   38608    38628    38620    38584    38512    38415    38375    38416 
   38493    38599    38672    38639    38580    38578    38592    38593 
   38632    38662    38622    38608    38684    38734    38685    38618 
   38572    38489    38394    38365    38384    38415    38488    38584 
   38661    38707    38728    38731    38700    38631    38561    38533 
   38504    38480    38539    38626    38626    38585    38599    38624 
   38578    38503    38456    38422    38437    38519    38597    38657 
   38734    38769    38704    38604    38562    38568    38574    38566 
   38529    38485    38491    38539    38584    38593    38572    38583 
   38645    38718    38773    38782    38728    38651    38619    38674 
   38746    38747    38712    38669    38574    38465    38442    38481 
   38461    38383    38353    38377    38391    38376    38375    38441 
   38549    38622    38626    38587    38556    38543    38537    38585 
   38681    38718    38676    38627    38592    38550    38508    38473 
   38443    38441    38487    38541    38588    38662    38732    38749 
   38709    38632    38570    38589    38634    38597    38545    38619 
   38796    38943    39000    38990    38936    38859    38815    38830 
   38842    38793    38707    38612    38612    38749    38898    39012 
   39087    39078    38998    38834    38572    38304    38107    38009 
   38013    38076    38111    38083    38088    38203    38352    38480 
   38615    38811    39020    39098    39074    39073    39048    38928 
   38742    38554    38429    38341    38211    38063    37941    37804 
   37663    37598    37619    37706    37860    38047    38167    38113 
   37882    37620    37507    37652    38037    38495    38859    39150 
   39465    39764    39920    39937    39920    39903    39829    39649 
   39357    39031    38769    38541    38298    38111    38065    38222 
   38591    39006    39216    39067    38577    37957    37509    37378 
   37575    38071    38722    39267    39486    39324    38934    38539 
   38298    38302    38497    38696    38846    39032    39154    39037 
   38745    38489    38423    38510    38572    38516    38394    38264 
   38141    38022    37914    37836    37802    37818    37860    37947 
   38129    38272    38232    38211    38450    38877    39286    39471 
   39370    39112    38850    38630    38434    38325    38402    38608 
   38820    39008    39179    39312    39363    39334    39294    39262 
   39152    38898    38581    38369    38326    38314    38195    37994 
   37786    37609    37478    37399    37365    37424    37659    38041 
   38442    38804    39131    39410    39569    39502    39228    38870 
   38527    38298    38242    38313    38489    38773    39078    39318 
   39422    39286    38901    38450    38178    38136    38227    38433 
   38731    39044    39286    39336    39128    38723    38237    37810 
   37554    37492    37663    38094    38632    39031    39178    39164 
   39110    39063    38982    38789    38512    38284    38140    38029 
   37989    38128    38445    38827    39139    39251    39120    38865 
   38670    38576    38512    38456    38402    38379    38487    38726 
   38927    38950    38786    38533    38304    38095    37889    37798 
   37889    38095    38345    38604    38873    39093    39181    39131 
   38939    38611    38288    38141    38205    38450    38824    39194 
   39414    39421    39185    38763    38341    38048    37864    37762 
   37828    38124    38446    38537    38381    38095    37798    37673 
   37856    38310    38808    39097    39120    39008    38946    39060 
   39302    39484    39474    39329    39159    38978    38807    38707 
   38723    38766    38626    38287    37998    37897    37945    38097 
   38302    38496    38662    38797    38835    38719    38539    38487 
   38670    38985    39191    39143    38886    38584    38388    38346 
   38452    38678    38897    38936    38751    38465    38300    38380 
   38572    38709    38784    38797    38703    38492    38207    37890 
   37601    37444    37459    37623    37920    38275    38538    38630 
   38607    38614    38732    38885    38946    38850    38657    38587 
   38724    38917    39042    39056    39006    38986    38969    38884 
   38758    38622    38484    38448    38607    38885    39096    39156 
   39105    38934    38566    38075    37709    37643    37848    38202 
   38531    38697    38709    38628    38472    38296    38199    38172 
   38191    38340    38615    38871    39042    39152    39194    39112 
   38871    38554    38292    38126    38045    38080    38252    38496 
   38778    39110    39411    39565    39568    39447    39194    38815 
   38425    38213    38207    38223    38157    38086    38111    38229 
   38358    38423    38387    38306    38238    38171    38076    37971 
   37909    37921    37987    38119    38345    38653    39027    39386 
   39590    39564    39321    38917    38495    38237    38203    38276 
   38333    38385    38492    38642    38785    38908    39035    39191 
   39391    39604    39721    39657    39513    39403    39266    39027 
   38747    38530    38380    38233    38088    37991    37890    37709 
   37559    37609    37844    38114    38290    38327    38254    38137 
   38111    38326    38742    39141    39337    39341    39286    39232 
   39129    38936    38692    38522    38476    38426    38245    38001 
   37847    37875    38072    38344    38585    38728    38719    38524 
   38209    37897    37681    37613    37696    37898    38192    38502 
   38735    38902    39044    39150    39178    39097    38944    38799 
   38692    38634    38611    38588    38599    38723    38907    39004 
   38975    38931    39000    39185    39317    39232    38997    38786 
   38676    38605    38475    38261    38057    37921    37820    37760 
   37872    38207    38605    38865    38952    38975    38973    38892 
   38719    38502    38290    38140    38071    38057    38072    38094 
   38119    38152    38183    38252    38423    38626    38742    38785 
   38770    38654    38512    38472    38543    38666    38762    38738 
   38638    38635    38803    39033    39178    39212    39213    39210 
   39183    39114    38939    38638    38337    38202    38254    38362 
   38427    38473    38510    38526    38533    38508    38422    38364 
   38452    38657    38866    38988    38965    38816    38620    38461 
   38373    38337    38290    38210    38126    38051    38003    38037 
   38115    38115    38013    37921    37924    38028    38227    38499 
   38758    38927    39027    39128    39228    39247    39155    39040 
   39009    39067    39168    39247    39220    39036    38736    38419 
   38114    37825    37693    37808    38024    38169    38249    38348 
   38523    38765    39013    39172    39156    38989    38780    38639 
   38605    38653    38761    38915    39060    39132    39094    38975 
   38857    38784    38746    38732    38747    38747    38662    38526 
   38477    38547    38588    38511    38403    38352    38327    38292 
   38261    38252    38307    38452    38587    38626    38604    38607 
   38659    38677    38610    38511    38421    38318    38190    38074 
   38037    38111    38271    38469    38614    38603    38446    38244 
   38052    37901    37860    37974    38157    38280    38315    38333 
   38379    38457    38520    38533    38529    38562    38685    38898 
   39102    39166    39082    38965    38870    38746    38610    38547 
   38561    38632    38796    39025    39212    39270    39231    39166 
