Origin Time       2025/03/30 10:18:00
Lat.              34.667
Long.             140.825
Depth. (km)       69
Mag.              4.9
Station Code      CHBH06
Station Lat.      35.7215
Station Long.     140.5046
Station Height(m) 35
Record Time       2025/03/30 10:19:08
Sampling Freq(Hz) 100Hz
Duration Time(s)  120
Dir.              5
Scale Factor      7845(gal)/8223790
Max. Acc. (gal)   1.159
Last Correction   2025/03/30 10:19:08
Memo.             
[...]
   -2988    -2905    -2844    -2824    -2836    -2843    -2818    -2799 
   -2808    -2814    -2851    -2951    -3024    -2991    -2920    -2898 
   -2917    -2906    -2851    -2812    -2843    -2929    -2988    -2971 
   -2920    -2874    -2829    -2787    -2772    -2787    -2810    -2817 
   -2808    -2806    -2825    -2855    -2901    -2988    -3105    -3156 
   -3078    -2920    -2790    -2741    -2745    -2767    -2818    -2872 
   -2857    -2806    -2860    -3021    -3138    -3146    -3091    -2983 
   -2816    -2667    -2637    -2725    -2857    -2951    -2972    -2963 
   -2968    -2980    -2960    -2891    -2789    -2701    -2668    -2698 
   -2774    -2886    -3029    -3163    -3222    -3176    -3057    -2943 
   -2874    -2813    -2737    -2667    -2604    -2565    -2619    -2786 
   -2999    -3168    -3227    -3157    -3001    -2857    -2790    -2763 
   -2755    -2797    -2879    -2951    -2957    -2884    -2786    -2772 
   -2875    -3006    -3091    -3111    -3052    -2924    -2812    -2783 
   -2832    -2924    -3005    -3002    -2890    -2740    -2651    -2682 
   -2799    -2914    -2988    -3003    -2913    -2752    -2666    -2725 
   -2866    -3006    -3105    -3113    -3018    -2880    -2776    -2752 
   -2805    -2897    -2971    -2991    -2953    -2884    -2844    -2853 
   -2895    -2957    -3017    -3041    -3025    -2955    -2836    -2740 
   -2694    -2660    -2675    -2778    -2902    -2983    -3005    -2955 
   -2870    -2828    -2860    -2925    -2945    -2910    -2876    -2863 
   -2840    -2821    -2840    -2911    -3022    -3106    -3086    -2964 
   -2826    -2776    -2852    -2965    -3026    -3036    -2994    -2895 
   -2781    -2714    -2741    -2843    -2943    -2968    -2906    -2805 
   -2717    -2690    -2764    -2893    -2955    -2924    -2887    -2894 
   -2922    -2982    -3075    -3119    -3049    -2918    -2837    -2856 
   -2902    -2868    -2783    -2743    -2724    -2701    -2751    -2891 
   -2997    -3001    -2968    -2951    -2971    -3024    -3049    -2984 
   -2835    -2654    -2527    -2540    -2686    -2855    -2967    -3025 
   -3026    -2983    -2976    -3076    -3199    -3195    -3034    -2824 
   -2674    -2608    -2609    -2700    -2870    -3013    -3048    -2995 
   -2929    -2887    -2882    -2922    -2975    -2963    -2866    -2736 
   -2685    -2781    -2944    -3036    -3025    -2982    -2974    -2976 
   -2936    -2889    -2901    -2925    -2871    -2758    -2698    -2732 
   -2797    -2862    -2938    -2983    -2938    -2847    -2795    -2802 
   -2806    -2768    -2748    -2812    -2906    -2980    -3061    -3132 
   -3130    -3068    -3002    -2941    -2875    -2848    -2891    -2938 
   -2887    -2740    -2610    -2581    -2670    -2860    -3073    -3187 
   -3146    -3019    -2914    -2890    -2922    -2933    -2879    -2774 
   -2637    -2523    -2533    -2686    -2866    -3009    -3113    -3127 
   -3045    -2968    -2970    -3006    -3033    -3037    -2990    -2906 
   -2853    -2867    -2921    -2980    -2998    -2953    -2889    -2833 
   -2782    -2733    -2694    -2666    -2677    -2728    -2763    -2760 
   -2760    -2791    -2847    -2920    -2974    -2984    -2990    -3014 
   -3018    -3017    -3059    -3091    -3046    -2961    -2875    -2799 
   -2745    -2689    -2655    -2743    -2925    -3064    -3107    -3052 
   -2926    -2818    -2776    -2774    -2778    -2774    -2785    -2841 
   -2907    -2918    -2872    -2828    -2848    -2943    -3044    -3082 
   -3063    -3052    -3046    -3002    -2949    -2941    -2947    -2936 
   -2925    -2884    -2785    -2698    -2695    -2720    -2717    -2702 
   -2710    -2781    -2894    -2970    -2984    -2974    -2956    -2930 
   -2918    -2951    -2999    -2971    -2849    -2744    -2735    -2782 
   -2844    -2947    -3106    -3231    -3230    -3126    -3010    -2891 
   -2744    -2613    -2570    -2609    -2691    -2803    -2929    -3001 
   -2979    -2921    -2901    -2894    -2853    -2810    -2809    -2818 
   -2789    -2775    -2860    -2992    -3041    -2995    -2947    -2947 
   -2952    -2909    -2836    -2821    -2879    -2941    -2961    -2965 
   -2971    -2924    -2793    -2666    -2644    -2733    -2872    -2978 
   -2986    -2907    -2813    -2763    -2781    -2867    -2963    -2984 
   -2937    -2936    -3028    -3115    -3144    -3149    -3129    -3026 
   -2828    -2627    -2556    -2628    -2736    -2817    -2879    -2898 
   -2851    -2806    -2857    -2982    -3056    -3025    -2938    -2844 
   -2763    -2740    -2795    -2872    -2894    -2884    -2928    -2994 
   -2987    -2934    -2953    -3032    -3065    -3024    -2959    -2914 
   -2903    -2928    -2957    -2949    -2902    -2853    -2822    -2813 
   -2814    -2803    -2787    -2771    -2724    -2664    -2693    -2841 
   -3032    -3191    -3275    -3242    -3102    -2933    -2772    -2609 
   -2506    -2546    -2681    -2801    -2872    -2920    -2953    -2982 
   -3007    -3013    -2980    -2902    -2798    -2727    -2739    -2847 
   -3002    -3114    -3149    -3133    -3036    -2824    -2602    -2506 
   -2540    -2662    -2856    -3087    -3279    -3361    -3292    -3129 
   -2976    -2862    -2755    -2641    -2544    -2505    -2542    -2651 
   -2818    -2994    -3129    -3191    -3157    -3041    -2898    -2785 
   -2724    -2724    -2774    -2856    -2965    -3082    -3146    -3123 
   -3049    -2999    -2979    -2936    -2875    -2829    -2785    -2736 
   -2710    -2721    -2756    -2797    -2874    -3001    -3105    -3103 
   -3014    -2894    -2756    -2619    -2540    -2560    -2660    -2789 
   -2914    -3014    -3071    -3098    -3114    -3083    -2972    -2805 
   -2625    -2521    -2567    -2714    -2860    -2972    -3049    -3052 
   -2956    -2851    -2866    -2992    -3111    -3152    -3132    -3068 
   -2967    -2878    -2863    -2902    -2940    -2956    -2937    -2845 
   -2717    -2658    -2701    -2798    -2895    -2955    -2992    -3041 
   -3053    -2992    -2909    -2844    -2795    -2767    -2752    -2739 
   -2718    -2714    -2774    -2898    -3011    -3060    -3059    -3033 
   -2976    -2874    -2768    -2741    -2789    -2837    -2844    -2845 
   -2895    -2975    -3006    -2992    -3003    -3017    -2959    -2857 
   -2814    -2862    -2959    -3061    -3082    -2979    -2843    -2749 
   -2716    -2749    -2824    -2893    -2922    -2906    -2876    -2864 
   -2843    -2786    -2740    -2736    -2751    -2759    -2763    -2793 
   -2853    -2906    -2971    -3103    -3230    -3246    -3184    -3113 
   -3042    -2970    -2891    -2809    -2781    -2847    -2938    -2972 
   -2926    -2814    -2683    -2625    -2693    -2810    -2895    -2937 
   -2932    -2863    -2763    -2708    -2722    -2781    -2871    -2983 
   -3076    -3100    -3025    -2874    -2747    -2714    -2755    -2820 
   -2868    -2864    -2841    -2859    -2925    -2998    -3037    -3036 
   -3017    -2967    -2855    -2728    -2670    -2706    -2799    -2903 
   -2991    -3032    -3022    -3015    -3010    -2979    -2972    -3024 
   -3083    -3091    -3032    -2938    -2862    -2803    -2759    -2758 
   -2791    -2803    -2779    -2754    -2756    -2789    -2866    -2983 
   -3053    -2992    -2847    -2721    -2693    -2797    -2953    -3037 
   -3018    -2951    -2860    -2762    -2706    -2733    -2825    -2918 
   -2957    -2961    -2980    -3033    -3105    -3152    -3145    -3072 
   -2913    -2702    -2583    -2659    -2849    -2995    -3022    -2972 
   -2903    -2848    -2817    -2840    -2910    -2936    -2860    -2755 
   -2705    -2709    -2743    -2826    -2944    -3007    -2997    -2959 
   -2899    -2806    -2729    -2724    -2789    -2880    -2932    -2921 
   -2894    -2882    -2870    -2883    -2965    -3084    -3157    -3154 
   -3106    -3024    -2934    -2878    -2863    -2830    -2754    -2681 
   -2644    -2663    -2781    -2970    -3121    -3149    -3041    -2852 
   -2681    -2590    -2567    -2593    -2674    -2789    -2870    -2876 
   -2874    -2951    -3098    -3223    -3238    -3132    -2964    -2826 
   -2785    -2836    -2913    -2964    -2994    -3011    -2983    -2906 
   -2847    -2839    -2856    -2853    -2795    -2722    -2697    -2727 
   -2803    -2911    -2990    -3009    -3001    -2990    -2956    -2913 
   -2910    -2934    -2899    -2791    -2713    -2736    -2824    -2906 
   -2960    -2999    -3018    -2998    -2943    -2891    -2851    -2798 
   -2731    -2679    -2662    -2713    -2845    -3005    -3136    -3219 
   -3211    -3094    -2932    -2812    -2782    -2835    -2893    -2875 
   -2806    -2756    -2733    -2735    -2785    -2863    -2906    -2914 
   -2917    -2903    -2870    -2845    -2876    -2991    -3119    -3169 
   -3154    -3113    -3034    -2917    -2798    -2737    -2775    -2843 
   -2845    -2802    -2770    -2717    -2643    -2654    -2752    -2832 
   -2879    -2959    -3034    -3041    -3032    -3069    -3114    -3094 
   -2979    -2825    -2741    -2755    -2774    -2782    -2845    -2926 
   -2938    -2926    -2948    -2937    -2860    -2779    -2745    -2759 
   -2795    -2817    -2814    -2821    -2851    -2884    -2916    -2960 
   -3022    -3073    -3096    -3096    -3068    -2984    -2870    -2789 
   -2766    -2783    -2833    -2901    -2957    -3009    -3073    -3140 
   -3169    -3111    -2941    -2717    -2519    -2412    -2423    -2535 
   -2704    -2855    -2948    -2994    -3018    -3065    -3136    -3149 
   -3069    -2922    -2717    -2504    -2389    -2424    -2559    -2722 
   -2880    -3021    -3109    -3096    -3005    -2916    -2895    -2906 
   -2860    -2762    -2687    -2660    -2655    -2690    -2798    -2921 
   -2960    -2920    -2890    -2913    -2963    -3010    -3038    -3052 
   -3060    -3059    -3045    -3007    -2930    -2848    -2805    -2809 
   -2841    -2860    -2833    -2809    -2867    -2994    -3087    -3111 
   -3121    -3119    -3084    -3046    -3059    -3092    -3083    -3011 
   -2893    -2776    -2722    -2739    -2802    -2898    -2979    -3001 
   -2988    -2992    -2990    -2940    -2860    -2759    -2627    -2498 
   -2415    -2412    -2527    -2756    -3013    -3194    -3248    -3194 
   -3067    -2910    -2816    -2824    -2836    -2775    -2700    -2698 
   -2786    -2928    -3078    -3204    -3279    -3227    -3060    -2901 
   -2837    -2832    -2801    -2731    -2727    -2853    -3025    -3171 
   -3319    -3453    -3478    -3383    -3249    -3159    -3111    -3042 
   -2937    -2859    -2813    -2743    -2662    -2651    -2700    -2704 
   -2614    -2498    -2442    -2457    -2497    -2542    -2602    -2685 
   -2755    -2789    -2814    -2859    -2891    -2897    -2878    -2820 
   -2759    -2756    -2814    -2906    -2992    -3013    -2959    -2891 
   -2857    -2867    -2914    -2978    -3026    -3049    -3033    -2961 
   -2886    -2868    -2894    -2924    -2972    -3041    -3079    -3076 
   -3051    -2998    -2934    -2857    -2735    -2604    -2548    -2589 
   -2698    -2832    -2930    -2952    -2903    -2798    -2687    -2650 
   -2694    -2782    -2880    -2974    -3053    -3133    -3200    -3211 
   -3169    -3100    -3017    -2932    -2897    -2975    -3153    -3300 
   -3329    -3271    -3187    -3090    -2984    -2909    -2867    -2783 
   -2617    -2442    -2342    -2342    -2427    -2567    -2731    -2880 
   -2967    -2987    -2997    -3029    -3060    -3067    -3069    -3083 
   -3064    -2982    -2864    -2758    -2677    -2659    -2713    -2799 
   -2903    -3028    -3114    -3080    -2911    -2687    -2515    -2443 
   -2467    -2577    -2744    -2913    -3009    -3009    -2979    -2975 
   -2994    -3019    -3029    -2994    -2906    -2781    -2673    -2654 
   -2720    -2826    -2944    -3003    -2938    -2776    -2612    -2516 
   -2500    -2559    -2690    -2843    -2961    -3084    -3267    -3466 
   -3591    -3600    -3524    -3403    -3211    -2941    -2694    -2585 
   -2598    -2640    -2639    -2575    -2496    -2493    -2598    -2768 
   -2937    -3022    -2978    -2879    -2844    -2879    -2910    -2916 
   -2932    -2953    -2976    -3052    -3173    -3250    -3237    -3167 
   -3084    -3009    -2938    -2855    -2767    -2697    -2647    -2605 
   -2609    -2701    -2852    -2984    -3084    -3153    -3125    -2965 
   -2740    -2512    -2336    -2281    -2344    -2450    -2602    -2849 
   -3145    -3407    -3589    -3651    -3564    -3341    -3040    -2770 
   -2627    -2613    -2686    -2832    -3022    -3163    -3194    -3183 
   -3206    -3219    -3177    -3102    -2988    -2799    -2577    -2400 
   -2311    -2322    -2428    -2598    -2806    -3030    -3221    -3322 
   -3326    -3242    -3084    -2879    -2690    -2589    -2590    -2640 
   -2689    -2732    -2766    -2785    -2790    -2799    -2828    -2872 
   -2910    -2933    -2938    -2907    -2837    -2772    -2772    -2840 
   -2933    -3025    -3102    -3125    -3071    -2974    -2890    -2833 
   -2779    -2710    -2635    -2571    -2505    -2454    -2509    -2708 
   -2949    -3126    -3184    -3103    -2941    -2818    -2822    -2947 
   -3092    -3153    -3096    -2947    -2754    -2605    -2621    -2841 
   -3161    -3433    -3572    -3547    -3357    -3065    -2787    -2610 
   -2581    -2712    -2959    -3207    -3342    -3327    -3207    -3045 
   -2871    -2713    -2614    -2565    -2524    -2496    -2509    -2597 
   -2760    -2924    -2998    -2978    -2867    -2647    -2380    -2196 
   -2220    -2505    -2961    -3411    -3715    -3819    -3703    -3387 
   -2948    -2496    -2120    -1858    -1706    -1674    -1850    -2295 
   -2889    -3426    -3782    -3921    -3878    -3727    -3489    -3159 
   -2814    -2578    -2474    -2436    -2416    -2430    -2516    -2681 
   -2878    -3064    -3226    -3373    -3504    -3586    -3574    -3476 
   -3334    -3161    -2957    -2762    -2625    -2571    -2614    -2733 
   -2867    -2960    -3011    -3040    -3022    -2930    -2820    -2764 
   -2771    -2794    -2808    -2833    -2902    -3002    -3096    -3160 
   -3156    -3060    -2898    -2706    -2517    -2381    -2326    -2322 
   -2357    -2438    -2573    -2793    -3100    -3392    -3539    -3501 
   -3331    -3113    -2913    -2771    -2693    -2652    -2614    -2554 
   -2492    -2498    -2617    -2768    -2816    -2705    -2502    -2342 
   -2300    -2382    -2571    -2826    -3086    -3277    -3346    -3295 
   -3217    -3195    -3225    -3260    -3276    -3291    -3348    -3434 
   -3491    -3484    -3422    -3343    -3231    -2984    -2619    -2296 
   -2124    -2088    -2172    -2357    -2560    -2716    -2825    -2890 
   -2918    -2961    -3046    -3125    -3138    -3044    -2849    -2619 
   -2432    -2374    -2516    -2826    -3181    -3464    -3605    -3573 
   -3407    -3180    -2928    -2705    -2552    -2458    -2446    -2536 
   -2663    -2762    -2841    -2922    -2991    -3015    -2988    -2940 
   -2902    -2893    -2913    -2955    -3006    -3038    -3005    -2918 
   -2828    -2736    -2662    -2685    -2841    -3091    -3385    -3658 
   -3811    -3801    -3662    -3416    -3069    -2704    -2431    -2258 
   -2155    -2127    -2174    -2289    -2459    -2647    -2791    -2843 
   -2799    -2724    -2717    -2844    -3067    -3311    -3516    -3630 
   -3597    -3393    -3083    -2764    -2471    -2204    -1996    -1903 
   -1950    -2126    -2390    -2708    -3033    -3316    -3496    -3516 
   -3393    -3210    -3045    -2952    -2948    -3015    -3117    -3199 
   -3203    -3132    -3052    -2997    -2959    -2955    -2991    -3014 
   -2941    -2760    -2547    -2385    -2351    -2496    -2785    -3110 
   -3349    -3441    -3434    -3392    -3285    -3072    -2790    -2513 
   -2295    -2188    -2223    -2359    -2550    -2778    -2976    -3052 
   -2998    -2872    -2710    -2540    -2427    -2425    -2517    -2625 
   -2706    -2785    -2902    -3051    -3179    -3256    -3304    -3350 
   -3361    -3272    -3080    -2870    -2756    -2797    -2929    -3048 
   -3091    -3067    -3026    -2994    -2964    -2965    -3034    -3146 
   -3219    -3190    -3076    -2970    -2901    -2843    -2783    -2729 
   -2679    -2641    -2612    -2556    -2462    -2347    -2219    -2072 
   -1957    -1968    -2141    -2432    -2793    -3187    -3564    -3852 
   -4016    -4064    -3987    -3770    -3466    -3149    -2825    -2496 
   -2239    -2158    -2281    -2555    -2902    -3234    -3446    -3480 
   -3384    -3248    -3122    -2994    -2818    -2596    -2371    -2197 
   -2150    -2299    -2627    -3026    -3361    -3559    -3623    -3573 
   -3430    -3229    -3003    -2812    -2717    -2725    -2809    -2925 
   -3034    -3103    -3117    -3072    -2984    -2864    -2749    -2697 
   -2700    -2720    -2767    -2832    -2862    -2853    -2832    -2795 
   -2741    -2709    -2732    -2781    -2818    -2853    -2875    -2864 
   -2825    -2789    -2789    -2821    -2826    -2759    -2659    -2586 
   -2550    -2547    -2600    -2709    -2812    -2852    -2848    -2839 
   -2857    -2930    -3038    -3115    -3130    -3102    -3030    -2918 
   -2812    -2748    -2751    -2824    -2914    -2964    -2978    -2980 
   -2980    -2960    -2911    -2852    -2799    -2772    -2810    -2913 
   -3028    -3130    -3196    -3149    -2944    -2641    -2354    -2170 
   -2133    -2247    -2493    -2790    -3061    -3271    -3415    -3508 
   -3539    -3504    -3437    -3358    -3262    -3148    -3021    -2879 
   -2755    -2720    -2776    -2857    -2930    -2976    -2984    -2971 
   -2952    -2930    -2898    -2825    -2694    -2517    -2336    -2226 
   -2270    -2489    -2795    -3080    -3299    -3451    -3497    -3393 
   -3204    -3067    -3034    -3061    -3092    -3078    -2965    -2745 
   -2467    -2201    -2016    -1976    -2087    -2270    -2466    -2664 
   -2859    -3052    -3245    -3393    -3438    -3360    -3194    -2988 
   -2786    -2639    -2620    -2771    -3041    -3331    -3561    -3667 
   -3604    -3389    -3113    -2847    -2604    -2390    -2242    -2188 
   -2245    -2393    -2579    -2781    -2991    -3159    -3238    -3246 
   -3207    -3140    -3071    -3029    -3015    -3022    -3040    -3063 
   -3083    -3098    -3096    -3053    -2941    -2771    -2606    -2515 
   -2523    -2621    -2781    -2957    -3102    -3188    -3203    -3141 
   -3034    -2917    -2783    -2662    -2601    -2600    -2636    -2712 
   -2790    -2809    -2754    -2683    -2681    -2763    -2884    -2999 
   -3065    -3051    -2972    -2851    -2708    -2586    -2516    -2496 
   -2513    -2551    -2604    -2685    -2768    -2809    -2826    -2871 
   -2959    -3072    -3192    -3292    -3331    -3281    -3149    -2980 
   -2825    -2717    -2687    -2749    -2893    -3083    -3285    -3491 
   -3665    -3744    -3713    -3608    -3465    -3302    -3111    -2902 
   -2721    -2601    -2520    -2467    -2436    -2394    -2340    -2324 
   -2339    -2334    -2295    -2270    -2313    -2412    -2501    -2598 
   -2774    -3019    -3267    -3460    -3545    -3510    -3399    -3246 
   -3073    -2926    -2825    -2763    -2741    -2758    -2794    -2859 
   -2955    -3065    -3150    -3144    -3025    -2843    -2659    -2535 
   -2521    -2636    -2857    -3126    -3364    -3499    -3484    -3345 
   -3163    -3009    -2924    -2938    -3051    -3188    -3289    -3343 
   -3348    -3294    -3190    -3060    -2901    -2689    -2432    -2176 
