Origin Time       2025/03/30 10:18:00
Lat.              34.667
Long.             140.825
Depth. (km)       69
Mag.              4.9
Station Code      CHBH11
Station Lat.      35.2867
Station Long.     140.1529
Station Height(m) 80
Record Time       2025/03/30 10:18:47
Sampling Freq(Hz) 100Hz
Duration Time(s)  120
Dir.              4
Scale Factor      7845(gal)/8223790
Max. Acc. (gal)   1.765
Last Correction   2025/03/30 10:18:47
Memo.             
[...]
   -3234    -3235    -3244    -3245    -3241    -3238    -3240    -3241 
   -3241    -3242    -3245    -3241    -3237    -3244    -3248    -3244 
   -3242    -3241    -3241    -3241    -3241    -3244    -3244    -3240 
   -3241    -3242    -3244    -3244    -3235    -3234    -3245    -3245 
   -3242    -3244    -3238    -3237    -3242    -3242    -3241    -3242 
   -3238    -3237    -3241    -3245    -3245    -3240    -3242    -3248 
   -3244    -3237    -3238    -3240    -3240    -3241    -3242    -3241 
   -3235    -3237    -3241    -3241    -3242    -3244    -3240    -3238 
   -3238    -3240    -3244    -3241    -3237    -3241    -3244    -3244 
   -3245    -3242    -3244    -3246    -3240    -3233    -3242    -3261 
   -3258    -3231    -3223    -3248    -3265    -3260    -3244    -3223 
   -3204    -3222    -3275    -3276    -3192    -3161    -3241    -3288 
   -3231    -3173    -3206    -3312    -3361    -3261    -3122    -3110 
   -3254    -3427    -3423    -3233    -3076    -3117    -3311    -3445 
   -3315    -3046    -2986    -3208    -3415    -3403    -3281    -3149 
   -3038    -3096    -3339    -3572    -3581    -3272    -2907    -2882 
   -3117    -3304    -3308    -3134    -3051    -3267    -3531    -3535 
   -3373    -3306    -3284    -3126    -2971    -2997    -3154    -3400 
   -3595    -3499    -3144    -2860    -2901    -3164    -3403    -3478 
   -3304    -3149    -3415    -3654    -3287    -2862    -2982    -3298 
   -3372    -3211    -3011    -3022    -3284    -3547    -3538    -3244 
   -3032    -3199    -3489    -3500    -3289    -3152    -3095    -3006 
   -3015    -3180    -3299    -3283    -3173    -3042    -3042    -3202 
   -3392    -3589    -3704    -3466    -2975    -2795    -3113    -3469 
   -3453    -3154    -2960    -3051    -3308    -3547    -3497    -3146 
   -2961    -3080    -3230    -3429    -3601    -3465    -3237    -3202 
   -3160    -3024    -2955    -2980    -3094    -3254    -3292    -3203 
   -3173    -3241    -3384    -3608    -3674    -3395    -3115    -3157 
   -3289    -3275    -3160    -3061    -3109    -3199    -3167    -3172 
   -3202    -3076    -3098    -3431    -3622    -3423    -3109    -3115 
   -3491    -3543    -3018    -2789    -3215    -3519    -3318    -3024 
   -2983    -3257    -3493    -3298    -3163    -3487    -3565    -3365 
   -3478    -3244    -2482    -2590    -3542    -3726    -3059    -2760 
   -3092    -3346    -3169    -3006    -3186    -3315    -3322    -3655 
   -3874    -3265    -2663    -3046    -3565    -3339    -3094    -3335 
   -3473    -3261    -3044    -3111    -3449    -3589    -3268    -2890 
   -2897    -3312    -3736    -3657    -3127    -2690    -2776    -3304 
   -3632    -3375    -3018    -2986    -2963    -2955    -3489    -4023 
   -3532    -2713    -2641    -2891    -3117    -3626    -3971    -3626 
   -3064    -3037    -3562    -3734    -3011    -2407    -2824    -3373 
   -3229    -3122    -3612    -4013    -3721    -3021    -2521    -2589 
   -3087    -3481    -3424    -3187    -3192    -3388    -3446    -3271 
   -3091    -3138    -3265    -3252    -3229    -3383    -3542    -3412 
   -3129    -3076    -3198    -3233    -3229    -3333    -3508    -3538 
   -3325    -3094    -2944    -2820    -2944    -3311    -3469    -3341 
   -3257    -3180    -2964    -3021    -3526    -3707    -3187    -2740 
   -2836    -3102    -3422    -3831    -3793    -3171    -2795    -3073 
   -3396    -3364    -3330    -3376    -3115    -2851    -3156    -3701 
   -3896    -3566    -2922    -2554    -2768    -3289    -3672    -3530 
   -3092    -2937    -3092    -3407    -3636    -3356    -2964    -3037 
   -3157    -3113    -3288    -3584    -3635    -3308    -2686    -2405 
   -2911    -3462    -3445    -3395    -3520    -3330    -3090    -3379 
   -3626    -3272    -2963    -3114    -3418    -3747    -3816    -3318 
   -2883    -3106    -3427    -3284    -2938    -2646    -2616    -3217 
   -3943    -3734    -2841    -2610    -3364    -3966    -3595    -2860 
   -2667    -2943    -3168    -3240    -3237    -3264    -3565    -3909 
   -3609    -2874    -2771    -3354    -3565    -3156    -2874    -3022 
   -3354    -3589    -3407    -2886    -2701    -3099    -3565    -3730 
   -3538    -3102    -2924    -3175    -3318    -3268    -3365    -3418 
   -3339    -3446    -3565    -3271    -2839    -2970    -3520    -3518 
   -2961    -2775    -2901    -2814    -2932    -3515    -3767    -3384 
   -3192    -3321    -3142    -3063    -3474    -3636    -3306    -2936 
   -2749    -3011    -3557    -3662    -3265    -2968    -3107    -3516 
   -3762    -3535    -3038    -2828    -3036    -3250    -3273    -3190 
   -3196    -3445    -3541    -3217    -3006    -3199    -3403    -3204 
   -2741    -2805    -3523    -3871    -3595    -3362    -3206    -2953 
   -2810    -2775    -2955    -3518    -3935    -3736    -3323    -3096 
   -3060    -3256    -3412    -3029    -2465    -2560    -3246    -3808 
   -3838    -3472    -3142    -2933    -2759    -3069    -3793    -3824 
   -3088    -2776    -3145    -3596    -3844    -3626    -2980    -2641 
   -2963    -3435    -3457    -3061    -2799    -2878    -3203    -3690 
   -3844    -3462    -3177    -3229    -3156    -2889    -2921    -3343 
   -3620    -3569    -3445    -3384    -3449    -3462    -3171    -2782 
   -2542    -2602    -3136    -3565    -3325    -2998    -3095    -3426 
   -3765    -3763    -3269    -2762    -2697    -3042    -3531    -3688 
   -3265    -2911    -3184    -3503    -3331    -3122    -3280    -3469 
   -3396    -3292    -3299    -3323    -3261    -2934    -2569    -2673 
   -3072    -3326    -3487    -3619    -3551    -3397    -3516    -3798 
   -3704    -3122    -2504    -2462    -3192    -3923    -3824    -3215 
   -2899    -3007    -3211    -3327    -3184    -2818    -2768    -3256 
   -3775    -3789    -3235    -2735    -2918    -3361    -3354    -3067 
   -2875    -2830    -3149    -3775    -3923    -3381    -3118    -3385 
   -3335    -2986    -3051    -3418    -3541    -3299    -2999    -2998 
   -3226    -3327    -3171    -2894    -2799    -3049    -3514    -3910 
   -3775    -3082    -2621    -2798    -3186    -3402    -3477    -3601 
   -3631    -3375    -3145    -3169    -3254    -3249    -3223    -3362 
   -3615    -3612    -3257    -2934    -3045    -3397    -3319    -2814 
   -2602    -2882    -3268    -3406    -3238    -3046    -2983    -3068 
   -3395    -3599    -3346    -3133    -3271    -3294    -3064    -3055 
   -3360    -3569    -3522    -3435    -3372    -3283    -3221    -3163 
   -3061    -2987    -3065    -3306    -3303    -2937    -2929    -3434 
   -3701    -3569    -3291    -3064    -3292    -3701    -3566    -3244 
   -3349    -3441    -3088    -2812    -3064    -3373    -3242    -2945 
   -2870    -2984    -3091    -3067    -3067    -3341    -3630    -3530 
   -3249    -3078    -2970    -3042    -3342    -3464    -3292    -3198 
   -3368    -3616    -3539    -3072    -2883    -3314    -3611    -3271 
   -2884    -2920    -3126    -3304    -3368    -3195    -3109    -3337 
   -3478    -3512    -3609    -3311    -2814    -2907    -3264    -3381 
   -3505    -3450    -2963    -2683    -3034    -3420    -3366    -3267 
   -3466    -3595    -3375    -3111    -2948    -2763    -2779    -3153 
   -3530    -3616    -3522    -3439    -3357    -3156    -2880    -2839 
   -3218    -3681    -3726    -3339    -3006    -3067    -3287    -3350 
   -3303    -3226    -3099    -3033    -3140    -3311    -3316    -3187 
   -3269    -3516    -3393    -2883    -2759    -3276    -3578    -3346 
   -3402    -3711    -3446    -2984    -2998    -3069    -2988    -3091 
   -3294    -3369    -3240    -3003    -3157    -3640    -3564    -3024 
   -2967    -3248    -3235    -3192    -3403    -3499    -3312    -3113 
   -3015    -3013    -3191    -3429    -3433    -3173    -3017    -3284 
   -3654    -3597    -3219    -2920    -2803    -2857    -3106    -3457 
   -3697    -3624    -3289    -3145    -3326    -3256    -2852    -2772 
   -3025    -3180    -3373    -3645    -3626    -3399    -3279    -3160 
   -2980    -2986    -3179    -3341    -3412    -3311    -3080    -3038 
   -3153    -3110    -3067    -3167    -3153    -3080    -3095    -3109 
   -3291    -3591    -3546    -3326    -3339    -3458    -3526    -3477 
   -3366    -3476    -3593    -3306    -2938    -2914    -3094    -3350 
   -3666    -3689    -3264    -2938    -3030    -3175    -3160    -3053 
   -2933    -3032    -3315    -3457    -3534    -3565    -3252    -2978 
   -3231    -3372    -2963    -2722    -3064    -3505    -3487    -3099 
   -2936    -3141    -3315    -3229    -2979    -2878    -3167    -3635 
   -3801    -3447    -3063    -3287    -3712    -3546    -3026    -2790 
   -3007    -3492    -3694    -3341    -2944    -2948    -3234    -3477 
   -3341    -2934    -2899    -3281    -3388    -3169    -3184    -3450 
   -3566    -3321    -2937    -2898    -3136    -3092    -2864    -3052 
   -3492    -3581    -3418    -3291    -3171    -3171    -3323    -3441 
   -3546    -3591    -3478    -3353    -3129    -2832    -2922    -3295 
   -3380    -3226    -3262    -3493    -3538    -3195    -2820    -2899 
   -3234    -3268    -3171    -3342    -3460    -3267    -3098    -3064 
   -3003    -3003    -3153    -3322    -3414    -3416    -3406    -3426 
   -3315    -3134    -3141    -3121    -2933    -2909    -3083    -3217 
   -3280    -3295    -3325    -3537    -3811    -3704    -3211    -2889 
   -3025    -3364    -3484    -3273    -3044    -3022    -3051    -2976 
   -2941    -3157    -3559    -3755    -3416    -2851    -2775    -3192 
   -3434    -3368    -3302    -3291    -3379    -3504    -3389    -3194 
   -3229    -3292    -3280    -3385    -3458    -3345    -3237    -3161 
   -3040    -3063    -3265    -3348    -3248    -3210    -3291    -3343 
   -3194    -2897    -2790    -2851    -2889    -3211    -3727    -3711 
   -3234    -2975    -3109    -3429    -3582    -3352    -3117    -3176 
   -3240    -3214    -3339    -3520    -3505    -3357    -3252    -3242 
   -3342    -3352    -3006    -2686    -2909    -3384    -3572    -3383 
   -3121    -3207    -3481    -3369    -2963    -2803    -3032    -3342 
   -3348    -3103    -3091    -3476    -3802    -3634    -3246    -3103 
   -3149    -3194    -3176    -3056    -2980    -3138    -3423    -3512 
   -3335    -3198    -3217    -3181    -3065    -3019    -3049    -3103 
   -3172    -3227    -3214    -3145    -3237    -3589    -3844    -3666 
   -3206    -2862    -2798    -2835    -2851    -3003    -3240    -3289 
   -3268    -3461    -3748    -3789    -3492    -3118    -2902    -2839 
   -2914    -3056    -3161    -3384    -3712    -3761    -3497    -3300 
   -3223    -3102    -3071    -3161    -3142    -3084    -3215    -3416 
   -3447    -3267    -3051    -2974    -2971    -2940    -3011    -3276 
   -3565    -3669    -3468    -3080    -2925    -3153    -3449    -3585 
   -3561    -3427    -3310    -3258    -3225    -3181    -3142    -3137 
   -3149    -3164    -3192    -3196    -3246    -3431    -3663    -3780 
   -3528    -2930    -2558    -2646    -2798    -2907    -3132    -3345 
   -3400    -3375    -3387    -3415    -3331    -3226    -3283    -3346 
   -3285    -3307    -3441    -3470    -3356    -3156    -2992    -3061 
   -3137    -2871    -2720    -3133    -3581    -3592    -3438    -3307 
   -3144    -3049    -3052    -3146    -3337    -3294    -2952    -2876 
   -3107    -3219    -3393    -3680    -3630    -3364    -3276    -3312 
   -3331    -3275    -3253    -3510    -3780    -3689    -3581    -3623 
   -3349    -2949    -3009    -3196    -3133    -3125    -3172    -3063 
   -2997    -3071    -3204    -3377    -3410    -3218    -3078    -3073 
   -3032    -3024    -3122    -3157    -3107    -3015    -2911    -3009 
   -3253    -3337    -3271    -3126    -2832    -2644    -2907    -3376 
   -3616    -3705    -3751    -3504    -3076    -2967    -3244    -3511 
   -3557    -3520    -3477    -3300    -3079    -3103    -3392    -3678 
   -3709    -3435    -3111    -3009    -3100    -3188    -3098    -2907 
   -2937    -3226    -3555    -3813    -3807    -3477    -3177    -3052 
   -2872    -2685    -2767    -3018    -3123    -3148    -3299    -3434 
   -3392    -3208    -2866    -2566    -2728    -3272    -3663    -3627 
   -3402    -3418    -3645    -3661    -3462    -3410    -3561    -3748 
   -3910    -3873    -3408    -2847    -2747    -2936    -2947    -2949 
   -3311    -3807    -3913    -3634    -3456    -3546    -3623    -3435 
   -3014    -2597    -2366    -2290    -2231    -2097    -2058    -2242 
   -2365    -2281    -2269    -2448    -2748    -3184    -3716    -4140 
   -4230    -3950    -3607    -3473    -3458    -3427    -3358    -3218 
   -3045    -2963    -3029    -3203    -3497    -3920    -4301    -4564 
   -4750    -4612    -4063    -3550    -3353    -3341    -3361    -3261 
   -2998    -2751    -2594    -2423    -2238    -2161    -2300    -2721 
   -3225    -3447    -3416    -3449    -3630    -3785    -3782    -3819 
   -4189    -4695    -4750    -4099    -3163    -2535    -2376    -2554 
   -2918    -3227    -3415    -3466    -3083    -2390    -2123    -2481 
   -3007    -3392    -3523    -3354    -3076    -2862    -2677    -2512 
   -2393    -2270    -2247    -2532    -3003    -3350    -3512    -3569 
   -3657    -3898    -4047    -3831    -3511    -3385    -3375    -3461 
   -3751    -4078    -4109    -3781    -3261    -2695    -2241    -2128 
   -2512    -3235    -3843    -4064    -4066    -4055    -4070    -4079 
   -3955    -3607    -3102    -2478    -1802    -1390    -1485    -1899 
   -2486    -3384    -4328    -4715    -4534    -4191    -3846    -3549 
   -3377    -3377    -3557    -3797    -3940    -3963    -3897    -3744 
   -3501    -3253    -3113    -2936    -2432    -1738    -1456    -1890 
   -2606    -3168    -3645    -4021    -4021    -3589    -2853    -2143 
   -1961    -2404    -3061    -3458    -3400    -3099    -2844    -2702 
   -2789    -3215    -3669    -3765    -3631    -3553    -3596    -3771 
   -4023    -4179    -4122    -3792    -3284    -2930    -2880    -2955 
   -3029    -3126    -3234    -3223    -2947    -2367    -1705    -1447 
   -1890    -2801    -3782    -4469    -4619    -4299    -3727    -3130 
   -2727    -2621    -2875    -3385    -3835    -4144    -4360    -4268 
   -3856    -3516    -3343    -3084    -2732    -2492    -2431    -2565 
   -2781    -2768    -2533    -2430    -2516    -2625    -2841    -3268 
   -3732    -4045    -4171    -4024    -3537    -2943    -2663    -2785 
   -3040    -3388    -3878    -4176    -4024    -3626    -3254    -3028 
   -2976    -3063    -3277    -3673    -4113    -4325    -4191    -3763 
   -3206    -2779    -2602    -2602    -2785    -3069    -3126    -2976 
   -2984    -3168    -3357    -3545    -3701    -3835    -3952    -3802 
   -3314    -2917    -2871    -2984    -3022    -2898    -2747    -2797 
   -3003    -3137    -3148    -3154    -3208    -3265    -3215    -2913 
   -2587    -2694    -3115    -3388    -3370    -3134    -2855    -2721 
   -2687    -2673    -2689    -2772    -3051    -3491    -3742    -3627 
   -3393    -3306    -3349    -3450    -3553    -3435    -3111    -2928 
   -3034    -3361    -3771    -4048    -4190    -4267    -4090    -3654 
   -3231    -2932    -2801    -2974    -3400    -3852    -4131    -4085 
   -3732    -3230    -2717    -2384    -2289    -2219    -2246    -2675 
   -3221    -3415    -3484    -3715    -3856    -3713    -3434    -3134 
   -2940    -3029    -3316    -3546    -3677    -3797    -3892    -3874 
   -3642    -3215    -2835    -2605    -2388    -2219    -2223    -2386 
   -2731    -3204    -3667    -4091    -4280    -3924    -3168    -2502 
   -2273    -2508    -2978    -3411    -3523    -3107    -2425    -2083 
   -2218    -2531    -2918    -3395    -3832    -4147    -4299    -4212 
   -3888    -3545    -3469    -3607    -3593    -3356    -3157    -3138 
   -3194    -3154    -2986    -2911    -3145    -3611    -4071    -4391 
   -4590    -4602    -4233    -3470    -2590    -1998    -1977    -2369 
   -2759    -2916    -2876    -2878    -3009    -3084    -3082    -3051 
   -2953    -3034    -3392    -3599    -3542    -3605    -3882    -4113 
   -4108    -3835    -3435    -3123    -2909    -2635    -2335    -2215 
   -2349    -2758    -3357    -3711    -3516    -2997    -2500    -2307 
   -2482    -2758    -2926    -3042    -3145    -3168    -3129    -3198 
   -3503    -4044    -4633    -4881    -4637    -4168    -3874    -3936 
   -4025    -3757    -3318    -3021    -2867    -2866    -3034    -3265 
   -3389    -3227    -2743    -2176    -1875    -2008    -2478    -3142 
   -3813    -4098    -3796    -3199    -2754    -2679    -2862    -3088 
   -3253    -3300    -3330    -3416    -3296    -2899    -2600    -2559 
   -2683    -2914    -3173    -3402    -3628    -3798    -3798    -3677 
   -3558    -3399    -3127    -2767    -2335    -2012    -2101    -2594 
   -3229    -3732    -3940    -4002    -4105    -4120    -4074    -4185 
   -4251    -3990    -3615    -3273    -2929    -2820    -3029    -3219 
   -3308    -3503    -3753    -3863    -3798    -3613    -3380    -3102 
   -2793    -2694    -2963    -3334    -3534    -3531    -3296    -2940 
   -2824    -2974    -2967    -2745    -2635    -2643    -2586    -2502 
   -2511    -2650    -2851    -3026    -3249    -3550    -3835    -4036 
   -4060    -3870    -3596    -3364    -3226    -3250    -3458    -3739 
   -3873    -3650    -3132    -2704    -2647    -2862    -3198    -3585 
   -3825    -3726    -3306    -2693    -2122    -1872    -1960    -2205 
   -2578    -3103    -3670    -4051    -3998    -3537    -2971    -2581 
   -2516    -2762    -3146    -3566    -3937    -3986    -3546    -2899 
   -2424    -2231    -2374    -2910    -3616    -4126    -4318    -4263 
   -4056    -3883    -3888    -3981    -4067    -4158    -4143    -3870 
   -3418    -3053    -2948    -3015    -3056    -3001    -2925    -2917 
   -2998    -3071    -3037    -2949    -2937    -2999    -3002    -2893 
   -2789    -2832    -3006    -3148    -3199    -3287    -3466    -3597 
   -3493    -3180    -2917    -2922    -3188    -3512    -3645    -3520 
   -3273    -2984    -2704    -2616    -2775    -2874    -2706    -2452 
   -2305    -2344    -2620    -3037    -3393    -3654    -3896    -4024 
   -3916    -3713    -3628    -3700    -3847    -3946    -3947    -3865 
   -3665    -3392    -3200    -3203    -3453    -3821    -4036    -3950 
   -3639    -3271    -3001    -2874    -2824    -2805    -2830    -2891 
   -2951    -3002    -3052    -3025    -2857    -2732    -2832    -3018 
   -3123    -3208    -3353    -3503    -3528    -3439    -3420    -3512 
   -3549    -3470    -3348    -3163    -2918    -2771    -2770    -2810 
   -2960    -3316    -3763    -4091    -4160    -3959    -3573    -3148 
   -2940    -3115    -3514    -3856    -4002    -3879    -3460    -2868 
   -2297    -1934    -1962    -2311    -2587    -2548    -2350    -2220 
   -2207    -2357    -2747    -3230    -3543    -3653    -3643    -3545 
   -3410    -3312    -3284    -3349    -3511    -3717    -3882    -3929 
   -3873    -3808    -3769    -3639    -3365    -3113    -3026    -3030 
   -2988    -2907    -2921    -3145    -3469    -3643    -3570    -3343 
   -3102    -2938    -2876    -2951    -3219    -3616    -3925    -4004 
   -3867    -3580    -3271    -3068    -2971    -2916    -2849    -2786 
