Origin Time       2025/03/30 10:18:00
Lat.              34.667
Long.             140.825
Depth. (km)       69
Mag.              4.9
Station Code      CHBH16
Station Lat.      35.1384
Station Long.     139.9649
Station Height(m) -1842.75
Record Time       2025/03/30 10:18:49
Sampling Freq(Hz) 100Hz
Duration Time(s)  120
Dir.              2
Scale Factor      7845(gal)/8223790
Max. Acc. (gal)   0.294
Last Correction   2025/03/30 10:18:49
Memo.             
[...]
  -13441   -13447   -13437   -13440   -13448   -13440   -13436   -13446 
  -13444   -13437   -13444   -13447   -13437   -13440   -13447   -13437 
  -13436   -13446   -13443   -13436   -13443   -13443   -13436   -13440 
  -13444   -13433   -13439   -13447   -13435   -13432   -13443   -13440 
  -13437   -13448   -13444   -13432   -13437   -13440   -13429   -13428 
  -13437   -13435   -13440   -13460   -13458   -13441   -13439   -13431 
  -13423   -13436   -13447   -13447   -13459   -13468   -13454   -13439 
  -13435   -13423   -13405   -13412   -13429   -13444   -13468   -13493 
  -13479   -13455   -13447   -13431   -13416   -13421   -13424   -13424 
  -13436   -13447   -13448   -13455   -13454   -13432   -13432   -13455 
  -13458   -13452   -13462   -13458   -13428   -13416   -13423   -13413 
  -13409   -13431   -13448   -13455   -13460   -13450   -13428   -13427 
  -13433   -13439   -13458   -13467   -13446   -13436   -13446   -13443 
  -13441   -13459   -13462   -13444   -13441   -13452   -13452   -13444 
  -13429   -13409   -13408   -13435   -13452   -13447   -13441   -13433 
  -13419   -13425   -13444   -13448   -13440   -13437   -13437   -13455 
  -13479   -13471   -13439   -13429   -13441   -13455   -13468   -13466 
  -13433   -13402   -13400   -13409   -13429   -13471   -13497   -13474 
  -13446   -13421   -13387   -13385   -13421   -13447   -13446   -13435 
  -13419   -13429   -13478   -13495   -13459   -13432   -13424   -13417 
  -13444   -13489   -13494   -13466   -13440   -13420   -13410   -13429 
  -13452   -13443   -13419   -13409   -13419   -13447   -13486   -13493 
  -13464   -13433   -13413   -13412   -13433   -13452   -13444   -13433 
  -13433   -13419   -13419   -13467   -13490   -13446   -13409   -13405 
  -13420   -13446   -13454   -13435   -13437   -13467   -13467   -13444 
  -13437   -13427   -13413   -13423   -13435   -13439   -13459   -13477 
  -13454   -13428   -13435   -13448   -13462   -13477   -13466   -13431 
  -13413   -13408   -13404   -13433   -13468   -13441   -13404   -13424 
  -13459   -13471   -13474   -13455   -13414   -13397   -13404   -13419 
  -13448   -13471   -13447   -13406   -13398   -13417   -13448   -13475 
  -13475   -13456   -13444   -13439   -13436   -13443   -13444   -13431 
  -13427   -13433   -13432   -13435   -13462   -13475   -13460   -13454 
  -13446   -13416   -13408   -13444   -13467   -13436   -13413   -13427 
  -13433   -13435   -13437   -13413   -13397   -13427   -13452   -13466 
  -13490   -13497   -13470   -13428   -13390   -13389   -13433   -13471 
  -13463   -13429   -13412   -13414   -13433   -13456   -13466   -13477 
  -13477   -13441   -13414   -13429   -13447   -13444   -13446   -13459 
  -13456   -13448   -13462   -13464   -13441   -13439   -13452   -13458 
  -13466   -13460   -13421   -13387   -13392   -13417   -13444   -13468 
  -13473   -13436   -13397   -13402   -13424   -13428   -13440   -13466 
  -13478   -13463   -13431   -13404   -13398   -13419   -13454   -13479 
  -13475   -13451   -13446   -13463   -13464   -13459   -13463   -13446 
  -13417   -13419   -13436   -13443   -13452   -13456   -13439   -13443 
  -13477   -13459   -13410   -13421   -13443   -13413   -13402   -13433 
  -13431   -13400   -13406   -13443   -13459   -13452   -13446   -13462 
  -13479   -13464   -13446   -13450   -13452   -13446   -13454   -13458 
  -13429   -13412   -13440   -13471   -13470   -13473   -13474   -13440 
  -13408   -13405   -13402   -13397   -13412   -13416   -13408   -13440 
  -13493   -13500   -13494   -13495   -13455   -13397   -13385   -13416 
  -13460   -13498   -13491   -13433   -13400   -13416   -13420   -13401 
  -13413   -13450   -13466   -13451   -13420   -13412   -13444   -13464 
  -13436   -13412   -13428   -13451   -13460   -13451   -13432   -13436 
  -13455   -13456   -13446   -13441   -13437   -13424   -13425   -13448 
  -13448   -13447   -13479   -13473   -13408   -13377   -13406   -13446 
  -13467   -13456   -13416   -13402   -13431   -13448   -13441   -13427 
  -13404   -13401   -13443   -13482   -13490   -13495   -13493   -13475 
  -13455   -13432   -13417   -13432   -13458   -13471   -13466   -13451 
  -13424   -13402   -13427   -13462   -13447   -13429   -13450   -13456 
  -13446   -13459   -13475   -13450   -13405   -13392   -13410   -13443 
  -13463   -13452   -13446   -13474   -13478   -13440   -13412   -13412 
  -13424   -13450   -13471   -13448   -13400   -13383   -13397   -13409 
  -13421   -13424   -13423   -13433   -13420   -13392   -13413   -13448 
  -13460   -13477   -13479   -13458   -13477   -13521   -13495   -13432 
  -13421   -13440   -13455   -13491   -13525   -13494   -13439   -13440 
  -13456   -13435   -13405   -13392   -13398   -13439   -13481   -13470 
  -13410   -13382   -13409   -13441   -13446   -13416   -13396   -13441 
  -13504   -13501   -13459   -13424   -13400   -13401   -13425   -13446 
  -13460   -13468   -13454   -13429   -13435   -13454   -13440   -13421 
  -13428   -13427   -13421   -13444   -13452   -13424   -13417   -13433 
  -13429   -13437   -13463   -13462   -13441   -13435   -13446   -13448 
  -13432   -13435   -13466   -13481   -13456   -13437   -13458   -13479 
  -13458   -13427   -13424   -13421   -13404   -13397   -13416   -13435 
  -13441   -13435   -13406   -13382   -13386   -13408   -13448   -13485 
  -13475   -13454   -13448   -13440   -13433   -13437   -13435   -13441 
  -13470   -13497   -13501   -13477   -13436   -13417   -13437   -13468 
  -13464   -13436   -13433   -13468   -13485   -13448   -13400   -13389 
  -13400   -13390   -13375   -13394   -13458   -13501   -13485   -13467 
  -13478   -13468   -13447   -13443   -13443   -13443   -13443   -13431 
  -13408   -13404   -13425   -13421   -13401   -13406   -13419   -13423 
  -13435   -13446   -13456   -13464   -13447   -13427   -13447   -13486 
  -13485   -13462   -13463   -13462   -13427   -13401   -13413   -13427 
  -13435   -13452   -13464   -13474   -13473   -13451   -13440   -13454 
  -13459   -13451   -13446   -13431   -13410   -13416   -13459   -13491 
  -13474   -13452   -13443   -13424   -13412   -13421   -13432   -13446 
  -13459   -13444   -13406   -13386   -13385   -13397   -13432   -13460 
  -13478   -13510   -13520   -13481   -13440   -13432   -13446   -13460 
  -13459   -13440   -13417   -13416   -13435   -13450   -13466   -13477 
  -13468   -13446   -13427   -13419   -13417   -13405   -13390   -13397 
  -13424   -13450   -13458   -13458   -13456   -13435   -13421   -13435 
  -13428   -13401   -13406   -13433   -13448   -13452   -13437   -13421 
  -13436   -13458   -13471   -13501   -13510   -13468   -13432   -13436 
  -13432   -13414   -13423   -13448   -13456   -13456   -13468   -13456 
  -13421   -13420   -13447   -13460   -13459   -13452   -13441   -13450 
  -13474   -13464   -13420   -13389   -13397   -13420   -13441   -13456 
  -13454   -13447   -13452   -13458   -13456   -13452   -13446   -13441 
  -13450   -13448   -13423   -13410   -13423   -13429   -13427   -13435 
  -13435   -13431   -13452   -13467   -13448   -13443   -13454   -13431 
  -13393   -13386   -13412   -13456   -13486   -13486   -13500   -13521 
  -13489   -13435   -13428   -13437   -13423   -13404   -13402   -13404 
  -13394   -13393   -13406   -13416   -13423   -13429   -13424   -13427 
  -13437   -13435   -13432   -13437   -13454   -13474   -13470   -13437 
  -13423   -13446   -13471   -13483   -13495   -13510   -13510   -13497 
  -13486   -13470   -13454   -13451   -13447   -13435   -13425   -13435 
  -13446   -13441   -13429   -13414   -13400   -13419   -13451   -13443 
  -13416   -13412   -13421   -13432   -13436   -13410   -13390   -13410 
  -13424   -13414   -13423   -13432   -13424   -13436   -13450   -13455 
  -13477   -13486   -13473   -13483   -13498   -13478   -13451   -13437 
  -13437   -13446   -13452   -13452   -13431   -13404   -13412   -13439 
  -13441   -13437   -13441   -13440   -13447   -13458   -13440   -13416 
  -13412   -13401   -13393   -13412   -13428   -13435   -13444   -13429 
  -13410   -13420   -13423   -13408   -13423   -13451   -13458   -13464 
  -13464   -13441   -13425   -13427   -13429   -13439   -13462   -13475 
  -13479   -13487   -13489   -13481   -13470   -13450   -13425   -13417 
  -13427   -13441   -13446   -13452   -13459   -13447   -13443   -13458 
  -13451   -13431   -13436   -13448   -13429   -13408   -13424   -13446 
  -13440   -13427   -13413   -13414   -13436   -13440   -13424   -13437 
  -13462   -13464   -13466   -13460   -13432   -13413   -13423   -13432 
  -13427   -13417   -13413   -13437   -13486   -13505   -13485   -13470 
  -13473   -13462   -13443   -13427   -13414   -13409   -13412   -13409 
  -13409   -13436   -13466   -13462   -13452   -13459   -13463   -13473 
  -13490   -13479   -13448   -13439   -13451   -13447   -13435   -13428 
  -13414   -13405   -13424   -13443   -13444   -13454   -13458   -13444 
  -13439   -13432   -13414   -13414   -13429   -13429   -13427   -13448 
  -13464   -13456   -13463   -13477   -13456   -13433   -13437   -13437 
  -13433   -13439   -13439   -13429   -13432   -13436   -13428   -13436 
  -13451   -13435   -13413   -13416   -13417   -13425   -13459   -13475 
  -13454   -13431   -13423   -13429   -13454   -13460   -13431   -13408 
  -13410   -13413   -13423   -13441   -13437   -13420   -13431   -13446 
  -13432   -13416   -13416   -13425   -13455   -13487   -13485   -13473 
  -13477   -13467   -13441   -13431   -13432   -13435   -13454   -13478 
  -13473   -13454   -13446   -13433   -13423   -13436   -13446   -13429 
  -13431   -13456   -13460   -13448   -13450   -13450   -13441   -13435 
  -13429   -13421   -13423   -13420   -13405   -13413   -13454   -13479 
  -13481   -13477   -13454   -13419   -13408   -13409   -13413   -13428 
  -13436   -13439   -13462   -13483   -13471   -13451   -13443   -13420 
  -13394   -13406   -13433   -13441   -13447   -13451   -13447   -13458 
  -13474   -13460   -13433   -13421   -13421   -13429   -13441   -13443 
  -13437   -13456   -13478   -13466   -13456   -13470   -13473   -13464 
  -13459   -13439   -13416   -13409   -13413   -13414   -13429   -13466 
  -13491   -13489   -13474   -13447   -13424   -13424   -13427   -13410 
  -13412   -13444   -13456   -13448   -13456   -13456   -13443   -13451 
  -13470   -13470   -13477   -13494   -13490   -13470   -13463   -13452 
  -13417   -13400   -13414   -13424   -13421   -13428   -13427   -13410 
  -13408   -13405   -13379   -13374   -13393   -13409   -13436   -13460 
  -13462   -13468   -13471   -13448   -13432   -13424   -13389   -13363 
  -13378   -13400   -13424   -13452   -13462   -13463   -13466   -13433 
  -13400   -13409   -13427   -13439   -13463   -13485   -13487   -13493 
  -13495   -13475   -13441   -13423   -13425   -13447   -13485   -13504 
  -13467   -13409   -13382   -13392   -13417   -13440   -13447   -13444 
  -13455   -13462   -13444   -13433   -13439   -13444   -13464   -13491 
  -13487   -13481   -13504   -13520   -13498   -13464   -13451   -13443 
  -13424   -13402   -13390   -13379   -13394   -13437   -13456   -13451 
  -13459   -13452   -13427   -13424   -13425   -13412   -13408   -13406 
  -13390   -13375   -13379   -13387   -13396   -13406   -13410   -13414 
  -13414   -13409   -13423   -13437   -13428   -13412   -13387   -13374 
  -13398   -13431   -13456   -13506   -13539   -13520   -13487   -13462 
  -13435   -13409   -13405   -13423   -13440   -13455   -13452   -13417 
  -13400   -13423   -13435   -13454   -13502   -13525   -13516   -13513 
  -13506   -13467   -13412   -13375   -13354   -13335   -13336   -13359 
  -13374   -13371   -13366   -13366   -13377   -13396   -13432   -13489 
  -13543   -13593   -13624   -13606   -13582   -13578   -13552   -13506 
  -13471   -13451   -13436   -13432   -13423   -13389   -13363   -13366 
  -13379   -13413   -13463   -13490   -13497   -13498   -13479   -13446 
  -13413   -13379   -13359   -13351   -13327   -13308   -13324   -13355 
  -13389   -13448   -13509   -13535   -13543   -13545   -13558   -13594 
  -13624   -13614   -13563   -13506   -13471   -13448   -13424   -13400 
  -13393   -13396   -13383   -13381   -13400   -13412   -13419   -13433 
  -13437   -13433   -13413   -13374   -13369   -13406   -13433   -13451 
  -13470   -13463   -13440   -13423   -13425   -13451   -13466   -13443 
  -13412   -13392   -13379   -13382   -13402   -13420   -13427   -13436 
  -13446   -13460   -13506   -13537   -13521   -13500   -13477   -13436 
  -13404   -13390   -13394   -13412   -13435   -13451   -13435   -13398 
  -13373   -13351   -13355   -13387   -13398   -13394   -13400   -13401 
  -13404   -13414   -13424   -13450   -13485   -13517   -13570   -13613 
  -13603   -13568   -13540   -13516   -13516   -13522   -13489   -13454 
  -13475   -13506   -13510   -13497   -13477   -13471   -13485   -13508 
  -13524   -13506   -13463   -13433   -13420   -13400   -13381   -13373 
  -13359   -13343   -13347   -13344   -13320   -13311   -13312   -13324 
  -13360   -13382   -13378   -13392   -13425   -13458   -13485   -13506 
  -13498   -13482   -13501   -13517   -13517   -13543   -13575   -13578 
  -13537   -13477   -13435   -13414   -13389   -13365   -13360   -13356 
  -13338   -13332   -13346   -13350   -13352   -13355   -13339   -13325 
  -13359   -13440   -13513   -13543   -13537   -13500   -13447   -13431 
  -13455   -13486   -13504   -13509   -13509   -13505   -13513   -13529 
  -13533   -13528   -13508   -13471   -13428   -13382   -13328   -13278 
  -13234   -13194   -13174   -13171   -13177   -13207   -13267   -13331 
  -13394   -13474   -13567   -13652   -13718   -13749   -13740   -13718 
  -13699   -13672   -13647   -13616   -13564   -13510   -13471   -13444 
  -13432   -13408   -13359   -13320   -13292   -13269   -13281   -13319 
  -13355   -13386   -13390   -13367   -13346   -13348   -13356   -13358 
  -13369   -13398   -13429   -13444   -13436   -13414   -13387   -13381 
  -13412   -13444   -13466   -13493   -13505   -13522   -13567   -13582 
  -13541   -13490   -13443   -13398   -13370   -13358   -13355   -13362 
  -13367   -13382   -13414   -13464   -13525   -13576   -13608   -13620 
  -13590   -13517   -13429   -13365   -13350   -13360   -13362   -13358 
  -13378   -13432   -13493   -13524   -13536   -13564   -13586   -13575 
  -13549   -13504   -13433   -13369   -13323   -13302   -13300   -13281 
  -13258   -13267   -13305   -13371   -13443   -13495   -13533   -13567 
  -13579   -13547   -13483   -13429   -13392   -13365   -13350   -13358 
  -13394   -13447   -13517   -13587   -13622   -13639   -13647   -13628 
  -13566   -13491   -13451   -13444   -13436   -13413   -13371   -13325 
  -13301   -13298   -13312   -13331   -13342   -13352   -13371   -13417 
  -13495   -13581   -13652   -13687   -13683   -13645   -13574   -13510 
  -13481   -13452   -13400   -13343   -13320   -13315   -13306   -13302 
  -13315   -13339   -13373   -13420   -13474   -13509   -13524   -13510 
  -13451   -13398   -13386   -13381   -13383   -13404   -13421   -13444 
  -13493   -13531   -13527   -13518   -13510   -13474   -13439   -13428 
  -13419   -13405   -13392   -13385   -13385   -13404   -13439   -13466 
  -13486   -13510   -13514   -13501   -13501   -13497   -13468   -13436 
  -13424   -13432   -13437   -13424   -13396   -13360   -13336   -13329 
  -13320   -13315   -13332   -13352   -13374   -13400   -13400   -13375 
  -13375   -13419   -13474   -13508   -13516   -13494   -13462   -13454 
  -13455   -13450   -13464   -13489   -13502   -13516   -13547   -13571 
  -13555   -13522   -13505   -13495   -13485   -13467   -13448   -13444 
  -13437   -13405   -13385   -13389   -13390   -13397   -13435   -13475 
  -13501   -13520   -13528   -13529   -13531   -13521   -13497   -13466 
  -13432   -13397   -13352   -13313   -13300   -13313   -13347   -13381 
  -13389   -13393   -13408   -13410   -13397   -13374   -13350   -13351 
  -13382   -13428   -13490   -13540   -13567   -13555   -13487   -13419 
  -13392   -13386   -13401   -13437   -13462   -13451   -13413   -13370 
  -13340   -13354   -13397   -13417   -13417   -13429   -13441   -13456 
  -13479   -13486   -13483   -13481   -13463   -13462   -13487   -13498 
  -13473   -13440   -13431   -13431   -13420   -13401   -13385   -13375 
  -13398   -13440   -13463   -13473   -13485   -13483   -13490   -13518 
  -13522   -13487   -13452   -13431   -13412   -13404   -13416   -13420 
  -13402   -13398   -13414   -13420   -13424   -13439   -13450   -13464 
  -13474   -13458   -13440   -13432   -13406   -13378   -13379   -13397 
  -13410   -13427   -13444   -13463   -13502   -13518   -13498   -13498 
  -13514   -13510   -13509   -13521   -13533   -13536   -13532   -13535 
  -13533   -13506   -13456   -13416   -13405   -13408   -13401   -13396 
  -13392   -13360   -13324   -13323   -13346   -13382   -13429   -13471 
  -13494   -13495   -13489   -13495   -13493   -13471   -13467   -13477 
  -13483   -13502   -13536   -13551   -13525   -13475   -13432   -13394 
  -13354   -13316   -13290   -13285   -13296   -13317   -13339   -13356 
  -13366   -13365   -13360   -13367   -13383   -13386   -13359   -13321 
  -13297   -13297   -13327   -13363   -13396   -13423   -13446   -13462 
  -13467   -13490   -13533   -13560   -13568   -13570   -13562   -13559 
  -13560   -13548   -13520   -13510   -13528   -13547   -13566   -13574 
  -13545   -13497   -13454   -13432   -13425   -13427   -13448   -13489 
  -13520   -13520   -13509   -13500   -13479   -13458   -13455   -13462 
  -13462   -13464   -13468   -13456   -13423   -13397   -13378   -13332 
  -13281   -13265   -13270   -13285   -13312   -13342   -13370   -13405 
  -13450   -13498   -13525   -13518   -13487   -13467   -13479   -13491 
  -13490   -13493   -13489   -13462   -13429   -13424   -13432   -13436 
  -13460   -13502   -13514   -13500   -13494   -13498   -13494   -13483 
  -13460   -13416   -13363   -13329   -13321   -13325   -13350   -13387 
  -13416   -13431   -13437   -13420   -13394   -13375   -13363   -13374 
  -13386   -13381   -13381   -13383   -13393   -13416   -13428   -13429 
  -13432   -13435   -13448   -13458   -13450   -13451   -13450   -13427 
  -13416   -13431   -13455   -13490   -13528   -13547   -13540   -13531 
  -13517   -13495   -13471   -13446   -13427   -13417   -13409   -13414 
  -13437   -13462   -13498   -13535   -13529   -13500   -13487   -13485 
  -13471   -13458   -13458   -13468   -13473   -13473   -13483   -13474 
  -13435   -13409   -13405   -13398   -13394   -13402   -13402   -13386 
  -13377   -13373   -13358   -13348   -13352   -13381   -13435   -13486 
  -13522   -13535   -13508   -13482   -13474   -13452   -13424   -13409 
  -13409   -13416   -13436   -13462   -13470   -13459   -13440   -13394 
  -13348   -13343   -13360   -13367   -13373   -13389   -13417   -13450 
  -13467   -13485   -13510   -13516   -13513   -13517   -13498   -13467 
  -13454   -13458   -13458   -13440   -13428   -13437   -13447   -13443 
  -13436   -13424   -13417   -13432   -13444   -13450   -13481   -13512 
  -13504   -13487   -13489   -13485   -13471   -13464   -13466   -13459 
  -13440   -13428   -13410   -13382   -13375   -13386   -13387   -13393 
  -13404   -13390   -13366   -13363   -13369   -13381   -13402   -13421 
  -13440   -13454   -13455   -13463   -13466   -13455   -13452   -13450 
  -13450   -13475   -13498   -13485   -13466   -13470   -13481   -13481 
  -13481   -13490   -13495   -13491   -13487   -13490   -13486   -13475 
