Origin Time       2025/03/30 10:18:00
Lat.              34.667
Long.             140.825
Depth. (km)       69
Mag.              4.9
Station Code      CHBH19
Station Lat.      35.5943
Station Long.     140.5107
Station Height(m) 1
Record Time       2025/03/30 10:19:03
Sampling Freq(Hz) 100Hz
Duration Time(s)  120
Dir.              5
Scale Factor      7845(gal)/8223790
Max. Acc. (gal)   1.044
Last Correction   2025/03/30 10:19:03
Memo.             
[...]
   -2432    -2435    -2512    -2597    -2641    -2662    -2655    -2602 
   -2554    -2571    -2617    -2620    -2601    -2620    -2644    -2655 
   -2655    -2617    -2556    -2515    -2509    -2532    -2559    -2598 
   -2682    -2748    -2741    -2743    -2787    -2785    -2694    -2581 
   -2519    -2470    -2411    -2434    -2542    -2625    -2674    -2743 
   -2816    -2822    -2727    -2598    -2532    -2544    -2569    -2567 
   -2574    -2593    -2608    -2639    -2667    -2656    -2656    -2690 
   -2701    -2667    -2629    -2637    -2663    -2659    -2637    -2605 
   -2525    -2444    -2454    -2547    -2635    -2666    -2660    -2646 
   -2628    -2610    -2602    -2610    -2644    -2673    -2655    -2613 
   -2592    -2606    -2637    -2627    -2592    -2597    -2637    -2698 
   -2766    -2747    -2601    -2451    -2407    -2452    -2517    -2551 
   -2581    -2646    -2721    -2755    -2731    -2679    -2650    -2651 
   -2670    -2682    -2667    -2632    -2609    -2605    -2592    -2570 
   -2577    -2590    -2574    -2558    -2577    -2605    -2613    -2628 
   -2671    -2698    -2668    -2619    -2602    -2614    -2637    -2656 
   -2658    -2660    -2656    -2617    -2581    -2609    -2686    -2737 
   -2721    -2675    -2614    -2513    -2428    -2448    -2559    -2635 
   -2597    -2529    -2525    -2567    -2652    -2755    -2781    -2733 
   -2694    -2650    -2578    -2542    -2563    -2600    -2639    -2674 
   -2679    -2658    -2644    -2655    -2641    -2569    -2473    -2411 
   -2443    -2590    -2760    -2832    -2808    -2760    -2705    -2651 
   -2652    -2710    -2717    -2612    -2512    -2517    -2577    -2610 
   -2592    -2571    -2581    -2536    -2447    -2448    -2533    -2623 
   -2704    -2744    -2686    -2593    -2604    -2700    -2724    -2613 
   -2470    -2435    -2543    -2709    -2806    -2793    -2700    -2598 
   -2559    -2569    -2585    -2614    -2659    -2702    -2735    -2732 
   -2668    -2577    -2531    -2550    -2578    -2570    -2531    -2508 
   -2531    -2582    -2616    -2594    -2555    -2609    -2736    -2799 
   -2782    -2745    -2704    -2674    -2678    -2679    -2644    -2583 
   -2509    -2478    -2539    -2635    -2681    -2683    -2690    -2706 
   -2670    -2560    -2482    -2505    -2596    -2679    -2664    -2558 
   -2508    -2582    -2677    -2691    -2651    -2644    -2678    -2678 
   -2641    -2612    -2604    -2612    -2612    -2602    -2602    -2598 
   -2570    -2532    -2504    -2500    -2531    -2582    -2635    -2685 
   -2729    -2779    -2830    -2841    -2785    -2670    -2569    -2532 
   -2515    -2508    -2531    -2528    -2496    -2490    -2502    -2512 
   -2556    -2647    -2724    -2762    -2789    -2790    -2705    -2556 
   -2481    -2531    -2609    -2639    -2614    -2558    -2546    -2577 
   -2609    -2654    -2682    -2687    -2698    -2693    -2679    -2670 
   -2640    -2616    -2619    -2619    -2624    -2646    -2647    -2608 
   -2566    -2558    -2570    -2556    -2547    -2632    -2767    -2813 
   -2756    -2668    -2604    -2578    -2569    -2550    -2538    -2577 
   -2652    -2690    -2675    -2667    -2670    -2628    -2552    -2501 
   -2506    -2560    -2614    -2643    -2650    -2628    -2601    -2562 
   -2506    -2512    -2598    -2674    -2694    -2678    -2666    -2686 
   -2693    -2651    -2644    -2698    -2740    -2759    -2748    -2681 
   -2596    -2531    -2486    -2469    -2462    -2496    -2569    -2571 
   -2497    -2482    -2552    -2613    -2637    -2662    -2667    -2604 
   -2540    -2577    -2668    -2733    -2759    -2758    -2751    -2759 
   -2763    -2721    -2636    -2582    -2578    -2566    -2538    -2520 
   -2540    -2605    -2659    -2650    -2594    -2565    -2610    -2664 
   -2664    -2629    -2609    -2636    -2690    -2720    -2722    -2689 
   -2623    -2560    -2493    -2454    -2509    -2592    -2632    -2641 
   -2583    -2485    -2455    -2506    -2589    -2677    -2771    -2820 
   -2728    -2590    -2589    -2678    -2720    -2693    -2621    -2547 
   -2519    -2529    -2547    -2570    -2629    -2693    -2677    -2627 
   -2659    -2760    -2826    -2821    -2787    -2741    -2641    -2489 
   -2378    -2377    -2461    -2551    -2558    -2488    -2442    -2452 
   -2496    -2563    -2627    -2647    -2654    -2698    -2768    -2824 
   -2853    -2847    -2797    -2741    -2667    -2533    -2427    -2448 
   -2565    -2673    -2697    -2651    -2593    -2556    -2570    -2632 
   -2667    -2656    -2651    -2625    -2579    -2578    -2617    -2654 
   -2662    -2632    -2587    -2562    -2590    -2670    -2716    -2666 
   -2590    -2546    -2509    -2493    -2532    -2620    -2706    -2735 
   -2722    -2733    -2767    -2798    -2801    -2735    -2640    -2593 
   -2560    -2508    -2488    -2542    -2606    -2609    -2528    -2412 
   -2378    -2493    -2660    -2758    -2754    -2687    -2641    -2681 
   -2751    -2743    -2656    -2546    -2435    -2393    -2454    -2546 
   -2648    -2736    -2741    -2702    -2695    -2697    -2674    -2641 
   -2614    -2600    -2566    -2489    -2427    -2436    -2504    -2592 
   -2663    -2681    -2655    -2633    -2640    -2635    -2606    -2620 
   -2668    -2686    -2702    -2736    -2735    -2698    -2697    -2763 
   -2810    -2744    -2570    -2404    -2381    -2521    -2709    -2821 
   -2839    -2822    -2786    -2700    -2575    -2463    -2430    -2481 
   -2538    -2552    -2552    -2589    -2686    -2790    -2775    -2617 
   -2474    -2438    -2434    -2438    -2501    -2604    -2670    -2679 
   -2670    -2687    -2721    -2694    -2577    -2458    -2427    -2457 
   -2486    -2547    -2651    -2710    -2679    -2610    -2583    -2616 
   -2636    -2614    -2606    -2629    -2637    -2617    -2613    -2662 
   -2751    -2835    -2870    -2808    -2682    -2619    -2632    -2644 
   -2651    -2673    -2700    -2717    -2691    -2621    -2540    -2486 
   -2484    -2490    -2469    -2474    -2517    -2574    -2674    -2793 
   -2843    -2818    -2755    -2674    -2586    -2517    -2512    -2556 
   -2594    -2624    -2675    -2721    -2706    -2656    -2633    -2590 
   -2477    -2389    -2392    -2436    -2492    -2562    -2620    -2623 
   -2567    -2554    -2656    -2774    -2785    -2705    -2620    -2573 
   -2551    -2519    -2479    -2506    -2640    -2812    -2903    -2880 
   -2799    -2671    -2497    -2378    -2385    -2440    -2481    -2536 
   -2635    -2762    -2848    -2820    -2712    -2604    -2501    -2409 
   -2393    -2474    -2602    -2714    -2749    -2724    -2671    -2592 
   -2544    -2596    -2701    -2816    -2921    -2957    -2903    -2820 
   -2752    -2705    -2685    -2681    -2643    -2535    -2405    -2359 
   -2404    -2447    -2435    -2409    -2463    -2597    -2702    -2718 
   -2673    -2637    -2656    -2668    -2612    -2520    -2477    -2524 
   -2605    -2639    -2605    -2542    -2489    -2473    -2497    -2544 
   -2581    -2587    -2590    -2627    -2667    -2685    -2706    -2749 
   -2790    -2798    -2775    -2740    -2700    -2660    -2610    -2556 
   -2544    -2589    -2656    -2698    -2700    -2693    -2710    -2724 
   -2693    -2650    -2625    -2601    -2592    -2605    -2587    -2546 
   -2570    -2643    -2668    -2654    -2647    -2652    -2643    -2624 
   -2646    -2687    -2687    -2675    -2687    -2689    -2648    -2579 
   -2512    -2465    -2431    -2411    -2407    -2394    -2394    -2457 
   -2551    -2613    -2650    -2701    -2760    -2775    -2721    -2624 
   -2516    -2448    -2475    -2587    -2713    -2787    -2816    -2829 
   -2802    -2710    -2605    -2521    -2424    -2350    -2382    -2513 
   -2664    -2775    -2821    -2818    -2787    -2756    -2736    -2722 
   -2728    -2722    -2667    -2596    -2560    -2583    -2650    -2710 
   -2749    -2745    -2654    -2506    -2397    -2390    -2458    -2527 
   -2589    -2678    -2762    -2794    -2759    -2671    -2578    -2512 
   -2478    -2481    -2523    -2578    -2631    -2693    -2744    -2744 
   -2708    -2644    -2540    -2458    -2462    -2513    -2555    -2598 
   -2673    -2728    -2708    -2658    -2616    -2544    -2490    -2538 
   -2629    -2641    -2606    -2633    -2700    -2714    -2683    -2655 
   -2633    -2604    -2563    -2528    -2542    -2579    -2585    -2583 
   -2616    -2648    -2685    -2736    -2768    -2806    -2876    -2914 
   -2856    -2709    -2563    -2509    -2527    -2558    -2556    -2505 
   -2454    -2451    -2489    -2525    -2528    -2512    -2538    -2616 
   -2706    -2781    -2812    -2795    -2741    -2641    -2529    -2435 
   -2347    -2307    -2349    -2442    -2552    -2637    -2655    -2628 
   -2589    -2556    -2547    -2585    -2674    -2733    -2694    -2597 
   -2516    -2475    -2481    -2523    -2535    -2462    -2359    -2316 
   -2346    -2400    -2444    -2520    -2647    -2779    -2889    -2947 
   -2936    -2886    -2809    -2710    -2654    -2655    -2635    -2587 
   -2594    -2660    -2682    -2609    -2505    -2428    -2401    -2440 
   -2508    -2533    -2502    -2478    -2523    -2643    -2786    -2876 
   -2895    -2889    -2866    -2855    -2883    -2922    -2921    -2860 
   -2801    -2793    -2795    -2771    -2697    -2540    -2380    -2320 
   -2316    -2297    -2286    -2330    -2430    -2517    -2551    -2573 
   -2608    -2641    -2664    -2682    -2720    -2787    -2857    -2884 
   -2843    -2787    -2767    -2720    -2598    -2485    -2458    -2523 
   -2678    -2895    -3082    -3165    -3152    -3084    -3021    -3002 
   -3014    -3005    -2952    -2875    -2790    -2686    -2566    -2430 
   -2268    -2116    -2042    -2042    -2076    -2133    -2216    -2328 
   -2420    -2447    -2454    -2504    -2600    -2717    -2817    -2859 
   -2845    -2812    -2806    -2840    -2855    -2828    -2789    -2740 
   -2702    -2718    -2748    -2687    -2520    -2335    -2203    -2118 
   -2066    -2080    -2165    -2288    -2427    -2540    -2613    -2679 
   -2731    -2727    -2673    -2602    -2573    -2612    -2666    -2691 
   -2708    -2718    -2705    -2700    -2751    -2825    -2830    -2763 
   -2705    -2713    -2794    -2916    -2998    -3017    -3007    -2968 
   -2871    -2736    -2633    -2641    -2735    -2799    -2809    -2803 
   -2771    -2667    -2478    -2230    -2006    -1907    -1966    -2137 
   -2317    -2415    -2438    -2458    -2492    -2535    -2596    -2668 
   -2732    -2770    -2803    -2848    -2844    -2741    -2600    -2543 
   -2621    -2766    -2866    -2862    -2756    -2555    -2262    -1949 
   -1734    -1696    -1871    -2246    -2710    -3096    -3300    -3296 
   -3088    -2729    -2301    -1895    -1632    -1649    -1961    -2428 
   -2894    -3229    -3345    -3268    -3068    -2778    -2484    -2315 
   -2327    -2486    -2713    -2913    -3024    -3053    -3014    -2894 
   -2783    -2808    -2929    -3014    -3021    -2983    -2887    -2714 
   -2536    -2446    -2439    -2440    -2373    -2236    -2141    -2168 
   -2289    -2396    -2416    -2420    -2473    -2546    -2632    -2772 
   -2961    -3111    -3079    -2840    -2546    -2343    -2301    -2411 
   -2582    -2758    -2914    -3026    -3083    -3037    -2849    -2575 
   -2315    -2166    -2176    -2270    -2371    -2509    -2708    -2932 
   -3107    -3122    -2960    -2747    -2620    -2605    -2648    -2697 
   -2709    -2695    -2733    -2839    -2938    -2961    -2874    -2695 
   -2458    -2187    -1956    -1871    -1996    -2266    -2505    -2614 
   -2639    -2640    -2627    -2586    -2513    -2417    -2290    -2147 
   -2084    -2215    -2552    -2953    -3245    -3361    -3321    -3194 
   -3055    -2901    -2718    -2562    -2474    -2478    -2563    -2685 
   -2805    -2868    -2849    -2795    -2682    -2486    -2319    -2313 
   -2458    -2628    -2724    -2754    -2760    -2736    -2675    -2578 
   -2446    -2350    -2339    -2370    -2390    -2407    -2465    -2617 
   -2828    -2957    -2907    -2731    -2504    -2231    -1973    -1858 
   -1919    -2101    -2334    -2563    -2766    -2898    -2909    -2812 
   -2673    -2551    -2489    -2508    -2604    -2720    -2816    -2924 
   -3088    -3287    -3424    -3381    -3100    -2674    -2312    -2187 
   -2307    -2555    -2817    -3038    -3146    -3103    -2999    -2911 
   -2812    -2643    -2389    -2115    -1892    -1741    -1706    -1852 
   -2176    -2571    -2890    -3046    -3046    -2929    -2731    -2494 
   -2258    -2084    -2033    -2120    -2330    -2592    -2870    -3132 
   -3256    -3221    -3142    -3056    -2956    -2857    -2714    -2538 
   -2432    -2466    -2625    -2830    -2965    -2983    -2924    -2817 
   -2660    -2485    -2397    -2488    -2687    -2848    -2913    -2860 
   -2686    -2455    -2257    -2107    -2015    -2043    -2223    -2467 
   -2655    -2748    -2775    -2767    -2744    -2678    -2521    -2308 
   -2131    -2058    -2107    -2263    -2533    -2828    -2988    -3003 
   -2988    -3002    -3048    -3091    -3051    -2841    -2533    -2323 
   -2296    -2408    -2604    -2795    -2891    -2871    -2759    -2587 
   -2409    -2301    -2296    -2319    -2312    -2344    -2488    -2717 
   -2945    -3083    -3129    -3114    -3034    -2894    -2677    -2401 
   -2177    -2130    -2305    -2585    -2775    -2868    -2944    -2932 
   -2752    -2474    -2193    -1971    -1872    -1966    -2230    -2515 
   -2698    -2772    -2743    -2624    -2489    -2409    -2430    -2602 
   -2916    -3275    -3564    -3705    -3715    -3620    -3418    -3122 
   -2760    -2355    -1981    -1710    -1590    -1645    -1845    -2128 
   -2384    -2463    -2350    -2224    -2245    -2416    -2651    -2835 
   -2887    -2820    -2674    -2470    -2299    -2263    -2367    -2554 
   -2759    -2910    -2990    -2982    -2836    -2563    -2286    -2137 
   -2173    -2388    -2740    -3152    -3478    -3581    -3447    -3202 
   -2970    -2799    -2693    -2639    -2605    -2586    -2621    -2679 
   -2660    -2494    -2189    -1875    -1726    -1821    -2092    -2411 
   -2697    -2914    -3013    -2959    -2805    -2678    -2679    -2783 
   -2868    -2856    -2789    -2740    -2712    -2662    -2587    -2520 
   -2484    -2498    -2567    -2655    -2705    -2652    -2440    -2146 
   -1945    -1908    -2008    -2212    -2457    -2658    -2744    -2701 
   -2620    -2609    -2675    -2770    -2856    -2929    -2991    -3040 
   -3090    -3187    -3319    -3369    -3264    -3064    -2841    -2656 
   -2554    -2481    -2374    -2297    -2336    -2405    -2382    -2309 
   -2295    -2382    -2504    -2558    -2552    -2562    -2600    -2621 
   -2592    -2519    -2421    -2317    -2223    -2164    -2169    -2212 
   -2262    -2344    -2502    -2752    -3026    -3191    -3221    -3176 
   -3090    -2970    -2829    -2700    -2637    -2710    -2906    -3079 
   -3088    -2930    -2686    -2470    -2355    -2284    -2209    -2196 
   -2257    -2351    -2490    -2667    -2844    -2991    -3071    -3021 
   -2845    -2650    -2552    -2589    -2695    -2798    -2844    -2803 
   -2704    -2577    -2452    -2409    -2471    -2542    -2554    -2558 
   -2604    -2646    -2620    -2570    -2581    -2655    -2729    -2758 
   -2732    -2646    -2513    -2357    -2177    -1996    -1911    -2007 
   -2259    -2558    -2809    -2978    -3100    -3213    -3280    -3262 
   -3133    -2906    -2647    -2381    -2161    -2083    -2169    -2342 
   -2519    -2652    -2717    -2681    -2565    -2459    -2408    -2384 
   -2394    -2450    -2509    -2610    -2810    -2999    -3030    -2893 
   -2659    -2416    -2195    -1999    -1917    -2011    -2209    -2411 
   -2602    -2764    -2848    -2878    -2905    -2911    -2856    -2752 
   -2674    -2673    -2736    -2840    -2932    -2964    -2924    -2832 
   -2759    -2745    -2744    -2766    -2862    -2982    -3030    -2952 
   -2767    -2577    -2473    -2467    -2498    -2478    -2393    -2317 
   -2312    -2358    -2412    -2475    -2579    -2690    -2701    -2594 
   -2474    -2431    -2493    -2637    -2783    -2852    -2833    -2760 
   -2674    -2582    -2471    -2347    -2215    -2095    -2031    -2029 
   -2052    -2107    -2216    -2381    -2565    -2717    -2835    -2913 
   -2928    -2920    -2944    -2986    -2988    -2932    -2866    -2874 
   -2991    -3146    -3229    -3187    -3038    -2847    -2666    -2490 
   -2323    -2219    -2246    -2427    -2681    -2884    -2990    -3003 
   -2948    -2839    -2679    -2532    -2493    -2551    -2596    -2571 
   -2500    -2432    -2436    -2517    -2594    -2612    -2598    -2602 
   -2610    -2583    -2543    -2515    -2512    -2529    -2544    -2558 
   -2566    -2559    -2560    -2567    -2546    -2515    -2493    -2512 
   -2608    -2744    -2849    -2875    -2806    -2683    -2546    -2394 
   -2269    -2263    -2396    -2560    -2664    -2716    -2760    -2810 
   -2849    -2870    -2880    -2886    -2863    -2799    -2728    -2671 
   -2606    -2498    -2354    -2223    -2155    -2160    -2211    -2290 
   -2370    -2413    -2401    -2358    -2336    -2381    -2509    -2701 
   -2874    -2921    -2839    -2689    -2523    -2431    -2475    -2608 
   -2764    -2914    -3002    -2979    -2856    -2718    -2636    -2570 
   -2463    -2355    -2290    -2266    -2281    -2336    -2397    -2403 
   -2361    -2347    -2394    -2506    -2708    -2992    -3269    -3407 
   -3361    -3208    -3049    -2957    -2949    -2976    -3001    -2988 
   -2911    -2810    -2721    -2629    -2540    -2461    -2388    -2346 
   -2371    -2475    -2633    -2786    -2876    -2898    -2887    -2879 
   -2866    -2816    -2745    -2693    -2628    -2528    -2444    -2425 
   -2477    -2585    -2682    -2663    -2506    -2324    -2200    -2111 
   -2039    -2014    -2050    -2119    -2228    -2412    -2617    -2749 
   -2794    -2797    -2781    -2733    -2687    -2698    -2755    -2802 
   -2816    -2805    -2789    -2778    -2745    -2636    -2457    -2297 
   -2220    -2257    -2416    -2604    -2702    -2729    -2725    -2667 
   -2582    -2547    -2579    -2628    -2644    -2639    -2693    -2845 
   -3040    -3214    -3345    -3414    -3384    -3238    -3015    -2754 
   -2492    -2303    -2214    -2203    -2257    -2353    -2451    -2515 
   -2517    -2471    -2398    -2311    -2220    -2120    -2007    -1902 
   -1873    -1975    -2189    -2448    -2655    -2717    -2614    -2421 
   -2258    -2182    -2211    -2373    -2650    -2961    -3195    -3269 
   -3241    -3195    -3122    -3040    -2997    -2987    -3006    -3059 
   -3099    -3103    -3114    -3156    -3199    -3187    -3076    -2875 
   -2628    -2405    -2292    -2309    -2398    -2470    -2484    -2444 
   -2369    -2301    -2278    -2280    -2254    -2209    -2212    -2278 
   -2353    -2412    -2455    -2479    -2521    -2587    -2628    -2604 
   -2529    -2440    -2338    -2224    -2174    -2251    -2416    -2606 
   -2778    -2887    -2926    -2925    -2925    -2976    -3084    -3159 
   -3114    -2974    -2812    -2697    -2654    -2663    -2694    -2686 
   -2610    -2539    -2546    -2601    -2646    -2668    -2683    -2695 
   -2717    -2739    -2714    -2620    -2502    -2413    -2385    -2428 
   -2489    -2509    -2475    -2403    -2339    -2316    -2336    -2434 
   -2621    -2835    -2980    -2997    -2887    -2718    -2558    -2461 
