Origin Time       2025/03/30 10:18:00
Lat.              34.667
Long.             140.825
Depth. (km)       69
Mag.              4.9
Station Code      CHBH19
Station Lat.      35.5943
Station Long.     140.5107
Station Height(m) -1629
Record Time       2025/03/30 10:19:03
Sampling Freq(Hz) 100Hz
Duration Time(s)  120
Dir.              3
Scale Factor      2942(gal)/8224139
Max. Acc. (gal)   0.105
Last Correction   2025/03/30 10:19:03
Memo.             
  -54789   -54791   -54791   -54791   -54791   -54789   -54788   -54792 
  -54792   -54791   -54788   -54788   -54789   -54792   -54792   -54791 
  -54791   -54791   -54788   -54789   -54792   -54788   -54788   -54792 
  -54789   -54787   -54788   -54789   -54789   -54789   -54789   -54789 
  -54789   -54791   -54791   -54791   -54791   -54788   -54788   -54791 
  -54789   -54788   -54789   -54791   -54789   -54789   -54791   -54791 
  -54789   -54789   -54789   -54792   -54792   -54789   -54789   -54789 
  -54789   -54793   -54792   -54789   -54789   -54788   -54789   -54791 
  -54789   -54791   -54791   -54788   -54789   -54792   -54789   -54787 
  -54788   -54788   -54788   -54788   -54789   -54789   -54787   -54788 
  -54791   -54788   -54784   -54784   -54783   -54781   -54780   -54776 
  -54773   -54777   -54781   -54781   -54785   -54788   -54791   -54793 
  -54795   -54791   -54784   -54770   -54758   -54753   -54747   -54738 
  -54729   -54724   -54727   -54742   -54766   -54784   -54791   -54792 
  -54789   -54793   -54805   -54818   -54820   -54810   -54804   -54818 
  -54846   -54873   -54873   -54839   -54796   -54762   -54742   -54756 
  -54792   -54815   -54831   -54862   -54895   -54918   -54930   -54924 
  -54915   -54901   -54877   -54854   -54837   -54822   -54823   -54832 
  -54818   -54761   -54706   -54699   -54719   -54735   -54756   -54760 
  -54715   -54696   -54746   -54788   -54785   -54768   -54745   -54735 
  -54756   -54772   -54746   -54710   -54715   -54749   -54766   -54758 
  -54735   -54729   -54772   -54811   -54781   -54739   -54757   -54796 
  -54846   -54904   -54907   -54843   -54781   -54742   -54700   -54626 
  -54535   -54538   -54670   -54807   -54889   -54953   -54989   -54980 
  -54942   -54869   -54753   -54649   -54606   -54610   -54668   -54788 
  -54896   -54920   -54889   -54850   -54828   -54803   -54750   -54726 
  -54780   -54869   -54943   -54985   -54973   -54877   -54750   -54696 
  -54722   -54777   -54793   -54739   -54731   -54828   -54878   -54818 
  -54747   -54716   -54731   -54810   -54870   -54831   -54743   -54711 
  -54792   -54949   -55017   -54916   -54761   -54673   -54662   -54668 
  -54649   -54619   -54603   -54650   -54778   -54881   -54876   -54820 
  -54788   -54787   -54834   -54915   -54891   -54750   -54681   -54729 
  -54776   -54774   -54760   -54789   -54830   -54803   -54773   -54811 
  -54815   -54746   -54715   -54749   -54739   -54685   -54673   -54716 
  -54787   -54826   -54783   -54733   -54745   -54795   -54885   -54954 
  -54881   -54765   -54750   -54795   -54845   -54891   -54893   -54864 
  -54854   -54841   -54812   -54819   -54814   -54760   -54733   -54737 
  -54761   -54834   -54855   -54783   -54762   -54853   -54946   -54949 
  -54901   -54868   -54803   -54727   -54747   -54804   -54796   -54778 
  -54823   -54870   -54864   -54846   -54851   -54814   -54724   -54656 
  -54611   -54592   -54633   -54699   -54760   -54799   -54801   -54787 
  -54772   -54768   -54803   -54816   -54751   -54658   -54616   -54622 
  -54653   -54738   -54884   -55016   -55050   -54985   -54908   -54845 
  -54772   -54723   -54710   -54697   -54689   -54707   -54764   -54839 
  -54845   -54783   -54784   -54831   -54800   -54783   -54832   -54820 
  -54765   -54785   -54823   -54807   -54756   -54702   -54734   -54884 
  -54985   -54919   -54823   -54811   -54769   -54683   -54687   -54711 
  -54670   -54696   -54773   -54773   -54773   -54812   -54795   -54777 
  -54826   -54828   -54760   -54695   -54675   -54712   -54747   -54777 
  -54865   -54924   -54908   -54916   -54908   -54822   -54769   -54781 
  -54776   -54743   -54727   -54715   -54708   -54774   -54901   -54959 
  -54947   -54923   -54853   -54769   -54743   -54756   -54746   -54688 
  -54648   -54688   -54761   -54801   -54822   -54841   -54855   -54850 
  -54822   -54789   -54735   -54653   -54625   -54693   -54769   -54801 
  -54826   -54845   -54861   -54893   -54870   -54781   -54731   -54747 
  -54791   -54811   -54756   -54699   -54730   -54805   -54866   -54853 
  -54800   -54859   -54936   -54872   -54816   -54816   -54762   -54735 
  -54784   -54820   -54828   -54819   -54753   -54661   -54658   -54768 
  -54861   -54865   -54824   -54751   -54697   -54710   -54714   -54692 
  -54685   -54672   -54681   -54751   -54814   -54853   -54899   -54896 
  -54857   -54874   -54923   -54908   -54854   -54838   -54866   -54869 
  -54780   -54670   -54657   -54693   -54739   -54816   -54873   -54892 
  -54869   -54788   -54764   -54788   -54723   -54669   -54703   -54761 
  -54847   -54878   -54787   -54720   -54751   -54797   -54805   -54795 
  -54796   -54788   -54758   -54727   -54722   -54742   -54729   -54699 
  -54745   -54841   -54926   -54959   -54919   -54857   -54799   -54731 
  -54689   -54668   -54697   -54812   -54868   -54847   -54907   -54962 
  -54892   -54787   -54720   -54723   -54796   -54823   -54753   -54677 
  -54649   -54681   -54761   -54760   -54703   -54741   -54774   -54723 
  -54716   -54778   -54799   -54769   -54784   -54866   -54953   -54959 
  -54888   -54850   -54845   -54816   -54818   -54808   -54754   -54791 
  -54873   -54828   -54751   -54745   -54741   -54749   -54787   -54792 
  -54784   -54823   -54893   -54926   -54850   -54708   -54612   -54599 
  -54679   -54777   -54777   -54737   -54731   -54756   -54812   -54838 
  -54781   -54683   -54641   -54719   -54793   -54784   -54797   -54820 
  -54801   -54842   -54951   -54955   -54801   -54679   -54723   -54831 
  -54862   -54877   -54951   -55003   -54994   -54953   -54877   -54807 
  -54783   -54791   -54781   -54738   -54679   -54639   -54649   -54649 
  -54614   -54641   -54751   -54827   -54799   -54762   -54787   -54850 
  -54911   -54896   -54789   -54710   -54745   -54789   -54762   -54747 
  -54746   -54769   -54859   -54891   -54878   -54912   -54881   -54828 
  -54847   -54842   -54820   -54803   -54772   -54808   -54837   -54739 
  -54649   -54665   -54722   -54777   -54827   -54865   -54824   -54704 
  -54650   -54689   -54696   -54691   -54788   -54901   -54905   -54841 
  -54778   -54724   -54675   -54650   -54658   -54684   -54750   -54837 
  -54855   -54819   -54777   -54693   -54643   -54716   -54814   -54888 
  -54928   -54885   -54832   -54822   -54774   -54714   -54710   -54726 
  -54758   -54830   -54891   -54919   -54897   -54799   -54724   -54773 
  -54846   -54845   -54842   -54859   -54812   -54738   -54719   -54749 
  -54768   -54750   -54723   -54751   -54870   -54918   -54749   -54621 
  -54710   -54776   -54766   -54884   -55048   -55082   -55013   -54900 
  -54811   -54800   -54796   -54764   -54769   -54792   -54774   -54730 
  -54749   -54838   -54845   -54811   -54853   -54826   -54733   -54696 
  -54641   -54569   -54521   -54498   -54618   -54791   -54837   -54893 
  -54970   -54870   -54735   -54749   -54784   -54768   -54697   -54595 
  -54614   -54761   -54903   -54958   -54899   -54837   -54845   -54810 
  -54719   -54656   -54657   -54750   -54838   -54843   -54861   -54878 
  -54823   -54774   -54818   -54861   -54783   -54703   -54776   -54850 
  -54788   -54751   -54814   -54834   -54797   -54792   -54839   -54872 
  -54820   -54773   -54815   -54857   -54864   -54874   -54845   -54762 
  -54687   -54673   -54746   -54864   -54950   -54961   -54873   -54718 
  -54616   -54657   -54746   -54766   -54770   -54800   -54776   -54730 
  -54766   -54822   -54801   -54820   -54949   -54965   -54784   -54676 
  -54742   -54777   -54745   -54762   -54769   -54774   -54858   -54888 
  -54822   -54795   -54774   -54703   -54666   -54691   -54699   -54665 
  -54652   -54696   -54781   -54841   -54797   -54723   -54777   -54899 
  -54912   -54904   -54957   -54889   -54729   -54706   -54745   -54738 
  -54742   -54707   -54615   -54626   -54778   -54874   -54822   -54773 
  -54801   -54834   -54870   -54926   -54957   -54932   -54882   -54804 
  -54676   -54588   -54561   -54558   -54657   -54780   -54791   -54792 
  -54816   -54812   -54859   -54961   -54994   -54926   -54869   -54895 
  -54893   -54784   -54719   -54827   -54909   -54838   -54766   -54758 
  -54783   -54808   -54791   -54764   -54758   -54773   -54793   -54738 
  -54692   -54762   -54843   -54889   -54885   -54774   -54683   -54675 
  -54625   -54565   -54616   -54742   -54854   -54908   -54905   -54916 
  -54927   -54841   -54724   -54675   -54693   -54778   -54868   -54908 
  -54950   -54966   -54866   -54712   -54635   -54643   -54679   -54722 
  -54766   -54768   -54754   -54750   -54718   -54738   -54845   -54885 
  -54850   -54814   -54757   -54703   -54695   -54741   -54797   -54805 
  -54766   -54688   -54652   -54731   -54801   -54803   -54865   -54982 
  -55005   -54934   -54876   -54822   -54770   -54793   -54815   -54772 
  -54787   -54835   -54835   -54876   -54928   -54882   -54801   -54747 
  -54722   -54743   -54818   -54866   -54799   -54697   -54693   -54718 
  -54687   -54643   -54648   -54712   -54776   -54792   -54811   -54838 
  -54858   -54873   -54895   -54920   -54882   -54777   -54756   -54850 
  -54897   -54855   -54801   -54729   -54645   -54608   -54648   -54726 
  -54778   -54803   -54810   -54783   -54751   -54762   -54799   -54820 
  -54823   -54826   -54803   -54751   -54753   -54804   -54818   -54810 
  -54810   -54796   -54789   -54781   -54745   -54769   -54850   -54837 
  -54772   -54762   -54787   -54839   -54866   -54815   -54778   -54787 
  -54756   -54703   -54697   -54745   -54826   -54899   -54899   -54847 
  -54799   -54739   -54718   -54787   -54858   -54859   -54832   -54784 
  -54734   -54764   -54832   -54819   -54774   -54788   -54785   -54730 
  -54737   -54818   -54888   -54912   -54869   -54784   -54716   -54677 
  -54653   -54622   -54573   -54584   -54703   -54784   -54760   -54733 
  -54747   -54770   -54762   -54718   -54684   -54696   -54741   -54778 
  -54783   -54769   -54769   -54808   -54864   -54873   -54862   -54868 
  -54830   -54762   -54765   -54796   -54812   -54877   -54931   -54909 
  -54884   -54872   -54846   -54831   -54865   -54940   -54996   -54986 
  -54958   -54926   -54828   -54722   -54719   -54766   -54766   -54745 
  -54757   -54807   -54816   -54778   -54758   -54700   -54602   -54604 
  -54680   -54704   -54726   -54816   -54889   -54858   -54762   -54688 
  -54730   -54880   -54949   -54858   -54753   -54708   -54661   -54610 
  -54638   -54749   -54869   -54924   -54903   -54845   -54785   -54769 
  -54774   -54733   -54708   -54747   -54801   -54837   -54818   -54766 
  -54751   -54770   -54803   -54842   -54854   -54849   -54866   -54884 
  -54900   -54897   -54818   -54716   -54695   -54722   -54739   -54762 
  -54797   -54820   -54823   -54808   -54784   -54756   -54776   -54842 
  -54849   -54826   -54837   -54799   -54749   -54754   -54760   -54757 
  -54770   -54769   -54733   -54718   -54781   -54793   -54716   -54749 
  -54841   -54800   -54716   -54715   -54791   -54895   -54892   -54805 
  -54783   -54773   -54747   -54747   -54760   -54812   -54878   -54889 
  -54869   -54820   -54746   -54683   -54669   -54730   -54774   -54747 
  -54731   -54750   -54804   -54878   -54870   -54826   -54891   -54962 
  -54895   -54832   -54872   -54859   -54793   -54799   -54838   -54843 
  -54822   -54729   -54587   -54538   -54560   -54549   -54603   -54739 
  -54807   -54812   -54831   -54837   -54785   -54688   -54621   -54630 
  -54642   -54608   -54631   -54758   -54865   -54893   -54893   -54889 
  -54878   -54850   -54823   -54843   -54896   -54930   -54927   -54893 
  -54872   -54888   -54901   -54900   -54909   -54899   -54869   -54885 
  -54895   -54851   -54847   -54830   -54710   -54641   -54695   -54747 
  -54773   -54788   -54739   -54719   -54787   -54801   -54766   -54818 
  -54896   -54893   -54828   -54760   -54716   -54662   -54610   -54681 
  -54796   -54783   -54751   -54765   -54734   -54723   -54739   -54739 
  -54749   -54729   -54722   -54758   -54747   -54741   -54760   -54743 
  -54766   -54808   -54801   -54823   -54831   -54787   -54789   -54778 
  -54714   -54722   -54781   -54827   -54918   -55013   -54996   -54885 
  -54834   -54845   -54800   -54765   -54807   -54824   -54796   -54776 
  -54710   -54621   -54641   -54743   -54843   -54927   -54943   -54931 
  -54924   -54855   -54780   -54729   -54656   -54611   -54627   -54684 
  -54753   -54816   -54864   -54886   -54904   -54893   -54828   -54774 
  -54761   -54758   -54751   -54741   -54758   -54816   -54861   -54847 
  -54804   -54746   -54681   -54687   -54745   -54762   -54774   -54822 
  -54851   -54851   -54869   -54874   -54811   -54760   -54758   -54722 
  -54680   -54731   -54780   -54715   -54660   -54708   -54768   -54808 
  -54858   -54843   -54733   -54658   -54685   -54749   -54811   -54827 
  -54826   -54897   -54955   -54891   -54791   -54741   -54719   -54742 
  -54832   -54889   -54892   -54899   -54854   -54778   -54742   -54741 
  -54770   -54788   -54791   -54820   -54842   -54837   -54804   -54733 
  -54672   -54679   -54735   -54776   -54795   -54851   -54886   -54822 
  -54720   -54650   -54646   -54675   -54662   -54670   -54739   -54793 
  -54818   -54834   -54831   -54793   -54733   -54693   -54689   -54719 
  -54765   -54750   -54708   -54742   -54799   -54823   -54838   -54858 
  -54895   -54903   -54865   -54878   -54930   -54949   -54949   -54938 
  -54892   -54843   -54827   -54805   -54758   -54776   -54843   -54841 
  -54811   -54799   -54733   -54681   -54743   -54838   -54922   -55000 
  -54990   -54908   -54876   -54865   -54804   -54737   -54714   -54737 
  -54758   -54761   -54768   -54745   -54706   -54676   -54661   -54718 
  -54805   -54843   -54837   -54830   -54872   -54903   -54858   -54819 
  -54777   -54635   -54514   -54540   -54607   -54664   -54741   -54781 
  -54760   -54772   -54851   -54900   -54907   -54928   -54916   -54889 
  -54881   -54808   -54697   -54625   -54564   -54549   -54612   -54666 
  -54656   -54670   -54758   -54808   -54823   -54872   -54882   -54874 
  -54926   -54976   -55011   -55055   -55050   -54978   -54891   -54808 
  -54737   -54715   -54734   -54746   -54769   -54770   -54734   -54730 
  -54697   -54595   -54573   -54614   -54602   -54639   -54742   -54800 
  -54841   -54888   -54877   -54818   -54781   -54808   -54878   -54930 
  -54908   -54820   -54746   -54715   -54680   -54677   -54747   -54791 
  -54778   -54812   -54889   -54926   -54935   -54957   -54945   -54841 
  -54731   -54715   -54699   -54689   -54753   -54785   -54789   -54789 
  -54716   -54645   -54600   -54542   -54577   -54734   -54885   -54959 
  -54980   -54990   -54999   -54966   -54885   -54808   -54769   -54742 
  -54733   -54777   -54843   -54854   -54818   -54776   -54707   -54650 
  -54673   -54683   -54634   -54625   -54658   -54668   -54643   -54631 
  -54677   -54787   -54881   -54920   -54978   -55004   -54900   -54799 
  -54811   -54839   -54808   -54791   -54868   -54951   -54907   -54822 
  -54842   -54850   -54762   -54720   -54743   -54751   -54756   -54757 
  -54796   -54889   -54920   -54884   -54859   -54830   -54792   -54769 
  -54760   -54746   -54731   -54770   -54846   -54880   -54865   -54812 
  -54766   -54751   -54727   -54727   -54735   -54691   -54704   -54804 
  -54822   -54762   -54754   -54769   -54760   -54780   -54851   -54918 
  -54919   -54819   -54685   -54635   -54652   -54652   -54648   -54707 
  -54835   -54928   -54919   -54841   -54734   -54626   -54565   -54615 
  -54756   -54858   -54870   -54880   -54942   -54996   -55008   -54988 
  -54940   -54904   -54901   -54899   -54843   -54742   -54675   -54683 
  -54762   -54841   -54846   -54864   -54932   -54934   -54861   -54791 
  -54730   -54676   -54637   -54633   -54693   -54777   -54800   -54750 
  -54695   -54669   -54638   -54558   -54496   -54567   -54733   -54868 
  -54931   -54931   -54880   -54789   -54679   -54602   -54585   -54654 
  -54823   -54976   -55009   -54992   -54954   -54901   -54913   -54928 
  -54843   -54803   -54839   -54783   -54695   -54707   -54739   -54753 
  -54784   -54823   -54855   -54866   -54847   -54792   -54707   -54664 
  -54660   -54637   -54662   -54746   -54772   -54742   -54738   -54738 
  -54739   -54789   -54835   -54835   -54846   -54866   -54854   -54774 
  -54635   -54531   -54519   -54571   -54638   -54680   -54714   -54783 
  -54866   -54915   -54943   -54974   -54970   -54916   -54864   -54845 
  -54834   -54827   -54847   -54850   -54818   -54823   -54855   -54864 
  -54855   -54823   -54784   -54793   -54841   -54885   -54904   -54880 
  -54827   -54788   -54769   -54757   -54746   -54757   -54803   -54873 
  -54888   -54812   -54749   -54757   -54800   -54853   -54859   -54801 
  -54738   -54714   -54730   -54750   -54719   -54687   -54691   -54668 
  -54634   -54684   -54795   -54874   -54877   -54843   -54838   -54835 
  -54800   -54753   -54692   -54657   -54677   -54703   -54729   -54781 
  -54814   -54814   -54824   -54827   -54822   -54814   -54743   -54684 
  -54739   -54837   -54899   -54923   -54909   -54892   -54900   -54895 
  -54876   -54884   -54873   -54818   -54791   -54769   -54727   -54739 
  -54768   -54757   -54783   -54824   -54820   -54787   -54761   -54774 
  -54804   -54807   -54784   -54738   -54712   -54735   -54734   -54722 
  -54753   -54765   -54756   -54777   -54808   -54807   -54772   -54739 
  -54735   -54774   -54831   -54850   -54864   -54880   -54853   -54819 
  -54788   -54761   -54773   -54801   -54827   -54843   -54831   -54795 
  -54742   -54684   -54649   -54653   -54665   -54643   -54649   -54692 
  -54716   -54784   -54866   -54885   -54913   -54934   -54859   -54757 
  -54679   -54608   -54592   -54675   -54784   -54838   -54864   -54922 
  -54970   -54951   -54916   -54899   -54884   -54865   -54831   -54799 
  -54754   -54716   -54722   -54710   -54658   -54631   -54661   -54735 
  -54811   -54842   -54822   -54738   -54637   -54627   -54695   -54762 
  -54816   -54845   -54845   -54824   -54808   -54832   -54862   -54838 
  -54796   -54760   -54726   -54716   -54749   -54823   -54896   -54900 
  -54872   -54891   -54911   -54896   -54903   -54927   -54908   -54862 
  -54850   -54878   -54868   -54793   -54722   -54665   -54635   -54657 
  -54711   -54783   -54832   -54872   -54896   -54853   -54783   -54714 
  -54653   -54662   -54707   -54724   -54746   -54765   -54747   -54745 
  -54762   -54746   -54734   -54735   -54723   -54746   -54803   -54805 
  -54751   -54730   -54787   -54849   -54859   -54855   -54846   -54841 
  -54903   -54972   -54958   -54926   -54919   -54900   -54884   -54897 
  -54911   -54915   -54904   -54886   -54870   -54793   -54684   -54672 
  -54720   -54768   -54838   -54881   -54880   -54851   -54769   -54679 
  -54633   -54622   -54641   -54679   -54720   -54739   -54708   -54684 
  -54687   -54675   -54650   -54625   -54646   -54749   -54834   -54851 
  -54864   -54859   -54826   -54789   -54746   -54716   -54707   -54715 
  -54743   -54746   -54723   -54742   -54778   -54795   -54812   -54827 
  -54823   -54831   -54865   -54885   -54864   -54812   -54780   -54803 
  -54820   -54783   -54761   -54768   -54751   -54749   -54753   -54735 
  -54738   -54778   -54830   -54878   -54913   -54923   -54896   -54841 
  -54777   -54758   -54793   -54803   -54789   -54812   -54822   -54792 
  -54773   -54769   -54761   -54760   -54770   -54789   -54769   -54726 
