Origin Time       2025/03/30 10:18:00
Lat.              34.667
Long.             140.825
Depth. (km)       69
Mag.              4.9
Station Code      CHBH16
Station Lat.      35.1384
Station Long.     139.9649
Station Height(m) -1842.75
Record Time       2025/03/30 10:18:49
Sampling Freq(Hz) 100Hz
Duration Time(s)  120
Dir.              3
Scale Factor      7845(gal)/8223790
Max. Acc. (gal)   0.221
Last Correction   2025/03/30 10:18:49
Memo.             
[...]
  -17988   -17988   -17988   -17988   -17987   -17987   -17988   -17988 
  -17988   -17990   -17990   -17987   -17987   -17990   -17990   -17988 
  -17987   -17987   -17987   -17986   -17987   -17991   -17988   -17987 
  -17988   -17987   -17986   -17987   -17988   -17986   -17986   -17990 
  -17986   -17983   -17988   -17991   -17986   -17987   -17987   -17987 
  -17990   -17986   -17986   -17991   -17990   -17986   -17987   -17990 
  -17990   -17986   -17987   -17990   -17990   -17990   -17988   -17988 
  -17990   -17987   -17984   -17991   -17991   -17986   -17988   -17987 
  -17983   -17987   -17988   -17986   -17986   -17988   -17987   -17988 
  -17990   -17988   -17988   -17988   -17988   -17992   -17991   -17987 
  -17987   -17987   -17988   -17987   -17986   -17990   -17990   -17986 
  -17988   -17991   -17986   -17983   -17987   -17990   -17990   -17990 
  -17990   -17990   -17988   -17986   -17988   -17990   -17987   -17988 
  -17988   -17986   -17988   -17990   -17986   -17988   -17991   -17987 
  -17987   -17990   -17987   -17987   -17988   -17988   -17988   -17987 
  -17986   -17988   -17991   -17987   -17984   -17986   -17987   -17987 
  -17990   -17988   -17986   -17990   -17991   -17988   -17988   -17990 
  -17990   -17987   -17987   -17987   -17986   -17990   -17991   -17986 
  -17984   -17987   -17984   -17986   -17988   -17986   -17984   -17986 
  -17987   -17986   -17987   -17991   -17988   -17986   -17990   -17988 
  -17986   -17987   -17987   -17986   -17988   -17990   -17990   -17990 
  -17988   -17988   -17990   -17988   -17984   -17987   -17988   -17987 
  -17986   -17988   -17991   -17987   -17986   -17988   -17988   -17984 
  -17984   -17987   -17990   -17988   -17988   -17990   -17986   -17984 
  -17988   -17990   -17987   -17987   -17988   -17988   -17986   -17986 
  -17987   -17988   -17991   -17990   -17984   -17988   -17992   -17984 
  -17982   -17986   -17988   -17990   -17990   -17991   -17988   -17983 
  -17987   -17990   -17984   -17987   -17990   -17984   -17984   -17990 
  -17987   -17986   -17990   -17988   -17986   -17986   -17986   -17987 
  -17990   -17990   -17987   -17990   -17991   -17990   -17983   -17983 
  -17992   -17991   -17986   -17987   -17988   -17987   -17987   -17987 
  -17986   -17983   -17984   -17988   -17988   -17987   -17988   -17987 
  -17987   -17990   -17992   -17990   -17988   -17987   -17986   -17987 
  -17988   -17987   -17984   -17984   -17984   -17988   -17987   -17987 
  -17987   -17986   -17987   -17990   -17988   -17986   -17987   -17988 
  -17987   -17986   -17991   -17994   -17988   -17986   -17986   -17987 
  -17988   -17986   -17986   -17988   -17986   -17987   -17987   -17986 
  -17987   -17988   -17986   -17986   -17987   -17987   -17988   -17988 
  -17990   -17987   -17984   -17986   -17988   -17991   -17988   -17984 
  -17986   -17988   -17991   -17990   -17987   -17986   -17991   -17991 
  -17986   -17984   -17984   -17986   -17987   -17986   -17987   -17990 
  -17988   -17987   -17990   -17988   -17984   -17987   -17990   -17990 
  -17990   -17988   -17986   -17986   -17990   -17990   -17987   -17986 
  -17990   -17991   -17988   -17984   -17986   -17988   -17988   -17988 
  -17987   -17987   -17990   -17988   -17987   -17988   -17987   -17986 
  -17986   -17987   -17988   -17988   -17986   -17988   -17990   -17988 
  -17986   -17983   -17986   -17990   -17986   -17986   -17990   -17987 
  -17986   -17987   -17988   -17986   -17986   -17987   -17988   -17984 
  -17987   -17991   -17988   -17986   -17990   -17990   -17988   -17990 
  -17991   -17990   -17987   -17986   -17988   -17990   -17986   -17986 
  -17987   -17988   -17990   -17987   -17984   -17988   -17990   -17987 
  -17990   -17988   -17984   -17987   -17987   -17987   -17991   -17988 
  -17986   -17988   -17987   -17983   -17984   -17987   -17990   -17988 
  -17986   -17988   -17990   -17986   -17986   -17988   -17988   -17987 
  -17987   -17988   -17988   -17988   -17990   -17991   -17988   -17987 
  -17987   -17987   -17987   -17991   -17991   -17987   -17986   -17988 
  -17990   -17987   -17987   -17990   -17988   -17987   -17987   -17986 
  -17986   -17988   -17990   -17991   -17988   -17983   -17987   -17987 
  -17987   -17988   -17987   -17986   -17987   -17988   -17988   -17987 
  -17990   -17990   -17987   -17986   -17987   -17990   -17991   -17990 
  -17988   -17986   -17987   -17988   -17986   -17990   -17994   -17987 
  -17986   -17988   -17988   -17986   -17987   -17988   -17988   -17988 
  -17990   -17991   -17990   -17988   -17986   -17986   -17990   -17990 
  -17987   -17987   -17988   -17988   -17990   -17986   -17984   -17987 
  -17986   -17988   -17991   -17988   -17986   -17988   -17991   -17990 
  -17986   -17987   -17990   -17988   -17987   -17990   -17991   -17990 
  -17988   -17987   -17987   -17988   -17987   -17986   -17988   -17990 
  -17987   -17987   -17986   -17986   -17988   -17990   -17990   -17988 
  -17984   -17987   -17988   -17987   -17987   -17988   -17987   -17990 
  -17988   -17986   -17988   -17992   -17991   -17986   -17986   -17990 
  -17990   -17990   -17988   -17987   -17988   -17990   -17986   -17986 
  -17987   -17986   -17987   -17990   -17987   -17988   -17992   -17988 
  -17987   -17990   -17990   -17990   -17990   -17988   -17988   -17990 
  -17987   -17987   -17991   -17990   -17987   -17990   -17990   -17984 
  -17986   -17991   -17990   -17987   -17988   -17990   -17990   -17987 
  -17986   -17987   -17990   -17990   -17988   -17988   -17988   -17987 
  -17988   -17988   -17987   -17988   -17990   -17987   -17988   -17991 
  -17987   -17987   -17992   -17990   -17987   -17988   -17990   -17990 
  -17990   -17987   -17987   -17990   -17991   -17988   -17986   -17987 
  -17991   -17990   -17986   -17986   -17987   -17988   -17991   -17988 
  -17986   -17987   -17988   -17987   -17988   -17990   -17986   -17984 
  -17988   -17987   -17987   -17987   -17987   -17987   -17987   -17988 
  -17991   -17990   -17987   -17987   -17990   -17988   -17987   -17988 
  -17988   -17987   -17987   -17988   -17988   -17990   -17991   -17992 
  -17992   -17988   -17986   -17990   -17990   -17987   -17987   -17990 
  -17990   -17988   -17987   -17988   -17988   -17988   -17990   -17988 
  -17987   -17987   -17988   -17992   -17988   -17984   -17990   -17991 
  -17988   -17991   -17990   -17987   -17990   -17991   -17987   -17984 
  -17990   -17994   -17990   -17988   -17990   -17988   -17988   -17990 
  -17990   -17990   -17990   -17990   -17987   -17987   -17990   -17990 
  -17988   -17987   -17987   -17987   -17988   -17987   -17987   -17991 
  -17991   -17987   -17986   -17986   -17990   -17991   -17986   -17986 
  -17991   -17991   -17990   -17988   -17986   -17986   -17988   -17988 
  -17986   -17986   -17987   -17988   -17988   -17988   -17990   -17988 
  -17986   -17991   -17994   -17988   -17987   -17988   -17986   -17986 
  -17990   -17990   -17987   -17986   -17986   -17987   -17988   -17986 
  -17986   -17990   -17990   -17987   -17986   -17988   -17992   -17991 
  -17986   -17987   -17987   -17984   -17987   -17994   -17992   -17987 
  -17986   -17987   -17987   -17990   -17988   -17990   -17992   -17990 
  -17988   -17987   -17987   -17990   -17990   -17988   -17990   -17988 
  -17988   -17992   -17990   -17984   -17988   -17990   -17988   -17988 
  -17990   -17988   -17987   -17990   -17991   -17988   -17986   -17986 
  -17987   -17988   -17990   -17990   -17990   -17987   -17987   -17988 
  -17987   -17987   -17990   -17988   -17987   -17988   -17987   -17986 
  -17988   -17988   -17987   -17987   -17988   -17990   -17988   -17988 
  -17990   -17987   -17986   -17987   -17988   -17987   -17988   -17988 
  -17988   -17987   -17988   -17988   -17988   -17988   -17988   -17988 
  -17988   -17988   -17988   -17987   -17988   -17988   -17986   -17986 
  -17988   -17990   -17988   -17987   -17987   -17986   -17986   -17987 
  -17987   -17986   -17987   -17988   -17988   -17988   -17990   -17990 
  -17988   -17988   -17991   -17991   -17988   -17986   -17986   -17987 
  -17987   -17988   -17990   -17987   -17986   -17991   -17992   -17988 
  -17988   -17991   -17988   -17990   -17991   -17988   -17987   -17990 
  -17988   -17988   -17987   -17986   -17988   -17988   -17987   -17987 
  -17987   -17988   -17988   -17986   -17987   -17990   -17988   -17987 
  -17988   -17986   -17987   -17988   -17988   -17988   -17990   -17990 
  -17988   -17987   -17988   -17988   -17987   -17988   -17990   -17988 
  -17988   -17987   -17987   -17988   -17986   -17987   -17988   -17990 
  -17990   -17990   -17990   -17992   -17992   -17987   -17986   -17986 
  -17986   -17987   -17988   -17988   -17988   -17987   -17987   -17988 
  -17987   -17987   -17988   -17988   -17988   -17990   -17987   -17986 
  -17988   -17988   -17988   -17988   -17987   -17986   -17987   -17986 
  -17986   -17988   -17990   -17986   -17984   -17988   -17990   -17987 
  -17987   -17987   -17987   -17988   -17987   -17986   -17987   -17990 
  -17988   -17986   -17987   -17990   -17987   -17986   -17988   -17988 
  -17988   -17988   -17988   -17988   -17988   -17987   -17988   -17987 
  -17988   -17990   -17990   -17990   -17990   -17988   -17988   -17986 
  -17986   -17988   -17988   -17987   -17987   -17987   -17987   -17987 
  -17987   -17987   -17986   -17987   -17988   -17988   -17988   -17988 
  -17988   -17990   -17990   -17988   -17988   -17990   -17987   -17983 
  -17986   -17988   -17988   -17988   -17988   -17991   -17991   -17988 
  -17987   -17990   -17990   -17988   -17987   -17987   -17987   -17987 
  -17988   -17988   -17987   -17986   -17988   -17992   -17990   -17986 
  -17987   -17988   -17987   -17986   -17987   -17987   -17987   -17987 
  -17987   -17987   -17988   -17988   -17988   -17986   -17987   -17990 
  -17990   -17990   -17988   -17988   -17990   -17988   -17987   -17986 
  -17987   -17988   -17988   -17987   -17987   -17988   -17988   -17988 
  -17990   -17990   -17991   -17990   -17987   -17986   -17987   -17987 
  -17987   -17990   -17991   -17991   -17988   -17987   -17988   -17988 
  -17987   -17987   -17988   -17990   -17990   -17988   -17988   -17990 
  -17991   -17990   -17988   -17990   -17991   -17990   -17988   -17990 
  -17988   -17987   -17986   -17984   -17990   -17991   -17988   -17990 
  -17990   -17987   -17990   -17991   -17987   -17987   -17990   -17990 
  -17991   -17992   -17990   -17987   -17988   -17988   -17988   -17988 
  -17987   -17987   -17990   -17991   -17990   -17987   -17986   -17988 
  -17990   -17987   -17988   -17988   -17988   -17991   -17990   -17988 
  -17987   -17986   -17987   -17990   -17988   -17986   -17986   -17987 
  -17987   -17988   -17987   -17986   -17986   -17987   -17987   -17990 
  -17988   -17987   -17988   -17990   -17988   -17988   -17988   -17990 
  -17990   -17987   -17988   -17992   -17990   -17986   -17988   -17990 
  -17987   -17987   -17987   -17986   -17990   -17990   -17987   -17986 
  -17987   -17988   -17988   -17987   -17988   -17990   -17990   -17988 
  -17987   -17987   -17988   -17990   -17988   -17987   -17986   -17987 
  -17986   -17987   -17988   -17987   -17987   -17988   -17988   -17990 
  -17990   -17987   -17986   -17987   -17990   -17988   -17987   -17987 
  -17990   -17991   -17990   -17988   -17986   -17986   -17990   -17988 
  -17987   -17988   -17990   -17988   -17987   -17987   -17988   -17990 
  -17987   -17984   -17987   -17988   -17984   -17986   -17988   -17988 
  -17987   -17990   -17990   -17988   -17987   -17986   -17987   -17988 
  -17988   -17988   -17990   -17988   -17987   -17987   -17987   -17987 
  -17987   -17986   -17987   -17988   -17988   -17991   -17992   -17988 
  -17987   -17988   -17987   -17986   -17988   -17988   -17987   -17987 
  -17986   -17987   -17987   -17984   -17987   -17992   -17992   -17991 
  -17992   -17992   -17990   -17988   -17991   -17990   -17990   -17991 
  -17992   -17994   -17994   -17995   -18002   -18007   -18007   -17999 
  -17987   -17979   -17980   -17990   -17998   -18003   -18011   -18021 
  -18021   -17999   -17961   -17932   -17926   -17953   -17999   -18033 
  -18034   -18018   -17990   -17948   -17906   -17896   -17921   -17961 
  -18009   -18069   -18125   -18131   -18061   -17955   -17865   -17826 
  -17852   -17922   -17996   -18053   -18080   -18072   -18056   -18050 
  -18031   -17977   -17915   -17903   -17960   -18027   -18041   -18007 
  -17971   -17944   -17929   -17941   -17972   -18004   -18033   -18052 
  -18061   -18052   -18021   -17979   -17940   -17919   -17934   -17977 
  -18011   -18007   -17984   -17964   -17964   -17979   -17980   -17964 
  -17937   -17917   -17921   -17953   -17987   -18000   -17990   -17991 
  -18018   -18034   -18018   -17988   -17971   -17984   -18040   -18107 
  -18125   -18075   -18003   -17955   -17944   -17949   -17945   -17936 
  -17937   -17952   -17979   -18002   -17990   -17944   -17915   -17934 
  -18002   -18083   -18104   -18050   -17975   -17922   -17906   -17938 
  -17994   -18045   -18069   -18042   -17986   -17957   -17976   -18025 
  -18065   -18049   -17977   -17921   -17919   -17956   -18003   -18031 
  -18014   -17955   -17883   -17869   -17952   -18049   -18076   -18050 
  -18007   -17971   -17988   -18061   -18103   -18036   -17919   -17882 
  -17932   -17979   -17991   -18002   -18023   -18045   -18052   -18025 
  -17969   -17937   -17918   -17874   -17860   -17942   -18048   -18069 
  -18019   -17979   -17990   -18023   -18040   -18019   -17979   -17936 
  -17899   -17911   -18021   -18172   -18220   -18130   -17991   -17869 
  -17807   -17830   -17899   -17960   -18003   -18021   -18013   -18000 
  -18014   -18052   -18083   -18061   -17979   -17894   -17871   -17906 
  -17956   -18025   -18083   -18025   -17898   -17868   -17956   -18049 
  -18084   -18056   -17986   -17942   -17963   -18011   -18067   -18094 
  -18025   -17923   -17906   -17933   -17945   -17983   -18056   -18091 
  -18063   -18019   -17973   -17933   -17909   -17890   -17888   -17938 
  -18019   -18071   -18042   -17968   -17968   -18048   -18069   -18015 
  -18006   -18045   -18033   -17977   -17957   -17953   -17932   -17913 
  -17905   -17917   -17960   -18010   -18044   -18068   -18063   -18002 
  -17944   -17956   -17994   -17980   -17956   -17976   -17986   -17952 
  -17937   -17969   -18041   -18106   -18065   -17955   -17932   -17984 
  -17996   -17965   -17945   -17967   -18015   -18037   -18018   -17975 
  -17937   -17948   -17983   -18002   -18003   -17992   -17971   -17949 
  -17928   -17936   -17984   -18015   -18040   -18085   -18085   -18026 
  -17975   -17950   -17961   -18007   -18014   -17952   -17914   -17948 
  -17986   -18018   -18045   -18030   -18006   -17988   -17960   -17955 
  -17982   -18025   -18064   -18050   -18002   -17986   -17991   -17990 
  -18009   -18050   -18052   -17967   -17888   -17928   -18006   -18011 
  -17990   -17975   -17922   -17865   -17867   -17930   -17987   -17995 
  -18025   -18085   -18075   -18004   -17955   -17941   -17983   -18036 
  -18027   -18006   -18009   -17990   -17955   -17942   -17950   -17944 
  -17942   -17990   -18036   -18011   -17960   -17979   -18044   -18061 
  -18021   -17973   -17933   -17930   -17982   -18015   -18013   -18018 
  -18018   -17994   -17979   -17991   -18004   -17990   -17979   -18013 
  -18025   -17949   -17895   -17952   -18025   -18049   -18048   -18007 
  -17957   -17960   -17986   -18011   -18037   -18029   -17999   -17983 
  -17967   -17952   -17972   -18021   -18042   -18025   -18004   -17991 
  -17976   -17949   -17913   -17902   -17963   -18060   -18087   -18000 
  -17895   -17888   -17972   -18037   -18036   -18027   -18025   -17995 
  -17955   -17923   -17911   -17925   -17964   -18014   -18038   -18033 
  -18014   -17984   -17961   -17945   -17946   -17976   -17982   -17960 
  -17986   -18033   -18002   -17923   -17919   -17991   -18029   -18009 
  -17988   -17963   -17938   -17975   -18053   -18075   -18031   -17994 
  -18000   -18022   -18018   -17988   -17968   -17988   -18026   -18027 
  -17999   -17973   -17949   -17965   -18026   -18045   -18014   -17990 
  -17986   -17995   -17990   -17967   -17977   -17991   -17950   -17918 
  -17944   -17982   -18009   -18023   -18011   -17988   -17996   -18013 
  -17999   -17967   -17934   -17918   -17934   -17960   -17953   -17932 
  -17938   -17973   -18017   -18052   -18042   -17987   -17961   -18007 
  -18054   -18044   -18018   -18002   -17987   -18011   -18052   -18023 
  -17961   -17938   -17949   -17987   -18023   -18013   -18004   -18017 
  -17991   -17960   -17977   -17998   -17998   -18011   -18025   -18002 
  -17971   -17972   -17991   -17995   -18000   -18011   -18000   -17979 
  -17955   -17906   -17879   -17936   -18042   -18087   -18017   -17944 
  -17957   -17980   -17971   -17952   -17923   -17902   -17905   -17936 
  -17998   -18040   -18029   -18025   -18038   -18040   -18036   -18031 
  -18021   -17995   -17972   -18003   -18053   -18030   -17965   -17933 
  -17932   -17932   -17923   -17915   -17938   -18003   -18083   -18104 
  -18031   -17944   -17914   -17933   -17979   -18018   -18013   -17983 
  -17976   -18010   -18038   -18015   -17982   -17982   -18000   -18023 
  -18034   -18027   -18034   -18038   -18000   -17953   -17942   -17950 
  -17979   -18026   -18031   -17992   -17967   -17975   -17998   -17986 
  -17925   -17906   -17948   -17979   -17998   -18010   -17999   -17986 
  -17973   -17960   -17965   -17982   -17990   -18034   -18080   -18017 
  -17911   -17926   -17994   -17995   -17999   -18033   -18037   -18026 
  -18015   -17986   -17957   -17949   -17950   -17955   -17965   -17973 
  -17965   -17955   -17965   -17990   -18011   -18027   -18017   -17973 
  -17955   -17972   -17979   -17986   -18010   -18007   -17973   -17945 
  -17928   -17941   -18002   -18060   -18073   -18061   -18050   -18045 
  -18021   -17964   -17909   -17896   -17928   -17976   -18003   -17980 
  -17959   -18006   -18072   -18068   -18006   -17955   -17959   -17986 
  -17983   -17967   -17971   -17980   -17999   -18044   -18079   -18067 
  -18023   -17973   -17921   -17905   -17956   -18013   -18003   -17967 
  -17979   -18041   -18063   -18006   -17944   -17941   -17969   -18003 
  -18042   -18041   -17983   -17937   -17956   -17998   -17999   -17975 
  -17969   -17957   -17929   -17937   -17977   -17977   -17936   -17929 
  -17983   -18026   -18004   -17964   -17945   -17950   -17983   -18014 
  -18019   -18010   -18007   -18022   -18036   -18018   -17996   -17994 
  -18002   -18002   -17991   -17971   -17952   -17961   -17976   -17953 
  -17936   -17960   -17999   -18029   -18027   -18009   -18007   -18009 
  -18006   -18010   -18011   -18015   -18010   -17979   -17952   -17948 
  -17959   -17990   -18013   -18000   -17977   -17959   -17940   -17945 
  -17987   -18042   -18079   -18079   -18054   -18010   -17967   -17975 
  -18013   -18031   -18019   -17994   -17960   -17944   -17969   -18009 
  -18009   -17976   -17968   -17991   -17996   -17979   -17972   -17968 
  -17957   -17960   -17969   -17977   -17988   -17986   -17979   -17972 
  -17964   -17994   -18049   -18057   -18015   -17979   -17983   -18002 
  -18000   -17998   -17988   -17977   -18002   -18026   -18003   -17983 
  -17986   -17965   -17925   -17918   -17949   -17984   -17996   -17983 
  -17968   -17972   -17983   -17996   -18011   -17999   -17967   -17948 
