Origin Time       2025/03/30 10:18:00
Lat.              34.667
Long.             140.825
Depth. (km)       69
Mag.              4.9
Station Code      CHBH06
Station Lat.      35.7215
Station Long.     140.5046
Station Height(m) 35
Record Time       2025/03/30 10:19:08
Sampling Freq(Hz) 100Hz
Duration Time(s)  120
Dir.              4
Scale Factor      7845(gal)/8223790
Max. Acc. (gal)   1.200
Last Correction   2025/03/30 10:19:08
Memo.             
[...]
    -820     -872     -962    -1067    -1148    -1174    -1143    -1075 
   -1036    -1063    -1080    -1024     -958     -955    -1017    -1081 
   -1057     -961     -920     -981    -1047    -1032     -949     -872 
    -891     -994    -1047     -990     -923     -922     -973    -1031 
   -1066    -1082    -1092    -1097    -1098    -1107    -1123    -1147 
   -1158    -1136    -1088    -1057    -1055    -1055    -1038    -1004 
    -940     -861     -807     -823     -896     -950     -936     -885 
    -880     -953    -1035    -1054    -1021     -992    -1008    -1085 
   -1178    -1215    -1154    -1034     -922     -866     -882     -935 
    -976    -1013    -1078    -1113    -1063     -977     -950    -1024 
   -1170    -1304    -1317    -1186    -1013     -907     -876     -915 
    -977     -970     -903     -892     -976    -1080    -1146    -1148 
   -1085    -1015     -994     -981     -918     -861     -903    -1020 
   -1109    -1134    -1139    -1138    -1101    -1051    -1040    -1067 
   -1117    -1154    -1111     -999     -897     -837     -784     -749 
    -760     -815     -908    -1027    -1129    -1190    -1206    -1177 
   -1144    -1124    -1062     -970     -938    -1003    -1094    -1108 
   -1009     -882     -826     -876     -972    -1030    -1038    -1042 
   -1058    -1054    -1008     -955     -955    -1008    -1063    -1078 
   -1089    -1123    -1134    -1104    -1074    -1061    -1057    -1059 
   -1036     -980     -947     -965    -1000    -1016     -989     -928 
    -884     -874     -901     -986    -1119    -1190    -1115     -966 
    -880     -864     -869     -892     -949    -1031    -1096    -1097 
   -1085    -1142    -1250    -1304    -1244    -1088     -908     -830 
    -916    -1038    -1044     -986     -973     -976     -962     -970 
   -1005    -1035    -1043    -1021     -985     -976    -1001    -1035 
   -1067    -1108    -1138    -1084     -939     -830     -855     -954 
   -1005     -962     -866     -808     -843     -936    -1023    -1075 
   -1089    -1070    -1057    -1097    -1188    -1260    -1266    -1223 
   -1151    -1061     -976     -939     -976    -1065    -1135    -1142 
   -1124    -1115    -1089    -1032     -947     -853     -743     -637 
    -594     -673     -853    -1035    -1129    -1143    -1154    -1232 
   -1340    -1356    -1269    -1185    -1124    -1012     -851     -738 
    -761     -908    -1044    -1040     -947     -915     -982    -1061 
   -1071    -1015     -919     -818     -762     -807     -969    -1200 
   -1371    -1367    -1227    -1067     -935     -858     -869     -922 
    -957     -949     -895     -878     -981    -1115    -1170    -1170 
   -1147    -1101    -1046    -1001     -999    -1050    -1100    -1067 
    -967     -896     -893     -949    -1034    -1093    -1081    -1000 
    -878     -787     -815     -950    -1066    -1078    -1034    -1015 
   -1070    -1182    -1264    -1240    -1136    -1001     -857     -734 
    -679     -695     -762     -878    -1009    -1094    -1121    -1113 
   -1123    -1190    -1293    -1366    -1356    -1244    -1070     -926 
    -865     -869     -919    -1000    -1081    -1129    -1113    -1036 
    -966     -966    -1004    -1013    -1015    -1036    -1050    -1021 
    -943     -865     -888     -980    -1008     -966     -967    -1062 
   -1193    -1277    -1282    -1205    -1086    -1004     -966     -946 
    -942     -920     -857     -816     -857     -920     -924     -878 
    -838     -831     -861     -928    -1007    -1063    -1125    -1217 
   -1296    -1312    -1277    -1210    -1108     -985     -868     -760 
    -685     -666     -677     -737     -892    -1084    -1215    -1279 
   -1328    -1352    -1328    -1282    -1228    -1144    -1035     -945 
    -893     -853     -811     -784     -781     -820     -918    -1017 
   -1050    -1039    -1055    -1098    -1108    -1065    -1023    -1035 
   -1089    -1156    -1217    -1232    -1188    -1104    -1016     -966 
    -966     -986    -1009    -1053    -1112    -1154    -1162    -1116 
    -992     -805     -622     -488     -414     -436     -580     -799 
   -1013    -1198    -1344    -1412    -1406    -1386    -1364    -1323 
   -1247    -1094     -881     -750     -778     -884     -965     -977 
    -920     -888     -976    -1109    -1154    -1131    -1127    -1129 
   -1062     -926     -841     -935    -1159    -1293    -1202    -1011 
    -911     -926     -934     -892     -889     -981    -1098    -1147 
   -1090     -988     -953    -1015    -1071    -1044     -962     -905 
    -918     -962     -984    -1007    -1059    -1089    -1066    -1058 
   -1101    -1158    -1201    -1200    -1119     -972     -819     -746 
    -804     -949    -1065    -1102    -1107    -1128    -1167    -1189 
   -1177    -1148    -1094     -972     -828     -749     -734     -789 
    -919    -1047    -1117    -1135    -1084     -976     -915     -951 
   -1005    -1008     -978     -959     -977    -1031    -1102    -1156 
   -1163    -1135    -1082    -1005     -943     -936     -953     -938 
    -907     -916     -961    -1016    -1078    -1140    -1169    -1124 
   -1019     -931     -913     -969    -1081    -1201    -1270    -1262 
   -1197    -1088     -959     -878     -876     -913     -934     -909 
    -874     -897     -986    -1071    -1108    -1102    -1080    -1078 
   -1093    -1057     -976     -926     -907     -873     -827     -830 
    -923    -1054    -1129    -1132    -1123    -1136    -1128    -1053 
    -943     -889     -923     -959     -945     -949    -1030    -1124 
   -1132    -1061    -1012    -1034    -1081    -1084    -1027     -963 
    -940     -970    -1034    -1082    -1092    -1075    -1028     -945 
    -857     -807     -820     -905    -1020    -1080    -1053    -1015 
   -1020    -1055    -1092    -1109    -1124    -1152    -1158    -1102 
   -1012     -940     -920     -951     -986     -985     -967     -982 
   -1058    -1196    -1339    -1422    -1375    -1181     -955     -834 
    -832     -886     -896     -859     -896    -1032    -1162    -1206 
   -1156    -1065     -973     -842     -669     -569     -606     -719 
    -830     -908     -988    -1080    -1124    -1105    -1094    -1143 
   -1206    -1213    -1138    -1054    -1067    -1155    -1179    -1104 
   -1030    -1016    -1032    -1015     -928     -823     -781     -811 
    -857     -899     -972    -1071    -1150    -1198    -1232    -1252 
   -1237    -1161    -1035     -916     -881     -949    -1024    -1021 
    -973     -938     -938     -972    -1012    -1051    -1105    -1142 
   -1097     -976     -839     -751     -772     -901    -1053    -1136 
   -1143    -1101    -1020     -938     -951    -1090    -1250    -1308 
   -1259    -1161    -1036     -911     -823     -787     -770     -751 
    -742     -766     -827     -920    -1038    -1175    -1314    -1399 
   -1368    -1247    -1152    -1134    -1116    -1047     -945     -869 
    -881     -962    -1040    -1115    -1201    -1244    -1204    -1097 
    -965     -841     -737     -685     -741     -877    -1004    -1073 
   -1101    -1101    -1054     -972     -905     -881     -896     -928 
    -940     -939     -980    -1074    -1178    -1260    -1285    -1210 
   -1063     -942     -924    -1000    -1096    -1156    -1177    -1159 
   -1082     -972     -901     -919    -1008    -1090    -1061     -938 
    -864     -891     -953     -992     -988     -942     -907     -938 
   -1013    -1102    -1221    -1329    -1331    -1215    -1070     -957 
    -864     -789     -753     -735     -760     -885    -1069    -1201 
   -1240    -1186    -1074     -977     -943     -934     -907     -891 
    -913     -951    -1000    -1073    -1112    -1078    -1046    -1067 
   -1096    -1077    -1016     -962     -959    -1004    -1069    -1151 
   -1223    -1224    -1134    -1005     -932     -965    -1032    -1039 
    -967     -872     -812     -807     -822     -822     -847     -939 
   -1016     -981     -873     -797     -824     -967    -1155    -1293 
   -1383    -1459    -1482    -1422    -1304    -1173    -1102    -1112 
   -1121    -1050     -897     -739     -648     -612     -618     -669 
    -741     -812     -877     -916     -954    -1054    -1190    -1298 
   -1366    -1366    -1239    -1021     -851     -816     -916    -1067 
   -1148    -1101     -982     -903     -915     -977    -1046    -1097 
   -1074     -969     -873     -861     -924    -1046    -1183    -1246 
   -1183    -1086    -1066    -1121    -1150    -1098    -1008     -947 
    -942     -967     -996    -1026    -1065    -1080    -1057    -1021 
    -978     -942     -945     -967     -954     -907     -859     -830 
    -850     -949    -1053    -1075    -1066    -1102    -1146    -1158 
   -1128    -1039     -949     -931     -958     -981     -990     -986 
    -981     -985     -997    -1007    -1008    -1026    -1073    -1119 
   -1147    -1174    -1181    -1129    -1039     -974     -943     -916 
    -885     -855     -891    -1053    -1254    -1339    -1283    -1147 
    -961     -776     -699     -747     -835     -911     -982    -1048 
   -1096    -1138    -1188    -1232    -1242    -1194    -1117    -1058 
   -1011     -943     -855     -789     -799     -868     -935     -997 
   -1069    -1104    -1053     -916     -776     -730     -793     -918 
   -1051    -1148    -1209    -1270    -1321    -1339    -1317    -1251 
   -1155    -1063     -989     -920     -858     -846     -912    -1026 
   -1125    -1148    -1098    -1057    -1059    -1063    -1030     -963 
    -884     -791     -697     -700     -839     -982    -1017     -969 
    -893     -866     -967    -1154    -1301    -1368    -1355    -1269 
   -1185    -1162    -1182    -1209    -1194    -1081     -892     -723 
    -641     -648     -714     -795     -876     -946     -967     -950 
    -935     -954     -988     -996     -992    -1021    -1080    -1150 
   -1232    -1305    -1325    -1287    -1240    -1212    -1177    -1097 
    -947     -769     -658     -658     -742     -866     -989    -1108 
   -1221    -1283    -1286    -1270    -1219    -1088     -922     -789 
    -720     -738     -850    -1015    -1161    -1242    -1269    -1293 
   -1333    -1347    -1318    -1260    -1152    -1015     -903     -822 
    -733     -615     -488     -415     -449     -585     -774     -954 
   -1061    -1069    -1020     -935     -793     -648     -583     -610 
    -687     -774     -873     -990    -1096    -1167    -1219    -1242 
   -1227    -1179    -1105    -1035    -1021    -1085    -1196    -1298 
   -1317    -1229    -1128    -1102    -1151    -1240    -1317    -1351 
   -1371    -1393    -1406    -1443    -1509    -1526    -1429    -1233 
   -1008     -816     -661     -529     -432     -407     -504     -730 
   -1011    -1252    -1399    -1452    -1393    -1202     -954     -764 
    -679     -668     -687     -729     -804     -881     -955    -1067 
   -1209    -1317    -1344    -1279    -1169    -1077     -992     -861 
    -703     -592     -564     -606     -710     -873    -1069    -1247 
   -1339    -1318    -1216    -1082     -951     -869     -912    -1066 
   -1215    -1273    -1242    -1173    -1127    -1132    -1147    -1071 
    -881     -677     -542     -490     -502     -513     -468     -429 
    -487     -638     -807     -954    -1089    -1193    -1247    -1271 
   -1309    -1404    -1564    -1730    -1818    -1791    -1674    -1534 
   -1431    -1358    -1281    -1189    -1107    -1027     -932     -864 
    -872     -923     -951     -904     -773     -646     -650     -774 
    -915    -1023    -1093    -1088     -969     -764     -542     -382 
    -359     -496     -718     -942    -1173    -1431    -1682    -1850 
   -1869    -1729    -1475    -1170     -843     -565     -415     -383 
    -429     -552     -723     -877    -1000    -1112    -1208    -1264 
   -1264    -1231    -1192    -1151    -1146    -1198    -1254    -1281 
   -1302    -1308    -1266    -1183    -1090    -1013     -980     -955 
    -891     -841     -869     -934     -981    -1008    -1005     -972 
    -963    -1009    -1074    -1134    -1142    -1044     -859     -664 
    -504     -409     -417     -514     -626     -707     -761     -815 
    -877     -918     -930     -922     -884     -839     -826     -869 
   -1008    -1252    -1536    -1775    -1902    -1860    -1640    -1316 
   -1009     -799     -677     -631     -673     -785     -904     -981 
   -1020    -1036    -1008     -915     -778     -662     -622     -703 
    -909    -1212    -1497    -1648    -1682    -1672    -1660    -1636 
   -1551    -1355    -1084     -865     -770     -742     -724     -741 
    -810     -886     -913     -920     -999    -1201    -1480    -1732 
   -1868    -1854    -1698    -1408    -1008     -588     -263      -62 
      16      -49     -238     -486     -718     -865     -896     -830 
    -719     -595     -468     -394     -452     -653     -954    -1279 
   -1528    -1615    -1536    -1363    -1192    -1090    -1077    -1154 
   -1305    -1483    -1640    -1742    -1745    -1622    -1431    -1229 
   -1042     -908     -838     -796     -807     -916    -1075    -1177 
   -1146     -976     -751     -588     -477     -344     -203     -163 
    -297     -572     -870    -1065    -1135    -1158    -1182    -1178 
   -1136    -1090    -1078    -1123    -1213    -1316    -1441    -1634 
   -1868    -2062    -2170    -2147    -1939    -1551    -1074     -633 
    -302      -59      130      241      226       78     -156     -398 
    -610     -831    -1097    -1381    -1633    -1799    -1791    -1601 
   -1327    -1063     -843     -693     -652     -720     -857    -1001 
   -1107    -1181    -1293    -1451    -1548    -1514    -1402    -1267 
   -1129    -1024     -978     -970     -989    -1011    -1008    -1004 
   -1043    -1096    -1062     -869     -565     -288     -164     -245 
    -506     -835    -1102    -1270    -1385    -1478    -1532    -1501 
   -1366    -1185    -1043     -938     -811     -676     -600     -637 
    -784    -1008    -1246    -1416    -1475    -1452    -1363    -1196 
    -990     -831     -773     -819     -895     -918     -900     -927 
   -1036    -1163    -1221    -1183    -1080     -970     -901     -870 
    -859     -872     -916     -985    -1026     -973     -824     -645 
    -492     -372     -334     -468     -760    -1092    -1364    -1539 
   -1630    -1669    -1644    -1532    -1337    -1094     -891     -795 
    -783     -823     -943    -1161    -1439    -1711    -1896    -1949 
   -1885    -1695    -1356     -965     -684     -552     -486     -410 
    -324     -282     -336     -492     -699     -885    -1028    -1127 
   -1148    -1067     -923     -773     -672     -683     -814    -1015 
   -1251    -1486    -1647    -1707    -1702    -1648    -1551    -1441 
   -1328    -1212    -1096     -972     -839     -734     -666     -592 
    -468     -290     -117      -52     -141     -356     -612     -814 
    -909     -913     -884     -905     -994    -1107    -1194    -1251 
   -1316    -1414    -1539    -1680    -1815    -1863    -1744    -1458 
   -1078     -733     -519     -448     -508     -693     -943    -1190 
   -1394    -1522    -1529    -1387    -1148     -912     -756     -692 
    -696     -742     -839     -963    -1055    -1100    -1128    -1156 
   -1158    -1109    -1043    -1017    -1065    -1183    -1336    -1449 
   -1486    -1440    -1339    -1220    -1097     -951     -819     -762 
    -792     -886    -1008    -1077    -1047     -958     -865     -762 
    -633     -525     -519     -645     -855    -1069    -1216    -1278 
   -1262    -1158     -976     -774     -633     -603     -684     -861 
   -1096    -1323    -1482    -1533    -1467    -1287    -1051     -855 
    -738     -658     -611     -625     -695     -797     -899     -980 
   -1074    -1223    -1378    -1451    -1390    -1239    -1108    -1046 
   -1016     -980     -947     -945     -969     -967     -893     -764 
    -648     -610     -666     -758     -818     -837     -864     -932 
   -1013    -1058    -1063    -1053    -1059    -1112    -1178    -1189 
   -1155    -1156    -1197    -1208    -1156    -1065     -967     -924 
    -958    -1027    -1077    -1094    -1089    -1053     -967     -862 
    -818     -901    -1082    -1254    -1341    -1347    -1298    -1237 
   -1177    -1113    -1044    -1000    -1003    -1020    -1023    -1032 
   -1053    -1050    -1015     -978     -982    -1046    -1129    -1192 
   -1210    -1170    -1088     -994     -899     -815     -780     -797 
    -823     -815     -774     -739     -780     -942    -1171    -1347 
   -1390    -1332    -1252    -1179    -1089     -957     -822     -773 
    -849     -980    -1085    -1143    -1188    -1273    -1401    -1486 
   -1462    -1336    -1162     -984     -824     -675     -506     -333 
    -210     -190     -290     -454     -608     -735     -858     -986 
   -1088    -1121    -1097    -1054     -997     -942     -958    -1084 
   -1269    -1455    -1614    -1683    -1595    -1385    -1161     -992 
    -896     -884     -951    -1066    -1177    -1239    -1247    -1215 
   -1170    -1142    -1138    -1124    -1075    -1008     -946     -877 
    -769     -643     -577     -631     -797     -994    -1161    -1317 
   -1485    -1617    -1638    -1509    -1237     -919     -666     -488 
    -363     -318     -360     -475     -649     -842     -985    -1054 
   -1071    -1069    -1071    -1088    -1124    -1167    -1193    -1215 
   -1266    -1352    -1436    -1463    -1406    -1282    -1152    -1065 
   -1021    -1026    -1062    -1065     -994     -866     -702     -518 
    -325     -182     -179     -322     -540     -745     -911    -1061 
   -1206    -1344    -1443    -1462    -1402    -1316    -1243    -1212 
   -1206    -1174    -1120    -1104    -1151    -1221    -1254    -1232 
   -1185    -1108    -1001     -889     -796     -739     -718     -703 
    -708     -761     -841     -938    -1066    -1209    -1355    -1506 
   -1632    -1683    -1638    -1509    -1327    -1100     -842     -618 
    -504     -529     -657     -803     -907     -970    -1023    -1085 
   -1159    -1221    -1243    -1223    -1179    -1144    -1136    -1140 
   -1120    -1050     -959     -874     -795     -718     -656     -623 
    -627     -634     -606     -584     -645     -774     -908    -1007 
   -1046    -1044    -1059    -1140    -1274    -1413    -1530    -1624 
   -1656    -1580    -1386    -1117     -851     -657     -548     -488 
    -473     -541     -714     -959    -1179    -1279    -1247    -1144 
   -1020     -885     -760     -683     -675     -719     -797     -876 
    -934     -974    -1015    -1050    -1047     -981     -878     -796 
    -783     -877    -1078    -1332    -1566    -1726    -1782    -1723 
   -1582    -1406    -1202     -963     -720     -540     -475     -540 
    -693     -886    -1073    -1236    -1381    -1486    -1503    -1408 
   -1223    -1036     -926     -880     -859     -876     -943    -1021 
   -1047    -1001     -919     -839     -791     -784     -797     -815 
    -858     -955    -1093    -1223    -1304    -1291    -1189    -1080 
   -1015     -961     -903     -892     -962    -1104    -1283    -1449 
   -1559    -1590    -1536    -1420    -1270    -1101     -932     -791 
