Origin Time       2025/03/30 10:18:00
Lat.              34.667
Long.             140.825
Depth. (km)       69
Mag.              4.9
Station Code      CHBH10
Station Lat.      35.5458
Station Long.     140.2417
Station Height(m) 65
Record Time       2025/03/30 10:19:03
Sampling Freq(Hz) 100Hz
Duration Time(s)  120
Dir.              5
Scale Factor      7845(gal)/8223790
Max. Acc. (gal)   1.241
Last Correction   2025/03/30 10:19:03
Memo.             
[...]
   -2103    -2150    -2166    -2116    -2037    -2011    -2057    -2123 
   -2173    -2196    -2203    -2214    -2195    -2122    -2042    -2011 
   -2042    -2101    -2101    -2019    -1999    -2114    -2245    -2289 
   -2246    -2145    -2066    -2070    -2111    -2119    -2084    -2025 
   -1993    -2061    -2158    -2192    -2189    -2172    -2131    -2110 
   -2122    -2118    -2084    -2054    -2039    -2058    -2139    -2205 
   -2203    -2176    -2158    -2145    -2116    -2073    -2050    -2069 
   -2093    -2084    -2064    -2069    -2099    -2150    -2205    -2215 
   -2176    -2126    -2073    -2031    -2030    -2076    -2143    -2169 
   -2139    -2112    -2106    -2084    -2061    -2101    -2204    -2243 
   -2161    -2080    -2065    -2083    -2143    -2196    -2161    -2081 
   -2010    -1976    -2049    -2199    -2276    -2218    -2111    -2052 
   -2077    -2146    -2154    -2085    -2035    -2038    -2057    -2084 
   -2106    -2137    -2193    -2216    -2196    -2185    -2160    -2088 
   -2031    -2034    -2083    -2153    -2181    -2108    -2004    -2018 
   -2149    -2247    -2245    -2177    -2080    -2014    -2012    -2033 
   -2020    -2004    -2074    -2232    -2339    -2313    -2216    -2092 
   -1996    -2029    -2130    -2160    -2128    -2088    -2039    -2003 
   -2025    -2146    -2311    -2381    -2307    -2122    -1927    -1854 
   -1933    -2064    -2137    -2139    -2116    -2100    -2122    -2160 
   -2178    -2201    -2204    -2168    -2124    -2066    -2031    -2058 
   -2061    -2054    -2111    -2158    -2181    -2218    -2200    -2128 
   -2080    -2065    -2061    -2066    -2087    -2108    -2097    -2069 
   -2065    -2116    -2216    -2246    -2139    -2058    -2122    -2223 
   -2227    -2119    -2018    -2060    -2178    -2191    -2085    -2003 
   -2035    -2110    -2115    -2083    -2073    -2103    -2187    -2274 
   -2263    -2120    -1968    -1968    -2091    -2218    -2301    -2251 
   -2068    -1956    -1985    -2076    -2191    -2243    -2168    -2025 
   -1885    -1823    -1898    -2070    -2257    -2389    -2401    -2282 
   -2130    -2080    -2120    -2143    -2127    -2095    -2047    -2026 
   -2056    -2093    -2138    -2208    -2293    -2315    -2181    -1921 
   -1749    -1827    -2038    -2160    -2160    -2172    -2245    -2311 
   -2316    -2249    -2151    -2103    -2097    -2069    -2023    -1991 
   -1953    -1949    -2065    -2255    -2358    -2281    -2122    -2037 
   -2018    -1999    -2025    -2115    -2201    -2197    -2081    -1985 
   -2027    -2151    -2265    -2295    -2228    -2177    -2181    -2162 
   -2080    -1949    -1846    -1887    -2069    -2277    -2416    -2411 
   -2249    -2033    -1899    -1884    -1930    -1999    -2127    -2274 
   -2303    -2177    -2043    -2030    -2114    -2196    -2216    -2189 
   -2143    -2088    -2033    -1985    -2000    -2122    -2258    -2295 
   -2243    -2110    -1934    -1902    -2076    -2274    -2332    -2236 
   -2081    -1966    -1934    -2003    -2149    -2249    -2220    -2133 
   -2084    -2080    -2079    -2042    -1981    -1971    -2093    -2297 
   -2427    -2386    -2211    -2031    -1948    -1944    -1972    -2054 
   -2180    -2268    -2273    -2191    -2107    -2110    -2124    -2087 
   -2030    -1980    -1989    -2064    -2126    -2170    -2193    -2181 
   -2212    -2259    -2197    -2047    -1915    -1871    -1946    -2077 
   -2174    -2226    -2238    -2195    -2127    -2096    -2115    -2180 
   -2261    -2253    -2128    -1987    -1927    -1989    -2103    -2169 
   -2177    -2162    -2162    -2178    -2173    -2170    -2162    -2089 
   -2020    -2010    -2030    -2128    -2253    -2239    -2118    -2045 
   -2054    -2116    -2162    -2124    -2065    -2079    -2106    -2074 
   -2056    -2104    -2184    -2220    -2150    -2014    -1944    -1981 
   -2104    -2251    -2290    -2189    -2074    -2052    -2095    -2118 
   -2095    -2077    -2100    -2150    -2180    -2199    -2232    -2207 
   -2099    -1991    -1921    -1934    -2041    -2143    -2180    -2170 
   -2130    -2096    -2110    -2166    -2231    -2265    -2222    -2092 
   -1965    -1946    -2020    -2099    -2145    -2176    -2205    -2182 
   -2073    -2016    -2114    -2215    -2174    -2052    -2003    -2122 
   -2309    -2386    -2312    -2195    -2119    -2065    -2010    -1977 
   -2006    -2093    -2177    -2187    -2147    -2095    -2019    -1987 
   -2035    -2080    -2069    -2047    -2054    -2103    -2174    -2218 
   -2211    -2164    -2133    -2168    -2203    -2173    -2100    -2020 
   -2014    -2093    -2154    -2191    -2228    -2203    -2138    -2068 
   -1972    -1914    -1952    -2062    -2195    -2232    -2168    -2135 
   -2145    -2134    -2123    -2155    -2203    -2174    -2064    -1969 
   -1944    -1987    -2083    -2192    -2290    -2378    -2374    -2231 
   -2096    -2069    -2031    -1981    -2034    -2122    -2142    -2120 
   -2092    -2096    -2147    -2168    -2134    -2065    -1949    -1900 
   -2041    -2212    -2219    -2081    -1904    -1830    -1935    -2147 
   -2392    -2551    -2493    -2308    -2146    -2041    -1998    -1958 
   -1900    -1892    -1942    -2026    -2164    -2323    -2409    -2380 
   -2270    -2100    -1933    -1865    -1879    -1926    -2029    -2155 
   -2288    -2405    -2394    -2258    -2131    -2064    -2047    -2039 
   -1998    -1992    -2100    -2263    -2373    -2340    -2164    -1961 
   -1871    -1908    -1975    -2008    -2034    -2091    -2165    -2199 
   -2181    -2141    -2084    -2034    -2033    -2089    -2154    -2172 
   -2180    -2251    -2347    -2350    -2203    -2002    -1919    -1976 
   -2062    -2119    -2138    -2145    -2188    -2231    -2220    -2173 
   -2106    -2053    -2088    -2134    -2081    -2008    -1996    -2006 
   -2042    -2115    -2176    -2205    -2222    -2185    -2062    -1935 
   -1919    -2053    -2265    -2359    -2258    -2124    -2101    -2189 
   -2296    -2254    -2074    -1939    -1875    -1814    -1814    -1937 
   -2169    -2376    -2366    -2176    -2018    -2016    -2147    -2254 
   -2219    -2141    -2103    -2095    -2134    -2187    -2187    -2149 
   -2114    -2088    -2057    -2070    -2146    -2191    -2161    -2080 
   -2011    -2033    -2119    -2139    -2073    -2023    -2061    -2153 
   -2211    -2177    -2122    -2180    -2280    -2236    -2111    -2060 
   -2081    -2122    -2143    -2112    -2053    -1996    -1964    -1979 
   -2046    -2150    -2232    -2227    -2115    -1965    -1923    -2027 
   -2158    -2218    -2197    -2141    -2097    -2035    -1966    -2031 
   -2238    -2409    -2400    -2226    -2031    -1968    -2058    -2207 
   -2278    -2204    -2058    -1980    -2022    -2162    -2320    -2388 
   -2313    -2157    -2015    -1938    -1946    -2052    -2146    -2133 
   -2062    -2010    -2014    -2080    -2128    -2107    -2056    -2018 
   -2019    -2062    -2123    -2177    -2207    -2199    -2157    -2065 
   -1949    -1912    -1977    -2077    -2181    -2311    -2435    -2427 
   -2268    -2099    -2023    -2050    -2116    -2164    -2193    -2182 
   -2145    -2149    -2149    -2083    -2026    -2052    -2141    -2212 
   -2205    -2168    -2178    -2192    -2101    -1937    -1833    -1830 
   -1904    -2014    -2092    -2187    -2322    -2344    -2209    -2056 
   -2002    -2092    -2203    -2147    -1999    -1953    -2050    -2228 
   -2370    -2373    -2241    -2043    -1896    -1845    -1840    -1891 
   -2012    -2097    -2095    -2101    -2200    -2332    -2357    -2241 
   -2126    -2110    -2158    -2191    -2176    -2160    -2162    -2149 
   -2127    -2112    -2097    -2101    -2115    -2092    -2020    -1930 
   -1925    -2064    -2230    -2269    -2178    -2092    -2120    -2196 
   -2208    -2169    -2115    -2058    -2034    -2029    -2012    -2022 
   -2118    -2277    -2363    -2289    -2111    -1962    -1946    -1971 
   -1911    -1858    -1925    -2089    -2281    -2380    -2357    -2286 
   -2185    -2091    -2081    -2111    -2077    -2023    -2046    -2141 
   -2247    -2309    -2286    -2207    -2154    -2170    -2212    -2201 
   -2108    -2026    -2042    -2076    -2052    -2008    -1966    -1991 
   -2116    -2191    -2137    -2072    -2112    -2243    -2297    -2181 
   -2016    -1925    -1981    -2162    -2277    -2238    -2147    -2073 
   -2015    -1983    -1999    -2052    -2099    -2164    -2230    -2192 
   -2093    -2062    -2111    -2157    -2114    -2068    -2145    -2241 
   -2203    -2025    -1802    -1729    -1888    -2111    -2231    -2224 
   -2154    -2126    -2195    -2300    -2357    -2326    -2219    -2076 
   -1968    -2003    -2160    -2273    -2289    -2284    -2277    -2227 
   -2131    -2064    -2070    -2089    -2054    -1988    -1950    -1950 
   -1988    -2058    -2123    -2166    -2184    -2172    -2157    -2150 
   -2112    -2038    -1960    -1921    -1965    -2054    -2091    -2099 
   -2164    -2290    -2419    -2452    -2326    -2091    -1891    -1837 
   -1935    -2084    -2161    -2135    -2093    -2103    -2143    -2173 
   -2161    -2104    -2052    -2015    -1958    -1946    -2066    -2216 
   -2254    -2181    -2038    -1941    -2039    -2241    -2393    -2475 
   -2435    -2253    -2037    -1921    -1979    -2130    -2238    -2262 
   -2165    -1979    -1860    -1906    -2095    -2312    -2369    -2235 
   -2042    -1910    -1911    -1995    -2041    -2087    -2149    -2143 
   -2069    -2007    -2038    -2184    -2351    -2430    -2350    -2131 
   -1925    -1846    -1907    -2037    -2106    -2134    -2196    -2218 
   -2151    -2057    -2023    -2145    -2355    -2435    -2312    -2099 
   -1931    -1869    -1877    -1923    -1996    -2069    -2155    -2262 
   -2335    -2331    -2262    -2164    -2057    -1976    -1952    -1945 
   -1962    -2056    -2199    -2316    -2340    -2285    -2236    -2166 
   -2035    -1946    -1926    -1915    -1950    -2045    -2169    -2339 
   -2475    -2427    -2205    -1969    -1864    -1949    -2137    -2268 
   -2259    -2123    -1965    -1938    -2061    -2220    -2282    -2207 
   -2076    -1996    -2008    -2077    -2153    -2230    -2301    -2315 
   -2243    -2116    -1998    -1949    -1956    -1992    -2042    -2057 
   -1991    -1876    -1842    -1996    -2211    -2285    -2219    -2145 
   -2131    -2172    -2208    -2211    -2234    -2286    -2277    -2201 
   -2135    -2097    -2108    -2164    -2185    -2155    -2128    -2115 
   -2101    -2095    -2100    -2097    -2085    -2089    -2103    -2081 
   -2015    -1988    -2077    -2214    -2261    -2218    -2181    -2168 
   -2168    -2209    -2236    -2177    -2062    -1985    -1993    -2056 
   -2115    -2110    -2035    -2002    -2110    -2303    -2436    -2415 
   -2246    -2016    -1845    -1792    -1848    -1992    -2127    -2133 
   -2031    -1908    -1849    -1918    -2006    -2008    -1993    -2030 
   -2114    -2207    -2280    -2315    -2281    -2216    -2176    -2149 
   -2158    -2211    -2232    -2196    -2155    -2174    -2269    -2330 
   -2270    -2145    -2052    -2085    -2238    -2349    -2338    -2268 
   -2185    -2119    -2031    -1888    -1806    -1853    -1945    -2014 
   -2031    -2007    -2012    -2077    -2157    -2199    -2205    -2243 
   -2327    -2353    -2218    -1987    -1830    -1845    -1975    -2106 
   -2172    -2145    -2077    -2085    -2193    -2311    -2317    -2176 
   -1980    -1869    -1929    -2123    -2307    -2362    -2261    -2060 
   -1903    -1908    -2045    -2166    -2187    -2133    -2046    -1976 
   -1972    -2037    -2168    -2311    -2328    -2162    -1950    -1872 
   -1983    -2204    -2401    -2457    -2350    -2174    -2073    -2115 
   -2228    -2300    -2276    -2189    -2087    -1964    -1829    -1767 
   -1858    -2070    -2289    -2398    -2332    -2142    -1961    -1902 
   -1992    -2133    -2189    -2146    -2058    -1995    -2049    -2209 
   -2330    -2336    -2259    -2108    -1948    -1894    -1949    -2026 
   -2054    -2016    -1962    -1937    -1972    -2066    -2115    -2062 
   -2030    -2123    -2285    -2381    -2347    -2232    -2114    -2058 
   -2103    -2172    -2195    -2185    -2173    -2201    -2266    -2278 
   -2214    -2147    -2127    -2128    -2074    -1969    -1915    -1998 
   -2205    -2370    -2343    -2199    -2085    -2053    -2084    -2106 
   -2069    -2016    -1998    -2047    -2135    -2176    -2177    -2169 
   -2139    -2124    -2143    -2181    -2218    -2215    -2184    -2150 
   -2137    -2199    -2273    -2249    -2160    -2016    -1841    -1755 
   -1792    -1923    -2111    -2228    -2209    -2106    -1992    -1956 
   -1969    -1931    -1887    -1930    -2046    -2180    -2270    -2282 
   -2273    -2282    -2258    -2158    -1979    -1792    -1736    -1873 
   -2089    -2223    -2255    -2261    -2282    -2295    -2222    -2077 
   -1996    -2003    -1969    -1854    -1756    -1773    -1915    -2095 
   -2188    -2153    -2069    -2030    -2027    -2012    -1960    -1877 
   -1841    -1894    -1965    -2004    -2025    -2038    -2057    -2087 
   -2103    -2107    -2139    -2201    -2293    -2428    -2543    -2562 
   -2512    -2478    -2497    -2521    -2496    -2419    -2316    -2251 
   -2297    -2419    -2531    -2567    -2452    -2211    -1975    -1831 
   -1809    -1857    -1911    -2008    -2130    -2135    -2011    -1876 
   -1800    -1804    -1867    -1912    -1860    -1691    -1517    -1503 
   -1676    -1946    -2228    -2420    -2479    -2498    -2569    -2724 
   -2961    -3217    -3407    -3418    -3134    -2636    -2170    -1881 
   -1769    -1730    -1613    -1390    -1197    -1161    -1300    -1526 
   -1771    -2010    -2158    -2141    -1984    -1807    -1807    -2080 
   -2538    -3011    -3287    -3271    -3113    -2949    -2786    -2600 
   -2373    -2188    -2149    -2185    -2155    -2049    -1948    -1899 
   -1861    -1798    -1696    -1522    -1275    -1078    -1117    -1447 
   -1918    -2342    -2596    -2601    -2347    -1899    -1401    -1063 
   -1003    -1182    -1530    -1939    -2263    -2450    -2586    -2764 
   -2963    -3046    -2928    -2601    -2104    -1553    -1128     -951 
   -1051    -1340    -1668    -1938    -2112    -2185    -2208    -2235 
   -2285    -2311    -2249    -2120    -2020    -2054    -2266    -2560 
   -2783    -2832    -2729    -2598    -2529    -2517    -2470    -2343 
   -2224    -2203    -2289    -2447    -2597    -2652    -2566    -2335 
   -1993    -1628    -1364    -1294    -1391    -1524    -1603    -1687 
   -1885    -2219    -2555    -2714    -2681    -2604    -2575    -2531 
   -2367    -2107    -1877    -1760    -1814    -2056    -2350    -2528 
   -2533    -2397    -2253    -2228    -2274    -2259    -2119    -1858 
   -1563    -1409    -1559    -1958    -2319    -2427    -2262    -1923 
   -1644    -1624    -1848    -2111    -2165    -1981    -1806    -1825 
   -2031    -2261    -2324    -2226    -2083    -1945    -1833    -1744 
   -1667    -1641    -1667    -1748    -1931    -2174    -2381    -2550 
   -2702    -2799    -2744    -2511    -2227    -2031    -1934    -1931 
   -2049    -2231    -2407    -2569    -2701    -2768    -2756    -2643 
   -2377    -1941    -1439    -1067     -992    -1263    -1760    -2277 
   -2629    -2683    -2477    -2241    -2120    -2091    -2107    -2139 
   -2154    -2153    -2158    -2199    -2304    -2444    -2520    -2457 
   -2208    -1827    -1520    -1464    -1679    -2031    -2312    -2386 
   -2316    -2274    -2378    -2597    -2816    -2921    -2791    -2397 
   -1910    -1529    -1327    -1310    -1443    -1663    -1922    -2189 
   -2448    -2670    -2793    -2779    -2600    -2223    -1718    -1243 
    -965    -1017    -1370    -1773    -1980    -1950    -1836    -1787 
   -1810    -1826    -1783    -1719    -1710    -1810    -2052    -2424 
   -2826    -3117    -3213    -3122    -2938    -2817    -2853    -2994 
   -3071    -2956    -2650    -2238    -1800    -1441    -1213    -1107 
   -1129    -1254    -1425    -1632    -1834    -1980    -2100    -2207 
   -2278    -2319    -2355    -2396    -2428    -2467    -2517    -2496 
   -2326    -2076    -1864    -1753    -1742    -1800    -1894    -1927 
   -1804    -1620    -1551    -1663    -1915    -2184    -2331    -2308 
   -2138    -1949    -1939    -2170    -2521    -2794    -2855    -2729 
   -2527    -2358    -2332    -2463    -2646    -2713    -2527    -2153 
   -1809    -1626    -1618    -1717    -1746    -1626    -1482    -1409 
   -1391    -1439    -1584    -1841    -2197    -2555    -2787    -2864 
   -2829    -2727    -2590    -2436    -2313    -2255    -2212    -2158 
   -2149    -2197    -2228    -2197    -2127    -2029    -1942    -1917 
   -1930    -1944    -1965    -1987    -1989    -2008    -2099    -2231 
   -2290    -2200    -2018    -1850    -1745    -1711    -1737    -1823 
   -1981    -2150    -2246    -2297    -2374    -2475    -2560    -2589 
   -2554    -2458    -2297    -2120    -2015    -2014    -2126    -2324 
   -2452    -2378    -2101    -1699    -1351    -1263    -1482    -1849 
   -2116    -2128    -1957    -1821    -1887    -2139    -2404    -2474 
   -2290    -1988    -1767    -1765    -2006    -2355    -2601    -2594 
   -2342    -1992    -1741    -1707    -1918    -2288    -2594    -2685 
   -2636    -2570    -2498    -2397    -2262    -2133    -2038    -1931 
   -1807    -1748    -1788    -1908    -2100    -2311    -2447    -2458 
   -2354    -2205    -2104    -2074    -2030    -1919    -1823    -1838 
   -1988    -2226    -2415    -2435    -2286    -2050    -1821    -1629 
   -1480    -1463    -1634    -1945    -2308    -2556    -2550    -2392 
   -2259    -2224    -2250    -2224    -2093    -1939    -1853    -1885 
   -1999    -2053    -1998    -1896    -1798    -1768    -1834    -1987 
   -2253    -2577    -2803    -2841    -2668    -2371    -2126    -2025 
   -2033    -2060    -2046    -2015    -2018    -2084    -2177    -2208 
   -2168    -2093    -2004    -1972    -2064    -2218    -2342    -2381 
   -2323    -2204    -2085    -2000    -1953    -1935    -1933    -1923 
   -1908    -1906    -1904    -1923    -2002    -2116    -2242    -2363 
   -2443    -2438    -2324    -2154    -2014    -1933    -1921    -2006 
   -2134    -2200    -2181    -2118    -2064    -2076    -2181    -2296 
   -2290    -2130    -1892    -1740    -1815    -2053    -2255    -2319 
   -2261    -2164    -2119    -2143    -2222    -2361    -2536    -2662 
   -2646    -2462    -2165    -1887    -1737    -1734    -1831    -1960 
   -2030    -2003    -1941    -1919    -1966    -2069    -2154    -2154 
   -2080    -1981    -1896    -1849    -1863    -1957    -2083    -2153 
   -2177    -2215    -2227    -2189    -2166    -2205    -2286    -2386 
   -2479    -2524    -2462    -2293    -2114    -2006    -1966    -1937 
   -1903    -1880    -1876    -1910    -1987    -2070    -2112    -2066 
   -1988    -2020    -2203    -2415    -2494    -2374    -2166    -2047 
   -2076    -2211    -2361    -2424    -2405    -2373    -2350    -2378 
   -2462    -2509    -2428    -2199    -1876    -1563    -1389    -1435 
   -1663    -1944    -2149    -2222    -2173    -2074    -2022    -2062 
   -2158    -2223    -2185    -2056    -1910    -1822    -1854    -2027 
   -2292    -2543    -2675    -2679    -2636    -2620    -2617    -2524 
   -2272    -1922    -1595    -1406    -1433    -1615    -1794    -1863 
