Origin Time       2025/03/30 10:18:00
Lat.              34.667
Long.             140.825
Depth. (km)       69
Mag.              4.9
Station Code      CHBH17
Station Lat.      35.1714
Station Long.     140.3398
Station Height(m) -811.7
Record Time       2025/03/30 10:18:50
Sampling Freq(Hz) 100Hz
Duration Time(s)  120
Dir.              2
Scale Factor      2942(gal)/8224139
Max. Acc. (gal)   1.043
Last Correction   2025/03/30 10:18:50
Memo.             
[...]
 -350636  -350643  -350644  -350635  -350638  -350643  -350640  -350639 
 -350638  -350635  -350638  -350643  -350640  -350638  -350639  -350639 
 -350639  -350642  -350640  -350636  -350638  -350639  -350638  -350639 
 -350639  -350636  -350639  -350642  -350640  -350638  -350638  -350638 
 -350636  -350638  -350643  -350640  -350636  -350638  -350638  -350638 
 -350639  -350639  -350638  -350638  -350639  -350642  -350642  -350638 
 -350632  -350632  -350635  -350636  -350634  -350636  -350642  -350640 
 -350636  -350638  -350638  -350636  -350639  -350639  -350636  -350638 
 -350639  -350636  -350634  -350635  -350638  -350640  -350642  -350640 
 -350638  -350636  -350636  -350639  -350638  -350636  -350638  -350635 
 -350636  -350639  -350636  -350636  -350639  -350636  -350636  -350639 
 -350638  -350639  -350642  -350640  -350639  -350639  -350636  -350634 
 -350639  -350640  -350636  -350639  -350640  -350638  -350639  -350639 
 -350636  -350638  -350638  -350634  -350635  -350639  -350638  -350638 
 -350638  -350638  -350639  -350640  -350639  -350638  -350636  -350638 
 -350638  -350636  -350638  -350639  -350636  -350636  -350638  -350636 
 -350635  -350636  -350639  -350639  -350635  -350634  -350634  -350635 
 -350634  -350632  -350635  -350638  -350638  -350636  -350635  -350636 
 -350639  -350639  -350638  -350635  -350636  -350638  -350635  -350636 
 -350639  -350639  -350636  -350638  -350639  -350639  -350638  -350636 
 -350636  -350639  -350638  -350635  -350638  -350638  -350635  -350635 
 -350638  -350636  -350634  -350635  -350636  -350635  -350638  -350639 
 -350636  -350636  -350640  -350638  -350635  -350638  -350639  -350636 
 -350636  -350638  -350638  -350639  -350640  -350635  -350632  -350636 
 -350639  -350639  -350638  -350636  -350636  -350636  -350639  -350640 
 -350639  -350638  -350638  -350636  -350638  -350640  -350639  -350639 
 -350640  -350639  -350638  -350639  -350635  -350634  -350635  -350636 
 -350636  -350635  -350636  -350638  -350636  -350635  -350634  -350638 
 -350640  -350636  -350634  -350636  -350638  -350638  -350635  -350634 
 -350636  -350638  -350636  -350636  -350638  -350639  -350635  -350635 
 -350638  -350638  -350636  -350636  -350638  -350639  -350638  -350638 
 -350639  -350638  -350636  -350638  -350636  -350635  -350636  -350639 
 -350638  -350634  -350636  -350639  -350636  -350634  -350638  -350639 
 -350636  -350636  -350638  -350638  -350638  -350639  -350638  -350638 
 -350638  -350635  -350632  -350636  -350639  -350639  -350639  -350638 
 -350635  -350634  -350638  -350640  -350639  -350636  -350638  -350639 
 -350639  -350639  -350639  -350639  -350638  -350638  -350639  -350639 
 -350636  -350638  -350639  -350636  -350636  -350638  -350640  -350642 
 -350640  -350635  -350636  -350638  -350638  -350638  -350639  -350638 
 -350635  -350635  -350635  -350636  -350639  -350639  -350638  -350639 
 -350638  -350635  -350636  -350638  -350638  -350639  -350638  -350636 
 -350638  -350635  -350634  -350634  -350636  -350638  -350635  -350632 
 -350636  -350639  -350636  -350638  -350640  -350636  -350634  -350636 
 -350638  -350636  -350635  -350638  -350640  -350639  -350638  -350638 
 -350639  -350639  -350636  -350638  -350638  -350635  -350636  -350638 
 -350635  -350634  -350636  -350639  -350638  -350635  -350635  -350636 
 -350639  -350640  -350636  -350636  -350639  -350636  -350636  -350639 
 -350639  -350636  -350639  -350640  -350639  -350639  -350640  -350636 
 -350632  -350638  -350647  -350655  -350654  -350638  -350619  -350619 
 -350638  -350654  -350646  -350627  -350634  -350653  -350650  -350631 
 -350619  -350620  -350636  -350654  -350651  -350639  -350636  -350643 
 -350651  -350651  -350635  -350607  -350578  -350588  -350655  -350725 
 -350723  -350663  -350631  -350657  -350694  -350686  -350624  -350555 
 -350530  -350553  -350603  -350661  -350697  -350698  -350681  -350653 
 -350624  -350593  -350559  -350569  -350627  -350677  -350673  -350640 
 -350653  -350698  -350711  -350684  -350631  -350559  -350518  -350528 
 -350577  -350639  -350689  -350719  -350698  -350643  -350669  -350752 
 -350739  -350643  -350597  -350620  -350617  -350549  -350515  -350580 
 -350643  -350620  -350577  -350615  -350704  -350738  -350698  -350615 
 -350536  -350573  -350701  -350747  -350671  -350589  -350570  -350612 
 -350680  -350735  -350746  -350677  -350551  -350488  -350562  -350670 
 -350654  -350547  -350528  -350631  -350724  -350721  -350642  -350599 
 -350685  -350793  -350727  -350553  -350516  -350634  -350724  -350700 
 -350607  -350534  -350536  -350589  -350622  -350576  -350519  -350609 
 -350806  -350874  -350782  -350720  -350721  -350662  -350536  -350458 
 -350481  -350545  -350565  -350589  -350688  -350785  -350771  -350681 
 -350595  -350563  -350611  -350713  -350754  -350639  -350515  -350584 
 -350748  -350771  -350673  -350613  -350659  -350720  -350671  -350570 
 -350550  -350592  -350599  -350555  -350563  -350676  -350771  -350735 
 -350617  -350566  -350627  -350676  -350635  -350558  -350535  -350593 
 -350634  -350609  -350631  -350698  -350697  -350658  -350686  -350748 
 -350727  -350584  -350482  -350547  -350690  -350828  -350887  -350785 
 -350647  -350634  -350649  -350538  -350388  -350372  -350468  -350535 
 -350569  -350665  -350759  -350709  -350601  -350617  -350698  -350685 
 -350646  -350701  -350721  -350574  -350426  -350453  -350593  -350719 
 -350750  -350688  -350643  -350681  -350719  -350657  -350558  -350524 
 -350503  -350449  -350442  -350534  -350734  -350929  -350941  -350838 
 -350767  -350690  -350573  -350493  -350495  -350555  -350634  -350676 
 -350673  -350671  -350748  -350860  -350800  -350554  -350435  -350557 
 -350661  -350624  -350630  -350744  -350782  -350661  -350511  -350419 
 -350408  -350433  -350387  -350364  -350542  -350813  -350979  -350989 
 -350879  -350797  -350788  -350700  -350549  -350465  -350468  -350555 
 -350643  -350631  -350630  -350740  -350846  -350802  -350655  -350524 
 -350442  -350500  -350712  -350735  -350461  -350316  -350468  -350659 
 -350794  -350917  -350935  -350782  -350631  -350667  -350757  -350666 
 -350443  -350304  -350339  -350465  -350581  -350700  -350806  -350854 
 -350850  -350804  -350717  -350628  -350555  -350472  -350416  -350485 
 -350623  -350639  -350570  -350692  -350954  -350951  -350646  -350422 
 -350426  -350545  -350700  -350796  -350754  -350613  -350451  -350374 
 -350453  -350555  -350573  -350608  -350670  -350680  -350704  -350728 
 -350616  -350455  -350460  -350631  -350790  -350838  -350844  -350870 
 -350878  -350878  -350862  -350735  -350551  -350480  -350508  -350519 
 -350492  -350492  -350600  -350739  -350698  -350478  -350353  -350426 
 -350508  -350532  -350609  -350678  -350698  -350812  -350905  -350785 
 -350659  -350688  -350705  -350663  -350639  -350622  -350607  -350593 
 -350541  -350481  -350520  -350607  -350600  -350573  -350689  -350848 
 -350875  -350754  -350565  -350481  -350530  -350503  -350450  -350613 
 -350851  -350900  -350802  -350671  -350586  -350669  -350808  -350765 
 -350611  -350570  -350651  -350681  -350576  -350482  -350572  -350724 
 -350705  -350514  -350357  -350424  -350657  -350777  -350693  -350580 
 -350570  -350624  -350632  -350596  -350644  -350794  -350838  -350636 
 -350420  -350472  -350653  -350694  -350671  -350765  -350873  -350820 
 -350688  -350655  -350658  -350584  -350549  -350631  -350670  -350561 
 -350414  -350399  -350547  -350697  -350686  -350581  -350577  -350680 
 -350731  -350709  -350681  -350686  -350815  -350941  -350793  -350489 
 -350311  -350291  -350412  -350620  -350665  -350470  -350370  -350585 
 -350843  -350863  -350802  -350813  -350786  -350716  -350709  -350735 
 -350728  -350655  -350549  -350534  -350570  -350473  -350292  -350322 
 -350689  -351052  -350990  -350630  -350388  -350356  -350392  -350430 
 -350538  -350724  -350817  -350801  -350805  -350788  -350766  -350765 
 -350659  -350576  -350644  -350650  -350613  -350754  -350948  -350986 
 -350921  -350846  -350725  -350585  -350469  -350349  -350260  -350273 
 -350403  -350545  -350605  -350692  -350840  -350898  -350839  -350727 
 -350595  -350473  -350377  -350385  -350534  -350713  -350842  -350886 
 -350846  -350789  -350765  -350788  -350777  -350595  -350337  -350248 
 -350289  -350315  -350441  -350669  -350721  -350638  -350724  -350894 
 -350863  -350681  -350524  -350420  -350416  -350558  -350700  -350790 
 -350890  -350854  -350701  -350736  -350920  -350914  -350669  -350427 
 -350370  -350395  -350360  -350372  -350512  -350677  -350735  -350632 
 -350519  -350526  -350555  -350585  -350653  -350696  -350767  -350885 
 -350870  -350739  -350690  -350721  -350707  -350627  -350555  -350541 
 -350576  -350654  -350730  -350709  -350569  -350450  -350566  -350815 
 -350858  -350739  -350725  -350721  -350551  -350392  -350423  -350522 
 -350615  -350817  -351074  -351101  -350806  -350493  -350389  -350346 
 -350268  -350304  -350473  -350616  -350639  -350595  -350593  -350640 
 -350639  -350545  -350504  -350688  -350862  -350697  -350439  -350468 
 -350631  -350684  -350677  -350720  -350844  -350962  -350892  -350694 
 -350581  -350524  -350499  -350616  -350812  -350883  -350784  -350646 
 -350519  -350383  -350354  -350464  -350550  -350605  -350734  -350860 
 -350852  -350762  -350713  -350731  -350761  -350781  -350744  -350584 
 -350412  -350368  -350412  -350536  -350684  -350690  -350649  -350747 
 -350792  -350632  -350500  -350464  -350403  -350424  -350578  -350703 
 -350750  -350769  -350771  -350782  -350758  -350647  -350577  -350669 
 -350784  -350761  -350628  -350485  -350416  -350482  -350671  -350912 
 -351049  -350955  -350708  -350472  -350346  -350368  -350447  -350462 
 -350458  -350534  -350638  -350673  -350666  -350658  -350627  -350599 
 -350626  -350716  -350825  -350883  -350867  -350805  -350744  -350709 
 -350639  -350526  -350501  -350578  -350636  -350617  -350481  -350279 
 -350217  -350374  -350599  -350781  -350897  -350890  -350825  -350804 
 -350735  -350585  -350535  -350655  -350759  -350628  -350345  -350235 
 -350400  -350627  -350732  -350713  -350667  -350698  -350815  -350893 
 -350844  -350751  -350676  -350622  -350650  -350698  -350678  -350678 
 -350721  -350713  -350690  -350727  -350778  -350720  -350531  -350374 
 -350369  -350384  -350299  -350300  -350514  -350704  -350720  -350707 
 -350746  -350784  -350800  -350823  -350821  -350716  -350538  -350414 
 -350419  -350546  -350731  -350848  -350789  -350624  -350578  -350688 
 -350748  -350690  -350578  -350446  -350414  -350516  -350536  -350485 
 -350570  -350711  -350758  -350759  -350703  -350557  -350505  -350655 
 -350806  -350865  -350870  -350728  -350485  -350408  -350530  -350611 
 -350558  -350501  -350530  -350554  -350505  -350501  -350599  -350654 
 -350616  -350603  -350697  -350827  -350843  -350769  -350705  -350627 
 -350568  -350662  -350879  -351032  -351024  -350921  -350766  -350557 
 -350403  -350388  -350403  -350393  -350435  -350547  -350651  -350636 
 -350562  -350547  -350568  -350635  -350742  -350742  -350624  -350566 
 -350669  -350785  -350731  -350597  -350570  -350630  -350692  -350757 
 -350744  -350605  -350519  -350558  -350584  -350570  -350543  -350470 
 -350420  -350518  -350725  -350862  -350862  -350842  -350852  -350835 
 -350790  -350746  -350653  -350531  -350501  -350601  -350724  -350774 
 -350805  -350835  -350730  -350489  -350335  -350368  -350491  -350623 
 -350728  -350748  -350688  -350613  -350554  -350541  -350612  -350696 
 -350705  -350696  -350719  -350680  -350536  -350403  -350361  -350376 
 -350415  -350500  -350604  -350666  -350728  -350794  -350765  -350734 
 -350813  -350848  -350757  -350674  -350682  -350717  -350688  -350605 
 -350536  -350536  -350623  -350678  -350604  -350491  -350445  -350447 
 -350464  -350488  -350547  -350681  -350844  -350916  -350855  -350763 
 -350766  -350816  -350790  -350671  -350551  -350497  -350500  -350543 
 -350609  -350662  -350685  -350676  -350605  -350487  -350427  -350501 
 -350636  -350694  -350640  -350597  -350604  -350557  -350482  -350520 
 -350653  -350789  -350909  -350955  -350873  -350759  -350732  -350746 
 -350685  -350555  -350473  -350472  -350491  -350492  -350487  -350478 
 -350466  -350480  -350554  -350626  -350636  -350607  -350584  -350617 
 -350704  -350769  -350805  -350863  -350912  -350860  -350743  -350666 
 -350642  -350647  -350701  -350757  -350754  -350715  -350678  -350643 
 -350603  -350550  -350462  -350407  -350468  -350557  -350604  -350681 
 -350790  -350836  -350786  -350669  -350555  -350519  -350570  -350638 
 -350635  -350569  -350584  -350747  -350865  -350762  -350588  -350508 
 -350423  -350289  -350229  -350254  -350298  -350354  -350397  -350408 
 -350412  -350434  -350505  -350632  -350766  -350812  -350739  -350651 
 -350616  -350600  -350577  -350541  -350477  -350401  -350342  -350322 
 -350323  -350335  -350379  -350451  -350509  -350516  -350503  -350499 
 -350485  -350514  -350644  -350812  -350844  -350697  -350530  -350453 
 -350430  -350458  -350593  -350788  -350955  -351152  -351346  -351340 
 -351117  -350846  -350670  -350696  -350840  -350931  -350990  -351052 
 -350990  -350758  -350507  -350395  -350415  -350543  -350778  -351099 
 -351515  -351973  -352308  -352418  -352254  -351710  -350816  -349952 
 -349559  -349710  -350235  -351031  -351943  -352599  -352613  -351905 
 -350692  -349358  -348313  -347751  -347723  -348254  -349188  -350129 
 -350635  -350559  -350117  -349575  -349209  -349378  -350195  -351311 
 -352212  -352530  -352219  -351589  -351024  -350661  -350438  -350315 
 -350370  -350670  -351144  -351587  -351720  -351442  -350954  -350478 
 -350153  -350061  -350152  -350273  -350387  -350518  -350609  -350651 
 -350665  -350550  -350296  -350069  -349994  -350065  -350202  -350322 
 -350455  -350682  -350955  -351167  -351295  -351359  -351322  -351175 
 -350956  -350661  -350279  -349872  -349521  -349272  -349149  -349211 
 -349559  -350207  -350964  -351560  -351851  -351900  -351876  -351792 
 -351502  -351071  -350763  -350611  -350445  -350175  -349883  -349795 
 -350046  -350465  -350865  -351199  -351438  -351557  -351503  -351295 
 -351058  -350732  -350249  -349866  -349766  -349878  -350125  -350370 
 -350545  -350777  -351049  -351176  -351090  -350877  -350707  -350630 
 -350484  -350211  -350042  -350134  -350389  -350635  -350755  -350740 
 -350738  -350835  -350913  -350858  -350676  -350428  -350237  -350227 
 -350437  -350705  -350852  -350916  -350989  -351033  -350962  -350732 
 -350433  -350264  -350364  -350677  -351078  -351415  -351483  -351251 
 -350947  -350755  -350638  -350520  -350470  -350531  -350609  -350595 
 -350469  -350314  -350273  -350397  -350545  -350522  -350307  -350088 
 -350018  -350123  -350376  -350693  -350987  -351245  -351407  -351368 
 -351079  -350669  -350416  -350438  -350615  -350812  -350896  -350794 
 -350585  -350361  -350173  -350144  -350408  -350879  -351271  -351390 
 -351255  -350947  -350528  -350096  -349749  -349509  -349394  -349455 
 -349704  -350119  -350623  -351082  -351392  -351522  -351504  -351410 
 -351287  -351147  -350919  -350557  -350175  -349875  -349710  -349768 
 -349990  -350284  -350662  -351071  -351442  -351730  -351747  -351356 
 -350707  -350069  -349655  -349598  -349864  -350262  -350653  -350929 
 -351025  -351032  -351097  -351309  -351642  -351888  -351862  -351594 
 -351195  -350784  -350470  -350292  -350200  -350152  -350158  -350173 
 -350084  -349897  -349690  -349542  -349558  -349764  -350096  -350550 
 -351091  -351503  -351580  -351310  -350852  -350435  -350207  -350161 
 -350283  -350631  -351105  -351403  -351398  -351236  -351010  -350671 
 -350249  -349905  -349785  -349967  -350379  -350801  -351108  -351311 
 -351344  -351094  -350653  -350277  -350098  -350006  -349933  -349984 
 -350202  -350530  -350919  -351305  -351611  -351747  -351619  -351274 
 -350889  -350578  -350377  -350339  -350411  -350333  -349971  -349604 
 -349566  -349925  -350582  -351299  -351766  -351889  -351789  -351627 
 -351471  -351232  -350811  -350268  -349824  -349710  -349906  -350158 
 -350391  -350688  -350948  -351058  -351044  -350875  -350532  -350183 
 -350029  -350048  -350067  -349980  -349790  -349671  -349825  -350140 
 -350379  -350572  -350862  -351199  -351402  -351367  -351074  -350589 
 -350181  -350079  -350212  -350404  -350546  -350640  -350750  -350912 
 -351144  -351407  -351594  -351681  -351689  -351556  -351286  -351037 
 -350914  -350843  -350754  -350647  -350492  -350264  -350013  -349789 
 -349620  -349524  -349546  -349768  -350204  -350676  -350923  -350842 
 -350638  -350678  -350987  -351202  -351144  -350981  -350851  -350712 
 -350519  -350315  -350191  -350210  -350302  -350308  -350238  -350222 
 -350273  -350342  -350439  -350627  -350946  -351330  -351653  -351851 
 -351916  -351870  -351727  -351430  -350941  -350414  -350084  -350002 
 -350045  -350118  -350217  -350350  -350412  -350238  -349887  -349636 
 -349640  -349766  -349801  -349717  -349656  -349717  -349903  -350200 
 -350603  -351097  -351592  -351858  -351756  -351449  -351191  -351122 
 -351191  -351159  -350885  -350497  -350190  -350071  -350190  -350518 
 -350920  -351198  -351297  -351338  -351426  -351477  -351291  -350851 
 -350415  -350167  -350028  -349888  -349751  -349712  -349861  -350119 
 -350356  -350585  -350811  -351000  -351191  -351311  -351149  -350723 
 -350357  -350326  -350577  -350838  -350919  -350823  -350634  -350407 
 -350164  -350029  -350136  -350422  -350761  -351090  -351375  -351581 
 -351652  -351534  -351282  -350990  -350712  -350527  -350541  -350785 
 -351117  -351282  -351182  -350989  -350862  -350727  -350442  -350064 
 -349834  -349870  -350029  -350152  -350214  -350275  -350414  -350619 
 -350793  -350855  -350734  -350422  -350050  -349778  -349662  -349733 
 -350026  -350460  -350782  -350829  -350696  -350599  -350707  -350990 
 -351265  -351454  -351604  -351696  -351681  -351583  -351452  -351326 
 -351237  -351174  -351085  -350950  -350731  -350370  -349895  -349452 
 -349201  -349216  -349412  -349605  -349709  -349794  -349964  -350241 
 -350520  -350689  -350770  -350874  -351051  -351233  -351361  -351464 
 -351530  -351487  -351367  -351232  -351039  -350747  -350465  -350334 
 -350329  -350334  -350312  -350279  -350253  -350276  -350325  -350323 
 -350283  -350233  -350191  -350214  -350337  -350487  -350541  -350472 
 -350352  -350258  -350283  -350457  -350678  -350886  -351083  -351203 
 -351175  -351031  -350865  -350796  -350827  -350821  -350735  -350657 
 -350654  -350767  -350939  -351032  -351017  -350947  -350825  -350670 
 -350566  -350603  -350800  -351029  -351122  -351056  -350875  -350657 
 -350477  -350304  -350084  -349874  -349790  -349934  -350269  -350580 
 -350719  -350742  -350673  -350503  -350338  -350283  -350335  -350466 
 -350607  -350742  -350936  -351153  -351310  -351376  -351324  -351180 
 -351055  -350978  -350865  -350674  -350534  -350582  -350720  -350719 
 -350546  -350341  -350196  -350118  -350083  -350095  -350210  -350437 
 -350647  -350723  -350719  -350748  -350827  -350905  -350932  -350910 
 -350859  -350781  -350716  -350734  -350838  -350923  -350863  -350688 
