Origin Time       2025/03/30 10:18:00
Lat.              34.667
Long.             140.825
Depth. (km)       69
Mag.              4.9
Station Code      CHBH10
Station Lat.      35.5458
Station Long.     140.2417
Station Height(m) -1935
Record Time       2025/03/30 10:19:03
Sampling Freq(Hz) 100Hz
Duration Time(s)  120
Dir.              2
Scale Factor      2942(gal)/8224139
Max. Acc. (gal)   0.219
Last Correction   2025/03/30 10:19:03
Memo.             
[...]
  -54217   -54216   -54217   -54216   -54216   -54217   -54217   -54216 
  -54217   -54218   -54217   -54216   -54217   -54216   -54214   -54216 
  -54214   -54214   -54218   -54218   -54216   -54216   -54216   -54214 
  -54218   -54220   -54218   -54214   -54213   -54216   -54217   -54218 
  -54220   -54217   -54213   -54214   -54216   -54216   -54217   -54218 
  -54217   -54217   -54217   -54216   -54213   -54216   -54217   -54216 
  -54216   -54218   -54217   -54214   -54216   -54216   -54217   -54217 
  -54216   -54216   -54218   -54217   -54216   -54216   -54214   -54214 
  -54217   -54216   -54217   -54220   -54218   -54216   -54216   -54216 
  -54216   -54216   -54211   -54209   -54210   -54209   -54213   -54224 
  -54224   -54214   -54216   -54224   -54226   -54226   -54221   -54211 
  -54199   -54202   -54220   -54230   -54232   -54237   -54236   -54220 
  -54210   -54214   -54216   -54206   -54199   -54205   -54203   -54195 
  -54205   -54218   -54213   -54199   -54198   -54209   -54225   -54228 
  -54216   -54205   -54207   -54226   -54241   -54249   -54251   -54238 
  -54222   -54216   -54194   -54175   -54191   -54216   -54222   -54224 
  -54214   -54213   -54251   -54282   -54248   -54198   -54187   -54202 
  -54214   -54207   -54193   -54180   -54171   -54191   -54232   -54248 
  -54228   -54183   -54153   -54183   -54224   -54221   -54209   -54228 
  -54253   -54244   -54213   -54220   -54263   -54274   -54238   -54203 
  -54179   -54166   -54194   -54256   -54274   -54228   -54176   -54176 
  -54232   -54264   -54214   -54168   -54175   -54179   -54207   -54279 
  -54282   -54207   -54180   -54221   -54244   -54234   -54209   -54152 
  -54133   -54210   -54290   -54271   -54195   -54153   -54178   -54225 
  -54240   -54224   -54206   -54205   -54229   -54275   -54291   -54248 
  -54211   -54234   -54245   -54190   -54147   -54157   -54172   -54178 
  -54209   -54238   -54211   -54166   -54178   -54213   -54218   -54236 
  -54274   -54276   -54229   -54194   -54217   -54259   -54267   -54234 
  -54190   -54171   -54191   -54226   -54232   -54210   -54206   -54217 
  -54221   -54218   -54206   -54194   -54211   -54244   -54253   -54243 
  -54229   -54199   -54172   -54199   -54259   -54240   -54174   -54178 
  -54180   -54143   -54189   -54274   -54237   -54156   -54206   -54299 
  -54275   -54203   -54190   -54193   -54195   -54233   -54248   -54221 
  -54237   -54270   -54233   -54182   -54179   -54230   -54286   -54243 
  -54160   -54166   -54197   -54205   -54236   -54259   -54222   -54163 
  -54163   -54209   -54205   -54174   -54202   -54244   -54218   -54182 
  -54210   -54259   -54265   -54247   -54233   -54210   -54189   -54217 
  -54271   -54253   -54190   -54191   -54237   -54256   -54238   -54229 
  -54249   -54241   -54170   -54137   -54193   -54233   -54221   -54195 
  -54157   -54149   -54193   -54201   -54198   -54245   -54252   -54194 
  -54186   -54261   -54311   -54282   -54251   -54224   -54147   -54126 
  -54213   -54255   -54229   -54237   -54230   -54157   -54129   -54210 
  -54279   -54253   -54206   -54198   -54210   -54236   -54270   -54279 
  -54240   -54203   -54233   -54251   -54209   -54195   -54201   -54145 
  -54094   -54147   -54229   -54232   -54211   -54233   -54236   -54217 
  -54230   -54240   -54230   -54236   -54247   -54255   -54253   -54216 
  -54195   -54216   -54180   -54141   -54209   -54263   -54193   -54130 
  -54180   -54222   -54182   -54171   -54216   -54221   -54220   -54282 
  -54340   -54295   -54193   -54182   -54241   -54259   -54267   -54252 
  -54183   -54153   -54176   -54202   -54229   -54241   -54233   -54232 
  -54233   -54206   -54164   -54175   -54207   -54182   -54149   -54157 
  -54160   -54156   -54189   -54256   -54294   -54271   -54255   -54276 
  -54265   -54191   -54145   -54180   -54187   -54135   -54152   -54243 
  -54295   -54314   -54326   -54280   -54201   -54172   -54176   -54176 
  -54209   -54268   -54288   -54255   -54194   -54153   -54179   -54236 
  -54267   -54251   -54178   -54109   -54110   -54140   -54155   -54147 
  -54126   -54182   -54294   -54317   -54265   -54224   -54195   -54249 
  -54369   -54364   -54249   -54197   -54199   -54203   -54259   -54317 
  -54257   -54141   -54126   -54198   -54214   -54197   -54247   -54303 
  -54264   -54171   -54141   -54184   -54191   -54159   -54180   -54194 
  -54155   -54172   -54252   -54276   -54241   -54257   -54333   -54321 
  -54217   -54189   -54209   -54167   -54126   -54175   -54241   -54255 
  -54244   -54203   -54141   -54103   -54112   -54159   -54194   -54190 
  -54236   -54329   -54336   -54256   -54229   -54244   -54214   -54218 
  -54286   -54303   -54274   -54237   -54176   -54129   -54159   -54190 
  -54136   -54124   -54244   -54332   -54274   -54186   -54199   -54255 
  -54240   -54193   -54183   -54206   -54241   -54249   -54207   -54137 
  -54112   -54155   -54189   -54186   -54199   -54216   -54214   -54236 
  -54280   -54314   -54299   -54225   -54155   -54175   -54259   -54294 
  -54280   -54240   -54140   -54090   -54172   -54224   -54189   -54172 
  -54187   -54210   -54225   -54240   -54292   -54315   -54251   -54186 
  -54203   -54257   -54272   -54255   -54209   -54171   -54201   -54241 
  -54256   -54278   -54230   -54117   -54109   -54184   -54186   -54140 
  -54162   -54248   -54329   -54334   -54232   -54116   -54097   -54149 
  -54216   -54275   -54270   -54198   -54179   -54247   -54270   -54225 
  -54203   -54168   -54129   -54180   -54240   -54232   -54238   -54292 
  -54336   -54322   -54234   -54132   -54105   -54176   -54241   -54214 
  -54221   -54322   -54324   -54207   -54151   -54170   -54203   -54193 
  -54140   -54137   -54171   -54171   -54176   -54220   -54274   -54321 
  -54338   -54303   -54245   -54187   -54162   -54184   -54180   -54174 
  -54226   -54255   -54244   -54265   -54279   -54240   -54172   -54118 
  -54132   -54191   -54233   -54251   -54237   -54168   -54153   -54257 
  -54310   -54236   -54162   -54145   -54163   -54193   -54211   -54218 
  -54213   -54214   -54243   -54276   -54280   -54247   -54224   -54251 
  -54264   -54216   -54171   -54164   -54144   -54113   -54137   -54197 
  -54240   -54274   -54275   -54244   -54222   -54201   -54209   -54274 
  -54306   -54274   -54276   -54333   -54345   -54270   -54163   -54062 
  -53986   -53982   -54081   -54229   -54274   -54193   -54166   -54197 
  -54171   -54160   -54209   -54263   -54324   -54318   -54207   -54170 
  -54261   -54307   -54276   -54255   -54229   -54206   -54241   -54261 
  -54179   -54132   -54238   -54349   -54321   -54199   -54133   -54214 
  -54292   -54238   -54184   -54207   -54225   -54238   -54278   -54274 
  -54205   -54151   -54116   -54094   -54122   -54125   -54098   -54151 
  -54230   -54230   -54194   -54178   -54198   -54265   -54302   -54245 
  -54197   -54244   -54298   -54265   -54166   -54079   -54101   -54214 
  -54329   -54369   -54319   -54288   -54328   -54334   -54253   -54170 
  -54191   -54265   -54261   -54217   -54203   -54205   -54232   -54275 
  -54253   -54147   -54054   -54068   -54183   -54287   -54249   -54110 
  -54067   -54145   -54210   -54244   -54297   -54324   -54260   -54172 
  -54153   -54153   -54163   -54232   -54268   -54193   -54132   -54170 
  -54236   -54265   -54270   -54249   -54226   -54252   -54291   -54263 
  -54182   -54122   -54144   -54232   -54263   -54189   -54166   -54236 
  -54237   -54222   -54267   -54251   -54232   -54263   -54228   -54176 
  -54167   -54135   -54139   -54205   -54193   -54109   -54118   -54206 
  -54232   -54194   -54170   -54157   -54194   -54303   -54345   -54271 
  -54206   -54191   -54218   -54303   -54371   -54341   -54264   -54183 
  -54118   -54101   -54095   -54105   -54170   -54249   -54297   -54309 
  -54307   -54328   -54325   -54252   -54168   -54139   -54164   -54189 
  -54190   -54233   -54280   -54251   -54230   -54263   -54218   -54145 
  -54197   -54270   -54225   -54156   -54147   -54191   -54264   -54301 
  -54270   -54207   -54156   -54167   -54237   -54283   -54275   -54241 
  -54201   -54198   -54213   -54178   -54132   -54159   -54240   -54265 
  -54209   -54168   -54171   -54206   -54257   -54265   -54265   -54280 
  -54243   -54190   -54174   -54182   -54221   -54248   -54224   -54203 
  -54205   -54216   -54228   -54229   -54225   -54193   -54139   -54130 
  -54143   -54152   -54170   -54159   -54156   -54209   -54237   -54245 
  -54274   -54257   -54236   -54255   -54236   -54202   -54233   -54251 
  -54190   -54162   -54255   -54367   -54414   -54367   -54205   -54076 
  -54102   -54178   -54207   -54184   -54171   -54217   -54256   -54260 
  -54251   -54217   -54174   -54175   -54237   -54267   -54220   -54206 
  -54257   -54275   -54238   -54201   -54179   -54152   -54136   -54174 
  -54222   -54234   -54224   -54197   -54155   -54116   -54143   -54232 
  -54282   -54286   -54283   -54248   -54195   -54167   -54182   -54214 
  -54209   -54199   -54241   -54264   -54202   -54135   -54149   -54176 
  -54163   -54186   -54234   -54264   -54291   -54278   -54207   -54167 
  -54186   -54232   -54291   -54322   -54294   -54238   -54209   -54220 
  -54229   -54197   -54148   -54155   -54211   -54216   -54140   -54113 
  -54198   -54283   -54286   -54244   -54201   -54174   -54213   -54290 
  -54295   -54233   -54203   -54224   -54245   -54237   -54199   -54144 
  -54101   -54143   -54236   -54272   -54263   -54230   -54168   -54144 
  -54144   -54122   -54153   -54251   -54319   -54292   -54182   -54076 
  -54045   -54103   -54241   -54325   -54271   -54216   -54220   -54222 
  -54233   -54268   -54295   -54301   -54283   -54241   -54220   -54271 
  -54325   -54282   -54178   -54109   -54105   -54153   -54210   -54216 
  -54184   -54209   -54294   -54292   -54187   -54151   -54191   -54209 
  -54253   -54328   -54348   -54317   -54272   -54234   -54198   -54130 
  -54064   -54070   -54145   -54217   -54229   -54216   -54216   -54241 
  -54282   -54255   -54163   -54168   -54284   -54310   -54190   -54103 
  -54159   -54264   -54292   -54263   -54260   -54245   -54167   -54103 
  -54098   -54128   -54203   -54259   -54203   -54137   -54163   -54209 
  -54229   -54260   -54302   -54330   -54313   -54234   -54174   -54211 
  -54287   -54299   -54238   -54183   -54245   -54365   -54353   -54209 
  -54097   -54109   -54197   -54232   -54195   -54187   -54211   -54189 
  -54170   -54225   -54283   -54298   -54288   -54226   -54163   -54175 
  -54190   -54175   -54172   -54147   -54125   -54160   -54209   -54221 
  -54193   -54175   -54197   -54205   -54205   -54257   -54315   -54294 
  -54232   -54206   -54222   -54228   -54203   -54191   -54171   -54144 
  -54186   -54214   -54167   -54171   -54228   -54257   -54292   -54278 
  -54183   -54143   -54189   -54211   -54199   -54216   -54267   -54355 
  -54453   -54492   -54442   -54295   -54109   -54031   -54090   -54189 
  -54256   -54255   -54220   -54194   -54170   -54186   -54229   -54225 
  -54194   -54167   -54116   -54078   -54129   -54203   -54198   -54172 
  -54199   -54207   -54156   -54122   -54152   -54229   -54283   -54243 
  -54180   -54180   -54202   -54216   -54249   -54284   -54278   -54249 
  -54257   -54263   -54228   -54205   -54217   -54228   -54229   -54226 
  -54220   -54221   -54238   -54255   -54224   -54157   -54133   -54155 
  -54164   -54168   -54190   -54203   -54221   -54257   -54280   -54284 
  -54270   -54206   -54168   -54222   -54260   -54221   -54205   -54232 
  -54230   -54205   -54226   -54263   -54236   -54199   -54201   -54163 
  -54120   -54184   -54306   -54325   -54232   -54182   -54237   -54261 
  -54201   -54159   -54166   -54167   -54182   -54248   -54284   -54232 
  -54189   -54209   -54222   -54186   -54156   -54189   -54230   -54217 
  -54195   -54195   -54182   -54182   -54224   -54270   -54256   -54184 
  -54147   -54182   -54236   -54288   -54326   -54314   -54278   -54265 
  -54252   -54225   -54222   -54248   -54267   -54249   -54205   -54145 
  -54108   -54133   -54175   -54164   -54189   -54272   -54272   -54182 
  -54125   -54125   -54180   -54261   -54292   -54265   -54201   -54133 
  -54113   -54120   -54125   -54145   -54187   -54234   -54292   -54314 
  -54257   -54213   -54214   -54197   -54243   -54369   -54422   -54380 
  -54341   -54318   -54284   -54222   -54171   -54178   -54222   -54248 
  -54243   -54248   -54267   -54260   -54268   -54303   -54291   -54203 
  -54085   -54012   -54048   -54174   -54284   -54284   -54198   -54126 
  -54098   -54066   -54037   -54031   -54068   -54156   -54187   -54132 
  -54120   -54182   -54229   -54224   -54184   -54153   -54191   -54249 
  -54261   -54280   -54301   -54245   -54149   -54122   -54175   -54217 
  -54195   -54166   -54139   -54128   -54176   -54224   -54214   -54184 
  -54139   -54045   -53968   -53962   -53987   -54032   -54106   -54180 
  -54214   -54179   -54136   -54147   -54168   -54147   -54110   -54083 
  -54112   -54257   -54429   -54481   -54460   -54438   -54410   -54384 
  -54378   -54387   -54429   -54471   -54467   -54461   -54494   -54553 
  -54599   -54573   -54483   -54311   -54113   -54099   -54264   -54355 
  -54315   -54256   -54190   -54120   -54102   -54130   -54126   -54039 
  -53928   -53893   -53933   -53941   -53892   -53881   -53932   -53991 
  -54087   -54222   -54318   -54396   -54510   -54569   -54496   -54351 
  -54222   -54190   -54278   -54410   -54514   -54571   -54552   -54454 
  -54332   -54224   -54145   -54089   -54010   -53927   -53886   -53877 
  -53910   -53985   -54033   -54063   -54195   -54453   -54706   -54828 
  -54765   -54564   -54382   -54333   -54391   -54475   -54545   -54589 
  -54573   -54488   -54332   -54120   -53935   -53883   -53959   -54056 
  -54163   -54272   -54260   -54117   -53994   -53985   -54047   -54089 
  -54067   -53979   -53847   -53769   -53815   -53941   -54086   -54195 
  -54256   -54291   -54291   -54243   -54172   -54102   -54024   -53967 
  -53959   -53963   -53964   -53982   -54031   -54110   -54183   -54224 
  -54251   -54283   -54280   -54195   -54125   -54194   -54295   -54270 
  -54179   -54121   -54109   -54198   -54386   -54553   -54639   -54646 
  -54567   -54441   -54329   -54260   -54265   -54332   -54419   -54500 
  -54530   -54518   -54529   -54507   -54369   -54136   -53875   -53676 
  -53605   -53662   -53796   -53937   -54097   -54311   -54508   -54600 
  -54610   -54573   -54449   -54241   -54028   -53889   -53914   -54072 
  -54187   -54210   -54228   -54288   -54396   -54503   -54562   -54584 
  -54510   -54319   -54152   -54070   -54044   -54103   -54214   -54257 
  -54224   -54201   -54225   -54257   -54272   -54271   -54213   -54105 
  -54035   -54029   -54059   -54098   -54140   -54175   -54160   -54114 
  -54091   -54078   -54064   -54102   -54203   -54294   -54284   -54197 
  -54097   -54010   -54025   -54157   -54249   -54217   -54163   -54176 
  -54206   -54213   -54238   -54270   -54268   -54288   -54356   -54373 
  -54356   -54419   -54477   -54386   -54201   -54047   -53971   -53956 
  -53977   -54024   -54112   -54228   -54363   -54496   -54588   -54607 
  -54545   -54444   -54369   -54307   -54202   -54095   -54097   -54216 
  -54311   -54288   -54205   -54163   -54183   -54209   -54229   -54270 
  -54317   -54332   -54288   -54221   -54201   -54256   -54386   -54510 
  -54483   -54318   -54172   -54071   -53983   -53939   -53936   -53944 
  -53959   -53997   -54105   -54263   -54330   -54241   -54101   -54051 
  -54094   -54113   -54062   -53991   -53933   -53902   -53916   -53985 
  -54064   -54102   -54097   -54072   -54063   -54085   -54105   -54152 
  -54244   -54328   -54411   -54488   -54484   -54396   -54305   -54284 
  -54388   -54558   -54672   -54697   -54689   -54660   -54612   -54537 
  -54407   -54282   -54217   -54148   -54064   -54033   -54074   -54216 
  -54427   -54554   -54507   -54344   -54139   -53950   -53865   -53905 
  -53977   -54014   -54010   -53943   -53833   -53761   -53763   -53819 
  -53913   -54054   -54217   -54330   -54360   -54340   -54306   -54290 
  -54272   -54166   -53987   -53893   -53948   -54078   -54191   -54237 
  -54270   -54388   -54557   -54641   -54599   -54556   -54589   -54583 
  -54492   -54432   -54410   -54337   -54194   -54021   -53901   -53889 
  -53951   -54033   -54099   -54109   -54064   -54004   -53998   -54113 
  -54290   -54414   -54487   -54546   -54531   -54415   -54278   -54205 
  -54243   -54346   -54353   -54211   -54058   -53963   -53914   -53975 
  -54153   -54295   -54311   -54284   -54232   -54113   -54027   -54047 
  -54108   -54194   -54301   -54334   -54253   -54109   -53974   -53956 
  -54032   -54068   -54085   -54141   -54195   -54234   -54299   -54384 
  -54472   -54549   -54558   -54465   -54361   -54364   -54433   -54445 
  -54396   -54337   -54252   -54172   -54153   -54121   -54044   -54022 
  -54086   -54166   -54205   -54205   -54191   -54179   -54201   -54274 
  -54353   -54399   -54414   -54403   -54345   -54245   -54163   -54199 
  -54306   -54322   -54245   -54145   -54001   -53859   -53844   -53958 
  -54122   -54261   -54337   -54341   -54270   -54157   -54082   -54052 
  -54056   -54114   -54202   -54243   -54236   -54244   -54276   -54290 
  -54278   -54274   -54318   -54394   -54368   -54202   -54060   -54068 
  -54159   -54236   -54272   -54255   -54179   -54097   -54041   -53982 
  -53910   -53898   -53973   -54066   -54153   -54287   -54459   -54565 
  -54521   -54367   -54213   -54145   -54184   -54261   -54288   -54252 
  -54183   -54122   -54072   -53981   -53885   -53923   -54095   -54240 
  -54244   -54174   -54172   -54252   -54314   -54334   -54378   -54457 
  -54491   -54413   -54292   -54238   -54230   -54224   -54221   -54184 
  -54101   -54064   -54101   -54067   -53933   -53904   -54063   -54238 
  -54306   -54294   -54276   -54275   -54252   -54195   -54135   -54076 
  -54093   -54220   -54318   -54324   -54357   -54413   -54430   -54457 
  -54450   -54372   -54328   -54321   -54275   -54256   -54317   -54376 
  -54423   -54518   -54573   -54476   -54306   -54191   -54144   -54137 
  -54152   -54144   -54118   -54116   -54103   -54045   -53998   -54032 
  -54144   -54259   -54307   -54284   -54249   -54237   -54197   -54141 
  -54171   -54310   -54479   -54596   -54650   -54641   -54526   -54328 
  -54145   -54045   -54016   -54029   -54085   -54167   -54211   -54203 
  -54186   -54195   -54261   -54340   -54357   -54334   -54303   -54251 
  -54220   -54256   -54313   -54324   -54257   -54155   -54110   -54133 
  -54186   -54236   -54213   -54110   -54008   -53927   -53886   -53939 
  -54000   -53971   -53933   -53990   -54132   -54291   -54395   -54456 
  -54517   -54541   -54490   -54405   -54309   -54189   -54056   -53928 
  -53820   -53792   -53863   -53968   -54029   -54045   -54070   -54102 
  -54089   -54022   -53951   -53904   -53889   -53939   -54063   -54232 
  -54395   -54514   -54591   -54619   -54576   -54492   -54411   -54351 
  -54319   -54317   -54373   -54490   -54550   -54518   -54449   -54363 
  -54306   -54314   -54324   -54326   -54364   -54394   -54398   -54417 
  -54394   -54263   -54125   -54090   -54071   -53986   -53929   -53977 
  -54074   -54129   -54105   -54044   -54027   -54067   -54097   -54112 
  -54180   -54306   -54414   -54434   -54367   -54279   -54203   -54116 
  -54008   -53924   -53947   -54071   -54193   -54247   -54225   -54191 
