Origin Time       2025/03/30 10:18:00
Lat.              34.667
Long.             140.825
Depth. (km)       69
Mag.              4.9
Station Code      CHBH10
Station Lat.      35.5458
Station Long.     140.2417
Station Height(m) 65
Record Time       2025/03/30 10:19:03
Sampling Freq(Hz) 100Hz
Duration Time(s)  120
Dir.              6
Scale Factor      7845(gal)/8223790
Max. Acc. (gal)   0.986
Last Correction   2025/03/30 10:19:03
Memo.             
   -6054    -6054    -6056    -6053    -6052    -6054    -6052    -6048 
   -6048    -6050    -6056    -6056    -6049    -6045    -6052    -6061 
   -6058    -6052    -6052    -6052    -6049    -6050    -6056    -6061 
   -6058    -6054    -6056    -6057    -6045    -6037    -6048    -6054 
   -6048    -6048    -6053    -6050    -6053    -6058    -6054    -6049 
   -6054    -6058    -6056    -6054    -6056    -6057    -6052    -6049 
   -6054    -6056    -6053    -6056    -6056    -6053    -6054    -6056 
   -6052    -6048    -6053    -6060    -6056    -6052    -6053    -6053 
   -6054    -6053    -6050    -6052    -6050    -6048    -6049    -6049 
   -6052    -6053    -6052    -6050    -6053    -6058    -6058    -6052 
   -6052    -6054    -6053    -6049    -6049    -6056    -6056    -6053 
   -6050    -6049    -6050    -6048    -6049    -6052    -6053    -6056 
   -6056    -6053    -6052    -6052    -6050    -6050    -6053    -6048 
   -6043    -6045    -6046    -6050    -6057    -6057    -6053    -6050 
   -6057    -6058    -6048    -6048    -6054    -6054    -6052    -6052 
   -6054    -6056    -6053    -6052    -6052    -6050    -6049    -6046 
   -6046    -6048    -6054    -6057    -6053    -6052    -6052    -6052 
   -6049    -6046    -6048    -6050    -6056    -6056    -6050    -6057 
   -6058    -6049    -6049    -6057    -6060    -6054    -6045    -6046 
   -6053    -6054    -6056    -6057    -6058    -6053    -6048    -6048 
   -6053    -6056    -6054    -6053    -6053    -6056    -6054    -6052 
   -6057    -6061    -6057    -6054    -6050    -6049    -6053    -6053 
   -6056    -6057    -6054    -6056    -6049    -6042    -6045    -6052 
   -6058    -6061    -6053    -6046    -6049    -6053    -6050    -6049 
   -6056    -6060    -6053    -6048    -6054    -6058    -6052    -6049 
   -6054    -6061    -6057    -6049    -6053    -6056    -6058    -6060 
   -6057    -6054    -6049    -6049    -6050    -6042    -6048    -6061 
   -6061    -6057    -6052    -6056    -6057    -6046    -6045    -6049 
   -6050    -6056    -6057    -6056    -6061    -6066    -6068    -6062 
   -6058    -6054    -6048    -6037    -6031    -6039    -6046    -6048 
   -6050    -6050    -6054    -6069    -6088    -6118    -6146    -6138 
   -6085    -6019    -5964    -5958    -6002    -6006    -5949    -5931 
   -6012    -6124    -6205    -6243    -6177    -5988    -5834    -5825 
   -5896    -5965    -6014    -6088    -6170    -6191    -6196    -6258 
   -6295    -6223    -6095    -6008    -6021    -6095    -6107    -6026 
   -5956    -5921    -5895    -5942    -6039    -6021    -5841    -5703 
   -5773    -5941    -6110    -6323    -6496    -6484    -6330    -6210 
   -6214    -6207    -6021    -5759    -5668    -5745    -5792    -5787 
   -5888    -6143    -6403    -6480    -6354    -6138    -5973    -5938 
   -5949    -5935    -5934    -5953    -6018    -6139    -6203    -6168 
   -6124    -6134    -6169    -6126    -5925    -5728    -5728    -5863 
   -5958    -5946    -5860    -5819    -5933    -6157    -6355    -6451 
   -6407    -6266    -6166    -6139    -6131    -6154    -6131    -5960 
   -5848    -5953    -6057    -6002    -5877    -5800    -5861    -6006 
   -6066    -6060    -6069    -6043    -5991    -6049    -6231    -6378 
   -6345    -6170    -6019    -5958    -5904    -5849    -5895    -5992 
   -6000    -5957    -5981    -6058    -6102    -6087    -6092    -6192 
   -6291    -6238    -6097    -6046    -6061    -6042    -6010    -5987 
   -5961    -5965    -5968    -5923    -5925    -6064    -6264    -6324 
   -6180    -5983    -5917    -6065    -6273    -6239    -5971    -5719 
   -5587    -5638    -5919    -6222    -6353    -6385    -6349    -6201 
   -6025    -5944    -5967    -5953    -5817    -5730    -5837    -5991 
   -6114    -6289    -6446    -6465    -6394    -6205    -5840    -5521 
   -5490    -5715    -6072    -6408    -6512    -6335    -6162    -6196 
   -6234    -6052    -5767    -5633    -5715    -5891    -6052    -6093 
   -6008    -6003    -6201    -6404    -6432    -6338    -6131    -5807 
   -5597    -5697    -5965    -6231    -6396    -6288    -5983    -5823 
   -5921    -6080    -6123    -6034    -5960    -6021    -6178    -6303 
   -6277    -6149    -6057    -5954    -5768    -5686    -5863    -6096 
   -6110    -5935    -5867    -6073    -6316    -6312    -6181    -6079 
   -5931    -5805    -5791    -5860    -6081    -6378    -6478    -6390 
   -6247    -6107    -6102    -6145    -5945    -5620    -5552    -5806 
   -6126    -6280    -6234    -6142    -6142    -6188    -6122    -5964 
   -5887    -5868    -5821    -5875    -6070    -6187    -6095    -5958 
   -5954    -5988    -5946    -5988    -6181    -6327    -6346    -6297 
   -6165    -5977    -5818    -5736    -5827    -6124    -6355    -6247 
   -6033    -6061    -6165    -6064    -5879    -5836    -5942    -6021 
   -5954    -5934    -6120    -6351    -6443    -6381    -6245    -6127 
   -6014    -5826    -5674    -5709    -5865    -6045    -6243    -6374 
   -6300    -6102    -6012    -6033    -5983    -5891    -5832    -5779 
   -5799    -5921    -6023    -6085    -6207    -6386    -6492    -6428 
   -6220    -5945    -5768    -5811    -5926    -5927    -5908    -6002 
   -6133    -6230    -6359    -6540    -6613    -6382    -5919    -5516 
   -5331    -5340    -5564    -6033    -6593    -6871    -6693    -6366 
   -6110    -5784    -5385    -5116    -5186    -5672    -6335    -6867 
   -7086    -6818    -6178    -5645    -5474    -5513    -5624    -5848 
   -6145    -6313    -6303    -6282    -6312    -6251    -6054    -5849 
   -5742    -5800    -6075    -6408    -6516    -6343    -6070    -5890 
   -5832    -5776    -5764    -5919    -6106    -6134    -6029    -6004 
   -6196    -6320    -6091    -5790    -5780    -5989    -6141    -6111 
   -6023    -6021    -6052    -6064    -6088    -6114    -6141    -6188 
   -6243    -6255    -6156    -5957    -5792    -5744    -5757    -5811 
   -5950    -6139    -6254    -6259    -6205    -6115    -6011    -5904 
   -5827    -5946    -6286    -6529    -6486    -6319    -6139    -5946 
   -5755    -5613    -5643    -5836    -6035    -6245    -6473    -6615 
   -6596    -6331    -5934    -5715    -5671    -5647    -5667    -5751 
   -5896    -6107    -6253    -6257    -6207    -6168    -6119    -6007 
   -5860    -5829    -5964    -6103    -6138    -6166    -6237    -6265 
   -6199    -6019    -5763    -5601    -5764    -6214    -6520    -6450 
   -6261    -6115    -5987    -5910    -5776    -5575    -5606    -5875 
   -6102    -6255    -6407    -6523    -6550    -6388    -6042    -5683 
   -5512    -5610    -5844    -6039    -6188    -6331    -6399    -6285 
   -6076    -5945    -5898    -5852    -5791    -5819    -6056    -6304 
   -6242    -5987    -5900    -6023    -6131    -6103    -6035    -6100 
   -6277    -6339    -6230    -6141    -6079    -5945    -5849    -5875 
   -5940    -5992    -6057    -6158    -6237    -6207    -6137    -6103 
   -6026    -5891    -5861    -5987    -6080    -6026    -5934    -5888 
   -5873    -5942    -6099    -6232    -6313    -6351    -6305    -6192 
   -6006    -5776    -5680    -5787    -6008    -6226    -6305    -6232 
   -6150    -6149    -6147    -6088    -6012    -5896    -5788    -5796 
   -5800    -5702    -5715    -5962    -6253    -6413    -6444    -6400 
   -6308    -6145    -5895    -5625    -5454    -5478    -5674    -5964 
   -6339    -6669    -6763    -6714    -6662    -6497    -6131    -5694 
   -5405    -5354    -5470    -5745    -6139    -6428    -6529    -6550 
   -6462    -6214    -5879    -5545    -5397    -5580    -5918    -6150 
   -6245    -6280    -6265    -6149    -5962    -5884    -5989    -6162 
   -6304    -6315    -6188    -6116    -6093    -5961    -5867    -5973 
   -6084    -6042    -5949    -5950    -6052    -6046    -5842    -5748 
   -5969    -6270    -6407    -6367    -6265    -6205    -6085    -5868 
   -5837    -6003    -6041    -5929    -5830    -5830    -5960    -6072 
   -6112    -6183    -6166    -6015    -5958    -6029    -6060    -6048 
   -6065    -6160    -6330    -6354    -6102    -5891    -5918    -5983 
   -5988    -5940    -5880    -5995    -6199    -6212    -6099    -6041 
   -6006    -5913    -5802    -5840    -6093    -6320    -6319    -6216 
   -6220    -6322    -6304    -6033    -5715    -5690    -5925    -6080 
   -6046    -5958    -5952    -6068    -6215    -6291    -6247    -6058 
   -5854    -5832    -5961    -6029    -5934    -5863    -6011    -6226 
   -6228    -6097    -6103    -6234    -6210    -5933    -5756    -5921 
   -6165    -6273    -6300    -6245    -6111    -5944    -5729    -5595 
   -5707    -5958    -6172    -6311    -6324    -6172    -6008    -5998 
   -6069    -6069    -6012    -6034    -6166    -6273    -6201    -6025 
   -5892    -5833    -5865    -5935    -5942    -6006    -6151    -6237 
   -6293    -6309    -6216    -6095    -5953    -5827    -5832    -5899 
   -5967    -6080    -6139    -6093    -6075    -6083    -6052    -6021 
   -5967    -5903    -5988    -6214    -6346    -6322    -6324    -6353 
   -6226    -6014    -5910    -5942    -6025    -6014    -5842    -5659 
   -5694    -5929    -6162    -6316    -6335    -6203    -6088    -6060 
   -6011    -5918    -5817    -5767    -5783    -5818    -5923    -6157 
   -6427    -6550    -6357    -5942    -5676    -5686    -5761    -5841 
   -6030    -6258    -6378    -6384    -6282    -6106    -6003    -6041 
   -6095    -6073    -5980    -5842    -5791    -5944    -6189    -6338 
   -6315    -6181    -6033    -5907    -5875    -6015    -6176    -6156 
   -6058    -6027    -6056    -6160    -6293    -6288    -6087    -5842 
   -5719    -5722    -5787    -5864    -5949    -6102    -6285    -6342 
   -6255    -6138    -6021    -5880    -5788    -5864    -6053    -6149 
   -6141    -6172    -6170    -6066    -6043    -6145    -6212    -6207 
   -6156    -6084    -6037    -6006    -5958    -5930    -5941    -5927 
   -5914    -6038    -6247    -6326    -6204    -6011    -5918    -5957 
   -6022    -6049    -6038    -5962    -5890    -5971    -6107    -6093 
   -6029    -6052    -6097    -6122    -6091    -6003    -5980    -6026 
   -6080    -6184    -6250    -6172    -6070    -6026    -6018    -6064 
   -6110    -6095    -6025    -5871    -5764    -5898    -6120    -6181 
   -6083    -5953    -5914    -5954    -5973    -5975    -5991    -6008 
   -6073    -6172    -6174    -6029    -5884    -5985    -6261    -6351 
   -6188    -6080    -6191    -6311    -6211    -6019    -5999    -6106 
   -6130    -6083    -6077    -6056    -5971    -5946    -6065    -6197 
   -6178    -6069    -6021    -6022    -5950    -5806    -5757    -5867 
   -5958    -5969    -6056    -6227    -6295    -6184    -5995    -5859 
   -5845    -5891    -5915    -6045    -6330    -6513    -6474    -6336 
   -6156    -6000    -5942    -5888    -5792    -5805    -5948    -6048 
   -6061    -6079    -6130    -6160    -6133    -6102    -6065    -5926 
   -5790    -5896    -6129    -6172    -6046    -5989    -6069    -6201 
   -6232    -6127    -6079    -6129    -6095    -5962    -5872    -5903 
   -5972    -5967    -5962    -6062    -6196    -6300    -6355    -6269 
   -6025    -5783    -5672    -5637    -5602    -5634    -5836    -6173 
   -6434    -6428    -6307    -6292    -6282    -6165    -6056    -6033 
   -6069    -6054    -5985    -6043    -6201    -6237    -6133    -5981 
   -5844    -5791    -5836    -5926    -6049    -6181    -6305    -6358 
   -6203    -5910    -5776    -5872    -6019    -6104    -6102    -6068 
   -6110    -6193    -6193    -6091    -5958    -5863    -5814    -5807 
   -5910    -6111    -6276    -6342    -6300    -6170    -6100    -6095 
   -5967    -5733    -5636    -5753    -5895    -5867    -5730    -5728 
   -5921    -6133    -6192    -6104    -6027    -6042    -6058    -6053 
   -6103    -6145    -6075    -6004    -6065    -6146    -6146    -6143 
   -6162    -6147    -6118    -6066    -6062    -6242    -6442    -6416 
   -6312    -6299    -6224    -6010    -5782    -5691    -5875    -6228 
   -6466    -6544    -6513    -6338    -6112    -5962    -5886    -5822 
   -5695    -5580    -5660    -5879    -6060    -6181    -6269    -6324 
   -6327    -6207    -5988    -5773    -5659    -5732    -5898    -5938 
   -5877    -5888    -6037    -6243    -6367    -6331    -6143    -5910 
   -5740    -5618    -5572    -5705    -6019    -6411    -6682    -6655 
   -6384    -6018    -5705    -5603    -5678    -5827    -6092    -6378 
   -6484    -6401    -6192    -5875    -5580    -5513    -5751    -6087 
   -6254    -6319    -6412    -6417    -6299    -6180    -6065    -5888 
   -5718    -5659    -5771    -6068    -6336    -6413    -6430    -6409 
   -6237    -5967    -5756    -5752    -5890    -5948    -5979    -6133 
   -6211    -6053    -5883    -5904    -6118    -6357    -6338    -6097 
   -5965    -5969    -5944    -5917    -5968    -6081    -6137    -6033 
   -5926    -5994    -6127    -6158    -6089    -5989    -5923    -5940 
   -5992    -6054    -6177    -6288    -6220    -6069    -6045    -6089 
   -6041    -5967    -6026    -6169    -6195    -6073    -5950    -5899 
   -5876    -5834    -5798    -5883    -6108    -6262    -6228    -6187 
   -6192    -6096    -5926    -5782    -5714    -5798    -5972    -6092 
   -6162    -6231    -6250    -6162    -6015    -5964    -6069    -6173 
   -6145    -6112    -6183    -6201    -6066    -5946    -5958    -6015 
   -6019    -5998    -6025    -6068    -6049    -6026    -6079    -6127 
   -6092    -6015    -5958    -5957    -5957    -5927    -5987    -6149 
   -6254    -6235    -6133    -5983    -5830    -5741    -5786    -5962 
   -6165    -6241    -6176    -6123    -6142    -6161    -6170    -6134 
   -6035    -5980    -6004    -6056    -6089    -6088    -6081    -6084 
   -6100    -6108    -6043    -6002    -6115    -6243    -6199    -6058 
   -5960    -5913    -5906    -5964    -6052    -6147    -6247    -6241 
   -6083    -5931    -5830    -5684    -5609    -5730    -5914    -6041 
   -6130    -6253    -6420    -6471    -6340    -6191    -6066    -5915 
   -5773    -5715    -5852    -6164    -6384    -6405    -6397    -6400 
   -6291    -6046    -5817    -5786    -5923    -6053    -6129    -6173 
   -6168    -6149    -6219    -6372    -6462    -6381    -6126    -5784 
   -5582    -5645    -5782    -5865    -5965    -6026    -5968    -5907 
   -5879    -5811    -5759    -5725    -5611    -5485    -5537    -5811 
   -6133    -6349    -6450    -6442    -6350    -6299    -6311    -6254 
   -6126    -6057    -6058    -6045    -6018    -6022    -6077    -6191 
   -6326    -6411    -6388    -6253    -6093    -6011    -5962    -5859 
   -5724    -5571    -5435    -5474    -5733    -6118    -6519    -6772 
   -6829    -6786    -6632    -6327    -6004    -5798    -5714    -5732 
   -5810    -5895    -5965    -6022    -6119    -6262    -6245    -6007 
   -5822    -5859    -6012    -6108    -6056    -5962    -5980    -6070 
   -6120    -6129    -6108    -6034    -5958    -5975    -6070    -6153 
   -6139    -6038    -5953    -5914    -5846    -5773    -5807    -5944 
   -6083    -6183    -6295    -6415    -6374    -6083    -5748    -5610 
   -5680    -5817    -5921    -6056    -6257    -6377    -6311    -6146 
   -6048    -6066    -6080    -6064    -6112    -6168    -6087    -5864 
   -5652    -5590    -5651    -5786    -5988    -6141    -6183    -6218 
   -6315    -6436    -6446    -6241    -5967    -5853    -5953    -6115 
   -6119    -6021    -6093    -6291    -6328    -6185    -6033    -6007 
   -6114    -6165    -6025    -5861    -5867    -6015    -6196    -6316 
   -6327    -6258    -6122    -5926    -5809    -5863    -5998    -6143 
   -6288    -6343    -6258    -6112    -6035    -6021    -5931    -5783 
   -5703    -5691    -5699    -5726    -5829    -6066    -6308    -6377 
   -6299    -6203    -6142    -6080    -5954    -5849    -5907    -6050 
   -6091    -6049    -6045    -6091    -6139    -6139    -6083    -6041 
   -6021    -5964    -5944    -6016    -6046    -5902    -5699    -5659 
   -5833    -6064    -6262    -6459    -6566    -6477    -6257    -6041 
   -5940    -5944    -5925    -5877    -5898    -5975    -6000    -5972 
   -6049    -6278    -6413    -6266    -5967    -5718    -5624    -5719 
   -5930    -6141    -6281    -6286    -6220    -6204    -6215    -6187 
   -6097    -5973    -5906    -5875    -5795    -5810    -6037    -6292 
   -6419    -6411    -6292    -6177    -6156    -6116    -5983    -5813 
   -5634    -5479    -5444    -5557    -5728    -5922    -6220    -6562 
   -6735    -6677    -6512    -6363    -6230    -6052    -5869    -5763 
   -5713    -5698    -5742    -5879    -6150    -6474    -6625    -6539 
   -6295    -5954    -5649    -5494    -5460    -5543    -5799    -6170 
   -6473    -6547    -6416    -6270    -6162    -6004    -5902    -5985 
   -6111    -6115    -6033    -5937    -5898    -5922    -5907    -5868 
   -5967    -6166    -6284    -6330    -6392    -6397    -6269    -6073 
   -5910    -5798    -5740    -5787    -5919    -5992    -5927    -5809 
   -5773    -5865    -5973    -6003    -6029    -6142    -6274    -6286 
   -6174    -6065    -6061    -6120    -6141    -6111    -6054    -5973 
   -5915    -5872    -5832    -5871    -6012    -6218    -6380    -6357 
   -6177    -6049    -6102    -6199    -6126    -5949    -5918    -6046 
   -6151    -6174    -6134    -6019    -5881    -5802    -5782    -5803 
   -5872    -6000    -6191    -6419    -6606    -6663    -6602    -6524 
   -6440    -6288    -6075    -5849    -5647    -5562    -5638    -5741 
   -5767    -5780    -5842    -5898    -5906    -5898    -5919    -6019 
   -6199    -6362    -6459    -6488    -6369    -6111    -5872    -5773 
   -5825    -5957    -6127    -6332    -6461    -6400    -6250    -6111 
   -5942    -5737    -5587    -5601    -5787    -5972    -6008    -5979 
   -6027    -6137    -6207    -6199    -6118    -5985    -5860    -5834 
   -5962    -6169    -6327    -6340    -6180    -5953    -5792    -5740 
   -5811    -5944    -5998    -5977    -6057    -6297    -6498    -6507 
   -6430    -6374    -6286    -6106    -5853    -5640    -5575    -5641 
   -5776    -5994    -6254    -6463    -6554    -6465    -6247    -6057 
   -5954    -5962    -6070    -6122    -6065    -6018    -5973    -5849 
   -5626    -5420    -5455    -5748    -6070    -6300    -6393    -6315 
   -6162    -6037    -5923    -5853    -5904    -6053    -6224    -6363 
   -6361    -6154    -5911    -5829    -5888    -5976    -6041    -6123 
   -6247    -6340    -6326    -6212    -6049    -5871    -5707    -5622 
   -5686    -5881    -6097    -6242    -6307    -6308    -6268    -6226 
   -6197    -6166    -6103    -6045    -6056    -6118    -6183    -6211 
   -6183    -6108    -6003    -5895    -5863    -5933    -6022    -6075 
   -6075    -5984    -5881    -5856    -5838    -5821    -5913    -6076 
   -6196    -6251    -6269    -6246    -6127    -5931    -5794    -5800 
   -5923    -6076    -6176    -6205    -6178    -6080    -5942    -5876 
   -5891    -5907    -5968    -6154    -6340    -6305    -6080    -5896 
   -5854    -5921    -6035    -6143    -6273    -6411    -6401    -6268 
   -6177    -6114    -6007    -5910    -5890    -5921    -5938    -5969 
   -6077    -6195    -6239    -6214    -6133    -6061    -6056    -6062 
   -6068    -6118    -6172    -6189    -6181    -6146    -6077    -5971 
