Origin Time       2025/03/30 10:18:00
Lat.              34.667
Long.             140.825
Depth. (km)       69
Mag.              4.9
Station Code      CHBH11
Station Lat.      35.2867
Station Long.     140.1529
Station Height(m) -1920
Record Time       2025/03/30 10:18:47
Sampling Freq(Hz) 100Hz
Duration Time(s)  120
Dir.              3
Scale Factor      2942(gal)/8224139
Max. Acc. (gal)   0.345
Last Correction   2025/03/30 10:18:47
Memo.             
[...]
   52702    52701    52699    52701    52705    52705    52699    52699 
   52701    52699    52701    52702    52702    52699    52699    52701 
   52702    52702    52701    52699    52698    52699    52702    52704 
   52702    52699    52698    52701    52704    52702    52702    52702 
   52699    52699    52702    52702    52702    52704    52702    52702 
   52702    52702    52701    52701    52701    52702    52702    52702 
   52701    52699    52701    52702    52702    52701    52701    52704 
   52704    52702    52699    52699    52704    52705    52704    52704 
   52704    52702    52702    52702    52701    52701    52701    52701 
   52702    52701    52699    52702    52705    52702    52699    52702 
   52702    52701    52702    52705    52702    52702    52704    52702 
   52704    52704    52699    52699    52704    52702    52701    52701 
   52699    52699    52701    52701    52702    52704    52702    52702 
   52701    52701    52701    52701    52701    52702    52702    52702 
   52702    52704    52704    52701    52701    52704    52701    52699 
   52705    52706    52702    52701    52701    52704    52704    52704 
   52702    52701    52701    52701    52699    52704    52705    52701 
   52699    52701    52701    52701    52704    52706    52704    52702 
   52704    52702    52701    52704    52704    52701    52704    52705 
   52704    52702    52701    52701    52704    52704    52702    52704 
   52704    52705    52705    52702    52702    52704    52702    52701 
   52701    52704    52705    52705    52702    52702    52702    52704 
   52702    52701    52704    52705    52704    52702    52702    52702 
   52702    52701    52701    52704    52704    52701    52701    52705 
   52705    52704    52702    52701    52701    52701    52702    52704 
   52704    52702    52701    52701    52704    52704    52702    52704 
   52702    52702    52704    52702    52702    52704    52704    52704 
   52705    52704    52702    52701    52702    52704    52702    52702 
   52704    52705    52704    52702    52704    52704    52701    52704 
   52705    52701    52699    52702    52702    52701    52702    52702 
   52702    52702    52702    52702    52702    52704    52704    52702 
   52702    52702    52702    52704    52702    52702    52702    52701 
   52704    52705    52704    52704    52705    52704    52701    52701 
   52702    52702    52701    52701    52702    52704    52702    52701 
   52702    52705    52706    52705    52702    52702    52704    52704 
   52702    52701    52704    52705    52704    52704    52702    52702 
   52702    52704    52706    52705    52701    52705    52706    52702 
   52702    52705    52704    52704    52705    52701    52698    52701 
   52702    52704    52705    52702    52701    52702    52705    52704 
   52701    52701    52701    52704    52705    52702    52702    52705 
   52702    52701    52704    52702    52699    52701    52704    52704 
   52702    52702    52702    52704    52702    52704    52704    52702 
   52701    52702    52702    52699    52701    52702    52702    52702 
   52702    52702    52701    52701    52704    52704    52704    52704 
   52702    52704    52705    52705    52705    52704    52701    52699 
   52702    52705    52702    52702    52705    52704    52704    52705 
   52705    52704    52702    52699    52701    52704    52704    52702 
   52704    52704    52704    52704    52704    52704    52702    52702 
   52704    52701    52699    52701    52701    52702    52705    52704 
   52702    52701    52702    52704    52701    52701    52704    52704 
   52704    52705    52702    52702    52705    52702    52701    52702 
   52701    52702    52704    52701    52702    52705    52705    52704 
   52701    52699    52699    52699    52702    52704    52702    52702 
   52702    52704    52702    52701    52702    52704    52704    52705 
   52704    52701    52702    52706    52705    52701    52702    52704 
   52699    52702    52705    52702    52701    52702    52701    52699 
   52701    52702    52702    52704    52702    52701    52704    52704 
   52699    52702    52704    52701    52702    52702    52704    52704 
   52704    52702    52705    52704    52702    52704    52702    52701 
   52705    52705    52702    52704    52704    52705    52704    52704 
   52706    52706    52702    52704    52705    52705    52706    52704 
   52702    52704    52704    52702    52704    52705    52704    52704 
   52704    52702    52702    52702    52701    52702    52702    52704 
   52705    52704    52702    52702    52704    52705    52704    52704 
   52705    52702    52702    52704    52702    52702    52704    52702 
   52701    52704    52702    52702    52704    52704    52702    52704 
   52705    52705    52704    52702    52701    52702    52702    52702 
   52702    52705    52704    52704    52704    52704    52704    52704 
   52702    52704    52702    52702    52705    52704    52701    52704 
   52704    52702    52702    52705    52704    52701    52701    52699 
   52701    52705    52705    52701    52701    52704    52702    52704 
   52706    52705    52701    52702    52705    52704    52702    52702 
   52701    52701    52702    52702    52702    52702    52702    52705 
   52704    52701    52701    52705    52704    52701    52701    52704 
   52704    52704    52704    52704    52705    52704    52702    52702 
   52702    52702    52704    52704    52704    52702    52701    52701 
   52701    52701    52704    52702    52702    52705    52705    52704 
   52705    52702    52701    52702    52701    52701    52704    52702 
   52702    52702    52702    52702    52702    52704    52704    52702 
   52702    52702    52704    52702    52702    52704    52704    52702 
   52702    52704    52704    52704    52702    52702    52702    52702 
   52704    52702    52701    52702    52702    52702    52702    52702 
   52704    52702    52701    52702    52701    52701    52705    52705 
   52702    52702    52704    52704    52704    52702    52701    52702 
   52704    52702    52702    52704    52704    52702    52702    52704 
   52704    52704    52704    52702    52699    52702    52705    52704 
   52702    52702    52702    52701    52702    52702    52701    52702 
   52705    52704    52702    52702    52701    52704    52706    52705 
   52702    52701    52704    52706    52705    52705    52704    52702 
   52704    52705    52705    52704    52701    52704    52705    52702 
   52702    52706    52705    52701    52701    52704    52702    52702 
   52704    52705    52705    52704    52705    52705    52705    52702 
   52701    52701    52702    52704    52705    52705    52702    52704 
   52705    52702    52704    52705    52704    52702    52704    52705 
   52706    52705    52702    52702    52702    52701    52702    52704 
   52702    52702    52704    52704    52702    52702    52701    52699 
   52701    52702    52702    52702    52702    52702    52702    52702 
   52702    52704    52705    52706    52705    52702    52701    52701 
   52702    52704    52704    52704    52705    52702    52701    52701 
   52702    52704    52701    52702    52704    52699    52699    52702 
   52704    52702    52702    52704    52704    52702    52704    52702 
   52699    52701    52705    52704    52702    52701    52702    52704 
   52702    52702    52705    52705    52702    52699    52704    52705 
   52704    52704    52706    52704    52702    52704    52705    52704 
   52704    52702    52702    52702    52704    52702    52701    52701 
   52702    52702    52704    52702    52701    52702    52704    52704 
   52705    52702    52699    52701    52704    52702    52702    52705 
   52704    52704    52704    52701    52702    52704    52702    52704 
   52705    52704    52704    52702    52702    52705    52704    52699 
   52701    52704    52704    52702    52704    52702    52704    52704 
   52704    52702    52702    52701    52699    52702    52702    52701 
   52702    52702    52702    52704    52699    52701    52704    52701 
   52699    52702    52702    52704    52704    52702    52702    52705 
   52704    52701    52702    52704    52701    52704    52705    52702 
   52701    52704    52705    52704    52699    52699    52704    52705 
   52704    52704    52704    52704    52705    52705    52704    52704 
   52702    52702    52705    52705    52704    52704    52702    52702 
   52701    52701    52705    52706    52704    52702    52704    52705 
   52702    52699    52701    52704    52705    52704    52704    52705 
   52705    52701    52701    52702    52704    52702    52702    52702 
   52702    52704    52701    52698    52701    52704    52704    52701 
   52701    52705    52702    52699    52702    52704    52704    52704 
   52702    52699    52702    52706    52705    52701    52702    52704 
   52701    52699    52705    52704    52701    52701    52701    52702 
   52702    52704    52705    52705    52704    52704    52701    52701 
   52705    52704    52701    52702    52705    52704    52702    52701 
   52702    52701    52701    52699    52698    52701    52704    52702 
   52704    52701    52699    52704    52704    52701    52704    52704 
   52704    52704    52702    52702    52705    52704    52704    52702 
   52701    52704    52706    52702    52699    52702    52704    52704 
   52705    52705    52702    52698    52698    52702    52704    52702 
   52704    52704    52702    52702    52702    52702    52704    52705 
   52702    52701    52704    52701    52701    52702    52702    52699 
   52702    52704    52704    52702    52702    52701    52702    52704 
   52699    52701    52702    52702    52702    52702    52701    52702 
   52704    52702    52701    52701    52701    52702    52704    52704 
   52702    52702    52701    52699    52704    52705    52702    52701 
   52699    52699    52701    52699    52701    52704    52702    52701 
   52702    52704    52702    52702    52704    52702    52701    52699 
   52704    52705    52702    52701    52702    52702    52698    52698 
   52701    52702    52701    52701    52701    52699    52702    52704 
   52702    52701    52701    52702    52705    52705    52704    52705 
   52704    52699    52702    52705    52704    52702    52702    52701 
   52701    52699    52698    52701    52702    52701    52702    52702 
   52702    52704    52704    52702    52702    52699    52699    52701 
   52702    52704    52702    52704    52705    52704    52704    52702 
   52702    52702    52704    52702    52704    52704    52702    52702 
   52705    52705    52701    52702    52704    52706    52706    52704 
   52702    52704    52702    52702    52705    52704    52701    52704 
   52705    52704    52704    52702    52699    52702    52706    52704 
   52702    52705    52705    52702    52702    52701    52701    52704 
   52701    52701    52704    52702    52701    52704    52704    52701 
   52701    52702    52702    52705    52705    52704    52702    52701 
   52702    52705    52704    52702    52702    52702    52702    52702 
   52701    52702    52705    52705    52701    52699    52701    52702 
   52705    52706    52704    52704    52704    52701    52701    52705 
   52704    52702    52702    52701    52701    52702    52701    52701 
   52701    52698    52698    52701    52695    52678    52672    52691 
   52701    52681    52659    52656    52668    52674    52659    52643 
   52652    52679    52713    52739    52722    52697    52741    52821 
   52806    52722    52726    52822    52856    52824    52807    52683 
   52429    52412    52732    52942    52822    52625    52501    52363 
   52288    52505    52856    52917    52775    52770    52818    52798 
   52828    52863    52714    52389    52196    52384    52720    52941 
   53104    53141    53005    52895    52871    52917    53034    53006 
   52713    52390    52311    52485    52691    52732    52560    52373 
   52516    52829    52820    52587    52537    52650    52739    52779 
   52748    52637    52523    52516    52625    52650    52542    52578 
   52794    52979    53100    53123    52988    52764    52585    52552 
   52606    52578    52467    52411    52456    52596    52716    52699 
   52741    53011    53096    52741    52504    52641    52745    52770 
   52871    52914    52828    52668    52562    52547    52415    52246 
   52420    52710    52674    52637    52934    53110    52947    52861 
   52922    52797    52606    52725    52945    52816    52486    52357 
   52444    52605    52726    52760    52771    52770    52767    52779 
   52629    52416    52593    53013    53083    52837    52678    52647 
   52594    52520    52556    52663    52586    52455    52666    52979 
   52905    52616    52583    52833    52940    52704    52465    52411 
   52513    52806    52937    52879    53084    53068    52470    52122 
   52280    52463    52662    52903    52937    52771    52686    52793 
   52928    52915    52747    52412    52110    52224    52602    52953 
   53250    53175    52708    52397    52455    52789    53269    53403 
   52940    52424    52249    52238    52363    52720    53034    53083 
   52906    52431    52030    52296    52795    52990    52933    52575 
   52315    52606    52914    52872    52767    52609    52374    52424 
   52848    53164    52905    52332    52220    52560    52726    52789 
   53041    53376    53665    53605    52933    52154    51985    52394 
   52774    52821    52860    52880    52456    52135    52517    52833 
   52656    52579    52623    52454    52324    52616    53219    53569 
   53268    52662    52357    52442    52745    53084    52961    52354 
   52038    52247    52610    52906    52883    52560    52413    52564 
   52712    52685    52651    52766    52766    52520    52417    52708 
   53127    53234    52968    52699    52573    52546    52762    52988 
   52822    52539    52470    52488    52582    52780    52917    52901 
   52702    52463    52556    52902    52932    52567    52284    52342 
   52668    53094    53343    53102    52496    52207    52506    52816 
   52821    52813    52852    52725    52425    52262    52427    52640 
   52745    52920    53075    52940    52606    52478    52697    52987 
   52938    52365    51869    52267    53060    53218    52863    52625 
   52674    52845    52867    52672    52483    52578    52987    53130 
   52675    52438    52699    52618    52309    52524    52941    52830 
   52365    52316    52658    52778    52882    53140    52933    52529 
   52701    53011    53080    53106    52691    51970    51931    52612 
   53185    53148    52710    52488    52574    52675    52809    52876 
   52764    52731    52710    52598    52652    52720    52583    52466 
   52515    52701    52814    52636    52398    52450    52586    52412 
   52351    52897    53296    53017    52681    52663    52803    52848 
   52729    52729    52917    53190    53350    52938    52328    52396 
   52834    52979    52753    52323    52270    52739    53046    52974 
   52786    52724    52813    52848    52833    52620    52211    52236 
   52632    52694    52602    52843    53064    52944    52843    52720 
   52265    51939    52189    52663    52959    52961    52609    52285 
   52524    52995    53033    52694    52446    52485    52702    52960 
   53065    52868    52523    52396    52690    53023    52975    52867 
   52959    52964    52806    52606    52470    52564    52755    52795 
   52641    52409    52407    52695    53002    52995    52590    52234 
   52299    52594    52687    52444    52235    52451    53034    53441 
   53257    52884    52720    52574    52425    52427    52454    52475 
   52656    52898    52988    52867    52574    52466    52675    52744 
   52762    53009    52947    52574    52574    52890    53090    52936 
   52581    52482    52614    52748    52817    52694    52613    52813 
   53023    53014    52717    52374    52481    52718    52556    52385 
   52469    52542    52537    52494    52475    52459    52424    52726 
   53226    53194    52859    52991    53258    52851    52178    52182 
   52569    52674    52633    52674    52924    53231    53117    52785 
   52635    52483    52411    52606    52729    52637    52597    52718 
   52894    52914    52799    52690    52458    52297    52597    52992 
   52982    52668    52397    52415    52667    52849    52814    52694 
   52674    52770    52899    52987    52860    52610    52695    53006 
   52975    52663    52504    52620    52860    52979    52814    52442 
   52255    52577    53077    53138    52714    52311    52257    52362 
   52467    52681    52853    52824    52739    52600    52447    52525 
   52768    52847    52651    52463    52532    52623    52577    52662 
   52965    53239    53160    52809    52683    52805    52890    52882 
   52685    52436    52361    52347    52577    53061    53133    52741 
   52469    52477    52706    52956    52983    52840    52554    52276 
   52424    52803    52859    52749    52816    52913    52921    52805 
   52639    52702    52787    52581    52450    52547    52591    52589 
   52543    52506    52697    52782    52486    52419    52833    53023 
   52748    52535    52637    52834    52841    52721    52709    52733 
   52852    53049    52856    52489    52525    52643    52543    52618 
   52995    53203    52874    52375    52305    52516    52625    52662 
   52600    52513    52632    52809    52878    52897    52868    52841 
   52840    52836    52824    52725    52527    52454    52693    52953 
   52809    52473    52416    52639    52907    52917    52567    52366 
   52571    52791    52766    52554    52443    52521    52567    52666 
   52856    52926    52953    52928    52667    52548    52853    52980 
   52716    52581    52672    52829    52918    52805    52639    52490 
   52438    52590    52574    52340    52510    53076    53284    52907 
   52473    52350    52461    52672    52907    53069    53060    52814 
   52523    52519    52735    52882    52984    53090    52898    52443 
   52334    52681    52878    52686    52467    52440    52423    52401 
   52604    52822    52724    52529    52488    52505    52601    52814 
   52948    52979    52996    52899    52640    52367    52286    52402 
   52531    52699    52937    52953    52803    52847    52956    52901 
   52791    52674    52490    52400    52666    53144    53233    52852 
   52578    52573    52627    52701    52770    52744    52617    52590 
   52801    52937    52805    52674    52627    52537    52462    52529 
   52678    52678    52594    52705    52893    52953    53006    53063 
   52922    52582    52292    52251    52421    52620    52760    52829 
   52697    52474    52436    52471    52431    52482    52770    53122 
   53088    52698    52570    52798    52925    52799    52548    52436 
   52697    53083    53187    52988    52721    52531    52490    52687 
   52847    52732    52681    52644    52397    52429    52840    53050 
   52891    52577    52448    52698    52891    52718    52614    52744 
   52725    52527    52489    52677    52806    52780    52763    52697 
   52564    52571    52648    52716    52899    52971    52713    52485 
