Origin Time       2025/03/30 10:18:00
Lat.              34.667
Long.             140.825
Depth. (km)       69
Mag.              4.9
Station Code      CHBH17
Station Lat.      35.1714
Station Long.     140.3398
Station Height(m) 10
Record Time       2025/03/30 10:18:50
Sampling Freq(Hz) 100Hz
Duration Time(s)  120
Dir.              6
Scale Factor      7845(gal)/8223790
Max. Acc. (gal)   2.182
Last Correction   2025/03/30 10:18:50
Memo.             
[...]
   17473    17486    17475    17451    17443    17471    17501    17487 
   17450    17437    17462    17487    17487    17464    17442    17446 
   17471    17493    17493    17464    17443    17456    17477    17479 
   17474    17471    17463    17451    17451    17471    17489    17479 
   17464    17460    17464    17474    17467    17454    17458    17473 
   17486    17481    17458    17460    17482    17481    17448    17421 
   17446    17498    17514    17490    17466    17458    17451    17442 
   17448    17475    17494    17482    17452    17448    17474    17493 
   17483    17450    17423    17443    17487    17504    17487    17458 
   17443    17454    17475    17487    17473    17446    17440    17460 
   17487    17490    17464    17444    17458    17489    17494    17460 
   17429    17437    17473    17500    17498    17473    17450    17446 
   17458    17474    17478    17464    17451    17458    17474    17487 
   17485    17463    17444    17454    17477    17473    17456    17456 
   17467    17477    17485    17482    17462    17444    17442    17455 
   17483    17502    17490    17460    17435    17432    17464    17501 
   17497    17464    17436    17432    17460    17501    17509    17478 
   17443    17429    17450    17486    17500    17475    17455    17458 
   17470    17479    17478    17463    17446    17439    17455    17485 
   17498    17478    17456    17467    17481    17470    17455    17443 
   17446    17479    17517    17513    17460    17409    17423    17477 
   17500    17485    17460    17444    17460    17505    17520    17470 
   17412    17406    17443    17496    17533    17518    17456    17413 
   17427    17473    17509    17509    17477    17442    17435    17459 
   17479    17469    17451    17464    17483    17485    17474    17462 
   17456    17463    17475    17485    17475    17451    17443    17455 
   17478    17491    17475    17456    17463    17482    17487    17470 
   17440    17432    17458    17491    17508    17483    17439    17427 
   17458    17489    17500    17486    17464    17454    17446    17450 
   17481    17493    17470    17454    17462    17477    17477    17471 
   17473    17456    17431    17460    17517    17512    17454    17425 
   17442    17464    17485    17487    17475    17459    17444    17464 
   17491    17477    17459    17462    17463    17454    17454    17481 
   17485    17466    17471    17466    17454    17471    17474    17463 
   17464    17459    17470    17493    17479    17450    17443    17455 
   17475    17491    17486    17462    17450    17451    17455    17470 
   17481    17475    17471    17459    17452    17475    17491    17470 
   17442    17437    17463    17496    17498    17469    17446    17454 
   17473    17474    17462    17464    17478    17479    17471    17466 
   17460    17455    17458    17466    17473    17479    17483    17473 
   17460    17456    17459    17469    17477    17464    17455    17463 
   17471    17479    17481    17463    17450    17451    17459    17478 
   17489    17479    17462    17454    17454    17466    17490    17494 
   17469    17452    17455    17463    17464    17459    17471    17487 
   17474    17460    17469    17474    17466    17460    17458    17451 
   17456    17479    17489    17483    17475    17466    17458    17447 
   17447    17471    17487    17475    17462    17470    17482    17477 
   17456    17443    17447    17448    17451    17486    17525    17517 
   17471    17423    17404    17436    17496    17518    17486    17433 
   17428    17485    17521    17487    17436    17428    17454    17487 
   17493    17463    17444    17467    17494    17493    17467    17444 
   17450    17471    17478    17463    17446    17450    17486    17518 
   17498    17447    17425    17433    17462    17501    17506    17466 
   17440    17448    17469    17489    17493    17482    17459    17427 
   17420    17471    17520    17504    17462    17455    17463    17459 
   17456    17460    17464    17466    17470    17482    17487    17475 
   17464    17456    17447    17450    17469    17481    17481    17486 
   17491    17473    17435    17420    17440    17481    17516    17506 
   17463    17428    17439    17491    17513    17474    17435    17429 
   17452    17491    17512    17486    17450    17439    17456    17489 
   17510    17481    17419    17405    17455    17517    17533    17479 
   17419    17425    17477    17506    17493    17458    17429    17437 
   17473    17496    17497    17485    17460    17446    17454    17467 
   17475    17470    17458    17464    17479    17481    17477    17471 
   17455    17444    17456    17469    17474    17483    17482    17477 
   17474    17462    17442    17444    17470    17485    17477    17464 
   17466    17478    17479    17467    17460    17462    17463    17460 
   17451    17452    17487    17513    17487    17439    17424    17450 
   17479    17486    17479    17466    17458    17473    17489    17474 
   17454    17454    17451    17444    17463    17497    17509    17486 
   17455    17437    17435    17451    17485    17505    17481    17443 
   17442    17460    17479    17498    17483    17446    17443    17467 
   17478    17481    17469    17447    17439    17455    17491    17516 
   17491    17447    17436    17454    17467    17469    17462    17462 
   17479    17494    17479    17454    17442    17451    17475    17479 
   17459    17456    17475    17482    17475    17469    17460    17456 
   17466    17475    17471    17464    17464    17470    17478    17477 
   17470    17462    17452    17451    17466    17474    17467    17467 
   17475    17478    17477    17469    17455    17456    17470    17475 
   17473    17467    17459    17460    17470    17470    17462    17462 
   17470    17475    17475    17474    17464    17459    17464    17471 
   17464    17452    17459    17478    17479    17473    17473    17474 
   17467    17464    17469    17464    17456    17463    17470    17469 
   17467    17467    17464    17471    17478    17477    17467    17460 
   17460    17469    17470    17463    17462    17464    17464    17474 
   17479    17470    17466    17470    17469    17466    17467    17467 
   17469    17473    17474    17471    17460    17454    17462    17471 
   17475    17477    17469    17463    17467    17471    17470    17467 
   17463    17463    17467    17470    17473    17477    17473    17462 
   17464    17469    17466    17462    17459    17460    17471    17481 
   17482    17478    17466    17452    17452    17460    17470    17474 
   17469    17470    17475    17475    17469    17462    17456    17458 
   17469    17478    17478    17473    17464    17462    17467    17470 
   17469    17467    17463    17459    17466    17474    17475    17474 
   17467    17459    17463    17470    17469    17466    17466    17467 
   17469    17470    17466    17462    17463    17463    17469    17477 
   17473    17469    17470    17473    17475    17470    17458    17456 
   17467    17481    17482    17467    17460    17469    17469    17466 
   17471    17470    17464    17469    17467    17463    17464    17466 
   17463    17464    17470    17473    17474    17467    17463    17469 
   17474    17473    17466    17458    17455    17464    17477    17477 
   17471    17464    17460    17458    17462    17469    17470    17464 
   17463    17467    17475    17477    17466    17456    17454    17460 
   17473    17475    17466    17464    17470    17470    17464    17463 
   17467    17464    17466    17473    17467    17460    17464    17470 
   17470    17469    17462    17459    17460    17462    17469    17471 
   17466    17464    17464    17464    17471    17474    17467    17464 
   17467    17467    17463    17462    17466    17466    17464    17467 
   17470    17473    17470    17460    17459    17463    17467    17475 
   17473    17460    17460    17467    17469    17470    17469    17463 
   17464    17473    17474    17466    17459    17459    17469    17477 
   17478    17473    17464    17459    17463    17469    17473    17475 
   17471    17466    17466    17471    17474    17471    17464    17463 
   17469    17470    17471    17473    17470    17464    17464    17470 
   17471    17463    17466    17475    17473    17467    17469    17469 
   17470    17470    17464    17464    17467    17473    17474    17469 
   17469    17471    17466    17462    17466    17467    17469    17474 
   17475    17471    17467    17467    17467    17467    17469    17470 
   17473    17471    17471    17471    17466    17460    17464    17470 
   17470    17469    17473    17477    17469    17462    17463    17462 
   17467    17477    17475    17470    17470    17470    17466    17458 
   17460    17473    17474    17469    17471    17471    17470    17473 
   17477    17479    17478    17470    17458    17452    17478    17533 
   17559    17497    17369    17290    17377    17586    17707    17586 
   17351    17277    17420    17575    17552    17393    17305    17425 
   17632    17652    17424    17213    17271    17504    17626    17498 
   17211    17051    17311    17828    18015    17720    17469    17559 
   17637    17417    17130    17072    17220    17443    17653    17751 
   17748    17737    17647    17355    16995    16945    17317    17658 
   17594    17390    17410    17710    18138    18220    17508    16445 
   16056    16607    17448    18036    18262    18149    17725    17200 
   16954    17139    17550    17901    17938    17574    17181    17339 
   17988    18327    17847    17076    16748    16769    16799    16976 
   17425    18014    18507    18450    17564    16425    16143    17170 
   18576    18854    17636    16264    16210    17379    18505    18596 
   17597    16355    16008    16995    18520    19086    17991    16335 
   15807    16799    18291    18991    18319    17004    16437    17007 
   17921    18399    18134    17261    16474    16492    17230    17969 
   18225    17990    17451    17041    17239    17815    17977    17582 
   17282    17410    17618    17545    17251    17081    17329    17915 
   18297    17882    16727    15916    16511    18041    19005    18655 
   17460    16428    16383    17300    18303    18493    17653    16537 
   16302    17208    18307    18607    17964    16965    16467    16889 
   17747    18347    18490    18095    17190    16393    16422    17255 
   18085    18058    17111    16110    16060    17157    18620    19209 
   18237    16490    15616    16356    18026    19377    19346    17844 
   16204    15989    17298    18721    18820    17608    16394    16171 
   16848    17872    18673    18711    17755    16376    15803    16611 
   17937    18505    17988    17161    16976    17531    18000    17662 
   16931    16969    17965    18588    17905    16798    16513    17231 
   18306    18617    17620    16407    16158    16729    17760    18744 
   18489    16900    15735    16170    17513    18570    18725    18072 
   17223    16803    17084    17779    18121    17701    16997    16722 
   17008    17532    18065    18447    18296    17510    16798    16915 
   17643    18108    17849    17211    16891    17205    17832    18104 
   17598    16802    16772    17705    18607    18407    17028    15881 
   16471    18139    18898    18083    16625    15734    16166    17651 
   18760    18407    17320    16852    17130    17491    17643    17760 
   17982    17957    17383    16833    16970    17568    18004    17820 
   17043    16546    17041    17905    18121    17702    17311    17248 
   17388    17482    17421    17486    17876    18111    17721    16991 
   16668    17189    17995    18133    17501    16783    16617    17162 
   17940    18158    17774    17505    17377    16934    16726    17450 
   18490    18747    17922    16638    15939    16376    17382    18050 
   18135    17875    17628    17679    17699    17186    16595    16777 
   17570    18146    18245    18071    17691    17278    17177    17375 
   17649    17842    17618    16912    16509    17124    18335    18941 
   18226    16758    15836    16131    17147    17990    18196    17806 
   17323    17273    17390    17207    17074    17405    17807    17818 
   17652    17687    17833    17865    17821    17618    17186    16993 
   17348    17798    17948    17928    17739    17130    16309    16132 
   17119    18517    18948    18048    16798    16205    16451    17178 
   17790    17859    17589    17361    17410    17911    18372    18013 
   17042    16236    16133    17138    18804    19522    18493    16964 
   16436    16864    17365    17545    17545    17506    17504    17714 
   18040    17902    17201    16718    16845    17088    17149    17286 
   17617    17922    17909    17378    16667    16607    17298    17782 
   17644    17604    18083    18528    18270    17253    16285    16630 
   18191    19067    18272    16949    16293    16532    17501    18428 
   18304    17459    17161    17554    17691    17274    16866    16802 
   16926    17108    17282    17350    17485    17865    17952    17385 
   17076    17599    18079    17948    17566    17197    17262    18252 
   19400    19157    17394    15711    15439    16460    17805    18507 
   18094    16989    16360    16795    17491    17691    17689    17736 
   17768    18011    18247    17779    16973    16937    17579    17759 
   17066    16290    16305    17278    18721    19568    18762    16687 
   15180    15487    17066    18531    18978    18407    17486    16962 
   17147    17828    18249    17635    16402    16071    17292    18812 
   19021    17740    16206    15796    16746    17952    18146    17339 
   16764    17157    17829    17836    17211    16877    17601    18728 
   18686    17253    16202    16950    18505    18864    17614    16127 
   15957    17332    18790    18810    17539    16345    16303    17378 
   18505    18628    17856    17142    16968    17149    17571    18046 
   17905    16957    16260    16715    17814    18532    18331    17381 
   16586    16648    17142    17351    17359    17672    18156    18087 
   17257    16371    16310    17284    18581    19153    18466    17064 
   16298    16811    17801    18373    18414    17882    16814    16131 
   16746    18038    18604    17898    16564    15870    16564    17934 
   18630    18206    17177    16362    16609    17863    18808    18557 
   17617    16943    17076    17770    18112    17653    17143    17343 
   17737    17491    16900    16822    17436    18072    17942    17096 
   16441    16688    17626    18450    18561    18068    17448    16908 
   16536    16640    17366    18279    18493    17578    16447    16414 
   17433    18341    18372    17590    16598    16397    17424    18586 
   18516    17437    16754    17194    17979    17950    17186    16742 
   17093    17641    17728    17562    17652    17901    17896    17428 
   16676    16306    16776    17656    18230    18229    17744    17135 
   16899    17174    17679    18045    17984    17448    16810    16733 
   17466    18283    18328    17702    17112    16929    17000    17238 
   17707    18083    17917    17334    16795    16591    16864    17568 
   18220    18241    17649    17068    16972    17261    17577    17733 
   17655    17227    16807    17112    17952    18395    18138    17397 
   16568    16524    17536    18428    18272    17589    17095    16961 
   17228    17680    17973    18080    18071    18000    17845    17366 
   16717    16592    17194    17950    18168    17539    16614    16429 
   17140    17990    18350    17965    17081    16626    17134    17888 
   18048    17655    16964    16295    16382    17309    18121    18202 
   17921    17803    17842    17739    17343    16821    16654    17145 
   17821    18004    17767    17597    17556    17455    17336    17305 
   17346    17315    17134    17196    17748    18088    17667    17014 
   16787    17100    17659    17830    17416    17138    17454    17875 
   17884    17655    17645    17725    17309    16544    16295    16891 
   17766    18243    18104    17628    17280    17275    17577    17998 
   18145    17891    17597    17379    17188    17335    17759    17772 
   17305    16988    17054    17263    17404    17485    17644    17829 
   17852    17718    17521    17244    16999    17107    17563    17879 
   17756    17428    17200    17091    17030    17127    17429    17682 
   17679    17417    16970    16600    16713    17416    18215    18432 
   18017    17398    16891    16873    17635    18550    18549    17597 
   16754    16865    17770    18511    18246    17224    16592    16951 
   17687    18019    17871    17504    17151    17007    17116    17346 
   17544    17635    17693    17876    17994    17564    16748    16312 
   16588    17352    18106    18225    17705    17253    17209    17325 
   17421    17556    17787    17851    17463    17045    17172    17670 
   17964    17712    17116    16904    17397    17972    18126    17922 
   17394    16887    16891    17099    17085    17159    17572    18015 
   18111    17752    17158    16860    17194    17797    18011    17651 
   17108    16920    17207    17644    17878    17741    17312    16892 
   16838    17378    18222    18486    17775    16831    16540    16997 
   17682    18014    17783    17269    17039    17359    17783    17802 
   17581    17578    17763    17706    17444    17471    17718    17698 
   17452    17331    17224    17045    17270    17917    18119    17583 
   17103    17329    17906    17983    17429    16973    17101    17644 
   18134    18002    17124    16363    16619    17536    18027    17725 
   17122    16848    17134    17616    17763    17523    17228    17147 
   17248    17347    17415    17509    17513    17350    17220    17375 
   17801    18204    18199    17605    16908    16954    17748    18353 
   18181    17504    16929    16931    17456    17902    17761    17204 
   16831    16910    17219    17551    17876    18106    18011    17535 
   17034    16887    17045    17296    17567    17782    17865    17876 
   17888    17815    17494    17081    16951    17177    17622    18095 
   18216    17743    16976    16733    17470    18262    17907    16833 
   16263    16438    16992    17705    18148    17933    17375    17134 
   17429    17837    17829    17409    16983    16888    17263    17956 
   18283    17649    16573    16228    17084    18382    18828    18029 
   16872    16336    16653    17470    18138    18122    17560    17099 
   17069    17305    17589    17860    18030    17837    17263    16826 
   16976    17491    17878    18042    18069    17859    17481    17228 
   17275    17551    17721    17504    17104    17031    17459    17956 
   18045    17794    17589    17586    17582    17383    17093    16858 
   16696    16695    17012    17467    17679    17763    17932    17784 
   17105    16544    16710    17463    18334    18802    18420    17405 
   16632    16660    17234    17706    17771    17682    17686    17629 
   17374    17140    17224    17598    17852    17685    17343    17211 
   17269    17406    17698    17918    17679    17270    17178    17350 
   17717    18212    18306    17691    16827    16371    16513    16964 
   17432    17810    17963    17806    17521    17383    17409    17478 
