Origin Time       2025/03/30 10:18:00
Lat.              34.667
Long.             140.825
Depth. (km)       69
Mag.              4.9
Station Code      CHBH16
Station Lat.      35.1384
Station Long.     139.9649
Station Height(m) 160
Record Time       2025/03/30 10:18:49
Sampling Freq(Hz) 100Hz
Duration Time(s)  120
Dir.              4
Scale Factor      7845(gal)/8223790
Max. Acc. (gal)   2.117
Last Correction   2025/03/30 10:18:49
Memo.             
[...]
   -4722    -4752    -4793    -4812    -4797    -4753    -4695    -4638 
   -4591    -4556    -4534    -4523    -4531    -4575    -4649    -4733 
   -4811    -4876    -4915    -4920    -4888    -4830    -4772    -4734 
   -4716    -4712    -4714    -4726    -4752    -4773    -4761    -4714 
   -4642    -4564    -4511    -4500    -4517    -4549    -4577    -4592 
   -4610    -4650    -4716    -4791    -4857    -4908    -4941    -4957 
   -4955    -4919    -4847    -4753    -4656    -4595    -4592    -4637 
   -4695    -4733    -4734    -4707    -4671    -4634    -4596    -4548 
   -4495    -4475    -4521    -4635    -4788    -4930    -4999    -4958 
   -4831    -4681    -4568    -4540    -4592    -4680    -4752    -4791 
   -4807    -4822    -4843    -4865    -4876    -4860    -4816    -4760 
   -4706    -4664    -4627    -4595    -4568    -4553    -4552    -4565 
   -4595    -4639    -4685    -4714    -4722    -4711    -4689    -4671 
   -4669    -4684    -4711    -4752    -4810    -4873    -4919    -4931 
   -4919    -4900    -4872    -4822    -4737    -4614    -4475    -4371 
   -4347    -4402    -4502    -4607    -4687    -4725    -4746    -4788 
   -4842    -4878    -4864    -4783    -4681    -4623    -4627    -4681 
   -4757    -4839    -4907    -4936    -4928    -4908    -4872    -4820 
   -4753    -4681    -4623    -4581    -4553    -4538    -4531    -4540 
   -4560    -4598    -4671    -4762    -4827    -4839    -4819    -4789 
   -4742    -4669    -4594    -4553    -4571    -4648    -4754    -4851 
   -4904    -4920    -4920    -4905    -4857    -4779    -4688    -4602 
   -4541    -4503    -4483    -4502    -4571    -4672    -4779    -4860 
   -4888    -4849    -4758    -4662    -4610    -4606    -4638    -4696 
   -4757    -4797    -4820    -4830    -4828    -4823    -4812    -4785 
   -4742    -4704    -4681    -4679    -4696    -4725    -4738    -4719 
   -4673    -4629    -4606    -4602    -4604    -4606    -4614    -4633 
   -4646    -4657    -4675    -4707    -4768    -4855    -4942    -5001 
   -5023    -5019    -4990    -4930    -4830    -4703    -4575    -4475 
   -4410    -4380    -4378    -4402    -4452    -4537    -4650    -4765 
   -4850    -4888    -4874    -4818    -4737    -4661    -4607    -4587 
   -4603    -4648    -4707    -4779    -4854    -4909    -4924    -4888 
   -4808    -4718    -4644    -4603    -4600    -4614    -4618    -4618 
   -4625    -4637    -4657    -4672    -4664    -4631    -4595    -4581 
   -4607    -4664    -4733    -4781    -4807    -4828    -4847    -4866 
   -4888    -4899    -4878    -4830    -4769    -4716    -4688    -4687 
   -4691    -4687    -4685    -4689    -4680    -4641    -4588    -4565 
   -4595    -4662    -4754    -4861    -4938    -4943    -4885    -4804 
   -4735    -4695    -4681    -4688    -4699    -4698    -4693    -4706 
   -4739    -4768    -4768    -4738    -4693    -4644    -4594    -4550 
   -4519    -4511    -4545    -4623    -4726    -4819    -4892    -4945 
   -4970    -4961    -4907    -4804    -4653    -4488    -4364    -4318 
   -4364    -4490    -4664    -4841    -4970    -5022    -5000    -4928 
   -4835    -4746    -4668    -4604    -4568    -4579    -4644    -4741 
   -4828    -4873    -4860    -4796    -4714    -4634    -4569    -4533 
   -4521    -4546    -4615    -4693    -4760    -4814    -4849    -4862 
   -4842    -4779    -4703    -4641    -4610    -4619    -4644    -4666 
   -4688    -4708    -4730    -4760    -4799    -4842    -4868    -4855 
   -4806    -4722    -4621    -4531    -4484    -4487    -4522    -4561 
   -4600    -4639    -4673    -4715    -4781    -4860    -4922    -4955 
   -4961    -4928    -4857    -4758    -4662    -4607    -4619    -4692 
   -4787    -4849    -4847    -4779    -4668    -4573    -4540    -4579 
   -4660    -4741    -4793    -4819    -4818    -4800    -4774    -4727 
   -4660    -4603    -4577    -4580    -4594    -4596    -4591    -4588 
   -4587    -4585    -4590    -4619    -4687    -4777    -4846    -4873 
   -4881    -4896    -4918    -4928    -4914    -4865    -4793    -4718 
   -4652    -4607    -4598    -4634    -4708    -4789    -4838    -4823 
   -4746    -4637    -4529    -4455    -4440    -4491    -4587    -4691 
   -4772    -4827    -4854    -4837    -4769    -4671    -4567    -4482 
   -4440    -4456    -4533    -4652    -4783    -4882    -4935    -4949 
   -4941    -4914    -4877    -4845    -4820    -4785    -4727    -4664 
   -4626    -4637    -4695    -4766    -4806    -4793    -4739    -4676 
   -4630    -4617    -4631    -4649    -4648    -4627    -4607    -4604 
   -4635    -4699    -4777    -4849    -4901    -4934    -4945    -4922 
   -4868    -4800    -4739    -4695    -4672    -4649    -4606    -4553 
   -4509    -4487    -4496    -4531    -4569    -4592    -4595    -4591 
   -4608    -4652    -4706    -4758    -4800    -4824    -4839    -4864 
   -4896    -4922    -4927    -4901    -4850    -4789    -4734    -4693 
   -4675    -4672    -4680    -4695    -4702    -4695    -4681    -4662 
   -4641    -4626    -4626    -4650    -4691    -4726    -4745    -4745 
   -4742    -4738    -4720    -4685    -4652    -4638    -4664    -4726 
   -4787    -4815    -4812    -4789    -4753    -4712    -4683    -4668 
   -4653    -4626    -4585    -4538    -4506    -4502    -4534    -4602 
   -4687    -4776    -4865    -4938    -4988    -5024    -5039    -5013 
   -4943    -4854    -4768    -4710    -4692    -4707    -4742    -4784 
   -4799    -4777    -4722    -4642    -4565    -4518    -4496    -4495 
   -4503    -4517    -4523    -4518    -4513    -4529    -4573    -4638 
   -4714    -4781    -4824    -4838    -4827    -4808    -4797    -4793 
   -4779    -4739    -4695    -4669    -4658    -4660    -4675    -4689 
   -4684    -4664    -4650    -4652    -4680    -4739    -4811    -4869 
   -4896    -4882    -4839    -4788    -4737    -4693    -4669    -4657 
   -4646    -4625    -4587    -4552    -4556    -4606    -4684    -4772 
   -4847    -4896    -4923    -4934    -4920    -4873    -4803    -4742 
   -4703    -4679    -4661    -4645    -4633    -4626    -4622    -4622 
   -4622    -4625    -4642    -4669    -4696    -4719    -4734    -4720 
   -4687    -4660    -4658    -4679    -4708    -4734    -4756    -4780 
   -4801    -4812    -4799    -4762    -4714    -4666    -4644    -4656 
   -4700    -4760    -4803    -4801    -4768    -4725    -4695    -4689 
   -4681    -4656    -4625    -4612    -4634    -4691    -4762    -4833 
   -4884    -4896    -4870    -4824    -4779    -4741    -4695    -4635 
   -4561    -4479    -4399    -4344    -4348    -4423    -4552    -4688 
   -4797    -4864    -4878    -4843    -4785    -4737    -4702    -4676 
   -4656    -4649    -4679    -4752    -4850    -4931    -4949    -4896 
   -4800    -4696    -4621    -4591    -4599    -4639    -4689    -4720 
   -4739    -4764    -4792    -4811    -4811    -4788    -4738    -4671 
   -4610    -4580    -4594    -4652    -4737    -4812    -4861    -4885 
   -4897    -4903    -4904    -4889    -4849    -4791    -4737    -4695 
   -4665    -4639    -4619    -4617    -4629    -4641    -4635    -4607 
   -4558    -4509    -4494    -4538    -4617    -4692    -4766    -4833 
   -4878    -4899    -4884    -4835    -4777    -4735    -4718    -4725 
   -4758    -4799    -4824    -4819    -4792    -4750    -4718    -4707 
   -4703    -4702    -4699    -4681    -4660    -4641    -4621    -4606 
   -4600    -4600    -4604    -4611    -4615    -4621    -4633    -4653 
   -4669    -4677    -4685    -4700    -4729    -4773    -4820    -4854 
   -4865    -4857    -4838    -4808    -4777    -4747    -4739    -4772 
   -4818    -4850    -4860    -4822    -4746    -4679    -4648    -4653 
   -4669    -4658    -4618    -4575    -4549    -4553    -4590    -4631 
   -4657    -4661    -4652    -4648    -4665    -4703    -4752    -4806 
   -4845    -4842    -4797    -4734    -4665    -4611    -4583    -4583 
   -4604    -4626    -4635    -4652    -4673    -4693    -4714    -4726 
   -4734    -4743    -4756    -4774    -4789    -4799    -4800    -4773 
   -4715    -4645    -4584    -4564    -4602    -4685    -4777    -4834 
   -4838    -4807    -4758    -4700    -4653    -4634    -4665    -4737 
   -4814    -4860    -4857    -4808    -4734    -4664    -4621    -4612 
   -4641    -4689    -4735    -4769    -4799    -4820    -4835    -4849 
   -4857    -4847    -4818    -4779    -4734    -4687    -4657    -4642 
   -4626    -4604    -4591    -4595    -4615    -4646    -4672    -4681 
   -4681    -4687    -4696    -4718    -4750    -4781    -4800    -4810 
   -4808    -4793    -4761    -4726    -4700    -4680    -4658    -4656 
   -4691    -4743    -4785    -4791    -4752    -4684    -4610    -4567 
   -4575    -4619    -4677    -4718    -4704    -4650    -4594    -4568 
   -4592    -4666    -4766    -4838    -4847    -4801    -4734    -4676 
   -4650    -4656    -4683    -4718    -4752    -4772    -4780    -4783 
   -4787    -4783    -4756    -4706    -4652    -4607    -4575    -4556 
   -4557    -4587    -4644    -4725    -4823    -4915    -4963    -4945 
   -4853    -4706    -4545    -4434    -4401    -4434    -4511    -4602 
   -4699    -4806    -4909    -4997    -5046    -5035    -4951    -4806 
   -4634    -4494    -4434    -4475    -4595    -4752    -4897    -4999 
   -5035    -5000    -4907    -4776    -4635    -4522    -4468    -4471 
   -4519    -4594    -4675    -4738    -4766    -4762    -4743    -4733 
   -4739    -4758    -4768    -4749    -4706    -4661    -4635    -4634 
   -4654    -4689    -4720    -4729    -4711    -4680    -4658    -4665 
   -4693    -4722    -4746    -4779    -4823    -4882    -4951    -5001 
   -5003    -4947    -4841    -4708    -4599    -4546    -4556    -4617 
   -4695    -4765    -4812    -4826    -4807    -4758    -4684    -4598 
   -4523    -4488    -4515    -4599    -4714    -4819    -4870    -4837 
   -4735    -4612    -4519    -4498    -4554    -4666    -4789    -4889 
   -4941    -4938    -4905    -4853    -4780    -4696    -4604    -4511 
   -4429    -4372    -4359    -4398    -4467    -4538    -4602    -4644 
   -4660    -4664    -4664    -4661    -4650    -4635    -4619    -4614 
   -4652    -4743    -4872    -4997    -5071    -5063    -4978    -4850 
   -4731    -4657    -4639    -4669    -4715    -4741    -4741    -4720 
   -4698    -4699    -4716    -4726    -4714    -4680    -4652    -4660 
   -4712    -4799    -4889    -4947    -4958    -4924    -4851    -4760 
   -4668    -4587    -4530    -4498    -4482    -4486    -4517    -4583 
   -4691    -4830    -4973    -5100    -5193    -5232    -5216    -5138 
   -4981    -4756    -4498    -4253    -4074    -4006    -4051    -4170 
   -4337    -4538    -4752    -4946    -5097    -5186    -5208    -5163 
   -5074    -4978    -4907    -4870    -4869    -4899    -4945    -4986 
   -4996    -4941    -4799    -4583    -4349    -4166    -4075    -4089 
   -4189    -4333    -4487    -4615    -4685    -4695    -4665    -4629 
   -4603    -4587    -4581    -4592    -4619    -4652    -4683    -4714 
   -4734    -4733    -4731    -4768    -4843    -4936    -5027    -5094 
   -5124    -5120    -5082    -5009    -4896    -4750    -4579    -4396 
   -4228    -4098    -4029    -4037    -4125    -4288    -4521    -4781 
   -5017    -5193    -5287    -5313    -5310    -5316    -5348    -5385 
   -5385    -5312    -5161    -4968    -4785    -4646    -4565    -4549 
   -4568    -4590    -4587    -4548    -4464    -4334    -4197    -4110 
   -4116    -4224    -4410    -4644    -4905    -5165    -5389    -5559 
   -5657    -5656    -5533    -5282    -4927    -4519    -4118    -3775 
   -3531    -3404    -3392    -3483    -3672    -3927    -4209    -4476 
   -4700    -4862    -4962    -5012    -5034    -5047    -5071    -5116 
   -5169    -5216    -5235    -5206    -5135    -5020    -4868    -4691 
   -4506    -4334    -4225    -4201    -4264    -4394    -4558    -4730 
   -4876    -4957    -4963    -4918    -4847    -4787    -4746    -4722 
   -4738    -4795    -4874    -4958    -5023    -5050    -5036    -4981 
   -4880    -4738    -4565    -4392    -4264    -4226    -4290    -4426 
   -4587    -4729    -4816    -4846    -4819    -4749    -4653    -4542 
   -4441    -4384    -4382    -4425    -4502    -4591    -4673    -4737 
   -4773    -4770    -4733    -4668    -4594    -4531    -4507    -4540 
   -4626    -4753    -4891    -5015    -5113    -5178    -5196    -5173 
   -5124    -5059    -4988    -4912    -4826    -4730    -4637    -4571 
   -4553    -4599    -4695    -4830    -4984    -5127    -5235    -5296 
   -5308    -5262    -5147    -4972    -4770    -4581    -4425    -4310 
   -4236    -4206    -4209    -4221    -4232    -4245    -4276    -4352 
   -4491    -4702    -4961    -5219    -5432    -5564    -5593    -5522 
   -5379    -5190    -4974    -4742    -4510    -4310    -4180    -4139 
   -4174    -4260    -4369    -4463    -4525    -4556    -4554    -4530 
   -4492    -4422    -4314    -4186    -4074    -4013    -4018    -4087 
   -4216    -4375    -4531    -4657    -4737    -4774    -4789    -4807 
   -4838    -4876    -4920    -4981    -5044    -5108    -5178    -5252 
   -5308    -5314    -5244    -5096    -4900    -4726    -4638    -4645 
   -4731    -4870    -5008    -5111    -5169    -5184    -5162    -5111 
   -5017    -4868    -4672    -4446    -4216    -4025    -3924    -3931 
   -4027    -4143    -4206    -4186    -4086    -3936    -3797    -3723 
   -3758    -3921    -4212    -4622    -5119    -5643    -6130    -6531 
   -6805    -6933    -6922    -6793    -6562    -6230    -5794    -5265 
   -4672    -4077    -3554    -3164    -2951    -2902    -2970    -3107 
   -3269    -3441    -3632    -3842    -4060    -4294    -4540    -4801 
   -5071    -5333    -5572    -5768    -5892    -5908    -5784    -5520 
   -5144    -4710    -4271    -3888    -3620    -3519    -3595    -3843 
   -4224    -4668    -5101    -5466    -5713    -5821    -5794    -5670 
   -5489    -5282    -5066    -4838    -4604    -4387    -4217    -4137 
   -4164    -4284    -4476    -4699    -4900    -5053    -5148    -5202 
   -5247    -5292    -5331    -5352    -5321    -5198    -4980    -4687 
   -4359    -4052    -3820    -3682    -3634    -3658    -3738    -3828 
   -3897    -3948    -4001    -4072    -4172    -4305    -4452    -4604 
   -4746    -4858    -4927    -4951    -4950    -4955    -4982    -5023 
   -5059    -5070    -5028    -4934    -4812    -4702    -4648    -4684 
   -4807    -4982    -5157    -5271    -5300    -5240    -5123    -4982 
   -4865    -4806    -4810    -4866    -4959    -5059    -5148    -5220 
   -5273    -5314    -5344    -5333    -5265    -5127    -4915    -4637 
   -4328    -4037    -3811    -3665    -3611    -3630    -3701    -3812 
   -3952    -4110    -4276    -4448    -4617    -4773    -4924    -5076 
   -5204    -5294    -5360    -5406    -5425    -5425    -5414    -5400 
   -5395    -5421    -5483    -5575    -5663    -5684    -5589    -5351 
   -4977    -4500    -3991    -3518    -3123    -2848    -2706    -2706 
   -2872    -3210    -3692    -4257    -4823    -5302    -5614    -5707 
   -5598    -5347    -5020    -4672    -4340    -4071    -3910    -3885 
   -4008    -4252    -4557    -4861    -5109    -5266    -5314    -5255 
   -5124    -4958    -4780    -4614    -4484    -4433    -4490    -4637 
   -4846    -5071    -5255    -5367    -5398    -5367    -5317    -5281 
   -5273    -5287    -5294    -5273    -5200    -5066    -4876    -4638 
   -4383    -4149    -3966    -3854    -3820    -3847    -3913    -4001 
   -4081    -4136    -4168    -4191    -4229    -4297    -4398    -4521 
   -4660    -4795    -4901    -4963    -4984    -4978    -4969    -4980 
   -5017    -5080    -5154    -5248    -5360    -5475    -5570    -5629 
   -5647    -5614    -5539    -5429    -5292    -5142    -4997    -4861 
   -4734    -4629    -4546    -4488    -4455    -4441    -4434    -4426 
   -4419    -4415    -4411    -4411    -4411    -4399    -4376    -4338 
   -4291    -4255    -4228    -4190    -4136    -4072    -4014    -3998 
   -4058    -4198    -4411    -4672    -4943    -5189    -5359    -5427 
   -5395    -5282    -5120    -4942    -4770    -4610    -4452    -4295 
   -4149    -4036    -3983    -3998    -4067    -4190    -4382    -4646 
   -4963    -5302    -5617    -5867    -6030    -6097    -6072    -5950 
   -5722    -5395    -5007    -4596    -4210    -3890    -3647    -3487 
   -3422    -3447    -3527    -3638    -3758    -3873    -3985    -4102 
   -4236    -4401    -4596    -4804    -5013    -5208    -5371    -5508 
   -5632    -5756    -5883    -6004    -6079    -6068    -5956    -5746 
   -5467    -5163    -4870    -4622    -4437    -4306    -4226    -4205 
   -4230    -4298    -4403    -4534    -4662    -4764    -4818    -4811 
   -4747    -4668    -4603    -4556    -4530    -4523    -4530    -4546 
   -4563    -4580    -4606    -4623    -4615    -4565    -4460    -4315 
   -4171    -4072    -4058    -4143    -4309    -4525    -4746    -4932 
   -5055    -5104    -5086    -5020    -4919    -4807    -4714    -4654 
   -4638    -4673    -4749    -4841    -4923    -4968    -4959    -4901 
   -4812    -4702    -4592    -4507    -4456    -4452    -4506    -4611 
   -4752    -4884    -4968    -4992    -4951    -4861    -4746    -4625 
   -4521    -4450    -4423    -4438    -4495    -4588    -4693    -4780 
   -4834    -4855    -4854    -4851    -4854    -4866    -4900    -4942 
   -4981    -5008    -5008    -4973    -4918    -4851    -4788    -4737 
   -4698    -4665    -4630    -4581    -4502    -4390    -4276    -4199 
   -4189    -4264    -4409    -4598    -4816    -5031    -5231    -5413 
   -5559    -5653    -5672    -5583    -5377    -5081    -4742    -4417 
   -4160    -4013    -3989    -4068    -4198    -4325    -4410    -4429 
   -4386    -4310    -4230    -4176    -4166    -4199    -4274    -4363 
   -4446    -4525    -4604    -4684    -4773    -4869    -4959    -5032 
   -5086    -5105    -5094    -5078    -5077    -5084    -5080    -5040 
   -4950    -4804    -4626    -4450    -4321    -4267    -4276    -4329 
   -4423    -4550    -4698    -4857    -5008    -5130    -5204    -5228 
   -5213    -5166    -5097    -5012    -4908    -4784    -4657    -4557 
   -4511    -4529    -4607    -4723    -4838    -4918    -4955    -4953 
   -4919    -4869    -4822    -4787    -4747    -4685    -4603    -4513 
   -4422    -4347    -4307    -4309    -4345    -4409    -4490    -4569 
   -4646    -4726    -4797    -4866    -4941    -5028    -5128    -5216 
   -5258    -5232    -5130    -4970    -4780    -4585    -4410    -4257 
   -4133    -4054    -4025    -4058    -4153    -4302    -4477    -4642 
   -4779    -4878    -4946    -4995    -5028    -5049    -5065    -5070 
   -5055    -5019    -4968    -4916    -4882    -4869    -4869    -4866 
   -4839    -4781    -4706    -4627    -4553    -4494    -4460    -4449 
   -4461    -4486    -4511    -4533    -4548    -4549    -4538    -4527 
   -4519    -4515    -4534    -4580    -4649    -4746    -4861    -4969 
   -5050    -5089    -5074    -4997    -4880    -4746    -4615    -4509 
   -4430    -4364    -4297    -4217    -4144    -4104    -4106    -4158 
   -4249    -4363    -4484    -4606    -4727    -4865    -5015    -5157 
   -5277    -5364    -5412    -5429    -5427    -5413    -5398    -5387 
   -5381    -5371    -5340    -5278    -5189    -5078    -4951    -4808 
