Origin Time       2025/03/30 10:18:00
Lat.              34.667
Long.             140.825
Depth. (km)       69
Mag.              4.9
Station Code      CHBH06
Station Lat.      35.7215
Station Long.     140.5046
Station Height(m) -145
Record Time       2025/03/30 10:19:08
Sampling Freq(Hz) 100Hz
Duration Time(s)  120
Dir.              1
Scale Factor      3923(gal)/8224838
Max. Acc. (gal)   0.274
Last Correction   2025/03/30 10:19:08
Memo.             
[...]
   -1096    -1082    -1055    -1011     -967     -963     -990    -1016 
   -1035    -1030    -1000     -976     -958     -951     -982    -1030 
   -1054    -1067    -1075    -1058    -1026    -1017    -1023    -1015 
   -1004    -1009    -1015    -1012    -1013    -1024    -1032    -1031 
   -1032    -1048    -1066    -1065    -1070    -1088    -1053     -970 
    -961    -1031    -1062    -1058    -1090    -1120    -1117    -1120 
   -1108    -1055    -1012     -992     -965     -954     -965     -939 
    -897     -932    -1032    -1107    -1132    -1123    -1080    -1057 
   -1080    -1067     -984     -931     -958     -980     -961     -962 
    -985     -994    -1011    -1039    -1062    -1077    -1069    -1038 
   -1023    -1035    -1050    -1063    -1067    -1055    -1063    -1113 
   -1144    -1128    -1116    -1104    -1061    -1024    -1021    -1027 
   -1016     -996     -969     -959     -984     -985     -947     -947 
   -1012    -1065    -1051    -1011    -1003    -1017    -1015     -997 
   -1009    -1042    -1038    -1031    -1081    -1113    -1073    -1039 
   -1038    -1021    -1035    -1084    -1066    -1005    -1026    -1073 
   -1054    -1036    -1048    -1017     -986    -1017    -1051    -1054 
   -1063    -1065    -1035     -997     -984     -992     -986     -978 
    -992     -985     -927     -896     -953    -1044    -1102    -1116 
   -1104    -1092    -1102    -1109    -1066    -1007    -1005    -1034 
   -1028    -1013    -1034    -1059    -1043    -1011    -1020    -1065 
   -1090    -1086    -1063    -1027    -1004    -1020    -1039    -1026 
   -1009    -1020    -1039    -1063    -1102    -1117    -1063     -993 
    -986    -1023    -1043    -1031     -997     -969     -981    -1032 
   -1086    -1097    -1051    -1003     -996    -1004     -999     -989 
    -996    -1028    -1069    -1074    -1047    -1031    -1026    -1011 
   -1012    -1046    -1065    -1047    -1042    -1062    -1057    -1011 
    -985    -1005    -1031    -1034    -1040    -1040    -1005     -982 
   -1003     -997     -966    -1003    -1084    -1092    -1044    -1038 
   -1042     -989     -949     -989    -1054    -1077    -1059    -1039 
   -1047    -1074    -1084    -1075    -1073    -1093    -1120    -1113 
   -1066    -1016    -1001    -1007    -1003     -993     -990     -980 
    -965     -966     -966     -966     -999    -1055    -1092    -1092 
   -1062    -1019     -997    -1036    -1111    -1134    -1078    -1004 
    -958     -962    -1021    -1080    -1092    -1092    -1093    -1074 
   -1062    -1084    -1094    -1063    -1035    -1031    -1032    -1055 
   -1089    -1069     -992     -922     -878     -878     -920     -951 
    -969    -1016    -1053    -1023     -986     -993    -1013    -1047 
   -1100    -1116    -1085    -1078    -1074    -1028    -1028    -1096 
   -1119    -1094    -1080    -1035     -985    -1027    -1093    -1074 
   -1053    -1101    -1108    -1031     -986    -1011    -1032    -1038 
   -1034     -996     -955     -959     -978     -981    -1004    -1062 
   -1105    -1084    -1030    -1032    -1077    -1066    -1004     -977 
   -1001    -1030    -1020     -977     -959     -990     -999     -953 
    -927     -959    -1005    -1053    -1089    -1085    -1067    -1069 
   -1073    -1077    -1088    -1084    -1070    -1057    -1000     -928 
    -942    -1023    -1070    -1086    -1098    -1077    -1028    -1016 
   -1044    -1061    -1044    -1017    -1003    -1015    -1039    -1026 
    -966     -913     -918     -973    -1017    -1017    -1012    -1034 
   -1036    -1004     -999    -1028    -1042    -1051    -1082    -1107 
   -1108    -1104    -1067     -996     -990    -1066    -1082    -1016 
    -976     -976     -981    -1026    -1104    -1131    -1105    -1081 
   -1058    -1026     -994     -980     -982     -986     -976     -978 
   -1019    -1059    -1085    -1115    -1140    -1151    -1132    -1070 
   -1009    -1023    -1078    -1075    -1016     -982    -1005    -1044 
   -1047    -1007     -954     -928     -966    -1044    -1071    -1044 
   -1055    -1088    -1073    -1044    -1042    -1013     -957     -949 
    -994    -1023    -1046    -1075    -1057    -1021    -1050    -1093 
   -1093    -1077    -1034     -945     -893     -938     -999    -1015 
   -1026    -1051    -1057    -1034    -1012     -993     -950     -918 
    -961    -1031    -1034     -972     -935     -953     -978    -1026 
   -1097    -1105    -1063    -1088    -1154    -1144    -1086    -1059 
   -1028     -974     -950     -932     -904     -930    -1004    -1043 
   -1044    -1063    -1102    -1138    -1167    -1179    -1147    -1097 
   -1080    -1096    -1117    -1123    -1092    -1048    -1030    -1032 
   -1046    -1086    -1131    -1100    -1001     -954     -994    -1042 
   -1044    -1023     -994     -980     -994    -1004     -972     -946 
    -970    -1017    -1057    -1057     -989     -936     -978    -1028 
   -1004     -993    -1036    -1030     -969     -953     -994    -1039 
   -1050    -1036    -1061    -1108    -1082    -1024    -1042    -1067 
   -1003     -932     -931     -951    -1005    -1094    -1134    -1128 
   -1134    -1089     -984     -940     -981    -1008    -1007    -1001 
    -993    -1005    -1050    -1105    -1163    -1201    -1188    -1135 
   -1066     -984     -913     -891     -931    -1011    -1061    -1054 
   -1032    -1024    -1027    -1036    -1046    -1063    -1111    -1138 
   -1107    -1078    -1092    -1097    -1066    -1013     -950     -934 
   -1001    -1071    -1081    -1070    -1055    -1000     -953     -993 
   -1074    -1102    -1074    -1017     -943     -865     -835     -892 
    -949     -928     -926    -1003    -1065    -1065    -1085    -1128 
   -1128    -1108    -1093    -1053    -1001     -981     -990    -1026 
   -1075    -1086    -1050    -1048    -1082    -1055     -972     -955 
   -1028    -1088    -1074    -1027    -1016    -1048    -1065    -1051 
   -1065    -1096    -1085    -1062    -1070    -1075    -1078    -1100 
   -1084    -1016     -989    -1015    -1012    -1021    -1081    -1101 
   -1063    -1047    -1050    -1036    -1044    -1054    -1008     -962 
    -977     -986     -973    -1001    -1074    -1132    -1134    -1073 
   -1004     -984     -990     -978     -970     -977     -973     -980 
   -1007    -1004     -969     -953     -949     -942     -965     -992 
    -993    -1035    -1147    -1204    -1124    -1009     -973     -994 
    -997     -976     -980    -1020    -1053    -1043     -999     -966 
   -1011    -1088    -1101    -1075    -1092    -1123    -1123    -1111 
   -1089    -1038     -985     -967     -974     -994    -1031    -1081 
   -1129    -1170    -1183    -1165    -1129    -1093    -1058    -1040 
   -1055    -1084    -1084    -1054    -1046    -1073    -1090    -1058 
    -992     -927     -892     -899     -928     -949     -939     -913 
    -939    -1012    -1034     -994     -977     -962     -919     -922 
    -984    -1015    -1024    -1062    -1092    -1101    -1107    -1061 
    -972     -934     -957     -993    -1043    -1101    -1116    -1097 
   -1085    -1066    -1046    -1055    -1057    -1019     -999    -1020 
   -1036    -1031    -1012    -1000    -1020    -1044    -1017     -969 
    -970    -1004    -1001     -965     -946     -955     -965     -976 
   -1009    -1050    -1071    -1086    -1113    -1138    -1150    -1152 
   -1132    -1085    -1028     -993     -992    -1013    -1032    -1046 
   -1066    -1078    -1070    -1084    -1121    -1124    -1080    -1051 
   -1053    -1047    -1023     -985     -959    -1008    -1097    -1116 
   -1066    -1036    -1023    -1003    -1007    -1009     -969     -936 
    -955     -994    -1026    -1046    -1036    -1001     -976     -967 
    -963     -966     -985    -1030    -1105    -1171    -1158    -1066 
    -985     -974     -988     -969     -919     -885     -888     -911 
    -951    -1031    -1120    -1162    -1156    -1127    -1075    -1040 
   -1063    -1109    -1109    -1048     -990     -994    -1032    -1042 
   -1032    -1039    -1054    -1057    -1038     -999     -978    -1003 
   -1053    -1096    -1123    -1112    -1070    -1050    -1051    -1036 
   -1031    -1059    -1078    -1059    -1032    -1008     -958     -888 
    -869     -927     -984     -990    -1000    -1053    -1128    -1181 
   -1158    -1055     -953     -912     -922     -955    -1013    -1059 
   -1058    -1047    -1082    -1136    -1150    -1128    -1113    -1088 
   -1035     -989     -957     -940     -967    -1036    -1081    -1071 
   -1058    -1073    -1092    -1098    -1088    -1040     -981     -951 
    -963     -997    -1005     -962     -916     -920     -970    -1021 
   -1036    -1020     -997     -985    -1001    -1038    -1065    -1086 
   -1111    -1121    -1109    -1090    -1078    -1061    -1042    -1054 
   -1080    -1065    -1043    -1065    -1074    -1036    -1020    -1053 
   -1054    -1013    -1007    -1009     -977     -989    -1061    -1098 
   -1104    -1117    -1086    -1013     -982     -985     -970     -980 
   -1004     -967     -920     -935     -958     -958     -988    -1034 
   -1039    -1020    -1023    -1050    -1088    -1120    -1140    -1136 
   -1078     -993     -973    -1034    -1086    -1080    -1047    -1031 
   -1042    -1063    -1059    -1026    -1005    -1012    -1021    -1019 
   -1021    -1044    -1066    -1062    -1046    -1039    -1024     -985 
    -958     -973     -992     -981     -973     -984     -984     -963 
    -935     -908     -911     -962    -1043    -1115    -1142    -1102 
   -1044    -1032    -1054    -1053    -1039    -1048    -1059    -1046 
   -1036    -1071    -1127    -1142    -1080     -986     -945     -965 
    -996    -1019    -1039    -1035    -1013    -1017    -1054    -1082 
   -1080    -1057    -1024    -1013    -1030    -1034    -1030    -1075 
   -1139    -1144    -1113    -1075    -1011     -972    -1001    -1016 
   -1000    -1047    -1102    -1046     -978    -1015    -1051    -1021 
    -999     -988     -950     -924     -943     -977    -1008    -1038 
   -1048    -1039    -1051    -1082    -1089    -1078    -1077    -1062 
   -1016     -958     -938     -961     -969     -966    -1019    -1102 
   -1147    -1163    -1146    -1057     -957     -953    -1032    -1117 
   -1169    -1158    -1109    -1097    -1115    -1098    -1070    -1063 
   -1031     -965     -942     -989    -1034    -1028    -1021    -1048 
   -1074    -1081    -1094    -1101    -1074    -1040    -1021    -1003 
    -992     -994     -962     -903     -899     -958     -992     -953 
    -899     -896     -942     -993    -1026    -1032    -1009     -990 
    -994    -1003    -1031    -1113    -1178    -1151    -1094    -1063 
    -997     -915     -942    -1036    -1070    -1065    -1078    -1102 
   -1144    -1198    -1185    -1090    -1015    -1007    -1026    -1062 
   -1109    -1132    -1156    -1209    -1244    -1221    -1174    -1154 
   -1159    -1155    -1129    -1104    -1074    -1012     -969    -1007 
   -1020     -907     -768     -700     -672     -689     -788     -891 
    -907     -859     -807     -768     -757     -791     -853     -909 
    -950     -984    -1012    -1043    -1081    -1090    -1059    -1024 
    -997     -970     -978    -1023    -1050    -1059    -1089    -1140 
   -1186    -1209    -1208    -1212    -1213    -1182    -1155    -1174 
   -1201    -1186    -1170    -1192    -1227    -1240    -1212    -1150 
   -1094    -1051    -1007     -996    -1055    -1128    -1120    -1063 
   -1047    -1071    -1093    -1092    -1048     -972     -934     -976 
   -1015     -984     -949     -981    -1017     -992     -986    -1061 
   -1123    -1104    -1066    -1039    -1008    -1009    -1042    -1046 
   -1023    -1028    -1032     -985     -930     -911     -891     -878 
    -915     -959     -966     -953     -922     -851     -781     -765 
    -773     -777     -807     -888     -978    -1030    -1054    -1081 
   -1075    -1005     -900     -812     -766     -762     -791     -855 
    -957    -1043    -1058    -1023     -999    -1004    -1020    -1036 
   -1062    -1113    -1158    -1173    -1223    -1309    -1355    -1364 
   -1379    -1368    -1348    -1398    -1479    -1476    -1412    -1350 
   -1281    -1227    -1213    -1209    -1178    -1116    -1043     -977 
    -930     -904     -907     -935     -934     -874     -803     -778 
    -808     -857     -903     -946     -988    -1027    -1078    -1129 
   -1146    -1115    -1031     -920     -839     -803     -788     -787 
    -811     -855     -916     -989    -1061    -1109    -1136    -1151 
   -1156    -1134    -1065     -986     -958    -1019    -1144    -1247 
   -1283    -1277    -1243    -1181    -1119    -1097    -1098    -1075 
   -1035    -1008    -1008    -1047    -1108    -1127    -1078    -1019 
    -980     -931     -870     -814     -762     -733     -734     -753 
    -780     -822     -855     -853     -847     -892     -959     -993 
   -1019    -1065    -1109    -1139    -1161    -1150    -1111    -1084 
   -1098    -1140    -1174    -1181    -1181    -1169    -1132    -1096 
   -1065    -1039    -1062    -1139    -1198    -1193    -1124    -1005 
    -877     -792     -729     -672     -679     -757     -864    -1001 
   -1169    -1308    -1385    -1413    -1377    -1267    -1136    -1026 
    -932     -882     -893     -922     -931     -908     -868     -877 
    -955    -1035    -1086    -1148    -1254    -1382    -1499    -1578 
   -1606    -1583    -1486    -1316    -1155    -1088    -1092    -1075 
   -1013     -946     -873     -793     -758     -768     -751     -718 
    -714     -710     -706     -764     -853     -901     -961    -1053 
   -1065     -940     -758     -587     -495     -548     -681     -791 
    -861     -900     -939    -1044    -1202    -1328    -1375    -1332 
   -1231    -1171    -1196    -1213    -1161    -1119    -1139    -1147 
   -1109    -1086    -1082    -1035     -953     -888     -846     -846 
    -932    -1074    -1158    -1150    -1098    -1015     -899     -805 
    -785     -834     -936    -1082    -1219    -1323    -1421    -1516 
   -1541    -1490    -1418    -1333    -1200    -1042     -920     -864 
    -868     -923     -988    -1026    -1040    -1021     -947     -858 
    -828     -870     -954    -1067    -1167    -1205    -1170    -1066 
    -930     -814     -735     -703     -720     -750     -772     -811 
    -865     -884     -878     -899     -897     -838     -814     -889 
   -1016    -1142    -1243    -1298    -1352    -1451    -1509    -1435 
   -1298    -1177    -1067     -996     -970     -961     -972    -1026 
   -1096    -1158    -1198    -1204    -1192    -1197    -1193    -1125 
   -1031     -966     -899     -793     -699     -669     -699     -760 
    -861    -1003    -1115    -1139    -1100    -1058    -1061    -1100 
   -1109    -1050     -969     -940     -972    -1031    -1120    -1236 
   -1327    -1345    -1306    -1229    -1142    -1078    -1030     -962 
    -888     -830     -781     -734     -707     -700     -699     -720 
    -757     -785     -830     -924    -1028    -1074    -1057    -1017 
    -990    -1009    -1100    -1237    -1325    -1304    -1225    -1167 
   -1140    -1128    -1138    -1167    -1179    -1154    -1117    -1120 
   -1169    -1216    -1206    -1165    -1148    -1165    -1179    -1174 
   -1127    -1026     -928     -870     -818     -774     -791     -846 
    -886     -928    -1004    -1088    -1151    -1204    -1237    -1240 
   -1225    -1189    -1127    -1093    -1098    -1080    -1030     -989 
    -965     -970    -1017    -1065    -1075    -1078    -1075    -1028 
    -961     -899     -814     -719     -676     -692     -751     -854 
    -961    -1008     -976     -891     -814     -816     -896     -970 
   -1003    -1005     -972     -924     -938    -1016    -1065    -1021 
    -918     -823     -773     -781     -861     -985    -1098    -1190 
   -1300    -1429    -1520    -1549    -1549    -1543    -1503    -1409 
   -1271    -1152    -1086    -1055    -1039    -1023    -1005    -1005 
   -1042    -1111    -1182    -1212    -1200    -1206    -1231    -1193 
   -1109    -1098    -1159    -1178    -1121    -1020     -889     -778 
    -724     -703     -691     -688     -660     -622     -646     -724 
    -803     -905    -1034    -1150    -1262    -1354    -1387    -1402 
   -1406    -1347    -1246    -1148    -1034     -934     -915     -922 
    -897     -885     -886     -864     -857     -892     -912     -920 
    -945     -940     -904     -905     -940     -947     -947     -963 
    -940     -907     -940    -1000    -1042    -1124    -1225    -1237 
   -1163    -1089    -1039     -978     -916     -866     -816     -791 
    -822     -892     -984    -1105    -1223    -1289    -1304    -1286 
   -1266    -1251    -1185    -1053     -957     -978    -1081    -1152 
   -1155    -1151    -1178    -1182    -1100     -972     -893     -877 
    -857     -801     -750     -764     -842     -931     -994    -1043 
   -1085    -1119    -1151    -1183    -1188    -1158    -1100    -1021 
    -984    -1028    -1088    -1104    -1102    -1102    -1111    -1150 
   -1213    -1256    -1252    -1221    -1173    -1124    -1093    -1053 
    -981     -899     -818     -754     -751     -807     -882     -954 
    -994     -982     -932     -877     -874     -974    -1128    -1224 
   -1236    -1224    -1200    -1152    -1113    -1081    -1031    -1007 
   -1030    -1054    -1054    -1047    -1048    -1069    -1100    -1101 
   -1069    -1046    -1044    -1040    -1038    -1039    -1035    -1026 
   -1007     -962     -913     -878     -818     -730     -689     -710 
    -738     -774     -837     -896     -928     -965    -1015    -1046 
   -1053    -1050    -1017     -949     -882     -864     -874     -888 
    -918     -980    -1080    -1204    -1308    -1336    -1289    -1227 
   -1204    -1227    -1263    -1291    -1318    -1332    -1318    -1296 
   -1286    -1274    -1231    -1179    -1143    -1121    -1111    -1116 
   -1116    -1088    -1015     -920     -857     -842     -845     -841 
    -807     -749     -715     -729     -783     -864     -932     -957 
    -953     -949     -945     -953    -1013    -1115    -1181    -1194 
   -1192    -1178    -1151    -1139    -1134    -1123    -1144    -1198 
   -1232    -1256    -1274    -1220    -1102    -1011     -951     -882 
    -818     -772     -750     -765     -804     -832     -855     -886 
    -907     -911     -936     -978     -997    -1013    -1059    -1113 
   -1124    -1075    -1000     -942     -912     -903     -904     -911 
    -943    -1011    -1061    -1062    -1062    -1077    -1067    -1032 
   -1024    -1065    -1115    -1129    -1111    -1085    -1073    -1097 
   -1166    -1255    -1317    -1341    -1337    -1291    -1206    -1139 
   -1142    -1202    -1281    -1316    -1281    -1228    -1197    -1148 
   -1039     -900     -789     -751     -793     -872     -938     -973 
    -962     -919     -889     -878     -870     -859     -837     -814 
    -828     -859     -857     -859     -909     -967     -999    -1026 
   -1027     -992     -993    -1054    -1088    -1070    -1077    -1117 
   -1151    -1163    -1136    -1059     -997     -981     -982    -1003 
   -1039    -1042    -1005     -985     -989     -997    -1008    -1017 
