Origin Time       2025/03/30 10:18:00
Lat.              34.667
Long.             140.825
Depth. (km)       69
Mag.              4.9
Station Code      CHBH19
Station Lat.      35.5943
Station Long.     140.5107
Station Height(m) 1
Record Time       2025/03/30 10:19:03
Sampling Freq(Hz) 100Hz
Duration Time(s)  120
Dir.              6
Scale Factor      7845(gal)/8223790
Max. Acc. (gal)   0.593
Last Correction   2025/03/30 10:19:03
Memo.             
[...]
    -942     -927    -1009    -1084    -1100    -1093    -1108    -1128 
   -1116    -1097    -1098    -1080    -1024     -997    -1027    -1030 
    -999    -1008    -1048    -1105    -1161    -1142    -1078    -1027 
    -989    -1016    -1063    -1015     -947     -943     -951     -966 
    -993    -1026    -1069    -1093    -1081    -1078    -1107    -1105 
   -1038     -992    -1028    -1101    -1148    -1129    -1098    -1135 
   -1186    -1196    -1155    -1067    -1015    -1023    -1009     -962 
    -953    -1021    -1132    -1202    -1212    -1193    -1189    -1204 
   -1173    -1092    -1011     -945     -932     -973     -993    -1011 
   -1039    -1035    -1032    -1051    -1065    -1088    -1085    -1028 
    -996    -1015    -1036    -1030    -1016    -1059    -1147    -1193 
   -1150    -1057    -1019    -1073    -1111    -1057     -976     -955 
    -999    -1030    -1032    -1057    -1121    -1206    -1231    -1142 
   -1053    -1050    -1070    -1054    -1031    -1035    -1021     -973 
    -946     -961    -1012    -1085    -1127    -1108    -1048    -1015 
   -1065    -1136    -1123    -1047     -997    -1005    -1042    -1054 
   -1050    -1069    -1105    -1161    -1220    -1237    -1209    -1150 
   -1089    -1089    -1135    -1112     -996     -889     -881     -984 
   -1117    -1173    -1129    -1075    -1080    -1111    -1094    -1027 
    -963     -970    -1024    -1063    -1084    -1030     -949     -981 
   -1042    -1047    -1038     -980     -931     -978    -1034    -1031 
   -1004     -986     -999    -1036    -1070    -1104    -1147    -1171 
   -1179    -1179    -1136    -1069    -1020     -984     -984    -1028 
   -1050    -1070    -1138    -1190    -1181    -1151    -1135    -1152 
   -1175    -1115    -1012    -1005    -1071    -1090    -1044     -974 
    -962    -1038    -1094    -1055    -1011    -1009    -1024    -1069 
   -1112    -1129    -1146    -1101    -1026    -1024    -1030    -1030 
   -1082    -1123    -1135    -1150    -1135    -1090    -1036     -976 
    -936     -940     -970     -992     -985     -982    -1026    -1078 
   -1080    -1012     -967    -1048    -1163    -1132    -1012     -980 
   -1059    -1129    -1093    -1009     -965     -974    -1038    -1098 
   -1117    -1146    -1154    -1100    -1082    -1146    -1205    -1171 
   -1040     -976    -1065    -1131    -1117    -1150    -1217    -1263 
   -1275    -1255    -1190    -1059     -931     -918     -989    -1019 
    -945     -881     -945    -1003     -967     -946     -981    -1036 
   -1055    -1035    -1067    -1159    -1201    -1143    -1046    -1034 
   -1096    -1098    -1019     -938     -907     -955    -1031    -1061 
   -1090    -1134    -1134    -1119    -1115    -1105    -1092    -1070 
   -1063    -1088    -1085    -1038     -982     -959    -1000    -1067 
   -1094    -1080    -1036     -980     -994    -1069    -1098    -1102 
   -1136    -1167    -1159    -1109    -1061    -1059    -1092    -1092 
   -1058    -1054    -1066    -1057    -1040    -1026    -1030    -1046 
   -1042    -1061    -1113    -1167    -1210    -1179    -1085    -1035 
   -1036    -1023     -984     -957     -980    -1051    -1120    -1139 
   -1102    -1048    -1057    -1088    -1050     -992     -959     -957 
   -1012    -1016     -950     -959    -1011    -1027    -1080    -1167 
   -1196    -1107     -965     -934    -1020    -1096    -1116    -1088 
   -1053    -1090    -1192    -1239    -1229    -1244    -1235    -1201 
   -1171    -1065     -961     -959     -976     -997    -1038    -1070 
   -1117    -1154    -1135    -1100    -1070    -1034    -1031    -1057 
   -1061    -1067    -1102    -1125    -1065     -963     -951    -1020 
   -1069    -1011     -905     -954    -1082    -1113    -1108    -1078 
   -1007     -988     -989     -959     -909     -877     -915     -984 
   -1026    -1078    -1148    -1182    -1147    -1084    -1034     -993 
    -972     -985     -997    -1013    -1086    -1192    -1262    -1260 
   -1206    -1166    -1139    -1092    -1036    -1038    -1121    -1202 
   -1205    -1144    -1089    -1088    -1116    -1138    -1162    -1174 
   -1107     -994     -954     -966     -970    -1000    -1028    -1001 
    -962     -938     -957    -1023    -1055    -1051    -1055    -1075 
   -1154    -1224    -1169    -1096    -1115    -1132    -1108    -1055 
    -982     -993    -1082    -1100    -1036     -972     -965    -1040 
   -1119    -1119    -1046     -936     -873     -895     -946    -1009 
   -1096    -1144    -1100    -1044    -1054    -1116    -1192    -1198 
   -1115    -1040    -1017    -1015     -986     -931     -932    -1028 
   -1125    -1112    -1023    -1009    -1090    -1144    -1115    -1070 
   -1088    -1150    -1181    -1119    -1026    -1009    -1020    -1007 
   -1008    -1021    -1024     -984     -957    -1051    -1183    -1279 
   -1333    -1275    -1204    -1237    -1247    -1178    -1107    -1046 
    -984     -947     -954     -969     -954     -942     -962     -954 
    -896     -907    -1009    -1066    -1044    -1026    -1073    -1151 
   -1140    -1026     -907     -876     -961    -1013     -985    -1044 
   -1166    -1192    -1116    -1040    -1074    -1169    -1147    -1024 
    -982    -1058    -1167    -1243    -1256    -1225    -1169    -1105 
   -1067    -1036     -982     -978    -1039    -1082    -1092    -1092 
   -1102    -1148    -1163    -1115    -1082    -1069    -1054    -1050 
   -1035    -1028    -1062    -1074    -1026     -953     -926     -962 
    -972     -959    -1030    -1138    -1178    -1139    -1053     -992 
   -1026    -1081    -1039     -974    -1012    -1094    -1140    -1163 
   -1162    -1105    -1009     -932     -945    -1038    -1116    -1123 
   -1058    -1004    -1059    -1113    -1044     -915     -846     -932 
   -1073    -1082    -1040    -1047    -1090    -1186    -1250    -1204 
   -1115    -1034    -1028    -1120    -1194    -1215    -1193    -1134 
   -1097    -1080    -1069    -1086    -1090    -1058    -1016     -990 
   -1007    -1046    -1066    -1073    -1080    -1050     -985     -953 
    -999    -1098    -1189    -1220    -1177    -1111    -1085    -1080 
   -1070    -1053    -1007     -962     -924     -858     -877    -1030 
   -1119    -1100    -1125    -1181    -1162    -1062     -973    -1000 
   -1090    -1135    -1127    -1089    -1043     -999     -966     -966 
   -1000    -1054    -1078    -1027     -997    -1048    -1085    -1071 
   -1096    -1171    -1236    -1258    -1198    -1086    -1044    -1067 
   -1084    -1081    -1009     -907     -882     -900     -908     -920 
    -940     -988    -1040    -1059    -1058    -1059    -1085    -1120 
   -1100    -1061    -1096    -1140    -1093     -999     -967    -1007 
   -1027     -992     -949     -954    -1009    -1058    -1073    -1092 
   -1148    -1194    -1178    -1121    -1067    -1073    -1151    -1224 
   -1239    -1247    -1298    -1323    -1242    -1112    -1008     -970 
    -989    -1003    -1004    -1015    -1038    -1050    -1024    -1009 
   -1026    -1040    -1034    -1004     -994    -1048    -1102    -1090 
   -1070    -1075    -1085    -1127    -1161    -1125    -1048     -977 
    -963    -1005    -1016    -1007    -1040    -1090    -1138    -1163 
   -1116    -1039     -994     -970     -973    -1012    -1062    -1093 
   -1097    -1066    -1023    -1035    -1066    -1066    -1057    -1039 
   -1048    -1101    -1120    -1098    -1094    -1078    -1017     -970 
    -959     -972    -1013    -1039    -1067    -1136    -1185    -1200 
   -1166    -1096    -1082    -1088    -1042     -996     -974     -962 
    -982    -1007     -996     -980     -980     -982     -988    -1001 
   -1040    -1102    -1156    -1189    -1175    -1119    -1073    -1061 
   -1117    -1209    -1192    -1077    -1003    -1001    -1074    -1185 
   -1227    -1182    -1111    -1048    -1063    -1127    -1138    -1105 
   -1063    -1012     -997    -1026    -1062    -1098    -1132    -1115 
   -1044    -1046    -1136    -1162    -1101    -1036     -994    -1016 
   -1081    -1097    -1089    -1111    -1117    -1070    -1005     -961 
    -934     -877     -797     -776     -841     -959    -1086    -1167 
   -1169    -1108    -1048    -1016     -980     -930     -907     -939 
    -980     -970     -967    -1054    -1205    -1317    -1312    -1243 
   -1178    -1115    -1063    -1038    -1044    -1100    -1183    -1228 
   -1202    -1131    -1081    -1071    -1053    -1019    -1017    -1026 
   -1016    -1005    -1005    -1013    -1009     -982    -1003    -1098 
   -1197    -1259    -1275    -1231    -1175    -1156    -1132    -1084 
   -1055    -1032     -999     -982     -969     -943     -943     -985 
   -1032    -1040    -1005    -1000    -1024    -1013    -1017    -1061 
   -1073    -1050    -1012     -980     -970     -977    -1015    -1058 
   -1059    -1031    -1016    -1038    -1080    -1105    -1117    -1125 
   -1151    -1194    -1173    -1069    -1005    -1023    -1042    -1039 
   -1028    -1031    -1065    -1055     -980     -950    -1016    -1121 
   -1210    -1239    -1225    -1235    -1223    -1132    -1030     -976 
    -993    -1054    -1098    -1136    -1174    -1150    -1059    -1007 
   -1030    -1047    -1026     -997     -950     -916     -940     -978 
   -1015    -1043    -1012     -951     -962    -1048    -1117    -1112 
   -1058    -1021    -1042    -1096    -1156    -1209    -1223    -1175 
   -1085    -1019    -1027    -1061    -1057    -1028     -989     -931 
    -886     -927    -1047    -1156    -1190    -1142    -1035     -924 
    -904    -1007    -1092    -1061    -1026    -1070    -1124    -1134 
   -1120    -1113    -1113    -1136    -1183    -1208    -1192    -1154 
   -1097    -1078    -1088    -1093    -1144    -1193    -1167    -1081 
    -945     -854     -882     -950    -1011    -1065    -1084    -1074 
   -1058    -1078    -1108    -1058     -954     -864     -826     -866 
    -966    -1080    -1162    -1185    -1158    -1109    -1069    -1042 
   -1024    -1047    -1074    -1057    -1040    -1031    -1011    -1024 
   -1032    -1008     -994    -1013    -1089    -1185    -1201    -1173 
   -1217    -1321    -1374    -1310    -1170    -1057    -1000     -962 
    -966    -1039    -1100    -1071     -989     -958    -1008    -1078 
   -1116    -1102    -1054    -1028    -1019    -1017    -1077    -1161 
   -1190    -1163    -1080    -1030    -1062    -1040     -973     -954 
    -951     -967    -1028    -1111    -1213    -1279    -1273    -1255 
   -1215    -1120    -1043    -1003     -935     -858     -859     -928 
    -981     -993     -985     -982    -1000    -1026    -1055    -1094 
   -1102    -1050     -994     -990     -999     -967     -907     -861 
    -853     -882     -950    -1046    -1140    -1212    -1267    -1293 
   -1266    -1223    -1212    -1216    -1201    -1183    -1178    -1185 
   -1212    -1224    -1179    -1104    -1058    -1059    -1039     -949 
    -846     -797     -835     -949    -1043    -1071    -1084    -1085 
   -1054    -1032    -1051    -1092    -1123    -1108    -1082    -1136 
   -1216    -1204    -1129    -1057    -1004     -967     -893     -823 
    -818     -864     -985    -1125    -1213    -1273    -1282    -1269 
   -1259    -1161     -997     -861     -751     -718     -781     -870 
    -957    -1044    -1107    -1119    -1097    -1134    -1215    -1236 
   -1215    -1185    -1169    -1202    -1227    -1206    -1196    -1190 
   -1143    -1081    -1026     -985     -984    -1016    -1074    -1150 
   -1198    -1210    -1200    -1159    -1098    -1009     -892     -812 
    -788     -780     -766     -784     -850     -945    -1044    -1116 
   -1131    -1113    -1097    -1111    -1163    -1189    -1143    -1096 
   -1075    -1032     -967     -901     -827     -765     -753     -792 
    -868     -989    -1150    -1298    -1405    -1472    -1453    -1327 
   -1175    -1058     -982     -989    -1020     -997     -993    -1073 
   -1171    -1192    -1128    -1090    -1109    -1127    -1156    -1173 
   -1138    -1111    -1142    -1185    -1166    -1119    -1125    -1165 
   -1152    -1092    -1030     -988     -953     -889     -815     -805 
    -872     -954    -1009    -1071    -1198    -1324    -1328    -1246 
   -1200    -1200    -1189    -1155    -1111    -1059     -990     -927 
    -888     -858     -846     -876     -918     -958    -1059    -1202 
   -1263    -1209    -1109    -1051    -1061    -1034     -923     -839 
    -853     -934    -1028    -1057     -981     -881     -869     -959 
   -1081    -1163    -1183    -1163    -1123    -1116    -1163    -1182 
   -1161    -1132    -1078    -1012     -992    -1021    -1088    -1190 
   -1271    -1237    -1131    -1089    -1139    -1212    -1270    -1256 
   -1140     -992     -922     -949    -1013    -1071    -1098    -1086 
   -1067    -1066    -1075    -1062     -997     -897     -815     -837 
    -962    -1059    -1065    -1070    -1147    -1247    -1298    -1277 
   -1170    -1003     -832     -731     -758     -854     -927     -985 
   -1035    -1077    -1127    -1177    -1246    -1273    -1162     -980 
    -808     -683     -683     -761     -801     -831     -922    -1101 
   -1317    -1420    -1354    -1198    -1020     -911     -949    -1071 
   -1179    -1225    -1173    -1112    -1147    -1263    -1426    -1544 
   -1540    -1471    -1358    -1240    -1201    -1170    -1039     -815 
    -598     -529     -656     -884    -1096    -1250    -1363    -1436 
   -1433    -1325    -1119     -859     -616     -471     -441     -477 
    -564     -723     -936    -1161    -1364    -1510    -1555    -1503 
   -1372    -1190    -1031     -965     -986    -1017    -1017    -1038 
   -1088    -1128    -1161    -1177    -1163    -1116    -1016     -868 
    -731     -692     -766     -881     -951     -950     -962    -1069 
   -1221    -1332    -1341    -1247    -1152    -1140    -1166    -1148 
   -1094    -1046     -978     -903     -891     -974    -1121    -1250 
   -1308    -1300    -1208    -1069     -969     -928     -897     -859 
    -864     -946    -1086    -1227    -1281    -1212    -1078     -955 
    -926    -1020    -1179    -1317    -1371    -1294    -1147    -1030 
    -967     -950     -981    -1086    -1246    -1378    -1417    -1366 
   -1264    -1154    -1055     -947     -818     -712     -696     -781 
    -900     -992    -1077    -1134    -1120    -1044     -893     -724 
    -660     -711     -846    -1005    -1089    -1071    -1015     -977 
    -961     -939     -947     -985    -1031    -1123    -1223    -1232 
   -1152    -1000     -843     -823     -951    -1150    -1350    -1431 
   -1391    -1331    -1267    -1175    -1067     -986     -978    -1058 
   -1208    -1385    -1525    -1588    -1575    -1509    -1382    -1173 
    -947     -807     -753     -746     -787     -859     -954    -1053 
   -1129    -1178    -1156    -1042     -888     -768     -726     -772 
    -864     -946    -1003    -1017    -1028    -1075    -1097    -1065 
   -1059    -1089    -1117    -1148    -1156    -1115    -1011     -859 
    -726     -672     -729     -859     -985    -1107    -1219    -1263 
   -1251    -1228    -1221    -1239    -1212    -1113    -1061    -1125 
   -1271    -1426    -1487    -1433    -1347    -1258    -1163    -1098 
   -1065    -1062    -1090    -1124    -1147    -1135    -1092    -1047 
    -978     -872     -791     -774     -799     -824     -858     -961 
   -1151    -1348    -1456    -1426    -1266    -1036     -834     -724 
    -754     -891    -1019    -1082    -1096    -1096    -1125    -1136 
   -1067     -978     -934     -936     -935     -853     -696     -565 
    -541     -646     -828    -1017    -1151    -1205    -1193    -1159 
   -1156    -1206    -1250    -1217    -1098     -977     -984    -1135 
   -1336    -1470    -1470    -1358    -1198    -1036     -942     -958 
   -1027    -1089    -1116    -1120    -1148    -1183    -1183    -1151 
   -1066     -953     -888     -865     -873     -962    -1090    -1155 
   -1155    -1143    -1146    -1117    -1005     -864     -805     -866 
    -992    -1113    -1205    -1277    -1300    -1235    -1105     -967 
    -864     -827     -838     -874     -988    -1144    -1229    -1247 
   -1263    -1321    -1404    -1385    -1192     -916     -687     -589 
    -642     -830    -1096    -1316    -1428    -1432    -1324    -1143 
    -951     -810     -789     -900    -1058    -1171    -1200    -1193 
   -1215    -1225    -1154    -1009     -869     -800     -795     -822 
    -911    -1071    -1225    -1304    -1305    -1277    -1247    -1217 
   -1174    -1113    -1074    -1036     -934     -820     -781     -850 
   -1007    -1139    -1190    -1216    -1237    -1223    -1135    -1012 
    -949     -963    -1026    -1111    -1206    -1312    -1387    -1377 
   -1282    -1143     -977     -797     -661     -602     -614     -706 
    -862    -1031    -1188    -1308    -1356    -1306    -1155     -978 
    -882     -874     -893     -896     -872     -854     -870     -904 
    -945    -1008    -1097    -1188    -1258    -1283    -1278    -1294 
   -1335    -1381    -1397    -1313    -1119     -900     -737     -672 
    -719     -853    -1008    -1088    -1066    -1031    -1077    -1192 
   -1302    -1379    -1389    -1314    -1228    -1163    -1109    -1127 
   -1206    -1242    -1174    -1032     -901     -851     -857     -837 
    -772     -683     -596     -600     -746     -947    -1098    -1183 
   -1223    -1196    -1129    -1088    -1055    -1004     -957     -934 
    -962    -1055    -1186    -1308    -1383    -1406    -1350    -1188 
    -988     -849     -826     -942    -1125    -1271    -1360    -1379 
   -1323    -1229    -1135    -1096    -1148    -1201    -1194    -1182 
   -1181    -1163    -1143    -1107    -1027     -919     -814     -761 
    -781     -822     -830     -805     -789     -839     -935    -1032 
   -1134    -1200    -1208    -1192    -1154    -1078     -990     -946 
    -949     -957     -976    -1036    -1131    -1209    -1228    -1171 
   -1073     -974     -895     -862     -874     -885     -930    -1046 
   -1173    -1260    -1300    -1294    -1278    -1219    -1098    -1019 
   -1009    -1013    -1066    -1186    -1263    -1247    -1171    -1097 
   -1059    -1012     -942     -912     -949    -1017    -1061    -1039 
   -1003     -996     -976     -943     -951     -997    -1075    -1181 
   -1255    -1277    -1252    -1193    -1131    -1067     -990     -938 
    -939     -977    -1007     -988     -965    -1024    -1165    -1304 
   -1370    -1354    -1291    -1179     -999     -822     -739     -754 
    -819     -878     -895     -905     -938     -967     -986     -972 
    -920     -878     -858     -842     -858     -934    -1053    -1150 
   -1196    -1225    -1252    -1285    -1327    -1328    -1291    -1258 
   -1242    -1263    -1314    -1381    -1436    -1428    -1359    -1258 
   -1134    -1005     -892     -810     -800     -872     -973    -1048 
   -1081    -1098    -1123    -1123    -1090    -1038     -980     -926 
    -868     -826     -846     -940    -1084    -1193    -1212    -1174 
   -1113    -1038     -980     -959     -959     -940     -889     -839 
    -812     -807     -834     -895     -955     -982     -984     -990 
   -1024    -1071    -1107    -1129    -1138    -1112    -1044     -970 
