Origin Time       2025/03/30 10:18:00
Lat.              34.667
Long.             140.825
Depth. (km)       69
Mag.              4.9
Station Code      CHBH10
Station Lat.      35.5458
Station Long.     140.2417
Station Height(m) -1935
Record Time       2025/03/30 10:19:03
Sampling Freq(Hz) 100Hz
Duration Time(s)  120
Dir.              1
Scale Factor      2942(gal)/8224139
Max. Acc. (gal)   0.224
Last Correction   2025/03/30 10:19:03
Memo.             
[...]
  135492   135419   135365   135340   135360   135432   135499   135498 
  135437   135396   135396   135407   135452   135483   135419   135365 
  135386   135390   135383   135395   135395   135394   135394   135406 
  135460   135476   135427   135406   135380   135329   135399   135549 
  135535   135398   135319   135290   135275   135324   135415   135477 
  135502   135525   135513   135476   135488   135487   135414   135361 
  135346   135356   135413   135434   135406   135423   135471   135502 
  135523   135467   135326   135267   135336   135379   135372   135426 
  135508   135515   135479   135442   135410   135438   135484   135437 
  135349   135314   135328   135355   135360   135367   135433   135459 
  135371   135314   135375   135457   135486   135480   135456   135421 
  135432   135477   135448   135375   135365   135434   135530   135533 
  135394   135271   135311   135473   135562   135461   135333   135367 
  135473   135513   135506   135477   135422   135426   135483   135479 
  135427   135360   135275   135259   135328   135375   135390   135427 
  135481   135535   135534   135423   135298   135287   135367   135422 
  135419   135442   135510   135526   135463   135380   135324   135333 
  135373   135361   135342   135406   135498   135540   135503   135425 
  135427   135486   135444   135392   135461   135518   135484   135456 
  135460   135457   135433   135417   135444   135467   135410   135321 
  135298   135336   135373   135382   135359   135353   135399   135449 
  135475   135452   135384   135361   135403   135452   135494   135530 
  135540   135514   135459   135392   135351   135388   135486   135495 
  135372   135291   135341   135418   135445   135371   135247   135234 
  135314   135399   135486   135494   135405   135376   135477   135542 
  135446   135298   135251   135314   135369   135319   135276   135394 
  135554   135581   135522   135475   135473   135503   135469   135359 
  135305   135365   135469   135540   135554   135513   135440   135388 
  135380   135413   135427   135392   135390   135448   135487   135495 
  135508   135531   135550   135548   135481   135333   135221   135225 
  135271   135325   135400   135457   135467   135441   135392   135344 
  135332   135372   135418   135433   135444   135469   135475   135445 
  135434   135452   135411   135353   135388   135454   135490   135498 
  135440   135398   135433   135376   135226   135218   135399   135556 
  135575   135548   135537   135529   135515   135477   135411   135379 
  135405   135423   135383   135333   135332   135361   135365   135322 
  135299   135376   135483   135495   135415   135344   135363   135433 
  135450   135419   135390   135372   135392   135394   135364   135392 
  135415   135352   135315   135363   135419   135484   135511   135452 
  135432   135456   135413   135405   135500   135530   135483   135487 
  135495   135463   135456   135463   135459   135460   135453   135446 
  135442   135417   135375   135329   135278   135248   135294   135392 
  135463   135486   135452   135380   135368   135402   135392   135376 
  135437   135498   135465   135422   135423   135413   135436   135514 
  135514   135440   135436   135463   135438   135410   135392   135382 
  135400   135407   135383   135364   135336   135310   135378   135465 
  135417   135307   135292   135368   135437   135421   135353   135346 
  135414   135452   135453   135504   135531   135444   135372   135380 
  135396   135448   135496   135484   135472   135454   135432   135463 
  135480   135446   135426   135405   135372   135391   135438   135440 
  135390   135356   135387   135454   135477   135441   135414   135418 
  135426   135426   135418   135417   135400   135342   135322   135411 
  135514   135492   135402   135378   135400   135382   135338   135315 
  135321   135357   135391   135388   135378   135383   135409   135453 
  135490   135513   135535   135522   135444   135334   135291   135384 
  135517   135523   135425   135368   135367   135413   135513   135519 
  135371   135276   135345   135425   135432   135441   135479   135502 
  135472   135360   135252   135270   135364   135411   135429   135479 
  135519   135502   135467   135418   135313   135229   135295   135445 
  135550   135576   135525   135456   135460   135484   135437   135392 
  135453   135531   135515   135469   135471   135473   135441   135365 
  135264   135229   135319   135432   135445   135384   135341   135309 
  135292   135356   135441   135459   135456   135454   135433   135440 
  135510   135546   135459   135356   135375   135480   135592   135621 
  135523   135406   135388   135438   135456   135414   135345   135306 
  135342   135402   135411   135422   135432   135357   135268   135259 
  135279   135330   135421   135441   135375   135326   135357   135429 
  135475   135511   135558   135576   135554   135518   135461   135419 
  135467   135549   135587   135596   135562   135479   135417   135405 
  135415   135399   135346   135322   135321   135313   135318   135322 
  135333   135376   135375   135311   135270   135265   135305   135391 
  135452   135472   135486   135441   135348   135313   135353   135425 
  135496   135519   135484   135438   135410   135426   135460   135467 
  135495   135567   135560   135426   135319   135346   135407   135400 
  135349   135306   135298   135342   135391   135391   135390   135433 
  135460   135441   135433   135444   135419   135391   135423   135484 
  135490   135433   135410   135454   135487   135495   135526   135542 
  135476   135390   135351   135348   135386   135434   135468   135515 
  135535   135471   135388   135349   135356   135396   135419   135402 
  135386   135365   135337   135325   135321   135341   135384   135388 
  135344   135286   135260   135295   135363   135449   135521   135538 
  135548   135548   135487   135440   135442   135472   135575   135688 
  135654   135498   135371   135318   135315   135361   135440   135504 
  135510   135448   135386   135392   135433   135432   135373   135351 
  135384   135392   135365   135333   135324   135376   135423   135421 
  135445   135456   135388   135317   135260   135217   135226   135264 
  135324   135390   135413   135427   135468   135490   135475   135442 
  135418   135434   135459   135419   135349   135351   135436   135499 
  135476   135449   135461   135448   135409   135386   135406   135487 
  135560   135541   135472   135421   135380   135356   135383   135434 
  135468   135492   135476   135394   135336   135363   135425   135484 
  135490   135422   135392   135446   135495   135518   135560   135596 
  135572   135499   135413   135332   135284   135299   135368   135453 
  135514   135510   135487   135503   135495   135427   135353   135295 
  135251   135245   135270   135257   135217   135255   135387   135465 
  135430   135372   135319   135268   135306   135417   135481   135460 
  135410   135399   135409   135383   135364   135403   135463   135515 
  135554   135525   135427   135382   135452   135554   135588   135554 
  135508   135483   135459   135418   135380   135395   135472   135567 
  135622   135598   135504   135452   135495   135519   135446   135334 
  135240   135230   135357   135498   135517   135460   135444   135480 
  135463   135373   135356   135422   135448   135440   135450   135475 
  135541   135622   135631   135523   135330   135189   135186   135221 
  135247   135344   135463   135495   135468   135410   135341   135295 
  135256   135206   135166   135151   135136   135085   135044   135049 
  135052   135052   135058   135047   135049   135097   135193   135372 
  135596   135770   135876   135931   135945   135916   135841   135770 
  135768   135789   135750   135675   135631   135588   135502   135398 
  135280   135171   135108   135068   135062   135102   135114   135079 
  135106   135253   135464   135669   135801   135837   135807   135722 
  135592   135490   135481   135558   135648   135691   135704   135669 
  135550   135411   135306   135201   135121   135135   135214   135287 
  135317   135340   135457   135637   135687   135544   135355   135238 
  135171   135105   135109   135237   135423   135602   135734   135768 
  135658   135442   135224   135112   135175   135338   135480   135612 
  135756   135811   135720   135514   135271   135081   134993   135016 
  135124   135259   135392   135502   135521   135468   135433   135441 
  135461   135434   135329   135211   135168   135206   135274   135349 
  135417   135459   135515   135596   135625   135608   135610   135584 
  135494   135425   135413   135390   135409   135538   135652   135630 
  135569   135545   135479   135324   135135   135000   134994   135117 
  135291   135448   135548   135575   135558   135484   135340   135220 
  135221   135336   135506   135676   135783   135768   135641   135464 
  135334   135342   135414   135450   135506   135600   135652   135607 
  135434   135203   135109   135194   135317   135382   135405   135432 
  135514   135588   135558   135481   135477   135508   135452   135313 
  135211   135216   135284   135364   135386   135298   135191   135183 
  135228   135233   135197   135194   135292   135430   135495   135477 
  135465   135542   135652   135681   135672   135673   135615   135546 
  135603   135731   135778   135719   135643   135588   135488   135367 
  135313   135326   135369   135394   135329   135187   135062   134995 
  134982   135025   135113   135256   135417   135491   135522   135581 
  135579   135503   135448   135432   135413   135376   135338   135330 
  135379   135465   135527   135494   135403   135387   135438   135457 
  135437   135396   135324   135252   135253   135332   135444   135564 
  135648   135627   135530   135463   135446   135425   135403   135446 
  135577   135754   135849   135758   135556   135378   135263   135211 
  135197   135189   135209   135286   135396   135481   135514   135506 
  135444   135349   135270   135243   135279   135380   135561   135730 
  135742   135633   135548   135544   135584   135595   135556   135503 
  135459   135417   135351   135245   135156   135136   135186   135236 
  135186   135074   135029   135063   135108   135148   135179   135209 
  135288   135452   135660   135818   135820   135680   135502   135369 
  135351   135436   135521   135560   135548   135484   135391   135278 
  135206   135259   135387   135464   135427   135321   135243   135228 
  135240   135253   135272   135310   135372   135425   135456   135515 
  135599   135673   135746   135824   135876   135842   135665   135417 
  135244   135178   135193   135301   135469   135595   135583   135410 
  135195   135086   135078   135132   135221   135305   135414   135576 
  135711   135781   135769   135603   135329   135155   135168   135270 
  135353   135372   135353   135356   135346   135301   135271   135271 
  135276   135306   135407   135564   135688   135761   135800   135770 
  135650   135492   135380   135371   135421   135446   135437   135436 
  135437   135407   135380   135434   135552   135607   135538   135415 
  135365   135405   135422   135415   135477   135572   135587   135487 
  135326   135244   135368   135591   135661   135533   135368   135276 
  135260   135271   135318   135438   135549   135534   135406   135286 
  135251   135264   135302   135328   135261   135159   135156   135220 
  135264   135297   135345   135400   135402   135314   135238   135291 
  135391   135395   135346   135363   135433   135491   135521   135511 
  135453   135372   135307   135265   135232   135232   135305   135437 
  135573   135646   135625   135541   135452   135390   135373   135413 
  135480   135542   135610   135683   135712   135693   135680   135677 
  135649   135579   135507   135502   135529   135530   135542   135568 
  135519   135359   135233   135282   135405   135446   135402   135332 
  135294   135311   135380   135492   135568   135565   135546   135562 
  135610   135652   135650   135619   135581   135526   135463   135453 
  135495   135468   135342   135225   135175   135153   135097   135001 
  134917   134890   134941   135039   135089   135076   135068   135086 
  135095   135090   135097   135121   135178   135340   135567   135692 
  135673   135622   135598   135612   135675   135726   135706   135665 
  135654   135648   135672   135741   135757   135656   135530   135440 
  135326   135206   135191   135267   135326   135314   135243   135187 
  135238   135379   135521   135618   135684   135739   135750   135677 
  135557   135490   135550   135665   135730   135760   135723   135546 
  135332   135234   135255   135284   135268   135218   135159   135135 
  135140   135098   135022   135010   135049   135082   135141   135244 
  135336   135373   135372   135384   135437   135499   135531   135506 
  135437   135384   135365   135353   135371   135464   135606   135733 
  135835   135918   135923   135795   135580   135369   135247   135251 
  135333   135436   135553   135665   135714   135670   135588   135522 
  135464   135445   135486   135541   135606   135696   135751   135729 
  135662   135589   135454   135243   135055   134933   134858   134894 
  135017   135085   135091   135094   135085   135099   135172   135256 
  135309   135348   135378   135391   135402   135376   135260   135125 
  135098   135178   135283   135355   135409   135533   135720   135858 
  135958   136042   136043   135942   135789   135654   135600   135622 
  135666   135699   135691   135618   135513   135417   135325   135249 
  135203   135155   135110   135149   135248   135302   135288   135244 
  135222   135259   135301   135295   135307   135369   135391   135342 
  135299   135313   135357   135388   135410   135426   135425   135432 
  135479   135542   135585   135576   135506   135423   135406   135460 
  135519   135517   135437   135319   135260   135319   135445   135575 
  135703   135783   135758   135685   135608   135511   135434   135417 
  135422   135469   135556   135576   135510   135414   135318   135243 
  135178   135125   135140   135213   135276   135336   135406   135456 
  135440   135373   135321   135309   135303   135286   135260   135278 
  135386   135492   135513   135517   135525   135468   135383   135348 
  135342   135330   135324   135341   135357   135356   135387   135469 
  135517   135463   135365   135340   135415   135475   135459   135414 
  135353   135267   135197   135207   135292   135365   135402   135454 
  135513   135523   135460   135325   135216   135226   135291   135378 
  135527   135677   135778   135872   135932   135903   135804   135691 
  135616   135629   135693   135714   135657   135585   135579   135631 
  135641   135530   135348   135187   135067   134958   134875   134840 
  134832   134842   134870   134910   134968   135097   135283   135423 
  135506   135577   135604   135576   135556   135565   135562   135530 
  135494   135468   135432   135376   135356   135403   135463   135476 
  135467   135490   135521   135494   135448   135465   135521   135557 
  135540   135472   135419   135418   135442   135448   135390   135306 
  135309   135402   135492   135544   135546   135490   135406   135341 
  135313   135321   135369   135461   135548   135561   135479   135353 
  135274   135280   135310   135294   135245   135221   135238   135299 
  135406   135522   135607   135665   135702   135692   135627   135534 
  135456   135432   135441   135382   135221   135063   134979   134960 
  135006   135087   135159   135245   135368   135483   135585   135718 
  135850   135918   135897   135835   135801   135805   135807   135760 
  135646   135483   135342   135306   135363   135449   135535   135621 
  135689   135700   135619   135486   135348   135232   135174   135170 
  135183   135199   135209   135214   135229   135236   135241   135270 
  135309   135341   135346   135324   135337   135417   135513   135554 
  135522   135477   135464   135427   135344   135270   135251   135268 
  135265   135224   135205   135244   135307   135387   135467   135491 
  135479   135503   135550   135544   135460   135363   135330   135368 
  135436   135507   135552   135573   135587   135556   135488   135440 
  135410   135425   135500   135560   135579   135592   135554   135430 
  135314   135301   135341   135338   135290   135259   135271   135309 
  135351   135364   135351   135364   135414   135433   135403   135361 
  135313   135253   135221   135259   135355   135463   135561   135623 
  135585   135459   135333   135256   135209   135197   135253   135356 
  135481   135607   135688   135711   135700   135668   135622   135562 
  135530   135546   135546   135495   135442   135409   135352   135287 
  135256   135221   135170   135157   135193   135232   135257   135286 
  135322   135357   135379   135369   135351   135367   135419   135486 
  135561   135626   135666   135696   135702   135660   135565   135454 
  135394   135369   135330   135313   135355   135419   135480   135549 
  135602   135576   135475   135353   135261   135221   135230   135279 
  135348   135383   135352   135295   135264   135292   135364   135415 
  135419   135419   135467   135561   135650   135689   135677   135619 
  135538   135476   135456   135464   135487   135491   135434   135341 
  135287   135305   135356   135378   135334   135244   135149   135106 
  135140   135236   135361   135475   135517   135496   135496   135535 
  135564   135564   135522   135442   135351   135244   135180   135245 
  135386   135496   135553   135572   135587   135592   135540   135468 
  135469   135527   135531   135441   135355   135356   135395   135429 
  135459   135454   135405   135349   135326   135326   135346   135415 
  135535   135658   135723   135704   135633   135535   135449   135390 
  135334   135271   135234   135233   135226   135203   135197   135218 
  135233   135217   135199   135217   135290   135373   135378   135321 
  135305   135355   135419   135483   135546   135564   135540   135542 
  135577   135587   135571   135550   135514   135456   135414   135418 
  135457   135498   135517   135531   135546   135530   135491   135461 
  135432   135368   135276   135228   135275   135367   135430   135452 
  135448   135434   135440   135467   135491   135517   135548   135560 
  135567   135573   135537   135456   135400   135409   135423   135395 
  135361   135344   135314   135278   135240   135193   135186   135238 
  135290   135346   135454   135552   135568   135525   135490   135508 
  135557   135600   135623   135619   135623   135652   135658   135622 
  135572   135525   135488   135450   135375   135268   135199   135217 
  135280   135337   135376   135391   135379   135355   135328   135301 
  135264   135218   135172   135155   135210   135309   135349   135337 
  135360   135411   135415   135384   135363   135336   135319   135361 
  135438   135498   135523   135494   135418   135348   135318   135322 
  135345   135386   135460   135546   135583   135545   135479   135422 
  135380   135342   135313   135310   135357   135467   135594   135642 
  135592   135498   135398   135322   135279   135257   135251   135255 
  135276   135338   135446   135554   135607   135584   135506   135423 
