Origin Time       2025/03/30 10:18:00
Lat.              34.667
Long.             140.825
Depth. (km)       69
Mag.              4.9
Station Code      CHBH19
Station Lat.      35.5943
Station Long.     140.5107
Station Height(m) -1629
Record Time       2025/03/30 10:19:03
Sampling Freq(Hz) 100Hz
Duration Time(s)  120
Dir.              1
Scale Factor      2942(gal)/8224139
Max. Acc. (gal)   0.202
Last Correction   2025/03/30 10:19:03
Memo.             
[...]
 -159285  -159287  -159289  -159285  -159283  -159283  -159285  -159286 
 -159286  -159286  -159287  -159286  -159283  -159285  -159285  -159286 
 -159287  -159285  -159286  -159289  -159287  -159287  -159287  -159285 
 -159283  -159285  -159282  -159279  -159282  -159282  -159279  -159281 
 -159279  -159275  -159277  -159282  -159283  -159282  -159285  -159289 
 -159287  -159286  -159286  -159279  -159274  -159270  -159266  -159263 
 -159254  -159247  -159250  -159255  -159260  -159270  -159277  -159279 
 -159282  -159286  -159294  -159301  -159300  -159298  -159295  -159295 
 -159308  -159327  -159328  -159317  -159306  -159290  -159273  -159268 
 -159277  -159278  -159281  -159298  -159318  -159335  -159356  -159370 
 -159368  -159355  -159339  -159324  -159313  -159310  -159312  -159313 
 -159314  -159293  -159260  -159266  -159281  -159266  -159258  -159263 
 -159243  -159232  -159264  -159293  -159290  -159285  -159283  -159268 
 -159252  -159255  -159266  -159263  -159255  -159247  -159239  -159244 
 -159256  -159260  -159274  -159290  -159278  -159262  -159271  -159278 
 -159282  -159310  -159327  -159305  -159283  -159285  -159274  -159243 
 -159220  -159219  -159223  -159220  -159244  -159317  -159366  -159349 
 -159344  -159362  -159341  -159286  -159243  -159216  -159200  -159224 
 -159281  -159304  -159295  -159309  -159336  -159337  -159301  -159275 
 -159304  -159332  -159318  -159313  -159332  -159336  -159313  -159285 
 -159259  -159258  -159279  -159273  -159262  -159291  -159312  -159294 
 -159281  -159277  -159281  -159301  -159310  -159297  -159274  -159256 
 -159275  -159343  -159381  -159343  -159295  -159270  -159259  -159267 
 -159277  -159263  -159224  -159196  -159213  -159251  -159278  -159297 
 -159290  -159251  -159259  -159341  -159375  -159316  -159266  -159258 
 -159267  -159275  -159259  -159262  -159302  -159295  -159266  -159298 
 -159332  -159291  -159251  -159267  -159289  -159275  -159250  -159236 
 -159251  -159287  -159298  -159259  -159235  -159273  -159345  -159381 
 -159333  -159275  -159279  -159290  -159282  -159287  -159293  -159283 
 -159279  -159294  -159312  -159320  -159312  -159283  -159267  -159255 
 -159241  -159271  -159305  -159295  -159291  -159318  -159341  -159332 
 -159317  -159322  -159310  -159275  -159251  -159232  -159225  -159250 
 -159282  -159297  -159300  -159333  -159376  -159337  -159256  -159248 
 -159266  -159246  -159225  -159239  -159270  -159287  -159302  -159313 
 -159283  -159277  -159325  -159335  -159295  -159247  -159189  -159189 
 -159262  -159309  -159316  -159337  -159366  -159385  -159398  -159364 
 -159283  -159227  -159214  -159214  -159225  -159233  -159252  -159302 
 -159322  -159300  -159314  -159327  -159263  -159236  -159302  -159329 
 -159285  -159273  -159286  -159287  -159290  -159283  -159264  -159246 
 -159239  -159268  -159312  -159312  -159258  -159219  -159259  -159297 
 -159268  -159273  -159275  -159213  -159229  -159312  -159285  -159236 
 -159286  -159312  -159293  -159313  -159328  -159304  -159297  -159321 
 -159324  -159297  -159295  -159328  -159331  -159278  -159262  -159317 
 -159312  -159240  -159219  -159224  -159229  -159273  -159322  -159321 
 -159289  -159310  -159348  -159320  -159297  -159328  -159341  -159327 
 -159310  -159320  -159349  -159329  -159297  -159294  -159273  -159291 
 -159345  -159312  -159237  -159221  -159233  -159256  -159282  -159286 
 -159285  -159309  -159343  -159343  -159302  -159240  -159186  -159171 
 -159190  -159208  -159206  -159205  -159217  -159240  -159290  -159329 
 -159321  -159337  -159386  -159356  -159290  -159290  -159306  -159304 
 -159310  -159325  -159316  -159277  -159251  -159231  -159204  -159235 
 -159304  -159314  -159293  -159287  -159286  -159260  -159213  -159209 
 -159254  -159268  -159258  -159254  -159240  -159264  -159318  -159325 
 -159332  -159349  -159310  -159297  -159341  -159345  -159337  -159358 
 -159347  -159331  -159344  -159322  -159282  -159291  -159317  -159298 
 -159268  -159270  -159287  -159312  -159317  -159278  -159254  -159285 
 -159305  -159286  -159273  -159256  -159223  -159208  -159189  -159177 
 -159231  -159291  -159279  -159235  -159210  -159213  -159214  -159210 
 -159220  -159224  -159236  -159304  -159383  -159422  -159412  -159356 
 -159297  -159271  -159291  -159322  -159313  -159278  -159290  -159322 
 -159306  -159260  -159255  -159275  -159301  -159341  -159347  -159293 
 -159247  -159264  -159306  -159281  -159228  -159260  -159309  -159282 
 -159267  -159313  -159317  -159252  -159231  -159285  -159363  -159418 
 -159401  -159354  -159345  -159332  -159313  -159308  -159256  -159213 
 -159232  -159239  -159236  -159258  -159260  -159258  -159260  -159243 
 -159263  -159308  -159291  -159283  -159314  -159285  -159225  -159223 
 -159244  -159229  -159205  -159239  -159282  -159282  -159302  -159349 
 -159354  -159302  -159235  -159194  -159182  -159213  -159309  -159364 
 -159339  -159347  -159382  -159367  -159337  -159301  -159260  -159259 
 -159244  -159232  -159310  -159379  -159372  -159379  -159399  -159387 
 -159358  -159320  -159271  -159241  -159233  -159223  -159213  -159182 
 -159156  -159205  -159263  -159275  -159306  -159341  -159312  -159263 
 -159285  -159336  -159320  -159277  -159283  -159304  -159320  -159341 
 -159317  -159277  -159274  -159259  -159258  -159283  -159254  -159225 
 -159259  -159287  -159322  -159367  -159337  -159291  -159309  -159321 
 -159282  -159240  -159217  -159217  -159267  -159317  -159256  -159138 
 -159152  -159246  -159248  -159255  -159347  -159378  -159324  -159282 
 -159268  -159259  -159232  -159189  -159179  -159198  -159246  -159324 
 -159371  -159375  -159375  -159379  -159344  -159267  -159271  -159379 
 -159433  -159393  -159333  -159282  -159248  -159246  -159241  -159217 
 -159192  -159175  -159209  -159309  -159363  -159318  -159279  -159310 
 -159358  -159358  -159317  -159275  -159256  -159258  -159243  -159217 
 -159220  -159239  -159255  -159278  -159322  -159374  -159352  -159277 
 -159251  -159235  -159217  -159264  -159318  -159333  -159354  -159362 
 -159332  -159302  -159301  -159277  -159223  -159254  -159347  -159335 
 -159264  -159266  -159268  -159279  -159348  -159360  -159329  -159344 
 -159324  -159254  -159220  -159232  -159247  -159240  -159247  -159325 
 -159382  -159308  -159254  -159322  -159372  -159351  -159298  -159232 
 -159221  -159267  -159293  -159301  -159309  -159290  -159255  -159217 
 -159181  -159205  -159300  -159341  -159298  -159305  -159375  -159387 
 -159317  -159224  -159175  -159205  -159223  -159185  -159198  -159258 
 -159279  -159300  -159312  -159277  -159278  -159309  -159295  -159278 
 -159286  -159305  -159314  -159298  -159313  -159344  -159294  -159233 
 -159254  -159268  -159236  -159237  -159308  -159355  -159313  -159252 
 -159225  -159219  -159244  -159295  -159318  -159320  -159308  -159270 
 -159271  -159316  -159331  -159358  -159393  -159354  -159286  -159295 
 -159351  -159310  -159228  -159282  -159325  -159233  -159247  -159354 
 -159320  -159251  -159297  -159325  -159282  -159283  -159332  -159325 
 -159247  -159198  -159241  -159286  -159266  -159271  -159324  -159320 
 -159295  -159325  -159328  -159248  -159186  -159198  -159202  -159205 
 -159258  -159278  -159228  -159233  -159310  -159318  -159251  -159231 
 -159301  -159358  -159306  -159262  -159320  -159351  -159340  -159366 
 -159352  -159314  -159312  -159267  -159202  -159217  -159258  -159273 
 -159266  -159247  -159281  -159379  -159457  -159464  -159421  -159375 
 -159327  -159247  -159186  -159223  -159260  -159201  -159151  -159170 
 -159206  -159255  -159313  -159363  -159359  -159320  -159324  -159317 
 -159268  -159287  -159347  -159345  -159306  -159295  -159316  -159308 
 -159236  -159165  -159152  -159171  -159196  -159224  -159258  -159333 
 -159418  -159397  -159287  -159239  -159264  -159279  -159273  -159271 
 -159291  -159325  -159347  -159314  -159225  -159193  -159260  -159304 
 -159271  -159240  -159250  -159278  -159267  -159229  -159254  -159306 
 -159316  -159301  -159260  -159239  -159304  -159360  -159314  -159260 
 -159277  -159285  -159271  -159277  -159268  -159262  -159300  -159348 
 -159367  -159352  -159340  -159339  -159322  -159304  -159285  -159248 
 -159246  -159285  -159289  -159273  -159294  -159324  -159312  -159259 
 -159213  -159254  -159352  -159386  -159344  -159318  -159318  -159300 
 -159270  -159264  -159279  -159281  -159287  -159298  -159254  -159212 
 -159262  -159317  -159308  -159316  -159352  -159344  -159318  -159327 
 -159313  -159266  -159258  -159271  -159260  -159259  -159274  -159290 
 -159313  -159309  -159267  -159221  -159204  -159214  -159214  -159186 
 -159194  -159243  -159248  -159210  -159221  -159274  -159291  -159310 
 -159349  -159337  -159297  -159282  -159285  -159305  -159312  -159289 
 -159279  -159302  -159351  -159414  -159416  -159354  -159351  -159386 
 -159345  -159297  -159308  -159301  -159262  -159262  -159282  -159259 
 -159220  -159194  -159179  -159209  -159277  -159306  -159301  -159333 
 -159382  -159389  -159359  -159301  -159266  -159277  -159251  -159185 
 -159166  -159204  -159278  -159368  -159394  -159349  -159327  -159306 
 -159271  -159256  -159217  -159182  -159223  -159241  -159190  -159197 
 -159275  -159318  -159318  -159333  -159324  -159250  -159201  -159232 
 -159229  -159169  -159163  -159239  -159310  -159306  -159264  -159252 
 -159251  -159239  -159264  -159328  -159355  -159343  -159349  -159355 
 -159310  -159252  -159237  -159255  -159263  -159259  -159270  -159358 
 -159490  -159518  -159439  -159368  -159314  -159267  -159258  -159267 
 -159287  -159341  -159385  -159368  -159297  -159210  -159166  -159158 
 -159159  -159179  -159240  -159344  -159413  -159379  -159333  -159335 
 -159327  -159320  -159327  -159302  -159266  -159240  -159202  -159212 
 -159274  -159273  -159229  -159251  -159304  -159321  -159285  -159227 
 -159206  -159213  -159231  -159278  -159322  -159370  -159437  -159494 
 -159486  -159390  -159293  -159285  -159302  -159267  -159214  -159182 
 -159170  -159174  -159173  -159156  -159182  -159254  -159278  -159231 
 -159192  -159198  -159212  -159225  -159279  -159327  -159343  -159379 
 -159385  -159320  -159241  -159187  -159205  -159273  -159302  -159302 
 -159318  -159331  -159325  -159317  -159317  -159285  -159233  -159263 
 -159309  -159281  -159297  -159355  -159339  -159331  -159348  -159322 
 -159318  -159344  -159339  -159321  -159297  -159267  -159277  -159328 
 -159344  -159318  -159313  -159310  -159304  -159308  -159248  -159185 
 -159235  -159287  -159270  -159275  -159290  -159262  -159270  -159312 
 -159293  -159281  -159339  -159382  -159398  -159408  -159372  -159293 
 -159247  -159241  -159201  -159159  -159175  -159192  -159227  -159289 
 -159318  -159341  -159354  -159327  -159286  -159273  -159282  -159256 
 -159193  -159154  -159143  -159151  -159181  -159224  -159279  -159333 
 -159352  -159337  -159313  -159273  -159228  -159254  -159306  -159283 
 -159258  -159294  -159321  -159329  -159359  -159360  -159317  -159293 
 -159286  -159250  -159227  -159252  -159271  -159289  -159333  -159360 
 -159376  -159391  -159331  -159247  -159248  -159258  -159231  -159266 
 -159359  -159405  -159386  -159366  -159366  -159324  -159252  -159239 
 -159205  -159120  -159147  -159247  -159268  -159273  -159313  -159329 
 -159304  -159300  -159324  -159283  -159210  -159205  -159208  -159200 
 -159232  -159262  -159300  -159354  -159347  -159345  -159403  -159385 
 -159297  -159252  -159225  -159212  -159264  -159333  -159349  -159329 
 -159317  -159278  -159213  -159239  -159313  -159283  -159228  -159279 
 -159332  -159290  -159258  -159278  -159282  -159294  -159328  -159356 
 -159372  -159362  -159318  -159263  -159220  -159204  -159227  -159282 
 -159290  -159225  -159193  -159223  -159305  -159405  -159417  -159379 
 -159376  -159321  -159229  -159229  -159256  -159232  -159216  -159216 
 -159212  -159225  -159246  -159266  -159268  -159248  -159259  -159298 
 -159306  -159294  -159313  -159325  -159281  -159259  -159293  -159278 
 -159258  -159332  -159368  -159267  -159182  -159202  -159239  -159263 
 -159314  -159348  -159332  -159313  -159302  -159289  -159286  -159255 
 -159210  -159225  -159271  -159282  -159290  -159308  -159304  -159321 
 -159370  -159358  -159308  -159314  -159328  -159298  -159289  -159308 
 -159297  -159262  -159233  -159227  -159237  -159240  -159219  -159196 
 -159225  -159313  -159372  -159348  -159344  -159432  -159495  -159476 
 -159439  -159408  -159385  -159352  -159320  -159343  -159341  -159246 
 -159160  -159115  -159052  -159007  -159020  -159077  -159136  -159200 
 -159301  -159406  -159464  -159486  -159479  -159437  -159359  -159286 
 -159256  -159259  -159274  -159289  -159308  -159317  -159282  -159259 
 -159304  -159335  -159329  -159351  -159378  -159366  -159309  -159236 
 -159202  -159233  -159290  -159327  -159286  -159178  -159115  -159138 
 -159131  -159055  -159023  -159036  -159036  -159086  -159192  -159251 
 -159252  -159275  -159321  -159328  -159354  -159447  -159543  -159601 
 -159599  -159571  -159547  -159476  -159379  -159304  -159252  -159256 
 -159293  -159290  -159282  -159317  -159333  -159308  -159289  -159252 
 -159163  -159077  -159025  -158993  -158977  -158982  -159012  -159085 
 -159190  -159327  -159509  -159672  -159745  -159719  -159624  -159528 
 -159467  -159421  -159418  -159433  -159428  -159456  -159486  -159409 
 -159263  -159125  -158962  -158789  -158722  -158782  -158908  -159074 
 -159252  -159367  -159364  -159270  -159202  -159237  -159318  -159403 
 -159472  -159457  -159385  -159305  -159209  -159151  -159181  -159223 
 -159227  -159248  -159333  -159414  -159391  -159297  -159241  -159279 
 -159389  -159497  -159548  -159564  -159570  -159552  -159536  -159529 
 -159491  -159424  -159322  -159179  -159059  -159035  -159090  -159138 
 -159119  -159074  -159070  -159119  -159167  -159186  -159252  -159370 
 -159443  -159459  -159449  -159437  -159414  -159343  -159231  -159088 
 -158947  -158901  -158942  -158990  -159052  -159140  -159196  -159213 
 -159231  -159252  -159287  -159305  -159268  -159260  -159344  -159401 
 -159340  -159217  -159140  -159186  -159327  -159457  -159532  -159563 
 -159521  -159409  -159336  -159344  -159370  -159356  -159328  -159335 
 -159358  -159340  -159266  -159155  -159063  -159004  -158962  -158981 
 -159109  -159294  -159444  -159521  -159524  -159466  -159366  -159247 
 -159171  -159177  -159244  -159336  -159399  -159393  -159359  -159376 
 -159414  -159385  -159318  -159287  -159270  -159260  -159297  -159345 
 -159343  -159320  -159336  -159401  -159435  -159372  -159308  -159336 
 -159366  -159335  -159305  -159268  -159178  -159111  -159159  -159286 
 -159374  -159367  -159317  -159274  -159244  -159220  -159148  -159009 
 -158923  -158997  -159179  -159340  -159424  -159463  -159478  -159455 
 -159425  -159439  -159459  -159414  -159318  -159221  -159148  -159128 
 -159163  -159196  -159225  -159305  -159395  -159440  -159433  -159385 
 -159356  -159354  -159298  -159217  -159190  -159200  -159213  -159232 
 -159236  -159220  -159210  -159206  -159174  -159125  -159163  -159320 
 -159472  -159505  -159436  -159354  -159282  -159179  -159035  -158924 
 -158946  -159096  -159309  -159505  -159603  -159582  -159487  -159390 
 -159329  -159262  -159162  -159109  -159081  -159032  -159055  -159129 
 -159163  -159231  -159382  -159525  -159602  -159637  -159653  -159599 
 -159455  -159318  -159285  -159367  -159474  -159449  -159312  -159179 
 -159061  -159007  -159044  -159074  -159115  -159228  -159291  -159236 
 -159167  -159132  -159119  -159163  -159278  -159383  -159376  -159289 
 -159255  -159314  -159406  -159482  -159487  -159409  -159349  -159344 
 -159293  -159202  -159170  -159178  -159165  -159150  -159142  -159131 
 -159146  -159173  -159173  -159154  -159177  -159271  -159367  -159412 
 -159414  -159382  -159348  -159354  -159352  -159294  -159225  -159175 
 -159183  -159308  -159424  -159372  -159263  -159258  -159314  -159356 
 -159370  -159335  -159305  -159362  -159408  -159362  -159297  -159266 
 -159278  -159306  -159354  -159436  -159462  -159424  -159397  -159367 
 -159341  -159325  -159275  -159206  -159140  -159098  -159112  -159174 
 -159278  -159372  -159383  -159355  -159332  -159300  -159271  -159250 
 -159232  -159256  -159313  -159354  -159385  -159422  -159443  -159435 
 -159408  -159331  -159210  -159135  -159120  -159093  -159109  -159213 
 -159273  -159251  -159267  -159325  -159356  -159336  -159264  -159223 
 -159268  -159356  -159424  -159417  -159345  -159275  -159223  -159187 
 -159193  -159233  -159273  -159252  -159201  -159205  -159244  -159255 
 -159228  -159177  -159147  -159117  -159058  -159067  -159179  -159297 
 -159368  -159406  -159433  -159467  -159483  -159453  -159402  -159374 
 -159358  -159305  -159239  -159192  -159121  -159025  -158989  -159038 
 -159135  -159263  -159374  -159398  -159348  -159268  -159214  -159254 
 -159312  -159333  -159391  -159483  -159557  -159597  -159586  -159530 
 -159440  -159349  -159301  -159286  -159298  -159313  -159275  -159193 
 -159105  -159043  -159069  -159189  -159324  -159397  -159387  -159304 
 -159198  -159150  -159166  -159216  -159270  -159279  -159241  -159197 
 -159147  -159115  -159117  -159124  -159124  -159108  -159081  -159105 
 -159173  -159247  -159364  -159457  -159462  -159471  -159482  -159409 
 -159347  -159390  -159474  -159529  -159556  -159563  -159528  -159416 
 -159289  -159256  -159252  -159214  -159264  -159370  -159331  -159196 
 -159160  -159213  -159241  -159237  -159232  -159240  -159279  -159316 
 -159287  -159239  -159244  -159285  -159341  -159393  -159414  -159414 
 -159393  -159363  -159344  -159318  -159274  -159212  -159139  -159124 
 -159194  -159270  -159297  -159290  -159259  -159228  -159224  -159236 
 -159231  -159204  -159170  -159174  -159228  -159267  -159247  -159208 
 -159178  -159135  -159094  -159082  -159093  -159136  -159220  -159322 
 -159393  -159426  -159444  -159412  -159347  -159341  -159383  -159386 
 -159351  -159321  -159298  -159268  -159263  -159328  -159414  -159409 
 -159337  -159344  -159429  -159453  -159437  -159468  -159475  -159410 
 -159354  -159325  -159290  -159246  -159223  -159224  -159192  -159116 
 -159094  -159159  -159201  -159144  -159070  -159070  -159111  -159150 
 -159189  -159198  -159204  -159237  -159256  -159236  -159236  -159277 
 -159306  -159321  -159348  -159399  -159462  -159460  -159409  -159385 
 -159331  -159263  -159283  -159324  -159305  -159297  -159333  -159386 
 -159414  -159366  -159283  -159240  -159216  -159181  -159194  -159291 
 -159382  -159410  -159436  -159474  -159491  -159478  -159394  -159237 
 -159127  -159129  -159166  -159185  -159231  -159313  -159351  -159304 
 -159205  -159102  -159038  -159035  -159084  -159146  -159205  -159294 
 -159405  -159468  -159466  -159421  -159356  -159314  -159314  -159332 
 -159320  -159263  -159223  -159212  -159175  -159129  -159152  -159259 
 -159374  -159401  -159352  -159312  -159306  -159304  -159270  -159225 
 -159196  -159173  -159175  -159237  -159328  -159416  -159495  -159529 
 -159476  -159359  -159241  -159165  -159128  -159135  -159197  -159266 
 -159309  -159327  -159304  -159263  -159277  -159327  -159364  -159386 
