Origin Time       2025/03/30 10:18:00
Lat.              34.667
Long.             140.825
Depth. (km)       69
Mag.              4.9
Station Code      CHBH10
Station Lat.      35.5458
Station Long.     140.2417
Station Height(m) -1935
Record Time       2025/03/30 10:19:03
Sampling Freq(Hz) 100Hz
Duration Time(s)  120
Dir.              3
Scale Factor      2942(gal)/8224139
Max. Acc. (gal)   0.194
Last Correction   2025/03/30 10:19:03
Memo.             
  237813   237814   237817   237816   237814   237814   237813   237811 
  237810   237811   237816   237817   237813   237811   237814   237817 
  237814   237813   237814   237816   237816   237814   237816   237820 
  237818   237813   237813   237814   237814   237814   237817   237816 
  237814   237814   237814   237816   237814   237814   237816   237814 
  237813   237814   237814   237817   237816   237814   237816   237814 
  237816   237816   237813   237814   237814   237811   237813   237816 
  237813   237813   237817   237817   237816   237814   237816   237817 
  237816   237814   237813   237813   237816   237817   237814   237811 
  237816   237817   237814   237814   237817   237817   237817   237816 
  237814   237817   237816   237813   237813   237814   237816   237814 
  237811   237813   237816   237816   237813   237816   237817   237814 
  237814   237814   237813   237816   237816   237814   237813   237814 
  237816   237816   237814   237813   237813   237811   237814   237818 
  237817   237816   237816   237813   237813   237813   237813   237813 
  237814   237813   237814   237816   237814   237817   237820   237814 
  237811   237811   237809   237807   237807   237807   237810   237813 
  237814   237818   237817   237816   237820   237821   237814   237813 
  237821   237807   237778   237774   237780   237770   237793   237855 
  237865   237826   237825   237848   237851   237861   237871   237813 
  237730   237745   237828   237864   237891   237936   237906   237826 
  237803   237817   237805   237752   237714   237739   237732   237693 
  237728   237759   237733   237749   237782   237789   237844   237898 
  237865   237834   237902   237973   237941   237926   237984   237926 
  237789   237757   237676   237502   237552   237784   237849   237775 
  237753   237783   237892   238026   237979   237832   237771   237743 
  237747   237840   237870   237772   237712   237786   237903   237953 
  237882   237717   237644   237756   237845   237818   237811   237829 
  237821   237828   237828   237825   237874   237938   237948   237910 
  237898   237910   237879   237852   237859   237794   237672   237628 
  237670   237716   237714   237675   237683   237735   237763   237795 
  237856   237910   237938   237969   237975   237886   237780   237776 
  237838   237888   237876   237809   237737   237687   237695   237782 
  237887   237922   237820   237687   237733   237884   237895   237809 
  237844   237932   237872   237759   237756   237771   237725   237703 
  237741   237801   237841   237795   237760   237871   237913   237790 
  237806   237930   237884   237813   237857   237841   237763   237752 
  237726   237659   237691   237790   237871   237983   238038   237951 
  237876   237851   237770   237687   237691   237756   237814   237852 
  237926   237934   237782   237722   237905   238006   237875   237749 
  237651   237544   237652   237897   237978   237933   237917   237882 
  237749   237620   237631   237713   237768   237848   237933   237913 
  237848   237855   237834   237713   237683   237852   238010   237945 
  237782   237678   237575   237613   237887   238002   237857   237860 
  237941   237816   237713   237817   237926   237945   237969   237929 
  237744   237640   237732   237794   237748   237728   237730   237726 
  237730   237693   237672   237730   237817   237936   238018   237973 
  237895   237857   237851   237861   237910   237984   237940   237853 
  237938   237979   237786   237598   237566   237571   237528   237527 
  237666   237824   237864   237851   237891   237944   237865   237751 
  237826   237913   237856   237875   237901   237757   237729   237924 
  238014   237919   237859   237856   237737   237582   237668   237944 
  238044   237924   237870   237837   237697   237714   237909   237976 
  237959   237928   237753   237604   237664   237787   237838   237793 
  237710   237751   237829   237740   237667   237805   237928   237876 
  237798   237741   237686   237730   237844   237883   237857   237883 
  237951   237911   237791   237691   237591   237656   237895   237957 
  237888   237887   237829   237789   237859   237891   237948   238056 
  237992   237798   237663   237606   237632   237737   237797   237736 
  237691   237784   237868   237794   237678   237708   237853   237892 
  237749   237598   237523   237577   237905   238297   238357   238106 
  237828   237668   237604   237541   237554   237798   238065   238077 
  237995   237999   237975   237855   237674   237487   237469   237674 
  237941   238162   238208   238021   237825   237764   237729   237693 
  237745   237830   237779   237695   237778   237852   237791   237760 
  237776   237762   237753   237760   237760   237770   237784   237803 
  237822   237811   237832   237960   238046   237937   237810   237795 
  237722   237629   237717   237851   237847   237793   237814   237891 
  237922   237890   237836   237814   237874   237903   237795   237710 
  237768   237813   237748   237702   237739   237798   237886   237972 
  237915   237749   237693   237786   237906   237988   237945   237838 
  237836   237797   237605   237501   237668   237957   238068   237930 
  237803   237782   237691   237579   237566   237560   237579   237737 
  237886   237860   237872   238067   238149   237991   237857   237814 
  237770   237786   237836   237851   237884   237906   237875   237845 
  237841   237826   237764   237728   237805   237856   237778   237725 
  237779   237814   237821   237878   237871   237786   237826   237861 
  237732   237726   237872   237901   237890   237915   237891   237899 
  237891   237694   237513   237628   237867   237924   237822   237755 
  237756   237774   237756   237737   237813   237868   237813   237775 
  237755   237768   237875   237895   237782   237770   237882   237946 
  237972   237986   237876   237733   237767   237865   237833   237726 
  237672   237730   237825   237816   237735   237710   237755   237751 
  237694   237766   237937   237969   237882   237803   237708   237652 
  237714   237753   237741   237814   237917   237937   237913   237826 
  237714   237760   237853   237744   237658   237906   238176   238081 
  237863   237817   237776   237601   237508   237708   238065   238179 
  237961   237770   237716   237670   237757   238027   238145   237946 
  237753   237784   237837   237724   237612   237667   237775   237868 
  237913   237805   237783   238029   238138   237886   237597   237483 
  237517   237640   237766   237830   237799   237786   237986   238188 
  238049   237780   237697   237667   237579   237581   237705   237886 
  238088   238130   237882   237644   237713   237897   237929   237820 
  237740   237825   237971   237999   237863   237616   237525   237763 
  238000   237937   237695   237571   237694   237837   237805   237741 
  237743   237809   237956   238023   237934   237833   237766   237682 
  237616   237628   237722   237828   237847   237807   237826   237876 
  237868   237870   237890   237843   237836   237918   237888   237762 
  237764   237867   237876   237810   237855   237959   237936   237817 
  237629   237490   237702   238053   238067   237817   237717   237841 
  237844   237675   237639   237745   237828   237952   238102   238029 
  237784   237713   237817   237822   237747   237772   237828   237760 
  237679   237667   237636   237655   237730   237753   237810   237863 
  237841   237942   238025   237830   237658   237756   237926   237942 
  237813   237767   237890   237968   237979   238007   237949   237855 
  237851   237840   237756   237643   237573   237618   237627   237546 
  237624   237830   237903   237897   237940   237955   237915   237902 
  237871   237803   237811   237865   237891   237949   237937   237768 
  237670   237678   237660   237748   237949   238032   237907   237693 
  237631   237770   237836   237783   237768   237749   237699   237681 
  237706   237818   237951   237964   237876   237793   237795   237853 
  237861   237899   237995   237918   237774   237872   238064   238026 
  237783   237636   237637   237590   237573   237706   237848   237890 
  237860   237838   237867   237914   237925   237834   237718   237721 
  237757   237789   237933   238013   237810   237528   237469   237622 
  237805   237928   237934   237876   237918   237911   237741   237740 
  237964   238037   237928   237929   238021   237959   237820   237806 
  237805   237718   237703   237749   237710   237685   237762   237863 
  237938   237882   237703   237586   237597   237690   237790   237830 
  237856   237891   237865   237780   237737   237780   237876   237884 
  237735   237666   237735   237735   237732   237829   237922   237984 
  238052   238048   237928   237805   237794   237843   237851   237834 
  237836   237845   237821   237736   237685   237766   237910   237992 
  237895   237749   237767   237739   237575   237573   237729   237794 
  237787   237867   237956   237918   237843   237766   237672   237690 
  237735   237724   237845   238014   238029   237976   237884   237810 
  237853   237825   237739   237822   237911   237848   237762   237712 
  237716   237740   237729   237767   237856   237865   237810   237774 
  237729   237683   237716   237821   237868   237833   237838   237897 
  237944   237944   237797   237602   237610   237683   237631   237693 
  237971   238140   238063   238005   238038   237971   237872   237909 
  237914   237802   237778   237897   237969   237826   237556   237460 
  237624   237822   237826   237671   237618   237730   237798   237757 
  237717   237716   237694   237705   237845   237960   237951   237937 
  237830   237636   237716   237983   238021   237938   237961   237990 
  237971   237906   237740   237618   237671   237764   237840   237913 
  237787   237531   237492   237587   237593   237627   237730   237824 
  237913   237928   237849   237830   237905   237953   237897   237834 
  237932   238038   237936   237810   237856   237914   237859   237818 
  237807   237695   237631   237779   237880   237780   237706   237751 
  237845   237982   237999   237832   237741   237797   237887   238000 
  238025   237903   237787   237729   237676   237628   237632   237770 
  237959   238018   238003   237986   237894   237830   237860   237828 
  237730   237699   237668   237558   237509   237648   237816   237793 
  237694   237732   237805   237780   237740   237807   237967   238029 
  237960   237926   237906   237801   237676   237609   237679   237870 
  237978   237955   237907   237882   237917   237921   237776   237695 
  237811   237863   237772   237760   237844   237876   237830   237749 
  237678   237672   237729   237794   237814   237797   237817   237828 
  237809   237944   238177   238218   238121   238071   238010   237876 
  237795   237887   237983   237870   237695   237717   237860   237918 
  237884   237813   237720   237695   237771   237794   237691   237601 
  237581   237543   237500   237531   237590   237562   237544   237694 
  237857   237933   237982   237909   237786   237797   237775   237656 
  237641   237716   237767   237802   237857   237953   238019   238021 
  238015   237982   237887   237789   237714   237641   237573   237571 
  237740   237968   237994   237911   237905   237898   237891   237895 
  237789   237643   237643   237770   237860   237913   238067   238230 
  238171   237892   237643   237605   237720   237836   237887   237924 
  237969   237948   237806   237621   237558   237654   237757   237821 
  237903   237959   237898   237755   237658   237740   237936   237964 
  237857   237832   237733   237560   237585   237764   237915   237961 
  237897   237822   237745   237639   237597   237681   237786   237814 
  237837   237870   237818   237720   237663   237712   237822   237855 
  237886   237995   237986   237840   237759   237726   237706   237799 
  237926   237919   237875   237945   238027   237990   237853   237736 
  237789   237928   237894   237787   237834   237882   237845   237863 
  237882   237847   237868   237868   237726   237631   237674   237655 
  237583   237649   237802   237879   237851   237834   237895   237883 
  237739   237641   237698   237805   237838   237863   237942   238005 
  238052   238072   237984   237879   237797   237705   237695   237720 
  237685   237720   237856   237897   237802   237717   237666   237636 
  237666   237678   237670   237759   237843   237824   237870   237984 
  238014   238026   238042   238030   238117   238200   238088   237986 
  237992   237928   237818   237798   237845   237915   237955   237924 
  237855   237801   237813   237816   237670   237548   237651   237770 
  237716   237640   237644   237629   237574   237550   237574   237621 
  237655   237694   237741   237690   237551   237501   237622   237791 
  237849   237772   237676   237694   237783   237803   237821   237932 
  237995   237921   237818   237749   237767   237868   237909   237918 
  238042   238144   238092   238057   238091   238042   237898   237775 
  237726   237705   237675   237705   237832   237942   237957   237909 
  237833   237739   237645   237621   237710   237855   237983   238006 
  237884   237748   237633   237505   237519   237724   237925   237961 
  237821   237674   237672   237756   237882   237983   237930   237844 
  237879   237909   237822   237741   237779   237883   237994   238077 
  238059   237961   237887   237887   237955   237955   237818   237724 
  237771   237872   237934   237928   237914   237933   237928   237883 
  237783   237643   237544   237505   237528   237575   237568   237614 
  237728   237712   237595   237514   237485   237548   237718   237914 
  238032   238038   238002   237982   237972   237941   237888   237855 
  237841   237814   237780   237740   237683   237679   237784   237952 
  238018   237876   237710   237725   237798   237784   237745   237693 
  237667   237787   237922   237953   237979   237964   237830   237668 
  237598   237647   237741   237848   238002   238131   238104   237934 
  237806   237856   237967   237899   237741   237763   237840   237789 
  237759   237847   237951   237952   237832   237721   237691   237656 
  237595   237582   237594   237656   237825   237968   237999   237982 
  237930   237882   237834   237793   237870   237984   237961   237914 
  237944   237945   237942   237995   237953   237782   237691   237729 
  237779   237830   237861   237740   237554   237541   237612   237577 
  237581   237760   237968   238053   238017   237888   237733   237681 
  237741   237786   237745   237691   237717   237807   237845   237822 
  237878   238014   238069   238000   237857   237660   237529   237594 
  237721   237726   237718   237816   237945   238042   238046   237992 
  237995   237942   237737   237512   237374   237409   237581   237678 
  237706   237832   238005   238018   237887   237789   237697   237579 
  237563   237647   237709   237728   237740   237760   237749   237694 
  237741   237973   238221   238303   238191   238003   237895   237822 
  237757   237849   238042   238156   238171   238113   238044   237990 
  237902   237822   237744   237693   237770   237844   237794   237757 
  237782   237779   237776   237802   237741   237566   237433   237465 
  237589   237676   237713   237732   237757   237799   237840   237937 
  238077   238129   238096   238019   237828   237590   237524   237625 
  237676   237703   237825   237852   237716   237690   237857   237960 
  237856   237747   237745   237728   237681   237663   237637   237656 
  237776   237880   237899   237901   237921   237967   237956   237878 
  237806   237740   237809   238041   238127   238049   238034   237996 
  237841   237687   237568   237521   237631   237805   237913   237959 
  237929   237816   237725   237703   237694   237712   237778   237787 
  237726   237767   237929   238050   238090   238077   237957   237759 
  237668   237740   237798   237775   237797   237870   237892   237887 
  237872   237784   237662   237643   237717   237809   237971   238086 
  237986   237882   237919   237963   237961   237928   237883   237876 
  237822   237663   237575   237637   237660   237631   237694   237739 
  237703   237721   237753   237779   237882   237928   237851   237821 
  237821   237794   237817   237790   237641   237583   237670   237691 
  237628   237643   237747   237852   237949   238006   237965   237909 
  237861   237748   237685   237743   237760   237756   237833   237925 
  237986   237975   237851   237702   237671   237776   237906   237949 
  237948   238009   238125   238161   238023   237809   237689   237678 
  237682   237654   237614   237639   237714   237753   237786   237849 
  237860   237806   237805   237861   237861   237826   237828   237782 
  237676   237663   237745   237828   237894   237928   237910   237852 
  237766   237697   237685   237693   237679   237710   237791   237822 
  237871   237971   237998   238013   238057   238017   237971   237972 
  237905   237824   237849   237897   237879   237828   237791   237798 
  237829   237836   237782   237664   237548   237541   237645   237718 
  237662   237595   237672   237786   237789   237764   237776   237794 
  237863   237953   237945   237878   237872   237917   237914   237824 
  237735   237709   237691   237725   237863   237948   237963   238009 
  237980   237856   237784   237763   237755   237836   237961   237980 
  237919   237865   237832   237859   237886   237829   237767   237747 
  237725   237721   237766   237825   237857   237872   237879   237841 
  237771   237722   237698   237633   237593   237695   237774   237681 
  237637   237732   237775   237771   237806   237820   237836   237932 
  238029   237998   237872   237814   237868   237961   238029   238006 
  237918   237848   237826   237865   237921   237941   237917   237836 
  237717   237625   237593   237674   237840   237925   237890   237844 
  237799   237735   237714   237745   237766   237736   237648   237617 
  237708   237759   237755   237807   237834   237789   237759   237776 
  237834   237897   237941   238014   238056   237964   237824   237771 
  237762   237729   237749   237799   237732   237614   237591   237645 
  237736   237822   237864   237887   237919   237967   237961   237855 
  237770   237764   237748   237756   237843   237857   237741   237658 
  237648   237628   237622   237724   237925   238042   237945   237767 
  237637   237622   237779   237905   237888   237965   238072   237963 
  237783   237708   237670   237672   237770   237879   237922   237942 
  237960   237944   237933   237932   237913   237914   237936   237934 
  237932   237957   237924   237824   237787   237782   237744   237793 
  237894   237911   237875   237807   237740   237735   237753   237807 
  237884   237856   237732   237631   237591   237622   237686   237703 
  237687   237687   237687   237708   237798   237903   237929   237899 
  237932   238033   238042   237892   237735   237706   237774   237849 
  237917   237987   238007   237921   237783   237708   237698   237709 
  237756   237825   237861   237886   237919   237911   237874   237878 
  237870   237741   237573   237516   237564   237645   237767   237930 
