Origin Time       2025/03/30 10:18:00
Lat.              34.667
Long.             140.825
Depth. (km)       69
Mag.              4.9
Station Code      CHBH10
Station Lat.      35.5458
Station Long.     140.2417
Station Height(m) 65
Record Time       2025/03/30 10:19:03
Sampling Freq(Hz) 100Hz
Duration Time(s)  120
Dir.              4
Scale Factor      7845(gal)/8223790
Max. Acc. (gal)   1.280
Last Correction   2025/03/30 10:19:03
Memo.             
[...]
    4244     4218     4183     4122     4091     4133     4201     4199 
    4143     4162     4261     4310     4260     4174     4137     4170 
    4201     4201     4191     4197     4249     4315     4299     4209 
    4143     4148     4201     4202     4141     4136     4175     4164 
    4176     4278     4352     4293     4171     4113     4116     4137 
    4202     4274     4260     4189     4171     4206     4220     4237 
    4283     4261     4166     4124     4145     4128     4083     4098 
    4174     4263     4326     4307     4218     4168     4212     4255 
    4197     4113     4121     4185     4233     4256     4261     4237 
    4191     4189     4224     4233     4232     4202     4121     4093 
    4147     4222     4280     4279     4234     4229     4236     4185 
    4102     4056     4099     4186     4176     4110     4156     4260 
    4275     4255     4288     4340     4375     4337     4190     4048 
    4032     4136     4229     4168     4059     4125     4284     4298 
    4166     4085     4182     4325     4310     4189     4126     4152 
    4249     4336     4311     4222     4156     4152     4185     4172 
    4116     4079     4078     4167     4318     4367     4271     4159 
    4093     4070     4106     4216     4320     4321     4286     4318 
    4364     4363     4341     4330     4313     4233     4090     3932 
    3842     3937     4148     4228     4156     4095     4118     4209 
    4288     4276     4214     4178     4206     4274     4287     4288 
    4379     4452     4376     4207     4089     4086     4090     3996 
    3916     3960     4074     4202     4325     4411     4415     4329 
    4232     4191     4201     4225     4213     4199     4267     4347 
    4305     4172     4108     4151     4164     4059     3962     3987 
    4064     4155     4290     4405     4417     4321     4218     4209 
    4206     4140     4121     4189     4297     4401     4399     4295 
    4174     4062     4055     4143     4133     4060     4143     4326 
    4315     4044     3863     4048     4357     4476     4442     4380 
    4279     4147     4093     4121     4124     4122     4201     4286 
    4248     4126     4126     4279     4345     4260     4176     4153 
    4144     4109     4117     4230     4321     4291     4224     4201 
    4245     4305     4244     4078     3970     4005     4166     4303 
    4257     4104     4029     4099     4244     4359     4433     4479 
    4402     4201     4045     4023     4036     4033     4094     4245 
    4372     4401     4329     4171     4051     4082     4171     4214 
    4225     4251     4341     4411     4333     4210     4164     4170 
    4202     4178     4074     3994     3981     4051     4176     4257 
    4305     4332     4249     4132     4125     4206     4290     4270 
    4152     4113     4160     4152     4132     4198     4298     4336 
    4290     4206     4151     4148     4185     4222     4183     4141 
    4271     4421     4340     4172     4132     4183     4247     4270 
    4233     4183     4153     4172     4229     4243     4251     4282 
    4249     4156     4050     3946     3935     4040     4180     4313 
    4394     4361     4247     4144     4105     4117     4147     4149 
    4145     4213     4368     4482     4426     4263     4166     4151 
    4087     3967     3919     4004     4175     4364     4467     4410 
    4315     4288     4230     4074     3910     3875     4001     4166 
    4274     4364     4449     4461     4329     4133     4063     4106 
    4059     3929     3898     3998     4163     4330     4436     4448 
    4403     4418     4475     4391     4176     4035     4059     4195 
    4348     4456     4438     4260     4058     3960     3951     3971 
    3997     4062     4193     4307     4298     4191     4131     4203 
    4302     4271     4153     4116     4186     4298     4378     4379 
    4334     4271     4180     4113     4086     4051     4031     4054 
    4098     4149     4216     4282     4287     4222     4225     4320 
    4309     4201     4201     4326     4419     4347     4153     4028 
    4014     4024     4060     4128     4164     4174     4175     4147 
    4133     4145     4175     4271     4357     4357     4364     4388 
    4351     4279     4255     4320     4363     4241     4112     4133 
    4108     3921     3762     3765     3935     4191     4351     4368 
    4375     4401     4414     4390     4248     4091     4082     4121 
    4151     4261     4375     4406     4334     4128     3946     3937 
    3994     4031     4093     4174     4270     4363     4382     4360 
    4334     4244     4145     4136     4151     4159     4225     4330 
    4425     4456     4368     4236     4136     4024     3939     3952 
    4017     4071     4108     4178     4315     4422     4376     4203 
    4031     3969     4045     4158     4164     4148     4259     4440 
    4531     4437     4210     4039     4025     4098     4156     4131 
    4045     4058     4222     4388     4436     4387     4325     4283 
    4237     4233     4286     4287     4217     4133     4055     4041 
    4110     4201     4266     4240     4156     4159     4214     4194 
    4151     4193     4297     4348     4286     4214     4229     4260 
    4216     4121     4047     3978     3920     3981     4137     4272 
    4352     4330     4220     4139     4108     4104     4129     4158 
    4270     4467     4514     4361     4182     4059     4051     4151 
    4253     4295     4249     4153     4114     4136     4189     4245 
    4229     4175     4189     4261     4306     4271     4195     4160 
    4189     4214     4190     4182     4228     4290     4328     4275 
    4141     4105     4199     4243     4148     4045     4074     4180 
    4243     4270     4260     4191     4140     4094     4000     3966 
    4070     4207     4266     4221     4156     4175     4261     4311 
    4274     4178     4108     4158     4303     4384     4356     4329 
    4303     4251     4271     4375     4432     4376     4222     4056 
    4006     4070     4144     4212     4266     4287     4257     4174 
    4118     4113     4089     4043     4018     4014     4017     4039 
    4121     4260     4386     4465     4486     4405     4244     4091 
    4033     4072     4102     4105     4149     4209     4243     4233 
    4190     4220     4298     4320     4337     4363     4313     4244 
    4247     4280     4252     4198     4233     4307     4293     4206 
    4117     4063     4071     4117     4132     4081     4002     4004 
    4132     4290     4360     4318     4209     4136     4152     4199 
    4253     4295     4240     4159     4180     4233     4221     4187 
    4145     4095     4064     4102     4264     4426     4399     4303 
    4322     4367     4311     4158     4001     3954     4009     4097 
    4163     4136     4074     4151     4351     4486     4419     4190 
    4008     3989     4018     3998     3981     4032     4149     4266 
    4330     4367     4395     4405     4403     4368     4251     4095 
    4036     4129     4222     4183     4143     4225     4329     4369 
    4386     4391     4297     4085     3923     3923     4000     4089 
    4225     4378     4441     4418     4363     4266     4152     4086 
    4071     4081     4097     4118     4182     4315     4446     4434 
    4253     4058     3993     4031     4095     4206     4307     4299 
    4247     4220     4175     4110     4091     4156     4239     4263 
    4279     4355     4417     4382     4270     4121     3950     3867 
    3975     4156     4278     4338     4363     4380     4361     4241 
    4125     4126     4152     4108     4068     4135     4240     4230 
    4106     4035     4104     4212     4245     4225     4190     4148 
    4132     4144     4201     4325     4396     4310     4164     4082 
    4102     4162     4140     4051     4016     4102     4286     4409 
    4347     4275     4347     4368     4201     4051     4106     4271 
    4347     4290     4225     4243     4310     4402     4465     4398 
    4218     4052     3959     3946     4010     4141     4271     4284 
    4195     4166     4249     4345     4368     4298     4180     4071 
    3950     3861     3910     4072     4255     4368     4359     4301 
    4288     4293     4263     4185     4097     4075     4108     4106 
    4086     4124     4233     4314     4295     4224     4147     4089 
    4086     4114     4131     4160     4229     4314     4387     4415 
    4396     4359     4261     4117     4024     3991     4018     4139 
    4282     4361     4365     4283     4182     4147     4131     4135 
    4210     4283     4294     4260     4236     4291     4333     4249 
    4170     4187     4213     4202     4210     4290     4363     4322 
    4176     3985     3848     3892     4043     4128     4110     4063 
    4091     4210     4318     4387     4406     4309     4141     4024 
    4013     4063     4094     4166     4342     4500     4548     4486 
    4330     4216     4205     4158     4067     4021     4040     4148 
    4301     4392     4388     4286     4135     4095     4170     4174 
    4131     4143     4147     4163     4222     4251     4271     4288 
    4194     4044     3983     4017     4133     4290     4356     4320 
    4222     4082     4010     4045     4124     4252     4320     4209 
    4094     4129     4232     4288     4263     4214     4236     4286 
    4301     4320     4379     4464     4500     4422     4297     4217 
    4166     4118     4094     4082     4067     4060     4056     4051 
    4059     4094     4131     4149     4172     4194     4151     4087 
    4101     4178     4252     4241     4156     4120     4171     4272 
    4367     4376     4313     4226     4147     4151     4221     4234 
    4180     4153     4194     4230     4230     4282     4398     4429 
    4302     4140     4064     4062     4089     4162     4202     4113 
    4033     4129     4310     4463     4568     4599     4545     4374 
    4149     4067     4129     4228     4355     4463     4455     4333 
    4230     4226     4190     4012     3835     3829     3963     4141 
    4283     4288     4149     3981     3890     3909     4002     4086 
    4121     4124     4129     4175     4245     4264     4217     4186 
    4207     4234     4230     4213     4217     4241     4245     4213 
    4201     4234     4259     4274     4329     4383     4382     4356 
    4298     4214     4158     4118     4072     4066     4120     4226 
    4311     4280     4186     4125     4108     4139     4195     4233 
    4298     4387     4409     4349     4233     4086     3998     4006 
    4089     4216     4291     4248     4145     4072     4077     4133 
    4203     4272     4322     4337     4332     4322     4310     4274 
    4195     4147     4164     4151     4071     4036     4122     4257 
    4280     4159     4033     3990     4020     4106     4202     4259 
    4268     4245     4190     4129     4145     4271     4442     4545 
    4523     4437     4356     4294     4264     4256     4193     4058 
    3950     3960     4101     4302     4453     4492     4406     4212 
    4013     3896     3834     3834     3958     4158     4280     4251 
    4168     4183     4280     4356     4363     4233     3956     3765 
    3875     4136     4287     4301     4283     4283     4252     4159 
    4083     4078     4108     4160     4203     4172     4121     4182 
    4337     4442     4446     4407     4371     4337     4303     4283 
    4263     4203     4140     4158     4230     4259     4239     4210 
    4176     4158     4175     4226     4249     4212     4194     4205 
    4167     4106     4079     4089     4129     4182     4245     4302 
    4338     4396     4444     4396     4268     4108     3963     3912 
    3963     4085     4228     4342     4403     4363     4218     4083 
    4004     3967     4000     4021     3937     3855     3913     4098 
    4274     4321     4309     4368     4433     4376     4232     4095 
    4052     4124     4198     4195     4159     4149     4176     4218 
    4264     4333     4392     4364     4261     4174     4122     4108 
    4116     4133     4201     4317     4372     4268     4067     3998 
    4162     4380     4475     4461     4387     4248     4110     4040 
    4013     4043     4156     4309     4422     4494     4588     4706 
    4723     4580     4401     4306     4326     4422     4526     4591 
    4594     4519     4421     4351     4288     4214     4114     3967 
    3827     3769     3808     3901     3910     3757     3546     3416 
    3414     3528     3712     3878     3933     3840     3645     3412 
    3241     3271     3501     3753     3950     4197     4579     5054 
    5424     5513     5354     5043     4665     4352     4206     4237 
    4398     4583     4715     4776     4708     4480     4155     3809 
    3527     3357     3279     3316     3549     3936     4320     4557 
    4625     4648     4762     4951     5104     5134     5013     4742 
    4368     4077     4054     4233     4398     4386     4162     3834 
    3500     3245     3206     3384     3666     4006     4348     4553 
    4542     4384     4217     4078     3885     3672     3634     3816 
    4060     4278     4449     4517     4448     4266     4062     3932 
    3829     3707     3634     3676     3882     4306     4858     5324 
    5543     5482     5190     4787     4418     4210     4210     4271 
    4186     4001     3898     3969     4189     4421     4487     4363 
    4162     3994     3890     3820     3786     3829     3928     4039 
    4145     4251     4407     4629     4735     4502     3962     3426 
    3168     3175     3291     3447     3681     4041     4482     4826 
    4939     4903     4834     4739     4599     4380     4094     3870 
    3856     4072     4342     4450     4386     4264     4113     3932 
    3811     3869     4153     4571     4938     5077     4899     4504 
    4125     3940     3950     3991     3964     3994     4175     4402 
    4533     4492     4287     4018     3808     3747     3842     4000 
    4179     4384     4563     4646     4587     4352     3996     3622 
    3311     3161     3250     3550     3944     4284     4496     4594 
    4576     4456     4290     4152     4110     4209     4414     4633 
    4769     4788     4746     4669     4513     4315     4144     4001 
    3886     3809     3815     3969     4247     4542     4735     4753 
    4645     4436     4118     3834     3751     3850     3989     4094 
    4214     4367     4448     4430     4378     4297     4194     4101 
    3994     3910     3942     4068     4179     4151     3952     3780 
    3816     3990     4148     4199     4137     4040     3967     3964 
    4089     4259     4313     4199     4010     3897     3960     4178 
    4442     4641     4681     4529     4278     4122     4202     4495 
    4835     5009     4934     4673     4332     4004     3743     3597 
    3593     3682     3836     4063     4303     4477     4557     4521 
    4364     4158     4029     4077     4263     4475     4680     4849 
    4892     4781     4580     4375     4234     4174     4152     4108 
    3993     3823     3731     3798     3937     4052     4099     4048 
    3925     3793     3696     3643     3601     3584     3669     3838 
    4020     4263     4600     4900     4996     4812     4410     3969 
    3661     3616     3848     4132     4253     4239     4209     4197 
    4168     4144     4185     4271     4332     4338     4341     4442 
    4664     4878     4959     4842     4513     4081     3721     3551 
    3535     3584     3717     3931     4102     4232     4390     4502 
    4483     4365     4260     4280     4405     4525     4635     4723 
    4689     4499     4182     3816     3515     3303     3164     3188 
    3451     3905     4402     4765     4945     4982     4873     4637 
    4361     4139     4044     4068     4149     4236     4280     4279 
    4244     4203     4226     4332     4448     4483     4407     4318 
    4288     4239     4128     4044     4028     4079     4193     4314 
    4426     4517     4519     4413     4232     4031     3936     3971 
    3989     3944     3917     3946     4014     4090     4141     4147 
    4071     3967     3985     4189     4463     4644     4645     4525 
    4425     4430     4503     4500     4315     4009     3731     3564 
    3578     3825     4168     4406     4483     4417     4228     4005 
    3854     3821     3844     3852     3944     4212     4522     4742 
    4877     4873     4626     4212     3842     3639     3603     3681 
    3811     3969     4131     4237     4298     4371     4448     4517 
    4542     4471     4351     4256     4191     4175     4216     4256 
    4290     4321     4306     4274     4274     4272     4248     4194 
    4097     3997     3920     3858     3867     4002     4209     4417 
    4530     4499     4433     4399     4357     4315     4272     4220 
    4222     4278     4340     4405     4422     4349     4210     4033 
    3919     3956     4078     4182     4206     4116     4000     3986 
    4087     4236     4357     4383     4301     4128     3927     3788 
    3758     3852     4016     4090     4027     3966     4043     4282 
    4563     4689     4575     4338     4190     4259     4503     4770 
    4947     4980     4854     4633     4357     4067     3863     3746 
    3608     3423     3300     3373     3638     3959     4244     4459 
    4510     4360     4156     4066     4086     4112     4060     3958 
    3920     4002     4183     4411     4581     4635     4635     4612 
    4531     4401     4317     4351     4407     4372     4287     4232 
    4198     4139     4050     3974     3958     3959     3917     3862 
    3819     3786     3804     3882     4012     4185     4311     4337 
    4314     4325     4450     4691     4888     4895     4739     4567 
    4473     4429     4330     4156     3978     3871     3854     3904 
    4009     4212     4519     4757     4699     4365     3956     3626 
    3473     3539     3781     4091     4338     4483     4567     4554 
    4428     4251     4048     3838     3751     3902     4240     4598 
    4860     4997     4974     4733     4330     3917     3604     3447 
    3446     3546     3712     3917     4101     4210     4233     4180 
    4064     3904     3765     3748     3900     4129     4298     4355 
    4348     4338     4338     4322     4313     4345     4376     4371 
    4361     4394     4509     4685     4823     4822     4645     4383 
    4191     4110     4074     4032     3987     3956     3909     3836 
    3778     3755     3793     3927     4151     4409     4606     4684 
    4660     4563     4426     4294     4171     4078     4058     4104 
    4197     4325     4434     4465     4441     4392     4310     4163 
    3960     3801     3774     3855     3958     4010     4010     4043 
    4172     4351     4487     4529     4464     4352     4270     4225 
    4174     4126     4160     4275     4438     4669     4889     4915 
    4706     4396     4109     3883     3736     3719     3839     3974 
    4018     3993     3951     3897     3866     3909     3986     4002 
