Origin Time       2025/03/30 10:18:00
Lat.              34.667
Long.             140.825
Depth. (km)       69
Mag.              4.9
Station Code      CHBH11
Station Lat.      35.2867
Station Long.     140.1529
Station Height(m) 80
Record Time       2025/03/30 10:18:47
Sampling Freq(Hz) 100Hz
Duration Time(s)  120
Dir.              6
Scale Factor      7845(gal)/8223790
Max. Acc. (gal)   1.985
Last Correction   2025/03/30 10:18:47
Memo.             
[...]
   -2749    -2748    -2744    -2751    -2745    -2741    -2749    -2745 
   -2740    -2747    -2749    -2748    -2745    -2743    -2747    -2748 
   -2745    -2748    -2744    -2741    -2749    -2748    -2744    -2748 
   -2748    -2747    -2748    -2744    -2743    -2747    -2748    -2745 
   -2740    -2745    -2751    -2744    -2743    -2749    -2745    -2744 
   -2745    -2743    -2744    -2744    -2747    -2749    -2740    -2741 
   -2751    -2744    -2747    -2752    -2744    -2745    -2748    -2741 
   -2745    -2748    -2747    -2749    -2744    -2740    -2745    -2745 
   -2747    -2745    -2741    -2745    -2745    -2744    -2747    -2747 
   -2747    -2745    -2741    -2744    -2744    -2740    -2745    -2747 
   -2740    -2745    -2752    -2747    -2743    -2744    -2744    -2744 
   -2743    -2744    -2747    -2744    -2744    -2745    -2745    -2745 
   -2743    -2741    -2744    -2741    -2744    -2748    -2741    -2740 
   -2744    -2743    -2747    -2744    -2739    -2745    -2741    -2739 
   -2749    -2748    -2743    -2744    -2745    -2747    -2741    -2740 
   -2749    -2745    -2739    -2747    -2744    -2741    -2745    -2743 
   -2741    -2743    -2741    -2745    -2744    -2739    -2745    -2745 
   -2740    -2743    -2744    -2744    -2747    -2745    -2744    -2744 
   -2744    -2744    -2741    -2743    -2747    -2743    -2743    -2745 
   -2743    -2744    -2747    -2744    -2748    -2748    -2743    -2744 
   -2744    -2744    -2748    -2745    -2747    -2748    -2741    -2741 
   -2747    -2747    -2747    -2744    -2743    -2745    -2743    -2743 
   -2747    -2745    -2745    -2747    -2745    -2748    -2745    -2741 
   -2747    -2748    -2743    -2744    -2744    -2743    -2745    -2740 
   -2743    -2748    -2744    -2743    -2743    -2743    -2747    -2744 
   -2743    -2749    -2747    -2744    -2748    -2744    -2744    -2747 
   -2744    -2744    -2744    -2744    -2747    -2744    -2741    -2745 
   -2745    -2747    -2749    -2744    -2741    -2745    -2747    -2745 
   -2743    -2744    -2751    -2747    -2743    -2747    -2743    -2741 
   -2745    -2744    -2748    -2748    -2744    -2748    -2745    -2741 
   -2747    -2745    -2744    -2748    -2744    -2743    -2744    -2741 
   -2745    -2745    -2744    -2748    -2747    -2744    -2747    -2743 
   -2743    -2748    -2744    -2740    -2748    -2747    -2745    -2747 
   -2744    -2745    -2744    -2743    -2747    -2747    -2745    -2747 
   -2745    -2744    -2744    -2745    -2751    -2748    -2744    -2745 
   -2745    -2747    -2747    -2743    -2747    -2748    -2745    -2748 
   -2749    -2745    -2745    -2747    -2748    -2748    -2744    -2744 
   -2747    -2741    -2745    -2749    -2745    -2745    -2744    -2743 
   -2749    -2748    -2743    -2748    -2747    -2741    -2744    -2745 
   -2748    -2749    -2745    -2743    -2745    -2747    -2747    -2743 
   -2744    -2748    -2743    -2743    -2748    -2744    -2744    -2747 
   -2744    -2744    -2744    -2743    -2747    -2744    -2743    -2748 
   -2745    -2744    -2747    -2745    -2747    -2745    -2743    -2745 
   -2747    -2745    -2749    -2748    -2744    -2744    -2744    -2747 
   -2747    -2745    -2748    -2747    -2744    -2747    -2745    -2747 
   -2748    -2743    -2745    -2748    -2747    -2749    -2745    -2741 
   -2748    -2747    -2744    -2747    -2743    -2743    -2747    -2745 
   -2745    -2745    -2747    -2748    -2744    -2743    -2749    -2749 
   -2747    -2748    -2747    -2744    -2745    -2744    -2748    -2748 
   -2744    -2747    -2747    -2743    -2745    -2747    -2747    -2747 
   -2744    -2748    -2748    -2743    -2745    -2747    -2745    -2749 
   -2747    -2745    -2749    -2743    -2744    -2752    -2745    -2741 
   -2748    -2749    -2747    -2743    -2744    -2747    -2744    -2747 
   -2749    -2745    -2745    -2744    -2739    -2745    -2747    -2744 
   -2748    -2745    -2741    -2747    -2745    -2744    -2748    -2747 
   -2744    -2743    -2741    -2745    -2745    -2743    -2744    -2744 
   -2747    -2747    -2741    -2743    -2744    -2743    -2749    -2747 
   -2741    -2749    -2751    -2745    -2745    -2745    -2745    -2749 
   -2747    -2745    -2747    -2744    -2748    -2749    -2741    -2743 
   -2747    -2747    -2747    -2744    -2747    -2751    -2745    -2744 
   -2748    -2743    -2744    -2747    -2745    -2747    -2744    -2747 
   -2752    -2743    -2740    -2751    -2748    -2744    -2745    -2743 
   -2745    -2748    -2744    -2747    -2745    -2744    -2747    -2747 
   -2748    -2748    -2741    -2745    -2748    -2744    -2749    -2748 
   -2741    -2747    -2747    -2747    -2748    -2744    -2747    -2748 
   -2741    -2745    -2749    -2745    -2748    -2747    -2744    -2747 
   -2744    -2745    -2749    -2745    -2743    -2745    -2744    -2748 
   -2747    -2744    -2747    -2744    -2744    -2747    -2744    -2748 
   -2748    -2743    -2747    -2748    -2743    -2747    -2745    -2744 
   -2749    -2748    -2745    -2748    -2747    -2745    -2745    -2744 
   -2747    -2747    -2743    -2747    -2747    -2741    -2744    -2747 
   -2744    -2744    -2743    -2744    -2747    -2741    -2744    -2748 
   -2743    -2741    -2743    -2744    -2748    -2745    -2741    -2744 
   -2745    -2743    -2744    -2744    -2744    -2743    -2744    -2747 
   -2745    -2745    -2748    -2745    -2747    -2745    -2741    -2745 
   -2748    -2744    -2745    -2747    -2744    -2745    -2743    -2744 
   -2748    -2744    -2744    -2747    -2745    -2745    -2744    -2745 
   -2748    -2744    -2745    -2749    -2744    -2744    -2747    -2743 
   -2747    -2747    -2741    -2745    -2747    -2744    -2745    -2743 
   -2747    -2751    -2741    -2743    -2748    -2744    -2744    -2745 
   -2743    -2747    -2744    -2743    -2749    -2745    -2743    -2748 
   -2745    -2743    -2745    -2748    -2752    -2748    -2745    -2749 
   -2745    -2744    -2748    -2743    -2744    -2751    -2745    -2745 
   -2751    -2745    -2745    -2749    -2749    -2748    -2744    -2745 
   -2752    -2748    -2745    -2748    -2744    -2745    -2747    -2745 
   -2748    -2747    -2747    -2752    -2749    -2745    -2747    -2745 
   -2751    -2751    -2743    -2745    -2747    -2744    -2748    -2748 
   -2744    -2747    -2744    -2747    -2752    -2745    -2744    -2745 
   -2745    -2749    -2749    -2744    -2747    -2745    -2743    -2745 
   -2744    -2744    -2747    -2744    -2744    -2745    -2745    -2747 
   -2745    -2744    -2747    -2744    -2744    -2747    -2740    -2743 
   -2749    -2747    -2748    -2748    -2743    -2747    -2747    -2744 
   -2749    -2745    -2741    -2743    -2743    -2745    -2748    -2743 
   -2745    -2747    -2747    -2748    -2744    -2741    -2745    -2743 
   -2744    -2745    -2740    -2747    -2752    -2749    -2745    -2741 
   -2743    -2747    -2744    -2747    -2748    -2743    -2745    -2748 
   -2743    -2741    -2747    -2748    -2751    -2745    -2743    -2748 
   -2747    -2743    -2745    -2745    -2745    -2747    -2747    -2749 
   -2743    -2739    -2747    -2748    -2745    -2745    -2743    -2744 
   -2749    -2747    -2744    -2741    -2741    -2747    -2745    -2744 
   -2748    -2743    -2743    -2748    -2743    -2740    -2744    -2747 
   -2747    -2741    -2741    -2747    -2744    -2743    -2748    -2745 
   -2745    -2747    -2744    -2745    -2745    -2743    -2749    -2747 
   -2739    -2745    -2749    -2747    -2744    -2741    -2744    -2744 
   -2741    -2747    -2748    -2743    -2744    -2744    -2745    -2745 
   -2739    -2743    -2749    -2744    -2744    -2747    -2740    -2745 
   -2747    -2741    -2747    -2747    -2743    -2747    -2745    -2743 
   -2745    -2744    -2744    -2744    -2741    -2745    -2748    -2745 
   -2745    -2743    -2741    -2745    -2744    -2745    -2745    -2737 
   -2741    -2748    -2743    -2743    -2744    -2745    -2749    -2745 
   -2744    -2747    -2744    -2745    -2751    -2747    -2745    -2745 
   -2740    -2744    -2749    -2752    -2752    -2744    -2741    -2745 
   -2743    -2745    -2749    -2745    -2747    -2748    -2744    -2744 
   -2744    -2744    -2747    -2748    -2748    -2747    -2748    -2754 
   -2748    -2743    -2748    -2745    -2744    -2749    -2747    -2745 
   -2748    -2745    -2751    -2751    -2745    -2747    -2743    -2740 
   -2749    -2747    -2744    -2752    -2748    -2744    -2749    -2745 
   -2744    -2747    -2744    -2747    -2748    -2747    -2749    -2747 
   -2744    -2747    -2745    -2748    -2752    -2747    -2745    -2748 
   -2747    -2748    -2749    -2747    -2748    -2745    -2744    -2747 
   -2744    -2745    -2745    -2741    -2747    -2749    -2744    -2747 
   -2747    -2749    -2752    -2743    -2744    -2751    -2743    -2741 
   -2747    -2745    -2745    -2745    -2744    -2747    -2745    -2744 
   -2747    -2744    -2744    -2747    -2745    -2748    -2748    -2743 
   -2747    -2745    -2743    -2747    -2744    -2741    -2747    -2745 
   -2747    -2748    -2743    -2747    -2747    -2743    -2749    -2751 
   -2745    -2744    -2744    -2745    -2748    -2745    -2745    -2747 
   -2743    -2745    -2748    -2747    -2748    -2745    -2743    -2747 
   -2744    -2745    -2747    -2744    -2744    -2747    -2747    -2749 
   -2747    -2744    -2748    -2747    -2745    -2747    -2744    -2744 
   -2748    -2745    -2747    -2749    -2744    -2747    -2752    -2745 
   -2743    -2743    -2743    -2747    -2745    -2747    -2748    -2745 
   -2748    -2747    -2744    -2749    -2748    -2747    -2748    -2743 
   -2744    -2751    -2747    -2745    -2747    -2744    -2748    -2747 
   -2743    -2744    -2744    -2747    -2749    -2745    -2745    -2747 
   -2744    -2744    -2745    -2747    -2749    -2745    -2747    -2752 
   -2747    -2743    -2747    -2747    -2747    -2747    -2747    -2748 
   -2743    -2743    -2752    -2747    -2740    -2747    -2747    -2744 
   -2749    -2748    -2745    -2745    -2743    -2749    -2752    -2744 
   -2745    -2747    -2741    -2745    -2747    -2748    -2745    -2739 
   -2744    -2747    -2740    -2747    -2751    -2744    -2744    -2744 
   -2744    -2745    -2743    -2747    -2749    -2744    -2745    -2745 
   -2743    -2743    -2741    -2745    -2751    -2743    -2743    -2749 
   -2745    -2743    -2743    -2743    -2747    -2744    -2743    -2747 
   -2745    -2745    -2747    -2741    -2744    -2747    -2744    -2748 
   -2747    -2743    -2745    -2747    -2744    -2747    -2747    -2744 
   -2747    -2744    -2743    -2745    -2747    -2748    -2744    -2740 
   -2745    -2745    -2741    -2745    -2748    -2749    -2748    -2743 
   -2747    -2748    -2744    -2748    -2749    -2745    -2747    -2744 
   -2744    -2745    -2743    -2747    -2751    -2744    -2744    -2747 
   -2745    -2748    -2745    -2745    -2751    -2744    -2739    -2747 
   -2745    -2745    -2747    -2744    -2747    -2748    -2741    -2744 
   -2744    -2741    -2744    -2745    -2748    -2749    -2741    -2743 
   -2748    -2744    -2747    -2745    -2741    -2749    -2749    -2744 
   -2748    -2747    -2744    -2745    -2743    -2745    -2747    -2743 
   -2744    -2748    -2749    -2749    -2747    -2745    -2745    -2741 
   -2743    -2749    -2748    -2745    -2745    -2747    -2749    -2744 
   -2740    -2748    -2749    -2748    -2751    -2744    -2744    -2749 
   -2749    -2760    -2781    -2779    -2744    -2714    -2763    -2847 
   -2839    -2751    -2720    -2785    -2839    -2801    -2731    -2674 
   -2637    -2686    -2771    -2733    -2624    -2629    -2736    -2735 
   -2544    -2420    -2666    -3123    -3262    -2832    -2255    -2219 
   -2794    -3343    -3404    -3119    -2749    -2411    -2346    -2735 
   -3171    -3064    -2444    -1925    -2079    -2853    -3545    -3581 
   -3088    -2535    -2266    -2335    -2533    -2677    -2749    -2722 
   -2562    -2398    -2316    -2285    -2489    -3069    -3519    -3202 
   -2448    -2254    -2878    -3541    -3518    -2855    -2207    -2236 
   -2787    -3076    -2930    -2785    -2686    -2548    -2664    -2964 
   -3009    -2929    -2944    -2712    -2297    -2239    -2439    -2481 
   -2505    -2786    -3129    -3136    -2741    -2416    -2654    -3246 
   -3485    -3107    -2573    -2403    -2601    -2849    -2956    -2849 
   -2501    -2130    -2195    -2778    -3215    -2926    -2317    -2176 
   -2586    -3030    -3156    -2964    -2732    -2866    -3262    -3258 
   -2752    -2369    -2365    -2531    -2741    -2816    -2643    -2513 
   -2578    -2629    -2787    -3246    -3434    -2947    -2474    -2516 
   -2674    -2631    -2415    -2253    -2469    -2870    -2988    -2967 
   -3014    -2840    -2484    -2554    -3122    -3283    -2533    -1948 
   -2536    -3308    -2997    -2331    -2571    -3257    -3190    -2508 
   -2340    -2825    -3026    -2767    -2778    -3048    -2934    -2589 
   -2438    -2351    -2455    -2887    -3107    -2947    -2651    -2188 
   -2142    -2967    -3397    -2673    -2170    -2650    -3163    -3279 
   -3221    -2851    -2444    -2681    -3261    -3169    -2344    -1941 
   -2614    -3327    -2872    -2020    -2174    -2837    -2880    -2579 
   -2625    -2947    -3088    -2803    -2457    -2639    -3237    -3427 
   -2844    -2193    -2118    -2447    -3026    -3676    -3569    -2556 
   -1912    -2309    -2952    -3200    -3051    -2575    -2286    -2620 
   -2875    -2852    -3555    -4168    -2736     -664     -931    -2913 
   -3893    -3323    -2512    -2382    -2586    -2326    -2107    -2963 
   -3929    -3354    -1958    -1645    -2524    -3300    -3379    -3032 
   -2613    -2423    -2540    -2851    -3223    -3248    -2662    -2101 
   -2195    -2548    -2650    -2747    -3002    -3148    -3261    -3321 
   -2974    -2589    -2760    -3002    -2704    -2338    -2443    -2714 
   -2754    -2652    -2718    -3015    -3169    -2863    -2465    -2515 
   -2817    -2772    -2249    -1779    -1968    -2698    -3314    -3461 
   -3279    -2933    -2506    -2358    -2691    -2997    -2953    -2922 
   -2907    -2598    -2417    -2787    -3132    -3049    -2821    -2444 
   -2083    -2289    -2917    -3300    -3090    -2408    -1914    -2311 
   -3384    -4045    -3640    -2862    -2567    -2473    -2272    -2461 
   -2936    -2905    -2403    -2191    -2565    -3152    -3439    -3118 
   -2444    -2116    -2273    -2606    -3136    -3388    -2643    -1799 
   -2065    -2748    -3063    -3387    -3528    -2971    -2339    -2285 
   -2388    -2367    -2447    -2562    -2853    -3557    -3788    -2868 
   -2092    -2586    -3294    -3019    -2258    -1983    -2374    -2992 
   -3279    -3118    -2878    -2664    -2404    -2407    -2791    -3098 
   -3103    -2940    -2589    -2184    -2131    -2575    -3129    -3254 
   -2906    -2681    -2948    -3092    -2637    -2242    -2403    -2803 
   -3192    -3285    -2768    -2269    -2573    -3065    -2914    -2502 
   -2324    -2342    -2674    -3055    -2712    -2012    -2072    -2639 
   -2808    -2798    -3073    -3210    -2925    -2794    -3029    -2990 
   -2690    -2770    -2914    -2644    -2398    -2444    -2647    -3013 
   -3160    -2679    -2228    -2579    -3234    -3423    -3111    -2500 
   -2038    -2300    -2943    -3130    -2878    -2795    -2952    -2806 
   -2334    -2290    -2837    -3215    -3030    -2652    -2471    -2467 
   -2501    -2652    -2837    -2646    -2263    -2485    -3214    -3537 
   -3352    -3113    -2637    -1933    -1752    -2255    -2979    -3595 
   -3499    -2587    -2150    -2802    -3422    -3318    -2853    -2255 
   -1860    -2192    -2948    -3296    -2938    -2349    -2390    -3115 
   -3501    -3164    -2749    -2478    -2139    -2015    -2567    -3426 
   -3531    -2725    -2200    -2710    -3491    -3383    -2463    -1987 
   -2408    -2737    -2488    -2432    -2862    -2968    -2589    -2434 
   -2582    -2729    -2921    -3140    -3257    -3213    -2940    -2731 
   -2945    -2991    -2278    -1620    -1980    -2978    -3424    -2868 
   -2220    -2473    -3260    -3466    -2863    -2332    -2548    -3080 
   -3045    -2547    -2552    -3005    -2822    -2107    -2158    -2941 
   -3072    -2506    -2415    -2956    -3402    -3387    -3099    -2895 
   -2737    -2281    -1803    -2072    -2909    -3177    -2701    -2515 
   -2944    -3250    -3088    -2803    -2627    -2527    -2423    -2347 
   -2515    -2843    -2851    -2654    -2890    -3323    -3173    -2550 
   -2181    -2457    -3140    -3515    -3194    -2682    -2493    -2513 
   -2606    -2720    -2600    -2369    -2546    -2929    -2986    -2891 
   -2748    -2373    -2164    -2397    -2621    -2779    -3223    -3508 
   -3095    -2596    -2739    -3175    -3237    -2748    -2112    -2265 
   -3210    -3385    -2362    -1796    -2447    -3118    -2963    -2627 
   -2762    -3057    -2992    -2559    -2293    -2513    -2722    -2548 
   -2490    -2944    -3385    -3187    -2673    -2550    -2830    -3114 
   -3184    -2878    -2261    -1881    -2130    -2695    -2916    -2636 
   -2523    -2907    -3103    -2737    -2555    -3013    -3366    -3034 
   -2528    -2424    -2625    -2760    -2617    -2446    -2683    -3082 
   -3036    -2671    -2481    -2623    -2952    -3055    -2762    -2470 
   -2393    -2470    -2832    -3299    -3403    -3130    -2728    -2358 
   -2312    -2614    -2721    -2547    -2694    -3071    -3034    -2791 
   -2856    -2879    -2504    -2269    -2585    -2998    -2978    -2579 
   -2420    -2930    -3397    -2916    -2239    -2581    -3240    -2961 
   -2301    -2358    -2853    -2978    -2667    -2463    -2659    -2847 
   -2725    -2656    -2728    -2635    -2519    -2610    -2862    -3203 
   -3191    -2539    -2170    -2660    -3006    -2754    -2764    -3129 
   -3217    -3177    -3145    -2732    -2297    -2394    -2520    -2427 
   -2741    -3291    -3145    -2469    -2313    -2740    -2924    -2677 
   -2461    -2539    -2755    -2795    -2612    -2633    -2980    -3064 
   -2706    -2342    -2141    -2282    -2910    -3365    -3030    -2524 
   -2601    -2820    -2598    -2339    -2554    -2994    -3115    -2820 
   -2536    -2616    -2840    -2822    -2725    -2963    -3219    -2940 
   -2612    -2871    -3150    -2992    -3026    -3306    -3042    -2351 
   -2106    -2556    -3130    -3005    -2174    -1891    -2731    -3338 
   -2856    -2350    -2521    -2760    -2748    -2670    -2489    -2405 
   -2678    -2816    -2467    -2234    -2490    -2830    -2961    -2995 
   -2957    -2803    -2740    -2918    -3098    -3056    -2817    -2539 
   -2531    -2835    -2972    -2797    -2766    -2822    -2581    -2469 
   -2856    -3037    -2679    -2548    -2899    -3099    -2979    -2829 
   -2700    -2683    -2821    -2816    -2685    -2741    -2790    -2700 
   -2914    -3194    -2754    -2049    -2095    -2721    -3142    -3055 
   -2668    -2376    -2289    -2290    -2393    -2558    -2639    -2708 
   -2961    -3284    -3258    -2805    -2428    -2540    -2824    -2751 
   -2551    -2731    -3017    -3026    -2938    -2862    -2783    -2832 
   -2886    -2749    -2551    -2409    -2443    -2832    -3118    -2706 
   -2211    -2473    -3002    -3002    -2690    -2663    -2903    -3049 
   -2976    -2714    -2502    -2713    -3137    -3173    -2736    -2295 
