Origin Time       2025/03/30 10:18:00
Lat.              34.667
Long.             140.825
Depth. (km)       69
Mag.              4.9
Station Code      CHBH16
Station Lat.      35.1384
Station Long.     139.9649
Station Height(m) 160
Record Time       2025/03/30 10:18:49
Sampling Freq(Hz) 100Hz
Duration Time(s)  120
Dir.              5
Scale Factor      7845(gal)/8223790
Max. Acc. (gal)   1.819
Last Correction   2025/03/30 10:18:49
Memo.             
[...]
    1827     1838     1827     1795     1760     1732     1715     1721 
    1749     1791     1826     1844     1841     1836     1831     1814 
    1782     1742     1705     1694     1711     1736     1760     1776 
    1782     1786     1787     1780     1768     1760     1763     1779 
    1810     1841     1848     1838     1823     1810     1803     1804 
    1815     1831     1833     1806     1760     1732     1745     1787 
    1811     1813     1803     1791     1783     1772     1753     1728 
    1686     1652     1660     1710     1779     1825     1826     1798 
    1775     1765     1771     1787     1817     1861     1904     1922 
    1888     1813     1740     1698     1687     1703     1742     1788 
    1821     1837     1841     1826     1782     1719     1675     1684 
    1748     1833     1891     1885     1841     1806     1788     1791 
    1815     1841     1849     1827     1783     1740     1703     1672 
    1661     1679     1728     1795     1844     1844     1798     1734 
    1690     1674     1706     1782     1838     1838     1806     1784 
    1796     1841     1887     1898     1858     1803     1782     1795 
    1827     1857     1871     1875     1867     1852     1818     1753 
    1686     1645     1625     1624     1644     1664     1671     1686 
    1723     1782     1845     1899     1930     1918     1875     1827 
    1798     1799     1815     1821     1810     1806     1826     1845 
    1841     1817     1787     1757     1732     1730     1756     1776 
    1764     1726     1675     1634     1645     1710     1791     1850 
    1876     1890     1910     1934     1950     1931     1865     1772 
    1667     1584     1574     1638     1737     1825     1877     1888 
    1841     1750     1674     1655     1701     1776     1831     1848 
    1840     1833     1826     1784     1710     1667     1687     1759 
    1837     1892     1919     1922     1911     1900     1865     1809 
    1750     1694     1655     1656     1688     1715     1715     1711 
    1732     1763     1782     1794     1806     1827     1849     1846 
    1821     1795     1795     1807     1795     1759     1714     1678 
    1674     1707     1755     1784     1794     1802     1821     1852 
    1880     1898     1894     1858     1804     1744     1680     1633 
    1629     1672     1760     1880     1989     2047     2047     1980 
    1868     1749     1651     1605     1622     1671     1726     1772 
    1811     1845     1852     1830     1784     1732     1694     1671 
    1660     1675     1703     1710     1680     1633     1606     1628 
    1690     1794     1929     2061     2166     2209     2174     2079 
    1953     1837     1744     1674     1632     1621     1647     1703 
    1745     1740     1719     1725     1763     1804     1823     1823 
    1806     1784     1784     1790     1783     1767     1756     1769 
    1795     1804     1791     1765     1752     1756     1750     1736 
    1748     1786     1829     1844     1817     1776     1753     1759 
    1780     1803     1819     1826     1837     1869     1908     1935 
    1935     1898     1840     1786     1740     1719     1734     1768 
    1802     1813     1794     1750     1692     1649     1638     1647 
    1669     1690     1687     1688     1723     1779     1833     1869 
    1902     1933     1934     1898     1840     1780     1729     1686 
    1660     1674     1734     1810     1852     1841     1806     1772 
    1744     1711     1676     1667     1706     1773     1841     1895 
    1930     1953     1953     1927     1895     1854     1802     1742 
    1694     1683     1710     1740     1749     1733     1703     1674 
    1653     1656     1674     1691     1713     1728     1729     1726 
    1726     1744     1799     1887     1977     2034     2037     1992 
    1904     1803     1734     1710     1714     1730     1742     1742 
    1728     1699     1667     1644     1644     1679     1737     1798 
    1844     1872     1894     1911     1922     1923     1907     1871 
    1833     1809     1783     1741     1690     1659     1674     1726 
    1794     1836     1838     1810     1772     1759     1775     1783 
    1757     1703     1660     1656     1680     1714     1765     1834 
    1898     1931     1933     1918     1892     1864     1849     1842 
    1833     1831     1837     1825     1779     1711     1634     1574 
    1566     1611     1679     1736     1763     1773     1799     1831 
    1856     1871     1879     1896     1923     1933     1921     1888 
    1840     1794     1763     1761     1786     1794     1761     1696 
    1641     1636     1676     1729     1769     1799     1826     1831 
    1804     1761     1729     1718     1726     1748     1777     1825 
    1881     1944     1998     2020     2004     1948     1869     1786 
    1694     1599     1518     1471     1476     1526     1607     1711 
    1811     1881     1907     1892     1860     1829     1802     1795 
    1810     1830     1858     1881     1888     1890     1888     1880 
    1868     1846     1799     1728     1659     1630     1649     1690 
    1711     1683     1638     1620     1625     1657     1717     1788 
    1863     1918     1931     1919     1907     1902     1883     1829 
    1767     1725     1710     1721     1733     1732     1732     1748 
    1775     1804     1823     1821     1794     1760     1748     1749 
    1755     1759     1765     1782     1798     1807     1809     1795 
    1794     1836     1895     1941     1966     1975     1971     1953 
    1921     1869     1796     1723     1671     1633     1622     1648 
    1687     1714     1728     1738     1748     1745     1733     1718 
    1692     1669     1669     1682     1703     1734     1776     1819 
    1844     1848     1841     1834     1838     1841     1829     1810 
    1803     1830     1873     1894     1892     1880     1854     1830 
    1810     1777     1729     1684     1667     1675     1690     1713 
    1749     1800     1858     1907     1929     1911     1858     1800 
    1756     1713     1686     1710     1767     1823     1868     1892 
    1887     1852     1798     1725     1651     1607     1610     1657 
    1726     1786     1830     1865     1890     1906     1903     1867 
    1811     1759     1732     1746     1794     1844     1860     1842 
    1821     1806     1800     1815     1833     1838     1836     1822 
    1799     1764     1717     1672     1636     1611     1614     1626 
    1637     1659     1686     1715     1748     1792     1852     1904 
    1935     1952     1948     1906     1834     1752     1679     1636 
    1629     1664     1722     1777     1827     1875     1900     1895 
    1867     1840     1826     1829     1840     1838     1823     1798 
    1765     1740     1738     1761     1790     1798     1790     1787 
    1792     1798     1800     1788     1765     1732     1699     1676 
    1660     1653     1649     1652     1667     1691     1728     1779 
    1837     1881     1903     1904     1894     1881     1863     1852 
    1858     1856     1827     1777     1728     1696     1686     1687 
    1691     1709     1745     1779     1775     1732     1674     1621 
    1605     1633     1698     1794     1892     1958     1975     1965 
    1956     1949     1934     1896     1827     1756     1713     1715 
    1763     1840     1910     1948     1946     1918     1883     1837 
    1780     1725     1688     1688     1719     1760     1787     1783 
    1767     1740     1687     1633     1598     1586     1598     1633 
    1684     1749     1806     1841     1849     1837     1822     1813 
    1814     1831     1861     1908     1962     1995     2000     1983 
    1934     1858     1773     1705     1676     1690     1730     1769 
    1784     1772     1749     1726     1707     1683     1656     1636 
    1633     1663     1706     1736     1752     1756     1744     1737 
    1761     1825     1912     2003     2069     2087     2053     1999 
    1944     1888     1829     1759     1699     1678     1690     1719 
    1733     1719     1718     1741     1767     1792     1806     1791 
    1752     1715     1703     1714     1730     1740     1748     1765 
    1788     1803     1813     1827     1858     1898     1917     1900 
    1863     1811     1744     1684     1647     1638     1656     1695 
    1767     1852     1923     1960     1941     1872     1791     1717 
    1657     1621     1624     1679     1757     1813     1827     1807 
    1780     1767     1759     1745     1709     1655     1620     1613 
    1638     1701     1780     1856     1912     1927     1888     1823 
    1768     1728     1706     1713     1736     1755     1768     1776 
    1776     1782     1794     1802     1803     1787     1764     1730 
    1690     1667     1667     1692     1749     1817     1876     1917 
    1934     1939     1942     1944     1953     1964     1962     1950 
    1935     1927     1922     1914     1908     1890     1836     1753 
    1661     1586     1544     1534     1551     1586     1633     1678 
    1706     1718     1744     1798     1867     1926     1962     1973 
    1945     1883     1819     1777     1773     1794     1802     1787 
    1746     1699     1656     1621     1606     1626     1690     1788 
    1900     1983     2007     1966     1879     1790     1734     1725 
    1756     1792     1814     1822     1822     1825     1819     1802 
    1775     1738     1709     1709     1725     1732     1719     1690 
    1657     1648     1671     1732     1809     1871     1903     1910 
    1891     1848     1800     1763     1741     1730     1732     1746 
    1780     1834     1879     1896     1887     1856     1822     1792 
    1777     1783     1792     1796     1792     1776     1759     1750 
    1749     1736     1699     1652     1610     1576     1559     1572 
    1613     1667     1703     1718     1732     1759     1800     1827 
    1818     1783     1738     1699     1684     1717     1786     1869 
    1939     1968     1952     1899     1842     1794     1748     1730 
    1753     1803     1858     1894     1894     1850     1784     1725 
    1692     1696     1741     1819     1902     1960     1965     1929 
    1871     1804     1761     1748     1750     1768     1788     1802 
    1807     1810     1807     1800     1803     1822     1848     1872 
    1900     1926     1938     1925     1873     1799     1721     1655 
    1628     1647     1702     1765     1794     1786     1768     1769 
    1784     1796     1800     1810     1823     1833     1840     1840 
    1844     1848     1830     1787     1732     1688     1674     1672 
    1694     1742     1798     1854     1926     1993     2025     2010 
    1957     1879     1786     1702     1644     1615     1615     1638 
    1659     1663     1660     1667     1676     1686     1705     1722 
    1719     1711     1711     1725     1746     1771     1792     1795 
    1763     1698     1614     1536     1503     1553     1675     1840 
    2020     2189     2309     2357     2342     2277     2168     2042 
    1908     1788     1710     1694     1733     1794     1841     1863 
    1846     1799     1744     1707     1690     1678     1645     1591 
    1525     1460     1432     1463     1571     1757     1995     2235 
    2419     2508     2489     2363     2162     1941     1749     1621 
    1563     1566     1601     1634     1629     1583     1534     1506 
    1494     1485     1491     1529     1593     1676     1763     1844 
    1910     1941     1929     1879     1809     1745     1711     1701 
    1713     1752     1796     1829     1836     1815     1772     1714 
    1671     1661     1696     1787     1915     2046     2138     2150 
    2080     1944     1768     1593     1448     1340     1271     1229 
    1200     1200     1251     1347     1451     1526     1560     1530 
    1444     1337     1229     1146     1128     1200     1363     1603 
    1888     2172     2394     2516     2556     2540     2492     2440 
    2396     2349     2276     2145     1956     1737     1539     1405 
    1363     1426     1579     1763     1919     2034     2116     2177 
    2212     2219     2191     2116     2011     1887     1748     1613 
    1516     1491     1541     1630     1715     1767     1772     1749 
    1719     1696     1717     1799     1915     2019     2068     2065 
    2041     2030     2058     2137     2246     2358     2438     2442 
    2344     2151     1917     1692     1495     1345     1243     1154 
    1058      967      889      834      820      877     1003     1171 
    1351     1522     1676     1823     1973     2127     2282     2434 
    2559     2629     2620     2532     2371     2166     1966     1811 
    1728     1713     1745     1783     1782     1729     1632     1501 
    1362     1251     1178     1140     1147     1193     1277     1394 
    1533     1665     1761     1807     1796     1725     1629     1557 
    1536     1575     1667     1787     1923     2069     2204     2322 
    2423     2504     2560     2590     2589     2547     2446     2280 
    2062     1836     1642     1513     1462     1491     1595     1742 
    1879     1972     2026     2047     2053     2056     2058     2077 
    2119     2177     2245     2313     2376     2416     2413     2351 
    2208     1983     1711     1421     1120      822      538      278 
      68      -72     -122      -54      151      467      845     1255 
    1663     2027     2332     2571     2724     2798     2817     2791 
    2714     2570     2373     2150     1918     1725     1615     1583 
    1610     1667     1732     1790     1821     1813     1769     1715 
    1688     1695     1719     1749     1792     1854     1944     2039 
    2107     2122     2058     1907     1682     1409     1148      976 
     949     1075     1323     1637     1954     2220     2412     2516 
    2535     2494     2421     2350     2299     2273     2269     2274 
    2265     2226     2135     1979     1773     1543     1301     1086 
     947      939     1075     1318     1610     1881     2079     2192 
    2223     2193     2150     2133     2146     2178     2212     2236 
    2227     2166     2056     1896     1699     1466     1197      936 
     741      634      633      724      885     1090     1309     1506 
    1663     1764     1817     1844     1869     1917     1993     2083 
    2157     2193     2187     2151     2111     2096     2106     2122 
    2131     2103     2007     1845     1640     1435     1264     1159 
    1144     1220     1374     1594     1846     2076     2242     2335 
    2366     2347     2288     2204     2108     2016     1946     1908 
    1910     1953     2022     2087     2108     2073     1985     1849 
    1684     1529     1402     1314     1281     1318     1416     1533 
    1638     1723     1779     1825     1877     1915     1917     1877 
    1788     1648     1475     1305     1170     1084     1066     1121 
    1224     1364     1539     1714     1864     1962     1989     1949 
    1858     1759     1684     1642     1644     1691     1763     1838 
    1907     1962     1993     1991     1968     1935     1902     1890 
    1907     1948     2008     2080     2158     2222     2258     2286 
    2324     2369     2428     2498     2548     2565     2547     2488 
    2362     2180     1972     1750     1524     1327     1183     1101 
    1082     1109     1159     1202     1219     1220     1210     1202 
    1225     1287     1395     1570     1810     2085     2354     2600 
    2821     2994     3072     3025     2828     2475     2003     1474 
     965      549      279      178      232      422      710     1027 
    1331     1601     1827     2014     2155     2242     2263     2208 
    2084     1919     1741     1593     1497     1476     1547     1695 
    1902     2137     2359     2540     2636     2627     2520     2323 
    2061     1788     1556     1394     1300     1270     1306     1401 
    1529     1684     1831     1938     1984     1931     1784     1576 
    1345     1142     1003      955     1038     1243     1537     1879 
    2215     2479     2623     2627     2513     2335     2154     2025 
    1968     1996     2088     2188     2259     2297     2286     2219 
    2088     1907     1709     1536     1429     1397     1418     1463 
    1495     1490     1463     1432     1421     1449     1528     1668 
    1852     2016     2133     2189     2168     2074     1919     1722 
    1520     1337     1192     1105     1093     1173     1328     1516 
    1705     1871     2004     2108     2188     2246     2289     2326 
    2350     2350     2307     2226     2110     1950     1763     1572 
    1414     1310     1283     1343     1471     1661     1910     2174 
    2393     2521     2533     2421     2195     1899     1603     1347 
    1161     1071     1067     1120     1210     1302     1375     1420 
    1437     1440     1432     1421     1426     1459     1524     1617 
    1729     1852     1979     2101     2214     2305     2366     2376 
    2312     2189     2033     1854     1691     1570     1507     1509 
    1564     1656     1760     1850     1927     1984     2012     2019 
    2018     2012     2008     2022     2073     2168     2290     2439 
    2596     2713     2747     2660     2446     2126     1737     1329 
     953      658      500      473      557      747     1001     1278 
    1544     1771     1935     2020     2023     1985     1933     1883 
    1860     1880     1948     2053     2161     2243     2269     2235 
    2153     2012     1814     1580     1337     1121      976      934 
    1023     1236     1551     1935     2320     2643     2872     2964 
    2899     2708     2448     2182     1950     1771     1628     1485 
    1324     1135      901      648      415      248      193      283 
     525      899     1350     1817     2255     2617     2874     3015 
    3036     2952     2795     2609     2423     2254     2118     2016 
    1927     1838     1741     1634     1525     1426     1356     1327 
    1339     1395     1476     1564     1652     1722     1752     1736 
    1688     1633     1590     1578     1615     1691     1794     1933 
    2092     2230     2312     2317     2239     2084     1877     1676 
    1524     1435     1422     1483     1590     1714     1837     1948 
    2047     2138     2204     2239     2241     2212     2165     2096 
    2007     1904     1790     1674     1583     1528     1478     1436 
    1428     1458     1529     1629     1734     1837     1930     2008 
    2057     2079     2079     2057     2011     1946     1881     1827 
    1795     1787     1790     1783     1732     1636     1521     1398 
    1289     1201     1119     1050     1011     1026     1105     1246 
    1437     1659     1875     2061     2214     2317     2361     2344 
    2286     2196     2087     1981     1898     1850     1865     1942 
    2056     2189     2319     2417     2459     2424     2317     2162 
    1985     1807     1636     1476     1335     1208     1096     1005 
     953      954     1003     1089     1194     1297     1389     1472 
    1547     1624     1709     1784     1844     1873     1861     1821 
