Origin Time       2025/03/30 10:18:00
Lat.              34.667
Long.             140.825
Depth. (km)       69
Mag.              4.9
Station Code      CHBH17
Station Lat.      35.1714
Station Long.     140.3398
Station Height(m) 10
Record Time       2025/03/30 10:18:50
Sampling Freq(Hz) 100Hz
Duration Time(s)  120
Dir.              4
Scale Factor      7845(gal)/8223790
Max. Acc. (gal)   4.533
Last Correction   2025/03/30 10:18:50
Memo.             
[...]
   -2029    -2046    -2041    -2022    -2008    -2003    -2004    -2015 
   -2035    -2039    -2023    -2006    -1998    -2002    -2018    -2037 
   -2042    -2031    -2018    -2007    -1998    -1993    -2000    -2018 
   -2043    -2054    -2038    -2016    -2002    -1993    -1996    -2004 
   -2018    -2039    -2050    -2042    -2031    -2015    -1998    -1988 
   -1992    -2008    -2027    -2039    -2045    -2039    -2030    -2019 
   -2006    -1993    -1988    -1999    -2025    -2046    -2052    -2046 
   -2029    -2006    -1992    -1988    -1992    -2010    -2033    -2047 
   -2050    -2045    -2030    -2014    -1998    -1984    -1991    -2016 
   -2039    -2050    -2053    -2042    -2016    -1993    -1984    -1993 
   -2012    -2025    -2031    -2046    -2053    -2034    -2010    -1993 
   -1988    -1995    -2014    -2038    -2050    -2045    -2029    -2015 
   -2003    -2000    -2004    -2010    -2023    -2037    -2035    -2029 
   -2026    -2019    -2008    -2006    -2010    -2019    -2029    -2034 
   -2035    -2029    -2018    -2015    -2012    -2006    -2006    -2014 
   -2027    -2038    -2042    -2037    -2026    -2010    -1998    -1995 
   -2004    -2023    -2039    -2043    -2037    -2027    -2015    -2004 
   -2003    -2007    -2016    -2031    -2034    -2029    -2026    -2019 
   -2007    -2006    -2018    -2027    -2029    -2025    -2014    -2008 
   -2014    -2020    -2027    -2029    -2025    -2022    -2018    -2012 
   -2011    -2012    -2018    -2023    -2026    -2030    -2031    -2025 
   -2014    -2004    -2004    -2012    -2023    -2026    -2031    -2035 
   -2022    -2008    -2008    -2015    -2019    -2022    -2025    -2027 
   -2020    -2015    -2014    -2014    -2018    -2020    -2019    -2023 
   -2025    -2022    -2018    -2016    -2018    -2016    -2012    -2012 
   -2018    -2019    -2022    -2029    -2033    -2029    -2018    -2004 
   -2002    -2007    -2012    -2025    -2038    -2041    -2033    -2018 
   -2003    -1996    -2000    -2010    -2020    -2035    -2045    -2041 
   -2026    -2007    -1995    -1995    -2003    -2019    -2038    -2045 
   -2034    -2025    -2011    -1998    -1998    -2011    -2023    -2026 
   -2027    -2031    -2031    -2020    -2008    -2006    -2010    -2011 
   -2018    -2026    -2030    -2031    -2027    -2018    -2008    -2004 
   -2007    -2012    -2020    -2029    -2030    -2029    -2025    -2014 
   -2007    -2006    -2007    -2016    -2027    -2030    -2029    -2026 
   -2020    -2016    -2010    -2008    -2012    -2016    -2023    -2033 
   -2035    -2029    -2022    -2014    -2004    -2004    -2012    -2020 
   -2033    -2041    -2034    -2025    -2016    -2003    -1996    -2004 
   -2019    -2035    -2041    -2034    -2027    -2020    -2011    -2002 
   -1992    -1984    -2002    -2049    -2089    -2083    -2015    -1934 
   -1938    -2031    -2084    -2029    -1960    -1995    -2103    -2130 
   -2027    -1912    -1907    -1996    -2084    -2091    -2031    -1998 
   -2033    -2085    -2091    -2026    -1907    -1831    -1939    -2155 
   -2191    -2006    -1933    -2111    -2196    -1977    -1777    -1872 
   -2031    -2006    -1935    -2031    -2227    -2316    -2238    -2061 
   -1848    -1698    -1699    -1827    -2007    -2134    -2168    -2234 
   -2396    -2446    -2146    -1660    -1449    -1611    -1780    -1876 
   -2185    -2628    -2724    -2370    -1973    -1787    -1690    -1570 
   -1533    -1656    -1856    -2138    -2540    -2799    -2609    -2134 
   -1759    -1560    -1398    -1347    -1678    -2328    -2841    -2934 
   -2592    -1918    -1343    -1316    -1682    -1941    -1908    -1873 
   -2169    -2620    -2763    -2524    -2120    -1618    -1147    -1128 
   -1755    -2496    -2693    -2454    -2344    -2390    -2099    -1421 
    -972    -1202    -1865    -2404    -2614    -2663    -2600    -2246 
   -1730    -1545    -1767    -1900    -1807    -1860    -2143    -2363 
   -2411    -2369    -2147    -1686    -1364    -1545    -1931    -2074 
   -2033    -2074    -2299    -2604    -2743    -2494    -1873    -1240 
   -1036    -1362    -1908    -2299    -2439    -2477    -2463    -2350 
   -2185    -1993    -1684    -1314    -1182    -1497    -2084    -2567 
   -2794    -2790    -2500    -1964    -1491    -1399    -1721    -2110 
   -2124    -1844    -1818    -2178    -2430    -2281    -2011    -1934 
   -1961    -1968    -2116    -2339    -2212    -1709    -1362    -1572 
   -2172    -2612    -2559    -2207    -1877    -1750    -1885    -2030 
   -1856    -1545    -1541    -1852    -2123    -2281    -2556    -2837 
   -2601    -1813    -1250    -1443    -1900    -1875    -1549    -1696 
   -2354    -2832    -2768    -2335    -1872    -1692    -1779    -1825 
   -1744    -1713    -1846    -2145    -2500    -2690    -2548    -2076 
   -1490    -1173    -1404    -2049    -2504    -2292    -1903    -2080 
   -2461    -2295    -1865    -1840    -2018    -1863    -1606    -1864 
   -2484    -2671    -2182    -1607    -1451    -1611    -1887    -2299 
   -2673    -2546    -1939    -1613    -1877    -2030    -1653    -1389 
   -1780    -2444    -2783    -2690    -2359    -1884    -1412    -1394 
   -1958    -2370    -2035    -1563    -1921    -2844    -3006    -2038 
   -1175    -1213    -1626    -2007    -2380    -2471    -2093    -1703 
   -1811    -2197    -2344    -2304    -2288    -2091    -1671    -1453 
   -1763    -2411    -2701    -2133    -1296    -1175    -1809    -2459 
   -2652    -2529    -2396    -2246    -2025    -1872    -1800    -1671 
   -1549    -1640    -1911    -2134    -2300    -2536    -2589    -2181 
   -1621    -1354    -1483    -1879    -2250    -2324    -2231    -2228 
   -2177    -1860    -1555    -1725    -2201    -2265    -1815    -1528 
   -1675    -1972    -2324    -2754    -2968    -2616    -1825    -1262 
   -1317    -1567    -1629    -1823    -2335    -2624    -2369    -2089 
   -2146    -2141    -1800    -1526    -1715    -2177    -2403    -2180 
   -1885    -2019    -2393    -2382    -1983    -1745    -1792    -1823 
   -1784    -1802    -1861    -1919    -2046    -2323    -2575    -2494 
   -2168    -1985    -1914    -1606    -1259    -1453    -2138    -2691 
   -2856    -2755    -2374    -1786    -1339    -1197    -1298    -1726 
   -2389    -2752    -2489    -1927    -1614    -1710    -1945    -2128 
   -2354    -2551    -2424    -1950    -1547    -1544    -1718    -1780 
   -2008    -2640    -3136    -2828    -1885    -1120    -1036    -1459 
   -2034    -2458    -2467    -2251    -2215    -2195    -1876    -1582 
   -1719    -2007    -2053    -2081    -2330    -2415    -1998    -1510 
   -1520    -1861    -2072    -2176    -2442    -2775    -2764    -2212 
   -1567    -1470    -1759    -1684    -1306    -1544    -2488    -3060 
   -2679    -1881    -1360    -1362    -1632    -1757    -1777    -2011 
   -2390    -2586    -2574    -2489    -2093    -1364    -1125    -1733 
   -2278    -2247    -2245    -2470    -2371    -1888    -1539    -1575 
   -1929    -2357    -2431    -2143    -2076    -2346    -2332    -1836 
   -1404    -1314    -1381    -1776    -2643    -3152    -2565    -1599 
   -1340    -1738    -2150    -2274    -2120    -1915    -1983    -2211 
   -2169    -1938    -1906    -1907    -1705    -1706    -2089    -2274 
   -2085    -2139    -2539    -2505    -1802    -1266    -1421    -1927 
   -2550    -3184    -3271    -2482    -1439     -947    -1066    -1356 
   -1620    -1958    -2382    -2654    -2565    -2340    -2247    -1988 
   -1372    -1053    -1583    -2431    -2691    -2378    -2282    -2619 
   -2687    -2111    -1333     -877     -967    -1494    -2080    -2416 
   -2551    -2691    -2910    -3028    -2509    -1181     -189     -679 
   -1892    -2378    -2178    -2247    -2740    -2991    -2651    -2050 
   -1502    -1059     -889    -1267    -2114    -2747    -2689    -2413 
   -2390    -2277    -1864    -1602    -1719    -1941    -2114    -2353 
   -2533    -2239    -1545    -1171    -1559    -2397    -2924    -2644 
   -1972    -1607    -1530    -1443    -1544    -2018    -2457    -2469 
   -2290    -2265    -2204    -1888    -1667    -1896    -2257    -2281 
   -2066    -1850    -1552    -1294    -1532    -2234    -2686    -2474 
   -2018    -1867    -2018    -2118    -2111    -2274    -2535    -2407 
   -1825    -1495    -1800    -2111    -2029    -2074    -2431    -2496 
   -1923    -1148     -912    -1390    -1945    -2070    -2108    -2543 
   -3069    -3014    -2403    -1779    -1327     -996    -1005    -1574 
   -2501    -3283    -3457    -2874    -1863    -1012     -764    -1146 
   -1749    -2155    -2358    -2617    -2937    -2911    -2336    -1541 
    -872     -595    -1097    -2214    -2998    -2968    -2698    -2644 
   -2366    -1533     -795     -973    -1929    -2687    -2695    -2443 
   -2447    -2403    -1908    -1350    -1339    -1680    -1826    -1848 
   -2014    -2201    -2192    -2050    -2061    -2303    -2401    -2143 
   -1911    -1881    -1756    -1578    -1771    -2316    -2627    -2381 
   -1954    -1667    -1385    -1237    -1638    -2423    -2902    -2739 
   -2212    -1809    -1752    -1966    -2296    -2485    -2322    -1910 
   -1606    -1655    -1927    -2153    -2172    -1937    -1678    -1722 
   -1995    -2174    -2101    -1860    -1773    -2092    -2586    -2689 
   -2178    -1636    -1679    -2012    -2097    -2095    -2265    -2331 
   -2116    -1906    -1810    -1610    -1277    -1171    -1630    -2413 
   -2862    -2663    -2184    -1937    -1900    -1772    -1678    -1798 
   -1860    -1857    -2161    -2600    -2694    -2396    -1950    -1621 
   -1607    -1842    -2006    -1958    -1964    -2173    -2322    -2269 
   -2200    -2131    -2019    -2047    -2182    -2118    -1926    -1933 
   -2016    -1815    -1503    -1560    -1908    -2045    -1945    -2138 
   -2745    -3094    -2639    -1823    -1445    -1493    -1399    -1200 
   -1448    -2232    -2965    -2992    -2346    -1817    -1837    -1908 
   -1636    -1399    -1676    -2214    -2357    -2131    -2131    -2361 
   -2335    -2056    -1906    -1968    -1950    -1645    -1331    -1414 
   -1817    -2299    -2817    -3118    -2809    -2010    -1271     -938 
   -1024    -1509    -2296    -3040    -3346    -3156    -2722    -2188 
   -1555    -1040     -959    -1290    -1726    -2091    -2438    -2710 
   -2636    -2203    -1757    -1507    -1393    -1444    -1718    -2041 
   -2272    -2465    -2551    -2403    -2108    -1792    -1526    -1495 
   -1826    -2241    -2241    -1841    -1695    -2131    -2652    -2705 
   -2265    -1617    -1212    -1332    -1680    -1880    -2096    -2479 
   -2718    -2640    -2431    -2147    -1732    -1389    -1479    -2039 
   -2620    -2770    -2506    -2182    -1981    -1741    -1395    -1262 
   -1570    -2073    -2408    -2448    -2309    -2258    -2304    -2108 
   -1691    -1468    -1598    -1929    -2211    -2290    -2313    -2366 
   -2254    -1971    -1788    -1822    -1927    -1953    -2004    -2173 
   -2145    -1798    -1653    -1984    -2339    -2342    -2114    -1969 
   -2096    -2278    -2143    -1802    -1674    -1857    -2133    -2285 
   -2284    -2178    -1906    -1521    -1355    -1572    -1944    -2139 
   -2061    -1944    -2035    -2143    -1984    -1772    -1767    -1810 
   -1890    -2211    -2579    -2562    -2153    -1798    -1696    -1606 
   -1534    -1838    -2452    -2826    -2783    -2590    -2234    -1615 
   -1204    -1432    -1902    -2016    -1934    -2169    -2597    -2604 
   -2083    -1603    -1603    -1904    -2068    -1998    -1934    -1999 
   -2108    -2154    -2060    -1833    -1686    -1827    -2155    -2351 
   -2222    -1933    -1881    -2157    -2388    -2359    -2268    -2231 
   -2081    -1730    -1460    -1559    -1894    -2199    -2415    -2498 
   -2353    -2072    -1831    -1625    -1402    -1324    -1539    -1996 
   -2548    -2899    -2760    -2255    -1757    -1463    -1394    -1553 
   -1953    -2440    -2631    -2405    -2108    -1968    -1881    -1791 
   -1784    -1883    -1922    -1869    -2003    -2361    -2533    -2353 
   -2056    -1833    -1702    -1645    -1706    -1854    -2000    -2301 
   -2802    -2967    -2446    -1740    -1493    -1626    -1663    -1661 
   -2045    -2539    -2563    -2319    -2316    -2439    -2241    -1659 
   -1123    -1034    -1374    -1946    -2552    -2898    -2747    -2251 
   -1876    -1771    -1584    -1224    -1204    -1787    -2479    -2747 
   -2608    -2304    -1944    -1640    -1575    -1795    -2142    -2417 
   -2521    -2435    -2192    -1962    -1965    -2146    -2281    -2308 
   -2234    -2050    -1845    -1761    -1872    -2031    -1966    -1683 
   -1475    -1587    -1993    -2411    -2629    -2774    -2887    -2612 
   -1777     -909     -626     -897    -1317    -1798    -2462    -3040 
   -3059    -2593    -2145    -1833    -1351     -801     -750    -1293 
   -1926    -2335    -2555    -2627    -2538    -2241    -1717    -1066 
    -513     -330     -583    -1069    -1588    -2016    -2259    -2192 
   -1590     -589       59     -128     -855    -1792    -3017    -4368 
   -5185    -5134    -4656    -4135    -3381    -2335    -1429     -997 
   -1225    -2290    -3865    -5220    -5863    -5532    -4174    -2146 
    -241      726      553     -480    -2042    -3423    -3770    -3001 
   -1649     -136     1286     2126     1686     -117    -2427    -4330 
   -5393    -5275    -3835    -1629      322     1267     1017     -213 
   -1912    -3415    -4222    -4062    -2864     -930      977     1906 
    1271     -764    -3395    -5630    -6771    -6669    -5562    -3666 
   -1351      494     1013      199    -1208    -2300    -2609    -2535 
   -2697    -2952    -2859    -2566    -2332    -1973    -1332     -635 
    -353     -742    -1536    -2458    -3422    -4094    -3966    -2884 
   -1358     -140      498      584      -74    -1610    -3609    -5200 
   -5586    -4599    -2725     -571     1287     2079     1317     -588 
   -2697    -4229    -4838    -4568    -3682    -2651    -1885    -1329 
    -889     -787    -1163    -1871    -2512    -2724    -2494    -1977 
   -1325     -862     -927    -1395    -1765    -1810    -1728    -1653 
   -1458    -1216    -1404    -2218    -3130    -3420    -3040    -2619 
   -2457    -2238    -1887    -1811    -2216    -2863    -3406    -3546 
   -3279    -2951    -2604    -1948    -1150     -679     -588     -768 
   -1250    -1927    -2539    -2990    -3276    -3113    -2280    -1248 
    -604     -284     -216     -720    -1701    -2494    -2686    -2436 
   -2076    -1732    -1462    -1444    -1794    -2339    -2749    -2947 
   -3122    -3222    -2913    -2290    -1894    -1898    -2035    -2173 
   -2396    -2628    -2574    -2115    -1451     -872     -654     -932 
   -1559    -2199    -2547    -2508    -2331    -2386    -2636    -2728 
   -2612    -2498    -2396    -2215    -1979    -1652    -1250    -1065 
   -1329    -1829    -2218    -2432    -2546    -2446    -1922    -1044 
    -199      256      180     -361    -1192    -2119    -2847    -3048 
   -2813    -2652    -2789    -2918    -2830    -2662    -2506    -2289 
   -1992    -1807    -1966    -2442    -2920    -3084    -2833    -2278 
   -1741    -1564    -1722    -1985    -2253    -2378    -2214    -1884 
   -1622    -1537    -1696    -2093    -2639    -3079    -2906    -1949 
    -801     -121      -68     -538    -1341    -2230    -2982    -3373 
   -3256    -2713    -1987    -1375    -1131    -1190    -1314    -1571 
   -2197    -3064    -3748    -3967    -3586    -2575    -1242     -176 
     275      226     -306    -1422    -2691    -3496    -3775    -3746 
   -3429    -2790    -2041    -1395     -819     -476     -805    -1799 
   -2879    -3601    -3886    -3608    -2619    -1344     -544     -321 
    -309     -579    -1466    -2774    -3727    -3748    -2992    -1939 
    -843       74      324     -457    -1965    -3397    -4143    -4160 
   -3630    -2555    -1139      -48      216     -261    -1242    -2565 
   -3861    -4552    -4357    -3522    -2474    -1557    -1054    -1177 
   -1911    -2843    -3404    -3325    -2652    -1563     -436       94 
    -364    -1444    -2385    -2845    -2972    -2787    -2054     -865 
      99      278     -164     -859    -1726    -2593    -3064    -2998 
   -2668    -2416    -2338    -2324    -2266    -2216    -2347    -2664 
   -2943    -3018    -2844    -2409    -1906    -1572    -1368    -1179 
   -1008     -889    -1008    -1570    -2389    -3007    -3261    -3314 
   -3214    -2818    -2141    -1549    -1358    -1441    -1606    -1842 
   -2099    -2241    -2169    -1865    -1413    -1015     -897    -1075 
   -1372    -1757    -2203    -2386    -2174    -1903    -1867    -2079 
   -2489    -3053    -3582    -3711    -3310    -2816    -2679    -2786 
   -2790    -2613    -2357    -2079    -1760    -1345     -953     -859 
   -1066    -1269    -1377    -1537    -1655    -1518    -1285    -1320 
   -1734    -2300    -2741    -2951    -2914    -2619    -2130    -1597 
   -1189    -1082    -1256    -1413    -1421    -1489    -1652    -1683 
   -1544    -1480    -1714    -2249    -2856    -3208    -3203    -3011 
   -2739    -2376    -1987    -1696    -1632    -1830    -2141    -2398 
   -2563    -2666    -2732    -2683    -2423    -1946    -1426    -1178 
   -1324    -1679    -2138    -2648    -2879    -2551    -1817     -993 
    -326      -70     -433    -1318    -2344    -3194    -3643    -3434 
   -2519    -1309     -405     -229     -882    -2058    -3146    -3632 
   -3450    -2886    -2112    -1267     -819    -1134    -2049    -3140 
   -3937    -4023    -3341    -2257    -1246     -573     -365     -819 
   -1823    -2791    -3325    -3439    -3152    -2447    -1545     -889 
    -733     -949    -1355    -1966    -2689    -3117    -2975    -2373 
   -1653    -1128     -878     -886    -1240    -1938    -2544    -2582 
   -2235    -2047    -2081    -2020    -1884    -1885    -1941    -1879 
   -1684    -1487    -1448    -1613    -1950    -2407    -2879    -3200 
   -3184    -2789    -2249    -1827    -1460    -1043     -881    -1354 
   -2334    -3227    -3630    -3604    -3285    -2659    -1818    -1121 
    -912    -1165    -1528    -1680    -1617    -1611    -1788    -1980 
   -2052    -2054    -2002    -1806    -1528    -1386    -1510    -1910 
   -2404    -2631    -2484    -2215    -2002    -1838    -1769    -1930 
   -2272    -2473    -2432    -2307    -2077    -1783    -1734    -1945 
   -2103    -2130    -2096    -1946    -1767    -1779    -1975    -2188 
   -2323    -2390    -2521    -2754    -2909    -2849    -2551    -2062 
   -1579    -1182     -877     -926    -1402    -1888    -2166    -2384 
   -2509    -2374    -2031    -1676    -1532    -1686    -1935    -2045 
   -2052    -2112    -2196    -2166    -2073    -2047    -2053    -1953 
   -1680    -1405    -1431    -1769    -2084    -2108    -1923    -1834 
   -1958    -2150    -2365    -2614    -2656    -2324    -1898    -1783 
   -2066    -2492    -2756    -2736    -2451    -1973    -1416     -977 
    -961    -1482    -2166    -2477    -2336    -1995    -1559    -1174 
   -1210    -1763    -2404    -2717    -2702    -2521    -2288    -2118 
   -2069    -2050    -1896    -1629    -1556    -1885    -2431    -2852 
   -2976    -2856    -2540    -2000    -1414    -1148    -1320    -1668 
   -1964    -2262    -2497    -2257    -1345     -328       12     -464 
