Origin Time       2025/03/30 10:18:00
Lat.              34.667
Long.             140.825
Depth. (km)       69
Mag.              4.9
Station Code      CHBH06
Station Lat.      35.7215
Station Long.     140.5046
Station Height(m) -145
Record Time       2025/03/30 10:19:08
Sampling Freq(Hz) 100Hz
Duration Time(s)  120
Dir.              2
Scale Factor      3923(gal)/8224838
Max. Acc. (gal)   0.188
Last Correction   2025/03/30 10:19:08
Memo.             
[...]
   -6956    -6991    -6963    -6916    -6916    -6967    -7024    -7048 
   -7033    -6993    -6974    -6982    -6971    -6937    -6909    -6895 
   -6895    -6897    -6897    -6921    -6968    -6999    -7011    -7036 
   -7060    -7042    -6978    -6916    -6898    -6917    -6941    -6945 
   -6918    -6885    -6899    -6955    -6984    -6988    -7028    -7068 
   -7029    -6966    -6947    -6920    -6874    -6887    -6947    -6955 
   -6912    -6891    -6922    -6974    -7006    -6987    -6933    -6902 
   -6909    -6934    -6961    -6970    -6943    -6906    -6899    -6936 
   -6998    -7034    -7006    -6951    -6905    -6899    -6953    -7009 
   -6972    -6903    -6932    -7005    -6988    -6945    -6982    -7014 
   -6959    -6909    -6909    -6891    -6875    -6925    -6975    -6967 
   -6939    -6933    -6949    -6955    -6953    -6966    -6972    -6978 
   -6997    -6995    -6976    -6998    -7025    -6980    -6926    -6955 
   -6980    -6925    -6895    -6953    -7005    -6999    -6990    -6967 
   -6910    -6907    -6984    -7020    -6980    -6967    -7002    -7017 
   -6993    -6970    -6966    -6966    -6960    -6941    -6907    -6916 
   -6972    -6984    -6941    -6939    -6967    -6922    -6848    -6871 
   -6949    -6953    -6913    -6929    -6961    -6937    -6918    -6957 
   -6964    -6906    -6902    -6963    -6970    -6914    -6910    -6964 
   -6988    -6997    -7048    -7086    -7030    -6947    -6907    -6894 
   -6899    -6940    -6955    -6921    -6914    -6961    -6984    -6956 
   -6953    -7010    -7067    -7076    -7022    -6930    -6870    -6893 
   -6961    -6997    -6997    -7001    -6974    -6909    -6886    -6917 
   -6929    -6921    -6933    -6937    -6909    -6901    -6943    -6972 
   -6960    -6957    -6970    -6944    -6914    -6949    -7009    -7015 
   -6991    -6991    -7003    -6988    -6964    -6975    -7007    -7020 
   -7013    -6993    -6951    -6914    -6922    -6976    -7040    -7048 
   -6979    -6910    -6922    -6980    -6990    -6939    -6905    -6925 
   -6952    -6941    -6903    -6875    -6876    -6902    -6943    -6982 
   -6980    -6930    -6890    -6912    -6966    -6971    -6943    -6964 
   -7015    -7011    -6948    -6906    -6930    -6986    -7020    -7018 
   -6994    -6964    -6943    -6939    -6949    -6947    -6926    -6937 
   -6970    -6964    -6934    -6951    -7003    -7014    -6951    -6883 
   -6891    -6944    -6957    -6945    -6978    -7030    -7015    -6952 
   -6922    -6933    -6952    -6970    -6959    -6928    -6914    -6905 
   -6882    -6912    -7021    -7091    -7036    -6941    -6926    -6970 
   -6994    -6990    -6988    -7001    -6993    -6940    -6903    -6930 
   -6936    -6886    -6906    -7028    -7082    -7006    -6943    -6956 
   -6963    -6925    -6905    -6906    -6890    -6898    -6979    -7042 
   -6998    -6926    -6939    -6980    -6967    -6916    -6895    -6925 
   -6951    -6945    -6936    -6926    -6917    -6918    -6947    -6988 
   -6990    -6944    -6929    -6961    -6980    -6960    -6947    -6970 
   -6980    -6963    -6974    -6998    -6978    -6949    -6963    -6966 
   -6922    -6903    -6933    -6944    -6936    -6955    -6974    -6980 
   -7033    -7107    -7098    -7011    -6939    -6912    -6928    -6974 
   -6993    -6964    -6936    -6939    -6937    -6924    -6933    -6933 
   -6879    -6844    -6880    -6924    -6920    -6886    -6875    -6929 
   -7011    -7045    -7034    -7026    -7001    -6933    -6890    -6922 
   -6949    -6910    -6890    -6943    -6982    -6963    -6968    -7013 
   -7015    -6991    -7014    -7032    -6967    -6889    -6879    -6907 
   -6928    -6941    -6932    -6914    -6928    -6951    -6975    -7036 
   -7086    -7056    -6997    -6966    -6937    -6912    -6921    -6930 
   -6891    -6872    -6937    -6993    -6986    -6997    -7026    -6990 
   -6929    -6944    -6993    -6984    -6952    -6922    -6863    -6821 
   -6872    -6974    -7041    -7067    -7047    -6960    -6891    -6905 
   -6916    -6901    -6961    -7048    -7005    -6920    -6971    -7057 
   -7022    -6960    -6979    -7006    -6993    -7002    -7005    -6922 
   -6826    -6816    -6840    -6833    -6843    -6890    -6918    -6909 
   -6902    -6925    -6979    -7022    -7010    -6966    -6947    -6970 
   -7002    -7005    -6970    -6929    -6916    -6916    -6903    -6890 
   -6882    -6872    -6894    -6960    -7014    -7015    -6998    -6999 
   -6999    -6983    -6975    -6961    -6924    -6922    -6984    -7032 
   -7021    -7013    -7041    -7067    -7063    -7032    -6967    -6895 
   -6860    -6855    -6864    -6905    -6952    -6955    -6943    -6966 
   -6970    -6912    -6878    -6936    -6990    -6945    -6891    -6934 
   -6982    -6953    -6952    -6991    -6951    -6882    -6924    -7009 
   -7028    -7020    -7009    -6951    -6909    -6966    -7048    -7083 
   -7102    -7099    -7053    -7028    -7025    -6972    -6909    -6906 
   -6924    -6903    -6866    -6847    -6840    -6840    -6871    -6944 
   -7010    -7030    -7020    -6995    -6947    -6890    -6870    -6887 
   -6906    -6901    -6895    -6928    -6971    -6970    -6928    -6868 
   -6829    -6858    -6914    -6922    -6916    -6960    -7024    -7036 
   -6995    -6941    -6928    -6980    -7036    -7034    -7009    -6982 
   -6941    -6948    -7040    -7109    -7074    -7013    -6995    -6974 
   -6930    -6926    -6959    -6944    -6883    -6849    -6853    -6890 
   -6970    -7028    -6997    -6943    -6960    -6984    -6925    -6886 
   -6949    -6995    -6964    -6949    -6976    -7015    -7075    -7092 
   -7006    -6933    -6967    -7001    -6966    -6964    -6970    -6872 
   -6805    -6916    -7048    -7029    -6956    -6948    -6959    -6959 
   -6970    -6963    -6949    -6978    -6980    -6889    -6810    -6851 
   -6949    -6998    -6972    -6922    -6909    -6929    -6952    -6955 
   -6934    -6920    -6928    -6928    -6894    -6874    -6922    -6972 
   -6945    -6905    -6933    -6991    -7033    -7071    -7092    -7057 
   -6990    -6960    -6978    -6998    -6997    -6988    -6983    -6982 
   -6980    -6961    -6921    -6895    -6902    -6913    -6916    -6951 
   -7005    -7011    -6978    -6941    -6905    -6903    -6949    -6963 
   -6925    -6918    -6975    -7002    -6947    -6882    -6876    -6905 
   -6934    -6968    -6988    -6994    -7010    -7017    -6982    -6959 
   -7002    -7028    -6966    -6928    -6995    -7053    -6998    -6901 
   -6864    -6890    -6949    -7010    -7017    -6966    -6920    -6918 
   -6921    -6920    -6961    -7024    -7025    -6974    -6951    -6956 
   -6924    -6855    -6790    -6772    -6828    -6902    -6917    -6887 
   -6872    -6887    -6933    -6999    -7044    -7052    -7055    -7060 
   -7060    -7048    -7014    -6971    -6956    -6974    -6987    -6990 
   -7003    -7028    -7034    -7017    -7007    -7013    -6990    -6918 
   -6870    -6899    -6955    -6947    -6885    -6871    -6941    -7006 
   -6995    -6925    -6867    -6858    -6875    -6891    -6912    -6930 
   -6941    -6949    -6948    -6936    -6921    -6916    -6916    -6902 
   -6883    -6903    -6953    -6983    -6987    -7009    -7032    -7014 
   -6976    -6944    -6920    -6939    -7015    -7082    -7087    -7076 
   -7083    -7057    -7001    -6964    -6939    -6917    -6941    -7003 
   -7015    -6967    -6933    -6924    -6905    -6890    -6903    -6943 
   -6960    -6941    -6917    -6903    -6913    -6926    -6889    -6832 
   -6859    -6940    -6961    -6934    -6947    -6956    -6922    -6955 
   -7084    -7165    -7141    -7110    -7098    -7059    -7030    -7034 
   -7010    -6934    -6880    -6897    -6928    -6909    -6882    -6897 
   -6920    -6902    -6863    -6868    -6951    -7037    -7010    -6880 
   -6808    -6849    -6891    -6891    -6924    -6976    -6972    -6934 
   -6916    -6879    -6824    -6841    -6933    -6979    -6959    -6976 
   -7025    -7001    -6934    -6945    -7007    -7025    -7015    -7032 
   -7033    -7001    -6987    -7001    -6983    -6920    -6872    -6886 
   -6944    -7017    -7067    -7067    -7032    -6995    -6964    -6924 
   -6899    -6905    -6876    -6808    -6806    -6910    -6995    -6979 
   -6929    -6914    -6922    -6936    -6968    -6994    -6959    -6918 
   -6947    -6988    -6984    -6987    -7020    -7036    -7041    -7088 
   -7122    -7075    -7009    -6993    -6990    -6961    -6932    -6939 
   -6966    -6984    -6984    -6944    -6887    -6875    -6886    -6863 
   -6847    -6876    -6885    -6825    -6816    -6913    -6976    -6953 
   -6968    -7034    -7052    -7022    -7009    -6999    -6955    -6913 
   -6907    -6929    -6956    -6983    -6998    -6988    -6964    -6947 
   -6951    -6951    -6929    -6928    -6966    -6993    -6978    -6934 
   -6879    -6864    -6928    -7003    -7013    -6982    -6956    -6921 
   -6889    -6906    -6928    -6899    -6876    -6913    -6982    -7051 
   -7099    -7087    -7020    -6952    -6907    -6887    -6921    -6999 
   -7032    -6970    -6889    -6862    -6875    -6916    -6970    -6999 
   -6991    -6980    -6972    -6952    -6952    -6993    -7025    -7006 
   -6955    -6926    -6949    -6990    -6988    -6926    -6863    -6863 
   -6898    -6925    -6955    -6974    -6955    -6936    -6937    -6925 
   -6907    -6924    -6936    -6903    -6875    -6898    -6930    -6949 
   -6986    -7007    -6974    -6970    -7041    -7068    -7007    -6984 
   -7020    -7030    -7032    -7059    -7047    -6988    -6959    -6948 
   -6928    -6947    -6986    -6974    -6955    -6984    -6987    -6917 
   -6853    -6852    -6875    -6907    -6953    -6955    -6895    -6855 
   -6863    -6880    -6906    -6964    -6982    -6917    -6874    -6926 
   -6980    -6971    -6957    -6968    -6957    -6940    -6951    -6970 
   -6966    -6937    -6882    -6837    -6829    -6825    -6808    -6812 
   -6826    -6810    -6795    -6858    -6957    -7001    -6984    -6957 
   -6936    -6940    -6972    -6983    -6994    -7055    -7123    -7149 
   -7149    -7133    -7072    -6968    -6875    -6839    -6856    -6901 
   -6957    -7014    -7036    -7021    -7038    -7094    -7083    -6991 
   -6936    -6980    -7032    -7028    -7022    -7048    -7049    -7006 
   -6982    -6999    -7003    -6971    -6917    -6866    -6849    -6889 
   -6943    -6959    -6943    -6934    -6949    -6976    -6994    -6982 
   -6947    -6917    -6891    -6864    -6848    -6855    -6871    -6874 
   -6872    -6876    -6878    -6868    -6862    -6885    -6906    -6891 
   -6891    -6941    -6995    -7010    -7009    -7036    -7087    -7126 
   -7149    -7187    -7227    -7218    -7176    -7161    -7157    -7105 
   -7024    -6976    -6957    -6944    -6941    -6937    -6907    -6870 
   -6858    -6860    -6864    -6875    -6868    -6826    -6783    -6767 
   -6798    -6880    -6959    -6964    -6928    -6910    -6895    -6836 
   -6774    -6799    -6901    -6960    -6953    -6974    -7036    -7068 
   -7071    -7075    -7068    -7056    -7075    -7094    -7078    -7080 
   -7133    -7150    -7074    -6988    -6974    -6974    -6929    -6887 
   -6903    -6953    -6971    -6941    -6895    -6843    -6794    -6777 
   -6794    -6831    -6876    -6909    -6912    -6898    -6906    -6907 
   -6868    -6843    -6871    -6886    -6879    -6930    -7029    -7068 
   -7069    -7142    -7223    -7203    -7163    -7196    -7237    -7238 
   -7244    -7256    -7248    -7257    -7287    -7272    -7218    -7188 
   -7156    -7072    -6993    -6955    -6894    -6802    -6782    -6845 
   -6885    -6863    -6829    -6778    -6687    -6627    -6643    -6673 
   -6683    -6718    -6759    -6752    -6745    -6794    -6856    -6894 
   -6937    -6974    -6951    -6893    -6867    -6867    -6870    -6893 
   -6918    -6909    -6901    -6948    -7005    -7005    -6982    -6960 
   -6945    -6974    -7028    -7030    -6970    -6899    -6848    -6810 
   -6802    -6814    -6826    -6843    -6848    -6828    -6832    -6901 
   -6986    -7034    -7055    -7048    -6993    -6939    -6951    -6986 
   -6976    -6960    -7011    -7090    -7119    -7114    -7110    -7072 
   -7003    -6968    -6968    -6951    -6933    -6960    -7018    -7071 
   -7099    -7086    -7053    -7036    -7021    -6974    -6909    -6864 
   -6856    -6897    -6990    -7072    -7064    -6975    -6899    -6903 
   -6970    -7034    -7064    -7069    -7061    -7047    -7053    -7059 
   -7022    -6960    -6918    -6912    -6929    -6967    -7020    -7036 
   -6976    -6875    -6793    -6762    -6791    -6835    -6826    -6805 
   -6836    -6866    -6841    -6822    -6856    -6893    -6891    -6889 
   -6905    -6907    -6902    -6930    -6967    -6955    -6934    -6987 
   -7087    -7140    -7132    -7111    -7075    -7015    -6971    -6948 
   -6907    -6855    -6849    -6898    -6955    -6995    -7030    -7072 
   -7105    -7121    -7109    -7045    -6980    -6993    -7025    -6998 
   -6932    -6874    -6813    -6748    -6744    -6825    -6910    -6943 
   -6924    -6867    -6828    -6840    -6837    -6787    -6752    -6767 
   -6809    -6863    -6925    -6995    -7082    -7172    -7204    -7146 
   -7042    -6943    -6851    -6791    -6793    -6828    -6880    -6974 
   -7087    -7165    -7172    -7101    -7001    -6934    -6918    -6934 
   -6929    -6885    -6859    -6874    -6870    -6847    -6866    -6937 
   -7006    -7022    -7013    -7020    -7032    -7040    -7075    -7128 
   -7168    -7209    -7231    -7176    -7069    -7007    -7011    -7036 
   -7083    -7164    -7248    -7317    -7350    -7300    -7167    -7033 
   -6952    -6889    -6835    -6828    -6845    -6806    -6732    -6735 
   -6794    -6806    -6789    -6793    -6791    -6775    -6789    -6793 
   -6735    -6669    -6658    -6670    -6666    -6664    -6685    -6736 
   -6808    -6863    -6878    -6876    -6925    -7041    -7129    -7109 
   -7014    -6928    -6871    -6841    -6836    -6859    -6906    -6988 
   -7075    -7094    -7055    -7037    -7045    -7032    -7011    -7011 
   -7009    -6957    -6899    -6917    -6999    -7076    -7134    -7169 
   -7149    -7091    -7061    -7063    -7052    -7034    -7036    -7061 
   -7083    -7080    -7082    -7109    -7134    -7150    -7183    -7209 
   -7176    -7106    -7042    -6979    -6897    -6806    -6741    -6741 
   -6799    -6855    -6868    -6894    -6953    -6953    -6856    -6768 
   -6763    -6779    -6787    -6818    -6852    -6844    -6828    -6831 
   -6813    -6778    -6804    -6880    -6906    -6845    -6751    -6693 
   -6706    -6785    -6858    -6848    -6801    -6799    -6831    -6876 
   -6961    -7059    -7121    -7171    -7241    -7294    -7298    -7290 
   -7272    -7179    -7022    -6906    -6872    -6859    -6847    -6871 
   -6903    -6885    -6826    -6801    -6853    -6957    -7033    -7042 
   -7022    -7029    -7076    -7129    -7164    -7194    -7199    -7153 
   -7074    -7003    -6984    -7026    -7092    -7122    -7105    -7083 
   -7091    -7106    -7087    -7036    -6994    -6974    -6949    -6916 
   -6894    -6883    -6847    -6775    -6704    -6656    -6643    -6679 
   -6736    -6758    -6766    -6825    -6917    -6978    -6995    -6984 
   -6957    -6948    -6964    -6983    -7028    -7096    -7137    -7122 
   -7063    -6978    -6906    -6879    -6886    -6893    -6874    -6851 
   -6835    -6821    -6824    -6852    -6879    -6876    -6866    -6891 
   -6953    -7022    -7096    -7190    -7269    -7283    -7241    -7198 
   -7155    -7088    -7002    -6922    -6859    -6797    -6741    -6724 
   -6743    -6750    -6725    -6709    -6745    -6805    -6853    -6906 
   -6948    -6964    -6983    -7028    -7079    -7109    -7115    -7123 
   -7114    -7057    -6995    -6970    -6976    -7007    -7072    -7150 
   -7179    -7144    -7099    -7068    -7021    -6960    -6928    -6936 
   -6955    -6943    -6925    -6940    -6948    -6880    -6745    -6623 
   -6578    -6610    -6679    -6772    -6878    -6967    -7030    -7072 
   -7068    -7028    -7005    -7017    -7037    -7068    -7110    -7113 
   -7061    -7029    -7044    -7084    -7132    -7145    -7103    -7071 
   -7082    -7037    -6918    -6836    -6813    -6771    -6709    -6673 
   -6669    -6713    -6816    -6917    -6955    -6957    -6967    -6986 
   -7014    -7055    -7090    -7088    -7033    -6933    -6824    -6743 
   -6702    -6708    -6739    -6754    -6745    -6741    -6750    -6786 
   -6891    -7042    -7157    -7214    -7244    -7260    -7256    -7252 
   -7267    -7277    -7265    -7236    -7182    -7095    -7002    -6925 
   -6871    -6841    -6867    -6957    -7064    -7138    -7148    -7069 
   -6949    -6867    -6841    -6818    -6781    -6772    -6787    -6772 
   -6740    -6748    -6787    -6795    -6774    -6745    -6716    -6713 
   -6774    -6853    -6879    -6866    -6874    -6914    -6971    -7042 
   -7107    -7129    -7155    -7240    -7322    -7307    -7226    -7148 
   -7084    -7020    -6974    -6957    -6951    -6951    -6964    -6984 
   -7017    -7051    -7064    -7061    -7049    -7010    -6941    -6880 
   -6852    -6851    -6880    -6918    -6926    -6917    -6925    -6928 
   -6891    -6824    -6766    -6739    -6731    -6736    -6756    -6779 
   -6787    -6804    -6860    -6926    -6925    -6860    -6860    -6974 
   -7099    -7175    -7209    -7200    -7160    -7114    -7069    -7014 
   -6929    -6847    -6817    -6833    -6847    -6849    -6874    -6921 
   -6970    -7017    -7053    -7053    -7007    -6940    -6905    -6910 
   -6926    -6956    -7022    -7098    -7115    -7076    -7037    -7024 
   -7020    -7018    -7025    -7029    -7036    -7064    -7086    -7053 
   -6995    -6987    -7055    -7155    -7248    -7318    -7330    -7263 
   -7171    -7111    -7067    -7003    -6910    -6812    -6745    -6708 
   -6678    -6685    -6747    -6817    -6835    -6805    -6778    -6772 
   -6778    -6798    -6849    -6906    -6930    -6925    -6912    -6880 
   -6843    -6804    -6755    -6728    -6754    -6790    -6804    -6847 
   -6937    -6986    -6968    -6966    -6968    -6926    -6890    -6894 
   -6903    -6914    -6959    -7026    -7098    -7159    -7179    -7165 
   -7149    -7132    -7098    -7029    -6924    -6801    -6709    -6689 
   -6735    -6787    -6793    -6787    -6832    -6907    -6968    -7018 
   -7055    -7053    -7032    -7026    -7018    -6999    -7015    -7071 
   -7087    -7051    -7038    -7059    -7044    -7001    -6994    -7041 
   -7102    -7155    -7211    -7256    -7241    -7183    -7125    -7072 
   -7034    -7018    -7003    -6982    -6947    -6889    -6817    -6756 
   -6728    -6729    -6737    -6745    -6777    -6832    -6882    -6910 
   -6924    -6929    -6937    -6956    -6937    -6841    -6747    -6745 
   -6790    -6805    -6814    -6843    -6858    -6855    -6864    -6891 
   -6921    -6967    -7040    -7122    -7195    -7236    -7217    -7156 
   -7080    -6979    -6870    -6831    -6889    -6980    -7042    -7083 
   -7142    -7196    -7182    -7113    -7041    -6983    -6928    -6882 
   -6855    -6848    -6879    -6941    -6998    -7020    -7011    -7009 
   -7032    -7040    -6997    -6943    -6929    -6943    -6932    -6920 
   -6952    -6990    -6998    -7007    -7014    -6986    -6934    -6891 
   -6858    -6829    -6794    -6743    -6696    -6686    -6721    -6781 
   -6843    -6905    -6968    -7040    -7103    -7132    -7126    -7102 
