Origin Time       2025/03/30 10:18:00
Lat.              34.667
Long.             140.825
Depth. (km)       69
Mag.              4.9
Station Code      CHBH17
Station Lat.      35.1714
Station Long.     140.3398
Station Height(m) 10
Record Time       2025/03/30 10:18:50
Sampling Freq(Hz) 100Hz
Duration Time(s)  120
Dir.              5
Scale Factor      7845(gal)/8223790
Max. Acc. (gal)   5.191
Last Correction   2025/03/30 10:18:50
Memo.             
[...]
   -3573    -3543    -3539    -3551    -3558    -3564    -3580    -3592 
   -3586    -3568    -3557    -3557    -3559    -3557    -3559    -3573 
   -3582    -3574    -3565    -3566    -3573    -3576    -3572    -3565 
   -3561    -3558    -3557    -3558    -3570    -3585    -3586    -3576 
   -3565    -3559    -3553    -3549    -3555    -3565    -3572    -3584 
   -3592    -3586    -3569    -3550    -3545    -3551    -3561    -3572 
   -3580    -3577    -3573    -3570    -3568    -3568    -3565    -3558 
   -3555    -3553    -3558    -3570    -3578    -3584    -3586    -3578 
   -3562    -3551    -3546    -3546    -3553    -3570    -3588    -3596 
   -3592    -3578    -3558    -3538    -3532    -3543    -3564    -3584 
   -3599    -3604    -3592    -3566    -3539    -3528    -3538    -3551 
   -3568    -3589    -3603    -3599    -3577    -3551    -3537    -3534 
   -3545    -3564    -3580    -3591    -3591    -3584    -3572    -3554 
   -3541    -3539    -3553    -3572    -3584    -3588    -3582    -3569 
   -3555    -3551    -3554    -3558    -3568    -3580    -3581    -3570 
   -3558    -3555    -3561    -3568    -3574    -3577    -3577    -3569 
   -3554    -3550    -3557    -3565    -3570    -3574    -3580    -3578 
   -3570    -3561    -3555    -3558    -3565    -3570    -3574    -3576 
   -3574    -3570    -3564    -3558    -3559    -3565    -3570    -3572 
   -3572    -3572    -3569    -3562    -3561    -3561    -3559    -3564 
   -3574    -3581    -3581    -3578    -3569    -3555    -3545    -3547 
   -3555    -3566    -3581    -3593    -3591    -3577    -3558    -3542 
   -3538    -3545    -3564    -3581    -3591    -3592    -3582    -3566 
   -3554    -3549    -3546    -3551    -3562    -3573    -3581    -3589 
   -3588    -3572    -3555    -3547    -3546    -3555    -3568    -3576 
   -3582    -3584    -3576    -3566    -3555    -3549    -3554    -3565 
   -3570    -3576    -3581    -3577    -3568    -3559    -3557    -3555 
   -3561    -3572    -3581    -3582    -3574    -3564    -3554    -3551 
   -3557    -3565    -3577    -3586    -3584    -3573    -3562    -3551 
   -3551    -3561    -3569    -3577    -3580    -3573    -3569    -3565 
   -3558    -3559    -3562    -3564    -3568    -3573    -3572    -3573 
   -3573    -3568    -3568    -3570    -3561    -3553    -3557    -3565 
   -3574    -3582    -3585    -3581    -3570    -3557    -3547    -3547 
   -3557    -3572    -3582    -3586    -3582    -3572    -3558    -3551 
   -3551    -3555    -3565    -3577    -3586    -3586    -3578    -3568 
   -3555    -3549    -3553    -3564    -3573    -3578    -3578    -3577 
   -3573    -3564    -3557    -3558    -3561    -3565    -3573    -3578 
   -3578    -3574    -3565    -3555    -3554    -3561    -3570    -3574 
   -3577    -3578    -3574    -3565    -3555    -3553    -3557    -3564 
   -3574    -3584    -3586    -3578    -3565    -3555    -3550    -3550 
   -3561    -3574    -3582    -3584    -3573    -3561    -3555    -3559 
   -3570    -3576    -3569    -3561    -3565    -3574    -3570    -3568 
   -3580    -3578    -3551    -3532    -3550    -3586    -3600    -3584 
   -3547    -3523    -3546    -3589    -3582    -3562    -3608    -3672 
   -3655    -3586    -3537    -3477    -3406    -3423    -3530    -3584 
   -3577    -3647    -3782    -3785    -3601    -3427    -3412    -3478 
   -3516    -3523    -3543    -3599    -3676    -3717    -3667    -3572 
   -3543    -3523    -3403    -3307    -3369    -3527    -3720    -3892 
   -3890    -3673    -3456    -3468    -3622    -3620    -3431    -3318 
   -3400    -3542    -3631    -3697    -3728    -3661    -3535    -3457 
   -3441    -3457    -3558    -3728    -3770    -3603    -3462    -3527 
   -3674    -3734    -3658    -3526    -3419    -3319    -3257    -3350 
   -3558    -3757    -3896    -3889    -3672    -3395    -3322    -3518 
   -3719    -3630    -3381    -3361    -3609    -3858    -3959    -3875 
   -3568    -3171    -2955    -3064    -3470    -3931    -4051    -3786 
   -3546    -3530    -3537    -3442    -3372    -3397    -3464    -3605 
   -3881    -4083    -3948    -3578    -3226    -2967    -2895    -3133 
   -3557    -3894    -4001    -4009    -4116    -4180    -3920    -3384 
   -2886    -2686    -2883    -3383    -3921    -4253    -4315    -4172 
   -3846    -3323    -2783    -2558    -2789    -3296    -3811    -4168 
   -4303    -4191    -3913    -3607    -3310    -3067    -2979    -3051 
   -3294    -3724    -4108    -4148    -3874    -3555    -3387    -3339 
   -3322    -3396    -3574    -3662    -3576    -3511    -3627    -3817 
   -3898    -3820    -3609    -3350    -3229    -3372    -3619    -3673 
   -3476    -3245    -3215    -3446    -3797    -4054    -4040    -3723 
   -3350    -3268    -3504    -3736    -3696    -3469    -3311    -3299 
   -3384    -3599    -3919    -4099    -3939    -3581    -3326    -3294 
   -3402    -3450    -3316    -3260    -3564    -3975    -4128    -4002 
   -3645    -3211    -3076    -3208    -3265    -3400    -3882    -4349 
   -4375    -4062    -3663    -3230    -2772    -2550    -2849    -3497 
   -4020    -4251    -4286    -4098    -3626    -3056    -2736    -2782 
   -3032    -3403    -3925    -4398    -4445    -4068    -3630    -3280 
   -2976    -2870    -3137    -3613    -3987    -4152    -4209    -4218 
   -4075    -3611    -2936    -2520    -2617    -2974    -3399    -3931 
   -4309    -4268    -4051    -3901    -3657    -3207    -2809    -2781 
   -3136    -3601    -3955    -4147    -4145    -3948    -3659    -3361 
   -3080    -2951    -3208    -3771    -4193    -4174    -3748    -3213 
   -3002    -3159    -3319    -3411    -3650    -3960    -4008    -3686 
   -3288    -3171    -3381    -3713    -3920    -3905    -3828    -3862 
   -3931    -3808    -3442    -3084    -2910    -2880    -3045    -3464 
   -3990    -4411    -4494    -4014    -3188    -2691    -2836    -3194 
   -3369    -3501    -3838    -4328    -4652    -4523    -4028    -3461 
   -2902    -2431    -2398    -2974    -3804    -4448    -4648    -4266 
   -3461    -2781    -2646    -2920    -3206    -3426    -3740    -4131 
   -4415    -4434    -4094    -3555    -3153    -2995    -3001    -3208 
   -3634    -4014    -4016    -3682    -3385    -3325    -3395    -3492 
   -3615    -3643    -3492    -3319    -3221    -3126    -3129    -3433 
   -3997    -4406    -4332    -4014    -3769    -3473    -3088    -2884 
   -2994    -3362    -3897    -4347    -4426    -4106    -3646    -3342 
   -3222    -3071    -2937    -3132    -3559    -3762    -3640    -3528 
   -3611    -3732    -3677    -3465    -3366    -3454    -3492    -3481 
   -3599    -3703    -3678    -3649    -3585    -3446    -3460    -3731 
   -3939    -3813    -3608    -3658    -3717    -3410    -2957    -2817 
   -2998    -3316    -3766    -4263    -4504    -4336    -3869    -3285 
   -2840    -2744    -2980    -3504    -4236    -4776    -4735    -4240 
   -3632    -3002    -2461    -2385    -2894    -3618    -4180    -4338 
   -3933    -3356    -3245    -3487    -3541    -3477    -3569    -3663 
   -3609    -3528    -3495    -3437    -3404    -3520    -3659    -3680 
   -3742    -3981    -4212    -4166    -3744    -3063    -2523    -2620 
   -3238    -3719    -3931    -4163    -4185    -3693    -3053    -2731 
   -2802    -3223    -3915    -4545    -4695    -4340    -3805    -3273 
   -2813    -2614    -2781    -3207    -3847    -4602    -4977    -4538 
   -3555    -2574    -1883    -1737    -2349    -3465    -4459    -4958 
   -5004    -4626    -3842    -3037    -2736    -2944    -3249    -3462 
   -3686    -3901    -3970    -3913    -3852    -3770    -3532    -3159 
   -2944    -3119    -3503    -3731    -3732    -3685    -3608    -3460 
   -3466    -3738    -3915    -3676    -3176    -2866    -3038    -3507 
   -3855    -3933    -3946    -4072    -4148    -3971    -3613    -3237 
   -3038    -3213    -3667    -4008    -3983    -3842    -3879    -3859 
   -3449    -2870    -2681    -3068    -3547    -3655    -3589    -3703 
   -3942    -4089    -4021    -3639    -3051    -2697    -2903    -3510 
   -4054    -4271    -4264    -4083    -3680    -3264    -3105    -3222 
   -3429    -3433    -3230    -3208    -3505    -3798    -3863    -3828 
   -3809    -3685    -3423    -3311    -3570    -3967    -4112    -3951 
   -3650    -3256    -2910    -2894    -3130    -3298    -3410    -3667 
   -4012    -4170    -3974    -3584    -3300    -3132    -2910    -2794 
   -3087    -3655    -4067    -4171    -4159    -4139    -4028    -3785 
   -3466    -3176    -3040    -3099    -3325    -3693    -4078    -4171 
   -3813    -3294    -3015    -3044    -3191    -3395    -3751    -4122 
   -4163    -3846    -3481    -3294    -3346    -3541    -3626    -3597 
   -3708    -4005    -4274    -4195    -3636    -3021    -2813    -2876 
   -2972    -3214    -3682    -4063    -3991    -3593    -3254    -3118 
   -3202    -3489    -3774    -3851    -3746    -3669    -3800    -3982 
   -3862    -3485    -3269    -3345    -3445    -3412    -3373    -3464 
   -3623    -3658    -3535    -3496    -3676    -3815    -3713    -3543 
   -3496    -3551    -3635    -3709    -3743    -3654    -3457    -3396 
   -3537    -3667    -3759    -3910    -3982    -3785    -3480    -3375 
   -3442    -3395    -3167    -2992    -3080    -3402    -3761    -4028 
   -4132    -3952    -3566    -3283    -3199    -3198    -3289    -3477 
   -3568    -3511    -3483    -3512    -3519    -3591    -3748    -3834 
   -3882    -3967    -3858    -3497    -3306    -3465    -3636    -3643 
   -3667    -3785    -3851    -3735    -3474    -3264    -3215    -3306 
   -3473    -3642    -3754    -3707    -3427    -3168    -3203    -3357 
   -3472    -3701    -3944    -3900    -3678    -3578    -3565    -3539 
   -3597    -3709    -3709    -3635    -3558    -3396    -3242    -3284 
   -3407    -3466    -3568    -3726    -3786    -3738    -3680    -3566 
   -3353    -3222    -3358    -3694    -3997    -4091    -4037    -3956 
   -3746    -3312    -2901    -2776    -2853    -2995    -3325    -3869 
   -4313    -4417    -4226    -3883    -3528    -3219    -2937    -2797 
   -3029    -3669    -4338    -4561    -4361    -4052    -3685    -3287 
   -3069    -3150    -3438    -3618    -3408    -3028    -2872    -2968 
   -3202    -3530    -3805    -3987    -4201    -4384    -4252    -3713 
   -3118    -2887    -3075    -3514    -4075    -4549    -4625    -4140 
   -3343    -2733    -2555    -2700    -3019    -3489    -4021    -4378 
   -4414    -4141    -3574    -2874    -2386    -2332    -2679    -3271 
   -3963    -4569    -4835    -4611    -4006    -3279    -2670    -2382 
   -2525    -2975    -3551    -4175    -4627    -4631    -4207    -3574 
   -2934    -2517    -2532    -2979    -3634    -4206    -4467    -4306 
   -3846    -3395    -3125    -3028    -3132    -3505    -4104    -4650 
   -4792    -4479    -3956    -3377    -2787    -2412    -2481    -2949 
   -3600    -4153    -4356    -4186    -3786    -3265    -2790    -2637 
   -2938    -3530    -4091    -4303    -4077    -3612    -3140    -2860 
   -2965    -3454    -4059    -4371    -4166    -3734    -3470    -3318 
   -3092    -2945    -3028    -3302    -3748    -4199    -4344    -4126 
   -3751    -3446    -3376    -3553    -3808    -3947    -3912    -3763 
   -3555    -3372    -3342    -3476    -3640    -3730    -3616    -3234 
   -2879    -2863    -3053    -3292    -3657    -4056    -4206    -4032 
   -3746    -3549    -3439    -3377    -3457    -3677    -3788    -3677 
   -3535    -3454    -3299    -3146    -3300    -3666    -3811    -3678 
   -3562    -3515    -3392    -3343    -3622    -4006    -4066    -3819 
   -3549    -3348    -3215    -3272    -3558    -3825    -3834    -3717 
   -3696    -3717    -3622    -3345    -3001    -2882    -3173    -3682 
   -4047    -4082    -3851    -3572    -3465    -3524    -3558    -3496 
   -3449    -3516    -3636    -3613    -3464    -3454    -3649    -3820 
   -3834    -3728    -3581    -3423    -3238    -3042    -2926    -3046 
   -3438    -3906    -4174    -4098    -3821    -3616    -3554    -3545 
   -3519    -3443    -3419    -3596    -3863    -3967    -3843    -3653 
   -3550    -3501    -3426    -3353    -3310    -3237    -3186    -3323 
   -3630    -3874    -3913    -3766    -3515    -3299    -3283    -3557 
   -3959    -4168    -4090    -3869    -3547    -3169    -3042    -3318 
   -3650    -3758    -3788    -3878    -3861    -3530    -3014    -2712 
   -2816    -3221    -3785    -4342    -4639    -4536    -4093    -3522 
   -3036    -2697    -2563    -2766    -3233    -3709    -4090    -4361 
   -4371    -3929    -3194    -2628    -2527    -2783    -3142    -3438 
   -3623    -3712    -3713    -3670    -3628    -3582    -3546    -3545 
   -3541    -3495    -3474    -3537    -3558    -3435    -3322    -3356 
   -3456    -3472    -3330    -3122    -3063    -3234    -3488    -3659 
   -3720    -3700    -3572    -3350    -3225    -3411    -3828    -4070 
   -3905    -3570    -3318    -3183    -3262    -3650    -4141    -4430 
   -4441    -4244    -3856    -3338    -2980    -3072    -3555    -4209 
   -4851    -5247    -5136    -4480    -3508    -2555    -1904    -1783 
   -2304    -3334    -4499    -5354    -5620    -5405    -4849    -3821 
   -2490    -1524    -1364    -1988    -3262    -4947    -6520    -7416 
   -7356    -6266    -4267    -1884       75      945      456    -1243 
   -3580    -5597    -6431    -5848    -4224    -2145     -290      534 
    -163    -2142    -4743    -7196    -8564    -8159    -6173    -3419 
    -692     1259     1664      164    -2744    -5914    -8221    -9009 
   -8156    -6038    -3341     -764     1097     1769     1050     -811 
   -3130    -5174    -6504    -6921    -6412    -5274    -4006    -2992 
   -2384    -2127    -2068    -2249    -2771    -3541    -4388    -5089 
   -5475    -5638    -5559    -4999    -3897    -2417     -915       48 
     141     -523    -1876    -3921    -6168    -7715    -7962    -6955 
   -5147    -3079    -1371     -589     -888    -2072    -3782    -5374 
   -6222    -6131    -5124    -3414    -1690     -666     -546    -1316 
   -2963    -5116    -6899    -7462    -6594    -4725    -2590    -1015 
    -567    -1301    -2828    -4484    -5661    -6064    -5682    -4750 
   -3630    -2635    -1935    -1586    -1651    -2168    -2970    -3727 
   -4198    -4406    -4452    -4326    -4036    -3678    -3322    -2907 
   -2424    -2145    -2373    -3059    -3970    -4922    -5706    -6087 
   -5911    -5076    -3680    -2224    -1281    -1011    -1317    -2184 
   -3495    -4795    -5563    -5548    -4819    -3777    -2970    -2648 
   -2656    -2855    -3318    -3974    -4378    -4180    -3542    -2809 
   -2168    -1764    -1740    -2139    -2867    -3623    -4118    -4295 
   -4147    -3667    -3098    -2789    -2835    -3153    -3728    -4495 
   -5121    -5169    -4541    -3531    -2521    -1931    -2116    -3105 
   -4564    -5954    -6690    -6440    -5382    -4031    -2880    -2250 
   -2160    -2359    -2625    -2883    -3064    -3125    -3177    -3404 
   -3871    -4499    -5076    -5285    -4930    -4045    -2791    -1483 
    -603     -521    -1256    -2565    -4033    -5185    -5744    -5751 
   -5412    -4843    -4056    -3186    -2448    -1964    -1772    -1869 
   -2204    -2748    -3403    -4029    -4673    -5468    -6332    -6961 
   -7026    -6311    -4857    -3079    -1520     -534     -336    -1044 
   -2501    -4176    -5408    -5773    -5177    -3785    -2058     -669 
    -180     -730    -2002    -3407    -4406    -4777    -4635    -4266 
   -3854    -3435    -3071    -2909    -3117    -3759    -4702    -5602 
   -6021    -5691    -4749    -3501    -2200    -1163     -791    -1251 
   -2308    -3534    -4591    -5236    -5391    -5206    -4803    -4135 
   -3199    -2280    -1772    -1780    -2157    -2812    -3719    -4715 
   -5601    -6292    -6550    -5984    -4617    -2894    -1206      112 
     600      -97    -1811    -3851    -5611    -6880    -7429    -6971 
   -5652    -4006    -2506    -1460    -1089    -1506    -2690    -4306 
   -5620    -6022    -5514    -4445    -3202    -2235    -1854    -2018 
   -2469    -2968    -3392    -3731    -3993    -4145    -4183    -4041 
   -3626    -3087    -2782    -2848    -3126    -3446    -3743    -4005 
   -4198    -4257    -4162    -3915    -3501    -2933    -2367    -2080 
   -2169    -2488    -2988    -3736    -4581    -5182    -5340    -5132 
   -4738    -4267    -3804    -3508    -3488    -3647    -3800    -3848 
   -3774    -3626    -3524    -3504    -3419    -3111    -2700    -2477 
   -2478    -2529    -2617    -2871    -3325    -3861    -4305    -4503 
   -4324    -3847    -3412    -3227    -3225    -3365    -3647    -3879 
   -3846    -3577    -3246    -2941    -2671    -2492    -2452    -2562 
   -2882    -3433    -3982    -4299    -4452    -4541    -4406    -3952 
   -3458    -3234    -3299    -3600    -4153    -4834    -5319    -5362 
   -4939    -4097    -2963    -1906    -1370    -1533    -2269    -3275 
   -4124    -4491    -4340    -3743    -2853    -2108    -2029    -2740 
   -3925    -5065    -5713    -5675    -4963    -3780    -2511    -1536 
   -1198    -1730    -2928    -4288    -5400    -5891    -5578    -4665 
   -3549    -2656    -2347    -2648    -3285    -3937    -4288    -4126 
   -3574    -2994    -2677    -2731    -3118    -3707    -4326    -4779 
   -4818    -4302    -3408    -2577    -2184    -2303    -2760    -3299 
   -3738    -4048    -4183    -4010    -3545    -3036    -2720    -2637 
   -2798    -3310    -4126    -4908    -5285    -5088    -4342    -3269 
   -2290    -1879    -2255    -3254    -4469    -5414    -5643    -5103 
   -4126    -3022    -2080    -1709    -2074    -2914    -3842    -4519 
   -4693    -4337    -3657    -2965    -2555    -2597    -3107    -3881 
   -4536    -4831    -4793    -4523    -4055    -3476    -2967    -2612 
   -2436    -2556    -3022    -3705    -4361    -4756    -4838    -4714 
   -4398    -3796    -2955    -2128    -1632    -1613    -2019    -2776 
   -3763    -4615    -4959    -4785    -4348    -3831    -3350    -3090 
   -3177    -3468    -3680    -3713    -3613    -3423    -3267    -3268 
   -3370    -3472    -3577    -3720    -3902    -4054    -4102    -4043 
   -3879    -3676    -3618    -3732    -3801    -3680    -3393    -3001 
   -2627    -2443    -2552    -2991    -3609    -4085    -4236    -4118 
   -3809    -3397    -2975    -2629    -2506    -2658    -3013    -3537 
   -4109    -4623    -5086    -5286    -4978    -4349    -3755    -3339 
   -3080    -2984    -3111    -3399    -3685    -3916    -4051    -4000 
   -3848    -3738    -3553    -3156    -2733    -2556    -2737    -3275 
   -3952    -4426    -4517    -4148    -3433    -2709    -2214    -2114 
   -2535    -3246    -3881    -4167    -3955    -3445    -3029    -2928 
   -3191    -3689    -4198    -4542    -4612    -4423    -4095    -3802 
   -3665    -3627    -3632    -3721    -3855    -3894    -3770    -3557 
   -3342    -3111    -2835    -2574    -2432    -2546    -2988    -3541 
   -3881    -4021    -4180    -4365    -4419    -4317    -4209    -4156 
   -4060    -3897    -3674    -3341    -2984    -2789    -2783    -2968 
   -3368    -3808    -4071    -4117    -3956    -3566    -3021    -2555 
   -2388    -2596    -3156    -3906    -4576    -4912    -4780    -4338 
   -3944    -3742    -3677    -3704    -3620    -3194    -2546    -2038 
