Origin Time       2025/03/30 10:18:00
Lat.              34.667
Long.             140.825
Depth. (km)       69
Mag.              4.9
Station Code      CHBH17
Station Lat.      35.1714
Station Long.     140.3398
Station Height(m) -811.7
Record Time       2025/03/30 10:18:50
Sampling Freq(Hz) 100Hz
Duration Time(s)  120
Dir.              3
Scale Factor      2942(gal)/8224139
Max. Acc. (gal)   0.467
Last Correction   2025/03/30 10:18:50
Memo.             
[...]
 -186772  -186742  -186730  -186759  -186746  -186723  -186741  -186763 
 -186752  -186736  -186738  -186742  -186745  -186752  -186742  -186748 
 -186763  -186746  -186741  -186756  -186759  -186746  -186725  -186727 
 -186757  -186761  -186744  -186737  -186745  -186748  -186745  -186761 
 -186759  -186741  -186756  -186742  -186723  -186760  -186759  -186730 
 -186740  -186744  -186738  -186748  -186763  -186752  -186727  -186737 
 -186748  -186732  -186738  -186756  -186753  -186738  -186737  -186745 
 -186738  -186744  -186767  -186767  -186748  -186740  -186736  -186729 
 -186748  -186764  -186734  -186719  -186748  -186754  -186744  -186742 
 -186745  -186754  -186759  -186748  -186736  -186723  -186737  -186760 
 -186750  -186756  -186767  -186733  -186719  -186744  -186748  -186745 
 -186753  -186761  -186757  -186734  -186726  -186746  -186753  -186738 
 -186740  -186753  -186752  -186764  -186756  -186713  -186727  -186771 
 -186744  -186727  -186767  -186775  -186748  -186729  -186730  -186752 
 -186753  -186738  -186745  -186744  -186742  -186754  -186741  -186734 
 -186756  -186765  -186756  -186733  -186730  -186753  -186741  -186730 
 -186759  -186754  -186730  -186736  -186748  -186754  -186756  -186748 
 -186745  -186744  -186749  -186760  -186754  -186742  -186727  -186723 
 -186752  -186759  -186732  -186748  -186767  -186738  -186734  -186749 
 -186744  -186752  -186763  -186748  -186738  -186745  -186746  -186742 
 -186750  -186752  -186746  -186746  -186748  -186759  -186765  -186757 
 -186752  -186749  -186741  -186734  -186742  -186760  -186746  -186714 
 -186727  -186757  -186748  -186744  -186754  -186753  -186759  -186756 
 -186746  -186754  -186741  -186738  -186765  -186748  -186730  -186752 
 -186746  -186742  -186771  -186763  -186740  -186757  -186765  -186749 
 -186754  -186754  -186734  -186741  -186753  -186742  -186746  -186756 
 -186737  -186736  -186765  -186760  -186745  -186761  -186759  -186745 
 -186750  -186749  -186733  -186733  -186760  -186764  -186734  -186744 
 -186756  -186732  -186745  -186776  -186769  -186750  -186738  -186742 
 -186754  -186748  -186740  -186748  -186753  -186744  -186740  -186740 
 -186740  -186753  -186756  -186748  -186752  -186757  -186759  -186752 
 -186740  -186752  -186754  -186741  -186746  -186752  -186745  -186738 
 -186736  -186750  -186763  -186749  -186748  -186756  -186738  -186741 
 -186765  -186753  -186733  -186740  -186753  -186756  -186753  -186745 
 -186740  -186745  -186752  -186746  -186740  -186748  -186744  -186738 
 -186749  -186753  -186749  -186760  -186769  -186756  -186733  -186741 
 -186764  -186748  -186726  -186750  -186761  -186740  -186738  -186756 
 -186760  -186749  -186736  -186737  -186749  -186742  -186730  -186740 
 -186756  -186761  -186745  -186732  -186749  -186757  -186744  -186745 
 -186752  -186746  -186745  -186745  -186741  -186745  -186754  -186749 
 -186748  -186757  -186748  -186737  -186752  -186754  -186741  -186740 
 -186746  -186748  -186740  -186741  -186746  -186745  -186752  -186748 
 -186740  -186757  -186756  -186733  -186744  -186757  -186748  -186740 
 -186725  -186729  -186752  -186749  -186744  -186754  -186756  -186752 
 -186741  -186734  -186748  -186759  -186750  -186749  -186748  -186741 
 -186752  -186754  -186736  -186733  -186750  -186756  -186745  -186729 
 -186736  -186763  -186760  -186742  -186756  -186757  -186730  -186733 
 -186764  -186761  -186730  -186732  -186742  -186726  -186727  -186741 
 -186757  -186760  -186714  -186680  -186699  -186748  -186825  -186825 
 -186714  -186659  -186700  -186746  -186765  -186742  -186718  -186759 
 -186808  -186804  -186765  -186715  -186698  -186761  -186834  -186818 
 -186759  -186732  -186759  -186865  -186973  -186926  -186767  -186625 
 -186480  -186360  -186409  -186633  -186844  -186915  -186907  -186887 
 -186898  -186970  -186915  -186568  -186246  -186306  -186609  -186877 
 -187019  -187091  -187145  -187049  -186808  -186583  -186354  -186213 
 -186367  -186706  -186985  -187145  -187309  -187397  -187118  -186675 
 -186476  -186424  -186381  -186451  -186671  -186903  -186857  -186565 
 -186498  -186706  -186709  -186436  -186378  -186633  -186723  -186649 
 -186923  -187400  -187486  -187197  -186744  -186263  -186175  -186549 
 -186884  -186904  -186672  -186452  -186618  -187034  -187146  -186939 
 -186790  -186711  -186661  -186783  -186984  -187046  -186849  -186424 
 -186205  -186553  -187091  -187257  -186968  -186556  -186570  -186989 
 -187002  -186448  -186116  -186277  -186579  -186852  -187049  -187064 
 -186914  -186892  -187053  -186941  -186603  -186494  -186394  -186111 
 -186158  -186753  -187308  -187220  -186787  -186709  -186860  -186775 
 -186719  -186796  -186494  -186078  -186395  -187177  -187435  -187099 
 -186827  -186753  -186559  -186289  -186160  -186281  -186634  -186819 
 -186759  -187050  -187463  -187161  -186532  -186483  -186796  -186814 
 -186583  -186421  -186426  -186644  -186853  -186752  -186618  -186749 
 -186911  -186941  -186877  -186898  -187177  -187425  -187327  -187057 
 -186865  -186717  -186483  -186421  -186800  -187216  -187147  -186626 
 -186139  -186140  -186426  -186571  -186592  -186549  -186476  -186598 
 -186819  -186852  -186945  -187239  -187154  -186524  -186098  -186408 
 -186834  -186676  -186580  -187051  -187265  -186916  -186680  -186714 
 -186702  -186576  -186552  -186738  -186815  -186664  -186613  -186583 
 -186479  -186669  -186972  -186857  -186471  -186300  -186705  -187363 
 -187442  -186952  -186559  -186624  -187008  -187197  -187072  -187051 
 -187116  -186818  -186190  -185873  -186279  -186826  -186741  -186487 
 -186792  -187142  -187039  -186954  -186972  -186752  -186597  -186656 
 -186466  -186166  -186308  -186702  -187041  -187481  -187544  -186767 
 -186160  -186328  -186622  -186914  -187018  -186462  -185839  -185886 
 -186598  -187556  -187879  -187115  -186163  -185962  -186294  -186772 
 -187374  -187672  -187354  -186956  -186867  -186706  -186356  -186416 
 -187039  -187429  -186943  -186027  -185760  -186479  -187343  -187415 
 -186657  -186021  -186337  -187157  -187516  -187259  -186861  -186599 
 -186378  -186205  -186363  -186942  -187479  -187417  -186903  -186513 
 -186424  -186536  -186723  -186692  -186511  -186690  -186964  -186746 
 -186516  -186795  -187164  -187159  -186714  -186047  -185787  -186413 
 -187290  -187258  -186448  -186062  -186490  -187012  -187083  -186975 
 -187039  -187172  -187204  -187027  -186678  -186312  -185963  -185936 
 -186548  -187284  -187421  -187064  -186835  -186815  -186588  -186298 
 -186430  -186717  -186584  -186409  -186753  -187193  -187231  -186906 
 -186428  -186244  -186563  -186911  -186919  -186854  -187022  -187274 
 -187249  -186952  -186733  -186510  -186255  -186453  -186915  -186912 
 -186484  -186440  -187016  -187224  -186727  -186414  -186381  -186316 
 -186528  -186879  -186899  -186753  -186752  -186763  -186636  -186590 
 -186829  -187270  -187533  -187230  -186561  -186092  -186200  -186736 
 -187058  -187022  -187011  -187008  -186795  -186609  -186865  -187199 
 -186903  -186277  -186120  -186533  -187010  -187178  -187023  -186611 
 -186239  -186289  -186575  -186732  -186844  -186891  -186690  -186538 
 -186605  -186622  -186700  -186862  -186822  -186772  -186921  -186983 
 -186745  -186466  -186642  -187096  -187185  -187142  -187340  -187249 
 -186780  -186646  -186930  -187057  -186759  -186324  -186166  -186321 
 -186630  -186794  -186467  -186105  -186321  -186638  -186709  -186888 
 -186953  -186591  -186399  -186727  -186813  -186231  -185912  -186533 
 -187348  -187578  -187378  -187110  -186977  -187137  -187373  -187224 
 -186827  -186844  -187058  -186796  -186489  -186507  -186339  -186094 
 -186259  -186456  -186198  -185735  -185693  -186302  -186929  -187116 
 -187227  -187293  -187170  -187197  -187184  -186808  -186655  -186865 
 -186826  -186633  -186668  -186552  -186040  -185950  -186779  -187485 
 -187301  -186950  -186954  -186980  -186981  -187180  -187207  -186668 
 -186052  -186069  -186692  -187307  -187371  -187019  -186837  -186825 
 -186521  -186313  -186576  -186495  -185990  -186228  -187146  -187570 
 -187209  -186579  -186142  -186156  -186610  -187061  -186973  -186556 
 -186664  -187412  -187843  -187515  -187081  -186946  -186892  -186840 
 -186722  -186362  -185986  -186105  -186680  -186916  -186561  -186379 
 -186617  -186745  -186553  -186250  -186086  -186220  -186598  -186927 
 -186991  -186938  -186806  -186597  -186686  -187078  -187259  -186992 
 -186498  -186160  -186219  -186659  -187174  -187290  -186992  -186669 
 -186597  -186921  -187227  -186960  -186599  -186825  -187141  -186740 
 -186120  -186233  -186787  -187223  -187604  -187631  -187038  -186318 
 -186102  -186435  -186614  -186398  -186405  -186602  -186652  -186772 
 -186922  -186942  -186902  -186718  -186466  -186470  -186888  -187420 
 -187362  -186687  -186463  -186956  -187118  -186876  -187076  -187348 
 -186883  -186055  -185784  -186201  -186502  -186444  -186660  -187085 
 -187114  -186769  -186460  -186495  -186784  -186896  -186715  -186510 
 -186534  -186813  -187003  -186865  -186634  -186587  -186702  -186653 
 -186325  -186283  -186852  -187438  -187558  -187231  -186633  -186410 
 -187039  -187585  -187069  -186316  -186302  -186499  -186449  -186642 
 -186999  -187004  -186915  -186984  -186903  -186599  -186248  -186104 
 -186499  -187041  -187014  -186831  -187091  -187170  -186493  -185792 
 -185962  -186583  -186826  -186872  -187096  -187370  -187483  -187189 
 -186663  -186501  -186615  -186609  -186614  -186773  -186842  -186655 
 -186489  -186655  -186884  -186802  -186657  -186765  -186763  -186459 
 -186440  -186771  -186900  -186853  -186848  -186838  -186827  -186773 
 -186675  -186753  -186962  -186895  -186567  -186483  -186646  -186610 
 -186456  -186563  -186840  -187110  -187316  -187200  -186792  -186505 
 -186425  -186509  -186741  -186818  -186606  -186520  -186714  -186783 
 -186734  -186864  -186952  -186888  -186792  -186591  -186428  -186387 
 -186278  -186193  -186358  -186781  -187195  -187223  -186926  -186599 
 -186402  -186594  -187212  -187628  -187255  -186517  -186300  -186617 
 -186765  -186611  -186609  -186811  -187003  -187193  -187205  -186915 
 -186806  -187016  -187012  -186707  -186376  -186169  -186331  -186807 
 -187134  -187137  -186985  -186867  -186796  -186684  -186594  -186605 
 -186665  -186611  -186379  -186362  -186916  -187496  -187284  -186686 
 -186645  -186872  -186714  -186487  -186505  -186637  -186895  -187105 
 -186969  -186725  -186756  -186876  -186634  -186270  -186463  -186941 
 -187053  -187068  -187141  -186941  -186652  -186410  -186020  -185800 
 -186092  -186499  -186665  -186796  -186861  -186588  -186424  -186742 
 -186941  -186829  -186902  -187068  -187065  -186966  -186883  -186957 
 -186930  -186553  -186356  -186617  -186813  -186725  -186694  -186877 
 -187020  -186921  -186781  -186780  -186768  -186817  -187002  -187011 
 -186814  -186645  -186576  -186651  -186749  -186773  -186891  -187019 
 -186911  -186736  -186691  -186722  -186881  -187054  -186837  -186367 
 -186290  -186637  -186877  -186798  -186580  -186486  -186609  -186775 
 -186802  -186733  -186679  -186644  -186671  -186748  -186772  -186841 
 -186942  -186939  -186997  -187057  -186729  -186179  -185961  -186262 
 -186840  -187267  -187312  -187070  -186721  -186487  -186557  -186640 
 -186480  -186582  -186992  -187012  -186618  -186371  -186549  -186880 
 -186933  -186757  -186619  -186738  -187174  -187263  -186624  -186174 
 -186308  -186370  -186483  -186952  -187315  -187374  -187266  -187012 
 -186768  -186686  -186668  -186606  -186609  -186734  -186865  -186822 
 -186626  -186660  -186939  -186973  -186757  -186668  -186668  -186571 
 -186505  -186684  -187088  -187284  -186806  -186063  -186028  -186719 
 -187159  -186927  -186590  -186561  -186719  -186902  -186953  -186854 
 -186738  -186582  -186503  -186644  -186645  -186343  -186193  -186337 
 -186575  -186943  -187253  -187134  -186869  -186896  -186881  -186497 
 -186182  -186393  -186904  -187084  -186761  -186557  -186842  -187091 
 -186858  -186447  -186260  -186401  -186853  -187304  -187209  -186688 
 -186530  -186763  -186808  -186740  -186727  -186700  -186875  -187081 
 -186918  -186711  -186792  -186962  -187029  -186926  -186748  -186718 
 -186898  -187006  -186837  -186706  -186769  -186750  -186807  -187046 
 -187019  -186738  -186555  -186395  -186229  -186277  -186503  -186660 
 -186715  -186899  -187228  -187274  -186942  -186792  -186831  -186530 
 -186146  -186228  -186530  -186594  -186634  -187000  -187284  -186996 
 -186556  -186435  -186374  -186278  -186441  -186678  -186665  -186648 
 -186750  -186676  -186348  -186090  -186347  -186941  -186983  -186526 
 -186529  -186773  -186624  -186575  -187024  -187566  -187674  -187288 
 -187097  -187319  -187165  -186626  -186451  -186578  -186673  -186857 
 -187047  -186902  -186532  -186502  -187034  -187544  -187377  -186733 
 -186358  -186513  -186763  -186756  -186713  -186841  -186898  -186757 
 -186582  -186448  -186358  -186413  -186772  -187180  -187135  -186922 
 -186961  -186926  -186788  -186827  -186879  -186823  -186641  -186390 
 -186378  -186588  -186665  -186468  -186324  -186679  -187177  -187149 
 -186857  -186722  -186483  -186079  -185872  -185923  -186059  -186179 
 -186270  -186478  -186958  -187556  -187844  -187701  -187412  -186956 
 -186275  -185841  -186005  -186695  -187551  -188053  -187961  -187401 
 -186804  -186563  -186459  -186246  -186174  -186417  -186894  -187300 
 -187292  -187097  -187010  -186811  -186417  -185996  -185764  -185957 
 -186383  -186694  -186999  -187363  -187489  -187319  -187223  -187212 
 -186884  -186372  -186046  -185886  -185940  -186268  -186741  -187212 
 -187497  -187625  -187567  -187042  -186327  -185965  -185959  -186135 
 -186402  -186715  -186988  -187030  -186938  -186949  -186937  -186705 
 -186360  -186221  -186435  -186767  -186907  -186848  -186759  -186649 
 -186628  -186945  -187369  -187450  -187285  -187192  -187078  -186775 
 -186517  -186538  -186586  -186518  -186682  -186995  -186938  -186552 
 -186243  -186312  -186837  -187232  -187007  -186707  -186794  -187050 
 -187273  -187203  -186783  -186421  -186297  -186416  -186776  -187034 
 -187045  -187108  -187180  -187012  -186856  -186885  -186781  -186570 
 -186632  -186753  -186447  -186047  -186193  -186663  -186941  -187023 
 -186919  -186646  -186478  -186443  -186470  -186665  -186911  -187031 
 -187029  -186873  -186628  -186522  -186621  -186690  -186494  -186210 
 -186178  -186325  -186489  -186765  -186946  -186822  -186741  -186784 
 -186690  -186501  -186336  -186294  -186395  -186536  -186826  -187265 
 -187417  -187114  -186806  -186808  -186854  -186700  -186526  -186530 
 -186621  -186618  -186516  -186579  -186946  -187203  -187083  -186927 
 -186885  -186841  -186871  -186883  -186740  -186736  -187014  -187134 
 -186922  -186790  -186813  -186737  -186791  -187018  -186933  -186640 
 -186592  -186622  -186479  -186313  -186217  -186152  -186243  -186526 
 -186740  -186729  -186642  -186653  -186830  -187046  -187020  -186748 
 -186543  -186518  -186513  -186507  -186664  -186883  -186953  -186912 
 -186864  -186861  -186849  -186848  -187068  -187358  -187405  -187301 
 -187123  -186749  -186316  -186119  -186150  -186277  -186482  -186702 
 -186926  -187182  -187367  -187451  -187450  -187286  -186991  -186711 
 -186644  -186852  -187011  -186919  -186813  -186769  -186661  -186560 
 -186598  -186733  -186761  -186506  -186092  -185847  -185922  -186227 
 -186615  -186956  -187149  -187127  -186907  -186609  -186413  -186405 
 -186474  -186549  -186721  -186953  -187091  -187034  -186794  -186610 
 -186641  -186680  -186597  -186514  -186617  -186979  -187188  -186773 
 -186174  -186186  -186672  -186988  -187138  -187232  -187016  -186641 
 -186395  -186255  -186306  -186587  -187023  -187474  -187624  -187459 
 -187176  -186727  -186251  -186071  -186104  -186131  -186246  -186491 
 -186736  -186939  -187057  -187006  -186895  -186871  -186891  -186879 
 -186814  -186699  -186601  -186574  -186560  -186501  -186436  -186491 
 -186777  -187122  -187168  -186954  -186779  -186663  -186641  -186879 
 -187192  -187269  -187261  -187393  -187413  -187101  -186802  -186699 
 -186495  -186270  -186416  -186815  -187012  -186861  -186686  -186714 
 -186653  -186321  -186062  -186078  -186117  -186067  -186185  -186544 
 -186875  -186969  -186875  -186865  -187077  -187219  -187057  -186848 
 -186864  -186937  -186915  -186997  -187204  -187332  -187377  -187350 
 -187205  -186922  -186538  -186347  -186463  -186586  -186626  -186726 
 -186804  -186619  -186170  -185823  -185996  -186549  -186831  -186598 
 -186321  -186402  -186630  -186680  -186634  -186703  -186826  -186753 
 -186574  -186703  -187065  -187207  -187143  -187135  -187137  -187074 
 -186981  -186853  -186817  -186916  -187016  -187186  -187392  -187369 
 -187201  -187073  -186919  -186788  -186705  -186528  -186305  -186248 
 -186405  -186495  -186339  -186187  -186132  -186063  -186125  -186370 
 -186678  -186958  -186964  -186672  -186502  -186436  -186264  -186298 
 -186540  -186680  -186821  -186964  -186984  -186960  -186910  -186926 
 -187119  -187265  -187107  -186683  -186259  -186071  -186201  -186571 
 -186894  -187050  -187253  -187471  -187444  -187150  -186834  -186722 
 -186794  -186846  -186780  -186732  -186871  -187093  -187173  -187139 
 -187062  -186907  -186786  -186722  -186619  -186598  -186750  -186861 
 -186803  -186742  -186764  -186838  -186916  -186848  -186633  -186443 
 -186305  -186259  -186390  -186534  -186468  -186270  -186201  -186399 
 -186653  -186702  -186640  -186580  -186511  -186538  -186709  -186883 
 -186973  -187112  -187347  -187442  -187373  -187336  -187294  -187224 
 -187091  -186709  -186331  -186375  -186598  -186637  -186624  -186669 
 -186659  -186543  -186447  -186526  -186613  -186405  -186025  -185796 
 -185858  -186167  -186502  -186655  -186667  -186725  -186880  -187073 
 -187222  -187188  -187022  -186918  -186888  -186954  -187119  -187247 
 -187397  -187537  -187416  -187127  -186891  -186729  -186638  -186534 
 -186390  -186359  -186447  -186478  -186466  -186543  -186640  -186709 
 -186831  -186877  -186726  -186561  -186534  -186570  -186583  -186592 
 -186578  -186537  -186572  -186718  -186918  -187083  -187115  -187047 
 -186966  -186883  -186830  -186833  -186891  -187014  -187042  -186868 
 -186753  -186848  -186926  -186900  -186852  -186792  -186763  -186752 
 -186706  -186597  -186395  -186312  -186490  -186576  -186462  -186480 
 -186675  -186864  -186964  -186968  -186891  -186679  -186506  -186547 
 -186640  -186702  -186671  -186494  -186457  -186638  -186777  -186821 
 -186869  -186941  -186997  -187037  -187076  -187080  -187050  -187092 
 -187180  -187099  -186827  -186618  -186522  -186416  -186349  -186316 
 -186256  -186298  -186370  -186337  -186413  -186611  -186719  -186868 
 -187131  -187176  -186927  -186773  -186842  -186945  -187046  -187061 
 -186858  -186667  -186695  -186781  -186790  -186798  -186880  -186910 
 -186729  -186448  -186256  -186198  -186300  -186532  -186795  -186960 
 -186964  -186938  -186943  -186922  -186979  -187128  -187204  -187243 
