Origin Time       2025/03/30 10:18:00
Lat.              34.667
Long.             140.825
Depth. (km)       69
Mag.              4.9
Station Code      CHBH19
Station Lat.      35.5943
Station Long.     140.5107
Station Height(m) 1
Record Time       2025/03/30 10:19:03
Sampling Freq(Hz) 100Hz
Duration Time(s)  120
Dir.              4
Scale Factor      7845(gal)/8223790
Max. Acc. (gal)   1.234
Last Correction   2025/03/30 10:19:03
Memo.             
[...]
   -8105    -8101    -8047    -7959    -7916    -7942    -8014    -8074 
   -8086    -8100    -8108    -8073    -8013    -7946    -7908    -7933 
   -7983    -8017    -8012    -7974    -7973    -8013    -8046    -8068 
   -8093    -8100    -8073    -8019    -7956    -7924    -7967    -8073 
   -8179    -8225    -8199    -8156    -8135    -8101    -8055    -8067 
   -8101    -8077    -8021    -7993    -8006    -8029    -8032    -8047 
   -8091    -8141    -8181    -8160    -8100    -8068    -8046    -7986 
   -7917    -7869    -7842    -7854    -7902    -7952    -7985    -7994 
   -8005    -8013    -7981    -7923    -7890    -7890    -7893    -7884 
   -7886    -7938    -8025    -8087    -8090    -8070    -8079    -8121 
   -8140    -8100    -8016    -7936    -7935    -7998    -8028    -7996 
   -7946    -7939    -7997    -8060    -8090    -8056    -7950    -7885 
   -7939    -8037    -8089    -8100    -8102    -8082    -8058    -8044 
   -7992    -7955    -8000    -8067    -8137    -8190    -8182    -8149 
   -8104    -8062    -8062    -8082    -8090    -8086    -8052    -8009 
   -8013    -8021    -7973    -7940    -7990    -8062    -8089    -8056 
   -8013    -8002    -7983    -7969    -7994    -8008    -8000    -7978 
   -7920    -7889    -7935    -8029    -8116    -8131    -8075    -7993 
   -7923    -7901    -7940    -7992    -8009    -8021    -8068    -8129 
   -8135    -8060    -7969    -7917    -7912    -7928    -7939    -7978 
   -8050    -8108    -8158    -8170    -8097    -8000    -7965    -8010 
   -8059    -8040    -7966    -7877    -7847    -7940    -8085    -8132 
   -8078    -8035    -8023    -8005    -7970    -7936    -7946    -7978 
   -7951    -7898    -7940    -8073    -8199    -8255    -8202    -8060 
   -7920    -7834    -7840    -7958    -8087    -8131    -8132    -8152 
   -8171    -8147    -8056    -7956    -7924    -7955    -7998    -8016 
   -8012    -8050    -8108    -8093    -8028    -7985    -7960    -7944 
   -7956    -7989    -8029    -8100    -8176    -8182    -8062    -7893 
   -7803    -7813    -7862    -7906    -7981    -8113    -8228    -8241 
   -8176    -8081    -8002    -7979    -8002    -8055    -8135    -8193 
   -8152    -8028    -7902    -7844    -7878    -7938    -7952    -7954 
   -7942    -7925    -7963    -8014    -8039    -8090    -8164    -8185 
   -8133    -8070    -8009    -7920    -7825    -7778    -7786    -7828 
   -7889    -7974    -8082    -8187    -8256    -8274    -8239    -8167 
   -8082    -7973    -7867    -7851    -7897    -7939    -8008    -8044 
   -8001    -7974    -7998    -8094    -8260    -8316    -8174    -7997 
   -7893    -7869    -7943    -8073    -8132    -8086    -8002    -7944 
   -7927    -7951    -7997    -8028    -8044    -8106    -8186    -8195 
   -8159    -8137    -8131    -8108    -8048    -8013    -8035    -8021 
   -7938    -7871    -7886    -7958    -8017    -8010    -7946    -7906 
   -7978    -8097    -8120    -8044    -8036    -8128    -8154    -8036 
   -7890    -7834    -7852    -7879    -7906    -7932    -7919    -7904 
   -7948    -7979    -7950    -7931    -7952    -7992    -8029    -8074 
   -8110    -8070    -7952    -7862    -7848    -7882    -7951    -8032 
   -8074    -8070    -8071    -8114    -8140    -8095    -8059    -8079 
   -8095    -8087    -8100    -8143    -8172    -8124    -8019    -7954 
   -7975    -8044    -8108    -8117    -8060    -7998    -7981    -8016 
   -8077    -8113    -8120    -8155    -8205    -8185    -8089    -7974 
   -7915    -7940    -7974    -8006    -8056    -8066    -8063    -8100 
   -8133    -8125    -8067    -8004    -7992    -7989    -7960    -7940 
   -7927    -7912    -7873    -7771    -7685    -7709    -7831    -8008 
   -8128    -8112    -8066    -8037    -7950    -7852    -7863    -7982 
   -8100    -8128    -8113    -8104    -8095    -8081    -8047    -8046 
   -8077    -8031    -7933    -7874    -7866    -7948    -8102    -8233 
   -8302    -8309    -8264    -8202    -8141    -8074    -8024    -8009 
   -7979    -7901    -7823    -7803    -7831    -7873    -7939    -8037 
   -8102    -8098    -8085    -8113    -8133    -8095    -8050    -8052 
   -8090    -8139    -8162    -8109    -8017    -7952    -7933    -7948 
   -7938    -7901    -7905    -7948    -8019    -8102    -8141    -8116 
   -8039    -7935    -7884    -7913    -7962    -8004    -8039    -8033 
   -7997    -7987    -7982    -7927    -7857    -7846    -7908    -7986 
   -8029    -8046    -8035    -7990    -7962    -7978    -8004    -8033 
   -8063    -8044    -7960    -7884    -7890    -7985    -8109    -8218 
   -8279    -8252    -8141    -8001    -7902    -7890    -7952    -8017 
   -8051    -8094    -8122    -8106    -8104    -8149    -8181    -8155 
   -8073    -7948    -7852    -7862    -7944    -8001    -7998    -7987 
   -8027    -8094    -8114    -8056    -8001    -7989    -7977    -7986 
   -8063    -8166    -8241    -8247    -8198    -8166    -8147    -8085 
   -7998    -7956    -7992    -8086    -8155    -8098    -7917    -7743 
   -7700    -7771    -7865    -7969    -8087    -8156    -8149    -8104 
   -8032    -7956    -7892    -7827    -7800    -7836    -7877    -7882 
   -7881    -7911    -7943    -7954    -7973    -8009    -8054    -8109 
   -8151    -8145    -8116    -8112    -8112    -8091    -8086    -8091 
   -8064    -8009    -7954    -7905    -7888    -7924    -7978    -8023 
   -8062    -8078    -8085    -8116    -8152    -8158    -8128    -8104 
   -8089    -8067    -8048    -8010    -7987    -8029    -8052    -8027 
   -8017    -8012    -8040    -8121    -8133    -8050    -7997    -8000 
   -8002    -8017    -8075    -8156    -8190    -8152    -8101    -8021 
   -7894    -7808    -7792    -7809    -7834    -7828    -7839    -7946 
   -8101    -8218    -8222    -8100    -7963    -7888    -7857    -7861 
   -7862    -7858    -7897    -7923    -7859    -7788    -7817    -7947 
   -8081    -8147    -8174    -8194    -8183    -8144    -8101    -8071 
   -8050    -8004    -7965    -8010    -8110    -8187    -8208    -8154 
   -8058    -7975    -7942    -7974    -8063    -8162    -8233    -8280 
   -8295    -8229    -8077    -7915    -7821    -7781    -7749    -7755 
   -7821    -7911    -8008    -8078    -8094    -8121    -8208    -8302 
   -8328    -8256    -8131    -8021    -7927    -7846    -7842    -7944 
   -8064    -8102    -8074    -8037    -8014    -7986    -7947    -7924 
   -7921    -7935    -7965    -8004    -8054    -8121    -8178    -8187 
   -8152    -8109    -8110    -8110    -8004    -7834    -7740    -7730 
   -7744    -7801    -7912    -8036    -8125    -8140    -8075    -8006 
   -8005    -8033    -8014    -7975    -7975    -8014    -8070    -8094 
   -8037    -7944    -7908    -7958    -8020    -8012    -7933    -7832 
   -7801    -7909    -8058    -8128    -8143    -8122    -8048    -7942 
   -7835    -7776    -7828    -7973    -8124    -8233    -8271    -8239 
   -8182    -8129    -8100    -8082    -8067    -8068    -8067    -8027 
   -7978    -7942    -7939    -8008    -8082    -8081    -8048    -8064 
   -8158    -8266    -8286    -8218    -8143    -8085    -8041    -8002 
   -7952    -7938    -8006    -8091    -8102    -8040    -7960    -7877 
   -7798    -7763    -7769    -7789    -7821    -7862    -7933    -8056 
   -8174    -8214    -8178    -8082    -7982    -7952    -7946    -7861 
   -7773    -7804    -7919    -8016    -8067    -8097    -8108    -8081 
   -8024    -7994    -8043    -8128    -8154    -8121    -8089    -8068 
   -8089    -8141    -8143    -8068    -7962    -7882    -7861    -7892 
   -7978    -8095    -8175    -8191    -8172    -8143    -8100    -8071 
   -8063    -8028    -7947    -7886    -7902    -7978    -8070    -8160 
   -8221    -8214    -8155    -8066    -7936    -7798    -7711    -7692 
   -7734    -7840    -8014    -8202    -8305    -8291    -8208    -8083 
   -7933    -7813    -7754    -7723    -7700    -7728    -7855    -8033 
   -8176    -8245    -8239    -8179    -8125    -8085    -8041    -7992 
   -7933    -7898    -7925    -8000    -8074    -8125    -8158    -8181 
   -8168    -8097    -8029    -8037    -8079    -8089    -8071    -8050 
   -8006    -7938    -7898    -7932    -8004    -8058    -8082    -8056 
   -8013    -7983    -7943    -7915    -7944    -8002    -8035    -8028 
   -7996    -7966    -7974    -8036    -8105    -8105    -8060    -8062 
   -8077    -8035    -7978    -7975    -8010    -8032    -8013    -7965 
   -7928    -7948    -8014    -8073    -8090    -8073    -8039    -8035 
   -8098    -8178    -8222    -8237    -8221    -8197    -8212    -8218 
   -8152    -8067    -8025    -7996    -7938    -7863    -7816    -7835 
   -7913    -8010    -8082    -8102    -8068    -7986    -7863    -7757 
   -7717    -7744    -7808    -7879    -7996    -8166    -8291    -8313 
   -8295    -8294    -8241    -8071    -7848    -7715    -7731    -7862 
   -8033    -8149    -8172    -8149    -8106    -8058    -8062    -8091 
   -8060    -7981    -7913    -7892    -7948    -8095    -8275    -8383 
   -8382    -8311    -8214    -8121    -8033    -7927    -7796    -7666 
   -7546    -7484    -7549    -7727    -7956    -8178    -8340    -8441 
   -8496    -8471    -8372    -8248    -8118    -8014    -7951    -7913 
   -7915    -7940    -7943    -7893    -7781    -7654    -7574    -7550 
   -7578    -7653    -7704    -7722    -7776    -7874    -7965    -8035 
   -8097    -8131    -8121    -8046    -7879    -7688    -7565    -7523 
   -7555    -7657    -7796    -7963    -8106    -8122    -7998    -7877 
   -7896    -8056    -8255    -8418    -8549    -8669    -8753    -8754 
   -8660    -8510    -8332    -8124    -7917    -7758    -7673    -7676 
   -7722    -7765    -7842    -7982    -8140    -8280    -8374    -8376 
   -8260    -8059    -7877    -7776    -7732    -7731    -7816    -8047 
   -8378    -8668    -8847    -8924    -8885    -8718    -8479    -8245 
   -8087    -8028    -8002    -7958    -7896    -7812    -7704    -7566 
   -7399    -7238    -7155    -7188    -7315    -7496    -7708    -7919 
   -8063    -8095    -8032    -7950    -7940    -8021    -8118    -8178 
   -8191    -8156    -8100    -8056    -8019    -7962    -7923    -7979 
   -8091    -8135    -8071    -7948    -7827    -7800    -7932    -8166 
   -8364    -8432    -8399    -8379    -8426    -8507    -8567    -8529 
   -8329    -7993    -7659    -7460    -7454    -7616    -7847    -8035 
   -8114    -8112    -8122    -8201    -8324    -8425    -8451    -8432 
   -8455    -8537    -8576    -8482    -8295    -8078    -7842    -7603 
   -7365    -7136    -6945    -6868    -6970    -7227    -7554    -7886 
   -8199    -8437    -8479    -8302    -8068    -7916    -7813    -7703 
   -7612    -7626    -7803    -8083    -8306    -8387    -8372    -8284 
   -8128    -7996    -7998    -8140    -8313    -8379    -8276    -8086 
   -7971    -7982    -8019    -8035    -8041    -8033    -8029    -8043 
   -8066    -8089    -8071    -8008    -7962    -7950    -7942    -7956 
   -7989    -7998    -7989    -8002    -8046    -8090    -8101    -8081 
   -8037    -8013    -8109    -8291    -8403    -8395    -8284    -8127 
   -8031    -7998    -7996    -8055    -8179    -8307    -8367    -8299 
   -8127    -7916    -7712    -7578    -7555    -7630    -7798    -8020 
   -8189    -8230    -8156    -8006    -7820    -7677    -7688    -7843 
   -8001    -8081    -8074    -7970    -7838    -7796    -7861    -7952 
   -8005    -8016    -7979    -7892    -7816    -7825    -7884    -7904 
   -7836    -7701    -7634    -7750    -8005    -8302    -8567    -8727 
   -8741    -8613    -8374    -8077    -7817    -7653    -7592    -7681 
   -7893    -8083    -8167    -8176    -8186    -8275    -8461    -8633 
   -8640    -8491    -8302    -8118    -7935    -7774    -7676    -7659 
   -7722    -7843    -7971    -8071    -8139    -8148    -8094    -8016 
   -7935    -7898    -7920    -7942    -7932    -7855    -7690    -7561 
   -7627    -7892    -8239    -8538    -8685    -8625    -8390    -8117 
   -7956    -7983    -8124    -8198    -8108    -7859    -7520    -7242 
   -7175    -7325    -7580    -7832    -8001    -8029    -7948    -7882 
   -7946    -8147    -8355    -8432    -8341    -8143    -7970    -7921 
   -7982    -8074    -8160    -8216    -8176    -8023    -7817    -7645 
   -7578    -7657    -7866    -8133    -8360    -8473    -8415    -8208 
   -7970    -7811    -7801    -7942    -8129    -8278    -8328    -8225 
   -8025    -7861    -7793    -7819    -7890    -7929    -7911    -7886 
   -7873    -7873    -7925    -8037    -8179    -8310    -8349    -8235 
   -8006    -7766    -7603    -7577    -7717    -8001    -8330    -8554 
   -8571    -8411    -8224    -8117    -8108    -8191    -8298    -8309 
   -8236    -8172    -8145    -8162    -8236    -8321    -8361    -8360 
   -8355    -8316    -8185    -8024    -7923    -7839    -7774    -7761 
   -7757    -7765    -7851    -8008    -8159    -8210    -8114    -7902 
   -7680    -7569    -7601    -7696    -7797    -7911    -8040    -8148 
   -8179    -8136    -8066    -7997    -7923    -7836    -7751    -7705 
   -7754    -7894    -8046    -8137    -8129    -8008    -7825    -7661 
   -7542    -7480    -7535    -7740    -8012    -8249    -8430    -8530 
   -8484    -8279    -8005    -7774    -7658    -7655    -7716    -7793 
   -7863    -7919    -7981    -8078    -8197    -8325    -8411    -8399 
   -8301    -8127    -7886    -7661    -7533    -7537    -7668    -7857 
   -8017    -8105    -8090    -7978    -7862    -7865    -8039    -8343 
   -8699    -9027    -9251    -9315    -9196    -8910    -8506    -8063 
   -7654    -7352    -7276    -7461    -7751    -7996    -8147    -8205 
   -8193    -8109    -7967    -7827    -7716    -7645    -7638    -7761 
   -8048    -8405    -8653    -8656    -8374    -7935    -7547    -7325 
   -7261    -7299    -7356    -7381    -7403    -7470    -7596    -7754 
   -7886    -7959    -7994    -8035    -8110    -8243    -8442    -8664 
   -8824    -8858    -8737    -8530    -8349    -8222    -8104    -7925 
   -7709    -7604    -7715    -7994    -8272    -8379    -8252    -8000 
   -7832    -7851    -7990    -8191    -8413    -8515    -8351    -7933 
   -7461    -7163    -7109    -7222    -7416    -7631    -7834    -7994 
   -8060    -8010    -7894    -7807    -7832    -7992    -8230    -8506 
   -8797    -8989    -8922    -8595    -8181    -7823    -7543    -7338 
   -7265    -7398    -7717    -8143    -8565    -8865    -8989    -8922 
   -8644    -8245    -7904    -7716    -7665    -7742    -7928    -8108 
   -8163    -8091    -7959    -7835    -7767    -7823    -7987    -8151 
   -8247    -8249    -8139    -7974    -7874    -7901    -7983    -8032 
   -8063    -8094    -8102    -8089    -8056    -7997    -7893    -7732 
   -7570    -7479    -7450    -7457    -7491    -7574    -7711    -7836 
   -7911    -7952    -7974    -7983    -8013    -8070    -8102    -8110 
   -8162    -8290    -8428    -8469    -8360    -8128    -7920    -7858 
   -7920    -8050    -8210    -8337    -8399    -8464    -8556    -8621 
   -8618    -8536    -8357    -8109    -7865    -7697    -7619    -7612 
   -7650    -7676    -7657    -7623    -7646    -7797    -8029    -8236 
   -8394    -8510    -8518    -8406    -8247    -8079    -7909    -7759 
   -7674    -7689    -7782    -7916    -8052    -8113    -8037    -7844 
   -7645    -7589    -7699    -7901    -8160    -8424    -8561    -8492 
   -8290    -8117    -8059    -8047    -8028    -8024    -8005    -7927 
   -7788    -7632    -7555    -7628    -7809    -7969    -7992    -7879 
   -7719    -7584    -7528    -7577    -7684    -7792    -7889    -7978 
   -8095    -8291    -8484    -8538    -8471    -8360    -8216    -8036 
   -7839    -7692    -7727    -7975    -8290    -8513    -8606    -8631 
   -8635    -8584    -8445    -8257    -8102    -8033    -8013    -7986 
   -8009    -8137    -8286    -8348    -8322    -8263    -8151    -7951 
   -7724    -7528    -7399    -7427    -7620    -7835    -7983    -8089 
   -8158    -8131    -7982    -7831    -7793    -7825    -7873    -7924 
   -7943    -7929    -7924    -7963    -8085    -8302    -8545    -8695 
   -8665    -8460    -8186    -7946    -7797    -7757    -7786    -7815 
   -7831    -7865    -7917    -7938    -7873    -7728    -7555    -7402 
   -7291    -7269    -7422    -7753    -8151    -8498    -8711    -8761 
   -8649    -8399    -8064    -7755    -7580    -7565    -7670    -7842 
   -7998    -8075    -8120    -8178    -8199    -8140    -8040    -7974 
   -7969    -8021    -8137    -8284    -8387    -8403    -8340    -8233 
   -8132    -8056    -8008    -8021    -8132    -8271    -8325    -8267 
   -8158    -8068    -8008    -7942    -7870    -7807    -7763    -7778 
   -7851    -7911    -7924    -7936    -7971    -7967    -7881    -7790 
   -7809    -7948    -8154    -8352    -8473    -8515    -8521    -8473 
   -8305    -8043    -7811    -7697    -7681    -7700    -7727    -7780 
   -7873    -7966    -8002    -7975    -7915    -7854    -7858    -7981 
   -8167    -8294    -8276    -8077    -7739    -7372    -7088    -6991 
   -7109    -7377    -7682    -7890    -7973    -8028    -8113    -8213 
   -8309    -8357    -8353    -8349    -8374    -8422    -8469    -8451 
   -8328    -8131    -7956    -7927    -8067    -8284    -8476    -8557 
   -8498    -8368    -8252    -8155    -8068    -8005    -7970    -7954 
   -7956    -7967    -7971    -7974    -7947    -7855    -7776    -7812 
   -7944    -8079    -8195    -8314    -8425    -8484    -8464    -8370 
   -8243    -8117    -8021    -7973    -7954    -7954    -7985    -8014 
   -7994    -7947    -7939    -7970    -7998    -8002    -8008    -8024 
   -8017    -7963    -7879    -7812    -7803    -7838    -7836    -7766 
   -7707    -7700    -7712    -7736    -7792    -7867    -7900    -7832 
   -7690    -7587    -7607    -7712    -7788    -7825    -7877    -7927 
   -7956    -7989    -8029    -8055    -8051    -8035    -8028    -8024 
   -8029    -8056    -8074    -8054    -8040    -8047    -8020    -8002 
   -8068    -8166    -8235    -8295    -8328    -8310    -8314    -8382 
   -8457    -8514    -8564    -8603    -8633    -8653    -8633    -8526 
   -8318    -8028    -7724    -7520    -7497    -7650    -7897    -8131 
   -8280    -8328    -8275    -8158    -8043    -7963    -7915    -7851 
   -7708    -7522    -7423    -7446    -7541    -7709    -7923    -8082 
   -8132    -8082    -7956    -7820    -7766    -7820    -7898    -7920 
   -7865    -7778    -7751    -7850    -8025    -8140    -8137    -8066 
   -7992    -7960    -8020    -8143    -8235    -8264    -8268    -8256 
   -8197    -8113    -8051    -8000    -7967    -8001    -8056    -8060 
   -8013    -7932    -7839    -7792    -7809    -7839    -7832    -7798 
   -7794    -7857    -7993    -8160    -8270    -8298    -8306    -8316 
   -8313    -8299    -8276    -8244    -8170    -8055    -7959    -7902 
   -7865    -7832    -7816    -7863    -7977    -8098    -8178    -8174 
   -8100    -8016    -7973    -8013    -8114    -8163    -8127    -8082 
   -8086    -8140    -8226    -8307    -8353    -8394    -8437    -8440 
   -8383    -8284    -8162    -8035    -7916    -7807    -7697    -7615 
   -7627    -7742    -7892    -8008    -8058    -8019    -7889    -7713 
   -7572    -7515    -7547    -7632    -7724    -7790    -7809    -7780 
   -7730    -7715    -7769    -7873    -7989    -8089    -8147    -8174 
