Origin Time       2025/03/30 10:18:00
Lat.              34.667
Long.             140.825
Depth. (km)       69
Mag.              4.9
Station Code      CHBH19
Station Lat.      35.5943
Station Long.     140.5107
Station Height(m) -1629
Record Time       2025/03/30 10:19:03
Sampling Freq(Hz) 100Hz
Duration Time(s)  120
Dir.              2
Scale Factor      2942(gal)/8224139
Max. Acc. (gal)   0.173
Last Correction   2025/03/30 10:19:03
Memo.             
[...]
  124131   124143   124144   124137   124129   124120   124106   124104 
  124116   124124   124124   124132   124151   124171   124182   124181 
  124175   124166   124156   124154   124147   124139   124144   124154 
  124154   124146   124131   124121   124109   124092   124086   124089 
  124073   124065   124092   124119   124123   124113   124104   124096 
  124090   124086   124086   124081   124077   124090   124101   124097 
  124105   124124   124128   124120   124106   124094   124090   124090 
  124100   124125   124146   124139   124117   124109   124109   124090 
  124062   124047   124048   124060   124087   124133   124166   124164 
  124163   124164   124133   124085   124062   124055   124052   124066 
  124096   124117   124135   124154   124163   124167   124156   124129 
  124127   124158   124166   124143   124140   124164   124174   124150 
  124119   124116   124136   124141   124125   124117   124119   124113 
  124119   124121   124092   124056   124079   124125   124135   124125 
  124119   124127   124158   124175   124152   124104   124058   124040 
  124062   124077   124062   124050   124059   124077   124108   124147 
  124168   124151   124117   124112   124125   124120   124112   124108 
  124083   124074   124106   124151   124166   124132   124089   124104 
  124159   124179   124146   124102   124086   124092   124108   124125 
  124119   124094   124090   124113   124136   124137   124123   124110 
  124106   124110   124128   124129   124105   124104   124131   124140 
  124129   124133   124154   124168   124146   124092   124069   124079 
  124092   124108   124123   124105   124090   124119   124140   124114 
  124112   124146   124135   124081   124060   124087   124116   124127 
  124133   124123   124108   124139   124193   124174   124085   124039 
  124059   124085   124097   124124   124147   124147   124147   124146 
  124129   124116   124120   124121   124101   124075   124059   124047 
  124052   124096   124156   124205   124213   124185   124170   124175 
  124167   124140   124094   124046   124047   124105   124137   124127 
  124119   124113   124108   124109   124110   124105   124098   124100 
  124123   124146   124146   124144   124135   124106   124104   124127 
  124124   124112   124121   124112   124067   124040   124069   124094 
  124062   124043   124085   124106   124104   124139   124168   124139 
  124109   124125   124136   124123   124127   124117   124083   124101 
  124154   124154   124119   124132   124175   124166   124128   124114 
  124086   124069   124101   124117   124105   124128   124160   124148 
  124128   124143   124144   124117   124128   124148   124140   124140 
  124116   124071   124094   124137   124132   124129   124141   124133 
  124105   124082   124098   124114   124079   124066   124112   124147 
  124144   124143   124166   124173   124143   124133   124144   124125 
  124083   124065   124078   124090   124082   124075   124079   124090 
  124123   124155   124119   124029   124012   124092   124150   124131 
  124108   124128   124154   124160   124158   124124   124071   124058 
  124060   124032   124050   124121   124141   124124   124137   124150 
  124146   124150   124129   124082   124082   124128   124131   124083 
  124079   124120   124144   124155   124160   124155   124179   124220 
  124195   124129   124124   124156   124143   124129   124141   124125 
  124102   124124   124152   124155   124136   124101   124082   124086 
  124087   124075   124066   124052   124032   124051   124089   124089 
  124106   124144   124100   124028   124056   124123   124121   124059 
  124025   124074   124144   124163   124151   124151   124174   124194 
  124168   124110   124089   124102   124104   124123   124148   124144 
  124136   124133   124128   124132   124123   124105   124110   124114 
  124113   124120   124102   124077   124116   124168   124135   124069 
  124075   124140   124171   124114   124046   124065   124139   124178 
  124166   124127   124087   124108   124187   124213   124160   124139 
  124143   124104   124077   124085   124060   124048   124087   124108 
  124110   124124   124117   124123   124135   124105   124083   124087 
  124094   124092   124063   124058   124092   124100   124108   124160 
  124186   124136   124090   124078   124052   124031   124066   124129 
  124151   124147   124178   124202   124174   124127   124125   124158 
  124148   124106   124116   124168   124206   124227   124229   124213 
  124173   124119   124112   124139   124094   124021   124036   124102 
  124127   124114   124093   124083   124078   124069   124073   124085 
  124094   124110   124106   124089   124098   124102   124101   124139 
  124163   124123   124069   124063   124100   124124   124131   124133 
  124106   124105   124179   124205   124112   124055   124108   124120 
  124048   124025   124074   124114   124144   124158   124105   124056 
  124090   124121   124098   124093   124105   124086   124065   124078 
  124094   124109   124137   124135   124125   124154   124155   124132 
  124129   124135   124152   124160   124128   124116   124170   124235 
  124245   124213   124177   124132   124083   124054   124059   124086 
  124078   124055   124086   124125   124129   124133   124135   124137 
  124151   124117   124062   124079   124105   124060   124050   124108 
  124125   124105   124104   124104   124121   124174   124179   124114 
  124073   124074   124054   124067   124137   124141   124105   124148 
  124200   124193   124173   124105   124021   124063   124139   124086 
  124027   124077   124109   124083   124101   124147   124143   124123 
  124151   124187   124156   124090   124090   124116   124109   124154 
  124212   124187   124181   124206   124175   124137   124102   124043 
  124042   124082   124101   124146   124178   124147   124120   124093 
  124047   124054   124083   124054   124011   124036   124124   124187 
  124174   124109   124047   124062   124146   124139   124065   124086 
  124120   124085   124077   124104   124124   124127   124093   124047 
  124054   124108   124136   124098   124073   124119   124155   124121 
  124100   124133   124164   124173   124178   124179   124187   124218 
  124229   124190   124148   124119   124083   124087   124108   124069 
  124070   124159   124177   124137   124127   124078   124017   124032 
  124089   124125   124131   124125   124132   124131   124125   124158 
  124177   124148   124133   124121   124093   124106   124119   124083 
  124056   124048   124066   124116   124114   124085   124112   124140 
  124113   124074   124085   124125   124131   124114   124105   124070 
  124059   124131   124174   124140   124121   124120   124094   124082 
  124125   124159   124125   124104   124131   124140   124143   124156 
  124139   124106   124105   124116   124101   124087   124086   124075 
  124073   124086   124106   124146   124182   124191   124197   124220 
  124240   124237   124216   124163   124098   124052   124033   124055 
  124093   124117   124148   124154   124110   124083   124093   124090 
  124078   124087   124108   124100   124071   124081   124128   124143 
  124079   124001   124000   124066   124109   124073   124017   124054 
  124136   124159   124139   124112   124104   124128   124137   124106 
  124100   124155   124212   124194   124124   124085   124114   124158 
  124170   124155   124123   124105   124110   124097   124089   124123 
  124139   124135   124143   124086   123998   124015   124083   124125 
  124144   124136   124135   124185   124217   124150   124081   124109 
  124146   124148   124173   124167   124116   124100   124108   124097 
  124096   124125   124155   124162   124148   124113   124071   124054 
  124036   124038   124108   124175   124166   124129   124120   124123 
  124116   124119   124146   124167   124159   124124   124081   124077 
  124105   124110   124086   124082   124137   124190   124166   124128 
  124117   124105   124113   124114   124062   124039   124077   124096 
  124093   124112   124131   124127   124098   124058   124047   124079 
  124092   124048   124001   124013   124086   124151   124158   124146 
  124166   124204   124218   124185   124123   124086   124093   124128 
  124151   124155   124173   124204   124206   124151   124086   124083 
  124110   124123   124140   124143   124105   124083   124124   124171 
  124179   124164   124147   124150   124152   124119   124092   124075 
  124043   124078   124179   124202   124127   124058   124039   124029 
  124027   124069   124100   124105   124178   124249   124197   124108 
  124089   124077   124012   123955   123969   124013   124050   124078 
  124090   124104   124146   124175   124160   124131   124106   124083 
  124055   124060   124105   124109   124081   124079   124075   124079 
  124117   124102   124020   123998   124069   124127   124136   124141 
  124181   124237   124272   124271   124248   124220   124214   124256 
  124282   124236   124168   124112   124047   124019   124036   124052 
  124096   124173   124174   124109   124081   124067   124039   124031 
  124042   124042   124077   124185   124247   124187   124132   124150 
  124155   124133   124129   124128   124113   124108   124133   124186 
  124208   124164   124113   124100   124119   124127   124090   124043 
  124029   124025   124015   124001   123989   124035   124131   124164 
  124150   124139   124116   124124   124164   124156   124109   124086 
  124081   124092   124132   124144   124124   124131   124137   124112 
  124086   124081   124079   124078   124117   124156   124146   124144 
  124137   124106   124125   124141   124089   124067   124101   124101 
  124081   124082   124062   124044   124082   124109   124083   124071 
  124096   124104   124101   124131   124152   124137   124150   124206 
  124217   124173   124152   124139   124094   124066   124089   124140 
  124170   124163   124150   124132   124125   124146   124156   124144 
  124144   124141   124106   124085   124102   124110   124105   124119 
  124110   124086   124128   124189   124190   124168   124143   124105 
  124087   124100   124119   124131   124148   124168   124136   124086 
  124112   124150   124127   124086   124063   124078   124096   124065 
  124060   124125   124162   124117   124052   124029   124058   124085 
  124074   124074   124104   124108   124089   124070   124036   124029 
  124096   124163   124156   124128   124132   124121   124074   124059 
  124085   124102   124112   124129   124116   124086   124093   124101 
  124092   124124   124166   124156   124163   124213   124216   124190 
  124193   124167   124123   124094   124052   124036   124079   124135 
  124159   124148   124141   124163   124171   124151   124146   124151 
  124128   124101   124085   124059   124052   124079   124093   124097 
  124125   124147   124132   124124   124119   124098   124102   124120 
  124105   124081   124085   124104   124117   124135   124173   124208 
  124202   124155   124106   124062   124032   124050   124085   124081 
  124056   124062   124092   124100   124086   124075   124058   124050 
  124077   124116   124113   124100   124116   124124   124128   124162 
  124183   124191   124195   124174   124162   124166   124140   124109 
  124114   124121   124123   124148   124167   124177   124205   124218 
  124216   124213   124182   124136   124109   124075   124047   124069 
  124119   124171   124225   124256   124252   124224   124175   124139 
  124127   124094   124070   124117   124166   124143   124112   124109 
  124108   124132   124167   124135   124055   124005   123988   123967 
  123946   123943   123994   124085   124160   124197   124193   124173 
  124150   124124   124116   124124   124137   124175   124233   124251 
  124212   124186   124178   124158   124160   124181   124167   124143 
  124117   124086   124062   124043   124054   124097   124101   124063 
  124055   124078   124092   124083   124087   124112   124136   124154 
  124147   124124   124129   124156   124175   124190   124208   124240 
  124244   124193   124128   124060   124008   124005   124008   123986 
  123985   124015   124039   124031   123993   123932   123857   123835 
  123878   123866   123797   123785   123819   123853   123907   123955 
  123958   123950   123967   123992   124020   124070   124124   124168 
  124232   124324   124391   124411   124429   124411   124352   124328 
  124309   124279   124306   124336   124318   124282   124209   124133 
  124117   124106   124043   123974   123935   123877   123803   123801 
  123880   123975   124085   124213   124332   124425   124459   124422 
  124351   124260   124155   124055   123977   123927   123925   124001 
  124144   124299   124410   124424   124367   124322   124283   124228 
  124164   124075   124009   124016   123996   123920   123900   123909 
  123859   123781   123735   123722   123732   123762   123839   123978 
  124120   124198   124204   124160   124112   124112   124158   124217 
  124272   124322   124370   124416   124410   124332   124254   124202 
  124143   124123   124141   124105   124033   124046   124140   124232 
  124289   124314   124312   124281   124258   124254   124204   124101 
  123986   123881   123862   123927   123982   124055   124190   124324 
  124393   124391   124314   124168   124001   123907   123919   124016 
  124183   124335   124425   124517   124592   124560   124420   124193 
  123904   123681   123633   123700   123823   123989   124148   124249 
  124252   124150   124031   123940   123836   123778   123846   123982 
  124086   124101   124060   124078   124164   124193   124135   124093 
  124112   124154   124185   124200   124197   124174   124140   124110 
  124082   124054   124042   124054   124058   124056   124067   124067 
  124098   124194   124262   124256   124239   124163   124002   123932 
  124039   124137   124116   124083   124087   124070   124033   124035 
  124086   124158   124210   124208   124181   124190   124212   124195 
  124136   124062   124017   124038   124104   124136   124123   124132 
  124159   124151   124125   124079   123978   123886   123886   123966 
  124075   124178   124249   124285   124310   124326   124286   124210 
  124193   124236   124283   124322   124349   124351   124357   124368 
  124294   124132   123990   123876   123747   123688   123723   123757 
  123786   123873   123966   124012   124038   124096   124190   124267 
  124298   124283   124216   124147   124117   124081   124038   124040 
  124070   124081   124090   124117   124154   124201   124252   124287 
  124308   124309   124247   124123   124052   124108   124160   124137 
  124136   124189   124262   124359   124424   124390   124312   124263 
  124227   124185   124160   124135   124055   123950   123931   124024 
  124137   124194   124187   124140   124078   124028   123971   123873 
  123781   123734   123705   123758   123925   124055   124081   124105 
  124123   124062   123975   123950   124011   124089   124129   124177 
  124212   124217   124264   124316   124301   124262   124235   124220 
  124239   124264   124262   124270   124297   124262   124186   124159 
  124163   124131   124073   124029   124008   123986   123981   124000 
  124015   123997   123971   123984   124020   124025   124001   124001 
  124039   124063   124028   123993   124028   124074   124094   124128 
  124163   124182   124195   124185   124146   124100   124038   124009 
  124110   124268   124335   124341   124322   124227   124143   124182 
  124286   124344   124316   124251   124212   124202   124194   124158 
  124098   124078   124117   124129   124060   123998   124000   123994 
  123975   124011   124073   124112   124125   124093   124055   124098 
  124190   124241   124248   124254   124283   124298   124270   124236 
  124205   124177   124179   124155   124056   123967   123919   123858 
  123808   123832   123940   124075   124154   124171   124178   124162 
  124101   124027   123982   123973   123979   124001   124051   124108 
  124154   124229   124344   124425   124417   124360   124298   124251 
  124243   124249   124209   124135   124071   124015   123950   123886 
  123844   123817   123784   123777   123822   123888   123963   124054 
  124143   124190   124170   124112   124082   124087   124069   124044 
  124097   124239   124403   124497   124478   124405   124317   124222 
  124183   124218   124240   124200   124151   124143   124174   124212 
  124205   124158   124105   124050   124009   123977   123888   123776 
  123742   123746   123704   123688   123778   123909   124016   124089 
  124132   124144   124120   124078   124039   124000   123977   123977 
  123981   124002   124108   124262   124328   124278   124210   124173 
  124152   124151   124173   124195   124224   124245   124208   124141 
  124123   124129   124129   124171   124239   124263   124249   124195 
  124101   124060   124083   124073   124081   124212   124356   124352 
  124221   124105   124086   124139   124179   124193   124220   124209 
  124135   124081   124077   124100   124155   124185   124125   124048 
  124033   124033   123993   123930   123916   123998   124116   124191 
  124214   124209   124185   124131   124062   124008   124000   124036 
  124100   124187   124290   124386   124428   124370   124256   124152 
  124066   124023   124031   124063   124117   124181   124194   124166 
  124133   124101   124054   123977   123928   123958   124013   124051 
  124092   124129   124170   124212   124222   124191   124141   124067 
  124000   123981   124005   124058   124131   124202   124260   124302 
  124318   124303   124259   124225   124229   124212   124125   124031 
  124002   124023   124038   124039   124062   124108   124135   124125 
  124108   124109   124114   124101   124069   124032   124028   124070 
  124105   124098   124087   124094   124081   124024   123974   123981 
  124038   124131   124249   124328   124321   124259   124189   124120 
  124069   124092   124175   124205   124136   124029   123961   123959 
  123971   123970   124013   124110   124168   124152   124131   124136 
  124150   124160   124139   124098   124104   124136   124147   124152 
  124136   124075   124033   124054   124079   124090   124119   124152 
  124155   124143   124148   124182   124213   124190   124146   124151 
  124133   124050   124019   124046   124048   124086   124162   124163 
  124120   124131   124167   124160   124131   124121   124113   124087 
  124074   124058   124000   123934   123911   123931   124002   124108 
  124178   124216   124271   124308   124302   124298   124270   124197 
  124160   124139   124083   124079   124131   124146   124128   124119 
  124104   124100   124139   124195   124195   124137   124083   124024 
  123977   124000   124062   124093   124097   124121   124160   124163 
  124143   124166   124221   124258   124260   124239   124204   124170 
  124164   124200   124214   124178   124112   124042   124002   124012 
  124036   124058   124092   124140   124177   124174   124160   124162 
  124148   124105   124043   123997   124023   124093   124128   124101 
  124054   124035   124040   124054   124096   124150   124171   124160 
  124133   124105   124081   124013   123919   123890   123934   124000 
