Origin Time       2025/03/30 10:18:00
Lat.              34.667
Long.             140.825
Depth. (km)       69
Mag.              4.9
Station Code      CHBH16
Station Lat.      35.1384
Station Long.     139.9649
Station Height(m) -1842.75
Record Time       2025/03/30 10:18:49
Sampling Freq(Hz) 100Hz
Duration Time(s)  120
Dir.              1
Scale Factor      7845(gal)/8223790
Max. Acc. (gal)   0.242
Last Correction   2025/03/30 10:18:49
Memo.             
[...]
  -50803   -50812   -50784   -50738   -50731   -50778   -50827   -50838 
  -50819   -50791   -50782   -50797   -50808   -50799   -50774   -50751 
  -50747   -50750   -50742   -50731   -50750   -50804   -50845   -50819 
  -50758   -50724   -50745   -50774   -50769   -50747   -50750   -50782 
  -50812   -50819   -50812   -50804   -50800   -50785   -50754   -50742 
  -50749   -50757   -50778   -50824   -50846   -50819   -50781   -50749 
  -50701   -50672   -50708   -50785   -50826   -50818   -50801   -50787 
  -50768   -50778   -50815   -50819   -50774   -50726   -50715   -50742 
  -50799   -50854   -50873   -50834   -50745   -50668   -50670   -50735 
  -50807   -50849   -50811   -50724   -50706   -50772   -50836   -50843 
  -50804   -50751   -50727   -50741   -50768   -50796   -50824   -50831 
  -50816   -50799   -50776   -50760   -50769   -50776   -50754   -50726 
  -50728   -50773   -50804   -50778   -50745   -50750   -50770   -50789 
  -50809   -50814   -50805   -50816   -50827   -50801   -50758   -50727 
  -50714   -50718   -50745   -50770   -50780   -50791   -50785   -50758 
  -50743   -50739   -50746   -50782   -50834   -50846   -50808   -50747 
  -50714   -50731   -50797   -50861   -50862   -50795   -50731   -50734 
  -50782   -50809   -50793   -50766   -50766   -50777   -50777   -50772 
  -50765   -50754   -50741   -50733   -50751   -50785   -50807   -50795 
  -50741   -50685   -50691   -50758   -50814   -50819   -50803   -50787 
  -50781   -50792   -50788   -50774   -50788   -50809   -50812   -50801 
  -50785   -50772   -50765   -50776   -50797   -50789   -50755   -50741 
  -50747   -50755   -50778   -50801   -50799   -50787   -50795   -50808 
  -50805   -50795   -50785   -50769   -50750   -50755   -50787   -50815 
  -50816   -50789   -50735   -50692   -50703   -50738   -50754   -50773 
  -50807   -50820   -50808   -50792   -50765   -50737   -50731   -50760 
  -50799   -50816   -50803   -50784   -50780   -50781   -50768   -50742 
  -50730   -50755   -50803   -50826   -50808   -50787   -50795   -50808 
  -50803   -50782   -50749   -50727   -50738   -50764   -50777   -50789 
  -50812   -50826   -50807   -50765   -50737   -50754   -50799   -50814 
  -50784   -50745   -50728   -50735   -50754   -50784   -50818   -50815 
  -50764   -50728   -50742   -50765   -50789   -50818   -50814   -50796 
  -50808   -50815   -50801   -50795   -50788   -50765   -50753   -50761 
  -50777   -50784   -50764   -50730   -50723   -50757   -50792   -50787 
  -50753   -50739   -50762   -50789   -50796   -50796   -50800   -50804 
  -50799   -50773   -50742   -50743   -50780   -50799   -50776   -50735 
  -50714   -50730   -50774   -50797   -50780   -50746   -50738   -50755 
  -50765   -50784   -50816   -50803   -50761   -50750   -50743   -50727 
  -50739   -50765   -50774   -50780   -50784   -50784   -50801   -50841 
  -50874   -50870   -50832   -50796   -50776   -50776   -50799   -50822 
  -50814   -50788   -50766   -50755   -50758   -50758   -50738   -50714 
  -50710   -50733   -50764   -50776   -50774   -50780   -50784   -50791 
  -50796   -50785   -50774   -50781   -50796   -50793   -50762   -50731 
  -50735   -50762   -50770   -50760   -50769   -50784   -50777   -50765 
  -50769   -50792   -50812   -50809   -50804   -50805   -50785   -50758 
  -50769   -50800   -50811   -50787   -50751   -50749   -50774   -50770 
  -50737   -50726   -50743   -50761   -50770   -50778   -50777   -50772 
  -50781   -50801   -50809   -50805   -50792   -50772   -50762   -50765 
  -50769   -50773   -50782   -50781   -50749   -50733   -50768   -50801 
  -50792   -50774   -50778   -50789   -50797   -50807   -50804   -50787 
  -50781   -50791   -50796   -50788   -50778   -50797   -50832   -50831 
  -50796   -50760   -50738   -50741   -50755   -50757   -50755   -50770 
  -50788   -50788   -50792   -50812   -50809   -50770   -50743   -50751 
  -50760   -50758   -50769   -50776   -50769   -50764   -50762   -50765 
  -50757   -50737   -50734   -50747   -50758   -50781   -50818   -50824 
  -50793   -50772   -50765   -50760   -50757   -50758   -50761   -50774 
  -50781   -50770   -50758   -50768   -50792   -50793   -50755   -50731 
  -50750   -50770   -50778   -50796   -50823   -50831   -50818   -50808 
  -50797   -50777   -50778   -50793   -50780   -50753   -50735   -50724 
  -50727   -50749   -50782   -50807   -50793   -50774   -50782   -50780 
  -50751   -50755   -50793   -50816   -50805   -50787   -50788   -50796 
  -50788   -50776   -50766   -50769   -50787   -50787   -50765   -50750 
  -50753   -50750   -50738   -50738   -50754   -50765   -50765   -50765 
  -50754   -50739   -50751   -50799   -50851   -50861   -50814   -50760 
  -50742   -50755   -50784   -50795   -50773   -50750   -50749   -50765 
  -50773   -50761   -50750   -50757   -50768   -50777   -50792   -50796 
  -50777   -50770   -50799   -50816   -50793   -50766   -50776   -50800 
  -50803   -50793   -50782   -50773   -50781   -50797   -50796   -50784 
  -50785   -50793   -50784   -50757   -50754   -50781   -50799   -50793 
  -50777   -50762   -50768   -50778   -50770   -50758   -50772   -50795 
  -50797   -50792   -50788   -50780   -50765   -50741   -50726   -50751 
  -50797   -50805   -50764   -50728   -50741   -50774   -50801   -50797 
  -50761   -50739   -50760   -50785   -50789   -50789   -50803   -50822 
  -50819   -50796   -50761   -50727   -50731   -50768   -50781   -50782 
  -50795   -50792   -50774   -50765   -50760   -50754   -50755   -50760 
  -50764   -50774   -50789   -50796   -50791   -50772   -50751   -50754 
  -50772   -50776   -50770   -50784   -50805   -50808   -50791   -50758 
  -50738   -50754   -50782   -50784   -50769   -50772   -50788   -50791 
  -50780   -50776   -50789   -50800   -50787   -50764   -50761   -50774 
  -50793   -50811   -50816   -50797   -50776   -50768   -50760   -50749 
  -50750   -50765   -50774   -50776   -50781   -50789   -50791   -50791 
  -50791   -50778   -50762   -50758   -50757   -50750   -50746   -50747 
  -50755   -50772   -50785   -50781   -50755   -50737   -50760   -50797 
  -50807   -50808   -50820   -50808   -50769   -50743   -50738   -50735 
  -50737   -50749   -50769   -50788   -50795   -50789   -50782   -50774 
  -50765   -50758   -50754   -50764   -50777   -50774   -50773   -50788 
  -50797   -50782   -50772   -50782   -50778   -50761   -50749   -50750 
  -50769   -50800   -50822   -50822   -50808   -50800   -50791   -50781 
  -50792   -50801   -50792   -50777   -50766   -50764   -50769   -50776 
  -50781   -50784   -50792   -50801   -50792   -50765   -50743   -50728 
  -50727   -50747   -50769   -50784   -50800   -50799   -50784   -50774 
  -50768   -50773   -50788   -50792   -50778   -50768   -50778   -50799 
  -50803   -50788   -50766   -50751   -50742   -50730   -50719   -50723 
  -50747   -50780   -50797   -50807   -50814   -50792   -50753   -50734 
  -50733   -50739   -50761   -50792   -50808   -50804   -50795   -50788 
  -50788   -50796   -50795   -50788   -50791   -50782   -50770   -50795 
  -50831   -50819   -50778   -50776   -50797   -50801   -50789   -50772 
  -50755   -50764   -50793   -50797   -50768   -50751   -50764   -50776 
  -50773   -50761   -50751   -50739   -50712   -50693   -50710   -50750 
  -50784   -50788   -50770   -50751   -50746   -50761   -50785   -50804 
  -50807   -50801   -50805   -50814   -50815   -50807   -50793   -50784 
  -50787   -50795   -50789   -50774   -50761   -50758   -50762   -50757 
  -50743   -50746   -50768   -50778   -50764   -50738   -50727   -50753 
  -50788   -50780   -50749   -50749   -50761   -50765   -50778   -50782 
  -50778   -50788   -50795   -50792   -50808   -50822   -50807   -50780 
  -50761   -50750   -50755   -50769   -50774   -50774   -50776   -50776 
  -50776   -50776   -50781   -50797   -50804   -50800   -50814   -50832 
  -50814   -50773   -50746   -50746   -50761   -50781   -50796   -50797 
  -50792   -50801   -50801   -50766   -50733   -50737   -50757   -50765 
  -50765   -50774   -50796   -50823   -50830   -50803   -50764   -50747 
  -50746   -50749   -50773   -50803   -50807   -50800   -50787   -50769 
  -50761   -50753   -50742   -50754   -50774   -50780   -50768   -50750 
  -50746   -50761   -50784   -50807   -50811   -50787   -50754   -50735 
  -50730   -50746   -50776   -50801   -50816   -50836   -50857   -50839 
  -50781   -50727   -50706   -50714   -50739   -50765   -50768   -50758 
  -50757   -50766   -50780   -50801   -50822   -50812   -50776   -50753 
  -50755   -50765   -50773   -50774   -50764   -50749   -50741   -50746 
  -50761   -50772   -50780   -50792   -50812   -50845   -50866   -50849 
  -50801   -50754   -50737   -50757   -50785   -50797   -50793   -50772 
  -50746   -50730   -50712   -50697   -50701   -50715   -50727   -50747 
  -50781   -50808   -50811   -50797   -50788   -50787   -50792   -50797 
  -50799   -50795   -50787   -50778   -50772   -50768   -50765   -50765 
  -50780   -50803   -50801   -50769   -50739   -50735   -50749   -50766 
  -50791   -50807   -50804   -50796   -50796   -50808   -50819   -50818 
  -50814   -50803   -50785   -50770   -50757   -50755   -50770   -50777 
  -50769   -50764   -50773   -50796   -50814   -50808   -50788   -50778 
  -50780   -50770   -50751   -50751   -50776   -50803   -50812   -50789 
  -50757   -50745   -50750   -50754   -50746   -50724   -50714   -50730 
  -50754   -50776   -50799   -50815   -50830   -50845   -50845   -50828 
  -50805   -50782   -50768   -50765   -50758   -50743   -50733   -50719 
  -50712   -50734   -50764   -50774   -50774   -50778   -50793   -50819 
  -50831   -50823   -50799   -50766   -50751   -50757   -50753   -50739 
  -50739   -50747   -50749   -50762   -50799   -50828   -50828   -50807 
  -50801   -50822   -50838   -50824   -50799   -50787   -50788   -50784 
  -50780   -50781   -50773   -50765   -50766   -50765   -50769   -50769 
  -50758   -50768   -50787   -50788   -50784   -50777   -50761   -50745 
  -50741   -50746   -50750   -50746   -50731   -50719   -50726   -50750 
  -50773   -50778   -50778   -50777   -50761   -50731   -50716   -50733 
  -50780   -50832   -50858   -50857   -50842   -50809   -50773   -50755 
  -50755   -50769   -50785   -50796   -50809   -50823   -50819   -50804 
  -50797   -50804   -50808   -50797   -50793   -50801   -50792   -50760 
  -50727   -50707   -50699   -50693   -50674   -50662   -50691   -50753 
  -50795   -50792   -50776   -50777   -50799   -50815   -50816   -50820 
  -50819   -50792   -50766   -50765   -50769   -50777   -50796   -50819 
  -50842   -50859   -50839   -50792   -50772   -50778   -50777   -50755 
  -50724   -50703   -50701   -50699   -50695   -50711   -50743   -50772 
  -50778   -50776   -50791   -50814   -50819   -50822   -50827   -50826 
  -50804   -50770   -50749   -50742   -50733   -50726   -50727   -50742 
  -50776   -50803   -50808   -50831   -50899   -50969   -50986   -50951 
  -50896   -50832   -50766   -50710   -50658   -50625   -50634   -50680 
  -50734   -50784   -50816   -50818   -50805   -50805   -50811   -50799 
  -50766   -50747   -50757   -50769   -50768   -50773   -50780   -50764 
  -50733   -50703   -50685   -50680   -50679   -50679   -50696   -50741 
  -50778   -50782   -50773   -50758   -50738   -50731   -50749   -50780 
  -50809   -50830   -50842   -50854   -50878   -50923   -50967   -50976 
  -50926   -50839   -50760   -50715   -50700   -50695   -50687   -50684 
  -50701   -50737   -50772   -50785   -50769   -50746   -50742   -50735 
  -50711   -50685   -50684   -50714   -50762   -50793   -50788   -50769 
  -50768   -50787   -50800   -50793   -50799   -50845   -50893   -50907 
  -50904   -50899   -50881   -50857   -50820   -50766   -50722   -50697 
  -50673   -50645   -50643   -50672   -50697   -50703   -50711   -50733 
  -50747   -50741   -50726   -50707   -50674   -50637   -50616   -50643 
  -50715   -50803   -50870   -50892   -50880   -50878   -50895   -50900 
  -50892   -50893   -50892   -50872   -50853   -50843   -50820   -50784 
  -50764   -50770   -50785   -50814   -50850   -50859   -50831   -50795 
  -50765   -50731   -50693   -50677   -50696   -50731   -50762   -50791 
  -50836   -50905   -50959   -50951   -50893   -50826   -50761   -50700 
  -50645   -50595   -50561   -50554   -50571   -50600   -50637   -50691 
  -50764   -50843   -50915   -50969   -50977   -50932   -50884   -50847 
  -50809   -50789   -50800   -50807   -50793   -50787   -50797   -50795 
  -50765   -50716   -50662   -50623   -50603   -50587   -50588   -50630 
  -50695   -50764   -50835   -50890   -50922   -50936   -50922   -50869 
  -50803   -50747   -50701   -50658   -50633   -50631   -50664   -50720 
  -50773   -50812   -50846   -50862   -50861   -50865   -50876   -50892 
  -50899   -50876   -50839   -50807   -50768   -50716   -50679   -50660 
  -50657   -50679   -50716   -50754   -50792   -50816   -50805   -50772 
  -50745   -50754   -50785   -50803   -50811   -50834   -50857   -50863 
  -50857   -50847   -50847   -50843   -50815   -50792   -50796   -50804 
  -50811   -50822   -50818   -50801   -50791   -50780   -50761   -50747 
  -50751   -50770   -50793   -50800   -50795   -50799   -50801   -50774 
  -50728   -50691   -50669   -50660   -50661   -50676   -50697   -50704 
  -50703   -50708   -50719   -50742   -50761   -50747   -50703   -50668 
  -50674   -50715   -50766   -50818   -50850   -50861   -50874   -50878 
  -50857   -50823   -50804   -50804   -50805   -50788   -50755   -50734 
  -50743   -50780   -50823   -50858   -50857   -50812   -50745   -50679 
  -50631   -50622   -50638   -50657   -50681   -50727   -50787   -50842 
  -50909   -50982   -51025   -51030   -51009   -50970   -50920   -50861 
  -50797   -50749   -50727   -50710   -50699   -50704   -50727   -50772 
  -50814   -50823   -50827   -50836   -50827   -50781   -50723   -50693 
  -50691   -50681   -50657   -50641   -50635   -50631   -50631   -50649 
  -50689   -50728   -50754   -50773   -50793   -50823   -50847   -50857 
  -50873   -50901   -50920   -50913   -50890   -50869   -50839   -50789 
  -50745   -50730   -50723   -50706   -50680   -50642   -50603   -50584 
  -50589   -50610   -50649   -50708   -50768   -50807   -50831   -50839 
  -50823   -50801   -50799   -50803   -50815   -50839   -50865   -50890 
  -50903   -50888   -50862   -50832   -50796   -50770   -50768   -50761 
  -50741   -50735   -50751   -50770   -50778   -50776   -50758   -50739 
  -50741   -50768   -50797   -50815   -50830   -50835   -50809   -50772 
  -50747   -50719   -50680   -50658   -50676   -50726   -50776   -50815 
  -50854   -50882   -50885   -50870   -50831   -50777   -50726   -50683 
  -50664   -50684   -50727   -50781   -50843   -50885   -50885   -50854 
  -50815   -50791   -50778   -50777   -50800   -50824   -50836   -50841 
  -50828   -50807   -50801   -50808   -50808   -50803   -50805   -50805 
  -50796   -50792   -50792   -50772   -50718   -50664   -50642   -50664 
  -50711   -50754   -50793   -50846   -50892   -50904   -50888   -50861 
  -50822   -50774   -50743   -50733   -50738   -50747   -50737   -50716 
  -50708   -50704   -50708   -50727   -50751   -50772   -50776   -50755 
  -50724   -50703   -50701   -50711   -50701   -50676   -50665   -50684 
  -50724   -50777   -50820   -50842   -50832   -50793   -50750   -50719 
  -50704   -50711   -50746   -50791   -50818   -50823   -50814   -50799 
  -50778   -50754   -50751   -50778   -50805   -50819   -50822   -50815 
  -50808   -50814   -50812   -50807   -50820   -50846   -50863   -50866 
  -50862   -50872   -50897   -50917   -50930   -50934   -50915   -50873 
  -50816   -50760   -50716   -50693   -50688   -50699   -50719   -50724 
  -50720   -50742   -50780   -50800   -50809   -50800   -50772   -50746 
  -50727   -50711   -50704   -50697   -50679   -50657   -50649   -50656 
  -50652   -50637   -50629   -50645   -50673   -50695   -50719   -50762 
  -50819   -50859   -50863   -50843   -50814   -50781   -50757   -50743 
  -50737   -50739   -50750   -50770   -50807   -50835   -50836   -50832 
  -50841   -50850   -50857   -50866   -50866   -50854   -50836   -50814 
  -50788   -50772   -50766   -50772   -50782   -50792   -50801   -50807 
  -50800   -50791   -50785   -50789   -50795   -50781   -50753   -50733 
  -50734   -50750   -50761   -50765   -50773   -50781   -50781   -50776 
  -50768   -50768   -50781   -50796   -50804   -50814   -50820   -50818 
  -50811   -50795   -50770   -50754   -50758   -50776   -50795   -50800 
  -50793   -50789   -50780   -50749   -50715   -50700   -50697   -50693 
  -50704   -50722   -50733   -50746   -50757   -50749   -50731   -50723 
  -50720   -50734   -50765   -50799   -50823   -50832   -50822   -50809 
  -50814   -50828   -50838   -50832   -50832   -50855   -50876   -50878 
  -50863   -50832   -50797   -50768   -50734   -50703   -50687   -50674 
  -50674   -50693   -50719   -50746   -50777   -50803   -50816   -50828 
  -50834   -50815   -50781   -50764   -50769   -50782   -50788   -50782 
  -50770   -50761   -50766   -50773   -50766   -50764   -50788   -50819 
  -50822   -50816   -50801   -50757   -50701   -50661   -50645   -50664 
  -50706   -50737   -50741   -50731   -50727   -50730   -50733   -50750 
  -50781   -50807   -50812   -50809   -50823   -50850   -50869   -50868 
  -50857   -50845   -50838   -50834   -50830   -50828   -50831   -50826 
  -50809   -50791   -50766   -50734   -50703   -50685   -50680   -50680 
  -50692   -50719   -50746   -50762   -50774   -50789   -50808   -50828 
  -50839   -50842   -50845   -50845   -50838   -50827   -50826   -50846 
  -50866   -50855   -50842   -50841   -50828   -50797   -50762   -50727 
  -50696   -50679   -50670   -50669   -50679   -50695   -50711   -50716 
  -50718   -50718   -50714   -50710   -50719   -50738   -50757   -50761 
  -50758   -50753   -50746   -50742   -50751   -50766   -50766   -50761 
  -50776   -50800   -50815   -50823   -50830   -50828   -50822   -50808 
  -50793   -50782   -50774   -50769   -50768   -50788   -50827   -50861 
  -50863   -50855   -50861   -50862   -50841   -50818   -50804   -50777 
  -50734   -50700   -50691   -50707   -50738   -50764   -50772   -50784 
  -50814   -50845   -50853   -50841   -50826   -50822   -50824   -50819 
  -50809   -50811   -50804   -50788   -50774   -50754   -50726   -50712 
  -50720   -50739   -50755   -50757   -50745   -50731   -50719   -50723 
  -50751   -50769   -50769   -50764   -50746   -50727   -50719   -50706 
  -50692   -50695   -50707   -50728   -50755   -50772   -50787   -50816 
  -50841   -50847   -50846   -50846   -50835   -50812   -50803   -50811 
  -50816   -50819   -50822   -50818   -50809   -50793   -50774   -50768 
  -50768   -50778   -50799   -50812   -50811   -50799   -50776   -50750 
  -50728   -50716   -50712   -50712   -50715   -50718   -50715   -50712 
  -50724   -50745   -50755   -50754   -50761   -50777   -50789   -50793 
  -50801   -50797   -50782   -50774   -50773   -50758   -50733   -50727 
  -50745   -50773   -50811   -50855   -50896   -50916   -50911   -50881 
  -50847   -50820   -50807   -50805   -50814   -50824   -50832   -50826 
  -50807   -50784   -50755   -50733   -50723   -50715   -50712   -50722 
  -50737   -50746   -50757   -50766   -50765   -50765   -50765   -50757 
  -50743   -50731   -50734   -50754   -50772   -50777   -50781   -50791 
  -50808   -50818   -50819   -50808   -50791   -50784   -50781   -50765 
  -50753   -50754   -50751   -50739   -50734   -50745   -50766   -50789 
  -50793   -50777   -50760   -50743   -50722   -50696   -50683   -50689 
