Origin Time       2025/03/30 10:18:00
Lat.              34.667
Long.             140.825
Depth. (km)       69
Mag.              4.9
Station Code      CHBH11
Station Lat.      35.2867
Station Long.     140.1529
Station Height(m) 80
Record Time       2025/03/30 10:18:47
Sampling Freq(Hz) 100Hz
Duration Time(s)  120
Dir.              5
Scale Factor      7845(gal)/8223790
Max. Acc. (gal)   1.634
Last Correction   2025/03/30 10:18:47
Memo.             
[...]
   -2686    -2691    -2689    -2687    -2690    -2686    -2687    -2690 
   -2687    -2687    -2689    -2686    -2687    -2686    -2687    -2690 
   -2687    -2685    -2687    -2687    -2691    -2693    -2686    -2686 
   -2690    -2689    -2687    -2685    -2685    -2689    -2690    -2690 
   -2690    -2687    -2687    -2687    -2690    -2691    -2687    -2685 
   -2690    -2687    -2685    -2691    -2691    -2689    -2687    -2689 
   -2693    -2689    -2685    -2691    -2694    -2690    -2689    -2689 
   -2689    -2687    -2687    -2690    -2687    -2686    -2690    -2690 
   -2686    -2687    -2689    -2689    -2693    -2691    -2691    -2693 
   -2687    -2685    -2690    -2690    -2690    -2686    -2683    -2689 
   -2687    -2687    -2691    -2690    -2686    -2681    -2681    -2697 
   -2700    -2682    -2673    -2677    -2689    -2693    -2683    -2678 
   -2677    -2678    -2701    -2727    -2710    -2662    -2658    -2712 
   -2718    -2662    -2685    -2772    -2762    -2664    -2596    -2592 
   -2664    -2801    -2895    -2794    -2527    -2384    -2531    -2767 
   -2895    -2851    -2621    -2407    -2506    -2832    -2970    -2795 
   -2581    -2505    -2540    -2663    -2797    -2822    -2747    -2682 
   -2705    -2737    -2690    -2673    -2758    -2841    -2849    -2724 
   -2470    -2338    -2559    -2924    -2963    -2641    -2417    -2521 
   -2767    -2960    -2943    -2587    -2178    -2289    -2862    -3145 
   -2864    -2485    -2351    -2513    -2871    -3037    -2808    -2527 
   -2524    -2728    -2906    -2876    -2643    -2489    -2633    -2851 
   -2821    -2644    -2606    -2679    -2702    -2716    -2697    -2540 
   -2485    -2776    -3025    -2781    -2370    -2315    -2533    -2744 
   -2930    -2995    -2701    -2346    -2458    -2830    -2971    -2905 
   -2812    -2659    -2473    -2478    -2687    -2731    -2565    -2605 
   -2806    -2825    -2774    -2759    -2631    -2479    -2497    -2659 
   -2816    -2816    -2713    -2739    -2863    -2883    -2856    -2817 
   -2589    -2305    -2320    -2606    -2839    -2803    -2592    -2479 
   -2593    -2793    -2882    -2794    -2666    -2691    -2737    -2565 
   -2494    -2799    -2978    -2801    -2781    -2898    -2609    -2185 
   -2340    -2860    -2917    -2527    -2457    -2741    -2797    -2795 
   -3102    -3100    -2506    -2290    -2655    -2643    -2432    -2776 
   -3029    -2593    -2270    -2562    -2876    -2843    -2771    -2841 
   -2759    -2435    -2334    -2625    -2810    -2689    -2668    -2880 
   -2937    -2664    -2477    -2717    -3069    -3032    -2654    -2450 
   -2521    -2502    -2540    -2874    -2976    -2610    -2390    -2536 
   -2547    -2362    -2617    -3169    -3061    -2539    -2602    -2856 
   -2578    -2465    -2979    -3132    -2540    -2241    -2560    -2789 
   -2789    -2779    -2643    -2486    -2533    -2682    -2901    -3137 
   -3015    -2544    -2249    -2382    -2787    -3105    -3007    -2689 
   -2548    -2544    -2525    -2508    -2577    -2740    -2691    -2358 
   -2353    -2867    -3191    -2968    -2718    -2806    -2808    -2430 
   -2289    -2739    -2984    -2635    -2475    -2737    -2793    -2708 
   -2868    -2938    -2625    -2367    -2547    -2791    -2728    -2663 
   -2724    -2569    -2443    -2843    -3254    -3046    -2643    -2540 
   -2488    -2273    -2303    -2725    -2890    -2578    -2479    -2814 
   -3028    -3001    -2943    -2747    -2516    -2448    -2338    -2243 
   -2443    -2747    -2862    -2876    -2974    -3014    -2897    -2839 
   -2740    -2362    -2101    -2285    -2554    -2714    -2986    -3221 
   -2983    -2536    -2562    -2851    -2791    -2589    -2540    -2448 
   -2470    -2829    -3046    -2791    -2489    -2452    -2544    -2673 
   -2813    -2940    -3038    -2947    -2690    -2562    -2478    -2297 
   -2400    -2843    -2987    -2766    -2772    -2889    -2616    -2340 
   -2540    -2695    -2513    -2619    -2982    -2871    -2548    -2693 
   -2990    -2917    -2643    -2485    -2403    -2451    -2828    -3078 
   -2598    -1999    -2269    -3090    -3400    -3063    -2709    -2571 
   -2494    -2498    -2610    -2640    -2555    -2635    -2928    -2997 
   -2598    -2269    -2560    -3088    -3126    -2833    -2728    -2489 
   -2030    -2220    -2871    -2844    -2471    -2677    -2976    -2859 
   -2852    -3048    -2879    -2455    -2428    -2733    -2787    -2682 
   -2794    -2859    -2674    -2575    -2550    -2401    -2471    -2790 
   -2791    -2532    -2516    -2606    -2631    -2856    -3044    -2701 
   -2222    -2274    -2686    -3007    -3225    -3231    -2816    -2404 
   -2490    -2687    -2538    -2393    -2617    -2868    -2748    -2506 
   -2463    -2555    -2826    -3181    -3072    -2550    -2350    -2590 
   -2816    -2824    -2693    -2596    -2620    -2731    -2952    -3030 
   -2628    -2232    -2385    -2625    -2650    -2771    -2829    -2624 
   -2604    -2862    -2857    -2577    -2524    -2701    -2781    -2812 
   -2967    -2967    -2484    -2012    -2234    -2764    -2988    -3065 
   -3040    -2725    -2482    -2592    -2695    -2632    -2678    -2839 
   -2797    -2548    -2492    -2695    -2717    -2578    -2679    -2751 
   -2539    -2493    -2725    -2932    -3015    -2875    -2501    -2288 
   -2558    -3021    -3072    -2565    -2020    -2072    -2747    -3377 
   -3366    -2882    -2446    -2320    -2527    -2878    -3005    -2716 
   -2336    -2396    -2756    -2741    -2355    -2358    -2837    -3038 
   -2860    -2798    -2910    -3068    -3117    -2802    -2309    -2146 
   -2358    -2558    -2659    -2794    -2793    -2658    -2744    -3003 
   -3034    -2700    -2262    -2151    -2481    -2808    -2767    -2724 
   -3036    -3226    -2991    -2839    -2932    -2874    -2583    -2254 
   -2002    -1973    -2292    -2752    -3003    -2951    -2713    -2567 
   -2685    -2868    -2987    -2934    -2559    -2300    -2646    -3036 
   -2783    -2334    -2404    -2770    -2910    -2916    -2952    -2884 
   -2702    -2524    -2473    -2582    -2670    -2654    -2686    -2741 
   -2623    -2412    -2427    -2710    -2932    -2916    -2812    -2686 
   -2566    -2579    -2620    -2555    -2560    -2785    -3017    -2986 
   -2882    -2901    -2771    -2489    -2484    -2766    -2899    -2725 
   -2511    -2334    -2168    -2301    -2731    -3009    -3014    -2928 
   -2810    -2656    -2566    -2713    -2972    -2945    -2674    -2536 
   -2473    -2371    -2454    -2652    -2710    -2735    -2778    -2700 
   -2643    -2739    -2795    -2698    -2565    -2496    -2484    -2540 
   -2650    -2701    -2783    -3010    -3165    -2976    -2540    -2338 
   -2601    -2839    -2776    -2832    -3002    -2929    -2786    -2728 
   -2515    -2191    -2138    -2420    -2739    -2918    -2943    -2822 
   -2706    -2733    -2762    -2666    -2596    -2608    -2570    -2482 
   -2501    -2748    -3092    -3118    -2785    -2581    -2531    -2323 
   -2300    -2710    -2978    -2786    -2536    -2485    -2574    -2708 
   -2754    -2697    -2614    -2575    -2747    -3034    -2974    -2678 
   -2790    -3021    -2683    -2344    -2570    -2681    -2515    -2776 
   -3171    -2897    -2358    -2378    -2717    -2770    -2682    -2731 
   -2731    -2644    -2697    -2794    -2724    -2752    -2982    -2938 
   -2632    -2525    -2517    -2388    -2396    -2668    -2835    -2619 
   -2398    -2616    -2914    -2860    -2716    -2656    -2558    -2521 
   -2650    -2803    -2763    -2598    -2709    -3019    -2928    -2475 
   -2332    -2565    -2660    -2620    -2740    -2830    -2733    -2743 
   -2899    -2876    -2593    -2381    -2562    -2990    -3134    -2836 
   -2550    -2474    -2420    -2521    -2829    -2905    -2721    -2706 
   -2808    -2749    -2651    -2667    -2639    -2444    -2359    -2581 
   -2778    -2718    -2667    -2866    -3098    -3007    -2667    -2431 
   -2408    -2478    -2546    -2620    -2648    -2531    -2475    -2704 
   -2940    -2863    -2632    -2546    -2592    -2675    -2814    -2860 
   -2754    -2758    -2878    -2867    -2791    -2733    -2565    -2388 
   -2424    -2631    -2848    -2943    -2943    -3006    -2999    -2651 
   -2208    -2214    -2590    -2855    -2953    -2991    -2849    -2613 
   -2548    -2717    -2870    -2713    -2477    -2548    -2639    -2570 
   -2709    -2906    -2733    -2462    -2520    -2701    -2627    -2408 
   -2417    -2677    -2825    -2712    -2629    -2712    -2729    -2682 
   -2705    -2662    -2513    -2586    -2921    -3002    -2799    -2794 
   -2880    -2802    -2778    -2870    -2890    -2764    -2629    -2654 
   -2682    -2554    -2477    -2565    -2666    -2670    -2609    -2552 
   -2504    -2535    -2729    -2957    -3095    -3127    -2949    -2635 
   -2370    -2145    -2172    -2633    -2976    -2790    -2504    -2494 
   -2617    -2686    -2668    -2685    -2816    -2826    -2578    -2374 
   -2425    -2641    -2964    -3167    -2982    -2627    -2482    -2583 
   -2778    -2901    -2828    -2687    -2677    -2701    -2686    -2673 
   -2552    -2434    -2592    -2872    -2984    -2905    -2722    -2542 
   -2457    -2551    -2774    -2824    -2567    -2380    -2578    -2866 
   -2913    -2901    -2899    -2702    -2457    -2436    -2573    -2708 
   -2802    -2818    -2727    -2628    -2664    -2762    -2706    -2558 
   -2593    -2733    -2648    -2473    -2552    -2782    -2928    -2957 
   -2814    -2573    -2556    -2771    -2855    -2776    -2728    -2637 
   -2454    -2367    -2527    -2809    -2936    -2847    -2706    -2589 
   -2486    -2431    -2461    -2606    -2782    -2791    -2664    -2689 
   -2936    -3099    -3009    -2828    -2632    -2489    -2620    -2868 
   -2825    -2648    -2708    -2790    -2647    -2556    -2660    -2662 
   -2447    -2338    -2544    -2744    -2658    -2546    -2596    -2602 
   -2577    -2735    -2928    -2972    -2986    -2963    -2802    -2624 
   -2470    -2292    -2239    -2397    -2597    -2694    -2673    -2624 
   -2716    -2886    -2901    -2803    -2751    -2695    -2575    -2508 
   -2640    -2857    -2945    -2936    -2910    -2872    -2814    -2664 
   -2455    -2435    -2728    -3034    -2952    -2617    -2517    -2677 
   -2772    -2783    -2808    -2710    -2515    -2562    -2774    -2682 
   -2307    -2149    -2430    -2837    -3007    -2930    -2749    -2639 
   -2731    -2809    -2656    -2489    -2550    -2718    -2755    -2656 
   -2616    -2701    -2776    -2732    -2671    -2709    -2760    -2762 
   -2802    -2843    -2758    -2628    -2592    -2605    -2616    -2712 
   -2839    -2755    -2543    -2512    -2600    -2614    -2663    -2770 
   -2710    -2570    -2698    -3011    -3096    -2913    -2687    -2448 
   -2257    -2301    -2409    -2295    -2191    -2376    -2683    -2952 
   -3200    -3330    -3172    -2829    -2627    -2658    -2718    -2748 
   -2813    -2794    -2648    -2543    -2463    -2386    -2551    -2928 
   -3090    -2878    -2547    -2385    -2435    -2556    -2631    -2579 
   -2436    -2424    -2662    -2999    -3168    -3105    -2979    -2849 
   -2736    -2714    -2650    -2481    -2473    -2673    -2826    -2844 
   -2778    -2670    -2620    -2695    -2809    -2826    -2705    -2562 
   -2467    -2342    -2305    -2539    -2714    -2598    -2610    -2835 
   -2897    -2841    -2817    -2774    -2748    -2673    -2484    -2403 
   -2524    -2670    -2793    -2891    -2795    -2528    -2446    -2663 
   -2905    -2964    -2801    -2475    -2181    -2107    -2327    -2679 
   -2860    -2951    -3202    -3325    -3049    -2740    -2602    -2462 
   -2362    -2384    -2492    -2748    -3030    -3083    -3029    -3005 
   -2808    -2493    -2397    -2544    -2704    -2763    -2772    -2741 
   -2624    -2543    -2647    -2751    -2660    -2587    -2643    -2641 
   -2635    -2744    -2728    -2462    -2308    -2492    -2725    -2797 
   -2860    -2916    -2809    -2687    -2656    -2559    -2485    -2712 
   -3060    -3079    -2801    -2585    -2425    -2246    -2388    -2897 
   -3163    -2963    -2695    -2524    -2392    -2440    -2725    -2930 
   -2790    -2573    -2652    -2814    -2783    -2744    -2708    -2531 
   -2501    -2790    -2980    -2864    -2781    -2849    -2781    -2581 
   -2539    -2589    -2497    -2369    -2423    -2616    -2729    -2756 
   -2940    -3217    -3195    -2849    -2482    -2266    -2290    -2608 
   -2988    -3014    -2650    -2315    -2247    -2335    -2413    -2396 
   -2316    -2350    -2617    -2914    -2897    -2612    -2431    -2547 
   -2809    -2870    -2582    -2170    -1958    -2131    -2504    -2705 
   -2682    -2573    -2494    -2582    -2756    -2862    -2982    -3180 
   -3304    -3171    -2712    -2174    -1977    -2174    -2428    -2508 
   -2461    -2409    -2459    -2677    -2965    -3110    -2999    -2756 
   -2641    -2759    -2933    -2991    -3064    -3329    -3559    -3510 
   -3404    -3501    -3684    -3777    -3672    -3377    -3150    -3068 
   -2929    -2712    -2513    -2384    -2344    -2347    -2434    -2612 
   -2709    -2716    -2736    -2652    -2288    -1725    -1339    -1385 
   -1703    -2079    -2390    -2494    -2590    -2953    -3241    -3148 
   -2928    -2764    -2689    -2803    -2999    -3072    -3060    -3075 
   -3134    -3125    -2899    -2555    -2303    -2209    -2212    -2145 
   -1957    -1848    -1962    -2270    -2647    -2901    -2951    -2833 
   -2578    -2334    -2224    -2141    -2061    -2173    -2497    -2805 
   -2999    -3268    -3739    -4207    -4401    -4284    -3909    -3330 
   -2743    -2354    -2095    -1852    -1790    -2025    -2390    -2816 
   -3198    -3187    -2790    -2446    -2304    -2295    -2474    -2725 
   -2722    -2408    -2128    -2142    -2286    -2350    -2373    -2377 
   -2301    -2238    -2340    -2571    -2848    -3215    -3582    -3713 
   -3666    -3638    -3545    -3315    -3146    -3122    -3041    -2743 
   -2307    -1944    -1759    -1741    -1925    -2311    -2768    -3199 
   -3599    -3871    -3859    -3504    -2934    -2425    -2079    -1740 
   -1418    -1270    -1355    -1732    -2380    -3014    -3385    -3458 
   -3203    -2690    -2196    -1954    -2004    -2309    -2817    -3356 
   -3642    -3609    -3450    -3322    -3206    -3007    -2712    -2388 
   -2038    -1705    -1548    -1638    -1926    -2307    -2624    -2837 
   -2990    -3044    -3080    -3199    -3149    -2824    -2547    -2424 
   -2339    -2462    -2911    -3406    -3642    -3574    -3225    -2647 
   -2177    -2181    -2536    -2839    -2933    -2835    -2578    -2354 
   -2381    -2482    -2349    -2137    -2079    -2077    -2176    -2542 
   -3036    -3389    -3450    -3229    -2948    -2829    -2855    -2853 
   -2732    -2559    -2447    -2447    -2544    -2687    -2818    -2814 
   -2631    -2592    -2940    -3423    -3778    -3985    -3894    -3364 
   -2623    -2070    -1896    -1999    -2154    -2209    -2083    -1825 
   -1713    -1903    -2200    -2481    -2832    -3188    -3350    -3319 
   -3226    -3142    -3150    -3261    -3246    -2933    -2436    -2011 
   -1876    -1981    -2056    -2052    -2097    -2162    -2188    -2220 
   -2313    -2496    -2695    -2805    -2864    -2951    -2972    -2876 
   -2816    -2866    -2949    -3041    -3134    -3086    -2839    -2508 
   -2124    -1738    -1560    -1659    -1948    -2370    -2911    -3526 
   -3983    -4090    -3990    -3802    -3493    -3187    -2970    -2768 
   -2651    -2694    -2686    -2448    -2141    -1929    -1809    -1875 
   -2234    -2724    -3130    -3474    -3746    -3669    -3171    -2627 
   -2282    -2064    -1980    -2114    -2311    -2370    -2397    -2632 
   -3045    -3442    -3771    -4005    -3979    -3645    -3129    -2508 
   -1819    -1275    -1132    -1414    -1891    -2353    -2671    -2627 
   -2209    -1809    -1696    -1877    -2346    -3007    -3640    -4032 
   -4044    -3719    -3250    -2851    -2623    -2513    -2520    -2671 
   -2837    -2891    -2826    -2662    -2515    -2493    -2523    -2520 
   -2490    -2506    -2687    -2914    -2933    -2752    -2513    -2281 
   -2155    -2247    -2477    -2629    -2674    -2754    -2879    -2941 
   -2964    -2982    -2930    -2833    -2697    -2452    -2223    -2178 
   -2327    -2683    -3231    -3757    -3987    -3780    -3234    -2683 
   -2392    -2397    -2640    -3006    -3225    -3063    -2625    -2173 
   -1857    -1701    -1660    -1717    -1852    -1980    -2042    -2052 
   -2072    -2222    -2524    -2808    -2980    -3163    -3388    -3511 
   -3518    -3511    -3477    -3407    -3406    -3449    -3376    -3176 
   -2901    -2585    -2373    -2385    -2528    -2641    -2717    -2826 
   -2929    -2853    -2540    -2193    -2010    -2023    -2164    -2211 
   -2016    -1768    -1744    -2060    -2573    -2920    -2882    -2651 
   -2505    -2458    -2496    -2735    -3052    -3242    -3419    -3586 
   -3457    -3036    -2668    -2520    -2475    -2425    -2388    -2295 
   -2106    -2126    -2517    -2840    -2762    -2620    -2733    -2889 
   -2963    -3102    -3118    -2816    -2494    -2342    -2180    -2052 
   -2209    -2587    -2875    -3022    -3269    -3640    -3840    -3792 
   -3694    -3550    -3264    -2940    -2616    -2209    -1823    -1669 
   -1822    -2223    -2691    -2952    -2853    -2558    -2336    -2274 
   -2282    -2300    -2374    -2542    -2778    -3059    -3291    -3316 
   -3217    -3153    -3018    -2687    -2332    -2124    -2072    -2161 
   -2295    -2362    -2419    -2523    -2650    -2755    -2749    -2633 
   -2548    -2556    -2604    -2698    -2847    -2932    -2903    -2882 
   -2911    -2955    -3067    -3307    -3570    -3640    -3433    -3083 
   -2677    -2219    -1896    -1846    -1921    -2042    -2344    -2825 
   -3210    -3318    -3177    -2828    -2373    -2064    -2008    -2103 
   -2327    -2700    -3007    -2990    -2677    -2346    -2169    -2137 
   -2232    -2401    -2501    -2551    -2714    -2994    -3267    -3483 
   -3622    -3661    -3653    -3630    -3534    -3312    -3005    -2762 
   -2687    -2664    -2521    -2336    -2257    -2209    -2114    -2010 
   -1899    -1777    -1707    -1773    -1988    -2227    -2407    -2623 
   -2918    -3127    -3159    -3090    -2967    -2829    -2724    -2612 
   -2440    -2253    -2187    -2301    -2524    -2748    -2864    -2841 
   -2745    -2627    -2571    -2682    -2895    -3121    -3369    -3580 
   -3562    -3268    -2932    -2743    -2625    -2519    -2467    -2436 
   -2403    -2440    -2598    -2760    -2764    -2666    -2619    -2577 
   -2477    -2454    -2594    -2759    -2879    -3013    -3087    -2992 
   -2826    -2748    -2798    -2930    -3118    -3335    -3449    -3358 
   -3204    -3083    -2866    -2556    -2350    -2293    -2299    -2339 
   -2430    -2558    -2685    -2744    -2693    -2563    -2435    -2404 
   -2484    -2590    -2655    -2643    -2505    -2315    -2265    -2362 
   -2446    -2471    -2470    -2435    -2384    -2378    -2434    -2494 
   -2587    -2744    -2849    -2829    -2762    -2718    -2745    -2821 
   -2771    -2516    -2214    -1992    -1884    -1969    -2280    -2687 
   -3064    -3341    -3449    -3372    -3202    -3044    -2921    -2809 
   -2731    -2721    -2718    -2682    -2689    -2763    -2808    -2789 
   -2739    -2666    -2633    -2710    -2856    -2959    -2997    -3017 
