Origin Time       2025/03/30 10:18:00
Lat.              34.667
Long.             140.825
Depth. (km)       69
Mag.              4.9
Station Code      CHBH06
Station Lat.      35.7215
Station Long.     140.5046
Station Height(m) 35
Record Time       2025/03/30 10:19:08
Sampling Freq(Hz) 100Hz
Duration Time(s)  120
Dir.              6
Scale Factor      7845(gal)/8223790
Max. Acc. (gal)   0.613
Last Correction   2025/03/30 10:19:08
Memo.             
[...]
  -19394   -19391   -19164   -18943   -18904   -19029   -19155   -19134 
  -18976   -18866   -18967   -19211   -19390   -19359   -19157   -18994 
  -19049   -19268   -19392   -19257   -18991   -18882   -19066   -19387 
  -19535   -19365   -19053   -18879   -18929   -19102   -19237   -19215 
  -19047   -18893   -18918   -19097   -19222   -19167   -19066   -19122 
  -19346   -19588   -19669   -19506   -19203   -18986   -18995   -19164 
  -19286   -19238   -19089   -18985   -18998   -19078   -19109   -19074 
  -19071   -19174   -19346   -19449   -19344   -19070   -18854   -18844 
  -18975   -19109   -19191   -19241   -19248   -19187   -19107   -19093 
  -19161   -19244   -19276   -19257   -19233   -19236   -19249   -19199 
  -19055   -18927   -18952   -19113   -19233   -19183   -19044   -18991 
  -19090   -19302   -19523   -19592   -19425   -19141   -18955   -18962 
  -19082   -19174   -19172   -19097   -19008   -18956   -18959   -19018 
  -19129   -19234   -19282   -19267   -19233   -19244   -19280   -19248 
  -19121   -18970   -18895   -18959   -19113   -19218   -19199   -19151 
  -19192   -19302   -19388   -19392   -19288   -19183   -19217   -19334 
  -19368   -19276   -19116   -18951   -18883   -18959   -19102   -19209 
  -19221   -19157   -19103   -19107   -19106   -19029   -18921   -18910 
  -19055   -19284   -19473   -19467   -19218   -18914   -18831   -19018 
  -19240   -19261   -19097   -18941   -18960   -19133   -19282   -19298 
  -19232   -19175   -19190   -19248   -19263   -19225   -19213   -19268 
  -19342   -19352   -19278   -19148   -19006   -18935   -18998   -19148 
  -19273   -19327   -19309   -19226   -19110   -19010   -18975   -19028 
  -19133   -19209   -19207   -19151   -19113   -19125   -19117   -19044 
  -18998   -19040   -19125   -19215   -19256   -19184   -19062   -19033 
  -19111   -19214   -19305   -19348   -19294   -19211   -19197   -19215 
  -19198   -19134   -19026   -18931   -18949   -19084   -19236   -19311 
  -19260   -19130   -19043   -19087   -19245   -19390   -19423   -19363 
  -19272   -19187   -19156   -19205   -19279   -19275   -19149   -18960 
  -18827   -18866   -19055   -19203   -19180   -19053   -19001   -19095 
  -19201   -19160   -19043   -19041   -19190   -19348   -19383   -19255 
  -19047   -18962   -19097   -19315   -19422   -19352   -19164   -18975 
  -18908   -18999   -19167   -19294   -19333   -19284   -19176   -19070 
  -19006   -18999   -19082   -19249   -19395   -19380   -19178   -18944 
  -18917   -19167   -19512   -19664   -19484   -19118   -18821   -18738 
  -18839   -19001   -19120   -19157   -19102   -19026   -19036   -19125 
  -19192   -19241   -19371   -19535   -19566   -19417   -19179   -18991 
  -18963   -19083   -19209   -19240   -19183   -19099   -19064   -19106 
  -19120   -19025   -18944   -19005   -19156   -19284   -19329   -19226 
  -19033   -18964   -19113   -19302   -19361   -19298   -19198   -19159 
  -19180   -19191   -19214   -19326   -19453   -19423   -19195   -18921 
  -18770   -18786   -18928   -19080   -19126   -19090   -19076   -19140 
  -19253   -19303   -19210   -19083   -19089   -19245   -19400   -19344 
  -19082   -18893   -18989   -19264   -19434   -19336   -19075   -18867 
  -18847   -19026   -19276   -19399   -19334   -19199   -19133   -19186 
  -19292   -19321   -19219   -19072   -18972   -18985   -19128   -19272 
  -19222   -18998   -18824   -18859   -19095   -19427   -19645   -19575 
  -19298   -19039   -18932   -18994   -19130   -19198   -19172   -19134 
  -19089   -18997   -18909   -18906   -19001   -19140   -19298   -19426 
  -19425   -19288   -19138   -19111   -19255   -19430   -19398   -19130 
  -18828   -18701   -18846   -19161   -19381   -19356   -19201   -19095 
  -19117   -19253   -19419   -19469   -19336   -19121   -18970   -18935 
  -18986   -19043   -19076   -19157   -19319   -19458   -19440   -19244 
  -19001   -18895   -18989   -19176   -19284   -19178   -18912   -18720 
  -18754   -18976   -19246   -19400   -19363   -19210   -19109   -19128 
  -19174   -19163   -19170   -19284   -19415   -19417   -19294   -19168 
  -19106   -19101   -19106   -19047   -18933   -18932   -19117   -19318 
  -19356   -19241   -19117   -19122   -19242   -19360   -19399   -19327 
  -19124   -18891   -18828   -18967   -19120   -19148   -19107   -19122 
  -19221   -19329   -19356   -19284   -19191   -19141   -19121   -19129 
  -19170   -19174   -19080   -18959   -18941   -19056   -19175   -19180 
  -19116   -19098   -19178   -19280   -19305   -19237   -19170   -19178 
  -19225   -19238   -19205   -19161   -19120   -19095   -19129   -19199 
  -19240   -19228   -19152   -19041   -18997   -19037   -19099   -19160 
  -19199   -19190   -19159   -19122   -19067   -19063   -19175   -19306 
  -19325   -19264   -19234   -19248   -19218   -19110   -19022   -19051 
  -19132   -19156   -19125   -19084   -19057   -19105   -19268   -19430 
  -19427   -19264   -19087   -19016   -19070   -19179   -19245   -19234 
  -19191   -19152   -19114   -19090   -19121   -19213   -19315   -19361 
  -19311   -19175   -19009   -18909   -18948   -19109   -19265   -19276 
  -19129   -18962   -18914   -18999   -19117   -19148   -19035   -18874 
  -18871   -19066   -19267   -19326   -19288   -19276   -19356   -19468 
  -19437   -19213   -19017   -19021   -19107   -19124   -19064   -19012 
  -19041   -19134   -19209   -19256   -19325   -19369   -19317   -19197 
  -19087   -19066   -19172   -19302   -19273   -19068   -18858   -18820 
  -19006   -19278   -19417   -19349   -19175   -19045   -19063   -19186 
  -19278   -19286   -19255   -19210   -19152   -19090   -19049   -19063 
  -19102   -19094   -19066   -19101   -19171   -19211   -19222   -19207 
  -19211   -19307   -19400   -19292   -19012   -18798   -18809   -18995 
  -19219   -19350   -19342   -19268   -19230   -19260   -19288   -19229 
  -19076   -18937   -18960   -19163   -19332   -19249   -18985   -18804 
  -18840   -19040   -19272   -19365   -19259   -19095   -19040   -19106 
  -19222   -19303   -19296   -19215   -19124   -19057   -18993   -18927 
  -18929   -19049   -19242   -19398   -19454   -19415   -19321   -19226 
  -19160   -19111   -19091   -19134   -19215   -19276   -19309   -19329 
  -19333   -19302   -19232   -19156   -19093   -19037   -19020   -19063 
  -19113   -19128   -19113   -19084   -19060   -19076   -19110   -19089 
  -19025   -19018   -19091   -19171   -19210   -19206   -19175   -19152 
  -19168   -19224   -19306   -19353   -19305   -19184   -19051   -18929 
  -18893   -19002   -19190   -19330   -19354   -19292   -19206   -19129 
  -19093   -19138   -19259   -19379   -19418   -19327   -19145   -18989 
  -18939   -18986   -19105   -19233   -19279   -19209   -19072   -18935 
  -18862   -18906   -19036   -19176   -19291   -19364   -19371   -19314 
  -19229   -19176   -19197   -19255   -19255   -19143   -19001   -18951 
  -18986   -19047   -19125   -19219   -19306   -19359   -19346   -19267 
  -19172   -19114   -19137   -19190   -19155   -18997   -18802   -18727 
  -18859   -19075   -19186   -19172   -19160   -19215   -19275   -19267 
  -19222   -19215   -19279   -19375   -19390   -19267   -19095   -18993 
  -19006   -19117   -19224   -19248   -19197   -19113   -19068   -19075 
  -19076   -19072   -19129   -19240   -19333   -19345   -19241   -19076 
  -18991   -19026   -19106   -19192   -19275   -19313   -19284   -19202 
  -19074   -18952   -18952   -19095   -19260   -19322   -19257   -19151 
  -19102   -19102   -19078   -19035   -19039   -19136   -19298   -19430 
  -19421   -19264   -19097   -19070   -19172   -19253   -19213   -19072 
  -18916   -18850   -18920   -19064   -19175   -19205   -19180   -19168 
  -19197   -19221   -19178   -19093   -19086   -19199   -19323   -19368 
  -19334   -19257   -19217   -19233   -19207   -19084   -18935   -18862 
  -18924   -19087   -19260   -19359   -19326   -19184   -19048   -18993 
  -18990   -19016   -19087   -19202   -19295   -19296   -19244   -19230 
  -19284   -19332   -19260   -19089   -18997   -19090   -19268   -19368 
  -19307   -19132   -18983   -18986   -19113   -19226   -19246   -19197 
  -19101   -18998   -18949   -18970   -19039   -19138   -19230   -19241 
  -19155   -19063   -19056   -19113   -19178   -19221   -19224   -19190 
  -19155   -19172   -19263   -19364   -19388   -19311   -19203   -19180 
  -19269   -19345   -19276   -19103   -18947   -18862   -18824   -18816 
  -18871   -19003   -19179   -19359   -19468   -19421   -19294   -19252 
  -19284   -19267   -19182   -19082   -19026   -19059   -19116   -19066 
  -18952   -18975   -19190   -19442   -19557   -19460   -19211   -19001 
  -19002   -19153   -19228   -19164   -19095   -19093   -19099   -19090 
  -19057   -18999   -18978   -19091   -19307   -19472   -19480   -19333 
  -19095   -18916   -18925   -19059   -19174   -19230   -19219   -19137 
  -19082   -19129   -19187   -19153   -19087   -19084   -19138   -19187 
  -19164   -19080   -19021   -19071   -19257   -19444   -19441   -19246 
  -19033   -18936   -18981   -19106   -19201   -19198   -19149   -19138 
  -19178   -19211   -19190   -19149   -19174   -19264   -19330   -19295 
  -19179   -19078   -19079   -19145   -19187   -19226   -19286   -19286 
  -19191   -19045   -18893   -18819   -18910   -19125   -19284   -19230 
  -19035   -18932   -19040   -19271   -19473   -19504   -19338   -19149 
  -19107   -19187   -19276   -19305   -19260   -19184   -19133   -19084 
  -18972   -18840   -18844   -19055   -19364   -19591   -19593   -19353 
  -19040   -18874   -18924   -19101   -19283   -19342   -19198   -18944 
  -18801   -18874   -19053   -19199   -19284   -19317   -19283   -19201 
  -19098   -18974   -18885   -18948   -19141   -19315   -19368   -19261 
  -19074   -19014   -19153   -19310   -19315   -19184   -19029   -18945 
  -18963   -19033   -19105   -19157   -19176   -19159   -19141   -19153 
  -19192   -19280   -19413   -19498   -19475   -19363   -19209   -19087 
  -19051   -19074   -19106   -19141   -19167   -19171   -19170   -19172 
  -19167   -19147   -19140   -19192   -19263   -19232   -19103   -18990 
  -18947   -18971   -19048   -19086   -19003   -18883   -18867   -19006 
  -19236   -19384   -19306   -19070   -18924   -19022   -19259   -19435 
  -19453   -19317   -19109   -18971   -19009   -19194   -19357   -19372 
  -19306   -19242   -19182   -19129   -19110   -19126   -19172   -19253 
  -19359   -19426   -19408   -19323   -19217   -19136   -19086   -19016 
  -18917   -18889   -18998   -19168   -19305   -19406   -19503   -19568 
  -19539   -19394   -19187   -19048   -19071   -19182   -19219   -19109 
  -18935   -18841   -18900   -19037   -19116   -19071   -18975   -18951 
  -19020   -19121   -19174   -19149   -19107   -19156   -19311   -19440 
  -19418   -19273   -19107   -19002   -18998   -19045   -19043   -18987 
  -18967   -19029   -19138   -19228   -19225   -19141   -19040   -18949 
  -18893   -18931   -19066   -19221   -19342   -19411   -19380   -19234 
  -19076   -19048   -19160   -19302   -19352   -19296   -19230   -19206 
  -19172   -19111   -19084   -19128   -19188   -19198   -19153   -19118 
  -19164   -19272   -19334   -19292   -19183   -19076   -19035   -19075 
  -19124   -19078   -18936   -18810   -18841   -19053   -19300   -19423 
  -19394   -19261   -19111   -19035   -19074   -19165   -19183   -19071 
  -18949   -18968   -19101   -19184   -19160   -19129   -19183   -19311 
  -19429   -19425   -19276   -19106   -19049   -19130   -19263   -19326 
  -19267   -19133   -19032   -19037   -19134   -19233   -19251   -19182 
  -19080   -19016   -19041   -19148   -19264   -19354   -19410   -19392 
  -19291   -19141   -19018   -18997   -19095   -19236   -19292   -19213 
  -19082   -19022   -19040   -19074   -19114   -19152   -19156   -19124 
  -19084   -19072   -19097   -19118   -19094   -19041   -19037   -19143 
  -19325   -19477   -19514   -19441   -19307   -19182   -19113   -19060 
  -18963   -18874   -18898   -19064   -19295   -19458   -19450   -19288 
  -19087   -18928   -18817   -18743   -18746   -18881   -19102   -19257 
  -19271   -19210   -19167   -19176   -19237   -19334   -19434   -19504 
  -19495   -19369   -19197   -19102   -19093   -19101   -19145   -19253 
  -19333   -19311   -19221   -19110   -19014   -18986   -19028   -19089 
  -19122   -19124   -19113   -19109   -19134   -19180   -19187   -19129 
  -19074   -19076   -19110   -19105   -19018   -18913   -18883   -18958 
  -19089   -19194   -19230   -19252   -19298   -19337   -19341   -19330 
  -19345   -19396   -19422   -19327   -19124   -18974   -19040   -19288 
  -19510   -19546   -19410   -19218   -19067   -18968   -18906   -18889 
  -18917   -18995   -19090   -19114   -19048   -18967   -18954   -19036 
  -19144   -19165   -19089   -19012   -19013   -19084   -19165   -19214 
  -19179   -19049   -18941   -18979   -19117   -19245   -19345   -19425 
  -19457   -19427   -19333   -19172   -19025   -18990   -19074   -19241 
  -19398   -19390   -19221   -19087   -19107   -19202   -19236   -19164 
  -19059   -19008   -19043   -19138   -19221   -19218   -19156   -19114 
  -19122   -19165   -19229   -19282   -19283   -19233   -19182   -19159 
  -19170   -19205   -19203   -19125   -19021   -18944   -18906   -18914 
  -18943   -18975   -19044   -19155   -19245   -19251   -19170   -19090 
  -19105   -19217   -19344   -19407   -19386   -19305   -19241   -19263 
  -19364   -19440   -19384   -19203   -19002   -18889   -18886   -18954 
  -19059   -19172   -19252   -19284   -19278   -19248   -19241   -19267 
  -19278   -19232   -19118   -18952   -18796   -18720   -18720   -18744 
  -18774   -18824   -18933   -19136   -19396   -19633   -19781   -19799 
  -19688   -19502   -19307   -19134   -19020   -18994   -19047   -19122 
  -19186   -19232   -19241   -19170   -19013   -18856   -18843   -19021 
  -19276   -19442   -19431   -19275   -19075   -18944   -18944   -19022 
  -19071   -19076   -19089   -19134   -19219   -19300   -19321   -19298 
  -19267   -19221   -19133   -18993   -18847   -18767   -18787   -18902 
  -19045   -19137   -19178   -19228   -19288   -19300   -19240   -19109 
  -18958   -18920   -19068   -19307   -19484   -19514   -19427   -19342 
  -19311   -19292   -19253   -19207   -19190   -19257   -19410   -19542 
  -19558   -19435   -19194   -18949   -18819   -18759   -18677   -18592 
  -18584   -18679   -18877   -19122   -19318   -19407   -19415   -19395 
  -19386   -19365   -19290   -19164   -19044   -18966   -18963   -19053 
  -19199   -19323   -19388   -19391   -19334   -19234   -19134   -19049 
  -18959   -18877   -18882   -19017   -19211   -19350   -19375   -19311 
  -19263   -19294   -19348   -19332   -19237   -19136   -19049   -18997 
  -19022   -19097   -19136   -19107   -19028   -18960   -19012   -19202 
  -19394   -19445   -19380   -19313   -19287   -19275   -19241   -19167 
  -19056   -18954   -18927   -18994   -19105   -19197   -19232   -19217 
  -19202   -19188   -19126   -19030   -19003   -19075   -19147   -19152 
  -19109   -19051   -19013   -19018   -19060   -19117   -19182   -19249 
  -19302   -19336   -19376   -19421   -19402   -19272   -19093   -18975 
  -18971   -19063   -19198   -19294   -19309   -19265   -19209   -19157 
  -19099   -19035   -18978   -18939   -18944   -19026   -19140   -19205 
  -19224   -19222   -19203   -19174   -19137   -19075   -18993   -18960 
  -19035   -19161   -19238   -19225   -19157   -19102   -19090   -19102 
  -19102   -19089   -19078   -19094   -19165   -19319   -19531   -19720 
  -19789   -19712   -19531   -19286   -19026   -18823   -18719   -18716 
  -18806   -18963   -19125   -19246   -19334   -19407   -19425   -19340 
  -19188   -19029   -18894   -18802   -18763   -18771   -18824   -18935 
  -19106   -19303   -19450   -19502   -19471   -19414   -19386   -19380 
  -19330   -19195   -19018   -18900   -18902   -19014   -19164   -19252 
  -19242   -19179   -19120   -19105   -19155   -19209   -19153   -18995 
  -18885   -18932   -19113   -19348   -19534   -19592   -19521   -19391 
  -19306   -19317   -19367   -19361   -19251   -19062   -18893   -18806 
  -18787   -18801   -18844   -18929   -19025   -19064   -19041   -19040 
  -19125   -19295   -19507   -19689   -19762   -19695   -19514   -19273 
  -19048   -18885   -18773   -18670   -18569   -18524   -18615   -18814 
  -19009   -19106   -19098   -19048   -19045   -19105   -19153   -19153 
  -19159   -19249   -19429   -19602   -19654   -19556   -19380   -19225 
  -19129   -19068   -19033   -19047   -19125   -19245   -19360   -19456 
  -19546   -19599   -19572   -19492   -19411   -19305   -19133   -18936 
  -18759   -18648   -18667   -18812   -18972   -19062   -19090   -19121 
  -19168   -19175   -19090   -18958   -18881   -18906   -18978   -19013 
  -19001   -19001   -19043   -19102   -19165   -19253   -19372   -19512 
  -19623   -19618   -19487   -19299   -19114   -18975   -18921   -18966 
  -19078   -19187   -19240   -19249   -19252   -19272   -19310   -19311 
  -19214   -19070   -19008   -19074   -19192   -19265   -19252   -19213 
  -19232   -19279   -19241   -19087   -18920   -18868   -18956   -19076 
  -19125   -19079   -19013   -19040   -19157   -19249   -19242   -19168 
  -19093   -19048   -19029   -19032   -19078   -19175   -19257   -19251 
  -19187   -19159   -19202   -19307   -19457   -19608   -19693   -19677 
  -19554   -19336   -19094   -18916   -18821   -18794   -18808   -18820 
  -18809   -18840   -18993   -19219   -19381   -19427   -19419   -19403 
  -19377   -19334   -19242   -19093   -18952   -18897   -18948   -19029 
  -19037   -18959   -18897   -18958   -19137   -19329   -19429   -19414 
  -19350   -19302   -19251   -19132   -18944   -18786   -18781   -18936 
  -19126   -19229   -19225   -19163   -19113   -19120   -19190   -19287 
  -19311   -19194   -19012   -18898   -18908   -19009   -19148   -19265 
  -19334   -19368   -19383   -19367   -19276   -19109   -18962   -18945 
  -19066   -19234   -19357   -19394   -19376   -19361   -19354   -19299 
  -19161   -18981   -18850   -18825   -18883   -18981   -19113   -19286 
  -19467   -19576   -19550   -19406   -19225   -19095   -19055   -19083 
  -19128   -19148   -19156   -19176   -19213   -19246   -19252   -19237 
  -19249   -19310   -19345   -19269   -19099   -18939   -18891   -18986 
  -19141   -19232   -19211   -19120   -19028   -18982   -18985   -19035 
  -19118   -19183   -19195   -19192   -19245   -19327   -19319   -19186 
  -19040   -19009   -19105   -19240   -19284   -19155   -18921   -18759 
  -18758   -18878   -19043   -19178   -19259   -19306   -19322   -19295 
  -19224   -19097   -18939   -18821   -18823   -18949   -19124   -19253 
  -19310   -19345   -19404   -19464   -19450   -19342   -19194   -19102 
  -19121   -19215   -19311   -19336   -19265   -19156   -19083   -19068 
  -19072   -19048   -19021   -19057   -19163   -19263   -19279   -19205 
  -19110   -19059   -19078   -19159   -19257   -19294   -19209   -19052 
  -18956   -18985   -19097   -19218   -19292   -19300   -19275   -19246 
  -19214   -19136   -18997   -18848   -18775   -18832   -19002   -19198 
  -19332   -19388   -19387   -19348   -19291   -19218   -19113   -18999 
  -18931   -18951   -19048   -19125   -19090   -18987   -18954   -19053 
  -19236   -19390   -19415   -19330   -19245   -19205   -19167   -19113 
  -19091   -19133   -19199   -19236   -19240   -19232   -19225   -19249 
  -19300   -19332   -19330   -19318   -19317   -19319   -19311   -19302 
  -19306   -19317   -19325   -19329   -19303   -19237   -19144   -19033 
