Origin Time       2025/03/30 10:18:00
Lat.              34.667
Long.             140.825
Depth. (km)       69
Mag.              4.9
Station Code      KNGH20
Station Lat.      35.3663
Station Long.     139.1260
Station Height(m) 465
Record Time       2025/03/30 10:19:17
Sampling Freq(Hz) 100Hz
Duration Time(s)  120
Dir.              4
Scale Factor      7845(gal)/8223790
Max. Acc. (gal)   1.579
Last Correction   2025/03/30 10:19:18
Memo.             
[...]
   -2867    -2841    -2720    -2551    -2385    -2285    -2308    -2428 
   -2554    -2654    -2722    -2745    -2744    -2741    -2708    -2593 
   -2412    -2288    -2317    -2469    -2652    -2783    -2803    -2717 
   -2575    -2452    -2385    -2354    -2332    -2330    -2385    -2525 
   -2732    -2928    -2991    -2841    -2533    -2226    -2083    -2178 
   -2425    -2658    -2767    -2740    -2650    -2581    -2574    -2609 
   -2616    -2547    -2448    -2420    -2512    -2685    -2837    -2871 
   -2766    -2582    -2409    -2338    -2405    -2547    -2664    -2728 
   -2735    -2674    -2555    -2427    -2378    -2459    -2604    -2700 
   -2712    -2697    -2710    -2740    -2729    -2637    -2467    -2300 
   -2220    -2258    -2377    -2513    -2612    -2628    -2569    -2513 
   -2513    -2538    -2532    -2532    -2608    -2729    -2799    -2783 
   -2695    -2594    -2539    -2523    -2488    -2413    -2342    -2327 
   -2389    -2519    -2671    -2763    -2759    -2681    -2587    -2554 
   -2606    -2712    -2786    -2770    -2681    -2570    -2473    -2420 
   -2428    -2489    -2562    -2590    -2571    -2529    -2481    -2431 
   -2390    -2382    -2415    -2454    -2470    -2471    -2489    -2552 
   -2644    -2717    -2732    -2673    -2583    -2521    -2528    -2640 
   -2795    -2864    -2791    -2625    -2471    -2404    -2440    -2560 
   -2679    -2710    -2655    -2602    -2628    -2691    -2700    -2606 
   -2446    -2311    -2293    -2386    -2506    -2567    -2554    -2532 
   -2558    -2623    -2667    -2627    -2512    -2384    -2312    -2361 
   -2511    -2659    -2732    -2731    -2712    -2713    -2709    -2656 
   -2539    -2411    -2357    -2388    -2466    -2571    -2678    -2758 
   -2793    -2770    -2694    -2593    -2506    -2474    -2490    -2523 
   -2538    -2519    -2473    -2438    -2454    -2520    -2606    -2673 
   -2673    -2575    -2435    -2361    -2423    -2597    -2781    -2883 
   -2859    -2720    -2556    -2473    -2501    -2586    -2641    -2617 
   -2520    -2413    -2385    -2454    -2555    -2597    -2552    -2501 
   -2529    -2619    -2709    -2736    -2662    -2517    -2403    -2398 
   -2488    -2586    -2632    -2602    -2519    -2446    -2457    -2546 
   -2635    -2652    -2613    -2581    -2597    -2639    -2639    -2566 
   -2459    -2389    -2411    -2516    -2635    -2698    -2685    -2627 
   -2566    -2524    -2505    -2509    -2527    -2547    -2582    -2652 
   -2735    -2760    -2705    -2619    -2546    -2493    -2462    -2481 
   -2543    -2589    -2571    -2498    -2427    -2408    -2455    -2548 
   -2625    -2636    -2604    -2579    -2571    -2569    -2538    -2458 
   -2355    -2299    -2366    -2556    -2770    -2899    -2902    -2812 
   -2697    -2629    -2628    -2619    -2548    -2462    -2405    -2412 
   -2485    -2586    -2666    -2679    -2621    -2538    -2455    -2404 
   -2408    -2451    -2511    -2562    -2575    -2565    -2559    -2565 
   -2577    -2590    -2609    -2636    -2675    -2729    -2768    -2760 
   -2708    -2628    -2550    -2473    -2401    -2373    -2419    -2523 
   -2636    -2702    -2677    -2560    -2424    -2363    -2405    -2501 
   -2575    -2590    -2574    -2571    -2613    -2702    -2770    -2759 
   -2683    -2604    -2567    -2565    -2555    -2519    -2448    -2369 
   -2335    -2367    -2446    -2523    -2566    -2602    -2663    -2744 
   -2816    -2833    -2783    -2666    -2485    -2300    -2196    -2219 
   -2349    -2508    -2632    -2698    -2714    -2729    -2762    -2785 
   -2760    -2662    -2516    -2382    -2311    -2338    -2467    -2639 
   -2759    -2763    -2678    -2578    -2508    -2492    -2536    -2628 
   -2716    -2728    -2671    -2624    -2613    -2605    -2563    -2478 
   -2366    -2255    -2201    -2249    -2366    -2496    -2619    -2724 
   -2776    -2762    -2714    -2663    -2608    -2562    -2529    -2490 
   -2443    -2420    -2448    -2509    -2562    -2601    -2643    -2681 
   -2702    -2705    -2706    -2712    -2689    -2635    -2556    -2473 
   -2434    -2471    -2570    -2663    -2671    -2590    -2481    -2401 
   -2377    -2400    -2443    -2479    -2489    -2470    -2440    -2434 
   -2477    -2555    -2640    -2704    -2720    -2691    -2641    -2600 
   -2617    -2685    -2733    -2728    -2689    -2650    -2635    -2651 
   -2697    -2737    -2732    -2674    -2570    -2438    -2315    -2250 
   -2270    -2346    -2415    -2431    -2386    -2344    -2381    -2500 
   -2650    -2776    -2839    -2830    -2793    -2790    -2830    -2835 
   -2736    -2575    -2454    -2419    -2455    -2532    -2601    -2609 
   -2558    -2486    -2425    -2371    -2313    -2284    -2317    -2405 
   -2517    -2633    -2747    -2845    -2876    -2802    -2658    -2528 
   -2488    -2551    -2663    -2736    -2724    -2655    -2574    -2505 
   -2490    -2528    -2559    -2539    -2469    -2405    -2393    -2432 
   -2497    -2535    -2496    -2427    -2415    -2470    -2536    -2582 
   -2644    -2729    -2782    -2779    -2724    -2605    -2459    -2366 
   -2369    -2443    -2548    -2646    -2706    -2733    -2766    -2813 
   -2841    -2803    -2698    -2567    -2446    -2357    -2322    -2340 
   -2388    -2420    -2439    -2482    -2547    -2594    -2613    -2627 
   -2641    -2635    -2606    -2567    -2513    -2458    -2448    -2506 
   -2604    -2702    -2767    -2754    -2655    -2544    -2509    -2546 
   -2586    -2556    -2444    -2319    -2273    -2361    -2571    -2793 
   -2890    -2821    -2677    -2587    -2587    -2624    -2640    -2619 
   -2570    -2511    -2451    -2409    -2392    -2404    -2457    -2525 
   -2562    -2562    -2565    -2602    -2666    -2725    -2748    -2700 
   -2570    -2415    -2328    -2353    -2434    -2513    -2579    -2619 
   -2621    -2612    -2623    -2664    -2732    -2817    -2880    -2875 
   -2789    -2641    -2479    -2362    -2305    -2300    -2340    -2394 
   -2424    -2430    -2438    -2484    -2562    -2633    -2658    -2614 
   -2531    -2471    -2501    -2644    -2832    -2948    -2925    -2778 
   -2582    -2430    -2377    -2432    -2533    -2592    -2579    -2531 
   -2515    -2577    -2682    -2766    -2767    -2646    -2454    -2300 
   -2265    -2351    -2471    -2539    -2529    -2465    -2420    -2471 
   -2602    -2736    -2797    -2772    -2709    -2651    -2625    -2620 
   -2608    -2570    -2501    -2436    -2419    -2444    -2478    -2506 
   -2547    -2606    -2656    -2678    -2687    -2685    -2679    -2670 
   -2629    -2531    -2380    -2227    -2124    -2106    -2211    -2438 
   -2718    -2951    -3056    -3044    -2965    -2849    -2744    -2682 
   -2643    -2589    -2505    -2442    -2454    -2520    -2589    -2606 
   -2540    -2423    -2330    -2309    -2350    -2400    -2447    -2478 
   -2454    -2394    -2371    -2435    -2560    -2686    -2778    -2818 
   -2778    -2689    -2608    -2550    -2506    -2471    -2461    -2509 
   -2613    -2754    -2878    -2926    -2878    -2744    -2581    -2439 
   -2323    -2242    -2224    -2293    -2443    -2621    -2770    -2822 
   -2747    -2598    -2482    -2448    -2475    -2527    -2613    -2736 
   -2847    -2864    -2749    -2546    -2339    -2209    -2215    -2331 
   -2473    -2585    -2650    -2671    -2666    -2644    -2621    -2597 
   -2551    -2471    -2381    -2340    -2404    -2533    -2658    -2729 
   -2710    -2617    -2524    -2502    -2562    -2647    -2683    -2646 
   -2567    -2504    -2484    -2521    -2606    -2686    -2722    -2708 
   -2648    -2555    -2442    -2346    -2305    -2326    -2405    -2525 
   -2627    -2674    -2686    -2709    -2748    -2736    -2654    -2566 
   -2524    -2535    -2579    -2631    -2656    -2624    -2562    -2527 
   -2519    -2528    -2542    -2536    -2504    -2463    -2457    -2490 
   -2528    -2560    -2596    -2619    -2620    -2620    -2646    -2691 
   -2704    -2670    -2633    -2624    -2635    -2643    -2640    -2617 
   -2566    -2519    -2512    -2532    -2538    -2505    -2458    -2451 
   -2505    -2586    -2639    -2632    -2563    -2444    -2328    -2273 
   -2278    -2327    -2411    -2523    -2650    -2751    -2802    -2835 
   -2837    -2785    -2705    -2640    -2609    -2597    -2569    -2512 
   -2434    -2350    -2293    -2301    -2388    -2506    -2610    -2686 
   -2712    -2678    -2605    -2525    -2477    -2452    -2430    -2425 
   -2482    -2623    -2801    -2944    -3011    -2972    -2822    -2619 
   -2424    -2282    -2209    -2205    -2261    -2353    -2475    -2619 
   -2756    -2853    -2884    -2825    -2690    -2536    -2425    -2388 
   -2390    -2404    -2420    -2442    -2500    -2613    -2729    -2781 
   -2741    -2659    -2594    -2575    -2604    -2656    -2683    -2652 
   -2570    -2485    -2442    -2447    -2489    -2546    -2585    -2596 
   -2587    -2589    -2613    -2651    -2683    -2681    -2625    -2554 
   -2508    -2504    -2532    -2559    -2569    -2540    -2458    -2371 
   -2343    -2384    -2479    -2608    -2713    -2732    -2651    -2523 
   -2425    -2415    -2492    -2600    -2670    -2655    -2573    -2492 
   -2444    -2435    -2474    -2544    -2600    -2592    -2521    -2454 
   -2438    -2471    -2536    -2598    -2609    -2551    -2466    -2424 
   -2466    -2577    -2702    -2763    -2745    -2706    -2717    -2810 
   -2932    -2994    -2944    -2781    -2577    -2424    -2359    -2371 
   -2435    -2519    -2593    -2620    -2594    -2555    -2533    -2552 
   -2608    -2643    -2598    -2466    -2331    -2272    -2300    -2394 
   -2517    -2608    -2613    -2543    -2462    -2419    -2416    -2439 
   -2443    -2407    -2365    -2366    -2439    -2562    -2674    -2716 
   -2682    -2631    -2652    -2794    -3036    -3281    -3407    -3358 
   -3195    -3006    -2847    -2712    -2583    -2451    -2309    -2192 
   -2139    -2147    -2173    -2195    -2212    -2232    -2269    -2336 
   -2411    -2421    -2350    -2255    -2203    -2214    -2259    -2308 
   -2338    -2355    -2397    -2492    -2633    -2766    -2837    -2876 
   -2960    -3103    -3253    -3343    -3369    -3349    -3258    -3091 
   -2878    -2621    -2357    -2180    -2187    -2397    -2727    -3026 
   -3137    -2987    -2628    -2177    -1768    -1522    -1505    -1676 
   -1929    -2182    -2396    -2531    -2574    -2527    -2378    -2172 
   -2008    -2012    -2235    -2605    -2986    -3252    -3325    -3203 
   -2944    -2619    -2319    -2112    -2035    -2106    -2303    -2560 
   -2779    -2868    -2803    -2628    -2438    -2367    -2497    -2795 
   -3152    -3447    -3619    -3642    -3492    -3188    -2802    -2419 
   -2134    -2011    -2062    -2239    -2447    -2605    -2664    -2612 
   -2473    -2289    -2091    -1902    -1779    -1826    -2097    -2524 
   -2949    -3198    -3165    -2878    -2482    -2154    -1973    -1934 
   -2011    -2177    -2412    -2674    -2909    -3069    -3114    -3060 
   -2987    -2955    -3015    -3183    -3385    -3524    -3538    -3420 
   -3188    -2855    -2451    -2026    -1648    -1385    -1264    -1332 
   -1640    -2118    -2577    -2835    -2817    -2585    -2259    -1983 
   -1896    -2056    -2409    -2837    -3199    -3393    -3384    -3225 
   -3028    -2843    -2660    -2485    -2340    -2274    -2328    -2513 
   -2775    -2955    -2924    -2712    -2436    -2195    -2052    -2050 
   -2195    -2413    -2602    -2679    -2604    -2409    -2200    -2097 
   -2178    -2416    -2689    -2867    -2859    -2679    -2416    -2138 
   -1900    -1769    -1795    -1991    -2324    -2736    -3161    -3530 
   -3792    -3894    -3827    -3613    -3287    -2922    -2625    -2459 
   -2432    -2473    -2482    -2404    -2235    -2049    -1949    -1995 
   -2192    -2471    -2708    -2814    -2793    -2691    -2574    -2521 
   -2579    -2701    -2795    -2785    -2658    -2513    -2482    -2575 
   -2655    -2562    -2277    -1926    -1656    -1576    -1732    -2081 
   -2505    -2848    -3003    -2975    -2822    -2624    -2466    -2434 
   -2554    -2767    -2990    -3168    -3271    -3291    -3242    -3130 
   -2940    -2639    -2270    -1992    -1944    -2137    -2478    -2806 
   -2951    -2818    -2471    -2083    -1811    -1748    -1912    -2222 
   -2547    -2801    -2960    -3036    -3051    -3003    -2863    -2621 
   -2349    -2158    -2160    -2409    -2812    -3181    -3399    -3416 
   -3229    -2901    -2566    -2357    -2270    -2223    -2169    -2104 
   -2023    -1925    -1837    -1786    -1759    -1782    -1939    -2266 
   -2681    -3045    -3254    -3291    -3195    -3068    -2983    -2907 
   -2791    -2631    -2489    -2448    -2506    -2590    -2632    -2582 
   -2423    -2204    -2025    -1966    -2049    -2255    -2548    -2872 
   -3186    -3453    -3613    -3596    -3402    -3159    -2994    -2895 
   -2776    -2586    -2353    -2173    -2137    -2224    -2303    -2197 
   -1864    -1452    -1186    -1219    -1547    -2049    -2578    -3019 
   -3310    -3445    -3460    -3381    -3207    -2932    -2617    -2370 
   -2295    -2394    -2569    -2706    -2737    -2640    -2447    -2238 
   -2122    -2155    -2322    -2594    -2918    -3176    -3257    -3109 
   -2793    -2467    -2272    -2245    -2336    -2490    -2678    -2859 
   -2976    -2987    -2860    -2605    -2278    -1977    -1794    -1737 
   -1790    -1964    -2249    -2585    -2878    -3038    -3036    -2932 
   -2851    -2875    -2997    -3140    -3207    -3114    -2835    -2370 
   -1780    -1224     -911    -1007    -1530    -2307    -3087    -3701 
   -4081    -4199    -4039    -3631    -3056    -2432    -1922    -1653 
   -1661    -1892    -2215    -2492    -2650    -2694    -2647    -2508 
   -2339    -2247    -2261    -2350    -2463    -2524    -2506    -2448 
   -2425    -2500    -2635    -2751    -2828    -2910    -3057    -3256 
   -3404    -3380    -3153    -2822    -2504    -2245    -2077    -2018 
   -2022    -2043    -2084    -2178    -2349    -2560    -2775    -2963 
   -3091    -3159    -3173    -3114    -2941    -2650    -2313    -2035 
   -1868    -1838    -1915    -2003    -2016    -1971    -1981    -2119 
   -2358    -2662    -2986    -3242    -3373    -3404    -3391    -3337 
   -3211    -3030    -2862    -2729    -2598    -2452    -2315    -2204 
   -2151    -2166    -2193    -2160    -2025    -1818    -1672    -1726 
   -2019    -2462    -2856    -3034    -2947    -2690    -2494    -2516 
   -2724    -2982    -3154    -3202    -3181    -3152    -3133    -3084 
   -2937    -2686    -2380    -2085    -1880    -1798    -1854    -2030 
   -2246    -2434    -2555    -2633    -2735    -2891    -3088    -3249 
   -3288    -3195    -2983    -2685    -2388    -2177    -2072    -2037 
   -2038    -2084    -2170    -2263    -2363    -2519    -2717    -2849 
   -2829    -2693    -2540    -2478    -2574    -2778    -2961    -3030 
   -2976    -2859    -2725    -2573    -2381    -2142    -1888    -1726 
   -1765    -2025    -2435    -2875    -3217    -3396    -3454    -3445 
   -3342    -3114    -2772    -2396    -2116    -2012    -2053    -2146 
   -2182    -2133    -2053    -2016    -2058    -2178    -2349    -2547 
   -2759    -2980    -3169    -3264    -3237    -3079    -2806    -2485 
   -2242    -2208    -2366    -2573    -2717    -2748    -2674    -2558 
   -2442    -2305    -2122    -1935    -1877    -2033    -2357    -2724 
   -3015    -3163    -3163    -3034    -2826    -2617    -2482    -2451 
   -2511    -2631    -2758    -2817    -2767    -2606    -2362    -2084 
   -1856    -1791    -1949    -2292    -2708    -3036    -3163    -3090 
   -2914    -2759    -2702    -2739    -2817    -2860    -2836    -2783 
   -2758    -2778    -2794    -2728    -2571    -2374    -2208    -2151 
   -2207    -2292    -2330    -2299    -2227    -2168    -2193    -2349 
   -2593    -2822    -2984    -3091    -3164    -3186    -3140    -3006 
   -2752    -2440    -2204    -2120    -2188    -2353    -2527    -2637 
   -2660    -2628    -2573    -2505    -2444    -2407    -2394    -2382 
   -2324    -2232    -2178    -2209    -2322    -2454    -2531    -2531 
   -2511    -2546    -2651    -2772    -2870    -2930    -2953    -2938 
   -2875    -2767    -2617    -2440    -2303    -2273    -2365    -2513 
   -2631    -2679    -2685    -2666    -2633    -2566    -2423    -2219 
   -2042    -1987    -2085    -2276    -2469    -2620    -2720    -2779 
   -2810    -2840    -2887    -2914    -2893    -2860    -2862    -2874 
   -2824    -2697    -2538    -2392    -2290    -2255    -2289    -2367 
   -2425    -2405    -2320    -2250    -2277    -2415    -2604    -2789 
   -2937    -3037    -3096    -3145    -3181    -3165    -3059    -2882 
   -2681    -2490    -2359    -2326    -2377    -2448    -2486    -2466 
   -2390    -2266    -2118    -1989    -1938    -1998    -2150    -2358 
   -2582    -2790    -2967    -3072    -3082    -3042    -3009    -2970 
   -2876    -2709    -2506    -2327    -2215    -2181    -2193    -2201 
   -2191    -2187    -2236    -2338    -2454    -2575    -2697    -2789 
   -2828    -2817    -2790    -2778    -2801    -2853    -2882    -2833 
   -2683    -2474    -2305    -2238    -2250    -2297    -2323    -2293 
   -2235    -2219    -2317    -2539    -2824    -3083    -3235    -3225 
   -3056    -2809    -2589    -2443    -2359    -2322    -2317    -2342 
   -2393    -2471    -2570    -2640    -2643    -2601    -2544    -2490 
   -2484    -2554    -2683    -2814    -2880    -2844    -2700    -2481 
   -2238    -2007    -1837    -1782    -1877    -2107    -2398    -2644 
   -2756    -2731    -2663    -2644    -2682    -2758    -2843    -2903 
   -2922    -2914    -2918    -2956    -2987    -2971    -2890    -2736 
   -2542    -2355    -2223    -2187    -2251    -2365    -2448    -2466 
   -2432    -2369    -2309    -2315    -2408    -2550    -2682    -2771 
   -2835    -2864    -2862    -2829    -2755    -2668    -2617    -2624 
   -2679    -2731    -2741    -2748    -2783    -2837    -2856    -2778 
   -2589    -2331    -2081    -1907    -1840    -1892    -2043    -2257 
   -2506    -2732    -2862    -2862    -2747    -2585    -2458    -2400 
   -2398    -2424    -2455    -2470    -2466    -2462    -2467    -2496 
   -2555    -2632    -2722    -2828    -2920    -2979    -3024    -3075 
   -3130    -3164    -3133    -2988    -2724    -2419    -2164    -2003 
   -1950    -1984    -2072    -2196    -2330    -2440    -2516    -2559 
   -2585    -2604    -2612    -2583    -2475    -2323    -2230    -2254 
   -2389    -2569    -2702    -2754    -2756    -2759    -2778    -2824 
   -2907    -3006    -3055    -3002    -2835    -2600    -2389    -2273 
   -2276    -2376    -2517    -2639    -2701    -2712    -2698    -2690 
   -2693    -2648    -2505    -2307    -2118    -2002    -2016    -2154 
   -2365    -2582    -2739    -2805    -2794    -2729    -2659    -2643 
   -2704    -2795    -2866    -2886    -2835    -2713    -2554    -2397 
   -2284    -2222    -2208    -2241    -2299    -2363    -2440    -2536 
   -2633    -2701    -2720    -2694    -2651    -2621    -2614    -2598 
   -2546    -2465    -2394    -2367    -2384    -2444    -2533    -2617 
   -2694    -2775    -2841    -2876    -2863    -2782    -2639    -2465 
   -2316    -2253    -2293    -2394    -2498    -2589    -2662    -2708 
   -2743    -2795    -2855    -2864    -2781    -2637    -2500    -2397 
