Origin Time       2025/03/30 10:18:00
Lat.              34.667
Long.             140.825
Depth. (km)       69
Mag.              4.9
Station Code      KNGH20
Station Lat.      35.3663
Station Long.     139.1260
Station Height(m) 359.5
Record Time       2025/03/30 10:19:17
Sampling Freq(Hz) 100Hz
Duration Time(s)  120
Dir.              2
Scale Factor      2942(gal)/8224139
Max. Acc. (gal)   0.257
Last Correction   2025/03/30 10:19:18
Memo.             
[...]
   32009    31988    31969    31969    31978    31993    32004    32011 
   32020    32028    32013    31966    31908    31887    31922    31973 
   31986    31981    31997    32013    31989    31954    31958    31972 
   31966    31957    31947    31941    31963    32013    32049    32038 
   32004    31981    31963    31963    31978    31980    31977    31996 
   32012    32011    32008    32013    32019    32005    31977    31966 
   31974    31958    31914    31900    31938    31970    31961    31931 
   31924    31947    31966    31951    31920    31908    31916    31934 
   31968    32008    32027    32009    31982    31973    31977    31977 
   31968    31950    31943    31954    31963    31957    31934    31908 
   31901    31936    31996    32039    32046    32027    32008    31990 
   31980    31981    31984    31980    31989    32013    32019    31993 
   31963    31934    31893    31865    31882    31932    31977    31996 
   31999    32001    31993    31965    31936    31938    31974    31999 
   31974    31941    31939    31963    31990    32027    32067    32074 
   32027    31970    31955    31978    32003    32009    31990    31968 
   31962    31965    31957    31949    31945    31939    31932    31931 
   31951    31986    31995    31969    31949    31941    31942    31973 
   32020    32034    32003    31972    31973    31985    31995    32009 
   32013    31999    31982    31972    31963    31957    31947    31958 
   31989    32001    31981    31951    31919    31897    31904    31922 
   31926    31934    31966    32000    32007    31984    31955    31945 
   31951    31963    31985    32011    32019    32005    31999    32016 
   32040    32046    32026    31978    31918    31876    31872    31907 
   31954    31984    31980    31962    31955    31958    31958    31966 
   31985    31992    31977    31951    31949    31977    32004    32007 
   32000    31996    31993    31992    31993    31999    32001    31992 
   31974    31959    31957    31959    31955    31946    31941    31950 
   31973    31993    32000    32003    32011    32013    32009    31996 
   31974    31980    32017    32032    32009    31968    31919    31888 
   31889    31905    31926    31939    31935    31932    31957    31996 
   32027    32040    32022    31990    31976    31965    31942    31930 
   31942    31965    31977    31969    31950    31923    31905    31922 
   31955    31969    31959    31959    31976    31997    32015    32024 
   32011    31984    31977    31997    32017    32023    32015    31999 
   31977    31963    31965    31965    31958    31950    31931    31896 
   31868    31864    31880    31908    31934    31953    31978    32007 
   32026    32035    32035    32030    32015    31995    31985    31980 
   31981    31999    32020    32031    32030    32009    31982    31972 
   31963    31941    31922    31930    31953    31966    31973    31989 
   31995    31977    31954    31942    31934    31920    31908    31911 
   31930    31965    31999    32007    31992    31977    31982    32003 
   32015    32017    32020    32013    31995    31993    32015    32019 
   32008    32005    32005    31999    31984    31966    31950    31938 
   31938    31955    31989    32026    32040    32026    31980    31923 
   31900    31930    31968    31977    31969    31968    31972    31965 
   31942    31931    31947    31970    31978    31972    31946    31909 
   31884    31885    31916    31970    32011    32007    31981    31972 
   31984    31999    31993    31977    31978    31996    32008    32023 
   32032    32015    31984    31963    31966    31995    32023    32017 
   32001    32007    32017    32016    32005    31978    31939    31914 
   31904    31907    31934    31973    31993    31995    31986    31959 
   31928    31924    31931    31935    31953    31977    31986    31977 
   31954    31935    31938    31943    31945    31953    31966    31982 
   31981    31968    31978    31996    31985    31972    31976    31970 
   31958    31941    31915    31905    31918    31926    31931    31958 
   32004    32031    32016    31977    31928    31887    31874    31896 
   31934    31961    31966    31973    31997    32024    32040    32035 
   32012    31995    31995    31997    32003    32012    32013    32012 
   32023    32027    32017    32012    32009    31988    31955    31945 
   31966    31989    31995    31990    31990    31988    31981    31970 
   31954    31946    31959    31972    31981    31990    31981    31957 
   31938    31927    31928    31931    31922    31909    31908    31918 
   31919    31924    31942    31957    31968    31981    31993    32001 
   32011    32022    32034    32035    32017    31996    31995    32013 
   32023    32000    31961    31935    31941    31968    31995    32004 
   32012    32026    32030    32026    32022    32001    31972    31957 
   31955    31951    31936    31919    31914    31930    31954    31963 
   31953    31931    31912    31911    31943    31986    32008    32003 
   31995    31988    31981    31984    31985    31974    31961    31955 
   31946    31927    31920    31932    31950    31976    32000    32011 
   32016    32022    32032    32035    32004    31962    31953    31972 
   31988    31985    31969    31951    31934    31927    31943    31966 
   31978    31986    31986    31986    32004    32022    31999    31957 
   31936    31938    31942    31942    31946    31955    31959    31959 
   31966    31973    31961    31941    31928    31924    31938    31965 
   31989    32008    32019    32016    32005    31997    31996    31997 
   31985    31962    31946    31945    31955    31963    31961    31963 
   31974    31982    31988    31981    31969    31961    31949    31927 
   31922    31936    31957    31973    31980    31974    31969    31970 
   31976    31978    31986    31990    31970    31928    31899    31909 
   31939    31966    31996    32019    32019    32004    31993    32000 
   32013    32003    31972    31949    31950    31962    31969    31969 
   31973    31984    31996    31995    31980    31966    31951    31935 
   31935    31953    31968    31977    31988    31992    31980    31963 
   31955    31957    31970    31986    31990    31984    31980    31980 
   31986    32000    32005    31993    31973    31957    31945    31930 
   31914    31914    31943    31985    32026    32054    32040    31999 
   31978    32001    32031    32032    32011    31981    31954    31941 
   31943    31957    31981    32001    32004    31997    31989    31999 
   32030    32040    32013    31985    31981    31995    32000    31995 
   31996    31997    31973    31938    31920    31923    31924    31924 
   31935    31949    31953    31949    31946    31950    31977    32019 
   32035    32001    31958    31953    31973    31988    31984    31973 
   31963    31965    31968    31970    31974    31968    31947    31945 
   31957    31957    31943    31936    31942    31955    31965    31961 
   31945    31939    31943    31939    31942    31966    31995    31995 
   31972    31955    31955    31961    31976    31986    31974    31954 
   31950    31958    31969    31984    32003    32011    31980    31914 
   31874    31896    31946    31986    32007    32007    32005    32020 
   32042    32058    32053    32026    31989    31953    31920    31909 
   31914    31908    31914    31945    31972    31981    31986    31993 
   31993    31985    31970    31959    31953    31941    31939    31953 
   31955    31951    31962    31980    31993    32008    32035    32070 
   32088    32074    32044    32019    32013    32020    32009    31978 
   31947    31928    31930    31949    31965    31955    31919    31893 
   31899    31915    31916    31909    31912    31926    31945    31968 
   31984    31985    31966    31932    31918    31945    31984    31993 
   31986    31993    32005    32007    32005    32008    32012    32009 
   31999    31981    31963    31961    31981    32005    32005    31990 
   31980    31976    31972    31968    31966    31966    31969    31978 
   31989    32000    32012    32015    32011    32000    31977    31959 
   31957    31953    31946    31941    31934    31930    31939    31955 
   31959    31941    31930    31949    31966    31942    31911    31911 
   31924    31927    31923    31914    31912    31935    31972    32013 
   32055    32080    32073    32046    32023    32026    32054    32073 
   32066    32047    32019    31981    31963    31973    31984    31986 
   31978    31954    31928    31939    31977    32011    32040    32047 
   32015    31976    31947    31922    31916    31936    31949    31942 
   31927    31903    31877    31881    31895    31893    31903    31942 
   31984    32000    31996    31974    31945    31934    31947    31965 
   31970    31966    31966    31968    31965    31966    31978    31992 
   32005    32013    32023    32044    32070    32071    32051    32026 
   31999    31966    31935    31928    31962    32011    32043    32047 
   32015    31957    31922    31932    31961    31978    31974    31949 
   31915    31891    31880    31889    31928    31963    31957    31926 
   31901    31895    31908    31938    31973    32000    32008    32007 
   32004    31995    31992    32026    32063    32063    32040    32017 
   32003    32016    32058    32076    32038    31981    31954    31950 
   31951    31949    31923    31887    31872    31885    31924    31968 
   31986    31981    31961    31942    31934    31927    31924    31936 
   31955    31973    31982    31977    31969    31973    31973    31965 
   31973    31992    31990    31969    31946    31934    31945    31985 
   32030    32049    32047    32038    32023    32004    31990    32003 
   32026    32023    32005    31996    31985    31974    31978    31980 
   31958    31922    31908    31935    31968    31974    31976    31984 
   31985    31988    31997    31995    31974    31950    31931    31924 
   31926    31926    31930    31947    31969    31970    31947    31920 
   31900    31889    31900    31934    31961    31965    31955    31957 
   31981    32000    31993    31976    31974    31982    31988    31993 
   31997    31999    32009    32026    32026    32005    31974    31946 
   31938    31945    31943    31935    31939    31963    32012    32046 
   32036    32004    31970    31935    31900    31881    31891    31922 
   31962    31989    31992    31981    31974    31965    31949    31943 
   31968    31996    32003    31977    31942    31934    31946    31941 
   31924    31920    31934    31959    31985    32005    32015    32001 
   31982    31995    32030    32051    32054    32043    32027    32016 
   32005    31995    32005    32028    32032    32026    32034    32044 
   32043    32027    32000    31976    31972    31978    31978    31984 
   31996    31992    31966    31941    31931    31934    31949    31962 
   31965    31961    31946    31923    31899    31888    31899    31911 
   31903    31880    31878    31905    31935    31945    31935    31916 
   31908    31923    31954    31977    31992    32011    32011    31995 
   31990    31993    31989    31988    31996    32004    31997    31985 
   31982    31984    31973    31957    31955    31969    31978    31977 
   31984    31999    32009    32015    32026    32030    32012    31976 
   31941    31932    31951    31972    31978    31985    32009    32035 
   32044    32031    32000    31976    31965    31954    31942    31932 
   31934    31959    31995    32012    32007    31984    31965    31965 
   31973    31974    31980    31988    31985    31972    31966    31966 
   31951    31926    31911    31912    31916    31919    31923    31932 
   31946    31959    31976    32004    32046    32078    32080    32055 
   32032    32013    31981    31943    31930    31950    31986    32011 
   32028    32047    32050    32030    32022    32042    32054    32040 
   32030    32036    32034    32023    32017    32013    32007    32009 
   32019    32026    32038    32066    32092    32090    32059    32024 
   32004    31993    31988    31997    32023    32034    32008    31953 
   31881    31826    31814    31818    31816    31800    31772    31754 
   31753    31758    31772    31793    31820    31855    31885    31892 
   31892    31903    31918    31934    31958    31984    32003    32012 
   32005    31985    31982    31993    31995    32001    32028    32063 
   32098    32124    32139    32154    32179    32215    32240    32240 
   32224    32202    32174    32125    32061    31995    31935    31897 
   31877    31847    31814    31800    31801    31799    31800    31819 
   31860    31911    31949    31962    31954    31923    31869    31820 
   31804    31820    31847    31877    31909    31939    31946    31916 
   31862    31811    31785    31789    31804    31808    31818    31850 
   31877    31884    31899    31928    31957    31973    31965    31945 
   31951    32003    32074    32143    32206    32246    32250    32228 
   32200    32177    32148    32100    32044    32009    32009    32049 
   32109    32161    32181    32177    32158    32119    32071    32055 
   32071    32078    32069    32051    32022    31989    31953    31901 
   31835    31765    31707    31675    31668    31675    31666    31627 
   31576    31546    31544    31554    31568    31576    31580    31596 
   31629    31666    31692    31696    31696    31711    31750    31822 
   31924    32035    32154    32283    32412    32525    32614    32674 
   32692    32676    32645    32602    32536    32448    32373    32341 
   32350    32358    32351    32340    32321    32294    32277    32265 
   32224    32138    32024    31901    31781    31685    31626    31584 
   31542    31500    31463    31426    31398    31390    31392    31399 
   31418    31452    31498    31571    31681    31815    31947    32059 
   32135    32190    32244    32286    32286    32246    32185    32121 
   32081    32078    32093    32105    32131    32182    32227    32235 
   32201    32144    32100    32086    32107    32157    32208    32250 
   32285    32309    32304    32277    32243    32198    32123    32016 
   31899    31804    31749    31712    31675    31657    31664    31676 
   31679    31669    31650    31634    31622    31614    31622    31658 
   31723    31787    31815    31810    31804    31834    31895    31958 
   32001    32020    32005    31963    31923    31908    31920    31951 
   31978    31984    31993    32030    32062    32067    32084    32134 
   32179    32196    32193    32190    32185    32166    32130    32090 
   32057    32043    32066    32108    32143    32154    32131    32100 
   32094    32123    32170    32197    32174    32108    32027    31969 
   31950    31939    31908    31878    31882    31923    31961    31954 
   31908    31857    31811    31768    31722    31671    31629    31607 
   31604    31625    31671    31739    31812    31864    31889    31905 
   31912    31899    31872    31850    31857    31912    31997    32092 
   32181    32239    32256    32246    32211    32171    32165    32206 
   32265    32297    32298    32290    32282    32265    32233    32198 
   32154    32078    31988    31928    31922    31953    31986    32003 
   32008    32013    32016    31990    31932    31864    31779    31673 
   31594    31577    31614    31700    31818    31893    31872    31768 
   31644    31564    31552    31591    31652    31712    31768    31833 
   31912    31995    32061    32101    32115    32109    32103    32120 
   32169    32231    32292    32324    32293    32202    32097    32009 
   31953    31931    31938    31961    31999    32039    32057    32070 
   32101    32130    32130    32094    32026    31934    31853    31806 
   31781    31749    31710    31688    31706    31765    31838    31881 
   31891    31885    31893    31945    32032    32112    32173    32225 
   32262    32255    32184    32070    31962    31893    31899    31976 
   32054    32086    32066    31996    31926    31927    31997    32088 
   32155    32181    32165    32120    32088    32105    32151    32175 
   32167    32130    32058    31954    31838    31727    31650    31625 
   31634    31649    31677    31749    31847    31919    31943    31955 
   31984    32017    32050    32077    32080    32039    31958    31865 
   31806    31801    31833    31864    31878    31888    31912    31953 
   32001    32042    32053    32042    32030    32050    32115    32189 
   32209    32171    32130    32105    32080    32040    31993    31961 
   31943    31922    31889    31849    31820    31839    31889    31932 
   31969    32011    32031    31992    31927    31893    31900    31931 
   31974    32017    32042    32054    32092    32154    32181    32142 
   32062    31985    31953    31969    32013    32049    32023    31930 
   31849    31857    31947    32055    32123    32138    32125    32125 
   32143    32144    32097    32035    32000    31980    31953    31918 
   31880    31849    31824    31811    31801    31784    31770    31774 
   31793    31811    31828    31850    31862    31843    31807    31792 
   31814    31846    31869    31899    31973    32074    32140    32138 
   32062    31946    31857    31845    31897    31986    32077    32124 
   32109    32076    32065    32057    32030    32005    32008    32026 
   32046    32059    32065    32077    32086    32065    32027    32015 
   32009    31970    31905    31850    31834    31862    31923    32004 
   32081    32119    32092    32016    31938    31869    31783    31675 
   31585    31565    31635    31753    31850    31885    31887    31900 
   31919    31941    31986    32050    32108    32148    32154    32119 
   32069    32034    32024    32009    31959    31895    31850    31853 
   31907    31985    32044    32069    32062    32038    32005    31996 
   32054    32157    32225    32227    32188    32142    32117    32131 
   32154    32131    32063    31996    31957    31930    31892    31826 
   31761    31747    31780    31810    31818    31822    31830    31834 
   31818    31815    31880    31990    32078    32119    32128    32113 
   32090    32082    32081    32078    32074    32062    32035    32005 
   31999    32023    32050    32058    32059    32058    32065    32097 
   32138    32159    32148    32100    32030    31976    31949    31931 
   31914    31911    31920    31916    31896    31885    31896    31923 
   31945    31936    31909    31897    31909    31927    31928    31909 
   31893    31901    31923    31943    31955    31950    31928    31907 
   31897    31901    31924    31950    31962    31976    32007    32031 
   32023    31981    31926    31881    31861    31870    31908    31941 
   31942    31927    31930    31961    32000    32017    32022    32042 
   32062    32058    32034    32016    32024    32046    32050    32024 
   31986    31955    31924    31882    31839    31815    31810    31804 
   31779    31739    31718    31746    31822    31897    31932    31930 
   31922    31931    31958    31989    32030    32076    32105    32101 
   32071    32042    32035    32049    32065    32085    32105    32112 
   32092    32057    32034    32032    32019    31984    31957    31950 
   31949    31957    32000    32066    32117    32132    32111    32066 
   32020    31990    31970    31935    31897    31887    31920    31985 
