Origin Time       2025/03/30 10:18:00
Lat.              34.667
Long.             140.825
Depth. (km)       69
Mag.              4.9
Station Code      KNGH19
Station Lat.      35.4173
Station Long.     139.0436
Station Height(m) 230
Record Time       2025/03/30 10:19:18
Sampling Freq(Hz) 100Hz
Duration Time(s)  120
Dir.              1
Scale Factor      2942(gal)/8224139
Max. Acc. (gal)   0.328
Last Correction   2025/03/30 10:19:18
Memo.             
[...]
   81772    81783    81793    81778    81765    81781    81803    81805 
   81791    81766    81735    81719    81727    81733    81722    81727 
   81750    81764    81760    81741    81714    81706    81722    81734 
   81720    81710    81733    81750    81724    81688    81696    81743 
   81781    81784    81772    81758    81762    81805    81838    81807 
   81762    81746    81754    81784    81819    81824    81788    81750 
   81749    81756    81747    81746    81749    81742    81734    81731 
   81711    81687    81695    81722    81712    81691    81712    81754 
   81757    81737    81745    81783    81811    81801    81765    81742 
   81757    81787    81793    81774    81754    81743    81751    81774 
   81789    81780    81751    81718    81704    81731    81776    81801 
   81811    81812    81792    81765    81756    81753    81741    81729 
   81714    81703    81715    81747    81772    81768    81750    81743 
   81720    81680    81676    81708    81742    81776    81793    81773 
   81742    81720    81706    81731    81776    81774    81738    81729 
   81747    81756    81750    81758    81784    81800    81792    81780 
   81778    81762    81734    81727    81739    81743    81734    81738 
   81768    81776    81764    81768    81773    81770    81784    81795 
   81776    81750    81756    81778    81788    81769    81739    81722 
   81722    81730    81754    81769    81749    81719    81726    81758 
   81766    81742    81720    81708    81704    81720    81734    81727 
   81724    81738    81760    81773    81765    81760    81768    81770 
   81785    81807    81793    81765    81757    81776    81820    81842 
   81807    81768    81765    81784    81791    81778    81787    81814 
   81811    81780    81745    81714    81716    81757    81777    81761 
   81735    81706    81676    81681    81729    81765    81770    81773 
   81770    81760    81751    81730    81696    81702    81746    81761 
   81720    81687    81702    81730    81742    81754    81770    81772 
   81756    81723    81696    81710    81746    81757    81741    81730 
   81737    81737    81720    81720    81739    81742    81743    81754 
   81754    81741    81720    81716    81762    81819    81828    81795 
   81760    81762    81793    81811    81812    81799    81768    81754 
   81762    81760    81766    81795    81814    81804    81768    81724 
   81702    81692    81719    81783    81805    81758    81708    81708 
   81750    81793    81801    81785    81778    81780    81769    81746 
   81731    81742    81753    81746    81745    81749    81742    81735 
   81737    81733    81722    81710    81715    81730    81734    81735 
   81747    81760    81764    81757    81762    81785    81789    81764 
   81727    81699    81700    81723    81746    81766    81773    81749 
   81724    81733    81754    81757    81735    81714    81726    81769 
   81788    81756    81718    81718    81739    81765    81778    81765 
   81754    81758    81754    81746    81761    81801    81818    81770 
   81731    81766    81815    81814    81770    81739    81757    81787 
   81776    81750    81743    81749    81750    81741    81724    81724 
   81757    81758    81714    81710    81747    81756    81739    81730 
   81733    81753    81777    81787    81785    81787    81788    81777 
   81743    81711    81730    81785    81804    81773    81746    81743 
   81741    81723    81711    81729    81757    81774    81769    81743 
   81730    81753    81776    81762    81733    81714    81700    81695 
   81711    81765    81834    81846    81804    81777    81781    81773 
   81739    81707    81724    81792    81838    81827    81799    81780 
   81760    81730    81695    81684    81714    81745    81727    81673 
   81653    81697    81745    81745    81718    81693    81693    81723 
   81761    81781    81777    81758    81750    81746    81733    81745 
   81791    81818    81799    81758    81737    81753    81761    81730 
   81715    81754    81793    81791    81773    81769    81769    81758 
   81734    81719    81742    81791    81822    81824    81811    81796 
   81788    81787    81787    81784    81770    81746    81720    81724 
   81749    81764    81766    81765    81749    81716    81691    81689 
   81711    81737    81735    81712    81710    81735    81745    81722 
   81700    81693    81716    81769    81805    81789    81747    81722 
   81730    81756    81772    81773    81781    81796    81797    81785 
   81762    81735    81720    81724    81727    81714    81702    81703 
   81722    81747    81762    81766    81750    81715    81702    81731 
   81764    81778    81787    81785    81781    81793    81789    81756 
   81743    81773    81799    81804    81801    81804    81812    81797 
   81753    81719    81708    81697    81700    81718    81738    81768 
   81785    81760    81720    81714    81734    81750    81746    81729 
   81727    81765    81815    81835    81819    81784    81760    81761 
   81772    81768    81738    81696    81689    81727    81758    81754 
   81753    81757    81735    81700    81677    81676    81708    81756 
   81774    81756    81716    81695    81702    81715    81727    81757 
   81780    81774    81777    81797    81804    81799    81783    81764 
   81751    81734    81722    81738    81758    81745    81723    81739 
   81777    81789    81769    81750    81750    81764    81773    81764 
   81738    81722    81723    81723    81734    81754    81756    81761 
   81777    81787    81796    81807    81799    81774    81756    81756 
   81778    81789    81757    81703    81683    81706    81743    81769 
   81764    81749    81749    81737    81703    81692    81702    81696 
   81685    81712    81777    81819    81799    81747    81727    81746 
   81760    81753    81738    81715    81710    81745    81801    81831 
   81808    81757    81746    81791    81819    81805    81796    81803 
   81803    81785    81741    81712    81745    81788    81783    81750 
   81720    81714    81729    81754    81768    81747    81730    81751 
   81765    81739    81715    81704    81696    81703    81714    81719 
   81733    81735    81716    81723    81764    81783    81761    81738 
   81745    81772    81796    81812    81797    81756    81750    81804 
   81851    81847    81815    81758    81696    81668    81679    81706 
   81729    81734    81715    81710    81738    81757    81734    81692 
   81688    81726    81743    81718    81699    81716    81745    81751 
   81738    81731    81735    81751    81780    81785    81774    81784 
   81791    81766    81754    81780    81819    81842    81826    81784 
   81764    81778    81787    81770    81747    81737    81750    81770 
   81765    81737    81706    81691    81685    81684    81688    81693 
   81696    81720    81768    81799    81795    81770    81742    81735 
   81760    81781    81783    81787    81797    81789    81774    81772 
   81756    81720    81710    81724    81718    81703    81729    81749 
   81723    81704    81715    81738    81761    81765    81749    81731 
   81715    81704    81722    81769    81815    81831    81831    81826 
   81805    81781    81770    81774    81791    81803    81787    81747 
   81707    81693    81720    81751    81749    81733    81720    81718 
   81723    81706    81688    81702    81718    81712    81716    81723 
   81704    81689    81729    81787    81792    81743    81708    81733 
   81788    81826    81831    81814    81795    81804    81816    81804 
   81810    81845    81835    81772    81734    81747    81757    81729 
   81702    81716    81747    81761    81753    81737    81733    81742 
   81743    81723    81719    81746    81762    81756    81747    81749 
   81769    81796    81812    81800    81764    81750    81777    81800 
   81785    81746    81724    81735    81760    81770    81761    81733 
   81712    81715    81716    81706    81692    81691    81712    81727 
   81708    81696    81711    81731    81741    81734    81730    81749 
   81772    81785    81789    81776    81757    81758    81765    81765 
   81772    81783    81800    81803    81772    81734    81727    81754 
   81758    81707    81679    81716    81754    81751    81737    81747 
   81803    81843    81805    81739    81739    81803    81827    81776 
   81731    81745    81777    81774    81747    81746    81760    81756 
   81747    81749    81747    81754    81766    81758    81747    81757 
   81762    81751    81730    81712    81724    81764    81788    81785 
   81774    81769    81762    81738    81693    81672    81700    81733 
   81735    81731    81739    81756    81764    81764    81764    81757 
   81729    81704    81718    81765    81800    81785    81747    81742 
   81776    81803    81792    81777    81777    81773    81769    81769 
   81751    81743    81757    81765    81766    81768    81766    81762 
   81749    81729    81714    81714    81735    81758    81764    81762 
   81758    81741    81718    81726    81762    81785    81783    81772 
   81757    81746    81735    81724    81738    81781    81805    81788 
   81773    81788    81791    81750    81703    81691    81704    81726 
   81747    81749    81738    81746    81766    81780    81772    81747 
   81727    81727    81737    81735    81726    81726    81742    81766 
   81792    81807    81795    81768    81753    81765    81789    81804 
   81799    81762    81723    81724    81743    81730    81706    81702 
   81711    81729    81750    81761    81758    81741    81707    81685 
   81703    81749    81785    81789    81758    81726    81723    81742 
   81734    81704    81718    81770    81796    81784    81766    81774 
   81793    81788    81768    81756    81746    81737    81720    81714 
   81742    81776    81783    81774    81761    81750    81741    81726 
   81723    81739    81769    81812    81822    81776    81751    81770 
   81788    81792    81777    81750    81737    81735    81731    81741 
   81776    81808    81799    81747    81696    81707    81769    81810 
   81805    81780    81761    81768    81801    81827    81803    81730 
   81689    81726    81776    81778    81739    81695    81673    81689 
   81718    81733    81731    81714    81697    81708    81746    81784 
   81788    81749    81697    81675    81688    81710    81719    81722 
   81720    81715    81720    81738    81761    81781    81803    81819 
   81810    81777    81766    81780    81800    81820    81830    81815 
   81785    81756    81735    81722    81712    81712    81715    81716 
   81714    81715    81737    81769    81784    81765    81741    81742 
   81746    81734    81730    81738    81735    81723    81722    81745 
   81766    81776    81783    81776    81764    81757    81743    81731 
   81743    81768    81781    81773    81761    81758    81760    81768 
   81777    81758    81719    81703    81706    81710    81723    81745 
   81769    81785    81762    81696    81649    81668    81716    81731 
   81706    81696    81726    81749    81733    81726    81772    81834 
   81880    81922    81962    81982    81972    81939    81919    81924 
   81927    81909    81882    81843    81797    81781    81785    81772 
   81757    81749    81711    81653    81602    81553    81525    81510 
   81480    81456    81473    81518    81546    81550    81558    81581 
   81627    81710    81783    81791    81751    81708    81668    81643 
   81665    81730    81807    81900    82005    82082    82101    82081 
   82053    82016    81976    81938    81897    81861    81857    81869 
   81861    81803    81689    81589    81564    81568    81548    81531 
   81548    81583    81599    81577    81550    81546    81556    81581 
   81608    81608    81599    81600    81603    81618    81680    81793 
   81923    82012    82042    82040    82036    82047    82081    82115 
   82120    82069    81989    81949    81939    81916    81895    81874 
   81816    81708    81576    81460    81386    81329    81257    81198 
   81194    81248    81333    81433    81556    81665    81726    81753 
   81757    81747    81733    81695    81685    81761    81859    81922 
   81959    81966    81915    81823    81715    81599    81495    81434 
   81406    81407    81464    81596    81776    81957    82102    82233 
   82391    82557    82653    82641    82545    82421    82301    82188 
   82094    82043    82000    81926    81837    81745    81648    81567 
   81510    81444    81356    81272    81237    81268    81318    81324 
   81291    81278    81306    81361    81426    81475    81468    81414 
   81372    81378    81423    81492    81591    81729    81862    81928 
   81918    81870    81853    81903    82015    82121    82150    82107 
   82073    82096    82146    82183    82213    82235    82231    82213 
   82186    82113    81967    81781    81631    81560    81583    81676 
   81739    81695    81558    81390    81261    81207    81207    81255 
   81329    81396    81473    81580    81668    81716    81734    81724 
   81745    81846    81974    82050    82057    82007    81927    81862 
   81858    81874    81816    81685    81544    81421    81353    81361 
   81418    81494    81607    81777    81954    82047    82030    81942 
   81846    81805    81845    81924    82016    82111    82171    82162 
   82081    81958    81858    81832    81834    81823    81828    81857 
   81876    81881    81876    81832    81781    81770    81780    81793 
   81838    81895    81865    81681    81394    81126    80939    80835 
   80840    80937    81071    81265    81514    81676    81679    81618 
   81623    81730    81891    82057    82228    82370    82406    82325 
   82193    82065    81931    81762    81603    81542    81580    81637 
   81665    81677    81692    81688    81633    81556    81526    81577 
   81711    81861    81942    81961    81959    81942    81932    81949 
   81945    81876    81758    81664    81676    81776    81853    81831 
   81723    81621    81619    81696    81792    81923    82088    82210 
   82232    82139    81977    81834    81743    81650    81517    81371 
   81280    81303    81407    81487    81500    81450    81368    81310 
   81309    81367    81502    81696    81889    82007    82044    82085 
   82186    82314    82413    82421    82320    82174    82054    81957 
   81864    81803    81781    81760    81677    81486    81220    81008 
   80954    81058    81234    81396    81511    81572    81619    81738 
   81947    82131    82171    82080    81957    81892    81923    82021 
   82093    82073    82009    81958    81882    81766    81650    81589 
   81596    81623    81631    81630    81603    81542    81498    81522 
   81618    81743    81837    81864    81847    81819    81772    81737 
   81774    81870    81950    81951    81869    81769    81706    81641 
   81549    81487    81514    81587    81646    81703    81749    81731 
   81683    81688    81737    81734    81648    81549    81526    81606 
   81730    81810    81837    81876    81927    81932    81909    81904 
   81908    81922    81958    82000    82036    82073    82107    82119 
   82084    82026    81982    81945    81903    81882    81854    81747 
   81560    81380    81326    81414    81545    81604    81542    81427 
   81388    81434    81483    81490    81479    81477    81473    81468 
   81504    81575    81627    81661    81719    81816    81905    81919 
   81851    81769    81729    81720    81742    81805    81874    81912 
   81932    81946    81926    81864    81801    81791    81822    81837 
   81816    81807    81868    81977    82021    81978    81946    81953 
   81934    81865    81774    81715    81700    81680    81631    81592 
   81585    81600    81615    81619    81607    81598    81610    81610 
   81580    81579    81641    81724    81789    81822    81845    81876 
   81905    81923    81939    81946    81922    81868    81801    81731 
   81672    81646    81652    81692    81784    81862    81850    81796 
   81766    81749    81745    81778    81842    81908    81939    81892 
   81750    81588    81508    81548    81668    81760    81761    81711 
   81635    81545    81527    81608    81703    81730    81683    81630 
   81648    81716    81777    81792    81743    81668    81627    81633 
   81670    81724    81780    81816    81807    81770    81765    81792 
   81815    81835    81843    81812    81769    81747    81746    81783 
   81850    81905    81922    81899    81885    81912    81924    81868 
   81774    81719    81726    81745    81745    81720    81652    81572 
   81525    81513    81531    81546    81557    81637    81781    81893 
   81901    81824    81739    81700    81714    81756    81812    81893 
   81965    81967    81927    81893    81865    81847    81849    81845 
   81812    81778    81774    81766    81731    81692    81680    81716 
   81785    81822    81787    81718    81650    81581    81560    81635 
   81734    81761    81720    81646    81564    81502    81500    81576 
   81653    81657    81622    81637    81715    81766    81747    81718 
   81754    81839    81901    81892    81830    81783    81797    81870 
   81924    81865    81747    81712    81738    81734    81723    81749 
   81765    81730    81684    81696    81747    81758    81729    81707 
   81706    81720    81760    81818    81877    81893    81845    81781 
   81751    81766    81801    81812    81800    81801    81812    81799 
   81765    81738    81745    81773    81778    81741    81691    81656 
   81650    81692    81749    81764    81724    81697    81731    81765 
   81742    81703    81699    81724    81758    81803    81858    81861 
   81787    81711    81695    81710    81733    81781    81861    81924 
   81936    81893    81816    81749    81707    81688    81707    81741 
   81754    81773    81815    81832    81804    81742    81672    81625 
   81616    81631    81679    81764    81819    81788    81718    81683 
   81691    81708    81716    81699    81665    81658    81696    81737 
   81727    81696    81706    81762    81788    81734    81652    81627 
   81666    81703    81703    81696    81715    81785    81880    81943 
   81934    81858    81769    81720    81710    81715    81743    81792 
   81831    81823    81784    81754    81735    81724    81742    81753 
   81735    81719    81710    81683    81638    81610    81619    81670 
   81754    81834    81870    81861    81839    81819    81803    81803 
   81800    81762    81742    81764    81774    81781    81799    81804 
   81795    81774    81731    81696    81695    81696    81679    81676 
   81712    81777    81816    81803    81773    81760    81742    81708 
   81685    81692    81723    81770    81816    81823    81774    81718 
   81702    81729    81758    81742    81702    81680    81672    81664 
   81656    81641    81642    81675    81714    81751    81787    81801 
   81808    81841    81897    81932    81913    81878    81880    81911 
   81919    81886    81845    81803    81761    81739    81730    81697 
   81653    81652    81700    81742    81737    81707    81691    81685 
   81699    81723    81734    81735    81719    81679    81661    81700 
   81749    81785    81822    81843    81839    81814    81770    81733 
   81726    81750    81791    81815    81807    81780    81750    81734 
