Origin Time       2025/03/30 10:18:00
Lat.              34.667
Long.             140.825
Depth. (km)       69
Mag.              4.9
Station Code      KNGH20
Station Lat.      35.3663
Station Long.     139.1260
Station Height(m) 465
Record Time       2025/03/30 10:19:17
Sampling Freq(Hz) 100Hz
Duration Time(s)  120
Dir.              6
Scale Factor      7845(gal)/8223790
Max. Acc. (gal)   1.020
Last Correction   2025/03/30 10:19:18
Memo.             
[...]
   18166    18212    18107    17906    17752    17764    17940    18134 
   18212    18166    18044    17884    17761    17788    17975    18177 
   18245    18162    18021    17933    17956    18042    18117    18171 
   18208    18184    18068    17926    17855    17909    18045    18160 
   18175    18102    18011    17963    17975    18041    18119    18115 
   17991    17871    17884    18027    18184    18227    18114    17925 
   17803    17836    17965    18077    18111    18060    17918    17759 
   17726    17891    18176    18405    18442    18279    18011    17786 
   17747    17930    18225    18435    18420    18188    17875    17670 
   17716    17976    18258    18365    18242    18002    17815    17782 
   17898    18081    18199    18150    17969    17795    17774    17945 
   18200    18355    18288    18050    17851    17830    17938    18036 
   18056    18025    17996    18002    18036    18077    18085    18038 
   17967    17926    17969    18114    18297    18396    18320    18125 
   17953    17886    17923    18014    18114    18211    18257    18185 
   17996    17774    17621    17595    17702    17914    18135    18243 
   18222    18142    18038    17934    17898    17919    17928    17952 
   18095    18337    18473    18335    17999    17720    17689    17892 
   18149    18260    18153    17933    17784    17809    17980    18208 
   18381    18364    18098    17737    17568    17749    18134    18401 
   18355    18087    17849    17817    17976    18179    18258    18172 
   18029    17963    18011    18129    18204    18137    17937    17760 
   17786    18021    18270    18320    18144    17902    17770    17811 
   17964    18102    18129    18052    17960    17934    17980    18069 
   18156    18183    18127    18049    18014    18006    17963    17883 
   17857    17967    18157    18285    18260    18094    17909    17842 
   17901    17983    18033    18072    18104    18084    17999    17905 
   17875    17948    18094    18230    18293    18276    18206    18121 
   18042    17938    17814    17752    17818    18007    18245    18401 
   18385    18227    18038    17913    17874    17886    17906    17896 
   17853    17820    17828    17874    17976    18137    18258    18242 
   18106    17946    17864    17907    18030    18126    18127    18069 
   18017    18007    18068    18187    18257    18192    18034    17894 
   17845    17903    18033    18176    18284    18287    18121    17836 
   17637    17716    18019    18274    18272    18057    17847    17824 
   18010    18253    18355    18218    17932    17717    17745    18010 
   18345    18532    18442    18130    17806    17653    17699    17855 
   17998    18037    17984    17937    17987    18150    18314    18324 
   18152    17929    17826    17895    18025    18085    18033    17925 
   17890    17973    18096    18161    18123    18017    17933    17937 
   18025    18126    18181    18192    18160    18075    17955    17879 
   17941    18123    18274    18257    18072    17857    17764    17830 
   18015    18226    18323    18235    18007    17761    17675    17845 
   18157    18369    18328    18102    17876    17779    17822    17944 
   18072    18142    18106    17984    17890    17910    18040    18181 
   18212    18095    17925    17851    17948    18154    18334    18377 
   18262    18049    17853    17786    17888    18100    18301    18366 
   18237    17950    17660    17551    17667    17888    18095    18211 
   18212    18117    17986    17910    17923    17988    18073    18149 
   18138    18013    17886    17909    18087    18270    18312    18204 
   18030    17896    17902    18071    18265    18297    18117    17840 
   17637    17617    17775    18044    18316    18438    18323    18026 
   17686    17489    17587    17959    18364    18513    18335    18026 
   17841    17884    18083    18252    18264    18146    18000    17929 
   17994    18153    18258    18168    17892    17637    17617    17845 
   18161    18381    18391    18206    17957    17772    17728    17813 
   17933    18010    18021    17992    18017    18135    18274    18315 
   18220    18065    17967    17968    18007    18009    17980    17973 
   18002    18022    18015    18019    18057    18104    18114    18056 
   17984    18002    18103    18173    18149    18061    17963    17905 
   17917    17972    18011    18036    18084    18130    18112    18036 
   17956    17909    17926    18022    18141    18191    18162    18107 
   18053    18010    17990    17977    17955    17932    17915    17872 
   17824    17867    18021    18176    18243    18218    18153    18091 
   18033    17968    17932    17987    18111    18193    18166    18072 
   17988    17961    17998    18080    18165    18181    18076    17894 
   17810    17972    18280    18412    18153    17652    17304    17401 
   17907    18493    18794    18674    18247    17760    17458    17485 
   17798    18176    18385    18345    18164    17986    17887    17895 
   17991    18088    18092    18023    17960    17926    17944    18030 
   18135    18200    18204    18142    18049    17972    17915    17915 
   18007    18118    18146    18090    18033    18027    18052    18098 
   18158    18179    18118    17999    17865    17772    17770    17890 
   18079    18176    18088    17903    17788    17853    18090    18372 
   18524    18415    18061    17670    17497    17685    18156    18607 
   18705    18358    17770    17294    17231    17629    18241    18669 
   18635    18185    17651    17396    17583    18072    18523    18648 
   18418    18037    17774    17793    18049    18323    18384    18166 
   17813    17598    17713    18064    18365    18428    18265    18003 
   17784    17716    17806    17975    18122    18173    18102    17945 
   17798    17753    17822    17942    18048    18107    18112    18079 
   18063    18141    18293    18408    18354    18077    17691    17446 
   17525    17911    18399    18713    18688    18355    17911    17589 
   17550    17795    18137    18312    18207    17944    17771    17840 
   18087    18291    18264    18013    17740    17628    17729    17988 
   18276    18430    18362    18127    17886    17798    17899    18069 
   18183    18216    18189    18135    18091    18064    18027    17946 
   17818    17724    17760    17938    18189    18376    18358    18172 
   17965    17822    17756    17774    17878    18022    18137    18188 
   18181    18131    18092    18129    18199    18195    18102    17982 
   17874    17818    17876    18058    18261    18365    18330    18176 
   17960    17779    17702    17743    17869    18013    18114    18177 
   18216    18211    18141    18006    17832    17694    17689    17833 
   18037    18181    18219    18188    18121    18042    18021    18091 
   18181    18179    18033    17832    17725    17775    17911    18058 
   18193    18285    18276    18153    18003    17944    18015    18137 
   18187    18118    17967    17837    17834    17955    18096    18183 
   18184    18106    17967    17840    17824    17917    18030    18119 
   18152    18099    17998    17921    17913    17963    18029    18080 
   18098    18076    18040    18011    18006    18040    18108    18189 
   18260    18284    18207    18010    17806    17775    17946    18162 
   18256    18187    18057    17976    17959    17946    17917    17882 
   17847    17836    17906    18085    18327    18501    18477    18249 
   17945    17722    17678    17793    17967    18099    18139    18131 
   18123    18112    18092    18063    18009    17937    17871    17869 
   17952    18044    18088    18085    18010    17886    17810    17847 
   17988    18169    18291    18285    18187    18092    18067    18076 
   18045    17937    17788    17718    17836    18095    18318    18373 
   18241    17979    17730    17641    17763    18014    18214    18242 
   18131    18019    18050    18242    18428    18434    18235    17926 
   17644    17514    17589    17815    18073    18238    18277    18246 
   18210    18165    18075    17944    17845    17847    17956    18111 
   18225    18246    18172    17999    17779    17655    17725    17959 
   18222    18350    18281    18111    17965    17910    17914    17918 
   17937    18010    18104    18139    18096    18052    18083    18173 
   18235    18188    18036    17887    17874    18007    18175    18250 
   18184    17980    17753    17706    17936    18272    18424    18256 
   17875    17524    17419    17624    18036    18454    18661    18532 
   18146    17743    17562    17698    18022    18291    18360    18257 
   18083    17932    17892    18014    18215    18328    18235    17976 
   17747    17733    17930    18154    18234    18141    17948    17736 
   17606    17676    17961    18323    18546    18484    18181    17849 
   17699    17798    18036    18250    18333    18252    18042    17801 
   17690    17813    18077    18289    18308    18095    17772    17583 
   17658    17918    18177    18279    18204    18063    17976    18009 
   18110    18187    18187    18091    17929    17830    17911    18111 
   18249    18212    18033    17849    17803    17915    18077    18152 
   18114    18031    17953    17898    17919    18056    18243    18385 
   18443    18422    18345    18247    18153    18075    18021    18007 
   18011    17994    17953    17913    17895    17899    17872    17779 
   17691    17728    17910    18135    18260    18183    17909    17562 
   17331    17348    17597    17948    18243    18364    18292    18153 
   18129    18247    18384    18431    18362    18200    18015    17878 
   17810    17822    17929    18096    18242    18314    18319    18288 
   18226    18127    18011    17915    17864    17911    18077    18273 
   18374    18303    18063    17733    17424    17253    17323    17639 
   18060    18358    18385    18175    17907    17774    17860    18104 
   18365    18513    18511    18403    18254    18148    18138    18192 
   18185    18025    17774    17626    17716    17979    18220    18291 
   18191    18037    17938    17938    17984    17999    17948    17820 
   17652    17537    17535    17647    17864    18127    18345    18443 
   18387    18193    17964    17837    17902    18150    18470    18717 
   18786    18617    18250    17848    17582    17555    17760    18064 
   18270    18265    18072    17809    17577    17433    17413    17498 
   17658    17891    18203    18531    18735    18723    18531    18268 
   18053    17940    17895    17892    17942    18038    18100    18052 
   17913    17798    17805    17909    17986    17984    17967    18000 
   18087    18184    18258    18303    18293    18165    17887    17585 
   17501    17734    18100    18341    18330    18106    17860    17756 
   17772    17787    17774    17791    17890    18067    18285    18489 
   18615    18630    18534    18355    18169    18058    18041    18069 
   18111    18160    18189    18189    18148    18018    17791    17521 
   17284    17150    17185    17401    17717    18011    18226    18351 
   18405    18453    18535    18625    18647    18515    18215    17841 
   17548    17500    17743    18150    18482    18509    18187    17741 
   17485    17541    17814    18112    18237    18107    17852    17690 
   17717    17890    18134    18389    18555    18539    18372    18183 
   18107    18156    18185    18058    17786    17501    17402    17609 
   18046    18488    18684    18509    18046    17539    17271    17396 
   17809    18249    18480    18449    18284    18142    18067    18004 
   17898    17740    17628    17697    17991    18399    18712    18731 
   18422    17936    17490    17270    17385    17772    18233    18567 
   18678    18535    18175    17751    17487    17512    17776    18106 
   18295    18235    18006    17840    17906    18125    18300    18339 
   18257    18096    17918    17830    17915    18135    18388    18581 
   18616    18423    18036    17599    17281    17212    17463    17983 
   18534    18775    18534    17979    17475    17292    17464    17840 
   18218    18478    18577    18546    18422    18220    17977    17749 
   17602    17572    17643    17771    17918    18041    18118    18179 
   18246    18295    18274    18154    17972    17829    17811    17914 
   18073    18226    18318    18338    18304    18230    18103    17894 
   17620    17389    17331    17497    17811    18117    18291    18330 
   18296    18238    18165    18067    17960    17905    17933    18025 
   18115    18165    18206    18268    18314    18258    18104    17984 
   17992    18083    18165    18198    18171    18069    17901    17717 
   17610    17660    17860    18094    18239    18274    18268    18229 
   18087    17874    17741    17791    17969    18133    18188    18153 
   18106    18091    18075    17990    17833    17647    17502    17516 
   17763    18187    18642    18960    18985    18659    18134    17649 
   17362    17304    17463    17834    18316    18705    18824    18640 
   18273    17913    17701    17698    17863    18021    17992    17794 
   17604    17574    17703    17918    18152    18320    18360    18322 
   18300    18314    18347    18349    18211    17867    17469    17305 
   17529    17988    18365    18439    18223    17899    17694    17753 
   18054    18412    18569    18382    17953    17521    17320    17497 
   17965    18407    18515    18229    17740    17375    17433    17976 
   18698    19105    18925    18319    17714    17518    17842    18393 
   18697    18497    17928    17369    17185    17493    18041    18420 
   18377    17983    17558    17436    17732    18258    18674    18692 
   18262    17664    17335    17510    18067    18648    18914    18738 
   18287    17891    17736    17788    17918    17972    17879    17724 
   17639    17689    17849    18025    18121    18119    18103    18172 
   18322    18441    18419    18235    17991    17826    17809    17917 
   18080    18211    18242    18139    17903    17601    17369    17340 
   17558    17967    18424    18742    18778    18540    18208    18003 
   18004    18135    18253    18214    17988    17706    17544    17586 
   17817    18152    18422    18480    18314    18058    17880    17853 
   17906    17888    17751    17613    17612    17770    18044    18377 
   18663    18759    18571    18139    17644    17352    17406    17710 
   18027    18179    18165    18099    18079    18154    18296    18385 
   18266    17892    17458    17298    17559    18075    18535    18706 
   18565    18247    17909    17659    17581    17720    18019    18346 
   18569    18597    18364    17923    17504    17317    17425    17797 
   18307    18742    18925    18821    18493    18065    17693    17500 
   17493    17586    17713    17871    18067    18252    18330    18223 
   17969    17730    17633    17697    17890    18146    18360    18424 
   18287    18027    17841    17872    18099    18354    18458    18343 
   18099    17884    17794    17806    17837    17824    17772    17778 
   17941    18245    18519    18540    18239    17774    17398    17331 
   17637    18160    18620    18786    18603    18219    17879    17779 
   17950    18198    18269    18121    17895    17729    17663    17689 
   17803    17976    18142    18254    18287    18239    18152    18040 
   17879    17712    17663    17810    18103    18404    18549    18439 
   18131    17797    17593    17577    17751    18048    18300    18368 
   18260    18098    17998    17986    17996    17945    17832    17771 
   17861    18060    18238    18299    18247    18160    18073    17990 
   17930    17909    17899    17886    17888    17961    18115    18280 
   18364    18311    18152    17973    17829    17745    17748    17849 
   18037    18235    18316    18220    18033    17894    17853    17856 
   17863    17903    18015    18149    18206    18137    17976    17826 
   17794    17907    18152    18469    18713    18713    18434    18002 
   17624    17458    17527    17745    18009    18204    18241    18123 
   17959    17864    17872    17925    17944    17929    17952    18067 
   18249    18399    18418    18306    18131    17956    17814    17779 
   17921    18191    18408    18411    18207    17949    17780    17739 
   17790    17905    18073    18227    18239    18069    17842    17745 
   17852    18046    18172    18183    18122    18027    17926    17867 
   17905    18019    18114    18107    18007    17906    17905    18019 
   18165    18195    18049    17851    17748    17783    17941    18168 
   18361    18423    18343    18208    18088    17998    17933    17880 
   17833    17840    17940    18077    18180    18215    18172    18058 
   17926    17841    17861    17995    18165    18280    18291    18215 
   18110    17988    17847    17732    17707    17794    17956    18146 
   18322    18403    18349    18223    18106    18034    18017    18040 
   18069    18072    18049    18025    17992    17953    17940    17955 
   17956    17918    17864    17820    17797    17799    17847    17929 
   18000    18033    18044    18060    18108    18192    18281    18328 
   18303    18210    18100    18029    18009    18034    18079    18083 
   18029    17949    17901    17946    18076    18218    18300    18261 
   18094    17869    17709    17718    17894    18122    18291    18301 
   18130    17909    17790    17802    17906    18077    18256    18312 
   18169    17887    17612    17491    17605    17901    18218    18399 
   18401    18281    18104    17917    17761    17705    17803    18009 
   18207    18327    18350    18280    18141    17995    17903    17880 
   17899    17906    17887    17887    17959    18108    18283    18373 
   18306    18139    18010    17984    18037    18117    18153    18099 
   17984    17915    17983    18168    18350    18392    18252    18004 
   17752    17577    17543    17649    17832    18031    18177    18204 
   18108    17945    17803    17788    17929    18150    18337    18403 
   18339    18204    18057    17942    17856    17783    17741    17764 
   17864    18019    18169    18246    18218    18111    18017    18006 
   18069    18176    18279    18288    18168    17995    17878    17882 
   17996    18131    18187    18141    18053    17996    17990    17990 
   17975    17973    18006    18060    18112    18144    18156    18133 
   18050    17949    17896    17918    17999    18083    18096    18021 
   17938    17938    18006    18079    18133    18150    18121    18069 
   18027    17994    17952    17890    17807    17737    17739    17837 
   18004    18181    18293    18304    18212    18054    17899    17801 
   17793    17884    18030    18138    18161    18134    18118    18112 
   18092    18046    17988    17923    17883    17926    18071    18242 
   18346    18323    18169    17938    17733    17680    17828    18085 
   18301    18361    18252    18072    17952    17948    18011    18064 
   18088    18100    18117    18156    18200    18191    18095    17960 
   17849    17788    17790    17868    17991    18088    18125    18135 
   18162    18212    18233    18154    17964    17756    17655    17701 
   17813    17910    17976    18049    18127    18141    18057    17928 
   17824    17813    17923    18118    18297    18358    18274    18110 
