Origin Time       2025/03/30 10:18:00
Lat.              34.667
Long.             140.825
Depth. (km)       69
Mag.              4.9
Station Code      KNGH19
Station Lat.      35.4173
Station Long.     139.0436
Station Height(m) 230
Record Time       2025/03/30 10:19:18
Sampling Freq(Hz) 100Hz
Duration Time(s)  120
Dir.              2
Scale Factor      2942(gal)/8224139
Max. Acc. (gal)   0.267
Last Correction   2025/03/30 10:19:18
Memo.             
[...]
   41050    41092    41080    41014    40984    41017    41056    41081 
   41087    41068    41030    40986    40971    41002    41058    41062 
   41017    40994    40968    40953    40981    40983    40975    40990 
   40973    40992    41061    41073    41048    41031    41018    41013 
   41031    41044    41006    40992    41014    40995    41010    41073 
   41080    41056    41048    41026    41026    41049    41052    41065 
   41044    40987    41003    41004    40949    40969    41023    40994 
   40963    40999    41044    41044    41007    40980    40969    40972 
   41045    41111    41081    41062    41064    41035    41027    41021 
   41006    41014    41019    41027    41045    41067    41069    41049 
   41042    41035    41053    41112    41079    40988    41017    41048 
   40998    41013    41042    41007    41022    41045    41007    41023 
   41087    41075    41041    41030    40988    40963    40964    40964 
   40980    40980    40984    41025    41038    41030    41034    41015 
   41004    41031    41031    41019    41011    40956    40954    41052 
   41072    41037    41044    41041    41052    41044    41008    41048 
   41084    41075    41065    41010    40945    40941    40969    40992 
   41006    41037    41054    41044    41056    41030    40954    40991 
   41072    41045    41022    41030    40977    40961    41008    41017 
   41002    41008    41040    41108    41111    41035    41041    41053 
   41002    41013    41069    41045    41013    41062    41073    41019 
   41035    41062    41035    41026    41031    41014    41006    41015 
   41038    41062    41027    40988    41031    41062    41031    41008 
   41021    41069    41076    40995    40923    40938    41004    41038 
   41023    40992    40988    41021    41023    41013    41025    41000 
   40994    41033    41011    40969    41002    41041    41003    40952 
   40963    40988    41000    41035    41056    41027    40991    40986 
   40998    41002    41022    41073    41100    41042    40994    41026 
   41027    40995    41004    41027    41061    41079    41054    41031 
   41037    41037    41044    41087    41095    41031    40987    40996 
   41031    41042    41033    41053    41065    41030    41010    41007 
   41038    41099    41100    41052    41017    41015    41041    41025 
   40990    41026    41077    41034    40981    41017    41027    40996 
   41010    41031    41046    41054    41025    40992    40992    40992 
   40991    41013    40992    40936    40965    41026    41013    41025 
   41054    41018    41023    41071    41068    41033    40988    41017 
   41098    41071    41015    41019    40996    41006    41052    41035 
   41048    41054    40969    40963    40999    40983    41018    41017 
   40984    41038    41027    40959    40991    41023    40992    40977 
   41010    41071    41091    41046    40994    40975    41017    41057 
   41048    41067    41131    41125    41041    40999    41011    41027 
   41037    41030    41027    41035    41019    41003    41031    41058 
   41061    41068    41050    41022    41040    41041    40949    40887 
   40942    41006    41040    41064    41031    40988    41011    41019 
   40999    41035    41046    41002    41031    41030    40981    41025 
   41060    41064    41080    41033    41023    41098    41064    40981 
   41033    41084    41018    40960    40960    41002    41084    41118 
   41068    41029    41019    41000    41023    41025    40945    40932 
   40971    40932    40937    41006    40969    40919    40969    41027 
   41062    41085    41064    41013    40988    41017    41054    41077 
   41089    41062    41044    41088    41091    41045    41058    41071 
   41068    41092    41056    41002    41002    41000    41011    41038 
   41034    41018    41000    40994    41015    41002    40952    40944 
   40976    41021    41021    41007    41050    41060    41023    41040 
   41061    41025    41013    41023    40964    40949    41035    41073 
   41081    41062    40972    40961    41038    41077    41065    41023 
   40998    41010    41034    41031    41008    41022    41035    41027 
   41030    41013    40988    40992    40990    40996    41037    41071 
   41067    41034    41029    41041    41019    40956    40902    40963 
   41058    41053    41037    41029    41004    41018    41069    41107 
   41072    41017    41021    41023    40996    41000    41027    41056 
   41094    41081    41015    41003    41026    41017    41006    41026 
   41053    41004    40953    40996    41006    40991    41053    41096 
   41077    41067    41037    40963    40922    40936    40960    40984 
   41014    41035    41045    41067    41075    41049    41026    40994 
   40969    40972    40971    41003    41030    40988    40953    40956 
   40996    41054    41052    41050    41071    41017    40976    41002 
   40994    40983    41017    41029    41018    41033    41048    41030 
   41037    41057    41019    40998    41040    41071    41094    41069 
   40998    41022    41098    41083    41053    41044    41007    40998 
   41006    40996    41037    41060    41010    40987    41008    41018 
   41018    41004    40964    40956    41007    41044    41048    41027 
   40973    40968    41027    41041    41008    40995    41021    41064 
   41081    41088    41110    41102    41061    41023    41013    41025 
   41015    40994    41015    41038    41019    40980    40959    40987 
   40988    40968    41014    41023    40973    40964    40972    41033 
   41073    41034    41053    41054    41010    41067    41095    41015 
   40981    41013    41029    41034    41068    41103    41088    41068 
   41075    41056    41038    41064    41030    40942    40961    41021 
   41000    40976    40969    40973    41015    41006    40956    40986 
   41014    40959    40933    40979    41015    41031    41050    41048 
   41040    41048    41033    40999    40992    41011    41046    41103 
   41115    41044    40981    40961    40977    41030    41030    40994 
   41018    41052    41058    41069    41075    41056    41029    41014 
   41011    41002    40980    40972    40980    40996    41022    41027 
   40988    40967    41007    41072    41072    40998    40969    40998 
   41013    41040    41060    41057    41046    41021    40991    40996 
   41034    41046    41048    41079    41057    40999    40988    41004 
   41008    40972    40959    41025    41046    41006    41006    41007 
   40977    40979    41002    40988    41002    41077    41089    41037 
   41004    40954    40961    41044    41041    41030    41077    41045 
   41010    41018    40999    41019    41058    41017    40990    41033 
   41034    40986    40983    41006    40994    41008    41067    41054 
   41008    41046    41103    41094    41054    41048    41046    41004 
   40984    41022    41071    41099    41083    41021    41000    41038 
   41023    40980    41002    41022    41017    41056    41075    41008 
   40988    41040    41023    40979    40995    41017    41019    41018 
   41002    40987    40990    40999    41014    41013    41007    41003 
   40986    40986    40994    40980    40994    41018    40986    40975 
   41037    41048    41023    41049    41037    40998    41060    41108 
   41084    41102    41088    41018    41022    41038    41021    41050 
   41080    41062    41056    41042    40981    40923    40934    41003 
   41042    41029    41029    41031    41026    41000    40933    40960 
   41072    41079    41017    40998    41006    41022    41044    41021 
   40999    41061    41102    41061    41035    41014    40988    41025 
   41065    41048    41050    41084    41034    40956    40976    40996 
   40950    40937    40953    40972    41008    41030    41040    41050 
   41029    40998    41007    41014    40986    40973    41011    41042 
   41045    41031    40992    40980    41022    41058    41054    41034 
   41034    41030    40994    40972    40995    41022    41014    41018 
   41053    41038    41011    41046    41056    41015    41000    41015 
   41052    41112    41157    41130    41054    40994    40979    41029 
   41089    41084    41054    41042    41058    41069    41000    40959 
   40986    40964    40969    40996    40964    40990    41042    40999 
   40948    40963    40986    40995    41026    41050    41033    41015 
   41040    41041    40988    40984    41052    41085    41075    41083 
   41075    41007    40969    40987    40977    40959    40995    41031 
   41049    41056    41014    40998    41018    40991    40991    41033 
   41025    41002    41008    41015    41040    41085    41106    41096 
   41091    41069    41031    41023    40992    40959    40995    41003 
   40988    41011    41019    41026    41021    40988    40964    40948 
   40940    40948    40967    40957    40942    41008    41069    41044 
   41057    41094    41075    41076    41056    41003    41061    41104 
   41044    41050    41060    40999    41022    41054    40992    40960 
   40994    41021    41022    41023    41023    41017    41021    41034 
   41034    41014    41008    41058    41102    41084    41060    41057 
   41056    41045    41034    41035    41018    40983    40957    40940 
   40946    40977    40995    40988    40941    40888    40906    40972 
   40995    40981    41003    41045    41068    41072    41071    41062 
   41052    41053    41068    41085    41104    41111    41060    40986 
   41002    41054    41033    41041    41073    41044    41049    41079 
   41044    41022    41015    40981    40975    40983    40972    40991 
   41018    41000    40988    41002    40994    40949    40917    40944 
   40992    41008    41003    41004    41019    41034    41017    40990 
   41017    41030    40996    40979    40988    41023    41046    41056 
   41091    41073    40999    40972    41003    41029    41013    41030 
   41079    41067    41042    41065    41098    41116    41122    41095 
   41071    41057    41025    41022    41041    41027    41019    41029 
   41014    40996    41006    41014    41011    41007    40990    40963 
   40956    40973    40979    40977    41004    41029    41007    41006 
   41030    41007    40998    41048    41046    41027    41065    41088 
   41081    41058    41034    41035    41041    41045    41050    41034 
   41000    40973    40984    40996    40965    40961    41007    41030 
   41035    41031    40980    40940    40960    40992    41018    41007 
   40973    41018    41087    41065    41035    41046    41033    41017 
   41033    41062    41098    41104    41098    41083    41019    40942 
   40952    41014    41011    41000    41040    41026    40948    40938 
   41023    41077    41053    41026    41007    40980    40963    40957 
   40973    40994    41019    41058    41034    40967    40954    40983 
   41025    41071    41076    41045    41033    41071    41114    41104 
   41081    41072    41031    40988    40972    40969    40979    40976 
   40976    41019    41064    41044    40996    40991    41017    40998 
   40961    40971    40979    40969    40998    41027    40999    40992 
   41021    41010    41023    41058    41052    41068    41073    41061 
   41111    41111    41056    41110    41175    41156    41157    41170 
   41160    41143    41110    41110    41165    41193    41193    41188 
   41157    41096    41038    41040    41048    41015    41000    40980 
   40927    40915    40937    40953    40957    40948    40944    40949 
   40945    40942    40969    40979    40905    40841    40857    40865 
   40841    40821    40815    40825    40824    40802    40825    40906 
   40927    40882    40869    40833    40811    40890    40922    40911 
   40973    41023    41046    41089    41129    41208    41343    41443 
   41443    41376    41300    41276    41284    41242    41199    41188 
   41121    41062    41087    41069    40991    40950    40976    41007 
   40967    40923    40900    40846    40865    40956    41021    41052 
   41041    41018    41003    40963    40925    40925    40946    40977 
   40999    40995    41000    41041    41056    41029    41021    41017 
   40995    40984    40964    40945    40969    41013    41031    41037 
   41073    41142    41170    41130    41092    41053    40945    40828 
   40792    40803    40844    40879    40871    40833    40759    40694 
   40722    40792    40845    40894    40922    40942    40961    40984 
   41050    41149    41260    41358    41412    41418    41396    41411 
   41409    41318    41243    41214    41166    41175    41223    41224 
   41176    41038    40869    40776    40725    40711    40740    40736 
   40726    40764    40795    40799    40838    40929    41045    41179 
   41299    41370    41393    41370    41334    41289    41211    41145 
   41089    41006    40932    40857    40752    40674    40660    40652 
   40639    40652    40689    40737    40801    40853    40900    40957 
   41018    41096    41175    41202    41185    41192    41262    41350 
   41407    41424    41377    41277    41188    41168    41241    41316 
   41300    41247    41227    41222    41220    41230    41247    41274 
   41326    41374    41339    41204    41038    40863    40675    40543 
   40509    40539    40583    40620    40630    40612    40570    40518 
   40489    40506    40559    40621    40697    40734    40698    40684 
   40713    40748    40859    41037    41212    41351    41416    41392 
   41310    41234    41219    41256    41324    41432    41574    41709 
   41767    41728    41605    41393    41146    40907    40647    40437 
   40389    40459    40575    40714    40801    40814    40871    40971 
   40991    40994    41060    41098    41081    41100    41116    41077 
   41046    41033    40980    40913    40940    41019    41038    41056 
   41076    41008    40909    40887    40969    41102    41235    41380 
   41486    41489    41408    41276    41149    41081    41052    41029 
   40986    40902    40821    40810    40819    40733    40602    40545 
   40554    40625    40797    41011    41164    41250    41337    41418 
   41450    41443    41404    41326    41233    41175    41166    41172 
   41183    41165    41046    40942    40909    40813    40776    40930 
   41077    41148    41219    41229    41154    41033    40883    40788 
   40840    40987    41052    40990    40925    40880    40830    40803 
   40814    40838    40834    40771    40674    40667    40782    40865 
   40917    40980    40967    40898    40832    40744    40698    40768 
   40902    41053    41211    41322    41349    41346    41346    41350 
   41380    41400    41369    41358    41395    41465    41580    41621 
   41480    41266    41069    40873    40732    40706    40760    40809 
   40768    40653    40544    40475    40456    40486    40548    40651 
   40787    40896    40936    40950    41008    41112    41247    41350 
   41350    41260    41131    41064    41114    41218    41295    41315 
   41273    41196    41152    41156    41122    41029    40963    40950 
   40963    40964    40945    40945    40945    40923    40891    40828 
   40743    40689    40697    40756    40837    40922    40995    41056 
   41085    41062    41052    41104    41175    41220    41216    41134 
   41045    41029    41040    41060    41169    41308    41351    41312 
   41242    41204    41203    41170    41129    41092    41050    41025 
   41003    40950    40855    40806    40863    40919    40922    40896 
   40818    40728    40725    40772    40806    40876    40952    40976 
   41025    41079    41053    40996    40983    40996    40981    40986 
   41046    41098    41154    41191    41114    41037    41044    41060 
   41096    41142    41156    41166    41195    41214    41169    41053 
   40975    40984    40995    41000    41050    41081    41056    41008 
   40940    40900    40911    40900    40868    40844    40825    40836 
   40883    40938    40983    41011    41017    41000    40991    41046 
   41169    41284    41347    41353    41295    41233    41203    41156 
   41098    41092    41076    40984    40906    40867    40846    40894 
   40976    41011    40983    40922    40882    40864    40828    40819 
   40846    40859    40902    40969    40969    40936    40963    41044 
   41095    41112    41156    41208    41233    41204    41145    41118 
   41114    41106    41103    41075    41019    40963    40903    40857 
   40869    40936    40946    40902    40925    40995    41050    41098 
   41094    41050    40998    40936    40915    40934    40959    41007 
   41029    40979    40933    40950    41010    41075    41102    41096 
   41069    40995    40913    40911    40983    41053    41089    41115 
   41137    41137    41129    41131    41094    41006    40957    40952 
   40949    40995    41049    41052    41052    41027    40945    40886 
   40903    40969    41040    41085    41088    41065    41071    41111 
   41153    41188    41223    41222    41142    41027    40936    40865 
   40837    40863    40867    40821    40794    40795    40791    40819 
   40891    40959    41015    41077    41139    41191    41212    41207 
   41188    41146    41118    41148    41172    41135    41094    41083 
   41060    40995    40917    40880    40895    40907    40883    40818 
   40753    40747    40783    40832    40894    40938    40933    40940 
   41013    41062    41017    40976    40968    40932    40963    41094 
   41161    41152    41185    41222    41203    41187    41179    41158 
   41137    41121    41098    41081    41089    41072    41033    41034 
   41046    41037    41033    41042    41041    41042    41061    41079 
   41099    41099    41040    40987    40965    40911    40878    40927 
   40996    41017    40988    40934    40883    40873    40923    41002 
   41095    41175    41180    41126    41094    41091    41089    41122 
   41160    41154    41158    41173    41157    41125    41075    40996 
   40927    40919    40946    40945    40925    40917    40878    40826 
   40852    40953    41057    41110    41099    41017    40886    40811 
   40832    40875    40905    40944    40998    41053    41084    41065 
   41023    41023    41038    41027    41038    41084    41135    41188 
   41191    41142    41099    41046    40981    40953    40952    40957 
   40980    40999    40961    40873    40821    40853    40929    40977 
   40957    40921    40911    40879    40832    40838    40878    40929 
   41011    41089    41125    41126    41106    41077    41060    41044 
   41031    41062    41134    41175    41168    41170    41170    41130 
   41092    41100    41131    41135    41098    41053    41006    40938 
   40899    40900    40894    40926    41021    41073    41068    41050 
   41013    40973    40956    40964    40986    40968    40926    40944 
   40986    40986    41013    41079    41115    41131    41149    41177 
   41162    41072    40992    40963    40961    40991    41017    41023 
   41037    41045    40996    40936    40934    40954    40969    41002 
   41026    41035    41040    41023    40988    40945    40948    41017 
   41061    41056    41046    41030    41034    41053    41029    41011 
   41038    41045    41038    41048    41053    41053    41042    41023 
   41004    40996    41025    41062    41073    41054    41010    40976 
   40979    41003    41027    41035    41034    41029    41015    41013 
