Origin Time       2025/03/30 10:18:00
Lat.              34.667
Long.             140.825
Depth. (km)       69
Mag.              4.9
Station Code      KNGH19
Station Lat.      35.4173
Station Long.     139.0436
Station Height(m) 330
Record Time       2025/03/30 10:19:18
Sampling Freq(Hz) 100Hz
Duration Time(s)  120
Dir.              5
Scale Factor      7845(gal)/8223790
Max. Acc. (gal)   1.020
Last Correction   2025/03/30 10:19:18
Memo.             
[...]
    -529     -491     -460     -488     -534     -531     -496     -484 
    -490     -484     -495     -548     -592     -575     -503     -429 
    -405     -437     -481     -492     -492     -523     -583     -596 
    -513     -432     -457     -503     -491     -476     -477     -468 
    -490     -538     -538     -491     -465     -472     -471     -460 
    -486     -553     -614     -619     -560     -477     -438     -467 
    -521     -545     -542     -540     -540     -529     -500     -473 
    -465     -472     -490     -507     -502     -471     -440     -452 
    -498     -526     -518     -499     -490     -500     -538     -552 
    -510     -464     -449     -456     -481     -510     -523     -515 
    -531     -581     -577     -521     -496     -511     -515     -494 
    -476     -487     -500     -513     -530     -537     -521     -502 
    -494     -465     -419     -391     -387     -441     -535     -565 
    -533     -527     -538     -529     -533     -556     -558     -511 
    -432     -388     -399     -425     -465     -529     -581     -599 
    -596     -594     -564     -490     -422     -411     -445     -476 
    -456     -418     -432     -498     -591     -656     -653     -626 
    -592     -542     -499     -453     -400     -391     -436     -495 
    -521     -500     -472     -463     -463     -469     -487     -519 
    -554     -584     -598     -561     -491     -440     -418     -426 
    -465     -518     -545     -533     -513     -511     -546     -611 
    -637     -560     -445     -399     -411     -442     -491     -530 
    -527     -491     -467     -488     -529     -564     -592     -591 
    -534     -440     -363     -356     -415     -506     -562     -553 
    -511     -487     -503     -518     -510     -511     -508     -490 
    -488     -487     -464     -457     -465     -467     -483     -515 
    -527     -525     -540     -576     -595     -554     -484     -464 
    -502     -541     -526     -473     -450     -467     -506     -575 
    -608     -553     -473     -453     -502     -552     -545     -504 
    -465     -457     -486     -511     -518     -506     -492     -494 
    -499     -506     -498     -476     -502     -573     -585     -513 
    -442     -438     -471     -494     -496     -469     -436     -460 
    -535     -589     -576     -518     -492     -503     -507     -492 
    -452     -429     -471     -513     -496     -472     -492     -529 
    -525     -502     -495     -487     -473     -473     -490     -531 
    -558     -540     -507     -465     -436     -472     -531     -549 
    -544     -517     -437     -368     -419     -542     -621     -615 
    -564     -540     -518     -465     -477     -550     -567     -521 
    -479     -467     -473     -496     -537     -531     -452     -399 
    -415     -463     -538     -587     -553     -464     -432     -494 
    -519     -504     -544     -562     -527     -510     -488     -456 
    -494     -592     -650     -606     -488     -406     -415     -465 
    -507     -521     -511     -513     -506     -500     -504     -464 
    -433     -491     -549     -554     -542     -502     -479     -506 
    -523     -494     -434     -400     -429     -490     -535     -522 
    -442     -413     -507     -604     -604     -545     -484     -487 
    -535     -531     -506     -500     -498     -526     -572     -584 
    -554     -504     -473     -463     -453     -434     -445     -530 
    -569     -465     -406     -496     -572     -572     -548     -506 
    -481     -475     -444     -413     -406     -410     -417     -448 
    -527     -598     -608     -595     -572     -557     -572     -557 
    -488     -446     -465     -514     -567     -577     -522     -492 
    -561     -622     -562     -465     -457     -467     -414     -388 
    -426     -460     -454     -449     -503     -591     -580     -434 
    -376     -498     -549     -506     -519     -491     -450     -514 
    -580     -584     -517     -430     -448     -535     -568     -529 
    -511     -540     -526     -479     -468     -471     -490     -534 
    -556     -565     -579     -549     -487     -425     -390     -396 
    -407     -425     -469     -525     -565     -583     -579     -575 
    -579     -564     -504     -426     -406     -449     -495     -534 
    -569     -562     -510     -446     -414     -437     -487     -554 
    -591     -542     -479     -467     -469     -499     -562     -611 
    -600     -533     -456     -429     -446     -463     -471     -484 
    -502     -542     -568     -487     -409     -483     -565     -519 
    -460     -456     -467     -487     -523     -556     -560     -545 
    -521     -472     -433     -411     -409     -460     -530     -572 
    -580     -534     -514     -572     -606     -575     -500     -410 
    -369     -384     -450     -534     -564     -585     -585     -529 
    -522     -552     -542     -529     -504     -469     -448     -426 
    -437     -510     -549     -533     -544     -548     -538     -576 
    -584     -491     -376     -372     -461     -510     -500     -504 
    -554     -611     -581     -481     -438     -484     -502     -429 
    -386     -433     -480     -519     -545     -515     -481     -479 
    -480     -477     -483     -517     -554     -542     -549     -616 
    -638     -568     -483     -441     -461     -527     -545     -486 
    -432     -418     -436     -492     -519     -483     -460     -488 
    -541     -560     -507     -429     -419     -507     -621     -648 
    -556     -430     -378     -419     -492     -527     -518     -484 
    -464     -473     -502     -556     -600     -577     -550     -575 
    -556     -495     -468     -453     -471     -517     -521     -496 
    -475     -454     -442     -445     -461     -452     -437     -479 
    -546     -580     -579     -556     -523     -511     -502     -467 
    -418     -375     -391     -480     -573     -616     -588     -508 
    -456     -491     -588     -646     -599     -507     -465     -487 
    -503     -494     -502     -519     -529     -540     -542     -518 
    -481     -475     -480     -473     -469     -453     -410     -376 
    -411     -499     -549     -548     -544     -537     -517     -496 
    -484     -492     -537     -579     -579     -542     -515     -507 
    -491     -504     -522     -503     -561     -594     -452     -367 
    -442     -504     -487     -440     -440     -479     -513     -542 
    -526     -471     -449     -515     -635     -664     -567     -463 
    -415     -421     -480     -507     -421     -356     -456     -646 
    -746     -653     -484     -426     -484     -602     -654     -531 
    -411     -432     -449     -441     -479     -522     -530     -487 
    -414     -418     -506     -548     -499     -459     -508     -572 
    -510     -392     -448     -648     -677     -476     -317     -340 
    -483     -654     -745     -715     -638     -534     -418     -364 
    -379     -421     -454     -442     -375     -310     -336     -487 
    -719     -804     -568     -349     -418     -488     -476     -561 
    -618     -571     -490     -405     -440     -530     -514     -526 
    -615     -618     -508     -387     -379     -490     -577     -591 
    -584     -534     -468     -463     -468     -445     -473     -569 
    -615     -558     -500     -511     -552     -534     -453     -386 
    -382     -422     -453     -475     -511     -542     -567     -565 
    -523     -508     -525     -490     -479     -495     -450     -448 
    -508     -518     -491     -475     -548     -679     -635     -442 
    -406     -525     -529     -438     -437     -526     -572     -527 
    -498     -494     -449     -423     -469     -513     -506     -488 
    -471     -488     -558     -529     -434     -469     -557     -598 
    -591     -526     -468     -426     -414     -463     -548     -639 
    -642     -587     -553     -492     -460     -480     -496     -468 
    -398     -391     -414     -467     -596     -614     -544     -544 
    -521     -490     -487     -467     -511     -588     -553     -453 
    -422     -480     -533     -554     -557     -500     -454     -461 
    -456     -450     -481     -525     -521     -476     -441     -403 
    -500     -658     -513     -330     -425     -530     -562     -549 
    -515     -549     -554     -519     -507     -492     -503     -533 
    -530     -531     -545     -518     -467     -457     -502     -540 
    -556     -567     -529     -460     -442     -457     -454     -464 
    -480     -492     -506     -507     -494     -473     -491     -527 
    -445     -372     -523     -662     -600     -573     -637     -589 
    -491     -473     -471     -464     -476     -469     -464     -460 
    -445     -467     -491     -452     -441     -490     -473     -441 
    -494     -535     -550     -567     -537     -544     -619     -612 
    -561     -562     -498     -410     -425     -433     -406     -483 
    -642     -700     -611     -488     -454     -522     -518     -411 
    -383     -409     -395     -419     -469     -518     -560     -565 
    -558     -499     -421     -464     -529     -526     -548     -554 
    -526     -540     -525     -471     -471     -511     -552     -533 
    -454     -413     -409     -446     -533     -545     -480     -429 
    -398     -400     -491     -654     -749     -670     -530     -506 
    -561     -562     -553     -598     -596     -510     -453     -448 
    -423     -446     -479     -430     -426     -442     -433     -495 
    -534     -473     -410     -392     -436     -494     -531     -599 
    -612     -537     -498     -487     -453     -441     -463     -494 
    -526     -561     -560     -522     -544     -627     -642     -562 
    -495     -472     -441     -448     -503     -538     -577     -637 
    -598     -460     -378     -388     -419     -441     -481     -503 
    -467     -448     -502     -561     -580     -589     -598     -575 
    -503     -425     -407     -452     -507     -535     -544     -517 
    -442     -419     -452     -433     -413     -417     -429     -492 
    -538     -507     -468     -484     -544     -561     -561     -596 
    -589     -538     -487     -468     -517     -581     -608     -602 
    -592     -576     -535     -480     -419     -386     -387     -382 
    -387     -432     -461     -453     -472     -526     -575     -587 
    -561     -526     -510     -534     -545     -515     -510     -507 
    -492     -535     -571     -515     -468     -492     -507     -464 
    -410     -410     -459     -525     -589     -607     -577     -560 
    -568     -568     -537     -468     -406     -398     -437     -468 
    -456     -444     -436     -415     -438     -495     -511     -518 
    -573     -627     -641     -606     -545     -541     -562     -523 
    -483     -461     -426     -409     -436     -500     -554     -564 
    -557     -535     -514     -484     -409     -379     -459     -542 
    -557     -525     -480     -457     -468     -477     -475     -498 
    -510     -477     -465     -502     -538     -560     -591     -594 
    -533     -476     -467     -481     -522     -569     -573     -542 
    -518     -513     -510     -508     -521     -523     -496     -473 
    -450     -415     -414     -425     -426     -459     -487     -481 
    -473     -465     -459     -453     -425     -384     -361     -392 
    -498     -552     -491     -453     -476     -488     -498     -535 
    -583     -573     -518     -525     -562     -503     -434     -480 
    -533     -523     -513     -476     -415     -407     -450     -507 
    -583     -633     -621     -626     -712     -812     -835     -797 
    -745     -688     -633     -545     -438     -421     -484     -477 
    -395     -372     -423     -496     -579     -607     -556     -503 
    -464     -410     -382     -394     -360     -270     -176      -75 
      -8      -41     -163     -341     -561     -756     -834     -789 
    -704     -625     -557     -545     -587     -619     -611     -585 
    -599     -665     -760     -865     -859     -666     -448     -309 
    -198     -132     -144     -180     -230     -355     -522     -627 
    -638     -625     -623     -606     -577     -525     -441     -396 
    -419     -452     -476     -515     -544     -573     -616     -591 
    -504     -441     -407     -413     -491     -607     -729     -891 
   -1053    -1081     -973     -816     -639     -488     -410     -387 
    -340     -224     -139     -170     -245     -283     -299     -336 
    -348     -257     -122      -85     -140     -211     -290     -378 
    -450     -545     -730     -961    -1134    -1181    -1088     -908 
    -720     -564     -449     -396     -387     -352     -272     -211 
    -224     -311     -414     -486     -511     -492     -467     -467 
    -483     -504     -521     -511     -481     -454     -476     -540 
    -581     -583     -565     -557     -606     -689     -742     -749 
    -734     -726     -726     -722     -684     -580     -460     -351 
    -232     -172     -193     -247     -344     -430     -426     -326 
    -143       20       33     -121     -363     -519     -491     -349 
    -255     -315     -486     -658     -787     -862     -884     -810 
    -573     -271      -90      -95     -315     -718    -1150    -1472 
   -1572    -1460    -1258     -997     -729     -496     -291     -149 
     -94     -112     -133     -108     -116     -218     -390     -588 
    -723     -749     -669     -479     -270     -216     -348     -508 
    -608     -699     -735     -677     -596     -438     -145      167 
     402      430      157     -210     -518     -820    -1097    -1296 
   -1397    -1344    -1169    -1004     -908     -797     -625     -398 
    -160       -9       13      -43     -133     -195     -236     -344 
    -487     -538     -480     -382     -322     -324     -367     -469 
    -594     -697     -843    -1009    -1039     -880     -614     -360 
    -232     -278     -456     -668     -751     -677     -541     -357 
    -149       28      167      222       95     -251     -699    -1113 
   -1420    -1539    -1440    -1155     -772     -423     -186      -47 
      20       39       56       83       63        6      -70     -197 
    -363     -521     -598     -642     -746     -849     -923     -930 
    -791     -584     -472     -522     -629     -719     -815     -816 
    -769     -789     -741     -630     -606     -587     -507     -402 
    -255     -101      -39     -170     -456     -652     -648     -553 
    -527     -689     -950    -1116    -1125     -989     -780     -588 
    -402     -182       14      148      251      341      403      419 
     326       85     -268     -638     -828     -738     -519     -400 
    -529     -884    -1275    -1526    -1541    -1333    -1088     -955 
    -913     -854     -711     -533     -388     -286     -203     -133 
     -83      -64      -56      -21       13       -1      -79     -234 
    -452     -696     -901     -926     -722     -469     -376     -492 
    -695     -795     -712     -521     -345     -286     -388     -552 
    -656     -707     -700     -594     -450     -373     -351     -399 
    -587     -792     -866     -827     -699     -558     -490     -425 
    -341     -313     -310     -311     -306     -232     -205     -319 
    -472     -577     -575     -537     -537     -494     -454     -415 
    -280     -194     -210     -271     -459     -685     -773     -723 
    -634     -596     -633     -720     -808     -830     -788     -715 
    -629     -598     -687     -827     -853     -716     -463     -168 
      17       28      -76     -210     -310     -402     -500     -548 
    -534     -473     -414     -432     -498     -538     -517     -464 
    -476     -562     -623     -569     -402     -249     -259     -422 
    -616     -731     -719     -606     -515     -565     -720     -874 
    -945     -891     -747     -596     -467     -315     -147      -56 
    -109     -233     -309     -314     -338     -446     -589     -664 
    -600     -438     -298     -260     -315     -415     -517     -588 
    -616     -630     -661     -712     -792     -866     -851     -714 
    -521     -406     -413     -449     -475     -486     -459     -430 
    -419     -400     -402     -459     -527     -538     -476     -400 
    -396     -490     -638     -742     -716     -580     -395     -207 
    -102     -147     -314     -503     -612     -621     -596     -587 
    -567     -564     -653     -792     -835     -726     -535     -390 
    -379     -453     -492     -504     -533     -526     -468     -417 
    -380     -371     -399     -417     -403     -365     -329     -352 
    -453     -594     -722     -799     -788     -687     -572     -508 
    -488     -492     -504     -473     -394     -334     -357     -483 
    -637     -679     -572     -423     -318     -248     -197     -194 
    -271     -422     -608     -765     -837     -834     -792     -723 
    -627     -486     -318     -233     -307     -511     -724     -808 
    -711     -492     -311     -309     -440     -572     -649     -639 
    -549     -426     -324     -290     -319     -356     -376     -368 
    -369     -426     -486     -494     -518     -618     -762     -861 
    -843     -735     -625     -564     -527     -490     -476     -491 
    -503     -500     -472     -436     -419     -441     -521     -618 
    -642     -550     -400     -325     -387     -503     -580     -589 
    -495     -342     -257     -260     -322     -448     -568     -572 
    -479     -409     -398     -403     -423     -484     -564     -618 
    -639     -629     -584     -550     -564     -591     -587     -560 
    -521     -479     -459     -487     -554     -576     -515     -449 
    -411     -390     -417     -480     -525     -525     -467     -360 
    -267     -261     -338     -425     -488     -530     -550     -554 
    -533     -491     -483     -562     -668     -696     -661     -633 
    -612     -571     -527     -529     -550     -530     -484     -477 
    -490     -456     -378     -317     -322     -442     -668     -839 
    -832     -735     -665     -606     -498     -365     -271     -230 
    -247     -319     -406     -463     -479     -475     -468     -449 
    -437     -450     -483     -525     -580     -641     -692     -715 
    -689     -642     -608     -585     -594     -614     -581     -519 
    -460     -407     -411     -463     -511     -542     -550     -550 
    -531     -446     -337     -282     -307     -423     -550     -556 
    -459     -388     -375     -369     -378     -430     -519     -587 
    -594     -550     -488     -454     -506     -625     -735     -784 
    -756     -673     -603     -564     -488     -378     -303     -272 
    -247     -255     -297     -367     -490     -610     -630     -611 
    -648     -672     -629     -577     -491     -352     -284     -332 
    -411     -492     -562     -585     -576     -553     -511     -504 
    -546     -583     -612     -630     -602     -562     -556     -556 
    -537     -498     -454     -400     -349     -349     -403     -461 
