Origin Time       2025/03/30 10:18:00
Lat.              34.667
Long.             140.825
Depth. (km)       69
Mag.              4.9
Station Code      KNGH20
Station Lat.      35.3663
Station Long.     139.1260
Station Height(m) 359.5
Record Time       2025/03/30 10:19:17
Sampling Freq(Hz) 100Hz
Duration Time(s)  120
Dir.              3
Scale Factor      2942(gal)/8224139
Max. Acc. (gal)   0.178
Last Correction   2025/03/30 10:19:18
Memo.             
  179193   179158   179138   179166   179192   179184   179159   179128 
  179122   179185   179286   179342   179320   179254   179186   179165 
  179205   179250   179240   179209   179216   179259   179301   179324 
  179308   179248   179180   179131   179103   179103   179155   179242 
  179285   179240   179192   179196   179190   179138   179069   179037 
  179073   179146   179205   179235   179258   179284   179281   179243 
  179212   179212   179250   179311   179336   179305   179259   179220 
  179194   179215   179273   179285   179212   179154   179200   179273 
  179263   179200   179159   179155   179176   179201   179205   179201 
  179219   179247   179257   179226   179188   179189   179205   179209 
  179212   179212   179213   179239   179275   179294   179305   179304 
  179258   179180   179116   179112   179165   179231   179297   179362 
  179409   179398   179307   179203   179169   179186   179205   179224 
  179236   179217   179170   179127   179111   179113   179119   179124 
  179132   179143   179154   179143   179119   179111   179134   179185 
  179243   179273   179265   179250   179255   179275   179296   179298 
  179289   179297   179315   179312   179294   179289   179296   179290 
  179265   179213   179138   179091   179126   179193   179223   179217 
  179204   179203   179203   179180   179150   179159   179203   179243 
  179274   179289   179270   179219   179155   179103   179089   179116 
  179146   179176   179221   179258   179263   179271   179298   179316 
  179296   179251   179204   179161   179124   179107   179108   179135 
  179205   179289   179325   179302   179255   179213   179178   179149 
  179150   179176   179192   179196   179200   179192   179180   179180 
  179200   179248   179311   179351   179358   179340   179290   179204 
  179113   179086   179140   179217   179263   179284   179288   179262 
  179211   179182   179194   179215   179232   179251   179263   179269 
  179273   179267   179262   179257   179221   179154   179103   179104 
  179145   179197   179251   179293   179307   179281   179217   179132 
  179062   179042   179088   179180   179266   179312   179305   179271 
  179238   179194   179155   179173   179247   179316   179343   179342 
  179336   179320   179278   179223   179181   179169   179172   179169 
  179181   179224   179250   179231   179196   179159   179128   179123 
  179131   179122   179123   179166   179209   179199   179154   179122 
  179130   179173   179205   179220   179253   179289   179308   179320 
  179315   179282   179259   179255   179261   179273   179286   179286 
  179284   179294   179313   179316   179289   179226   179158   179130 
  179150   179190   179226   179244   179244   179217   179163   179123 
  179108   179092   179096   179163   179262   179334   179354   179307 
  179216   179149   179147   179181   179199   179196   179215   179251 
  179269   179265   179250   179243   179244   179230   179207   179184 
  179161   179162   179185   179208   179235   179265   179281   179282 
  179261   179219   179196   179208   179232   179243   179248   179253 
  179250   179248   179257   179251   179217   179184   179182   179209 
  179219   179173   179120   179128   179166   179169   179157   179157 
  179147   179142   179159   179161   179128   179108   179124   179157 
  179190   179226   179266   179297   179288   179251   179247   179267 
  179261   179236   179228   179248   179311   179386   179405   179361 
  179312   179308   179334   179324   179271   179232   179213   179188 
  179159   179153   179192   179262   179290   179250   179173   179111 
  179099   179113   179116   179120   179159   179215   179234   179197 
  179150   179113   179064   179027   179054   179132   179213   179248 
  179221   179182   179182   179199   179193   179192   179213   179234 
  179243   179259   179275   179282   179294   179316   179338   179354 
  179346   179301   179251   179227   179227   179242   179240   179212 
  179201   179232   179253   179223   179185   179169   179162   179153 
  179146   179153   179161   179157   179145   179139   179157   179199 
  179232   179223   179199   179205   179230   179240   179242   179243 
  179238   179239   179259   179288   179300   179300   179292   179248 
  179185   179158   179174   179193   179194   179192   179208   179235 
  179234   179197   179149   179122   179118   179107   179091   179095 
  179124   179167   179200   179219   179244   179261   179246   179216 
  179197   179193   179203   179216   179226   179235   179239   179238 
  179263   179315   179339   179313   179277   179258   179244   179228 
  179217   179209   179194   179186   179194   179201   179196   179192 
  179184   179163   179146   179172   179240   179280   179238   179155 
  179116   179147   179208   179242   179228   179203   179188   179167 
  179140   179138   179176   179235   179296   179334   179339   179340 
  179325   179277   179238   179234   179250   179284   179316   179307 
  179273   179243   179211   179174   179143   179132   179151   179189 
  179215   179209   179188   179165   179135   179093   179058   179070 
  179135   179208   179226   179184   179153   179182   179232   179254 
  179248   179242   179238   179236   179232   179217   179200   179196 
  179219   179226   179181   179140   179154   179192   179207   179196 
  179186   179213   179267   179301   179298   179265   179216   179207 
  179254   179301   179317   179317   179301   179270   179250   179251 
  179247   179231   179235   179251   179253   179253   179254   179230 
  179161   179084   179054   179085   179140   179188   179212   179216 
  179211   179203   179200   179209   179223   179209   179166   179138 
  179174   179254   179290   179254   179211   179215   179244   179253 
  179232   179211   179204   179204   179207   179194   179161   179128 
  179124   179147   179190   179240   179275   179288   179297   179308 
  179286   179221   179174   179177   179203   179235   179275   179309 
  179317   179317   179321   179321   179298   179257   179211   179177 
  179153   179140   179134   179116   179127   179177   179186   179143 
  179112   179103   179097   179115   179134   179135   179147   179167 
  179180   179193   179211   179221   179220   179213   179212   179221 
  179227   179221   179240   179300   179343   179334   179294   179259 
  179246   179253   179246   179201   179159   179165   179200   179232 
  179247   179248   179247   179253   179257   179247   179235   179227 
  179219   179220   179227   179226   179224   179226   179219   179204 
  179189   179177   179188   179232   179281   179284   179226   179155 
  179135   179157   179186   179196   179177   179146   179130   179138 
  179159   179182   179201   179209   179220   179238   179243   179217 
  179177   179157   179182   179227   179234   179201   179176   179200 
  179278   179327   179296   179253   179261   179281   179262   179230 
  179238   179265   179263   179244   179240   179242   179227   179220 
  179232   179239   179243   179253   179254   179235   179204   179182 
  179169   179147   179128   179122   179115   179115   179142   179180 
  179192   179176   179154   179157   179182   179203   179212   179230 
  179253   179257   179235   179213   179217   179254   179302   179342 
  179350   179323   179301   179293   179259   179204   179177   179181 
  179194   179200   179185   179153   179134   179140   179157   179165 
  179153   179131   179119   179122   179138   179170   179204   179216 
  179213   179221   179232   179242   179255   179267   179257   179220 
  179189   179176   179162   179163   179199   179246   179271   179255 
  179205   179169   179166   179165   179143   179120   179142   179211 
  179239   179197   179163   179182   179221   179242   179248   179271 
  179304   179309   179288   179250   179215   179201   179211   179224 
  179223   179217   179226   179239   179234   179199   179154   179134 
  179145   179163   179172   179173   179182   179197   179188   179145 
  179115   179115   179132   179162   179196   179227   179248   179246 
  179217   179196   179207   179235   179261   179282   179282   179248 
  179230   179277   179327   179304   179251   179242   179257   179247 
  179219   179188   179157   179153   179190   179230   179234   179224 
  179221   179215   179196   179176   179157   179147   179154   179177 
  179185   179162   179140   179165   179213   179232   179204   179159 
  179145   179165   179181   179178   179182   179204   179226   179238 
  179228   179196   179181   179207   179234   179223   179200   179207 
  179240   179265   179271   179282   179296   179278   179235   179220 
  179247   179271   179270   179243   179203   179163   179138   179130 
  179135   179158   179200   179235   179236   179204   179162   179134 
  179127   179135   179154   179185   179219   179239   179236   179220 
  179212   179211   179207   179207   179204   179177   179159   179176 
  179204   179232   179262   179273   179257   179224   179193   179186 
  179208   179230   179234   179232   179240   179250   179248   179246 
  179254   179280   179311   179304   179243   179169   179127   179126 
  179147   179157   179161   179181   179205   179216   179223   179235 
  179239   179213   179161   179127   179142   179192   179228   179234 
  179231   179220   179180   179135   179127   179163   179217   179248 
  179253   179244   179221   179185   179146   179124   179142   179189 
  179243   179288   179301   179288   179273   179258   179247   179258 
  179278   179296   179308   179300   179273   179257   179258   179250 
  179226   179211   179212   179215   179212   179213   179217   179208 
  179166   179101   179046   179030   179057   179107   179155   179184 
  179199   179213   179221   179213   179185   179131   179077   179077 
  179147   179246   179320   179354   179363   179348   179308   179258 
  179230   179238   179258   179270   179278   179274   179265   179247 
  179220   179193   179170   179162   179180   179194   179172   179145 
  179154   179174   179193   179221   179240   179228   179213   179217 
  179219   179207   179201   179216   179247   179281   179286   179258 
  179217   179208   179235   179247   179223   179193   179181   179182 
  179192   179180   179154   179157   179197   179228   179219   179197 
  179188   179178   179177   179204   179235   179243   179255   179286 
  179302   179292   179271   179255   179246   179242   179242   179262 
  179289   179296   179285   179280   179275   179251   179213   179190 
  179201   179220   179216   179193   179166   179151   179142   179112 
  179080   179084   179101   179113   179139   179178   179219   179240 
  179224   179181   179149   179142   179138   179108   179082   179101 
  179167   179238   179278   179298   179316   179331   179315   179259 
  179212   179208   179201   179170   179161   179186   179208   179220 
  179239   179267   179294   179309   179294   179248   179203   179170 
  179143   179126   179122   179119   179113   179111   179135   179185 
  179193   179149   179123   179146   179182   179213   179242   179282 
  179320   179315   179261   179211   179204   179227   179251   179263 
  179271   179290   179323   179328   179300   179270   179254   179232 
  179204   179184   179176   179184   179205   179207   179194   179212 
  179247   179265   179261   179243   179226   179207   179181   179180 
  179205   179216   179201   179194   179219   179253   179242   179200 
  179173   179161   179145   179119   179099   179112   179146   179162 
  179170   179181   179177   179172   179188   179216   179240   179239 
  179204   179167   179143   179122   179120   179153   179209   179265 
  179284   179255   179215   179196   179194   179185   179166   179163 
  179185   179226   179277   179311   179298   179266   179255   179255 
  179238   179211   179200   179211   179216   179213   179232   179267 
  179275   179243   179200   179170   179159   179166   179188   179223 
  179254   179251   179227   179203   179185   179176   179167   179177 
  179207   179226   179216   179194   179182   179190   179200   179196 
  179193   179199   179184   179145   179124   179151   179194   179226 
  179253   179289   179316   179327   179334   179338   179321   179288 
  179243   179185   179145   179169   179226   179255   179251   179244 
  179253   179244   179186   179128   179136   179196   179240   179240 
  179209   179170   179138   179131   179151   179182   179223   179254 
  179232   179180   179174   179207   179224   179220   179223   179246 
  179277   179285   179266   179238   179215   179211   179221   179219 
  179197   179199   179234   179270   179280   179266   179243   179211 
  179182   179174   179181   179193   179219   179257   179274   179246 
  179209   179203   179201   179181   179159   179142   179128   179131 
  179135   179124   179118   179139   179178   179204   179197   179178 
  179172   179180   179185   179176   179159   179150   179154   179166 
  179174   179180   179200   179242   179296   179339   179338   179296 
  179258   179254   179254   179238   179232   179265   179324   179375 
  179404   179400   179378   179361   179375   179410   179415   179394 
  179390   179400   179406   179410   179404   179369   179298   179204 
  179131   179126   179155   179157   179127   179089   179032   178939 
  178831   178748   178713   178735   178781   178818   178856   178906 
  178939   178943   178947   178992   179084   179184   179266   179336 
  179382   179409   179436   179448   179423   179401   179420   179467 
  179513   179544   179558   179563   179563   179540   179479   179388 
  179288   179219   179192   179177   179146   179107   179074   179053 
  179039   179005   178946   178914   178923   178939   178949   178978 
  179051   179143   179213   179258   179290   179327   179374   179413 
  179420   179383   179340   179342   179379   179416   179436   179440 
  179432   179425   179416   179388   179332   179254   179178   179134 
  179101   179051   178991   178924   178853   178814   178829   178876 
  178938   179007   179078   179158   179243   179320   179370   179392 
  179397   179392   179396   179408   179423   179451   179474   179446 
  179377   179312   179262   179216   179173   179145   179130   179099 
  179055   179037   179047   179049   179028   179015   179031   179074 
  179134   179185   179217   179257   179319   179366   179356   179307 
  179269   179288   179347   179397   179419   179435   179437   179404 
  179329   179220   179105   179042   179039   179072   179115   179159 
  179181   179142   179034   178912   178837   178816   178835   178887 
  178956   179041   179136   179207   179232   179226   179232   179277 
  179346   179423   179494   179531   179536   179527   179504   179473 
  179455   179456   179475   179502   179502   179462   179396   179301 
  179184   179066   178970   178895   178826   178779   178788   178834 
  178885   178947   179031   179140   179261   179342   179356   179340 
  179332   179340   179356   179374   179400   179419   179396   179347 
  179319   179300   179254   179182   179119   179108   179140   179170 
  179159   179120   179070   179024   178992   178968   178951   178992 
  179111   179248   179347   179402   179410   179361   179275   179203 
  179174   179205   179270   179315   179334   179346   179352   179352 
  179332   179267   179189   179172   179220   179257   179223   179142 
  179059   179011   178999   178999   179004   179024   179068   179145 
  179235   179274   179251   179221   179224   179240   179243   179244 
  179262   179282   179280   179267   179259   179261   179266   179254 
  179212   179165   179130   179116   179147   179200   179232   179261 
  179294   179305   179281   179235   179180   179158   179215   179323 
  179409   179446   179439   179378   179293   179230   179201   179200 
  179201   179178   179139   179112   179091   179066   179065   179100 
  179139   179155   179170   179190   179200   179185   179162   179155 
  179167   179199   179238   179255   179239   179221   179239   179275 
  179280   179230   179170   179159   179185   179196   179181   179158 
  179153   179180   179211   179220   179234   179258   179250   179201 
  179138   179086   179053   179032   179018   179001   178987   178989 
  179015   179055   179085   179105   179142   179196   179219   179188 
  179139   179126   179162   179232   179296   179332   179370   179429 
  179482   179505   179506   179491   179452   179398   179359   179343 
  179336   179338   179356   179378   179382   179354   179294   179199 
  179077   178983   178957   178981   179018   179039   179032   179049 
  179122   179186   179177   179136   179123   179128   179130   179116 
  179077   179030   179007   179019   179057   179108   179165   179219 
  179265   179308   179355   179392   179405   179417   179459   179514 
  179555   179579   179581   179541   179467   179371   179265   179188 
  179167   179184   179182   179147   179100   179039   178964   178910 
  178912   178964   179039   179113   179167   179196   179209   179227 
  179259   179286   179288   179261   179208   179154   179150   179209 
  179288   179316   179259   179154   179061   179011   179004   179034 
  179096   179172   179240   179286   179271   179177   179082   179069 
  179111   179151   179192   179244   179293   179331   179365   179389 
  179369   179312   179273   179265   179266   179263   179250   179221 
  179196   179189   179186   179182   179186   179200   179209   179215 
  179220   179239   179277   179294   179253   179182   179136   179139 
  179182   179212   179199   179174   179151   179124   179123   179153 
  179169   179162   179147   179132   179124   179136   179178   179243 
  179304   179334   179328   179294   179244   179203   179186   179185 
  179185   179197   179231   179271   179285   179259   179221   179196 
  179169   179135   179116   179120   179134   179150   179176   179207 
  179246   179300   179356   179385   179396   179412   179410   179375 
  179328   179286   179259   179254   179273   179300   179297   179251 
  179186   179109   179046   179019   178995   178945   178908   178931 
  179008   179093   179150   179186   179209   179216   179194   179177 
  179216   179292   179346   179359   179340   179305   179263   179203 
  179119   179047   179030   179055   179073   179077   179111   179166 
  179209   179244   179271   179282   179280   179266   179246   179223 
  179212   179219   179227   179244   179288   179336   179352   179343 
  179344   179370   179402   179408   179355   179280   179227   179188 
  179143   179108   179105   179135   179163   179157   179135   179130 
  179145   179165   179167   179159   179185   179250   179296   179271 
  179200   179145   179134   179147   179161   179173   179199   179234 
  179261   179255   179223   179196   179197   179213   179219   179216 
  179223   179243   179250   179219   179163   179108   179064   179065 
  179122   179188   179221   179230   179236   179243   179242   179232 
  179230   179226   179236   179289   179350   179355   179317   179284 
  179263   179240   179209   179181   179161   179150   179150   179150 
  179134   179113   179109   179122   179149   179194   179255   179294 
