Origin Time       2025/03/30 10:18:00
Lat.              34.667
Long.             140.825
Depth. (km)       69
Mag.              4.9
Station Code      KNGH20
Station Lat.      35.3663
Station Long.     139.1260
Station Height(m) 359.5
Record Time       2025/03/30 10:19:17
Sampling Freq(Hz) 100Hz
Duration Time(s)  120
Dir.              1
Scale Factor      2942(gal)/8224139
Max. Acc. (gal)   0.173
Last Correction   2025/03/30 10:19:18
Memo.             
[...]
  332565   332579   332565   332541   332527   332529   332538   332536 
  332515   332499   332515   332542   332550   332559   332580   332581 
  332572   332594   332626   332627   332595   332544   332523   332563 
  332617   332634   332617   332607   332611   332596   332550   332500 
  332472   332479   332498   332492   332473   332467   332465   332463 
  332471   332496   332533   332565   332580   332572   332542   332521 
  332521   332523   332515   332500   332483   332490   332532   332572 
  332577   332556   332544   332564   332590   332583   332552   332534 
  332548   332584   332617   332619   332598   332576   332568   332560 
  332545   332534   332518   332515   332549   332581   332584   332577 
  332567   332536   332490   332442   332436   332491   332559   332581 
  332569   332548   332526   332517   332526   332554   332586   332586 
  332560   332541   332545   332563   332575   332571   332575   332594 
  332598   332577   332549   332534   332546   332571   332577   332554 
  332521   332506   332521   332545   332556   332544   332522   332509 
  332507   332523   332549   332560   332559   332567   332592   332617 
  332613   332571   332522   332509   332530   332561   332586   332575 
  332538   332519   332533   332546   332540   332517   332498   332491 
  332488   332486   332499   332529   332567   332606   332638   332656 
  332644   332614   332599   332599   332592   332579   332577   332581 
  332580   332567   332545   332529   332525   332517   332509   332521 
  332544   332559   332554   332545   332559   332587   332584   332544 
  332496   332471   332472   332498   332526   332526   332502   332503 
  332544   332572   332563   332546   332554   332584   332604   332591 
  332556   332529   332532   332549   332557   332561   332576   332579 
  332552   332514   332494   332491   332495   332503   332511   332525 
  332550   332579   332604   332621   332613   332577   332541   332532 
  332548   332569   332587   332598   332615   332627   332600   332533 
  332468   332451   332476   332500   332507   332518   332546   332588 
  332615   332600   332556   332519   332510   332522   332544   332567 
  332581   332575   332556   332540   332533   332546   332576   332603 
  332607   332592   332579   332557   332537   332538   332550   332544 
  332505   332463   332478   332548   332606   332603   332557   332517 
  332513   332532   332538   332526   332518   332538   332575   332598 
  332591   332571   332549   332538   332532   332519   332499   332483 
  332492   332525   332556   332580   332580   332546   332505   332479 
  332487   332519   332545   332548   332549   332568   332600   332613 
  332576   332523   332513   332552   332591   332596   332575   332553 
  332550   332556   332557   332546   332527   332521   332537   332560 
  332569   332559   332541   332526   332521   332536   332549   332541 
  332536   332537   332540   332556   332576   332584   332594   332600 
  332587   332567   332567   332594   332623   332627   332610   332596 
  332591   332588   332583   332568   332552   332544   332534   332521 
  332515   332525   332530   332514   332490   332480   332494   332519 
  332537   332544   332544   332532   332521   332513   332500   332496 
  332507   332517   332523   332536   332538   332530   332515   332500 
  332505   332525   332546   332571   332598   332622   332623   332586 
  332540   332530   332560   332598   332619   332623   332622   332619 
  332613   332610   332615   332617   332604   332588   332573   332565 
  332564   332554   332549   332556   332573   332596   332600   332569 
  332526   332494   332479   332486   332496   332492   332487   332503 
  332518   332502   332464   332441   332441   332446   332456   332476 
  332511   332534   332521   332500   332513   332545   332573   332586 
  332568   332532   332518   332538   332567   332584   332592   332600 
  332610   332614   332613   332603   332583   332565   332560   332573 
  332596   332606   332592   332575   332573   332573   332556   332526 
  332507   332515   332525   332523   332536   332554   332560   332565 
  332565   332540   332505   332483   332487   332522   332565   332581 
  332559   332526   332513   332507   332505   332519   332553   332595 
  332622   332614   332592   332580   332576   332577   332576   332563 
  332553   332554   332560   332576   332603   332615   332604   332581 
  332553   332534   332536   332536   332526   332525   332518   332483 
  332441   332434   332475   332526   332549   332541   332527   332529 
  332541   332544   332541   332552   332576   332594   332591   332567 
  332537   332530   332554   332586   332592   332575   332545   332523 
  332522   332536   332552   332565   332572   332572   332560   332533 
  332519   332533   332557   332577   332584   332580   332579   332576 
  332563   332545   332549   332565   332561   332546   332546   332553 
  332552   332540   332526   332514   332500   332492   332498   332514 
  332540   332572   332603   332619   332602   332553   332498   332476 
  332492   332521   332532   332518   332509   332527   332564   332586 
  332572   332540   332522   332523   332526   332523   332522   332525 
  332525   332511   332488   332480   332503   332544   332560   332541 
  332527   332560   332611   332634   332627   332613   332603   332592 
  332587   332588   332595   332606   332610   332602   332596   332598 
  332588   332560   332533   332513   332503   332502   332521   332541 
  332537   332513   332494   332500   332538   332573   332572   332553 
  332536   332525   332534   332565   332599   332604   332573   332537 
  332523   332540   332559   332559   332552   332561   332591   332613 
  332602   332581   332577   332568   332529   332487   332476   332488 
  332503   332518   332534   332548   332565   332584   332586   332576 
  332571   332552   332534   332546   332587   332619   332615   332584 
  332561   332552   332549   332548   332537   332526   332529   332526 
  332513   332506   332513   332522   332529   332544   332560   332556 
  332546   332541   332536   332538   332540   332533   332536   332553 
  332563   332553   332538   332542   332567   332587   332586   332559 
  332515   332478   332467   332486   332514   332529   332522   332510 
  332510   332518   332525   332530   332533   332540   332554   332575 
  332595   332607   332610   332615   332615   332590   332557   332538 
  332527   332521   332517   332514   332517   332537   332572   332595 
  332580   332554   332553   332579   332607   332615   332595   332556 
  332533   332552   332583   332596   332587   332561   332537   332529 
  332525   332513   332506   332515   332542   332571   332576   332545 
  332495   332452   332440   332467   332496   332498   332490   332499 
  332525   332553   332559   332537   332518   332518   332532   332548 
  332556   332564   332594   332623   332633   332635   332638   332644 
  332652   332641   332613   332580   332560   332553   332556   332559 
  332556   332545   332537   332532   332534   332549   332554   332545 
  332541   332540   332530   332519   332511   332521   332549   332565 
  332559   332550   332537   332517   332511   332538   332591   332631 
  332622   332583   332557   332560   332583   332592   332573   332552 
  332550   332563   332559   332544   332538   332537   332530   332522 
  332506   332496   332503   332514   332529   332549   332556   332554 
  332559   332557   332545   332548   332571   332590   332594   332579 
  332542   332502   332475   332467   332479   332503   332519   332527 
  332540   332556   332554   332532   332506   332499   332523   332549 
  332549   332532   332511   332519   332556   332579   332580   332586 
  332595   332600   332596   332577   332552   332546   332563   332573 
  332563   332533   332514   332522   332532   332522   332507   332500 
  332505   332521   332542   332561   332571   332571   332563   332545 
  332532   332532   332534   332532   332530   332540   332557   332569 
  332552   332514   332499   332526   332572   332600   332608   332621 
  332634   332621   332586   332552   332536   332549   332580   332592 
  332579   332563   332563   332573   332580   332572   332554   332538 
  332536   332546   332545   332519   332494   332486   332491   332500 
  332506   332507   332515   332523   332536   332552   332557   332560 
  332569   332587   332604   332610   332591   332561   332553   332575 
  332588   332587   332596   332599   332576   332542   332510   332500 
  332527   332565   332580   332569   332537   332515   332522   332533 
  332532   332534   332533   332532   332545   332563   332572   332572 
  332572   332573   332577   332587   332591   332567   332540   332548 
  332564   332553   332532   332507   332494   332509   332537   332554 
  332559   332549   332540   332544   332552   332554   332553   332553 
  332559   332559   332552   332550   332552   332553   332556   332549 
  332537   332536   332546   332554   332553   332561   332576   332573 
  332561   332561   332563   332553   332533   332509   332495   332494 
  332502   332518   332526   332525   332527   332540   332571   332619 
  332649   332619   332561   332523   332513   332515   332525   332530 
  332522   332513   332498   332475   332465   332478   332500   332530 
  332565   332587   332592   332583   332569   332576   332586   332573 
  332549   332530   332525   332542   332569   332583   332573   332554 
  332534   332521   332534   332575   332603   332600   332580   332565 
  332561   332567   332579   332584   332567   332530   332510   332523 
  332554   332580   332587   332575   332564   332560   332540   332502 
  332468   332465   332503   332534   332518   332480   332460   332467 
  332495   332532   332565   332596   332615   332594   332544   332518 
  332536   332577   332610   332604   332576   332569   332581   332572 
  332546   332532   332540   332564   332579   332583   332583   332573 
  332563   332557   332548   332541   332546   332557   332575   332586 
  332584   332588   332598   332590   332563   332536   332514   332502 
  332510   332525   332530   332530   332532   332537   332540   332526 
  332495   332475   332479   332496   332514   332527   332533   332523 
  332511   332513   332521   332521   332518   332519   332523   332536 
  332557   332572   332571   332565   332563   332564   332571   332577 
  332591   332618   332640   332645   332638   332625   332617   332621 
  332629   332631   332614   332583   332557   332542   332541   332545 
  332538   332530   332536   332544   332541   332522   332500   332498 
  332519   332530   332522   332522   332534   332548   332560   332564 
  332545   332518   332511   332530   332559   332581   332586   332571 
  332548   332532   332519   332515   332533   332575   332606   332610 
  332598   332584   332576   332575   332571   332563   332548   332534 
  332523   332510   332495   332488   332483   332483   332496   332499 
  332483   332456   332426   332421   332455   332494   332514   332529 
  332546   332567   332577   332568   332548   332536   332544   332575 
  332596   332594   332591   332598   332600   332591   332576   332573 
  332572   332563   332561   332564   332554   332546   332537   332529 
  332544   332576   332595   332586   332576   332579   332586   332583 
  332580   332588   332606   332622   332626   332611   332584   332556 
  332544   332546   332545   332540   332537   332534   332523   332518 
  332519   332529   332549   332568   332575   332577   332584   332581 
  332553   332514   332500   332517   332532   332534   332534   332536 
  332541   332563   332583   332586   332577   332556   332523   332500 
  332495   332499   332506   332515   332521   332514   332517   332532 
  332538   332533   332530   332530   332527   332518   332513   332521 
  332541   332569   332581   332565   332544   332533   332538   332554 
  332564   332540   332494   332459   332444   332444   332459   332486 
  332521   332563   332590   332583   332561   332536   332523   332542 
  332572   332591   332608   332622   332623   332617   332618   332642 
  332672   332688   332691   332675   332650   332635   332626   332614 
  332598   332592   332604   332635   332665   332673   332664   332645 
  332625   332611   332608   332591   332556   332533   332527   332507 
  332475   332452   332449   332461   332472   332480   332492   332494 
  332482   332463   332430   332395   332384   332388   332382   332383 
  332402   332413   332421   332444   332476   332503   332527   332548 
  332567   332587   332613   332645   332673   332684   332677   332664 
  332646   332638   332640   332640   332629   332610   332592   332586 
  332591   332590   332564   332521   332473   332441   332436   332441 
  332442   332457   332483   332498   332507   332513   332503   332496 
  332513   332542   332571   332592   332606   332596   332545   332461 
  332384   332341   332338   332380   332457   332529   332569   332586 
  332598   332618   332644   332652   332637   332621   332621   332630 
  332627   332595   332523   332433   332364   332329   332320   332338 
  332410   332536   332669   332754   332756   332677   332559   332452 
  332397   332392   332415   332449   332505   332577   332638   332664 
  332648   332610   332575   332552   332546   332575   332634   332691 
  332714   332688   332611   332515   332437   332395   332401   332436 
  332486   332569   332681   332806   332924   333005   333034   333027 
  332997   332943   332884   332843   332819   332783   332718   332621 
  332499   332375   332267   332190   332155   332159   332181   332221 
  332299   332399   332483   332529   332534   332527   332534   332540 
  332537   332540   332553   332579   332608   332633   332626   332580 
  332498   332392   332307   332291   332321   332356   332397   332445 
  332491   332534   332571   332590   332594   332590   332579   332581 
  332614   332654   332675   332664   332633   332588   332521   332424 
  332321   332241   332209   332228   332302   332425   332564   332669 
  332703   332665   332587   332502   332464   332505   332604   332726 
  332822   332847   332803   332735   332671   332610   332563   332527 
  332484   332437   332401   332387   332394   332380   332322   332252 
  332209   332222   332302   332425   332553   332687   332814   332891 
  332897   332861   332818   332797   332796   332807   332815   332799 
  332752   332685   332610   332527   332455   332426   332461   332549 
  332661   332756   332804   332820   332812   332769   332698   332629 
  332576   332548   332533   332526   332538   332567   332592   332613 
  332619   332627   332638   332631   332598   332545   332476   332382 
  332280   332216   332218   332253   332259   332217   332152   332095 
  332068   332077   332122   332210   332313   332391   332436   332455 
  332471   332491   332517   332587   332711   332845   332935   332949 
  332893   332814   332739   332671   332619   332590   332579   332599 
  332645   332669   332654   332618   332572   332544   332564   332622 
  332688   332745   332773   332760   332722   332676   332621   332573 
  332571   332617   332688   332741   332711   332580   332402   332239 
  332137   332121   332176   332243   332270   332270   332282   332314 
  332357   332386   332401   332445   332519   332584   332621   332623 
  332607   332604   332637   332669   332660   332618   332569   332526 
  332509   332527   332575   332662   332777   332865   332883   332831 
  332760   332707   332676   332650   332611   332560   332515   332491 
  332482   332459   332414   332379   332394   332464   332549   332629 
  332704   332770   332818   332837   332808   332753   332719   332695 
  332635   332536   332436   332363   332316   332279   332252   332233 
  332236   332263   332286   332289   332291   332310   332349   332415 
  332498   332584   332679   332754   332779   332761   332719   332658 
  332590   332530   332487   332475   332509   332557   332599   332650 
  332706   332719   332680   332615   332554   332518   332517   332549 
  332594   332640   332691   332710   332656   332576   332556   332606 
  332660   332660   332607   332532   332464   332425   332407   332405 
  332425   332463   332484   332464   332417   332380   332383   332432 
  332511   332604   332687   332727   332707   332650   332594   332550 
  332518   332495   332471   332418   332344   332284   332301   332422 
  332604   332750   332807   332773   332699   332657   332684   332743 
  332788   332816   332827   332806   332749   332675   332608   332563 
  332519   332465   332418   332379   332341   332316   332309   332325 
  332367   332421   332467   332499   332526   332559   332596   332625 
  332629   332615   332604   332606   332586   332505   332392   332329 
  332344   332399   332442   332472   332519   332596   332685   332752 
  332773   332766   332761   332756   332731   332683   332608   332500 
  332368   332244   332162   332127   332129   332167   332249   332365 
  332488   332594   332688   332803   332915   332966   332928   332815 
  332668   332546   332483   332473   332488   332484   332437   332355 
  332294   332316   332417   332541   332641   332687   332672   332629 
  332595   332577   332565   332559   332567   332596   332625   332619 
  332598   332594   332623   332654   332648   332608   332552   332498 
  332486   332521   332552   332560   332549   332537   332557   332619 
  332680   332700   332691   332681   332695   332718   332722   332699 
  332656   332604   332546   332475   332399   332351   332337   332351 
  332383   332429   332473   332496   332483   332437   332403   332407 
  332437   332487   332537   332550   332509   332438   332392   332415 
  332496   332588   332646   332644   332579   332476   332375   332303 
  332279   332317   332415   332548   332668   332745   332776   332765 
  332729   332700   332706   332742   332772   332768   332726   332661 
  332613   332610   332631   332629   332569   332471   332375   332314 
  332303   332336   332397   332472   332534   332567   332572   332549 
  332526   332530   332529   332496   332478   332505   332552   332592 
  332607   332604   332598   332591   332602   332642   332675   332665 
  332642   332642   332681   332745   332776   332739   332665   332599 
  332559   332553   332568   332581   332599   332610   332600   332587 
  332590   332596   332600   332596   332569   332527   332499   332492 
  332498   332498   332473   332440   332419   332438   332502   332586 
  332652   332672   332631   332554   332503   332498   332509   332514 
  332500   332460   332405   332367   332356   332368   332402   332449 
  332491   332533   332580   332608   332598   332556   332521   332521 
  332525   332487   332434   332409   332397   332378   332359   332345 
  332337   332347   332380   332424   332460   332490   332507   332533 
  332584   332648   332700   332723   332711   332676   332626   332571 
  332522   332494   332490   332519   332586   332656   332680   332649 
  332598   332563   332554   332569   332606   332646   332677   332689 
  332684   332668   332646   332629   332622   332627   332634   332640 
  332641   332634   332630   332630   332642   332667   332695   332711 
