Origin Time       2025/03/30 10:18:00
Lat.              34.667
Long.             140.825
Depth. (km)       69
Mag.              4.9
Station Code      KNGH21
Station Lat.      35.4628
Station Long.     139.2146
Station Height(m) 245
Record Time       2025/03/30 10:19:17
Sampling Freq(Hz) 100Hz
Duration Time(s)  120
Dir.              2
Scale Factor      2942(gal)/8224139
Max. Acc. (gal)   0.189
Last Correction   2025/03/30 10:19:17
Memo.             
[...]
   93414    93367    93348    93367    93370    93359    93383    93410 
   93384    93337    93307    93316    93361    93380    93360    93363 
   93364    93341    93344    93368    93357    93316    93289    93320 
   93375    93380    93347    93333    93330    93332    93361    93390 
   93384    93366    93356    93341    93317    93321    93359    93394 
   93409    93398    93363    93351    93356    93349    93352    93357 
   93339    93321    93317    93312    93324    93361    93374    93349 
   93341    93359    93361    93355    93368    93390    93402    93403 
   93394    93376    93351    93318    93302    93312    93328    93330 
   93330    93334    93322    93302    93307    93326    93339    93355 
   93386    93426    93438    93390    93340    93334    93341    93351 
   93361    93364    93374    93363    93314    93290    93317    93355 
   93378    93397    93414    93413    93397    93376    93359    93357 
   93361    93356    93357    93364    93359    93355    93372    93383 
   93349    93302    93299    93339    93395    93421    93413    93420 
   93415    93367    93322    93322    93353    93382    93368    93326 
   93298    93263    93229    93247    93307    93364    93383    93366 
   93359    93384    93407    93410    93410    93406    93388    93371 
   93351    93325    93298    93279    93276    93278    93278    93272 
   93271    93312    93374    93411    93436    93445    93407    93364 
   93367    93386    93382    93360    93339    93326    93329    93339 
   93337    93314    93291    93295    93320    93337    93334    93328 
   93341    93370    93383    93378    93363    93366    93382    93378 
   93356    93340    93313    93301    93337    93384    93398    93407 
   93425    93407    93353    93326    93341    93353    93344    93351 
   93382    93395    93386    93384    93387    93357    93310    93290 
   93309    93344    93380    93399    93376    93336    93324    93325 
   93324    93336    93364    93371    93352    93349    93361    93347 
   93344    93364    93347    93305    93287    93287    93306    93349 
   93382    93372    93353    93367    93399    93422    93428    93417 
   93406    93390    93370    93357    93356    93364    93364    93336 
   93309    93291    93275    93287    93314    93314    93303    93312 
   93325    93344    93378    93398    93393    93382    93366    93355 
   93363    93376    93371    93337    93318    93353    93388    93382 
   93367    93357    93352    93364    93380    93388    93383    93349 
   93310    93302    93325    93349    93359    93368    93388    93388 
   93349    93313    93325    93360    93379    93388    93402    93413 
   93409    93397    93367    93325    93321    93359    93367    93343 
   93347    93374    93363    93336    93330    93309    93271    93255 
   93280    93343    93407    93425    93406    93383    93351    93317 
   93302    93303    93317    93352    93375    93356    93333    93326 
   93321    93316    93339    93388    93397    93361    93351    93372 
   93391    93382    93343    93320    93345    93367    93359    93356 
   93360    93343    93317    93302    93294    93299    93324    93360 
   93380    93359    93332    93345    93368    93371    93371    93368 
   93361    93352    93321    93298    93307    93314    93320    93337 
   93329    93314    93325    93332    93343    93384    93415    93414 
   93414    93434    93449    93432    93406    93386    93340    93313 
   93349    93376    93371    93387    93399    93370    93339    93318 
   93289    93279    93320    93359    93355    93340    93353    93375 
   93370    93352    93348    93349    93353    93356    93351    93347 
   93348    93364    93398    93413    93391    93361    93351    93357 
   93355    93328    93301    93298    93298    93306    93345    93397 
   93401    93344    93303    93325    93348    93348    93357    93344 
   93298    93266    93276    93329    93376    93388    93394    93401 
   93386    93378    93395    93398    93390    93387    93383    93364 
   93333    93314    93318    93332    93348    93359    93366    93361 
   93336    93317    93333    93347    93352    93363    93355    93332 
   93348    93379    93368    93337    93326    93337    93356    93370 
   93375    93384    93401    93415    93428    93418    93372    93326 
   93312    93321    93340    93340    93334    93349    93349    93326 
   93325    93336    93352    93384    93384    93322    93260    93251 
   93295    93359    93399    93402    93363    93326    93345    93360 
   93326    93312    93340    93383    93434    93459    93429    93378 
   93345    93333    93318    93295    93276    93289    93333    93352 
   93325    93313    93317    93297    93303    93356    93380    93376 
   93378    93383    93386    93370    93348    93375    93420    93425 
   93393    93330    93291    93294    93297    93306    93330    93333 
   93325    93326    93328    93361    93418    93436    93425    93411 
   93371    93339    93349    93363    93361    93367    93371    93360 
   93333    93309    93306    93312    93321    93355    93379    93366 
   93341    93320    93299    93306    93348    93388    93391    93370 
   93348    93332    93333    93351    93364    93366    93364    93374 
   93393    93388    93357    93344    93343    93344    93370    93380 
   93366    93366    93352    93313    93294    93283    93271    93298 
   93368    93437    93455    93420    93390    93386    93380    93376 
   93383    93372    93344    93324    93320    93332    93351    93360 
   93375    93395    93376    93330    93312    93325    93341    93356 
   93367    93344    93318    93339    93348    93322    93326    93347 
   93349    93360    93352    93336    93353    93349    93314    93317 
   93337    93332    93320    93306    93306    93336    93356    93353 
   93351    93343    93339    93361    93384    93401    93407    93383 
   93378    93414    93421    93380    93341    93303    93272    93264 
   93278    93330    93395    93403    93378    93368    93357    93349 
   93378    93418    93415    93379    93352    93344    93352    93352 
   93334    93336    93357    93353    93345    93379    93414    93395 
   93340    93291    93290    93341    93403    93436    93425    93393 
   93375    93359    93329    93310    93293    93267    93240    93214 
   93226    93306    93406    93451    93432    93397    93368    93357 
   93364    93357    93340    93337    93336    93347    93382    93399 
   93398    93406    93418    93406    93374    93339    93313    93303 
   93316    93334    93349    93356    93363    93379    93383    93366 
   93355    93336    93295    93270    93279    93285    93287    93326 
   93383    93394    93374    93360    93324    93253    93225    93262 
   93294    93312    93356    93405    93434    93457    93465    93449 
   93417    93372    93321    93291    93322    93391    93432    93438 
   93433    93393    93341    93320    93302    93297    93318    93332 
   93334    93329    93306    93324    93383    93395    93366    93351 
   93347    93352    93383    93425    93425    93360    93285    93253 
   93272    93328    93378    93387    93367    93329    93287    93270 
   93275    93290    93317    93352    93370    93349    93322    93321 
   93325    93344    93380    93379    93359    93380    93410    93407 
   93403    93413    93424    93415    93384    93353    93312    93267 
   93271    93328    93372    93370    93363    93383    93383    93351 
   93360    93420    93459    93452    93418    93380    93361    93343 
   93307    93295    93305    93299    93275    93240    93218    93247 
   93289    93321    93380    93433    93444    93424    93370    93325 
   93344    93390    93418    93415    93394    93368    93339    93324 
   93343    93364    93366    93372    93379    93357    93332    93333 
   93341    93337    93334    93334    93322    93309    93321    93357 
   93390    93382    93344    93332    93351    93361    93371    93388 
   93399    93394    93374    93349    93332    93313    93298    93305 
   93320    93324    93320    93310    93293    93298    93349    93394 
   93401    93406    93397    93353    93330    93347    93371    93387 
   93391    93398    93401    93384    93363    93333    93305    93303 
   93312    93316    93330    93357    93375    93361    93325    93330 
   93378    93409    93421    93413    93380    93355    93336    93312 
   93301    93313    93330    93340    93325    93302    93303    93326 
   93343    93367    93395    93394    93382    93374    93357    93349 
   93370    93405    93418    93378    93310    93272    93270    93275 
   93298    93330    93341    93347    93366    93378    93386    93393 
   93380    93386    93424    93442    93418    93376    93329    93285 
   93260    93289    93357    93393    93375    93339    93303    93290 
   93310    93348    93382    93403    93403    93372    93321    93306 
   93339    93363    93353    93339    93332    93324    93329    93353 
   93374    93376    93380    93376    93351    93333    93344    93360 
   93378    93398    93379    93336    93320    93314    93299    93312 
   93356    93391    93390    93370    93366    93390    93405    93380 
   93344    93332    93339    93334    93345    93393    93429    93429 
   93401    93352    93320    93307    93310    93325    93320    93290 
   93286    93312    93333    93333    93324    93320    93328    93351 
   93379    93391    93390    93383    93374    93372    93380    93387 
   93387    93383    93374    93367    93361    93341    93326    93339 
   93352    93351    93337    93303    93283    93312    93352    93378 
   93388    93378    93366    93356    93332    93310    93314    93339 
   93353    93340    93320    93310    93306    93320    93348    93355 
   93353    93368    93383    93384    93387    93397    93411    93422 
   93405    93370    93348    93340    93343    93355    93356    93344 
   93347    93355    93352    93349    93363    93386    93409    93432 
   93437    93403    93357    93341    93340    93332    93330    93340 
   93337    93320    93299    93286    93293    93332    93372    93391 
   93398    93405    93415    93429    93420    93395    93383    93357 
   93318    93301    93291    93282    93298    93324    93332    93339 
   93367    93401    93415    93417    93422    93434    93444    93448 
   93447    93433    93394    93347    93321    93312    93313    93344 
   93380    93399    93422    93424    93375    93324    93290    93274 
   93286    93289    93268    93255    93245    93231    93225    93243 
   93285    93333    93361    93380    93406    93426    93425    93422 
   93428    93426    93428    93430    93410    93368    93352    93360 
   93352    93305    93247    93245    93305    93361    93384    93394 
   93379    93344    93322    93298    93262    93235    93206    93175 
   93172    93179    93179    93205    93232    93216    93212    93255 
   93318    93393    93456    93474    93456    93440    93438    93433 
   93394    93332    93290    93271    93249    93251    93306    93364 
   93383    93371    93345    93322    93326    93356    93390    93409 
   93393    93345    93316    93326    93341    93332    93307    93314 
   93380    93498    93621    93669    93607    93482    93359    93287 
   93291    93352    93421    93464    93483    93486    93461    93397 
   93312    93210    93094    93042    93118    93229    93266    93286 
   93356    93415    93430    93415    93367    93330    93357    93414 
   93474    93529    93538    93502    93442    93363    93290    93243 
   93212    93212    93258    93298    93310    93347    93398    93388 
   93321    93274    93260    93251    93252    93270    93294    93336 
   93387    93420    93407    93341    93268    93267    93316    93349 
   93374    93386    93364    93351    93366    93370    93380    93405 
   93399    93378    93366    93345    93322    93317    93316    93303 
   93301    93341    93424    93502    93544    93550    93530    93498 
   93465    93455    93487    93530    93513    93434    93340    93251 
   93163    93066    92997    93016    93113    93198    93199    93167 
   93187    93255    93343    93437    93518    93568    93579    93553 
   93528    93511    93506    93509    93510    93505    93475    93410 
   93339    93302    93337    93429    93519    93602    93696    93773 
   93795    93746    93652    93533    93371    93183    93020    92929 
   92955    93059    93145    93183    93198    93190    93151    93097 
   93059    93063    93136    93302    93513    93637    93607    93483 
   93337    93205    93129    93132    93172    93229    93340    93492 
   93610    93669    93668    93567    93386    93206    93090    93071 
   93133    93213    93271    93306    93271    93136    93002    92989 
   93085    93228    93360    93449    93503    93541    93582    93641 
   93667    93623    93557    93480    93372    93260    93189    93152 
   93150    93201    93297    93383    93409    93380    93330    93278 
   93249    93258    93285    93333    93401    93476    93568    93654 
   93673    93641    93580    93474    93372    93347    93398    93499 
   93563    93522    93430    93334    93220    93114    93050    93028 
   93094    93243    93379    93483    93600    93722    93776    93711 
   93545    93356    93232    93206    93244    93293    93329    93329 
   93294    93225    93094    92921    92823    92854    92965    93132 
   93333    93474    93515    93510    93502    93523    93573    93594 
   93540    93445    93375    93347    93337    93340    93339    93302 
   93233    93189    93214    93289    93360    93410    93433    93460 
   93519    93573    93594    93577    93515    93429    93366    93324 
   93282    93270    93295    93302    93289    93310    93343    93332 
   93282    93218    93172    93162    93179    93209    93240    93259 
   93272    93310    93363    93411    93459    93492    93496    93468 
   93393    93291    93245    93258    93252    93228    93241    93298 
   93375    93436    93436    93375    93298    93264    93312    93414 
   93515    93580    93592    93559    93505    93406    93270    93183 
   93193    93236    93270    93322    93410    93498    93560    93594 
   93579    93503    93403    93352    93382    93434    93453    93417 
   93324    93228    93197    93228    93279    93334    93394    93434 
   93429    93403    93384    93383    93402    93409    93397    93403 
   93388    93321    93262    93221    93189    93201    93243    93258 
   93258    93274    93297    93306    93301    93301    93321    93324 
   93318    93363    93420    93433    93444    93444    93386    93339 
   93356    93368    93356    93351    93298    93166    93033    92959 
   92963    93054    93189    93317    93415    93461    93456    93413 
   93341    93293    93303    93330    93341    93370    93415    93430 
   93384    93302    93252    93280    93339    93371    93401    93444 
   93486    93510    93533    93565    93556    93496    93447    93411 
   93388    93405    93432    93451    93480    93476    93406    93318 
   93270    93289    93361    93436    93479    93496    93484    93438 
   93379    93328    93302    93314    93351    93384    93382    93334 
   93297    93290    93270    93228    93189    93162    93154    93177 
   93248    93382    93521    93594    93587    93523    93425    93332 
   93301    93330    93375    93422    93464    93447    93351    93244 
   93185    93151    93121    93141    93241    93372    93479    93536 
   93523    93460    93357    93247    93198    93251    93353    93417 
   93395    93326    93286    93285    93289    93299    93334    93357 
   93352    93348    93349    93351    93349    93333    93295    93255 
   93237    93260    93330    93410    93456    93461    93426    93366 
   93310    93283    93283    93295    93314    93348    93372    93360 
   93368    93429    93492    93534    93550    93530    93503    93492 
   93469    93413    93339    93268    93221    93245    93320    93356 
   93357    93370    93372    93355    93344    93336    93322    93312 
   93302    93291    93310    93367    93402    93360    93263    93182 
   93150    93172    93245    93313    93355    93414    93468    93475 
   93465    93447    93418    93411    93414    93397    93356    93301 
   93252    93222    93228    93295    93411    93501    93491    93401 
   93310    93268    93271    93309    93352    93355    93317    93289 
   93289    93285    93275    93276    93264    93235    93228    93249 
   93312    93402    93451    93444    93425    93401    93370    93349 
   93348    93344    93333    93356    93410    93425    93417    93456 
   93487    93456    93421    93398    93348    93326    93366    93397 
   93375    93326    93262    93191    93144    93141    93170    93195 
   93212    93243    93305    93366    93403    93405    93356    93318 
   93332    93325    93274    93272    93345    93433    93492    93515 
   93496    93437    93386    93376    93359    93332    93379    93488 
   93576    93602    93569    93506    93447    93406    93372    93333 
   93303    93339    93430    93490    93449    93337    93270    93302 
   93351    93383    93444    93496    93483    93409    93305    93206 
   93158    93190    93262    93306    93320    93316    93326    93372 
   93402    93380    93347    93347    93384    93422    93429    93402 
   93363    93339    93329    93320    93290    93237    93205    93225 
   93286    93383    93479    93503    93476    93453    93430    93394 
   93353    93321    93330    93371    93395    93411    93421    93393 
   93337    93297    93256    93195    93143    93118    93123    93193 
   93307    93380    93387    93353    93287    93240    93263    93291 
   93291    93321    93361    93372    93402    93452    93472    93487 
   93503    93476    93436    93414    93366    93290    93248    93248 
   93282    93352    93422    93428    93361    93290    93270    93286 
   93310    93349    93399    93430    93424    93390    93364    93378 
   93399    93380    93333    93302    93317    93372    93442    93492 
   93482    93426    93356    93285    93235    93228    93243    93260 
   93285    93314    93334    93333    93332    93345    93363    93374 
   93378    93386    93395    93380    93341    93307    93305    93347 
   93395    93410    93403    93368    93318    93301    93303    93317 
   93379    93464    93494    93445    93357    93279    93243    93255 
   93294    93332    93345    93329    93321    93352    93407    93447 
   93452    93429    93384    93333    93302    93306    93349    93401 
   93410    93391    93382    93366    93310    93260    93268    93309 
   93325    93321    93330    93349    93355    93374    93436    93498 
   93519    93507    93464    93403    93391    93414    93390    93333 
   93317    93351    93395    93387    93344    93336    93348    93347 
   93337    93286    93213    93191    93221    93271    93318    93347 
   93363    93374    93375    93370    93347    93314    93302    93312 
   93316    93314    93329    93364    93398    93384    93332    93303 
   93302    93302    93321    93352    93375    93403    93432    93436 
