Origin Time       2025/03/30 10:18:00
Lat.              34.667
Long.             140.825
Depth. (km)       69
Mag.              4.9
Station Code      KNGH21
Station Lat.      35.4628
Station Long.     139.2146
Station Height(m) 245
Record Time       2025/03/30 10:19:17
Sampling Freq(Hz) 100Hz
Duration Time(s)  120
Dir.              1
Scale Factor      2942(gal)/8224139
Max. Acc. (gal)   0.264
Last Correction   2025/03/30 10:19:17
Memo.             
[...]
  207328   207361   207370   207360   207351   207338   207310   207289 
  207277   207270   207281   207306   207331   207369   207396   207382 
  207361   207369   207380   207368   207350   207334   207314   207304 
  207310   207314   207316   207331   207353   207361   207361   207350 
  207316   207277   207284   207322   207327   207318   207349   207385 
  207376   207333   207310   207330   207350   207334   207323   207358 
  207401   207403   207354   207308   207320   207362   207370   207349 
  207330   207312   207285   207262   207261   207293   207351   207397 
  207409   207397   207350   207272   207243   207283   207310   207307 
  207306   207285   207268   207287   207314   207339   207376   207392 
  207374   207347   207323   207295   207277   207289   207316   207338 
  207357   207366   207358   207341   207326   207324   207339   207355 
  207361   207373   207392   207381   207333   207288   207269   207285 
  207327   207350   207339   207318   207303   207296   207303   207314 
  207316   207312   207308   207318   207360   207403   207404   207365 
  207334   207342   207358   207351   207339   207335   207343   207350 
  207333   207311   207312   207327   207338   207334   207320   207299 
  207269   207264   207300   207347   207372   207382   207396   207399 
  207380   207360   207353   207349   207331   207314   207315   207339 
  207360   207354   207334   207314   207299   207288   207288   207316 
  207355   207355   207324   207314   207311   207303   207310   207334 
  207353   207353   207338   207342   207353   207339   207322   207335 
  207353   207339   207311   207315   207339   207339   207322   207316 
  207310   207288   207285   207310   207326   207331   207358   207395 
  207404   207384   207360   207350   207357   207355   207342   207341 
  207342   207323   207306   207323   207343   207339   207339   207360 
  207372   207361   207350   207351   207349   207339   207334   207339 
  207342   207331   207320   207311   207297   207296   207300   207303 
  207331   207362   207358   207335   207326   207315   207306   207328 
  207333   207291   207288   207333   207351   207346   207335   207297 
  207266   207277   207312   207333   207334   207326   207306   207295 
  207308   207320   207326   207354   207387   207387   207354   207330 
  207337   207334   207293   207279   207326   207378   207389   207373 
  207361   207362   207366   207362   207361   207355   207337   207335 
  207345   207343   207357   207376   207354   207311   207304   207323 
  207326   207326   207324   207318   207319   207316   207307   207314 
  207322   207310   207301   207297   207292   207295   207297   207296 
  207301   207314   207338   207354   207335   207293   207264   207272 
  207320   207365   207366   207355   207361   207368   207376   207389 
  207378   207335   207306   207314   207338   207349   207342   207346 
  207361   207360   207354   207368   207362   207337   207330   207342 
  207360   207374   207361   207327   207320   207337   207346   207347 
  207347   207343   207331   207326   207335   207339   207331   207326 
  207331   207339   207334   207324   207326   207326   207326   207324 
  207293   207258   207268   207303   207316   207326   207351   207354 
  207334   207331   207335   207334   207355   207384   207387   207376 
  207366   207347   207335   207334   207326   207323   207335   207343 
  207334   207312   207284   207261   207272   207301   207311   207318 
  207333   207331   207315   207307   207316   207346   207374   207365 
  207343   207337   207319   207287   207281   207319   207357   207364 
  207362   207380   207393   207380   207357   207354   207354   207337 
  207311   207300   207320   207347   207354   207339   207318   207307 
  207300   207280   207247   207237   207273   207334   207389   207415 
  207397   207369   207365   207358   207330   207303   207312   207351 
  207370   207341   207297   207284   207292   207300   207306   207316 
  207331   207350   207360   207353   207339   207326   207316   207331 
  207364   207372   207360   207355   207351   207337   207343   207360 
  207361   207362   207372   207374   207364   207330   207291   207281 
  207299   207318   207327   207315   207287   207272   207269   207268 
  207287   207315   207319   207308   207322   207369   207403   207387 
  207347   207324   207323   207335   207342   207335   207338   207355 
  207378   207385   207360   207331   207338   207337   207284   207238 
  207249   207289   207323   207350   207347   207315   207307   207335 
  207362   207361   207335   207320   207337   207370   207407   207420 
  207395   207349   207314   207319   207345   207346   207346   207355 
  207358   207355   207347   207353   207380   207397   207396   207389 
  207370   207326   207268   207230   207230   207249   207284   207324 
  207339   207331   207311   207283   207274   207295   207312   207318 
  207324   207326   207311   207310   207347   207397   207400   207357 
  207322   207320   207345   207365   207346   207295   207265   207280 
  207301   207311   207334   207347   207319   207291   207308   207343 
  207364   207376   207392   207397   207374   207349   207354   207354 
  207319   207304   207333   207358   207364   207369   207362   207331 
  207303   207295   207296   207299   207307   207303   207295   207312 
  207335   207328   207310   207312   207343   207384   207392   207358 
  207330   207334   207337   207327   207320   207333   207368   207393 
  207381   207342   207288   207256   207284   207314   207293   207270 
  207270   207284   207307   207323   207335   207357   207370   207384 
  207396   207387   207374   207372   207360   207346   207342   207337 
  207323   207328   207358   207385   207404   207395   207338   207287 
  207277   207287   207299   207311   207315   207318   207315   207303 
  207287   207284   207311   207361   207393   207393   207376   207357 
  207342   207342   207342   207330   207320   207320   207322   207343 
  207377   207381   207361   207347   207338   207326   207306   207276 
  207252   207241   207237   207261   207310   207333   207327   207326 
  207327   207328   207337   207343   207341   207337   207350   207366 
  207353   207328   207326   207324   207319   207320   207319   207326 
  207345   207343   207323   207322   207334   207357   207381   207380 
  207366   207366   207366   207378   207397   207384   207354   207337 
  207319   207310   207320   207328   207334   207355   207377   207382 
  207366   207331   207292   207285   207310   207335   207342   207341 
  207338   207315   207281   207274   207281   207272   207252   207252 
  207273   207301   207331   207342   207338   207361   207408   207438 
  207443   207427   207396   207360   207328   207314   207314   207318 
  207315   207300   207291   207291   207280   207272   207289   207301 
  207292   207281   207281   207301   207347   207380   207373   207366 
  207365   207349   207346   207364   207358   207326   207306   207323 
  207358   207372   207374   207385   207385   207357   207346   207362 
  207339   207283   207268   207291   207307   207319   207345   207364 
  207354   207334   207320   207319   207333   207366   207393   207384 
  207351   207338   207339   207324   207308   207315   207323   207333 
  207358   207372   207351   207324   207304   207299   207312   207316 
  207310   207322   207350   207373   207355   207287   207237   207254 
  207292   207319   207338   207335   207319   207342   207397   207414 
  207369   207328   207319   207322   207339   207381   207414   207401 
  207361   207315   207281   207291   207319   207319   207307   207301 
  207296   207306   207319   207318   207323   207346   207358   207355 
  207358   207357   207333   207306   207295   207295   207297   207304 
  207314   207316   207310   207295   207291   207300   207300   207308 
  207343   207364   207361   207377   207399   207380   207345   207328 
  207327   207345   207393   207434   207420   207366   207322   207316 
  207342   207357   207343   207324   207308   207304   207312   207300 
  207276   207280   207301   207311   207308   207303   207299   207300 
  207314   207342   207361   207365   207364   207360   207354   207351 
  207345   207343   207373   207393   207346   207301   207308   207308 
  207301   207312   207310   207285   207276   207288   207315   207337 
  207347   207365   207377   207364   207346   207342   207338   207328 
  207328   207346   207357   207360   207366   207364   207353   207345 
  207319   207288   207300   207328   207334   207327   207319   207314 
  207327   207355   207374   207374   207369   207366   207357   207334 
  207319   207324   207328   207333   207346   207343   207323   207301 
  207291   207303   207315   207300   207288   207293   207295   207296 
  207296   207299   207328   207369   207380   207353   207322   207314 
  207334   207372   207392   207381   207364   207346   207315   207296 
  207308   207316   207322   207349   207361   207331   207299   207288 
  207295   207320   207351   207384   207416   207428   207411   207373 
  207343   207347   207370   207372   207357   207339   207322   207314 
  207308   207291   207285   207304   207311   207318   207339   207345 
  207335   207337   207334   207308   207277   207258   207261   207295 
  207331   207333   207314   207295   207277   207276   207289   207304 
  207327   207347   207346   207358   207393   207407   207381   207351 
  207341   207334   207331   207342   207369   207391   207381   207351 
  207319   207277   207250   207268   207297   207310   207331   207361 
  207360   207350   207364   207374   207360   207342   207338   207323 
  207295   207287   207299   207310   207320   207342   207373   207377 
  207331   207291   207306   207328   207318   207296   207289   207296 
  207310   207324   207334   207328   207308   207297   207318   207339 
  207333   207320   207334   207364   207385   207389   207381   207365 
  207346   207331   207335   207370   207411   207412   207378   207338 
  207311   207301   207322   207357   207366   207354   207347   207347 
  207335   207314   207292   207284   207292   207312   207349   207384 
  207384   207355   207337   207341   207353   207346   207320   207318 
  207334   207330   207303   207284   207280   207289   207303   207316 
  207331   207333   207310   207287   207279   207288   207308   207328 
  207341   207345   207349   207360   207387   207418   207420   207400 
  207384   207380   207378   207368   207343   207316   207308   207326 
  207351   207350   207323   207311   207320   207324   207327   207337 
  207353   207369   207382   207399   207396   207358   207326   207323 
  207322   207301   207276   207254   207241   207247   207265   207284 
  207319   207368   207416   207459   207477   207455   207427   207412 
  207393   207362   207316   207264   207219   207195   207208   207239 
  207266   207299   207330   207354   207381   207399   207401   207407 
  207411   207405   207388   207351   207320   207310   207300   207288 
  207274   207264   207268   207279   207269   207252   207258   207270 
  207253   207220   207214   207247   207322   207412   207462   207461 
  207457   207468   207474   207451   207380   207293   207242   207229 
  207241   207276   207295   207283   207269   207270   207284   207306 
  207315   207306   207301   207314   207326   207345   207370   207374 
  207358   207339   207320   207303   207287   207277   207292   207333 
  207374   207407   207407   207361   207307   207273   207245   207227 
  207214   207199   207216   207277   207341   207385   207407   207418 
  207423   207414   207397   207405   207424   207424   207418   207409 
  207400   207403   207400   207368   207328   207318   207335   207364 
  207393   207414   207387   207306   207239   207227   207274   207372 
  207441   207428   207378   207343   207345   207370   207384   207364 
  207322   207285   207262   207249   207276   207341   207388   207403 
  207397   207369   207323   207257   207200   207202   207249   207291 
  207326   207372   207395   207360   207312   207307   207323   207331 
  207330   207300   207220   207127   207087   207122   207216   207343 
  207473   207565   207609   207621   207593   207511   207414   207353 
  207323   207297   207280   207279   207277   207274   207277   207277 
  207262   207231   207191   207150   207130   207127   207142   207192 
  207279   207384   207508   207621   207651   207569   207439   207362 
  207360   207401   207441   207432   207374   207304   207233   207166 
  207123   207137   207215   207293   207327   207355   207399   207449 
  207485   207459   207384   207300   207233   207193   207191   207210 
  207235   207266   207307   207346   207364   207360   207350   207368 
  207420   207469   207477   207459   207449   207436   207381   207287 
  207216   207184   207148   207103   207087   207096   207108   207125 
  207145   207154   207172   207220   207297   207389   207463   207530 
  207628   207736   207787   207746   207630   207493   207408   207377 
  207322   207219   207122   207065   207069   207111   207112   207057 
  207015   207056   207179   207333   207484   207621   207731   207779 
  207748   207667   207582   207495   207411   207353   207283   207160 
  207019   206914   206896   206982   207133   207279   207366   207407 
  207423   207382   207292   207245   207304   207434   207569   207697 
  207831   207966   208068   208071   207945   207729   207486   207276 
  207122   207014   206940   206906   206905   206905   206899   206894 
  206872   206855   206909   207052   207230   207392   207507   207567 
  207590   207585   207550   207527   207586   207708   207778   207743 
  207639   207507   207380   207270   207173   207087   207023   207010 
  207057   207131   207199   207241   207268   207306   207354   207407 
  207449   207441   207382   207314   207231   207135   207069   207071 
  207146   207277   207387   207431   207455   207481   207466   207400 
  207326   207270   207250   207280   207327   207345   207324   207296 
  207287   207301   207322   207323   207319   207335   207387   207476 
  207558   207580   207547   207505   207478   207462   207409   207295 
  207161   207065   207040   207079   207158   207262   207364   207409 
  207388   207345   207314   207300   207310   207331   207342   207346 
  207350   207330   207277   207230   207219   207242   207296   207372 
  207439   207468   207445   207411   207393   207374   207342   207280 
  207208   207189   207242   207323   207382   207407   207388   207339 
  207310   207320   207335   207323   207296   207289   207322   207377 
  207415   207414   207392   207360   207307   207262   207268   207306 
  207343   207380   207405   207392   207343   207299   207297   207361 
  207468   207535   207511   207427   207355   207324   207284   207207 
  207139   207110   207098   207106   207131   207150   207138   207125 
  207150   207214   207292   207396   207515   207589   207561   207468 
  207393   207368   207358   207331   207300   207318   207384   207447 
  207465   207426   207361   207306   207280   207289   207326   207355 
  207368   207399   207447   207469   207465   207481   207507   207500 
  207458   207388   207301   207250   207261   207293   207308   207299 
  207281   207279   207300   207347   207380   207354   207283   207222 
  207210   207241   207265   207258   207258   207301   207369   207400 
  207380   207347   207328   207350   207427   207499   207472   207353 
  207226   207172   207223   207318   207358   207324   207260   207212 
  207207   207229   207246   207253   207239   207195   207130   207087 
  207121   207239   207372   207462   207519   207540   207520   207492 
  207484   207478   207465   207457   207466   207478   207469   207436 
  207404   207382   207373   207357   207331   207326   207343   207350 
  207337   207307   207252   207202   207222   207308   207385   207407 
  207388   207372   207369   207350   207320   207304   207292   207272 
  207256   207245   207242   207288   207372   207412   207392   207358 
  207339   207335   207350   207369   207377   207391   207414   207431 
  207418   207346   207243   207179   207168   207166   207138   207090 
  207064   207103   207185   207262   207307   207330   207357   207400 
  207449   207497   207513   207472   207399   207319   207272   207293 
  207355   207420   207472   207473   207411   207327   207252   207204 
  207216   207272   207311   207306   207285   207288   207319   207360 
  207399   207414   207392   207369   207365   207357   207331   207277 
  207222   207234   207303   207341   207322   207312   207351   207391 
  207403   207420   207455   207484   207490   207470   207400   207306 
  207261   207283   207314   207319   207326   207369   207420   207419 
  207350   207257   207179   207139   207166   207216   207237   207256 
  207287   207292   207303   207372   207458   207492   207454   207374 
  207296   207258   207249   207237   207219   207225   207253   207272 
  207234   207142   207104   207193   207353   207481   207531   207511 
  207455   207411   207422   207472   207496   207458   207388   207316 
  207268   207258   207270   207314   207392   207462   207473   207427 
  207376   207347   207341   207328   207276   207199   207166   207187 
  207231   207291   207333   207337   207318   207301   207307   207322 
  207301   207272   207296   207360   207423   207489   207553   207590 
  207590   207539   207453   207373   207326   207322   207351   207373 
  207374   207368   207345   207301   207274   207288   207331   207364 
  207346   207276   207200   207169   207199   207270   207342   207378 
  207382   207364   207319   207254   207189   207158   207188   207256 
  207318   207361   207376   207350   207293   207242   207204   207184 
  207204   207269   207354   207428   207476   207480   207439   207378 
  207306   207256   207274   207339   207376   207381   207391   207418 
  207436   207407   207337   207284   207273   207277   207273   207268 
  207270   207284   207310   207328   207318   207299   207292   207273 
  207253   207274   207331   207370   207360   207316   207281   207272 
  207274   207283   207300   207326   207372   207434   207465   207459 
  207451   207438   207427   207454   207499   207496   207454   207428 
  207420   207392   207328   207246   207193   207199   207257   207338 
  207399   207401   207346   207287   207246   207218   207212   207246 
  207314   207397   207442   207407   207323   207234   207168   207146 
  207169   207206   207237   207283   207334   207350   207335   207327 
  207339   207369   207407   207446   207482   207511   207509   207480 
  207455   207443   207428   207404   207374   207374   207392   207364 
  207306   207285   207299   207308   207288   207239   207180   207118 
  207102   207164   207239   207291   207318   207312   207318   207369 
  207388   207333   207274   207269   207296   207347   207411   207451 
  207459   207434   207382   207333   207297   207274   207280   207318 
  207347   207331   207287   207249   207242   207273   207315   207355 
  207395   207430   207453   207458   207455   207465   207474   207463 
  207424   207374   207353   207380   207411   207392   207324   207237 
