Origin Time       2025/03/30 10:18:00
Lat.              34.667
Long.             140.825
Depth. (km)       69
Mag.              4.9
Station Code      KNGH21
Station Lat.      35.4628
Station Long.     139.2146
Station Height(m) 455
Record Time       2025/03/30 10:19:17
Sampling Freq(Hz) 100Hz
Duration Time(s)  120
Dir.              6
Scale Factor      7845(gal)/8223790
Max. Acc. (gal)   0.574
Last Correction   2025/03/30 10:19:17
Memo.             
[...]
    -229        2      113       32     -155     -302     -324     -283 
    -225     -141      -47       28        4     -143     -270     -309 
    -290     -184      -51       -2      -44     -139     -205     -187 
    -147     -121     -103      -74      -27      -49     -166     -276 
    -332     -299     -176      -60      -10      -20      -91     -174 
    -214     -213     -186     -133      -47       20      -25     -190 
    -380     -448     -311      -70       95       83      -68     -220 
    -290     -299     -237     -108       14       66        2     -137 
    -226     -244     -260     -236     -130      -28      -39     -144 
    -252     -302     -233      -81       25       49        6      -95 
    -197     -276     -311     -210      -25       91       55     -116 
    -279     -303     -247     -201     -139      -63      -41      -82 
    -170     -290     -346     -295     -206     -124      -44        6 
       4      -99     -305     -473     -442     -225       -1       98 
      66      -56     -176     -241     -247     -172      -43       47 
      29      -85     -201     -238     -238     -264     -274     -190 
     -33       67       18     -120     -222     -259     -275     -236 
    -112       25      108       91      -41     -218     -348     -373 
    -275     -112        5       18      -60     -187     -286     -303 
    -237     -139      -76      -76     -136     -228     -244     -171 
    -108      -71      -81     -157     -216     -217     -162      -55 
     -29     -112     -190     -251     -272     -205     -106      -52 
     -55      -85      -99      -95     -114     -205     -319     -310 
    -172      -22       78       85      -12     -147     -283     -363 
    -324     -205      -89      -12       18      -25     -140     -259 
    -330     -313     -199      -51       66       74      -64     -253 
    -369     -356     -243     -121      -62      -78     -133     -162 
    -157     -151     -167     -194     -148      -20       58       -6 
    -182     -365     -422     -317     -139       13       78       25 
     -83     -183     -283     -359     -326     -198      -40       81 
      76      -41     -189     -329     -379     -271     -122      -35 
      -6      -44     -103     -139     -172     -218     -229     -170 
     -71       20       62       -2     -136     -230     -245     -205 
    -149     -120     -133     -153     -186     -232     -210     -106 
     -10       14      -68     -216     -276     -217     -143     -117 
    -133     -147     -116      -83     -117     -207     -290     -286 
    -160       -6       37      -56     -195     -259     -217     -167 
    -175     -198     -190     -149     -112     -101     -128     -189 
    -229     -238     -230     -164      -71      -14       -5      -67 
    -168     -244     -270     -211      -75       32       47      -12 
    -126     -261     -345     -357     -290     -130       21       60 
      -6     -139     -287     -367     -349     -245      -70       94 
     136       14     -155     -259     -305     -282     -151       10 
     125      144       12     -195     -332     -368     -314     -194 
     -85      -33      -27      -78     -166     -224     -261     -303 
    -287     -195      -82      -20      -58     -155     -237     -283 
    -247     -135      -74      -97     -137     -172     -147      -83 
     -97     -156     -163     -110      -39      -51     -194     -319 
    -290     -151      -16       12      -71     -162     -205     -210 
    -191     -172     -145     -137     -168     -170     -136     -112 
     -93      -95     -124     -144     -157     -168     -153     -110 
     -54      -12      -36     -143     -286     -357     -275     -121 
     -36      -24      -60     -140     -211     -265     -274     -182 
     -91      -86      -91     -103     -149     -141      -94     -124 
    -210     -229     -136      -16        8      -82     -189     -228 
    -214     -168      -94      -85     -168     -222     -210     -175 
    -117      -79      -89     -106     -124     -141     -148     -152 
    -155     -140     -128     -168     -207     -163     -108     -124 
    -164     -205     -229     -193     -141      -82       12       33 
     -64     -201     -330     -382     -288      -95       98      179 
      72     -155     -369     -467     -407     -241      -35      144 
     182       47     -197     -436     -498     -344     -137       -6 
      32       -9     -105     -210     -306     -348     -263      -91 
      51       98        6     -182     -333     -365     -276      -86 
     130      228      117     -126     -359     -468     -391     -189 
      14      140      117      -52     -253     -386     -394     -282 
    -118       32       87       16     -125     -303     -419     -371 
    -217      -39       85       63      -48     -170     -326     -453 
    -417     -226       -5      153      163       12     -168     -302 
    -367     -328     -221     -113      -25        4      -20      -63 
    -124     -201     -284     -305     -201      -44       36      -40 
    -209     -267     -172      -86     -117     -221     -230      -99 
       9        5      -95     -214     -232     -178     -153     -163 
    -155     -114      -89     -129     -213     -274     -260     -191 
    -120      -68      -59     -101     -160     -213     -241     -224 
    -164     -108      -83      -74      -86     -135     -179     -201 
    -201     -137      -48       -2      -35     -145     -251     -282 
    -247     -133        1       39      -13     -122     -243     -265 
    -202     -133      -87     -116     -179     -149      -76      -93 
    -139     -151     -164     -133      -75      -99     -155     -186 
    -245     -275     -218     -135      -43        9      -43     -147 
    -240     -298     -259     -133       -8       28      -55     -199 
    -314     -364     -332     -203      -56       10      -17     -118 
    -217     -261     -284     -261     -151      -21       54       66 
      -5     -160     -305     -329     -217      -24      101       37 
    -137     -314     -444     -436     -257       13      267      326 
      81     -299     -541     -546     -359      -68      166      245 
     162      -97     -399     -531     -464     -263      -12      156 
     168       37     -193     -429     -542     -467     -241       14 
     186      190       16     -211     -353     -392     -341     -209 
     -52       70      101       -2     -171     -286     -315     -283 
    -187      -72      -17      -32      -82     -145     -183     -167 
    -143     -116      -62      -36      -75     -159     -252     -278 
    -202      -97      -35      -37      -79     -145     -211     -241 
    -267     -278     -193      -55       10      -49     -176     -249 
    -226     -121      -21      -41     -140     -218     -248     -193 
    -101     -101     -171     -201     -170     -126     -118     -178 
    -243     -221     -136      -60       -2        2      -75     -207 
    -337     -387     -309     -141       17       97       75      -33 
    -166     -251     -271     -225     -129      -22       25      -45 
    -191     -291     -286     -228     -195     -155      -82      -74 
    -162     -278     -348     -280     -109       14       55       54 
       4     -118     -288     -406     -363     -163       51      141 
      64     -103     -252     -330     -321     -226     -118      -33 
      22      -24     -166     -279     -297     -201      -59      -10 
     -40     -108     -236     -321     -292     -194      -56       35 
       5      -98     -220     -306     -302     -221     -106      -10 
       6      -59     -160     -226     -216     -194     -180     -122 
     -67      -41      -47     -130     -230     -259     -220     -133 
     -86     -140     -197     -217     -226     -179      -93      -18 
      36        0     -112     -187     -206     -182     -129     -112 
    -144     -168     -121      -56      -76     -159     -243     -259 
    -151      -54      -66      -99     -141     -180     -182     -203 
    -232     -202     -128      -64      -56      -93     -157     -237 
    -247     -175      -99      -48      -39      -55      -91     -186 
    -280     -338     -356     -278     -137      -18       66       89 
      22     -116     -268     -345     -286     -102       33       -1 
    -118     -236     -321     -302     -214     -144     -102     -128 
    -218     -253     -166       -1      137      120      -47     -234 
    -382     -442     -365     -184       25      151       60     -176 
    -369     -454     -394     -191       32      194      217       59 
    -155     -318     -405     -367     -230      -64       93      130 
     -25     -253     -414     -417     -220        9       93       36 
    -114     -245     -240     -167     -116      -75      -39      -41 
    -133     -283     -371     -344     -203      -16       85       59 
     -56     -211     -297     -276     -207     -133      -94      -94 
    -105     -130     -174     -213     -214     -174     -113      -45 
      -5      -44     -152     -241     -253     -206     -141      -91 
     -62      -82     -159     -216     -207     -170     -140     -152 
    -187     -182     -157     -151     -136     -140     -187     -202 
    -148      -79      -32      -47     -133     -225     -257     -220 
    -139      -48        4      -10      -71     -164     -265     -301 
    -240     -135      -37       14       -6      -85     -190     -290 
    -324     -261     -130        5       52      -32     -171     -265 
    -290     -244     -145      -68      -44      -47      -90     -139 
    -156     -182     -190     -160     -140     -121     -120     -171 
    -191     -136      -91      -99     -140     -176     -164     -129 
    -108     -110     -152     -187     -194     -214     -230     -221 
    -182      -91        9       48       -2     -116     -240     -326 
    -334     -251     -110        9       27      -63     -193     -291 
    -322     -276     -178      -74        9       54       14      -99 
    -233     -346     -357     -243      -81       27      -44     -255 
    -376     -341     -243     -130      -43        8       31      -10 
    -114     -197     -193     -118      -37       -9      -41      -81 
     -98     -151     -261     -342     -307     -166      -18        2 
     -87     -171     -211     -220     -210     -205     -166      -76 
     -13      -32     -113     -194     -236     -255     -265     -244 
    -171      -71        0       36       41      -36     -184     -307 
    -344     -279     -151      -52      -44     -114     -226     -317 
    -306     -199      -93      -21       -1      -54     -106     -129 
    -156     -157     -132     -139     -174     -224     -275     -261 
    -159      -36       17      -40     -172     -274     -255     -157 
     -83      -56      -66     -105     -135     -159     -214     -279 
    -298     -249     -136      -10       62       74       20     -122 
    -305     -406     -369     -252     -105       39       67      -48 
    -194     -278     -234      -87       36       66       16      -82 
    -189     -256     -274     -251     -194     -152     -153     -132 
     -79      -67     -114     -186     -222     -183      -97      -58 
    -120     -226     -311     -319     -220      -98       -9       81 
     103      -24     -236     -405     -423     -286     -139      -56 
      10       43        8      -91     -238     -319     -272     -189 
    -120      -74      -82      -95     -108     -155     -143      -68 
     -64     -141     -255     -356     -336     -211     -116      -97 
    -157     -225     -214     -129        0      102      101       25 
     -85     -216     -297     -298     -244     -164      -97      -54 
     -31      -70     -172     -267     -287     -189      -24       32 
     -78     -252     -369     -355     -261     -183      -99      -28 
     -67     -205     -345     -421     -379     -218      -32       64 
      33      -91     -220     -260     -228     -148       18      178 
     187       63     -105     -213     -222     -238     -290     -265 
    -126       41      130       82      -55     -178     -234     -232 
    -186     -128      -90      -68      -54      -48      -52     -105 
    -230     -371     -422     -334     -183      -76      -44      -75 
    -129     -166     -199     -229     -251     -302     -352     -306 
    -147       40      156      135       -8     -168     -264     -292 
    -251     -160      -85      -37      -17      -47     -120     -210 
    -298     -332     -306     -274     -247     -233     -260     -287 
    -249     -136       13       97       24     -108     -174     -205 
    -217     -164      -58       91      241      244       40     -270 
    -538     -633     -525     -322     -135        9       94       78 
      -6      -51        0      105      180      145      -25     -247 
    -402     -468     -422     -245      -39      110      136      -41 
    -319     -522     -629     -625     -441     -144      118      260 
     211       -2     -202     -243     -137       29      144       94 
    -113     -367     -533     -519     -337      -74      143      198 
      70     -186     -481     -660     -588     -274      141      440 
     459      224     -135     -492     -683     -584     -283       33 
     236      241       68     -175     -388     -465     -365     -174 
       4      102       75      -67     -230     -306     -265     -149 
     -33        8      -36     -135     -256     -349     -357     -278 
    -141        8       83       16     -197     -473     -615     -476 
    -126      218      318      102     -225     -433     -463     -342 
    -133       56      168      186       76     -116     -284     -361 
    -301     -118       31       36      -39     -167     -341     -425 
    -346     -180        5      120       55     -180     -477     -683 
    -642     -345       17      249      249       10     -305     -500 
    -471     -202      166      418      430      214     -132     -448 
    -589     -518     -259       75      310      338      135     -211 
    -483     -530     -356      -68      179      264      160      -66 
    -299     -436     -418     -271     -103       -2       -8     -114 
    -240     -333     -400     -386     -248      -70       55       52 
    -124     -342     -429     -391     -297     -176      -98      -81 
     -76      -89     -132     -182     -217     -162        1      136 
     132        9     -178     -382     -490     -419     -226      -29 
      67       35       -8        2      -20      -94     -179     -249 
    -213      -37      139      201      113      -94     -310     -457 
    -523     -476     -338     -171        6      121       99      -14 
    -149     -268     -348     -353     -261     -113        6        8 
     -97     -189     -226     -220     -183     -148     -109      -74 
     -70      -83     -132     -205     -225     -198     -145      -55 
       0      -13      -54      -76      -63      -43      -78     -171 
    -261     -313     -321     -279     -180      -45       33      -35 
    -193     -325     -375     -313     -203     -143     -145     -191 
    -216     -167      -94      -47      -41      -89     -153     -218 
    -274     -255     -140       10      129      160      128       75 
     -43     -216     -317     -279     -124       48      122       76 
     -35     -171     -315     -459     -548     -479     -232       45 
     149        6     -245     -433     -495     -442     -334     -228 
    -108        1       35      -13     -125     -265     -361     -367 
    -271      -86      121      224      143      -59     -248     -334 
    -303     -179       -5      129      149       71      -74     -247 
    -341     -349     -345     -274      -78      122      172       35 
    -189     -326     -315     -240     -151      -39       31        6 
     -62     -157     -260     -282     -211     -110      -64     -109 
    -198     -270     -263     -190     -145     -152     -164     -166 
    -149     -137     -155     -195     -244     -271     -270     -251 
    -222     -201     -186     -160     -122      -55       28       37 
     -35     -109     -139     -110      -41        1      -32     -136 
    -255     -301     -261     -179      -63       39       87       62 
     -94     -334     -494     -504     -399     -214       -6      141 
     163        5     -272     -503     -541     -357      -63      190 
     295      190      -66     -340     -507     -476     -261       21 
     244      290      128     -163     -463     -608     -494     -191 
     141      333      267      -21     -383     -615     -581     -318 
      18      229      186      -76     -390     -553     -490     -260 
      25      216      191      -13     -270     -430     -369     -136 
      71      141       51     -176     -376     -440     -402     -276 
    -102       33       97       66      -66     -251     -382     -390 
    -288      -91      113      167       64     -128     -344     -444 
    -368     -180       33      167      143      -17     -211     -345 
    -378     -294     -121       68      190      152      -40     -278 
    -422     -382     -211      -54       35       47      -28     -156 
    -276     -344     -342     -294     -214     -136     -122     -167 
    -193     -164     -135     -151     -171     -140      -79      -45 
     -59      -87     -125     -163     -170     -145     -110      -85 
     -85      -90      -97     -159     -253     -283     -247     -160 
     -40       55       81       -6     -217     -450     -568     -486 
    -225       64      209      149      -16     -194     -365     -461 
    -390     -201       -4       91       33      -89     -193     -270 
    -282     -207      -72       93      164       24     -259     -492 
    -521     -329      -37      178      213      102      -79     -282 
    -411     -390     -228       -1      170      178       17     -220 
    -423     -504     -423     -210       18      121       58     -106 
    -275     -356     -305     -137       56      168      162       31 
    -202     -423     -480     -363     -190      -43       10      -39 
    -118     -202     -272     -284     -257     -222     -172     -103 
     -54      -47      -63     -101     -159     -190     -182     -144 
     -87      -40      -22      -49     -108     -167     -213     -201 
    -129      -82      -95     -130     -156     -166     -170     -194 
    -248     -263     -193     -113      -86     -118     -199     -253 
    -236     -179     -116      -89     -102     -108     -129     -166 
    -175     -162      -99      -24      -59     -168     -243     -271 
    -230     -143      -86      -45        4       -4      -99     -190 
    -195     -145     -106     -125     -167     -160     -137     -149 
    -193     -267     -302     -222     -105      -41      -55     -144 
    -220     -216     -170     -113      -67      -66     -105     -155 
    -162     -116      -74      -58      -66     -106     -133     -137 
