Origin Time       2025/03/30 10:18:00
Lat.              34.667
Long.             140.825
Depth. (km)       69
Mag.              4.9
Station Code      KNGH21
Station Lat.      35.4628
Station Long.     139.2146
Station Height(m) 455
Record Time       2025/03/30 10:19:17
Sampling Freq(Hz) 100Hz
Duration Time(s)  120
Dir.              5
Scale Factor      7845(gal)/8223790
Max. Acc. (gal)   0.737
Last Correction   2025/03/30 10:19:17
Memo.             
[...]
    -638     -729     -811     -837     -797     -733     -679     -618 
    -573     -614     -734     -828     -826     -742     -642     -598 
    -614     -648     -696     -742     -729     -684     -673     -691 
    -718     -739     -758     -787     -795     -749     -692     -662 
    -633     -592     -591     -642     -696     -734     -762     -783 
    -785     -756     -703     -675     -692     -730     -750     -724 
    -661     -606     -604     -669     -751     -792     -804     -799 
    -756     -692     -639     -622     -658     -710     -747     -776 
    -780     -743     -681     -634     -623     -631     -646     -654 
    -660     -697     -774     -826     -800     -733     -692     -688 
    -683     -661     -633     -622     -649     -695     -711     -684 
    -672     -712     -768     -778     -742     -711     -712     -723 
    -715     -688     -664     -658     -657     -638     -634     -677 
    -746     -788     -765     -689     -608     -596     -695     -820 
    -865     -820     -731     -650     -622     -642     -697     -754 
    -747     -675     -637     -680     -750     -781     -770     -770 
    -804     -801     -722     -649     -648     -670     -673     -665 
    -668     -676     -672     -662     -669     -697     -734     -756 
    -749     -723     -702     -684     -664     -654     -670     -702 
    -742     -780     -792     -762     -700     -649     -645     -684 
    -730     -741     -716     -681     -656     -658     -681     -714 
    -749     -756     -702     -618     -583     -645     -749     -793 
    -760     -718     -697     -687     -688     -691     -693     -697 
    -696     -696     -711     -739     -758     -745     -715     -702 
    -708     -718     -724     -710     -672     -641     -637     -668 
    -714     -719     -702     -720     -768     -795     -769     -681 
    -595     -600     -679     -737     -751     -741     -718     -719 
    -756     -780     -747     -673     -604     -573     -600     -676 
    -757     -804     -804     -773     -724     -661     -614     -592 
    -577     -587     -654     -749     -823     -861     -853     -808 
    -770     -750     -714     -656     -598     -571     -602     -668 
    -719     -739     -750     -766     -760     -716     -669     -650 
    -653     -658     -653     -648     -687     -760     -800     -785 
    -737     -685     -662     -665     -662     -656     -670     -708 
    -747     -757     -719     -665     -638     -664     -714     -738 
    -720     -703     -724     -772     -784     -735     -669     -641 
    -668     -729     -776     -787     -776     -749     -710     -656 
    -614     -619     -670     -747     -789     -753     -666     -603 
    -608     -654     -691     -715     -750     -784     -796     -773 
    -712     -633     -584     -616     -704     -768     -776     -741 
    -689     -687     -747     -799     -776     -711     -666     -656 
    -672     -702     -714     -697     -683     -683     -703     -734 
    -743     -727     -723     -737     -735     -719     -699     -681 
    -685     -702     -695     -670     -664     -676     -692     -691 
    -687     -711     -733     -714     -684     -687     -716     -726 
    -711     -703     -710     -714     -718     -697     -646     -612 
    -625     -657     -692     -739     -776     -778     -768     -785 
    -793     -722     -622     -608     -664     -699     -699     -692 
    -719     -774     -788     -749     -700     -652     -618     -603 
    -596     -642     -730     -774     -769     -753     -730     -708 
    -692     -676     -687     -720     -742     -737     -730     -754 
    -787     -769     -704     -646     -623     -649     -723     -788 
    -788     -738     -683     -645     -623     -623     -660     -716 
    -756     -756     -715     -648     -591     -595     -664     -729 
    -737     -719     -697     -679     -691     -730     -756     -761 
    -783     -812     -789     -714     -666     -672     -681     -684 
    -708     -735     -727     -699     -665     -619     -585     -618 
    -722     -816     -818     -758     -722     -710     -687     -652 
    -616     -595     -608     -652     -708     -742     -738     -747 
    -778     -792     -781     -764     -746     -727     -704     -685 
    -660     -634     -637     -669     -712     -743     -735     -718 
    -722     -706     -654     -623     -652     -741     -843     -862 
    -773     -664     -594     -580     -606     -635     -677     -743 
    -796     -805     -784     -768     -765     -746     -697     -661 
    -675     -707     -696     -646     -608     -595     -610     -661 
    -726     -749     -723     -689     -684     -718     -778     -837 
    -850     -808     -750     -693     -649     -635     -641     -641 
    -643     -656     -666     -675     -688     -714     -742     -750 
    -741     -747     -761     -733     -661     -595     -577     -615 
    -683     -754     -808     -810     -764     -727     -730     -765 
    -785     -747     -679     -643     -668     -726     -735     -661 
    -588     -594     -670     -745     -742     -677     -629     -645 
    -695     -733     -754     -764     -757     -735     -691     -645 
    -645     -689     -737     -743     -712     -692     -693     -687 
    -650     -598     -583     -658     -774     -831     -808     -780 
    -769     -747     -697     -633     -610     -661     -722     -745 
    -747     -737     -712     -689     -672     -672     -679     -680 
    -704     -761     -812     -828     -799     -739     -675     -626 
    -625     -662     -681     -673     -672     -675     -688     -741 
    -801     -820     -799     -754     -700     -672     -672     -664 
    -639     -604     -580     -604     -675     -743     -760     -715 
    -658     -643     -676     -739     -796     -784     -719     -664 
    -645     -665     -703     -730     -745     -737     -708     -675 
    -638     -618     -653     -727     -787     -823     -859     -874 
    -832     -738     -621     -531     -503     -533     -604     -687 
    -749     -791     -795     -746     -691     -679     -707     -731 
    -711     -677     -683     -735     -785     -788     -750     -711 
    -691     -681     -662     -633     -619     -637     -681     -749 
    -814     -826     -776     -711     -683     -675     -653     -648 
    -661     -649     -621     -626     -688     -761     -784     -783 
    -805     -823     -796     -727     -648     -606     -633     -702 
    -757     -769     -735     -677     -615     -577     -595     -676 
    -770     -826     -839     -820     -760     -693     -681     -695 
    -666     -608     -589     -612     -626     -637     -681     -738 
    -762     -758     -761     -765     -745     -689     -633     -634 
    -710     -797     -837     -805     -727     -642     -584     -583 
    -631     -677     -703     -724     -745     -765     -773     -739 
    -681     -653     -675     -708     -729     -745     -765     -773 
    -754     -727     -724     -746     -761     -753     -726     -688 
    -652     -622     -604     -608     -645     -699     -729     -723 
    -707     -695     -662     -592     -540     -573     -675     -772 
    -804     -793     -800     -832     -842     -793     -696     -618 
    -606     -633     -648     -656     -676     -715     -768     -795 
    -765     -703     -648     -630     -661     -720     -796     -861 
    -851     -769     -683     -627     -614     -635     -665     -677 
    -657     -634     -643     -679     -718     -768     -811     -804 
    -734     -643     -596     -603     -629     -665     -724     -795 
    -828     -774     -676     -622     -625     -660     -716     -776 
    -823     -839     -801     -731     -664     -603     -572     -577 
    -585     -612     -683     -761     -801     -808     -812     -826 
    -819     -774     -715     -662     -646     -680     -735     -765 
    -745     -696     -646     -600     -571     -552     -552     -603 
    -699     -784     -811     -796     -807     -853     -845     -746 
    -630     -585     -608     -631     -634     -637     -656     -683 
    -702     -722     -753     -774     -785     -772     -724     -695 
    -712     -741     -758     -745     -687     -615     -585     -633 
    -716     -746     -715     -695     -718     -760     -785     -772 
    -726     -664     -614     -591     -587     -607     -654     -714 
    -753     -756     -758     -807     -865     -858     -777     -685 
    -638     -626     -622     -650     -708     -747     -757     -730 
    -660     -607     -610     -654     -718     -772     -789     -777 
    -758     -738     -727     -718     -685     -664     -683     -699 
    -683     -642     -610     -625     -676     -727     -762     -764 
    -746     -733     -707     -679     -669     -660     -643     -641 
    -668     -715     -749     -762     -780     -805     -807     -754 
    -680     -634     -629     -653     -681     -693     -692     -696 
    -716     -724     -695     -668     -673     -688     -700     -724 
    -754     -764     -754     -733     -695     -638     -604     -643 
    -723     -758     -730     -692     -692     -726     -739     -714 
    -697     -719     -762     -795     -787     -741     -675     -612 
    -585     -606     -660     -716     -739     -722     -691     -679 
    -706     -751     -789     -795     -756     -683     -621     -602 
    -627     -669     -697     -723     -747     -745     -726     -719 
    -724     -742     -758     -749     -714     -673     -658     -669 
    -689     -726     -766     -772     -737     -684     -631     -603 
    -612     -649     -680     -696     -726     -768     -787     -769 
    -743     -742     -742     -695     -616     -565     -571     -643 
    -729     -749     -726     -718     -712     -680     -639     -626 
    -642     -670     -706     -749     -778     -797     -818     -807 
    -753     -714     -707     -699     -679     -646     -591     -538 
    -537     -600     -681     -739     -776     -801     -811     -796 
    -762     -729     -699     -711     -777     -814     -761     -677 
    -625     -610     -600     -572     -545     -552     -587     -629 
    -688     -776     -878     -946     -920     -799     -653     -567 
    -556     -576     -606     -646     -702     -772     -816     -799 
    -765     -762     -788     -816     -816     -788     -766     -756 
    -739     -691     -603     -541     -546     -577     -604     -664 
    -743     -785     -789     -788     -797     -819     -827     -788 
    -695     -576     -503     -511     -567     -646     -738     -815 
    -870     -911     -932     -934     -915     -857     -756     -662 
    -629     -643     -685     -727     -716     -657     -604     -583 
    -600     -637     -657     -649     -621     -622     -702     -819 
    -900     -905     -816     -661     -533     -492     -519     -580 
    -680     -784     -822     -801     -793     -816     -828     -810 
    -758     -681     -616     -606     -639     -670     -661     -598 
    -523     -502     -567     -699     -804     -808     -739     -657 
    -564     -464     -426     -515     -691     -877    -1032    -1135 
   -1159    -1067     -866     -639     -480     -398     -364     -372 
    -442     -595     -805     -993    -1061     -974     -795     -602 
    -440     -337     -330     -468     -726     -993    -1175    -1216 
   -1119     -955     -769     -558     -394     -386     -540     -739 
    -873     -920     -922     -886     -797     -668     -558     -517 
    -560     -648     -696     -680     -656     -672     -707     -708 
    -649     -546     -459     -452     -538     -685     -845     -946 
    -953     -905     -858     -823     -762     -641     -508     -448 
    -461     -510     -557     -581     -615     -677     -753     -818 
    -855     -868     -854     -781     -666     -600     -648     -795 
    -939     -973     -897     -801     -747     -706     -633     -579 
    -581     -611     -631     -627     -608     -595     -606     -652 
    -710     -722     -660     -577     -537     -523     -527     -588 
    -677     -712     -642     -492     -363     -340     -437     -612 
    -805    -1003    -1217    -1401    -1431    -1251     -969     -741 
    -600     -518     -499     -581     -764     -969    -1108    -1135 
    -989     -643     -241        0      -13     -229     -542     -851 
   -1077    -1182    -1169    -1047     -819     -526     -275     -190 
    -319     -610     -934    -1155    -1179    -1016     -773     -554 
    -395     -330     -417     -649     -931    -1131    -1179    -1080 
    -874     -637     -438     -307     -253     -315     -499     -729 
    -900     -986    -1058    -1134    -1132    -1000     -757     -475 
    -249     -144     -178     -345     -610     -870    -1011     -978 
    -787     -523     -307     -202     -195     -249     -359     -544 
    -785    -1011    -1134    -1112     -972     -783     -608     -503 
    -496     -610     -846    -1128    -1343    -1420    -1316    -1061 
    -733     -396     -153     -113     -275     -550     -830    -1013 
   -1053     -978     -839     -680     -564     -529     -567     -672 
    -842    -1034    -1138    -1061     -810     -476     -171       17 
      68        9     -106     -243     -423     -665     -913    -1084 
   -1140    -1113    -1084    -1117    -1190    -1237    -1228    -1152 
   -1036     -915     -769     -579     -378     -203     -106     -129 
    -268     -484     -704     -842     -893     -909     -912     -882 
    -808     -716     -642     -594     -580     -608     -658     -727 
    -805     -850     -832     -762     -665     -553     -465     -475 
    -625     -857    -1036    -1073     -989     -859     -742     -631 
    -490     -334     -257     -315     -440     -557     -692     -878 
   -1050    -1119    -1080     -966     -801     -618     -465     -396 
    -429     -533     -660     -783     -891     -985    -1050    -1058 
    -999     -869     -696     -549     -433     -333     -297     -351 
    -449     -542     -592     -612     -634     -649     -658     -666 
    -679     -723     -796     -853     -868     -845     -799     -738 
    -664     -599     -571     -573     -602     -661     -741     -826 
    -939    -1066    -1135    -1081     -936     -816     -766     -718 
    -642     -589     -608     -693     -783     -828     -803     -699 
    -591     -546     -544     -565     -629     -695     -727     -743 
    -769     -842     -951    -1004     -934     -764     -573     -419 
    -286     -172     -153     -297     -592     -955    -1270    -1445 
   -1449    -1279     -961     -577     -274     -129     -113     -191 
    -340     -511     -672     -801     -889     -940     -950     -911 
    -812     -653     -510     -456     -480     -560     -675     -770 
    -814     -807     -773     -737     -726     -742     -758     -757 
    -743     -699     -621     -542     -519     -595     -756     -923 
   -1008     -947     -761     -565     -468     -508     -645     -787 
    -897     -986    -1024     -963     -820     -641     -461     -315 
    -240     -255     -372     -577     -800     -957     -999     -962 
    -888     -754     -576     -449     -444     -561     -757     -957 
   -1080    -1085     -992     -846     -666     -500     -456     -557 
    -716     -819     -811     -737     -661     -611     -614     -683 
    -773     -847     -895     -904     -864     -769     -635     -511 
    -454     -498     -585     -661     -731     -796     -830     -814 
    -742     -648     -560     -488     -472     -548     -684     -803 
    -864     -886     -905     -915     -878     -781     -643     -503 
    -394     -357     -419     -552     -710     -847     -927     -970 
    -996     -939     -754     -518     -349     -290     -324     -427 
    -596     -792     -936     -986     -966     -913     -847     -761 
    -653     -560     -531     -596     -723     -842     -926     -959 
    -928     -842     -738     -645     -585     -562     -576     -616 
    -664     -714     -788     -893     -990    -1013     -950     -842 
    -711     -569     -444     -376     -415     -560     -723     -808 
    -777     -660     -537     -481     -477     -490     -535     -641 
    -787     -899     -920     -870     -787     -712     -699     -735 
    -781     -807     -796     -766     -746     -734     -739     -770 
    -789     -756     -687     -643     -660     -704     -733     -722 
    -683     -641     -603     -573     -564     -575     -616     -693 
    -792     -926    -1053    -1097    -1063     -977     -819     -611 
    -422     -307     -284     -357     -491     -600     -661     -712 
    -762     -781     -737     -641     -549     -510     -550     -660 
    -777     -842     -842     -791     -685     -564     -487     -477 
    -530     -642     -796     -950    -1053    -1078    -1031     -920 
    -774     -639     -573     -592     -633     -650     -638     -602 
    -575     -589     -635     -681     -727     -797     -889     -946 
    -922     -814     -665     -544     -472     -437     -450     -531 
    -656     -756     -784     -776     -787     -810     -805     -757 
    -706     -689     -706     -722     -727     -729     -719     -688 
    -666     -669     -638     -557     -522     -607     -753     -873 
    -949     -984     -967     -911     -847     -797     -762     -735 
    -718     -689     -629     -564     -517     -476     -446     -461 
    -548     -681     -804     -881     -923     -931     -874     -750 
    -623     -537     -471     -415     -399     -427     -518     -681 
    -868    -1011    -1094    -1112    -1055     -939     -808     -700 
    -635     -615     -626     -641     -642     -639     -643     -637 
    -589     -515     -472     -502     -599     -730     -855     -951 
    -981     -901     -716     -499     -348     -314     -388     -534 
    -720     -918    -1088    -1155    -1092     -962     -823     -699 
    -607     -562     -587     -661     -712     -707     -668     -619 
    -573     -564     -589     -618     -646     -696     -773     -842 
    -858     -837     -827     -835     -828     -762     -635     -504 
    -450     -496     -603     -734     -843     -869     -819     -749 
    -706     -696     -681     -641     -611     -600     -591     -592 
    -622     -654     -662     -668     -683     -692     -679     -669 
    -724     -834     -930     -974     -950     -857     -726     -588 
    -495     -483     -531     -591     -629     -660     -714     -781 
    -839     -859     -819     -758     -724     -692     -656     -629 
    -608     -618     -669     -724     -754     -760     -762     -788 
    -830     -853     -838     -776     -662     -530     -444     -449 
    -542     -681     -795     -831     -796     -742     -733     -764 
    -766     -730     -700     -702     -730     -760     -766     -741 
    -687     -626     -591     -584     -595     -618     -653     -710 
    -762     -756     -731     -750     -788     -801     -777     -741 
