Origin Time       2025/03/30 10:18:00
Lat.              34.667
Long.             140.825
Depth. (km)       69
Mag.              4.9
Station Code      KNGH19
Station Lat.      35.4173
Station Long.     139.0436
Station Height(m) 330
Record Time       2025/03/30 10:19:18
Sampling Freq(Hz) 100Hz
Duration Time(s)  120
Dir.              6
Scale Factor      7845(gal)/8223790
Max. Acc. (gal)   0.414
Last Correction   2025/03/30 10:19:18
Memo.             
[...]
    5036     4932     4858     4891     4985     5051     5061     5042 
    5016     5003     5022     5078     5119     5063     4982     5016 
    5071     5013     4943     4969     5022     5024     5019     5047 
    5040     4955     4891     4922     4996     5039     5065     5125 
    5174     5089     4946     4934     5013     5027     4988     5001 
    5051     5027     4941     4931     4996     5001     4951     4976 
    5081     5116     5015     4904     4924     5026     5066     5065 
    5109     5103     4982     4923     4999     5057     5023     4980 
    4980     5008     5026     5026     5046     5059     4999     4942 
    5022     5146     5121     4968     4904     5020     5120     5050 
    4947     4958     5005     4999     4981     5017     5058     5032 
    5009     5061     5097     5065     5043     5059     5055     5003 
    4951     4966     5012     5005     4968     4980     5019     5019 
    5005     5034     5049     4986     4907     4901     4968     5049 
    5103     5120     5076     4980     4903     4891     4957     5061 
    5101     5046     4978     4966     4995     5044     5120     5138 
    5065     5042     5090     5026     4869     4881     5061     5105 
    4977     4927     5004     5044     5013     4993     4993     4989 
    5001     5046     5073     5050     5031     5069     5098     5066 
    5007     4974     4990     5005     4972     4938     4977     5078 
    5127     5049     4951     4961     5038     5084     5065     4984 
    4903     4915     4977     4997     4981     4962     4976     5049 
    5090     5022     4936     4957     5043     5069     5016     4996 
    5044     5082     5082     5078     5065     5039     5013     4993 
    5003     5026     5019     5016     5043     5061     5028     4997 
    5035     5062     5044     5054     5054     4976     4872     4860 
    4961     5063     5092     5082     5044     4989     4968     4977 
    5009     5040     5011     4953     4916     4908     4932     4977 
    5040     5093     5044     4965     5011     5081     5032     4999 
    5078     5143     5105     5027     4962     4922     4942     5023 
    5082     5073     5032     4995     4976     4980     5001     5030 
    5061     5071     5028     4997     5022     5016     4977     4968 
    4981     5012     5049     5057     5036     4992     4973     5030 
    5076     5046     5030     5061     5035     4969     4993     5086 
    5107     5044     4992     4982     4947     4887     4934     5050 
    5036     4976     5015     5040     4986     4966     5040     5130 
    5120     5034     4990     4995     4992     5003     5031     5009 
    4942     4927     5000     5047     4981     4908     4962     5080 
    5093     5028     5036     5055     4966     4926     5047     5116 
    5012     4949     5030     5089     5042     4972     4984     5074 
    5107     5038     4988     4973     4939     4962     5038     5028 
    4961     4988     5082     5070     4958     4930     4999     5022 
    4962     4920     5007     5132     5121     5023     4985     5043 
    5131     5121     5024     5003     5071     5100     5053     4999 
    4995     4986     4958     4959     4951     4939     4995     5062 
    5044     4965     4936     5011     5057     4984     4936     4996 
    5038     5015     5013     5050     5038     4972     4980     5084 
    5127     5062     5028     5042     4985     4953     5067     5138 
    5055     4968     4950     4951     4931     4926     5007     5086 
    5027     4955     4989     5008     5000     5053     5089     5074 
    5080     5050     4947     4950     5065     5034     4918     4995 
    5128     5071     4976     4999     5005     4950     4958     5031 
    5057     5039     5044     5057     5013     4923     4916     5047 
    5127     5042     4945     4947     5004     5058     5090     5090 
    5040     4973     4981     5038     5012     4963     5019     5027 
    4914     4920     5055     5078     4999     4984     5043     5067 
    5049     5059     5030     4932     4932     5061     5147     5125 
    5043     4980     4997     5005     4951     4953     4997     4997 
    4976     4962     4976     5007     5016     5039     5071     5069 
    5039     4966     4923     4993     5043     5005     5016     5077 
    5053     4972     4974     5044     5065     5049     5023     5019 
    5054     5017     4936     4968     5032     5042     5043     5044 
    5044     5005     4961     5008     5023     4947     4984     5109 
    5076     4954     4980     5062     4992     4896     4958     5077 
    5088     5022     5009     5036     5019     5016     5094     5130 
    5027     4961     5036     5082     4999     4922     4982     5094 
    5080     4978     4963     5017     5013     4949     4927     4982 
    5028     5044     5063     5024     4935     4916     5000     5078 
    5062     5044     5071     5043     4992     5015     5062     5058 
    5019     4973     4953     4997     5057     5047     5013     4980 
    4941     4972     5020     5019     5046     5058     5004     4985 
    5001     5001     5009     5042     5085     5086     5040     5028 
    5027     5015     5063     5103     5035     4988     5032     5019 
    4926     4922     4995     4986     4957     5013     5065     5022 
    4934     4938     5040     5053     4963     4961     5047     5062 
    4990     4977     5044     5071     5050     5039     5032     5032 
    5027     5004     5019     5051     5036     5026     5019     4974 
    4959     4985     4997     4984     4957     4953     4981     4988 
    4972     4992     5047     5066     5047     5082     5142     5085 
    4955     4936     5004     5044     5082     5098     5053     5023 
    5038     5028     4973     4950     4995     5017     4993     4995 
    4997     4957     4963     5043     5054     4985     4977     4993 
    4985     5009     5031     5034     5061     5071     5055     5044 
    5028     5043     5058     5000     4963     4958     4945     5017 
    5080     5001     4950     5030     5112     5063     4955     4915 
    4946     5047     5117     5051     4966     4947     4990     5074 
    5046     4920     4939     5026     4992     5007     5104     5054 
    4953     4996     5039     5028     5063     5057     5008     5011 
    4973     4949     5031     5090     5092     5058     5004     5022 
    5011     4950     4996     5015     4946     4992     5073     5063 
    5040     5030     5039     5050     5003     4955     4951     4973 
    4995     5000     5055     5074     4946     4900     5030     5092 
    5020     4985     5034     5059     5042     5022     5003     5031 
    5070     5054     5084     5158     5096     4908     4869     5019 
    5023     4941     5055     5076     4909     4896     4997     5065 
    5073     4963     4916     5020     5020     4958     5022     5063 
    5070     5078     4961     4923     5062     5065     4995     5044 
    5057     5000     4982     4990     5022     5032     4981     4986 
    5055     5024     4951     4947     4976     5004     4993     5013 
    5115     5089     4959     4981     5081     5078     5027     5044 
    5123     5132     5027     4949     4968     4976     4969     5044 
    5107     5044     4954     4945     4928     4891     5022     5154 
    5015     4928     5009     4984     4966     5030     5022     5000 
    5044     5103     5070     4927     4888     5038     5121     5047 
    5032     5124     5127     4996     4950     5076     5136     5063 
    5017     4968     4900     4904     4980     5032     4946     4892 
    4986     5038     5019     4949     4920     5059     5112     5032 
    5059     5092     5069     5069     5011     4977     5035     5054 
    5032     5013     4995     5003     5049     5030     4901     4876 
    4989     5034     5031     5050     4992     4907     4941     5032 
    5059     5034     5005     5009     5061     5011     4908     5058 
    5206     5089     5034     5034     4985     5058     5085     5000 
    4996     5003     4959     4982     5032     5009     4966     5000 
    5038     4966     4904     4936     4995     5042     5019     4992 
    5024     5043     5090     5116     5043     5027     5062     5042 
    5065     5094     5023     5023     5071     4972     4908     4989 
    5043     5023     4924     4905     5055     5081     4909     4877 
    5073     5097     4908     4969     5132     5066     4989     5034 
    5082     5024     4970     5089     5135     4897     4791     5024 
    5116     5035     5090     5082     4995     5054     5070     4995 
    5011     4970     4892     4976     4999     4938     4990     5036 
    5023     4963     4926     5031     5069     5005     5055     5113 
    5074     5023     5024     5074     5077     5009     5009     5078 
    5015     4880     4924     5031     5009     4953     4977     4984 
    4926     4965     5031     5039     5086     5050     4981     5065 
    5111     5030     5009     5059     5054     5008     4946     4963 
    5104     5101     4955     4935     5007     5012     4988     5047 
    5051     4950     4945     5023     5111     5113     5001     4995 
    5015     4951     5026     5094     4974     4943     5005     5017 
    5047     5016     4980     5061     5061     4980     5008     5044 
    5027     5071     5080     4976     4942     5007     5026     4978 
    4985     5055     5024     4934     4969     5050     5065     5023 
    4985     5043     5067     4959     4928     5009     5080     5107 
    5058     5004     4999     4985     4974     5036     5125     5086 
    5012     5043     5043     4935     4864     4942     5065     5005 
    4869     4954     5070     4981     4965     5074     5081     5034 
    4996     4993     5023     5000     5035     5109     5062     4999 
    4996     5042     5090     5040     4945     4957     5067     5059 
    4927     4943     5070     5074     5030     5032     5032     5024 
    5001     4954     4977     5071     5090     5023     4989     4986 
    4992     5042     5098     5090     4989     4895     4973     5100 
    5053     4957     4974     5019     5023     5000     4972     4957 
    4961     5011     5050     4990     4954     5000     4972     4943 
    5036     5093     5105     5154     5103     4947     4909     4997 
    5036     5042     5058     5008     4968     4997     4980     4984 
    5065     5055     5019     5055     5008     4947     5008     5030 
    4995     5024     5073     5050     4978     4974     5001     4984 
    5013     5082     5082     5016     4981     5040     5100     5073 
    5017     5024     5058     4989     4924     5020     5077     5013 
    4996     5004     4970     4955     4953     4904     4915     5007 
    5004     4935     4958     5022     5028     5040     5093     5116 
    5059     4976     4984     5061     5067     5035     5058     5055 
    4990     4981     5039     5085     5082     4997     4903     4939 
    5032     5034     4970     4961     5034     5107     5103     5047 
    5008     5003     5034     5084     5094     5074     5066     5011 
    4941     4973     5017     4993     4978     4955     4935     4984 
    5007     5011     5049     5059     5049     5020     4981     5013 
    5058     5035     4992     4945     4924     4958     5000     5049 
    5074     5003     4915     4969     5092     5080     5013     5034 
    5035     5001     5003     4985     4978     4996     4969     4968 
    5017     5013     4989     5026     5097     5175     5198     5128 
    5026     4973     5024     5101     5092     5046     4992     4926 
    4873     4835     4882     5008     5030     4988     5017     4972 
    4860     4888     4958     4984     5073     5181     5220     5171 
    5036     4965     5057     5146     5134     5123     5086     4957 
    4876     4919     4930     4864     4854     4900     4887     4827 
    4819     4896     5023     5119     5113     5101     5154     5162 
    5127     5121     5111     5088     5043     5000     5023     5032 
    4981     4957     4992     5059     5058     4985     4972     4988 
    4953     4915     4924     4953     4959     4989     5093     5162 
    5101     5055     5116     5119     4993     4926     5009     5097 
    5084     5042     5026     5004     4969     4939     4923     4900 
    4851     4793     4752     4760     4800     4837     4941     5107 
    5161     5112     5152     5252     5238     5144     5150     5262 
    5304     5231     5184     5211     5231     5185     5105     5039 
    4962     4900     4882     4845     4801     4779     4720     4675 
    4693     4749     4841     4945     5034     5112     5171     5189 
    5135     5080     5108     5138     5152     5185     5161     5119 
    5124     5080     4992     4963     4958     4974     5026     5028 
    4996     4986     4957     4931     4972     5043     5082     5085 
    5080     5088     5085     5034     4989     4943     4830     4801 
    4923     5005     5039     5063     5015     4966     4954     4920 
    4923     5000     5019     4945     4905     4920     4930     4961 
    4993     4958     4916     4970     5069     5108     5125     5175 
    5216     5255     5297     5267     5206     5197     5182     5140 
    5094     5016     4963     4962     4915     4826     4750     4649 
    4581     4664     4814     4927     4996     5016     5039     5076 
    5076     5088     5143     5186     5202     5212     5192     5116 
    5040     4976     4897     4837     4810     4838     4915     4949 
    4962     5003     4997     4976     4990     4999     5034     5115 
    5184     5246     5279     5281     5312     5278     5108     4974 
    4976     5016     5000     4920     4877     4900     4895     4892 
    4961     5019     5004     5000     5065     5134     5146     5115 
    5081     5053     5017     5005     4988     4884     4816     4889 
    4911     4828     4815     4846     4800     4746     4822     4959 
    5043     5120     5219     5246     5162     5055     5017     5027 
    5012     4996     5030     5086     5120     5088     5039     5103 
    5201     5208     5152     5005     4812     4735     4762     4841 
    4934     4949     4922     4942     4943     4887     4880     4989 
    5103     5111     5094     5155     5248     5325     5373     5355 
    5252     5084     4974     4981     4986     4982     5022     5053 
    4990     4822     4688     4699     4754     4792     4839     4911 
    5008     5066     5062     5032     4997     5017     5103     5174 
    5223     5286     5343     5317     5198     5108     5121     5144 
    5090     5004     4934     4872     4837     4891     4968     4928 
    4869     4903     4907     4866     4846     4816     4861     5024 
    5179     5271     5246     5077     4946     4970     5001     4950 
    4922     4934     4966     5084     5177     5121     5053     5012 
    4950     4988     5077     5028     4934     4954     5057     5132 
    5073     4923     4862     4914     4958     4976     5046     5143 
    5136     5043     4972     4958     4981     4962     4857     4770 
    4820     4962     5028     4982     4958     4992     5007     5036 
    5135     5221     5224     5159     5092     5077     5089     5086 
    5094     5094     5000     4853     4839     4935     4968     4981 
    5026     5003     4942     4915     4909     4924     4950     5005 
    5112     5184     5173     5169     5170     5111     5077     5125 
    5136     5059     5004     5026     5081     5121     5105     5050 
    5019     4995     4936     4880     4858     4880     4922     4954 
    4993     5042     5065     5077     5093     5086     5040     4996 
    5004     5020     4990     4961     4943     4951     5024     5030 
    4874     4770     4823     4870     4858     4841     4857     4934 
    5011     5028     5040     5096     5132     5109     5096     5116 
    5147     5205     5225     5144     5034     4995     5043     5086 
    5085     5073     5049     5046     5067     5017     4926     4897 
    4914     4947     5000     5036     5030     5004     5036     5093 
    5043     4976     5026     5085     5076     5070     5092     5084 
    5038     4981     4900     4824     4810     4819     4895     5039 
    5080     5030     5028     5024     4985     4993     5042     5031 
    4976     4982     5071     5159     5158     5098     5076     5074 
    5035     5005     5031     5050     5024     4985     4957     4928 
    4900     4938     5036     5067     4999     4923     4932     5015 
    5080     5077     5046     5016     4993     5024     5100     5116 
    5032     4931     4939     5011     4981     4931     5015     5094 
    5020     4920     4955     5035     5003     4947     5000     5044 
    5001     4980     5031     5076     5053     5031     5076     5112 
    5050     4930     4881     4927     4981     5032     5078     5059 
    5001     4978     5001     5028     5015     5003     5038     5062 
    5040     5005     4986     5004     5035     5047     5046     5024 
    4990     4993     4999     4963     4959     5024     5047     5009 
    5034     5105     5144     5158     5100     4996     4997     5059 
    5057     5051     5100     5116     5031     4941     4930     4930 
    4904     4930     5016     5082     5035     4918     4895     4953 
    4969     4995     5042     4997     4916     4942     5047     5111 
    5120     5152     5170     5093     4974     4936     5022     5112 
    5104     5076     5090     5090     5047     4993     4974     4966 
    4939     4951     4986     4936     4837     4824     4881     4907 
    4907     4957     5042     5078     5082     5121     5139     5061 
    4978     5000     5051     5054     5031     5000     4949     4915 
    4957     5044     5081     5026     4999     5063     5098     5057 
    5022     5023     5065     5093     5054     5016     5026     5054 
    5070     5036     4965     4901     4878     4922     4996     5032 
    5005     4958     4953     4990     5044     5085     5098     5097 
    5081     5040     5012     5022     5059     5097     5051     4922 
    4881     4965     5009     4962     4953     5036     5093     5059 
    5039     5031     4969     4955     5058     5134     5103     5042 
    5003     4965     4947     4961     4974     4986     4997     4993 
    5003     5028     5036     5044     5062     5066     5067     5059 
    5042     5057     5071     5032     4963     4932     4950     4976 
    5008     5053     5050     4992     4968     5005     5034     5007 
    5004     5071     5077     4969     4903     4951     5011     5013 
    4993     4995     5004     5005     5012     4978     4900     4911 
    5031     5130     5120     5022     4962     5008     5055     5051 
    5053     5092     5121     5096     5050     5030     4996     4931 
    4901     4946     5012     5022     5001     5000     4986     4943 
    4915     4959     5047     5057     5009     5015     5032     5009 
    5007     5055     5109     5089     5022     5001     5009     4990 
    4982     5012     5028     4992     4951     4993     5101     5155 
