Origin Time       2025/03/30 10:18:00
Lat.              34.667
Long.             140.825
Depth. (km)       69
Mag.              4.9
Station Code      KNGH19
Station Lat.      35.4173
Station Long.     139.0436
Station Height(m) 230
Record Time       2025/03/30 10:19:18
Sampling Freq(Hz) 100Hz
Duration Time(s)  120
Dir.              3
Scale Factor      2942(gal)/8224139
Max. Acc. (gal)   0.207
Last Correction   2025/03/30 10:19:18
Memo.             
[...]
  208334   208329   208275   208238   208275   208319   208286   208249 
  208261   208242   208202   208209   208238   208276   208302   208257 
  208215   208278   208329   208275   208244   208298   208323   208300 
  208313   208323   208300   208313   208318   208286   208306   208330 
  208311   208310   208292   208246   208238   208279   208321   208303 
  208265   208298   208346   208341   208286   208240   208271   208318 
  208315   208284   208263   208282   208305   208298   208326   208376 
  208364   208349   208375   208360   208325   208302   208275   208284 
  208295   208261   208246   208261   208267   208249   208242   208260 
  208240   208201   208213   208252   208276   208299   208342   208338 
  208255   208219   208241   208224   208222   208253   208259   208272 
  208307   208327   208337   208360   208372   208369   208394   208414 
  208345   208255   208292   208344   208267   208218   208272   208306 
  208299   208288   208272   208252   208271   208310   208287   208264 
  208314   208364   208348   208322   208364   208379   208330   208346 
  208359   208296   208278   208295   208296   208292   208265   208252 
  208305   208367   208352   208283   208241   208246   208275   208276 
  208226   208180   208190   208234   208284   208302   208263   208242 
  208284   208307   208290   208268   208259   208299   208375   208419 
  208413   208394   208403   208381   208326   208325   208342   208315 
  208313   208372   208381   208330   208340   208357   208329   208341 
  208359   208327   208291   208240   208210   208240   208260   208251 
  208246   208257   208284   208278   208253   208271   208272   208252 
  208255   208241   208203   208161   208149   208198   208238   208248 
  208294   208330   208302   208286   208307   208346   208402   208411 
  208353   208317   208313   208292   208287   208309   208313   208311 
  208310   208286   208288   208309   208295   208303   208315   208288 
  208311   208352   208306   208271   208302   208286   208238   208276 
  208326   208302   208280   208311   208317   208286   208307   208372 
  208398   208352   208292   208300   208341   208338   208325   208332 
  208321   208275   208251   208278   208267   208211   208237   208292 
  208255   208221   208259   208299   208340   208357   208337   208330 
  208337   208348   208346   208296   208257   208278   208307   208296 
  208241   208192   208207   208251   208253   208237   208263   208318 
  208332   208311   208311   208310   208267   208246   208294   208357 
  208371   208321   208290   208337   208377   208350   208334   208337 
  208295   208264   208292   208300   208252   208229   208280   208325 
  208271   208195   208218   208268   208233   208183   208217   208290 
  208310   208299   208298   208327   208399   208415   208354   208346 
  208419   208472   208425   208350   208365   208403   208360   208299 
  208273   208249   208234   208241   208244   208238   208232   208233 
  208246   208232   208188   208214   208276   208280   208286   208291 
  208256   208256   208295   208325   208338   208334   208332   208356 
  208363   208336   208348   208381   208372   208338   208294   208273 
  208284   208256   208199   208210   208255   208264   208275   208269 
  208233   208286   208363   208322   208283   208311   208314   208305 
  208332   208327   208259   208248   208326   208357   208348   208330 
  208282   208253   208276   208286   208251   208245   208307   208332 
  208276   208242   208260   208279   208279   208287   208290   208275 
  208290   208317   208317   208310   208298   208302   208326   208319 
  208311   208321   208286   208238   208237   208259   208292   208303 
  208275   208253   208268   208307   208338   208336   208323   208321 
  208307   208307   208350   208384   208361   208330   208361   208383 
  208311   208273   208302   208273   208229   208233   208229   208225 
  208230   208251   208302   208302   208261   208287   208311   208280 
  208267   208276   208272   208284   208318   208315   208268   208252 
  208296   208336   208319   208302   208325   208352   208357   208338 
  208311   208288   208255   208256   208311   208319   208295   208313 
  208283   208206   208217   208300   208333   208310   208307   208326 
  208306   208240   208219   208288   208344   208302   208245   208272 
  208321   208321   208329   208363   208348   208315   208338   208377 
  208364   208309   208276   208292   208314   208314   208313   208321 
  208317   208271   208218   208225   208268   208275   208263   208268 
  208245   208226   208252   208264   208272   208305   208314   208282 
  208283   208360   208390   208340   208323   208321   208288   208290 
  208319   208313   208291   208292   208287   208252   208219   208244 
  208311   208333   208272   208237   208288   208329   208314   208302 
  208300   208317   208368   208402   208381   208348   208341   208363 
  208352   208299   208307   208345   208296   208260   208284   208255 
  208203   208232   208282   208279   208234   208211   208260   208273 
  208214   208221   208267   208272   208271   208265   208283   208333 
  208344   208321   208307   208315   208354   208375   208333   208321 
  208390   208411   208319   208253   208283   208288   208248   208233 
  208215   208188   208201   208232   208207   208161   208210   208280 
  208265   208282   208356   208361   208319   208313   208333   208363 
  208368   208326   208310   208357   208413   208402   208338   208314 
  208322   208290   208244   208265   208307   208282   208240   208252 
  208271   208267   208264   208261   208252   208252   208287   208317 
  208292   208284   208313   208326   208330   208345   208353   208340 
  208309   208291   208307   208333   208315   208271   208252   208249 
  208279   208354   208356   208278   208252   208278   208298   208310 
  208290   208263   208287   208326   208300   208237   208218   208234 
  208240   208246   208267   208264   208267   208296   208279   208257 
  208307   208330   208315   208346   208352   208309   208294   208306 
  208329   208342   208322   208306   208318   208322   208299   208265 
  208236   208238   208288   208321   208311   208326   208353   208330 
  208286   208263   208238   208203   208192   208238   208309   208322 
  208275   208245   208272   208321   208313   208253   208256   208288 
  208303   208342   208363   208369   208384   208357   208357   208395 
  208381   208341   208325   208315   208286   208264   208291   208299 
  208248   208222   208226   208214   208237   208256   208211   208215 
  208279   208275   208246   208269   208310   208313   208264   208234 
  208278   208332   208321   208296   208319   208326   208288   208271 
  208286   208298   208272   208236   208257   208302   208313   208278 
  208237   208256   208260   208228   208261   208292   208264   208294 
  208341   208322   208313   208330   208354   208404   208415   208373 
  208345   208340   208349   208361   208340   208313   208309   208291 
  208241   208221   208249   208246   208224   208246   208268   208253 
  208248   208240   208206   208192   208244   208332   208357   208279 
  208230   208290   208336   208325   208322   208346   208387   208387 
  208352   208368   208402   208387   208353   208345   208361   208353 
  208315   208260   208184   208164   208214   208242   208203   208175 
  208215   208259   208269   208288   208306   208290   208299   208357 
  208371   208353   208377   208360   208323   208353   208346   208310 
  208321   208317   208280   208244   208224   208242   208255   208240 
  208263   208278   208232   208226   208260   208245   208221   208232 
  208264   208294   208284   208287   208330   208360   208391   208396 
  208354   208373   208407   208367   208342   208349   208317   208288 
  208307   208303   208242   208226   208259   208242   208213   208225 
  208244   208257   208257   208230   208226   208284   208345   208365 
  208357   208353   208372   208371   208350   208363   208371   208372 
  208408   208399   208332   208314   208340   208318   208241   208214 
  208283   208300   208194   208151   208237   208268   208215   208219 
  208251   208263   208295   208307   208290   208309   208353   208365 
  208334   208306   208284   208279   208294   208294   208296   208295 
  208273   208325   208392   208359   208310   208300   208309   208317 
  208267   208226   208259   208259   208209   208191   208218   208241 
  208242   208260   208300   208322   208327   208337   208337   208352 
  208392   208399   208376   208383   208369   208313   208286   208284 
  208249   208221   208234   208213   208175   208194   208206   208229 
  208292   208290   208252   208296   208341   208319   208322   208344 
  208337   208349   208361   208323   208306   208342   208344   208299 
  208305   208346   208337   208284   208245   208228   208252   208311 
  208332   208319   208327   208318   208302   208321   208325   208291 
  208269   208267   208276   208287   208280   208287   208310   208287 
  208269   208290   208269   208246   208299   208338   208305   208286 
  208306   208326   208332   208319   208284   208260   208273   208269 
  208238   208268   208313   208284   208252   208290   208329   208294 
  208229   208228   208302   208356   208345   208327   208329   208329 
  208340   208367   208344   208291   208298   208341   208363   208327 
  208257   208229   208256   208273   208244   208213   208214   208211 
  208194   208184   208221   208284   208291   208273   208279   208265 
  208271   208311   208336   208364   208375   208354   208354   208327 
  208275   208291   208338   208330   208305   208309   208300   208284 
  208295   208288   208271   208296   208315   208303   208327   208361 
  208341   208300   208286   208278   208271   208294   208344   208367 
  208333   208294   208295   208307   208299   208271   208237   208260 
  208322   208314   208245   208233   208245   208222   208217   208228 
  208234   208245   208230   208222   208249   208267   208290   208359 
  208417   208399   208340   208298   208284   208290   208292   208291 
  208310   208314   208292   208311   208329   208283   208284   208332 
  208298   208255   208306   208326   208265   208240   208272   208302 
  208303   208287   208282   208284   208283   208288   208291   208294 
  208306   208341   208379   208380   208364   208369   208395   208381 
  208344   208327   208294   208261   208263   208251   208244   208260 
  208251   208203   208171   208192   208211   208192   208176   208202 
  208249   208260   208245   208276   208313   208291   208287   208333 
  208361   208373   208391   208387   208372   208357   208350   208354 
  208353   208340   208310   208278   208284   208309   208290   208244 
  208230   208263   208332   208383   208352   208309   208337   208354 
  208322   208334   208383   208384   208340   208294   208263   208244 
  208233   208230   208249   208284   208306   208298   208287   208313 
  208349   208321   208261   208251   208255   208233   208198   208184 
  208206   208210   208198   208228   208273   208288   208269   208263 
  208317   208356   208305   208256   208246   208228   208233   208263 
  208252   208253   208317   208342   208321   208332   208341   208348 
  208392   208441   208468   208467   208430   208361   208322   208342 
  208325   208298   208337   208369   208373   208334   208228   208163 
  208137   208090   208082   208098   208103   208129   208155   208160 
  208184   208246   208313   208353   208360   208375   208444   208496 
  208475   208449   208457   208442   208402   208379   208319   208209 
  208138   208091   208032   208005   207995   207983   208037   208122 
  208167   208251   208384   208461   208500   208506   208427   208357 
  208345   208302   208292   208383   208430   208364   208303   208302 
  208290   208252   208226   208213   208230   208278   208300   208292 
  208286   208296   208337   208387   208404   208415   208476   208521 
  208456   208354   208299   208259   208229   208237   208256   208251 
  208224   208183   208106   208009   207951   207951   207952   207955 
  207993   208010   208041   208152   208255   208307   208363   208471 
  208595   208639   208664   208739   208776   208746   208710   208684 
  208678   208693   208677   208600   208507   208410   208306   208240 
  208186   208106   208040   207964   207836   207752   207763   207783 
  207786   207837   207971   208140   208246   208317   208422   208510 
  208575   208646   208660   208649   208668   208649   208583   208500 
  208423   208363   208306   208271   208279   208315   208327   208279 
  208269   208340   208354   208300   208272   208252   208218   208180 
  208132   208126   208171   208176   208155   208165   208187   208195 
  208171   208149   208179   208206   208186   208159   208128   208086 
  208060   208074   208137   208224   208310   208381   208418   208431 
  208438   208411   208367   208350   208380   208462   208558   208630 
  208701   208738   208714   208665   208580   208434   208278   208172 
  208118   208102   208122   208143   208132   208148   208182   208124 
  208021   207947   207883   207913   208016   208079   208170   208314 
  208387   208380   208400   208456   208494   208503   208494   208489 
  208485   208433   208314   208203   208141   208106   208098   208086 
  208052   208059   208101   208144   208190   208257   208356   208446 
  208557   208700   208788   208840   208874   208819   208697   208564 
  208429   208336   208276   208228   208211   208217   208202   208186 
  208218   208268   208257   208199   208179   208214   208268   208333 
  208341   208267   208203   208164   208089   207999   207951   207931 
  207922   207952   208016   208063   208097   208143   208182   208209 
  208234   208229   208222   208292   208383   208421   208476   208562 
  208618   208660   208666   208604   208529   208477   208457   208441 
  208367   208236   208094   207990   207951   207929   207894   207900 
  207936   207948   207994   208116   208255   208369   208442   208494 
  208568   208645   208670   208658   208707   208801   208840   208808 
  208714   208564   208399   208249   208118   208006   207964   207976 
  207952   207908   207890   207900   207920   207937   207972   208040 
  208141   208287   208422   208494   208530   208606   208732   208776 
  208691   208639   208688   208742   208746   208708   208624   208510 
  208386   208282   208237   208194   208093   207991   207955   207975 
  207999   208013   208047   208071   208075   208106   208148   208160 
  208172   208219   208291   208361   208403   208415   208429   208437 
  208417   208395   208384   208342   208302   208321   208326   208246 
  208179   208188   208233   208294   208340   208305   208233   208215 
  208240   208259   208294   208368   208419   208399   208356   208364 
  208392   208342   208194   208045   208016   208083   208128   208114 
  208064   208026   208047   208070   208071   208128   208230   208333 
  208449   208568   208642   208651   208616   208568   208499   208433 
  208408   208404   208387   208338   208253   208164   208113   208118 
  208148   208155   208152   208195   208287   208352   208346   208294 
  208256   208319   208425   208477   208507   208546   208576   208580 
  208595   208595   208529   208472   208440   208388   208338   208282 
  208221   208192   208165   208128   208138   208175   208160   208155 
  208206   208246   208271   208294   208292   208317   208391   208414 
  208359   208295   208255   208211   208141   208071   208028   208024 
  208048   208022   207962   207955   207975   207997   208049   208109 
  208159   208236   208345   208437   208473   208488   208496   208489 
  208521   208568   208556   208543   208573   208576   208530   208461 
  208395   208372   208359   208311   208295   208327   208305   208241 
  208229   208224   208175   208153   208180   208224   208298   208377 
  208407   208406   208384   208350   208325   208299   208269   208253 
  208224   208194   208197   208195   208195   208203   208184   208187 
  208233   208232   208222   208275   208310   208298   208317   208363 
  208387   208398   208396   208379   208365   208341   208315   208314 
  208317   208302   208276   208260   208267   208257   208214   208219 
  208296   208348   208341   208305   208259   208249   208282   208300 
  208295   208300   208327   208345   208333   208291   208260   208271 
  208271   208242   208242   208280   208264   208205   208238   208317 
  208305   208257   208245   208267   208311   208349   208345   208319 
  208309   208315   208299   208244   208209   208203   208197   208217 
  208257   208278   208271   208245   208234   208248   208284   208323 
  208311   208284   208300   208327   208345   208344   208310   208269 
  208271   208334   208391   208354   208273   208275   208344   208365 
  208360   208375   208325   208241   208275   208364   208356   208317 
  208346   208384   208387   208410   208431   208410   208423   208441 
  208390   208375   208418   208403   208333   208260   208195   208165 
  208145   208109   208118   208157   208137   208125   208199   208238 
  208205   208219   208267   208268   208271   208309   208363   208408 
  208444   208467   208469   208467   208462   208450   208454   208450 
  208413   208384   208386   208379   208338   208275   208214   208157 
  208103   208078   208083   208090   208082   208099   208129   208124 
  208106   208138   208234   208286   208256   208265   208315   208319 
  208340   208396   208402   208368   208364   208379   208380   208349 
  208288   208252   208263   208272   208272   208305   208364   208421 
  208456   208434   208373   208338   208319   208303   208291   208272 
  208241   208226   208245   208253   208230   208206   208198   208206 
  208225   208234   208241   208260   208286   208318   208350   208364 
  208373   208403   208417   208400   208399   208392   208314   208230 
  208206   208205   208232   208248   208244   208307   208349   208313 
  208314   208333   208310   208311   208319   208272   208229   208226 
  208228   208215   208207   208214   208237   208288   208345   208377 
  208407   208421   208384   208344   208357   208377   208375   208388 
  208369   208303   208294   208330   208329   208329   208318   208255 
  208218   208209   208161   208128   208155   208236   208330   208341 
  208264   208234   208257   208271   208267   208241   208256   208313 
  208319   208291   208265   208234   208237   208263   208257   208248 
  208276   208325   208349   208346   208348   208367   208387   208371 
  208349   208363   208348   208317   208315   208292   208261   208259 
  208246   208229   208228   208221   208191   208170   208180   208210 
  208238   208259   208290   208329   208352   208340   208309   208321 
  208342   208310   208286   208305   208313   208337   208360   208319 
  208287   208310   208353   208381   208361   208352   208376   208354 
  208337   208344   208325   208356   208417   208376   208314   208340 
  208357   208321   208329   208354   208284   208206   208215   208249 
  208240   208190   208164   208199   208237   208257   208263   208257 
  208271   208267   208248   208268   208290   208310   208371   208426 
