Origin Time       2025/03/30 10:18:00
Lat.              34.667
Long.             140.825
Depth. (km)       69
Mag.              4.9
Station Code      KNGH21
Station Lat.      35.4628
Station Long.     139.2146
Station Height(m) 245
Record Time       2025/03/30 10:19:17
Sampling Freq(Hz) 100Hz
Duration Time(s)  120
Dir.              3
Scale Factor      2942(gal)/8224139
Max. Acc. (gal)   0.129
Last Correction   2025/03/30 10:19:17
Memo.             
[...]
  156830   156814   156798   156744   156705   156737   156772   156797 
  156849   156857   156805   156783   156770   156743   156751   156763 
  156787   156853   156849   156757   156717   156757   156810   156829 
  156791   156770   156852   156948   156922   156847   156832   156824 
  156783   156770   156795   156829   156852   156849   156845   156860 
  156852   156810   156786   156795   156805   156824   156876   156914 
  156905   156853   156776   156762   156845   156905   156865   156802 
  156756   156726   156749   156793   156793   156770   156732   156718 
  156787   156865   156843   156772   156771   156818   156834   156828 
  156805   156772   156764   156776   156797   156809   156805   156837 
  156890   156880   156848   156845   156818   156778   156755   156747 
  156799   156874   156856   156805   156813   156816   156790   156789 
  156782   156775   156824   156875   156875   156857   156845   156837 
  156855   156888   156864   156797   156786   156843   156887   156897 
  156878   156851   156855   156851   156797   156745   156752   156824 
  156924   156960   156919   156876   156853   156849   156859   156834 
  156766   156709   156713   156782   156841   156818   156779   156793 
  156824   156853   156863   156807   156756   156793   156852   156848 
  156793   156762   156756   156755   156779   156818   156841   156834 
  156789   156760   156782   156784   156736   156730   156794   156843 
  156832   156779   156733   156757   156822   156863   156876   156883 
  156894   156892   156840   156774   156767   156787   156789   156806 
  156838   156855   156856   156822   156762   156740   156778   156825 
  156836   156828   156828   156833   156848   156863   156845   156830 
  156872   156906   156898   156910   156913   156871   156837   156814 
  156794   156814   156828   156824   156853   156868   156844   156826 
  156802   156774   156770   156753   156732   156751   156786   156793 
  156768   156759   156795   156801   156736   156698   156741   156805 
  156859   156855   156776   156779   156895   156922   156824   156775 
  156793   156802   156803   156805   156809   156834   156870   156860 
  156806   156780   156784   156772   156767   156768   156763   156783 
  156830   156855   156852   156863   156874   156861   156843   156837 
  156867   156911   156906   156845   156801   156820   156852   156855 
  156857   156860   156849   156849   156832   156772   156740   156757 
  156790   156807   156775   156717   156725   156791   156825   156829 
  156852   156863   156837   156820   156843   156878   156864   156802 
  156801   156865   156861   156802   156779   156780   156797   156843 
  156864   156830   156805   156845   156884   156861   156824   156806 
  156801   156794   156787   156793   156805   156816   156833   156855 
  156844   156816   156802   156780   156772   156821   156865   156868 
  156879   156880   156830   156751   156702   156733   156799   156833 
  156856   156872   156863   156822   156756   156729   156764   156809 
  156856   156874   156817   156760   156762   156780   156807   156836 
  156813   156791   156841   156864   156810   156771   156778   156794 
  156811   156826   156845   156871   156852   156776   156735   156775 
  156822   156840   156857   156845   156811   156825   156837   156795 
  156775   156826   156891   156906   156887   156878   156863   156837 
  156822   156798   156807   156875   156898   156847   156797   156790 
  156820   156829   156783   156759   156803   156814   156763   156733 
  156732   156744   156789   156813   156805   156825   156859   156871 
  156847   156795   156764   156762   156776   156805   156818   156832 
  156879   156901   156833   156755   156789   156879   156870   156764 
  156712   156772   156879   156903   156832   156774   156770   156806 
  156868   156868   156816   156825   156880   156882   156838   156802 
  156784   156787   156795   156798   156795   156799   156834   156864 
  156836   156793   156793   156816   156833   156829   156782   156718 
  156683   156705   156783   156822   156798   156813   156849   156826 
  156799   156797   156778   156789   156853   156883   156848   156833 
  156874   156880   156840   156843   156867   156825   156771   156784 
  156828   156845   156830   156828   156878   156910   156875   156868 
  156883   156849   156830   156838   156809   156807   156863   156844 
  156783   156807   156836   156802   156794   156848   156894   156861 
  156787   156764   156795   156822   156829   156828   156834   156837 
  156778   156708   156720   156741   156718   156740   156809   156853 
  156836   156782   156768   156791   156764   156721   156764   156834 
  156838   156826   156811   156790   156848   156929   156901   156844 
  156864   156884   156820   156725   156708   156795   156895   156922 
  156892   156867   156852   156824   156784   156763   156798   156868 
  156883   156847   156830   156816   156782   156784   156810   156821 
  156868   156918   156887   156828   156811   156807   156762   156712 
  156730   156778   156813   156860   156879   156845   156801   156763 
  156741   156749   156779   156806   156811   156806   156817   156834 
  156826   156801   156793   156806   156829   156876   156891   156830 
  156794   156820   156816   156789   156809   156840   156833   156844 
  156890   156907   156906   156886   156825   156797   156826   156825 
  156797   156814   156844   156847   156868   156887   156821   156736 
  156766   156834   156838   156833   156820   156771   156774   156838 
  156853   156806   156768   156774   156807   156825   156811   156805 
  156810   156780   156735   156745   156798   156826   156838   156852 
  156829   156771   156725   156717   156747   156776   156782   156825 
  156918   156963   156919   156857   156851   156874   156861   156814 
  156779   156803   156863   156876   156833   156813   156843   156861 
  156797   156679   156659   156760   156814   156794   156832   156911 
  156917   156853   156776   156703   156663   156702   156797   156840 
  156821   156821   156848   156883   156883   156817   156787   156838 
  156849   156820   156830   156836   156824   156847   156882   156898 
  156872   156816   156784   156764   156752   156802   156871   156870 
  156828   156806   156798   156791   156767   156725   156730   156807 
  156888   156890   156832   156821   156859   156871   156825   156749 
  156747   156818   156826   156749   156736   156830   156882   156833 
  156784   156793   156807   156799   156797   156799   156789   156797 
  156837   156883   156910   156897   156851   156836   156876   156903 
  156856   156780   156780   156853   156887   156859   156868   156918 
  156915   156875   156851   156813   156787   156821   156838   156787 
  156728   156730   156764   156793   156833   156837   156794   156809 
  156859   156851   156816   156813   156826   156828   156833   156851 
  156811   156744   156745   156763   156726   156695   156736   156840 
  156959   157002   156913   156807   156799   156816   156798   156779 
  156752   156732   156756   156784   156787   156817   156859   156821 
  156733   156697   156748   156843   156894   156891   156894   156895 
  156847   156749   156682   156722   156799   156799   156787   156818 
  156801   156757   156766   156784   156803   156838   156868   156887 
  156887   156887   156907   156884   156787   156726   156764   156832 
  156864   156852   156807   156797   156856   156899   156859   156786 
  156752   156776   156805   156813   156870   156932   156905   156856 
  156852   156821   156770   156774   156789   156790   156837   156875 
  156836   156795   156813   156840   156829   156803   156787   156795 
  156833   156856   156843   156838   156838   156810   156795   156834 
  156865   156856   156832   156817   156822   156807   156766   156770 
  156805   156809   156810   156809   156795   156805   156817   156802 
  156798   156791   156766   156766   156782   156793   156794   156775 
  156783   156837   156868   156852   156828   156830   156852   156849 
  156832   156817   156789   156794   156820   156794   156780   156816 
  156822   156824   156855   156868   156874   156883   156868   156843 
  156816   156801   156840   156872   156843   156832   156855   156843 
  156799   156778   156795   156817   156795   156753   156762   156822 
  156867   156884   156886   156874   156871   156853   156807   156789 
  156802   156821   156864   156902   156876   156821   156799   156805 
  156805   156797   156798   156811   156816   156799   156776   156762 
  156768   156793   156820   156852   156899   156929   156897   156816 
  156739   156690   156693   156745   156810   156851   156861   156853 
  156841   156821   156807   156822   156826   156810   156830   156870 
  156847   156764   156705   156716   156767   156809   156811   156764 
  156706   156697   156740   156770   156764   156793   156852   156868 
  156845   156837   156848   156870   156902   156903   156871   156876 
  156917   156911   156844   156767   156753   156830   156898   156884 
  156849   156845   156838   156795   156745   156740   156770   156793 
  156807   156838   156864   156876   156887   156878   156847   156834 
  156830   156795   156755   156749   156763   156789   156818   156811 
  156784   156786   156814   156837   156853   156849   156817   156784 
  156753   156737   156767   156795   156779   156762   156757   156751 
  156760   156793   156832   156886   156925   156880   156806   156793 
  156803   156789   156783   156802   156828   156853   156865   156867 
  156872   156859   156828   156818   156820   156813   156810   156807 
  156797   156787   156775   156764   156794   156856   156875   156855 
  156861   156845   156743   156667   156701   156747   156770   156826 
  156875   156861   156847   156874   156895   156887   156867   156860 
  156871   156859   156822   156820   156864   156910   156930   156934 
  156933   156924   156871   156768   156701   156726   156763   156756 
  156753   156756   156787   156878   156928   156888   156841   156817 
  156799   156768   156724   156722   156786   156829   156806   156762 
  156763   156813   156828   156791   156797   156847   156894   156928 
  156915   156872   156860   156841   156791   156779   156814   156844 
  156838   156791   156752   156741   156757   156816   156884   156913 
  156880   156787   156712   156741   156806   156837   156883   156929 
  156906   156849   156813   156780   156752   156767   156814   156878 
  156937   156941   156872   156791   156790   156859   156870   156817 
  156776   156760   156772   156782   156753   156733   156736   156735 
  156726   156693   156649   156645   156660   156649   156632   156647 
  156691   156772   156901   156982   156969   156963   156983   156951 
  156852   156747   156708   156766   156860   156905   156906   156917 
  156922   156897   156882   156892   156925   156969   156999   157007 
  156980   156945   156976   157026   156994   156924   156882   156847 
  156795   156740   156694   156658   156639   156629   156606   156578 
  156587   156627   156689   156789   156886   156941   156960   156969 
  157002   157060   157087   157054   156967   156844   156751   156726 
  156712   156693   156679   156649   156635   156654   156644   156628 
  156654   156670   156649   156651   156681   156703   156713   156741 
  156811   156903   156946   156901   156833   156790   156756   156776 
  156826   156803   156772   156829   156892   156880   156820   156764 
  156763   156821   156868   156848   156825   156882   156959   156984 
  156987   156983   156976   157006   157023   156975   156942   156955 
  156941   156942   156978   156963   156924   156917   156872   156776 
  156699   156621   156560   156594   156670   156733   156799   156791 
  156703   156655   156679   156737   156793   156837   156865   156855 
  156814   156793   156787   156782   156793   156816   156867   156982 
  157099   157111   157025   156911   156801   156710   156656   156643 
  156666   156683   156666   156640   156645   156693   156768   156856 
  156926   156949   156944   156951   156953   156928   156909   156905 
  156905   156918   156917   156859   156757   156697   156718   156770 
  156801   156801   156760   156685   156635   156664   156733   156794 
  156843   156875   156899   156909   156884   156853   156821   156799 
  156820   156830   156793   156755   156726   156690   156678   156699 
  156716   156764   156874   156933   156884   156809   156770   156794 
  156844   156838   156824   156878   156917   156874   156832   156825 
  156801   156775   156791   156824   156832   156809   156745   156676 
  156659   156686   156744   156830   156894   156934   156953   156902 
  156809   156760   156751   156755   156759   156740   156744   156806 
  156879   156906   156857   156787   156779   156826   156892   156937 
  156937   156932   156922   156872   156807   156791   156841   156907 
  156929   156913   156888   156887   156926   156952   156922   156895 
  156890   156883   156905   156940   156907   156845   156836   156826 
  156782   156733   156664   156600   156600   156605   156560   156536 
  156591   156683   156745   156751   156741   156752   156749   156755 
  156802   156799   156701   156624   156601   156582   156616   156725 
  156828   156891   156936   156984   157049   157099   157108   157129 
  157179   157169   157087   157009   156951   156915   156892   156853 
  156834   156826   156794   156779   156775   156739   156720   156749 
  156766   156720   156679   156691   156714   156733   156741   156728 
  156737   156784   156820   156822   156828   156874   156929   156949 
  156918   156832   156760   156760   156762   156755   156821   156937 
  156996   156971   156911   156875   156880   156894   156870   156806 
  156747   156733   156749   156766   156756   156722   156722   156790 
  156843   156822   156803   156834   156857   156837   156809   156803 
  156793   156760   156743   156729   156698   156687   156718   156755 
  156787   156820   156844   156863   156848   156820   156851   156913 
  156925   156929   156983   157059   157096   157068   157003   156965 
  156972   156982   156988   156983   156924   156824   156764   156768 
  156778   156747   156676   156608   156586   156608   156617   156604 
  156601   156620   156629   156614   156610   156636   156658   156658 
  156659   156683   156745   156826   156876   156906   156951   156986 
  157014   157025   156990   156961   156946   156867   156790   156817 
  156870   156838   156799   156843   156917   156973   156999   156960 
  156906   156879   156816   156729   156714   156775   156856   156907 
  156905   156879   156864   156875   156894   156894   156890   156874 
  156822   156787   156806   156811   156767   156735   156748   156772 
  156775   156744   156726   156759   156763   156674   156574   156546 
  156564   156609   156672   156716   156729   156759   156810   156845 
  156860   156837   156772   156760   156826   156888   156921   156959 
  156994   157005   156973   156932   156922   156949   156983   156976 
  156928   156879   156829   156760   156706   156698   156732   156779 
  156809   156816   156789   156726   156682   156687   156718   156762 
  156805   156816   156801   156791   156801   156820   156836   156837 
  156833   156847   156870   156874   156852   156845   156887   156946 
  156961   156944   156940   156924   156879   156847   156845   156845 
  156836   156818   156779   156743   156740   156747   156762   156811 
  156852   156849   156833   156803   156741   156679   156655   156654 
  156660   156670   156693   156735   156762   156764   156802   156838 
  156820   156809   156841   156884   156934   156949   156884   156806 
  156795   156811   156801   156784   156791   156818   156863   156879 
  156848   156824   156826   156832   156853   156874   156867   156863 
  156875   156874   156849   156807   156782   156817   156882   156922 
  156955   156980   156973   156945   156909   156874   156852   156828 
  156784   156745   156728   156705   156683   156687   156714   156747 
  156760   156764   156779   156786   156787   156798   156811   156848 
  156897   156915   156898   156845   156791   156787   156786   156760 
  156779   156833   156856   156863   156847   156776   156735   156764 
  156806   156860   156938   156976   156937   156836   156713   156655 
  156702   156760   156793   156836   156845   156783   156725   156705 
  156703   156732   156780   156803   156803   156828   156871   156879 
  156859   156837   156809   156802   156825   156833   156813   156787 
  156786   156845   156905   156909   156928   156969   156964   156937 
  156910   156864   156836   156834   156820   156803   156803   156814 
  156829   156822   156789   156772   156768   156752   156759   156806 
  156811   156789   156824   156848   156809   156793   156832   156860 
  156844   156824   156811   156801   156825   156845   156811   156794 
  156830   156872   156879   156840   156798   156803   156809   156776 
  156762   156782   156798   156821   156863   156891   156888   156845 
  156779   156737   156755   156817   156856   156833   156803   156801 
  156789   156778   156794   156814   156837   156878   156911   156902 
  156880   156865   156832   156798   156789   156772   156760   156789 
  156816   156814   156817   156832   156830   156798   156767   156748 
  156710   156713   156782   156822   156818   156813   156797   156789 
  156797   156766   156724   156739   156772   156791   156826   156883 
  156918   156913   156879   156837   156818   156825   156845   156863 
  156851   156830   156834   156840   156856   156891   156902   156876 
  156833   156794   156790   156828   156849   156813   156776   156793 
  156810   156793   156790   156820   156820   156786   156762   156762 
  156783   156801   156820   156860   156878   156847   156834   156871 
  156879   156847   156826   156816   156820   156834   156820   156797 
  156798   156810   156813   156783   156755   156776   156810   156820 
  156836   156861   156849   156816   156816   156834   156834   156822 
  156825   156825   156821   156832   156824   156809   156834   156859 
  156870   156874   156836   156806   156811   156816   156833   156853 
  156836   156803   156780   156783   156806   156828   156843   156848 
  156861   156888   156880   156824   156786   156786   156799   156828 
  156836   156813   156805   156807   156791   156776   156759   156739 
  156748   156744   156716   156726   156756   156760   156767   156775 
  156763   156757   156752   156718   156721   156780   156799   156798 
  156840   156860   156847   156863   156865   156820   156793   156837 
  156905   156936   156924   156907   156894   156861   156834   156852 
  156878   156860   156829   156805   156776   156751   156739   156753 
  156794   156843   156879   156876   156841   156794   156739   156716 
  156748   156776   156775   156779   156793   156813   156867   156909 
  156879   156840   156844   156863   156864   156828   156779   156786 
  156833   156861   156859   156856   156886   156921   156918   156892 
  156865   156843   156848   156864   156872   156883   156910   156902 
