Origin Time       2025/03/30 10:18:00
Lat.              34.667
Long.             140.825
Depth. (km)       69
Mag.              4.9
Station Code      KNGH21
Station Lat.      35.4628
Station Long.     139.2146
Station Height(m) 455
Record Time       2025/03/30 10:19:17
Sampling Freq(Hz) 100Hz
Duration Time(s)  120
Dir.              4
Scale Factor      7845(gal)/8223790
Max. Acc. (gal)   0.834
Last Correction   2025/03/30 10:19:17
Memo.             
[...]
    1325     1317     1329     1312     1290     1282     1273     1318 
    1394     1402     1354     1296     1267     1318     1405     1463 
    1491     1463     1363     1269     1239     1277     1324     1317 
    1294     1314     1343     1358     1382     1416     1436     1432 
    1401     1335     1246     1185     1204     1290     1394     1439 
    1386     1320     1310     1333     1358     1364     1350     1332 
    1331     1364     1382     1320     1240     1236     1318     1418 
    1424     1336     1297     1331     1359     1348     1309     1302 
    1370     1421     1399     1339     1289     1287     1328     1385 
    1414     1352     1263     1260     1306     1337     1366     1395 
    1448     1499     1471     1385     1312     1262     1231     1266 
    1344     1348     1277     1246     1274     1312     1344     1367 
    1386     1394     1397     1428     1449     1397     1298     1231 
    1229     1282     1313     1312     1343     1390     1409     1431 
    1437     1383     1323     1324     1341     1304     1254     1243 
    1260     1328     1425     1476     1460     1386     1283     1246 
    1296     1363     1397     1414     1441     1441     1348     1228 
    1205     1256     1301     1348     1378     1345     1293     1271 
    1287     1364     1453     1459     1386     1286     1223     1250 
    1343     1409     1391     1356     1366     1382     1390     1402 
    1371     1308     1266     1258     1275     1316     1358     1382 
    1370     1321     1283     1316     1398     1432     1382     1340 
    1364     1375     1314     1271     1328     1437     1518     1509 
    1404     1296     1256     1271     1300     1314     1313     1309 
    1309     1312     1318     1317     1306     1300     1328     1389 
    1421     1417     1416     1371     1275     1237     1270     1316 
    1341     1318     1305     1336     1335     1329     1405     1479 
    1456     1354     1227     1167     1239     1367     1458     1482 
    1418     1278     1182     1227     1324     1358     1348     1356 
    1382     1393     1371     1358     1386     1393     1339     1312 
    1355     1383     1355     1320     1310     1331     1367     1409 
    1443     1421     1341     1282     1286     1293     1243     1175 
    1189     1304     1445     1520     1494     1404     1298     1248 
    1297     1381     1379     1283     1205     1215     1287     1362 
    1410     1456     1497     1491     1455     1401     1310     1225 
    1194     1210     1271     1327     1329     1335     1354     1345 
    1352     1379     1358     1298     1262     1267     1321     1409 
    1453     1431     1417     1444     1451     1409     1340     1255 
    1201     1215     1262     1320     1402     1464     1459     1410 
    1343     1296     1294     1302     1313     1339     1351     1374 
    1422     1420     1327     1225     1209     1294     1405     1426 
    1351     1283     1291     1359     1436     1452     1382     1286 
    1242     1273     1312     1294     1273     1305     1374     1420 
    1410     1372     1355     1382     1424     1417     1368     1325 
    1285     1243     1232     1282     1378     1448     1445     1401 
    1350     1308     1300     1317     1309     1285     1273     1248 
    1239     1298     1377     1431     1466     1443     1360     1308 
    1302     1302     1313     1339     1364     1395     1424     1394 
    1290     1242     1313     1401     1437     1420     1333     1247 
    1247     1298     1347     1366     1347     1354     1412     1431 
    1367     1305     1267     1237     1251     1305     1350     1345 
    1312     1312     1358     1412     1460     1460     1401     1371 
    1377     1336     1275     1239     1247     1329     1425     1433 
    1371     1298     1250     1254     1298     1343     1371     1372 
    1368     1408     1460     1452     1378     1301     1262     1239 
    1246     1306     1362     1368     1375     1406     1439     1453 
    1428     1352     1267     1208     1165     1175     1254     1328 
    1356     1390     1433     1385     1273     1252     1336     1414 
    1416     1344     1314     1377     1410     1405     1444     1466 
    1425     1394     1352     1248     1177     1240     1389     1470 
    1422     1333     1270     1215     1167     1193     1286     1345 
    1367     1402     1409     1377     1366     1390     1412     1390 
    1354     1350     1356     1345     1345     1385     1408     1363 
    1333     1372     1377     1313     1256     1235     1275     1351 
    1366     1358     1387     1408     1418     1412     1336     1247 
    1216     1204     1189     1190     1248     1359     1449     1491 
    1482     1410     1354     1347     1317     1274     1256     1251 
    1266     1306     1359     1448     1570     1622     1547     1395 
    1232     1111     1078     1147     1301     1468     1534     1486 
    1417     1355     1278     1233     1233     1236     1248     1304 
    1371     1412     1433     1440     1441     1441     1414     1359 
    1287     1223     1209     1259     1350     1440     1459     1420 
    1363     1271     1189     1171     1208     1304     1405     1447 
    1464     1455     1364     1269     1273     1335     1379     1412 
    1416     1399     1375     1310     1254     1260     1283     1310 
    1360     1416     1448     1404     1283     1196     1215     1314 
    1391     1374     1318     1301     1348     1451     1494     1389 
    1237     1217     1340     1437     1399     1310     1282     1344 
    1431     1444     1393     1337     1297     1293     1310     1317 
    1331     1364     1386     1366     1331     1314     1316     1309 
    1296     1301     1328     1368     1409     1402     1368     1378 
    1382     1331     1285     1258     1228     1232     1269     1320 
    1391     1456     1490     1468     1395     1339     1281     1194 
    1183     1264     1351     1397     1377     1351     1367     1374 
    1377     1414     1410     1340     1304     1304     1308     1341 
    1358     1327     1318     1323     1302     1306     1335     1355 
    1382     1389     1374     1387     1408     1404     1390     1372 
    1355     1340     1333     1354     1354     1260     1165     1186 
    1275     1366     1435     1474     1512     1498     1390     1296 
    1279     1279     1270     1273     1266     1236     1237     1259 
    1283     1356     1441     1467     1425     1332     1270     1302 
    1368     1417     1453     1452     1429     1421     1372     1244 
    1148     1163     1243     1355     1456     1470     1408     1328 
    1240     1192     1246     1377     1509     1564     1475     1282 
    1144     1136     1192     1259     1358     1453     1486     1470 
    1418     1340     1316     1360     1406     1436     1416     1306 
    1208     1208     1259     1314     1372     1404     1414     1444 
    1453     1371     1263     1225     1231     1258     1310     1339 
    1345     1374     1422     1466     1460     1387     1290     1244 
    1250     1229     1210     1267     1367     1448     1506     1503 
    1405     1291     1248     1258     1291     1329     1310     1277 
    1350     1471     1490     1397     1271     1204     1240     1336 
    1408     1418     1390     1358     1372     1435     1462     1405 
    1320     1258     1223     1209     1229     1306     1395     1406 
    1363     1377     1429     1429     1366     1282     1223     1202 
    1202     1227     1287     1360     1404     1426     1458     1448 
    1386     1360     1372     1347     1306     1275     1258     1297 
    1364     1389     1394     1435     1472     1417     1285     1177 
    1159     1216     1291     1358     1441     1529     1543     1466 
    1371     1281     1193     1182     1266     1337     1352     1352 
    1347     1336     1301     1277     1339     1413     1398     1328 
    1242     1208     1289     1421     1520     1551     1503     1408 
    1302     1198     1144     1190     1320     1463     1526     1497 
    1421     1312     1235     1237     1263     1296     1335     1324 
    1262     1227     1281     1378     1410     1381     1374     1367 
    1318     1294     1332     1410     1485     1501     1489     1485 
    1421     1269     1119     1065     1138     1282     1395     1425 
    1418     1440     1471     1495     1494     1409     1306     1271 
    1244     1196     1161     1144     1200     1341     1471     1491 
    1431     1389     1370     1348     1337     1302     1235     1228 
    1310     1385     1359     1286     1269     1283     1300     1341 
    1399     1472     1534     1516     1436     1386     1370     1337 
    1287     1233     1162     1134     1219     1348     1426     1467 
    1468     1426     1389     1363     1324     1293     1298     1321 
    1336     1359     1409     1464     1478     1417     1291     1189 
    1186     1233     1263     1310     1379     1414     1417     1408 
    1389     1370     1336     1298     1270     1225     1186     1194 
    1236     1314     1428     1490     1464     1416     1381     1382 
    1394     1351     1300     1325     1386     1413     1362     1217 
    1102     1161     1354     1516     1529     1445     1366     1328 
    1343     1371     1377     1394     1394     1316     1212     1147 
    1143     1208     1310     1410     1482     1494     1421     1336 
    1321     1348     1360     1371     1379     1339     1255     1221 
    1278     1344     1371     1397     1445     1448     1374     1290 
    1259     1286     1313     1290     1287     1343     1367     1325 
    1283     1270     1297     1374     1440     1444     1410     1372 
    1354     1375     1410     1391     1321     1281     1285     1286 
    1293     1344     1416     1463     1445     1366     1302     1305 
    1340     1367     1364     1345     1335     1328     1333     1358 
    1358     1328     1316     1318     1300     1262     1231     1248 
    1339     1449     1497     1462     1370     1290     1282     1313 
    1329     1344     1327     1267     1255     1285     1285     1297 
    1348     1397     1405     1355     1294     1274     1302     1371 
    1413     1389     1360     1358     1362     1382     1410     1417 
    1417     1417     1381     1304     1250     1247     1277     1325 
    1391     1458     1493     1485     1447     1405     1363     1316 
    1317     1367     1363     1287     1231     1225     1240     1229 
    1204     1202     1213     1250     1336     1397     1383     1371 
    1406     1489     1584     1602     1522     1406     1273     1140 
    1062     1063     1128     1219     1297     1316     1302     1359 
    1495     1611     1647     1611     1555     1501     1424     1314 
    1213     1179     1221     1278     1289     1251     1216     1231 
    1293     1337     1328     1300     1300     1327     1333     1325 
    1327     1324     1340     1382     1409     1424     1422     1382 
    1345     1348     1333     1266     1186     1136     1147     1239 
    1374     1502     1591     1594     1510     1424     1341     1229 
    1136     1112     1152     1248     1358     1439     1501     1552 
    1572     1557     1489     1339     1177     1107     1131     1194 
    1262     1302     1293     1271     1282     1310     1341     1366 
    1383     1422     1468     1447     1367     1335     1367     1393 
    1416     1426     1374     1321     1371     1467     1522     1528 
    1472     1370     1291     1266     1285     1323     1327     1300 
    1289     1282     1258     1258     1318     1389     1405     1387 
    1374     1356     1323     1269     1209     1161     1120     1119 
    1202     1331     1464     1601     1679     1637     1518     1398 
    1305     1220     1143     1125     1198     1317     1397     1358 
    1242     1196     1259     1371     1490     1551     1522     1439 
    1281     1092     1016     1048     1111     1227     1381     1547 
    1749     1907     1922     1783     1520     1231     1013      913 
     934     1030     1188     1404     1591     1665     1617     1425 
    1123      859      778      878     1050     1213     1389     1582 
    1730     1782     1732     1586     1421     1339     1348     1367 
    1290     1169     1186     1327     1418     1412     1347     1285 
    1285     1340     1440     1572     1679     1719     1702     1622 
    1424     1136      864      656      545      565      742     1065 
    1413     1641     1737     1755     1715     1607     1439     1291 
    1246     1278     1347     1448     1540     1544     1468     1381 
    1305     1221     1132     1077     1078     1120     1185     1266 
    1335     1379     1410     1448     1543     1688     1809     1844 
    1760     1540     1271     1061      934      878      869      884 
     977     1177     1386     1510     1534     1479     1395     1341 
    1355     1467     1630     1726     1722     1679     1602     1453 
    1256     1078     1008     1102     1306     1472     1501     1360 
    1127      993     1021     1104     1216     1399     1609     1760 
    1792     1675     1453     1219     1036      977     1082     1325 
    1647     1961     2120     2000     1641     1192      773      499 
     468      643      905     1221     1544     1741     1741     1561 
    1278     1065     1021     1098     1260     1466     1611     1709 
    1815     1875     1858     1775     1549     1205      896      712 
     683      818     1046     1278     1475     1613     1674     1682 
    1684     1706     1699     1607     1441     1228     1001      824 
     761      847     1021     1162     1196     1163     1147     1174 
    1256     1417     1629     1842     1992     1962     1703     1314 
     973      820      882     1097     1382     1634     1756     1723 
    1588     1406     1227     1082     1016     1074     1282     1559 
    1722     1692     1557     1421     1351     1343     1298     1175 
    1027      949     1028     1254     1510     1674     1657     1517 
    1389     1289     1156     1019      967     1038     1173     1278 
    1302     1277     1239     1216     1281     1459     1660     1844 
    2000     1984     1710     1356     1132     1067     1104     1178 
    1252     1332     1402     1426     1436     1460     1460     1405 
    1291     1154     1046      990      984     1023     1093     1177 
    1255     1297     1293     1285     1308     1379     1501     1640 
    1736     1755     1684     1541     1412     1367     1433     1570 
    1637     1552     1371     1156      916      711      649      762 
    1012     1350     1652     1792     1752     1559     1304     1132 
    1092     1140     1246     1363     1429     1466     1509     1491 
    1395     1320     1318     1393     1528     1652     1686     1591 
    1410     1266     1192     1093      963      913      981     1143 
    1382     1640     1825     1895     1857     1765     1653     1478 
    1229      993      846      804      904     1142     1375     1485 
    1486     1428     1329     1200     1082     1036     1066     1169 
    1332     1476     1555     1593     1588     1517     1390     1274 
    1246     1313     1397     1441     1478     1517     1483     1375 
    1278     1221     1177     1121     1107     1186     1318     1472 
    1613     1628     1516     1378     1242     1150     1151     1216 
    1309     1385     1409     1433     1495     1559     1556     1459 
    1318     1209     1155     1173     1275     1387     1431     1421 
    1382     1331     1300     1275     1232     1209     1246     1312 
    1332     1314     1314     1339     1364     1390     1440     1534 
    1614     1578     1451     1313     1174     1071     1073     1183 
    1367     1563     1687     1694     1563     1313     1071      978 
    1054     1221     1386     1485     1486     1406     1323     1258 
    1161     1062     1031     1085     1209     1355     1468     1539 
    1532     1431     1329     1329     1424     1537     1610     1622 
    1576     1467     1305     1136     1040     1050     1102     1152 
    1258     1408     1468     1391     1271     1193     1188     1279 
    1417     1520     1584     1629     1647     1615     1501     1318 
    1201     1244     1347     1394     1389     1354     1318     1302 
    1286     1244     1209     1231     1289     1345     1402     1425 
    1378     1304     1256     1242     1237     1225     1202     1185 
    1209     1296     1402     1482     1509     1475     1417     1366 
    1302     1217     1119     1039     1062     1205     1381     1533 
    1659     1734     1740     1682     1570     1405     1206     1044 
    1000     1090     1260     1416     1476     1470     1466     1441 
    1381     1345     1377     1433     1458     1395     1258     1127 
    1067     1078     1123     1178     1223     1248     1274     1320 
    1379     1487     1647     1768     1784     1695     1534     1354 
    1182     1040      969     1013     1167     1345     1468     1525 
    1541     1534     1501     1447     1394     1345     1269     1162 
    1100     1142     1262     1408     1534     1628     1679     1651 
    1503     1275     1069      958      961     1075     1224     1325 
    1412     1485     1506     1502     1468     1375     1263     1155 
    1038      954      974     1119     1364     1649     1815     1776 
    1632     1458     1258     1104     1066     1152     1351     1563 
    1663     1624     1491     1310     1136     1028     1023     1108 
    1240     1397     1540     1609     1598     1529     1364     1134 
     977      955     1013     1116     1269     1451     1603     1679 
    1675     1607     1466     1266     1119     1129     1267     1429 
    1552     1587     1503     1351     1231     1165     1117     1094 
    1128     1223     1356     1475     1552     1617     1636     1543 
    1390     1266     1174     1136     1182     1281     1382     1455 
    1494     1526     1544     1522     1478     1416     1321     1240 
    1208     1175     1132     1146     1237     1367     1489     1533 
    1458     1308     1142     1009      953     1001     1175     1448 
    1676     1699     1539     1360     1254     1193     1158     1173 
    1259     1422     1582     1614     1528     1433     1408     1458 
    1512     1493     1439     1394     1323     1212     1136     1158 
    1233     1287     1314     1343     1375     1367     1331     1331 
    1348     1323     1256     1169     1097     1125     1250     1352 
    1385     1387     1386     1405     1444     1439     1397     1368 
    1363     1404     1516     1621     1618     1521     1390     1247 
    1147     1142     1185     1215     1232     1270     1332     1387 
    1417     1425     1421     1404     1331     1194     1096     1128 
    1267     1420     1512     1537     1530     1520     1460     1320 
    1201     1197     1247     1282     1285     1252     1229     1251 
    1308     1360     1364     1352     1366     1382     1399     1404 
