Origin Time       2025/03/30 10:18:00
Lat.              34.667
Long.             140.825
Depth. (km)       69
Mag.              4.9
Station Code      KNGH20
Station Lat.      35.3663
Station Long.     139.1260
Station Height(m) 465
Record Time       2025/03/30 10:19:17
Sampling Freq(Hz) 100Hz
Duration Time(s)  120
Dir.              5
Scale Factor      7845(gal)/8223790
Max. Acc. (gal)   1.431
Last Correction   2025/03/30 10:19:18
Memo.             
[...]
    7657     7634     7700     7816     7923     7971     7974     7975 
    7983     7983     7955     7901     7844     7816     7817     7809 
    7765     7713     7711     7786     7928     8062     8106     8089 
    8063     8029     7986     7911     7771     7623     7538     7565 
    7695     7804     7809     7792     7827     7898     7967     8002 
    7993     7970     7970     7974     7959     7943     7928     7905 
    7912     7905     7819     7713     7668     7668     7690     7724 
    7776     7854     7933     7985     8016     8055     8079     8046 
    7978     7920     7858     7771     7684     7639     7662     7758 
    7909     8050     8102     8024     7842     7666     7597     7651 
    7780     7913     8016     8083     8105     8082     8025     7946 
    7867     7815     7782     7749     7719     7717     7758     7834 
    7894     7867     7808     7844     7956     8048     8077     8039 
    7956     7869     7785     7700     7614     7580     7658     7836 
    8017     8122     8187     8243     8226     8110     7942     7738 
    7526     7400     7430     7554     7685     7808     7905     7962 
    8013     8047     8009     7917     7847     7859     7943     8012 
    8010     7928     7801     7709     7680     7696     7754     7839 
    7924     8010     8082     8097     8025     7902     7801     7761 
    7766     7796     7827     7839     7866     7940     8004     7969 
    7831     7686     7639     7681     7747     7824     7897     7958 
    8033     8089     8078     8020     7925     7805     7719     7696 
    7717     7780     7858     7923     7971     8010     8006     7936 
    7869     7863     7874     7850     7809     7797     7820     7827 
    7789     7758     7797     7874     7923     7987     8073     8068 
    7965     7862     7786     7730     7707     7719     7776     7858 
    7942     8012     8029     7935     7786     7723     7755     7778 
    7794     7855     7946     8027     8058     8032     7990     7928 
    7855     7796     7734     7699     7759     7884     7975     8006 
    8005     7971     7886     7773     7680     7657     7711     7790 
    7873     7958     8027     8074     8070     7960     7781     7647 
    7614     7661     7771     7911     7982     7954     7913     7912 
    7933     7951     7929     7893     7900     7920     7890     7836 
    7817     7830     7844     7867     7904     7942     7958     7904 
    7811     7789     7838     7847     7789     7732     7751     7855 
    7971     8019     8001     7996     8014     7974     7840     7692 
    7630     7669     7746     7836     7931     7994     8004     7966 
    7879     7762     7669     7659     7724     7823     7943     8050 
    8093     8075     8024     7955     7871     7788     7736     7736 
    7788     7862     7915     7954     8000     8025     7983     7852 
    7703     7631     7641     7693     7761     7836     7904     7921 
    7885     7831     7788     7801     7863     7912     7925     7939 
    8002     8098     8135     8068     7933     7777     7682     7715 
    7813     7867     7859     7854     7884     7915     7917     7904 
    7889     7867     7852     7861     7865     7855     7846     7834 
    7820     7816     7835     7885     7935     7956     7982     8025 
    8025     7923     7750     7609     7566     7588     7631     7707 
    7851     8044     8210     8293     8239     8058     7858     7700 
    7591     7555     7592     7665     7771     7902     8019     8086 
    8095     8067     8021     7977     7952     7946     7931     7888 
    7823     7769     7749     7746     7732     7692     7649     7653 
    7699     7751     7823     7952     8095     8152     8109     8046 
    8039     8081     8074     7971     7821     7693     7641     7654 
    7657     7626     7628     7707     7831     7955     8055     8089 
    8016     7861     7709     7670     7751     7847     7900     7923 
    7925     7940     8001     8067     8055     7966     7879     7851 
    7884     7950     7981     7942     7874     7830     7836     7875 
    7874     7807     7715     7628     7587     7626     7724     7817 
    7873     7904     7924     7951     7994     8028     8048     8056 
    8006     7893     7797     7796     7871     7921     7885     7824 
    7811     7846     7889     7888     7815     7717     7704     7803 
    7942     8029     8009     7924     7840     7785     7784     7823 
    7835     7842     7884     7915     7911     7913     7928     7897 
    7809     7739     7743     7812     7924     8047     8112     8040 
    7877     7746     7692     7696     7730     7740     7734     7770 
    7850     7925     7969     7979     7978     7967     7947     7940 
    7958     7987     8005     8008     8012     7986     7890     7767 
    7686     7672     7708     7744     7743     7732     7753     7788 
    7805     7803     7794     7804     7851     7931     8001     8041 
    8055     8048     8010     7927     7827     7750     7719     7765 
    7900     8056     8117     8059     7965     7897     7850     7778 
    7666     7573     7565     7653     7804     7948     8048     8089 
    8047     7950     7840     7735     7655     7618     7639     7753 
    7931     8110     8241     8310     8307     8203     8008     7790 
    7651     7654     7723     7749     7757     7807     7898     7979 
    7959     7854     7762     7711     7680     7662     7686     7773 
    7862     7896     7898     7912     7944     7974     7982     7979 
    7966     7931     7898     7875     7851     7842     7866     7912 
    7958     7996     8016     7994     7944     7904     7877     7830 
    7738     7645     7618     7653     7697     7744     7817     7909 
    7979     8016     8012     7977     7944     7911     7857     7786 
    7723     7731     7820     7893     7908     7904     7898     7877 
    7813     7703     7612     7638     7789     7971     8090     8109 
    8048     7990     7993     8023     8010     7936     7846     7825 
    7897     7973     7952     7859     7774     7705     7647     7627 
    7646     7696     7796     7911     7981     7982     7921     7858 
    7838     7834     7812     7781     7761     7774     7819     7862 
    7905     7997     8117     8164     8128     8098     8104     8101 
    8048     7948     7835     7708     7589     7541     7543     7535 
    7528     7584     7726     7905     8062     8172     8225     8197 
    8094     7974     7867     7769     7689     7620     7576     7605 
    7724     7894     8054     8132     8128     8068     7960     7834 
    7749     7743     7809     7902     7979     8013     7998     7965 
    7924     7835     7659     7472     7408     7483     7615     7782 
    7966     8098     8172     8221     8226     8156     8047     7971 
    7921     7851     7774     7723     7719     7767     7836     7884 
    7900     7919     7971     7998     7925     7785     7686     7681 
    7701     7677     7647     7686     7778     7862     7904     7920 
    7954     8016     8074     8079     8027     7977     7969     7966 
    7929     7884     7857     7839     7813     7796     7798     7788 
    7730     7658     7642     7708     7803     7867     7906     7974 
    8093     8224     8275     8186     8009     7862     7800     7807 
    7817     7771     7684     7605     7589     7659     7785     7913 
    7985     7981     7986     8032     8060     8052     7998     7885 
    7757     7668     7626     7601     7597     7642     7734     7836 
    7908     7956     8019     8066     8058     8005     7939     7898 
    7913     7933     7888     7801     7747     7771     7877     7998 
    8041     7989     7900     7813     7753     7755     7831     7925 
    7973     7955     7929     7925     7897     7825     7742     7676 
    7624     7588     7596     7674     7831     8050     8262     8384 
    8360     8176     7915     7693     7595     7619     7673     7669 
    7609     7565     7626     7788     7935     7993     7983     7967 
    7971     7998     8060     8125     8140     8098     8027     7967 
    7946     7923     7874     7812     7740     7672     7638     7642 
    7669     7720     7807     7919     8014     8051     7993     7862 
    7722     7599     7522     7531     7609     7739     7909     8071 
    8158     8172     8176     8185     8152     8037     7879     7776 
    7759     7773     7798     7828     7825     7808     7793     7780 
    7803     7852     7879     7881     7863     7855     7916     8005 
    8012     7951     7920     7917     7897     7894     7904     7867 
    7782     7701     7697     7780     7859     7881     7857     7815 
    7796     7800     7807     7820     7855     7911     7944     7933 
    7925     7947     7955     7894     7750     7603     7589     7728 
    7897     8013     8082     8120     8122     8100     8046     7936 
    7765     7588     7514     7569     7681     7821     7986     8110 
    8156     8145     8100     8019     7892     7750     7666     7642 
    7624     7612     7646     7719     7776     7790     7801     7858 
    7950     8029     8070     8089     8127     8181     8182     8090 
    7954     7852     7805     7766     7727     7742     7831     7915 
    7888     7749     7611     7555     7585     7650     7703     7758 
    7854     7954     8027     8089     8110     8075     8024     7973 
    7897     7797     7731     7755     7858     7977     8047     8054 
    8020     7970     7924     7894     7852     7823     7836     7857 
    7877     7931     7965     7908     7793     7731     7766     7808 
    7770     7670     7608     7626     7689     7788     7904     7978 
    8001     8000     7969     7928     7933     7978     7982     7924 
    7861     7813     7777     7751     7723     7724     7774     7816 
    7831     7850     7882     7938     7985     7987     7971     7948 
    7908     7874     7888     7943     7970     7942     7905     7896 
    7898     7879     7824     7765     7753     7794     7863     7936 
    7970     7928     7854     7807     7785     7769     7749     7738 
    7797     7911     7997     8040     8062     8060     8032     7965 
    7873     7794     7747     7736     7742     7747     7773     7828 
    7867     7874     7874     7892     7912     7896     7831     7762 
    7765     7839     7912     7931     7901     7859     7831     7815 
    7813     7846     7902     7951     7963     7965     7982     7974 
    7913     7831     7758     7732     7763     7805     7824     7816 
    7812     7858     7947     8044     8114     8135     8112     8054 
    7951     7807     7649     7564     7600     7700     7805     7925 
    8068     8174     8163     8046     7878     7699     7565     7526 
    7601     7786     8016     8203     8301     8330     8337     8293 
    8131     7871     7645     7569     7612     7647     7647     7685 
    7774     7870     7952     8009     7997     7906     7777     7635 
    7516     7480     7507     7539     7560     7581     7622     7668 
    7700     7744     7821     7902     7938     7938     7954     7981 
    7990     8012     8051     8102     8183     8247     8245     8206 
    8183     8193     8212     8212     8174     8079     7946     7866 
    7916     8019     8062     8039     7973     7871     7750     7603 
    7439     7325     7284     7280     7245     7163     7132     7230 
    7391     7534     7654     7789     7970     8175     8348     8452 
    8492     8480     8402     8244     8041     7840     7686     7611 
    7622     7703     7838     8005     8144     8181     8074     7865 
    7655     7516     7472     7531     7641     7738     7862     8031 
    8156     8151     8023     7852     7739     7724     7789     7902 
    8040     8164     8240     8305     8363     8313     8122     7894 
    7743     7701     7700     7662     7599     7566     7600     7692 
    7771     7796     7796     7812     7846     7885     7948     8024 
    8044     7975     7825     7638     7489     7422     7426     7442 
    7425     7416     7485     7631     7785     7881     7923     7960 
    8039     8174     8311     8384     8405     8392     8334     8190 
    7939     7653     7423     7283     7246     7346     7622     8029 
    8422     8656     8688     8592     8506     8476     8468     8457 
    8429     8397     8364     8262     8036     7724     7414     7186 
    7056     7005     7032     7171     7437     7786     8086     8176 
    8008     7680     7300     6960     6741     6674     6759     6995 
    7334     7693     7994     8199     8317     8378     8426     8479 
    8514     8554     8641     8753     8827     8814     8733     8623 
    8457     8203     7916     7680     7530     7430     7354     7329 
    7366     7430     7465     7477     7537     7677     7838     7923 
    7889     7770     7630     7523     7514     7645     7921     8286 
    8592     8700     8583     8330     8054     7767     7456     7180 
    7032     7064     7261     7537     7785     7936     8010     8067 
    8050     7894     7700     7603     7665     7859     8091     8286 
    8411     8446     8344     8093     7782     7533     7412     7427 
    7528     7670     7808     7888     7896     7857     7801     7765 
    7781     7915     8194     8545     8860     9055     9081     8900 
    8475     7852     7191     6652     6369     6392     6628     6976 
    7404     7865     8266     8527     8642     8656     8610     8532 
    8429     8276     8039     7736     7450     7258     7203     7288 
    7462     7669     7888     8127     8338     8406     8266     7979 
    7655     7372     7161     7032     7002     7086     7323     7724 
    8154     8459     8602     8561     8332     8005     7728     7635 
    7742     7954     8183     8384     8513     8569     8579     8522 
    8351     8077     7749     7398     7098     6956     7013     7231 
    7523     7816     8089     8313     8478     8600     8631     8510 
    8221     7840     7531     7410     7446     7533     7599     7614 
    7550     7450     7411     7416     7383     7284     7149     7080 
    7196     7495     7871     8239     8538     8726     8800     8762 
    8584     8313     8095     7987     7952     7977     8046     8108 
    8124     8074     7983     7915     7909     7942     7966     7954 
    7875     7769     7672     7524     7290     7047     6887     6864 
    6976     7160     7362     7588     7878     8243     8584     8773 
    8793     8714     8591     8429     8244     8078     7948     7840 
    7742     7696     7711     7701     7632     7572     7547     7551 
    7593     7677     7813     8008     8195     8289     8260     8145 
    8004     7850     7658     7437     7257     7225     7365     7634 
    7960     8267     8546     8811     8978     8941     8684     8340 
    8036     7754     7466     7231     7129     7191     7323     7366 
    7264     7121     7078     7132     7218     7341     7530     7786 
    8067     8326     8573     8797     8946     9015     8999     8873 
    8675     8455     8198     7886     7539     7184     6879     6698 
    6658     6737     6956     7284     7596     7836     8047     8257 
    8430     8478     8353     8155     8020     8008     8106     8274 
    8415     8432     8302     8055     7767     7528     7353     7248 
    7271     7418     7601     7755     7890     8048     8195     8257 
    8195     8046     7913     7848     7785     7690     7653     7774 
    8023     8245     8349     8357     8305     8201     8039     7854 
    7686     7546     7457     7423     7396     7350     7296     7258 
    7304     7496     7816     8179     8475     8640     8706     8723 
    8657     8441     8105     7705     7291     6963     6802     6794 
    6934     7231     7616     7942     8118     8208     8287     8344 
    8365     8361     8345     8317     8270     8213     8121     7950 
    7705     7430     7213     7179     7391     7782     8164     8338 
    8268     8055     7780     7503     7333     7318     7393     7528 
    7747     8056     8414     8712     8833     8761     8577     8352 
    8109     7843     7585     7403     7350     7422     7516     7489 
    7308     7068     6913     6943     7179     7584     8048     8440 
    8696     8781     8702     8510     8270     8033     7808     7564 
    7349     7258     7312     7457     7607     7744     7912     8133 
    8430     8757     8943     8880     8625     8291     7966     7701 
    7493     7285     7052     6859     6777     6843     7065     7406 
    7789     8118     8310     8360     8332     8328     8418     8545 
    8634     8675     8634     8486     8206     7819     7466     7280 
    7221     7190     7202     7321     7524     7727     7842     7847 
    7824     7861     7936     7993     8013     8013     7990     7935 
    7865     7788     7695     7603     7549     7570     7678     7861 
    8128     8414     8617     8733     8756     8633     8392     8128 
    7889     7680     7499     7402     7458     7649     7852     7939 
    7857     7642     7358     7078     6893     6887     7079     7391 
    7724     8033     8332     8644     8904     8988     8851     8563 
    8228     7928     7712     7634     7701     7830     7890     7825 
    7686     7549     7465     7466     7495     7480     7442     7450 
    7547     7696     7817     7878     7870     7846     7908     8059 
    8191     8203     8098     7987     7933     7901     7878     7867 
    7863     7888     7962     8064     8168     8264     8332     8311 
    8152     7892     7647     7512     7457     7434     7418     7380 
    7349     7380     7461     7546     7628     7749     7908     8025 
    8059     8068     8147     8337     8576     8731     8691     8452 
    8137     7869     7670     7561     7562     7651     7763     7828 
    7852     7871     7870     7846     7790     7682     7568     7507 
    7516     7593     7688     7750     7794     7847     7900     7951 
    8024     8129     8248     8353     8438     8507     8513     8330 
    7943     7496     7149     6974     6979     7146     7453     7823 
    8104     8163     8024     7844     7730     7682     7709     7846 
    8100     8395     8608     8667     8577     8367     8073     7751 
    7461     7250     7182     7291     7516     7744     7935     8068 
    8104     8029     7886     7746     7663     7627     7619     7676 
    7823     8028     8202     8271     8232     8164     8133     8095 
    8012     7944     7962     8041     8075     7998     7861     7717 
    7584     7454     7323     7241     7273     7414     7595     7743 
    7861     7990     8104     8128     8051     7927     7828     7769 
    7724     7701     7727     7827     8002     8183     8307     8367 
    8374     8352     8338     8334     8302     8194     8017     7805 
    7592     7416     7280     7180     7149     7217     7364     7510 
    7596     7651     7722     7813     7904     7959     7974     7973 
    7993     8070     8176     8241     8244     8212     8156     8077 
    7992     7923     7892     7925     8013     8091     8101     8028 
