Origin Time       2025/03/30 10:18:00
Lat.              34.667
Long.             140.825
Depth. (km)       69
Mag.              4.9
Station Code      KNGH19
Station Lat.      35.4173
Station Long.     139.0436
Station Height(m) 330
Record Time       2025/03/30 10:19:18
Sampling Freq(Hz) 100Hz
Duration Time(s)  120
Dir.              4
Scale Factor      7845(gal)/8223790
Max. Acc. (gal)   1.484
Last Correction   2025/03/30 10:19:18
Memo.             
[...]
    -588     -581     -579     -614     -715     -769     -711     -621 
    -577     -579     -627     -699     -731     -757     -811     -824 
    -768     -673     -572     -488     -457     -502     -565     -604 
    -675     -741     -747     -753     -768     -747     -696     -606 
    -498     -448     -494     -579     -626     -653     -699     -716 
    -691     -670     -661     -626     -560     -522     -573     -676 
    -754     -760     -685     -618     -627     -664     -727     -811 
    -774     -666     -672     -691     -604     -526     -526     -556 
    -577     -604     -650     -677     -672     -672     -681     -681 
    -675     -646     -584     -558     -596     -611     -589     -608 
    -666     -700     -689     -681     -707     -727     -695     -619 
    -577     -599     -634     -665     -680     -664     -642     -643 
    -687     -723     -687     -623     -588     -560     -561     -619 
    -697     -766     -777     -702     -629     -608     -594     -618 
    -687     -685     -611     -577     -588     -610     -670     -764 
    -799     -715     -588     -486     -440     -510     -635     -704 
    -722     -711     -681     -657     -675     -743     -745     -631 
    -556     -549     -526     -531     -622     -714     -720     -693 
    -684     -681     -710     -724     -622     -508     -521     -591 
    -660     -715     -706     -679     -676     -681     -707     -683 
    -611     -616     -661     -666     -680     -703     -683     -629 
    -596     -591     -599     -626     -658     -670     -645     -584 
    -544     -534     -542     -569     -576     -594     -679     -737 
    -720     -699     -693     -679     -643     -600     -557     -550 
    -618     -718     -792     -826     -776     -660     -560     -521 
    -552     -631     -699     -734     -724     -660     -604     -602 
    -616     -638     -665     -649     -606     -598     -638     -685 
    -712     -716     -677     -626     -616     -635     -646     -641 
    -634     -657     -681     -664     -631     -614     -630     -706 
    -772     -754     -693     -616     -515     -481     -558     -631 
    -664     -704     -710     -646     -588     -579     -568     -565 
    -618     -661     -677     -695     -658     -595     -608     -673 
    -724     -743     -693     -596     -534     -544     -622     -723 
    -745     -706     -672     -623     -610     -642     -661     -675 
    -634     -565     -581     -607     -588     -598     -630     -666 
    -715     -735     -695     -646     -660     -688     -664     -648 
    -665     -643     -619     -648     -684     -702     -693     -654 
    -621     -596     -569     -550     -561     -610     -637     -649 
    -702     -700     -638     -654     -706     -681     -627     -649 
    -734     -749     -665     -596     -592     -631     -652     -635 
    -641     -646     -631     -653     -693     -691     -638     -576 
    -557     -577     -565     -540     -606     -691     -658     -618 
    -685     -756     -719     -616     -534     -549     -653     -724 
    -707     -691     -715     -708     -673     -660     -646     -618 
    -622     -641     -637     -634     -660     -689     -669     -591 
    -542     -576     -619     -611     -599     -635     -707     -734 
    -689     -638     -607     -585     -575     -583     -650     -747 
    -761     -700     -676     -687     -656     -599     -616     -677 
    -635     -569     -579     -557     -561     -687     -764     -731 
    -687     -625     -542     -517     -562     -626     -688     -743 
    -729     -635     -596     -657     -704     -689     -638     -571 
    -553     -610     -695     -742     -711     -648     -619     -672 
    -788     -814     -697     -583     -525     -506     -571     -670 
    -730     -722     -631     -560     -589     -658     -722     -706 
    -549     -410     -456     -626     -764     -808     -760     -669 
    -641     -652     -614     -604     -639     -612     -587     -621 
    -637     -688     -757     -691     -584     -592     -591     -519 
    -526     -603     -629     -630     -638     -679     -768     -808 
    -764     -695     -612     -553     -571     -631     -700     -766 
    -754     -649     -598     -650     -700     -708     -665     -571 
    -541     -595     -604     -592     -653     -673     -619     -639 
    -673     -621     -622     -649     -621     -649     -681     -622 
    -615     -673     -687     -680     -688     -706     -712     -689 
    -676     -677     -622     -537     -526     -608     -691     -697 
    -680     -711     -679     -517     -417     -502     -635     -685 
    -673     -664     -660     -639     -635     -648     -618     -584 
    -610     -692     -793     -823     -774     -731     -666     -544 
    -475     -534     -652     -708     -672     -657     -700     -688 
    -643     -645     -622     -521     -411     -413     -556     -723 
    -812     -819     -776     -722     -693     -695     -681     -611 
    -546     -573     -684     -801     -841     -777     -627     -468 
    -410     -448     -561     -741     -841     -804     -724     -626 
    -560     -575     -595     -603     -589     -558     -592     -652 
    -695     -743     -719     -633     -595     -607     -666     -746 
    -743     -665     -607     -580     -591     -649     -699     -697 
    -670     -639     -589     -530     -523     -562     -592     -649 
    -729     -737     -693     -672     -629     -560     -587     -669 
    -677     -685     -738     -743     -719     -700     -643     -579 
    -577     -612     -615     -634     -715     -757     -711     -649 
    -610     -577     -540     -521     -556     -610     -656     -687 
    -673     -625     -612     -662     -712     -746     -770     -727 
    -660     -629     -545     -475     -558     -622     -540     -550 
    -684     -704     -697     -791     -754     -545     -425     -492 
    -641     -750     -781     -799     -791     -719     -649     -602 
    -577     -615     -688     -714     -666     -606     -623     -676 
    -662     -616     -598     -592     -589     -621     -654     -633 
    -630     -685     -652     -552     -600     -735     -758     -657 
    -502     -413     -480     -625     -745     -826     -864     -872 
    -804     -648     -611     -722     -711     -619     -598     -554 
    -525     -580     -646     -675     -668     -703     -750     -676 
    -579     -583     -600     -598     -625     -596     -519     -573 
    -710     -700     -587     -571     -587     -481     -436     -643 
    -858     -881     -847     -793     -719     -635     -554     -584 
    -676     -704     -677     -638     -646     -681     -649     -607 
    -673     -722     -629     -557     -545     -522     -616     -712 
    -642     -562     -567     -606     -666     -747     -741     -618 
    -583     -675     -746     -785     -800     -766     -714     -665 
    -600     -565     -608     -627     -580     -549     -571     -594 
    -594     -622     -637     -560     -500     -562     -657     -712 
    -737     -706     -648     -627     -623     -652     -761     -804 
    -720     -700     -733     -692     -648     -623     -587     -552 
    -564     -670     -731     -652     -637     -711     -660     -573 
    -600     -627     -626     -610     -560     -553     -615     -731 
    -787     -669     -527     -488     -544     -661     -780     -870 
    -807     -577     -411     -391     -502     -700     -814     -807 
    -784     -747     -688     -626     -554     -507     -535     -635 
    -730     -737     -719     -695     -599     -552     -575     -538 
    -527     -604     -689     -747     -745     -685     -595     -527 
    -580     -683     -727     -720     -722     -719     -652     -630 
    -688     -700     -699     -706     -645     -546     -522     -608 
    -710     -765     -742     -641     -576     -614     -654     -633 
    -621     -621     -583     -552     -603     -684     -707     -726 
    -714     -616     -560     -550     -554     -621     -695     -703 
    -641     -631     -715     -749     -742     -697     -580     -565 
    -621     -573     -577     -673     -652     -599     -615     -581 
    -611     -737     -773     -710     -622     -604     -615     -580 
    -615     -676     -675     -626     -564     -595     -696     -733 
    -685     -684     -756     -772     -692     -577     -472     -419 
    -490     -634     -724     -749     -793     -889     -881     -753 
    -673     -618     -545     -490     -471     -495     -529     -622 
    -737     -737     -677     -645     -619     -580     -581     -607 
    -639     -708     -706     -635     -670     -778     -810     -715 
    -603     -554     -499     -496     -577     -653     -712     -693 
    -598     -557     -641     -702     -657     -684     -716     -658 
    -653     -661     -685     -741     -692     -608     -610     -618 
    -616     -680     -727     -689     -625     -534     -525     -610 
    -596     -561     -579     -558     -639     -780     -804     -804 
    -773     -711     -679     -629     -598     -549     -477     -502 
    -589     -666     -706     -729     -743     -689     -584     -561 
    -627     -672     -710     -735     -672     -589     -591     -621 
    -584     -575     -650     -693     -706     -700     -650     -649 
    -687     -668     -619     -581     -584     -661     -772     -826 
    -769     -641     -503     -421     -475     -604     -691     -727 
    -757     -770     -718     -683     -700     -621     -525     -564 
    -531     -440     -557     -737     -761     -760     -739     -630 
    -637     -700     -619     -579     -607     -602     -619     -638 
    -688     -741     -696     -649     -641     -625     -607     -587 
    -587     -577     -565     -621     -664     -664     -719     -770 
    -718     -591     -529     -606     -689     -675     -591     -521 
    -550     -645     -708     -716     -658     -608     -602     -608 
    -670     -723     -696     -666     -676     -687     -687     -719 
    -773     -766     -710     -630     -557     -561     -577     -562 
    -594     -627     -639     -707     -742     -661     -602     -599 
    -562     -583     -660     -648     -634     -668     -653     -677 
    -735     -716     -687     -654     -568     -479     -445     -476 
    -557     -703     -830     -824     -780     -745     -683     -661 
    -665     -627     -585     -588     -618     -607     -596     -657 
    -699     -665     -596     -571     -616     -660     -675     -669 
    -631     -611     -619     -621     -664     -742     -765     -724 
    -650     -549     -461     -448     -525     -634     -735     -797 
    -796     -783     -749     -650     -569     -567     -599     -612 
    -592     -587     -639     -699     -712     -656     -595     -622 
    -654     -681     -785     -855     -823     -722     -542     -379 
    -333     -344     -345     -341     -364     -391     -400     -464 
    -571     -664     -770     -891     -981    -1008     -961     -872 
    -746     -649     -654     -695     -723     -757     -769     -796 
    -884     -957     -950     -884     -783     -702     -710     -704 
    -595     -452     -274     -135     -155     -260     -433     -664 
    -795     -818     -777     -645     -508     -423     -380     -434 
    -521     -549     -557     -553     -537     -507     -436     -418 
    -523     -703     -965    -1240    -1395    -1401    -1227     -961 
    -768     -635     -592     -683     -754     -734     -664     -525 
    -375     -307     -332     -421     -531     -625     -666     -599 
    -437     -261     -166     -226     -357     -414     -422     -450 
    -521     -639     -741     -778     -797     -803     -807     -868 
    -963    -1084    -1216    -1290    -1266    -1128     -966     -942 
    -980     -892     -712     -546     -357     -168      -86      -78 
    -116     -268     -492     -684     -789     -776     -676     -517 
    -346     -272     -291     -396     -675    -1066    -1383    -1547 
   -1512    -1252     -895     -560     -244       -5       89       74 
      67      167      310      355      218     -116     -511     -807 
    -999    -1078     -999     -896     -940    -1080    -1197    -1297 
   -1364    -1367    -1374    -1389    -1240     -909     -581     -345 
    -272     -380     -477     -496     -491     -464     -477     -602 
    -823    -1036    -1116    -1061     -859     -519     -221      -76 
     -79     -230     -423     -542     -611     -606     -486     -355 
    -286     -249     -282     -403     -518     -573     -561     -467 
    -359     -338     -452     -693    -1001    -1287    -1443    -1363 
   -1098     -831     -712     -807    -1007    -1131    -1135    -1066 
    -953     -843     -780     -697     -513     -303     -194     -179 
    -163      -74       60      175      217       74     -261     -629 
    -943    -1189    -1332    -1422    -1520    -1584    -1580    -1486 
   -1290    -1020     -661     -256       85      299      367      279 
      55     -198     -317     -283     -180      -71      -51     -205 
    -548    -1021    -1479    -1760    -1782    -1579    -1259     -892 
    -546     -328     -280     -380     -508     -523     -398     -168 
      49       97      -59     -450    -1020    -1553    -1964    -2200 
   -2196    -1983    -1536     -882     -240      174      256       79 
    -164     -336     -302      -45      283      540      542      160 
    -398     -919    -1387    -1705    -1777    -1591    -1179     -747 
    -503     -506     -683     -892    -1027    -1038     -920     -662 
    -324      -83      -20     -105     -276     -433     -542     -631 
    -676     -608     -454     -348     -330     -352     -450     -704 
   -1036    -1302    -1420    -1286     -922     -518     -121      217 
     278       45     -321     -738    -1081    -1273    -1413    -1602 
   -1738    -1628    -1206     -594      -66      126      -13     -360 
    -776    -1005     -870     -472      -39      197      139     -102 
    -357     -523     -600     -714     -949    -1151    -1142     -931 
    -614     -324     -195     -237     -476     -923    -1348    -1555 
   -1563    -1386    -1059     -706     -449     -378     -441     -486 
    -407     -245     -179     -259     -329     -301     -187      -62 
     -63     -252     -553     -862    -1107    -1248    -1294    -1248 
   -1094     -962     -963     -973     -891     -762     -629     -525 
    -448     -318     -157      -97     -147     -264     -459     -669 
    -814     -858     -766     -575     -386     -276     -355     -677 
   -1109    -1421    -1485    -1321    -1009     -681     -479     -471 
    -614     -783     -874     -851     -750     -653     -542     -376 
    -184      -18       -1     -117     -234     -342     -395     -432 
    -575     -726     -765     -697     -577     -494     -440     -445 
    -565     -718     -874     -990     -950     -846     -837     -959 
   -1183    -1377    -1398    -1215     -908     -658     -558     -522 
    -444     -313     -206     -229     -372     -491     -510     -530 
    -602     -670     -718     -738     -724     -734     -777     -811 
    -866     -945     -959     -885     -730     -529     -353     -180 
       5       85      -22     -272     -575     -832     -988    -1032 
   -1000     -909     -733     -530     -448     -479     -523     -554 
    -607     -726     -893     -977     -939     -862     -780     -683 
    -595     -514     -438     -440     -515     -552     -554     -638 
    -793     -916     -901     -720     -525     -449     -460     -515 
    -612     -700     -715     -673     -595     -507     -525     -626 
    -670     -658     -623     -594     -615     -661     -685     -687 
    -683     -707     -741     -733     -685     -643     -606     -529 
    -456     -507     -661     -784     -812     -746     -661     -696 
    -822     -869     -791     -685     -657     -726     -822     -828 
    -704     -506     -299     -198     -310     -592     -907    -1062 
    -965     -733     -487     -324     -361     -531     -623     -592 
    -538     -476     -417     -445     -576     -723     -799     -776 
    -708     -666     -722     -864     -928     -837     -668     -527 
    -508     -587     -670     -734     -734     -648     -537     -491 
    -560     -672     -735     -776     -784     -685     -511     -390 
    -418     -561     -714     -808     -822     -783     -700     -602 
    -548     -472     -351     -351     -490     -622     -697     -708 
    -685     -662     -634     -652     -731     -810     -824     -718 
    -548     -453     -469     -583     -784     -969    -1016     -911 
    -707     -531     -526     -684     -869     -966     -908     -766 
    -656     -567     -463     -369     -329     -372     -508     -660 
    -699     -603     -502     -477     -503     -577     -662     -679 
    -703     -834     -942     -868     -716     -629     -556     -504 
    -533     -602     -689     -781     -770     -656     -545     -481 
    -487     -599     -751     -808     -738     -604     -486     -486 
    -611     -693     -643     -550     -492     -511     -611     -712 
    -774     -814     -810     -750     -688     -670     -691     -718 
    -737     -688     -546     -411     -387     -476     -596     -688 
    -742     -747     -704     -657     -591     -499     -463     -541 
    -693     -828     -880     -870     -855     -810     -635     -375 
    -201     -195     -353     -618     -822     -880     -841     -738 
    -619     -569     -581     -618     -684     -753     -819     -908 
    -962     -889     -660     -372     -230     -306     -480     -650 
    -769     -792     -754     -715     -656     -596     -600     -653 
    -747     -864     -892     -827     -764     -696     -610     -534 
    -484     -517     -615     -662     -618     -525     -405     -292 
    -279     -438     -710     -962    -1086    -1003     -768     -521 
    -356     -344     -488     -673     -807     -870     -832     -745 
    -707     -704     -691     -689     -733     -803     -841     -799 
    -654     -426     -232     -155     -202     -387     -641     -814 
    -842     -768     -660     -576     -548     -540     -538     -603 
    -719     -851    -1009    -1089     -990     -820     -679     -565 
    -511     -521     -534     -526     -484     -422     -437     -556 
    -668     -724     -747     -722     -672     -650     -688     -783 
    -803     -699     -618     -611     -627     -664     -707     -724 
    -711     -700     -696     -646     -541     -429     -375     -415 
    -477     -503     -533     -580     -641     -692     -685     -646 
    -627     -621     -627     -685     -773     -807     -787     -780 
    -801     -812     -795     -760     -719     -658     -561     -499 
    -514     -541     -542     -535     -552     -614     -683     -700 
    -695     -689     -635     -534     -475     -515     -630     -720 
    -731     -689     -621     -602     -679     -739     -741     -774 
