Origin Time       2025/03/30 10:18:00
Lat.              34.667
Long.             140.825
Depth. (km)       69
Mag.              4.9
Station Code      SZOH35
Station Lat.      34.9467
Station Long.     139.0855
Station Height(m) 140
Record Time       2025/03/30 10:18:55
Sampling Freq(Hz) 100Hz
Duration Time(s)  120
Dir.              6
Scale Factor      7845(gal)/8223790
Max. Acc. (gal)   2.656
Last Correction   2025/03/30 10:18:55
Memo.             
[...]
    7781     7771     7773     7776     7759     7740     7749     7777 
    7800     7801     7830     7879     7848     7765     7747     7749 
    7728     7735     7757     7794     7854     7835     7746     7739 
    7797     7813     7812     7815     7797     7773     7755     7754 
    7763     7761     7766     7796     7811     7793     7777     7792 
    7819     7817     7796     7784     7773     7762     7758     7759 
    7771     7790     7790     7784     7784     7786     7794     7804 
    7803     7782     7763     7781     7797     7767     7738     7751 
    7793     7821     7825     7811     7785     7777     7796     7789 
    7755     7757     7776     7773     7771     7771     7766     7782 
    7819     7844     7840     7796     7735     7715     7747     7792 
    7804     7792     7793     7817     7819     7782     7744     7751 
    7777     7778     7763     7766     7789     7821     7840     7824 
    7792     7761     7753     7782     7805     7777     7746     7762 
    7788     7786     7777     7765     7755     7767     7804     7843 
    7851     7827     7797     7778     7762     7746     7736     7739 
    7763     7790     7800     7796     7788     7794     7808     7812 
    7815     7819     7800     7757     7719     7731     7789     7827 
    7807     7774     7776     7782     7769     7751     7746     7777 
    7838     7861     7816     7765     7753     7773     7801     7793 
    7770     7781     7782     7763     7770     7771     7763     7786 
    7809     7809     7816     7808     7769     7735     7738     7777 
    7828     7859     7835     7759     7722     7740     7757     7770 
    7800     7817     7812     7805     7786     7765     7759     7759 
    7770     7811     7834     7794     7758     7767     7784     7801 
    7813     7776     7732     7750     7804     7823     7792     7767 
    7781     7803     7800     7770     7755     7788     7811     7778 
    7751     7777     7811     7812     7788     7750     7735     7777 
    7819     7815     7798     7788     7782     7793     7798     7786 
    7763     7753     7782     7813     7789     7750     7743     7770 
    7821     7848     7808     7754     7739     7763     7805     7816 
    7789     7784     7807     7812     7777     7742     7747     7767 
    7780     7790     7782     7784     7813     7808     7758     7753 
    7798     7836     7844     7803     7744     7739     7774     7790 
    7780     7759     7749     7759     7784     7800     7811     7813 
    7798     7792     7807     7801     7784     7785     7771     7742 
    7738     7766     7800     7811     7801     7804     7794     7767 
    7771     7798     7801     7782     7766     7767     7770     7758 
    7769     7809     7834     7820     7778     7753     7774     7792 
    7790     7800     7785     7753     7751     7761     7777     7828 
    7862     7834     7780     7722     7713     7792     7824     7765 
    7746     7784     7830     7846     7788     7717     7723     7782 
    7844     7851     7812     7798     7800     7766     7720     7728 
    7792     7815     7769     7746     7765     7786     7808     7819 
    7812     7805     7808     7815     7797     7759     7744     7763 
    7784     7790     7786     7767     7749     7753     7784     7805 
    7794     7789     7812     7819     7797     7792     7792     7774 
    7761     7763     7769     7780     7800     7800     7789     7788 
    7784     7776     7771     7776     7786     7788     7784     7792 
    7798     7796     7790     7773     7767     7776     7785     7811 
    7808     7774     7774     7785     7769     7766     7762     7773 
    7809     7809     7786     7784     7789     7811     7821     7778 
    7746     7765     7778     7774     7785     7790     7784     7790 
    7801     7790     7781     7789     7794     7790     7784     7771 
    7777     7790     7782     7771     7774     7778     7792     7803 
    7794     7793     7801     7790     7777     7771     7771     7778 
    7781     7774     7769     7778     7803     7815     7804     7784 
    7776     7789     7803     7790     7763     7746     7751     7782 
    7803     7786     7774     7789     7808     7823     7825     7798 
    7763     7769     7800     7785     7736     7726     7750     7788 
    7817     7800     7762     7776     7823     7828     7800     7794 
    7793     7771     7770     7786     7780     7769     7782     7793 
    7781     7762     7758     7758     7755     7785     7824     7825 
    7817     7820     7809     7784     7747     7738     7774     7782 
    7757     7771     7801     7788     7770     7788     7813     7813 
    7808     7793     7767     7774     7794     7777     7763     7766 
    7750     7747     7788     7824     7820     7800     7793     7800 
    7800     7781     7762     7761     7766     7763     7758     7774 
    7808     7820     7801     7786     7776     7771     7780     7777 
    7767     7776     7794     7793     7780     7784     7794     7800 
    7804     7794     7774     7770     7777     7778     7774     7770 
    7774     7773     7771     7800     7825     7801     7769     7778 
    7805     7813     7800     7781     7755     7731     7732     7781 
    7835     7835     7796     7770     7759     7759     7780     7790 
    7778     7793     7825     7809     7769     7754     7758     7786 
    7821     7811     7780     7776     7766     7761     7789     7800 
    7777     7773     7789     7797     7793     7781     7771     7778 
    7800     7813     7797     7771     7753     7746     7774     7805 
    7797     7792     7809     7804     7782     7780     7778     7771 
    7777     7778     7769     7773     7786     7793     7793     7793 
    7797     7807     7797     7766     7749     7765     7786     7796 
    7798     7797     7793     7788     7780     7762     7753     7771 
    7798     7809     7813     7807     7767     7740     7761     7785 
    7786     7789     7793     7790     7794     7793     7785     7784 
    7792     7790     7762     7728     7743     7794     7835     7846 
    7821     7792     7774     7751     7738     7753     7773     7789 
    7797     7793     7789     7782     7773     7788     7813     7808 
    7798     7809     7804     7773     7746     7732     7746     7769 
    7774     7778     7803     7827     7820     7800     7792     7797 
    7801     7781     7746     7740     7765     7789     7797     7788 
    7773     7763     7771     7807     7823     7801     7786     7786 
    7784     7777     7771     7774     7781     7778     7780     7792 
    7793     7778     7767     7774     7796     7800     7788     7790 
    7794     7786     7784     7785     7776     7766     7771     7777 
    7786     7798     7790     7777     7782     7797     7816     7804 
    7762     7762     7793     7789     7766     7755     7753     7769 
    7809     7821     7788     7769     7781     7793     7805     7815 
    7793     7770     7773     7780     7790     7790     7761     7742 
    7765     7792     7788     7771     7777     7800     7815     7815 
    7809     7792     7770     7767     7776     7785     7800     7788 
    7753     7735     7746     7782     7824     7827     7793     7770 
    7781     7794     7778     7762     7780     7797     7803     7811 
    7798     7785     7790     7774     7749     7753     7761     7765 
    7785     7801     7793     7784     7784     7794     7823     7832 
    7803     7770     7747     7740     7771     7797     7796     7789 
    7782     7776     7767     7757     7776     7803     7800     7807 
    7831     7824     7780     7744     7735     7746     7785     7824 
    7817     7781     7755     7759     7785     7794     7780     7780 
    7776     7776     7807     7823     7804     7796     7797     7785 
    7773     7758     7740     7739     7758     7784     7804     7817 
    7813     7801     7798     7794     7778     7761     7765     7794 
    7817     7816     7785     7754     7754     7763     7765     7778 
    7801     7811     7812     7805     7778     7761     7780     7798 
    7777     7757     7782     7819     7812     7784     7777     7784 
    7786     7788     7769     7740     7749     7784     7812     7815 
    7798     7794     7790     7774     7782     7803     7785     7767 
    7773     7780     7778     7770     7776     7798     7807     7796 
    7794     7797     7773     7751     7776     7792     7766     7765 
    7797     7811     7804     7792     7774     7770     7778     7785 
    7796     7798     7792     7785     7773     7757     7751     7777 
    7809     7805     7788     7789     7792     7776     7761     7781 
    7803     7785     7776     7807     7817     7782     7750     7750 
    7778     7798     7792     7790     7797     7781     7766     7777 
    7780     7767     7771     7790     7793     7807     7821     7786 
    7761     7789     7793     7770     7769     7763     7761     7782 
    7794     7800     7821     7819     7781     7758     7763     7771 
    7765     7762     7782     7815     7820     7792     7776     7774 
    7773     7786     7811     7812     7790     7769     7755     7755 
    7771     7778     7773     7786     7807     7808     7812     7808 
    7793     7793     7796     7781     7767     7757     7747     7749 
    7766     7801     7823     7798     7778     7792     7805     7813 
    7801     7763     7770     7808     7786     7740     7734     7734 
    7763     7836     7873     7843     7794     7743     7716     7747 
    7800     7815     7788     7762     7766     7793     7801     7797 
    7812     7824     7800     7763     7747     7750     7754     7766 
    7790     7805     7798     7796     7808     7805     7777     7765 
    7794     7800     7740     7713     7789     7886     7871     7759 
    7696     7732     7801     7846     7807     7728     7723     7790 
    7840     7813     7755     7762     7790     7785     7809     7830 
    7788     7761     7777     7797     7800     7753     7713     7757 
    7808     7809     7794     7786     7801     7811     7801     7801 
    7781     7743     7747     7762     7769     7811     7844     7809 
    7765     7769     7784     7782     7785     7774     7761     7777 
    7793     7804     7811     7781     7757     7784     7813     7807 
    7770     7749     7769     7798     7813     7812     7786     7765 
    7767     7774     7776     7771     7771     7788     7808     7823 
    7817     7790     7769     7758     7762     7782     7771     7758 
    7790     7809     7794     7789     7781     7774     7793     7798 
    7773     7759     7777     7813     7840     7823     7766     7735 
    7757     7766     7762     7784     7803     7796     7796     7801 
    7790     7785     7782     7761     7755     7794     7820     7804 
    7790     7784     7755     7743     7778     7808     7801     7788 
    7776     7765     7773     7794     7809     7808     7788     7776 
    7784     7794     7789     7765     7754     7776     7803     7804 
    7797     7784     7758     7750     7766     7790     7815     7813 
    7785     7778     7786     7778     7773     7780     7780     7788 
    7800     7786     7762     7766     7777     7780     7797     7812 
    7792     7766     7771     7782     7780     7782     7794     7794 
    7784     7786     7794     7788     7766     7758     7780     7796 
    7790     7788     7786     7776     7773     7788     7803     7804 
    7789     7769     7757     7765     7792     7804     7788     7776 
    7792     7804     7781     7746     7758     7812     7830     7792 
    7763     7774     7784     7778     7780     7777     7771     7790 
    7804     7794     7792     7780     7759     7769     7785     7786 
    7786     7790     7790     7782     7777     7784     7793     7800 
    7807     7790     7762     7754     7762     7776     7788     7794 
    7798     7798     7789     7778     7785     7790     7784     7790 
    7808     7805     7770     7728     7736     7778     7792     7786 
    7803     7819     7817     7807     7780     7744     7750     7792 
    7805     7784     7770     7778     7793     7796     7785     7776 
    7773     7785     7803     7798     7778     7765     7782     7820 
    7820     7778     7751     7757     7770     7776     7782     7798 
    7807     7805     7801     7785     7762     7761     7782     7797 
    7788     7778     7785     7790     7786     7784     7784     7777 
    7763     7767     7800     7821     7803     7778     7777     7788 
    7793     7788     7769     7759     7774     7792     7788     7778 
    7777     7777     7785     7804     7809     7809     7805     7780 
    7766     7769     7750     7751     7796     7819     7794     7762 
    7773     7817     7812     7755     7734     7770     7816     7820 
    7777     7744     7751     7773     7784     7774     7757     7759 
    7780     7781     7755     7727     7720     7742     7757     7743 
    7720     7707     7705     7703     7673     7639     7647     7681 
    7696     7672     7632     7638     7711     7800     7851     7884 
    7944     8050     8185     8303     8372     8441     8537     8564 
    8434     8179     7894     7735     7801     7979     8077     7996 
    7681     7176     6644     6193     5827     5579     5574     5927 
    6683     7827     9130    10138    10569    10494    10112     9664 
    9333     8945     8179     7123     6197     5664     5516     5671 
    6026     6393     6581     6617     6744     7171     7894     8691 
    9207     9343     9439     9756    10077    10162    10031     9555 
    8514     7219     6318     5971     5836     5703     5675     5867 
    6232     6663     7092     7496     7801     7943     8118     8688 
    9513     9950     9706     9173     8802     8641     8590     8568 
    8349     7731     6945     6446     6322     6307     6222     6062 
    5949     6073     6477     7084     7973     9076     9892    10093 
   10003     9956     9761     9248     8688     8275     7759     6993 
    6274     5836     5651     5676     5790     5876     6018     6346 
    6916     7750     8791     9703    10120    10174    10166    10018 
    9674     9273     8757     8054     7265     6498     5942     5763 
    5864     6038     6251     6619     7107     7607     8221     8941 
    9319     9107     8692     8495     8487     8505     8453     8302 
    8036     7591     7094     6785     6583     6401     6405     6602 
    6899     7252     7512     7678     7911     8278     8760     9182 
    9350     9310     9180     8939     8552     8117     7740     7425 
    7225     7117     6886     6583     6515     6664     6802     6893 
    7007     7227     7663     8214     8652     8969     9219     9348 
    9320     9161     8945     8707     8367     7840     7121     6322 
    5665     5286     5223     5508     6068     6767     7551     8336 
    8934     9302     9555     9632     9468     9250     9023     8707 
    8415     8199     7915     7491     7026     6745     6708     6679 
    6593     6573     6615     6770     7141     7620     8025     8321 
    8595     8866     9032     9011     8792     8484     8271     8197 
    8116     7947     7726     7377     6951     6737     6731     6724 
    6764     6806     6782     6928     7356     7927     8491     8892 
    9117     9212     9135     8985     8838     8607     8298     7977 
    7655     7294     6853     6474     6349     6481     6778     7082 
    7233     7349     7608     7916     8197     8444     8506     8514 
    8664     8607     8310     8158     7935     7572     7383     7215 
    7067     7128     7188     7222     7349     7504     7692     7908 
    8095     8282     8492     8654     8679     8569     8355     8097 
    7869     7654     7412     7173     7017     7072     7357     7588 
    7626     7717     7851     7873     8014     8272     8337     8264 
    8175     8074     8031     7929     7674     7406     7223     7140 
    7142     7186     7241     7334     7462     7524     7561     7753 
    8055     8282     8433     8554     8532     8322     8136     8055 
    7924     7809     7798     7686     7474     7398     7410     7441 
    7533     7601     7592     7573     7592     7651     7724     7792 
    7881     8009     8151     8267     8297     8210     8077     7919 
    7716     7555     7487     7415     7298     7221     7304     7495 
    7604     7670     7855     8037     8070     8032     8052     8183 
    8302     8239     8066     7923     7790     7596     7372     7302 
    7395     7408     7294     7281     7477     7758     7977     8158 
    8411     8607     8499     8205     8014     7954     7892     7777 
    7619     7480     7356     7191     7103     7214     7408     7582 
    7770     7951     8079     8168     8241     8334     8434     8444 
    8305     8087     7886     7709     7538     7410     7307     7183 
    7076     7026     7051     7163     7308     7453     7666     7992 
    8360     8658     8815     8834     8710     8411     8109     7970 
    7798     7456     7138     7009     7003     7013     7072     7246 
    7443     7605     7785     7974     8178     8446     8700     8777 
    8638     8398     8174     7959     7757     7646     7591     7437 
    7171     6901     6687     6640     6856     7173     7419     7643 
    7884     8149     8433     8594     8606     8641     8753     8811 
    8683     8333     7869     7416     7017     6747     6733     6925 
    7111     7176     7188     7271     7473     7758     8059     8337 
    8498     8495     8461     8518     8581     8492     8236     7970 
    7774     7545     7256     7078     7098     7184     7237     7334 
    7541     7773     7901     7912     7920     7986     8071     8167 
    8276     8280     8147     7997     7885     7807     7761     7632 
    7414     7288     7327     7425     7499     7582     7661     7655 
    7636     7750     7956     8160     8334     8379     8244     8052 
    7885     7759     7715     7727     7712     7643     7553     7484 
    7437     7398     7434     7587     7774     7901     7939     7933 
    7944     7992     8021     7942     7827     7859     7933     7842 
    7703     7668     7659     7639     7659     7704     7703     7685 
    7730     7825     7913     7951     7911     7855     7881     7932 
    7901     7828     7792     7749     7668     7611     7608     7619 
    7641     7704     7834     7990     8017     7873     7743     7734 
    7766     7782     7754     7643     7491     7431     7539     7724 
    7854     7904     7902     7885     7869     7825     7744     7717 
    7794     7901     8001     8102     8152     8098     7975     7827 
    7690     7615     7592     7600     7657     7723     7719     7646 
    7624     7719     7844     7925     7954     7920     7836     7749 
    7703     7715     7743     7739     7736     7804     7925     7992 
    7940     7813     7673     7573     7560     7609     7668     7726 
    7763     7742     7703     7715     7777     7847     7936     8047 
    8114     8094     8000     7846     7682     7581     7531     7487 
