Origin Time       2025/03/30 10:18:00
Lat.              34.667
Long.             140.825
Depth. (km)       69
Mag.              4.9
Station Code      SZOH38
Station Lat.      35.0854
Station Long.     138.9779
Station Height(m) -100
Record Time       2025/03/30 10:18:57
Sampling Freq(Hz) 100Hz
Duration Time(s)  120
Dir.              3
Scale Factor      2942(gal)/8224139
Max. Acc. (gal)   0.306
Last Correction   2025/03/30 10:18:57
Memo.             
[...]
  -78166   -78192   -78173   -78142   -78148   -78147   -78106   -78079 
  -78085   -78127   -78173   -78138   -78069   -78058   -78059   -78066 
  -78101   -78129   -78163   -78201   -78186   -78135   -78093   -78057 
  -78050   -78121   -78206   -78200   -78148   -78147   -78170   -78165 
  -78120   -78046   -78012   -78063   -78133   -78179   -78224   -78256 
  -78262   -78254   -78241   -78248   -78273   -78281   -78281   -78281 
  -78252   -78216   -78219   -78231   -78213   -78186   -78160   -78133 
  -78116   -78111   -78129   -78171   -78214   -78259   -78274   -78209 
  -78104   -78035   -78027   -78074   -78139   -78189   -78202   -78194 
  -78214   -78264   -78287   -78248   -78156   -78081   -78073   -78093 
  -78135   -78212   -78247   -78217   -78194   -78227   -78322   -78402 
  -78355   -78246   -78185   -78158   -78142   -78140   -78129   -78132 
  -78159   -78178   -78210   -78246   -78212   -78128   -78079   -78090 
  -78113   -78112   -78117   -78160   -78189   -78174   -78170   -78190 
  -78198   -78186   -78144   -78105   -78109   -78131   -78162   -78214 
  -78255   -78266   -78263   -78233   -78171   -78121   -78094   -78054 
  -78005   -77988   -78021   -78104   -78193   -78240   -78264   -78300 
  -78301   -78248   -78189   -78138   -78119   -78152   -78189   -78205 
  -78210   -78187   -78183   -78214   -78200   -78158   -78181   -78246 
  -78285   -78289   -78252   -78202   -78204   -78225   -78214   -78214 
  -78254   -78279   -78290   -78304   -78306   -78290   -78247   -78171 
  -78098   -78044   -78003   -77985   -78020   -78097   -78155   -78158 
  -78143   -78139   -78119   -78067   -78039   -78066   -78086   -78078 
  -78096   -78174   -78291   -78385   -78379   -78286   -78216   -78214 
  -78193   -78111   -78017   -77955   -77953   -78016   -78109   -78197 
  -78251   -78254   -78237   -78235   -78252   -78298   -78348   -78355 
  -78335   -78335   -78359   -78387   -78398   -78374   -78320   -78262 
  -78217   -78166   -78094   -78034   -78040   -78089   -78098   -78078 
  -78059   -78003   -77930   -77907   -77966   -78090   -78187   -78217 
  -78255   -78289   -78262   -78231   -78228   -78194   -78140   -78119 
  -78092   -78063   -78101   -78173   -78185   -78139   -78084   -78052 
  -78075   -78115   -78109   -78098   -78121   -78135   -78131   -78160 
  -78209   -78223   -78204   -78196   -78224   -78239   -78210   -78210 
  -78252   -78248   -78223   -78239   -78252   -78228   -78202   -78205 
  -78252   -78282   -78240   -78214   -78266   -78312   -78308   -78302 
  -78306   -78277   -78197   -78089   -77997   -77984   -78030   -78065 
  -78093   -78136   -78166   -78162   -78123   -78067   -78052   -78117 
  -78214   -78260   -78250   -78233   -78217   -78196   -78187   -78196 
  -78228   -78254   -78239   -78232   -78263   -78287   -78286   -78250 
  -78175   -78113   -78089   -78101   -78135   -78140   -78106   -78084 
  -78094   -78131   -78155   -78140   -78136   -78162   -78189   -78221 
  -78251   -78260   -78254   -78214   -78156   -78140   -78154   -78159 
  -78182   -78233   -78262   -78229   -78171   -78171   -78220   -78221 
  -78154   -78096   -78078   -78077   -78073   -78046   -78028   -78058 
  -78113   -78175   -78227   -78247   -78247   -78232   -78219   -78240 
  -78267   -78260   -78258   -78254   -78220   -78194   -78189   -78204 
  -78232   -78206   -78152   -78148   -78147   -78112   -78100   -78125 
  -78169   -78208   -78198   -78151   -78140   -78185   -78223   -78185 
  -78104   -78081   -78136   -78208   -78243   -78240   -78209   -78170 
  -78142   -78128   -78133   -78129   -78069   -78017   -78077   -78175 
  -78185   -78166   -78182   -78171   -78121   -78111   -78152   -78189 
  -78167   -78132   -78133   -78142   -78133   -78142   -78166   -78197 
  -78237   -78275   -78304   -78312   -78290   -78285   -78305   -78291 
  -78217   -78120   -78055   -78051   -78067   -78074   -78120   -78193 
  -78179   -78079   -78011   -78019   -78090   -78182   -78241   -78289 
  -78339   -78354   -78325   -78282   -78247   -78224   -78197   -78169 
  -78171   -78213   -78251   -78246   -78204   -78150   -78102   -78078 
  -78074   -78104   -78140   -78121   -78089   -78124   -78179   -78174 
  -78140   -78148   -78192   -78200   -78165   -78148   -78165   -78169 
  -78165   -78173   -78178   -78189   -78205   -78193   -78163   -78150 
  -78140   -78135   -78163   -78216   -78251   -78254   -78210   -78154 
  -78160   -78206   -78217   -78212   -78205   -78186   -78193   -78210 
  -78189   -78173   -78173   -78136   -78115   -78159   -78209   -78254 
  -78289   -78262   -78186   -78140   -78167   -78235   -78267   -78225 
  -78148   -78106   -78129   -78167   -78171   -78146   -78131   -78138 
  -78144   -78139   -78148   -78174   -78196   -78228   -78277   -78283 
  -78225   -78152   -78111   -78113   -78136   -78140   -78133   -78138 
  -78125   -78092   -78081   -78101   -78128   -78170   -78232   -78298 
  -78332   -78324   -78286   -78229   -78198   -78205   -78210   -78219 
  -78228   -78208   -78171   -78123   -78062   -78052   -78109   -78158 
  -78179   -78190   -78162   -78101   -78089   -78120   -78147   -78189 
  -78223   -78212   -78205   -78200   -78155   -78128   -78124   -78111 
  -78108   -78121   -78140   -78178   -78217   -78213   -78170   -78136 
  -78152   -78185   -78186   -78178   -78194   -78214   -78213   -78183 
  -78128   -78086   -78085   -78106   -78136   -78162   -78165   -78175 
  -78233   -78305   -78344   -78339   -78287   -78217   -78171   -78151 
  -78178   -78254   -78291   -78248   -78189   -78167   -78185   -78197 
  -78150   -78100   -78092   -78071   -78043   -78074   -78136   -78147 
  -78128   -78127   -78124   -78127   -78163   -78209   -78241   -78264 
  -78274   -78271   -78243   -78194   -78193   -78221   -78214   -78197 
  -78177   -78127   -78082   -78071   -78077   -78105   -78147   -78150 
  -78113   -78098   -78135   -78178   -78187   -78194   -78232   -78266 
  -78274   -78274   -78250   -78181   -78135   -78169   -78231   -78252 
  -78225   -78197   -78185   -78165   -78129   -78106   -78120   -78151 
  -78155   -78150   -78160   -78162   -78151   -78156   -78167   -78166 
  -78138   -78094   -78089   -78132   -78185   -78225   -78229   -78206 
  -78217   -78247   -78229   -78179   -78140   -78128   -78142   -78152 
  -78150   -78167   -78201   -78198   -78186   -78182   -78143   -78097 
  -78108   -78150   -78196   -78241   -78263   -78250   -78220   -78183 
  -78154   -78152   -78175   -78179   -78140   -78086   -78082   -78158 
  -78236   -78219   -78160   -78151   -78167   -78179   -78193   -78212 
  -78251   -78305   -78339   -78324   -78274   -78221   -78190   -78193 
  -78206   -78217   -78251   -78304   -78318   -78268   -78216   -78224 
  -78256   -78235   -78178   -78142   -78109   -78077   -78092   -78131 
  -78116   -78062   -78023   -78012   -78028   -78050   -78057   -78062 
  -78043   -78001   -78008   -78069   -78129   -78174   -78216   -78244 
  -78227   -78181   -78162   -78190   -78209   -78178   -78132   -78119 
  -78124   -78138   -78178   -78217   -78219   -78194   -78170   -78175 
  -78228   -78282   -78286   -78248   -78214   -78243   -78306   -78316 
  -78298   -78281   -78235   -78206   -78227   -78235   -78193   -78131 
  -78105   -78148   -78217   -78251   -78258   -78241   -78167   -78070 
  -78035   -78040   -78036   -78058   -78089   -78089   -78100   -78109 
  -78081   -78073   -78097   -78113   -78129   -78146   -78138   -78136 
  -78169   -78185   -78165   -78163   -78185   -78189   -78214   -78262 
  -78247   -78187   -78178   -78212   -78240   -78237   -78205   -78202 
  -78258   -78277   -78229   -78206   -78216   -78201   -78182   -78205 
  -78227   -78219   -78205   -78185   -78144   -78109   -78104   -78136 
  -78175   -78185   -78175   -78175   -78181   -78193   -78209   -78216 
  -78212   -78213   -78227   -78246   -78256   -78259   -78248   -78213 
  -78171   -78163   -78190   -78209   -78196   -78165   -78138   -78131 
  -78113   -78073   -78069   -78093   -78089   -78102   -78155   -78165 
  -78142   -78151   -78162   -78143   -78139   -78155   -78170   -78193 
  -78232   -78263   -78259   -78220   -78179   -78183   -78224   -78239 
  -78204   -78177   -78205   -78252   -78267   -78259   -78281   -78317 
  -78304   -78232   -78169   -78162   -78202   -78219   -78171   -78120 
  -78108   -78109   -78127   -78178   -78223   -78232   -78223   -78174 
  -78101   -78078   -78082   -78058   -78044   -78065   -78086   -78109 
  -78136   -78152   -78158   -78155   -78151   -78150   -78140   -78111 
  -78088   -78109   -78155   -78190   -78217   -78235   -78220   -78182 
  -78138   -78085   -78040   -78054   -78125   -78192   -78216   -78212 
  -78220   -78243   -78243   -78216   -78204   -78228   -78244   -78204 
  -78146   -78147   -78181   -78187   -78170   -78155   -78167   -78194 
  -78194   -78183   -78208   -78227   -78209   -78198   -78190   -78167 
  -78154   -78143   -78124   -78139   -78181   -78196   -78212   -78271 
  -78306   -78277   -78244   -78232   -78228   -78225   -78224   -78220 
  -78182   -78113   -78071   -78055   -78039   -78052   -78104   -78150 
  -78170   -78177   -78177   -78173   -78167   -78166   -78185   -78225 
  -78258   -78283   -78310   -78302   -78255   -78205   -78179   -78196 
  -78229   -78227   -78192   -78155   -78115   -78093   -78109   -78102 
  -78070   -78070   -78098   -78139   -78196   -78246   -78268   -78270 
  -78267   -78248   -78216   -78201   -78186   -78143   -78121   -78144 
  -78171   -78178   -78158   -78135   -78160   -78204   -78198   -78171 
  -78173   -78181   -78163   -78152   -78166   -78181   -78178   -78150 
  -78116   -78094   -78073   -78071   -78109   -78163   -78201   -78206 
  -78214   -78250   -78254   -78200   -78150   -78136   -78125   -78084 
  -78059   -78100   -78163   -78204   -78220   -78219   -78212   -78204 
  -78187   -78156   -78135   -78139   -78156   -78174   -78192   -78194 
  -78204   -78236   -78239   -78200   -78163   -78125   -78100   -78106 
  -78127   -78142   -78158   -78186   -78212   -78212   -78198   -78192 
  -78194   -78205   -78204   -78171   -78151   -78185   -78229   -78236 
  -78208   -78165   -78135   -78144   -78179   -78192   -78186   -78197 
  -78206   -78212   -78208   -78148   -78077   -78067   -78088   -78090 
  -78105   -78143   -78201   -78266   -78306   -78320   -78320   -78298 
  -78271   -78270   -78293   -78297   -78267   -78244   -78246   -78247 
  -78229   -78192   -78166   -78173   -78177   -78154   -78125   -78086 
  -78048   -78034   -78059   -78108   -78135   -78144   -78159   -78152 
  -78120   -78112   -78132   -78142   -78148   -78169   -78177   -78171 
  -78155   -78116   -78096   -78108   -78097   -78050   -78011   -77996 
  -78000   -78031   -78093   -78150   -78189   -78217   -78241   -78286 
  -78325   -78298   -78263   -78283   -78316   -78333   -78351   -78366 
  -78371   -78364   -78321   -78246   -78190   -78175   -78175   -78171 
  -78160   -78165   -78182   -78183   -78173   -78170   -78193   -78237 
  -78240   -78192   -78181   -78239   -78306   -78337   -78308   -78233 
  -78163   -78133   -78135   -78150   -78175   -78204   -78221   -78220 
  -78189   -78142   -78131   -78169   -78182   -78139   -78088   -78054 
  -78015   -77976   -77957   -77958   -77970   -77976   -77974   -77981 
  -77981   -77982   -78019   -78058   -78096   -78163   -78227   -78259 
  -78295   -78324   -78320   -78289   -78221   -78142   -78111   -78144 
  -78202   -78235   -78236   -78224   -78206   -78205   -78246   -78327 
  -78416   -78470   -78474   -78457   -78402   -78308   -78235   -78166 
  -78065   -77986   -77958   -77959   -77985   -78015   -78054   -78124 
  -78219   -78329   -78421   -78448   -78420   -78387   -78382   -78402 
  -78414   -78393   -78337   -78255   -78147   -78038   -77988   -78007 
  -78046   -78069   -78047   -77988   -77950   -77915   -77836   -77780 
  -77789   -77859   -77978   -78081   -78117   -78169   -78271   -78359 
  -78405   -78413   -78378   -78341   -78333   -78340   -78327   -78286 
  -78223   -78123   -78012   -77962   -77990   -78052   -78093   -78088 
  -78047   -77993   -77954   -77950   -77977   -78048   -78192   -78370 
  -78480   -78483   -78421   -78340   -78281   -78282   -78318   -78340 
  -78329   -78281   -78236   -78252   -78266   -78204   -78146   -78186 
  -78290   -78385   -78441   -78429   -78306   -78075   -77827   -77692 
  -77691   -77747   -77830   -77955   -78077   -78175   -78301   -78398 
  -78391   -78327   -78239   -78147   -78120   -78217   -78429   -78644 
  -78719   -78615   -78371   -78050   -77757   -77596   -77623   -77746 
  -77795   -77795   -77877   -78020   -78125   -78151   -78129   -78152 
  -78262   -78395   -78482   -78511   -78505   -78510   -78559   -78559 
  -78426   -78219   -78011   -77881   -77895   -77977   -78055   -78171 
  -78294   -78325   -78243   -78084   -77924   -77881   -77989   -78178 
  -78391   -78609   -78795   -78889   -78842   -78646   -78363   -78075 
  -77878   -77820   -77845   -77880   -77942   -78004   -77986   -77917 
  -77865   -77841   -77862   -77931   -78004   -78038   -78036   -78078 
  -78248   -78524   -78777   -78907   -78873   -78652   -78283   -77924 
  -77720   -77699   -77838   -78062   -78196   -78133   -77994   -77949 
  -78030   -78136   -78155   -78090   -78021   -77967   -77924   -77927 
  -78005   -78158   -78331   -78479   -78611   -78706   -78727   -78680 
  -78578   -78468   -78395   -78363   -78385   -78441   -78437   -78301 
  -78059   -77804   -77604   -77442   -77321   -77349   -77571   -77858 
  -78096   -78268   -78387   -78472   -78551   -78591   -78614   -78690 
  -78740   -78630   -78401   -78183   -78075   -78098   -78167   -78132 
  -77923   -77627   -77421   -77419   -77557   -77700   -77828   -78004 
  -78214   -78343   -78364   -78370   -78393   -78429   -78498   -78513 
  -78382   -78189   -78084   -78111   -78212   -78267   -78248   -78240 
  -78251   -78246   -78254   -78243   -78165   -78093   -78092   -78133 
  -78171   -78183   -78208   -78279   -78314   -78239   -78156   -78174 
  -78220   -78182   -78093   -78059   -78109   -78175   -78232   -78273 
  -78246   -78171   -78162   -78231   -78294   -78312   -78285   -78223 
  -78175   -78140   -78077   -78042   -78081   -78159   -78223   -78183 
  -78042   -77936   -77953   -78065   -78217   -78331   -78370   -78383 
  -78371   -78308   -78244   -78196   -78117   -78059   -78098   -78196 
  -78289   -78372   -78447   -78463   -78355   -78142   -77971   -77944 
  -77988   -77976   -77913   -77861   -77846   -77892   -78001   -78129 
  -78217   -78258   -78304   -78366   -78379   -78344   -78309   -78270 
  -78259   -78313   -78372   -78368   -78332   -78302   -78279   -78254 
  -78235   -78220   -78187   -78138   -78116   -78139   -78202   -78268 
  -78270   -78239   -78246   -78224   -78123   -77996   -77888   -77842 
  -77866   -77904   -77930   -77958   -77967   -77949   -77962   -78013 
  -78025   -78023   -78106   -78247   -78337   -78344   -78264   -78146 
  -78112   -78204   -78318   -78364   -78339   -78287   -78258   -78248 
  -78223   -78185   -78182   -78204   -78213   -78224   -78285   -78397 
  -78510   -78556   -78518   -78444   -78367   -78301   -78254   -78201 
  -78143   -78119   -78133   -78167   -78189   -78156   -78092   -78012 
  -77944   -77959   -78031   -78069   -78054   -78001   -77961   -77998 
  -78078   -78119   -78119   -78094   -78084   -78089   -78048   -77966 
  -77888   -77847   -77917   -78125   -78340   -78453   -78491   -78493 
  -78445   -78393   -78406   -78445   -78426   -78354   -78268   -78198 
  -78148   -78105   -78059   -78031   -78047   -78135   -78277   -78379 
  -78379   -78340   -78324   -78309   -78297   -78314   -78322   -78277 
  -78187   -78113   -78106   -78132   -78117   -78070   -78038   -78001 
  -77950   -77904   -77889   -77928   -78005   -78062   -78074   -78069 
  -78066   -78071   -78102   -78160   -78192   -78171   -78129   -78089 
  -78077   -78111   -78127   -78089   -78071   -78139   -78256   -78345 
  -78358   -78331   -78316   -78309   -78312   -78325   -78328   -78341 
  -78391   -78414   -78341   -78187   -78024   -77932   -77939   -77989 
  -78030   -78051   -78063   -78073   -78069   -78040   -77973   -77900 
  -77909   -78021   -78174   -78300   -78339   -78304   -78277   -78267 
  -78227   -78159   -78111   -78129   -78200   -78252   -78270   -78264 
  -78223   -78174   -78177   -78193   -78193   -78224   -78271   -78286 
  -78287   -78278   -78260   -78258   -78239   -78193   -78166   -78167 
  -78167   -78162   -78158   -78165   -78174   -78160   -78151   -78178 
  -78213   -78248   -78328   -78414   -78435   -78408   -78376   -78318 
  -78228   -78142   -78074   -78032   -78034   -78067   -78108   -78140 
  -78150   -78163   -78208   -78221   -78196   -78206   -78227   -78201 
  -78183   -78192   -78162   -78115   -78098   -78104   -78133   -78175 
  -78177   -78158   -78165   -78192   -78225   -78250   -78239   -78182 
  -78121   -78117   -78147   -78135   -78085   -78052   -78034   -78016 
  -78027   -78038   -78038   -78085   -78170   -78235   -78277   -78290 
  -78262   -78233   -78268   -78345   -78402   -78421   -78383   -78286 
  -78175   -78082   -78023   -78036   -78098   -78147   -78177   -78206 
  -78221   -78210   -78163   -78109   -78104   -78144   -78170   -78150 
  -78111   -78096   -78109   -78119   -78106   -78075   -78024   -77997 
  -78032   -78090   -78120   -78136   -78151   -78158   -78158   -78167 
  -78190   -78210   -78219   -78209   -78187   -78187   -78209   -78233 
  -78264   -78302   -78320   -78281   -78212   -78185   -78214   -78255 
  -78255   -78212   -78175   -78186   -78223   -78246   -78256   -78239 
  -78151   -78023   -77939   -77896   -77873   -77909   -77996   -78089 
  -78178   -78223   -78190   -78129   -78105   -78155   -78239   -78293 
  -78329   -78355   -78345   -78318   -78304   -78298   -78294   -78279 
  -78263   -78241   -78183   -78090   -78020   -78011   -78048   -78113 
  -78189   -78246   -78258   -78250   -78259   -78291   -78344   -78394 
  -78421   -78422   -78412   -78387   -78318   -78187   -78059   -77982 
  -77944   -77949   -77997   -78069   -78129   -78133   -78089   -78058 
  -78078   -78143   -78200   -78205   -78189   -78192   -78193   -78183 
  -78181   -78194   -78208   -78197   -78142   -78051   -77992   -78007 
  -78069   -78146   -78208   -78263   -78327   -78351   -78316   -78262 
  -78209   -78175   -78189   -78228   -78266   -78291   -78278   -78228 
  -78189   -78193   -78229   -78254   -78246   -78201   -78131   -78093 
  -78112   -78151   -78163   -78111   -78027   -77988   -77998   -78031 
  -78057   -78052   -78065   -78133   -78206   -78236   -78239   -78235 
  -78214   -78173   -78132   -78131   -78162   -78187   -78205   -78224 
  -78235   -78252   -78273   -78259   -78223   -78187   -78147   -78101 
  -78051   -78009   -78012   -78066   -78139   -78192   -78202   -78190 
  -78166   -78138   -78135   -78166   -78193   -78182   -78169   -78209 
  -78273   -78290   -78266   -78240   -78229   -78220   -78190   -78132 
  -78057   -77989   -77978   -78044   -78144   -78232   -78289   -78312 
  -78324   -78344   -78356   -78333   -78282   -78240   -78205   -78163 
  -78131   -78129   -78140   -78140   -78143   -78160   -78147   -78090 
  -78042   -78034   -78069   -78121   -78158   -78189   -78233   -78267 
