Origin Time       2025/03/30 10:18:00
Lat.              34.667
Long.             140.825
Depth. (km)       69
Mag.              4.9
Station Code      SZOH54
Station Lat.      35.0417
Station Long.     139.1685
Station Height(m) -90
Record Time       2025/03/30 10:18:54
Sampling Freq(Hz) 100Hz
Duration Time(s)  120
Dir.              1
Scale Factor      2940(gal)/6170270
Max. Acc. (gal)   0.542
Last Correction   2025/03/30 10:18:39
Memo.             
[...]
  -31076   -31147   -31177   -31150   -31123   -31101   -31077   -31066 
  -31072   -31077   -31098   -31155   -31206   -31205   -31161   -31102 
  -31064   -31060   -31080   -31139   -31216   -31229   -31198   -31185 
  -31136   -31032   -30979   -31021   -31073   -31083   -31096   -31147 
  -31190   -31188   -31178   -31186   -31174   -31147   -31148   -31172 
  -31193   -31205   -31224   -31244   -31237   -31216   -31223   -31244 
  -31252   -31241   -31195   -31120   -31062   -31020   -30981   -30978 
  -31008   -31030   -31050   -31087   -31140   -31183   -31191   -31167 
  -31129   -31100   -31101   -31135   -31176   -31195   -31185   -31166 
  -31157   -31158   -31162   -31169   -31158   -31118   -31089   -31125 
  -31214   -31263   -31240   -31201   -31166   -31124   -31093   -31081 
  -31080   -31083   -31075   -31077   -31127   -31196   -31239   -31265 
  -31271   -31237   -31170   -31097   -31061   -31070   -31091   -31118 
  -31153   -31162   -31112   -31041   -31027   -31084   -31161   -31207 
  -31197   -31175   -31181   -31201   -31228   -31253   -31229   -31155 
  -31075   -31027   -31031   -31053   -31055   -31064   -31101   -31140 
  -31161   -31152   -31106   -31061   -31074   -31131   -31167   -31170 
  -31170   -31194   -31231   -31233   -31181   -31127   -31116   -31146 
  -31199   -31244   -31258   -31245   -31210   -31159   -31092   -31030 
  -31013   -31055   -31120   -31167   -31184   -31174   -31144   -31124 
  -31117   -31088   -31043   -31034   -31079   -31155   -31226   -31249 
  -31218   -31176   -31168   -31195   -31212   -31191   -31173   -31181 
  -31174   -31134   -31094   -31069   -31064   -31087   -31114   -31110 
  -31086   -31092   -31131   -31157   -31145   -31117   -31110   -31137 
  -31166   -31171   -31177   -31199   -31220   -31249   -31273   -31232 
  -31131   -31050   -31039   -31093   -31162   -31191   -31183   -31168 
  -31133   -31070   -31015   -30998   -31012   -31036   -31057   -31081 
  -31110   -31140   -31159   -31153   -31128   -31122   -31165   -31226 
  -31249   -31239   -31245   -31259   -31240   -31191   -31152   -31147 
  -31148   -31123   -31095   -31103   -31127   -31126   -31101   -31053 
  -30989   -30951   -30974   -31034   -31089   -31110   -31111   -31125 
  -31150   -31174   -31191   -31183   -31151   -31136   -31161   -31205 
  -31225   -31211   -31188   -31181   -31201   -31244   -31270   -31259 
  -31253   -31265   -31260   -31196   -31095   -31045   -31079   -31135 
  -31168   -31186   -31192   -31173   -31137   -31112   -31107   -31097 
  -31060   -31005   -30955   -30929   -30946   -31011   -31098   -31164 
  -31195   -31195   -31181   -31167   -31155   -31157   -31171   -31179 
  -31187   -31206   -31227   -31256   -31293   -31313   -31310   -31297 
  -31263   -31199   -31137   -31109   -31109   -31105   -31088   -31083 
  -31097   -31108   -31110   -31095   -31047   -30992   -30969   -30976 
  -30985   -30991   -31014   -31046   -31062   -31060   -31065   -31104 
  -31160   -31207   -31249   -31284   -31286   -31266   -31259   -31268 
  -31267   -31243   -31212   -31198   -31201   -31191   -31163   -31146 
  -31147   -31133   -31106   -31078   -31054   -31043   -31042   -31030 
  -31013   -31011   -31032   -31074   -31128   -31179   -31203   -31198 
  -31205   -31221   -31203   -31159   -31129   -31124   -31124   -31109 
  -31095   -31106   -31138   -31178   -31211   -31217   -31191   -31160 
  -31154   -31180   -31209   -31199   -31143   -31087   -31073   -31079 
  -31069   -31054   -31050   -31058   -31087   -31125   -31154   -31174 
  -31178   -31169   -31160   -31152   -31160   -31201   -31270   -31329 
  -31342   -31300   -31218   -31146   -31115   -31110   -31121   -31137 
  -31143   -31132   -31092   -31046   -31034   -31057   -31097   -31142 
  -31168   -31159   -31128   -31090   -31032   -30968   -30940   -30962 
  -31013   -31074   -31135   -31195   -31249   -31263   -31226   -31172 
  -31138   -31136   -31159   -31190   -31216   -31231   -31236   -31218 
  -31180   -31153   -31158   -31167   -31150   -31104   -31052   -31033 
  -31055   -31086   -31093   -31060   -31011   -30998   -31034   -31095 
  -31151   -31184   -31201   -31223   -31256   -31293   -31306   -31274 
  -31221   -31176   -31158   -31173   -31199   -31216   -31236   -31249 
  -31231   -31200   -31179   -31159   -31136   -31124   -31131   -31144 
  -31142   -31122   -31098   -31072   -31040   -31024   -31030   -31036 
  -31054   -31101   -31157   -31195   -31206   -31206   -31210   -31202 
  -31169   -31130   -31095   -31053   -31017   -31016   -31044   -31073 
  -31109   -31167   -31220   -31240   -31249   -31273   -31283   -31258 
  -31206   -31158   -31133   -31119   -31104   -31105   -31118   -31124 
  -31130   -31125   -31096   -31059   -31027   -31016   -31036   -31060 
  -31070   -31093   -31136   -31176   -31196   -31203   -31215   -31230 
  -31240   -31239   -31216   -31191   -31188   -31198   -31219   -31237 
  -31221   -31181   -31142   -31118   -31108   -31093   -31076   -31084 
  -31091   -31075   -31057   -31051   -31061   -31087   -31112   -31141 
  -31179   -31195   -31172   -31127   -31083   -31073   -31092   -31103 
  -31106   -31120   -31141   -31153   -31147   -31138   -31137   -31135 
  -31120   -31090   -31055   -31041   -31060   -31114   -31179   -31216 
  -31224   -31227   -31207   -31160   -31124   -31130   -31167   -31195 
  -31195   -31183   -31175   -31176   -31188   -31205   -31199   -31161 
  -31124   -31129   -31175   -31221   -31235   -31224   -31198   -31167 
  -31157   -31167   -31172   -31172   -31166   -31139   -31099   -31064 
  -31048   -31073   -31121   -31148   -31154   -31154   -31144   -31134 
  -31135   -31135   -31144   -31165   -31177   -31178   -31171   -31146 
  -31130   -31147   -31168   -31165   -31135   -31107   -31105   -31119 
  -31133   -31138   -31114   -31066   -31033   -31048   -31102   -31165 
  -31211   -31221   -31197   -31150   -31092   -31046   -31038   -31066 
  -31099   -31118   -31131   -31144   -31151   -31154   -31161   -31165 
  -31154   -31128   -31111   -31112   -31112   -31117   -31136   -31152 
  -31146   -31137   -31146   -31156   -31146   -31126   -31119   -31125 
  -31130   -31129   -31131   -31130   -31120   -31118   -31121   -31108 
  -31098   -31108   -31124   -31150   -31169   -31160   -31142   -31135 
  -31141   -31144   -31147   -31168   -31194   -31198   -31188   -31179 
  -31159   -31127   -31110   -31120   -31144   -31162   -31176   -31178 
  -31158   -31138   -31133   -31144   -31170   -31191   -31191   -31184 
  -31179   -31169   -31159   -31163   -31161   -31131   -31102   -31112 
  -31148   -31180   -31184   -31160   -31118   -31079   -31070   -31090 
  -31113   -31123   -31106   -31069   -31038   -31035   -31063   -31113 
  -31154   -31175   -31189   -31203   -31208   -31202   -31187   -31170 
  -31158   -31154   -31157   -31157   -31150   -31143   -31130   -31110 
  -31091   -31079   -31087   -31116   -31150   -31164   -31154   -31141 
  -31130   -31117   -31101   -31089   -31088   -31098   -31122   -31159 
  -31186   -31193   -31196   -31192   -31162   -31107   -31064   -31069 
  -31121   -31174   -31191   -31173   -31148   -31130   -31129   -31145 
  -31160   -31165   -31181   -31218   -31254   -31271   -31263   -31224 
  -31170   -31131   -31120   -31124   -31128   -31141   -31162   -31167 
  -31148   -31122   -31090   -31051   -31034   -31059   -31091   -31096 
  -31093   -31107   -31120   -31111   -31104   -31121   -31143   -31141 
  -31125   -31117   -31130   -31159   -31198   -31238   -31256   -31235 
  -31191   -31145   -31108   -31086   -31085   -31093   -31098   -31106 
  -31112   -31112   -31125   -31148   -31158   -31151   -31139   -31124 
  -31110   -31104   -31116   -31141   -31163   -31179   -31187   -31188 
  -31193   -31205   -31213   -31206   -31193   -31186   -31184   -31181 
  -31175   -31162   -31145   -31130   -31111   -31106   -31130   -31172 
  -31209   -31219   -31196   -31168   -31144   -31118   -31107   -31111 
  -31117   -31136   -31161   -31176   -31170   -31144   -31120   -31110 
  -31109   -31117   -31133   -31148   -31159   -31158   -31136   -31106 
  -31086   -31087   -31101   -31121   -31136   -31121   -31088   -31090 
  -31123   -31144   -31141   -31120   -31095   -31088   -31098   -31110 
  -31112   -31093   -31062   -31040   -31036   -31050   -31070   -31089 
  -31103   -31124   -31153   -31175   -31194   -31201   -31193   -31190 
  -31195   -31197   -31198   -31191   -31171   -31140   -31113   -31107 
  -31113   -31118   -31122   -31129   -31142   -31157   -31169   -31180 
  -31182   -31171   -31163   -31170   -31189   -31204   -31203   -31195 
  -31192   -31194   -31192   -31174   -31144   -31113   -31097   -31103 
  -31121   -31150   -31183   -31202   -31204   -31184   -31152   -31137 
  -31144   -31167   -31199   -31216   -31203   -31173   -31145   -31120 
  -31093   -31071   -31068   -31085   -31111   -31132   -31145   -31157 
  -31154   -31121   -31097   -31115   -31150   -31178   -31200   -31201 
  -31174   -31137   -31116   -31110   -31107   -31105   -31115   -31124 
  -31116   -31105   -31105   -31102   -31089   -31075   -31077   -31101 
  -31139   -31176   -31194   -31192   -31183   -31177   -31173   -31173 
  -31184   -31197   -31196   -31184   -31170   -31149   -31125   -31119 
  -31141   -31169   -31178   -31169   -31154   -31142   -31146   -31160 
  -31165   -31156   -31141   -31145   -31174   -31182   -31141   -31096 
  -31088   -31098   -31110   -31129   -31140   -31132   -31122   -31122 
  -31111   -31080   -31050   -31045   -31061   -31077   -31088   -31106 
  -31127   -31145   -31163   -31175   -31172   -31151   -31127   -31118 
  -31127   -31145   -31165   -31169   -31154   -31133   -31117   -31117 
  -31113   -31085   -31064   -31084   -31126   -31156   -31167   -31177 
  -31194   -31201   -31199   -31201   -31195   -31170   -31128   -31081 
  -31056   -31064   -31090   -31114   -31130   -31141   -31147   -31153 
  -31154   -31152   -31146   -31137   -31140   -31155   -31166   -31170 
  -31161   -31138   -31106   -31092   -31117   -31163   -31196   -31205 
  -31192   -31168   -31152   -31154   -31166   -31182   -31204   -31231 
  -31255   -31260   -31232   -31174   -31123   -31110   -31120   -31140 
  -31165   -31175   -31164   -31140   -31109   -31073   -31034   -31013 
  -31031   -31072   -31114   -31161   -31201   -31215   -31211   -31204 
  -31192   -31175   -31167   -31168   -31171   -31177   -31174   -31173 
  -31178   -31163   -31120   -31062   -31003   -30966   -30975   -31023 
  -31084   -31126   -31130   -31097   -31070   -31089   -31129   -31157 
  -31184   -31201   -31194   -31176   -31159   -31148   -31145   -31135 
  -31123   -31130   -31152   -31169   -31178   -31191   -31203   -31196 
  -31163   -31131   -31126   -31141   -31160   -31175   -31187   -31197 
  -31185   -31152   -31133   -31135   -31138   -31143   -31151   -31156 
  -31157   -31150   -31133   -31110   -31079   -31052   -31042   -31051 
  -31074   -31108   -31137   -31150   -31142   -31130   -31135   -31151 
  -31171   -31203   -31240   -31261   -31264   -31246   -31210   -31176 
  -31162   -31163   -31154   -31134   -31116   -31098   -31076   -31063 
  -31062   -31056   -31054   -31069   -31078   -31081   -31096   -31100 
  -31093   -31105   -31127   -31144   -31161   -31175   -31184   -31194 
  -31206   -31215   -31212   -31191   -31170   -31154   -31150   -31177 
  -31215   -31230   -31219   -31185   -31143   -31108   -31075   -31055 
  -31063   -31085   -31103   -31117   -31124   -31117   -31113   -31124 
  -31134   -31140   -31156   -31175   -31190   -31200   -31188   -31151 
  -31121   -31120   -31132   -31139   -31138   -31127   -31110   -31097 
  -31100   -31123   -31151   -31170   -31183   -31192   -31189   -31176 
  -31172   -31176   -31176   -31175   -31172   -31157   -31125   -31089 
  -31065   -31060   -31077   -31111   -31131   -31130   -31107   -31069 
  -31052   -31075   -31117   -31145   -31155   -31165   -31181   -31192 
  -31201   -31210   -31210   -31207   -31216   -31224   -31206   -31173 
  -31152   -31148   -31150   -31146   -31141   -31142   -31144   -31147 
  -31145   -31126   -31095   -31077   -31082   -31092   -31096   -31103 
  -31112   -31106   -31092   -31092   -31104   -31109   -31101   -31093 
  -31096   -31099   -31099   -31110   -31128   -31141   -31158   -31176 
  -31172   -31147   -31127   -31106   -31070   -31041   -31038   -31048 
  -31059   -31059   -31045   -31032   -31033   -31044   -31045   -31019 
  -30984   -30967   -30988   -31057   -31136   -31180   -31202   -31219 
  -31204   -31149   -31103   -31104   -31134   -31166   -31198   -31241 
  -31289   -31319   -31328   -31326   -31308   -31280   -31265   -31274 
  -31289   -31291   -31291   -31301   -31291   -31252   -31221   -31222 
  -31248   -31279   -31302   -31311   -31303   -31279   -31241   -31184 
  -31123   -31082   -31060   -31046   -31045   -31054   -31079   -31129 
  -31175   -31184   -31169   -31147   -31136   -31152   -31199   -31267 
  -31327   -31349   -31344   -31327   -31288   -31237   -31197   -31163 
  -31114   -31044   -30964   -30905   -30887   -30904   -30952   -31016 
  -31084   -31164   -31260   -31366   -31471   -31555   -31600   -31587 
  -31504   -31377   -31232   -31071   -30913   -30779   -30653   -30523 
  -30416   -30374   -30420   -30525   -30627   -30695   -30722   -30713 
  -30684   -30664   -30658   -30667   -30719   -30823   -30943   -31032 
  -31068   -31073   -31107   -31211   -31371   -31538   -31673   -31776 
  -31886   -32030   -32182   -32279   -32269   -32136   -31899   -31588 
  -31252   -30963   -30753   -30604   -30488   -30377   -30267   -30202 
  -30213   -30279   -30364   -30444   -30509   -30581   -30701   -30878 
  -31088   -31291   -31457   -31582   -31663   -31685   -31670   -31669 
  -31706   -31762   -31828   -31900   -31956   -31980   -31963   -31894 
  -31798   -31723   -31671   -31618   -31552   -31467   -31349   -31209 
  -31067   -30921   -30763   -30597   -30435   -30310   -30260   -30306 
  -30444   -30636   -30831   -30985   -31067   -31092   -31111   -31143 
  -31181   -31223   -31250   -31246   -31226   -31199   -31187   -31234 
  -31332   -31456   -31589   -31684   -31692   -31577   -31335   -31026 
  -30742   -30555   -30484   -30492   -30527   -30544   -30536   -30553 
  -30643   -30799   -30990   -31203   -31412   -31573   -31651   -31657 
  -31627   -31574   -31494   -31389   -31267   -31130   -30988   -30849 
  -30736   -30672   -30673   -30756   -30919   -31105   -31259   -31367 
  -31424   -31453   -31474   -31471   -31423   -31335   -31230   -31147 
  -31094   -31057   -31027   -30979   -30911   -30860   -30847   -30881 
  -30973   -31098   -31219   -31318   -31391   -31446   -31493   -31528 
  -31521   -31436   -31291   -31138   -31012   -30934   -30903   -30904 
  -30948   -31037   -31148   -31269   -31386   -31478   -31531   -31522 
  -31432   -31278   -31086   -30900   -30778   -30723   -30692   -30670 
  -30670   -30695   -30734   -30782   -30863   -30970   -31061   -31119 
  -31141   -31128   -31118   -31154   -31229   -31306   -31358   -31387 
  -31395   -31381   -31342   -31285   -31233   -31208   -31210   -31230 
  -31265   -31305   -31343   -31385   -31430   -31464   -31483   -31474 
  -31437   -31383   -31316   -31240   -31151   -31043   -30930   -30832 
  -30760   -30720   -30711   -30707   -30703   -30726   -30783   -30875 
  -31011   -31175   -31336   -31481   -31602   -31676   -31705   -31724 
  -31736   -31715   -31635   -31485   -31281   -31075   -30919   -30814 
  -30729   -30662   -30641   -30668   -30726   -30804   -30886   -30926 
  -30897   -30838   -30790   -30758   -30741   -30758   -30828   -30953 
  -31107   -31264   -31400   -31499   -31560   -31593   -31616   -31636 
  -31645   -31629   -31583   -31506   -31399   -31281   -31173   -31080 
  -30996   -30928   -30879   -30844   -30834   -30867   -30927   -30977 
  -31005   -31032   -31065   -31092   -31126   -31178   -31226   -31241 
  -31213   -31133   -31010   -30893   -30819   -30771   -30742   -30750 
  -30785   -30834   -30909   -31032   -31194   -31353   -31469   -31539 
  -31580   -31609   -31638   -31656   -31618   -31503   -31347   -31204 
  -31089   -30989   -30905   -30850   -30821   -30808   -30805   -30811 
  -30829   -30865   -30931   -31028   -31136   -31244   -31354   -31448 
  -31511   -31549   -31558   -31539   -31524   -31515   -31492   -31454 
  -31399   -31312   -31199   -31086   -30986   -30912   -30872   -30857 
  -30852   -30864   -30901   -30973   -31078   -31184   -31271   -31354 
  -31428   -31480   -31517   -31526   -31486   -31406   -31290   -31128 
  -30934   -30765   -30688   -30721   -30808   -30861   -30849   -30793 
  -30732   -30707   -30743   -30831   -30943   -31050   -31142   -31227 
  -31303   -31365   -31415   -31452   -31480   -31515   -31558   -31582 
  -31544   -31429   -31259   -31084   -30967   -30945   -30992   -31067 
  -31133   -31171   -31181   -31155   -31095   -31023   -30961   -30910 
  -30868   -30843   -30840   -30846   -30843   -30828   -30819   -30853 
  -30948   -31059   -31139   -31186   -31212   -31225   -31247   -31287 
  -31338   -31402   -31470   -31520   -31535   -31503   -31442   -31393 
  -31370   -31347   -31302   -31242   -31185   -31124   -31062   -31021 
  -31001   -30985   -30973   -30960   -30943   -30922   -30904   -30896 
  -30890   -30871   -30866   -30907   -30984   -31078   -31190   -31307 
  -31398   -31452   -31469   -31461   -31456   -31462   -31451   -31414 
  -31370   -31338   -31315   -31292   -31270   -31255   -31233   -31182 
  -31106   -31031   -30978   -30950   -30940   -30946   -30962   -30966 
  -30953   -30941   -30945   -30982   -31046   -31116   -31180   -31237 
  -31267   -31256   -31214   -31157   -31100   -31065   -31051   -31034 
  -31008   -30991   -30994   -30999   -30984   -30958   -30938   -30915 
  -30881   -30856   -30851   -30859   -30881   -30926   -30984   -31027 
  -31053   -31090   -31152   -31232   -31307   -31356   -31382   -31401 
  -31423   -31456   -31488   -31490   -31462   -31430   -31399   -31376 
  -31364   -31352   -31333   -31299   -31246   -31175   -31100   -31054 
  -31052   -31079   -31110   -31123   -31108   -31073   -31027   -30985 
  -30961   -30958   -30960   -30960   -30972   -31000   -31037   -31088 
  -31154   -31221   -31270   -31307   -31350   -31384   -31385   -31355 
  -31307   -31249   -31183   -31125   -31085   -31041   -30973   -30913 
  -30890   -30895   -30921   -30958   -30996   -31022   -31015   -30994 
  -30999   -31025   -31068   -31142   -31230   -31302   -31328   -31301 
  -31248   -31210   -31203   -31221   -31260   -31287   -31275   -31258 
  -31261   -31265   -31260   -31249   -31219   -31154   -31063   -30975 
  -30912   -30886   -30892   -30899   -30906   -30940   -30996   -31059 
  -31134   -31213   -31275   -31326   -31380   -31435   -31472   -31477 
  -31451   -31402   -31332   -31255   -31193   -31161   -31162   -31173 
  -31164   -31136   -31115   -31116   -31140   -31168   -31164   -31114 
  -31037   -30957   -30881   -30839   -30858   -30910   -30960   -31004 
  -31051   -31105   -31153   -31180   -31180   -31161   -31138   -31133 
  -31154   -31191   -31235   -31284   -31326   -31363   -31381   -31341 
  -31260   -31188   -31137   -31104   -31093   -31093   -31094   -31095 
  -31107   -31134   -31165   -31177   -31158   -31118   -31074   -31042 
