Origin Time       2025/03/30 10:18:00
Lat.              34.667
Long.             140.825
Depth. (km)       69
Mag.              4.9
Station Code      SZOH35
Station Lat.      34.9467
Station Long.     139.0855
Station Height(m) 140
Record Time       2025/03/30 10:18:55
Sampling Freq(Hz) 100Hz
Duration Time(s)  120
Dir.              5
Scale Factor      7845(gal)/8223790
Max. Acc. (gal)   1.426
Last Correction   2025/03/30 10:18:55
Memo.             
[...]
    -615     -568     -540     -585     -691     -766     -801     -843 
    -872     -866     -864     -849     -797     -773     -783     -739 
    -648     -607     -635     -657     -643     -610     -579     -562 
    -545     -549     -641     -781     -878     -911     -857     -715 
    -607     -612     -631     -594     -554     -523     -490     -490 
    -503     -486     -463     -433     -364     -286     -240     -228 
    -244     -261     -236     -193     -203     -286     -387     -468 
    -526     -552     -561     -585     -604     -615     -641     -689 
    -756     -791     -762     -724     -742     -818     -915     -986 
   -1021    -1059    -1089    -1061    -1016    -1031    -1080    -1071 
    -963     -804     -639     -494     -395     -314     -233     -205 
    -236     -271     -291     -268     -167      -60      -37      -67 
    -126     -245     -387     -515     -641     -757     -841     -905 
    -962     -978     -938     -936    -1034    -1142    -1189    -1213 
   -1220    -1169    -1058     -889     -676     -479     -355     -290 
    -220     -136     -102     -116     -108      -62      -29      -48 
     -85     -109     -124     -182     -336     -484     -526     -523 
    -530     -569     -666     -770     -830     -900    -1019    -1101 
   -1090    -1035     -946     -831     -758     -735     -711     -688 
    -695     -708     -695     -675     -684     -695     -664     -587 
    -471     -379     -359     -345     -348     -440     -553     -608 
    -634     -652     -669     -712     -757     -745     -691     -639 
    -599     -571     -567     -579     -577     -569     -572     -553 
    -504     -464     -427     -392     -390     -419     -465     -540 
    -618     -677     -729     -746     -712     -679     -689     -727 
    -757     -764     -765     -758     -742     -739     -749     -766 
    -787     -731     -592     -477     -410     -346     -325     -363 
    -406     -427     -436     -410     -348     -288     -280     -329 
    -390     -449     -537     -649     -747     -811     -831     -835 
    -862     -897     -908     -892     -865     -839     -803     -742 
    -684     -658     -618     -526     -409     -279     -164     -137 
    -197     -276     -342     -386     -414     -461     -538     -629 
    -734     -850     -957    -1028    -1034     -997     -976     -954 
    -895     -810     -733     -680     -639     -622     -626     -592 
    -514     -441     -361     -270     -203     -163     -126     -112 
    -141     -218     -318     -406     -452     -471     -492     -526 
    -577     -665     -788     -907     -994    -1075    -1143    -1159 
   -1150    -1119    -1021     -899     -815     -739     -658     -610 
    -585     -554     -479     -376     -288     -206     -145     -148 
    -174     -179     -180     -191     -234     -298     -332     -371 
    -468     -565     -631     -702     -757     -803     -885     -963 
    -993     -999     -986     -967     -984    -1020    -1015     -978 
    -946     -880     -760     -638     -544     -476     -441     -406 
    -372     -403     -468     -487     -469     -459     -457     -465 
    -487     -526     -573     -619     -646     -618     -538     -488 
    -480     -453     -413     -402     -396     -341     -276     -257 
    -230     -193     -238     -328     -344     -367     -483     -575 
    -604     -680     -793     -882     -959    -1048    -1121    -1147 
   -1132    -1117    -1113    -1090    -1043     -972     -881     -795 
    -708     -631     -615     -627     -604     -567     -499     -379 
    -291     -279     -264     -201     -145     -148     -179     -182 
    -141     -137     -236     -388     -523     -606     -648     -702 
    -751     -747     -731     -761     -814     -859     -884     -877 
    -873     -874     -858     -841     -807     -734     -646     -550 
    -463     -432     -454     -477     -486     -490     -471     -429 
    -433     -510     -584     -635     -720     -801     -830     -855 
    -885     -874     -839     -795     -688     -542     -448     -411 
    -392     -392     -426     -468     -486     -486     -464     -400 
    -361     -406     -477     -542     -603     -635     -664     -700 
    -689     -641     -626     -652     -691     -723     -727     -715 
    -687     -608     -518     -484     -500     -504     -480     -452 
    -448     -453     -467     -519     -595     -643     -673     -688 
    -652     -588     -556     -530     -522     -577     -661     -757 
    -843     -854     -820     -818     -855     -905     -901     -805 
    -670     -544     -446     -400     -394     -436     -487     -488 
    -498     -511     -475     -448     -442     -434     -441     -449 
    -434     -437     -492     -572     -656     -745     -814     -846 
    -846     -796     -711     -657     -653     -668     -680     -664 
    -639     -657     -662     -629     -619     -621     -579     -491 
    -378     -291     -267     -290     -365     -475     -560     -622 
    -652     -626     -573     -545     -576     -623     -639     -649 
    -658     -662     -714     -795     -837     -864     -873     -826 
    -791     -792     -758     -724     -741     -751     -743     -747 
    -716     -626     -531     -465     -415     -372     -360     -387 
    -399     -365     -314     -274     -257     -280     -314     -321 
    -311     -322     -361     -396     -410     -444     -525     -621 
    -720     -831     -899     -895     -885     -891     -886     -893 
    -912     -908     -900     -905     -876     -800     -724     -662 
    -581     -479     -391     -328     -270     -220     -175     -151 
    -203     -307     -380     -434     -514     -603     -654     -634 
    -602     -618     -648     -673     -734     -797     -843     -916 
    -999    -1042    -1071    -1093    -1058     -981     -908     -837 
    -776     -743     -712     -676     -654     -616     -522     -426 
    -363     -298     -240     -221     -244     -299     -375     -444 
    -480     -486     -483     -453     -382     -321     -290     -278 
    -301     -349     -403     -464     -504     -507     -491     -469 
    -463     -486     -519     -567     -654     -761     -846     -922 
    -994    -1028    -1003     -946     -915     -938     -980     -989 
    -963     -930     -878     -797     -702     -604     -502     -406 
    -324     -253     -222     -222     -213     -201     -195     -198 
    -247     -345     -429     -503     -603     -683     -704     -697 
    -685     -673     -676     -693     -711     -723     -722     -716 
    -735     -774     -807     -830     -797     -699     -598     -526 
    -479     -460     -471     -522     -583     -598     -587     -571 
    -548     -537     -550     -587     -643     -708     -772     -822 
    -838     -795     -700     -606     -554     -549     -594     -660 
    -708     -741     -756     -711     -603     -496     -417     -341 
    -309     -360     -459     -568     -665     -706     -658     -545 
    -454     -415     -387     -380     -422     -487     -577     -691 
    -780     -820     -818     -758     -645     -525     -437     -363 
    -310     -336     -410     -465     -499     -515     -499     -476 
    -465     -467     -483     -515     -558     -603     -658     -724 
    -799     -891     -973    -1000     -997    -1005     -992     -943 
    -896     -838     -760     -684     -611     -549     -500     -459 
    -433     -411     -390     -392     -415     -430     -427     -410 
    -402     -421     -464     -508     -537     -565     -592     -599 
    -612     -657     -722     -808     -904     -951     -913     -835 
    -769     -722     -675     -637     -634     -650     -634     -575 
    -502     -429     -387     -371     -315     -251     -237     -241 
    -252     -278     -283     -303     -379     -452     -480     -494 
    -499     -518     -584     -661     -699     -720     -741     -750 
    -783     -857     -938    -1000    -1046    -1059    -1028     -973 
    -912     -839     -776     -772     -804     -816     -801     -777 
    -758     -745     -704     -634     -571     -510     -425     -322 
    -247     -210     -184     -166     -170     -198     -226     -213 
    -183     -202     -251     -287     -328     -368     -400     -448 
    -511     -548     -550     -565     -621     -707     -822     -923 
    -973    -1030    -1119    -1144    -1093    -1053    -1013     -954 
    -922     -889     -837     -810     -778     -742     -735     -687 
    -576     -492     -427     -349     -272     -218     -229     -322 
    -444     -522     -558     -591     -580     -494     -379     -275 
    -199     -189     -257     -373     -514     -654     -745     -761 
    -720     -642     -554     -492     -463     -468     -496     -521 
    -554     -625     -706     -772     -832     -872     -873     -864 
    -846     -803     -773     -793     -818     -797     -758     -716 
    -666     -629     -604     -567     -549     -576     -579     -556 
    -552     -515     -463     -469     -467     -417     -403     -421 
    -417     -436     -510     -584     -606     -611     -611     -592 
    -580     -573     -567     -587     -603     -602     -621     -649 
    -661     -666     -669     -673     -677     -665     -656     -664 
    -661     -643     -650     -673     -679     -657     -616     -552 
    -483     -448     -449     -464     -494     -523     -544     -571 
    -604     -635     -665     -689     -693     -692     -687     -657 
    -619     -600     -581     -565     -567     -576     -581     -571 
    -558     -577     -611     -616     -591     -548     -503     -483 
    -495     -538     -606     -637     -623     -616     -587     -522 
    -464     -415     -376     -367     -375     -368     -364     -375 
    -382     -372     -364     -387     -461     -561     -616     -637 
    -691     -758     -792     -820     -857     -901     -957     -989 
    -993    -1000    -1004    -1011    -1039    -1063    -1046     -976 
    -888     -824     -781     -722     -634     -558     -531     -519 
    -476     -407     -329     -255     -202     -155      -86      -18 
      -1      -29      -60      -98     -190     -326     -465     -575 
    -633     -643     -646     -668     -711     -769     -842     -936 
   -1013    -1066    -1124    -1155    -1151    -1159    -1136    -1050 
    -935     -791     -666     -627     -622     -583     -527     -487 
    -467     -450     -438     -444     -471     -518     -562     -573 
    -567     -572     -599     -637     -656     -627     -565     -468 
    -346     -251     -174     -116     -105     -130     -162     -209 
    -282     -324     -292     -220     -145      -67        5       33 
     -12     -117     -270     -465     -679     -886    -1093    -1256 
   -1333    -1360    -1352    -1301    -1215    -1078     -922     -784 
    -641     -508     -452     -459     -479     -495     -525     -612 
    -758     -919    -1069    -1181    -1215    -1161    -1035     -859 
    -700     -635     -675     -769     -882     -982    -1051    -1088 
   -1097    -1100    -1139    -1198    -1183    -1040     -773     -436 
    -137       48       76      -64     -218     -229     -103      132 
     446      710      839      827      685      499      353      211 
      28     -160     -287     -344     -394     -449     -477     -484 
    -526     -658     -891    -1182    -1458    -1649    -1738    -1729 
   -1642    -1525    -1433    -1381    -1374    -1440    -1514    -1516 
   -1474    -1381    -1175     -869     -529     -210       36      171 
     189      114      -16     -136     -197     -205     -147      -71 
     -81     -153     -210     -263     -365     -492     -588     -612 
    -568     -531     -584     -693     -805     -905     -969     -985 
    -982     -946     -842     -683     -510     -346     -209     -124 
    -108     -133     -176     -278     -453     -649     -789     -862 
    -918     -965     -992    -1030    -1061    -1038     -974     -877 
    -733     -594     -537     -537     -519     -486     -437     -372 
    -342     -357     -403     -517     -689     -842     -897     -853 
    -778     -726     -693     -688     -697     -679     -626     -549 
    -417     -248     -144     -144     -217     -349     -500     -631 
    -743     -820     -841     -824     -797     -756     -696     -645 
    -626     -618     -616     -627     -629     -607     -545     -426 
    -291     -211     -205     -261     -359     -452     -542     -658 
    -742     -746     -731     -720     -668     -588     -507     -445 
    -460     -535     -612     -730     -892    -1031    -1132    -1208 
   -1254    -1263    -1206    -1059     -865     -689     -556     -463 
    -436     -500     -604     -692     -738     -661     -426     -124 
     170      403      523      527      444      286      101      -43 
    -136     -213     -306     -432     -540     -596     -650     -708 
    -750     -811     -896    -1001    -1098    -1127    -1127    -1190 
   -1323    -1475    -1582    -1598    -1559    -1514    -1471    -1422 
   -1337    -1189    -1004     -814     -606     -384     -136      136 
     359      492      557      576      544      454      351      244 
     144       98       93       79       40      -78     -332     -711 
   -1152    -1566    -1861    -2031    -2091    -2023    -1868    -1726 
   -1638    -1599    -1587    -1539    -1421    -1225     -935     -581 
    -244       -4      114      143      167      253      387      523 
     627      633      527      376      209       48      -75     -170 
    -237     -288     -340     -382     -426     -530     -676     -816 
    -962    -1111    -1219    -1289    -1283    -1154     -982     -835 
    -691     -614     -665     -785     -938    -1109    -1251    -1366 
   -1460    -1471    -1362    -1152     -900     -707     -633     -661 
    -768     -926    -1057    -1094    -1017     -841     -598     -328 
     -56      187      373      480      500      449      353      225 
      75      -76     -214     -324     -387     -380     -330     -295 
    -295     -329     -402     -507     -626     -743     -851     -939 
   -1021    -1111    -1161    -1178    -1233    -1279    -1263    -1259 
   -1285    -1294    -1278    -1196    -1036     -868     -683     -430 
    -170       21      149      213      217      217      211      156 
      83       27      -72     -230     -406     -577     -703     -747 
    -751     -750     -765     -820     -904     -972    -1019    -1032 
   -1008     -976     -947     -895     -853     -874     -928     -963 
    -980     -969     -927     -904     -926     -949     -935     -889 
    -814     -695     -558     -436     -329     -272     -291     -329 
    -361     -400     -422     -441     -487     -560     -645     -710 
    -712     -643     -540     -440     -365     -328     -329     -355 
    -376     -359     -297     -198      -79       18       83      135 
     176      210      238      230      147        9     -163     -382 
    -639     -896    -1123    -1320    -1482    -1584    -1621    -1599 
   -1534    -1440    -1306    -1138     -973     -865     -822     -758 
    -642     -545     -477     -438     -450     -487     -567     -714 
    -876    -1032    -1167    -1255    -1328    -1389    -1387    -1301 
   -1111     -855     -633     -453     -280     -144      -62        5 
      90      172      236      291      294      233      162       56 
     -99     -220     -311     -461     -600     -692     -785     -834 
    -830     -827     -801     -735     -664     -615     -618     -660 
    -695     -720     -723     -693     -660     -653     -669     -684 
    -685     -685     -699     -720     -751     -770     -780     -826 
    -880     -881     -835     -750     -635     -515     -363     -189 
     -89      -59      -31      -52     -130     -136      -94     -125 
    -130      -81      -90     -109     -126     -230     -353     -475 
    -662     -849     -973    -1081    -1205    -1336    -1460    -1559 
   -1601    -1593    -1568    -1510    -1416    -1356    -1328    -1273 
   -1219    -1170    -1088     -989     -880     -756     -665     -602 
    -521     -425     -309     -152       28      220      387      481 
     525      522      452      356      278      202      139       76 
     -28     -155     -260     -355     -459     -577     -693     -795 
    -904    -1031    -1159    -1294    -1420    -1509    -1591    -1656 
   -1641    -1586    -1513    -1352    -1151     -970     -761     -544 
    -384     -268     -186     -145     -125     -113      -91      -43 
      10       47       51        6      -97     -241     -386     -527 
    -673     -789     -846     -859     -851     -834     -843     -889 
    -927     -913     -845     -766     -720     -697     -677     -653 
    -619     -575     -514     -437     -349     -257     -180     -128 
     -93      -74      -79     -102     -130     -194     -306     -425 
    -513     -598     -716     -839     -922     -989    -1092    -1196 
   -1282    -1372    -1412    -1383    -1358    -1333    -1275    -1189 
   -1090     -981     -872     -770     -673     -583     -534     -506 
    -433     -330     -240     -141      -48       14       74      109 
      97       99       89       -1      -95     -152     -241     -314 
    -291     -265     -270     -248     -279     -379     -465     -599 
    -793     -958    -1096    -1254    -1398    -1485    -1529    -1539 
   -1494    -1406    -1306    -1209    -1100     -978     -869     -734 
    -573     -425     -257      -93       24      140      261      356 
     398      361      275      195      132       64      -22     -130 
    -267     -415     -579     -803    -1027    -1152    -1220    -1289 
   -1343    -1399    -1487    -1568    -1620    -1620    -1543    -1426 
   -1308    -1158     -993     -847     -696     -552     -456     -367 
    -260     -201     -153      -67      -20      -31      -43      -64 
     -95     -136     -209     -279     -314     -337     -368     -388 
    -414     -475     -518     -525     -561     -631     -683     -688 
    -631     -546     -508     -513     -504     -508     -557     -621 
    -653     -634     -591     -569     -561     -553     -569     -604 
    -642     -703     -784     -872     -967    -1069    -1167    -1233 
   -1258    -1255    -1212    -1116    -1015     -931     -838     -733 
    -654     -599     -521     -414     -303     -189      -89      -29 
      21       45       -1      -37      -54     -124     -198     -275 
    -406     -515     -600     -723     -808     -835     -880     -920 
    -930     -942     -942     -905     -846     -751     -604     -449 
    -338     -286     -278     -290     -307     -313     -305     -297 
    -284     -261     -270     -329     -383     -417     -472     -525 
    -557     -604     -666     -735     -816     -876     -891     -908 
    -972    -1016     -996     -990    -1020    -1027    -1063    -1128 
   -1139    -1155    -1190    -1150    -1100    -1082    -1011     -905 
    -815     -685     -523     -396     -271     -129      -45      -22 
