Origin Time       2025/03/30 10:18:00
Lat.              34.667
Long.             140.825
Depth. (km)       69
Mag.              4.9
Station Code      SZOH38
Station Lat.      35.0854
Station Long.     138.9779
Station Height(m) 100
Record Time       2025/03/30 10:18:57
Sampling Freq(Hz) 100Hz
Duration Time(s)  120
Dir.              5
Scale Factor      7845(gal)/8223790
Max. Acc. (gal)   1.022
Last Correction   2025/03/30 10:18:57
Memo.             
[...]
   -8881    -8943    -8966    -8928    -8854    -8793    -8791    -8820 
   -8822    -8785    -8796    -8901    -9000    -8993    -8950    -8976 
   -9018    -8949    -8830    -8829    -8900    -8905    -8881    -8908 
   -8978    -9096    -9180    -9103    -8968    -8934    -8928    -8916 
   -8978    -9046    -9042    -9019    -8961    -8887    -8901    -8943 
   -8897    -8811    -8775    -8822    -8914    -8953    -8920    -8883 
   -8837    -8742    -8667    -8706    -8814    -8887    -8922    -8976 
   -9074    -9157    -9150    -9099    -9105    -9175    -9198    -9096 
   -8958    -8873    -8806    -8748    -8733    -8748    -8773    -8803 
   -8826    -8847    -8893    -8923    -8880    -8847    -8900    -8945 
   -8947    -8973    -8997    -8992    -8981    -8972    -8980    -8992 
   -8980    -8955    -8911    -8865    -8880    -8912    -8903    -8892 
   -8914    -8958    -9004    -9007    -8969    -8934    -8914    -8922 
   -8939    -8893    -8776    -8683    -8672    -8715    -8793    -8911 
   -9062    -9188    -9201    -9126    -9076    -9090    -9100    -9036 
   -8941    -8872    -8811    -8760    -8756    -8830    -8964    -9020 
   -8937    -8862    -8866    -8864    -8878    -8961    -9053    -9127 
   -9163    -9099    -8989    -8945    -8941    -8924    -8938    -8964 
   -8941    -8908    -8897    -8870    -8834    -8818    -8792    -8754 
   -8749    -8776    -8815    -8910    -9031    -9053    -8974    -8892 
   -8827    -8806    -8880    -8996    -9042    -8980    -8885    -8868 
   -8947    -9034    -9026    -8962    -8955    -8977    -8968    -8959 
   -8968    -8962    -8918    -8839    -8797    -8827    -8883    -8927 
   -8962    -8995    -9024    -9005    -8951    -8943    -8966    -8939 
   -8880    -8881    -8946    -8993    -9007    -9018    -9030    -9026 
   -8982    -8914    -8888    -8937    -9019    -9054    -8988    -8856 
   -8722    -8625    -8634    -8781    -8945    -9009    -8997    -8966 
   -8937    -8930    -8974    -9031    -9026    -8970    -8924    -8903 
   -8887    -8874    -8870    -8864    -8856    -8872    -8904    -8935 
   -8935    -8887    -8839    -8845    -8880    -8928    -9004    -9058 
   -9045    -9001    -8953    -8907    -8912    -8970    -9015    -9050 
   -9073    -9020    -8928    -8905    -8950    -8973    -8931    -8843 
   -8753    -8739    -8849    -8982    -9028    -8997    -8947    -8934 
   -8992    -9074    -9082    -8976    -8822    -8733    -8758    -8866 
   -8989    -9082    -9138    -9139    -9081    -9016    -8964    -8887 
   -8788    -8711    -8704    -8772    -8851    -8876    -8835    -8776 
   -8775    -8841    -8895    -8858    -8776    -8745    -8787    -8866 
   -8966    -9078    -9184    -9242    -9213    -9139    -9089    -9040 
   -8954    -8872    -8838    -8847    -8880    -8915    -8910    -8860 
   -8824    -8834    -8853    -8854    -8847    -8868    -8962    -9105 
   -9204    -9207    -9124    -8982    -8826    -8725    -8726    -8791 
   -8850    -8888    -8926    -8950    -8953    -8958    -8961    -8954 
   -8962    -8980    -9003    -9027    -8999    -8924    -8872    -8812 
   -8716    -8665    -8702    -8785    -8893    -9015    -9092    -9082 
   -9023    -8997    -9042    -9096    -9089    -9016    -8918    -8850 
   -8862    -8926    -8986    -9027    -9011    -8912    -8814    -8804 
   -8876    -8950    -8966    -8914    -8845    -8823    -8847    -8891 
   -8958    -9004    -8964    -8869    -8804    -8803    -8864    -8923 
   -8927    -8927    -8984    -9030    -8999    -8942    -8923    -8927 
   -8914    -8884    -8903    -8989    -9036    -8982    -8907    -8876 
   -8892    -8932    -8957    -8947    -8950    -8991    -9020    -8993 
   -8945    -8931    -8946    -8950    -8920    -8845    -8754    -8725 
   -8804    -8922    -8988    -9018    -9032    -8988    -8904    -8860 
   -8884    -8945    -8977    -8962    -8919    -8866    -8841    -8851 
   -8864    -8874    -8914    -8977    -9013    -9013    -9008    -9023 
   -9058    -9078    -9038    -8957    -8888    -8849    -8841    -8869 
   -8938    -9003    -8996    -8949    -8927    -8912    -8923    -8962 
   -8945    -8881    -8842    -8816    -8789    -8772    -8775    -8803 
   -8838    -8849    -8857    -8897    -8966    -9015    -9023    -9004 
   -8981    -8980    -8974    -8926    -8889    -8935    -9026    -9046 
   -8982    -8938    -8970    -9046    -9092    -9035    -8910    -8833 
   -8820    -8822    -8834    -8881    -8950    -8981    -8964    -8950 
   -8965    -8991    -9009    -8974    -8883    -8815    -8812    -8854 
   -8907    -8957    -8999    -9000    -8954    -8908    -8877    -8858 
   -8854    -8876    -8919    -8993    -9077    -9080    -8982    -8903 
   -8868    -8824    -8802    -8812    -8831    -8897    -9018    -9094 
   -9067    -8996    -8943    -8916    -8916    -8941    -8980    -9028 
   -9040    -8986    -8927    -8901    -8866    -8795    -8726    -8719 
   -8766    -8841    -8965    -9093    -9130    -9081    -9008    -8937 
   -8881    -8850    -8851    -8896    -8961    -9000    -9004    -8989 
   -8964    -8938    -8924    -8916    -8911    -8903    -8896    -8904 
   -8914    -8904    -8874    -8838    -8837    -8865    -8864    -8870 
   -8950    -9045    -9077    -9042    -8986    -8957    -8973    -9019 
   -9028    -8981    -8939    -8931    -8937    -8938    -8891    -8796 
   -8727    -8703    -8708    -8770    -8869    -8941    -8976    -8968 
   -8908    -8861    -8854    -8833    -8811    -8824    -8874    -8978 
   -9073    -9076    -9062    -9092    -9093    -9054    -9024    -8997 
   -8943    -8870    -8849    -8912    -8988    -9027    -9053    -9084 
   -9082    -9007    -8896    -8822    -8793    -8777    -8781    -8816 
   -8866    -8927    -8993    -9015    -8985    -8969    -8977    -8950 
   -8885    -8837    -8837    -8853    -8878    -8950    -9011    -8985 
   -8926    -8897    -8896    -8904    -8895    -8864    -8843    -8842 
   -8845    -8850    -8884    -8932    -8927    -8885    -8901    -8984 
   -9057    -9058    -9013    -9011    -9061    -9094    -9096    -9092 
   -9065    -9000    -8914    -8839    -8815    -8866    -8945    -8970 
   -8939    -8905    -8903    -8938    -8981    -8989    -8937    -8851 
   -8780    -8730    -8708    -8749    -8839    -8920    -8942    -8915 
   -8900    -8901    -8896    -8915    -8962    -9005    -9019    -8981 
   -8928    -8904    -8880    -8850    -8845    -8857    -8893    -8953 
   -8995    -9023    -9066    -9096    -9065    -8985    -8931    -8957 
   -9015    -9015    -8974    -8968    -8977    -8926    -8838    -8792 
   -8816    -8862    -8876    -8856    -8830    -8819    -8838    -8874 
   -8905    -8937    -8968    -8982    -8958    -8918    -8918    -8947 
   -8950    -8932    -8934    -8946    -8953    -8973    -9015    -9026 
   -8977    -8915    -8873    -8857    -8858    -8866    -8907    -8984 
   -9024    -9000    -8966    -8945    -8920    -8911    -8903    -8864 
   -8837    -8866    -8939    -9009    -9036    -9022    -8996    -8953 
   -8891    -8869    -8893    -8916    -8932    -8919    -8861    -8818 
   -8814    -8814    -8800    -8810    -8851    -8883    -8901    -8942 
   -8977    -8988    -8985    -8951    -8904    -8912    -8977    -9032 
   -9046    -9023    -8986    -8966    -8947    -8924    -8961    -9051 
   -9105    -9094    -9046    -8992    -8958    -8947    -8955    -8961 
   -8918    -8850    -8857    -8953    -9040    -9023    -8911    -8815 
   -8780    -8750    -8684    -8637    -8664    -8726    -8787    -8850 
   -8907    -8966    -9034    -9065    -9061    -9042    -9009    -9000 
   -9031    -9053    -9023    -8953    -8870    -8815    -8803    -8797 
   -8789    -8826    -8907    -8985    -9061    -9092    -9027    -8941 
   -8911    -8920    -8932    -8934    -8935    -8959    -8999    -9022 
   -9022    -9024    -9030    -8993    -8916    -8853    -8849    -8905 
   -8954    -8954    -8946    -8930    -8904    -8901    -8892    -8861 
   -8858    -8884    -8893    -8887    -8887    -8868    -8819    -8808 
   -8862    -8915    -8927    -8901    -8899    -8993    -9116    -9136 
   -9054    -8953    -8897    -8869    -8837    -8843    -8901    -8962 
   -8996    -8953    -8856    -8824    -8889    -8974    -9027    -9019 
   -8941    -8827    -8770    -8819    -8926    -9019    -9055    -9046 
   -9023    -8982    -8931    -8901    -8900    -8897    -8887    -8893 
   -8920    -8951    -8978    -8966    -8912    -8881    -8897    -8934 
   -8973    -8974    -8939    -8922    -8915    -8872    -8812    -8791 
   -8822    -8872    -8908    -8939    -8982    -9039    -9059    -9015 
   -8942    -8895    -8892    -8908    -8899    -8878    -8897    -8951 
   -8997    -9008    -9008    -9001    -8954    -8897    -8896    -8928 
   -8918    -8837    -8781    -8833    -8930    -8972    -8962    -8964 
   -9005    -9030    -8973    -8889    -8864    -8873    -8866    -8857 
   -8901    -9023    -9159    -9192    -9107    -9013    -8970    -8947 
   -8930    -8892    -8830    -8785    -8764    -8745    -8766    -8834 
   -8883    -8856    -8785    -8756    -8793    -8849    -8888    -8915 
   -8934    -8950    -8972    -9009    -9049    -9054    -9024    -9000 
   -8982    -8959    -8972    -9030    -9061    -9047    -9032    -9012 
   -8961    -8896    -8861    -8870    -8870    -8842    -8831    -8842 
   -8858    -8878    -8910    -8969    -9008    -8945    -8854    -8850 
   -8924    -8980    -8957    -8911    -8915    -8942    -8951    -8951 
   -8951    -8962    -8988    -9012    -9003    -8970    -8968    -8959 
   -8904    -8851    -8839    -8860    -8901    -8941    -8958    -8951 
   -8934    -8924    -8915    -8899    -8881    -8860    -8869    -8918 
   -8950    -8939    -8919    -8901    -8884    -8872    -8869    -8862 
   -8873    -8939    -9009    -9031    -9024    -9004    -8972    -8949 
   -8950    -8972    -8980    -8962    -8950    -8970    -9018    -9050 
   -9016    -8942    -8888    -8877    -8897    -8915    -8910    -8896 
   -8884    -8881    -8873    -8860    -8856    -8854    -8872    -8923 
   -8949    -8927    -8915    -8905    -8874    -8858    -8877    -8885 
   -8866    -8862    -8880    -8905    -8961    -9011    -9009    -8992 
   -8973    -8930    -8858    -8789    -8804    -8923    -9043    -9070 
   -9024    -8978    -8968    -8977    -8989    -8993    -8980    -8945 
   -8904    -8889    -8895    -8895    -8919    -8964    -8978    -8970 
   -8959    -8945    -8930    -8904    -8892    -8922    -8953    -8949 
   -8923    -8908    -8916    -8918    -8892    -8884    -8927    -8991 
   -9032    -9046    -9012    -8943    -8901    -8878    -8826    -8796 
   -8803    -8796    -8808    -8876    -8972    -9072    -9123    -9072 
   -8970    -8915    -8923    -8945    -8951    -8947    -8937    -8942 
   -8968    -8964    -8934    -8935    -8953    -8928    -8861    -8820 
   -8837    -8853    -8829    -8795    -8806    -8866    -8930    -8968 
   -8978    -8966    -8955    -8935    -8880    -8841    -8868    -8943 
   -9026    -9054    -9016    -8947    -8897    -8896    -8920    -8937 
   -8949    -8964    -8973    -8966    -8951    -8962    -8976    -8945 
   -8893    -8872    -8893    -8918    -8887    -8826    -8808    -8858 
   -8927    -8972    -9013    -9066    -9084    -9030    -8924    -8818 
   -8757    -8761    -8829    -8946    -9067    -9123    -9078    -8995 
   -8937    -8876    -8808    -8802    -8861    -8931    -8970    -8962 
   -8912    -8841    -8800    -8827    -8888    -8924    -8926    -8930 
   -8968    -8992    -8961    -8934    -8950    -8955    -8912    -8877 
   -8889    -8888    -8829    -8784    -8818    -8907    -8992    -9050 
   -9078    -9061    -8985    -8885    -8816    -8810    -8835    -8887 
   -8958    -8973    -8930    -8916    -8931    -8943    -8974    -8995 
   -8977    -8932    -8866    -8819    -8822    -8839    -8849    -8888 
   -8970    -9043    -9067    -9069    -9059    -9032    -8996    -8950 
   -8911    -8915    -8937    -8932    -8900    -8861    -8842    -8854 
   -8897    -8977    -9055    -9080    -9055    -9019    -9009    -9028 
   -9035    -9012    -8976    -8946    -8942    -8974    -9008    -9004 
   -8974    -8949    -8935    -8923    -8895    -8860    -8839    -8807 
   -8746    -8676    -8619    -8611    -8688    -8811    -8900    -8947 
   -8995    -9011    -8932    -8793    -8662    -8604    -8653    -8738 
   -8823    -8943    -9031    -9016    -8969    -8973    -9023    -9066 
   -9061    -9047    -9088    -9158    -9181    -9154    -9146    -9166 
   -9146    -9090    -9063    -9069    -9093    -9108    -9094    -9085 
   -9099    -9089    -9022    -8922    -8826    -8772    -8797    -8869 
   -8911    -8899    -8831    -8706    -8584    -8549    -8626    -8791 
   -8988    -9117    -9131    -9080    -9024    -8969    -8928    -8901 
   -8878    -8899    -8978    -9034    -8992    -8896    -8827    -8779 
   -8734    -8729    -8758    -8789    -8808    -8765    -8684    -8645 
   -8656    -8704    -8811    -8955    -9088    -9161    -9182    -9194 
   -9219    -9221    -9157    -9059    -9012    -8996    -8951    -8897 
   -8856    -8841    -8847    -8783    -8621    -8442    -8299    -8263 
   -8410    -8692    -8995    -9254    -9431    -9516    -9562    -9601 
   -9603    -9551    -9450    -9336    -9282    -9304    -9327    -9254 
   -9022    -8660    -8310    -8128    -8154    -8245    -8218    -8086 
   -8008    -8047    -8176    -8401    -8745    -9204    -9674    -9975 
   -9999    -9828    -9570    -9263    -9000    -8910    -8961    -9019 
   -9008    -8919    -8770    -8580    -8390    -8272    -8259    -8295 
   -8332    -8430    -8677    -9011    -9288    -9455    -9582    -9730 
   -9819    -9764    -9601    -9359    -9059    -8803    -8698    -8738 
   -8792    -8738    -8611    -8500    -8469    -8579    -8788    -8982 
   -9077    -8988    -8742    -8548    -8577    -8788    -9018    -9169 
   -9236    -9242    -9194    -9092    -8981    -8903    -8807    -8688 
   -8617    -8611    -8660    -8750    -8831    -8880    -8927    -8986 
   -9027    -9016    -8949    -8841    -8741    -8680    -8656    -8750 
   -9045    -9410    -9648    -9656    -9391    -8978    -8684    -8610 
   -8665    -8822    -9085    -9350    -9493    -9478    -9339    -9157 
   -8954    -8712    -8526    -8498    -8546    -8569    -8560    -8548 
   -8600    -8796    -9115    -9447    -9656    -9664    -9516    -9336 
   -9196    -9039    -8835    -8654    -8530    -8442    -8415    -8479 
   -8598    -8714    -8799    -8823    -8779    -8737    -8789    -8939 
   -9130    -9336    -9522    -9571    -9391    -9039    -8656    -8372 
   -8306    -8484    -8773    -8980    -9030    -8989    -8954    -8934 
   -8904    -8880    -8870    -8860    -8869    -8923    -8986    -9012 
   -9003    -8955    -8920    -8982    -9089    -9112    -9036    -8942 
   -8881    -8843    -8803    -8792    -8837    -8918    -8989    -8992 
   -8945    -8931    -8997    -9143    -9263    -9205    -8995    -8777 
   -8630    -8603    -8665    -8716    -8749    -8807    -8883    -8931 
   -8945    -8961    -9020    -9143    -9270    -9294    -9242    -9204 
   -9144    -9011    -8866    -8797    -8815    -8860    -8911    -8980 
   -9031    -9007    -8887    -8689    -8522    -8527    -8699    -8884 
   -9023    -9153    -9263    -9310    -9258    -9111    -8928    -8758 
   -8588    -8459    -8467    -8598    -8726    -8806    -8889    -8962 
   -8942    -8812    -8661    -8583    -8588    -8652    -8793    -8996 
   -9184    -9309    -9394    -9463    -9458    -9293    -9030    -8847 
   -8824    -8911    -9024    -9119    -9165    -9109    -8958    -8796 
   -8664    -8567    -8577    -8735    -8962    -9146    -9213    -9158 
   -9023    -8907    -8892    -8959    -9011    -8977    -8868    -8722 
   -8583    -8522    -8554    -8638    -8775    -8962    -9138    -9234 
   -9221    -9130    -9018    -8942    -8932    -8954    -8977    -9035 
   -9090    -9067    -9008    -8995    -9043    -9148    -9271    -9312 
   -9182    -8908    -8619    -8422    -8334    -8351    -8468    -8638 
   -8766    -8841    -8932    -9053    -9146    -9216    -9319    -9429 
   -9443    -9350    -9246    -9150    -9042    -8930    -8839    -8810 
   -8823    -8824    -8826    -8872    -8968    -9040    -9022    -8951 
   -8905    -8856    -8733    -8530    -8306    -8144    -8105    -8228 
   -8506    -8850    -9130    -9234    -9139    -8965    -8868    -8887 
   -8955    -9038    -9148    -9248    -9258    -9198    -9175    -9232 
   -9286    -9231    -9082    -8926    -8810    -8766    -8797    -8854 
   -8873    -8869    -8897    -8926    -8893    -8833    -8796    -8800 
   -8851    -8951    -9113    -9305    -9394    -9281    -9053    -8893 
   -8847    -8804    -8712    -8640    -8621    -8644    -8675    -8712 
   -8795    -8895    -8953    -8981    -8995    -8989    -8958    -8922 
   -8922    -8969    -9019    -9047    -9045    -9004    -8918    -8812 
   -8764    -8806    -8903    -8995    -9030    -9046    -9113    -9205 
   -9252    -9227    -9127    -8984    -8846    -8761    -8757    -8799 
   -8851    -8911    -8968    -8993    -8957    -8888    -8881    -8955 
   -9004    -8972    -8945    -8981    -9001    -8949    -8899    -8931 
   -9022    -9065    -9004    -8899    -8806    -8702    -8577    -8480 
   -8468    -8550    -8679    -8784    -8827    -8856    -8943    -9065 
   -9146    -9158    -9147    -9175    -9213    -9192    -9126    -9069 
   -9032    -8995    -8919    -8818    -8761    -8765    -8766    -8730 
   -8719    -8802    -8959    -9108    -9165    -9109    -8999    -8908 
   -8876    -8877    -8865    -8850    -8887    -8969    -9038    -9030 
   -8943    -8829    -8725    -8679    -8729    -8830    -8896    -8907 
   -8897    -8893    -8891    -8916    -8969    -9015    -9042    -9030 
   -8980    -8957    -8951    -8895    -8811    -8775    -8796    -8829 
   -8865    -8937    -9032    -9103    -9121    -9116    -9124    -9140 
   -9128    -9066    -8982    -8939    -8932    -8911    -8900    -8946 
   -9016    -9046    -9011    -8939    -8891    -8895    -8937    -8988 
   -9008    -8969    -8861    -8741    -8704    -8743    -8776    -8775 
   -8787    -8876    -9045    -9196    -9248    -9215    -9157    -9101 
   -9022    -8924    -8869    -8893    -8946    -8950    -8922    -8928 
   -8953    -8931    -8857    -8780    -8723    -8680    -8644    -8634 
   -8689    -8812    -8919    -8941    -8914    -8891    -8905    -8986 
   -9069    -9093    -9084    -9038    -8958    -8908    -8930    -8997 
   -9058    -9074    -9038    -8964    -8887    -8808    -8730    -8723 
   -8841    -9009    -9099    -9059    -8969    -8907    -8847    -8761 
   -8681    -8665    -8734    -8843    -8932    -8991    -9023    -9020 
   -8961    -8841    -8722    -8700    -8803    -8966    -9100    -9165 
   -9142    -9035    -8910    -8822    -8781    -8780    -8822    -8897 
   -8970    -9022    -9077    -9128    -9143    -9103    -9022    -8942 
   -8887    -8850    -8869    -8937    -8992    -9012    -8995    -8970 
   -9007    -9099    -9170    -9182    -9147    -9069    -8966    -8878 
   -8835    -8842    -8861    -8835    -8784    -8748    -8714    -8685 
   -8661    -8623    -8621    -8685    -8765    -8819    -8861    -8924 
   -9013    -9070    -9078    -9101    -9143    -9127    -9031    -8938 
