Origin Time       2025/03/30 10:18:00
Lat.              34.667
Long.             140.825
Depth. (km)       69
Mag.              4.9
Station Code      SZOH38
Station Lat.      35.0854
Station Long.     138.9779
Station Height(m) -100
Record Time       2025/03/30 10:18:57
Sampling Freq(Hz) 100Hz
Duration Time(s)  120
Dir.              1
Scale Factor      2942(gal)/8224139
Max. Acc. (gal)   0.435
Last Correction   2025/03/30 10:18:57
Memo.             
[...]
  -90817   -90850   -90886   -90891   -90834   -90767   -90794   -90922 
  -91035   -91058   -91041   -91018   -90960   -90921   -90964   -91008 
  -90999   -90999   -91011   -90950   -90841   -90825   -90906   -90953 
  -90945   -90940   -90949   -90981   -91027   -91037   -90973   -90892 
  -90884   -90944   -91006   -91041   -91033   -91026   -91030   -90972 
  -90914   -90944   -90992   -91021   -91023   -90934   -90822   -90818 
  -90871   -90890   -90882   -90896   -90948   -91029   -91112   -91149 
  -91108   -91042   -91033   -91076   -91088   -91073   -91075   -91034 
  -90946   -90910   -90919   -90909   -90872   -90836   -90811   -90819 
  -90838   -90849   -90867   -90890   -90898   -90915   -90968   -91035 
  -91060   -91017   -90958   -90926   -90898   -90855   -90819   -90832 
  -90880   -90896   -90886   -90925   -91003   -91046   -91025   -90973 
  -90949   -90969   -90980   -90934   -90895   -90915   -90931   -90910 
  -90907   -90968   -91053   -91058   -90981   -90921   -90868   -90788 
  -90774   -90838   -90917   -91012   -91084   -91060   -91000   -90971 
  -90945   -90902   -90856   -90825   -90829   -90838   -90844   -90917 
  -91045   -91091   -91065   -91081   -91107   -91079   -91038   -91008 
  -90957   -90904   -90919   -90971   -90961   -90898   -90863   -90865 
  -90879   -90907   -90930   -90891   -90796   -90740   -90769   -90821 
  -90841   -90888   -90973   -91023   -91045   -91073   -91089   -91081 
  -91058   -91031   -91017   -91021   -91045   -91060   -91012   -90907 
  -90811   -90792   -90859   -90923   -90923   -90898   -90891   -90902 
  -90918   -90930   -90948   -90963   -90975   -91014   -91062   -91093 
  -91107   -91110   -91099   -91061   -90979   -90899   -90873   -90879 
  -90883   -90898   -90887   -90826   -90790   -90829   -90926   -91023 
  -91025   -90936   -90887   -90911   -90936   -90948   -90952   -90923 
  -90884   -90892   -90953   -91018   -91037   -91027   -91042   -91046 
  -90998   -90937   -90898   -90880   -90890   -90896   -90868   -90846 
  -90895   -90972   -90987   -90957   -90948   -90938   -90923   -90949 
  -90988   -90976   -90931   -90909   -90915   -90967   -91056   -91083 
  -91011   -90945   -90952   -90981   -90965   -90898   -90821   -90774 
  -90765   -90811   -90909   -90991   -90990   -90964   -90999   -91064 
  -91069   -90946   -90759   -90668   -90717   -90815   -90904   -90980 
  -91053   -91119   -91138   -91107   -91093   -91114   -91104   -91018 
  -90876   -90760   -90759   -90865   -90988   -91030   -90976   -90930 
  -90941   -90929   -90891   -90896   -90911   -90895   -90886   -90899 
  -90936   -91004   -91088   -91130   -91093   -91010   -90923   -90849 
  -90791   -90764   -90795   -90906   -91046   -91127   -91112   -91045 
  -91000   -90994   -90976   -90940   -90906   -90888   -90896   -90933 
  -91004   -91084   -91098   -91033   -90967   -90936   -90918   -90904 
  -90890   -90879   -90865   -90869   -90927   -90990   -90958   -90891 
  -90902   -90968   -90996   -90961   -90913   -90902   -90895   -90865 
  -90861   -90894   -90926   -90960   -90976   -90937   -90887   -90883 
  -90927   -90995   -91031   -91003   -90973   -91000   -91048   -91053 
  -91023   -91023   -91049   -91035   -90981   -90925   -90876   -90828 
  -90780   -90751   -90747   -90765   -90819   -90865   -90848   -90837 
  -90907   -90987   -91014   -91014   -90991   -90946   -90938   -91008 
  -91112   -91166   -91152   -91099   -91034   -90990   -90973   -90927 
  -90845   -90799   -90807   -90829   -90865   -90937   -91023   -91093 
  -91123   -91099   -91041   -90994   -90979   -90981   -90981   -90969 
  -90940   -90913   -90909   -90936   -90964   -90957   -90930   -90913 
  -90907   -90898   -90855   -90794   -90774   -90787   -90802   -90826 
  -90895   -90992   -91053   -91064   -91058   -91050   -91046   -91038 
  -91007   -90956   -90877   -90780   -90745   -90832   -90948   -90992 
  -90995   -91004   -91012   -91000   -90983   -90998   -91044   -91073 
  -91077   -91075   -91077   -91072   -91012   -90910   -90849   -90852 
  -90877   -90907   -90927   -90899   -90828   -90769   -90769   -90833 
  -90922   -91003   -91046   -91029   -90992   -91006   -91069   -91102 
  -91030   -90904   -90819   -90791   -90825   -90903   -90922   -90856 
  -90805   -90846   -90976   -91088   -91081   -91010   -90963   -90931 
  -90934   -90990   -91042   -91049   -91011   -90954   -90899   -90833 
  -90806   -90873   -90933   -90913   -90899   -90923   -90938   -90931 
  -90915   -90899   -90894   -90906   -90957   -91008   -90999   -90975 
  -90998   -91031   -91039   -91025   -90984   -90940   -90922   -90891 
  -90814   -90757   -90776   -90834   -90887   -90933   -90977   -91008 
  -91027   -91027   -90992   -90958   -90977   -91031   -91073   -91098 
  -91103   -91053   -90949   -90861   -90821   -90811   -90848   -90910 
  -90950   -90958   -90948   -90942   -90963   -90990   -91002   -91012 
  -91002   -90950   -90904   -90898   -90907   -90942   -91003   -91011 
  -90953   -90921   -90936   -90925   -90888   -90895   -90915   -90886 
  -90857   -90871   -90902   -90942   -90992   -91041   -91053   -91025 
  -90999   -90990   -90961   -90946   -90979   -91022   -91048   -91049 
  -91002   -90953   -90980   -91034   -91031   -90971   -90895   -90834 
  -90815   -90846   -90873   -90844   -90791   -90809   -90907   -90980 
  -90971   -90946   -90956   -90981   -91010   -91033   -91027   -90996 
  -90957   -90938   -90933   -90926   -90918   -90929   -90950   -90957 
  -90950   -90953   -90960   -90952   -90949   -90981   -91017   -91015 
  -90990   -90968   -90972   -90983   -90969   -90960   -90969   -90949 
  -90910   -90913   -90934   -90913   -90860   -90838   -90857   -90882 
  -90891   -90872   -90833   -90817   -90841   -90888   -90929   -90937 
  -90926   -90929   -90941   -90949   -90948   -90952   -90996   -91056 
  -91066   -91002   -90891   -90806   -90795   -90845   -90914   -90981 
  -91035   -91064   -91073   -91057   -91004   -90953   -90952   -90998 
  -91066   -91102   -91062   -90971   -90884   -90859   -90877   -90907 
  -90949   -90971   -90946   -90923   -90940   -90965   -90961   -90940 
  -90931   -90929   -90906   -90872   -90852   -90865   -90904   -90927 
  -90945   -90972   -90956   -90890   -90871   -90931   -90983   -90980 
  -90960   -90923   -90876   -90895   -90991   -91076   -91088   -91042 
  -90998   -90980   -90977   -90991   -91008   -90985   -90953   -90954 
  -90961   -90953   -90972   -91025   -91049   -91011   -90964   -90941 
  -90918   -90903   -90925   -90937   -90894   -90844   -90848   -90882 
  -90883   -90859   -90855   -90869   -90880   -90899   -90921   -90931 
  -90942   -90940   -90914   -90917   -90961   -91006   -91037   -91052 
  -91049   -91041   -91006   -90952   -90948   -90985   -90994   -90956 
  -90910   -90880   -90873   -90886   -90900   -90904   -90892   -90883 
  -90892   -90930   -90969   -90976   -90963   -90960   -90972   -90980 
  -90979   -90968   -90953   -90931   -90903   -90891   -90915   -90937 
  -90900   -90848   -90868   -90945   -90990   -90969   -90922   -90884 
  -90877   -90917   -91008   -91089   -91091   -91077   -91099   -91099 
  -91081   -91075   -91052   -91012   -90981   -90952   -90949   -90969 
  -90956   -90923   -90917   -90911   -90895   -90899   -90933   -90967 
  -90964   -90949   -90956   -90957   -90923   -90887   -90879   -90887 
  -90890   -90877   -90869   -90904   -90979   -91026   -90990   -90921 
  -90904   -90917   -90914   -90922   -90933   -90914   -90877   -90841 
  -90848   -90915   -90985   -91018   -91008   -90936   -90856   -90864 
  -90927   -90960   -90963   -90975   -91015   -91044   -91007   -90941 
  -90910   -90914   -90926   -90926   -90909   -90894   -90917   -90973 
  -90987   -90925   -90864   -90879   -90960   -91042   -91038   -90961 
  -90914   -90917   -90933   -90960   -90976   -90967   -90956   -90952 
  -90942   -90958   -91012   -91030   -90963   -90888   -90884   -90902 
  -90899   -90906   -90915   -90899   -90891   -90914   -90934   -90929 
  -90911   -90898   -90911   -90979   -91058   -91077   -91037   -91004 
  -90991   -90965   -90934   -90927   -90940   -90946   -90946   -90942 
  -90945   -90961   -90991   -91035   -91071   -91061   -91015   -90954 
  -90906   -90898   -90913   -90914   -90922   -90967   -90990   -90958 
  -90934   -90936   -90913   -90869   -90836   -90814   -90790   -90778 
  -90830   -90921   -90961   -90949   -90936   -90925   -90927   -90963 
  -91002   -91026   -91039   -91034   -91026   -91038   -91052   -91053 
  -91058   -91066   -91068   -91050   -91007   -90965   -90952   -90945 
  -90895   -90826   -90803   -90841   -90907   -90949   -90929   -90894 
  -90900   -90903   -90882   -90882   -90888   -90852   -90803   -90810 
  -90882   -90973   -91025   -91012   -90969   -90933   -90945   -91002 
  -91045   -91058   -91058   -91049   -91048   -91045   -91007   -90975 
  -90973   -90945   -90880   -90846   -90856   -90871   -90882   -90903 
  -90941   -90987   -91007   -90983   -90944   -90936   -90961   -91002 
  -91023   -90998   -90937   -90879   -90846   -90856   -90895   -90927 
  -90934   -90919   -90913   -90953   -91019   -91057   -91068   -91057 
  -90998   -90925   -90894   -90898   -90899   -90879   -90849   -90855 
  -90898   -90921   -90917   -90925   -90936   -90940   -90950   -90968 
  -90980   -90988   -90995   -90995   -90988   -90976   -90976   -90998 
  -91023   -91015   -90954   -90896   -90902   -90942   -90963   -90952 
  -90948   -90967   -90980   -90969   -90944   -90917   -90899   -90892 
  -90890   -90875   -90877   -90923   -90952   -90929   -90903   -90899 
  -90922   -90954   -90937   -90872   -90857   -90909   -90961   -90984 
  -90984   -90963   -90925   -90894   -90891   -90918   -90952   -90968 
  -90973   -90969   -90940   -90896   -90887   -90894   -90887   -90918 
  -90996   -91056   -91080   -91083   -91058   -91004   -90945   -90925 
  -90946   -90956   -90956   -90979   -90992   -90980   -90956   -90915 
  -90876   -90883   -90915   -90927   -90941   -91000   -91071   -91095 
  -91053   -90960   -90863   -90814   -90832   -90896   -90948   -90954 
  -90956   -90956   -90929   -90917   -90936   -90942   -90952   -90973 
  -90976   -90984   -91004   -90985   -90950   -90952   -90980   -91004 
  -90995   -90975   -90985   -90983   -90929   -90875   -90865   -90879 
  -90898   -90917   -90948   -90996   -91011   -90956   -90884   -90846 
  -90855   -90873   -90857   -90833   -90868   -90954   -91035   -91046 
  -90985   -90938   -90965   -91025   -91026   -90944   -90869   -90895 
  -90988   -91050   -91035   -90979   -90933   -90914   -90913   -90934 
  -90987   -91018   -90976   -90900   -90877   -90940   -91033   -91077 
  -91046   -90964   -90892   -90880   -90891   -90872   -90840   -90823 
  -90819   -90809   -90794   -90811   -90882   -90946   -90945   -90907 
  -90898   -90923   -90934   -90909   -90883   -90896   -90952   -91004 
  -91015   -91004   -91008   -91046   -91092   -91089   -91042   -91014 
  -91030   -91039   -91015   -90998   -91012   -91031   -91018   -90980 
  -90958   -90963   -90953   -90915   -90884   -90899   -90948   -90998 
  -91033   -91034   -90992   -90931   -90892   -90886   -90887   -90886 
  -90902   -90944   -90992   -91017   -91008   -90967   -90919   -90904 
  -90894   -90861   -90857   -90877   -90848   -90786   -90769   -90806 
  -90856   -90887   -90907   -90949   -90999   -91006   -90994   -91033 
  -91095   -91098   -91037   -90967   -90937   -90963   -90991   -90975 
  -90949   -90972   -91015   -90985   -90895   -90846   -90852   -90850 
  -90840   -90863   -90907   -90922   -90914   -90953   -91019   -91030 
  -90991   -90940   -90894   -90886   -90910   -90904   -90859   -90834 
  -90857   -90871   -90861   -90855   -90848   -90855   -90879   -90903 
  -90948   -91012   -91049   -91046   -91042   -91048   -91044   -91041 
  -91052   -91072   -91093   -91093   -91037   -90956   -90903   -90872 
  -90850   -90869   -90909   -90913   -90887   -90884   -90923   -90977 
  -91007   -90994   -90954   -90926   -90926   -90936   -90942   -90952 
  -90972   -90981   -90961   -90929   -90888   -90857   -90865   -90903 
  -90938   -90952   -90941   -90933   -90952   -90999   -91066   -91143 
  -91177   -91138   -91088   -91081   -91104   -91114   -91087   -91041 
  -91007   -91000   -91018   -91037   -91049   -91065   -91100   -91146 
  -91157   -91100   -91021   -90988   -90980   -90904   -90768   -90664 
  -90614   -90562   -90510   -90505   -90529   -90551   -90599   -90688 
  -90767   -90828   -90931   -91077   -91193   -91266   -91343   -91399 
  -91390   -91357   -91311   -91219   -91103   -90999   -90927   -90902 
  -90886   -90856   -90821   -90776   -90733   -90732   -90765   -90788 
  -90786   -90771   -90784   -90815   -90806   -90752   -90676   -90587 
  -90548   -90612   -90707   -90757   -90775   -90813   -90875   -90900 
  -90845   -90794   -90865   -91039   -91226   -91385   -91498   -91521 
  -91440   -91292   -91164   -91131   -91156   -91143   -91081   -91007 
  -90936   -90888   -90886   -90899   -90887   -90821   -90686   -90540 
  -90508   -90626   -90798   -90915   -90961   -90973   -91006   -91098 
  -91211   -91255   -91231   -91184   -91084   -90938   -90842   -90792 
  -90736   -90697   -90697   -90694   -90663   -90652   -90705   -90811 
  -90948   -91065   -91115   -91156   -91312   -91596   -91847   -91889 
  -91710   -91457   -91265   -91169   -91116   -91025   -90830   -90517 
  -90155   -89869   -89729   -89743   -89868   -90018   -90188   -90382 
  -90582   -90811   -91071   -91277   -91413   -91590   -91849   -92053 
  -92026   -91750   -91342   -90994   -90875   -90965   -91052   -91010 
  -90929   -90942   -91050   -91106   -91031   -90968   -91057   -91276 
  -91480   -91523   -91392   -91220   -91122   -91088   -91038   -90941 
  -90810   -90651   -90482   -90335   -90224   -90159   -90166   -90255 
  -90355   -90370   -90321   -90375   -90663   -91081   -91396   -91500 
  -91444   -91308   -91143   -91010   -90934   -90910   -90960   -91084 
  -91169   -91092   -90921   -90855   -90956   -91073   -91046   -90898 
  -90794   -90838   -90994   -91173   -91303   -91366   -91376   -91291 
  -91058   -90749   -90540   -90555   -90741   -90927   -91031   -91088 
  -91116   -91096   -91031   -90930   -90796   -90630   -90475   -90398 
  -90420   -90543   -90768   -91033   -91265   -91450   -91562   -91530 
  -91349   -91126   -90961   -90848   -90751   -90667   -90610   -90620 
  -90741   -90983   -91297   -91559   -91629   -91501   -91249   -90907 
  -90547   -90306   -90254   -90336   -90513   -90774   -91015   -91084 
  -90963   -90841   -90917   -91147   -91318   -91319   -91242   -91228 
  -91314   -91416   -91419   -91243   -90963   -90761   -90718   -90740 
  -90769   -90814   -90876   -90976   -91102   -91116   -90902   -90587 
  -90436   -90531   -90695   -90726   -90620   -90514   -90499   -90571 
  -90687   -90810   -90954   -91104   -91169   -91137   -91085   -91056 
  -91034   -91029   -91057   -91098   -91096   -91061   -91079   -91181 
  -91251   -91184   -91054   -90949   -90883   -90892   -90972   -91048 
  -91050   -90971   -90877   -90778   -90624   -90494   -90481   -90556 
  -90691   -90879   -91071   -91204   -91249   -91181   -91017   -90888 
  -90904   -90996   -91038   -91023   -91017   -91039   -91069   -91054 
  -90942   -90803   -90813   -90994   -91197   -91295   -91234   -91068 
  -90926   -90873   -90903   -90996   -91116   -91235   -91318   -91293 
  -91160   -91027   -90967   -90960   -90961   -90933   -90887   -90852 
  -90795   -90705   -90657   -90715   -90830   -90904   -90872   -90764 
  -90678   -90687   -90733   -90710   -90641   -90641   -90772   -91010 
  -91268   -91442   -91490   -91420   -91243   -91010   -90868   -90899 
  -91004   -91085   -91152   -91226   -91265   -91231   -91153   -91066 
  -90998   -90957   -90923   -90872   -90818   -90776   -90730   -90656 
  -90555   -90481   -90479   -90490   -90470   -90475   -90531   -90586 
  -90629   -90691   -90782   -90861   -90899   -90904   -90937   -91012 
  -91079   -91116   -91164   -91212   -91219   -91181   -91139   -91115 
  -91108   -91088   -91027   -90946   -90892   -90882   -90903   -90937 
  -90934   -90879   -90807   -90788   -90856   -90971   -91038   -91017 
  -90958   -90940   -90960   -90954   -90906   -90865   -90872   -90917 
  -90992   -91100   -91204   -91226   -91154   -91103   -91162   -91276 
  -91309   -91219   -91115   -91106   -91131   -91081   -90969   -90873 
  -90791   -90699   -90643   -90639   -90659   -90718   -90815   -90887 
  -90936   -91008   -91084   -91103   -91091   -91139   -91235   -91266 
  -91210   -91126   -91045   -90949   -90815   -90659   -90568   -90621 
  -90764   -90876   -90907   -90900   -90903   -90909   -90895   -90856 
  -90807   -90799   -90832   -90853   -90876   -90960   -91093   -91185 
  -91166   -91075   -90996   -90945   -90918   -90961   -91033   -91029 
  -90973   -90958   -91003   -91068   -91122   -91158   -91149   -91066 
  -90927   -90779   -90691   -90671   -90634   -90560   -90509   -90540 
  -90674   -90830   -90888   -90850   -90849   -90927   -91012   -91026 
  -90956   -90882   -90898   -90999   -91084   -91065   -90988   -90987 
  -91085   -91180   -91211   -91212   -91220   -91200   -91137   -91071 
  -91021   -90992   -91019   -91080   -91110   -91104   -91075   -90994 
  -90872   -90778   -90771   -90876   -91027   -91095   -91037   -90948 
  -90887   -90814   -90720   -90666   -90686   -90751   -90825   -90899 
  -90969   -91023   -91060   -91061   -90988   -90877   -90819   -90846 
  -90914   -90972   -90968   -90898   -90868   -90969   -91102   -91114 
  -91023   -90938   -90877   -90813   -90772   -90788   -90832   -90871 
  -90923   -91003   -91085   -91135   -91141   -91096   -91038   -91029 
  -91058   -91060   -91026   -90980   -90936   -90929   -90961   -90990 
  -90994   -90952   -90860   -90776   -90737   -90745   -90810   -90886 
  -90918   -90910   -90892   -90890   -90891   -90864   -90819   -90805 
  -90811   -90818   -90859   -90933   -90965   -90948   -90940   -90957 
  -90976   -91007   -91058   -91103   -91115   -91089   -91035   -90984 
  -90945   -90909   -90915   -90999   -91080   -91075   -91022   -90994 
  -91004   -91003   -90941   -90859   -90840   -90875   -90911   -90925 
  -90913   -90892   -90911   -90960   -90961   -90887   -90822   -90837 
  -90899   -90958   -90995   -90992   -90995   -91072   -91181   -91201 
  -91118   -91019   -90961   -90944   -90930   -90882   -90822   -90813 
  -90852   -90894   -90934   -90965   -90957   -90929   -90906   -90902 
  -90934   -90984   -91012   -91037   -91064   -91046   -90945   -90775 
  -90603   -90528   -90605   -90787   -90968   -91066   -91072   -91031 
  -91000   -91012   -91042   -91057   -91068   -91116   -91191   -91211 
  -91145   -91058   -90981   -90919   -90894   -90914   -90944   -90941 
  -90915   -90913   -90922   -90894   -90832   -90790   -90783   -90794 
  -90799   -90771   -90732   -90737   -90771   -90786   -90780   -90775 
  -90801   -90841   -90879   -90936   -91002   -91022   -91000   -91011 
  -91081   -91138   -91126   -91069   -91012   -91021   -91134   -91270 
  -91309   -91258   -91195   -91143   -91084   -91017   -90958   -90915 
  -90873   -90825   -90794   -90787   -90805   -90846   -90879   -90887 
