Origin Time       2025/03/30 10:18:00
Lat.              34.667
Long.             140.825
Depth. (km)       69
Mag.              4.9
Station Code      SZOH38
Station Lat.      35.0854
Station Long.     138.9779
Station Height(m) 100
Record Time       2025/03/30 10:18:57
Sampling Freq(Hz) 100Hz
Duration Time(s)  120
Dir.              6
Scale Factor      7845(gal)/8223790
Max. Acc. (gal)   0.904
Last Correction   2025/03/30 10:18:57
Memo.             
[...]
   21944    21944    21949    21945    21945    21949    21944    21946 
   21948    21946    21946    21946    21948    21948    21942    21944 
   21948    21946    21946    21945    21946    21948    21944    21946 
   21946    21945    21949    21946    21945    21948    21945    21946 
   21946    21945    21948    21945    21944    21945    21944    21946 
   21948    21945    21945    21946    21946    21948    21946    21948 
   21946    21942    21946    21945    21945    21952    21946    21945 
   21949    21945    21948    21948    21944    21948    21946    21945 
   21944    21942    21945    21945    21944    21946    21945    21946 
   21949    21945    21946    21946    21942    21945    21944    21945 
   21949    21945    21945    21948    21946    21945    21944    21945 
   21946    21944    21946    21946    21942    21945    21949    21949 
   21946    21945    21948    21946    21944    21948    21946    21941 
   21945    21948    21946    21945    21942    21949    21949    21945 
   21948    21945    21946    21949    21945    21948    21948    21944 
   21948    21946    21944    21946    21945    21946    21946    21946 
   21949    21945    21945    21951    21946    21945    21949    21946 
   21948    21945    21944    21946    21944    21945    21948    21946 
   21948    21945    21942    21948    21948    21946    21946    21945 
   21949    21948    21942    21944    21945    21946    21946    21945 
   21949    21949    21946    21946    21944    21948    21952    21948 
   21945    21945    21945    21946    21944    21945    21951    21948 
   21946    21948    21944    21944    21948    21948    21945    21942 
   21945    21948    21946    21949    21948    21944    21945    21946 
   21945    21945    21944    21944    21945    21945    21946    21944 
   21946    21948    21945    21948    21946    21944    21948    21946 
   21945    21949    21945    21946    21946    21942    21946    21948 
   21946    21946    21945    21946    21948    21946    21948    21945 
   21944    21949    21946    21945    21946    21944    21948    21946 
   21942    21945    21944    21946    21948    21942    21945    21945 
   21942    21946    21942    21942    21949    21948    21949    21946 
   21942    21949    21948    21944    21948    21946    21946    21948 
   21945    21948    21946    21946    21948    21942    21942    21945 
   21946    21951    21948    21944    21946    21945    21946    21945 
   21944    21948    21946    21944    21948    21944    21944    21946 
   21945    21948    21945    21944    21949    21951    21948    21948 
   21946    21948    21946    21944    21948    21946    21946    21949 
   21946    21948    21946    21942    21948    21949    21945    21945 
   21944    21948    21949    21945    21948    21946    21942    21946 
   21948    21949    21948    21942    21945    21945    21942    21949 
   21949    21946    21946    21945    21948    21949    21948    21949 
   21944    21945    21948    21944    21948    21949    21946    21949 
   21946    21944    21945    21944    21948    21949    21946    21948 
   21946    21945    21948    21945    21945    21945    21944    21948 
   21946    21946    21949    21945    21948    21949    21944    21946 
   21946    21946    21951    21946    21946    21945    21942    21948 
   21946    21944    21949    21946    21945    21949    21945    21944 
   21946    21948    21951    21948    21948    21949    21945    21948 
   21946    21945    21948    21946    21946    21948    21944    21946 
   21946    21944    21949    21951    21949    21952    21948    21948 
   21949    21944    21946    21948    21946    21949    21945    21946 
   21948    21945    21946    21945    21944    21948    21946    21945 
   21949    21948    21946    21945    21945    21948    21945    21946 
   21945    21941    21946    21946    21941    21946    21948    21946 
   21948    21945    21946    21946    21942    21946    21945    21944 
   21949    21945    21948    21951    21942    21942    21946    21946 
   21946    21946    21948    21948    21944    21948    21946    21944 
   21946    21944    21948    21951    21945    21946    21948    21944 
   21948    21946    21945    21948    21948    21948    21945    21945 
   21951    21945    21944    21948    21944    21945    21946    21945 
   21946    21944    21945    21949    21944    21946    21949    21945 
   21946    21946    21948    21949    21946    21946    21949    21945 
   21948    21948    21946    21946    21945    21946    21946    21945 
   21948    21949    21945    21946    21945    21945    21949    21946 
   21946    21946    21946    21949    21945    21944    21948    21944 
   21945    21946    21942    21946    21945    21942    21946    21945 
   21946    21948    21946    21948    21946    21945    21948    21945 
   21946    21946    21945    21948    21945    21945    21951    21948 
   21946    21948    21945    21949    21948    21944    21948    21948 
   21946    21948    21945    21946    21949    21945    21946    21946 
   21945    21948    21946    21948    21949    21946    21948    21945 
   21941    21945    21946    21948    21948    21942    21945    21946 
   21945    21948    21945    21944    21946    21948    21949    21945 
   21945    21948    21945    21948    21948    21942    21945    21946 
   21942    21946    21946    21944    21945    21945    21948    21945 
   21944    21949    21948    21948    21949    21945    21946    21945 
   21942    21946    21946    21945    21946    21945    21945    21944 
   21945    21949    21945    21944    21946    21942    21945    21949 
   21945    21948    21945    21944    21949    21944    21942    21946 
   21944    21945    21948    21946    21948    21945    21942    21944 
   21942    21946    21949    21948    21949    21946    21945    21946 
   21945    21949    21948    21944    21948    21948    21945    21948 
   21946    21948    21946    21942    21948    21944    21944    21951 
   21946    21946    21948    21945    21946    21946    21945    21949 
   21946    21948    21949    21945    21948    21948    21946    21949 
   21945    21945    21948    21945    21946    21945    21944    21951 
   21948    21942    21948    21948    21948    21949    21946    21948 
   21944    21944    21946    21944    21945    21951    21946    21948 
   21949    21948    21948    21944    21945    21948    21945    21946 
   21945    21946    21949    21945    21945    21948    21944    21944 
   21944    21948    21951    21944    21945    21949    21945    21948 
   21949    21944    21948    21948    21945    21948    21945    21944 
   21946    21945    21946    21946    21946    21949    21946    21945 
   21945    21945    21945    21945    21948    21949    21942    21945 
   21948    21944    21946    21946    21945    21948    21945    21946 
   21949    21944    21945    21946    21945    21948    21945    21945 
   21951    21945    21944    21946    21946    21948    21945    21945 
   21948    21945    21945    21948    21946    21948    21946    21948 
   21949    21944    21945    21946    21944    21948    21946    21945 
   21949    21948    21945    21944    21942    21946    21948    21944 
   21946    21946    21948    21948    21944    21946    21946    21946 
   21949    21945    21944    21948    21944    21945    21948    21946 
   21948    21942    21942    21945    21942    21946    21946    21942 
   21946    21945    21945    21951    21946    21945    21948    21946 
   21949    21948    21945    21945    21945    21948    21949    21945 
   21946    21948    21945    21949    21948    21945    21945    21944 
   21945    21945    21944    21949    21949    21946    21948    21946 
   21945    21945    21946    21949    21946    21948    21948    21942 
   21946    21948    21944    21946    21945    21946    21949    21944 
   21945    21948    21944    21946    21948    21945    21946    21945 
   21948    21948    21945    21946    21945    21946    21952    21945 
   21944    21948    21946    21948    21946    21945    21948    21945 
   21948    21953    21946    21945    21945    21944    21948    21946 
   21948    21951    21944    21944    21948    21946    21948    21946 
   21945    21948    21946    21948    21948    21945    21948    21948 
   21944    21948    21946    21944    21945    21944    21945    21946 
   21945    21948    21946    21946    21946    21942    21948    21948 
   21945    21948    21945    21945    21949    21946    21948    21949 
   21946    21948    21946    21948    21951    21945    21945    21946 
   21944    21948    21945    21944    21948    21946    21948    21946 
   21944    21949    21946    21944    21949    21948    21948    21945 
   21941    21945    21944    21942    21946    21944    21944    21948 
   21944    21945    21948    21945    21946    21948    21948    21946 
   21944    21946    21949    21945    21944    21944    21946    21951 
   21945    21946    21951    21946    21946    21948    21946    21946 
   21945    21949    21951    21945    21945    21944    21945    21949 
   21944    21944    21948    21944    21944    21949    21948    21948 
   21946    21948    21948    21946    21949    21944    21942    21946 
   21944    21944    21949    21945    21946    21946    21944    21946 
   21946    21948    21949    21944    21945    21948    21946    21945 
   21942    21945    21946    21942    21946    21949    21944    21946 
   21946    21946    21949    21945    21946    21949    21946    21948 
   21946    21945    21948    21944    21948    21951    21944    21946 
   21946    21944    21949    21946    21944    21945    21942    21944 
   21944    21945    21946    21941    21944    21949    21942    21944 
   21948    21945    21945    21945    21944    21946    21945    21946 
   21946    21945    21948    21945    21945    21951    21945    21948 
   21952    21946    21945    21944    21945    21948    21944    21945 
   21948    21944    21948    21948    21941    21944    21946    21946 
   21948    21946    21948    21945    21945    21948    21944    21945 
   21952    21945    21944    21945    21944    21946    21945    21944 
   21946    21945    21946    21948    21945    21945    21944    21946 
   21949    21944    21946    21951    21945    21945    21946    21944 
   21945    21945    21948    21949    21946    21946    21945    21944 
   21945    21944    21946    21948    21941    21944    21946    21945 
   21949    21948    21942    21942    21942    21945    21945    21945 
   21948    21941    21942    21951    21946    21945    21948    21946 
   21949    21945    21944    21948    21944    21946    21949    21945 
   21948    21945    21944    21946    21944    21945    21949    21945 
   21945    21946    21946    21951    21948    21944    21945    21945 
   21948    21946    21945    21945    21944    21945    21946    21944 
   21946    21949    21945    21948    21948    21946    21948    21946 
   21946    21948    21946    21946    21945    21946    21948    21945 
   21946    21946    21942    21945    21946    21946    21948    21946 
   21948    21948    21944    21946    21948    21948    21949    21945 
   21945    21946    21945    21949    21948    21942    21945    21945 
   21946    21949    21946    21948    21946    21944    21949    21948 
   21944    21948    21946    21946    21946    21948    21951    21946 
   21944    21945    21942    21946    21949    21944    21945    21945 
   21944    21951    21948    21946    21949    21945    21946    21948 
   21946    21945    21944    21948    21949    21944    21946    21948 
   21946    21951    21948    21946    21948    21942    21944    21946 
   21945    21948    21945    21942    21948    21948    21948    21949 
   21946    21946    21945    21946    21949    21944    21944    21948 
   21946    21948    21945    21942    21946    21945    21944    21948 
   21948    21951    21951    21945    21948    21948    21949    21949 
   21942    21946    21948    21942    21946    21946    21945    21946 
   21944    21945    21948    21946    21945    21944    21948    21951 
   21944    21945    21948    21945    21949    21948    21944    21948 
   21946    21948    21948    21942    21946    21948    21948    21948 
   21944    21946    21948    21941    21946    21951    21946    21948 
   21944    21942    21945    21945    21946    21944    21941    21942 
   21942    21941    21941    21937    21940    21941    21938    21938 
   21934    21933    21936    21934    21936    21938    21936    21934 
   21933    21932    21933    21932    21933    21933    21929    21934 
   21938    21938    21941    21938    21937    21938    21936    21934 
   21930    21928    21930    21924    21919    21919    21918    21926 
   21933    21932    21936    21942    21952    21967    21973    21983 
   21996    22009    22029    22048    22061    22073    22084    22098 
   22104    22098    22088    22068    22053    22050    22029    21992 
   21964    21955    21953    21936    21903    21875    21845    21817 
   21783    21735    21689    21668    21689    21733    21779    21837 
   21894    21945    22015    22081    22111    22102    22054    21965 
   21833    21721    21747    21907    22103    22272    22387    22420 
   22330    22122    21922    21820    21751    21640    21568    21730 
   22106    22374    22312    22034    21820    21767    21716    21502 
   21177    20999    21250    21883    22528    22856    22781    22458 
   22154    21999    21917    21763    21570    21566    21844    22206 
   22373    22315    22302    22397    22320    21995    21685    21554 
   21516    21520    21652    21868    21983    21940    21849    21829 
   21848    21763    21597    21505    21574    21749    21901    21969 
   22009    22081    22185    22245    22179    21992    21759    21656 
   21821    22165    22488    22623    22528    22319    22084    21878 
   21787    21736    21586    21450    21525    21868    22356    22648 
   22473    22009    21655    21598    21786    22002    21994    21801 
   21687    21794    22069    22289    22216    21937    21760    21832 
   22045    22144    22030    21911    21936    21940    21782    21617 
   21652    21845    22013    22050    21955    21837    21856    22049 
   22225    22171    21934    21717    21625    21706    21937    22194 
   22335    22260    22033    21876    21894    21996    22054    22022 
   21936    21852    21825    21883    21959    22019    22107    22176 
   22103    21859    21608    21604    21860    22117    22187    22099 
   22026    22060    22106    22075    21959    21778    21591    21478 
   21552    21845    22126    22162    22034    21937    21917    21929 
   21938    21921    21879    21861    21874    21865    21825    21789 
   21786    21820    21894    21971    21982    21987    22072    22164 
   22175    22115    22036    21982    21972    21988    21978    21957 
   22036    22161    22148    21988    21832    21783    21876    22049 
   22180    22149    21914    21667    21676    21922    22106    22003 
   21736    21628    21760    21928    21957    21848    21757    21837 
   22034    22141    22036    21855    21833    21980    22135    22164 
   22049    21938    21994    22126    22119    21964    21828    21784 
   21826    21945    22054    22067    22009    21976    22040    22123 
   22034    21779    21579    21577    21737    21928    22049    22145 
   22229    22183    21995    21820    21775    21820    21844    21830 
   21847    21941    22064    22099    22021    21928    21928    22046 
   22171    22148    21938    21679    21597    21740    21944    22054 
   22033    21944    21870    21847    21860    21915    22030    22095 
   21986    21847    21884    22063    22196    22146    21968    21830 
   21793    21832    21903    21995    22134    22215    22103    21911 
   21833    21894    21964    21925    21829    21784    21809    21870 
   21933    21998    22067    22060    21913    21732    21710    21895 
   22088    22053    21867    21810    21949    22098    22111    22019 
   21929    21924    22007    22094    22080    21957    21852    21894 
   22048    22154    22094    21898    21751    21776    21878    21914 
   21890    21884    21937    21992    21983    21945    21955    21990 
   21952    21865    21853    21915    21983    22041    22048    22006 
   21973    21956    21952    21965    21959    21944    21994    22086 
   22091    21976    21892    21961    22073    22053    21910    21774 
   21733    21791    21849    21828    21802    21853    21929    21986 
   22021    21995    21928    21891    21905    21946    21975    21964 
   21956    22011    22118    22152    22009    21802    21730    21844 
   22013    22075    22049    22038    22018    21968    21965    22014 
   22017    21946    21910    21948    21979    21964    21932    21925 
   21953    21946    21875    21826    21870    21936    21941    21960 
   22041    22072    21996    21864    21755    21737    21790    21840 
   21871    21905    21957    21983    21936    21886    21902    21957 
   22006    22029    22050    22071    22021    21903    21811    21818 
   21941    22087    22141    22107    22033    21961    21941    21948 
   21910    21843    21853    21942    21976    21937    21884    21897 
   22046    22207    22153    21883    21604    21558    21798    22088 
   22194    22125    22050    22045    22010    21894    21764    21705 
   21767    21914    22029    22061    22042    22017    21953    21838 
   21771    21807    21911    22025    22033    21901    21762    21744 
   21868    22021    22048    21994    22007    22084    22142    22142 
   22054    21887    21737    21733    21901    22081    22091    21938 
   21837    21925    22087    22161    22119    22014    21913    21852 
   21872    21956    21999    21987    21976    21951    21914    21891 
   21874    21879    21875    21832    21843    21965    22131    22233 
   22194    22026    21857    21793    21806    21838    21902    21982 
   22022    22017    22000    22034    22103    22086    21984    21938 
   21949    21903    21817    21791    21838    21928    22029    22032 
   21915    21841    21871    21911    21924    21921    21913    21894 
   21859    21860    21930    22000    22010    22009    22032    21991 
   21884    21848    21922    22021    22054    21991    21887    21822 
   21822    21870    21915    21938    21948    21906    21821    21801 
   21902    22069    22171    22130    22026    21953    21913    21897 
   21918    21964    21965    21921    21906    21948    22040    22119 
   22092    21980    21860    21775    21784    21860    21919    21936 
   21884    21816    21816    21847    21870    21932    22019    22054 
   22021    21992    22009    22021    21973    21878    21810    21859 
   21980    22044    21991    21919    21956    22054    22095    22050 
   21959    21894    21898    21922    21946    21973    21994    22021 
   22044    22019    21964    21932    21964    22041    22086    22048 
   21932    21834    21878    22005    22057    22010    21910    21813 
   21806    21884    21919    21884    21884    21940    21994    22046 
   22053    21968    21871    21826    21826    21891    21994    22033 
