Origin Time       2025/03/30 10:18:00
Lat.              34.667
Long.             140.825
Depth. (km)       69
Mag.              4.9
Station Code      SZOH54
Station Lat.      35.0417
Station Long.     139.1685
Station Height(m) -90
Record Time       2025/03/30 10:18:54
Sampling Freq(Hz) 100Hz
Duration Time(s)  120
Dir.              3
Scale Factor      2940(gal)/6170270
Max. Acc. (gal)   0.313
Last Correction   2025/03/30 10:18:39
Memo.             
[...]
  -27352   -27351   -27350   -27352   -27354   -27351   -27351   -27353 
  -27350   -27349   -27354   -27355   -27354   -27354   -27351   -27351 
  -27354   -27353   -27351   -27351   -27352   -27351   -27351   -27352 
  -27352   -27350   -27351   -27353   -27353   -27354   -27353   -27351 
  -27352   -27354   -27355   -27353   -27351   -27351   -27353   -27354 
  -27352   -27352   -27353   -27353   -27352   -27352   -27351   -27351 
  -27354   -27354   -27351   -27351   -27353   -27350   -27349   -27352 
  -27353   -27350   -27350   -27352   -27351   -27349   -27351   -27353 
  -27353   -27352   -27351   -27351   -27353   -27353   -27351   -27351 
  -27352   -27353   -27353   -27352   -27353   -27351   -27350   -27351 
  -27352   -27352   -27354   -27356   -27353   -27350   -27352   -27352 
  -27354   -27353   -27350   -27350   -27354   -27354   -27352   -27350 
  -27352   -27353   -27352   -27352   -27355   -27354   -27351   -27350 
  -27351   -27355   -27354   -27351   -27352   -27353   -27351   -27349 
  -27351   -27352   -27351   -27351   -27350   -27349   -27351   -27353 
  -27352   -27351   -27352   -27353   -27352   -27352   -27354   -27354 
  -27354   -27355   -27353   -27352   -27353   -27354   -27352   -27352 
  -27354   -27353   -27350   -27351   -27354   -27355   -27353   -27350 
  -27351   -27354   -27353   -27349   -27351   -27355   -27353   -27352 
  -27355   -27353   -27351   -27353   -27353   -27353   -27352   -27352 
  -27352   -27352   -27352   -27352   -27351   -27350   -27351   -27353 
  -27353   -27353   -27353   -27352   -27353   -27353   -27354   -27352 
  -27351   -27353   -27352   -27351   -27354   -27354   -27352   -27352 
  -27354   -27353   -27350   -27352   -27355   -27354   -27352   -27350 
  -27349   -27350   -27351   -27350   -27351   -27353   -27353   -27351 
  -27349   -27350   -27351   -27350   -27351   -27352   -27351   -27351 
  -27352   -27352   -27351   -27353   -27355   -27352   -27350   -27351 
  -27352   -27352   -27352   -27351   -27352   -27353   -27352   -27353 
  -27353   -27351   -27352   -27353   -27351   -27351   -27353   -27351 
  -27351   -27352   -27351   -27352   -27354   -27352   -27349   -27350 
  -27353   -27352   -27351   -27352   -27352   -27351   -27351   -27351 
  -27350   -27352   -27355   -27353   -27350   -27352   -27353   -27352 
  -27352   -27351   -27351   -27351   -27350   -27352   -27352   -27354 
  -27354   -27350   -27349   -27352   -27351   -27351   -27352   -27351 
  -27351   -27352   -27351   -27351   -27352   -27351   -27352   -27353 
  -27351   -27351   -27353   -27351   -27350   -27351   -27350   -27350 
  -27351   -27351   -27352   -27353   -27352   -27353   -27355   -27351 
  -27350   -27353   -27353   -27353   -27352   -27350   -27351   -27353 
  -27352   -27349   -27350   -27352   -27352   -27351   -27353   -27353 
  -27352   -27350   -27350   -27350   -27349   -27351   -27352   -27352 
  -27351   -27352   -27353   -27351   -27349   -27352   -27353   -27352 
  -27351   -27352   -27352   -27352   -27351   -27350   -27350   -27351 
  -27352   -27352   -27349   -27349   -27352   -27352   -27350   -27352 
  -27353   -27350   -27351   -27356   -27354   -27352   -27354   -27353 
  -27351   -27353   -27354   -27351   -27349   -27351   -27353   -27353 
  -27351   -27350   -27351   -27350   -27351   -27353   -27351   -27352 
  -27352   -27350   -27350   -27351   -27352   -27352   -27352   -27354 
  -27351   -27349   -27351   -27351   -27351   -27353   -27352   -27351 
  -27353   -27352   -27351   -27353   -27352   -27352   -27353   -27352 
  -27350   -27351   -27354   -27356   -27355   -27353   -27349   -27349 
  -27352   -27354   -27354   -27352   -27351   -27351   -27351   -27353 
  -27353   -27352   -27352   -27354   -27353   -27349   -27350   -27353 
  -27352   -27351   -27352   -27352   -27352   -27351   -27351   -27352 
  -27350   -27352   -27353   -27350   -27349   -27353   -27354   -27352 
  -27352   -27352   -27352   -27352   -27350   -27351   -27352   -27352 
  -27352   -27350   -27349   -27351   -27350   -27350   -27352   -27352 
  -27352   -27353   -27353   -27352   -27351   -27352   -27353   -27352 
  -27353   -27355   -27352   -27352   -27352   -27350   -27350   -27350 
  -27352   -27353   -27352   -27354   -27355   -27352   -27351   -27351 
  -27351   -27354   -27353   -27351   -27351   -27351   -27352   -27352 
  -27351   -27352   -27354   -27353   -27352   -27349   -27349   -27351 
  -27352   -27352   -27352   -27353   -27352   -27350   -27350   -27352 
  -27350   -27349   -27352   -27353   -27353   -27353   -27352   -27352 
  -27352   -27353   -27353   -27350   -27350   -27351   -27350   -27352 
  -27355   -27352   -27349   -27348   -27350   -27352   -27353   -27350 
  -27349   -27351   -27351   -27349   -27351   -27353   -27352   -27351 
  -27352   -27351   -27349   -27350   -27350   -27351   -27351   -27349 
  -27351   -27353   -27352   -27350   -27350   -27351   -27351   -27350 
  -27351   -27354   -27354   -27352   -27351   -27351   -27352   -27351 
  -27351   -27352   -27351   -27350   -27351   -27351   -27352   -27353 
  -27352   -27352   -27351   -27350   -27351   -27352   -27351   -27351 
  -27350   -27349   -27349   -27349   -27350   -27352   -27351   -27349 
  -27350   -27351   -27350   -27349   -27351   -27350   -27350   -27351 
  -27349   -27349   -27351   -27350   -27351   -27351   -27349   -27349 
  -27350   -27352   -27353   -27352   -27350   -27351   -27352   -27350 
  -27350   -27354   -27353   -27351   -27351   -27351   -27349   -27350 
  -27352   -27350   -27349   -27351   -27350   -27350   -27353   -27352 
  -27351   -27351   -27351   -27351   -27350   -27353   -27356   -27354 
  -27351   -27348   -27348   -27351   -27351   -27349   -27351   -27351 
  -27351   -27352   -27351   -27351   -27351   -27350   -27350   -27352 
  -27352   -27352   -27352   -27351   -27349   -27351   -27353   -27351 
  -27351   -27352   -27353   -27352   -27352   -27354   -27355   -27353 
  -27352   -27353   -27351   -27351   -27352   -27352   -27352   -27353 
  -27352   -27352   -27353   -27352   -27351   -27353   -27355   -27353 
  -27351   -27350   -27349   -27350   -27353   -27353   -27351   -27353 
  -27352   -27350   -27353   -27351   -27349   -27350   -27351   -27350 
  -27352   -27353   -27352   -27351   -27350   -27350   -27351   -27351 
  -27350   -27352   -27353   -27352   -27351   -27352   -27351   -27350 
  -27352   -27353   -27354   -27352   -27350   -27349   -27348   -27349 
  -27351   -27352   -27351   -27352   -27354   -27352   -27348   -27348 
  -27351   -27351   -27349   -27350   -27350   -27350   -27353   -27352 
  -27351   -27351   -27350   -27351   -27352   -27351   -27350   -27351 
  -27351   -27351   -27352   -27351   -27353   -27356   -27353   -27351 
  -27353   -27353   -27352   -27353   -27353   -27353   -27353   -27352 
  -27350   -27351   -27353   -27352   -27349   -27350   -27352   -27351 
  -27350   -27350   -27351   -27352   -27353   -27353   -27352   -27351 
  -27349   -27350   -27351   -27350   -27350   -27351   -27350   -27350 
  -27352   -27351   -27349   -27352   -27354   -27352   -27350   -27351 
  -27351   -27351   -27353   -27352   -27350   -27349   -27352   -27354 
  -27351   -27350   -27352   -27353   -27352   -27349   -27350   -27353 
  -27352   -27351   -27352   -27351   -27350   -27350   -27350   -27350 
  -27351   -27352   -27350   -27349   -27351   -27351   -27348   -27347 
  -27350   -27354   -27354   -27352   -27350   -27349   -27349   -27350 
  -27353   -27354   -27352   -27351   -27349   -27350   -27350   -27350 
  -27352   -27351   -27349   -27351   -27351   -27348   -27350   -27353 
  -27352   -27352   -27353   -27353   -27351   -27348   -27351   -27354 
  -27352   -27352   -27355   -27353   -27350   -27351   -27355   -27354 
  -27350   -27351   -27353   -27353   -27352   -27352   -27351   -27350 
  -27351   -27352   -27352   -27351   -27351   -27351   -27351   -27352 
  -27352   -27352   -27353   -27352   -27350   -27350   -27351   -27350 
  -27349   -27351   -27350   -27350   -27353   -27353   -27350   -27350 
  -27352   -27352   -27351   -27353   -27354   -27354   -27353   -27350 
  -27348   -27352   -27354   -27354   -27354   -27353   -27352   -27351 
  -27349   -27349   -27352   -27352   -27354   -27353   -27350   -27351 
  -27353   -27352   -27350   -27350   -27351   -27352   -27354   -27355 
  -27353   -27353   -27351   -27349   -27350   -27353   -27353   -27351 
  -27351   -27353   -27351   -27348   -27349   -27351   -27351   -27351 
  -27351   -27350   -27350   -27352   -27353   -27354   -27351   -27349 
  -27351   -27350   -27348   -27348   -27349   -27351   -27352   -27351 
  -27351   -27351   -27350   -27348   -27350   -27352   -27351   -27351 
  -27352   -27352   -27351   -27351   -27349   -27349   -27351   -27353 
  -27352   -27351   -27350   -27350   -27350   -27352   -27353   -27352 
  -27352   -27352   -27349   -27349   -27350   -27351   -27352   -27353 
  -27351   -27349   -27351   -27352   -27350   -27350   -27351   -27351 
  -27350   -27350   -27350   -27351   -27351   -27350   -27349   -27349 
  -27352   -27352   -27351   -27352   -27350   -27349   -27351   -27354 
  -27352   -27350   -27351   -27352   -27353   -27354   -27352   -27351 
  -27353   -27350   -27348   -27351   -27353   -27354   -27356   -27351 
  -27348   -27349   -27348   -27349   -27354   -27358   -27359   -27355 
  -27350   -27350   -27350   -27350   -27352   -27355   -27357   -27355 
  -27351   -27349   -27347   -27349   -27352   -27354   -27356   -27353 
  -27348   -27347   -27350   -27351   -27351   -27352   -27353   -27350 
  -27349   -27351   -27351   -27350   -27351   -27353   -27352   -27350 
  -27349   -27350   -27351   -27351   -27350   -27350   -27351   -27351 
  -27351   -27352   -27351   -27348   -27349   -27350   -27351   -27352 
  -27352   -27350   -27350   -27352   -27352   -27350   -27351   -27354 
  -27354   -27353   -27352   -27349   -27347   -27347   -27351   -27353 
  -27353   -27352   -27350   -27351   -27350   -27347   -27349   -27354 
  -27353   -27350   -27352   -27352   -27349   -27349   -27354   -27356 
  -27353   -27351   -27351   -27349   -27348   -27350   -27353   -27352 
  -27351   -27352   -27350   -27350   -27349   -27348   -27351   -27352 
  -27351   -27351   -27351   -27351   -27351   -27351   -27349   -27348 
  -27350   -27354   -27354   -27352   -27349   -27347   -27349   -27351 
  -27349   -27347   -27348   -27353   -27352   -27352   -27352   -27350 
  -27350   -27351   -27351   -27350   -27351   -27351   -27350   -27349 
  -27348   -27348   -27349   -27350   -27351   -27351   -27350   -27351 
  -27350   -27348   -27350   -27354   -27353   -27349   -27350   -27350 
  -27348   -27350   -27350   -27349   -27352   -27352   -27350   -27351 
  -27352   -27350   -27349   -27351   -27353   -27351   -27350   -27352 
  -27352   -27351   -27353   -27354   -27354   -27352   -27350   -27351 
  -27352   -27351   -27350   -27352   -27354   -27354   -27351   -27352 
  -27350   -27347   -27349   -27352   -27352   -27351   -27349   -27348 
  -27349   -27351   -27352   -27352   -27350   -27347   -27348   -27350 
  -27352   -27354   -27352   -27347   -27348   -27352   -27352   -27353 
  -27352   -27347   -27348   -27349   -27350   -27354   -27352   -27350 
  -27350   -27348   -27350   -27350   -27348   -27351   -27352   -27350 
  -27350   -27352   -27351   -27350   -27350   -27352   -27353   -27350 
  -27349   -27349   -27351   -27353   -27350   -27348   -27350   -27350 
  -27351   -27353   -27352   -27351   -27353   -27355   -27351   -27348 
  -27348   -27347   -27348   -27352   -27353   -27351   -27351   -27351 
  -27350   -27350   -27352   -27350   -27350   -27353   -27353   -27352 
  -27350   -27350   -27352   -27352   -27351   -27350   -27352   -27354 
  -27352   -27350   -27351   -27351   -27352   -27354   -27352   -27351 
  -27352   -27353   -27352   -27349   -27349   -27352   -27352   -27350 
  -27351   -27353   -27352   -27349   -27350   -27352   -27348   -27347 
  -27351   -27350   -27349   -27350   -27348   -27350   -27354   -27352 
  -27349   -27351   -27352   -27350   -27351   -27350   -27348   -27350 
  -27352   -27352   -27352   -27351   -27349   -27350   -27350   -27348 
  -27348   -27350   -27350   -27348   -27347   -27348   -27351   -27354 
  -27355   -27354   -27349   -27346   -27349   -27352   -27353   -27355 
  -27353   -27350   -27349   -27350   -27351   -27350   -27350   -27352 
  -27351   -27350   -27350   -27352   -27353   -27350   -27349   -27350 
  -27350   -27352   -27354   -27352   -27352   -27352   -27351   -27352 
  -27352   -27352   -27352   -27352   -27352   -27350   -27349   -27349 
  -27348   -27351   -27356   -27357   -27354   -27351   -27349   -27347 
  -27348   -27351   -27352   -27353   -27354   -27355   -27351   -27347 
  -27348   -27352   -27353   -27352   -27351   -27351   -27350   -27348 
  -27351   -27354   -27354   -27352   -27352   -27350   -27348   -27351 
  -27351   -27351   -27353   -27353   -27351   -27351   -27351   -27348 
  -27347   -27351   -27355   -27357   -27356   -27351   -27349   -27353 
  -27355   -27358   -27365   -27369   -27368   -27368   -27373   -27377 
  -27382   -27386   -27390   -27397   -27404   -27410   -27416   -27421 
  -27425   -27432   -27438   -27438   -27439   -27439   -27435   -27435 
  -27440   -27439   -27432   -27426   -27418   -27410   -27406   -27403 
  -27403   -27403   -27402   -27396   -27379   -27353   -27325   -27296 
  -27267   -27238   -27205   -27158   -27090   -27008   -26943   -26932 
  -26961   -26985   -26973   -26908   -26794   -26694   -26704   -26872 
  -27146   -27407   -27555   -27569   -27492   -27407   -27371   -27369 
  -27371   -27412   -27534   -27703   -27819   -27801   -27670   -27531 
  -27481   -27534   -27586   -27526   -27397   -27327   -27367   -27463 
  -27546   -27600   -27616   -27565   -27502   -27536   -27696   -27866 
  -27901   -27770   -27535   -27270   -27099   -27150   -27379   -27541 
  -27451   -27188   -26974   -26936   -27037   -27161   -27209   -27147 
  -27001   -26874   -26896   -27020   -27124   -27251   -27438   -27556 
  -27512   -27385   -27335   -27409   -27494   -27499   -27502   -27617 
  -27773   -27770   -27586   -27368   -27224   -27191   -27237   -27269 
  -27236   -27212   -27281   -27413   -27468   -27379   -27270   -27269 
  -27303   -27274   -27214   -27167   -27115   -27069   -27101   -27219 
  -27337   -27402   -27443   -27469   -27395   -27215   -27106   -27173 
  -27326   -27458   -27494   -27393   -27264   -27295   -27518   -27738 
  -27772   -27657   -27556   -27494   -27402   -27347   -27404   -27482 
  -27495   -27453   -27375   -27318   -27338   -27376   -27378   -27367 
  -27357   -27323   -27275   -27254   -27263   -27274   -27277   -27267 
  -27236   -27215   -27238   -27272   -27260   -27242   -27309   -27423 
  -27469   -27427   -27366   -27342   -27342   -27322   -27275   -27227 
  -27234   -27326   -27412   -27368   -27223   -27152   -27251   -27382 
  -27387   -27326   -27335   -27400   -27437   -27448   -27464   -27454 
  -27414   -27378   -27364   -27390   -27439   -27445   -27397   -27362 
  -27384   -27439   -27469   -27451   -27416   -27371   -27300   -27237 
  -27220   -27233   -27250   -27251   -27227   -27218   -27267   -27345 
  -27394   -27386   -27355   -27333   -27302   -27285   -27361   -27500 
  -27583   -27574   -27536   -27511   -27474   -27397   -27310   -27249 
  -27209   -27178   -27174   -27198   -27215   -27247   -27316   -27373 
  -27390   -27401   -27389   -27286   -27117   -27027   -27073   -27176 
  -27262   -27335   -27405   -27466   -27514   -27545   -27552   -27574 
  -27623   -27634   -27570   -27481   -27430   -27427   -27413   -27343 
  -27233   -27150   -27161   -27225   -27248   -27244   -27282   -27349 
  -27397   -27397   -27373   -27371   -27375   -27362   -27353   -27341 
  -27329   -27358   -27420   -27487   -27526   -27507   -27444   -27363 
  -27294   -27272   -27269   -27258   -27274   -27328   -27401   -27457 
  -27437   -27353   -27280   -27268   -27323   -27379   -27381   -27370 
  -27369   -27336   -27257   -27180   -27182   -27266   -27386   -27482 
  -27468   -27372   -27347   -27405   -27428   -27389   -27374   -27421 
  -27470   -27482   -27474   -27426   -27351   -27334   -27402   -27467 
  -27448   -27367   -27310   -27313   -27317   -27273   -27234   -27245 
  -27270   -27249   -27185   -27147   -27186   -27284   -27394   -27451 
  -27410   -27322   -27283   -27289   -27271   -27247   -27279   -27365 
  -27460   -27502   -27456   -27389   -27390   -27458   -27501   -27457 
  -27376   -27326   -27295   -27258   -27238   -27291   -27402   -27462 
  -27430   -27372   -27318   -27253   -27195   -27168   -27199   -27295 
  -27385   -27421   -27412   -27349   -27297   -27329   -27389   -27412 
  -27416   -27414   -27383   -27338   -27310   -27299   -27317   -27378 
  -27432   -27437   -27414   -27390   -27370   -27348   -27305   -27263 
  -27275   -27296   -27274   -27272   -27321   -27339   -27305   -27266 
  -27244   -27257   -27311   -27405   -27498   -27516   -27465   -27421 
  -27408   -27416   -27422   -27412   -27416   -27448   -27469   -27449 
  -27417   -27401   -27382   -27341   -27308   -27318   -27357   -27391 
  -27397   -27355   -27273   -27212   -27201   -27223   -27255   -27277 
  -27290   -27302   -27288   -27232   -27162   -27149   -27229   -27347 
  -27426   -27428   -27365   -27312   -27314   -27326   -27309   -27290 
  -27294   -27323   -27358   -27349   -27290   -27252   -27297   -27395 
  -27449   -27419   -27367   -27368   -27423   -27478   -27479   -27425 
  -27380   -27387   -27410   -27439   -27479   -27512   -27530   -27524 
  -27486   -27433   -27383   -27366   -27393   -27401   -27345   -27276 
  -27276   -27356   -27439   -27445   -27376   -27317   -27324   -27335 
  -27298   -27274   -27310   -27363   -27373   -27337   -27308   -27298 
  -27290   -27297   -27314   -27320   -27316   -27318   -27351   -27414 
  -27438   -27379   -27284   -27243   -27302   -27414   -27486   -27482 
  -27446   -27436   -27449   -27424   -27338   -27281   -27314   -27354 
  -27319   -27249   -27209   -27226   -27290   -27341   -27333   -27285 
  -27264   -27312   -27351   -27300   -27249   -27286   -27359   -27383 
  -27336   -27269   -27238   -27229   -27233   -27273   -27340   -27390 
  -27417   -27434   -27431   -27422   -27417   -27414   -27425   -27446 
  -27448   -27428   -27380   -27314   -27295   -27333   -27354   -27343 
  -27332   -27313   -27287   -27275   -27272   -27258   -27229   -27205 
  -27204   -27247   -27341   -27422   -27438   -27422   -27403   -27392 
  -27397   -27406   -27406   -27415   -27430   -27433   -27441   -27456 
  -27443   -27399   -27379   -27390   -27382   -27339   -27284   -27252 
  -27264   -27291   -27309   -27337   -27363   -27358   -27338   -27345 
  -27373   -27395   -27404   -27406   -27414   -27425   -27434   -27434 
  -27423   -27422   -27446   -27468   -27455   -27417   -27403   -27419 
  -27409   -27347   -27276   -27244   -27267   -27321   -27365   -27376 
  -27348   -27314   -27314   -27321   -27293   -27260   -27270   -27301 
  -27307   -27290   -27283   -27281   -27274   -27285   -27311   -27318 
  -27305   -27303   -27325   -27343   -27337   -27325   -27333   -27363 
  -27389   -27389   -27375   -27354   -27348   -27375   -27402   -27392 
  -27361   -27345   -27355   -27358   -27321   -27250   -27190   -27183 
