Origin Time       2025/03/30 10:18:00
Lat.              34.667
Long.             140.825
Depth. (km)       69
Mag.              4.9
Station Code      SZOH35
Station Lat.      34.9467
Station Long.     139.0855
Station Height(m) -160
Record Time       2025/03/30 10:18:55
Sampling Freq(Hz) 100Hz
Duration Time(s)  120
Dir.              3
Scale Factor      2942(gal)/8224139
Max. Acc. (gal)   0.579
Last Correction   2025/03/30 10:18:55
Memo.             
[...]
   56717    56712    56708    56712    56713    56714    56714    56710 
   56710    56712    56710    56709    56713    56714    56712    56710 
   56709    56710    56710    56708    56709    56710    56708    56710 
   56713    56712    56712    56717    56716    56709    56709    56714 
   56712    56710    56713    56713    56714    56714    56712    56708 
   56710    56713    56710    56710    56710    56708    56709    56712 
   56710    56709    56710    56709    56709    56709    56708    56708 
   56708    56706    56708    56710    56709    56709    56710    56710 
   56709    56709    56713    56717    56716    56714    56714    56714 
   56710    56710    56713    56712    56712    56714    56713    56712 
   56714    56712    56712    56713    56710    56709    56713    56714 
   56709    56708    56713    56713    56712    56713    56712    56712 
   56712    56714    56716    56713    56710    56710    56710    56709 
   56710    56713    56709    56708    56714    56716    56712    56712 
   56713    56714    56717    56716    56713    56716    56718    56716 
   56717    56716    56710    56710    56713    56714    56716    56717 
   56713    56712    56713    56712    56714    56718    56714    56709 
   56712    56713    56710    56713    56716    56712    56710    56716 
   56717    56714    56717    56717    56716    56713    56712    56708 
   56710    56714    56712    56713    56717    56716    56717    56718 
   56716    56714    56712    56710    56712    56714    56713    56712 
   56710    56709    56712    56714    56714    56716    56716    56714 
   56713    56713    56712    56712    56713    56713    56713    56714 
   56714    56712    56712    56717    56718    56718    56716    56714 
   56714    56714    56713    56714    56716    56717    56718    56717 
   56716    56716    56716    56716    56714    56716    56717    56717 
   56716    56714    56714    56714    56713    56714    56714    56716 
   56718    56714    56714    56717    56714    56710    56714    56714 
   56713    56713    56712    56712    56713    56713    56712    56712 
   56718    56721    56717    56716    56718    56718    56716    56713 
   56716    56716    56714    56718    56717    56717    56721    56717 
   56713    56717    56717    56716    56720    56718    56717    56717 
   56717    56717    56721    56722    56717    56714    56717    56717 
   56716    56716    56716    56716    56718    56718    56713    56714 
   56717    56716    56716    56716    56721    56725    56720    56717 
   56720    56721    56718    56717    56718    56718    56717    56718 
   56720    56717    56716    56718    56718    56716    56716    56717 
   56717    56720    56724    56725    56720    56717    56720    56718 
   56717    56717    56721    56722    56717    56716    56717    56716 
   56721    56725    56717    56713    56718    56721    56714    56713 
   56717    56717    56714    56716    56714    56713    56714    56717 
   56716    56713    56716    56720    56718    56716    56717    56718 
   56717    56718    56720    56716    56714    56716    56714    56716 
   56718    56718    56716    56712    56717    56724    56721    56718 
   56718    56718    56720    56718    56716    56717    56717    56713 
   56712    56716    56716    56712    56710    56709    56710    56713 
   56712    56709    56712    56713    56712    56710    56710    56713 
   56713    56716    56716    56713    56713    56713    56713    56714 
   56713    56713    56713    56713    56714    56713    56712    56713 
   56713    56714    56713    56710    56713    56713    56713    56716 
   56710    56712    56716    56712    56712    56714    56716    56714 
   56712    56709    56712    56713    56713    56712    56712    56716 
   56717    56717    56718    56717    56713    56717    56718    56714 
   56714    56717    56714    56714    56714    56713    56713    56713 
   56714    56716    56713    56712    56713    56713    56713    56713 
   56714    56717    56720    56717    56714    56717    56716    56713 
   56716    56717    56716    56713    56716    56720    56714    56712 
   56717    56717    56713    56716    56716    56714    56716    56716 
   56714    56714    56716    56717    56717    56714    56712    56714 
   56716    56714    56714    56716    56716    56713    56709    56712 
   56712    56709    56714    56716    56710    56712    56712    56713 
   56714    56714    56714    56710    56710    56713    56712    56712 
   56710    56712    56716    56716    56712    56710    56712    56713 
   56712    56710    56710    56712    56710    56706    56706    56713 
   56716    56713    56714    56714    56709    56709    56712    56712 
   56713    56713    56709    56710    56713    56709    56709    56710 
   56710    56712    56713    56710    56710    56712    56709    56708 
   56712    56713    56712    56706    56705    56710    56713    56713 
   56712    56712    56717    56718    56710    56709    56713    56710 
   56709    56713    56714    56710    56710    56714    56712    56709 
   56712    56713    56713    56710    56710    56716    56713    56709 
   56712    56712    56713    56714    56714    56713    56710    56710 
   56712    56713    56712    56710    56714    56713    56710    56712 
   56710    56712    56713    56710    56712    56712    56712    56716 
   56716    56713    56712    56712    56709    56708    56710    56713 
   56713    56712    56712    56713    56713    56710    56712    56714 
   56712    56710    56716    56716    56712    56710    56710    56712 
   56713    56710    56712    56714    56714    56713    56710    56708 
   56713    56717    56718    56720    56716    56713    56718    56717 
   56712    56713    56714    56714    56714    56712    56713    56716 
   56714    56712    56716    56718    56714    56713    56716    56713 
   56712    56713    56712    56712    56713    56712    56710    56712 
   56713    56713    56713    56713    56713    56712    56713    56713 
   56709    56712    56717    56712    56710    56716    56714    56713 
   56713    56714    56717    56714    56710    56709    56710    56716 
   56718    56714    56710    56710    56708    56706    56714    56717 
   56712    56712    56714    56716    56716    56716    56714    56713 
   56717    56716    56712    56713    56712    56708    56712    56717 
   56716    56712    56712    56709    56705    56710    56713    56709 
   56712    56713    56709    56712    56714    56710    56710    56716 
   56716    56714    56713    56713    56713    56709    56710    56710 
   56705    56708    56712    56712    56717    56716    56710    56713 
   56714    56712    56710    56712    56716    56717    56717    56714 
   56713    56714    56713    56710    56709    56709    56713    56716 
   56714    56713    56712    56712    56713    56712    56710    56712 
   56714    56714    56713    56712    56713    56712    56706    56706 
   56713    56716    56716    56718    56716    56712    56712    56710 
   56710    56709    56706    56712    56716    56710    56710    56712 
   56710    56712    56713    56712    56709    56709    56710    56713 
   56713    56712    56712    56710    56712    56713    56713    56714 
   56712    56710    56713    56716    56712    56712    56716    56716 
   56712    56710    56713    56713    56713    56710    56708    56713 
   56717    56716    56714    56716    56713    56710    56714    56717 
   56713    56714    56714    56710    56713    56712    56710    56717 
   56716    56712    56714    56712    56713    56716    56710    56710 
   56713    56710    56712    56712    56709    56713    56712    56708 
   56714    56717    56712    56713    56718    56720    56718    56717 
   56716    56713    56710    56713    56714    56712    56713    56716 
   56712    56710    56714    56716    56713    56713    56717    56716 
   56714    56717    56718    56718    56717    56718    56717    56712 
   56714    56718    56716    56714    56712    56713    56717    56717 
   56714    56716    56717    56716    56716    56716    56717    56714 
   56714    56714    56713    56714    56716    56713    56714    56717 
   56717    56714    56712    56712    56714    56716    56713    56710 
   56714    56717    56713    56713    56714    56717    56721    56717 
   56713    56714    56713    56714    56716    56710    56708    56712 
   56717    56716    56712    56713    56713    56709    56713    56718 
   56712    56708    56710    56712    56712    56714    56714    56712 
   56710    56714    56713    56710    56712    56714    56714    56718 
   56721    56714    56713    56718    56720    56713    56712    56713 
   56710    56709    56714    56714    56710    56710    56713    56714 
   56712    56712    56713    56712    56713    56716    56712    56708 
   56710    56710    56709    56709    56709    56710    56710    56710 
   56716    56714    56710    56710    56710    56712    56713    56710 
   56710    56709    56709    56713    56710    56708    56712    56713 
   56713    56713    56712    56710    56709    56708    56709    56710 
   56709    56710    56709    56705    56704    56706    56712    56713 
   56710    56709    56708    56709    56710    56710    56710    56709 
   56710    56712    56712    56712    56712    56708    56708    56710 
   56710    56710    56708    56710    56712    56708    56708    56712 
   56710    56706    56706    56708    56709    56713    56713    56712 
   56714    56713    56708    56710    56714    56713    56712    56713 
   56713    56712    56712    56713    56716    56713    56710    56714 
   56712    56706    56710    56716    56713    56709    56709    56710 
   56714    56714    56708    56709    56713    56710    56710    56713 
   56713    56710    56706    56708    56712    56714    56714    56710 
   56710    56714    56712    56708    56709    56710    56709    56708 
   56708    56709    56706    56705    56709    56712    56713    56716 
   56710    56710    56714    56714    56713    56714    56716    56718 
   56717    56712    56713    56718    56716    56712    56712    56712 
   56712    56713    56716    56717    56713    56710    56714    56717 
   56712    56706    56708    56709    56712    56713    56713    56713 
   56712    56713    56713    56710    56712    56713    56710    56712 
   56712    56709    56710    56712    56713    56714    56713    56713 
   56713    56712    56713    56713    56712    56713    56713    56710 
   56709    56708    56706    56706    56710    56709    56706    56710 
   56712    56710    56712    56713    56709    56708    56708    56708 
   56709    56709    56708    56705    56706    56706    56706    56709 
   56709    56706    56710    56708    56705    56710    56709    56706 
   56712    56712    56710    56706    56705    56712    56713    56709 
   56709    56714    56712    56708    56713    56716    56709    56708 
   56714    56716    56712    56714    56717    56710    56709    56713 
   56712    56713    56716    56716    56713    56709    56709    56713 
   56712    56712    56712    56712    56713    56710    56706    56708 
   56714    56716    56709    56708    56713    56717    56716    56712 
   56710    56713    56717    56718    56714    56709    56710    56713 
   56710    56709    56712    56714    56713    56713    56717    56717 
   56712    56708    56708    56710    56712    56713    56713    56710 
   56709    56713    56713    56709    56710    56712    56710    56713 
   56713    56709    56712    56716    56717    56716    56712    56712 
   56717    56717    56714    56714    56713    56713    56717    56717 
   56712    56712    56713    56713    56713    56714    56717    56717 
   56712    56708    56713    56718    56714    56712    56717    56721 
   56716    56712    56716    56720    56718    56717    56714    56713 
   56713    56714    56712    56713    56716    56714    56714    56714 
   56714    56714    56714    56714    56713    56712    56710    56713 
   56712    56709    56709    56713    56714    56710    56710    56712 
   56713    56710    56710    56713    56710    56709    56713    56713 
   56710    56710    56709    56710    56710    56709    56708    56709 
   56709    56709    56712    56712    56710    56712    56712    56713 
   56713    56710    56710    56712    56710    56709    56712    56710 
   56709    56710    56710    56710    56709    56710    56713    56712 
   56709    56709    56709    56712    56712    56710    56712    56712 
   56709    56708    56706    56706    56712    56710    56709    56709 
   56708    56708    56709    56709    56710    56710    56710    56709 
   56708    56708    56706    56709    56713    56712    56710    56713 
   56712    56706    56706    56712    56710    56709    56712    56709 
   56712    56713    56708    56705    56706    56710    56714    56712 
   56709    56708    56702    56702    56706    56706    56705    56702 
   56704    56708    56704    56701    56700    56697    56698    56697 
   56694    56697    56694    56689    56687    56681    56674    56671 
   56666    56663    56656    56646    56633    56621    56616    56612 
   56602    56593    56589    56587    56585    56587    56605    56629 
   56664    56706    56747    56786    56825    56870    56933    57015 
   57076    57044    56899    56728    56673    56821    57107    57350 
   57399    57199    56803    56371    56060    55902    55846    55872 
   56039    56466    57177    57939    58334    58118    57412    56567 
   56016    56069    56506    56704    56443    56176    56266    56552 
   56816    57005    56975    56539    55844    55409    55706    56704 
   57788    58149    57531    56608    56227    56403    56654    56847 
   56944    56678    56099    55792    56215    57080    57627    57491 
   56991    56475    56087    56134    56706    57173    56921    56250 
   55987    56389    56953    57217    57218    57118    56934    56763 
   56766    56836    56729    56515    56436    56489    56552    56621 
   56682    56759    56951    57144    57063    56764    56589    56623 
   56675    56721    56864    56941    56693    56319    56278    56581 
   56851    56937    56921    56816    56581    56292    56151    56323 
   56716    56997    56953    56718    56554    56604    56801    56972 
   56957    56714    56498    56589    56783    56749    56604    56624 
   56785    56883    56795    56621    56606    56768    56928    57053 
   57123    57002    56741    56515    56366    56350    56523    56775 
   56917    56820    56571    56442    56533    56704    56806    56806 
   56751    56689    56610    56508    56488    56621    56771    56744 
   56592    56565    56767    57059    57244    57223    56987    56644 
   56393    56369    56542    56741    56839    56824    56635    56327 
   56245    56519    56879    57065    56999    56771    56608    56664 
   56868    57053    57071    56825    56490    56401    56577    56771 
   56837    56813    56760    56679    56594    56559    56581    56620 
   56670    56747    56751    56585    56415    56423    56581    56799 
   56928    56902    56886    56875    56716    56547    56597    56789 
   56871    56766    56602    56521    56593    56810    56972    56862 
   56590    56439    56502    56677    56789    56755    56689    56733 
   56876    56979    56929    56789    56712    56710    56677    56577 
   56551    56675    56759    56685    56608    56660    56825    56925 
   56833    56713    56704    56712    56700    56717    56732    56763 
   56883    56991    56901    56647    56459    56488    56712    56940 
   56911    56663    56532    56644    56794    56799    56670    56543 
   56520    56535    56489    56465    56592    56729    56682    56520 
   56377    56367    56556    56741    56762    56756    56782    56754 
   56778    56918    56963    56859    56820    56857    56764    56587 
   56601    56766    56826    56735    56585    56474    56486    56594 
   56767    56982    57075    56945    56743    56631    56668    56816 
   56898    56810    56677    56629    56667    56733    56758    56693 
   56593    56543    56540    56598    56758    56937    56957    56786 
   56647    56727    56848    56813    56763    56782    56687    56479 
   56400    56524    56693    56736    56687    56648    56605    56558 
   56583    56662    56701    56716    56758    56758    56673    56654 
   56801    56929    56859    56689    56581    56546    56569    56679 
   56775    56744    56706    56764    56813    56747    56643    56691 
   56871    56883    56679    56567    56644    56702    56662    56651 
   56722    56778    56745    56654    56594    56610    56612    56555 
   56548    56631    56737    56793    56779    56802    56880    56876 
   56785    56789    56893    56870    56662    56493    56543    56747 
   56868    56828    56779    56732    56597    56504    56542    56652 
   56813    56921    56878    56775    56683    56621    56644    56722 
   56791    56837    56810    56704    56637    56691    56814    56895 
   56880    56802    56689    56623    56674    56762    56797    56755 
   56670    56666    56798    56918    56836    56579    56377    56354 
   56455    56600    56686    56681    56710    56767    56651    56463 
   56516    56725    56789    56706    56659    56743    56948    57114 
   57111    56974    56783    56655    56650    56682    56724    56798 
   56801    56663    56516    56451    56450    56529    56648    56691 
   56646    56590    56619    56756    56857    56835    56797    56797 
   56749    56635    56558    56625    56754    56727    56556    56550 
   56786    56936    56779    56552    56542    56675    56697    56575 
   56532    56629    56701    56689    56677    56745    56898    56940 
   56782    56663    56694    56700    56631    56620    56731    56853 
   56871    56839    56835    56806    56695    56554    56504    56569 
   56678    56801    56860    56809    56737    56683    56673    56748 
   56806    56749    56691    56760    56870    56886    56853    56833 
   56751    56596    56528    56629    56770    56836    56824    56741 
   56619    56521    56508    56594    56714    56754    56695    56624 
   56613    56671    56744    56775    56786    56770    56677    56577 
   56583    56675    56802    56895    56856    56768    56763    56768 
   56713    56681    56731    56816    56830    56733    56624    56590 
   56571    56544    56598    56698    56698    56610    56609    56744 
   56852    56822    56721    56625    56605    56679    56759    56805 
   56813    56714    56596    56633    56749    56778    56727    56685 
   56718    56809    56844    56814    56759    56659    56587    56601 
   56617    56637    56674    56652    56598    56581    56620    56725 
   56826    56793    56623    56488    56523    56658    56762    56774 
   56686    56606    56674    56814    56884    56903    56891    56772 
   56636    56637    56732    56812    56806    56724    56670    56675 
   56677    56683    56714    56756    56803    56801    56740    56733 
   56805    56857    56828    56689    56524    56500    56606    56728 
   56810    56822    56767    56693    56620    56596    56635    56693 
   56745    56781    56772    56725    56674    56652    56662    56675 
