Origin Time       2025/03/30 10:18:00
Lat.              34.667
Long.             140.825
Depth. (km)       69
Mag.              4.9
Station Code      SZOH54
Station Lat.      35.0417
Station Long.     139.1685
Station Height(m) -90
Record Time       2025/03/30 10:18:54
Sampling Freq(Hz) 100Hz
Duration Time(s)  120
Dir.              2
Scale Factor      2940(gal)/6170270
Max. Acc. (gal)   0.464
Last Correction   2025/03/30 10:18:39
Memo.             
[...]
  -19328   -19324   -19314   -19319   -19334   -19333   -19317   -19296 
  -19290   -19301   -19304   -19295   -19279   -19252   -19240   -19265 
  -19301   -19342   -19392   -19400   -19341   -19281   -19292   -19361 
  -19419   -19417   -19378   -19357   -19359   -19355   -19343   -19323 
  -19288   -19255   -19241   -19235   -19228   -19221   -19227   -19269 
  -19331   -19360   -19364   -19395   -19421   -19381   -19296   -19233 
  -19226   -19252   -19269   -19270   -19251   -19224   -19227   -19264 
  -19303   -19330   -19334   -19302   -19263   -19270   -19316   -19348 
  -19352   -19336   -19304   -19277   -19271   -19290   -19324   -19349 
  -19357   -19360   -19362   -19353   -19324   -19292   -19271   -19245 
  -19234   -19253   -19262   -19247   -19234   -19246   -19295   -19345 
  -19365   -19362   -19330   -19276   -19242   -19244   -19268   -19311 
  -19369   -19414   -19422   -19373   -19284   -19208   -19165   -19166 
  -19233   -19316   -19347   -19342   -19340   -19359   -19412   -19455 
  -19439   -19374   -19289   -19222   -19197   -19210   -19247   -19293 
  -19323   -19328   -19320   -19312   -19307   -19288   -19263   -19274 
  -19334   -19396   -19427   -19430   -19414   -19387   -19341   -19281 
  -19234   -19209   -19194   -19179   -19162   -19168   -19187   -19191 
  -19189   -19200   -19223   -19261   -19310   -19358   -19375   -19359 
  -19348   -19357   -19379   -19398   -19396   -19365   -19325   -19299 
  -19289   -19283   -19275   -19269   -19275   -19287   -19285   -19266 
  -19243   -19224   -19201   -19175   -19168   -19189   -19238   -19296 
  -19336   -19337   -19325   -19328   -19336   -19331   -19325   -19339 
  -19376   -19413   -19431   -19435   -19426   -19407   -19387   -19367 
  -19345   -19319   -19283   -19249   -19228   -19212   -19202   -19214 
  -19251   -19292   -19312   -19314   -19311   -19295   -19264   -19235 
  -19226   -19248   -19280   -19290   -19276   -19255   -19248   -19261 
  -19275   -19276   -19281   -19299   -19322   -19343   -19364   -19387 
  -19401   -19410   -19425   -19425   -19404   -19375   -19350   -19328 
  -19307   -19308   -19330   -19343   -19340   -19345   -19355   -19332 
  -19270   -19227   -19223   -19229   -19238   -19265   -19284   -19274 
  -19265   -19287   -19320   -19325   -19306   -19292   -19278   -19254 
  -19241   -19250   -19268   -19294   -19324   -19342   -19338   -19311 
  -19282   -19274   -19288   -19310   -19332   -19362   -19404   -19414 
  -19375   -19328   -19288   -19256   -19247   -19262   -19294   -19328 
  -19342   -19323   -19281   -19253   -19253   -19256   -19258   -19267 
  -19262   -19246   -19251   -19281   -19309   -19314   -19302   -19288 
  -19274   -19259   -19257   -19283   -19325   -19357   -19368   -19355 
  -19308   -19252   -19228   -19236   -19260   -19289   -19309   -19327 
  -19363   -19409   -19427   -19406   -19362   -19304   -19253   -19247 
  -19290   -19347   -19384   -19389   -19360   -19308   -19268   -19251 
  -19233   -19209   -19204   -19221   -19245   -19274   -19305   -19324 
  -19344   -19372   -19385   -19366   -19337   -19307   -19268   -19234 
  -19219   -19225   -19255   -19289   -19305   -19304   -19304   -19317 
  -19320   -19305   -19289   -19280   -19289   -19334   -19392   -19423 
  -19419   -19391   -19346   -19291   -19253   -19245   -19237   -19215 
  -19200   -19200   -19216   -19249   -19295   -19344   -19376   -19379 
  -19351   -19293   -19237   -19211   -19213   -19227   -19252   -19292 
  -19333   -19362   -19378   -19369   -19320   -19259   -19229   -19240 
  -19268   -19298   -19331   -19364   -19392   -19403   -19390   -19361 
  -19326   -19290   -19262   -19240   -19232   -19239   -19243   -19249 
  -19281   -19318   -19325   -19315   -19307   -19297   -19291   -19292 
  -19297   -19306   -19313   -19310   -19302   -19282   -19259   -19262 
  -19292   -19324   -19334   -19316   -19300   -19307   -19313   -19311 
  -19328   -19361   -19379   -19365   -19327   -19298   -19293   -19299 
  -19309   -19314   -19306   -19302   -19319   -19340   -19340   -19321 
  -19290   -19262   -19251   -19269   -19304   -19323   -19312   -19293 
  -19291   -19296   -19291   -19273   -19259   -19261   -19266   -19270 
  -19287   -19322   -19363   -19385   -19383   -19371   -19356   -19336 
  -19322   -19318   -19312   -19301   -19305   -19329   -19352   -19353 
  -19332   -19301   -19269   -19240   -19229   -19239   -19251   -19261 
  -19271   -19274   -19264   -19237   -19216   -19223   -19246   -19269 
  -19285   -19292   -19294   -19298   -19305   -19304   -19298   -19300 
  -19296   -19273   -19260   -19277   -19300   -19306   -19305   -19315 
  -19339   -19362   -19367   -19359   -19347   -19332   -19322   -19321 
  -19320   -19314   -19313   -19322   -19332   -19347   -19364   -19375 
  -19371   -19346   -19312   -19292   -19299   -19313   -19306   -19290 
  -19281   -19274   -19264   -19265   -19293   -19332   -19355   -19362 
  -19353   -19320   -19278   -19254   -19248   -19250   -19257   -19255 
  -19251   -19254   -19248   -19239   -19251   -19281   -19323   -19358 
  -19368   -19357   -19336   -19315   -19298   -19282   -19271   -19263 
  -19240   -19211   -19202   -19215   -19241   -19269   -19287   -19303 
  -19320   -19335   -19347   -19350   -19346   -19344   -19342   -19336 
  -19328   -19318   -19310   -19310   -19312   -19303   -19288   -19281 
  -19291   -19311   -19328   -19333   -19335   -19334   -19309   -19267 
  -19236   -19230   -19240   -19264   -19306   -19348   -19354   -19329 
  -19294   -19261   -19242   -19243   -19250   -19267   -19301   -19331 
  -19347   -19366   -19377   -19358   -19328   -19303   -19275   -19254 
  -19258   -19287   -19336   -19377   -19380   -19368   -19361   -19344 
  -19322   -19313   -19314   -19318   -19309   -19284   -19263   -19257 
  -19260   -19271   -19289   -19290   -19274   -19266   -19282   -19302 
  -19300   -19285   -19282   -19288   -19293   -19300   -19313   -19319 
  -19314   -19304   -19292   -19288   -19306   -19326   -19319   -19299 
  -19286   -19274   -19268   -19274   -19293   -19319   -19329   -19315 
  -19294   -19282   -19279   -19291   -19317   -19334   -19338   -19338 
  -19338   -19353   -19380   -19391   -19367   -19330   -19308   -19294 
  -19276   -19265   -19268   -19281   -19296   -19306   -19303   -19287 
  -19277   -19277   -19267   -19246   -19228   -19226   -19247   -19278 
  -19303   -19312   -19306   -19306   -19324   -19339   -19330   -19303 
  -19280   -19277   -19284   -19286   -19291   -19308   -19330   -19340 
  -19340   -19338   -19333   -19330   -19334   -19334   -19321   -19308 
  -19310   -19321   -19329   -19333   -19338   -19347   -19349   -19342 
  -19336   -19322   -19297   -19285   -19288   -19291   -19294   -19304 
  -19312   -19301   -19273   -19256   -19258   -19257   -19259   -19278 
  -19307   -19330   -19342   -19345   -19326   -19292   -19264   -19248 
  -19244   -19254   -19281   -19328   -19367   -19367   -19342   -19312 
  -19291   -19291   -19291   -19273   -19256   -19263   -19291   -19311 
  -19303   -19293   -19301   -19313   -19316   -19313   -19303   -19287 
  -19268   -19249   -19237   -19240   -19254   -19267   -19265   -19254 
  -19250   -19248   -19247   -19261   -19283   -19289   -19287   -19282 
  -19272   -19265   -19255   -19237   -19227   -19236   -19259   -19287 
  -19322   -19357   -19377   -19382   -19379   -19372   -19372   -19376 
  -19364   -19338   -19313   -19298   -19295   -19303   -19310   -19302 
  -19275   -19244   -19242   -19269   -19290   -19298   -19303   -19305 
  -19315   -19348   -19387   -19410   -19423   -19427   -19407   -19365 
  -19332   -19326   -19329   -19327   -19304   -19262   -19240   -19257 
  -19287   -19304   -19300   -19295   -19304   -19319   -19324   -19317 
  -19300   -19278   -19265   -19268   -19275   -19277   -19276   -19265 
  -19249   -19248   -19258   -19269   -19286   -19307   -19330   -19357 
  -19377   -19378   -19371   -19368   -19369   -19371   -19375   -19365 
  -19337   -19304   -19267   -19236   -19226   -19222   -19224   -19235 
  -19234   -19200   -19152   -19122   -19123   -19154   -19202   -19245 
  -19279   -19307   -19328   -19343   -19351   -19368   -19397   -19412 
  -19408   -19405   -19387   -19345   -19300   -19272   -19259   -19263 
  -19282   -19309   -19334   -19342   -19341   -19339   -19327   -19319 
  -19334   -19354   -19357   -19359   -19361   -19347   -19316   -19276 
  -19250   -19234   -19216   -19208   -19217   -19229   -19247   -19274 
  -19306   -19338   -19368   -19393   -19401   -19388   -19376   -19374 
  -19379   -19387   -19393   -19384   -19355   -19323   -19302   -19299 
  -19307   -19322   -19334   -19330   -19310   -19280   -19257   -19263 
  -19279   -19281   -19273   -19257   -19238   -19233   -19238   -19242 
  -19242   -19241   -19240   -19228   -19219   -19236   -19264   -19282 
  -19289   -19290   -19293   -19300   -19295   -19283   -19275   -19265 
  -19253   -19247   -19244   -19244   -19257   -19286   -19313   -19325 
  -19324   -19310   -19296   -19291   -19286   -19273   -19260   -19256 
  -19273   -19317   -19358   -19370   -19353   -19336   -19337   -19340 
  -19338   -19333   -19317   -19295   -19274   -19255   -19246   -19256 
  -19291   -19334   -19349   -19323   -19283   -19251   -19243   -19264 
  -19303   -19338   -19359   -19363   -19347   -19314   -19287   -19291 
  -19322   -19355   -19377   -19369   -19329   -19289   -19268   -19272 
  -19290   -19301   -19309   -19332   -19365   -19387   -19385   -19356 
  -19316   -19287   -19280   -19302   -19332   -19350   -19358   -19348 
  -19322   -19300   -19288   -19287   -19287   -19276   -19260   -19252 
  -19258   -19279   -19302   -19315   -19310   -19279   -19244   -19225 
  -19226   -19248   -19276   -19306   -19341   -19371   -19386   -19382 
  -19363   -19353   -19354   -19347   -19329   -19300   -19262   -19223 
  -19197   -19189   -19185   -19180   -19184   -19197   -19222   -19277 
  -19351   -19398   -19408   -19404   -19381   -19345   -19319   -19300 
  -19282   -19272   -19269   -19276   -19297   -19328   -19353   -19370 
  -19389   -19399   -19388   -19357   -19322   -19306   -19306   -19306 
  -19310   -19308   -19279   -19242   -19228   -19240   -19252   -19248 
  -19236   -19228   -19235   -19262   -19303   -19344   -19378   -19396 
  -19390   -19370   -19350   -19333   -19310   -19282   -19265   -19252 
  -19240   -19255   -19289   -19320   -19353   -19388   -19407   -19397 
  -19368   -19344   -19328   -19311   -19290   -19271   -19263   -19268 
  -19276   -19282   -19288   -19283   -19266   -19249   -19246   -19276 
  -19313   -19323   -19321   -19312   -19302   -19299   -19287   -19268 
  -19255   -19243   -19232   -19230   -19237   -19257   -19280   -19286 
  -19284   -19292   -19314   -19345   -19366   -19362   -19334   -19301 
  -19290   -19286   -19265   -19240   -19234   -19254   -19284   -19304 
  -19308   -19298   -19292   -19300   -19302   -19294   -19300   -19329 
  -19353   -19355   -19347   -19340   -19326   -19302   -19276   -19258 
  -19254   -19253   -19252   -19258   -19276   -19305   -19340   -19386 
  -19424   -19429   -19395   -19342   -19303   -19290   -19290   -19305 
  -19337   -19355   -19339   -19316   -19317   -19330   -19340   -19352 
  -19350   -19326   -19295   -19269   -19249   -19238   -19236   -19240 
  -19249   -19252   -19250   -19261   -19284   -19301   -19303   -19302 
  -19305   -19303   -19299   -19294   -19287   -19285   -19288   -19284 
  -19266   -19248   -19247   -19255   -19250   -19233   -19216   -19204 
  -19208   -19235   -19278   -19313   -19314   -19292   -19272   -19244 
  -19200   -19177   -19198   -19230   -19241   -19228   -19197   -19166 
  -19156   -19161   -19164   -19171   -19191   -19225   -19267   -19298 
  -19316   -19338   -19353   -19358   -19362   -19363   -19363   -19377 
  -19401   -19425   -19436   -19413   -19369   -19329   -19292   -19270 
  -19280   -19302   -19316   -19320   -19319   -19324   -19325   -19320 
  -19333   -19378   -19437   -19480   -19496   -19500   -19500   -19494 
  -19497   -19516   -19541   -19551   -19516   -19449   -19386   -19339 
  -19312   -19300   -19292   -19293   -19308   -19320   -19328   -19350 
  -19385   -19415   -19422   -19401   -19367   -19335   -19300   -19268 
  -19246   -19232   -19221   -19201   -19174   -19146   -19115   -19090 
  -19089   -19111   -19154   -19216   -19284   -19346   -19414   -19506 
  -19612   -19707   -19764   -19755   -19677   -19545   -19374   -19192 
  -19025   -18898   -18831   -18808   -18814   -18855   -18939   -19065 
  -19205   -19316   -19369   -19370   -19333   -19277   -19233   -19223 
  -19234   -19230   -19178   -19102   -19056   -19065   -19134   -19255 
  -19395   -19525   -19639   -19731   -19789   -19808   -19804   -19777 
  -19706   -19588   -19422   -19221   -19004   -18803   -18651   -18547 
  -18485   -18492   -18575   -18735   -18962   -19211   -19439   -19637 
  -19808   -19961   -20095   -20188   -20213   -20151   -19997   -19760 
  -19477   -19201   -18969   -18804   -18723   -18724   -18791   -18913 
  -19073   -19229   -19347   -19416   -19426   -19380   -19314   -19269 
  -19272   -19325   -19395   -19443   -19461   -19454   -19404   -19304 
  -19176   -19066   -19029   -19082   -19193   -19317   -19445   -19572 
  -19673   -19714   -19695   -19639   -19556   -19451   -19315   -19139 
  -18931   -18712   -18518   -18391   -18364   -18428   -18549   -18694 
  -18841   -18974   -19086   -19157   -19199   -19263   -19391   -19588 
  -19826   -20057   -20223   -20275   -20223   -20109   -19962   -19808 
  -19635   -19417   -19182   -18985   -18858   -18833   -18901   -18992 
  -19064   -19133   -19221   -19324   -19428   -19507   -19530   -19500 
  -19459   -19439   -19436   -19423   -19382   -19321   -19262   -19213 
  -19184   -19199   -19245   -19268   -19249   -19211   -19184   -19182 
  -19193   -19194   -19182   -19183   -19222   -19312   -19453   -19612 
  -19741   -19800   -19771   -19683   -19574   -19450   -19328   -19224 
  -19140   -19081   -19054   -19085   -19176   -19292   -19404   -19495 
  -19541   -19541   -19513   -19471   -19432   -19403   -19363   -19285 
  -19179   -19061   -18931   -18817   -18766   -18789   -18870   -18987 
  -19087   -19143   -19170   -19175   -19161   -19157   -19187   -19245 
  -19288   -19279   -19232   -19163   -19069   -18998   -19013   -19111 
  -19243   -19368   -19473   -19562   -19637   -19699   -19738   -19749 
  -19731   -19682   -19613   -19543   -19469   -19374   -19268   -19181 
  -19119   -19074   -19050   -19059   -19094   -19144   -19201   -19262 
  -19336   -19417   -19473   -19480   -19446   -19397   -19343   -19290 
  -19273   -19321   -19429   -19555   -19636   -19645   -19608   -19546 
  -19481   -19440   -19433   -19453   -19489   -19538   -19596   -19633 
  -19618   -19543   -19416   -19267   -19121   -18974   -18833   -18734 
  -18709   -18759   -18864   -18985   -19086   -19156   -19205   -19253 
  -19314   -19361   -19366   -19338   -19312   -19318   -19347   -19378 
  -19413   -19438   -19434   -19393   -19333   -19286   -19279   -19317 
  -19371   -19384   -19324   -19217   -19121   -19080   -19079   -19082 
  -19070   -19024   -18960   -18908   -18866   -18854   -18898   -18977 
  -19062   -19139   -19197   -19245   -19296   -19358   -19425   -19470 
  -19473   -19448   -19402   -19333   -19262   -19218   -19203   -19206 
  -19234   -19287   -19346   -19405   -19456   -19485   -19482   -19456 
  -19428   -19419   -19423   -19446   -19500   -19574   -19646   -19696 
  -19711   -19695   -19665   -19632   -19603   -19576   -19553   -19529 
  -19497   -19450   -19391   -19335   -19298   -19273   -19239   -19183 
  -19119   -19071   -19034   -19003   -19000   -19039   -19120   -19242 
  -19381   -19494   -19547   -19536   -19496   -19446   -19390   -19343 
  -19320   -19318   -19315   -19298   -19269   -19230   -19190   -19180 
  -19208   -19249   -19291   -19325   -19340   -19344   -19336   -19313 
  -19295   -19291   -19281   -19241   -19162   -19064   -18990   -18951 
  -18939   -18948   -18982   -19044   -19123   -19208   -19289   -19349 
  -19399   -19439   -19443   -19417   -19373   -19289   -19170   -19060 
  -18986   -18941   -18932   -18965   -19019   -19089   -19180   -19288 
  -19396   -19485   -19546   -19576   -19580   -19572   -19570   -19582 
  -19604   -19626   -19625   -19577   -19474   -19341   -19216   -19120 
  -19068   -19069   -19120   -19209   -19322   -19428   -19498   -19518 
  -19510   -19506   -19523   -19551   -19564   -19559   -19556   -19545 
  -19523   -19500   -19473   -19445   -19426   -19415   -19407   -19387 
  -19355   -19330   -19300   -19241   -19158   -19073   -19010   -18985 
  -18996   -19032   -19073   -19105   -19127   -19150   -19177   -19195 
  -19209   -19239   -19283   -19320   -19340   -19342   -19332   -19306 
  -19266   -19232   -19224   -19248   -19293   -19332   -19334   -19306 
  -19276   -19252   -19228   -19196   -19160   -19123   -19084   -19052 
  -19053   -19095   -19156   -19212   -19245   -19253   -19265   -19286 
  -19301   -19308   -19313   -19339   -19394   -19458   -19505   -19518 
  -19489   -19421   -19333   -19254   -19202   -19182   -19184   -19215 
  -19269   -19315   -19352   -19377   -19373   -19358   -19345   -19333 
  -19343   -19372   -19393   -19405   -19405   -19378   -19330   -19287 
  -19258   -19242   -19252   -19311   -19408   -19513   -19598   -19639 
  -19632   -19599   -19564   -19541   -19515   -19466   -19391   -19291 
  -19188   -19114   -19069   -19041   -19037   -19059   -19104   -19169 
  -19246   -19319   -19382   -19422   -19417   -19372   -19310   -19247 
  -19204   -19196   -19219   -19255   -19280   -19303   -19339   -19374 
  -19389   -19375   -19351   -19346   -19352   -19346   -19341   -19332 
  -19296   -19241   -19185   -19125   -19065   -19021   -19009   -19027 
  -19052   -19071   -19097   -19129   -19159   -19199   -19249   -19295 
  -19331   -19349   -19345   -19329   -19310   -19301   -19311   -19336 
  -19366   -19395   -19412   -19416   -19424   -19449   -19472   -19471 
  -19448   -19399   -19322   -19247   -19201   -19186   -19207   -19255 
  -19298   -19315   -19320   -19338   -19376   -19421   -19467   -19507 
  -19518   -19500   -19474   -19447   -19407   -19347   -19286   -19252 
  -19266   -19327   -19405   -19478   -19524   -19532   -19516   -19486 
  -19441   -19387   -19334   -19280   -19216   -19149   -19100   -19067 
  -19041   -19029   -19030   -19039   -19065   -19113   -19167   -19221 
  -19273   -19313   -19336   -19344   -19338   -19315   -19303   -19335 
  -19402   -19467   -19508   -19521   -19508   -19470   -19415   -19356 
  -19310   -19271   -19230   -19199   -19197   -19217   -19238   -19248 
  -19252   -19250   -19246   -19247   -19257   -19281   -19303   -19309 
  -19302   -19281   -19240   -19191   -19152   -19134   -19143   -19168 
  -19189   -19204   -19226   -19264   -19313   -19359   -19393   -19404 
  -19392   -19375   -19359   -19350   -19358   -19373   -19391   -19420 
  -19449   -19463   -19466   -19462   -19440   -19402   -19360   -19321 
  -19288   -19263   -19245   -19221   -19182   -19137   -19105   -19085 
  -19070   -19056   -19047   -19043   -19043   -19049   -19067   -19107 
  -19164   -19220   -19261   -19290   -19300   -19295   -19297   -19304 
  -19299   -19287   -19275   -19258   -19246   -19258   -19286   -19322 
