Origin Time       2025/03/30 10:18:00
Lat.              34.667
Long.             140.825
Depth. (km)       69
Mag.              4.9
Station Code      SZOH54
Station Lat.      35.0417
Station Long.     139.1685
Station Height(m) 20
Record Time       2025/03/30 10:18:54
Sampling Freq(Hz) 100Hz
Duration Time(s)  120
Dir.              6
Scale Factor      3920(gal)/6170801
Max. Acc. (gal)   1.161
Last Correction   2025/03/30 10:18:39
Memo.             
[...]
  -20583   -20603   -20612   -20590   -20586   -20613   -20619   -20592 
  -20583   -20606   -20614   -20590   -20584   -20610   -20613   -20588 
  -20589   -20613   -20615   -20591   -20582   -20605   -20619   -20599 
  -20582   -20598   -20617   -20603   -20582   -20594   -20616   -20607 
  -20589   -20598   -20610   -20598   -20590   -20604   -20610   -20595 
  -20585   -20599   -20613   -20605   -20593   -20599   -20609   -20597 
  -20589   -20604   -20608   -20594   -20595   -20606   -20603   -20593 
  -20596   -20608   -20607   -20591   -20589   -20602   -20609   -20597 
  -20587   -20602   -20617   -20595   -20575   -20598   -20623   -20607 
  -20580   -20592   -20620   -20604   -20572   -20596   -20633   -20607 
  -20571   -20593   -20626   -20607   -20576   -20592   -20625   -20617 
  -20583   -20581   -20609   -20614   -20595   -20591   -20606   -20611 
  -20593   -20587   -20604   -20609   -20594   -20594   -20611   -20611 
  -20589   -20588   -20612   -20611   -20589   -20590   -20608   -20605 
  -20590   -20593   -20610   -20607   -20591   -20595   -20611   -20600 
  -20581   -20596   -20619   -20606   -20587   -20598   -20609   -20597 
  -20589   -20601   -20613   -20604   -20585   -20591   -20615   -20609 
  -20583   -20584   -20610   -20618   -20593   -20576   -20600   -20620 
  -20596   -20578   -20605   -20624   -20593   -20567   -20595   -20626 
  -20603   -20576   -20600   -20629   -20604   -20570   -20594   -20630 
  -20606   -20569   -20591   -20626   -20611   -20578   -20588   -20618 
  -20610   -20581   -20592   -20619   -20608   -20581   -20590   -20616 
  -20609   -20580   -20583   -20618   -20621   -20586   -20581   -20610 
  -20615   -20589   -20581   -20605   -20615   -20597   -20591   -20599 
  -20596   -20593   -20599   -20607   -20605   -20593   -20593   -20609 
  -20605   -20582   -20589   -20618   -20614   -20582   -20582   -20615 
  -20623   -20595   -20584   -20604   -20610   -20589   -20584   -20607 
  -20611   -20585   -20582   -20610   -20613   -20584   -20580   -20612 
  -20625   -20596   -20571   -20596   -20625   -20603   -20577   -20596 
  -20612   -20598   -20592   -20602   -20605   -20596   -20593   -20606 
  -20612   -20595   -20580   -20597   -20622   -20611   -20584   -20590 
  -20612   -20605   -20588   -20597   -20610   -20603   -20595   -20600 
  -20603   -20593   -20582   -20597   -20622   -20609   -20579   -20590 
  -20619   -20607   -20581   -20586   -20605   -20607   -20594   -20593 
  -20603   -20598   -20589   -20604   -20620   -20600   -20578   -20592 
  -20617   -20610   -20585   -20590   -20614   -20609   -20586   -20589 
  -20608   -20602   -20588   -20602   -20619   -20601   -20583   -20600 
  -20617   -20602   -20581   -20590   -20617   -20617   -20591   -20585 
  -20610   -20615   -20590   -20585   -20606   -20611   -20594   -20592 
  -20608   -20607   -20589   -20589   -20612   -20616   -20590   -20579 
  -20608   -20624   -20596   -20576   -20602   -20624   -20599   -20572 
  -20593   -20622   -20609   -20586   -20596   -20612   -20598   -20580 
  -20598   -20619   -20603   -20579   -20597   -20626   -20609   -20572 
  -20581   -20619   -20618   -20589   -20588   -20607   -20608   -20591 
  -20586   -20604   -20612   -20597   -20595   -20607   -20601   -20585 
  -20595   -20614   -20604   -20588   -20601   -20612   -20596   -20585 
  -20597   -20608   -20600   -20589   -20602   -20614   -20598   -20583 
  -20599   -20618   -20603   -20579   -20591   -20617   -20607   -20585 
  -20593   -20615   -20612   -20587   -20584   -20608   -20609   -20588 
  -20594   -20619   -20611   -20577   -20581   -20618   -20619   -20584 
  -20576   -20607   -20626   -20604   -20582   -20596   -20612   -20599 
  -20588   -20602   -20612   -20598   -20589   -20603   -20610   -20595 
  -20587   -20605   -20618   -20602   -20585   -20600   -20612   -20594 
  -20589   -20608   -20611   -20593   -20585   -20602   -20615   -20596 
  -20581   -20602   -20618   -20598   -20584   -20603   -20616   -20595 
  -20577   -20596   -20620   -20605   -20584   -20598   -20616   -20602 
  -20585   -20595   -20611   -20601   -20582   -20597   -20622   -20603 
  -20570   -20588   -20627   -20611   -20570   -20588   -20632   -20622 
  -20580   -20576   -20602   -20609   -20590   -20587   -20611   -20619 
  -20596   -20585   -20606   -20610   -20580   -20575   -20609   -20620 
  -20595   -20587   -20607   -20617   -20597   -20576   -20588   -20612 
  -20603   -20585   -20601   -20615   -20599   -20591   -20602   -20600 
  -20592   -20598   -20609   -20607   -20591   -20586   -20607   -20615 
  -20590   -20585   -20610   -20612   -20591   -20589   -20602   -20608 
  -20597   -20585   -20597   -20612   -20595   -20583   -20602   -20619 
  -20604   -20583   -20589   -20611   -20608   -20588   -20593   -20612 
  -20606   -20587   -20591   -20606   -20604   -20597   -20603   -20606 
  -20591   -20587   -20603   -20608   -20593   -20588   -20602   -20614 
  -20604   -20585   -20590   -20612   -20610   -20589   -20590   -20607 
  -20611   -20599   -20589   -20598   -20604   -20592   -20594   -20611 
  -20601   -20581   -20595   -20619   -20604   -20578   -20593   -20618 
  -20603   -20582   -20596   -20615   -20603   -20584   -20596   -20616 
  -20605   -20586   -20596   -20608   -20595   -20581   -20592   -20615 
  -20616   -20592   -20589   -20612   -20608   -20581   -20583   -20608 
  -20614   -20595   -20590   -20607   -20611   -20595   -20591   -20602 
  -20606   -20596   -20594   -20608   -20610   -20589   -20585   -20608 
  -20614   -20597   -20589   -20601   -20613   -20600   -20587   -20602 
  -20614   -20599   -20588   -20603   -20611   -20594   -20586   -20603 
  -20613   -20593   -20581   -20603   -20619   -20597   -20576   -20602 
  -20630   -20601   -20568   -20599   -20627   -20598   -20574   -20597 
  -20626   -20612   -20576   -20581   -20615   -20609   -20580   -20589 
  -20618   -20613   -20586   -20587   -20617   -20620   -20586   -20576 
  -20602   -20611   -20592   -20589   -20612   -20619   -20593   -20581 
  -20601   -20611   -20591   -20584   -20609   -20615   -20586   -20585 
  -20616   -20613   -20585   -20588   -20612   -20613   -20590   -20583 
  -20603   -20617   -20601   -20590   -20600   -20601   -20586   -20593 
  -20619   -20613   -20582   -20584   -20620   -20624   -20581   -20568 
  -20609   -20631   -20596   -20570   -20597   -20626   -20605   -20574 
  -20596   -20623   -20599   -20576   -20600   -20621   -20602   -20580 
  -20593   -20615   -20604   -20582   -20594   -20620   -20608   -20578 
  -20583   -20611   -20614   -20591   -20583   -20602   -20614   -20601 
  -20589   -20595   -20603   -20600   -20599   -20601   -20598   -20597 
  -20601   -20603   -20598   -20599   -20607   -20605   -20596   -20590 
  -20594   -20606   -20602   -20589   -20601   -20619   -20601   -20580 
  -20593   -20614   -20602   -20585   -20603   -20621   -20597   -20574 
  -20594   -20621   -20612   -20584   -20586   -20615   -20613   -20582 
  -20584   -20615   -20614   -20589   -20592   -20608   -20598   -20581 
  -20592   -20621   -20619   -20586   -20581   -20606   -20606   -20585 
  -20595   -20617   -20613   -20593   -20583   -20597   -20611   -20599 
  -20590   -20604   -20611   -20595   -20582   -20599   -20618   -20606 
  -20591   -20598   -20599   -20586   -20584   -20609   -20629   -20611 
  -20582   -20585   -20601   -20596   -20590   -20610   -20623   -20598 
  -20578   -20594   -20608   -20598   -20591   -20605   -20619   -20601 
  -20575   -20587   -20617   -20610   -20590   -20601   -20616   -20597 
  -20578   -20595   -20618   -20603   -20583   -20601   -20621   -20599 
  -20572   -20589   -20624   -20618   -20587   -20591   -20611   -20601 
  -20575   -20580   -20612   -20623   -20599   -20587   -20606   -20607 
  -20584   -20587   -20611   -20611   -20591   -20589   -20607   -20610 
  -20592   -20595   -20616   -20611   -20582   -20580   -20603   -20610 
  -20599   -20597   -20612   -20608   -20580   -20580   -20607   -20612 
  -20597   -20599   -20612   -20603   -20579   -20580   -20609   -20622 
  -20600   -20589   -20610   -20612   -20584   -20577   -20605   -20621 
  -20599   -20580   -20602   -20618   -20592   -20577   -20603   -20618 
  -20592   -20579   -20603   -20614   -20590   -20580   -20605   -20621 
  -20601   -20578   -20588   -20614   -20610   -20589   -20595   -20608 
  -20599   -20587   -20589   -20606   -20616   -20602   -20592   -20603 
  -20605   -20587   -20583   -20606   -20620   -20603   -20587   -20593 
  -20603   -20598   -20594   -20608   -20609   -20592   -20593   -20606 
  -20597   -20585   -20597   -20618   -20611   -20586   -20589   -20613 
  -20608   -20585   -20589   -20609   -20610   -20588   -20588   -20616 
  -20617   -20585   -20580   -20609   -20614   -20593   -20594   -20613 
  -20609   -20585   -20579   -20604   -20622   -20606   -20594   -20608 
  -20608   -20583   -20575   -20600   -20625   -20613   -20590   -20591 
  -20600   -20596   -20594   -20605   -20614   -20602   -20580   -20583 
  -20609   -20616   -20602   -20602   -20610   -20593   -20571   -20589 
  -20621   -20618   -20603   -20605   -20595   -20569   -20571   -20612 
  -20643   -20623   -20586   -20585   -20602   -20586   -20572   -20605 
  -20637   -20616   -20583   -20585   -20602   -20598   -20583   -20597 
  -20628   -20622   -20587   -20580   -20604   -20607   -20584   -20587 
  -20616   -20618   -20592   -20586   -20609   -20615   -20591   -20585 
  -20608   -20615   -20592   -20582   -20600   -20615   -20606   -20591 
  -20600   -20612   -20595   -20583   -20602   -20616   -20600   -20584 
  -20593   -20606   -20603   -20606   -20614   -20604   -20588   -20581 
  -20591   -20606   -20596   -20592   -20620   -20625   -20584   -20570 
  -20604   -20618   -20593   -20590   -20622   -20621   -20579   -20571 
  -20608   -20621   -20598   -20590   -20608   -20615   -20591   -20574 
  -20600   -20621   -20596   -20579   -20608   -20623   -20593   -20574 
  -20599   -20615   -20595   -20585   -20608   -20622   -20598   -20577 
  -20595   -20616   -20599   -20582   -20601   -20622   -20602   -20577 
  -20598   -20625   -20605   -20576   -20590   -20615   -20604   -20585 
  -20598   -20618   -20605   -20584   -20590   -20611   -20609   -20586 
  -20592   -20620   -20613   -20583   -20579   -20607   -20621   -20597 
  -20586   -20610   -20617   -20591   -20579   -20603   -20619   -20598 
  -20586   -20608   -20608   -20580   -20584   -20617   -20622   -20596 
  -20579   -20597   -20617   -20601   -20580   -20602   -20620   -20597 
  -20581   -20597   -20612   -20605   -20593   -20596   -20605   -20594 
  -20587   -20610   -20621   -20593   -20577   -20599   -20617   -20604 
  -20589   -20597   -20610   -20602   -20589   -20596   -20610   -20601 
  -20588   -20601   -20616   -20602   -20583   -20595   -20615   -20608 
  -20587   -20585   -20607   -20615   -20598   -20595   -20604   -20593 
  -20579   -20597   -20622   -20613   -20586   -20590   -20615   -20607 
  -20581   -20590   -20618   -20611   -20584   -20585   -20609   -20612 
  -20589   -20586   -20606   -20607   -20588   -20591   -20611   -20611 
  -20592   -20586   -20598   -20606   -20607   -20607   -20607   -20602 
  -20591   -20587   -20599   -20609   -20602   -20599   -20603   -20593 
  -20586   -20605   -20615   -20603   -20595   -20599   -20600   -20594 
  -20591   -20602   -20613   -20603   -20586   -20590   -20610   -20617 
  -20598   -20582   -20594   -20605   -20595   -20590   -20602   -20609 
  -20598   -20592   -20603   -20605   -20586   -20585   -20611   -20613 
  -20580   -20573   -20610   -20626   -20595   -20578   -20603   -20622 
  -20598   -20575   -20594   -20617   -20597   -20574   -20593   -20618 
  -20608   -20588   -20593   -20608   -20600   -20582   -20594   -20619 
  -20611   -20583   -20585   -20605   -20604   -20593   -20602   -20614 
  -20599   -20582   -20596   -20615   -20601   -20581   -20597   -20616 
  -20599   -20583   -20601   -20618   -20599   -20579   -20594   -20614 
  -20606   -20589   -20599   -20619   -20608   -20579   -20582   -20609 
  -20610   -20587   -20592   -20619   -20611   -20573   -20570   -20610 
  -20630   -20599   -20576   -20600   -20621   -20601   -20587   -20604 
  -20604   -20578   -20581   -20620   -20636   -20599   -20566   -20590 
  -20621   -20599   -20573   -20605   -20640   -20612   -20565   -20570 
  -20610   -20616   -20589   -20596   -20625   -20605   -20571   -20591 
  -20617   -20598   -20583   -20611   -20628   -20593   -20566   -20591 
  -20621   -20608   -20591   -20601   -20607   -20595   -20589   -20593 
  -20597   -20602   -20608   -20617   -20614   -20595   -20597   -20622 
  -20630   -20619   -20619   -20642   -20662   -20646   -20616   -20623 
  -20659   -20670   -20664   -20676   -20689   -20681   -20668   -20674 
  -20690   -20680   -20656   -20666   -20687   -20671   -20633   -20621 
  -20631   -20620   -20588   -20584   -20618   -20639   -20627   -20626 
  -20643   -20630   -20573   -20514   -20475   -20433   -20369   -20316 
  -20293   -20229   -20069   -19915   -19897   -20032   -20238   -20394 
  -20403   -20242   -19993   -19839   -20001   -20556   -21322   -21932 
  -22066   -21695   -21107   -20646   -20468   -20510   -20580   -20533 
  -20398   -20348   -20496   -20696   -20729   -20677   -20805   -21078 
  -21093   -20615   -19983   -19835   -20431   -21335   -21803   -21539 
  -20943   -20550   -20526   -20817   -21321   -21690   -21446   -20546 
  -19529   -18982   -19116   -19830   -20791   -21361   -20904   -19632 
  -18864   -19691   -21460   -22427   -21899   -20769   -19968   -19554 
  -19449   -19908   -20816   -21432   -21321   -20840   -20415   -20150 
  -20243   -20900   -21690   -21788   -21036   -20194   -19974   -20255 
  -20530   -20679   -20820   -20763   -20314   -19870   -19994   -20594 
  -21087   -21152   -20920   -20577   -20221   -20018   -20076   -20206 
  -20207   -20193   -20323   -20524   -20748   -21116   -21558   -21690 
  -21299   -20622   -19979   -19580   -19650   -20194   -20772   -20959 
  -20840   -20738   -20754   -20838   -21049   -21373   -21472   -21083 
  -20501   -20135   -19967   -19962   -20368   -21102   -21427   -20841 
  -19963   -19844   -20480   -20890   -20712   -20571   -20781   -20821 
  -20363   -19940   -20153   -20738   -20993   -20782   -20517   -20445 
  -20483   -20521   -20540   -20559   -20671   -20929   -21110   -20876 
  -20309   -19966   -20163   -20543   -20629   -20497   -20548   -20800 
  -20843   -20519   -20193   -20250   -20620   -20885   -20743   -20395 
  -20341   -20745   -21204   -21282   -21011   -20669   -20416   -20313 
  -20431   -20703   -20852   -20701   -20422   -20301   -20334   -20372 
  -20495   -20788   -20969   -20740   -20303   -20146   -20409   -20702 
  -20695   -20581   -20640   -20734   -20668   -20624   -20780   -20909 
  -20764   -20481   -20341   -20420   -20613   -20851   -21092   -21129 
  -20776   -20313   -20205   -20416   -20545   -20455   -20297   -20156 
  -20099   -20269   -20601   -20759   -20646   -20581   -20769   -20955 
  -20817   -20485   -20383   -20620   -20830   -20690   -20333   -20187 
  -20466   -20882   -21002   -20789   -20596   -20717   -21027   -21132 
  -20907   -20630   -20494   -20447   -20426   -20378   -20217   -20040 
  -20110   -20449   -20714   -20651   -20501   -20656   -21006   -21078 
  -20785   -20535   -20611   -20823   -20848   -20662   -20474   -20444 
  -20625   -20890   -20942   -20688   -20382   -20267   -20303   -20307 
  -20248   -20301   -20535   -20773   -20898   -20949   -20928   -20804 
  -20637   -20566   -20641   -20659   -20415   -20124   -20172   -20514 
  -20697   -20499   -20287   -20509   -20957   -21038   -20682   -20420 
  -20593   -20950   -21053   -20821   -20582   -20590   -20706   -20680 
  -20508   -20370   -20392   -20545   -20735   -20866   -20805   -20516 
  -20271   -20381   -20667   -20679   -20441   -20397   -20575   -20523 
  -20166   -20029   -20384   -20833   -20986   -20936   -20819   -20557 
  -20253   -20266   -20658   -20984   -20917   -20740   -20807   -20870 
  -20575   -20216   -20336   -20825   -21049   -20766   -20373   -20250 
  -20362   -20483   -20509   -20519   -20602   -20687   -20650   -20513 
  -20423   -20454   -20532   -20581   -20630   -20703   -20748   -20740 
  -20704   -20656   -20607   -20576   -20571   -20586   -20621   -20653 
  -20624   -20527   -20480   -20590   -20788   -20877   -20761   -20552 
  -20413   -20368   -20402   -20520   -20595   -20493   -20374   -20486 
  -20732   -20823   -20730   -20647   -20655   -20651   -20558   -20471 
  -20522   -20683   -20822   -20859   -20758   -20561   -20469   -20575 
  -20663   -20573   -20534   -20754   -20937   -20716   -20368   -20432 
  -20762   -20756   -20405   -20280   -20547   -20764   -20673   -20524 
  -20525   -20487   -20267   -20129   -20320   -20631   -20773   -20783 
  -20763   -20643   -20445   -20387   -20533   -20689   -20739   -20728 
  -20647   -20540   -20578   -20727   -20747   -20578   -20388   -20344 
  -20458   -20532   -20446   -20418   -20660   -20976   -20987   -20644 
  -20376   -20576   -21011   -21129   -20810   -20418   -20294   -20444 
  -20593   -20577   -20567   -20730   -20921   -20896   -20658   -20456 
  -20490   -20680   -20773   -20648   -20441   -20379   -20533   -20761 
  -20883   -20819   -20640   -20541   -20580   -20525   -20256   -20089 
  -20320   -20720   -20816   -20570   -20457   -20728   -20949   -20689 
  -20300   -20381   -20784   -20893   -20682   -20656   -20859   -20798 
  -20346   -20053   -20345   -20866   -20998   -20696   -20445   -20575 
  -20889   -20929   -20540   -20147   -20247   -20668   -20789   -20428 
  -20071   -20229   -20757   -21028   -20786   -20407   -20301   -20450 
  -20546   -20435   -20361   -20558   -20821   -20842   -20662   -20531 
  -20548   -20594   -20585   -20637   -20784   -20819   -20650   -20478 
  -20497   -20670   -20823   -20878   -20884   -20839   -20679   -20435 
  -20233   -20207   -20390   -20585   -20579   -20457   -20428   -20465 
  -20449   -20449   -20583   -20756   -20748   -20533   -20362   -20495 
  -20883   -21207   -21196   -20869   -20524   -20461   -20616   -20663 
  -20485   -20315   -20378   -20575   -20641   -20538   -20496   -20662 
  -20881   -20898   -20675   -20402   -20299   -20475   -20763   -20787 
  -20482   -20289   -20474   -20697   -20617   -20447   -20528   -20753 
  -20815   -20717   -20687   -20789   -20898   -20906   -20786   -20593 
  -20465   -20501   -20640   -20697   -20597   -20506   -20554   -20589 
  -20476   -20381   -20486   -20668   -20697   -20544   -20391   -20418 
  -20581   -20674   -20583   -20429   -20433   -20643   -20826   -20744 
  -20489   -20364   -20471   -20611   -20596   -20515   -20545   -20657 
  -20713   -20706   -20677   -20644   -20686   -20810   -20814   -20596 
  -20370   -20356   -20476   -20513   -20425   -20360   -20406   -20495 
  -20564   -20624   -20660   -20631   -20567   -20578   -20684   -20740 
  -20657   -20549   -20545   -20638   -20745   -20782   -20740   -20677 
  -20619   -20574   -20594   -20663   -20660   -20545   -20455   -20536 
  -20698   -20705   -20601   -20667   -20911   -21061   -20976   -20739 
  -20539   -20518   -20592   -20528   -20292   -20157   -20340   -20647 
  -20682   -20434   -20301   -20478   -20728   -20767   -20586   -20434 
  -20527   -20791   -20937   -20777   -20491   -20442   -20669   -20800 
