Origin Time       2025/03/30 10:18:00
Lat.              34.667
Long.             140.825
Depth. (km)       69
Mag.              4.9
Station Code      SZOH38
Station Lat.      35.0854
Station Long.     138.9779
Station Height(m) 100
Record Time       2025/03/30 10:18:57
Sampling Freq(Hz) 100Hz
Duration Time(s)  120
Dir.              4
Scale Factor      7845(gal)/8223790
Max. Acc. (gal)   1.300
Last Correction   2025/03/30 10:18:57
Memo.             
[...]
    3808     3859     3809     3712     3676     3726     3761     3723 
    3703     3743     3800     3879     3929     3869     3797     3835 
    3886     3838     3777     3820     3913     3937     3851     3742 
    3703     3750     3878     4008     4041     3979     3879     3802 
    3774     3734     3640     3534     3492     3562     3684     3770 
    3817     3834     3805     3763     3740     3732     3748     3798 
    3843     3846     3835     3851     3886     3913     3909     3861 
    3805     3801     3811     3751     3665     3640     3663     3705 
    3770     3824     3846     3874     3888     3839     3774     3766 
    3801     3817     3801     3798     3796     3762     3755     3805 
    3816     3738     3655     3672     3807     3947     3942     3821 
    3736     3726     3744     3769     3782     3775     3759     3750 
    3782     3867     3936     3937     3919     3935     3933     3828 
    3655     3524     3510     3613     3761     3873     3919     3924 
    3939     3931     3866     3790     3727     3681     3692     3739 
    3774     3813     3874     3917     3890     3832     3796     3744 
    3678     3674     3742     3808     3861     3910     3892     3781 
    3694     3684     3734     3836     3925     3970     4013     3982 
    3835     3689     3586     3518     3547     3663     3784     3900 
    4031     4102     4031     3877     3755     3657     3542     3453 
    3451     3551     3731     3935     4064     4081     4045     3997 
    3912     3798     3701     3642     3597     3596     3716     3881 
    3935     3873     3780     3717     3699     3678     3639     3619 
    3647     3727     3832     3924     4002     4071     4095     4033 
    3921     3844     3804     3777     3778     3761     3696     3649 
    3646     3677     3727     3780     3827     3842     3804     3738 
    3662     3596     3562     3574     3643     3739     3843     3971 
    4097     4159     4118     3964     3762     3592     3504     3512 
    3578     3677     3808     3955     4105     4206     4183     4027 
    3807     3623     3530     3524     3584     3677     3789     3898 
    3958     3960     3929     3852     3736     3640     3640     3716 
    3784     3858     3975     4037     3979     3866     3740     3618 
    3537     3534     3624     3759     3866     3912     3885     3820 
    3786     3774     3742     3721     3748     3798     3850     3901 
    3933     3937     3900     3785     3640     3588     3643     3738 
    3846     3955     4000     3915     3757     3623     3549     3554 
    3631     3728     3827     3950     4095     4182     4110     3928 
    3731     3566     3510     3578     3673     3726     3755     3805 
    3863     3889     3877     3834     3743     3618     3537     3570 
    3682     3790     3850     3856     3870     3944     4027     4050 
    4013     3951     3896     3843     3778     3731     3727     3753 
    3755     3724     3709     3712     3688     3636     3615     3655 
    3734     3824     3928     4009     4021     3975     3893     3789 
    3670     3555     3515     3603     3773     3933     4020     4020 
    3955     3855     3754     3697     3697     3717     3746     3796 
    3819     3793     3781     3790     3777     3775     3817     3863 
    3890     3908     3905     3848     3758     3703     3693     3701 
    3736     3789     3808     3777     3740     3761     3827     3848 
    3797     3739     3736     3797     3874     3888     3796     3685 
    3647     3662     3728     3871     4020     4070     4002     3869 
    3726     3642     3681     3761     3774     3796     3873     3904 
    3878     3854     3820     3767     3700     3646     3663     3751 
    3875     3970     3950     3829     3711     3626     3570     3597 
    3712     3812     3856     3893     3905     3890     3889     3871 
    3823     3785     3757     3723     3685     3678     3735     3815 
    3875     3933     3969     3925     3817     3726     3703     3707 
    3686     3661     3677     3723     3743     3747     3792     3835 
    3839     3843     3858     3862     3840     3798     3785     3819 
    3867     3897     3897     3865     3816     3777     3767     3759 
    3726     3716     3728     3703     3677     3711     3780     3846 
    3873     3825     3748     3727     3754     3789     3829     3847 
    3811     3759     3748     3778     3827     3881     3908     3875 
    3798     3728     3705     3739     3788     3807     3815     3815 
    3815     3850     3858     3778     3721     3750     3793     3839 
    3879     3866     3842     3858     3852     3800     3748     3723 
    3715     3713     3715     3753     3820     3856     3875     3892 
    3861     3797     3761     3751     3748     3767     3829     3882 
    3869     3825     3793     3758     3743     3778     3831     3836 
    3792     3746     3731     3747     3775     3793     3777     3726 
    3694     3735     3788     3808     3839     3875     3874     3848 
    3819     3782     3763     3769     3771     3777     3802     3840 
    3866     3866     3840     3800     3790     3823     3854     3847 
    3780     3666     3593     3616     3707     3805     3877     3894 
    3863     3817     3774     3724     3704     3751     3813     3834 
    3836     3834     3802     3755     3728     3751     3784     3780 
    3771     3794     3829     3863     3901     3927     3909     3834 
    3753     3716     3697     3676     3693     3753     3825     3909 
    3923     3827     3742     3716     3693     3676     3685     3731 
    3802     3846     3834     3805     3781     3761     3780     3850 
    3919     3931     3901     3890     3915     3906     3848     3780 
    3720     3704     3773     3846     3831     3770     3740     3739 
    3739     3738     3738     3726     3747     3835     3912     3931 
    3924     3885     3828     3797     3778     3761     3766     3786 
    3794     3793     3796     3781     3753     3763     3782     3744 
    3686     3676     3712     3746     3746     3743     3762     3784 
    3790     3777     3771     3802     3858     3913     3910     3815 
    3700     3630     3626     3696     3786     3829     3832     3829 
    3815     3794     3807     3820     3781     3742     3732     3709 
    3717     3808     3923     3994     3993     3931     3850     3773 
    3700     3674     3739     3862     3944     3944     3894     3823 
    3750     3704     3711     3767     3836     3892     3937     3960 
    3913     3802     3701     3653     3634     3649     3734     3869 
    3970     3956     3854     3762     3707     3654     3600     3578 
    3616     3704     3821     3947     4004     3954     3858     3759 
    3686     3692     3761     3846     3913     3936     3898     3838 
    3797     3747     3689     3685     3711     3731     3775     3843 
    3888     3889     3834     3755     3715     3730     3773     3800 
    3793     3778     3743     3682     3659     3715     3793     3836 
    3858     3893     3921     3928     3920     3897     3873     3870 
    3879     3852     3789     3757     3751     3738     3732     3723 
    3703     3715     3742     3751     3755     3767     3784     3775 
    3739     3693     3642     3650     3754     3865     3913     3909 
    3871     3855     3875     3879     3827     3743     3701     3721 
    3770     3831     3885     3916     3933     3920     3866     3808 
    3763     3719     3689     3708     3759     3786     3773     3753 
    3762     3775     3758     3758     3804     3823     3789     3757 
    3750     3778     3823     3823     3784     3771     3801     3828 
    3832     3829     3820     3780     3726     3694     3711     3775 
    3839     3852     3852     3890     3917     3885     3819     3767 
    3755     3800     3859     3869     3825     3786     3790     3817 
    3823     3797     3759     3727     3716     3707     3689     3716 
    3762     3780     3802     3820     3800     3801     3831     3812 
    3743     3685     3670     3662     3654     3688     3751     3807 
    3867     3944     3997     4000     3974     3917     3820     3728 
    3694     3712     3754     3797     3825     3846     3856     3836 
    3785     3727     3713     3753     3785     3824     3927     4013 
    3982     3870     3753     3663     3634     3681     3781     3862 
    3871     3829     3788     3765     3750     3701     3626     3578 
    3586     3658     3789     3906     3939     3893     3819     3770 
    3767     3802     3861     3897     3883     3848     3831     3847 
    3883     3905     3898     3858     3811     3785     3778     3804 
    3851     3863     3834     3789     3740     3688     3657     3688 
    3765     3816     3836     3834     3796     3767     3766     3755 
    3747     3771     3766     3693     3649     3712     3800     3839 
    3865     3863     3800     3731     3700     3700     3731     3789 
    3843     3867     3865     3840     3811     3793     3782     3774 
    3781     3804     3836     3871     3877     3848     3816     3775 
    3708     3663     3694     3755     3812     3886     3932     3901 
    3843     3796     3748     3701     3681     3705     3762     3819 
    3850     3846     3809     3769     3757     3780     3813     3839 
    3851     3839     3790     3716     3665     3694     3789     3850 
    3824     3754     3720     3735     3753     3771     3794     3798 
    3809     3861     3912     3931     3939     3964     3970     3928 
    3896     3879     3800     3694     3659     3684     3721     3746 
    3762     3789     3811     3821     3821     3797     3770     3785 
    3834     3855     3835     3805     3757     3701     3681     3682 
    3693     3719     3739     3781     3854     3882     3834     3766 
    3748     3784     3816     3824     3840     3855     3844     3821 
    3780     3703     3659     3699     3762     3794     3812     3843 
    3904     3967     3962     3854     3694     3566     3523     3549 
    3631     3757     3865     3933     3983     3975     3900     3817 
    3771     3759     3773     3785     3773     3751     3759     3789 
    3801     3794     3773     3754     3747     3730     3742     3828 
    3901     3921     3937     3932     3879     3802     3726     3678 
    3688     3755     3839     3875     3863     3854     3871     3871 
    3821     3778     3785     3797     3792     3781     3782     3821 
    3877     3883     3825     3753     3705     3682     3689     3728 
    3763     3763     3736     3723     3765     3834     3861     3823 
    3758     3717     3716     3750     3817     3870     3883     3908 
    3947     3937     3863     3769     3704     3686     3707     3758 
    3811     3829     3836     3859     3877     3859     3832     3836 
    3847     3825     3766     3708     3692     3721     3782     3851 
    3867     3813     3757     3717     3672     3634     3642     3692 
    3738     3773     3821     3848     3829     3792     3736     3708 
    3743     3790     3821     3842     3858     3896     3910     3851 
    3790     3801     3850     3862     3819     3778     3771     3796 
    3862     3933     3960     3935     3848     3711     3588     3538 
    3547     3576     3608     3638     3669     3692     3689     3689 
    3715     3724     3693     3651     3636     3673     3738     3786 
    3813     3825     3831     3839     3886     3993     4087     4112 
    4087     4055     4066     4102     4091     4044     4010     3989 
    3958     3908     3847     3796     3767     3759     3723     3657 
    3636     3653     3645     3612     3582     3570     3589     3624 
    3653     3684     3743     3798     3801     3781     3782     3785 
    3771     3773     3812     3886     3971     4020     4005     3942 
    3881     3861     3877     3900     3904     3897     3881     3825 
    3732     3663     3658     3681     3684     3674     3688     3738 
    3792     3808     3786     3730     3635     3554     3518     3505 
    3522     3549     3589     3703     3852     3937     3969     3987 
    3991     4010     4083     4168     4187     4145     4043     3883 
    3759     3751     3871     4102     4301     4287     4033     3616 
    3156     2836     2768     2960     3393     3960     4421     4599 
    4529     4351     4122     3836     3519     3277     3181     3231 
    3385     3551     3612     3578     3555     3573     3611     3653 
    3685     3712     3740     3775     3870     4027     4135     4126 
    4109     4187     4309     4364     4324     4259     4239     4187 
    4025     3823     3651     3512     3438     3442     3434     3346 
    3213     3099     3091     3234     3460     3708     3981     4203 
    4259     4136     3910     3639     3369     3190     3176     3335 
    3635     3998     4260     4333     4275     4151     4048     4079 
    4241     4417     4468     4382     4263     4186     4110     3962 
    3684     3322     3053     3061     3352     3769     4166     4417 
    4410     4171     3847     3573     3414     3373     3422     3530 
    3659     3753     3769     3715     3578     3326     3022     2786 
    2689     2825     3245     3796     4236     4407     4315     4105 
    3888     3662     3497     3524     3747     4090     4503     4882 
    5101     5157     5070     4787     4330     3836     3391     3010 
    2714     2569     2660     3022     3570     4099     4456     4603 
    4526     4282     3989     3667     3323     3065     3006     3196 
    3588     4052     4425     4541     4329     3871     3342     2956 
    2853     3036     3400     3790     4082     4236     4229     4040 
    3712     3408     3327     3505     3802     4062     4179     4166 
    4128     4093     4010     3885     3786     3762     3792     3834 
    3850     3844     3836     3784     3689     3597     3535     3561 
    3734     4013     4280     4449     4472     4317     4054     3835 
    3721     3728     3863     4002     3994     3827     3573     3308 
    3098     2982     2988     3126     3369     3653     3877     4006 
    4075     4082     4027     3939     3828     3723     3659     3657 
    3743     3902     4083     4221     4213     4025     3743     3487 
    3345     3337     3419     3532     3669     3829     3948     3993 
    4024     4039     3997     3909     3816     3786     3861     3973 
    4023     3996     3978     3987     3915     3758     3615     3493 
    3362     3279     3314     3439     3553     3620     3712     3842 
    3912     3871     3811     3828     3909     3977     3962     3865 
    3744     3627     3542     3568     3688     3813     3928     4025 
    4067     4050     4021     4016     3985     3888     3790     3750 
    3771     3896     4105     4288     4364     4301     4082     3774 
    3472     3229     3114     3171     3364     3627     3893     4132 
    4306     4301     4106     3873     3709     3680     3817     4035 
    4189     4230     4175     4031     3813     3619     3537     3518 
    3457     3369     3352     3441     3553     3619     3661     3657 
    3568     3465     3473     3592     3735     3894     4062     4139 
    4089     3966     3820     3694     3615     3599     3672     3807 
    3954     4043     3993     3815     3634     3541     3549     3635 
    3793     3996     4176     4272     4225     4025     3771     3551 
    3389     3327     3379     3520     3716     3898     4041     4151 
    4180     4091     3921     3717     3523     3419     3460     3596 
    3765     3947     4140     4301     4340     4197     3940     3686 
    3503     3424     3443     3507     3570     3616     3634     3636 
    3663     3734     3850     3985     4048     3990     3886     3820 
    3792     3784     3771     3762     3790     3859     3915     3900 
    3808     3682     3572     3565     3704     3863     3948     4009 
    4071     4118     4143     4132     4085     3979     3805     3632 
    3528     3507     3565     3670     3747     3761     3785     3854 
    3901     3917     3925     3893     3811     3672     3491     3396 
    3456     3595     3746     3871     3950     3998     3985     3854 
    3638     3470     3442     3522     3655     3808     3925     3983 
    3985     3943     3885     3827     3773     3730     3680     3619 
    3595     3643     3732     3805     3842     3848     3844     3870 
    3936     4010     4051     4039     3991     3943     3919     3947 
    4004     3997     3893     3743     3597     3492     3468     3515 
    3599     3731     3906     4051     4093     3996     3763     3527 
    3416     3418     3472     3564     3701     3866     3993     4036 
    4005     3915     3792     3685     3631     3631     3678     3775 
    3888     3971     4021     4028     3982     3905     3808     3705 
    3640     3666     3789     3902     3939     3962     3978     3936 
    3862     3790     3726     3676     3638     3616     3622     3670 
    3774     3897     3967     3964     3929     3886     3820     3740 
    3659     3603     3612     3684     3774     3873     3970     4032 
    4068     4059     3981     3879     3774     3654     3546     3476 
    3453     3476     3526     3593     3672     3740     3790     3858 
    3936     3935     3866     3827     3813     3784     3761     3759 
    3771     3802     3874     3964     4006     3948     3835     3757 
    3712     3642     3572     3582     3655     3757     3882     3970 
    3978     3952     3916     3858     3801     3767     3753     3769 
    3819     3875     3890     3835     3724     3647     3674     3769 
    3877     3962     4005     4025     4031     3996     3925     3844 
    3784     3754     3728     3717     3724     3721     3731     3769 
    3798     3796     3771     3723     3630     3523     3472     3487 
    3541     3630     3742     3851     3933     3977     4000     3996 
    3939     3846     3758     3699     3686     3724     3811     3924 
    4024     4055     3974     3846     3750     3670     3595     3555 
    3562     3608     3685     3762     3802     3798     3775     3770 
    3801     3835     3848     3848     3836     3811     3808     3832 
    3836     3801     3747     3709     3699     3688     3719     3829 
    3960     4039     4028     3970     3931     3902     3875     3875 
    3873     3835     3789     3766     3769     3771     3761     3731 
    3685     3667     3694     3717     3694     3626     3589     3619 
    3650     3666     3708     3780     3852     3888     3859     3811 
    3782     3769     3780     3827     3890     3951     4018     4083 
    4109     4063     3923     3728     3601     3596     3650     3731 
    3851     3975     4027     3979     3888     3829     3829     3840 
    3819     3774     3727     3697     3719     3784     3828     3796 
    3700     3599     3537     3534     3592     3692     3796     3881 
    3929     3932     3900     3847     3788     3719     3645     3619 
    3658     3732     3797     3824     3840     3877     3896     3863 
    3805     3766     3746     3744     3798     3858     3846     3798 
