Origin Time       2025/03/30 10:18:00
Lat.              34.667
Long.             140.825
Depth. (km)       69
Mag.              4.9
Station Code      SZOH54
Station Lat.      35.0417
Station Long.     139.1685
Station Height(m) 20
Record Time       2025/03/30 10:18:54
Sampling Freq(Hz) 100Hz
Duration Time(s)  120
Dir.              4
Scale Factor      3920(gal)/6170801
Max. Acc. (gal)   1.134
Last Correction   2025/03/30 10:18:39
Memo.             
[...]
   -3058    -2897    -2581    -2279    -2155    -2225    -2427    -2687 
   -2898    -2975    -2943    -2874    -2757    -2576    -2445    -2457 
   -2540    -2578    -2538    -2465    -2466    -2639    -2885    -2935 
   -2678    -2329    -2142    -2157    -2267    -2400    -2534    -2639 
   -2657    -2563    -2454    -2474    -2650    -2883    -3008    -2902 
   -2674    -2550    -2520    -2429    -2319    -2352    -2506    -2594 
   -2523    -2416    -2450    -2638    -2831    -2882    -2752    -2523 
   -2349    -2342    -2467    -2623    -2763    -2862    -2884    -2801 
   -2622    -2422    -2312    -2371    -2565    -2764    -2878    -2901 
   -2835    -2674    -2451    -2231    -2111    -2210    -2532    -2860 
   -2937    -2764    -2603    -2637    -2701    -2543    -2253    -2118 
   -2226    -2422    -2486    -2377    -2327    -2563    -2942    -3076 
   -2845    -2513    -2334    -2344    -2486    -2698    -2880    -2936 
   -2817    -2547    -2273    -2213    -2418    -2668    -2768    -2745 
   -2713    -2745    -2806    -2753    -2549    -2387    -2442    -2629 
   -2729    -2668    -2555    -2509    -2473    -2347    -2228    -2264 
   -2395    -2477    -2471    -2460    -2539    -2664    -2697    -2634 
   -2627    -2735    -2828    -2775    -2613    -2502    -2559    -2697 
   -2708    -2532    -2357    -2403    -2633    -2790    -2715    -2534 
   -2505    -2689    -2840    -2716    -2425    -2291    -2422    -2628 
   -2699    -2622    -2547    -2576    -2635    -2607    -2527    -2535 
   -2659    -2751    -2697    -2578    -2518    -2521    -2537    -2545 
   -2544    -2550    -2569    -2539    -2412    -2285    -2326    -2548 
   -2721    -2637    -2397    -2280    -2416    -2685    -2874    -2919 
   -2903    -2881    -2795    -2592    -2350    -2251    -2404    -2692 
   -2846    -2712    -2442    -2360    -2572    -2818    -2797    -2523 
   -2269    -2235    -2416    -2672    -2810    -2708    -2455    -2269 
   -2235    -2264    -2332    -2512    -2761    -2912    -2909    -2849 
   -2792    -2681    -2482    -2300    -2254    -2345    -2505    -2660 
   -2769    -2867    -2945    -2896    -2661    -2344    -2152    -2218 
   -2462    -2656    -2628    -2445    -2305    -2295    -2375    -2520 
   -2710    -2878    -2934    -2827    -2599    -2417    -2413    -2519 
   -2565    -2504    -2455    -2529    -2708    -2893    -3010    -3012 
   -2905    -2764    -2645    -2573    -2582    -2655    -2731    -2762 
   -2715    -2586    -2440    -2366    -2364    -2378    -2414    -2498 
   -2581    -2606    -2597    -2567    -2509    -2448    -2385    -2292 
   -2201    -2176    -2248    -2419    -2627    -2744    -2695    -2541 
   -2454    -2553    -2746    -2840    -2772    -2622    -2507    -2534 
   -2699    -2848    -2843    -2725    -2631    -2640    -2716    -2733 
   -2597    -2393    -2318    -2436    -2601    -2647    -2545    -2403 
   -2368    -2463    -2586    -2673    -2730    -2723    -2613    -2434 
   -2283    -2272    -2446    -2719    -2909    -2894    -2748    -2653 
   -2651    -2634    -2552    -2489    -2516    -2570    -2535    -2416 
   -2340    -2394    -2530    -2644    -2680    -2630    -2493    -2327 
   -2239    -2300    -2494    -2748    -2977    -3044    -2828    -2460 
   -2264    -2376    -2616    -2795    -2884    -2888    -2769    -2556 
   -2357    -2268    -2329    -2517    -2732    -2863    -2894    -2872 
   -2765    -2527    -2271    -2183    -2282    -2420    -2487    -2504 
   -2540    -2622    -2720    -2749    -2645    -2484    -2428    -2518 
   -2648    -2725    -2732    -2663    -2548    -2491    -2535    -2603 
   -2651    -2696    -2706    -2653    -2597    -2573    -2549    -2542 
   -2596    -2644    -2576    -2415    -2319    -2366    -2486    -2575 
   -2553    -2458    -2428    -2466    -2448    -2366    -2342    -2423 
   -2517    -2551    -2557    -2584    -2623    -2651    -2663    -2659 
   -2666    -2730    -2842    -2907    -2854    -2741    -2674    -2673 
   -2672    -2623    -2573    -2601    -2697    -2752    -2710    -2622 
   -2540    -2440    -2297    -2156    -2122    -2251    -2471    -2658 
   -2742    -2727    -2659    -2600    -2586    -2617    -2650    -2630 
   -2557    -2506    -2532    -2602    -2675    -2779    -2930    -3059 
   -3039    -2809    -2472    -2233    -2195    -2290    -2408    -2503 
   -2568    -2579    -2503    -2373    -2339    -2539    -2864    -3021 
   -2857    -2486    -2181    -2157    -2345    -2490    -2474    -2399 
   -2402    -2491    -2567    -2563    -2514    -2498    -2575    -2719 
   -2802    -2749    -2665    -2675    -2756    -2806    -2772    -2696 
   -2663    -2698    -2723    -2665    -2543    -2443    -2446    -2544 
   -2660    -2733    -2750    -2703    -2568    -2396    -2306    -2340 
   -2439    -2546    -2626    -2655    -2630    -2588    -2592    -2660 
   -2700    -2608    -2423    -2317    -2378    -2520    -2623    -2646 
   -2600    -2519    -2440    -2382    -2399    -2525    -2679    -2748 
   -2685    -2536    -2402    -2349    -2398    -2549    -2750    -2903 
   -2907    -2739    -2488    -2321    -2353    -2552    -2766    -2856 
   -2801    -2680    -2580    -2538    -2550    -2599    -2650    -2631 
   -2496    -2322    -2225    -2229    -2291    -2393    -2514    -2596 
   -2612    -2596    -2613    -2697    -2813    -2873    -2799    -2634 
   -2522    -2516    -2570    -2645    -2724    -2786    -2771    -2654 
   -2534    -2512    -2631    -2884    -3105    -3060    -2737    -2368 
   -2173    -2210    -2431    -2712    -2862    -2776    -2558    -2384 
   -2325    -2368    -2451    -2499    -2491    -2437    -2360    -2342 
   -2439    -2598    -2706    -2673    -2518    -2379    -2368    -2469 
   -2589    -2660    -2680    -2670    -2660    -2687    -2720    -2691 
   -2620    -2586    -2585    -2553    -2489    -2440    -2438    -2505 
   -2614    -2682    -2674    -2624    -2547    -2443    -2350    -2341 
   -2446    -2604    -2713    -2707    -2626    -2588    -2625    -2598 
   -2428    -2266    -2289    -2480    -2670    -2725    -2660    -2599 
   -2645    -2757    -2783    -2697    -2629    -2616    -2560    -2449 
   -2390    -2444    -2602    -2802    -2906    -2831    -2657    -2489 
   -2396    -2410    -2503    -2638    -2749    -2708    -2518    -2376 
   -2425    -2590    -2707    -2713    -2628    -2477    -2348    -2326 
   -2404    -2560    -2730    -2774    -2663    -2554    -2552    -2581 
   -2582    -2623    -2732    -2822    -2829    -2730    -2532    -2361 
   -2387    -2603    -2785    -2739    -2533    -2382    -2362    -2399 
   -2442    -2489    -2534    -2596    -2669    -2697    -2666    -2617 
   -2562    -2478    -2379    -2312    -2317    -2403    -2537    -2650 
   -2695    -2687    -2655    -2596    -2512    -2444    -2418    -2434 
   -2500    -2628    -2782    -2894    -2898    -2762    -2529    -2367 
   -2421    -2634    -2833    -2923    -2901    -2755    -2516    -2308 
   -2245    -2353    -2575    -2793    -2857    -2739    -2532    -2324 
   -2236    -2360    -2606    -2741    -2654    -2478    -2391    -2452 
   -2596    -2693    -2670    -2580    -2535    -2536    -2506    -2450 
   -2436    -2497    -2606    -2727    -2808    -2808    -2725    -2621 
   -2598    -2672    -2748    -2744    -2660    -2557    -2497    -2463 
   -2412    -2375    -2390    -2437    -2507    -2576    -2597    -2570 
   -2552    -2579    -2623    -2656    -2672    -2649    -2543    -2364 
   -2239    -2294    -2515    -2785    -2948    -2889    -2668    -2470 
   -2381    -2362    -2380    -2460    -2596    -2707    -2756    -2761 
   -2734    -2687    -2631    -2566    -2515    -2491    -2492    -2518 
   -2557    -2603    -2659    -2696    -2688    -2666    -2653    -2621 
   -2559    -2548    -2667    -2835    -2877    -2721    -2459    -2262 
   -2228    -2317    -2465    -2653    -2833    -2914    -2841    -2625 
   -2356    -2201    -2274    -2486    -2645    -2639    -2501    -2364 
   -2340    -2411    -2492    -2554    -2622    -2660    -2630    -2567 
   -2537    -2572    -2654    -2724    -2743    -2686    -2544    -2392 
   -2378    -2548    -2742    -2772    -2628    -2454    -2398    -2505 
   -2667    -2721    -2641    -2550    -2525    -2531    -2533    -2513 
   -2478    -2474    -2521    -2582    -2616    -2621    -2614    -2602 
   -2591    -2588    -2561    -2495    -2432    -2430    -2537    -2723 
   -2862    -2862    -2763    -2682    -2662    -2644    -2585    -2506 
   -2460    -2491    -2586    -2680    -2725    -2663    -2505    -2388 
   -2383    -2440    -2539    -2661    -2745    -2762    -2688    -2523 
   -2386    -2385    -2492    -2602    -2647    -2645    -2618    -2599 
   -2639    -2698    -2693    -2627    -2586    -2617    -2663    -2656 
   -2573    -2448    -2383    -2448    -2550    -2545    -2464    -2462 
   -2578    -2708    -2755    -2701    -2586    -2484    -2453    -2439 
   -2404    -2422    -2532    -2641    -2660    -2640    -2650    -2694 
   -2744    -2720    -2592    -2441    -2360    -2393    -2495    -2602 
   -2710    -2813    -2832    -2701    -2484    -2316    -2276    -2352 
   -2464    -2556    -2628    -2684    -2718    -2702    -2639    -2593 
   -2604    -2627    -2592    -2537    -2536    -2613    -2751    -2896 
   -2967    -2892    -2686    -2478    -2379    -2371    -2414    -2517 
   -2641    -2712    -2696    -2594    -2480    -2436    -2413    -2323 
   -2216    -2232    -2398    -2603    -2729    -2712    -2590    -2470 
   -2440    -2496    -2550    -2536    -2466    -2411    -2428    -2502 
   -2616    -2767    -2880    -2855    -2698    -2534    -2432    -2387 
   -2437    -2573    -2676    -2643    -2522    -2476    -2581    -2730 
   -2745    -2575    -2373    -2324    -2448    -2613    -2708    -2718 
   -2668    -2600    -2533    -2460    -2438    -2562    -2787    -2909 
   -2852    -2732    -2643    -2631    -2692    -2732    -2674    -2557 
   -2512    -2579    -2619    -2516    -2348    -2271    -2308    -2399 
   -2503    -2575    -2621    -2692    -2795    -2874    -2849    -2715 
   -2584    -2535    -2512    -2440    -2354    -2332    -2449    -2689 
   -2890    -2912    -2780    -2615    -2476    -2348    -2246    -2229 
   -2353    -2602    -2850    -2913    -2723    -2453    -2330    -2404 
   -2553    -2647    -2641    -2574    -2493    -2434    -2437    -2535 
   -2684    -2790    -2799    -2676    -2487    -2408    -2513    -2708 
   -2812    -2720    -2515    -2381    -2421    -2583    -2733    -2758 
   -2648    -2503    -2408    -2376    -2428    -2586    -2768    -2816 
   -2665    -2420    -2232    -2204    -2362    -2612    -2799    -2856 
   -2820    -2727    -2613    -2508    -2396    -2309    -2326    -2424 
   -2511    -2589    -2728    -2870    -2838    -2608    -2383    -2362 
   -2559    -2864    -3089    -3030    -2716    -2432    -2370    -2459 
   -2541    -2564    -2558    -2539    -2478    -2344    -2226    -2289 
   -2522    -2725    -2753    -2647    -2556    -2579    -2698    -2803 
   -2803    -2730    -2666    -2633    -2577    -2468    -2398    -2460 
   -2602    -2698    -2687    -2589    -2459    -2395    -2449    -2555 
   -2599    -2537    -2427    -2361    -2381    -2477    -2557    -2540 
   -2482    -2485    -2557    -2635    -2695    -2769    -2849    -2881 
   -2830    -2708    -2595    -2538    -2508    -2478    -2483    -2556 
   -2622    -2604    -2544    -2519    -2572    -2667    -2690    -2592 
   -2463    -2456    -2619    -2814    -2855    -2681    -2405    -2213 
   -2229    -2417    -2617    -2726    -2745    -2652    -2459    -2288 
   -2238    -2305    -2474    -2718    -2896    -2895    -2764    -2588 
   -2433    -2361    -2390    -2493    -2605    -2678    -2716    -2743 
   -2749    -2685    -2561    -2473    -2462    -2500    -2548    -2598 
   -2660    -2701    -2687    -2627    -2560    -2549    -2600    -2631 
   -2569    -2454    -2404    -2482    -2639    -2772    -2788    -2680 
   -2551    -2505    -2533    -2570    -2619    -2687    -2718    -2700 
   -2668    -2634    -2593    -2579    -2613    -2629    -2563    -2492 
   -2485    -2483    -2416    -2342    -2361    -2456    -2528    -2512 
   -2438    -2389    -2415    -2502    -2570    -2530    -2429    -2394 
   -2459    -2569    -2635    -2605    -2516    -2442    -2418    -2438 
   -2496    -2587    -2658    -2653    -2579    -2483    -2413    -2390 
   -2418    -2485    -2558    -2594    -2562    -2501    -2451    -2400 
   -2372    -2400    -2440    -2462    -2493    -2555    -2635    -2696 
   -2721    -2732    -2761    -2788    -2735    -2612    -2553    -2665 
   -2935    -3212    -3298    -3161    -2944    -2775    -2671    -2605 
   -2604    -2720    -2961    -3224    -3314    -3171    -2930    -2741 
   -2686    -2742    -2812    -2862    -2926    -3006    -3032    -2963 
   -2805    -2531    -2173    -1890    -1797    -1872    -2013    -2171 
   -2354    -2518    -2603    -2563    -2424    -2317    -2331    -2435 
   -2528    -2514    -2412    -2306    -2245    -2198    -2066    -1854 
   -1718    -1711    -1780    -1923    -2167    -2517    -2910    -3234 
   -3437    -3530    -3534    -3480    -3406    -3393    -3489    -3583 
   -3470    -3106    -2652    -2191    -1704    -1335    -1254    -1439 
   -1784    -2131    -2304    -2272    -2161    -2118    -2095    -1918 
   -1620    -1349    -1143    -1041    -1076    -1219    -1475    -1845 
   -2306    -2828    -3317    -3687    -3935    -4090    -4186    -4258 
   -4321    -4358    -4361    -4338    -4258    -4076    -3775    -3313 
   -2748    -2302    -2150    -2231    -2274    -2095    -1777    -1458 
   -1211    -1115    -1200    -1433    -1779    -2153    -2478    -2755 
   -2994    -3184    -3277    -3246    -3164    -3086    -3021    -2950 
   -2766    -2492    -2343    -2433    -2700    -3030    -3314    -3490 
   -3474    -3175    -2590    -1898    -1455    -1522    -2053    -2804 
   -3450    -3710    -3550    -3178    -2808    -2474    -2129    -1817 
   -1654    -1686    -1821    -1944    -2042    -2191    -2483    -2875 
   -3136    -3080    -2721    -2240    -1869    -1725    -1765    -1909 
   -2097    -2257    -2282    -2130    -1901    -1787    -1921    -2181 
   -2320    -2287    -2208    -2237    -2456    -2829    -3246    -3569 
   -3758    -3854    -3844    -3764    -3680    -3547    -3327    -3018 
   -2647    -2322    -2134    -2116    -2249    -2437    -2652    -2924 
   -3180    -3276    -3144    -2880    -2643    -2484    -2364    -2299 
   -2355    -2522    -2642    -2556    -2255    -1874    -1626    -1656 
   -1900    -2180    -2410    -2600    -2776    -2906    -2917    -2802 
   -2659    -2578    -2541    -2455    -2283    -2083    -1926    -1864 
   -1898    -1960    -2003    -2059    -2239    -2639    -3209    -3744 
   -4003    -3868    -3449    -2997    -2699    -2602    -2651    -2773 
   -2913    -2976    -2854    -2533    -2115    -1767    -1604    -1626 
   -1753    -1911    -2101    -2369    -2679    -2922    -3048    -3078 
   -3047    -2977    -2888    -2826    -2819    -2773    -2557    -2219 
   -1955    -1890    -2032    -2343    -2733    -3090    -3300    -3327 
   -3245    -3126    -2996    -2906    -2881    -2891    -2915    -2968 
   -3046    -3037    -2822    -2457    -2141    -1982    -1917    -1862 
   -1772    -1643    -1568    -1660    -1940    -2357    -2759    -2974 
   -2971    -2834    -2686    -2631    -2681    -2787    -2889    -2944 
   -2911    -2756    -2554    -2468    -2594    -2836    -2986    -2904 
   -2619    -2329    -2272    -2494    -2795    -2921    -2805    -2623 
   -2540    -2545    -2600    -2665    -2644    -2442    -2090    -1764 
   -1648    -1820    -2207    -2601    -2832    -2850    -2682    -2466 
   -2390    -2526    -2748    -2855    -2777    -2514    -2089    -1670 
   -1496    -1699    -2219    -2835    -3330    -3585    -3545    -3240 
   -2878    -2741    -2891    -3106    -3179    -3080    -2879    -2618 
   -2297    -1939    -1620    -1470    -1605    -1934    -2211    -2298 
   -2274    -2343    -2569    -2800    -2892    -2888    -2962    -3196 
   -3436    -3522    -3474    -3392    -3320    -3207    -3023    -2811 
   -2620    -2436    -2202    -1968    -1844    -1866    -2037    -2317 
   -2573    -2709    -2757    -2828    -2972    -3120    -3178    -3101 
   -2905    -2659    -2465    -2402    -2467    -2561    -2573    -2461 
   -2272    -2055    -1835    -1662    -1572    -1611    -1815    -2130 
   -2454    -2752    -3040    -3264    -3331    -3267    -3171    -3106 
   -3089    -3112    -3122    -2989    -2650    -2215    -1870    -1751 
   -1874    -2151    -2448    -2649    -2714    -2636    -2418    -2152 
   -1993    -2035    -2223    -2431    -2551    -2548    -2530    -2634 
   -2849    -3068    -3180    -3132    -2944    -2702    -2524    -2458 
   -2496    -2619    -2734    -2723    -2581    -2408    -2284    -2224 
   -2259    -2440    -2722    -2962    -3038    -2918    -2680    -2475 
   -2431    -2510    -2558    -2507    -2424    -2393    -2403    -2384 
   -2328    -2310    -2366    -2428    -2427    -2403    -2463    -2676 
   -2982    -3194    -3183    -2978    -2697    -2468    -2361    -2374 
   -2473    -2632    -2810    -2908    -2865    -2767    -2745    -2815 
   -2882    -2857    -2727    -2573    -2484    -2488    -2563    -2628 
   -2614    -2582    -2618    -2676    -2637    -2501    -2410    -2469 
   -2592    -2621    -2535    -2412    -2334    -2350    -2403    -2404 
   -2375    -2391    -2450    -2480    -2450    -2416    -2455    -2571 
   -2683    -2674    -2505    -2302    -2231    -2275    -2300    -2264 
   -2246    -2328    -2492    -2667    -2786    -2819    -2820    -2832 
   -2798    -2682    -2549    -2451    -2391    -2357    -2328    -2279 
   -2230    -2242    -2361    -2544    -2709    -2823    -2881    -2859 
   -2769    -2701    -2696    -2714    -2740    -2761    -2730    -2634 
   -2527    -2522    -2703    -3007    -3241    -3258    -3084    -2854 
   -2695    -2670    -2761    -2910    -3024    -2978    -2725    -2406 
   -2209    -2174    -2227    -2303    -2378    -2427    -2405    -2296 
   -2153    -2055    -2050    -2136    -2253    -2310    -2276    -2230 
   -2271    -2408    -2588    -2755    -2879    -2925    -2863    -2765 
   -2756    -2850    -2959    -3006    -2980    -2913    -2814    -2669 
   -2512    -2392    -2313    -2283    -2308    -2375    -2476    -2574 
   -2617    -2566    -2422    -2251    -2136    -2132    -2251    -2425 
   -2541    -2568    -2562    -2599    -2714    -2835    -2894    -2930 
   -2990    -3022    -2985    -2916    -2840    -2766    -2718    -2681 
   -2632    -2582    -2516    -2423    -2366    -2364    -2344    -2303 
   -2309    -2385    -2515    -2670    -2809    -2885    -2831    -2624 
   -2364    -2175    -2098    -2126    -2238    -2385    -2516    -2605 
   -2662    -2726    -2801    -2845    -2848    -2826    -2760    -2642 
   -2547    -2570    -2701    -2839    -2949    -3077    -3206    -3238 
   -3136    -2929    -2658    -2405    -2231    -2131    -2122    -2204 
   -2293    -2313    -2276    -2226    -2202    -2204    -2208    -2242 
   -2355    -2516    -2655    -2732    -2747    -2699    -2575    -2396 
   -2207    -2066    -2062    -2270    -2640    -3015    -3239    -3246 
   -3088    -2882    -2722    -2654    -2692    -2771    -2762    -2632 
