Origin Time       2025/03/30 10:18:00
Lat.              34.667
Long.             140.825
Depth. (km)       69
Mag.              4.9
Station Code      SZOH35
Station Lat.      34.9467
Station Long.     139.0855
Station Height(m) 140
Record Time       2025/03/30 10:18:55
Sampling Freq(Hz) 100Hz
Duration Time(s)  120
Dir.              4
Scale Factor      7845(gal)/8223790
Max. Acc. (gal)   1.912
Last Correction   2025/03/30 10:18:55
Memo.             
[...]
   -5270    -5279    -5281    -5285    -5286    -5283    -5278    -5270 
   -5274    -5296    -5296    -5277    -5287    -5300    -5281    -5269 
   -5269    -5289    -5314    -5300    -5275    -5281    -5283    -5287 
   -5293    -5277    -5269    -5285    -5292    -5292    -5283    -5259 
   -5248    -5260    -5274    -5294    -5324    -5317    -5271    -5265 
   -5293    -5283    -5258    -5258    -5273    -5300    -5316    -5285 
   -5260    -5282    -5293    -5289    -5293    -5267    -5250    -5289 
   -5310    -5308    -5310    -5281    -5273    -5296    -5283    -5283 
   -5292    -5250    -5243    -5278    -5282    -5293    -5304    -5262 
   -5247    -5283    -5290    -5292    -5306    -5297    -5294    -5297 
   -5265    -5254    -5281    -5292    -5296    -5293    -5279    -5285 
   -5287    -5263    -5267    -5312    -5323    -5290    -5263    -5254 
   -5259    -5277    -5278    -5279    -5297    -5308    -5298    -5279 
   -5255    -5251    -5283    -5310    -5302    -5285    -5281    -5292 
   -5290    -5273    -5290    -5309    -5279    -5260    -5279    -5271 
   -5248    -5259    -5275    -5277    -5297    -5325    -5327    -5294 
   -5248    -5239    -5275    -5305    -5302    -5305    -5306    -5285 
   -5274    -5273    -5269    -5279    -5278    -5256    -5269    -5294 
   -5289    -5273    -5278    -5301    -5300    -5278    -5278    -5289 
   -5294    -5302    -5297    -5274    -5256    -5263    -5282    -5289 
   -5285    -5278    -5279    -5293    -5293    -5285    -5287    -5296 
   -5298    -5275    -5243    -5258    -5293    -5298    -5287    -5281 
   -5281    -5286    -5285    -5287    -5296    -5294    -5287    -5281 
   -5279    -5278    -5281    -5287    -5286    -5285    -5282    -5265 
   -5250    -5262    -5292    -5305    -5297    -5275    -5263    -5290 
   -5316    -5300    -5277    -5282    -5302    -5292    -5281    -5302 
   -5300    -5267    -5262    -5263    -5267    -5290    -5300    -5283 
   -5266    -5252    -5262    -5296    -5313    -5297    -5274    -5275 
   -5289    -5293    -5286    -5275    -5262    -5256    -5266    -5302 
   -5333    -5313    -5282    -5278    -5277    -5281    -5283    -5287 
   -5297    -5277    -5254    -5270    -5279    -5277    -5293    -5312 
   -5312    -5297    -5271    -5263    -5279    -5287    -5281    -5271 
   -5262    -5281    -5309    -5300    -5292    -5289    -5275    -5281 
   -5290    -5275    -5274    -5285    -5278    -5271    -5263    -5250 
   -5270    -5302    -5306    -5314    -5302    -5258    -5274    -5308 
   -5289    -5292    -5289    -5254    -5263    -5293    -5292    -5279 
   -5283    -5287    -5273    -5271    -5286    -5302    -5312    -5282 
   -5250    -5262    -5290    -5312    -5296    -5269    -5274    -5273 
   -5278    -5292    -5271    -5267    -5294    -5300    -5296    -5285 
   -5271    -5285    -5294    -5277    -5273    -5283    -5279    -5279 
   -5292    -5296    -5293    -5281    -5267    -5270    -5273    -5286 
   -5309    -5305    -5282    -5271    -5270    -5273    -5275    -5277 
   -5279    -5289    -5300    -5296    -5279    -5277    -5278    -5271 
   -5265    -5275    -5297    -5306    -5296    -5277    -5269    -5283 
   -5293    -5282    -5285    -5297    -5275    -5267    -5286    -5271 
   -5265    -5290    -5304    -5300    -5293    -5283    -5286    -5292 
   -5279    -5262    -5262    -5275    -5285    -5283    -5282    -5282 
   -5282    -5285    -5287    -5279    -5267    -5277    -5292    -5281 
   -5265    -5277    -5298    -5297    -5283    -5278    -5286    -5297 
   -5293    -5281    -5286    -5300    -5286    -5274    -5278    -5274 
   -5281    -5294    -5282    -5274    -5278    -5281    -5283    -5278 
   -5269    -5271    -5281    -5292    -5297    -5293    -5282    -5273 
   -5271    -5279    -5292    -5285    -5269    -5273    -5290    -5301 
   -5298    -5282    -5278    -5301    -5305    -5285    -5274    -5266 
   -5263    -5279    -5287    -5273    -5263    -5277    -5289    -5282 
   -5283    -5301    -5302    -5287    -5281    -5279    -5275    -5269 
   -5274    -5286    -5293    -5298    -5292    -5260    -5258    -5289 
   -5296    -5289    -5297    -5300    -5290    -5274    -5266    -5266 
   -5260    -5255    -5266    -5290    -5308    -5298    -5283    -5282 
   -5285    -5301    -5306    -5282    -5275    -5279    -5269    -5281 
   -5302    -5289    -5271    -5263    -5269    -5290    -5301    -5287 
   -5278    -5283    -5281    -5267    -5278    -5289    -5279    -5274 
   -5275    -5271    -5274    -5285    -5293    -5293    -5296    -5301 
   -5289    -5270    -5271    -5281    -5279    -5282    -5290    -5275 
   -5271    -5297    -5294    -5263    -5263    -5290    -5313    -5319 
   -5308    -5292    -5274    -5252    -5247    -5278    -5305    -5296 
   -5277    -5270    -5256    -5256    -5293    -5328    -5314    -5277 
   -5256    -5265    -5285    -5286    -5271    -5275    -5290    -5289 
   -5289    -5285    -5267    -5269    -5292    -5301    -5296    -5289 
   -5285    -5282    -5278    -5281    -5283    -5271    -5271    -5287 
   -5292    -5292    -5283    -5270    -5278    -5289    -5293    -5301 
   -5294    -5274    -5267    -5274    -5283    -5282    -5282    -5298 
   -5301    -5281    -5273    -5278    -5279    -5283    -5286    -5283 
   -5282    -5293    -5301    -5287    -5258    -5248    -5275    -5302 
   -5297    -5285    -5286    -5281    -5274    -5279    -5279    -5281 
   -5293    -5285    -5260    -5269    -5298    -5316    -5316    -5292 
   -5266    -5267    -5275    -5277    -5283    -5290    -5286    -5281 
   -5285    -5292    -5285    -5262    -5256    -5269    -5277    -5275 
   -5275    -5287    -5314    -5314    -5287    -5283    -5285    -5277 
   -5289    -5306    -5304    -5289    -5273    -5265    -5269    -5263 
   -5258    -5270    -5279    -5283    -5292    -5282    -5269    -5285 
   -5302    -5297    -5296    -5306    -5310    -5298    -5282    -5270 
   -5269    -5266    -5251    -5254    -5277    -5297    -5305    -5287 
   -5260    -5269    -5289    -5285    -5273    -5271    -5282    -5292 
   -5294    -5305    -5297    -5263    -5256    -5286    -5305    -5304 
   -5294    -5290    -5289    -5274    -5267    -5283    -5287    -5269 
   -5266    -5281    -5289    -5287    -5282    -5277    -5278    -5279 
   -5282    -5292    -5294    -5287    -5278    -5266    -5266    -5286 
   -5290    -5277    -5283    -5296    -5292    -5282    -5273    -5283 
   -5310    -5305    -5283    -5289    -5294    -5282    -5282    -5282 
   -5259    -5251    -5277    -5300    -5298    -5275    -5256    -5269 
   -5287    -5298    -5306    -5292    -5273    -5279    -5292    -5293 
   -5287    -5274    -5270    -5278    -5274    -5277    -5287    -5281 
   -5279    -5292    -5292    -5287    -5283    -5275    -5282    -5298 
   -5301    -5297    -5294    -5267    -5240    -5266    -5300    -5285 
   -5267    -5293    -5304    -5266    -5265    -5304    -5293    -5262 
   -5277    -5301    -5293    -5277    -5287    -5300    -5279    -5270 
   -5274    -5270    -5279    -5293    -5297    -5279    -5251    -5266 
   -5305    -5316    -5310    -5290    -5262    -5267    -5293    -5294 
   -5271    -5271    -5290    -5294    -5289    -5281    -5273    -5263 
   -5258    -5274    -5301    -5310    -5302    -5296    -5290    -5269 
   -5251    -5269    -5296    -5290    -5277    -5277    -5283    -5298 
   -5304    -5281    -5266    -5275    -5283    -5287    -5298    -5310 
   -5297    -5270    -5266    -5271    -5271    -5266    -5262    -5271 
   -5275    -5269    -5278    -5290    -5292    -5312    -5329    -5305 
   -5265    -5248    -5269    -5285    -5287    -5300    -5310    -5294 
   -5275    -5275    -5273    -5266    -5278    -5282    -5269    -5281 
   -5301    -5293    -5273    -5263    -5289    -5323    -5305    -5262 
   -5254    -5271    -5285    -5294    -5289    -5273    -5275    -5287 
   -5279    -5271    -5282    -5289    -5278    -5279    -5302    -5308 
   -5289    -5275    -5277    -5282    -5282    -5283    -5292    -5294 
   -5283    -5271    -5274    -5278    -5269    -5278    -5298    -5293 
   -5281    -5274    -5270    -5283    -5297    -5293    -5290    -5286 
   -5271    -5267    -5278    -5277    -5270    -5283    -5296    -5285 
   -5278    -5278    -5282    -5289    -5286    -5290    -5297    -5282 
   -5274    -5283    -5279    -5267    -5271    -5296    -5313    -5296 
   -5277    -5279    -5277    -5263    -5269    -5301    -5310    -5271 
   -5270    -5317    -5309    -5262    -5250    -5259    -5279    -5306 
   -5301    -5274    -5263    -5263    -5279    -5306    -5301    -5287 
   -5290    -5275    -5258    -5281    -5304    -5297    -5292    -5285 
   -5274    -5279    -5277    -5266    -5271    -5279    -5281    -5290 
   -5293    -5294    -5294    -5273    -5260    -5278    -5289    -5290 
   -5290    -5290    -5285    -5274    -5275    -5281    -5275    -5282 
   -5300    -5294    -5279    -5275    -5273    -5281    -5296    -5296 
   -5285    -5274    -5269    -5287    -5300    -5281    -5270    -5283 
   -5294    -5293    -5275    -5260    -5274    -5293    -5294    -5287 
   -5277    -5263    -5256    -5270    -5298    -5306    -5296    -5300 
   -5287    -5258    -5260    -5289    -5294    -5290    -5286    -5273 
   -5273    -5289    -5294    -5302    -5305    -5277    -5259    -5278 
   -5287    -5283    -5286    -5281    -5265    -5260    -5282    -5297 
   -5282    -5283    -5314    -5321    -5263    -5202    -5251    -5347 
   -5332    -5259    -5260    -5290    -5281    -5297    -5337    -5302 
   -5232    -5250    -5289    -5279    -5283    -5301    -5294    -5279 
   -5275    -5289    -5306    -5293    -5262    -5260    -5286    -5292 
   -5277    -5267    -5270    -5287    -5305    -5298    -5285    -5282 
   -5271    -5275    -5300    -5300    -5279    -5273    -5271    -5278 
   -5286    -5270    -5265    -5279    -5287    -5298    -5304    -5292 
   -5285    -5279    -5277    -5298    -5294    -5260    -5259    -5293 
   -5320    -5312    -5283    -5262    -5254    -5259    -5273    -5289 
   -5298    -5287    -5270    -5274    -5301    -5316    -5293    -5255 
   -5252    -5285    -5309    -5297    -5278    -5279    -5289    -5289 
   -5282    -5263    -5254    -5275    -5298    -5292    -5282    -5290 
   -5306    -5302    -5279    -5262    -5270    -5296    -5310    -5294 
   -5267    -5259    -5274    -5290    -5289    -5285    -5289    -5278 
   -5260    -5266    -5274    -5279    -5300    -5296    -5267    -5275 
   -5301    -5289    -5271    -5289    -5302    -5285    -5270    -5286 
   -5297    -5281    -5274    -5290    -5292    -5277    -5275    -5277 
   -5274    -5286    -5294    -5300    -5305    -5290    -5267    -5267 
   -5279    -5282    -5283    -5289    -5277    -5259    -5271    -5289 
   -5285    -5273    -5277    -5292    -5298    -5292    -5278    -5271 
   -5274    -5282    -5290    -5292    -5282    -5279    -5283    -5273 
   -5267    -5287    -5300    -5292    -5290    -5293    -5287    -5281 
   -5281    -5278    -5267    -5279    -5305    -5300    -5277    -5265 
   -5262    -5269    -5279    -5279    -5279    -5282    -5274    -5278 
   -5302    -5314    -5298    -5286    -5281    -5269    -5277    -5293 
   -5282    -5270    -5282    -5285    -5265    -5250    -5260    -5292 
   -5313    -5287    -5262    -5281    -5289    -5286    -5302    -5300 
   -5281    -5282    -5285    -5282    -5285    -5286    -5282    -5277 
   -5271    -5271    -5275    -5279    -5285    -5293    -5289    -5282 
   -5286    -5286    -5279    -5285    -5287    -5286    -5285    -5282 
   -5283    -5283    -5281    -5282    -5287    -5289    -5281    -5267 
   -5266    -5270    -5279    -5296    -5297    -5282    -5279    -5289 
   -5283    -5263    -5271    -5300    -5304    -5290    -5285    -5286 
   -5287    -5283    -5277    -5266    -5262    -5278    -5298    -5300 
   -5287    -5279    -5286    -5290    -5289    -5289    -5287    -5274 
   -5266    -5281    -5292    -5278    -5277    -5290    -5285    -5277 
   -5279    -5278    -5281    -5278    -5271    -5281    -5300    -5301 
   -5283    -5271    -5270    -5277    -5290    -5294    -5292    -5298 
   -5304    -5289    -5262    -5255    -5282    -5297    -5286    -5279 
   -5282    -5286    -5290    -5275    -5258    -5267    -5283    -5289 
   -5289    -5292    -5292    -5293    -5283    -5269    -5283    -5301 
   -5289    -5296    -5312    -5279    -5240    -5252    -5282    -5286 
   -5273    -5269    -5287    -5316    -5316    -5278    -5254    -5273 
   -5298    -5305    -5294    -5275    -5282    -5293    -5269    -5255 
   -5281    -5305    -5305    -5294    -5293    -5293    -5283    -5275 
   -5274    -5286    -5301    -5301    -5306    -5306    -5283    -5258 
   -5252    -5283    -5325    -5321    -5305    -5321    -5319    -5297 
   -5298    -5298    -5296    -5310    -5312    -5289    -5273    -5259 
   -5252    -5281    -5302    -5282    -5246    -5186    -5127    -5148 
   -5228    -5286    -5290    -5221    -5111    -5022    -5003    -5109 
   -5309    -5466    -5508    -5464    -5394    -5328    -5262    -5144 
   -4974    -4891    -5017    -5383    -5903    -6268    -6185    -5742 
   -5232    -4872    -4746    -4773    -4815    -4819    -4824    -4909 
   -5201    -5744    -6309    -6544    -6363    -6012    -5748    -5539 
   -5225    -4901    -4787    -4815    -4752    -4585    -4560    -4816 
   -5175    -5343    -5216    -4930    -4652    -4394    -4201    -4233 
   -4422    -4585    -4881    -5553    -6424    -7060    -7287    -7203 
   -6898    -6399    -5765    -5167    -4811    -4604    -4336    -4221 
   -4577    -5181    -5578    -5717    -5859    -6065    -6138    -5915 
   -5462    -4950    -4465    -4182    -4263    -4477    -4594    -4753 
   -5077    -5520    -5917    -6033    -5849    -5494    -5012    -4538 
   -4297    -4341    -4549    -4800    -5097    -5503    -5989    -6316 
   -6246    -5931    -5691    -5621    -5680    -5752    -5718    -5590 
   -5390    -5229    -5248    -5324    -5289    -5182    -5098    -5128 
   -5250    -5305    -5274    -5283    -5242    -5042    -4915    -4958 
   -5004    -4942    -4661    -4363    -4465    -4842    -5162    -5359 
   -5325    -5100    -4974    -5001    -5030    -5043    -5165    -5421 
   -5664    -5863    -6149    -6502    -6694    -6534    -6100    -5671 
   -5447    -5441    -5452    -5336    -5236    -5274    -5404    -5487 
   -5332    -4959    -4662    -4681    -4885    -4924    -4743    -4575 
   -4584    -4804    -5039    -5061    -4978    -4977    -5070    -5225 
   -5364    -5394    -5293    -5128    -5017    -4992    -5019    -5116 
   -5266    -5409    -5530    -5637    -5764    -5946    -6097    -6151 
   -6188    -6222    -6123    -5887    -5648    -5482    -5385    -5294 
   -5100    -4866    -4774    -4807    -4847    -4876    -4934    -5054 
   -5144    -5071    -4803    -4496    -4357    -4378    -4457    -4567 
   -4722    -5013    -5401    -5643    -5694    -5749    -5833    -5746 
   -5440    -5182    -5228    -5520    -5783    -5844    -5795    -5815 
   -5894    -5911    -5807    -5580    -5358    -5247    -5170    -5090 
   -5065    -5107    -5169    -5220    -5324    -5401    -5316    -5188 
   -5143    -5196    -5333    -5414    -5362    -5281    -5178    -5030 
   -4965    -5032    -5076    -4996    -4876    -4838    -4899    -4941 
   -4830    -4681    -4716    -4866    -5077    -5339    -5416    -5386 
   -5505    -5667    -5813    -5946    -5954    -5904    -5887    -5863 
   -5792    -5621    -5439    -5371    -5323    -5211    -5111    -5080 
   -5058    -5026    -5081    -5184    -5262    -5359    -5391    -5301 
   -5281    -5406    -5451    -5321    -5158    -5084    -5174    -5287 
   -5229    -5169    -5182    -5103    -5000    -4963    -4923    -4927 
   -4949    -4891    -4868    -4986    -5174    -5350    -5467    -5582 
   -5742    -5780    -5629    -5449    -5352    -5348    -5397    -5452 
   -5475    -5424    -5341    -5319    -5394    -5532    -5617    -5547 
   -5352    -5217    -5242    -5297    -5267    -5212    -5171    -5128 
   -5125    -5128    -5038    -4932    -4941    -5047    -5135    -5150 
   -5154    -5192    -5242    -5292    -5321    -5310    -5340    -5454 
   -5467    -5325    -5296    -5451    -5540    -5470    -5354    -5297 
   -5328    -5360    -5327    -5336    -5422    -5479    -5476    -5443 
   -5402    -5356    -5251    -5117    -5061    -5057    -5008    -4939 
   -4958    -5085    -5228    -5327    -5418    -5529    -5578    -5508 
   -5378    -5270    -5196    -5125    -5063    -5022    -4980    -4953 
   -4984    -5085    -5213    -5317    -5381    -5402    -5427    -5474 
   -5495    -5483    -5468    -5479    -5536    -5593    -5630    -5697 
   -5748    -5706    -5559    -5320    -5086    -4968    -4903    -4823 
   -4730    -4603    -4510    -4584    -4824    -5089    -5279    -5341 
   -5243    -5093    -5125    -5390    -5668    -5791    -5840    -5933 
   -6026    -6016    -5895    -5764    -5691    -5598    -5414    -5206 
   -5042    -4919    -4843    -4770    -4695    -4677    -4672    -4658 
   -4714    -4762    -4749    -4811    -5017    -5301    -5579    -5763 
   -5829    -5857    -5875    -5852    -5833    -5864    -5886    -5806 
   -5610    -5491    -5634    -5829    -5699    -5312    -5034    -4973 
   -4943    -4785    -4587    -4548    -4668    -4787    -4846    -4900 
   -4954    -4970    -4938    -4897    -4896    -4891    -4806    -4752 
   -4899    -5163    -5410    -5647    -5822    -5892    -5922    -5941 
   -5995    -6126    -6250    -6274    -6215    -6106    -5950    -5765 
   -5613    -5540    -5506    -5464    -5409    -5319    -5188    -5004 
   -4770    -4577    -4450    -4311    -4183    -4170    -4244    -4266 
   -4195    -4114    -4112    -4233    -4441    -4648    -4878    -5181 
   -5489    -5748    -5954    -6079    -6130    -6201    -6342    -6496 
   -6551    -6439    -6265    -6222    -6288    -6282    -6185    -6034 
   -5798    -5559    -5387    -5206    -5004    -4828    -4652    -4513 
   -4477    -4477    -4434    -4364    -4294    -4266    -4318    -4442 
   -4588    -4722    -4857    -5008    -5157    -5310    -5489    -5632 
   -5705    -5765    -5825    -5825    -5726    -5567    -5470    -5513 
   -5640    -5788    -5911    -5962    -5923    -5800    -5660    -5567 
   -5482    -5371    -5271    -5229    -5209    -5144    -5017    -4884 
   -4842    -4897    -4934    -4908    -4841    -4743    -4699    -4749 
   -4777    -4739    -4715    -4761    -4909    -5111    -5298    -5514 
   -5734    -5883    -5989    -6045    -5979    -5854    -5765    -5726 
   -5721    -5713    -5697    -5701    -5711    -5740    -5760    -5636 
   -5358    -5111    -4977    -4876    -4730    -4563    -4446    -4436 
   -4495    -4540    -4542    -4552    -4585    -4645    -4720    -4789 
   -4862    -4976    -5121    -5282    -5443    -5586    -5721    -5860 
   -5996    -6119    -6247    -6386    -6446    -6355    -6197    -6069 
   -5977    -5940    -5949    -5903    -5767    -5640    -5528    -5350 
   -5115    -4870    -4650    -4472    -4337    -4232    -4140    -4097 
   -4114    -4135    -4159    -4264    -4446    -4614    -4738    -4878 
   -5073    -5281    -5456    -5603    -5764    -5914    -6023    -6100 
   -6123    -6120    -6157    -6166    -6097    -5984    -5822    -5640 
