Origin Time       2025/03/30 10:18:00
Lat.              34.667
Long.             140.825
Depth. (km)       69
Mag.              4.9
Station Code      SZOH35
Station Lat.      34.9467
Station Long.     139.0855
Station Height(m) -160
Record Time       2025/03/30 10:18:55
Sampling Freq(Hz) 100Hz
Duration Time(s)  120
Dir.              1
Scale Factor      2942(gal)/8224139
Max. Acc. (gal)   0.228
Last Correction   2025/03/30 10:18:55
Memo.             
[...]
 -190702  -190698  -190696  -190699  -190698  -190698  -190698  -190696 
 -190698  -190698  -190695  -190699  -190699  -190694  -190695  -190699 
 -190699  -190701  -190702  -190699  -190696  -190699  -190702  -190702 
 -190701  -190698  -190695  -190699  -190699  -190698  -190696  -190698 
 -190699  -190699  -190699  -190699  -190699  -190698  -190699  -190701 
 -190698  -190698  -190699  -190699  -190698  -190699  -190701  -190702 
 -190702  -190699  -190699  -190702  -190701  -190698  -190699  -190702 
 -190699  -190698  -190699  -190701  -190702  -190701  -190701  -190701 
 -190699  -190701  -190701  -190698  -190696  -190696  -190696  -190701 
 -190705  -190701  -190699  -190701  -190701  -190699  -190701  -190702 
 -190701  -190701  -190702  -190701  -190698  -190701  -190701  -190699 
 -190701  -190699  -190699  -190701  -190699  -190699  -190698  -190698 
 -190698  -190699  -190702  -190702  -190701  -190702  -190702  -190699 
 -190701  -190701  -190698  -190701  -190701  -190699  -190701  -190701 
 -190701  -190701  -190699  -190699  -190699  -190699  -190699  -190699 
 -190699  -190699  -190699  -190699  -190702  -190699  -190698  -190702 
 -190701  -190695  -190698  -190702  -190702  -190701  -190699  -190699 
 -190699  -190701  -190701  -190701  -190701  -190698  -190698  -190701 
 -190701  -190701  -190699  -190699  -190701  -190701  -190699  -190701 
 -190702  -190701  -190701  -190699  -190701  -190702  -190702  -190701 
 -190701  -190701  -190699  -190699  -190699  -190698  -190699  -190699 
 -190698  -190699  -190702  -190701  -190699  -190701  -190701  -190698 
 -190698  -190701  -190701  -190699  -190701  -190702  -190699  -190698 
 -190696  -190696  -190698  -190699  -190701  -190696  -190696  -190699 
 -190698  -190698  -190701  -190701  -190699  -190699  -190699  -190699 
 -190699  -190701  -190699  -190698  -190698  -190698  -190699  -190699 
 -190698  -190698  -190698  -190699  -190702  -190701  -190698  -190701 
 -190701  -190698  -190698  -190699  -190698  -190696  -190699  -190702 
 -190702  -190699  -190698  -190699  -190701  -190696  -190695  -190701 
 -190701  -190701  -190701  -190698  -190698  -190702  -190701  -190698 
 -190699  -190699  -190696  -190696  -190698  -190699  -190702  -190701 
 -190698  -190702  -190705  -190699  -190696  -190701  -190702  -190702 
 -190699  -190699  -190702  -190701  -190698  -190698  -190701  -190702 
 -190701  -190699  -190702  -190702  -190699  -190698  -190701  -190701 
 -190701  -190701  -190701  -190699  -190699  -190701  -190699  -190699 
 -190701  -190701  -190701  -190699  -190698  -190699  -190702  -190699 
 -190698  -190699  -190699  -190699  -190701  -190701  -190701  -190699 
 -190695  -190696  -190702  -190701  -190696  -190698  -190699  -190698 
 -190699  -190699  -190696  -190699  -190699  -190696  -190699  -190701 
 -190696  -190699  -190701  -190698  -190698  -190701  -190699  -190701 
 -190701  -190699  -190702  -190701  -190698  -190699  -190702  -190701 
 -190701  -190701  -190699  -190699  -190702  -190701  -190696  -190698 
 -190698  -190695  -190698  -190698  -190698  -190701  -190698  -190696 
 -190699  -190701  -190701  -190699  -190699  -190698  -190698  -190699 
 -190699  -190699  -190701  -190699  -190701  -190702  -190701  -190702 
 -190702  -190699  -190699  -190701  -190702  -190703  -190699  -190698 
 -190699  -190698  -190698  -190701  -190701  -190699  -190699  -190698 
 -190699  -190701  -190701  -190701  -190698  -190699  -190699  -190699 
 -190701  -190702  -190702  -190701  -190698  -190699  -190701  -190699 
 -190698  -190701  -190701  -190701  -190698  -190698  -190698  -190699 
 -190699  -190701  -190702  -190701  -190699  -190699  -190699  -190699 
 -190702  -190702  -190699  -190698  -190698  -190699  -190701  -190699 
 -190698  -190699  -190696  -190698  -190701  -190701  -190699  -190699 
 -190702  -190699  -190695  -190699  -190703  -190701  -190699  -190699 
 -190699  -190699  -190699  -190701  -190702  -190702  -190699  -190698 
 -190701  -190701  -190701  -190699  -190699  -190701  -190701  -190699 
 -190701  -190698  -190699  -190701  -190699  -190699  -190702  -190702 
 -190701  -190701  -190702  -190701  -190701  -190701  -190699  -190701 
 -190702  -190698  -190698  -190701  -190701  -190701  -190701  -190701 
 -190702  -190702  -190701  -190702  -190701  -190699  -190701  -190698 
 -190699  -190705  -190703  -190698  -190698  -190699  -190699  -190702 
 -190703  -190698  -190696  -190701  -190702  -190701  -190701  -190702 
 -190702  -190699  -190698  -190699  -190701  -190698  -190698  -190699 
 -190701  -190702  -190698  -190696  -190702  -190703  -190696  -190696 
 -190699  -190701  -190702  -190701  -190698  -190698  -190699  -190701 
 -190702  -190703  -190702  -190701  -190701  -190702  -190698  -190696 
 -190701  -190703  -190702  -190698  -190698  -190702  -190701  -190699 
 -190701  -190699  -190699  -190701  -190701  -190699  -190701  -190701 
 -190698  -190701  -190701  -190698  -190701  -190699  -190698  -190699 
 -190699  -190699  -190699  -190701  -190703  -190702  -190696  -190696 
 -190698  -190701  -190701  -190699  -190702  -190702  -190699  -190701 
 -190702  -190699  -190699  -190701  -190698  -190698  -190699  -190699 
 -190699  -190699  -190699  -190699  -190699  -190699  -190699  -190701 
 -190702  -190699  -190698  -190701  -190699  -190698  -190702  -190703 
 -190701  -190699  -190698  -190699  -190699  -190696  -190698  -190699 
 -190699  -190698  -190698  -190699  -190699  -190699  -190698  -190701 
 -190702  -190699  -190698  -190701  -190699  -190696  -190696  -190696 
 -190696  -190699  -190703  -190701  -190699  -190699  -190699  -190701 
 -190701  -190698  -190698  -190699  -190698  -190698  -190701  -190699 
 -190698  -190699  -190699  -190698  -190701  -190701  -190701  -190698 
 -190698  -190702  -190702  -190701  -190702  -190699  -190696  -190696 
 -190698  -190699  -190699  -190698  -190699  -190699  -190701  -190702 
 -190702  -190699  -190698  -190699  -190699  -190701  -190701  -190699 
 -190699  -190701  -190699  -190699  -190702  -190702  -190701  -190701 
 -190699  -190699  -190701  -190702  -190701  -190701  -190702  -190702 
 -190701  -190698  -190698  -190701  -190702  -190699  -190696  -190698 
 -190702  -190702  -190699  -190699  -190699  -190698  -190701  -190702 
 -190701  -190701  -190702  -190701  -190701  -190702  -190699  -190699 
 -190701  -190699  -190699  -190699  -190698  -190701  -190701  -190698 
 -190701  -190699  -190698  -190701  -190702  -190702  -190701  -190699 
 -190699  -190698  -190696  -190701  -190702  -190699  -190698  -190699 
 -190699  -190698  -190699  -190703  -190702  -190698  -190699  -190701 
 -190699  -190699  -190701  -190698  -190695  -190701  -190703  -190699 
 -190698  -190701  -190701  -190699  -190701  -190701  -190699  -190699 
 -190701  -190701  -190701  -190702  -190702  -190699  -190699  -190702 
 -190702  -190699  -190699  -190703  -190702  -190696  -190699  -190702 
 -190699  -190699  -190701  -190701  -190702  -190701  -190696  -190699 
 -190703  -190702  -190701  -190698  -190698  -190701  -190702  -190701 
 -190701  -190702  -190701  -190701  -190702  -190701  -190701  -190701 
 -190701  -190702  -190701  -190699  -190698  -190698  -190701  -190701 
 -190699  -190701  -190701  -190701  -190701  -190696  -190696  -190701 
 -190702  -190701  -190698  -190696  -190698  -190699  -190698  -190698 
 -190699  -190698  -190699  -190699  -190699  -190701  -190699  -190699 
 -190702  -190703  -190705  -190703  -190696  -190699  -190703  -190701 
 -190699  -190699  -190698  -190701  -190702  -190699  -190699  -190699 
 -190699  -190699  -190698  -190698  -190698  -190698  -190699  -190699 
 -190699  -190701  -190695  -190695  -190701  -190699  -190698  -190703 
 -190702  -190696  -190698  -190701  -190699  -190696  -190698  -190701 
 -190701  -190701  -190703  -190703  -190701  -190699  -190701  -190701 
 -190698  -190699  -190699  -190699  -190701  -190699  -190699  -190699 
 -190699  -190701  -190701  -190701  -190701  -190702  -190703  -190702 
 -190701  -190701  -190699  -190698  -190701  -190699  -190698  -190699 
 -190701  -190698  -190698  -190699  -190699  -190699  -190699  -190701 
 -190701  -190699  -190699  -190701  -190698  -190696  -190699  -190701 
 -190699  -190698  -190698  -190698  -190699  -190699  -190701  -190701 
 -190699  -190701  -190699  -190699  -190701  -190701  -190699  -190698 
 -190698  -190696  -190696  -190702  -190703  -190699  -190698  -190699 
 -190699  -190698  -190701  -190702  -190702  -190702  -190702  -190701 
 -190699  -190701  -190701  -190698  -190698  -190698  -190701  -190702 
 -190699  -190698  -190701  -190701  -190701  -190699  -190699  -190696 
 -190695  -190699  -190701  -190699  -190698  -190699  -190698  -190698 
 -190702  -190699  -190694  -190698  -190702  -190698  -190699  -190702 
 -190698  -190698  -190699  -190701  -190702  -190701  -190699  -190698 
 -190699  -190699  -190698  -190698  -190698  -190699  -190701  -190698 
 -190698  -190699  -190699  -190698  -190699  -190702  -190699  -190696 
 -190698  -190699  -190699  -190699  -190698  -190698  -190701  -190699 
 -190696  -190701  -190701  -190698  -190698  -190696  -190698  -190699 
 -190699  -190701  -190701  -190699  -190699  -190699  -190696  -190698 
 -190698  -190698  -190702  -190701  -190695  -190695  -190698  -190699 
 -190699  -190699  -190699  -190698  -190698  -190698  -190698  -190699 
 -190699  -190698  -190698  -190701  -190702  -190699  -190699  -190701 
 -190696  -190696  -190699  -190702  -190701  -190699  -190702  -190702 
 -190701  -190699  -190701  -190699  -190698  -190699  -190698  -190698 
 -190702  -190701  -190698  -190698  -190699  -190702  -190701  -190696 
 -190698  -190701  -190701  -190698  -190698  -190701  -190699  -190696 
 -190698  -190701  -190699  -190698  -190702  -190702  -190698  -190698 
 -190699  -190701  -190703  -190702  -190698  -190699  -190701  -190698 
 -190698  -190701  -190701  -190699  -190699  -190701  -190698  -190696 
 -190699  -190699  -190696  -190696  -190698  -190699  -190699  -190701 
 -190699  -190698  -190699  -190701  -190699  -190701  -190702  -190702 
 -190701  -190701  -190701  -190699  -190698  -190698  -190701  -190698 
 -190696  -190698  -190699  -190699  -190701  -190702  -190701  -190698 
 -190698  -190702  -190702  -190701  -190701  -190701  -190702  -190701 
 -190698  -190699  -190701  -190698  -190699  -190702  -190699  -190699 
 -190702  -190701  -190699  -190701  -190701  -190699  -190701  -190701 
 -190701  -190699  -190699  -190698  -190698  -190699  -190698  -190696 
 -190698  -190698  -190696  -190699  -190701  -190699  -190699  -190699 
 -190698  -190699  -190701  -190698  -190698  -190699  -190699  -190699 
 -190699  -190696  -190698  -190701  -190701  -190699  -190699  -190698 
 -190698  -190699  -190701  -190701  -190701  -190701  -190699  -190698 
 -190699  -190699  -190699  -190702  -190702  -190699  -190699  -190701 
 -190698  -190698  -190699  -190701  -190701  -190701  -190701  -190698 
 -190699  -190701  -190699  -190701  -190701  -190698  -190699  -190703 
 -190701  -190698  -190699  -190701  -190701  -190701  -190701  -190701 
 -190699  -190699  -190701  -190701  -190702  -190702  -190701  -190699 
 -190698  -190698  -190699  -190701  -190702  -190702  -190701  -190701 
 -190699  -190699  -190701  -190702  -190701  -190698  -190699  -190702 
 -190702  -190699  -190699  -190702  -190699  -190699  -190702  -190701 
 -190698  -190701  -190701  -190699  -190698  -190698  -190701  -190701 
 -190698  -190699  -190703  -190701  -190699  -190699  -190701  -190702 
 -190702  -190701  -190698  -190699  -190699  -190699  -190701  -190702 
 -190701  -190699  -190699  -190702  -190702  -190701  -190701  -190701 
 -190701  -190702  -190703  -190701  -190699  -190699  -190702  -190703 
 -190701  -190701  -190699  -190699  -190702  -190701  -190699  -190701 
 -190701  -190701  -190702  -190701  -190698  -190695  -190698  -190699 
 -190699  -190699  -190699  -190698  -190699  -190701  -190701  -190699 
 -190699  -190701  -190701  -190698  -190698  -190699  -190699  -190701 
 -190702  -190699  -190695  -190696  -190701  -190699  -190696  -190699 
 -190701  -190699  -190698  -190701  -190703  -190701  -190698  -190701 
 -190701  -190699  -190701  -190701  -190701  -190705  -190703  -190699 
 -190701  -190702  -190702  -190701  -190699  -190698  -190699  -190701 
 -190702  -190702  -190699  -190699  -190699  -190701  -190701  -190701 
 -190701  -190701  -190702  -190699  -190698  -190701  -190702  -190699 
 -190701  -190699  -190695  -190699  -190702  -190699  -190698  -190699 
 -190701  -190701  -190701  -190701  -190701  -190699  -190696  -190698 
 -190702  -190699  -190696  -190699  -190699  -190696  -190698  -190699 
 -190699  -190699  -190701  -190702  -190701  -190699  -190699  -190701 
 -190699  -190699  -190698  -190696  -190698  -190699  -190701  -190701 
 -190699  -190699  -190701  -190701  -190698  -190695  -190695  -190696 
 -190696  -190696  -190695  -190695  -190695  -190694  -190691  -190694 
 -190695  -190692  -190687  -190686  -190686  -190683  -190682  -190680 
 -190678  -190675  -190674  -190672  -190671  -190669  -190672  -190678 
 -190684  -190691  -190699  -190706  -190718  -190741  -190761  -190779 
 -190791  -190792  -190783  -190763  -190744  -190755  -190799  -190844 
 -190844  -190779  -190669  -190579  -190552  -190571  -190582  -190551 
 -190487  -190480  -190594  -190715  -190711  -190624  -190560  -190584 
 -190773  -191110  -191336  -191214  -190883  -190640  -190498  -190358 
 -190329  -190486  -190594  -190487  -190355  -190412  -190637  -190846 
 -190934  -190952  -190926  -190875  -190921  -191073  -191201  -191219 
 -191069  -190765  -190486  -190379  -190372  -190356  -190343  -190340 
 -190297  -190274  -190443  -190777  -190961  -190842  -190725  -190837 
 -190964  -190929  -190854  -190733  -190486  -190408  -190696  -191014 
 -191111  -191073  -190922  -190648  -190431  -190444  -190593  -190637 
 -190606  -190648  -190653  -190595  -190655  -190741  -190698  -190664 
 -190691  -190607  -190476  -190541  -190814  -191092  -191191  -191020 
 -190668  -190382  -190281  -190242  -190269  -190513  -190823  -190914 
 -190831  -190763  -190729  -190709  -190732  -190777  -190761  -190665 
 -190587  -190595  -190663  -190800  -190984  -191069  -191008  -190895 
 -190799  -190748  -190688  -190552  -190439  -190520  -190717  -190817 
 -190806  -190740  -190618  -190582  -190705  -190810  -190795  -190738 
 -190675  -190557  -190424  -190462  -190657  -190711  -190606  -190594 
 -190678  -190715  -190710  -190672  -190580  -190494  -190506  -190618 
 -190728  -190800  -190902  -190962  -190894  -190861  -190941  -190952 
 -190844  -190726  -190665  -190669  -190684  -190653  -190588  -190533 
 -190579  -190713  -190768  -190698  -190593  -190555  -190629  -190699 
 -190672  -190633  -190659  -190709  -190717  -190705  -190702  -190692 
 -190699  -190706  -190648  -190614  -190714  -190857  -190906  -190844 
 -190760  -190710  -190644  -190561  -190578  -190717  -190857  -190929 
 -190939  -190854  -190722  -190644  -190614  -190636  -190675  -190633 
 -190559  -190537  -190556  -190563  -190518  -190513  -190580  -190586 
 -190568  -190665  -190802  -190872  -190899  -190904  -190836  -190738 
 -190761  -190854  -190830  -190742  -190726  -190764  -190768  -190696 
 -190566  -190439  -190405  -190491  -190613  -190710  -190799  -190880 
 -190850  -190715  -190644  -190641  -190609  -190628  -190713  -190787 
 -190888  -190946  -190819  -190679  -190725  -190809  -190767  -190688 
 -190668  -190679  -190659  -190583  -190556  -190647  -190711  -190661 
 -190629  -190722  -190837  -190868  -190822  -190696  -190549  -190528 
 -190601  -190622  -190651  -190728  -190718  -190625  -190598  -190672 
 -190753  -190755  -190675  -190621  -190674  -190726  -190690  -190678 
 -190759  -190811  -190759  -190674  -190630  -190676  -190821  -190899 
 -190783  -190625  -190568  -190595  -190657  -190679  -190652  -190656 
 -190690  -190692  -190661  -190642  -190691  -190750  -190706  -190611 
 -190634  -190760  -190850  -190890  -190888  -190783  -190636  -190579 
 -190613  -190665  -190684  -190651  -190634  -190705  -190796  -190799 
 -190715  -190636  -190598  -190606  -190653  -190683  -190664  -190651 
 -190703  -190782  -190804  -190795  -190821  -190844  -190792  -190675 
 -190594  -190637  -190737  -190795  -190802  -190752  -190638  -190543 
 -190530  -190576  -190629  -190638  -190641  -190725  -190852  -190930 
 -190894  -190740  -190667  -190767  -190822  -190761  -190715  -190686 
 -190657  -190614  -190543  -190549  -190633  -190668  -190636  -190578 
 -190564  -190618  -190630  -190587  -190556  -190525  -190520  -190564 
 -190625  -190725  -190836  -190856  -190831  -190869  -190926  -190906 
 -190825  -190788  -190817  -190772  -190679  -190725  -190813  -190742 
 -190625  -190578  -190555  -190583  -190690  -190732  -190657  -190640 
 -190729  -190782  -190779  -190767  -190745  -190702  -190664  -190679 
 -190714  -190715  -190702  -190701  -190764  -190871  -190881  -190794 
 -190710  -190647  -190593  -190576  -190597  -190597  -190593  -190615 
 -190597  -190574  -190644  -190736  -190767  -190771  -190768  -190768 
 -190777  -190796  -190817  -190818  -190796  -190780  -190753  -190668 
 -190587  -190597  -190630  -190665  -190750  -190742  -190567  -190441 
 -190458  -190529  -190638  -190763  -190856  -190873  -190803  -190710 
 -190626  -190603  -190657  -190660  -190634  -190723  -190822  -190821 
 -190821  -190811  -190722  -190638  -190633  -190668  -190702  -190713 
 -190699  -190678  -190657  -190668  -190726  -190782  -190794  -190749 
 -190657  -190641  -190729  -190783  -190799  -190803  -190726  -190618 
 -190579  -190599  -190610  -190590  -190579  -190551  -190486  -190518 
 -190659  -190742  -190734  -190733  -190782  -190804  -190763  -190734 
 -190730  -190736  -190746  -190713  -190672  -190683  -190723  -190815 
 -190912  -190933  -190867  -190728  -190663  -190717  -190711  -190644 
 -190617  -190638  -190696  -190690  -190598  -190522  -190452  -190444 
 -190555  -190637  -190656  -190710  -190782  -190821  -190821  -190802 
 -190813  -190860  -190875  -190811  -190760  -190810  -190852  -190803 
 -190718  -190613  -190568  -190657  -190722  -190687  -190687  -190730 
 -190723  -190676  -190630  -190605  -190607  -190647  -190723  -190782 
 -190782  -190777  -190796  -190753  -190626  -190536  -190548  -190603 
 -190620  -190593  -190586  -190590  -190576  -190620  -190701  -190737 
 -190767  -190802  -190806  -190817  -190809  -190730  -190686  -190719 
 -190692  -190610  -190629  -190705  -190702  -190632  -190563  -190582 
 -190729  -190872  -190872  -190740  -190591  -190553  -190617  -190676 
 -190718  -190753  -190769  -190769  -190741  -190691  -190653  -190665 
 -190726  -190786  -190827  -190831  -190771  -190740  -190771  -190736 
 -190633  -190575  -190590  -190642  -190717  -190765  -190734  -190660 
 -190632  -190684  -190794  -190827  -190748  -190699  -190702  -190671 
 -190648  -190678  -190701  -190688  -190683  -190711  -190714  -190659 
 -190617  -190628  -190645  -190630  -190599  -190597  -190655  -190707 
 -190688  -190657  -190671  -190694  -190721  -190760  -190741  -190664 
 -190645  -190694  -190744  -190775  -190750  -190696  -190706  -190755 
