Origin Time       2025/03/30 10:18:00
Lat.              34.667
Long.             140.825
Depth. (km)       69
Mag.              4.9
Station Code      SZOH35
Station Lat.      34.9467
Station Long.     139.0855
Station Height(m) -160
Record Time       2025/03/30 10:18:55
Sampling Freq(Hz) 100Hz
Duration Time(s)  120
Dir.              2
Scale Factor      2942(gal)/8224139
Max. Acc. (gal)   0.248
Last Correction   2025/03/30 10:18:55
Memo.             
[...]
  -17015   -17146   -17247   -17261   -17232   -17280   -17373   -17386 
  -17369   -17388   -17366   -17286   -17234   -17266   -17329   -17324 
  -17258   -17197   -17166   -17188   -17238   -17246   -17188   -17104 
  -17080   -17103   -17104   -17115   -17131   -17132   -17201   -17275 
  -17208   -17093   -17051   -17039   -17000   -16957   -16964   -17043 
  -17176   -17288   -17278   -17178   -17086   -17042   -17078   -17185 
  -17269   -17284   -17261   -17238   -17254   -17311   -17327   -17296 
  -17288   -17297   -17304   -17308   -17282   -17235   -17180   -17108 
  -17066   -17080   -17076   -17031   -17016   -17054   -17105   -17166 
  -17220   -17240   -17246   -17255   -17240   -17173   -17070   -17012 
  -17061   -17159   -17216   -17244   -17266   -17231   -17161   -17109 
  -17093   -17101   -17080   -17039   -17064   -17155   -17257   -17334 
  -17343   -17309   -17302   -17305   -17278   -17236   -17186   -17157 
  -17150   -17126   -17111   -17140   -17211   -17290   -17321   -17298 
  -17254   -17178   -17095   -17066   -17113   -17158   -17130   -17093 
  -17116   -17172   -17181   -17153   -17170   -17199   -17166   -17145 
  -17165   -17177   -17158   -17108   -17076   -17118   -17220   -17312 
  -17312   -17221   -17140   -17149   -17204   -17231   -17242   -17250 
  -17227   -17170   -17103   -17070   -17105   -17147   -17134   -17119 
  -17173   -17253   -17282   -17293   -17301   -17253   -17153   -17077 
  -17053   -17031   -17015   -17091   -17244   -17347   -17362   -17340 
  -17284   -17197   -17158   -17182   -17181   -17132   -17103   -17130 
  -17177   -17201   -17196   -17163   -17111   -17077   -17089   -17126 
  -17170   -17209   -17209   -17184   -17174   -17147   -17082   -17043 
  -17057   -17113   -17196   -17220   -17155   -17086   -17105   -17207 
  -17298   -17328   -17334   -17335   -17325   -17288   -17199   -17112 
  -17092   -17108   -17112   -17091   -17078   -17130   -17205   -17220 
  -17180   -17157   -17163   -17169   -17178   -17208   -17230   -17223 
  -17227   -17266   -17294   -17265   -17189   -17093   -17030   -17023 
  -17035   -17045   -17065   -17116   -17174   -17199   -17204   -17216 
  -17228   -17234   -17209   -17161   -17128   -17145   -17203   -17262 
  -17293   -17266   -17196   -17182   -17242   -17277   -17243   -17167 
  -17122   -17140   -17174   -17193   -17203   -17184   -17150   -17149 
  -17185   -17194   -17155   -17118   -17116   -17139   -17138   -17111 
  -17113   -17139   -17147   -17140   -17151   -17188   -17212   -17207 
  -17201   -17223   -17247   -17232   -17169   -17105   -17112   -17188 
  -17253   -17250   -17213   -17197   -17199   -17194   -17204   -17235 
  -17258   -17254   -17236   -17226   -17238   -17248   -17217   -17166 
  -17150   -17165   -17178   -17180   -17166   -17134   -17099   -17084 
  -17085   -17081   -17078   -17120   -17196   -17228   -17217   -17216 
  -17204   -17169   -17163   -17213   -17263   -17258   -17196   -17126 
  -17097   -17116   -17162   -17204   -17207   -17185   -17161   -17104 
  -17042   -17053   -17109   -17161   -17211   -17238   -17254   -17296 
  -17313   -17259   -17188   -17159   -17174   -17190   -17154   -17108 
  -17124   -17166   -17182   -17186   -17192   -17192   -17182   -17146 
  -17105   -17100   -17118   -17154   -17231   -17288   -17255   -17190 
  -17185   -17203   -17173   -17132   -17139   -17147   -17135   -17155 
  -17217   -17273   -17269   -17215   -17176   -17167   -17150   -17134 
  -17126   -17092   -17049   -17072   -17162   -17228   -17244   -17246 
  -17219   -17151   -17101   -17111   -17147   -17188   -17219   -17204 
  -17161   -17150   -17181   -17223   -17254   -17263   -17255   -17246 
  -17242   -17232   -17213   -17193   -17184   -17185   -17203   -17238 
  -17259   -17248   -17231   -17205   -17167   -17143   -17116   -17084 
  -17082   -17112   -17143   -17189   -17235   -17248   -17250   -17236 
  -17196   -17161   -17143   -17135   -17140   -17128   -17104   -17104 
  -17115   -17142   -17199   -17240   -17226   -17173   -17136   -17145 
  -17170   -17178   -17185   -17231   -17269   -17224   -17142   -17128 
  -17169   -17192   -17200   -17205   -17194   -17170   -17161   -17170 
  -17172   -17142   -17097   -17093   -17149   -17207   -17220   -17230 
  -17247   -17231   -17182   -17145   -17145   -17186   -17200   -17132 
  -17061   -17054   -17073   -17089   -17124   -17185   -17238   -17235 
  -17194   -17181   -17197   -17226   -17250   -17243   -17221   -17224 
  -17232   -17221   -17184   -17128   -17104   -17130   -17161   -17165 
  -17146   -17128   -17136   -17167   -17224   -17286   -17281   -17197 
  -17126   -17140   -17190   -17199   -17182   -17209   -17255   -17247 
  -17199   -17180   -17192   -17201   -17215   -17220   -17185   -17147 
  -17151   -17170   -17170   -17169   -17174   -17181   -17200   -17228 
  -17216   -17165   -17130   -17132   -17158   -17190   -17207   -17204 
  -17190   -17155   -17126   -17132   -17140   -17131   -17136   -17154 
  -17162   -17149   -17145   -17177   -17219   -17217   -17174   -17157 
  -17193   -17219   -17184   -17128   -17107   -17113   -17130   -17163 
  -17185   -17173   -17180   -17220   -17248   -17238   -17196   -17174 
  -17205   -17238   -17234   -17220   -17219   -17211   -17185   -17161 
  -17153   -17155   -17178   -17193   -17161   -17103   -17069   -17091 
  -17165   -17240   -17240   -17165   -17103   -17103   -17140   -17184 
  -17221   -17243   -17231   -17209   -17227   -17248   -17201   -17124 
  -17091   -17103   -17130   -17140   -17138   -17162   -17215   -17253 
  -17250   -17217   -17200   -17196   -17159   -17104   -17068   -17080 
  -17130   -17162   -17145   -17112   -17109   -17135   -17167   -17203 
  -17243   -17266   -17269   -17265   -17244   -17228   -17240   -17257 
  -17246   -17208   -17177   -17185   -17209   -17219   -17203   -17172 
  -17166   -17182   -17174   -17138   -17109   -17104   -17115   -17147 
  -17192   -17219   -17212   -17184   -17172   -17186   -17188   -17151 
  -17103   -17086   -17126   -17177   -17184   -17167   -17174   -17188 
  -17190   -17207   -17215   -17161   -17078   -17061   -17119   -17182 
  -17220   -17250   -17265   -17257   -17262   -17261   -17208   -17159 
  -17165   -17167   -17151   -17158   -17182   -17186   -17165   -17139 
  -17124   -17113   -17101   -17093   -17105   -17145   -17172   -17172 
  -17167   -17180   -17193   -17185   -17162   -17154   -17176   -17189 
  -17161   -17135   -17157   -17182   -17186   -17196   -17227   -17254 
  -17238   -17207   -17216   -17235   -17211   -17174   -17173   -17185 
  -17199   -17203   -17181   -17170   -17188   -17213   -17239   -17231 
  -17172   -17107   -17096   -17143   -17196   -17221   -17238   -17248 
  -17253   -17253   -17251   -17278   -17293   -17236   -17154   -17101 
  -17074   -17064   -17049   -17037   -17064   -17135   -17194   -17201 
  -17184   -17173   -17161   -17166   -17204   -17246   -17262   -17255 
  -17234   -17209   -17181   -17159   -17169   -17203   -17216   -17189 
  -17157   -17153   -17169   -17181   -17186   -17193   -17200   -17176 
  -17124   -17104   -17122   -17126   -17118   -17142   -17180   -17194 
  -17194   -17176   -17153   -17174   -17228   -17243   -17217   -17189 
  -17163   -17155   -17177   -17188   -17174   -17155   -17132   -17134 
  -17167   -17181   -17170   -17173   -17180   -17163   -17143   -17140 
  -17162   -17211   -17263   -17275   -17242   -17200   -17177   -17173 
  -17176   -17146   -17092   -17078   -17108   -17140   -17153   -17138 
  -17131   -17167   -17216   -17212   -17142   -17074   -17088   -17153 
  -17209   -17258   -17304   -17324   -17332   -17332   -17302   -17254 
  -17227   -17215   -17188   -17136   -17109   -17157   -17217   -17209 
  -17153   -17124   -17143   -17167   -17176   -17170   -17154   -17136 
  -17142   -17186   -17234   -17220   -17182   -17186   -17201   -17184 
  -17169   -17166   -17130   -17081   -17084   -17111   -17128   -17150 
  -17178   -17211   -17261   -17275   -17216   -17158   -17172   -17212 
  -17235   -17226   -17178   -17124   -17097   -17103   -17136   -17169 
  -17174   -17176   -17186   -17199   -17207   -17200   -17174   -17157 
  -17163   -17170   -17139   -17109   -17126   -17146   -17132   -17103 
  -17093   -17115   -17140   -17165   -17207   -17253   -17263   -17231 
  -17213   -17227   -17209   -17173   -17190   -17257   -17308   -17323 
  -17293   -17231   -17185   -17162   -17135   -17123   -17139   -17178 
  -17208   -17194   -17176   -17188   -17207   -17213   -17173   -17103 
  -17086   -17116   -17147   -17194   -17215   -17169   -17130   -17143 
  -17157   -17151   -17143   -17136   -17150   -17176   -17192   -17208 
  -17235   -17253   -17239   -17197   -17149   -17132   -17143   -17140 
  -17126   -17130   -17135   -17122   -17122   -17167   -17219   -17235 
  -17236   -17230   -17205   -17170   -17123   -17080   -17084   -17147 
  -17234   -17296   -17304   -17280   -17266   -17262   -17242   -17204 
  -17153   -17101   -17101   -17174   -17248   -17248   -17217   -17226 
  -17236   -17200   -17147   -17116   -17108   -17105   -17104   -17109 
  -17107   -17103   -17134   -17178   -17208   -17230   -17211   -17143 
  -17097   -17115   -17176   -17239   -17267   -17247   -17197   -17162 
  -17163   -17167   -17150   -17136   -17158   -17193   -17196   -17155 
  -17111   -17109   -17146   -17161   -17134   -17112   -17145   -17219 
  -17269   -17236   -17159   -17122   -17136   -17174   -17209   -17221 
  -17221   -17227   -17211   -17177   -17165   -17170   -17181   -17211 
  -17234   -17224   -17200   -17189   -17196   -17193   -17165   -17130 
  -17105   -17107   -17143   -17192   -17227   -17243   -17244   -17250 
  -17254   -17216   -17158   -17161   -17208   -17226   -17209   -17186 
  -17158   -17146   -17170   -17184   -17162   -17147   -17150   -17170 
  -17209   -17216   -17186   -17159   -17128   -17096   -17080   -17081 
  -17088   -17103   -17138   -17167   -17161   -17157   -17188   -17230 
  -17239   -17200   -17151   -17161   -17223   -17275   -17282   -17251 
  -17216   -17199   -17177   -17135   -17119   -17149   -17185   -17199 
  -17200   -17204   -17197   -17157   -17112   -17108   -17136   -17158 
  -17161   -17158   -17142   -17113   -17112   -17143   -17163   -17151 
  -17158   -17207   -17238   -17219   -17188   -17158   -17127   -17126 
  -17174   -17236   -17257   -17230   -17208   -17212   -17216   -17207 
  -17188   -17172   -17155   -17147   -17163   -17200   -17219   -17212 
  -17208   -17190   -17136   -17103   -17134   -17182   -17189   -17169 
  -17178   -17215   -17219   -17186   -17165   -17158   -17153   -17158 
  -17162   -17151   -17150   -17169   -17163   -17147   -17159   -17174 
  -17176   -17182   -17196   -17208   -17212   -17208   -17207   -17207 
  -17192   -17165   -17147   -17157   -17188   -17211   -17207   -17189 
  -17180   -17185   -17194   -17201   -17216   -17227   -17220   -17230 
  -17251   -17226   -17178   -17169   -17173   -17174   -17184   -17188 
  -17196   -17213   -17205   -17173   -17150   -17165   -17209   -17246 
  -17259   -17282   -17296   -17263   -17203   -17155   -17147   -17172 
  -17193   -17188   -17146   -17086   -17055   -17068   -17093   -17104 
  -17100   -17089   -17081   -17084   -17113   -17161   -17194   -17213 
  -17247   -17280   -17281   -17270   -17284   -17311   -17302   -17266 
  -17259   -17280   -17265   -17209   -17155   -17120   -17108   -17104 
  -17095   -17112   -17155   -17184   -17196   -17212   -17201   -17146 
  -17086   -17066   -17101   -17170   -17221   -17234   -17219   -17188 
  -17143   -17086   -17015   -16970   -17003   -17068   -17093   -17080 
  -17054   -17020   -16976   -16926   -16904   -16926   -16972   -17030 
  -17082   -17118   -17153   -17212   -17285   -17350   -17416   -17487 
  -17547   -17609   -17656   -17628   -17505   -17327   -17174   -17111 
  -17119   -17155   -17197   -17223   -17220   -17197   -17178   -17197 
  -17254   -17313   -17351   -17347   -17273   -17135   -16968   -16799 
  -16683   -16680   -16775   -16935   -17136   -17315   -17439   -17517 
  -17563   -17579   -17523   -17346   -17116   -16949   -16864   -16812 
  -16769   -16748   -16753   -16795   -16895   -17065   -17273   -17442 
  -17496   -17446   -17371   -17332   -17332   -17347   -17329   -17266 
  -17224   -17217   -17177   -17080   -16981   -16954   -17028   -17177 
  -17316   -17352   -17239   -17035   -16876   -16875   -17057   -17359 
  -17662   -17829   -17797   -17624   -17417   -17213   -17004   -16849 
  -16862   -17031   -17224   -17332   -17302   -17149   -16969   -16877 
  -16922   -17047   -17149   -17190   -17221   -17244   -17200   -17092 
  -16997   -16937   -16869   -16826   -16911   -17105   -17247   -17273 
  -17261   -17271   -17290   -17273   -17239   -17284   -17404   -17500 
  -17513   -17459   -17350   -17196   -17047   -16960   -16937   -16956 
  -16996   -17076   -17180   -17230   -17231   -17278   -17382   -17462 
  -17454   -17373   -17316   -17323   -17319   -17232   -17070   -16906 
  -16807   -16785   -16839   -16950   -17064   -17132   -17159   -17163 
  -17161   -17176   -17196   -17176   -17143   -17162   -17250   -17359 
  -17423   -17443   -17454   -17409   -17278   -17130   -17074   -17138 
  -17227   -17251   -17234   -17213   -17189   -17161   -17157   -17174 
  -17219   -17320   -17412   -17421   -17386   -17340   -17273   -17186 
  -17123   -17139   -17193   -17166   -17061   -17016   -17096   -17217 
  -17280   -17239   -17082   -16853   -16644   -16521   -16483   -16511 
  -16613   -16761   -16883   -16942   -16995   -17096   -17208   -17259 
  -17311   -17490   -17729   -17844   -17830   -17797   -17753   -17676 
  -17589   -17498   -17382   -17246   -17155   -17143   -17128   -17035 
  -16906   -16814   -16799   -16857   -16950   -17045   -17131   -17215 
  -17289   -17325   -17293   -17184   -17005   -16814   -16713   -16753 
  -16883   -17053   -17257   -17429   -17486   -17383   -17136   -16849 
  -16672   -16677   -16822   -17016   -17224   -17439   -17597   -17631 
  -17560   -17464   -17404   -17383   -17404   -17464   -17510   -17458 
  -17324   -17211   -17158   -17116   -17082   -17103   -17172   -17239 
  -17263   -17239   -17162   -17051   -16980   -16968   -16958   -16964 
  -17077   -17261   -17371   -17361   -17296   -17246   -17199   -17113 
  -17034   -17018   -17019   -17001   -17035   -17142   -17221   -17239 
  -17257   -17300   -17331   -17309   -17254   -17213   -17182   -17122 
  -17074   -17111   -17204   -17285   -17324   -17292   -17185   -17054 
  -16950   -16914   -16962   -17054   -17105   -17069   -17004   -17007 
  -17073   -17135   -17185   -17262   -17377   -17493   -17539   -17458 
  -17292   -17151   -17115   -17135   -17136   -17159   -17273   -17401 
  -17433   -17383   -17321   -17271   -17234   -17221   -17211   -17181 
  -17151   -17108   -17045   -16992   -16960   -16938   -16939   -16984 
  -17061   -17128   -17143   -17105   -17062   -17066   -17104   -17126 
  -17112   -17080   -17073   -17091   -17070   -17023   -17026   -17103 
  -17209   -17301   -17371   -17417   -17419   -17397   -17379   -17352 
  -17321   -17321   -17335   -17321   -17280   -17224   -17174   -17145 
  -17118   -17074   -17041   -17066   -17142   -17211   -17246   -17261 
  -17265   -17238   -17170   -17107   -17086   -17085   -17070   -17054 
  -17054   -17072   -17080   -17059   -17016   -16977   -16961   -16949 
  -16943   -17007   -17166   -17340   -17452   -17512   -17543   -17548 
  -17523   -17460   -17371   -17286   -17215   -17157   -17159   -17239 
  -17347   -17416   -17388   -17270   -17136   -17042   -16996   -16981 
  -16980   -17015   -17095   -17172   -17196   -17185   -17200   -17239 
  -17234   -17161   -17045   -16935   -16880   -16883   -16960   -17095 
  -17190   -17189   -17162   -17178   -17207   -17194   -17173   -17201 
  -17280   -17325   -17304   -17246   -17181   -17132   -17128   -17163 
  -17215   -17258   -17265   -17235   -17201   -17180   -17177   -17174 
  -17155   -17122   -17084   -17046   -17014   -17004   -17038   -17108 
  -17174   -17200   -17201   -17227   -17273   -17300   -17298   -17297 
  -17338   -17416   -17446   -17383   -17258   -17111   -16983   -16920 
  -16927   -16972   -17027   -17100   -17188   -17261   -17285   -17273 
  -17262   -17277   -17307   -17313   -17301   -17315   -17346   -17351 
  -17319   -17254   -17170   -17101   -17064   -17047   -17037   -17012 
  -16991   -17004   -17038   -17073   -17138   -17209   -17230   -17208 
  -17186   -17163   -17132   -17112   -17118   -17127   -17126   -17123 
  -17142   -17170   -17173   -17131   -17066   -17027   -17045   -17100 
  -17147   -17162   -17158   -17158   -17180   -17209   -17212   -17181 
  -17161   -17178   -17211   -17244   -17285   -17323   -17331   -17323 
  -17339   -17365   -17339   -17265   -17189   -17147   -17130   -17120 
  -17130   -17158   -17181   -17176   -17146   -17119   -17105   -17082 
  -17055   -17059   -17101   -17145   -17155   -17127   -17089   -17078 
  -17093   -17104   -17112   -17154   -17238   -17296   -17266   -17199 
  -17190   -17244   -17288   -17293   -17305   -17342   -17354   -17335 
  -17315   -17309   -17312   -17296   -17250   -17192   -17127   -17080 
  -17085   -17120   -17150   -17178   -17204   -17204   -17159   -17080 
  -17022   -17026   -17051   -17073   -17099   -17112   -17115   -17126 
  -17138   -17159   -17196   -17213   -17201   -17200   -17221   -17250 
  -17266   -17278   -17311   -17362   -17400   -17413   -17401   -17334 
  -17192   -17047   -16988   -17010   -17064   -17113   -17123   -17080 
  -17031   -17043   -17111   -17174   -17205   -17230   -17258   -17255 
  -17216   -17182   -17162   -17163   -17174   -17170   -17161   -17143 
  -17122   -17112   -17109   -17112   -17120   -17123   -17138   -17174 
  -17221   -17258   -17255   -17232   -17224   -17201   -17151   -17132 
  -17153   -17174   -17186   -17196   -17178   -17120   -17053   -17020 
  -17018   -17022   -17022   -17031   -17080   -17158   -17219   -17246 
  -17239   -17205   -17158   -17123   -17112   -17118   -17134   -17162 
  -17184   -17201   -17232   -17270   -17305   -17311   -17258   -17212 
  -17230   -17270   -17292   -17298   -17307   -17315   -17289   -17230 
  -17184   -17177   -17188   -17192   -17188   -17201   -17227   -17238 
  -17236   -17227   -17188   -17115   -17057   -17057   -17101   -17151 
  -17190   -17203   -17176   -17109   -17043   -17020   -17039   -17072 
  -17120   -17172   -17194   -17194   -17205   -17211   -17193   -17186 
  -17207   -17232   -17235   -17209   -17197   -17235   -17282   -17277 
  -17236   -17201   -17176   -17163   -17159   -17149   -17162   -17203 
  -17219   -17201   -17176   -17143   -17096   -17068   -17104   -17184 
  -17228   -17232   -17250   -17254   -17197   -17127   -17118   -17158 
  -17194   -17192   -17163   -17147   -17147   -17146   -17135   -17118 
  -17107   -17122   -17169   -17220   -17236   -17232   -17244   -17275 
  -17305   -17325   -17317   -17282   -17247   -17227   -17223   -17226 
  -17223   -17223   -17228   -17216   -17167   -17095   -17028   -16991 
  -16980   -16984   -16992   -17007   -17030   -17051   -17081   -17112 
  -17119   -17109   -17104   -17107   -17136   -17193   -17235   -17240 
  -17238   -17248   -17250   -17209   -17147   -17128   -17190   -17280 
