Origin Time       2025/03/30 10:18:00
Lat.              34.667
Long.             140.825
Depth. (km)       69
Mag.              4.9
Station Code      SZOH38
Station Lat.      35.0854
Station Long.     138.9779
Station Height(m) -100
Record Time       2025/03/30 10:18:57
Sampling Freq(Hz) 100Hz
Duration Time(s)  120
Dir.              2
Scale Factor      2942(gal)/8224139
Max. Acc. (gal)   0.294
Last Correction   2025/03/30 10:18:57
Memo.             
[...]
   37806    37774    37739    37702    37665    37673    37750    37828 
   37798    37716    37714    37743    37728    37754    37817    37775 
   37662    37623    37647    37632    37597    37625    37682    37705 
   37713    37712    37698    37677    37640    37611    37638    37700 
   37700    37606    37538    37582    37698    37829    37936    37943 
   37851    37773    37746    37712    37692    37712    37694    37623 
   37578    37579    37582    37589    37650    37725    37704    37642 
   37656    37660    37590    37573    37659    37737    37746    37741 
   37751    37741    37762    37849    37912    37872    37790    37733 
   37693    37677    37727    37785    37782    37748    37754    37789 
   37766    37675    37638    37666    37627    37531    37501    37563 
   37674    37775    37813    37767    37690    37651    37643    37627 
   37635    37687    37717    37694    37682    37698    37713    37760 
   37843    37836    37709    37620    37651    37741    37810    37774 
   37658    37623    37714    37814    37829    37779    37705    37624 
   37585    37632    37698    37708    37686    37674    37692    37720 
   37713    37716    37786    37858    37872    37863    37855    37845 
   37840    37835    37812    37747    37685    37667    37655    37635 
   37623    37643    37724    37785    37739    37652    37621    37648 
   37693    37721    37702    37651    37612    37620    37673    37704 
   37673    37650    37663    37651    37625    37652    37704    37736 
   37743    37732    37723    37692    37651    37670    37717    37694 
   37633    37625    37675    37731    37750    37743    37754    37752 
   37717    37728    37800    37828    37779    37721    37694    37693 
   37687    37670    37666    37673    37674    37677    37716    37779 
   37817    37808    37763    37714    37720    37767    37758    37663 
   37582    37582    37636    37698    37737    37739    37708    37650 
   37605    37646    37720    37740    37728    37724    37746    37781 
   37756    37674    37631    37654    37693    37705    37700    37712 
   37737    37755    37774    37789    37778    37768    37786    37771 
   37705    37660    37659    37654    37616    37558    37531    37574 
   37654    37693    37648    37598    37631    37687    37678    37643 
   37666    37724    37768    37812    37870    37897    37871    37860 
   37868    37812    37710    37628    37565    37539    37570    37617 
   37640    37646    37648    37663    37696    37728    37717    37665 
   37623    37601    37588    37623    37698    37737    37746    37785 
   37856    37882    37835    37746    37654    37621    37648    37659 
   37639    37625    37652    37708    37735    37760    37808    37793 
   37724    37675    37636    37628    37679    37693    37631    37612 
   37677    37744    37766    37747    37717    37708    37720    37751 
   37805    37827    37744    37611    37543    37567    37632    37683 
   37694    37673    37632    37612    37655    37721    37729    37669 
   37620    37654    37741    37808    37822    37805    37785    37786 
   37805    37806    37783    37768    37775    37764    37728    37735 
   37809    37856    37786    37667    37615    37616    37621    37643 
   37686    37739    37787    37794    37773    37735    37643    37524 
   37469    37492    37561    37642    37693    37717    37723    37713 
   37710    37697    37659    37636    37650    37696    37747    37766 
   37762    37762    37728    37659    37619    37616    37619    37646 
   37723    37822    37878    37866    37843    37825    37768    37667 
   37577    37551    37585    37619    37628    37636    37651    37683 
   37736    37764    37731    37663    37646    37719    37806    37844 
   37845    37817    37747    37667    37629    37631    37628    37627 
   37651    37687    37719    37725    37696    37663    37663    37675 
   37674    37663    37663    37693    37729    37760    37782    37755 
   37690    37678    37743    37809    37827    37793    37729    37679 
   37685    37735    37777    37758    37675    37582    37532    37589 
   37733    37805    37727    37631    37625    37674    37731    37758 
   37732    37708    37700    37659    37611    37611    37656    37717 
   37756    37758    37729    37675    37635    37621    37600    37584 
   37605    37652    37702    37746    37778    37800    37789    37746 
   37725    37739    37723    37692    37714    37790    37859    37864 
   37821    37794    37791    37782    37759    37720    37656    37616 
   37638    37671    37659    37605    37569    37605    37678    37705 
   37683    37651    37629    37650    37696    37717    37694    37650 
   37621    37608    37592    37594    37633    37686    37741    37813 
   37864    37852    37805    37775    37782    37806    37816    37790 
   37747    37721    37705    37690    37694    37678    37597    37524 
   37551    37648    37736    37758    37709    37646    37611    37605 
   37628    37663    37665    37633    37621    37654    37713    37756 
   37747    37685    37628    37628    37655    37660    37667    37716 
   37789    37829    37827    37813    37800    37777    37763    37768 
   37758    37729    37712    37687    37655    37633    37615    37604 
   37616    37615    37579    37557    37590    37650    37678    37700 
   37754    37789    37752    37679    37635    37633    37673    37737 
   37774    37762    37766    37806    37822    37786    37732    37692 
   37667    37654    37633    37624    37652    37706    37756    37763 
   37706    37631    37598    37632    37706    37763    37790    37832 
   37872    37867    37833    37790    37721    37674    37705    37756 
   37759    37739    37716    37658    37571    37539    37608    37690 
   37682    37621    37597    37608    37628    37652    37669    37663 
   37643    37662    37725    37755    37727    37701    37716    37739 
   37733    37713    37714    37750    37783    37773    37748    37750 
   37750    37754    37777    37790    37794    37798    37787    37759 
   37716    37662    37624    37601    37578    37570    37577    37585 
   37600    37624    37656    37700    37720    37694    37659    37648 
   37656    37669    37669    37647    37627    37621    37620    37635 
   37689    37752    37778    37759    37719    37698    37727    37766 
   37758    37708    37666    37671    37725    37782    37808    37832 
   37844    37804    37755    37736    37705    37677    37694    37698 
   37643    37609    37621    37609    37594    37642    37701    37713 
   37697    37681    37665    37627    37573    37557    37617    37717 
   37781    37775    37740    37723    37728    37723    37683    37655 
   37689    37740    37735    37698    37708    37754    37789    37795 
   37802    37821    37804    37750    37725    37748    37773    37767 
   37755    37766    37770    37720    37660    37629    37579    37515 
   37523    37577    37600    37602    37608    37633    37713    37787 
   37798    37790    37762    37702    37677    37683    37674    37659 
   37660    37679    37709    37728    37716    37683    37655    37646 
   37654    37689    37739    37756    37743    37732    37721    37731 
   37758    37737    37662    37600    37608    37658    37681    37667 
   37662    37673    37694    37725    37759    37779    37785    37782 
   37781    37778    37794    37822    37836    37836    37816    37762 
   37713    37704    37710    37701    37666    37652    37694    37739 
   37696    37565    37455    37459    37552    37671    37747    37724 
   37648    37621    37658    37687    37675    37650    37659    37693 
   37709    37701    37682    37650    37621    37616    37629    37650 
   37687    37763    37845    37878    37871    37876    37864    37785 
   37675    37616    37644    37728    37778    37755    37677    37596 
   37554    37561    37597    37625    37621    37615    37659    37747 
   37802    37793    37760    37740    37741    37755    37771    37794 
   37809    37790    37748    37708    37683    37674    37644    37619 
   37646    37679    37650    37565    37492    37485    37524    37579 
   37654    37723    37770    37827    37886    37883    37816    37755 
   37750    37791    37816    37779    37727    37702    37713    37747 
   37758    37710    37654    37652    37687    37696    37655    37623 
   37631    37659    37682    37666    37586    37535    37600    37682 
   37681    37658    37655    37642    37652    37712    37747    37731 
   37709    37710    37725    37723    37712    37755    37847    37902 
   37879    37814    37767    37764    37759    37720    37693    37678 
   37670    37705    37758    37758    37724    37712    37712    37679 
   37627    37621    37667    37702    37685    37636    37602    37604 
   37615    37601    37574    37575    37600    37612    37640    37705 
   37755    37736    37678    37675    37755    37801    37762    37736 
   37768    37801    37808    37785    37747    37735    37754    37770 
   37760    37746    37741    37725    37705    37692    37656    37604 
   37566    37582    37665    37731    37725    37697    37696    37721 
   37725    37678    37616    37578    37582    37609    37619    37619 
   37632    37662    37704    37736    37736    37725    37755    37816 
   37856    37874    37879    37859    37817    37768    37717    37671 
   37650    37662    37670    37624    37565    37562    37627    37706 
   37737    37710    37681    37673    37663    37648    37660    37714 
   37762    37759    37720    37697    37701    37705    37689    37669 
   37677    37740    37806    37816    37767    37705    37690    37731 
   37756    37731    37669    37625    37662    37748    37793    37782 
   37746    37701    37689    37723    37773    37778    37705    37642 
   37665    37686    37644    37596    37554    37528    37548    37570 
   37565    37579    37639    37700    37723    37717    37721    37740 
   37744    37751    37809    37870    37855    37806    37782    37766 
   37758    37754    37719    37679    37683    37713    37719    37683 
   37627    37604    37632    37669    37659    37608    37573    37588 
   37615    37625    37629    37646    37690    37737    37750    37759 
   37791    37794    37743    37693    37687    37713    37721    37697 
   37685    37714    37764    37808    37816    37774    37720    37714 
   37740    37740    37727    37735    37733    37697    37648    37619 
   37627    37666    37694    37696    37698    37705    37706    37720 
   37756    37779    37758    37706    37658    37619    37600    37616 
   37656    37706    37741    37735    37725    37751    37783    37793 
   37801    37793    37720    37627    37612    37651    37663    37654 
   37666    37697    37716    37721    37727    37721    37696    37666 
   37671    37704    37725    37732    37720    37678    37640    37640 
   37640    37620    37608    37612    37638    37670    37651    37585 
   37536    37540    37589    37631    37635    37651    37720    37801 
   37845    37829    37771    37754    37787    37808    37786    37756 
   37750    37754    37746    37724    37696    37679    37717    37779 
   37793    37752    37706    37708    37746    37751    37708    37675 
   37678    37705    37723    37708    37681    37655    37606    37567 
   37585    37632    37654    37639    37640    37662    37642    37615 
   37648    37705    37751    37804    37848    37867    37856    37812 
   37750    37690    37674    37725    37771    37768    37770    37787 
   37760    37705    37677    37677    37685    37686    37677    37659 
   37646    37673    37723    37733    37693    37662    37678    37710 
   37708    37662    37621    37628    37674    37706    37709    37712 
   37733    37750    37735    37693    37670    37701    37773    37836 
   37835    37787    37767    37778    37777    37771    37770    37752 
   37736    37720    37682    37646    37644    37659    37669    37683 
   37716    37754    37777    37766    37724    37669    37615    37588 
   37617    37667    37681    37679    37697    37720    37729    37727 
   37737    37770    37785    37771    37752    37723    37683    37652 
   37639    37670    37728    37740    37701    37682    37700    37713 
   37693    37650    37613    37605    37612    37632    37667    37687 
   37679    37670    37654    37619    37620    37671    37716    37729 
   37708    37658    37617    37606    37596    37579    37588    37628 
   37669    37694    37714    37737    37762    37786    37820    37859 
   37875    37878    37921    38006    38048    38028    37984    37916 
   37828    37743    37651    37578    37570    37586    37557    37476 
   37378    37346    37397    37444    37473    37521    37585    37647 
   37694    37685    37638    37611    37606    37604    37615    37635 
   37671    37708    37717    37748    37813    37854    37867    37874 
   37878    37890    37893    37863    37840    37831    37802    37741 
   37659    37578    37534    37527    37527    37525    37524    37508 
   37477    37444    37411    37381    37373    37399    37480    37613 
   37752    37852    37924    37994    38055    38056    37997    37944 
   37898    37800    37681    37620    37617    37623    37605    37548 
   37500    37544    37710    37930    38103    38191    38214    38178 
   38105    38040    37999    37970    37897    37735    37539    37376 
   37245    37153    37083    36979    36887    36930    37147    37439 
   37647    37702    37698    37779    37975    38196    38331    38340 
   38294    38295    38311    38211    38013    37883    37867    37840 
   37714    37527    37343    37197    37089    37008    36964    37030 
   37282    37682    38080    38344    38452    38460    38367    38141 
   37852    37631    37550    37573    37606    37582    37490    37417 
   37431    37440    37359    37266    37230    37251    37363    37554 
   37758    37953    38102    38178    38209    38183    38080    37960 
   37895    37883    37866    37824    37760    37652    37484    37323 
   37241    37237    37308    37480    37698    37847    37895    37912 
   37945    37949    37858    37727    37679    37773    37976    38159 
   38171    38016    37805    37598    37401    37234    37147    37166 
   37260    37378    37532    37748    37979    38142    38236    38276 
   38188    37940    37638    37443    37455    37644    37827    37835 
   37677    37455    37243    37131    37200    37412    37642    37767 
   37801    37845    37922    38022    38163    38237    38132    37939 
   37793    37690    37581    37486    37453    37467    37492    37546 
   37646    37748    37783    37706    37554    37412    37323    37258 
   37257    37392    37619    37841    38025    38138    38133    37983 
   37702    37393    37211    37230    37393    37604    37820    37998 
   38053    37940    37708    37469    37351    37417    37596    37762 
   37886    38024    38190    38275    38213    38092    38028    38013 
   38010    38013    38021    38006    37933    37814    37719    37655 
   37582    37492    37395    37288    37189    37137    37154    37218 
   37242    37199    37183    37285    37480    37701    37885    37964 
   37964    38022    38209    38376    38349    38163    37984    37893 
   37866    37885    37903    37849    37758    37702    37636    37513 
   37349    37174    37095    37214    37467    37737    37978    38142 
   38184    38121    37995    37841    37669    37471    37291    37192 
   37200    37309    37470    37616    37717    37739    37656    37528 
   37439    37439    37523    37692    37959    38237    38383    38369 
   38272    38148    38007    37859    37737    37683    37708    37766 
   37786    37770    37752    37717    37647    37592    37592    37600 
   37550    37480    37509    37650    37781    37852    37878    37813 
   37671    37574    37540    37515    37538    37648    37768    37810 
   37793    37794    37843    37910    37979    38006    37914    37752 
   37681    37732    37775    37713    37567    37439    37415    37480 
   37559    37611    37631    37660    37696    37678    37606    37536 
   37512    37546    37593    37615    37659    37755    37825    37782 
   37660    37578    37594    37663    37728    37793    37854    37872 
   37833    37774    37759    37794    37831    37855    37858    37809 
   37729    37659    37621    37635    37648    37601    37539    37503 
   37446    37393    37439    37575    37710    37798    37802    37683 
   37527    37489    37612    37817    38017    38134    38107    37975 
   37835    37731    37658    37625    37659    37774    37924    38026 
   38021    37903    37739    37647    37656    37675    37654    37646 
   37665    37640    37543    37457    37451    37484    37498    37501 
   37496    37500    37548    37644    37789    37951    38047    38057 
   38052    38064    38091    38138    38156    38107    38038    37952 
   37810    37648    37554    37566    37612    37597    37546    37536 
   37579    37632    37651    37625    37567    37511    37521    37623 
   37748    37812    37787    37735    37751    37829    37856    37773 
   37611    37454    37384    37384    37385    37407    37485    37585 
   37682    37789    37854    37851    37825    37781    37704    37656 
   37674    37721    37756    37764    37768    37802    37840    37817 
   37708    37577    37508    37517    37565    37616    37655    37692 
   37741    37781    37783    37770    37782    37816    37837    37824 
   37774    37729    37736    37787    37847    37878    37839    37744 
   37659    37606    37585    37582    37571    37570    37615    37686 
   37741    37758    37763    37790    37833    37858    37806    37666 
   37520    37457    37478    37546    37633    37727    37818    37885 
   37894    37852    37782    37720    37736    37845    37967    37999 
   37940    37876    37867    37889    37897    37859    37778    37724 
   37743    37747    37682    37635    37677    37768    37840    37841 
   37783    37736    37737    37752    37763    37752    37697    37612 
   37524    37453    37431    37455    37476    37457    37427    37427 
   37450    37466    37507    37609    37731    37824    37908    37990 
   38018    37930    37801    37760    37806    37856    37852    37794 
   37747    37736    37720    37675    37604    37536    37520    37536 
   37557    37577    37575    37552    37563    37613    37663    37677 
   37644    37593    37550    37532    37544    37594    37690    37789 
   37841    37844    37804    37758    37767    37809    37820    37794 
   37775    37793    37835    37868    37885    37894    37885    37840 
   37775    37696    37615    37571    37559    37538    37530    37546 
   37527    37480    37485    37565    37656    37698    37701    37705 
   37729    37786    37851    37874    37875    37898    37918    37910 
   37875    37844    37859    37910    37933    37913    37878    37841 
   37824    37822    37810    37789    37760    37721    37678    37643 
   37647    37721    37820    37849    37802    37748    37733    37732 
   37705    37636    37559    37538    37582    37606    37554    37497 
   37504    37531    37525    37512    37511    37511    37497    37466 
