Origin Time       2025/03/30 10:18:00
Lat.              34.667
Long.             140.825
Depth. (km)       69
Mag.              4.9
Station Code      SZOH54
Station Lat.      35.0417
Station Long.     139.1685
Station Height(m) 20
Record Time       2025/03/30 10:18:54
Sampling Freq(Hz) 100Hz
Duration Time(s)  120
Dir.              5
Scale Factor      3920(gal)/6170801
Max. Acc. (gal)   1.642
Last Correction   2025/03/30 10:18:39
Memo.             
[...]
   -4509    -4514    -4514    -4515    -4518    -4518    -4509    -4506 
   -4514    -4518    -4514    -4512    -4513    -4510    -4506    -4512 
   -4525    -4524    -4508    -4502    -4517    -4523    -4509    -4504 
   -4518    -4525    -4512    -4502    -4511    -4519    -4508    -4503 
   -4524    -4531    -4511    -4499    -4511    -4520    -4513    -4509 
   -4525    -4531    -4506    -4487    -4507    -4526    -4517    -4517 
   -4530    -4522    -4504    -4500    -4511    -4522    -4516    -4506 
   -4516    -4525    -4512    -4500    -4511    -4523    -4514    -4505 
   -4511    -4521    -4522    -4515    -4512    -4518    -4510    -4496 
   -4508    -4528    -4523    -4510    -4510    -4515    -4514    -4511 
   -4515    -4520    -4513    -4503    -4515    -4530    -4517    -4501 
   -4509    -4518    -4511    -4509    -4521    -4524    -4509    -4498 
   -4515    -4533    -4519    -4501    -4506    -4516    -4509    -4504 
   -4522    -4531    -4514    -4497    -4504    -4525    -4526    -4504 
   -4498    -4523    -4529    -4504    -4502    -4525    -4521    -4500 
   -4508    -4532    -4531    -4502    -4492    -4515    -4527    -4512 
   -4508    -4524    -4526    -4503    -4493    -4513    -4526    -4519 
   -4516    -4523    -4518    -4493    -4487    -4523    -4550    -4528 
   -4499    -4506    -4516    -4503    -4499    -4526    -4538    -4513 
   -4497    -4518    -4534    -4512    -4493    -4507    -4522    -4510 
   -4504    -4529    -4543    -4511    -4481    -4498    -4527    -4530 
   -4519    -4515    -4516    -4509    -4499    -4512    -4532    -4523 
   -4504    -4511    -4528    -4520    -4498    -4497    -4520    -4528 
   -4511    -4509    -4525    -4518    -4497    -4499    -4519    -4527 
   -4511    -4504    -4524    -4526    -4496    -4496    -4530    -4535 
   -4506    -4499    -4522    -4531    -4508    -4498    -4526    -4536 
   -4503    -4488    -4515    -4538    -4523    -4500    -4510    -4526 
   -4513    -4498    -4514    -4532    -4521    -4503    -4510    -4519 
   -4508    -4504    -4523    -4527    -4511    -4504    -4514    -4523 
   -4512    -4493    -4504    -4533    -4534    -4513    -4508    -4516 
   -4513    -4509    -4517    -4522    -4511    -4505    -4518    -4525 
   -4510    -4503    -4518    -4532    -4518    -4490    -4494    -4528 
   -4534    -4513    -4510    -4515    -4504    -4499    -4515    -4528 
   -4519    -4508    -4519    -4534    -4518    -4483    -4487    -4524 
   -4534    -4515    -4513    -4527    -4517    -4492    -4494    -4520 
   -4528    -4515    -4509    -4520    -4523    -4503    -4497    -4518 
   -4520    -4499    -4503    -4524    -4529    -4516    -4506    -4510 
   -4516    -4503    -4499    -4521    -4535    -4517    -4499    -4507 
   -4515    -4510    -4513    -4521    -4518    -4508    -4507    -4513 
   -4521    -4519    -4513    -4513    -4511    -4500    -4504    -4527 
   -4535    -4517    -4504    -4509    -4509    -4502    -4507    -4529 
   -4538    -4513    -4495    -4510    -4519    -4505    -4505    -4528 
   -4530    -4510    -4506    -4516    -4515    -4506    -4503    -4516 
   -4532    -4521    -4501    -4510    -4523    -4508    -4490    -4507 
   -4540    -4535    -4504    -4505    -4524    -4511    -4487    -4503 
   -4538    -4540    -4509    -4497    -4518    -4521    -4499    -4508 
   -4534    -4521    -4501    -4515    -4526    -4512    -4502    -4501 
   -4508    -4521    -4524    -4518    -4518    -4517    -4508    -4510 
   -4521    -4514    -4494    -4501    -4531    -4538    -4515    -4498 
   -4505    -4514    -4511    -4514    -4526    -4525    -4513    -4515 
   -4526    -4514    -4490    -4497    -4529    -4538    -4513    -4497 
   -4514    -4527    -4511    -4500    -4515    -4529    -4517    -4506 
   -4520    -4529    -4504    -4487    -4517    -4539    -4520    -4502 
   -4516    -4531    -4515    -4493    -4501    -4520    -4515    -4509 
   -4531    -4544    -4513    -4487    -4503    -4522    -4514    -4509 
   -4522    -4532    -4521    -4499    -4497    -4520    -4521    -4499 
   -4511    -4533    -4520    -4505    -4514    -4521    -4513    -4499 
   -4499    -4523    -4540    -4529    -4510    -4501    -4495    -4495 
   -4515    -4542    -4535    -4506    -4502    -4519    -4511    -4490 
   -4501    -4527    -4530    -4521    -4524    -4527    -4510    -4491 
   -4488    -4505    -4521    -4524    -4530    -4534    -4512    -4488 
   -4494    -4513    -4515    -4508    -4515    -4535    -4536    -4508 
   -4492    -4504    -4506    -4499    -4514    -4539    -4539    -4518 
   -4507    -4509    -4499    -4492    -4504    -4529    -4540    -4518 
   -4499    -4512    -4523    -4511    -4501    -4511    -4518    -4512 
   -4514    -4523    -4524    -4507    -4489    -4503    -4528    -4524 
   -4508    -4514    -4525    -4515    -4500    -4510    -4521    -4514 
   -4506    -4509    -4523    -4529    -4508    -4495    -4508    -4512 
   -4512    -4528    -4533    -4508    -4493    -4509    -4519    -4511 
   -4506    -4516    -4529    -4524    -4513    -4510    -4506    -4500 
   -4505    -4522    -4531    -4518    -4503    -4511    -4522    -4511 
   -4496    -4504    -4524    -4520    -4501    -4514    -4543    -4526 
   -4490    -4495    -4516    -4509    -4502    -4526    -4547    -4527 
   -4491    -4490    -4511    -4515    -4513    -4528    -4541    -4524 
   -4490    -4483    -4513    -4529    -4511    -4505    -4524    -4527 
   -4505    -4501    -4518    -4515    -4496    -4506    -4533    -4538 
   -4511    -4489    -4505    -4522    -4510    -4509    -4527    -4526 
   -4506    -4496    -4507    -4519    -4514    -4510    -4523    -4525 
   -4502    -4495    -4519    -4531    -4515    -4504    -4517    -4526 
   -4510    -4499    -4517    -4529    -4513    -4498    -4510    -4526 
   -4515    -4501    -4516    -4529    -4510    -4495    -4513    -4530 
   -4516    -4502    -4519    -4537    -4514    -4484    -4494    -4522 
   -4533    -4520    -4512    -4526    -4513    -4470    -4484    -4541 
   -4547    -4514    -4509    -4521    -4513    -4486    -4486    -4527 
   -4550    -4525    -4505    -4515    -4509    -4483    -4493    -4534 
   -4547    -4520    -4499    -4513    -4526    -4504    -4488    -4516 
   -4543    -4526    -4501    -4502    -4508    -4506    -4512    -4528 
   -4533    -4514    -4496    -4509    -4526    -4511    -4500    -4518 
   -4530    -4514    -4498    -4509    -4526    -4515    -4497    -4511 
   -4535    -4525    -4500    -4503    -4518    -4516    -4507    -4510 
   -4516    -4513    -4506    -4517    -4536    -4525    -4494    -4499 
   -4525    -4524    -4505    -4505    -4520    -4522    -4506    -4504 
   -4522    -4518    -4496    -4505    -4532    -4526    -4498    -4500 
   -4518    -4512    -4504    -4524    -4538    -4515    -4478    -4478 
   -4520    -4548    -4530    -4504    -4505    -4509    -4500    -4505 
   -4523    -4522    -4506    -4508    -4519    -4518    -4505    -4505 
   -4520    -4517    -4496    -4494    -4522    -4541    -4522    -4496 
   -4496    -4502    -4502    -4515    -4534    -4538    -4520    -4496 
   -4491    -4502    -4510    -4520    -4537    -4536    -4502    -4482 
   -4504    -4522    -4511    -4512    -4536    -4539    -4513    -4489 
   -4485    -4503    -4521    -4530    -4543    -4534    -4495    -4478 
   -4504    -4525    -4514    -4514    -4542    -4541    -4498    -4473 
   -4494    -4525    -4530    -4519    -4529    -4535    -4496    -4471 
   -4502    -4529    -4521    -4519    -4529    -4527    -4499    -4475 
   -4501    -4542    -4539    -4514    -4510    -4514    -4498    -4482 
   -4505    -4547    -4555    -4522    -4493    -4492    -4492    -4485 
   -4513    -4563    -4563    -4510    -4478    -4492    -4510    -4508 
   -4519    -4552    -4554    -4507    -4478    -4495    -4511    -4512 
   -4519    -4532    -4528    -4506    -4495    -4509    -4521    -4509 
   -4509    -4529    -4528    -4508    -4498    -4504    -4518    -4522 
   -4515    -4515    -4516    -4502    -4497    -4518    -4535    -4522 
   -4503    -4506    -4517    -4506    -4495    -4520    -4541    -4519 
   -4498    -4512    -4521    -4506    -4498    -4512    -4528    -4521 
   -4504    -4506    -4519    -4511    -4504    -4521    -4530    -4510 
   -4494    -4505    -4522    -4525    -4515    -4505    -4514    -4519 
   -4504    -4504    -4522    -4521    -4508    -4506    -4515    -4521 
   -4513    -4505    -4516    -4524    -4510    -4506    -4524    -4519 
   -4497    -4502    -4523    -4526    -4515    -4504    -4505    -4517 
   -4518    -4513    -4520    -4521    -4506    -4503    -4518    -4524 
   -4510    -4505    -4520    -4525    -4509    -4503    -4515    -4515 
   -4509    -4520    -4529    -4517    -4499    -4495    -4506    -4516 
   -4518    -4527    -4538    -4521    -4486    -4476    -4507    -4544 
   -4546    -4522    -4513    -4501    -4472    -4479    -4537    -4572 
   -4544    -4498    -4477    -4475    -4480    -4512    -4566    -4577 
   -4522    -4467    -4464    -4485    -4504    -4536    -4568    -4559 
   -4505    -4458    -4465    -4509    -4540    -4547    -4542    -4517 
   -4479    -4470    -4499    -4525    -4528    -4529    -4530    -4519 
   -4501    -4491    -4503    -4518    -4516    -4516    -4529    -4530 
   -4509    -4493    -4499    -4512    -4515    -4519    -4529    -4529 
   -4502    -4482    -4503    -4530    -4521    -4506    -4521    -4537 
   -4516    -4481    -4484    -4517    -4530    -4518    -4517    -4523 
   -4512    -4496    -4509    -4539    -4531    -4495    -4487    -4508 
   -4519    -4513    -4515    -4530    -4527    -4496    -4481    -4509 
   -4531    -4521    -4517    -4535    -4527    -4485    -4473    -4513 
   -4541    -4524    -4511    -4519    -4519    -4498    -4488    -4519 
   -4545    -4520    -4495    -4516    -4533    -4509    -4489    -4503 
   -4519    -4518    -4520    -4535    -4535    -4500    -4468    -4490 
   -4538    -4541    -4514    -4514    -4526    -4506    -4478    -4498 
   -4533    -4526    -4508    -4513    -4521    -4515    -4501    -4510 
   -4532    -4519    -4498    -4513    -4533    -4516    -4489    -4503 
   -4529    -4519    -4499    -4506    -4527    -4528    -4507    -4502 
   -4514    -4511    -4502    -4515    -4537    -4526    -4496    -4498 
   -4520    -4517    -4502    -4508    -4531    -4530    -4503    -4493 
   -4515    -4528    -4513    -4500    -4516    -4523    -4503    -4504 
   -4528    -4528    -4507    -4497    -4511    -4527    -4522    -4512 
   -4515    -4517    -4497    -4487    -4518    -4546    -4532    -4506 
   -4496    -4498    -4507    -4519    -4534    -4538    -4510    -4482 
   -4493    -4520    -4521    -4510    -4521    -4528    -4511    -4499 
   -4507    -4524    -4526    -4509    -4506    -4521    -4520    -4506 
   -4506    -4522    -4519    -4500    -4505    -4520    -4521    -4519 
   -4520    -4513    -4496    -4492    -4523    -4549    -4529    -4497 
   -4488    -4501    -4519    -4522    -4527    -4535    -4513    -4481 
   -4487    -4518    -4535    -4532    -4530    -4525    -4496    -4470 
   -4495    -4545    -4547    -4507    -4497    -4518    -4521    -4505 
   -4505    -4520    -4518    -4507    -4510    -4521    -4522    -4511 
   -4497    -4498    -4516    -4530    -4532    -4531    -4524    -4494 
   -4470    -4492    -4530    -4542    -4529    -4513    -4503    -4496 
   -4497    -4518    -4535    -4519    -4497    -4512    -4535    -4523 
   -4502    -4504    -4508    -4505    -4513    -4523    -4519    -4504 
   -4500    -4521    -4532    -4505    -4486    -4511    -4537    -4521 
   -4505    -4517    -4515    -4492    -4491    -4523    -4547    -4531 
   -4500    -4495    -4505    -4507    -4512    -4533    -4537    -4507 
   -4488    -4505    -4525    -4518    -4494    -4501    -4536    -4538 
   -4507    -4502    -4518    -4507    -4482    -4503    -4550    -4554 
   -4519    -4495    -4493    -4490    -4489    -4513    -4551    -4557 
   -4521    -4486    -4483    -4495    -4507    -4530    -4558    -4545 
   -4483    -4448    -4491    -4551    -4561    -4530    -4497    -4481 
   -4476    -4496    -4550    -4576    -4530    -4474    -4471    -4501 
   -4526    -4538    -4541    -4523    -4491    -4483    -4504    -4524 
   -4522    -4513    -4520    -4527    -4511    -4501    -4520    -4528 
   -4497    -4475    -4509    -4553    -4541    -4506    -4498    -4501 
   -4496    -4508    -4538    -4543    -4511    -4484    -4493    -4515 
   -4525    -4529    -4528    -4513    -4493    -4488    -4510    -4540 
   -4538    -4507    -4487    -4501    -4532    -4533    -4505    -4488 
   -4491    -4502    -4520    -4536    -4530    -4502    -4482    -4488 
   -4501    -4505    -4514    -4529    -4512    -4468    -4461    -4500 
   -4525    -4521    -4518    -4506    -4479    -4472    -4493    -4510 
   -4520    -4533    -4542    -4530    -4494    -4463    -4458    -4472 
   -4498    -4523    -4525    -4520    -4525    -4528    -4539    -4559 
   -4560    -4544    -4549    -4594    -4664    -4706    -4656    -4520 
   -4381    -4328    -4421    -4648    -4855    -4833    -4534    -4109 
   -3786    -3783    -4193    -4800    -5180    -5073    -4619    -4179 
   -4017    -4227    -4720    -5136    -5095    -4691    -4322    -4121 
   -4011    -4044    -4333    -4844    -5306    -5280    -4578    -3703 
   -3535    -4349    -5433    -5810    -5105    -3775    -2816    -3012 
   -4164    -5369    -6019    -6021    -5339    -4093    -3023    -3099 
   -4447    -6015    -6366    -4932    -2794    -1929    -3227    -5525 
   -6915    -6518    -4904    -3362    -2877    -3450    -4345    -4922 
   -5018    -4749    -4346    -4116    -4201    -4431    -4642    -4888 
   -5161    -5221    -4893    -4341    -3944    -3947    -4289    -4687 
   -4800    -4527    -4215    -4235    -4435    -4484    -4471    -4688 
   -5027    -5068    -4671    -4126    -3781    -3840    -4302    -4869 
   -5137    -5010    -4756    -4633    -4586    -4439    -4274    -4314 
   -4465    -4461    -4346    -4273    -4213    -4205    -4342    -4459 
   -4398    -4416    -4814    -5403    -5677    -5241    -4164    -3151 
   -3092    -4146    -5391    -5715    -5033    -4172    -3827    -4138 
   -4828    -5335    -5219    -4620    -4043    -3801    -3922    -4320 
   -4738    -4886    -4806    -4720    -4593    -4293    -4004    -3989 
   -4214    -4530    -4833    -4987    -4941    -4795    -4665    -4577 
   -4489    -4402    -4358    -4323    -4227    -4146    -4229    -4458 
   -4703    -4861    -4785    -4451    -4165    -4159    -4278    -4411 
   -4629    -4818    -4784    -4595    -4467    -4478    -4546    -4606 
   -4651    -4612    -4464    -4385    -4528    -4755    -4838    -4726 
   -4505    -4310    -4276    -4414    -4538    -4447    -4198    -4119 
   -4410    -4817    -4953    -4827    -4728    -4692    -4561    -4380 
   -4319    -4415    -4568    -4582    -4331    -4017    -4019    -4428 
   -4961    -5243    -5076    -4602    -4132    -3864    -3903    -4258 
   -4601    -4587    -4408    -4445    -4633    -4693    -4636    -4621 
   -4680    -4730    -4619    -4264    -3894    -3925    -4417    -4874 
   -4863    -4557    -4377    -4448    -4670    -4873    -4867    -4686 
   -4578    -4622    -4623    -4439    -4194    -4139    -4339    -4589 
   -4682    -4597    -4454    -4406    -4512    -4658    -4744    -4802 
   -4783    -4541    -4159    -3917    -3996    -4408    -4975    -5282 
   -5058    -4617    -4408    -4377    -4336    -4353    -4430    -4455 
   -4450    -4448    -4387    -4277    -4271    -4505    -4862    -5033 
   -4894    -4576    -4274    -4167    -4311    -4529    -4596    -4520 
   -4478    -4481    -4409    -4346    -4420    -4548    -4659    -4737 
   -4625    -4294    -4081    -4204    -4419    -4513    -4645    -4861 
   -4893    -4713    -4518    -4295    -4104    -4265    -4748    -5072 
   -5027    -4852    -4671    -4365    -3980    -3812    -4032    -4506 
   -4915    -4951    -4570    -4099    -3919    -4131    -4602    -5071 
   -5242    -5053    -4743    -4475    -4225    -4097    -4268    -4625 
   -4853    -4805    -4530    -4169    -3942    -4004    -4321    -4707 
   -4904    -4843    -4696    -4527    -4306    -4210    -4342    -4517 
   -4636    -4730    -4730    -4594    -4439    -4375    -4380    -4395 
   -4410    -4457    -4533    -4580    -4558    -4469    -4363    -4373 
   -4610    -4885    -4848    -4501    -4177    -4091    -4318    -4799 
   -5147    -5029    -4629    -4318    -4240    -4390    -4649    -4788 
   -4718    -4521    -4292    -4193    -4330    -4505    -4516    -4463 
   -4466    -4487    -4491    -4438    -4281    -4148    -4249    -4511 
   -4639    -4541    -4403    -4393    -4523    -4697    -4766    -4696 
   -4610    -4590    -4619    -4710    -4820    -4771    -4493    -4193 
   -4174    -4504    -4892    -4996    -4764    -4374    -4080    -4097 
   -4356    -4555    -4570    -4523    -4486    -4422    -4346    -4382 
   -4580    -4773    -4800    -4712    -4566    -4324    -4100    -4135 
   -4460    -4828    -4965    -4772    -4354    -3982    -3983    -4398 
   -4817    -4876    -4657    -4385    -4175    -4199    -4575    -5018 
   -5088    -4759    -4339    -4083    -4148    -4486    -4738    -4692 
   -4576    -4581    -4599    -4571    -4585    -4621    -4590    -4563 
   -4638    -4689    -4557    -4353    -4282    -4357    -4489    -4637 
   -4729    -4646    -4411    -4226    -4264    -4486    -4692    -4741 
   -4676    -4604    -4573    -4519    -4292    -3954    -3878    -4241 
   -4723    -4925    -4744    -4409    -4267    -4401    -4622    -4760 
   -4734    -4572    -4434    -4403    -4388    -4355    -4366    -4446 
   -4602    -4793    -4832    -4605    -4320    -4262    -4420    -4604 
   -4723    -4742    -4626    -4476    -4423    -4421    -4400    -4458 
   -4674    -4867    -4765    -4425    -4198    -4255    -4484    -4743 
   -4880    -4758    -4465    -4253    -4200    -4203    -4276    -4499 
   -4748    -4799    -4612    -4344    -4237    -4445    -4809    -4918 
   -4615    -4202    -4051    -4271    -4684    -4965    -4910    -4646 
   -4499    -4568    -4634    -4576    -4530    -4562    -4534    -4368 
   -4184    -4134    -4236    -4407    -4543    -4568    -4476    -4384 
   -4438    -4612    -4710    -4621    -4460    -4375    -4353    -4349 
   -4348    -4317    -4316    -4466    -4712    -4834    -4754    -4635 
   -4588    -4551    -4520    -4535    -4528    -4506    -4564    -4652 
   -4683    -4677    -4605    -4418    -4228    -4207    -4345    -4510 
   -4602    -4574    -4484    -4463    -4539    -4596    -4538    -4399 
   -4299    -4344    -4523    -4692    -4719    -4601    -4450    -4380 
   -4442    -4609    -4720    -4642    -4493    -4451    -4511    -4601 
   -4666    -4639    -4564    -4514    -4420    -4299    -4361    -4603 
   -4750    -4690    -4530    -4368    -4311    -4454    -4685    -4752 
   -4609    -4460    -4409    -4367    -4302    -4301    -4405    -4551 
   -4665    -4730    -4708    -4532    -4292    -4203    -4317    -4499 
   -4616    -4587    -4414    -4274    -4313    -4466    -4635    -4777 
   -4832    -4798    -4719    -4597    -4466    -4407    -4441    -4523 
   -4635    -4768    -4842    -4757    -4520    -4243    -4088    -4215 
   -4586    -4889    -4846    -4531    -4231    -4155    -4318    -4543 
