Origin Time       2025/03/30 10:18:00
Lat.              34.667
Long.             140.825
Depth. (km)       69
Mag.              4.9
Station Code      TKYH12
Station Lat.      35.6701
Station Long.     139.2650
Station Height(m) 210
Record Time       2025/03/30 10:19:21
Sampling Freq(Hz) 100Hz
Duration Time(s)  120
Dir.              6
Scale Factor      7845(gal)/8223790
Max. Acc. (gal)   0.564
Last Correction   2025/03/30 10:19:21
Memo.             
[...]
   16549    16640    16740    16826    16837    16737    16567    16395 
   16297    16333    16483    16627    16687    16660    16599    16583 
   16607    16611    16630    16690    16706    16646    16572    16521 
   16492    16505    16578    16661    16677    16602    16482    16411 
   16456    16553    16579    16525    16510    16587    16660    16632 
   16536    16533    16673    16780    16748    16632    16521    16501 
   16556    16573    16544    16553    16584    16565    16510    16465 
   16478    16569    16677    16738    16738    16650    16515    16455 
   16499    16552    16553    16549    16568    16575    16552    16564 
   16630    16660    16617    16560    16505    16426    16378    16459 
   16641    16761    16750    16660    16538    16465    16525    16659 
   16718    16671    16622    16632    16656    16641    16579    16541 
   16584    16626    16555    16411    16318    16335    16472    16660 
   16762    16725    16600    16478    16414    16424    16507    16615 
   16692    16752    16781    16744    16676    16606    16525    16482 
   16507    16559    16605    16638    16657    16661    16646    16629 
   16576    16434    16291    16309    16455    16565    16603    16637 
   16667    16636    16542    16461    16460    16517    16596    16707 
   16812    16825    16740    16621    16515    16474    16503    16564 
   16630    16664    16630    16545    16471    16444    16453    16505 
   16595    16677    16683    16582    16470    16472    16568    16660 
   16688    16669    16646    16595    16534    16533    16555    16563 
   16618    16696    16672    16559    16480    16449    16413    16433 
   16557    16679    16727    16735    16688    16578    16474    16425 
   16460    16560    16634    16652    16642    16587    16499    16464 
   16491    16534    16571    16619    16691    16706    16602    16478 
   16438    16460    16514    16603    16679    16702    16699    16681 
   16630    16573    16586    16649    16653    16565    16475    16449 
   16494    16564    16603    16637    16676    16653    16551    16436 
   16406    16497    16602    16629    16625    16621    16583    16556 
   16561    16537    16524    16602    16688    16679    16615    16557 
   16522    16544    16619    16642    16541    16418    16413    16507 
   16603    16665    16719    16779    16760    16602    16464    16515 
   16632    16649    16610    16572    16510    16436    16413    16459 
   16532    16586    16619    16625    16588    16532    16510    16513 
   16483    16480    16605    16737    16692    16553    16534    16630 
   16680    16654    16619    16564    16507    16522    16553    16548 
   16615    16752    16758    16587    16422    16409    16486    16538 
   16584    16641    16641    16575    16518    16507    16521    16569 
   16711    16849    16807    16645    16526    16459    16430    16501 
   16664    16789    16757    16610    16484    16443    16478    16540 
   16552    16532    16552    16598    16595    16528    16468    16518 
   16644    16691    16611    16524    16515    16576    16649    16680 
   16671    16660    16650    16625    16595    16563    16514    16490 
   16540    16594    16555    16492    16505    16546    16573    16594 
   16567    16513    16515    16587    16649    16615    16503    16437 
   16474    16532    16556    16617    16744    16799    16710    16596 
   16542    16521    16506    16519    16596    16684    16691    16634 
   16559    16471    16436    16492    16569    16634    16665    16622 
   16552    16507    16510    16559    16596    16619    16677    16695 
   16637    16617    16615    16528    16459    16534    16611    16572 
   16555    16629    16650    16540    16453    16515    16595    16582 
   16590    16668    16672    16606    16594    16594    16551    16511 
   16486    16471    16505    16579    16633    16609    16532    16534 
   16642    16692    16614    16533    16553    16619    16646    16619 
   16569    16549    16587    16634    16607    16514    16468    16533 
   16606    16590    16555    16580    16617    16602    16564    16551 
   16579    16645    16676    16615    16548    16579    16652    16630 
   16529    16499    16542    16519    16437    16425    16484    16555 
   16611    16641    16657    16665    16638    16548    16451    16464 
   16600    16744    16781    16691    16556    16482    16487    16557 
   16600    16532    16506    16652    16783    16740    16633    16571 
   16528    16484    16444    16432    16483    16588    16704    16742 
   16636    16498    16451    16438    16448    16600    16835    16892 
   16694    16425    16275    16278    16386    16595    16823    16852 
   16663    16465    16384    16420    16519    16603    16648    16690 
   16748    16799    16781    16692    16632    16633    16619    16541 
   16413    16330    16384    16510    16602    16657    16626    16499 
   16449    16524    16537    16467    16484    16625    16758    16783 
   16703    16578    16482    16503    16609    16669    16671    16669 
   16668    16652    16625    16603    16576    16509    16474    16559 
   16679    16681    16526    16340    16282    16382    16536    16627 
   16630    16594    16568    16579    16572    16487    16456    16582 
   16698    16681    16617    16590    16618    16680    16727    16738 
   16679    16536    16445    16519    16656    16727    16688    16552 
   16447    16472    16507    16440    16372    16430    16572    16681 
   16691    16644    16629    16625    16572    16510    16480    16475 
   16492    16534    16605    16680    16698    16659    16623    16587 
   16513    16460    16494    16588    16691    16738    16696    16613 
   16552    16517    16476    16437    16467    16600    16731    16749 
   16719    16702    16644    16545    16484    16483    16522    16542 
   16514    16518    16584    16598    16519    16474    16517    16598 
   16690    16741    16660    16487    16383    16397    16453    16526 
   16621    16698    16690    16591    16514    16519    16564    16649 
   16768    16780    16638    16509    16521    16617    16684    16676 
   16617    16583    16587    16548    16467    16465    16563    16641 
   16637    16591    16526    16465    16438    16483    16594    16660 
   16633    16610    16595    16519    16465    16521    16599    16622 
   16605    16567    16549    16559    16546    16507    16514    16613 
   16731    16750    16659    16549    16534    16605    16621    16567 
   16564    16610    16598    16517    16441    16449    16549    16648 
   16676    16672    16642    16555    16474    16474    16522    16575 
   16626    16636    16572    16533    16582    16634    16640    16642 
   16650    16622    16571    16545    16503    16417    16397    16511 
   16641    16661    16621    16622    16630    16578    16537    16592 
   16652    16607    16556    16626    16731    16737    16646    16525 
   16468    16509    16559    16560    16551    16571    16636    16669 
   16588    16478    16443    16461    16497    16536    16556    16584 
   16619    16621    16622    16634    16606    16567    16572    16619 
   16646    16605    16548    16534    16552    16571    16553    16491 
   16478    16541    16584    16587    16606    16598    16505    16414 
   16441    16569    16723    16831    16808    16675    16564    16515 
   16497    16530    16621    16667    16590    16464    16425    16463 
   16486    16540    16686    16802    16767    16629    16497    16438 
   16455    16530    16659    16749    16714    16629    16565    16509 
   16497    16559    16648    16740    16795    16734    16582    16426 
   16339    16389    16502    16514    16445    16420    16465    16538 
   16580    16613    16672    16680    16614    16572    16588    16619 
   16659    16688    16677    16654    16622    16546    16491    16546 
   16656    16668    16560    16448    16424    16495    16613    16688 
   16699    16683    16673    16646    16553    16430    16397    16482 
   16595    16652    16633    16591    16609    16640    16582    16487 
   16437    16436    16505    16611    16648    16606    16573    16586 
   16625    16653    16649    16623    16569    16495    16465    16509 
   16572    16600    16575    16536    16537    16590    16663    16710 
   16698    16640    16560    16498    16478    16492    16517    16534 
   16555    16602    16659    16663    16617    16587    16580    16561 
   16569    16610    16596    16524    16519    16636    16727    16679 
   16553    16443    16398    16461    16605    16691    16644    16561 
   16540    16551    16563    16565    16563    16590    16636    16659 
   16650    16580    16470    16436    16528    16653    16694    16615 
   16525    16530    16572    16584    16575    16540    16532    16594 
   16627    16591    16586    16641    16654    16563    16451    16460 
   16575    16646    16622    16569    16564    16623    16679    16659 
   16592    16544    16522    16519    16556    16613    16630    16586 
   16542    16552    16563    16546    16571    16645    16681    16632 
   16530    16441    16413    16488    16629    16696    16642    16578 
   16586    16634    16648    16618    16588    16556    16503    16486 
   16561    16691    16758    16731    16680    16629    16580    16564 
   16594    16644    16667    16633    16575    16519    16480    16492 
   16536    16541    16499    16479    16511    16545    16545    16555 
   16603    16617    16564    16536    16559    16559    16545    16586 
   16665    16679    16587    16505    16492    16499    16513    16565 
   16642    16694    16676    16590    16495    16443    16425    16448 
   16511    16555    16540    16528    16560    16600    16605    16578 
   16575    16626    16706    16757    16706    16569    16479    16503 
   16579    16636    16673    16687    16622    16475    16363    16416 
   16579    16702    16738    16725    16673    16605    16541    16499 
   16501    16571    16665    16700    16660    16584    16501    16434 
   16449    16559    16663    16660    16567    16474    16444    16444 
   16424    16453    16602    16765    16800    16706    16575    16492 
   16488    16546    16617    16665    16675    16638    16598    16590 
   16555    16499    16533    16636    16672    16623    16553    16517 
   16572    16692    16752    16654    16452    16344    16417    16536 
   16584    16584    16591    16579    16486    16376    16363    16430 
   16530    16648    16729    16722    16659    16590    16553    16595 
   16711    16834    16883    16833    16754    16695    16615    16538 
   16511    16476    16416    16443    16572    16653    16598    16463 
   16324    16217    16160    16200    16372    16599    16749    16816 
   16826    16738    16610    16568    16603    16661    16741    16823 
   16825    16708    16590    16549    16515    16445    16394    16422 
   16505    16557    16603    16722    16838    16798    16599    16363 
   16205    16210    16386    16588    16692    16721    16719    16663 
   16540    16420    16398    16480    16609    16756    16870    16838 
   16688    16600    16637    16667    16619    16569    16532    16447 
   16347    16335    16417    16503    16544    16526    16476    16457 
   16490    16560    16686    16815    16852    16821    16816    16849 
   16853    16772    16627    16511    16449    16378    16302    16297 
   16395    16559    16669    16656    16578    16463    16340    16332 
   16410    16440    16467    16564    16672    16725    16711    16686 
   16679    16633    16551    16552    16640    16704    16757    16827 
   16823    16731    16667    16648    16622    16633    16714    16746 
   16606    16374    16245    16275    16345    16371    16402    16482 
   16542    16490    16359    16310    16424    16610    16746    16769 
   16699    16607    16541    16534    16592    16704    16865    16978 
   16919    16772    16694    16638    16544    16510    16545    16528 
   16441    16364    16356    16464    16664    16806    16773    16615 
   16451    16332    16270    16274    16333    16455    16657    16845 
   16873    16777    16691    16632    16578    16552    16555    16569 
   16564    16511    16456    16463    16509    16546    16592    16627 
   16607    16580    16615    16683    16772    16891    16907    16710 
   16422    16236    16185    16220    16340    16528    16721    16838 
   16810    16692    16599    16537    16480    16464    16497    16551 
   16618    16654    16634    16633    16699    16742    16723    16688 
   16668    16665    16665    16641    16599    16521    16380    16278 
   16279    16320    16390    16488    16563    16618    16629    16546 
   16470    16492    16556    16576    16567    16573    16594    16579 
   16536    16521    16563    16625    16645    16615    16605    16676 
   16803    16916    16968    16924    16768    16519    16302    16235 
   16295    16403    16511    16595    16648    16653    16600    16551 
   16555    16580    16611    16640    16583    16436    16313    16289 
   16344    16416    16470    16542    16668    16775    16785    16734 
   16707    16764    16883    16985    17005    16930    16804    16671 
   16521    16374    16274    16197    16116    16124    16317    16609 
   16807    16826    16725    16621    16551    16467    16378    16375 
   16461    16551    16580    16528    16441    16409    16456    16571 
   16731    16908    17081    17169    17088    16910    16749    16591 
   16444    16374    16363    16359    16339    16295    16290    16387 
   16525    16630    16681    16637    16515    16424    16390    16403 
   16492    16626    16719    16715    16623    16510    16434    16432 
   16503    16592    16641    16646    16638    16648    16683    16731 
   16779    16771    16636    16440    16322    16351    16525    16748 
   16868    16852    16745    16571    16438    16444    16529    16611 
   16669    16665    16587    16505    16471    16451    16424    16438 
   16521    16633    16722    16735    16687    16654    16646    16602 
   16548    16565    16617    16618    16580    16568    16576    16576 
   16555    16506    16461    16457    16478    16487    16487    16501 
   16507    16501    16506    16549    16615    16667    16726    16804 
   16816    16749    16717    16765    16822    16819    16757    16671 
   16579    16476    16359    16231    16131    16155    16291    16387 
   16367    16312    16321    16383    16459    16561    16668    16746 
   16814    16868    16838    16734    16691    16738    16754    16725 
   16738    16799    16807    16713    16625    16621    16619    16572 
   16511    16453    16420    16451    16538    16609    16617    16591 
   16538    16437    16320    16245    16243    16302    16394    16490 
   16552    16548    16514    16555    16690    16825    16911    16972 
   17003    16977    16912    16831    16768    16752    16742    16652 
   16471    16302    16222    16216    16216    16209    16282    16433 
   16515    16509    16511    16518    16491    16453    16432    16411 
   16405    16501    16702    16841    16854    16864    16896    16892 
   16856    16806    16768    16757    16742    16691    16578    16434 
   16360    16343    16285    16244    16335    16507    16627    16632 
   16576    16522    16459    16405    16413    16465    16530    16587 
   16599    16584    16607    16684    16775    16811    16764    16665 
   16559    16497    16556    16722    16860    16864    16734    16571 
   16474    16422    16370    16371    16474    16595    16644    16645 
   16636    16609    16595    16606    16607    16591    16572    16534 
   16470    16410    16432    16571    16725    16771    16719    16637 
   16556    16518    16538    16572    16553    16451    16351    16372 
   16464    16557    16704    16853    16870    16796    16731    16659 
   16568    16549    16638    16718    16656    16475    16289    16170 
   16150    16236    16413    16610    16704    16673    16607    16586 
   16644    16749    16785    16711    16600    16511    16465    16464 
   16497    16580    16694    16715    16587    16409    16310    16341 
   16457    16598    16738    16853    16902    16846    16715    16600 
   16552    16552    16582    16618    16623    16591    16544    16514 
   16524    16544    16541    16517    16487    16464    16474    16549 
   16665    16731    16717    16672    16622    16603    16653    16711 
   16703    16648    16578    16507    16470    16490    16537    16572 
   16584    16590    16592    16578    16552    16529    16510    16507 
   16514    16515    16529    16548    16518    16452    16436    16498 
   16556    16540    16491    16486    16536    16627    16725    16741 
   16664    16600    16649    16789    16877    16826    16737    16669 
   16572    16470    16413    16370    16335    16352    16429    16509 
   16584    16694    16816    16853    16745    16571    16459    16409 
   16374    16410    16538    16660    16695    16653    16567    16472 
   16437    16505    16629    16702    16665    16580    16509    16467 
   16487    16588    16714    16758    16694    16630    16617    16571 
   16499    16497    16537    16567    16587    16572    16511    16463 
   16447    16459    16507    16594    16672    16656    16551    16467 
   16463    16501    16542    16587    16672    16794    16877    16877 
   16823    16746    16663    16578    16503    16495    16538    16548 
   16517    16494    16487    16492    16507    16528    16567    16621 
   16634    16565    16472    16460    16517    16571    16630    16688 
   16698    16656    16588    16541    16572    16626    16603    16567 
   16610    16687    16727    16722    16690    16649    16578    16474 
   16389    16355    16352    16332    16305    16344    16420    16440 
   16440    16513    16630    16675    16603    16510    16524    16641 
   16733    16749    16765    16833    16903    16907    16835    16735 
   16672    16672    16668    16613    16553    16514    16470    16434 
   16448    16506    16552    16545    16518    16486    16416    16353 
   16371    16430    16471    16502    16556    16634    16692    16703 
   16687    16657    16626    16617    16633    16676    16745    16748 
   16614    16437    16368    16432    16529    16579    16618    16690 
   16742    16710    16602    16494    16480    16571    16686    16753 
   16730    16632    16541    16497    16475    16494    16565    16634 
   16614    16484    16344    16313    16395    16495    16544    16530 
   16505    16513    16548    16584    16632    16714    16802    16833 
   16808    16760    16694    16641    16629    16622    16602    16571 
   16530    16501    16475    16428    16382    16390    16459    16541 
   16575    16560    16528    16465    16390    16372    16428    16524 
   16648    16775    16846    16843    16775    16675    16621    16636 
   16653    16626    16573    16553    16568    16567    16568    16617 
   16640    16560    16421    16310    16306    16430    16607    16738 
   16792    16773    16690    16579    16502    16472    16468    16501 
   16560    16602    16629    16659    16675    16691    16687    16632 
   16596    16629    16650    16632    16602    16567    16537    16532 
