Origin Time       2025/03/30 10:18:00
Lat.              34.667
Long.             140.825
Depth. (km)       69
Mag.              4.9
Station Code      TKYH12
Station Lat.      35.6701
Station Long.     139.2650
Station Height(m) 63
Record Time       2025/03/30 10:19:21
Sampling Freq(Hz) 100Hz
Duration Time(s)  120
Dir.              1
Scale Factor      2942(gal)/8224139
Max. Acc. (gal)   0.146
Last Correction   2025/03/30 10:19:21
Memo.             
  181136   181071   181020   181012   181025   181043   181049   181059 
  181074   181075   181044   181021   181064   181130   181156   181140 
  181080   181001   180964   180991   181012   181008   181028   181056 
  181072   181082   181093   181110   181111   181086   181055   181045 
  181055   181044   181018   181021   181026   180995   180989   181037 
  181094   181151   181159   181072   180995   181001   181033   181072 
  181110   181103   181066   181032   181005   181008   181047   181091 
  181129   181134   181097   181060   181041   181036   181047   181053 
  181051   181045   181045   181064   181082   181078   181059   181035 
  181037   181074   181113   181133   181107   181057   181009   180981 
  181006   181051   181068   181062   181066   181102   181111   181084 
  181074   181048   181003   181024   181095   181129   181117   181068 
  180991   180979   181044   181099   181107   181075   181049   181062 
  181063   181024   180991   181003   181047   181074   181082   181094 
  181090   181063   181039   181043   181086   181130   181137   181091 
  181043   181051   181064   181040   181022   181041   181078   181070 
  181016   180989   180998   181017   181024   181008   181014   181045 
  181059   181071   181093   181102   181114   181116   181074   181035 
  181048   181082   181074   181045   181076   181138   181120   181045 
  181021   181041   181047   181056   181083   181079   181029   181009 
  181033   181028   181012   181030   181055   181071   181109   181128 
  181078   181033   181053   181094   181136   181145   181093   181047 
  181037   181030   181057   181086   181080   181093   181094   181071 
  181082   181082   181040   180998   180964   180982   181053   181094 
  181095   181090   181064   181029   181002   180998   181036   181090 
  181138   181164   181134   181078   181048   181033   181039   181067 
  181097   181117   181098   181047   181020   181016   181020   181025 
  181033   181057   181075   181078   181083   181083   181082   181075 
  181063   181070   181086   181082   181079   181093   181076   181026 
  180997   181003   181009   181014   181059   181107   181097   181083 
  181097   181080   181062   181062   181051   181044   181052   181055 
  181056   181055   181047   181028   181026   181068   181099   181089 
  181094   181117   181122   181105   181045   180981   180968   180997 
  181041   181070   181052   181016   181010   181052   181125   181178 
  181168   181121   181079   181044   181021   181025   181063   181105 
  181102   181074   181071   181079   181072   181053   181032   181013 
  181024   181070   181090   181084   181091   181083   181067   181057 
  181028   180990   180994   181045   181091   181106   181095   181041 
  180986   181001   181051   181072   181076   181078   181056   181026 
  181028   181053   181075   181090   181103   181101   181070   181053 
  181078   181091   181072   181068   181083   181086   181075   181029 
  180978   181001   181068   181101   181082   181056   181070   181086 
  181074   181049   181032   181048   181093   181116   181107   181091 
  181074   181059   181043   181037   181056   181067   181057   181060 
  181078   181076   181051   181039   181063   181091   181102   181106 
  181084   181057   181049   181020   180989   180999   181026   181056 
  181063   181041   181043   181068   181063   181032   181014   181002 
  181001   181025   181053   181089   181117   181097   181052   181040 
  181063   181090   181105   181103   181087   181053   181028   181033 
  181055   181087   181107   181090   181053   181008   180974   180997 
  181063   181093   181070   181051   181040   181033   181048   181067 
  181084   181109   181129   181118   181091   181078   181064   181053 
  181087   181140   181145   181091   181028   180998   181006   181056 
  181113   181093   181026   181006   181024   181028   181025   181029 
  181043   181063   181089   181099   181064   181020   181018   181040 
  181066   181107   181152   181167   181129   181072   181057   181066 
  181075   181105   181110   181082   181074   181060   181018   181013 
  181043   181070   181102   181116   181095   181071   181041   181016 
  181026   181051   181059   181075   181083   181051   181043   181055 
  181018   180999   181045   181078   181079   181078   181067   181075 
  181086   181064   181052   181057   181048   181029   181021   181043 
  181080   181102   181105   181080   181037   181032   181041   181026 
  181057   181136   181159   181109   181036   180983   180985   181039 
  181095   181109   181086   181053   181026   181025   181057   181079 
  181079   181080   181063   181026   181018   181051   181093   181109 
  181079   181037   181029   181045   181064   181084   181095   181089 
  181068   181079   181121   181132   181113   181083   181045   181056 
  181107   181105   181064   181067   181080   181072   181067   181030 
  180983   180991   180998   180990   181018   181041   181047   181053 
  181036   181013   181033   181072   181095   181122   181148   181155 
  181141   181090   181053   181059   181047   181025   181020   181014 
  181016   181024   181016   181003   181024   181063   181083   181063 
  181026   181052   181130   181152   181120   181075   181026   181016 
  181040   181072   181090   181070   181056   181056   181026   181029 
  181090   181124   181105   181090   181082   181074   181084   181079 
  181037   181020   181024   181009   181013   181032   181044   181082 
  181120   181106   181071   181067   181103   181137   181155   181157 
  181110   181052   181066   181106   181097   181043   180995   181021 
  181078   181056   181020   181049   181068   181068   181079   181063 
  181051   181049   181013   180970   180962   181001   181071   181097 
  181070   181052   181044   181036   181035   181032   181053   181116 
  181160   181157   181137   181113   181080   181045   181039   181062 
  181087   181105   181089   181049   181049   181080   181074   181047 
  181066   181076   181030   180991   180995   181028   181056   181044 
  181012   181006   181036   181086   181122   181125   181111   181082 
  181040   181039   181071   181071   181066   181076   181068   181064 
  181097   181109   181070   181047   181066   181099   181138   181134 
  181071   181021   181010   181014   181040   181055   181025   181008 
  181010   181018   181072   181114   181082   181051   181062   181066 
  181049   181025   180985   180947   180948   180991   181043   181084 
  181113   181114   181098   181097   181113   181106   181079   181067 
  181043   181022   181040   181044   181033   181072   181109   181089 
  181075   181079   181070   181079   181083   181070   181087   181075 
  181005   181001   181063   181078   181053   181064   181101   181109 
  181099   181106   181105   181064   181024   181043   181105   181133 
  181111   181074   181049   181062   181059   181010   180991   181053 
  181120   181126   181072   180997   180971   181012   181049   181075 
  181102   181080   181045   181064   181098   181106   181079   181043 
  181035   181025   181017   181024   181009   181017   181093   181130 
  181105   181082   181051   181017   181025   181044   181048   181079 
  181116   181086   181022   181012   181045   181075   181093   181062 
  180997   180990   181045   181095   181107   181090   181087   181080 
  181039   181018   181078   181148   181149   181130   181137   181144 
  181128   181109   181114   181114   181084   181057   181020   180989 
  181012   181039   181020   181018   181057   181066   181030   181025 
  181045   181053   181052   181035   181029   181066   181099   181103 
  181110   181124   181114   181091   181060   181043   181067   181079 
  181071   181064   181025   180987   180990   181020   181055   181051 
  181028   181033   181067   181098   181098   181103   181103   181044 
  181016   181075   181124   181110   181062   181025   181037   181057 
  181063   181049   181025   181024   181047   181078   181098   181075 
  181040   181037   181053   181071   181097   181111   181086   181043 
  181022   181039   181075   181116   181126   181098   181063   181029 
  181016   181051   181105   181118   181094   181080   181055   181033 
  181072   181126   181116   181048   180983   180960   180967   180981 
  181016   181051   181060   181075   181118   181151   181137   181093 
  181048   181037   181070   181098   181102   181097   181089   181090 
  181102   181107   181083   181029   181008   181048   181086   181095 
  181091   181064   181043   181064   181090   181064   181028   181009 
  180970   180964   181025   181062   181053   181039   181020   181020 
  181053   181101   181120   181106   181095   181083   181072   181070 
  181066   181072   181089   181078   181075   181105   181103   181086 
  181095   181094   181089   181093   181094   181103   181113   181097 
  181080   181049   181013   181020   181017   181003   181043   181070 
  181040   181016   181020   181017   181018   181039   181053   181093 
  181141   181134   181110   181093   181063   181044   181028   181016 
  181032   181049   181044   181018   180968   180943   180991   181063 
  181094   181091   181098   181114   181120   181132   181141   181114 
  181074   181030   180997   181013   181068   181113   181111   181066 
  181037   181053   181075   181076   181066   181068   181070   181047 
  181039   181039   181024   181032   181055   181067   181076   181078 
  181063   181043   181047   181089   181122   181109   181079   181057 
  181051   181064   181057   181048   181084   181117   181118   181111 
  181078   181025   181009   181033   181066   181089   181093   181068 
  181040   181033   181035   181049   181076   181082   181068   181062 
  181062   181075   181105   181087   181032   181017   181033   181035 
  181043   181056   181049   181040   181059   181089   181099   181078 
  181045   181028   181029   181022   181005   180989   180981   180986 
  180991   180983   180967   180976   181021   181049   181040   181017 
  181001   181010   181032   181036   181040   181057   181063   181045 
  181048   181083   181110   181118   181107   181062   181029   181057 
  181082   181047   181008   181013   181043   181078   181098   181099 
  181095   181095   181114   181141   181140   181143   181186   181215 
  181205   181202   181209   181206   181217   181218   181168   181099 
  181101   181136   181137   181155   181175   181152   181152   181171 
  181153   181118   181098   181121   181145   181105   181051   181040 
  181048   181028   180998   181017   181035   181010   181001   181029 
  181079   181114   181129   181155   181160   181129   181101   181063 
  181020   181016   181026   181008   180995   181003   180976   180941 
  180954   180995   181013   180991   180975   180959   180935   180968 
  181017   180990   180945   180932   180913   180895   180894   180890 
  180878   180864   180879   180921   180944   180951   180971   180982 
  180951   180917   180935   180998   181080   181136   181137   181120 
  181121   181153   181179   181138   181078   181051   181028   181032 
  181079   181083   181041   181062   181117   181110   181063   181026 
  181017   181045   181101   181155   181186   181199   181211   181201 
  181161   181128   181113   181114   181125   181157   181202   181206 
  181165   181107   181053   181056   181120   181203   181268   181249 
  181182   181163   181164   181152   181137   181103   181070   181056 
  181063   181106   181163   181168   181130   181101   181068   181025 
  181016   181032   181041   181052   181044   181006   180956   180928 
  180944   180968   180960   180968   181012   181029   181009   180994 
  180999   180991   180959   180948   180986   181030   181051   181070 
  181080   181060   181037   181039   181051   181048   181024   180998 
  180995   181032   181105   181168   181168   181105   181029   180994 
  180986   180968   180967   180972   180955   180932   180914   180920 
  180960   181006   181029   181068   181145   181215   181240   181228 
  181175   181103   181078   181105   181138   181143   181122   181141 
  181184   181159   181095   181066   181026   180956   180927   180971 
  181035   181102   181152   181122   181057   181025   181002   180975 
  180972   181012   181064   181075   181071   181089   181078   181041 
  181053   181134   181207   181217   181209   181230   181252   181226 
  181167   181114   181047   180951   180870   180825   180814   180825 
  180841   180866   180887   180918   181006   181090   181091   181066 
  181052   181052   181105   181183   181225   181224   181215   181215 
  181209   181217   181241   181217   181143   181047   180933   180859 
  180851   180859   180871   180905   180968   181040   181084   181118 
  181134   181102   181051   180994   180951   180958   180971   180979 
  181002   181008   181040   181111   181141   181130   181097   181047 
  181037   181079   181124   181161   181210   181252   181276   181288 
  181259   181206   181170   181126   181093   181095   181090   181055 
  180994   180881   180739   180655   180698   180852   181018   181126 
  181163   181159   181155   181143   181117   181102   181090   181082 
  181097   181105   181126   181176   181202   181213   181248   181280 
  181306   181317   181307   181306   181299   181260   181172   181005 
  180847   180786   180777   180810   180901   180972   180991   180986 
  180979   180963   180901   180809   180758   180767   180812   180870 
  180927   180963   180989   181049   181120   181160   181194   181240 
  181305   181353   181329   181261   181178   181067   180975   180924 
  180908   180936   180962   180963   180997   181047   181066   181072 
  181063   181010   180978   181006   181036   181076   181140   181152 
  181097   181008   180929   180943   181037   181099   181105   181122 
  181134   181083   181035   181047   181063   181101   181202   181288 
  181311   181271   181152   181017   180947   180940   180983   181035 
  181063   181066   181051   181064   181113   181126   181116   181118 
  181099   181052   181025   180998   180925   180844   180828   180901 
  181024   181153   181264   181313   181279   181190   181089   181049 
  181060   181045   181005   180945   180904   180924   180963   181028 
  181129   181175   181160   181137   181103   181062   181016   180962 
  180918   180904   180918   180960   181006   181030   181049   181066 
  181041   180985   180947   180974   181045   181099   181116   181102 
  181095   181107   181105   181103   181117   181143   181202   181244 
  181209   181168   181152   181110   181078   181083   181063   181006 
  180964   180962   180979   180979   180966   180948   180940   180971 
  181036   181111   181183   181209   181191   181168   181148   181124 
  181105   181102   181101   181095   181093   181082   181080   181090 
  181074   181063   181055   181032   181037   181028   180952   180863 
  180781   180720   180717   180783   180909   181012   181026   180999 
  180960   180941   181002   181107   181233   181373   181450   181440 
  181388   181302   181197   181114   181089   181114   181137   181128 
  181098   181067   181044   181037   181041   181041   181040   181047 
  181041   181036   181043   181039   181039   181051   181030   181002 
  181013   181045   181071   181083   181084   181086   181086   181089 
  181078   181039   180994   181001   181074   181186   181276   181269 
  181182   181067   180945   180868   180851   180860   180877   180871 
  180847   180810   180777   180756   180755   180781   180831   180905 
  180997   181080   181152   181219   181279   181332   181346   181318 
  181299   181291   181296   181327   181336   181315   181273   181197 
  181145   181136   181095   181017   180933   180868   180844   180868 
  180924   180987   181036   181040   181005   180989   181009   181043 
  181080   181109   181121   181132   181148   181134   181075   181030 
  181028   181033   181029   181035   181072   181122   181176   181222 
  181226   181178   181086   180975   180893   180875   180909   180944 
  180968   180989   180991   180981   180971   181002   181060   181062 
  181022   181039   181071   181066   181074   181095   181094   181097 
  181107   181105   181106   181134   181180   181229   181267   181280 
  181255   181187   181118   181059   180985   180933   180910   180870 
  180874   180937   180981   180998   181028   181040   181020   181016 
  181062   181106   181093   181047   181028   181035   181033   181029 
  181016   181005   181036   181091   181125   181155   181213   181271 
  181302   181319   181299   181213   181105   181001   180927   180916 
  180929   180936   180949   180967   180991   180998   180989   181016 
  181066   181129   181195   181207   181175   181116   181044   181016 
  181017   181025   181056   181082   181087   181079   181055   181028 
  181009   181022   181075   181132   181174   181186   181141   181066 
  181002   180966   180962   180981   180987   180952   180920   180913 
  180894   180878   180895   180937   180983   181016   181062   181111 
  181117   181099   181086   181079   181097   181122   181132   181152 
  181186   181176   181129   181080   181049   181067   181109   181087 
  181047   181041   181029   181022   181013   180981   180952   180928 
  180925   180944   180960   181001   181053   181094   181116   181107 
  181110   181140   181164   181180   181192   181180   181129   181070 
  181048   181041   181041   181091   181143   181168   181195   181187 
  181136   181083   181025   180970   180962   181006   181048   181064 
  181089   181091   181051   181012   180994   180990   180991   180981 
  180970   180962   180951   180959   180987   181001   181008   181052 
  181109   181117   181106   181102   181078   181053   181040   181020 
  181018   181060   181130   181180   181199   181190   181126   181052 
  181025   181039   181090   181144   181168   181151   181070   181008 
  181021   181028   181017   181036   181045   181026   181016   181024 
  181030   181026   180998   180995   181074   181148   181170   181207 
  181248   181230   181183   181161   181183   181213   181206   181172 
  181152   181130   181091   181079   181095   181103   181098   181076 
  181045   181035   181024   180978   180920   180878   180837   180805 
  180806   180840   180887   180956   181017   181029   181005   180991 
  181025   181101   181167   181179   181148   181122   181109   181090 
  181075   181033   180956   180894   180870   180904   180991   181048 
  181044   181044   181055   181008   180936   180929   180976   181045 
  181106   181143   181178   181203   181209   181211   181205   181176 
  181141   181106   181086   181101   181122   181113   181099   181110 
  181121   181130   181133   181101   181033   180970   180958   180983 
  180999   180999   181009   181030   181056   181095   181126   181126 
  181117   181122   181153   181191   181190   181170   181138   181049 
  180952   180910   180906   180931   180985   181040   181053   181044 
  181074   181128   181140   181111   181094   181095   181095   181111 
  181161   181198   181201   181199   181211   181211   181170   181111 
  181060   181008   180966   180964   180985   180966   180906   180832 
