Origin Time       2025/03/30 10:18:00
Lat.              34.667
Long.             140.825
Depth. (km)       69
Mag.              4.9
Station Code      TKYH12
Station Lat.      35.6701
Station Long.     139.2650
Station Height(m) 210
Record Time       2025/03/30 10:19:21
Sampling Freq(Hz) 100Hz
Duration Time(s)  120
Dir.              4
Scale Factor      7845(gal)/8223790
Max. Acc. (gal)   1.421
Last Correction   2025/03/30 10:19:21
Memo.             
[...]
   -1275    -1247    -1205    -1161    -1143    -1148    -1112    -1031 
    -973     -958     -966    -1003    -1048    -1084    -1115    -1140 
   -1161    -1204    -1243    -1216    -1139    -1080    -1069    -1093 
   -1120    -1143    -1173    -1200    -1220    -1225    -1182    -1111 
   -1075    -1081    -1098    -1129    -1166    -1179    -1139    -1062 
   -1012    -1016    -1042    -1061    -1067    -1073    -1090    -1112 
   -1120    -1123    -1124    -1113    -1086    -1063    -1074    -1124 
   -1196    -1271    -1343    -1387    -1374    -1321    -1274    -1216 
   -1143    -1098    -1074    -1047    -1020     -985     -942     -920 
    -924     -927     -916     -916     -965    -1066    -1162    -1208 
   -1215    -1239    -1290    -1300    -1251    -1227    -1251    -1259 
   -1239    -1217    -1202    -1186    -1138    -1044     -947     -882 
    -878     -932     -982     -986     -950     -909     -932    -1021 
   -1119    -1208    -1273    -1308    -1336    -1354    -1339    -1310 
   -1296    -1314    -1343    -1328    -1264    -1186    -1107    -1061 
   -1077    -1111    -1098    -1027     -943     -920     -957     -993 
    -993     -961     -936     -936     -920     -909     -972    -1082 
   -1188    -1263    -1290    -1277    -1266    -1273    -1273    -1242 
   -1198    -1178    -1173    -1167    -1181    -1186    -1154    -1088 
   -1009     -957     -959    -1007    -1074    -1142    -1185    -1196 
   -1196    -1204    -1213    -1212    -1200    -1200    -1206    -1190 
   -1151    -1097    -1046    -1021    -1015    -1023    -1055    -1086 
   -1092    -1093    -1120    -1163    -1167    -1111    -1032     -981 
    -981    -1015    -1054    -1094    -1129    -1170    -1246    -1304 
   -1269    -1185    -1129    -1104    -1092    -1101    -1131    -1151 
   -1156    -1142    -1098    -1077    -1132    -1206    -1225    -1183 
   -1092    -1009    -1007    -1051    -1074    -1089    -1143    -1223 
   -1266    -1270    -1254    -1212    -1159    -1120    -1081    -1026 
    -990     -993    -1015    -1042    -1066    -1084    -1109    -1140 
   -1156    -1171    -1205    -1240    -1248    -1212    -1135    -1053 
   -1013    -1046    -1108    -1140    -1135    -1094    -1042    -1026 
   -1051    -1094    -1139    -1142    -1102    -1081    -1089    -1102 
   -1142    -1217    -1281    -1301    -1281    -1231    -1173    -1109 
   -1046    -1005    -1001    -1046    -1108    -1115    -1077    -1054 
   -1055    -1089    -1139    -1155    -1147    -1166    -1197    -1208 
   -1193    -1170    -1171    -1177    -1174    -1171    -1140    -1101 
   -1117    -1152    -1140    -1089    -1042    -1043    -1070    -1069 
   -1062    -1071    -1085    -1121    -1162    -1150    -1098    -1066 
   -1074    -1115    -1159    -1204    -1224    -1178    -1107    -1093 
   -1138    -1175    -1174    -1156    -1167    -1188    -1181    -1143 
   -1090    -1061    -1061    -1050    -1019    -1008    -1050    -1119 
   -1150    -1132    -1117    -1120    -1116    -1109    -1127    -1162 
   -1198    -1235    -1236    -1170    -1085    -1036    -1030    -1050 
   -1065    -1050    -1024    -1013    -1027    -1073    -1147    -1212 
   -1236    -1231    -1216    -1192    -1163    -1148    -1170    -1236 
   -1298    -1304    -1243    -1138    -1027     -954     -936     -950 
    -984    -1047    -1125    -1150    -1115    -1109    -1161    -1220 
   -1251    -1232    -1188    -1158    -1123    -1066     -993     -926 
    -913     -963    -1026    -1059    -1066    -1088    -1135    -1154 
   -1152    -1183    -1229    -1250    -1246    -1223    -1192    -1192 
   -1220    -1221    -1178    -1116    -1066    -1066    -1121    -1173 
   -1181    -1162    -1142    -1131    -1127    -1100    -1070    -1086 
   -1123    -1148    -1170    -1163    -1093    -1009     -985    -1019 
   -1065    -1096    -1117    -1127    -1089    -1028    -1039    -1094 
   -1092    -1050    -1055    -1119    -1194    -1237    -1237    -1228 
   -1190    -1112    -1069    -1098    -1162    -1221    -1240    -1210 
   -1166    -1136    -1136    -1150    -1151    -1151    -1146    -1136 
   -1135    -1107    -1021     -958     -978    -1051    -1112    -1128 
   -1109    -1086    -1063    -1044    -1042    -1051    -1080    -1146 
   -1244    -1325    -1341    -1312    -1282    -1244    -1190    -1159 
   -1143    -1100    -1034     -969     -945     -985    -1062    -1123 
   -1135    -1115    -1107    -1102    -1080    -1063    -1086    -1138 
   -1181    -1185    -1165    -1150    -1132    -1112    -1096    -1073 
   -1096    -1194    -1267    -1270    -1248    -1209    -1148    -1058 
    -940     -869     -884     -954    -1044    -1105    -1119    -1134 
   -1175    -1209    -1212    -1200    -1209    -1243    -1266    -1275 
   -1275    -1243    -1192    -1142    -1078    -1015     -996    -1030 
   -1035     -962     -874     -857     -920     -996    -1035    -1081 
   -1170    -1251    -1273    -1256    -1252    -1256    -1242    -1219 
   -1213    -1206    -1205    -1229    -1246    -1225    -1181    -1117 
   -1046    -1032    -1098    -1170    -1185    -1152    -1108    -1065 
   -1011     -947     -869     -791     -808     -947    -1107    -1219 
   -1264    -1256    -1242    -1235    -1210    -1174    -1154    -1161 
   -1178    -1182    -1174    -1152    -1104    -1067    -1063    -1062 
   -1080    -1144    -1197    -1181    -1143    -1124    -1113    -1109 
   -1090    -1036    -1007    -1038    -1070    -1090    -1142    -1213 
   -1247    -1208    -1132    -1101    -1151    -1236    -1278    -1224 
   -1109    -1021    -1017    -1071    -1117    -1135    -1139    -1139 
   -1152    -1166    -1155    -1139    -1124    -1102    -1089    -1074 
   -1046    -1021    -1016    -1051    -1120    -1165    -1169    -1189 
   -1224    -1216    -1174    -1152    -1161    -1162    -1120    -1048 
    -996     -981    -1001    -1058    -1124    -1182    -1240    -1291 
   -1310    -1282    -1223    -1147    -1066    -1008     -996    -1005 
    -993     -976    -1016    -1124    -1206    -1208    -1173    -1128 
   -1073    -1055    -1100    -1155    -1169    -1125    -1065    -1035 
   -1015     -990    -1004    -1075    -1170    -1247    -1267    -1224 
   -1177    -1179    -1219    -1239    -1228    -1217    -1233    -1282 
   -1298    -1209    -1065     -980     -972    -1005    -1039    -1046 
   -1048    -1085    -1124    -1123    -1070    -1008    -1003    -1065 
   -1098    -1051     -994    -1000    -1063    -1142    -1197    -1239 
   -1282    -1306    -1294    -1252    -1216    -1219    -1243    -1252 
   -1215    -1132    -1067    -1063    -1088    -1098    -1081    -1055 
   -1050    -1048    -1027     -997     -972     -949     -936     -945 
    -974    -1026    -1073    -1092    -1104    -1134    -1192    -1240 
   -1225    -1171    -1150    -1167    -1201    -1242    -1274    -1293 
   -1324    -1375    -1382    -1310    -1243    -1219    -1181    -1101 
   -1013     -939     -899     -885     -907     -977    -1043    -1040 
    -994     -986    -1026    -1070    -1113    -1174    -1232    -1248 
   -1228    -1205    -1185    -1163    -1159    -1177    -1206    -1229 
   -1204    -1134    -1073    -1032     -989     -957     -953     -973 
   -1013    -1067    -1134    -1213    -1289    -1329    -1327    -1306 
   -1290    -1263    -1206    -1143    -1090    -1050    -1043    -1067 
   -1081    -1104    -1147    -1140    -1075    -1016     -977     -957 
    -976    -1024    -1048    -1042    -1039    -1061    -1096    -1131 
   -1144    -1139    -1140    -1154    -1147    -1125    -1129    -1188 
   -1275    -1337    -1340    -1302    -1250    -1189    -1113    -1044 
   -1021    -1027    -1038    -1063    -1089    -1097    -1109    -1136 
   -1173    -1210    -1209    -1161    -1116    -1102    -1104    -1107 
   -1096    -1074    -1061    -1053    -1043    -1040    -1046    -1081 
   -1156    -1212    -1219    -1217    -1201    -1152    -1107    -1074 
   -1067    -1084    -1085    -1067    -1069    -1074    -1051    -1028 
   -1043    -1092    -1135    -1148    -1155    -1169    -1163    -1143 
   -1138    -1161    -1196    -1205    -1182    -1158    -1132    -1112 
   -1120    -1146    -1165    -1171    -1173    -1190    -1202    -1166 
   -1097    -1035    -1008    -1043    -1119    -1177    -1179    -1119 
   -1050    -1031    -1034    -1021    -1016    -1036    -1086    -1150 
   -1167    -1150    -1155    -1173    -1183    -1201    -1227    -1252 
   -1256    -1225    -1179    -1136    -1101    -1086    -1066    -1038 
   -1027    -1021    -1019    -1039    -1053    -1054    -1084    -1128 
   -1142    -1127    -1120    -1138    -1146    -1129    -1129    -1148 
   -1154    -1158    -1162    -1161    -1183    -1215    -1227    -1228 
   -1194    -1136    -1116    -1138    -1155    -1127    -1054     -992 
    -977     -989    -1015    -1034    -1017     -990     -984     -978 
    -973    -1013    -1102    -1204    -1302    -1366    -1355    -1294 
   -1242    -1220    -1236    -1281    -1309    -1300    -1243    -1140 
   -1026     -936     -891     -900     -942     -978    -1005    -1032 
   -1055    -1077    -1081    -1065    -1075    -1147    -1252    -1329 
   -1331    -1279    -1244    -1232    -1227    -1240    -1278    -1312 
   -1301    -1236    -1165    -1121    -1102    -1102    -1102    -1098 
   -1105    -1102    -1086    -1062    -1017     -969     -945     -951 
    -976    -1005    -1020    -1028    -1053    -1094    -1143    -1177 
   -1162    -1124    -1120    -1139    -1150    -1154    -1150    -1136 
   -1111    -1093    -1107    -1117    -1075    -1013     -977     -978 
   -1020    -1066    -1080    -1063    -1036    -1013    -1000     -986 
    -978     -997    -1036    -1069    -1097    -1146    -1206    -1237 
   -1213    -1167    -1143    -1150    -1155    -1138    -1132    -1150 
   -1175    -1213    -1266    -1305    -1312    -1291    -1274    -1274 
   -1252    -1188    -1128    -1113    -1142    -1185    -1185    -1138 
   -1086    -1057    -1046    -1055    -1077    -1096    -1102    -1104 
   -1135    -1181    -1190    -1156    -1104    -1054    -1028    -1028 
   -1051    -1082    -1081    -1085    -1150    -1255    -1356    -1417 
   -1433    -1453    -1476    -1453    -1378    -1259    -1135    -1085 
   -1101    -1112    -1109    -1102    -1097    -1107    -1112    -1096 
   -1067    -1031     -984     -935     -895     -880     -874     -885 
    -942     -993     -967     -908     -889     -916     -963     -999 
   -1039    -1121    -1223    -1281    -1273    -1206    -1129    -1093 
   -1113    -1190    -1290    -1354    -1371    -1316    -1175    -1021 
    -897     -820     -835     -912     -972     -993     -980     -950 
    -939     -947     -978    -1044    -1131    -1233    -1345    -1422 
   -1490    -1579    -1620    -1568    -1480    -1409    -1362    -1302 
   -1217    -1132    -1048     -963     -895     -857     -847     -862 
    -901     -980    -1074    -1140    -1181    -1208    -1197    -1132 
   -1040     -957     -893     -853     -857     -895     -950    -1034 
   -1146    -1251    -1325    -1352    -1362    -1401    -1455    -1480 
   -1476    -1441    -1371    -1282    -1183    -1070     -954     -865 
    -841     -880     -946     -997    -1004     -996    -1043    -1163 
   -1297    -1371    -1374    -1358    -1337    -1267    -1146    -1019 
    -912     -838     -801     -797     -837     -905     -958     -980 
    -980     -958     -938     -954    -1008    -1082    -1170    -1266 
   -1381    -1470    -1456    -1344    -1200    -1080    -1035    -1093 
   -1227    -1395    -1552    -1638    -1625    -1541    -1397    -1200 
   -1030     -949     -930     -896     -816     -722     -642     -576 
    -544     -575     -675     -820     -992    -1170    -1321    -1420 
   -1466    -1470    -1453    -1459    -1505    -1564    -1579    -1514 
   -1416    -1354    -1348    -1364    -1327    -1196    -1024     -868 
    -753     -672     -567     -419     -292     -260     -348     -526 
    -746     -954    -1107    -1227    -1379    -1540    -1634    -1648 
   -1606    -1547    -1528    -1561    -1591    -1590    -1586    -1586 
   -1574    -1533    -1458    -1351    -1228    -1096     -942     -765 
    -631     -592     -607     -630     -664     -714     -754     -780 
    -818     -889    -1000    -1140    -1233    -1229    -1150    -1009 
    -828     -692     -665     -750     -940    -1177    -1372    -1494 
   -1534    -1485    -1381    -1289    -1242    -1244    -1293    -1359 
   -1401    -1402    -1393    -1385    -1360    -1324    -1281    -1221 
   -1147    -1059     -981     -934     -870     -766     -681     -660 
    -695     -778     -913    -1094    -1283    -1428    -1498    -1507 
   -1482    -1436    -1374    -1297    -1225    -1174    -1124    -1055 
    -992     -972     -997    -1066    -1155    -1220    -1252    -1256 
   -1213    -1129    -1026     -909     -789     -689     -645     -666 
    -756     -899    -1063    -1219    -1348    -1456    -1543    -1590 
   -1561    -1463    -1332    -1192    -1059     -954     -873     -820 
    -831     -911    -1023    -1135    -1231    -1314    -1386    -1431 
   -1464    -1512    -1528    -1463    -1317    -1121     -913     -720 
    -553     -438     -429     -537     -753    -1040    -1312    -1493 
   -1574    -1528    -1364    -1154     -935     -716     -527     -406 
    -383     -459     -587     -735     -892    -1074    -1343    -1719 
   -2128    -2461    -2612    -2559    -2366    -2085    -1783    -1526 
   -1308    -1088     -870     -675     -546     -527     -571     -629 
    -716     -811     -857     -843     -762     -639     -530     -468 
    -450     -480     -561     -681     -814     -928    -1008    -1074 
   -1170    -1306    -1476    -1695    -1942    -2146    -2232    -2161 
   -1961    -1706    -1468    -1294    -1200    -1165    -1139    -1054 
    -912     -808     -774     -774     -807     -869     -922     -932 
    -865     -723     -580     -495     -492     -580     -760    -1032 
   -1347    -1599    -1737    -1730    -1564    -1333    -1156    -1065 
   -1039    -1032    -1024    -1039    -1065    -1088    -1125    -1169 
   -1198    -1192    -1139    -1097    -1105    -1116    -1119    -1152 
   -1228    -1356    -1526    -1663    -1695    -1613    -1458    -1285 
   -1142    -1061    -1034    -1019    -1009     -996     -928     -797 
    -639     -483     -384     -400     -525     -695     -819     -839 
    -814     -845     -967    -1182    -1444    -1669    -1794    -1819 
   -1809    -1780    -1676    -1490    -1271    -1040     -853     -777 
    -791     -837     -892     -939     -985    -1035    -1080    -1089 
   -1034     -962     -980    -1102    -1269    -1439    -1575    -1652 
   -1664    -1624    -1586    -1572    -1547    -1490    -1410    -1301 
   -1178    -1073    -1000     -949     -878     -801     -773     -773 
    -742     -670     -594     -549     -540     -534     -526     -541 
    -602     -707     -807     -870     -927    -1003    -1104    -1247 
   -1426    -1609    -1740    -1776    -1732    -1656    -1575    -1509 
   -1471    -1428    -1377    -1344    -1354    -1395    -1428    -1425 
   -1409    -1375    -1309    -1239    -1171    -1071     -936     -820 
    -760     -710     -646     -627     -668     -727     -793     -861 
    -936    -1032    -1100    -1094    -1044    -1005    -1017    -1069 
   -1105    -1120    -1129    -1132    -1134    -1121    -1085    -1067 
   -1093    -1161    -1237    -1250    -1193    -1163    -1193    -1260 
   -1345    -1426    -1501    -1551    -1532    -1470    -1416    -1356 
   -1258    -1104     -936     -858     -885     -953    -1021    -1055 
   -1042    -1038    -1080    -1124    -1147    -1148    -1138    -1142 
   -1158    -1163    -1121    -1007     -862     -776     -770     -810 
    -857     -920    -1011    -1105    -1177    -1216    -1216    -1167 
   -1104    -1053     -989     -901     -816     -761     -734     -776 
    -936    -1147    -1314    -1466    -1629    -1768    -1876    -1948 
   -1975    -1946    -1819    -1598    -1340    -1071     -823     -645 
    -553     -556     -641     -765     -896     -992    -1016    -1000 
    -986     -992    -1030    -1089    -1140    -1162    -1139    -1080 
   -1032    -1032    -1075    -1127    -1129    -1074    -1016    -1011 
   -1077    -1185    -1264    -1294    -1298    -1290    -1290    -1300 
   -1293    -1263    -1219    -1169    -1131    -1104    -1086    -1084 
   -1089    -1089    -1078    -1054    -1038    -1065    -1132    -1193 
   -1231    -1258    -1270    -1246    -1174    -1089    -1036    -1020 
   -1027    -1032    -1003     -942     -888     -857     -842     -851 
    -896     -982    -1115    -1242    -1316    -1337    -1320    -1279 
   -1255    -1259    -1259    -1243    -1209    -1146    -1067    -1024 
   -1032    -1065    -1090    -1117    -1188    -1309    -1410    -1436 
   -1389    -1290    -1183    -1100    -1042     -988     -909     -810 
    -722     -662     -638     -656     -711     -823    -1007    -1231 
   -1456    -1630    -1699    -1691    -1656    -1609    -1564    -1533 
   -1483    -1397    -1297    -1201    -1086     -923     -742     -625 
    -615     -679     -774     -846     -831     -737     -650     -683 
    -865    -1113    -1300    -1366    -1328    -1215    -1086    -1009 
   -1009    -1070    -1177    -1308    -1421    -1472    -1443    -1344 
   -1225    -1136    -1070    -1005     -935     -857     -791     -783 
    -859     -981    -1094    -1179    -1243    -1309    -1387    -1445 
   -1440    -1371    -1281    -1217    -1210    -1270    -1366    -1439 
   -1476    -1522    -1590    -1617    -1551    -1404    -1232    -1074 
    -942     -828     -723     -633     -571     -537     -534     -580 
    -645     -692     -729     -791     -913    -1096    -1250    -1296 
   -1267    -1246    -1266    -1313    -1355    -1371    -1395    -1441 
   -1476    -1468    -1417    -1328    -1215    -1112    -1062    -1066 
   -1077    -1067    -1067    -1090    -1101    -1054     -951     -851 
    -803     -792     -800     -849     -924     -990    -1046    -1119 
   -1204    -1255    -1256    -1267    -1331    -1420    -1471    -1449 
   -1385    -1329    -1289    -1210    -1069     -918     -814     -772 
    -795     -878    -1005    -1134    -1212    -1219    -1190    -1178 
   -1212    -1275    -1328    -1343    -1344    -1354    -1341    -1267 
   -1134     -969     -820     -739     -727     -753     -781     -792 
    -791     -783     -780     -823     -936    -1086    -1210    -1296 
   -1385    -1528    -1707    -1860    -1954    -1996    -1981    -1872 
   -1656    -1379    -1120     -943     -864     -839     -819     -777 
    -697     -589     -486     -410     -390     -438     -519     -602 
    -691     -793     -904    -1023    -1143    -1232    -1275    -1324 
   -1418    -1536    -1642    -1749    -1856    -1949    -1999    -1961 
   -1829    -1625    -1378    -1132     -927     -774     -677     -612 
    -541     -487     -477     -492     -527     -595     -691     -814 
    -963    -1131    -1285    -1368    -1385    -1391    -1414    -1468 
   -1549    -1599    -1603    -1580    -1529    -1472    -1441    -1405 
   -1348    -1263    -1131     -970     -814     -708     -688     -724 
