Origin Time       2025/03/30 10:18:00
Lat.              34.667
Long.             140.825
Depth. (km)       69
Mag.              4.9
Station Code      TKYH12
Station Lat.      35.6701
Station Long.     139.2650
Station Height(m) 63
Record Time       2025/03/30 10:19:21
Sampling Freq(Hz) 100Hz
Duration Time(s)  120
Dir.              2
Scale Factor      2942(gal)/8224139
Max. Acc. (gal)   0.179
Last Correction   2025/03/30 10:19:21
Memo.             
[...]
  164062   164104   164074   164058   164060   164033   164038   164079 
  164101   164116   164097   164052   164034   164033   164039   164068 
  164076   164030   163987   164010   164074   164095   164046   164007 
  164026   164076   164128   164137   164077   164020   163995   163966 
  163969   164015   164057   164076   164047   164000   164010   164057 
  164087   164089   164061   164022   164008   164027   164069   164108 
  164091   164025   163991   164012   164047   164088   164115   164106 
  164081   164061   164064   164089   164103   164089   164057   164043 
  164096   164158   164135   164057   164012   164004   164022   164037 
  164011   164004   164019   163999   163979   163980   163979   163991 
  164039   164093   164107   164120   164161   164161   164124   164108 
  164096   164087   164097   164092   164054   164016   164012   164026 
  164037   164037   164011   164006   164049   164049   163993   163969 
  163961   163956   163987   164033   164052   164046   164043   164068 
  164110   164142   164146   164106   164047   164029   164049   164062 
  164046   164033   164072   164137   164143   164100   164073   164066 
  164045   164003   163983   164011   164058   164074   164069   164073 
  164085   164074   164029   164006   164031   164053   164073   164079 
  164043   164027   164023   164010   164037   164074   164081   164066 
  164038   164035   164070   164093   164077   164047   164030   164020 
  164026   164023   164006   164047   164111   164116   164107   164099 
  164084   164080   164046   164000   164019   164066   164073   164046 
  164012   163996   163996   164012   164049   164069   164050   164045 
  164072   164083   164058   164045   164058   164065   164049   164029 
  164069   164150   164142   164042   163999   164046   164095   164097 
  164070   164045   164029   164015   164016   164046   164066   164056 
  164042   164047   164068   164072   164049   164026   164018   164046 
  164084   164069   164043   164045   164029   164000   164014   164049 
  164043   164041   164087   164139   164157   164119   164045   163989 
  163992   164027   164046   164045   164030   164026   164049   164073 
  164101   164124   164124   164100   164047   164039   164064   164038 
  164026   164027   163985   163971   163988   164008   164038   164039 
  164050   164093   164112   164110   164088   164035   164029   164070 
  164074   164054   164050   164041   164050   164097   164122   164112 
  164107   164106   164087   164057   164053   164062   164038   164006 
  163996   163992   163999   164039   164046   164008   164030   164079 
  164054   164034   164077   164112   164092   164058   164052   164069 
  164079   164062   164033   164019   164042   164079   164097   164108 
  164108   164068   164025   164019   164016   164015   164041   164054 
  164037   164016   164015   164029   164066   164116   164135   164116 
  164099   164092   164073   164061   164077   164070   164026   164016 
  164042   164056   164050   164026   164000   164002   164022   164066 
  164116   164111   164050   164010   164027   164058   164056   164047 
  164066   164070   164038   164006   163993   164006   164033   164068 
  164115   164115   164056   164027   164042   164053   164062   164065 
  164043   164034   164066   164091   164069   164035   164026   164037 
  164061   164088   164074   164046   164053   164049   164029   164037 
  164026   164012   164056   164096   164099   164101   164095   164070 
  164066   164081   164079   164070   164068   164035   164007   164019 
  164016   164000   164031   164089   164095   164050   164037   164073 
  164091   164061   164022   164012   164033   164025   163992   163987 
  164019   164079   164103   164073   164064   164081   164085   164092 
  164106   164091   164042   164022   164049   164072   164066   164045 
  164046   164065   164053   164057   164095   164101   164083   164058 
  164046   164052   164022   163971   163962   163991   164023   164041 
  164047   164060   164072   164052   164026   164077   164133   164101 
  164080   164101   164077   164042   164058   164096   164134   164139 
  164083   164043   164056   164064   164061   164046   164022   164049 
  164092   164068   164000   163966   163998   164037   164025   163996 
  164011   164057   164092   164110   164116   164108   164080   164047 
  164041   164045   164012   163993   164052   164096   164069   164037 
  164039   164066   164081   164072   164080   164099   164077   164023 
  164011   164060   164093   164074   164052   164042   164035   164054 
  164072   164069   164061   164049   164057   164060   164022   164003 
  164012   164030   164049   164006   163954   163988   164034   164061 
  164080   164062   164076   164151   164173   164101   164045   164053 
  164076   164100   164104   164065   164052   164058   164023   164012 
  164068   164119   164127   164097   164052   164029   164023   164030 
  164058   164061   164038   164033   164007   163985   164026   164054 
  164039   164038   164038   164042   164056   164042   164022   164029 
  164041   164054   164049   164012   164008   164045   164062   164064 
  164054   164022   164046   164135   164174   164135   164060   164006 
  164025   164087   164115   164089   164053   164058   164066   164047 
  164025   163991   163976   164019   164039   164010   164008   164020 
  164006   163996   164003   164012   164019   164043   164096   164108 
  164068   164045   164066   164095   164111   164139   164137   164083 
  164058   164068   164066   164070   164085   164080   164061   164043 
  164011   163993   164007   163996   163999   164050   164088   164095 
  164074   164045   164056   164099   164126   164100   164053   164035 
  164041   164066   164076   164027   163999   164043   164095   164112 
  164126   164133   164110   164065   164020   164029   164046   163999 
  163972   164007   164030   164054   164074   164064   164079   164091 
  164038   163996   164035   164081   164068   164034   164010   164012 
  164031   164047   164092   164127   164097   164054   164047   164054 
  164047   164041   164042   164061   164091   164079   164049   164049 
  164049   164060   164087   164088   164065   164033   164004   164008 
  164025   164003   163953   163946   163989   164035   164057   164052 
  164047   164074   164092   164069   164042   164045   164070   164104 
  164118   164085   164018   163995   164079   164160   164142   164104 
  164087   164068   164070   164083   164070   164056   164041   164007 
  163987   163991   163988   164016   164085   164099   164039   163984 
  163977   164016   164049   164026   163998   164031   164079   164072 
  164035   164029   164056   164083   164088   164083   164081   164087 
  164085   164072   164056   164066   164118   164170   164154   164087 
  164057   164053   164050   164070   164080   164050   164018   164029 
  164043   164035   164043   164060   164058   164050   164030   164008 
  163999   164007   164033   164047   164060   164083   164101   164095 
  164062   164022   164008   164041   164052   164011   164014   164056 
  164074   164091   164092   164074   164072   164072   164066   164076 
  164077   164043   164035   164061   164056   164045   164041   164020 
  164035   164087   164119   164118   164073   164019   164002   164010 
  164014   164002   164007   164035   164060   164091   164101   164079 
  164069   164074   164084   164112   164123   164084   164041   164042 
  164049   164046   164068   164081   164064   164046   164031   164029 
  164052   164062   164056   164034   164010   164037   164074   164074 
  164087   164099   164070   164042   164019   164019   164060   164061 
  164038   164056   164045   164008   164022   164065   164091   164077 
  164034   164043   164089   164084   164056   164038   164006   163992 
  163999   164011   164049   164054   164006   163988   164006   164029 
  164064   164092   164085   164080   164107   164108   164057   163999 
  163973   164022   164100   164101   164077   164095   164100   164106 
  164130   164134   164133   164108   164047   164027   164037   164025 
  164007   163996   163996   164022   164046   164046   164046   164043 
  164019   164002   164010   164023   164043   164084   164114   164104 
  164087   164083   164070   164047   164033   164035   164060   164091 
  164101   164066   164018   163987   163980   164018   164066   164072 
  164058   164034   164015   164035   164062   164080   164080   164056 
  164047   164050   164034   164030   164042   164062   164107   164130 
  164108   164103   164097   164066   164066   164065   164025   164006 
  164020   164035   164037   164034   164054   164074   164058   164039 
  164037   164016   164000   164031   164060   164046   164029   164031 
  164070   164106   164088   164054   164045   164052   164064   164087 
  164108   164093   164050   164027   164031   164029   164020   164006 
  163988   164004   164047   164073   164065   164035   164033   164057 
  164058   164058   164088   164096   164076   164076   164088   164069 
  164050   164073   164112   164134   164115   164074   164079   164096 
  164072   164052   164041   164027   164041   164057   164046   164046 
  164057   164049   164015   163983   163984   164025   164077   164108 
  164115   164120   164118   164095   164085   164070   164025   164015 
  164066   164112   164106   164068   164065   164091   164069   164007 
  163971   163966   163972   163977   163975   163985   164022   164054 
  164076   164096   164106   164089   164070   164068   164062   164056 
  164060   164050   164008   163996   164042   164074   164089   164120 
  164123   164097   164069   164064   164083   164070   164039   164038 
  164031   164002   164006   164050   164080   164089   164107   164116 
  164106   164072   164043   164072   164104   164091   164080   164104 
  164110   164052   164006   164045   164104   164116   164092   164073 
  164089   164087   164045   164030   164019   163969   163933   163965 
  164033   164050   164029   164025   164023   164027   164061   164084 
  164093   164114   164118   164096   164093   164107   164099   164065 
  164018   163979   163973   163977   163976   163981   163979   163962 
  163941   163903   163864   163857   163877   163907   163956   164008 
  164031   164014   163991   163981   163979   164003   164025   164033 
  164093   164169   164173   164147   164134   164124   164145   164153 
  164100   164069   164093   164100   164080   164072   164072   164039 
  163999   163989   163985   163987   164012   164041   164054   164052 
  164035   164010   164000   164015   164033   164041   164046   164085 
  164166   164211   164181   164118   164069   164091   164139   164133 
  164108   164112   164114   164119   164145   164178   164209   164218 
  164196   164178   164192   164212   164195   164120   164035   164000 
  163972   163931   163942   163965   163935   163896   163899   163935 
  163975   163985   163941   163880   163861   163865   163908   164014 
  164103   164137   164142   164145   164160   164155   164139   164151 
  164162   164149   164135   164138   164157   164139   164060   164014 
  164004   163944   163880   163885   163908   163918   163938   163961 
  163972   163966   163946   163964   164025   164072   164100   164124 
  164130   164120   164116   164104   164069   164043   164057   164092 
  164116   164122   164128   164138   164122   164085   164035   164014 
  164043   164080   164127   164161   164124   164079   164062   164057 
  164080   164107   164101   164068   164046   164061   164066   164038 
  164015   164008   164003   164014   164064   164124   164135   164097 
  164058   164034   164006   163996   164007   163993   164002   164037 
  164031   164045   164103   164130   164123   164124   164126   164119 
  164115   164099   164072   164054   164045   164049   164057   164046 
  164042   164037   164011   163984   163976   163979   163973   163972 
  163953   163890   163857   163858   163850   163885   163948   163971 
  163981   164016   164088   164180   164228   164195   164146   164143 
  164135   164103   164091   164100   164107   164110   164114   164131 
  164160   164188   164212   164220   164204   164177   164151   164124 
  164108   164111   164107   164079   164069   164077   164046   163969 
  163894   163883   163917   163948   164011   164081   164095   164081 
  164065   164050   164025   163995   164000   164011   163996   163983 
  163981   164000   164030   164061   164106   164139   164137   164107 
  164054   164018   164035   164092   164142   164146   164110   164041 
  163934   163842   163811   163803   163817   163871   163918   163925 
  163919   163938   163999   164093   164182   164226   164222   164188 
  164151   164139   164165   164188   164154   164084   164041   164038 
  164072   164118   164137   164126   164088   164033   164007   164015 
  164034   164057   164096   164162   164246   164297   164289   164246 
  164177   164070   163972   163939   163953   163954   163939   163927 
  163926   163921   163876   163813   163753   163702   163717   163814 
  163931   164072   164243   164386   164442   164427   164425   164431 
  164404   164389   164388   164371   164343   164263   164137   164016 
  163907   163802   163717   163669   163656   163656   163659   163686 
  163736   163769   163791   163811   163786   163736   163742   163841 
  164000   164134   164184   164235   164353   164436   164461   164504 
  164547   164555   164539   164469   164351   164239   164120   163988 
  163919   163934   163981   164041   164072   164038   164010   163999 
  163938   163860   163796   163734   163733   163777   163790   163825 
  163914   163993   164046   164076   164084   164106   164151   164203 
  164232   164199   164142   164128   164134   164107   164039   163958 
  163925   163945   163960   163957   163949   163942   163968   164043 
  164130   164176   164182   164187   164192   164189   164200   164208 
  164197   164184   164134   164030   163954   163972   164034   164087 
  164123   164134   164120   164096   164060   164014   163972   163953 
  163965   163981   163962   163925   163938   164000   164058   164093 
  164073   164045   164064   164077   164100   164138   164130   164101 
  164088   164066   164031   163991   163976   163993   164012   164012 
  163983   163980   164041   164116   164164   164170   164146   164119 
  164097   164099   164107   164092   164088   164100   164089   164077 
  164097   164126   164112   164060   164029   164031   164018   163998 
  164022   164083   164108   164077   164050   164034   163991   163946 
  163944   163976   164010   164004   163979   163957   163935   163933 
  163972   164037   164101   164126   164084   164030   164023   164026 
  164022   164030   164033   164004   163954   163914   163908   163941 
  163989   164029   164079   164154   164223   164242   164205   164166 
  164142   164092   164026   163992   164029   164081   164100   164097 
  164088   164096   164128   164134   164110   164057   163979   163926 
  163927   163983   164046   164072   164054   164025   164029   164043 
  164034   164037   164066   164111   164147   164130   164083   164062 
  164069   164087   164099   164103   164133   164182   164196   164160 
  164116   164099   164072   164004   163934   163903   163925   164004 
  164072   164074   164080   164104   164087   164035   163992   163972 
  163980   164012   164058   164070   164047   164049   164062   164023 
  163956   163914   163891   163903   163945   163957   163953   163966 
  163995   164053   164133   164220   164299   164305   164224   164119 
  164064   164054   164043   164039   164038   164026   164025   164064 
  164120   164150   164137   164061   163983   163985   164035   164062 
  164068   164070   164097   164130   164111   164066   164041   164014 
  164007   164052   164100   164110   164091   164068   164050   164041 
  164043   164056   164088   164115   164092   164052   164020   163993 
  163981   163980   163985   164007   164049   164101   164141   164151 
  164128   164100   164087   164056   163989   163926   163904   163911 
  163925   163953   163966   163938   163908   163898   163906   163927 
  163954   164008   164089   164120   164091   164087   164131   164189 
  164247   164268   164226   164162   164126   164142   164165   164134 
  164104   164123   164134   164091   164022   163961   163914   163892 
  163919   163968   164015   164054   164064   164033   164010   164034 
  164077   164118   164138   164128   164123   164112   164087   164096 
  164128   164158   164196   164232   164255   164241   164191   164149 
  164127   164097   164038   163979   163926   163871   163837   163834 
  163871   163925   163927   163894   163891   163908   163907   163908 
  163919   163902   163880   163907   163980   164045   164076   164116 
  164177   164188   164149   164143   164182   164212   164201   164178 
  164182   164236   164312   164319   164253   164187   164122   164080 
  164076   164045   163998   163969   163915   163849   163838   163877 
  163931   163993   164038   164033   163999   163958   163948   163984 
  164041   164101   164174   164205   164143   164056   164012   164007 
  164034   164085   164119   164112   164061   163991   163949   163935 
  163926   163938   163985   164019   164022   164022   164020   164033 
  164069   164101   164116   164119   164137   164177   164185   164168 
  164154   164119   164072   164047   164043   164045   164035   164023 
  164014   163993   163971   163971   164029   164134   164191   164143 
  164076   164052   164033   164015   164015   163993   163971   163992 
  164022   164053   164103   164139   164153   164168   164176   164151 
  164118   164093   164054   164004   163975   163981   164033   164083 
  164087   164088   164130   164174   164165   164133   164123   164115 
  164114   164116   164084   164043   164023   163996   163957   163929 
  163895   163869   163888   163944   164000   164025   164020   164023 
  164019   163981   163952   163950   163937   163929   163976   164034 
  164054   164079   164107   164111   164107   164100   164092   164076 
  164052   164045   164031   163991   163961   163960   163996   164073 
  164150   164201   164232   164227   164196   164145   164084   164049 
  164037   164015   163992   164004   164046   164068   164070   164083 
  164081   164064   164068   164123   164196   164204   164145   164089 
  164070   164039   163998   164000   164033   164070   164120   164151 
  164176   164203   164182   164114   164037   163987   163968   163962 
  163958   163969   163995   164004   164004   164023   164027   164003 
  163984   163983   163992   164008   164047   164097   164103   164066 
  164025   163999   164018   164068   164093   164084   164066   164043 
  164014   163988   163993   164029   164054   164061   164062   164034 
  163991   163964   163942   163935   163972   164042   164091   164096 
  164116   164149   164143   164122   164127   164160   164174   164142 
  164099   164066   164027   163991   163968   163958   163973   164026 
  164077   164087   164069   164038   164016   164023   164034   164019 
  164008   164049   164108   164119   164106   164108   164111   164095 
  164073   164080   164108   164116   164101   164083   164038   163971 
