Origin Time       2025/03/30 10:18:00
Lat.              34.667
Long.             140.825
Depth. (km)       69
Mag.              4.9
Station Code      TKYH12
Station Lat.      35.6701
Station Long.     139.2650
Station Height(m) 63
Record Time       2025/03/30 10:19:21
Sampling Freq(Hz) 100Hz
Duration Time(s)  120
Dir.              3
Scale Factor      2942(gal)/8224139
Max. Acc. (gal)   0.125
Last Correction   2025/03/30 10:19:21
Memo.             
   -8478    -8468    -8455    -8444    -8419    -8407    -8432    -8475 
   -8517    -8544    -8550    -8530    -8469    -8409    -8424    -8494 
   -8538    -8538    -8530    -8529    -8525    -8538    -8568    -8554 
   -8484    -8395    -8338    -8379    -8488    -8560    -8581    -8583 
   -8561    -8532    -8507    -8494    -8498    -8490    -8446    -8406 
   -8390    -8376    -8397    -8460    -8492    -8464    -8434    -8441 
   -8422    -8356    -8333    -8375    -8413    -8451    -8492    -8513 
   -8532    -8534    -8526    -8561    -8569    -8500    -8445    -8453 
   -8492    -8534    -8546    -8505    -8438    -8398    -8413    -8483 
   -8556    -8557    -8513    -8495    -8499    -8491    -8469    -8432 
   -8388    -8365    -8387    -8434    -8479    -8521    -8545    -8536 
   -8527    -8536    -8514    -8463    -8438    -8459    -8498    -8518 
   -8514    -8519    -8518    -8471    -8421    -8426    -8456    -8467 
   -8487    -8507    -8495    -8505    -8521    -8500    -8505    -8514 
   -8461    -8425    -8434    -8417    -8413    -8472    -8503    -8464 
   -8425    -8429    -8436    -8426    -8421    -8413    -8411    -8446 
   -8499    -8514    -8483    -8459    -8482    -8517    -8522    -8510 
   -8509    -8529    -8537    -8503    -8461    -8460    -8506    -8544 
   -8518    -8464    -8433    -8428    -8440    -8459    -8455    -8437 
   -8415    -8388    -8388    -8418    -8421    -8424    -8471    -8514 
   -8503    -8472    -8502    -8583    -8592    -8534    -8515    -8521 
   -8491    -8464    -8460    -8469    -8495    -8510    -8534    -8571 
   -8533    -8453    -8432    -8441    -8463    -8496    -8465    -8392 
   -8367    -8407    -8492    -8552    -8513    -8410    -8353    -8397 
   -8464    -8479    -8488    -8532    -8560    -8575    -8592    -8573 
   -8506    -8436    -8390    -8394    -8438    -8451    -8430    -8456 
   -8525    -8556    -8518    -8482    -8459    -8395    -8380    -8460 
   -8505    -8495    -8515    -8538    -8526    -8502    -8476    -8415 
   -8338    -8329    -8397    -8468    -8500    -8502    -8484    -8469 
   -8463    -8464    -8484    -8514    -8495    -8440    -8457    -8548 
   -8577    -8542    -8521    -8500    -8486    -8502    -8510    -8498 
   -8498    -8502    -8491    -8487    -8488    -8461    -8440    -8461 
   -8472    -8451    -8434    -8449    -8490    -8506    -8459    -8392 
   -8382    -8407    -8403    -8401    -8434    -8448    -8433    -8463 
   -8537    -8559    -8511    -8490    -8510    -8491    -8469    -8502 
   -8479    -8407    -8422    -8445    -8428    -8468    -8513    -8505 
   -8503    -8514    -8522    -8536    -8550    -8545    -8513    -8490 
   -8487    -8475    -8487    -8511    -8482    -8441    -8452    -8490 
   -8527    -8537    -8500    -8455    -8429    -8433    -8465    -8491 
   -8486    -8464    -8446    -8424    -8401    -8426    -8495    -8515 
   -8465    -8428    -8448    -8473    -8444    -8401    -8399    -8437 
   -8496    -8525    -8503    -8503    -8532    -8527    -8523    -8548 
   -8513    -8425    -8418    -8475    -8500    -8510    -8506    -8464 
   -8445    -8478    -8476    -8437    -8467    -8542    -8529    -8452 
   -8428    -8437    -8456    -8494    -8479    -8433    -8444    -8438 
   -8386    -8405    -8488    -8526    -8494    -8482    -8525    -8532 
   -8499    -8506    -8513    -8483    -8494    -8533    -8530    -8506 
   -8490    -8499    -8526    -8499    -8463    -8517    -8560    -8500 
   -8453    -8475    -8491    -8494    -8521    -8540    -8519    -8483 
   -8441    -8398    -8387    -8419    -8475    -8499    -8468    -8457 
   -8491    -8507    -8507    -8527    -8536    -8467    -8384    -8388 
   -8411    -8368    -8345    -8390    -8422    -8437    -8475    -8514 
   -8509    -8440    -8390    -8438    -8469    -8424    -8413    -8425 
   -8419    -8460    -8530    -8561    -8537    -8500    -8496    -8503 
   -8499    -8502    -8517    -8552    -8572    -8510    -8432    -8417 
   -8433    -8460    -8476    -8436    -8382    -8382    -8432    -8486 
   -8505    -8490    -8471    -8479    -8490    -8483    -8482    -8490 
   -8509    -8525    -8510    -8494    -8486    -8469    -8506    -8571 
   -8568    -8532    -8518    -8505    -8464    -8414    -8419    -8487 
   -8507    -8453    -8444    -8505    -8536    -8511    -8492    -8479 
   -8438    -8432    -8467    -8468    -8449    -8440    -8421    -8448 
   -8514    -8532    -8499    -8465    -8460    -8483    -8476    -8460 
   -8472    -8449    -8391    -8409    -8488    -8500    -8451    -8463 
   -8523    -8510    -8430    -8415    -8492    -8532    -8475    -8457 
   -8510    -8476    -8413    -8479    -8554    -8522    -8459    -8414 
   -8421    -8494    -8548    -8533    -8484    -8457    -8496    -8546 
   -8540    -8498    -8437    -8407    -8451    -8505    -8506    -8476 
   -8446    -8449    -8469    -8465    -8445    -8448    -8461    -8445 
   -8433    -8482    -8525    -8492    -8451    -8452    -8464    -8492 
   -8529    -8507    -8434    -8411    -8479    -8532    -8510    -8473 
   -8449    -8441    -8464    -8503    -8538    -8548    -8509    -8448 
   -8419    -8432    -8456    -8479    -8491    -8475    -8468    -8507 
   -8538    -8548    -8537    -8479    -8444    -8491    -8548    -8530 
   -8460    -8456    -8526    -8514    -8421    -8383    -8386    -8376 
   -8383    -8421    -8475    -8491    -8465    -8448    -8428    -8403 
   -8426    -8486    -8519    -8514    -8514    -8527    -8498    -8446 
   -8469    -8538    -8560    -8534    -8536    -8554    -8514    -8487 
   -8569    -8621    -8536    -8429    -8383    -8399    -8457    -8492 
   -8471    -8394    -8291    -8268    -8356    -8442    -8463    -8436 
   -8418    -8469    -8532    -8538    -8536    -8506    -8434    -8425 
   -8469    -8449    -8426    -8490    -8556    -8542    -8499    -8499 
   -8522    -8530    -8553    -8559    -8510    -8469    -8452    -8434 
   -8436    -8419    -8394    -8409    -8415    -8417    -8461    -8482 
   -8425    -8361    -8380    -8482    -8541    -8510    -8469    -8459 
   -8455    -8476    -8530    -8533    -8445    -8406    -8496    -8575 
   -8584    -8587    -8559    -8515    -8526    -8563    -8575    -8502 
   -8375    -8361    -8459    -8517    -8517    -8460    -8386    -8405 
   -8480    -8496    -8459    -8425    -8425    -8455    -8496    -8522 
   -8499    -8446    -8415    -8411    -8448    -8518    -8552    -8548 
   -8565    -8592    -8592    -8552    -8479    -8441    -8452    -8425 
   -8376    -8413    -8483    -8513    -8540    -8549    -8495    -8434 
   -8437    -8467    -8459    -8437    -8434    -8417    -8402    -8452 
   -8490    -8440    -8399    -8437    -8475    -8467    -8445    -8428 
   -8425    -8444    -8478    -8515    -8546    -8540    -8513    -8519 
   -8525    -8502    -8490    -8506    -8546    -8564    -8517    -8479 
   -8478    -8465    -8467    -8503    -8518    -8491    -8460    -8444 
   -8437    -8442    -8476    -8529    -8546    -8467    -8367    -8375 
   -8465    -8517    -8484    -8415    -8387    -8406    -8425    -8436 
   -8441    -8410    -8368    -8387    -8468    -8527    -8498    -8441 
   -8464    -8511    -8527    -8549    -8556    -8526    -8478    -8449 
   -8498    -8573    -8572    -8530    -8513    -8509    -8525    -8522 
   -8469    -8434    -8430    -8436    -8468    -8473    -8446    -8459 
   -8484    -8472    -8463    -8472    -8467    -8456    -8457    -8459 
   -8429    -8380    -8384    -8440    -8472    -8471    -8482    -8519 
   -8542    -8533    -8550    -8571    -8523    -8451    -8425    -8449 
   -8471    -8451    -8452    -8482    -8476    -8498    -8580    -8591 
   -8506    -8452    -8453    -8444    -8430    -8425    -8401    -8375 
   -8382    -8425    -8494    -8518    -8463    -8405    -8405    -8460 
   -8521    -8505    -8446    -8432    -8452    -8488    -8525    -8522 
   -8494    -8463    -8460    -8503    -8542    -8541    -8511    -8468 
   -8445    -8468    -8491    -8479    -8460    -8444    -8449    -8484 
   -8488    -8487    -8515    -8510    -8473    -8452    -8426    -8422 
   -8459    -8479    -8480    -8499    -8519    -8521    -8552    -8622 
   -8653    -8595    -8511    -8430    -8372    -8414    -8478    -8467 
   -8455    -8446    -8415    -8429    -8499    -8571    -8591    -8532 
   -8468    -8471    -8476    -8419    -8367    -8383    -8426    -8437 
   -8444    -8479    -8479    -8434    -8433    -8484    -8496    -8452 
   -8406    -8399    -8421    -8421    -8403    -8413    -8422    -8419 
   -8464    -8521    -8521    -8511    -8541    -8576    -8587    -8563 
   -8532    -8525    -8522    -8491    -8478    -8505    -8514    -8511 
   -8525    -8519    -8511    -8515    -8495    -8490    -8502    -8445 
   -8349    -8325    -8382    -8461    -8506    -8500    -8469    -8424 
   -8398    -8421    -8440    -8413    -8370    -8378    -8451    -8526 
   -8552    -8526    -8490    -8488    -8496    -8471    -8446    -8440 
   -8418    -8429    -8488    -8519    -8511    -8511    -8540    -8560 
   -8526    -8475    -8460    -8461    -8473    -8482    -8476    -8499 
   -8525    -8511    -8502    -8526    -8542    -8536    -8498    -8440 
   -8421    -8434    -8436    -8460    -8499    -8499    -8492    -8509 
   -8515    -8499    -8464    -8418    -8394    -8401    -8411    -8426 
   -8467    -8494    -8490    -8509    -8541    -8511    -8441    -8417 
   -8455    -8486    -8491    -8506    -8498    -8440    -8417    -8475 
   -8526    -8521    -8490    -8460    -8451    -8476    -8514    -8513 
   -8464    -8421    -8424    -8469    -8526    -8525    -8471    -8476 
   -8532    -8529    -8498    -8483    -8442    -8426    -8476    -8506 
   -8500    -8499    -8480    -8446    -8449    -8496    -8538    -8518 
   -8448    -8399    -8395    -8437    -8478    -8460    -8414    -8399 
   -8424    -8467    -8510    -8527    -8494    -8433    -8424    -8484 
   -8541    -8523    -8461    -8428    -8442    -8464    -8449    -8419 
   -8429    -8460    -8494    -8530    -8526    -8490    -8486    -8507 
   -8492    -8445    -8426    -8430    -8433    -8461    -8513    -8527 
   -8482    -8430    -8417    -8425    -8432    -8433    -8405    -8361 
   -8364    -8405    -8432    -8456    -8473    -8460    -8440    -8424 
   -8422    -8464    -8510    -8522    -8500    -8440    -8405    -8441 
   -8490    -8492    -8473    -8475    -8475    -8469    -8510    -8571 
   -8557    -8495    -8498    -8549    -8583    -8591    -8564    -8546 
   -8550    -8519    -8482    -8490    -8496    -8475    -8465    -8513 
   -8567    -8549    -8534    -8590    -8608    -8567    -8540    -8537 
   -8536    -8498    -8436    -8429    -8448    -8455    -8484    -8473 
   -8403    -8391    -8415    -8392    -8387    -8448    -8510    -8502 
   -8429    -8392    -8417    -8425    -8432    -8478    -8511    -8502 
   -8492    -8495    -8475    -8451    -8446    -8429    -8407    -8442 
   -8499    -8483    -8451    -8498    -8549    -8542    -8513    -8471 
   -8449    -8476    -8487    -8445    -8424    -8460    -8519    -8576 
   -8598    -8567    -8498    -8448    -8445    -8480    -8526    -8500 
   -8411    -8406    -8459    -8453    -8449    -8472    -8457    -8434 
   -8448    -8456    -8433    -8434    -8517    -8603    -8592    -8533 
   -8483    -8451    -8464    -8491    -8495    -8517    -8513    -8451 
   -8436    -8480    -8472    -8421    -8402    -8410    -8436    -8484 
   -8522    -8518    -8465    -8399    -8353    -8340    -8395    -8483 
   -8487    -8440    -8455    -8498    -8478    -8425    -8407    -8414 
   -8411    -8419    -8488    -8611    -8694    -8680    -8634    -8598 
   -8518    -8411    -8363    -8371    -8386    -8422    -8515    -8603 
   -8614    -8588    -8565    -8513    -8461    -8456    -8468    -8486 
   -8492    -8488    -8519    -8523    -8428    -8313    -8270    -8298 
   -8374    -8456    -8492    -8469    -8428    -8428    -8475    -8517 
   -8503    -8461    -8461    -8532    -8646    -8723    -8683    -8590 
   -8549    -8514    -8428    -8352    -8363    -8418    -8434    -8461 
   -8557    -8596    -8490    -8375    -8375    -8424    -8440    -8442 
   -8455    -8459    -8429    -8388    -8395    -8438    -8453    -8418 
   -8379    -8402    -8483    -8550    -8568    -8565    -8561    -8544 
   -8509    -8468    -8428    -8384    -8360    -8379    -8457    -8536 
   -8538    -8533    -8567    -8569    -8534    -8506    -8506    -8521 
   -8494    -8478    -8536    -8569    -8529    -8479    -8433    -8383 
   -8341    -8324    -8347    -8376    -8391    -8414    -8413    -8375 
   -8397    -8509    -8610    -8614    -8573    -8561    -8565    -8544 
   -8475    -8399    -8368    -8359    -8372    -8473    -8590    -8607 
   -8563    -8534    -8568    -8631    -8661    -8656    -8629    -8580 
   -8560    -8575    -8544    -8461    -8376    -8278    -8174    -8128 
   -8164    -8248    -8325    -8356    -8333    -8294    -8306    -8378 
   -8456    -8507    -8519    -8511    -8529    -8577    -8621    -8608 
   -8537    -8490    -8491    -8515    -8588    -8668    -8687    -8667 
   -8630    -8595    -8556    -8484    -8424    -8415    -8417    -8422 
   -8484    -8564    -8542    -8449    -8386    -8318    -8229    -8240 
   -8394    -8552    -8600    -8575    -8540    -8505    -8451    -8406 
   -8390    -8368    -8337    -8347    -8405    -8484    -8542    -8545 
   -8507    -8448    -8367    -8314    -8325    -8356    -8388    -8444 
   -8525    -8603    -8635    -8623    -8576    -8518    -8529    -8588 
   -8607    -8606    -8583    -8523    -8496    -8482    -8441    -8440 
   -8482    -8492    -8476    -8523    -8621    -8653    -8610    -8567 
   -8540    -8525    -8525    -8527    -8540    -8550    -8544    -8537 
   -8527    -8479    -8378    -8249    -8174    -8181    -8244    -8325 
   -8386    -8422    -8445    -8457    -8464    -8448    -8413    -8414 
   -8457    -8519    -8590    -8634    -8640    -8646    -8669    -8680 
   -8656    -8622    -8603    -8583    -8530    -8453    -8388    -8348 
   -8311    -8268    -8229    -8209    -8228    -8284    -8348    -8405 
   -8461    -8529    -8599    -8650    -8684    -8688    -8642    -8542 
   -8428    -8372    -8383    -8386    -8341    -8309    -8334    -8372 
   -8379    -8391    -8445    -8523    -8575    -8579    -8572    -8550 
   -8468    -8370    -8345    -8372    -8409    -8449    -8464    -8459 
   -8461    -8472    -8506    -8541    -8559    -8600    -8637    -8637 
   -8649    -8634    -8559    -8495    -8472    -8440    -8388    -8379 
   -8411    -8424    -8434    -8492    -8561    -8575    -8530    -8483 
   -8446    -8428    -8468    -8541    -8588    -8602    -8587    -8564 
   -8544    -8502    -8471    -8484    -8522    -8569    -8577    -8506 
   -8446    -8432    -8403    -8421    -8471    -8437    -8370    -8347 
   -8333    -8336    -8347    -8324    -8298    -8291    -8298    -8359 
   -8434    -8464    -8471    -8473    -8475    -8480    -8472    -8461 
   -8476    -8492    -8487    -8488    -8540    -8603    -8622    -8630 
   -8652    -8645    -8603    -8554    -8506    -8484    -8498    -8503 
   -8502    -8518    -8514    -8457    -8421    -8448    -8457    -8401 
   -8363    -8401    -8433    -8395    -8352    -8349    -8364    -8388 
   -8417    -8455    -8490    -8478    -8463    -8503    -8534    -8521 
   -8514    -8523    -8519    -8522    -8563    -8608    -8635    -8657 
   -8650    -8613    -8590    -8613    -8635    -8599    -8561    -8575 
   -8577    -8522    -8446    -8406    -8380    -8307    -8226    -8217 
   -8267    -8328    -8364    -8347    -8286    -8226    -8233    -8305 
   -8390    -8461    -8499    -8519    -8568    -8634    -8687    -8699 
   -8642    -8569    -8548    -8556    -8568    -8584    -8587    -8548 
   -8498    -8472    -8433    -8361    -8290    -8251    -8257    -8283 
   -8313    -8356    -8398    -8421    -8438    -8482    -8521    -8491 
   -8453    -8482    -8510    -8529    -8599    -8672    -8679    -8654 
   -8661    -8691    -8665    -8591    -8571    -8580    -8548    -8510 
   -8486    -8484    -8529    -8540    -8463    -8379    -8345    -8361 
   -8390    -8364    -8309    -8294    -8310    -8321    -8330    -8384 
   -8464    -8496    -8517    -8569    -8591    -8564    -8556    -8590 
   -8621    -8599    -8530    -8468    -8461    -8499    -8540    -8567 
   -8576    -8594    -8599    -8544    -8494    -8484    -8461    -8426 
   -8367    -8279    -8245    -8257    -8256    -8274    -8309    -8297 
   -8243    -8229    -8290    -8365    -8421    -8488    -8569    -8641 
   -8704    -8752    -8758    -8715    -8626    -8527    -8472    -8449 
   -8448    -8478    -8486    -8433    -8378    -8374    -8403    -8413 
   -8390    -8384    -8387    -8367    -8382    -8445    -8483    -8471 
   -8465    -8507    -8546    -8542    -8545    -8575    -8587    -8586 
   -8573    -8530    -8494    -8463    -8451    -8525    -8608    -8622 
   -8604    -8560    -8523    -8546    -8576    -8599    -8626    -8619 
   -8587    -8554    -8525    -8526    -8546    -8550    -8536    -8509 
   -8459    -8386    -8302    -8226    -8206    -8249    -8295    -8325 
   -8334    -8344    -8390    -8445    -8469    -8484    -8491    -8464 
   -8418    -8410    -8442    -8476    -8500    -8505    -8480    -8461 
   -8478    -8503    -8494    -8455    -8426    -8410    -8392    -8405 
   -8430    -8426    -8422    -8438    -8451    -8448    -8446    -8459 
   -8486    -8496    -8491    -8483    -8467    -8467    -8498    -8521 
   -8540    -8579    -8591    -8546    -8515    -8536    -8559    -8559 
   -8542    -8542    -8572    -8595    -8627    -8668    -8641    -8560 
   -8500    -8469    -8442    -8399    -8343    -8311    -8317    -8326 
   -8328    -8345    -8370    -8371    -8383    -8451    -8530    -8546 
   -8526    -8519    -8496    -8464    -8469    -8498    -8487    -8475 
   -8521    -8560    -8550    -8529    -8514    -8529    -8548    -8522 
   -8502    -8502    -8452    -8399    -8394    -8388    -8397    -8436 
   -8457    -8472    -8482    -8469    -8503    -8577    -8592    -8572 
   -8573    -8572    -8541    -8522    -8548    -8568    -8545    -8514 
   -8498    -8505    -8526    -8525    -8479    -8414    -8387    -8403 
   -8417    -8413    -8413    -8426    -8437    -8424    -8406    -8409 
   -8395    -8353    -8324    -8332    -8387    -8432    -8425    -8425 
   -8461    -8491    -8499    -8499    -8507    -8506    -8478    -8471 
   -8486    -8484    -8496    -8507    -8483    -8484    -8510    -8498 
   -8479    -8486    -8491    -8484    -8463    -8432    -8436    -8479 
   -8475    -8407    -8359    -8365    -8384    -8397    -8432    -8491 
   -8549    -8572    -8567    -8606    -8676    -8671    -8603    -8575 
   -8587    -8581    -8549    -8529    -8548    -8600    -8640    -8626 
   -8604    -8617    -8614    -8561    -8482    -8419    -8371    -8324 
   -8291    -8271    -8272    -8305    -8322    -8306    -8303    -8325 
   -8329    -8309    -8317    -8363    -8376    -8332    -8321    -8378 
   -8441    -8494    -8544    -8573    -8591    -8599    -8599    -8604 
   -8608    -8610    -8626    -8641    -8642    -8646    -8617    -8537 
   -8475    -8482    -8532    -8557    -8525    -8473    -8441    -8406 
   -8376    -8374    -8352    -8299    -8275    -8290    -8329    -8379 
