Origin Time       2025/03/30 10:18:00
Lat.              34.667
Long.             140.825
Depth. (km)       69
Mag.              4.9
Station Code      TKYH12
Station Lat.      35.6701
Station Long.     139.2650
Station Height(m) 210
Record Time       2025/03/30 10:19:21
Sampling Freq(Hz) 100Hz
Duration Time(s)  120
Dir.              5
Scale Factor      7845(gal)/8223790
Max. Acc. (gal)   0.658
Last Correction   2025/03/30 10:19:21
Memo.             
[...]
   -3107    -3083    -3026    -2967    -2952    -2998    -3068    -3106 
   -3091    -3052    -3025    -3021    -3038    -3065    -3071    -3037 
   -2979    -2930    -2936    -3010    -3111    -3190    -3208    -3153 
   -3068    -3002    -2970    -2978    -3005    -3009    -2986    -2975 
   -2974    -2940    -2898    -2930    -3044    -3149    -3173    -3117 
   -3048    -3041    -3102    -3173    -3184    -3103    -2983    -2882 
   -2808    -2782    -2839    -2957    -3080    -3127    -3082    -3015 
   -3009    -3069    -3149    -3181    -3154    -3098    -3033    -2979 
   -2959    -2988    -3056    -3106    -3111    -3090    -3056    -3018 
   -3006    -3040    -3088    -3113    -3122    -3142    -3154    -3136 
   -3103    -3076    -3040    -2970    -2893    -2839    -2808    -2814 
   -2864    -2921    -2971    -3011    -3032    -3036    -3029    -3029 
   -3055    -3099    -3148    -3169    -3149    -3100    -3048    -3011 
   -3003    -3013    -3030    -3065    -3123    -3171    -3179    -3152 
   -3109    -3055    -2998    -2945    -2910    -2890    -2874    -2883 
   -2944    -3041    -3115    -3117    -3080    -3080    -3105    -3110 
   -3111    -3122    -3119    -3076    -3003    -2953    -2957    -2983 
   -2987    -2972    -2961    -2972    -2999    -3018    -3021    -3017 
   -3019    -3045    -3083    -3098    -3079    -3055    -3057    -3092 
   -3130    -3142    -3122    -3069    -3015    -3013    -3041    -3025 
   -2963    -2930    -2944    -2967    -2983    -2994    -3007    -3011 
   -2997    -2987    -3013    -3065    -3114    -3156    -3196    -3221 
   -3198    -3140    -3072    -3009    -2971    -2978    -2982    -2955 
   -2924    -2916    -2941    -2997    -3048    -3084    -3100    -3073 
   -3006    -2943    -2903    -2875    -2890    -2982    -3096    -3145 
   -3121    -3076    -3056    -3098    -3181    -3214    -3164    -3086 
   -3021    -2984    -2994    -3025    -3059    -3094    -3113    -3091 
   -3025    -2938    -2890    -2929    -3026    -3090    -3061    -2975 
   -2920    -2928    -2964    -3011    -3063    -3096    -3096    -3064 
   -3013    -2980    -3007    -3079    -3123    -3103    -3045    -2995 
   -2984    -3002    -3029    -3055    -3064    -3078    -3098    -3084 
   -3032    -2991    -2984    -3021    -3096    -3165    -3171    -3096 
   -3017    -3006    -3030    -3030    -3002    -2980    -2987    -2991 
   -2978    -2984    -3021    -3072    -3122    -3129    -3082    -3018 
   -2986    -2990    -3011    -3042    -3076    -3078    -3045    -3010 
   -2994    -3005    -3026    -3025    -3007    -2994    -2979    -2957 
   -2947    -2980    -3063    -3137    -3142    -3083    -3018    -2988 
   -2998    -3059    -3146    -3181    -3133    -3034    -2929    -2866 
   -2889    -2983    -3078    -3110    -3090    -3051    -3017    -3010 
   -3048    -3126    -3202    -3225    -3191    -3109    -3015    -2967 
   -2959    -2960    -2945    -2914    -2903    -2937    -2991    -3049 
   -3094    -3100    -3087    -3086    -3103    -3115    -3076    -2994 
   -2955    -2983    -3018    -3030    -3013    -2971    -2963    -3030 
   -3122    -3152    -3109    -3045    -3013    -3015    -3025    -3028 
   -3026    -3017    -3001    -3001    -3010    -3011    -3015    -3019 
   -3022    -3052    -3094    -3102    -3095    -3103    -3105    -3060 
   -2995    -2970    -2982    -2976    -2968    -2979    -2980    -2984 
   -3026    -3098    -3149    -3134    -3071    -3021    -3006    -3018 
   -3052    -3068    -3017    -2934    -2924    -3006    -3072    -3057 
   -3034    -3059    -3088    -3087    -3051    -2974    -2890    -2876 
   -2959    -3073    -3161    -3214    -3235    -3219    -3173    -3113 
   -3053    -3011    -2995    -2988    -2990    -2998    -2998    -3001 
   -3029    -3059    -3045    -2990    -2941    -2933    -2947    -2967 
   -2998    -3011    -3002    -2995    -3013    -3057    -3087    -3071 
   -3044    -3056    -3105    -3159    -3190    -3160    -3065    -2959 
   -2910    -2937    -2994    -3028    -3037    -3042    -3048    -3044 
   -3019    -2983    -2963    -2987    -3032    -3049    -3051    -3083 
   -3138    -3154    -3119    -3084    -3051    -2991    -2925    -2913 
   -2982    -3079    -3134    -3125    -3060    -2979    -2944    -2964 
   -2987    -3002    -3019    -3013    -2957    -2903    -2929    -3051 
   -3192    -3256    -3226    -3175    -3150    -3160    -3187    -3184 
   -3125    -3052    -3017    -3024    -3022    -2995    -2974    -2970 
   -2965    -2945    -2874    -2766    -2716    -2781    -2913    -3005 
   -3026    -3056    -3127    -3183    -3173    -3099    -3036    -3042 
   -3078    -3083    -3080    -3106    -3145    -3167    -3160    -3109 
   -3032    -2995    -3034    -3111    -3156    -3117    -3038    -3009 
   -3042    -3092    -3099    -3038    -2949    -2907    -2937    -2975 
   -2949    -2876    -2839    -2855    -2891    -2938    -2988    -3036 
   -3060    -3042    -3034    -3069    -3082    -3044    -3028    -3067 
   -3109    -3118    -3106    -3086    -3068    -3086    -3141    -3199 
   -3234    -3241    -3208    -3148    -3079    -3007    -2932    -2875 
   -2856    -2867    -2880    -2897    -2930    -2979    -3036    -3086 
   -3068    -2991    -2957    -2991    -3029    -3052    -3087    -3141 
   -3180    -3156    -3084    -3011    -2948    -2932    -2998    -3095 
   -3148    -3130    -3075    -3048    -3048    -3025    -2999    -3018 
   -3034    -2998    -2957    -2965    -2999    -3030    -3069    -3109 
   -3123    -3109    -3073    -3032    -3017    -3040    -3056    -3042 
   -3028    -3021    -3001    -2964    -2947    -2976    -3029    -3059 
   -3053    -3033    -3034    -3068    -3091    -3064    -2995    -2922 
   -2905    -2965    -3041    -3076    -3064    -3022    -3006    -3049 
   -3119    -3168    -3175    -3153    -3121    -3071    -2998    -2938 
   -2943    -3013    -3094    -3125    -3118    -3105    -3083    -3049 
   -3010    -2974    -2959    -2959    -2967    -3006    -3061    -3071 
   -3046    -3046    -3057    -3033    -2970    -2894    -2839    -2817 
   -2832    -2886    -2957    -3018    -3059    -3086    -3113    -3127 
   -3115    -3082    -3041    -3032    -3088    -3167    -3196    -3168 
   -3149    -3192    -3253    -3254    -3187    -3107    -3067    -3059 
   -3053    -3026    -2965    -2902    -2886    -2907    -2916    -2882 
   -2857    -2899    -2971    -3011    -3009    -2995    -3002    -3030 
   -3044    -3019    -2992    -2999    -3024    -3048    -3086    -3126 
   -3157    -3150    -3087    -3010    -2978    -2980    -3002    -3053 
   -3117    -3150    -3141    -3094    -3030    -2975    -2959    -2990 
   -3034    -3045    -3024    -3002    -2997    -3002    -3002    -2998 
   -3011    -3056    -3117    -3154    -3132    -3078    -3032    -2990 
   -2957    -2933    -2890    -2849    -2875    -2990    -3144    -3249 
   -3264    -3221    -3161    -3117    -3102    -3091    -3049    -2991 
   -2934    -2890    -2884    -2932    -3001    -3044    -3029    -2974 
   -2934    -2959    -3028    -3078    -3099    -3138    -3184    -3161 
   -3076    -3003    -2987    -3018    -3064    -3091    -3092    -3067 
   -3022    -3001    -3015    -3042    -3086    -3136    -3156    -3136 
   -3088    -3036    -3003    -2974    -2930    -2905    -2899    -2878 
   -2841    -2828    -2857    -2918    -3006    -3102    -3150    -3134 
   -3110    -3107    -3095    -3068    -3064    -3095    -3122    -3103 
   -3049    -3006    -2986    -3005    -3078    -3160    -3180    -3140 
   -3100    -3098    -3113    -3123    -3119    -3098    -3048    -2956 
   -2856    -2822    -2889    -2999    -3067    -3065    -3032    -3002 
   -2987    -2980    -2978    -3006    -3049    -3064    -3048    -3028 
   -3017    -3006    -2976    -2932    -2901    -2901    -2948    -3026 
   -3079    -3115    -3183    -3246    -3240    -3173    -3100    -3075 
   -3118    -3163    -3145    -3083    -3017    -2974    -2979    -3005 
   -2978    -2895    -2848    -2895    -2986    -3041    -3045    -3040 
   -3059    -3084    -3079    -3029    -2980    -2994    -3069    -3140 
   -3153    -3099    -3007    -2932    -2921    -2968    -3030    -3076 
   -3098    -3088    -3063    -3046    -3026    -3010    -3041    -3106 
   -3156    -3148    -3068    -2976    -2948    -2956    -2949    -2951 
   -2992    -3063    -3110    -3105    -3067    -3028    -3007    -3017 
   -3025    -3006    -2964    -2928    -2928    -2965    -3009    -3032 
   -3029    -3013    -3009    -3024    -3042    -3060    -3073    -3071 
   -3033    -2983    -2956    -2968    -3022    -3090    -3136    -3156 
   -3169    -3198    -3223    -3217    -3175    -3125    -3072    -3021 
   -2991    -2998    -3019    -3021    -2987    -2938    -2917    -2936 
   -2975    -3007    -3017    -3028    -3086    -3164    -3183    -3117 
   -3015    -2955    -2959    -2999    -3033    -3030    -2999    -2959 
   -2913    -2882    -2886    -2921    -2961    -2980    -2987    -3003 
   -3028    -3060    -3110    -3144    -3113    -3030    -2951    -2907 
   -2905    -2917    -2936    -2988    -3049    -3071    -3084    -3117 
   -3136    -3145    -3172    -3202    -3198    -3150    -3098    -3072 
   -3060    -3048    -3040    -3030    -3011    -3001    -3032    -3100 
   -3133    -3082    -3014    -3014    -3084    -3173    -3213    -3183 
   -3126    -3076    -3032    -2990    -2955    -2928    -2886    -2830 
   -2793    -2774    -2781    -2837    -2934    -3033    -3106    -3146 
   -3173    -3218    -3287    -3354    -3376    -3323    -3226    -3133 
   -3059    -3003    -2980    -3009    -3078    -3134    -3142    -3121 
   -3095    -3079    -3079    -3083    -3073    -3041    -2974    -2894 
   -2857    -2868    -2871    -2830    -2787    -2787    -2816    -2840 
   -2852    -2864    -2898    -2955    -3005    -3042    -3064    -3056 
   -3037    -3015    -2997    -3017    -3096    -3204    -3276    -3277 
   -3241    -3199    -3141    -3082    -3078    -3121    -3145    -3118 
   -3065    -3015    -2976    -2953    -2947    -2941    -2909    -2845 
   -2791    -2785    -2813    -2841    -2853    -2864    -2884    -2926 
   -2999    -3096    -3196    -3271    -3308    -3329    -3339    -3326 
   -3294    -3246    -3187    -3141    -3144    -3199    -3254    -3256 
   -3194    -3102    -3034    -3003    -2983    -2943    -2857    -2776 
   -2770    -2816    -2837    -2810    -2760    -2709    -2667    -2678 
   -2776    -2922    -3076    -3245    -3393    -3447    -3383    -3250 
   -3115    -3010    -2974    -3029    -3117    -3149    -3115    -3069 
   -3037    -3005    -2984    -3005    -3063    -3144    -3256    -3388 
   -3454    -3361    -3145    -2930    -2790    -2725    -2733    -2801 
   -2887    -2961    -3009    -3003    -2943    -2849    -2755    -2690 
   -2668    -2679    -2710    -2762    -2843    -2949    -3032    -3046 
   -3033    -3065    -3153    -3248    -3321    -3358    -3343    -3308 
   -3318    -3370    -3403    -3384    -3360    -3373    -3407    -3429 
   -3408    -3339    -3245    -3134    -3011    -2894    -2799    -2724 
   -2654    -2594    -2567    -2573    -2612    -2691    -2797    -2882 
   -2914    -2891    -2845    -2818    -2803    -2770    -2749    -2789 
   -2876    -2995    -3149    -3289    -3349    -3346    -3343    -3364 
   -3431    -3546    -3638    -3635    -3524    -3366    -3261    -3226 
   -3181    -3060    -2876    -2718    -2647    -2635    -2658    -2722 
   -2803    -2878    -2943    -2986    -3018    -3042    -3034    -2992 
   -2921    -2820    -2704    -2587    -2488    -2439    -2452    -2512 
   -2639    -2849    -3103    -3330    -3480    -3566    -3612    -3611 
   -3568    -3499    -3426    -3395    -3446    -3543    -3607    -3588 
   -3495    -3369    -3235    -3092    -2936    -2774    -2617    -2504 
   -2469    -2515    -2635    -2770    -2837    -2840    -2833    -2853 
   -2894    -2937    -2970    -2991    -3014    -3056    -3111    -3141 
   -3103    -3013    -2937    -2924    -2983    -3105    -3262    -3412 
   -3489    -3458    -3310    -3090    -2906    -2859    -2951    -3076 
   -3109    -3015    -2874    -2776    -2749    -2771    -2805    -2837 
   -2868    -2909    -2978    -3057    -3092    -3061    -2984    -2883 
   -2775    -2695    -2710    -2853    -3069    -3288    -3465    -3566 
   -3581    -3523    -3427    -3352    -3338    -3369    -3407    -3429 
   -3435    -3412    -3322    -3142    -2899    -2666    -2521    -2467 
   -2450    -2452    -2490    -2556    -2627    -2663    -2673    -2710 
   -2817    -2999    -3227    -3430    -3526    -3510    -3426    -3304 
   -3127    -2910    -2732    -2674    -2764    -2957    -3167    -3337 
   -3434    -3423    -3337    -3257    -3230    -3204    -3125    -3018 
   -2928    -2837    -2735    -2662    -2664    -2737    -2860    -3025 
   -3190    -3299    -3343    -3327    -3250    -3136    -3022    -2924 
   -2849    -2817    -2836    -2922    -3060    -3167    -3188    -3163 
   -3115    -3038    -2949    -2891    -2862    -2816    -2767    -2764 
   -2822    -2920    -3056    -3208    -3321    -3364    -3331    -3252 
   -3210    -3249    -3298    -3271    -3171    -3065    -3032    -3087 
   -3168    -3200    -3164    -3075    -2948    -2802    -2660    -2555 
   -2517    -2556    -2637    -2740    -2893    -3111    -3326    -3426 
   -3380    -3267    -3165    -3072    -2965    -2871    -2822    -2828 
   -2866    -2884    -2849    -2787    -2771    -2839    -2961    -3080 
   -3164    -3264    -3433    -3624    -3726    -3674    -3481    -3234 
   -3041    -2916    -2818    -2758    -2759    -2820    -2930    -3065 
   -3199    -3327    -3435    -3446    -3310    -3072    -2826    -2632 
   -2508    -2447    -2409    -2385    -2443    -2608    -2799    -2968 
   -3119    -3248    -3323    -3330    -3279    -3194    -3096    -3014 
   -2979    -2976    -2971    -2959    -2992    -3094    -3213    -3314 
   -3424    -3554    -3650    -3646    -3565    -3480    -3422    -3365 
   -3257    -3082    -2902    -2771    -2678    -2608    -2542    -2467 
   -2419    -2467    -2617    -2785    -2921    -3049    -3195    -3330 
   -3391    -3372    -3335    -3284    -3169    -2972    -2744    -2590 
   -2582    -2694    -2868    -3061    -3221    -3287    -3233    -3126 
   -3072    -3090    -3117    -3099    -3029    -2918    -2805    -2729 
   -2704    -2717    -2756    -2818    -2924    -3063    -3204    -3337 
   -3442    -3512    -3551    -3547    -3483    -3356    -3198    -3044 
   -2905    -2793    -2739    -2768    -2886    -3033    -3118    -3110 
   -3055    -3024    -3056    -3150    -3273    -3356    -3334    -3207 
   -2990    -2733    -2542    -2470    -2486    -2535    -2602    -2700 
   -2810    -2910    -3018    -3137    -3234    -3300    -3326    -3283 
   -3198    -3172    -3253    -3361    -3370    -3267    -3123    -3005 
   -2949    -2987    -3080    -3152    -3154    -3091    -3049    -3118 
   -3269    -3384    -3372    -3245    -3059    -2859    -2694    -2600 
   -2573    -2565    -2538    -2521    -2575    -2710    -2876    -2984 
   -2992    -2955    -2940    -2959    -3001    -3055    -3130    -3249 
   -3368    -3399    -3310    -3142    -2994    -2965    -3083    -3281 
   -3456    -3537    -3493    -3334    -3114    -2926    -2853    -2906 
   -3041    -3196    -3329    -3419    -3454    -3389    -3195    -2933 
   -2702    -2554    -2494    -2493    -2527    -2605    -2739    -2905 
   -3053    -3144    -3186    -3207    -3215    -3218    -3223    -3240 
   -3246    -3210    -3123    -3001    -2871    -2798    -2816    -2878 
   -2911    -2897    -2893    -2951    -3053    -3134    -3132    -3045 
   -2932    -2849    -2830    -2868    -2928    -2975    -3017    -3080 
   -3148    -3190    -3195    -3165    -3122    -3087    -3045    -2970 
   -2890    -2866    -2911    -3001    -3098    -3187    -3265    -3321 
   -3326    -3295    -3280    -3303    -3335    -3311    -3173    -2965 
   -2803    -2733    -2737    -2798    -2880    -2959    -3032    -3086 
   -3098    -3072    -3041    -3026    -3021    -3022    -3005    -2961 
   -2955    -3019    -3107    -3163    -3167    -3092    -2941    -2797 
   -2735    -2752    -2812    -2883    -2944    -2994    -3038    -3094 
   -3172    -3253    -3307    -3298    -3207    -3078    -2975    -2933 
   -2921    -2878    -2801    -2766    -2812    -2921    -3064    -3217 
   -3345    -3397    -3350    -3241    -3137    -3082    -3078    -3090 
   -3082    -3059    -3049    -3065    -3078    -3057    -3026    -3028 
   -3055    -3083    -3099    -3100    -3076    -3032    -2988    -2955 
   -2905    -2836    -2805    -2824    -2836    -2816    -2791    -2802 
   -2844    -2883    -2937    -3046    -3190    -3308    -3341    -3268 
   -3149    -3069    -3073    -3141    -3196    -3173    -3091    -3014 
   -2997    -3044    -3129    -3218    -3298    -3337    -3257    -3029 
   -2779    -2674    -2727    -2809    -2810    -2739    -2683    -2712 
   -2808    -2925    -3048    -3177    -3273    -3284    -3214    -3121 
   -3067    -3071    -3103    -3115    -3086    -3048    -3036    -3033 
   -3026    -3024    -3040    -3082    -3123    -3144    -3138    -3099 
   -3040    -2995    -2978    -2970    -2957    -2945    -2929    -2903 
   -2891    -2926    -3029    -3179    -3326    -3416    -3445    -3461 
   -3485    -3481    -3416    -3302    -3171    -3049    -2941    -2851 
   -2776    -2725    -2698    -2687    -2664    -2620    -2583    -2589 
   -2646    -2727    -2798    -2868    -2960    -3076    -3195    -3273 
   -3280    -3229    -3141    -3056    -3007    -2992    -2987    -2979 
   -2975    -2975    -2983    -3018    -3111    -3252    -3368    -3407 
   -3407    -3434    -3485    -3496    -3407    -3221    -3001    -2828 
   -2731    -2687    -2671    -2698    -2789    -2920    -3037    -3095 
   -3065    -2945    -2786    -2668    -2643    -2694    -2791    -2916 
   -3034    -3100    -3098    -3053    -3015    -3018    -3053    -3111 
   -3191    -3285    -3364    -3395    -3375    -3311    -3214    -3123 
   -3083    -3111    -3194    -3295    -3357    -3356    -3311    -3233 
   -3113    -2972    -2856    -2775    -2714    -2681    -2681    -2694 
   -2691    -2685    -2728    -2816    -2898    -2968    -3032    -3092 
   -3165    -3250    -3299    -3261    -3173    -3110    -3072    -3024 
   -2980    -2964    -2971    -2990    -3014    -3059    -3136    -3213 
   -3226    -3150    -3007    -2853    -2760    -2771    -2845    -2910 
   -2949    -3003    -3080    -3137    -3163    -3191    -3203    -3167 
   -3103    -3073    -3100    -3160    -3231    -3291    -3296    -3233 
   -3145    -3076    -3026    -2967    -2898    -2855    -2847    -2837 
   -2818    -2798    -2785    -2782    -2793    -2814    -2826    -2791 
   -2749    -2798    -2963    -3161    -3300    -3381    -3468    -3545 
   -3530    -3404    -3246    -3134    -3072    -3017    -2937    -2848 
   -2809    -2840    -2867    -2830    -2768    -2767    -2867    -3032 
   -3176    -3254    -3289    -3321    -3341    -3329    -3295    -3267 
   -3238    -3223    -3233    -3230    -3169    -3037    -2863    -2717 
   -2654    -2675    -2752    -2836    -2890    -2937    -3015    -3094 
   -3103    -3042    -2943    -2839    -2779    -2782    -2840    -2934 
   -3024    -3065    -3063    -3052    -3071    -3117    -3153    -3142 
