Origin Time       2025/03/30 10:18:00
Lat.              34.667
Long.             140.825
Depth. (km)       69
Mag.              4.9
Station Code      YMNH16
Station Lat.      35.7421
Station Long.     138.5653
Station Height(m) 339
Record Time       2025/03/30 10:19:31
Sampling Freq(Hz) 100Hz
Duration Time(s)  120
Dir.              1
Scale Factor      2942(gal)/8224139
Max. Acc. (gal)   0.206
Last Correction   2025/03/30 10:19:31
Memo.             
[...]
-1014538 -1014527 -1014507 -1014499 -1014520 -1014526 -1014487 -1014468 
-1014495 -1014506 -1014483 -1014473 -1014480 -1014495 -1014518 -1014519 
-1014507 -1014522 -1014546 -1014542 -1014523 -1014522 -1014534 -1014520 
-1014477 -1014473 -1014523 -1014557 -1014527 -1014496 -1014529 -1014547 
-1014475 -1014429 -1014493 -1014523 -1014456 -1014453 -1014538 -1014550 
-1014484 -1014469 -1014515 -1014527 -1014491 -1014483 -1014530 -1014566 
-1014545 -1014527 -1014553 -1014539 -1014454 -1014418 -1014499 -1014569 
-1014533 -1014503 -1014545 -1014525 -1014435 -1014435 -1014507 -1014511 
-1014475 -1014498 -1014554 -1014553 -1014492 -1014456 -1014475 -1014484 
-1014452 -1014454 -1014533 -1014587 -1014552 -1014504 -1014516 -1014542 
-1014510 -1014472 -1014504 -1014541 -1014526 -1014535 -1014568 -1014527 
-1014462 -1014488 -1014542 -1014510 -1014466 -1014508 -1014546 -1014498 
-1014458 -1014488 -1014508 -1014487 -1014485 -1014495 -1014469 -1014460 
-1014511 -1014546 -1014530 -1014537 -1014566 -1014554 -1014530 -1014542 
-1014542 -1014491 -1014465 -1014516 -1014545 -1014487 -1014449 -1014491 
-1014520 -1014480 -1014453 -1014491 -1014523 -1014514 -1014520 -1014547 
-1014542 -1014504 -1014504 -1014546 -1014541 -1014498 -1014520 -1014572 
-1014522 -1014442 -1014479 -1014550 -1014525 -1014485 -1014530 -1014549 
-1014461 -1014415 -1014506 -1014549 -1014454 -1014410 -1014493 -1014535 
-1014495 -1014499 -1014526 -1014493 -1014450 -1014472 -1014535 -1014541 
-1014496 -1014499 -1014531 -1014514 -1014485 -1014520 -1014562 -1014535 
-1014500 -1014506 -1014512 -1014510 -1014529 -1014549 -1014525 -1014488 
-1014511 -1014557 -1014538 -1014492 -1014493 -1014504 -1014476 -1014458 
-1014491 -1014535 -1014539 -1014508 -1014507 -1014553 -1014568 -1014520 
-1014477 -1014481 -1014499 -1014515 -1014527 -1014519 -1014510 -1014525 
-1014534 -1014508 -1014487 -1014499 -1014504 -1014493 -1014493 -1014491 
-1014492 -1014503 -1014489 -1014457 -1014462 -1014499 -1014514 -1014483 
-1014448 -1014466 -1014498 -1014488 -1014500 -1014558 -1014574 -1014522 
-1014496 -1014512 -1014491 -1014444 -1014461 -1014527 -1014549 -1014529 
-1014533 -1014542 -1014508 -1014485 -1014530 -1014565 -1014525 -1014504 
-1014568 -1014585 -1014498 -1014462 -1014534 -1014545 -1014476 -1014489 
-1014557 -1014529 -1014453 -1014468 -1014537 -1014520 -1014464 -1014491 
-1014538 -1014499 -1014452 -1014495 -1014561 -1014539 -1014491 -1014516 
-1014537 -1014483 -1014448 -1014473 -1014480 -1014445 -1014448 -1014506 
-1014514 -1014469 -1014483 -1014533 -1014530 -1014522 -1014541 -1014527 
-1014507 -1014538 -1014564 -1014529 -1014495 -1014510 -1014533 -1014534 
-1014525 -1014511 -1014491 -1014492 -1014533 -1014549 -1014495 -1014485 
-1014547 -1014539 -1014475 -1014487 -1014527 -1014496 -1014472 -1014531 
-1014568 -1014503 -1014450 -1014496 -1014546 -1014515 -1014485 -1014511 
-1014512 -1014473 -1014475 -1014502 -1014502 -1014514 -1014537 -1014525 
-1014508 -1014534 -1014535 -1014476 -1014456 -1014518 -1014547 -1014499 
-1014488 -1014539 -1014535 -1014471 -1014465 -1014507 -1014511 -1014496 
-1014503 -1014493 -1014461 -1014456 -1014493 -1014514 -1014476 -1014449 
-1014479 -1014518 -1014539 -1014556 -1014556 -1014535 -1014533 -1014560 
-1014566 -1014529 -1014496 -1014491 -1014480 -1014468 -1014479 -1014495 
-1014480 -1014458 -1014476 -1014514 -1014525 -1014512 -1014523 -1014550 
-1014547 -1014514 -1014504 -1014533 -1014538 -1014508 -1014500 -1014522 
-1014523 -1014503 -1014503 -1014515 -1014503 -1014492 -1014510 -1014530 
-1014530 -1014512 -1014499 -1014516 -1014531 -1014508 -1014502 -1014516 
-1014498 -1014487 -1014520 -1014537 -1014488 -1014441 -1014464 -1014515 
-1014516 -1014492 -1014510 -1014529 -1014500 -1014496 -1014552 -1014561 
-1014485 -1014439 -1014479 -1014514 -1014489 -1014483 -1014518 -1014525 
-1014508 -1014534 -1014566 -1014537 -1014500 -1014520 -1014543 -1014527 
-1014499 -1014484 -1014500 -1014529 -1014516 -1014499 -1014519 -1014529 
-1014520 -1014539 -1014542 -1014492 -1014475 -1014519 -1014523 -1014468 
-1014458 -1014512 -1014533 -1014492 -1014468 -1014488 -1014493 -1014464 
-1014464 -1014514 -1014531 -1014502 -1014495 -1014512 -1014507 -1014489 
-1014493 -1014507 -1014504 -1014493 -1014485 -1014492 -1014492 -1014464 
-1014464 -1014531 -1014576 -1014535 -1014504 -1014543 -1014564 -1014527 
-1014538 -1014589 -1014554 -1014458 -1014450 -1014516 -1014534 -1014514 
-1014538 -1014557 -1014487 -1014411 -1014438 -1014499 -1014504 -1014502 
-1014522 -1014511 -1014493 -1014520 -1014534 -1014506 -1014525 -1014583 
-1014566 -1014488 -1014472 -1014502 -1014477 -1014457 -1014534 -1014608 
-1014560 -1014475 -1014460 -1014464 -1014452 -1014484 -1014552 -1014554 
-1014495 -1014468 -1014483 -1014476 -1014475 -1014514 -1014523 -1014479 
-1014466 -1014507 -1014516 -1014476 -1014471 -1014519 -1014534 -1014510 
-1014516 -1014560 -1014577 -1014553 -1014511 -1014473 -1014460 -1014493 
-1014537 -1014534 -1014492 -1014466 -1014484 -1014503 -1014483 -1014481 
-1014533 -1014565 -1014526 -1014480 -1014512 -1014584 -1014579 -1014504 
-1014472 -1014492 -1014506 -1014515 -1014538 -1014525 -1014458 -1014431 
-1014495 -1014560 -1014539 -1014503 -1014525 -1014558 -1014529 -1014477 
-1014491 -1014541 -1014529 -1014464 -1014466 -1014550 -1014587 -1014553 
-1014529 -1014533 -1014525 -1014498 -1014481 -1014487 -1014484 -1014465 
-1014448 -1014448 -1014458 -1014475 -1014489 -1014511 -1014530 -1014525 
-1014504 -1014495 -1014498 -1014507 -1014522 -1014547 -1014568 -1014556 
-1014525 -1014516 -1014522 -1014503 -1014479 -1014481 -1014510 -1014529 
-1014518 -1014493 -1014461 -1014437 -1014454 -1014493 -1014498 -1014479 
-1014492 -1014530 -1014537 -1014515 -1014518 -1014535 -1014531 -1014523 
-1014527 -1014535 -1014553 -1014566 -1014552 -1014523 -1014516 -1014534 
-1014525 -1014481 -1014471 -1014510 -1014539 -1014520 -1014480 -1014462 
-1014460 -1014464 -1014484 -1014498 -1014484 -1014471 -1014491 -1014529 
-1014543 -1014527 -1014510 -1014502 -1014493 -1014484 -1014473 -1014469 
-1014479 -1014488 -1014488 -1014487 -1014488 -1014495 -1014512 -1014525 
-1014519 -1014527 -1014556 -1014557 -1014526 -1014503 -1014510 -1014519 
-1014514 -1014512 -1014527 -1014523 -1014484 -1014480 -1014542 -1014566 
-1014511 -1014476 -1014507 -1014546 -1014558 -1014561 -1014561 -1014552 
-1014526 -1014485 -1014458 -1014481 -1014522 -1014514 -1014483 -1014491 
-1014519 -1014516 -1014499 -1014493 -1014479 -1014462 -1014484 -1014508 
-1014481 -1014457 -1014492 -1014530 -1014503 -1014483 -1014519 -1014526 
-1014491 -1014519 -1014589 -1014591 -1014542 -1014525 -1014531 -1014502 
-1014462 -1014476 -1014503 -1014481 -1014472 -1014500 -1014498 -1014465 
-1014457 -1014466 -1014471 -1014480 -1014500 -1014516 -1014503 -1014485 
-1014500 -1014519 -1014506 -1014500 -1014534 -1014560 -1014554 -1014547 
-1014541 -1014515 -1014491 -1014495 -1014510 -1014512 -1014507 -1014507 
-1014506 -1014498 -1014502 -1014523 -1014537 -1014527 -1014518 -1014514 
-1014496 -1014481 -1014491 -1014510 -1014518 -1014534 -1014560 -1014557 
-1014522 -1014495 -1014506 -1014533 -1014547 -1014546 -1014547 -1014553 
-1014568 -1014572 -1014529 -1014475 -1014481 -1014520 -1014512 -1014466 
-1014464 -1014487 -1014452 -1014391 -1014417 -1014485 -1014479 -1014434 
-1014457 -1014512 -1014506 -1014466 -1014488 -1014543 -1014535 -1014479 
-1014469 -1014508 -1014510 -1014485 -1014504 -1014541 -1014549 -1014552 
-1014556 -1014541 -1014525 -1014529 -1014527 -1014503 -1014488 -1014498 
-1014507 -1014507 -1014506 -1014499 -1014499 -1014523 -1014545 -1014552 
-1014564 -1014566 -1014538 -1014514 -1014508 -1014496 -1014496 -1014520 
-1014523 -1014493 -1014477 -1014493 -1014514 -1014506 -1014491 -1014504 
-1014511 -1014485 -1014481 -1014539 -1014576 -1014519 -1014466 -1014500 
-1014523 -1014481 -1014477 -1014543 -1014570 -1014512 -1014465 -1014491 
-1014518 -1014499 -1014491 -1014503 -1014500 -1014487 -1014491 -1014511 
-1014514 -1014492 -1014481 -1014503 -1014522 -1014498 -1014468 -1014488 
-1014525 -1014527 -1014527 -1014562 -1014587 -1014538 -1014448 -1014434 
-1014502 -1014525 -1014489 -1014499 -1014538 -1014523 -1014491 -1014512 
-1014547 -1014525 -1014500 -1014530 -1014541 -1014510 -1014508 -1014525 
-1014511 -1014488 -1014507 -1014545 -1014543 -1014519 -1014520 -1014520 
-1014485 -1014464 -1014496 -1014534 -1014518 -1014480 -1014472 -1014483 
-1014473 -1014469 -1014500 -1014510 -1014464 -1014460 -1014515 -1014514 
-1014465 -1014483 -1014542 -1014550 -1014531 -1014531 -1014526 -1014480 
-1014435 -1014466 -1014523 -1014519 -1014500 -1014529 -1014545 -1014506 
-1014471 -1014496 -1014533 -1014525 -1014516 -1014529 -1014523 -1014508 
-1014514 -1014525 -1014522 -1014529 -1014545 -1014538 -1014516 -1014512 
-1014510 -1014493 -1014485 -1014500 -1014529 -1014547 -1014550 -1014541 
-1014522 -1014503 -1014502 -1014502 -1014487 -1014495 -1014527 -1014535 
-1014502 -1014471 -1014492 -1014530 -1014520 -1014487 -1014485 -1014498 
-1014473 -1014461 -1014502 -1014522 -1014488 -1014491 -1014531 -1014531 
-1014498 -1014500 -1014535 -1014533 -1014496 -1014491 -1014526 -1014534 
-1014498 -1014499 -1014554 -1014557 -1014493 -1014462 -1014485 -1014491 
-1014465 -1014461 -1014491 -1014514 -1014504 -1014488 -1014499 -1014533 
-1014558 -1014535 -1014487 -1014484 -1014507 -1014495 -1014489 -1014529 
-1014537 -1014491 -1014479 -1014514 -1014518 -1014492 -1014500 -1014526 
-1014535 -1014527 -1014520 -1014531 -1014541 -1014523 -1014525 -1014566 
-1014573 -1014535 -1014531 -1014558 -1014535 -1014460 -1014441 -1014506 
-1014538 -1014502 -1014480 -1014496 -1014489 -1014461 -1014473 -1014503 
-1014492 -1014458 -1014461 -1014479 -1014465 -1014446 -1014484 -1014542 
-1014542 -1014525 -1014564 -1014610 -1014596 -1014561 -1014547 -1014533 
-1014514 -1014519 -1014526 -1014506 -1014481 -1014479 -1014488 -1014498 
-1014498 -1014492 -1014495 -1014492 -1014466 -1014462 -1014499 -1014507 
-1014466 -1014446 -1014479 -1014525 -1014543 -1014547 -1014553 -1014561 
-1014573 -1014570 -1014526 -1014460 -1014434 -1014458 -1014479 -1014483 
-1014488 -1014492 -1014496 -1014516 -1014545 -1014550 -1014533 -1014515 
-1014502 -1014492 -1014503 -1014522 -1014529 -1014518 -1014498 -1014481 
-1014484 -1014499 -1014511 -1014506 -1014496 -1014508 -1014534 -1014539 
-1014510 -1014472 -1014480 -1014527 -1014553 -1014550 -1014556 -1014560 
-1014538 -1014518 -1014512 -1014499 -1014480 -1014475 -1014477 -1014461 
-1014439 -1014461 -1014510 -1014515 -1014471 -1014446 -1014461 -1014454 
-1014427 -1014452 -1014499 -1014506 -1014503 -1014543 -1014581 -1014565 
-1014522 -1014504 -1014503 -1014465 -1014404 -1014408 -1014492 -1014573 
-1014604 -1014608 -1014601 -1014557 -1014475 -1014446 -1014506 -1014549 
-1014531 -1014527 -1014560 -1014585 -1014579 -1014545 -1014508 -1014493 
-1014484 -1014465 -1014460 -1014479 -1014481 -1014464 -1014471 -1014496 
-1014488 -1014446 -1014437 -1014466 -1014475 -1014453 -1014452 -1014480 
-1014503 -1014516 -1014561 -1014620 -1014633 -1014618 -1014607 -1014554 
-1014471 -1014439 -1014457 -1014473 -1014498 -1014564 -1014642 -1014665 
-1014622 -1014569 -1014542 -1014500 -1014414 -1014341 -1014357 -1014423 
-1014465 -1014496 -1014560 -1014618 -1014610 -1014564 -1014530 -1014498 
-1014462 -1014458 -1014477 -1014487 -1014504 -1014537 -1014541 -1014511 
-1014503 -1014542 -1014595 -1014615 -1014608 -1014589 -1014531 -1014427 
-1014344 -1014326 -1014360 -1014445 -1014564 -1014643 -1014639 -1014601 
-1014584 -1014558 -1014504 -1014476 -1014489 -1014495 -1014485 -1014507 
-1014539 -1014527 -1014472 -1014414 -1014390 -1014444 -1014542 -1014584 
-1014570 -1014574 -1014591 -1014560 -1014504 -1014500 -1014523 -1014500 
-1014485 -1014561 -1014654 -1014647 -1014564 -1014493 -1014418 -1014296 
-1014217 -1014269 -1014412 -1014533 -1014591 -1014612 -1014612 -1014592 
-1014573 -1014561 -1014514 -1014426 -1014365 -1014372 -1014411 -1014431 
-1014414 -1014375 -1014345 -1014349 -1014391 -1014454 -1014545 -1014660 
-1014718 -1014664 -1014564 -1014493 -1014438 -1014406 -1014446 -1014543 
-1014641 -1014712 -1014724 -1014662 -1014585 -1014533 -1014485 -1014426 
-1014353 -1014290 -1014273 -1014322 -1014431 -1014557 -1014615 -1014562 
-1014468 -1014438 -1014506 -1014618 -1014711 -1014774 -1014809 -1014824 
-1014792 -1014685 -1014545 -1014433 -1014357 -1014294 -1014272 -1014354 
-1014498 -1014592 -1014624 -1014624 -1014592 -1014526 -1014427 -1014325 
-1014286 -1014342 -1014431 -1014481 -1014499 -1014500 -1014441 -1014342 
-1014299 -1014342 -1014412 -1014442 -1014476 -1014597 -1014751 -1014827 
-1014809 -1014726 -1014638 -1014649 -1014796 -1014989 -1015059 -1014928 
-1014692 -1014485 -1014367 -1014353 -1014414 -1014427 -1014296 -1014115 
-1014052 -1014099 -1014148 -1014169 -1014198 -1014242 -1014276 -1014294 
-1014345 -1014461 -1014591 -1014707 -1014828 -1014898 -1014849 -1014747 
-1014670 -1014583 -1014476 -1014434 -1014488 -1014561 -1014600 -1014619 
-1014576 -1014456 -1014377 -1014417 -1014469 -1014429 -1014367 -1014385 
-1014464 -1014541 -1014588 -1014557 -1014423 -1014259 -1014180 -1014215 
-1014267 -1014252 -1014246 -1014330 -1014429 -1014472 -1014522 -1014607 
-1014664 -1014697 -1014780 -1014890 -1014934 -1014912 -1014900 -1014844 
-1014653 -1014417 -1014294 -1014287 -1014327 -1014411 -1014535 -1014589 
-1014450 -1014215 -1014109 -1014186 -1014341 -1014493 -1014624 -1014723 
-1014753 -1014700 -1014608 -1014542 -1014535 -1014573 -1014631 -1014699 
-1014747 -1014716 -1014591 -1014464 -1014423 -1014465 -1014558 -1014647 
-1014664 -1014587 -1014466 -1014371 -1014334 -1014326 -1014321 -1014352 
-1014425 -1014453 -1014383 -1014303 -1014314 -1014368 -1014379 -1014352 
-1014294 -1014218 -1014238 -1014460 -1014796 -1015028 -1015085 -1015066 
-1015013 -1014892 -1014730 -1014597 -1014543 -1014581 -1014657 -1014657 
-1014543 -1014396 -1014306 -1014238 -1014124 -1014024 -1014043 -1014111 
-1014102 -1014061 -1014124 -1014260 -1014358 -1014433 -1014527 -1014577 
-1014566 -1014596 -1014693 -1014776 -1014815 -1014869 -1014942 -1014971 
-1014920 -1014832 -1014800 -1014858 -1014925 -1014886 -1014712 -1014492 
-1014318 -1014201 -1014128 -1014120 -1014169 -1014206 -1014210 -1014213 
-1014215 -1014218 -1014263 -1014369 -1014503 -1014601 -1014635 -1014638 
-1014606 -1014510 -1014430 -1014466 -1014572 -1014669 -1014761 -1014866 
-1014925 -1014863 -1014708 -1014581 -1014545 -1014508 -1014411 -1014333 
-1014313 -1014276 -1014244 -1014313 -1014410 -1014388 -1014306 -1014306 
-1014361 -1014384 -1014396 -1014483 -1014626 -1014730 -1014762 -1014759 
-1014709 -1014603 -1014529 -1014535 -1014560 -1014545 -1014523 -1014547 
-1014581 -1014577 -1014570 -1014565 -1014527 -1014506 -1014516 -1014462 
-1014349 -1014310 -1014371 -1014434 -1014469 -1014523 -1014580 -1014574 
-1014506 -1014430 -1014383 -1014390 -1014439 -1014454 -1014412 -1014406 
-1014487 -1014560 -1014560 -1014606 -1014757 -1014851 -1014766 -1014599 
-1014466 -1014380 -1014342 -1014364 -1014406 -1014417 -1014425 -1014453 
-1014448 -1014390 -1014338 -1014345 -1014410 -1014493 -1014531 -1014529 
-1014542 -1014570 -1014591 -1014610 -1014615 -1014566 -1014484 -1014464 
-1014552 -1014674 -1014731 -1014714 -1014685 -1014647 -1014560 -1014485 
-1014511 -1014584 -1014585 -1014502 -1014425 -1014380 -1014306 -1014228 
-1014246 -1014360 -1014475 -1014518 -1014475 -1014380 -1014327 -1014369 
-1014441 -1014495 -1014561 -1014633 -1014685 -1014727 -1014758 -1014758 
-1014697 -1014597 -1014538 -1014554 -1014592 -1014596 -1014592 -1014611 
-1014604 -1014538 -1014465 -1014412 -1014340 -1014261 -1014264 -1014350 
-1014402 -1014399 -1014471 -1014626 -1014701 -1014657 -1014593 -1014538 
-1014461 -1014421 -1014449 -1014456 -1014408 -1014400 -1014475 -1014537 
-1014523 -1014512 -1014560 -1014580 -1014554 -1014580 -1014637 -1014610 
-1014530 -1014503 -1014518 -1014516 -1014514 -1014539 -1014564 -1014546 
-1014526 -1014539 -1014538 -1014491 -1014444 -1014411 -1014368 -1014354 
-1014422 -1014500 -1014533 -1014562 -1014593 -1014570 -1014511 -1014480 
-1014473 -1014437 -1014384 -1014372 -1014388 -1014399 -1014423 -1014461 
-1014466 -1014446 -1014462 -1014488 -1014461 -1014431 -1014465 -1014520 
-1014543 -1014560 -1014588 -1014597 -1014589 -1014588 -1014585 -1014580 
-1014589 -1014597 -1014564 -1014503 -1014469 -1014471 -1014485 -1014510 
-1014504 -1014435 -1014387 -1014450 -1014549 -1014566 -1014543 -1014574 
-1014612 -1014560 -1014466 -1014457 -1014515 -1014539 -1014530 -1014531 
-1014543 -1014543 -1014530 -1014516 -1014514 -1014511 -1014487 -1014465 
-1014477 -1014488 -1014481 -1014499 -1014530 -1014523 -1014483 -1014461 
-1014487 -1014525 -1014547 -1014562 -1014565 -1014515 -1014437 -1014429 
-1014487 -1014511 -1014522 -1014581 -1014619 -1014569 -1014510 -1014500 
-1014449 -1014330 -1014280 -1014358 -1014437 -1014425 -1014429 -1014529 
-1014620 -1014607 -1014565 -1014584 -1014606 -1014569 -1014542 -1014562 
-1014547 -1014485 -1014499 -1014587 -1014592 -1014510 -1014496 -1014554 
-1014542 -1014476 -1014471 -1014503 -1014499 -1014491 -1014515 -1014522 
-1014480 -1014439 -1014433 -1014404 -1014325 -1014300 -1014419 -1014569 
-1014601 -1014557 -1014570 -1014633 -1014668 -1014669 -1014661 -1014635 
-1014592 -1014553 -1014543 -1014547 -1014537 -1014514 -1014485 -1014448 
-1014410 -1014415 -1014480 -1014533 -1014499 -1014415 -1014372 -1014388 
-1014400 -1014392 -1014391 -1014406 -1014437 -1014484 -1014502 -1014480 
-1014477 -1014523 -1014576 -1014596 -1014596 -1014585 -1014565 -1014550 
-1014545 -1014525 -1014504 -1014520 -1014552 -1014565 -1014577 -1014596 
-1014600 -1014580 -1014566 -1014572 -1014538 -1014460 -1014430 -1014460 
-1014464 -1014419 -1014391 -1014415 -1014450 -1014468 -1014500 -1014564 
-1014614 -1014630 -1014627 -1014600 -1014541 -1014487 -1014458 -1014442 
-1014422 -1014406 -1014434 -1014516 -1014583 -1014562 -1014491 -1014457 
-1014495 -1014539 -1014530 -1014492 -1014483 -1014498 -1014502 -1014479 
-1014473 -1014519 -1014577 -1014589 -1014569 -1014562 -1014562 -1014520 
-1014460 -1014468 -1014514 -1014484 -1014410 -1014407 -1014454 -1014452 
-1014412 -1014426 -1014491 -1014512 -1014483 -1014487 -1014533 -1014545 
-1014516 -1014508 -1014538 -1014585 -1014628 -1014638 -1014601 -1014556 
-1014543 -1014539 -1014511 -1014462 -1014439 -1014473 -1014529 -1014541 
-1014518 -1014525 -1014564 -1014576 -1014552 -1014546 -1014554 -1014525 
-1014460 -1014421 -1014425 -1014429 -1014407 -1014387 -1014376 -1014387 
-1014445 -1014533 -1014597 -1014608 -1014581 -1014527 -1014466 -1014449 
-1014480 -1014488 -1014469 -1014510 -1014614 -1014673 -1014653 -1014620 
-1014597 -1014518 -1014395 -1014354 -1014418 -1014462 -1014444 -1014448 
-1014510 -1014554 -1014537 -1014510 -1014503 -1014484 -1014449 -1014445 
-1014496 -1014558 -1014585 -1014577 -1014529 -1014458 -1014434 -1014461 
-1014471 -1014457 -1014464 -1014504 -1014543 -1014550 -1014526 -1014496 
-1014481 -1014488 -1014507 -1014531 -1014561 -1014570 -1014541 -1014499 
-1014468 -1014469 -1014506 -1014539 -1014539 -1014530 -1014535 -1014535 
-1014498 -1014449 -1014457 -1014502 -1014515 -1014503 -1014503 -1014500 
-1014471 -1014448 -1014473 -1014530 -1014566 -1014560 -1014535 -1014519 
-1014520 -1014545 -1014564 -1014535 -1014476 -1014435 -1014434 -1014461 
-1014495 -1014529 -1014573 -1014635 -1014666 -1014606 -1014504 -1014462 
-1014462 -1014442 -1014417 -1014423 -1014452 -1014469 -1014493 -1014547 
-1014581 -1014558 -1014538 -1014546 -1014545 -1014520 -1014492 -1014480 
-1014483 -1014491 -1014489 -1014496 -1014531 -1014570 -1014568 -1014534 
-1014542 -1014592 -1014581 -1014508 -1014500 -1014558 -1014552 -1014481 
