Origin Time       2025/03/30 10:18:00
Lat.              34.667
Long.             140.825
Depth. (km)       69
Mag.              4.9
Station Code      YMNH14
Station Lat.      35.5115
Station Long.     138.9675
Station Height(m) 760
Record Time       2025/03/30 10:19:21
Sampling Freq(Hz) 100Hz
Duration Time(s)  120
Dir.              1
Scale Factor      2942(gal)/8224139
Max. Acc. (gal)   0.259
Last Correction   2025/03/30 10:19:21
Memo.             
[...]
 -179760  -179724  -179716  -179768  -179818  -179803  -179767  -179760 
 -179776  -179790  -179770  -179743  -179756  -179788  -179797  -179783 
 -179743  -179706  -179730  -179795  -179840  -179838  -179790  -179748 
 -179753  -179764  -179745  -179730  -179741  -179740  -179725  -179743 
 -179770  -179780  -179793  -179775  -179736  -179725  -179733  -179741 
 -179763  -179793  -179803  -179771  -179720  -179710  -179744  -179771 
 -179775  -179755  -179730  -179744  -179779  -179795  -179803  -179807 
 -179790  -179780  -179791  -179774  -179729  -179743  -179805  -179815 
 -179774  -179743  -179753  -179787  -179787  -179761  -179753  -179753 
 -179757  -179775  -179782  -179772  -179772  -179783  -179787  -179760 
 -179712  -179706  -179747  -179791  -179801  -179759  -179744  -179799 
 -179822  -179783  -179768  -179795  -179814  -179801  -179763  -179739 
 -179753  -179778  -179778  -179761  -179747  -179736  -179733  -179733 
 -179732  -179747  -179787  -179814  -179802  -179787  -179770  -179730 
 -179718  -179744  -179764  -179775  -179774  -179760  -179771  -179782 
 -179764  -179771  -179810  -179810  -179771  -179751  -179766  -179798 
 -179822  -179801  -179760  -179752  -179760  -179751  -179747  -179759 
 -179752  -179717  -179705  -179732  -179744  -179730  -179756  -179807 
 -179830  -179815  -179768  -179732  -179747  -179776  -179801  -179803 
 -179764  -179718  -179729  -179790  -179833  -179828  -179805  -179801 
 -179784  -179726  -179694  -179741  -179784  -179757  -179726  -179744 
 -179778  -179767  -179748  -179784  -179794  -179710  -179652  -179699 
 -179780  -179820  -179813  -179797  -179801  -179807  -179791  -179766 
 -179747  -179734  -179748  -179764  -179757  -179768  -179784  -179756 
 -179732  -179755  -179788  -179802  -179790  -179774  -179772  -179767 
 -179755  -179779  -179817  -179799  -179768  -179788  -179832  -179818 
 -179741  -179687  -179695  -179721  -179739  -179755  -179770  -179786 
 -179797  -179767  -179710  -179705  -179747  -179798  -179845  -179826 
 -179744  -179710  -179741  -179787  -179830  -179824  -179771  -179748 
 -179763  -179771  -179760  -179747  -179755  -179784  -179803  -179778 
 -179730  -179706  -179720  -179766  -179806  -179787  -179743  -179734 
 -179760  -179788  -179786  -179770  -179770  -179760  -179747  -179771 
 -179809  -179803  -179783  -179802  -179818  -179778  -179732  -179733 
 -179774  -179820  -179817  -179767  -179749  -179788  -179806  -179764 
 -179720  -179717  -179752  -179771  -179747  -179736  -179757  -179747 
 -179720  -179726  -179749  -179759  -179737  -179714  -179737  -179782 
 -179810  -179821  -179817  -179802  -179772  -179740  -179740  -179763 
 -179767  -179757  -179775  -179813  -179822  -179803  -179768  -179733 
 -179749  -179791  -179783  -179739  -179724  -179749  -179787  -179810 
 -179815  -179795  -179751  -179721  -179725  -179732  -179730  -179741 
 -179770  -179807  -179840  -179844  -179813  -179778  -179753  -179732 
 -179725  -179741  -179753  -179759  -179771  -179776  -179778  -179790 
 -179780  -179749  -179733  -179747  -179768  -179786  -179798  -179794 
 -179787  -179805  -179814  -179786  -179764  -179764  -179752  -179737 
 -179747  -179767  -179761  -179736  -179741  -179776  -179774  -179741 
 -179733  -179752  -179790  -179814  -179779  -179732  -179726  -179736 
 -179757  -179799  -179818  -179799  -179766  -179743  -179744  -179761 
 -179783  -179784  -179740  -179706  -179733  -179763  -179744  -179722 
 -179736  -179760  -179774  -179783  -179782  -179775  -179767  -179739 
 -179725  -179766  -179806  -179802  -179766  -179737  -179755  -179775 
 -179778  -179814  -179838  -179801  -179786  -179818  -179815  -179788 
 -179802  -179818  -179775  -179709  -179690  -179733  -179780  -179791 
 -179784  -179779  -179764  -179733  -179705  -179712  -179756  -179780 
 -179768  -179753  -179744  -179753  -179797  -179824  -179803  -179751 
 -179707  -179720  -179772  -179815  -179815  -179774  -179755  -179779 
 -179788  -179779  -179775  -179766  -179753  -179761  -179760  -179736 
 -179725  -179732  -179760  -179809  -179832  -179813  -179787  -179756 
 -179728  -179751  -179799  -179787  -179724  -179701  -179732  -179774 
 -179799  -179806  -179803  -179795  -179776  -179755  -179736  -179728 
 -179751  -179775  -179763  -179741  -179734  -179747  -179768  -179778 
 -179764  -179743  -179725  -179722  -179752  -179801  -179826  -179807 
 -179790  -179806  -179822  -179817  -179784  -179743  -179747  -179768 
 -179744  -179709  -179721  -179787  -179841  -179803  -179729  -179730 
 -179768  -179782  -179798  -179810  -179794  -179774  -179772  -179768 
 -179759  -179745  -179721  -179728  -179776  -179814  -179807  -179764 
 -179733  -179751  -179759  -179721  -179695  -179717  -179757  -179788 
 -179788  -179788  -179813  -179814  -179790  -179787  -179778  -179747 
 -179749  -179775  -179776  -179766  -179752  -179752  -179790  -179836 
 -179832  -179782  -179761  -179788  -179793  -179764  -179741  -179724 
 -179721  -179729  -179722  -179714  -179722  -179734  -179771  -179824 
 -179821  -179764  -179759  -179798  -179797  -179774  -179780  -179788 
 -179753  -179722  -179743  -179761  -179757  -179766  -179771  -179752 
 -179730  -179724  -179733  -179741  -179728  -179736  -179801  -179847 
 -179825  -179797  -179806  -179799  -179763  -179736  -179722  -179732 
 -179768  -179795  -179805  -179794  -179772  -179775  -179756  -179698 
 -179686  -179745  -179798  -179802  -179788  -179786  -179793  -179802 
 -179803  -179787  -179757  -179744  -179779  -179797  -179751  -179726 
 -179759  -179787  -179787  -179759  -179740  -179764  -179780  -179770 
 -179760  -179756  -179784  -179798  -179756  -179739  -179763  -179767 
 -179768  -179790  -179794  -179779  -179759  -179740  -179749  -179788 
 -179807  -179788  -179783  -179807  -179802  -179743  -179697  -179714 
 -179755  -179771  -179779  -179795  -179790  -179747  -179716  -179734 
 -179776  -179791  -179774  -179747  -179733  -179755  -179798  -179809 
 -179791  -179783  -179757  -179717  -179716  -179748  -179778  -179791 
 -179774  -179748  -179736  -179736  -179759  -179802  -179825  -179807 
 -179766  -179753  -179783  -179801  -179786  -179760  -179739  -179736 
 -179749  -179751  -179759  -179787  -179786  -179772  -179794  -179807 
 -179776  -179770  -179803  -179797  -179763  -179770  -179786  -179780 
 -179756  -179718  -179697  -179718  -179745  -179755  -179768  -179784 
 -179779  -179756  -179725  -179713  -179747  -179787  -179784  -179779 
 -179799  -179803  -179805  -179824  -179813  -179760  -179721  -179740 
 -179783  -179771  -179730  -179759  -179807  -179797  -179760  -179733 
 -179730  -179751  -179745  -179730  -179734  -179741  -179760  -179779 
 -179770  -179757  -179760  -179775  -179807  -179811  -179771  -179755 
 -179778  -179788  -179794  -179803  -179798  -179797  -179802  -179782 
 -179759  -179772  -179786  -179763  -179733  -179726  -179749  -179786 
 -179798  -179768  -179743  -179740  -179737  -179734  -179755  -179779 
 -179757  -179721  -179744  -179806  -179842  -179824  -179764  -179743 
 -179775  -179793  -179759  -179718  -179714  -179739  -179761  -179774 
 -179774  -179768  -179776  -179799  -179817  -179824  -179811  -179779 
 -179755  -179752  -179752  -179749  -179757  -179766  -179763  -179788 
 -179825  -179798  -179730  -179709  -179745  -179786  -179784  -179763 
 -179751  -179749  -179743  -179725  -179717  -179745  -179783  -179795 
 -179786  -179780  -179793  -179798  -179786  -179776  -179770  -179756 
 -179743  -179737  -179747  -179784  -179825  -179842  -179838  -179811 
 -179780  -179778  -179786  -179786  -179782  -179755  -179721  -179693 
 -179689  -179722  -179751  -179757  -179767  -179748  -179714  -179744 
 -179803  -179798  -179741  -179740  -179811  -179853  -179810  -179753 
 -179752  -179770  -179752  -179705  -179685  -179728  -179786  -179805 
 -179786  -179761  -179764  -179782  -179763  -179707  -179667  -179679 
 -179743  -179788  -179788  -179787  -179795  -179811  -179841  -179834 
 -179779  -179747  -179756  -179768  -179770  -179747  -179733  -179767 
 -179790  -179772  -179756  -179743  -179734  -179757  -179798  -179826 
 -179836  -179822  -179787  -179771  -179767  -179752  -179748  -179748 
 -179740  -179757  -179786  -179776  -179729  -179687  -179736  -179851 
 -179886  -179825  -179787  -179763  -179729  -179736  -179764  -179761 
 -179740  -179724  -179722  -179743  -179775  -179797  -179793  -179780 
 -179778  -179770  -179766  -179771  -179776  -179801  -179814  -179782 
 -179760  -179766  -179745  -179718  -179726  -179736  -179741  -179763 
 -179770  -179751  -179747  -179775  -179810  -179824  -179824  -179818 
 -179790  -179756  -179743  -179732  -179716  -179716  -179756  -179793 
 -179784  -179778  -179797  -179770  -179720  -179745  -179803  -179806 
 -179790  -179790  -179780  -179775  -179790  -179776  -179734  -179736 
 -179770  -179766  -179740  -179729  -179736  -179759  -179787  -179783 
 -179751  -179739  -179740  -179744  -179776  -179810  -179813  -179802 
 -179772  -179736  -179741  -179779  -179791  -179772  -179752  -179747 
 -179759  -179776  -179784  -179783  -179771  -179756  -179767  -179787 
 -179775  -179757  -179764  -179774  -179783  -179794  -179786  -179770 
 -179752  -179733  -179749  -179791  -179810  -179797  -179760  -179733 
 -179737  -179764  -179787  -179779  -179763  -179774  -179782  -179761 
 -179757  -179771  -179766  -179778  -179826  -179815  -179740  -179705 
 -179712  -179720  -179734  -179751  -179756  -179764  -179790  -179821 
 -179824  -179803  -179784  -179760  -179748  -179749  -179729  -179729 
 -179764  -179766  -179737  -179740  -179756  -179759  -179764  -179790 
 -179801  -179786  -179787  -179805  -179811  -179821  -179814  -179768 
 -179717  -179691  -179709  -179743  -179752  -179775  -179805  -179786 
 -179743  -179717  -179712  -179732  -179755  -179743  -179725  -179748 
 -179787  -179807  -179813  -179805  -179793  -179791  -179767  -179726 
 -179740  -179782  -179797  -179815  -179802  -179743  -179747  -179822 
 -179844  -179793  -179747  -179734  -179733  -179722  -179733  -179764 
 -179759  -179745  -179780  -179805  -179772  -179739  -179748  -179784 
 -179813  -179815  -179803  -179784  -179761  -179747  -179745  -179755 
 -179755  -179728  -179726  -179764  -179770  -179768  -179805  -179824 
 -179809  -179786  -179757  -179753  -179759  -179756  -179770  -179768 
 -179744  -179743  -179740  -179728  -179756  -179803  -179836  -179842 
 -179814  -179778  -179760  -179774  -179802  -179791  -179753  -179741 
 -179747  -179760  -179776  -179772  -179776  -179797  -179805  -179795 
 -179756  -179705  -179717  -179766  -179770  -179766  -179782  -179776 
 -179743  -179721  -179730  -179747  -179752  -179760  -179776  -179775 
 -179780  -179813  -179811  -179757  -179717  -179709  -179716  -179734 
 -179745  -179752  -179772  -179787  -179797  -179797  -179786  -179788 
 -179814  -179837  -179841  -179814  -179757  -179713  -179714  -179755 
 -179803  -179833  -179841  -179826  -179784  -179749  -179733  -179722 
 -179724  -179729  -179745  -179778  -179780  -179767  -179771  -179761 
 -179743  -179747  -179751  -179745  -179756  -179782  -179799  -179782 
 -179726  -179698  -179716  -179716  -179702  -179724  -179749  -179755 
 -179748  -179739  -179756  -179775  -179744  -179701  -179699  -179736 
 -179788  -179833  -179833  -179775  -179714  -179709  -179722  -179721 
 -179737  -179759  -179748  -179737  -179768  -179799  -179799  -179791 
 -179772  -179737  -179710  -179724  -179755  -179751  -179712  -179705 
 -179739  -179768  -179780  -179767  -179741  -179744  -179740  -179740 
 -179801  -179847  -179822  -179809  -179821  -179807  -179793  -179813 
 -179825  -179814  -179805  -179793  -179772  -179736  -179714  -179728 
 -179736  -179728  -179761  -179841  -179903  -179932  -179960  -179987 
 -179984  -179938  -179838  -179705  -179609  -179591  -179613  -179635 
 -179651  -179678  -179729  -179803  -179868  -179891  -179887  -179868 
 -179825  -179788  -179752  -179706  -179707  -179751  -179756  -179747 
 -179803  -179876  -179888  -179886  -179891  -179853  -179763  -179682 
 -179666  -179702  -179722  -179720  -179739  -179755  -179729  -179717 
 -179759  -179820  -179856  -179861  -179853  -179849  -179860  -179859 
 -179799  -179717  -179705  -179764  -179810  -179813  -179783  -179748 
 -179737  -179734  -179730  -179743  -179764  -179784  -179770  -179678 
 -179551  -179505  -179567  -179672  -179757  -179793  -179783  -179779 
 -179837  -179911  -179905  -179829  -179744  -179667  -179631  -179632 
 -179614  -179628  -179745  -179878  -179915  -179875  -179793  -179679 
 -179575  -179533  -179567  -179621  -179628  -179601  -179597  -179659 
 -179797  -179946  -180050  -180099  -180072  -179986  -179899  -179855 
 -179855  -179868  -179879  -179880  -179825  -179712  -179604  -179563 
 -179658  -179847  -179986  -179990  -179863  -179656  -179491  -179450 
 -179517  -179636  -179720  -179739  -179703  -179589  -179467  -179479 
 -179608  -179748  -179857  -179937  -179991  -180025  -180026  -179967 
 -179865  -179768  -179714  -179749  -179845  -179895  -179879  -179822 
 -179753  -179705  -179662  -179612  -179564  -179533  -179531  -179535 
 -179540  -179586  -179693  -179834  -179969  -180060  -180099  -180137 
 -180189  -180192  -180162  -180126  -180026  -179872  -179744  -179671 
 -179649  -179659  -179651  -179598  -179537  -179471  -179339  -179153 
 -179042  -179131  -179415  -179766  -180040  -180191  -180264  -180289 
 -180270  -180193  -180044  -179874  -179783  -179771  -179778  -179817 
 -179937  -180094  -180152  -180042  -179847  -179680  -179564  -179464 
 -179386  -179374  -179435  -179501  -179535  -179572  -179625  -179674 
 -179752  -179884  -180017  -180080  -180042  -179942  -179842  -179782 
 -179770  -179780  -179778  -179766  -179763  -179771  -179756  -179697 
 -179631  -179639  -179755  -179865  -179855  -179740  -179564  -179381 
 -179278  -179302  -179475  -179734  -179936  -180022  -180015  -179972 
 -179973  -179982  -179914  -179805  -179701  -179610  -179558  -179502 
 -179385  -179308  -179383  -179516  -179599  -179687  -179786  -179855 
 -179973  -180166  -180318  -180331  -180175  -179936  -179770  -179752 
 -179864  -180000  -180031  -179942  -179806  -179714  -179698  -179699 
 -179701  -179729  -179766  -179761  -179691  -179599  -179540  -179504 
 -179529  -179666  -179807  -179853  -179836  -179791  -179734  -179713 
 -179755  -179809  -179822  -179841  -179905  -179967  -179975  -179917 
 -179829  -179779  -179791  -179803  -179786  -179811  -179869  -179851 
 -179748  -179635  -179525  -179473  -179524  -179599  -179679  -179826 
 -179965  -179987  -179955  -179930  -179882  -179797  -179724  -179702 
 -179691  -179664  -179678  -179732  -179740  -179667  -179587  -179578 
 -179625  -179675  -179718  -179752  -179759  -179766  -179786  -179784 
 -179783  -179822  -179848  -179820  -179797  -179821  -179882  -179901 
 -179806  -179651  -179543  -179524  -179574  -179639  -179651  -179647 
 -179759  -179969  -180108  -180129  -180084  -179992  -179878  -179793 
 -179775  -179799  -179797  -179767  -179740  -179713  -179717  -179774 
 -179817  -179799  -179759  -179680  -179550  -179491  -179599  -179730 
 -179705  -179589  -179562  -179655  -179763  -179787  -179759  -179783 
 -179844  -179851  -179798  -179795  -179903  -180007  -179996  -179909 
 -179817  -179787  -179832  -179841  -179728  -179581  -179551  -179636 
 -179703  -179706  -179713  -179774  -179878  -179953  -179937  -179886 
 -179867  -179863  -179855  -179815  -179740  -179733  -179833  -179891 
 -179842  -179775  -179737  -179725  -179733  -179759  -179795  -179833 
 -179837  -179798  -179772  -179788  -179783  -179713  -179620  -179544 
 -179504  -179509  -179551  -179599  -179640  -179689  -179744  -179780 
 -179780  -179770  -179811  -179910  -179977  -179944  -179852  -179830 
 -179901  -179952  -179925  -179867  -179861  -179884  -179813  -179667 
 -179581  -179566  -179535  -179486  -179479  -179527  -179594  -179644 
 -179655  -179671  -179732  -179798  -179813  -179801  -179828  -179894 
 -179921  -179880  -179851  -179883  -179919  -179907  -179874  -179845 
 -179810  -179767  -179749  -179767  -179791  -179797  -179780  -179710 
 -179606  -179547  -179562  -179674  -179847  -179961  -179973  -179892 
 -179736  -179629  -179648  -179720  -179788  -179825  -179809  -179803 
 -179828  -179810  -179741  -179679  -179659  -179682  -179729  -179791 
 -179874  -179952  -179980  -179926  -179825  -179774  -179803  -179815 
 -179729  -179614  -179601  -179698  -179810  -179857  -179817  -179724 
 -179668  -179695  -179760  -179820  -179840  -179801  -179726  -179647 
 -179595  -179617  -179682  -179722  -179720  -179691  -179676  -179710 
 -179767  -179775  -179717  -179676  -179722  -179805  -179860  -179876 
 -179863  -179834  -179801  -179795  -179853  -179936  -179965  -179907 
 -179813  -179799  -179860  -179894  -179892  -179863  -179775  -179659 
 -179589  -179597  -179651  -179724  -179797  -179832  -179817  -179780 
 -179726  -179659  -179633  -179674  -179709  -179705  -179718  -179756 
 -179793  -179853  -179923  -179959  -179971  -179967  -179919  -179829 
 -179726  -179640  -179593  -179622  -179699  -179752  -179791  -179841 
 -179830  -179747  -179685  -179668  -179641  -179610  -179664  -179780 
 -179829  -179821  -179849  -179874  -179842  -179815  -179813  -179797 
 -179756  -179710  -179694  -179702  -179687  -179626  -179552  -179518 
 -179560  -179667  -179783  -179841  -179807  -179729  -179701  -179764 
 -179859  -179901  -179886  -179871  -179879  -179888  -179901  -179934 
 -179957  -179923  -179837  -179730  -179671  -179705  -179787  -179829 
 -179802  -179766  -179720  -179649  -179632  -179678  -179721  -179753 
 -179764  -179763  -179790  -179836  -179871  -179867  -179821  -179790 
 -179787  -179791  -179809  -179828  -179830  -179837  -179847  -179834 
 -179791  -179726  -179664  -179662  -179732  -179818  -179853  -179813 
 -179721  -179645  -179628  -179656  -179682  -179699  -179734  -179780 
 -179840  -179891  -179861  -179734  -179601  -179560  -179605  -179655 
 -179698  -179779  -179856  -179842  -179783  -179760  -179775  -179821 
 -179841  -179761  -179643  -179595  -179618  -179671  -179744  -179811 
 -179841  -179837  -179840  -179845  -179820  -179790  -179824  -179876 
 -179874  -179844  -179833  -179847  -179875  -179894  -179864  -179811 
 -179768  -179718  -179662  -179636  -179644  -179651  -179645  -179655 
 -179674  -179674  -179664  -179653  -179671  -179744  -179788  -179787 
 -179826  -179878  -179860  -179817  -179811  -179818  -179802  -179782 
 -179788  -179797  -179748  -179706  -179755  -179801  -179775  -179767 
 -179783  -179755  -179712  -179676  -179644  -179644  -179663  -179671 
 -179690  -179714  -179728  -179716  -179690  -179695  -179759  -179849 
 -179919  -179917  -179849  -179815  -179871  -179933  -179946  -179952 
 -179938  -179879  -179811  -179786  -179805  -179815  -179799  -179778 
 -179756  -179747  -179734  -179729  -179770  -179818  -179824  -179788 
 -179744  -179747  -179776  -179759  -179709  -179693  -179724  -179776 
 -179793  -179739  -179651  -179587  -179595  -179660  -179709  -179732 
 -179752  -179747  -179733  -179747  -179756  -179744  -179751  -179790 
