Origin Time       2025/03/30 10:18:00
Lat.              34.667
Long.             140.825
Depth. (km)       69
Mag.              4.9
Station Code      YMNH14
Station Lat.      35.5115
Station Long.     138.9675
Station Height(m) 760
Record Time       2025/03/30 10:19:21
Sampling Freq(Hz) 100Hz
Duration Time(s)  120
Dir.              3
Scale Factor      2942(gal)/8224139
Max. Acc. (gal)   0.159
Last Correction   2025/03/30 10:19:21
Memo.             
[...]
 -311343  -311295  -311264  -311253  -311281  -311292  -311247  -311220 
 -311269  -311347  -311362  -311304  -311276  -311296  -311304  -311297 
 -311274  -311260  -311318  -311382  -311358  -311328  -311354  -311357 
 -311324  -311310  -311312  -311334  -311361  -311346  -311312  -311318 
 -311335  -311322  -311303  -311305  -311327  -311337  -311301  -311261 
 -311276  -311305  -311293  -311274  -311277  -311307  -311354  -311381 
 -311353  -311287  -311261  -311301  -311316  -311281  -311304  -311397 
 -311458  -311455  -311400  -311300  -311224  -311216  -311233  -311260 
 -311299  -311322  -311351  -311380  -311347  -311305  -311319  -311342 
 -311292  -311193  -311169  -311229  -311266  -311287  -311334  -311382 
 -311395  -311359  -311299  -311273  -311283  -311284  -311285  -311304 
 -311316  -311324  -311345  -311328  -311284  -311300  -311350  -311361 
 -311342  -311310  -311270  -311274  -311311  -311315  -311303  -311342 
 -311407  -311416  -311372  -311353  -311385  -311384  -311314  -311258 
 -311261  -311281  -311314  -311364  -311377  -311349  -311335  -311316 
 -311265  -311238  -311242  -311241  -311287  -311370  -311393  -311349 
 -311310  -311308  -311299  -311239  -311214  -311264  -311311  -311328 
 -311314  -311269  -311285  -311358  -311389  -311374  -311353  -311334 
 -311320  -311266  -311187  -311202  -311308  -311404  -311426  -311353 
 -311270  -311245  -311218  -311226  -311334  -311411  -311369  -311285 
 -311253  -311289  -311303  -311292  -311353  -311405  -311381  -311353 
 -311300  -311242  -311253  -311287  -311304  -311326  -311359  -311385 
 -311364  -311312  -311245  -311195  -311262  -311388  -311426  -311386 
 -311338  -311324  -311327  -311304  -311287  -311292  -311304  -311315 
 -311285  -311241  -311272  -311370  -311439  -311408  -311324  -311297 
 -311310  -311285  -311220  -311191  -311262  -311355  -311355  -311301 
 -311288  -311310  -311303  -311289  -311308  -311324  -311326  -311318 
 -311280  -311245  -311264  -311297  -311280  -311266  -311311  -311343 
 -311328  -311319  -311307  -311293  -311327  -311358  -311318  -311287 
 -311338  -311389  -311382  -311377  -311374  -311334  -311300  -311331 
 -311374  -311343  -311300  -311332  -311361  -311318  -311277  -311283 
 -311312  -311343  -311357  -311341  -311281  -311239  -311291  -311335 
 -311311  -311315  -311347  -311342  -311285  -311212  -311231  -311337 
 -311373  -311315  -311273  -311295  -311326  -311303  -311280  -311311 
 -311328  -311324  -311319  -311261  -311230  -311316  -311374  -311338 
 -311319  -311332  -311327  -311304  -311273  -311281  -311323  -311330 
 -311337  -311361  -311341  -311281  -311226  -311227  -311285  -311299 
 -311280  -311303  -311324  -311334  -311339  -311327  -311343  -311362 
 -311320  -311269  -311256  -311272  -311311  -311332  -311322  -311342 
 -311413  -311449  -311377  -311276  -311247  -311270  -311295  -311314 
 -311322  -311334  -311357  -311378  -311400  -311393  -311350  -311339 
 -311354  -311349  -311342  -311316  -311291  -311303  -311291  -311250 
 -311266  -311310  -311305  -311283  -311285  -311293  -311273  -311250 
 -311262  -311297  -311331  -311342  -311314  -311272  -311262  -311293 
 -311314  -311314  -311343  -311361  -311330  -311296  -311283  -311304 
 -311358  -311364  -311305  -311300  -311347  -311308  -311230  -311250 
 -311314  -311330  -311308  -311273  -311272  -311322  -311359  -311349 
 -311300  -311262  -311293  -311354  -311353  -311318  -311323  -311343 
 -311346  -311339  -311334  -311334  -311334  -311324  -311330  -311372 
 -311401  -311366  -311330  -311347  -311366  -311349  -311304  -311264 
 -311273  -311297  -311303  -311299  -311270  -311261  -311293  -311318 
 -311327  -311337  -311342  -311315  -311281  -311295  -311307  -311260 
 -311243  -311310  -311380  -311391  -311347  -311304  -311301  -311312 
 -311287  -311250  -311277  -311326  -311343  -311382  -311397  -311320 
 -311258  -311268  -311274  -311300  -311365  -311365  -311300  -311280 
 -311305  -311315  -311284  -311277  -311351  -311389  -311328  -311278 
 -311280  -311299  -311323  -311316  -311285  -311277  -311310  -311359 
 -311373  -311331  -311295  -311304  -311287  -311219  -311195  -311246 
 -311296  -311307  -311318  -311338  -311355  -311376  -311389  -311374 
 -311327  -311265  -311253  -311299  -311322  -311332  -311368  -311381 
 -311362  -311354  -311350  -311315  -311273  -311274  -311300  -311319 
 -311312  -311277  -311261  -311288  -311337  -311374  -311372  -311366 
 -311365  -311318  -311245  -311195  -311220  -311341  -311397  -311314 
 -311284  -311355  -311381  -311338  -311264  -311193  -311243  -311362 
 -311364  -311292  -311293  -311318  -311284  -311243  -311234  -311264 
 -311347  -311405  -311374  -311314  -311273  -311276  -311297  -311260 
 -311234  -311303  -311372  -311353  -311312  -311318  -311342  -311328 
 -311276  -311226  -311224  -311297  -311389  -311385  -311331  -311364 
 -311436  -311436  -311369  -311273  -311233  -311315  -311411  -311400 
 -311341  -311318  -311338  -311376  -311353  -311268  -311257  -311308 
 -311323  -311362  -311403  -311331  -311246  -311261  -311295  -311289 
 -311292  -311316  -311342  -311347  -311319  -311295  -311299  -311296 
 -311297  -311305  -311265  -311241  -311285  -311300  -311277  -311310 
 -311353  -311346  -311330  -311314  -311297  -311322  -311353  -311307 
 -311251  -311315  -311404  -311355  -311246  -311216  -311256  -311301 
 -311311  -311293  -311300  -311332  -311366  -311378  -311361  -311326 
 -311262  -311206  -311212  -311261  -311311  -311346  -311341  -311334 
 -311369  -311373  -311315  -311283  -311297  -311301  -311292  -311308 
 -311357  -311381  -311386  -311411  -311392  -311324  -311291  -311291 
 -311297  -311297  -311311  -311380  -311413  -311338  -311266  -311277 
 -311315  -311316  -311310  -311323  -311310  -311289  -311293  -311261 
 -311226  -311250  -311277  -311285  -311307  -311308  -311269  -311265 
 -311324  -311368  -311342  -311296  -311277  -311297  -311320  -311305 
 -311319  -311388  -311395  -311335  -311292  -311256  -311276  -311366 
 -311395  -311337  -311288  -311280  -311281  -311260  -311234  -311247 
 -311297  -311361  -311385  -311342  -311301  -311310  -311330  -311334 
 -311315  -311268  -311234  -311251  -311284  -311308  -311334  -311343 
 -311347  -311377  -311372  -311305  -311251  -311229  -311249  -311320 
 -311381  -311385  -311355  -311349  -311361  -311337  -311291  -311266 
 -311238  -311224  -311307  -311388  -311354  -311316  -311354  -311369 
 -311342  -311327  -311300  -311260  -311274  -311341  -311359  -311310 
 -311291  -311332  -311354  -311328  -311303  -311303  -311337  -311376 
 -311365  -311339  -311354  -311354  -311303  -311256  -311239  -311261 
 -311307  -311307  -311283  -311347  -311430  -311395  -311315  -311285 
 -311291  -311295  -311277  -311256  -311243  -311260  -311308  -311330 
 -311319  -311314  -311312  -311359  -311411  -311345  -311268  -311307 
 -311364  -311346  -311258  -311188  -311242  -311345  -311370  -311338 
 -311307  -311308  -311335  -311339  -311328  -311334  -311334  -311326 
 -311351  -311378  -311350  -311307  -311292  -311281  -311246  -311193 
 -311187  -311241  -311288  -311345  -311408  -311427  -311411  -311368 
 -311303  -311265  -311260  -311284  -311320  -311316  -311299  -311341 
 -311392  -311373  -311324  -311316  -311331  -311319  -311299  -311305 
 -311318  -311311  -311310  -311327  -311323  -311281  -311272  -311328 
 -311357  -311315  -311278  -311268  -311238  -311242  -311307  -311328 
 -311303  -311323  -311370  -311382  -311323  -311207  -311166  -311247 
 -311331  -311361  -311362  -311362  -311389  -311400  -311354  -311310 
 -311299  -311289  -311287  -311276  -311265  -311292  -311311  -311312 
 -311357  -311409  -311397  -311347  -311312  -311287  -311261  -311258 
 -311278  -311283  -311273  -311291  -311324  -311347  -311342  -311305 
 -311281  -311307  -311334  -311312  -311284  -311288  -311310  -311331 
 -311337  -311311  -311288  -311300  -311330  -311337  -311315  -311301 
 -311328  -311359  -311334  -311315  -311368  -311384  -311331  -311314 
 -311310  -311276  -311287  -311312  -311258  -311223  -311285  -311337 
 -311346  -311368  -311377  -311339  -311287  -311276  -311293  -311297 
 -311301  -311310  -311322  -311319  -311287  -311284  -311322  -311349 
 -311376  -311389  -311357  -311305  -311280  -311295  -311316  -311311 
 -311301  -311303  -311303  -311307  -311328  -311346  -311323  -311293 
 -311289  -311261  -311212  -311237  -311331  -311389  -311358  -311318 
 -311301  -311270  -311272  -311320  -311324  -311291  -311322  -311400 
 -311393  -311307  -311262  -311274  -311314  -311355  -311342  -311311 
 -311319  -311339  -311359  -311334  -311277  -311293  -311362  -311369 
 -311304  -311261  -311283  -311297  -311272  -311257  -311249  -311250 
 -311308  -311378  -311372  -311338  -311351  -311355  -311331  -311315 
 -311289  -311269  -311281  -311300  -311338  -311386  -311381  -311338 
 -311324  -311331  -311311  -311281  -311283  -311307  -311328  -311332 
 -311320  -311310  -311292  -311274  -311278  -311265  -311253  -311301 
 -311339  -311312  -311281  -311278  -311303  -311337  -311337  -311301 
 -311264  -311270  -311320  -311330  -311285  -311265  -311287  -311326 
 -311347  -311303  -311249  -311272  -311331  -311359  -311374  -311373 
 -311323  -311287  -311307  -311337  -311347  -311324  -311300  -311328 
 -311355  -311338  -311326  -311332  -311350  -311372  -311343  -311274 
 -311231  -311233  -311284  -311349  -311365  -311346  -311332  -311328 
 -311320  -311291  -311262  -311266  -311284  -311289  -311287  -311270 
 -311278  -311316  -311334  -311350  -311362  -311319  -311270  -311249 
 -311242  -311269  -311293  -311326  -311370  -311361  -311330  -311324 
 -311310  -311303  -311315  -311310  -311307  -311337  -311362  -311337 
 -311299  -311299  -311301  -311300  -311314  -311318  -311330  -311354 
 -311324  -311295  -311334  -311346  -311300  -311307  -311342  -311322 
 -311284  -311266  -311270  -311288  -311276  -311249  -311249  -311285 
 -311341  -311357  -311341  -311370  -311403  -311373  -311305  -311233 
 -311212  -311269  -311330  -311355  -311368  -311351  -311293  -311241 
 -311251  -311301  -311327  -311322  -311315  -311308  -311305  -311320 
 -311338  -311328  -311308  -311303  -311314  -311342  -311361  -311353 
 -311343  -311328  -311304  -311312  -311332  -311318  -311283  -311270 
 -311284  -311293  -311288  -311283  -311273  -311288  -311335  -311368 
 -311361  -311320  -311276  -311268  -311269  -311258  -311262  -311266 
 -311256  -311276  -311345  -311378  -311347  -311328  -311339  -311372 
 -311409  -311395  -311345  -311295  -311257  -311250  -311265  -311277 
 -311266  -311226  -311214  -311247  -311257  -311246  -311247  -311262 
 -311318  -311389  -311422  -311436  -311439  -311395  -311330  -311293 
 -311276  -311242  -311210  -311231  -311318  -311377  -311323  -311264 
 -311318  -311401  -311430  -311435  -311423  -311423  -311446  -311395 
 -311289  -311257  -311269  -311243  -311212  -311218  -311249  -311272 
 -311261  -311281  -311362  -311418  -311422  -311399  -311364  -311369 
 -311426  -311454  -311423  -311395  -311361  -311266  -311169  -311148 
 -311193  -311274  -311326  -311320  -311330  -311386  -311435  -311408 
 -311345  -311339  -311339  -311270  -311199  -311166  -311149  -311185 
 -311262  -311303  -311319  -311331  -311300  -311277  -311324  -311335 
 -311277  -311280  -311320  -311312  -311299  -311318  -311358  -311355 
 -311278  -311234  -311251  -311249  -311238  -311258  -311289  -311335 
 -311376  -311346  -311268  -311229  -311260  -311301  -311308  -311341 
 -311415  -311432  -311388  -311389  -311440  -311476  -311453  -311355 
 -311237  -311193  -311220  -311242  -311207  -311154  -311188  -311289 
 -311337  -311300  -311229  -311166  -311158  -311242  -311338  -311322 
 -311280  -311391  -311555  -311580  -311504  -311401  -311291  -311256 
 -311273  -311218  -311127  -311123  -311183  -311237  -311291  -311350 
 -311396  -311440  -311478  -311493  -311489  -311442  -311368  -311341 
 -311342  -311301  -311226  -311175  -311185  -311229  -311277  -311307 
 -311253  -311170  -311185  -311300  -311404  -311426  -311415  -311397 
 -311319  -311214  -311133  -311080  -311085  -311149  -311218  -311257 
 -311258  -311270  -311323  -311393  -311470  -311528  -311548  -311567 
 -311559  -311476  -311364  -311285  -311262  -311278  -311312  -311345 
 -311378  -311457  -311551  -311570  -311496  -311354  -311208  -311112 
 -311041  -311017  -311069  -311110  -311110  -311131  -311172  -311237 
 -311338  -311434  -311496  -311530  -311543  -311539  -311493  -311393 
 -311285  -311230  -311191  -311116  -311054  -311057  -311122  -311231 
 -311346  -311427  -311451  -311432  -311461  -311546  -311589  -311566 
 -311503  -311412  -311327  -311253  -311177  -311089  -310998  -310967 
 -311013  -311079  -311148  -311216  -311281  -311368  -311470  -311540 
 -311540  -311474  -311397  -311345  -311299  -311264  -311264  -311292 
 -311324  -311324  -311285  -311216  -311118  -311061  -311107  -311192 
 -311256  -311281  -311284  -311314  -311373  -311430  -311501  -311604 
 -311689  -311685  -311563  -311389  -311301  -311318  -311341  -311373 
 -311431  -311430  -311366  -311299  -311257  -311245  -311188  -311103 
 -311114  -311154  -311134  -311107  -311077  -311079  -311129  -311165 
 -311180  -311152  -311094  -311115  -311214  -311324  -311477  -311655 
 -311759  -311756  -311670  -311535  -311386  -311301  -311334  -311393 
 -311391  -311343  -311265  -311200  -311197  -311215  -311265  -311330 
 -311300  -311216  -311192  -311219  -311295  -311439  -311539  -311513 
 -311466  -311439  -311386  -311338  -311315  -311291  -311269  -311229 
 -311156  -311123  -311172  -311245  -311274  -311269  -311253  -311249 
 -311287  -311342  -311347  -311342  -311377  -311372  -311273  -311165 
 -311133  -311165  -311230  -311318  -311370  -311346  -311328  -311370 
 -311378  -311330  -311297  -311264  -311223  -311216  -311192  -311111 
 -311041  -311069  -311200  -311332  -311397  -311413  -311422  -311481 
 -311563  -311593  -311582  -311551  -311539  -311571  -311558  -311478 
 -311404  -311350  -311310  -311268  -311233  -311220  -311214  -311219 
 -311230  -311224  -311220  -311212  -311207  -311216  -311172  -311102 
 -311118  -311173  -311197  -311219  -311227  -311210  -311235  -311307 
 -311326  -311276  -311251  -311296  -311392  -311497  -311554  -311539 
 -311470  -311391  -311357  -311381  -311419  -311403  -311351  -311351 
 -311370  -311343  -311346  -311388  -311409  -311409  -311355  -311281 
 -311273  -311251  -311166  -311141  -311210  -311285  -311316  -311322 
 -311331  -311337  -311303  -311249  -311229  -311245  -311268  -311278 
 -311278  -311283  -311292  -311303  -311314  -311328  -311334  -311308 
 -311283  -311284  -311276  -311289  -311366  -311409  -311404  -311432 
 -311457  -311438  -311400  -311355  -311316  -311256  -311193  -311214 
 -311274  -311264  -311196  -311180  -311245  -311256  -311187  -311187 
 -311260  -311314  -311338  -311319  -311269  -311260  -311334  -311415 
 -311368  -311253  -311216  -311251  -311324  -311400  -311382  -311301 
 -311250  -311245  -311281  -311323  -311351  -311446  -311553  -311531 
 -311477  -311490  -311503  -311493  -311480  -311455  -311434  -311391 
 -311323  -311260  -311220  -311215  -311229  -311218  -311189  -311187 
 -311220  -311238  -311222  -311207  -311196  -311181  -311202  -311270 
 -311346  -311388  -311391  -311378  -311347  -311274  -311211  -311231 
 -311288  -311291  -311268  -311281  -311284  -311237  -311222  -311235 
 -311214  -311237  -311318  -311350  -311331  -311301  -311273  -311287 
 -311349  -311393  -311362  -311285  -311245  -311296  -311353  -311337 
 -311312  -311316  -311335  -311364  -311368  -311369  -311404  -311439 
 -311457  -311451  -311428  -311401  -311351  -311315  -311320  -311291 
 -311246  -311265  -311285  -311289  -311320  -311307  -311222  -311197 
 -311274  -311332  -311316  -311303  -311318  -311324  -311334  -311350 
 -311319  -311254  -311229  -311260  -311320  -311369  -311359  -311292 
 -311231  -311215  -311241  -311281  -311315  -311355  -311377  -311353 
 -311318  -311316  -311370  -311403  -311377  -311378  -311382  -311337 
 -311311  -311293  -311247  -311243  -311297  -311347  -311357  -311312 
 -311260  -311256  -311264  -311243  -311243  -311257  -311208  -311154 
 -311214  -311328  -311362  -311331  -311319  -311332  -311355  -311382 
 -311415  -311453  -311450  -311397  -311365  -311372  -311368  -311355 
 -311386  -311449  -311470  -311457  -311450  -311419  -311346  -311269 
 -311227  -311218  -311222  -311276  -311350  -311345  -311281  -311226 
 -311180  -311169  -311199  -311237  -311264  -311245  -311187  -311165 
 -311183  -311183  -311173  -311179  -311204  -311260  -311332  -311364 
 -311342  -311315  -311307  -311323  -311370  -311413  -311411  -311381 
 -311391  -311407  -311370  -311335  -311338  -311349  -311373  -311393 
 -311389  -311374  -311377  -311422  -311485  -311485  -311400  -311315 
 -311296  -311303  -311287  -311266  -311265  -311276  -311276  -311273 
 -311268  -311247  -311245  -311256  -311258  -311276  -311310  -311335 
 -311331  -311277  -311212  -311200  -311268  -311353  -311362  -311314 
 -311288  -311293  -311315  -311320  -311260  -311204  -311229  -311276 
 -311318  -311349  -311358  -311388  -311415  -311373  -311304  -311270 
 -311260  -311264  -311303  -311368  -311409  -311412  -311399  -311365 
 -311314  -311304  -311319  -311303  -311303  -311339  -311322  -311269 
 -311292  -311365  -311376  -311315  -311283  -311316  -311342  -311337 
 -311322  -311276  -311250  -311319  -311384  -311357  -311315  -311318 
 -311314  -311268  -311226  -311226  -311272  -311338  -311361  -311328 
 -311305  -311335  -311372  -311338  -311249  -311192  -311187  -311204 
 -311238  -311281  -311305  -311308  -311304  -311322  -311357  -311351 
 -311319  -311347  -311404  -311436  -311473  -311470  -311434  -311431 
 -311416  -311385  -311382  -311361  -311332  -311343  -311347  -311316 
 -311262  -311210  -311180  -311184  -311241  -311310  -311320  -311280 
 -311246  -311247  -311284  -311305  -311273  -311230  -311229  -311269 
 -311307  -311310  -311305  -311308  -311304  -311304  -311273  -311246 
 -311310  -311389  -311388  -311332  -311268  -311257  -311293  -311308 
 -311289  -311274  -311301  -311370  -311399  -311361  -311326  -311310 
 -311300  -311295  -311278  -311268  -311287  -311316  -311342  -311357 
 -311349  -311335  -311353  -311359  -311355  -311386  -311396  -311355 
 -311315  -311272  -311253  -311285  -311301  -311266  -311227  -311227 
 -311251  -311276  -311301  -311304  -311276  -311262  -311264  -311274 
 -311314  -311320  -311307  -311368  -311420  -311386  -311365  -311407 
 -311440  -311424  -311389  -311377  -311378  -311358  -311347  -311361 
 -311350  -311326  -311349  -311373  -311320  -311246  -311229  -311237 
 -311251  -311295  -311341  -311327  -311269  -311246  -311262  -311249 
 -311223  -311218  -311220  -311250  -311278  -311253  -311218  -311200 
 -311200  -311235  -311265  -311270  -311281  -311297  -311319  -311358 
 -311404  -311409  -311377  -311365  -311399  -311449  -311458  -311432 
 -311413  -311386  -311338  -311323  -311359  -311396  -311377  -311318 
