Origin Time       2025/03/30 10:18:00
Lat.              34.667
Long.             140.825
Depth. (km)       69
Mag.              4.9
Station Code      YMNH12
Station Lat.      35.5623
Station Long.     138.4490
Station Height(m) 295
Record Time       2025/03/30 10:19:34
Sampling Freq(Hz) 100Hz
Duration Time(s)  120
Dir.              4
Scale Factor      3920(gal)/6170801
Max. Acc. (gal)   0.576
Last Correction   2025/03/30 10:19:19
Memo.             
[...]
   -7703    -7690    -7675    -7676    -7699    -7712    -7703    -7695 
   -7689    -7673    -7662    -7677    -7710    -7746    -7774    -7782 
   -7768    -7747    -7727    -7710    -7709    -7718    -7720    -7717 
   -7715    -7714    -7716    -7720    -7724    -7723    -7727    -7740 
   -7746    -7749    -7756    -7751    -7737    -7726    -7708    -7678 
   -7650    -7637    -7640    -7656    -7676    -7691    -7699    -7699 
   -7692    -7690    -7708    -7745    -7780    -7795    -7791    -7766 
   -7729    -7698    -7671    -7659    -7674    -7707    -7742    -7768 
   -7772    -7748    -7718    -7702    -7691    -7688    -7690    -7689 
   -7697    -7708    -7711    -7725    -7742    -7750    -7748    -7740 
   -7740    -7752    -7769    -7782    -7783    -7764    -7730    -7697 
   -7675    -7663    -7655    -7654    -7657    -7668    -7696    -7736 
   -7769    -7785    -7780    -7764    -7744    -7724    -7712    -7716 
   -7729    -7730    -7708    -7678    -7647    -7619    -7621    -7642 
   -7667    -7700    -7731    -7751    -7768    -7774    -7771    -7756 
   -7725    -7696    -7687    -7687    -7687    -7689    -7700    -7718 
   -7729    -7735    -7739    -7730    -7715    -7713    -7727    -7743 
   -7749    -7750    -7753    -7765    -7778    -7780    -7766    -7748 
   -7735    -7722    -7712    -7712    -7714    -7706    -7684    -7656 
   -7647    -7659    -7677    -7699    -7718    -7723    -7717    -7714 
   -7726    -7743    -7748    -7737    -7733    -7742    -7747    -7745 
   -7739    -7731    -7733    -7743    -7744    -7738    -7724    -7702 
   -7684    -7683    -7685    -7684    -7688    -7695    -7698    -7700 
   -7707    -7716    -7722    -7718    -7710    -7708    -7713    -7715 
   -7713    -7700    -7685    -7681    -7681    -7686    -7693    -7693 
   -7689    -7691    -7706    -7733    -7757    -7774    -7773    -7754 
   -7737    -7727    -7730    -7742    -7749    -7752    -7754    -7754 
   -7752    -7740    -7721    -7707    -7696    -7684    -7677    -7684 
   -7696    -7698    -7691    -7689    -7696    -7715    -7741    -7753 
   -7744    -7729    -7722    -7718    -7701    -7678    -7667    -7671 
   -7690    -7719    -7749    -7771    -7773    -7760    -7749    -7740 
   -7726    -7715    -7708    -7697    -7686    -7686    -7694    -7701 
   -7703    -7705    -7708    -7705    -7719    -7749    -7761    -7754 
   -7742    -7719    -7695    -7692    -7710    -7732    -7752    -7764 
   -7767    -7762    -7743    -7723    -7718    -7722    -7722    -7720 
   -7721    -7720    -7705    -7691    -7693    -7691    -7693    -7715 
   -7733    -7739    -7743    -7741    -7739    -7741    -7738    -7736 
   -7737    -7742    -7742    -7725    -7703    -7681    -7655    -7640 
   -7651    -7678    -7704    -7726    -7750    -7769    -7775    -7763 
   -7732    -7702    -7690    -7692    -7695    -7696    -7698    -7698 
   -7691    -7694    -7707    -7713    -7719    -7726    -7727    -7728 
   -7733    -7738    -7731    -7712    -7697    -7693    -7701    -7706 
   -7702    -7700    -7697    -7699    -7717    -7741    -7762    -7772 
   -7767    -7754    -7735    -7721    -7718    -7708    -7691    -7684 
   -7692    -7714    -7740    -7762    -7765    -7748    -7731    -7718 
   -7709    -7715    -7732    -7728    -7698    -7666    -7641    -7628 
   -7644    -7677    -7704    -7715    -7710    -7703    -7718    -7753 
   -7769    -7755    -7727    -7716    -7741    -7776    -7797    -7799 
   -7778    -7747    -7722    -7709    -7698    -7679    -7664    -7670 
   -7692    -7722    -7748    -7753    -7731    -7703    -7697    -7711 
   -7715    -7696    -7671    -7654    -7653    -7676    -7694    -7699 
   -7703    -7705    -7706    -7715    -7728    -7744    -7749    -7732 
   -7710    -7703    -7716    -7740    -7761    -7771    -7773    -7772 
   -7780    -7787    -7780    -7764    -7741    -7702    -7663    -7645 
   -7649    -7667    -7701    -7733    -7749    -7761    -7757    -7730 
   -7702    -7692    -7695    -7703    -7708    -7708    -7695    -7674 
   -7667    -7676    -7687    -7698    -7707    -7710    -7716    -7728 
   -7739    -7748    -7746    -7728    -7713    -7713    -7724    -7740 
   -7754    -7753    -7740    -7735    -7738    -7735    -7725    -7712 
   -7696    -7686    -7693    -7708    -7719    -7724    -7715    -7691 
   -7677    -7671    -7661    -7666    -7685    -7695    -7698    -7702 
   -7710    -7723    -7738    -7753    -7768    -7785    -7807    -7819 
   -7806    -7779    -7747    -7708    -7675    -7661    -7665    -7679 
   -7700    -7717    -7726    -7735    -7737    -7735    -7731    -7718 
   -7708    -7713    -7719    -7720    -7716    -7705    -7697    -7696 
   -7694    -7686    -7686    -7697    -7708    -7718    -7730    -7741 
   -7749    -7751    -7751    -7747    -7734    -7711    -7687    -7672 
   -7664    -7665    -7684    -7719    -7762    -7795    -7799    -7770 
   -7732    -7693    -7657    -7643    -7657    -7684    -7714    -7734 
   -7741    -7740    -7739    -7735    -7730    -7721    -7709    -7709 
   -7725    -7735    -7726    -7714    -7703    -7702    -7719    -7750 
   -7785    -7800    -7781    -7744    -7710    -7689    -7682    -7686 
   -7698    -7719    -7744    -7758    -7758    -7748    -7730    -7714 
   -7703    -7694    -7686    -7681    -7670    -7652    -7645    -7661 
   -7687    -7713    -7737    -7755    -7763    -7762    -7758    -7750 
   -7739    -7726    -7711    -7702    -7710    -7727    -7735    -7729 
   -7704    -7676    -7676    -7701    -7725    -7729    -7711    -7685 
   -7667    -7669    -7687    -7698    -7697    -7697    -7702    -7721 
   -7760    -7793    -7794    -7764    -7730    -7716    -7731    -7756 
   -7766    -7758    -7750    -7752    -7751    -7742    -7722    -7693 
   -7671    -7671    -7694    -7726    -7757    -7776    -7765    -7736 
   -7710    -7691    -7682    -7683    -7689    -7690    -7687    -7693 
   -7709    -7719    -7707    -7677    -7659    -7669    -7699    -7733 
   -7755    -7760    -7756    -7751    -7745    -7730    -7714    -7705 
   -7704    -7703    -7702    -7710    -7722    -7726    -7714    -7695 
   -7685    -7682    -7680    -7681    -7680    -7671    -7659    -7659 
   -7672    -7682    -7689    -7699    -7710    -7722    -7746    -7782 
   -7815    -7834    -7829    -7796    -7762    -7737    -7708    -7682 
   -7672    -7672    -7677    -7693    -7717    -7732    -7742    -7754 
   -7757    -7754    -7753    -7751    -7750    -7755    -7757    -7751 
   -7745    -7744    -7732    -7702    -7669    -7651    -7661    -7697 
   -7739    -7763    -7764    -7745    -7706    -7671    -7658    -7667 
   -7687    -7704    -7705    -7688    -7676    -7688    -7704    -7711 
   -7717    -7726    -7734    -7739    -7739    -7727    -7713    -7710 
   -7715    -7718    -7711    -7698    -7693    -7712    -7750    -7780 
   -7791    -7779    -7743    -7710    -7696    -7697    -7717    -7750 
   -7762    -7750    -7735    -7721    -7701    -7677    -7654    -7648 
   -7661    -7680    -7694    -7694    -7680    -7665    -7670    -7695 
   -7717    -7726    -7731    -7731    -7729    -7735    -7756    -7779 
   -7791    -7797    -7802    -7796    -7781    -7760    -7742    -7738 
   -7730    -7714    -7702    -7693    -7687    -7676    -7657    -7655 
   -7671    -7689    -7720    -7753    -7756    -7721    -7672    -7636 
   -7625    -7648    -7693    -7724    -7727    -7721    -7718    -7723 
   -7734    -7740    -7738    -7746    -7778    -7804    -7807    -7791 
   -7758    -7725    -7709    -7707    -7706    -7705    -7704    -7701 
   -7706    -7728    -7753    -7767    -7763    -7734    -7698    -7690 
   -7712    -7733    -7727    -7692    -7639    -7607    -7614    -7635 
   -7655    -7672    -7678    -7680    -7699    -7735    -7759    -7758 
   -7739    -7715    -7707    -7717    -7731    -7739    -7738    -7725 
   -7708    -7704    -7709    -7719    -7737    -7758    -7760    -7751 
   -7747    -7736    -7720    -7713    -7712    -7719    -7736    -7746 
   -7738    -7720    -7707    -7701    -7692    -7680    -7668    -7670 
   -7683    -7690    -7696    -7700    -7696    -7696    -7700    -7704 
   -7715    -7730    -7749    -7771    -7789    -7796    -7789    -7770 
   -7749    -7726    -7713    -7718    -7739    -7757    -7759    -7752 
   -7743    -7731    -7724    -7714    -7706    -7714    -7724    -7730 
   -7730    -7715    -7693    -7676    -7669    -7666    -7660    -7657 
   -7661    -7673    -7694    -7721    -7744    -7752    -7750    -7745 
   -7731    -7710    -7688    -7682    -7702    -7724    -7728    -7721 
   -7714    -7710    -7703    -7694    -7690    -7693    -7701    -7713 
   -7719    -7715    -7711    -7717    -7718    -7713    -7721    -7736 
   -7752    -7769    -7765    -7745    -7733    -7723    -7720    -7730 
   -7742    -7752    -7760    -7759    -7750    -7739    -7731    -7728 
   -7729    -7734    -7737    -7739    -7743    -7741    -7728    -7711 
   -7689    -7677    -7685    -7702    -7704    -7686    -7668    -7655 
   -7652    -7667    -7689    -7704    -7716    -7724    -7725    -7723 
   -7723    -7723    -7725    -7737    -7754    -7767    -7772    -7773 
   -7764    -7751    -7743    -7738    -7734    -7740    -7750    -7749 
   -7731    -7697    -7658    -7630    -7620    -7620    -7639    -7676 
   -7702    -7695    -7678    -7671    -7669    -7671    -7679    -7695 
   -7729    -7769    -7792    -7793    -7772    -7728    -7679    -7660 
   -7677    -7701    -7730    -7763    -7781    -7779    -7761    -7734 
   -7710    -7691    -7678    -7684    -7720    -7764    -7780    -7765 
   -7739    -7711    -7689    -7686    -7712    -7750    -7768    -7760 
   -7726    -7677    -7646    -7637    -7647    -7682    -7717    -7728 
   -7732    -7743    -7748    -7736    -7712    -7693    -7681    -7678 
   -7688    -7697    -7698    -7695    -7692    -7704    -7733    -7751 
   -7744    -7728    -7722    -7734    -7759    -7768    -7738    -7689 
   -7652    -7642    -7666    -7712    -7740    -7744    -7748    -7759 
   -7767    -7777    -7784    -7773    -7753    -7750    -7760    -7768 
   -7763    -7738    -7696    -7664    -7661    -7674    -7699    -7731 
   -7747    -7734    -7718    -7712    -7701    -7680    -7662    -7658 
   -7667    -7688    -7705    -7698    -7670    -7644    -7641    -7663 
   -7692    -7701    -7696    -7700    -7716    -7730    -7735    -7731 
   -7724    -7724    -7732    -7747    -7766    -7774    -7753    -7711 
   -7679    -7662    -7655    -7656    -7658    -7672    -7694    -7708 
   -7706    -7694    -7687    -7689    -7697    -7716    -7733    -7739 
   -7738    -7726    -7701    -7663    -7616    -7579    -7567    -7593 
   -7658    -7731    -7789    -7825    -7827    -7808    -7790    -7771 
   -7747    -7727    -7720    -7730    -7758    -7790    -7812    -7819 
   -7830    -7852    -7874    -7893    -7910    -7924    -7936    -7935 
   -7916    -7889    -7856    -7813    -7765    -7722    -7692    -7681 
   -7669    -7648    -7616    -7572    -7541    -7531    -7532    -7548 
   -7571    -7600    -7641    -7674    -7700    -7721    -7724    -7709 
   -7695    -7699    -7718    -7729    -7734    -7738    -7729    -7710 
   -7696    -7698    -7714    -7733    -7752    -7768    -7773    -7766 
   -7759    -7755    -7763    -7795    -7830    -7841    -7826    -7791 
   -7735    -7683    -7663    -7679    -7713    -7740    -7738    -7724 
   -7728    -7750    -7781    -7812    -7823    -7811    -7799    -7806 
   -7814    -7786    -7717    -7632    -7566    -7541    -7561    -7607 
   -7666    -7723    -7759    -7777    -7786    -7778    -7753    -7715 
   -7661    -7610    -7590    -7609    -7651    -7680    -7677    -7644 
   -7580    -7508    -7459    -7435    -7439    -7474    -7526    -7584 
   -7641    -7681    -7699    -7699    -7690    -7684    -7693    -7717 
   -7746    -7773    -7784    -7778    -7765    -7747    -7718    -7686 
   -7655    -7617    -7567    -7509    -7462    -7433    -7420    -7427 
   -7459    -7526    -7633    -7767    -7895    -7970    -7965    -7893 
   -7798    -7725    -7700    -7709    -7729    -7748    -7774    -7809 
   -7846    -7881    -7916    -7946    -7980    -8030    -8084    -8107 
   -8081    -8018    -7958    -7919    -7899    -7908    -7928    -7912 
   -7829    -7701    -7568    -7459    -7397    -7391    -7432    -7484 
   -7520    -7549    -7582    -7627    -7698    -7794    -7897    -7967 
   -7976    -7937    -7862    -7765    -7675    -7629    -7640    -7690 
   -7756    -7821    -7868    -7882    -7866    -7846    -7860    -7907 
   -7979    -8075    -8158    -8173    -8094    -7933    -7734    -7548 
   -7409    -7332    -7309    -7325    -7354    -7363    -7345    -7313 
   -7273    -7254    -7280    -7360    -7486    -7617    -7715    -7763 
   -7748    -7698    -7663    -7666    -7699    -7747    -7815    -7901 
   -7977    -8017    -8006    -7946    -7852    -7746    -7652    -7585 
   -7547    -7529    -7522    -7509    -7493    -7487    -7494    -7506 
   -7540    -7613    -7708    -7805    -7890    -7937    -7935    -7905 
   -7866    -7822    -7770    -7719    -7676    -7645    -7637    -7652 
   -7675    -7711    -7758    -7794    -7816    -7837    -7854    -7845 
   -7801    -7732    -7656    -7593    -7572    -7602    -7664    -7742 
   -7821    -7898    -7980    -8066    -8141    -8189    -8201    -8178 
   -8120    -8025    -7887    -7690    -7451    -7214    -7015    -6877 
   -6812    -6825    -6923    -7089    -7288    -7472    -7597    -7666 
   -7714    -7758    -7804    -7858    -7908    -7925    -7898    -7846 
   -7813    -7833    -7907    -8030    -8181    -8310    -8392    -8431 
   -8421    -8356    -8242    -8101    -7969    -7852    -7744    -7636 
   -7519    -7394    -7283    -7212    -7179    -7184    -7235    -7316 
   -7409    -7496    -7576    -7655    -7733    -7816    -7907    -7972 
   -7985    -7953    -7894    -7830    -7777    -7744    -7730    -7730 
   -7734    -7722    -7674    -7612    -7589    -7623    -7697    -7791 
   -7874    -7918    -7930    -7925    -7915    -7911    -7905    -7883 
   -7844    -7796    -7754    -7722    -7691    -7660    -7644    -7652 
   -7674    -7692    -7690    -7656    -7584    -7506    -7462    -7449 
   -7454    -7475    -7492    -7489    -7475    -7470    -7482    -7500 
   -7516    -7535    -7556    -7570    -7582    -7596    -7614    -7647 
   -7701    -7770    -7842    -7904    -7948    -7966    -7955    -7927 
   -7898    -7873    -7819    -7721    -7619    -7546    -7519    -7543 
   -7592    -7639    -7678    -7701    -7709    -7709    -7717    -7756 
   -7833    -7925    -8020    -8108    -8149    -8122    -8047    -7960 
   -7902    -7876    -7854    -7815    -7752    -7668    -7584    -7509 
   -7448    -7402    -7374    -7369    -7380    -7410    -7461    -7517 
   -7601    -7713    -7804    -7853    -7873    -7879    -7872    -7848 
   -7812    -7764    -7704    -7653    -7620    -7612    -7628    -7650 
   -7664    -7670    -7673    -7676    -7692    -7742    -7817    -7881 
   -7913    -7913    -7876    -7810    -7735    -7671    -7629    -7627 
   -7671    -7733    -7780    -7783    -7734    -7663    -7611    -7591 
   -7609    -7670    -7758    -7833    -7869    -7869    -7847    -7829 
   -7820    -7801    -7778    -7763    -7752    -7749    -7748    -7741 
   -7721    -7688    -7652    -7632    -7639    -7666    -7698    -7722 
   -7743    -7767    -7779    -7764    -7737    -7719    -7715    -7731 
   -7785    -7868    -7930    -7945    -7920    -7873    -7826    -7789 
   -7754    -7708    -7646    -7586    -7556    -7559    -7577    -7582 
   -7566    -7528    -7474    -7422    -7387    -7372    -7382    -7409 
   -7449    -7521    -7614    -7701    -7768    -7801    -7807    -7813 
   -7824    -7834    -7836    -7824    -7801    -7771    -7752    -7750 
   -7740    -7719    -7693    -7661    -7637    -7635    -7648    -7669 
   -7698    -7737    -7796    -7884    -7984    -8061    -8090    -8071 
   -8015    -7930    -7837    -7760    -7706    -7684    -7702    -7746 
   -7790    -7815    -7814    -7789    -7755    -7722    -7669    -7609 
   -7575    -7554    -7535    -7528    -7535    -7554    -7579    -7604 
   -7612    -7600    -7600    -7613    -7613    -7605    -7596    -7576 
   -7563    -7586    -7636    -7694    -7742    -7761    -7744    -7696 
   -7634    -7595    -7616    -7690    -7763    -7816    -7871    -7921 
   -7947    -7959    -7955    -7920    -7862    -7789    -7714    -7673 
   -7680    -7710    -7731    -7743    -7751    -7752    -7753    -7749 
   -7744    -7754    -7775    -7802    -7830    -7847    -7860    -7864 
   -7837    -7793    -7753    -7713    -7663    -7612    -7594    -7606 
   -7620    -7621    -7611    -7594    -7567    -7544    -7543    -7566 
   -7599    -7632    -7665    -7700    -7721    -7712    -7687    -7667 
   -7672    -7712    -7766    -7809    -7825    -7808    -7780    -7767 
   -7775    -7790    -7803    -7812    -7823    -7846    -7854    -7821 
   -7776    -7762    -7774    -7791    -7806    -7794    -7743    -7677 
   -7617    -7574    -7550    -7553    -7581    -7617    -7653    -7687 
   -7695    -7672    -7641    -7613    -7591    -7583    -7594    -7632 
   -7691    -7744    -7775    -7790    -7795    -7804    -7807    -7792 
   -7764    -7732    -7717    -7724    -7730    -7738    -7747    -7733 
   -7706    -7687    -7670    -7656    -7659    -7680    -7706    -7723 
   -7727    -7718    -7715    -7730    -7749    -7758    -7760    -7758 
   -7747    -7729    -7726    -7747    -7781    -7814    -7849    -7878 
   -7881    -7849    -7804    -7758    -7710    -7675    -7671    -7696 
   -7722    -7722    -7699    -7668    -7641    -7647    -7681    -7712 
   -7742    -7762    -7754    -7728    -7693    -7651    -7612    -7583 
   -7591    -7639    -7696    -7751    -7786    -7789    -7776    -7762 
   -7739    -7712    -7689    -7668    -7649    -7642    -7641    -7640 
   -7636    -7625    -7619    -7625    -7640    -7656    -7665    -7676 
   -7701    -7733    -7762    -7793    -7821    -7830    -7821    -7799 
   -7764    -7730    -7713    -7717    -7747    -7781    -7785    -7755 
   -7705    -7662    -7646    -7649    -7665    -7687    -7702    -7712 
   -7724    -7738    -7755    -7758    -7739    -7723    -7720    -7724 
   -7737    -7744    -7740    -7740    -7738    -7729    -7710    -7679 
   -7641    -7606    -7593    -7601    -7612    -7618    -7619    -7624 
   -7668    -7748    -7837    -7915    -7960    -7968    -7949    -7915 
   -7877    -7837    -7800    -7765    -7723    -7681    -7643    -7612 
   -7602    -7624    -7667    -7711    -7739    -7749    -7753    -7756 
   -7742    -7713    -7684    -7666    -7674    -7695    -7708    -7718 
   -7719    -7715    -7710    -7697    -7679    -7662    -7645    -7638 
   -7664    -7721    -7773    -7788    -7766    -7726    -7684    -7652 
   -7644    -7656    -7659    -7648    -7638    -7630    -7626    -7634 
   -7644    -7651    -7661    -7685    -7731    -7788    -7826    -7841 
   -7851    -7864    -7884    -7897    -7883    -7841    -7788    -7738 
   -7710    -7705    -7718    -7736    -7741    -7741    -7759    -7792 
   -7825    -7842    -7824    -7771    -7712    -7671    -7652    -7639 
   -7615    -7585    -7554    -7522    -7495    -7493    -7519    -7559 
