Origin Time       2025/03/30 10:18:00
Lat.              34.667
Long.             140.825
Depth. (km)       69
Mag.              4.9
Station Code      YMNH11
Station Lat.      35.6247
Station Long.     138.9777
Station Height(m) 265
Record Time       2025/03/30 10:19:23
Sampling Freq(Hz) 100Hz
Duration Time(s)  120
Dir.              3
Scale Factor      2940(gal)/6170270
Max. Acc. (gal)   0.114
Last Correction   2025/03/30 10:19:08
Memo.             
[...]
  -45580   -45603   -45596   -45560   -45568   -45588   -45566   -45566 
  -45601   -45598   -45565   -45551   -45551   -45556   -45559   -45556 
  -45542   -45525   -45527   -45542   -45544   -45533   -45535   -45564 
  -45577   -45531   -45497   -45530   -45557   -45541   -45540   -45553 
  -45540   -45515   -45503   -45506   -45517   -45523   -45534   -45555 
  -45561   -45555   -45542   -45515   -45512   -45549   -45584   -45593 
  -45591   -45595   -45612   -45625   -45610   -45569   -45535   -45549 
  -45598   -45627   -45621   -45597   -45581   -45586   -45588   -45573 
  -45557   -45549   -45549   -45553   -45553   -45566   -45603   -45620 
  -45586   -45554   -45557   -45566   -45578   -45596   -45590   -45568 
  -45581   -45619   -45621   -45587   -45551   -45527   -45534   -45550 
  -45545   -45535   -45535   -45534   -45518   -45496   -45486   -45496 
  -45520   -45523   -45497   -45492   -45519   -45533   -45525   -45520 
  -45523   -45525   -45534   -45564   -45597   -45596   -45593   -45617 
  -45625   -45607   -45610   -45611   -45592   -45607   -45635   -45626 
  -45601   -45573   -45538   -45510   -45508   -45531   -45544   -45549 
  -45574   -45592   -45566   -45524   -45510   -45517   -45521   -45520 
  -45505   -45493   -45532   -45592   -45603   -45575   -45561   -45571 
  -45585   -45596   -45595   -45574   -45557   -45569   -45597   -45602 
  -45574   -45549   -45554   -45579   -45591   -45580   -45568   -45575 
  -45588   -45588   -45571   -45552   -45545   -45548   -45566   -45595 
  -45600   -45589   -45599   -45598   -45551   -45505   -45511   -45543 
  -45583   -45625   -45618   -45562   -45516   -45498   -45488   -45490 
  -45513   -45531   -45535   -45549   -45561   -45527   -45484   -45502 
  -45547   -45564   -45570   -45570   -45545   -45535   -45565   -45595 
  -45606   -45596   -45556   -45542   -45586   -45615   -45603   -45600 
  -45594   -45589   -45611   -45613   -45564   -45533   -45544   -45544 
  -45521   -45507   -45526   -45567   -45582   -45560   -45543   -45543 
  -45554   -45551   -45535   -45552   -45597   -45608   -45562   -45501 
  -45493   -45539   -45562   -45537   -45523   -45553   -45582   -45576 
  -45568   -45577   -45577   -45553   -45533   -45543   -45582   -45614 
  -45612   -45603   -45600   -45586   -45589   -45613   -45595   -45553 
  -45561   -45590   -45575   -45545   -45536   -45545   -45560   -45558 
  -45536   -45518   -45512   -45521   -45527   -45517   -45529   -45566 
  -45571   -45542   -45518   -45530   -45551   -45536   -45527   -45552 
  -45556   -45554   -45591   -45605   -45581   -45573   -45569   -45562 
  -45574   -45577   -45560   -45551   -45561   -45568   -45558   -45547 
  -45540   -45536   -45559   -45599   -45616   -45598   -45577   -45585 
  -45601   -45589   -45568   -45552   -45545   -45557   -45574   -45577 
  -45584   -45593   -45566   -45516   -45501   -45531   -45571   -45588 
  -45565   -45513   -45481   -45492   -45513   -45517   -45523   -45552 
  -45582   -45590   -45582   -45568   -45550   -45542   -45544   -45547 
  -45554   -45558   -45560   -45579   -45586   -45555   -45536   -45543 
  -45549   -45571   -45602   -45610   -45606   -45592   -45560   -45552 
  -45560   -45539   -45529   -45551   -45555   -45562   -45594   -45599 
  -45574   -45562   -45564   -45562   -45555   -45552   -45552   -45542 
  -45532   -45547   -45570   -45574   -45583   -45602   -45587   -45553 
  -45552   -45558   -45551   -45578   -45619   -45605   -45559   -45545 
  -45546   -45537   -45549   -45571   -45553   -45529   -45532   -45529 
  -45529   -45563   -45599   -45602   -45555   -45475   -45451   -45505 
  -45574   -45620   -45625   -45608   -45585   -45558   -45553   -45554 
  -45546   -45573   -45613   -45594   -45537   -45523   -45564   -45599 
  -45586   -45554   -45545   -45543   -45529   -45517   -45518   -45534 
  -45554   -45564   -45571   -45567   -45548   -45546   -45552   -45545 
  -45546   -45567   -45587   -45588   -45584   -45587   -45582   -45547 
  -45504   -45484   -45504   -45549   -45574   -45571   -45577   -45584 
  -45578   -45565   -45561   -45559   -45544   -45539   -45551   -45555 
  -45569   -45578   -45534   -45486   -45519   -45602   -45635   -45622 
  -45624   -45622   -45592   -45579   -45591   -45588   -45574   -45582 
  -45590   -45567   -45546   -45548   -45551   -45552   -45555   -45559 
  -45578   -45593   -45563   -45516   -45511   -45551   -45574   -45561 
  -45552   -45554   -45543   -45540   -45566   -45579   -45556   -45545 
  -45570   -45581   -45544   -45515   -45531   -45545   -45530   -45526 
  -45551   -45569   -45564   -45560   -45565   -45558   -45544   -45535 
  -45507   -45507   -45567   -45603   -45596   -45587   -45569   -45575 
  -45583   -45537   -45508   -45516   -45502   -45514   -45564   -45590 
  -45605   -45613   -45579   -45537   -45541   -45570   -45585   -45577 
  -45548   -45529   -45529   -45532   -45554   -45585   -45590   -45567 
  -45532   -45521   -45559   -45602   -45620   -45624   -45628   -45620 
  -45583   -45554   -45560   -45572   -45562   -45534   -45520   -45551 
  -45592   -45586   -45543   -45522   -45540   -45556   -45551   -45544 
  -45538   -45539   -45557   -45568   -45565   -45559   -45550   -45559 
  -45579   -45578   -45575   -45582   -45575   -45549   -45524   -45520 
  -45538   -45551   -45547   -45544   -45544   -45562   -45579   -45547 
  -45527   -45555   -45549   -45528   -45564   -45595   -45585   -45589 
  -45593   -45561   -45538   -45552   -45570   -45579   -45589   -45598 
  -45585   -45554   -45534   -45544   -45567   -45563   -45526   -45513 
  -45546   -45564   -45554   -45551   -45534   -45507   -45526   -45561 
  -45560   -45560   -45567   -45551   -45539   -45536   -45526   -45541 
  -45588   -45620   -45612   -45581   -45552   -45527   -45513   -45529 
  -45561   -45597   -45625   -45619   -45596   -45582   -45568   -45570 
  -45581   -45577   -45578   -45594   -45596   -45574   -45556   -45578 
  -45617   -45619   -45579   -45533   -45505   -45513   -45550   -45556 
  -45524   -45523   -45567   -45605   -45581   -45516   -45480   -45494 
  -45522   -45535   -45544   -45557   -45550   -45546   -45573   -45587 
  -45582   -45588   -45572   -45536   -45543   -45579   -45594   -45577 
  -45552   -45558   -45570   -45557   -45545   -45542   -45542   -45572 
  -45597   -45581   -45574   -45586   -45564   -45541   -45546   -45534 
  -45516   -45520   -45527   -45558   -45608   -45613   -45600   -45607 
  -45596   -45566   -45562   -45572   -45560   -45555   -45596   -45629 
  -45614   -45578   -45538   -45524   -45550   -45557   -45533   -45527 
  -45536   -45531   -45537   -45560   -45554   -45521   -45519   -45540 
  -45533   -45498   -45479   -45515   -45589   -45627   -45604   -45577 
  -45578   -45579   -45561   -45538   -45530   -45549   -45580   -45577 
  -45542   -45532   -45543   -45540   -45533   -45541   -45555   -45544 
  -45527   -45534   -45550   -45569   -45578   -45575   -45578   -45581 
  -45575   -45560   -45529   -45516   -45549   -45573   -45565   -45562 
  -45570   -45578   -45578   -45568   -45564   -45568   -45583   -45599 
  -45589   -45582   -45603   -45610   -45595   -45582   -45576   -45581 
  -45577   -45558   -45555   -45573   -45584   -45576   -45549   -45530 
  -45557   -45590   -45568   -45526   -45523   -45545   -45550   -45532 
  -45528   -45545   -45555   -45563   -45569   -45541   -45506   -45510 
  -45537   -45558   -45573   -45575   -45560   -45539   -45523   -45528 
  -45530   -45519   -45542   -45590   -45615   -45620   -45611   -45589 
  -45577   -45573   -45572   -45592   -45625   -45642   -45618   -45559 
  -45511   -45488   -45481   -45518   -45580   -45592   -45556   -45532 
  -45547   -45568   -45569   -45572   -45583   -45562   -45513   -45490 
  -45498   -45506   -45517   -45537   -45555   -45570   -45576   -45557 
  -45545   -45554   -45545   -45544   -45580   -45594   -45586   -45594 
  -45591   -45570   -45553   -45540   -45534   -45546   -45575   -45599 
  -45599   -45592   -45584   -45558   -45539   -45548   -45551   -45536 
  -45540   -45572   -45591   -45574   -45552   -45559   -45570   -45550 
  -45542   -45574   -45598   -45598   -45605   -45610   -45602   -45584 
  -45552   -45539   -45567   -45579   -45558   -45542   -45531   -45521 
  -45523   -45526   -45519   -45514   -45519   -45548   -45601   -45626 
  -45604   -45586   -45570   -45539   -45526   -45535   -45538   -45536 
  -45554   -45572   -45546   -45504   -45498   -45519   -45550   -45578 
  -45586   -45578   -45560   -45550   -45567   -45588   -45593   -45581 
  -45551   -45528   -45536   -45555   -45562   -45565   -45563   -45551 
  -45550   -45564   -45567   -45554   -45550   -45561   -45560   -45549 
  -45561   -45586   -45591   -45575   -45558   -45557   -45564   -45558 
  -45546   -45539   -45543   -45561   -45563   -45539   -45511   -45502 
  -45521   -45553   -45582   -45592   -45567   -45530   -45519   -45541 
  -45559   -45540   -45525   -45558   -45603   -45615   -45612   -45601 
  -45574   -45558   -45570   -45582   -45570   -45556   -45576   -45588 
  -45546   -45523   -45562   -45588   -45566   -45546   -45550   -45552 
  -45552   -45576   -45610   -45594   -45551   -45556   -45579   -45565 
  -45542   -45543   -45551   -45567   -45584   -45562   -45528   -45533 
  -45548   -45536   -45507   -45509   -45565   -45617   -45622   -45606 
  -45580   -45532   -45496   -45515   -45547   -45545   -45548   -45595 
  -45652   -45654   -45604   -45565   -45559   -45575   -45583   -45554 
  -45535   -45565   -45607   -45638   -45638   -45596   -45563   -45549 
  -45517   -45486   -45489   -45534   -45596   -45605   -45550   -45496 
  -45482   -45492   -45491   -45482   -45504   -45550   -45579   -45584 
  -45578   -45577   -45584   -45579   -45554   -45522   -45514   -45539 
  -45555   -45538   -45517   -45526   -45551   -45567   -45571   -45580 
  -45600   -45607   -45592   -45591   -45589   -45563   -45555   -45566 
  -45552   -45533   -45562   -45612   -45601   -45557   -45565   -45595 
  -45606   -45609   -45597   -45576   -45560   -45536   -45513   -45505 
  -45510   -45526   -45552   -45588   -45610   -45579   -45525   -45505 
  -45529   -45574   -45594   -45568   -45546   -45554   -45567   -45579 
  -45592   -45605   -45602   -45571   -45537   -45534   -45570   -45612 
  -45621   -45612   -45598   -45562   -45531   -45537   -45561   -45570 
  -45542   -45516   -45533   -45547   -45530   -45530   -45562   -45582 
  -45577   -45557   -45522   -45496   -45515   -45553   -45564   -45565 
  -45581   -45578   -45551   -45551   -45568   -45552   -45507   -45472 
  -45477   -45521   -45557   -45562   -45567   -45576   -45563   -45542 
  -45544   -45573   -45604   -45616   -45603   -45567   -45535   -45552 
  -45585   -45578   -45569   -45577   -45574   -45574   -45588   -45595 
  -45585   -45575   -45562   -45530   -45513   -45538   -45568   -45569 
  -45533   -45510   -45537   -45563   -45568   -45571   -45570   -45595 
  -45623   -45599   -45564   -45557   -45547   -45542   -45568   -45611 
  -45626   -45599   -45567   -45553   -45558   -45565   -45546   -45521 
  -45513   -45513   -45514   -45534   -45573   -45595   -45585   -45574 
  -45563   -45550   -45556   -45561   -45548   -45552   -45577   -45601 
  -45599   -45571   -45565   -45575   -45555   -45524   -45508   -45507 
  -45527   -45537   -45513   -45500   -45526   -45546   -45541   -45550 
  -45578   -45585   -45577   -45570   -45544   -45526   -45558   -45595 
  -45602   -45599   -45585   -45565   -45567   -45586   -45608   -45629 
  -45652   -45668   -45649   -45619   -45611   -45602   -45579   -45542 
  -45494   -45460   -45476   -45534   -45560   -45549   -45579   -45636 
  -45647   -45629   -45615   -45598   -45588   -45591   -45563   -45490 
  -45443   -45465   -45517   -45584   -45637   -45634   -45625   -45647 
  -45642   -45605   -45584   -45562   -45521   -45492   -45478   -45474 
  -45505   -45552   -45558   -45519   -45502   -45532   -45563   -45562 
  -45538   -45520   -45533   -45546   -45538   -45540   -45543   -45547 
  -45557   -45540   -45495   -45461   -45443   -45440   -45463   -45502 
  -45538   -45547   -45538   -45544   -45547   -45519   -45518   -45587 
  -45652   -45648   -45628   -45618   -45580   -45540   -45553   -45617 
  -45668   -45669   -45663   -45668   -45649   -45624   -45611   -45595 
  -45578   -45585   -45610   -45610   -45588   -45568   -45541   -45522 
  -45515   -45492   -45476   -45484   -45491   -45492   -45508   -45543 
  -45581   -45616   -45652   -45684   -45695   -45667   -45623   -45580 
  -45534   -45503   -45501   -45501   -45501   -45521   -45525   -45506 
  -45511   -45527   -45517   -45496   -45500   -45531   -45562   -45595 
  -45635   -45648   -45628   -45601   -45570   -45543   -45540   -45576 
  -45617   -45612   -45583   -45570   -45554   -45517   -45485   -45485 
  -45519   -45557   -45579   -45597   -45603   -45579   -45548   -45535 
  -45521   -45506   -45524   -45551   -45553   -45534   -45508   -45479 
  -45459   -45478   -45534   -45590   -45634   -45661   -45650   -45612 
  -45592   -45592   -45583   -45584   -45616   -45632   -45623   -45621 
  -45606   -45570   -45548   -45544   -45542   -45541   -45537   -45565 
  -45655   -45725   -45732   -45724   -45713   -45680   -45617   -45555 
  -45541   -45571   -45603   -45595   -45548   -45502   -45467   -45432 
  -45407   -45403   -45417   -45471   -45554   -45596   -45581   -45585 
  -45636   -45685   -45697   -45670   -45647   -45650   -45630   -45558 
  -45463   -45378   -45335   -45326   -45323   -45331   -45352   -45386 
  -45434   -45477   -45503   -45533   -45577   -45604   -45594   -45581 
  -45613   -45666   -45690   -45679   -45640   -45569   -45491   -45446 
  -45430   -45420   -45415   -45422   -45459   -45521   -45565   -45590 
  -45620   -45617   -45584   -45567   -45556   -45518   -45485   -45500 
  -45550   -45616   -45672   -45674   -45633   -45596   -45571   -45556 
  -45557   -45577   -45601   -45598   -45564   -45532   -45530   -45562 
  -45602   -45627   -45640   -45648   -45650   -45645   -45632   -45622 
  -45635   -45675   -45704   -45688   -45658   -45650   -45654   -45652 
  -45636   -45629   -45653   -45682   -45681   -45653   -45604   -45557 
  -45529   -45515   -45508   -45515   -45548   -45588   -45613   -45616 
  -45582   -45505   -45427   -45371   -45336   -45325   -45334   -45351 
  -45373   -45385   -45386   -45409   -45469   -45536   -45571   -45583 
  -45600   -45600   -45586   -45583   -45582   -45587   -45594   -45579 
  -45550   -45559   -45621   -45671   -45685   -45718   -45751   -45729 
  -45681   -45656   -45660   -45663   -45616   -45499   -45383   -45345 
  -45366   -45393   -45410   -45432   -45474   -45543   -45632   -45692 
  -45696   -45683   -45659   -45605   -45556   -45543   -45542   -45566 
  -45643   -45713   -45702   -45636   -45580   -45562   -45577   -45589 
  -45586   -45585   -45596   -45606   -45581   -45521   -45473   -45447 
  -45436   -45434   -45426   -45418   -45426   -45449   -45466   -45451 
  -45405   -45375   -45392   -45450   -45514   -45534   -45529   -45560 
  -45613   -45637   -45630   -45617   -45616   -45629   -45641   -45654 
  -45679   -45700   -45717   -45755   -45801   -45793   -45723   -45679 
  -45705   -45733   -45700   -45635   -45582   -45541   -45528   -45515 
  -45470   -45447   -45460   -45464   -45442   -45405   -45410   -45467 
  -45502   -45509   -45531   -45556   -45555   -45547   -45545   -45544 
  -45544   -45528   -45511   -45513   -45502   -45491   -45507   -45513 
  -45489   -45473   -45482   -45482   -45464   -45476   -45533   -45589 
  -45596   -45569   -45560   -45583   -45588   -45573   -45571   -45567 
  -45547   -45542   -45549   -45547   -45551   -45593   -45660   -45683 
  -45632   -45550   -45483   -45474   -45513   -45554   -45595   -45640 
  -45681   -45713   -45699   -45655   -45644   -45650   -45643   -45645 
  -45676   -45716   -45730   -45701   -45646   -45612   -45634   -45666 
  -45646   -45602   -45596   -45631   -45672   -45689   -45674   -45634 
  -45596   -45581   -45566   -45550   -45548   -45540   -45509   -45466 
  -45442   -45464   -45516   -45558   -45558   -45514   -45470   -45455 
  -45445   -45414   -45375   -45364   -45372   -45370   -45378   -45408 
  -45440   -45456   -45446   -45428   -45423   -45430   -45444   -45468 
  -45515   -45582   -45630   -45637   -45639   -45654   -45641   -45615 
  -45636   -45653   -45618   -45563   -45510   -45473   -45452   -45430 
  -45429   -45450   -45450   -45433   -45445   -45485   -45525   -45582 
  -45626   -45625   -45630   -45647   -45649   -45672   -45725   -45747 
  -45710   -45660   -45638   -45636   -45627   -45603   -45577   -45554 
  -45540   -45534   -45530   -45534   -45543   -45535   -45531   -45550 
  -45573   -45595   -45612   -45602   -45583   -45605   -45648   -45652 
  -45622   -45612   -45631   -45653   -45647   -45631   -45662   -45720 
  -45737   -45708   -45657   -45594   -45534   -45512   -45512   -45493 
  -45478   -45484   -45479   -45470   -45483   -45511   -45530   -45536 
  -45548   -45577   -45605   -45587   -45529   -45497   -45515   -45542 
  -45535   -45495   -45461   -45458   -45480   -45507   -45521   -45545 
  -45595   -45630   -45629   -45610   -45592   -45580   -45582   -45626 
  -45687   -45701   -45672   -45654   -45638   -45572   -45487   -45461 
  -45478   -45490   -45503   -45518   -45497   -45449   -45425   -45424 
  -45422   -45444   -45488   -45495   -45462   -45433   -45440   -45457 
  -45454   -45450   -45456   -45462   -45470   -45485   -45502   -45514 
  -45542   -45588   -45618   -45636   -45654   -45647   -45631   -45630 
  -45620   -45603   -45603   -45623   -45647   -45647   -45626   -45613 
  -45616   -45627   -45633   -45627   -45602   -45573   -45559   -45551 
  -45544   -45558   -45581   -45587   -45586   -45591   -45597   -45605 
  -45617   -45623   -45620   -45599   -45556   -45530   -45543   -45559 
  -45577   -45598   -45585   -45544   -45533   -45565   -45603   -45632 
  -45644   -45634   -45616   -45611   -45617   -45624   -45637   -45656 
  -45645   -45600   -45555   -45525   -45530   -45574   -45590   -45566 
  -45557   -45562   -45550   -45520   -45508   -45533   -45540   -45498 
  -45460   -45460   -45472   -45463   -45444   -45441   -45463   -45504 
  -45522   -45514   -45515   -45514   -45514   -45527   -45526   -45527 
  -45546   -45557   -45580   -45609   -45616   -45630   -45654   -45648 
  -45622   -45607   -45603   -45587   -45546   -45508   -45509   -45518 
  -45496   -45490   -45522   -45539   -45540   -45554   -45576   -45602 
  -45610   -45588   -45575   -45577   -45577   -45593   -45618   -45631 
  -45639   -45637   -45614   -45589   -45579   -45571   -45563   -45560 
  -45571   -45588   -45581   -45546   -45520   -45513   -45507   -45511 
  -45533   -45551   -45575   -45605   -45598   -45570   -45564   -45561 
  -45537   -45523   -45535   -45538   -45523   -45525   -45546   -45547 
  -45526   -45511   -45502   -45485   -45472   -45487   -45529   -45553 
  -45540   -45523   -45517   -45515   -45517   -45530   -45558   -45593 
  -45610   -45602   -45586   -45583   -45598   -45614   -45609   -45603 
  -45617   -45629   -45626   -45602   -45571   -45568   -45582   -45578 
  -45561   -45547   -45545   -45563   -45574   -45570   -45571   -45567 
  -45548   -45535   -45538   -45549   -45554   -45553   -45554   -45554 
