Origin Time       2025/03/30 10:18:00
Lat.              34.667
Long.             140.825
Depth. (km)       69
Mag.              4.9
Station Code      YMNH14
Station Lat.      35.5115
Station Long.     138.9675
Station Height(m) 760
Record Time       2025/03/30 10:19:21
Sampling Freq(Hz) 100Hz
Duration Time(s)  120
Dir.              2
Scale Factor      2942(gal)/8224139
Max. Acc. (gal)   0.186
Last Correction   2025/03/30 10:19:21
Memo.             
[...]
 -149913  -149914  -149883  -149898  -149921  -149897  -149871  -149859 
 -149847  -149845  -149848  -149860  -149879  -149868  -149843  -149836 
 -149866  -149910  -149926  -149921  -149920  -149893  -149841  -149813 
 -149825  -149872  -149897  -149859  -149833  -149862  -149886  -149879 
 -149859  -149843  -149847  -149868  -149879  -149851  -149808  -149797 
 -149831  -149885  -149906  -149870  -149833  -149854  -149889  -149889 
 -149887  -149890  -149860  -149839  -149845  -149863  -149897  -149935 
 -149933  -149883  -149839  -149855  -149886  -149886  -149882  -149885 
 -149877  -149882  -149905  -149894  -149871  -149897  -149913  -149852 
 -149790  -149802  -149845  -149886  -149933  -149962  -149913  -149836 
 -149831  -149875  -149879  -149854  -149871  -149928  -149945  -149917 
 -149889  -149872  -149879  -149890  -149883  -149891  -149917  -149899 
 -149859  -149837  -149827  -149837  -149855  -149835  -149806  -149832 
 -149881  -149897  -149889  -149871  -149859  -149868  -149872  -149868 
 -149870  -149858  -149843  -149858  -149868  -149867  -149894  -149929 
 -149922  -149868  -149808  -149793  -149829  -149878  -149890  -149859 
 -149868  -149943  -149970  -149898  -149812  -149781  -149818  -149870 
 -149879  -149872  -149870  -149894  -149937  -149940  -149910  -149893 
 -149882  -149867  -149858  -149855  -149840  -149824  -149833  -149858 
 -149864  -149868  -149878  -149878  -149889  -149912  -149906  -149871 
 -149845  -149850  -149882  -149914  -149914  -149878  -149833  -149816 
 -149814  -149810  -149814  -149835  -149882  -149924  -149914  -149893 
 -149894  -149889  -149874  -149852  -149833  -149840  -149844  -149818 
 -149817  -149859  -149898  -149921  -149937  -149936  -149918  -149868 
 -149805  -149804  -149843  -149859  -149863  -149862  -149864  -149893 
 -149913  -149913  -149912  -149904  -149891  -149871  -149847  -149843 
 -149843  -149852  -149902  -149931  -149899  -149875  -149891  -149916 
 -149912  -149871  -149841  -149839  -149832  -149833  -149850  -149843 
 -149843  -149882  -149909  -149894  -149882  -149891  -149908  -149917 
 -149916  -149912  -149908  -149891  -149875  -149863  -149832  -149812 
 -149835  -149868  -149885  -149882  -149851  -149806  -149794  -149832 
 -149887  -149924  -149925  -149889  -149851  -149850  -149862  -149862 
 -149863  -149897  -149945  -149959  -149941  -149912  -149856  -149809 
 -149828  -149887  -149931  -149928  -149864  -149794  -149778  -149812 
 -149864  -149885  -149881  -149904  -149926  -149906  -149866  -149824 
 -149806  -149837  -149877  -149885  -149868  -149843  -149832  -149855 
 -149882  -149917  -149980  -150002  -149936  -149860  -149829  -149813 
 -149818  -149841  -149837  -149828  -149850  -149866  -149858  -149841 
 -149845  -149886  -149929  -149933  -149891  -149832  -149810  -149833 
 -149877  -149909  -149908  -149918  -149951  -149944  -149917  -149902 
 -149890  -149886  -149878  -149854  -149839  -149850  -149871  -149894 
 -149894  -149833  -149775  -149809  -149878  -149887  -149868  -149863 
 -149847  -149835  -149854  -149891  -149913  -149909  -149902  -149894 
 -149864  -149839  -149855  -149882  -149874  -149848  -149841  -149866 
 -149875  -149837  -149809  -149837  -149895  -149935  -149921  -149868 
 -149841  -149856  -149845  -149816  -149837  -149874  -149856  -149837 
 -149871  -149898  -149879  -149858  -149854  -149867  -149889  -149879 
 -149870  -149908  -149918  -149879  -149871  -149901  -149914  -149906 
 -149877  -149832  -149817  -149863  -149910  -149912  -149891  -149864 
 -149844  -149855  -149889  -149891  -149860  -149868  -149906  -149897 
 -149859  -149852  -149866  -149883  -149912  -149926  -149910  -149906 
 -149914  -149894  -149864  -149855  -149868  -149879  -149867  -149863 
 -149879  -149889  -149893  -149895  -149879  -149837  -149812  -149840 
 -149870  -149837  -149782  -149763  -149775  -149812  -149856  -149881 
 -149902  -149898  -149836  -149817  -149881  -149912  -149908  -149922 
 -149902  -149850  -149847  -149887  -149898  -149871  -149870  -149910 
 -149935  -149916  -149889  -149871  -149847  -149841  -149879  -149889 
 -149848  -149843  -149855  -149843  -149867  -149913  -149901  -149872 
 -149887  -149918  -149925  -149898  -149886  -149897  -149901  -149912 
 -149901  -149867  -149883  -149894  -149837  -149804  -149839  -149874 
 -149877  -149863  -149839  -149828  -149858  -149881  -149871  -149886 
 -149926  -149905  -149818  -149777  -149812  -149845  -149827  -149814 
 -149856  -149887  -149866  -149856  -149879  -149891  -149891  -149872 
 -149823  -149821  -149887  -149917  -149910  -149917  -149913  -149902 
 -149912  -149925  -149925  -149893  -149866  -149895  -149931  -149926 
 -149904  -149882  -149871  -149874  -149872  -149852  -149835  -149837 
 -149839  -149847  -149859  -149833  -149827  -149883  -149913  -149881 
 -149866  -149890  -149913  -149899  -149863  -149864  -149901  -149912 
 -149894  -149867  -149844  -149832  -149831  -149828  -149817  -149828 
 -149850  -149850  -149843  -149839  -149817  -149816  -149858  -149901 
 -149933  -149952  -149925  -149887  -149897  -149909  -149886  -149882 
 -149891  -149860  -149818  -149817  -149837  -149874  -149901  -149878 
 -149856  -149879  -149872  -149847  -149870  -149886  -149864  -149848 
 -149840  -149874  -149939  -149937  -149887  -149867  -149875  -149898 
 -149895  -149843  -149774  -149746  -149782  -149854  -149891  -149867 
 -149850  -149883  -149920  -149920  -149921  -149916  -149878  -149855 
 -149885  -149926  -149940  -149924  -149872  -149797  -149758  -149790 
 -149859  -149904  -149921  -149939  -149932  -149897  -149878  -149852 
 -149821  -149839  -149877  -149882  -149878  -149885  -149917  -149955 
 -149944  -149905  -149879  -149848  -149832  -149843  -149839  -149843 
 -149881  -149898  -149881  -149868  -149866  -149858  -149868  -149899 
 -149886  -149827  -149817  -149851  -149845  -149845  -149887  -149902 
 -149879  -149855  -149832  -149829  -149854  -149870  -149867  -149858 
 -149859  -149899  -149944  -149921  -149870  -149856  -149864  -149874 
 -149879  -149852  -149821  -149855  -149912  -149918  -149902  -149904 
 -149883  -149841  -149831  -149858  -149879  -149895  -149914  -149926 
 -149918  -149883  -149852  -149827  -149810  -149850  -149918  -149925 
 -149867  -149831  -149845  -149870  -149877  -149858  -149823  -149828 
 -149881  -149897  -149844  -149794  -149802  -149875  -149966  -149970 
 -149894  -149871  -149891  -149877  -149855  -149855  -149854  -149844 
 -149836  -149851  -149890  -149918  -149920  -149922  -149945  -149949 
 -149909  -149866  -149852  -149848  -149856  -149901  -149932  -149891 
 -149833  -149801  -149779  -149777  -149783  -149787  -149817  -149862 
 -149875  -149877  -149901  -149918  -149912  -149918  -149932  -149920 
 -149901  -149883  -149845  -149814  -149831  -149851  -149867  -149917 
 -149921  -149858  -149832  -149845  -149856  -149872  -149885  -149886 
 -149883  -149878  -149891  -149904  -149885  -149885  -149913  -149910 
 -149891  -149879  -149862  -149851  -149856  -149863  -149860  -149835 
 -149804  -149808  -149833  -149843  -149856  -149886  -149894  -149897 
 -149931  -149952  -149926  -149886  -149852  -149823  -149818  -149837 
 -149859  -149889  -149897  -149878  -149875  -149871  -149840  -149843 
 -149886  -149898  -149863  -149831  -149855  -149912  -149935  -149929 
 -149924  -149913  -149902  -149882  -149845  -149833  -149856  -149867 
 -149845  -149845  -149879  -149917  -149935  -149886  -149821  -149833 
 -149871  -149885  -149916  -149940  -149918  -149874  -149870  -149910 
 -149925  -149885  -149837  -149817  -149823  -149845  -149848  -149825 
 -149831  -149868  -149882  -149870  -149859  -149848  -149843  -149847 
 -149878  -149933  -149959  -149926  -149881  -149841  -149809  -149800 
 -149814  -149841  -149886  -149920  -149935  -149958  -149943  -149887 
 -149868  -149871  -149850  -149827  -149820  -149831  -149840  -149841 
 -149860  -149871  -149839  -149816  -149843  -149890  -149921  -149918 
 -149894  -149885  -149887  -149879  -149867  -149859  -149847  -149859 
 -149906  -149916  -149878  -149856  -149850  -149848  -149867  -149882 
 -149886  -149891  -149885  -149870  -149862  -149851  -149831  -149820 
 -149843  -149891  -149936  -149953  -149943  -149909  -149889  -149891 
 -149872  -149828  -149828  -149847  -149827  -149820  -149825  -149808 
 -149848  -149925  -149921  -149890  -149902  -149920  -149924  -149910 
 -149898  -149899  -149881  -149859  -149874  -149882  -149845  -149816 
 -149823  -149832  -149847  -149881  -149894  -149883  -149886  -149895 
 -149894  -149889  -149870  -149844  -149835  -149837  -149862  -149885 
 -149859  -149824  -149850  -149893  -149898  -149893  -149901  -149910 
 -149920  -149895  -149837  -149824  -149847  -149858  -149889  -149922 
 -149890  -149856  -149868  -149867  -149864  -149894  -149917  -149910 
 -149878  -149850  -149866  -149883  -149886  -149898  -149878  -149847 
 -149882  -149922  -149910  -149894  -149893  -149882  -149859  -149841 
 -149844  -149832  -149827  -149852  -149862  -149860  -149856  -149813 
 -149793  -149845  -149906  -149921  -149914  -149916  -149898  -149872 
 -149877  -149875  -149850  -149845  -149870  -149898  -149906  -149893 
 -149881  -149890  -149914  -149901  -149855  -149840  -149852  -149852 
 -149856  -149839  -149797  -149817  -149864  -149850  -149828  -149841 
 -149871  -149917  -149937  -149913  -149882  -149859  -149852  -149867 
 -149866  -149848  -149854  -149893  -149921  -149909  -149893  -149895 
 -149887  -149889  -149902  -149877  -149852  -149863  -149855  -149844 
 -149856  -149868  -149877  -149877  -149871  -149870  -149858  -149856 
 -149887  -149887  -149864  -149895  -149921  -149886  -149856  -149850 
 -149855  -149886  -149887  -149850  -149827  -149837  -149883  -149913 
 -149867  -149836  -149887  -149906  -149850  -149850  -149902  -149891 
 -149859  -149864  -149864  -149874  -149901  -149883  -149845  -149851 
 -149875  -149895  -149917  -149889  -149832  -149845  -149890  -149882 
 -149845  -149840  -149866  -149878  -149866  -149872  -149899  -149899 
 -149890  -149908  -149920  -149912  -149887  -149839  -149817  -149852 
 -149882  -149889  -149885  -149850  -149832  -149878  -149918  -149913 
 -149906  -149895  -149886  -149899  -149882  -149829  -149820  -149848 
 -149878  -149894  -149863  -149828  -149856  -149910  -149916  -149867 
 -149835  -149862  -149879  -149851  -149832  -149836  -149836  -149843 
 -149863  -149887  -149906  -149895  -149864  -149860  -149871  -149870 
 -149870  -149883  -149891  -149893  -149895  -149898  -149913  -149921 
 -149909  -149893  -149862  -149831  -149828  -149820  -149818  -149832 
 -149831  -149837  -149871  -149893  -149898  -149902  -149898  -149874 
 -149850  -149856  -149887  -149904  -149883  -149841  -149820  -149833 
 -149836  -149836  -149886  -149904  -149844  -149845  -149914  -149922 
 -149902  -149897  -149863  -149837  -149859  -149863  -149848  -149862 
 -149887  -149909  -149912  -149881  -149860  -149883  -149922  -149937 
 -149905  -149867  -149866  -149887  -149897  -149877  -149860  -149889 
 -149922  -149925  -149936  -149959  -149952  -149917  -149897  -149890 
 -149872  -149855  -149841  -149824  -149825  -149848  -149852  -149832 
 -149825  -149845  -149871  -149874  -149864  -149868  -149887  -149901 
 -149881  -149844  -149831  -149837  -149850  -149851  -149836  -149848 
 -149886  -149881  -149844  -149832  -149823  -149806  -149796  -149793 
 -149820  -149851  -149843  -149827  -149810  -149775  -149760  -149798 
 -149841  -149839  -149793  -149754  -149769  -149809  -149810  -149804 
 -149837  -149872  -149875  -149856  -149866  -149928  -149959  -149908 
 -149839  -149800  -149812  -149870  -149912  -149922  -149945  -149978 
 -149999  -150013  -149998  -149953  -149931  -149952  -149970  -149935 
 -149848  -149785  -149782  -149796  -149813  -149848  -149858  -149852 
 -149886  -149933  -149971  -150001  -149982  -149935  -149913  -149914 
 -149913  -149881  -149818  -149758  -149720  -149708  -149729  -149777 
 -149848  -149910  -149925  -149922  -149947  -149979  -149998  -150007 
 -150010  -150016  -150001  -149944  -149910  -149929  -149926  -149889 
 -149872  -149872  -149878  -149901  -149905  -149887  -149906  -149970 
 -150005  -149947  -149832  -149728  -149654  -149639  -149697  -149778 
 -149847  -149895  -149941  -149986  -149999  -149993  -149989  -149960 
 -149925  -149929  -149949  -149945  -149912  -149886  -149889  -149885 
 -149856  -149833  -149809  -149793  -149801  -149802  -149816  -149837 
 -149850  -149901  -149967  -149975  -149985  -150033  -150051  -150021 
 -150013  -150021  -149986  -149904  -149840  -149840  -149840  -149779 
 -149740  -149760  -149767  -149719  -149651  -149629  -149688  -149769 
 -149812  -149835  -149872  -149912  -149921  -149891  -149881  -149952 
 -150071  -150168  -150207  -150167  -150049  -149885  -149706  -149561 
 -149496  -149505  -149550  -149596  -149601  -149573  -149575  -149663 
 -149821  -149937  -149951  -149953  -149994  -150037  -150097  -150147 
 -150110  -150018  -149948  -149882  -149813  -149786  -149805  -149859 
 -149933  -149982  -149997  -149980  -149931  -149875  -149800  -149706 
 -149640  -149559  -149455  -149436  -149500  -149577  -149663  -149752 
 -149824  -149924  -150067  -150160  -150133  -150049  -149971  -149862 
 -149747  -149701  -149685  -149704  -149836  -150024  -150176  -150307 
 -150392  -150360  -150222  -150074  -149990  -149922  -149831  -149750 
 -149671  -149590  -149548  -149575  -149667  -149778  -149883  -149998 
 -150074  -150099  -150126  -150156  -150191  -150241  -150271  -150241 
 -150141  -149999  -149823  -149643  -149571  -149623  -149686  -149706 
 -149706  -149698  -149706  -149762  -149858  -149955  -149991  -149933 
 -149812  -149715  -149723  -149812  -149902  -149947  -149921  -149860 
 -149844  -149867  -149871  -149844  -149814  -149790  -149773  -149797 
 -149886  -149960  -149968  -149983  -150048  -150064  -149962  -149847 
 -149833  -149860  -149839  -149793  -149769  -149766  -149762  -149767 
 -149781  -149762  -149732  -149750  -149781  -149802  -149881  -149987 
 -150020  -149968  -149875  -149769  -149694  -149700  -149777  -149836 
 -149789  -149705  -149702  -149735  -149748  -149812  -149917  -149971 
 -149918  -149808  -149752  -149796  -149922  -150095  -150219  -150228 
 -150144  -150040  -149955  -149895  -149889  -149964  -150103  -150240 
 -150288  -150210  -150052  -149878  -149736  -149665  -149651  -149656 
 -149675  -149674  -149640  -149644  -149692  -149752  -149820  -149874 
 -149952  -150061  -150090  -150016  -149918  -149848  -149831  -149831 
 -149778  -149710  -149677  -149662  -149671  -149728  -149794  -149835 
 -149872  -149929  -149990  -150017  -150002  -149980  -149936  -149868 
 -149868  -149971  -150090  -150132  -150056  -149916  -149771  -149648 
 -149616  -149694  -149806  -149926  -150047  -150105  -150106  -150083 
 -150021  -149956  -149931  -149914  -149868  -149758  -149609  -149523 
 -149531  -149588  -149692  -149829  -149917  -149921  -149875  -149787 
 -149729  -149769  -149800  -149754  -149744  -149847  -150001  -150084 
 -150090  -150093  -150076  -150003  -149939  -149928  -149932  -149922 
 -149922  -149921  -149909  -149899  -149898  -149899  -149870  -149791 
 -149756  -149818  -149890  -149898  -149914  -149998  -150076  -150071 
 -149982  -149883  -149868  -149932  -149971  -149921  -149814  -149723 
 -149712  -149764  -149818  -149845  -149791  -149646  -149550  -149558 
 -149597  -149693  -149833  -149899  -149877  -149818  -149754  -149720 
 -149737  -149790  -149851  -149910  -149980  -150057  -150134  -150209 
 -150228  -150159  -150040  -149926  -149883  -149910  -149917  -149856 
 -149769  -149724  -149783  -149908  -150016  -150079  -150055  -149910 
 -149731  -149608  -149566  -149629  -149764  -149925  -150087  -150157 
 -150086  -149960  -149868  -149835  -149854  -149885  -149887  -149840 
 -149786  -149818  -149922  -149991  -150009  -150013  -150002  -149944 
 -149850  -149801  -149818  -149844  -149863  -149890  -149895  -149835 
 -149756  -149735  -149752  -149789  -149852  -149906  -149893  -149832 
 -149783  -149754  -149731  -149731  -149767  -149820  -149868  -149947 
 -150049  -150088  -150068  -150084  -150161  -150196  -150110  -149956 
 -149858  -149868  -149905  -149850  -149756  -149696  -149646  -149644 
 -149705  -149759  -149817  -149875  -149878  -149864  -149851  -149805 
 -149785  -149841  -149891  -149850  -149755  -149708  -149760  -149843 
 -149836  -149770  -149769  -149833  -149899  -149945  -149953  -149948 
 -149971  -149983  -149937  -149901  -149908  -149890  -149844  -149802 
 -149785  -149805  -149850  -149901  -149904  -149809  -149709  -149706 
 -149759  -149833  -149922  -149958  -149910  -149851  -149843  -149893 
 -149956  -149987  -149990  -149967  -149908  -149854  -149817  -149751 
 -149697  -149737  -149854  -149958  -149985  -149948  -149891  -149824 
 -149785  -149843  -149945  -149986  -149990  -150005  -149990  -149958 
 -149935  -149899  -149885  -149899  -149904  -149935  -149999  -149998 
 -149925  -149879  -149886  -149882  -149860  -149841  -149810  -149786 
 -149802  -149847  -149878  -149893  -149931  -149953  -149912  -149872 
 -149881  -149877  -149850  -149837  -149828  -149802  -149805  -149852 
 -149877  -149855  -149839  -149821  -149809  -149847  -149894  -149918 
 -149953  -149968  -149914  -149841  -149845  -149904  -149910  -149875 
 -149845  -149816  -149817  -149866  -149891  -149872  -149859  -149864 
 -149877  -149895  -149925  -149912  -149827  -149793  -149866  -149898 
 -149828  -149760  -149777  -149844  -149872  -149855  -149841  -149837 
 -149854  -149871  -149841  -149800  -149777  -149770  -149814  -149878 
 -149870  -149813  -149787  -149802  -149859  -149933  -149953  -149944 
 -149956  -149925  -149862  -149841  -149823  -149767  -149756  -149840 
 -149990  -150129  -150114  -149932  -149796  -149796  -149832  -149894 
 -150006  -150080  -150043  -149937  -149848  -149778  -149720  -149698 
 -149720  -149779  -149845  -149863  -149836  -149820  -149844  -149899 
 -149909  -149878  -149905  -149939  -149918  -149944  -150028  -150082 
 -150099  -150063  -149951  -149827  -149763  -149785  -149868  -149928 
 -149925  -149889  -149806  -149671  -149585  -149654  -149840  -149989 
 -150012  -149953  -149883  -149840  -149837  -149843  -149837  -149863 
 -149916  -149940  -149933  -149906  -149868  -149868  -149895  -149893 
 -149858  -149808  -149774  -149790  -149840  -149901  -149949  -149906 
 -149790  -149742  -149763  -149744  -149720  -149750  -149773  -149778 
 -149814  -149871  -149904  -149921  -149964  -150002  -149985  -149962 
 -149985  -150013  -150014  -150001  -149978  -149952  -149928  -149905 
 -149899  -149894  -149868  -149866  -149879  -149839  -149750  -149679 
 -149665  -149717  -149797  -149852  -149881  -149891  -149889  -149881 
 -149887  -149918  -149949  -149926  -149879  -149893  -149937  -149948 
 -149947  -149939  -149913  -149925  -149975  -149959  -149879  -149840 
 -149841  -149827  -149802  -149774  -149740  -149716  -149729  -149798 
 -149882  -149933  -149922  -149863  -149812  -149817  -149883  -149967 
 -150001  -150005  -150006  -149972  -149925  -149901  -149878  -149870 
