Origin Time       2025/03/30 10:18:00
Lat.              34.667
Long.             140.825
Depth. (km)       69
Mag.              4.9
Station Code      YMNH11
Station Lat.      35.6247
Station Long.     138.9777
Station Height(m) 465
Record Time       2025/03/30 10:19:23
Sampling Freq(Hz) 100Hz
Duration Time(s)  120
Dir.              5
Scale Factor      3920(gal)/6170801
Max. Acc. (gal)   2.406
Last Correction   2025/03/30 10:19:08
Memo.             
[...]
   16910    16859    16889    17005    17088    17055    16969    16898 
   16841    16803    16799    16821    16871    16961    17053    17094 
   17131    17239    17351    17352    17229    17040    16850    16714 
   16668    16730    16871    17001    17062    17058    16999    16938 
   16985    17130    17217    17181    17108    17071    17067    17069 
   17069    17082    17100    17079    17025    17024    17121    17264 
   17359    17358    17297    17216    17102    16968    16900    16941 
   17020    17037    16948    16831    16813    16901    16969    16934 
   16825    16714    16660    16680    16754    16860    16982    17117 
   17268    17400    17486    17518    17447    17267    17109    17082 
   17134    17173    17181    17174    17172    17160    17093    16974 
   16859    16792    16769    16752    16741    16801    16934    17039 
   17045    16984    16919    16907    16948    16974    16928    16853 
   16853    16928    16964    16950    16980    17062    17173    17328 
   17462    17472    17392    17312    17244    17155    17053    17003 
   17011    17010    17004    17031    17047    17029    17031    17063 
   17103    17131    17120    17082    17035    16946    16830    16795 
   16909    17094    17218    17218    17117    16954    16767    16632 
   16623    16756    16958    17091    17066    16964    16936    17008 
   17100    17135    17068    16923    16807    16809    16916    17044 
   17140    17206    17252    17275    17290    17315    17365    17432 
   17479    17459    17339    17137    16949    16865    16875    16883 
   16820    16729    16696    16740    16834    16911    16902    16855 
   16877    16967    17063    17135    17162    17168    17217    17306 
   17385    17420    17391    17280    17110    16946    16847    16789 
   16732    16709    16732    16741    16740    16784    16844    16889 
   16941    16958    16894    16849    16971    17253    17524    17629 
   17554    17390    17224    17128    17136    17205    17261    17258 
   17157    16958    16760    16697    16767    16843    16852    16831 
   16826    16858    16940    17083    17246    17322    17229    17038 
   16891    16871    16987    17165    17266    17225    17103    16999 
   16976    17032    17097    17124    17132    17122    17093    17059 
   16989    16871    16772    16744    16811    16949    17053    17046 
   16965    16902    16929    17037    17135    17206    17290    17354 
   17358    17330    17305    17286    17237    17115    16963    16870 
   16834    16794    16733    16676    16656    16692    16772    16856 
   16921    16987    17089    17234    17398    17535    17563    17401 
   17109    16904    16930    17122    17277    17225    16978    16713 
   16583    16627    16818    17062    17235    17257    17117    16933 
   16912    17085    17295    17406    17348    17121    16867    16743 
   16786    16930    17043    17021    16887    16764    16757    16866 
   16980    17012    16984    16948    16948    17031    17183    17345 
   17470    17483    17340    17144    17022    16999    17054    17103 
   17061    16976    16964    17050    17183    17257    17190    17042 
   16877    16680    16524    16550    16751    17009    17215    17302 
   17279    17206    17101    16953    16779    16653    16676    16871 
   17155    17428    17617    17656    17549    17374    17180    16991 
   16859    16802    16803    16855    16916    16966    17039    17100 
   17075    16993    16919    16848    16765    16684    16625    16639 
   16792    17077    17364    17526    17543    17474    17378    17281 
   17192    17111    17042    17009    17035    17104    17178    17186 
   17084    16914    16774    16738    16776    16799    16771    16738 
   16755    16848    17002    17120    17110    17022    16974    16984 
   17037    17150    17276    17310    17260    17227    17249    17255 
   17184    17078    17015    17012    17017    16968    16868    16771 
   16753    16856    17014    17124    17181    17206    17150    17024 
   16922    16876    16886    16972    17089    17174    17218    17191 
   17078    16963    16930    16957    16997    17031    17043    17039 
   17056    17074    17034    16977    17002    17114    17217    17218 
   17126    17048    17069    17145    17178    17137    17034    16906 
   16813    16800    16874    17023    17183    17244    17136    16871 
   16567    16408    16486    16743    17063    17323    17437    17421 
   17332    17216    17141    17145    17185    17178    17070    16905 
   16795    16801    16927    17147    17323    17324    17217    17138 
   17136    17220    17328    17362    17316    17220    17076    16933 
   16852    16820    16794    16732    16603    16445    16356    16404 
   16583    16834    17070    17190    17177    17123    17091    17088 
   17149    17261    17358    17449    17566    17662    17663    17527 
   17260    16983    16848    16865    16942    17001    16996    16942 
   16923    16969    17006    16970    16908    16903    16966    17039 
   17079    17081    17041    16958    16855    16774    16733    16723 
   16749    16825    16926    17008    17047    17032    16980    16935 
   16945    17022    17130    17249    17365    17417    17386    17350 
   17338    17315    17249    17133    17007    16945    16974    17051 
   17097    17073    17029    17013    17011    17001    16970    16913 
   16838    16752    16687    16720    16867    17039    17137    17140 
   17103    17074    17057    17071    17122    17159    17160    17164 
   17194    17234    17257    17227    17088    16875    16719    16687 
   16726    16808    16938    17047    17038    16913    16771    16721 
   16792    16942    17113    17216    17197    17145    17176    17271 
   17338    17335    17287    17248    17251    17281    17312    17313 
   17239    17094    16929    16802    16788    16896    17013    17036 
   16955    16816    16718    16746    16880    17050    17195    17247 
   17181    17049    16934    16891    16902    16928    16997    17109 
   17150    17051    16899    16777    16717    16789    17002    17203 
   17251    17185    17106    17047    17024    17053    17125    17222 
   17307    17339    17315    17235    17103    16997    16999    17088 
   17164    17133    17001    16885    16865    16907    16963    16993 
   16949    16843    16773    16790    16833    16847    16851    16869 
   16909    16949    16952    16973    17109    17307    17443    17491 
   17486    17440    17374    17316    17276    17239    17183    17115 
   17082    17074    17022    16889    16712    16578    16542    16579 
   16648    16731    16821    16904    16970    17026    17074    17089 
   17062    17049    17113    17254    17406    17466    17407    17309 
   17224    17133    17054    16998    16914    16791    16686    16641 
   16681    16818    17008    17161    17238    17266    17277    17272 
   17261    17249    17215    17156    17093    17035    16996    16994 
   17000    16954    16861    16782    16745    16739    16783    16877 
   16960    16987    16988    17035    17166    17339    17456    17418 
   17194    16894    16703    16701    16822    16960    17011    16946 
   16868    16906    17081    17290    17396    17358    17239    17129 
   17116    17242    17385    17371    17229    17097    17025    17011 
   17028    16969    16776    16551    16434    16482    16641    16817 
   16965    17064    17109    17172    17280    17352    17350    17311 
   17258    17185    17104    17076    17122    17175    17172    17138 
   17112    17115    17157    17161    17034    16843    16728    16716 
   16761    16820    16872    16915    16943    16969    17001    16992 
   16954    16974    17046    17071    17030    16977    16953    16974 
   17040    17123    17194    17239    17245    17225    17190    17122 
   17048    17044    17087    17086    17063    17118    17245    17334 
   17307    17182    17034    16922    16874    16877    16911    16975 
   17033    17005    16886    16756    16680    16698    16809    16928 
   16977    16962    16947    16985    17095    17267    17420    17458 
   17399    17326    17248    17131    16985    16866    16811    16818 
   16885    16978    17018    16989    16945    16919    16910    16933 
   17005    17098    17119    17042    17015    17170    17417    17549 
   17459    17204    16935    16792    16817    16941    17039    17054 
   17023    16988    16973    16986    17000    16971    16909    16872 
   16882    16916    16968    17061    17206    17339    17338    17184 
   16991    16869    16874    17012    17168    17189    17055    16858 
   16719    16756    17001    17319    17488    17399    17124    16795 
   16570    16582    16757    16903    16936    16843    16659    16568 
   16723    17030    17330    17556    17649    17579    17452    17401 
   17432    17467    17435    17302    17133    17043    17048    17062 
   17015    16867    16637    16441    16403    16513    16666    16777 
   16833    16891    17012    17162    17260    17307    17339    17313 
   17207    17115    17123    17210    17313    17367    17318    17208 
   17119    17075    17063    17048    16984    16875    16796    16837 
   17006    17194    17314    17366    17344    17254    17158    17065 
   16943    16818    16717    16643    16637    16703    16763    16796 
   16873    17011    17146    17214    17193    17123    17099    17183 
   17336    17461    17503    17454    17336    17194    17080    17030 
   17077    17187    17242    17182    17037    16837    16632    16501 
   16493    16596    16716    16716    16566    16375    16269    16291 
   16399    16522    16605    16640    16661    16718    16838    17022 
   17253    17466    17580    17579    17521    17437    17331    17235 
   17195    17255    17423    17607    17682    17654    17626    17631 
   17613    17511    17285    16956    16640    16468    16471    16545 
   16593    16626    16670    16715    16780    16877    16932    16882 
   16763    16627    16537    16604    16850    17164    17442    17641 
   17732    17711    17588    17382    17183    17100    17118    17127 
   17064    16960    16934    17060    17273    17466    17555    17466 
   17201    16899    16725    16743    16926    17169    17314    17304 
   17238    17184    17112    16995    16822    16607    16445    16412 
   16472    16568    16710    16924    17201    17433    17464    17250 
   16929    16682    16587    16633    16806    17067    17321    17512 
   17674    17839    17943    17859    17577    17216    16846    16487 
   16224    16153    16280    16519    16709    16724    16589    16426 
   16369    16497    16763    17024    17166    17166    17091    17059 
   17184    17507    17913    18183    18177    17941    17643    17442 
   17400    17476    17567    17583    17521    17430    17296    17080 
   16862    16739    16698    16689    16663    16550    16325    16026 
   15726    15509    15453    15629    16024    16486    16886    17223 
   17510    17758    17985    18112    17999    17664    17287    17033 
   16986    17156    17425    17577    17484    17223    16972    16887 
   17036    17348    17621    17697    17605    17488    17423    17368 
   17215    16893    16434    15991    15754    15779    15979    16274 
   16586    16792    16853    16899    17072    17363    17642    17801 
   17837    17823    17854    17932    17945    17818    17557    17146 
   16614    16078    15661    15426    15380    15513    15805    16131 
   16342    16465    16642    16930    17296    17682    18041    18360 
   18637    18874    19067    19176    19091    18705    18062    17300 
   16557    16063    15991    16188    16402    16592    16850    17261 
   17801    18252    18341    17972    17270    16534    16092    16061 
   16278    16452    16395    16140    15837    15623    15567    15604 
   15587    15488    15445    15603    16009    16616    17268    17756 
   17958    17929    17812    17717    17689    17686    17612    17425 
   17204    17092    17188    17450    17706    17791    17690    17516 
   17379    17331    17407    17610    17881    18123    18245    18161 
   17853    17396    16884    16376    15891    15446    15078    14843 
   14858    15254    15985    16848    17674    18375    18902    19247 
   19384    19285    18974    18472    17774    16972    16268    15830 
   15676    15713    15779    15722    15567    15463    15516    15785 
   16264    16806    17225    17492    17705    17952    18221    18391 
   18330    18015    17565    17182    17005    17018    17127    17253 
   17325    17276    17096    16802    16421    16013    15663    15410 
   15281    15324    15548    15874    16183    16446    16777    17277 
   17909    18537    18967    19048    18852    18585    18387    18334 
   18449    18641    18750    18664    18396    18033    17634    17178 
   16622    15992    15389    14905    14606    14567    14783    15100 
   15338    15437    15489    15680    16130    16766    17369    17758 
   17942    18067    18241    18437    18523    18392    18065    17681 
   17431    17416    17545    17657    17670    17569    17390    17232 
   17179    17235    17329    17348    17244    17072    16905    16767 
   16654    16541    16395    16213    15998    15724    15366    14966 
   14651    14549    14706    15106    15701    16402    17130    17843 
   18484    19054    19640    20229    20665    20827    20672    20149 
   19306    18388    17648    17165    16863    16599    16270    15892 
   15582    15427    15383    15351    15287    15138    14849    14543 
   14512    14951    15737    16504    16963    17069    16937    16795 
   16888    17289    17891    18513    18938    19032    18877    18668 
   18534    18484    18450    18341    18098    17735    17350    17079 
   16999    17054    17096    17024    16831    16536    16176    15864 
   15755    15912    16211    16388    16255    15820    15268    14921 
   15043    15591    16273    16841    17237    17548    17917    18419 
   18957    19333    19396    19128    18670    18215    17879    17661 
   17435    17067    16594    16140    15798    15664    15766    15985 
   16189    16353    16530    16795    17171    17565    17838    17945 
   17929    17839    17696    17465    17086    16562    15993    15529 
   15311    15404    15727    16094    16382    16580    16727    16933 
   17317    17822    18266    18517    18531    18381    18152    17842 
   17493    17262    17224    17295    17364    17345    17183    16901 
   16556    16211    15968    15908    16032    16259    16467    16617 
   16761    16926    17159    17534    18004    18419    18648    18614 
   18371    18074    17762    17381    16926    16446    16062    15919 
   16004    16142    16179    16031    15725    15482    15586    16086 
   16769    17372    17697    17698    17529    17389    17413    17639 
   17925    18052    17919    17595    17275    17151    17245    17409 
   17470    17348    17105    16888    16800    16837    16924    16997 
   17021    16977    16892    16855    16915    17015    17080    17082 
   17025    16980    17019    17111    17222    17360    17419    17269 
   16949    16592    16365    16415    16680    16943    17034    16872 
   16517    16209    16160    16355    16634    16851    17016    17248 
   17566    17855    18030    18064    17919    17616    17313    17189 
   17272    17480    17689    17766    17609    17179    16545    15891 
   15439    15326    15505    15764    15892    15848    15743    15723 
   15921    16378    16942    17405    17693    17872    18015    18121 
   18200    18311    18441    18489    18400    18180    17890    17670 
   17658    17835    18025    18038    17798    17367    16883    16485 
   16272    16203    16129    15992    15828    15637    15491    15560 
   15855    16168    16334    16351    16314    16346    16534    16874 
   17306    17804    18326    18738    18916    18861    18684    18509 
   18415    18421    18477    18434    18169    17708    17158    16631 
   16228    15956    15712    15389    14978    14576    14332    14358 
   14650    15083    15487    15780    16034    16357    16794    17370 
   18046    18674    19116    19368    19530    19702    19890    20001 
   19876    19401    18643    17800    17054    16520    16219    16048 
   15870    15638    15419    15325    15398    15599    15892    16242 
   16543    16695    16733    16782    16919    17104    17231    17241 
   17155    17012    16859    16745    16690    16679    16682    16686 
   16714    16808    16990    17224    17412    17495    17513    17535 
   17606    17715    17812    17889    17983    18072    18098    18055 
   17969    17830    17602    17258    16812    16318    15835    15415 
   15096    14910    14923    15240    15877    16646    17264    17596 
   17723    17816    17983    18185    18298    18218    17953    17629 
   17371    17208    17122    17083    17063    17043    16986    16857 
   16706    16604    16596    16689    16824    16942    17091    17298 
   17463    17453    17217    16857    16585    16542    16706    16937 
   17052    16967    16796    16736    16886    17177    17448    17546 
   17409    17107    16749    16430    16245    16219    16276    16363 
   16472    16564    16576    16489    16380    16372    16530    16832 
   17221    17665    18128    18521    18757    18815    18718    18514 
   18272    18054    17867    17672    17430    17131    16821    16560 
   16430    16485    16634    16716    16671    16513    16293    16098 
   16008    16032    16140    16307    16472    16581    16652    16716 
   16742    16733    16759    16886    17126    17387    17516    17468 
   17373    17393    17573    17843    18073    18118    17958    17709 
   17480    17350    17330    17317    17217    17029    16791    16574 
   16409    16242    16074    15986    15983    16015    16115    16336 
   16636    16909    17072    17112    17076    17030    17054    17258 
   17670    18101    18284    18145    17806    17428    17120    16941 
   16929    17053    17190    17236    17180    17086    17039    17069 
   17130    17147    17049    16857    16661    16519    16478    16554 
   16688    16852    17008    17070    17008    16835    16601    16452 
   16527    16860    17346    17750    17896    17808    17637    17580 
   17785    18188    18529    18559    18196    17554    16892    16450 
   16269    16195    16038    15729    15377    15203    15338    15725 
   16193    16566    16777    16899    17030    17217    17453    17683 
   17856    17957    17985    17966    17926    17845    17695    17485 
   17257    17060    16922    16833    16778    16759    16795    16859 
   16868    16772    16601    16434    16376    16481    16668    16838 
   16980    17088    17119    17076    17020    16983    16964    16985 
   17078    17231    17404    17523    17513    17393    17245    17149 
   17159    17240    17307    17322    17268    17156    17076    17121 
   17274    17404    17379    17203    16991    16799    16599    16396 
   16240    16145    16109    16166    16341    16589    16818    16932 
   16923    16924    17076    17396    17811    18198    18426    18434 
