Origin Time       2025/03/30 10:18:00
Lat.              34.667
Long.             140.825
Depth. (km)       69
Mag.              4.9
Station Code      YMNH12
Station Lat.      35.5623
Station Long.     138.4490
Station Height(m) 147.5
Record Time       2025/03/30 10:19:34
Sampling Freq(Hz) 100Hz
Duration Time(s)  120
Dir.              2
Scale Factor      2940(gal)/6170270
Max. Acc. (gal)   0.116
Last Correction   2025/03/30 10:19:19
Memo.             
[...]
   36782    36786    36792    36797    36801    36802    36803    36801 
   36803    36808    36800    36791    36793    36798    36799    36799 
   36797    36787    36774    36767    36766    36764    36758    36753 
   36755    36764    36773    36782    36790    36794    36795    36791 
   36777    36766    36764    36762    36765    36770    36767    36763 
   36763    36763    36767    36774    36776    36775    36775    36777 
   36780    36786    36789    36787    36788    36792    36795    36802 
   36813    36820    36821    36823    36820    36809    36794    36786 
   36783    36777    36774    36774    36780    36795    36809    36813 
   36810    36804    36793    36783    36780    36782    36782    36786 
   36793    36793    36787    36788    36792    36794    36797    36802 
   36807    36810    36807    36802    36800    36797    36795    36790 
   36778    36769    36770    36771    36769    36768    36764    36755 
   36748    36748    36753    36756    36757    36757    36758    36760 
   36766    36777    36790    36799    36804    36809    36811    36808 
   36810    36814    36813    36808    36797    36792    36798    36803 
   36804    36807    36805    36795    36787    36788    36795    36799 
   36800    36806    36812    36807    36800    36794    36779    36770 
   36777    36789    36797    36798    36795    36788    36775    36761 
   36758    36766    36774    36780    36784    36786    36786    36780 
   36776    36777    36781    36783    36781    36776    36776    36777 
   36781    36787    36786    36786    36791    36795    36794    36792 
   36788    36788    36792    36788    36780    36771    36757    36747 
   36747    36755    36767    36786    36802    36808    36808    36810 
   36810    36805    36800    36798    36802    36812    36820    36819 
   36808    36794    36787    36787    36790    36794    36793    36792 
   36794    36798    36798    36798    36798    36797    36789    36779 
   36775    36775    36774    36778    36782    36782    36785    36784 
   36779    36776    36770    36763    36760    36758    36757    36762 
   36766    36762    36765    36778    36788    36793    36796    36802 
   36804    36799    36795    36786    36774    36767    36768    36772 
   36776    36777    36777    36783    36790    36797    36808    36814 
   36814    36811    36806    36796    36783    36772    36769    36774 
   36782    36791    36800    36805    36804    36804    36804    36800 
   36792    36782    36772    36765    36761    36759    36761    36759 
   36757    36763    36775    36792    36806    36810    36813    36818 
   36818    36813    36807    36804    36802    36798    36798    36798 
   36800    36803    36802    36797    36790    36782    36771    36762 
   36760    36760    36764    36778    36794    36803    36806    36806 
   36806    36807    36810    36812    36809    36804    36799    36796 
   36792    36784    36777    36777    36775    36765    36758    36754 
   36755    36763    36772    36778    36786    36793    36796    36796 
   36795    36792    36788    36788    36797    36807    36805    36789 
   36776    36767    36758    36762    36778    36787    36789    36793 
   36796    36796    36796    36792    36787    36789    36793    36792 
   36790    36791    36797    36803    36804    36804    36800    36789 
   36781    36778    36777    36773    36770    36777    36785    36783 
   36776    36770    36769    36774    36776    36774    36777    36784 
   36792    36803    36814    36820    36822    36820    36815    36810 
   36803    36795    36784    36776    36768    36760    36756    36757 
   36763    36774    36784    36790    36794    36796    36793    36787 
   36782    36780    36780    36784    36789    36792    36798    36808 
   36812    36807    36799    36795    36789    36783    36777    36775 
   36770    36767    36772    36780    36789    36798    36798    36792 
   36789    36785    36781    36779    36772    36764    36762    36763 
   36765    36771    36779    36786    36790    36789    36787    36793 
   36804    36814    36819    36820    36816    36809    36801    36794 
   36789    36784    36781    36784    36791    36799    36802    36795 
   36783    36774    36770    36771    36771    36769    36766    36760 
   36752    36752    36760    36769    36772    36771    36771    36775 
   36789    36803    36808    36805    36802    36806    36808    36807 
   36806    36801    36789    36776    36771    36776    36781    36785 
   36792    36798    36801    36803    36806    36808    36804    36797 
   36790    36784    36776    36771    36771    36774    36783    36795 
   36803    36808    36812    36810    36805    36802    36800    36797 
   36793    36791    36792    36786    36775    36769    36771    36777 
   36780    36778    36773    36768    36765    36769    36772    36771 
   36778    36784    36784    36789    36798    36807    36819    36826 
   36818    36812    36807    36791    36774    36761    36753    36747 
   36745    36747    36752    36757    36768    36777    36782    36788 
   36796    36803    36806    36807    36806    36802    36796    36792 
   36789    36785    36779    36770    36762    36762    36764    36767 
   36772    36777    36788    36801    36808    36814    36817    36819 
   36823    36826    36826    36818    36797    36776    36761    36755 
   36755    36759    36765    36767    36765    36768    36773    36770 
   36763    36759    36756    36758    36768    36779    36788    36796 
   36800    36803    36806    36807    36808    36815    36823    36828 
   36825    36813    36800    36790    36782    36773    36766    36765 
   36769    36778    36787    36791    36790    36790    36789    36784 
   36782    36785    36783    36777    36772    36770    36774    36787 
   36801    36813    36818    36816    36812    36808    36811    36820 
   36819    36812    36804    36791    36781    36777    36771    36759 
   36751    36752    36758    36767    36780    36792    36797    36797 
   36794    36790    36789    36797    36808    36815    36814    36811 
   36812    36814    36815    36810    36801    36791    36784    36779 
   36773    36767    36762    36759    36763    36769    36772    36774 
   36773    36767    36762    36761    36765    36771    36774    36773 
   36778    36787    36798    36806    36804    36795    36795    36804 
   36806    36799    36793    36788    36782    36774    36768    36762 
   36756    36750    36742    36740    36741    36748    36764    36781 
   36796    36806    36811    36811    36805    36805    36811    36816 
   36819    36822    36821    36817    36808    36797    36789    36786 
   36784    36787    36792    36797    36800    36801    36800    36804 
   36809    36811    36812    36809    36800    36789    36775    36760 
   36754    36757    36763    36775    36791    36801    36802    36796 
   36787    36782    36779    36777    36780    36782    36778    36775 
   36774    36772    36768    36767    36768    36772    36780    36786 
   36790    36793    36798    36796    36792    36790    36785    36780 
   36781    36781    36786    36794    36793    36790    36791    36791 
   36789    36784    36778    36771    36768    36772    36770    36766 
   36768    36768    36767    36773    36780    36790    36803    36810 
   36810    36806    36800    36796    36790    36785    36783    36784 
   36783    36785    36791    36797    36798    36797    36793    36785 
   36774    36766    36760    36756    36759    36770    36782    36791 
   36799    36807    36816    36825    36831    36832    36833    36835 
   36835    36826    36810    36791    36772    36758    36751    36748 
   36747    36750    36758    36768    36776    36781    36784    36785 
   36788    36795    36795    36789    36788    36789    36785    36782 
   36779    36771    36761    36755    36755    36763    36773    36781 
   36788    36793    36795    36795    36792    36785    36782    36780 
   36778    36778    36778    36776    36780    36787    36790    36790 
   36793    36800    36813    36829    36843    36846    36840    36831 
   36824    36819    36815    36808    36801    36795    36792    36793 
   36792    36790    36787    36776    36763    36755    36753    36757 
   36763    36769    36774    36778    36783    36791    36801    36808 
   36812    36816    36820    36817    36811    36808    36808    36804 
   36801    36799    36787    36770    36759    36750    36743    36739 
   36736    36736    36734    36734    36744    36761    36778    36791 
   36797    36798    36794    36792    36795    36795    36786    36776 
   36775    36781    36789    36794    36794    36792    36786    36784 
   36788    36790    36792    36794    36791    36785    36788    36792 
   36794    36797    36796    36790    36782    36776    36772    36769 
   36767    36765    36760    36758    36758    36758    36767    36781 
   36795    36810    36823    36828    36830    36828    36821    36817 
   36812    36807    36806    36802    36791    36777    36762    36752 
   36752    36756    36761    36768    36770    36770    36771    36767 
   36761    36761    36766    36770    36770    36772    36778    36780 
   36781    36788    36796    36805    36819    36825    36820    36819 
   36818    36817    36820    36815    36807    36801    36789    36776 
   36772    36776    36784    36793    36799    36798    36791    36787 
   36789    36791    36792    36790    36783    36776    36774    36775 
   36780    36789    36798    36804    36806    36803    36796    36786 
   36774    36772    36780    36784    36782    36782    36785    36785 
   36786    36790    36791    36787    36780    36772    36765    36759 
   36757    36760    36762    36764    36765    36765    36767    36775 
   36790    36809    36829    36842    36846    36842    36834    36824 
   36815    36804    36793    36783    36776    36775    36783    36787 
   36781    36775    36775    36774    36773    36780    36790    36798 
   36805    36810    36813    36807    36795    36790    36789    36787 
   36786    36789    36795    36800    36797    36791    36786    36782 
   36778    36772    36766    36760    36759    36762    36764    36768 
   36777    36786    36788    36785    36782    36779    36782    36786 
   36786    36785    36779    36770    36765    36765    36770    36776 
   36780    36787    36798    36807    36812    36812    36807    36798 
   36793    36790    36788    36789    36792    36791    36792    36797 
   36800    36804    36802    36791    36779    36776    36785    36798 
   36805    36807    36810    36810    36804    36799    36795    36780 
   36759    36748    36742    36739    36745    36755    36765    36775 
   36776    36772    36773    36775    36775    36772    36765    36763 
   36766    36764    36762    36763    36765    36774    36794    36814 
   36831    36844    36849    36849    36847    36844    36839    36825 
   36808    36796    36786    36783    36782    36774    36764    36760 
   36758    36763    36779    36793    36798    36798    36798    36794 
   36787    36783    36781    36777    36780    36792    36804    36809 
   36808    36806    36805    36799    36794    36794    36794    36793 
   36791    36787    36790    36794    36792    36787    36786    36790 
   36800    36815    36822    36819    36815    36808    36797    36784 
   36768    36754    36742    36728    36713    36707    36714    36729 
   36748    36763    36768    36760    36756    36762    36771    36780 
   36792    36802    36806    36809    36807    36805    36810    36814 
   36812    36811    36805    36789    36769    36747    36729    36719 
   36716    36722    36733    36743    36756    36772    36783    36786 
   36783    36777    36772    36762    36749    36744    36750    36759 
   36764    36763    36756    36753    36755    36759    36764    36770 
   36776    36784    36795    36805    36817    36823    36815    36805 
   36802    36798    36795    36793    36794    36803    36818    36837 
   36855    36867    36870    36862    36854    36853    36857    36864 
   36870    36870    36862    36848    36835    36821    36807    36800 
   36802    36804    36804    36804    36801    36799    36801    36802 
   36805    36816    36830    36845    36864    36876    36883    36889 
   36891    36882    36862    36839    36823    36809    36795    36792 
   36795    36792    36791    36795    36796    36798    36801    36801 
   36803    36810    36809    36798    36782    36756    36722    36693 
   36675    36664    36664    36672    36678    36681    36687    36698 
   36715    36737    36766    36796    36815    36826    36828    36821 
   36812    36807    36797    36776    36753    36736    36724    36719 
   36718    36722    36727    36728    36728    36729    36728    36731 
   36741    36750    36751    36742    36731    36722    36717    36723 
   36744    36770    36791    36796    36782    36755    36725    36704 
   36697    36704    36714    36719    36718    36713    36701    36686 
   36679    36688    36712    36747    36777    36798    36821    36845 
   36862    36875    36889    36899    36898    36892    36886    36878 
   36869    36865    36870    36883    36892    36891    36879    36856 
   36826    36790    36749    36711    36681    36653    36624    36595 
   36572    36569    36588    36628    36687    36748    36801    36851 
   36894    36924    36944    36961    36976    36985    36994    37010 
   37027    37030    37020    37002    36974    36940    36908    36872 
   36828    36785    36746    36711    36692    36690    36698    36719 
   36750    36781    36806    36826    36844    36862    36877    36882 
   36875    36858    36833    36807    36787    36776    36772    36772 
   36764    36749    36728    36700    36679    36667    36663    36664 
   36674    36693    36707    36716    36730    36755    36785    36816 
   36838    36848    36843    36822    36796    36774    36748    36721 
   36698    36679    36670    36678    36706    36748    36798    36846 
   36884    36907    36915    36911    36896    36878    36858    36836 
   36810    36781    36747    36712    36684    36663    36652    36657 
   36679    36707    36733    36759    36786    36806    36820    36839 
   36866    36898    36921    36928    36927    36918    36890    36852 
   36817    36783    36753    36723    36686    36655    36638    36634 
   36647    36674    36699    36724    36740    36738    36725    36718 
   36723    36739    36756    36765    36771    36783    36800    36821 
   36848    36881    36915    36941    36948    36935    36907    36871 
   36833    36799    36766    36732    36707    36693    36686    36682 
   36684    36689    36697    36702    36700    36689    36668    36646 
   36640    36655    36680    36707    36732    36758    36787    36810 
   36830    36853    36876    36902    36926    36939    36946    36947 
   36937    36917    36890    36863    36840    36819    36800    36782 
   36765    36759    36768    36795    36835    36871    36899    36914 
   36909    36892    36885    36890    36897    36904    36907    36903 
   36898    36891    36871    36840    36799    36748    36696    36653 
   36616    36586    36573    36574    36587    36608    36622    36623 
   36626    36635    36655    36689    36727    36762    36793    36819 
   36837    36847    36855    36870    36891    36914    36937    36955 
   36963    36955    36931    36893    36849    36805    36771    36751 
   36744    36743    36742    36745    36752    36760    36769    36780 
   36790    36797    36794    36789    36787    36781    36774    36775 
   36782    36789    36796    36797    36791    36782    36772    36759 
   36747    36738    36739    36749    36761    36767    36757    36729 
   36697    36674    36665    36673    36697    36725    36749    36767 
   36779    36792    36811    36828    36844    36864    36880    36885 
   36880    36869    36845    36808    36765    36726    36704    36700 
   36704    36709    36720    36736    36751    36761    36772    36787 
   36798    36809    36823    36845    36873    36897    36906    36903 
   36894    36882    36875    36877    36879    36873    36856    36828 
   36794    36765    36744    36731    36728    36724    36722    36726 
   36735    36747    36754    36752    36745    36737    36728    36717 
   36704    36689    36677    36679    36687    36698    36721    36742 
   36757    36776    36792    36801    36810    36818    36824    36828 
   36830    36830    36835    36847    36859    36865    36865    36861 
   36858    36856    36857    36857    36848    36834    36816    36797 
   36784    36778    36777    36778    36772    36761    36746    36725 
   36705    36689    36679    36681    36689    36690    36685    36678 
   36671    36669    36673    36679    36696    36729    36768    36808 
   36846    36880    36912    36936    36944    36945    36940    36926 
   36914    36902    36890    36879    36864    36848    36835    36821 
   36804    36787    36777    36777    36780    36780    36777    36770 
   36760    36759    36767    36782    36800    36813    36818    36812 
   36798    36789    36779    36765    36763    36777    36790    36796 
   36800    36805    36808    36805    36802    36799    36793    36791 
   36794    36798    36804    36814    36821    36820    36820    36826 
   36832    36831    36819    36797    36775    36757    36739    36727 
   36721    36712    36701    36698    36700    36702    36708    36714 
   36717    36723    36728    36736    36753    36771    36792    36813 
   36826    36834    36840    36844    36849    36854    36853    36848 
   36843    36832    36813    36794    36772    36744    36717    36702 
   36701    36711    36724    36734    36743    36750    36755    36764 
   36778    36792    36802    36803    36800    36798    36798    36802 
   36812    36818    36816    36811    36799    36783    36774    36773 
   36774    36771    36761    36746    36733    36723    36716    36720 
   36733    36747    36760    36771    36779    36785    36795    36807 
   36823    36835    36840    36847    36854    36856    36863    36871 
   36879    36889    36898    36900    36893    36879    36861    36845 
   36827    36805    36787    36773    36760    36751    36737    36716 
   36695    36681    36675    36672    36670    36670    36671    36668 
   36668    36680    36697    36712    36732    36757    36775    36788 
   36805    36813    36812    36811    36808    36801    36795    36794 
   36794    36792    36789    36792    36802    36810    36816    36825 
   36833    36844    36854    36864    36874    36881    36876    36865 
   36852    36841    36831    36826    36822    36816    36806    36794 
   36781    36772    36769    36769    36765    36755    36744    36743 
   36753    36764    36777    36795    36808    36815    36818    36816 
   36808    36799    36799    36814    36832    36843    36839    36822 
   36805    36789    36773    36764    36760    36755    36755    36761 
   36768    36781    36794    36803    36804    36801    36802    36806 
   36806    36806    36809    36812    36811    36809    36807    36804 
   36803    36805    36802    36796    36785    36776    36769    36760 
   36748    36732    36718    36708    36703    36705    36709    36710 
