Origin Time       2025/03/30 10:18:00
Lat.              34.667
Long.             140.825
Depth. (km)       69
Mag.              4.9
Station Code      YMNH16
Station Lat.      35.7421
Station Long.     138.5653
Station Height(m) 595
Record Time       2025/03/30 10:19:31
Sampling Freq(Hz) 100Hz
Duration Time(s)  120
Dir.              4
Scale Factor      7845(gal)/8223790
Max. Acc. (gal)   0.700
Last Correction   2025/03/30 10:19:31
Memo.             
[...]
     499      535      499      461      498      540      549      527 
     460      438      488      495      460      453      459      452 
     456      480      514      545      548      513      491      503 
     500      464      488      546      487      426      503      546 
     496      481      495      504      514      495      468      477 
     496      476      472      522      510      427      445      533 
     529      479      500      527      507      525      550      488 
     436      491      548      515      467      476      507      486 
     437      461      535      535      483      480      518      540 
     517      469      454      453      421      430      495      513 
     510      542      517      440      436      504      531      504 
     531      573      515      442      471      530      544      529 
     495      467      472      488      498      503      492      467 
     476      521      507      432      411      465      499      494 
     500      504      494      496      499      510      548      556 
     496      436      445      481      500      503      471      475 
     537      527      490      531      554      506      480      468 
     448      504      585      537      411      380      454      513 
     526      540      530      496      490      510      496      438 
     429      514      568      519      460      460      477      479 
     476      504      542      513      464      488      510      465 
     445      486      499      479      486      496      461      433 
     481      556      560      498      465      517      562      517 
     445      421      437      494      567      579      518      471 
     492      518      496      464      469      503      494      444 
     464      533      538      513      526      535      514      491 
     486      495      502      472      436      467      531      530 
     503      503      484      438      434      477      491      477 
     498      513      496      490      507      526      498      433 
     438      495      484      448      494      540      487      436 
     500      568      514      456      490      511      495      507 
     515      491      475      504      546      514      446      468 
     549      554      495      477      515      523      498      488 
     487      496      522      515      479      483      531      525 
     453      427      481      513      459      409      434      475 
     487      484      469      463      473      490      504      492 
     449      444      488      544      561      510      469      523 
     572      534      477      463      494      527      518      481 
     461      494      562      571      495      441      450      476 
     484      503      529      494      432      479      571      535 
     468      498      522      486      471      491      484      450 
     467      514      508      487      494      494      483      473 
     471      496      529      527      529      537      526      506 
     484      467      457      452      456      465      457      448 
     469      500      502      494      530      550      511      513 
     549      518      490      511      481      419      437      517 
     535      452      392      434      491      503      480      492 
     561      571      514      496      499      498      531      549 
     483      395      421      518      530      500      511      514 
     496      502      513      492      465      464      490      506 
     480      459      500      529      480      463      519      510 
     445      480      546      521      492      495      472      477 
     519      507      468      460      446      452      494      513 
     492      496      538      545      495      440      422      471 
     526      510      456      444      480      529      558      530 
     475      502      576      575      519      492      495      502 
     521      531      488      437      450      486      476      440 
     450      533      584      513      432      463      507      499 
     508      495      426      403      457      511      511      496 
     514      527      507      496      515      496      430      419 
     480      503      484      531      585      522      440      459 
     522      546      523      495      480      461      444      479 
     535      540      526      515      477      465      481      473 
     468      492      517      517      502      494      491      502 
     537      546      495      454      496      556      533      468 
     463      529      556      494      437      441      463      459 
     427      430      460      465      488      533      523      477 
     480      503      469      438      491      557      535      468 
     461      530      572      518      446      442      476      504 
     526      530      504      487      498      498      473      479 
     529      554      486      373      364      480      562      541 
     499      506      545      558      525      477      448      445 
     461      494      515      499      491      511      508      476 
     471      506      525      515      514      508      469      456 
     498      533      534      525      490      429      411      471 
     523      514      479      465      494      533      518      471 
     471      498      502      517      537      511      468      480 
     507      476      452      487      481      446      494      526 
     464      438      464      472      507      534      488      468 
     495      490      481      498      490      480      517      571 
     583      550      511      487      494      513      491      477 
     513      515      494      500      504      504      514      513 
     498      476      461      441      418      454      519      517 
     480      473      491      511      495      464      488      511 
     477      476      517      510      477      473      479      481 
     484      483      468      444      448      475      454      436 
     488      548      571      564      510      473      495      502 
     467      459      502      535      518      502      531      572 
     576      540      492      480      499      506      495      494 
     502      502      494      476      459      461      475      450 
     425      460      507      504      492      495      484      480 
     518      546      518      475      460      465      507      571 
     580      531      495      479      460      445      444      459 
     479      468      440      464      523      517      461      468 
     514      511      472      448      445      467      506      525 
     517      540      575      545      469      436      471      525 
     522      475      479      521      522      511      515      480 
     452      473      495      502      518      530      526      517 
     531      541      508      491      500      488      459      432 
     426      469      495      476      486      526      550      561 
     535      473      449      459      469      487      464      432 
     463      481      459      473      507      523      511      461 
     467      529      522      487      490      476      463      511 
     561      508      436      476      540      510      477      508 
     545      542      500      459      473      494      479      500 
     533      481      425      465      504      471      461      508 
     529      507      500      529      540      492      468      514 
     527      472      450      491      523      513      491      476 
     473      496      517      513      514      510      488      480 
     481      471      475      495      507      504      477      445 
     452      481      506      508      464      422      454      515 
     522      494      496      506      486      492      535      545 
     523      487      454      477      506      490      521      602 
     595      508      480      515      514      492      502      488 
     449      448      468      475      491      530      549      517 
     469      446      454      459      418      413      496      531 
     479      472      523      519      479      486      522      530 
     515      504      496      494      499      498      483      457 
     438      449      463      460      463      488      541      552 
     506      514      552      525      490      484      450      415 
     432      454      471      507      553      561      527      499 
     496      498      500      492      483      511      564      571 
     519      484      484      494      517      529      499      457 
     450      483      500      486      481      498      494      460 
     440      453      477      486      488      515      544      530 
     507      496      472      453      459      480      487      464 
     449      472      510      548      545      518      523      530 
     491      465      499      513      467      438      446      471 
     523      546      510      498      508      460      421      465 
     508      513      515      519      514      490      476      510 
     557      544      475      440      473      518      533      523 
     492      476      521      540      491      473      507      515 
     460      406      421      471      483      454      450      480 
     488      464      467      527      558      514      487      499 
     479      460      490      535      568      567      526      499 
     521      546      522      469      436      459      508      496 
     441      452      519      564      548      490      460      486 
     523      534      514      483      453      449      473      487 
     491      492      471      434      422      452      499      522 
     502      465      457      480      492      495      525      565 
     557      498      463      494      548      556      503      442 
     448      518      556      522      494      514      534      513 
     471      450      488      548      557      525      517      521 
     507      481      432      403      444      491      513      527 
     515      518      568      572      486      440      472      459 
     388      388      473      564      592      549      508      483 
     425      403      459      481      441      440      492      500 
     471      495      552      568      544      526      529      503 
     434      402      442      510      558      580      584      557 
     502      449      390      315      288      352      471      585 
     653      638      594      549      473      417      432      440 
     417      436      510      600      670      681      639      577 
     498      425      400      413      427      426      421      419 
     434      503      583      573      514      476      448      407 
     345      284      305      418      529      598      695      787 
     754      594      403      278      265      321      369      465 
     649      800      787      612      425      359      391      398 
     384      450      576      664      679      626      542      476 
     423      383      373      356      326      355      427      449 
     430      449      514      587      631      656      697      693 
     546      383      372      454      527      562      537      468 
     409      414      446      471      558      699      780      770 
     688      564      464      411      344      238      197      251 
     330      459      641      753      754      664      468      278 
     238      301      325      325      386      486      584      679 
     731      720      650      517      378      303      313      433 
     598      656      579      465      390      337      278      267 
     346      459      548      627      711      747      712      657 
     549      359      228      233      302      387      488      607 
     693      681      626      618      649      654      592      506 
     429      348      315      400      531      591      565      496 
     434      409      332      124      -66      -25      209      422 
     561      714      849      839      702      584      583      685 
     766      719      604      540      576      666      729      762 
     772      683      448      175       55      103      195      330 
     541      691      657      545      492      480      438      361 
     292      255      256      337      494      626      646      556 
     417      317      341      454      531      596      751      931 
     997      895      703      584      568      537      418      224 
      64       78      238      391      440      454      523      594 
     595      556      506      414      313      288      346      441 
     554      683      784      796      681      460      233      128 
     153      225      336      542      746      776      646      488 
     378      364      461      603      702      676      517      351 
     348      508      680      761      720      550      333      232 
     309      488      662      761      770      739      731      745 
     724      643      515      306       -9     -241     -176       85 
     305      402      425      432      414      373      384      495 
     641      680      634      664      758      796      785      799 
     846      891      835      645      448      342      288      291 
     441      676      745      560      318      191      149      118 
      82       47       60      136      195      276      483      726 
     850      876      826      680      554      538      554      599 
     691      726      677      627      592      557      554      587 
     558      446      384      407      390      287      221      292 
     426      460      386      372      459      513      488      438 
     429      541      727      793      658      480      433      496 
     545      531      477      426      453      558      630      631 
     573      419      261      255      380      511      546      449 
     330      315      346      375      456      579      654      656 
     603      544      561      665      726      679      589      537 
     552      599      611      572      542      554      534      410 
     265      214      228      226      198      241      388      526 
     576      553      494      433      386      363      402      507 
     648      745      723      665      688      730      718      703 
     706      641      487      369      384      449      449      422 
     422      399      305      221      270      371      340      234 
     234      352      513      660      766      815      810      770 
     677      515      379      375      471      571      635      646 
     575      427      291      260      330      422      454      396 
     311      291      348      480      648      712      627      522 
     467      453      495      564      587      548      502      495 
     480      398      342      402      461      423      361      365 
     490      679      750      677      625      639      627      549 
     417      318      346      456      535      589      637      633 
     571      513      492      471      433      403      361      319 
     360      483      610      665      630      600      583      475 
     324      251      274      352      433      479      517      581 
     634      631      577      522      488      445      409      429 
     486      569      650      650      580      487      415      400 
     398      421      525      603      585      572      591      581 
     569      596      595      502      399      344      283      255 
     351      504      571      517      429      411      468      491 
     457      453      475      473      456      433      418      440 
     508      560      526      490      540      608      598      506 
     429      476      598      658      615      525      450      433 
     460      477      473      484      504      488      479      562 
     643      573      438      379      382      415      454      492 
     584      680      661      585      569      544      418      328 
     382      459      437      368      336      382      471      533 
     561      545      471      430      463      483      461      459 
     495      537      550      541      530      526      510      481 
     471      499      535      533      513      531      560      525 
     464      454      442      386      345      355      413      506 
     568      588      612      618      564      494      481      527 
     553      538      533      530      522      537      549      541 
     537      540      515      446      399      438      498      484 
     421      369      353      372      387      384      406      457 
     487      499      517      529      537      544      518      469 
     432      413      426      459      471      514      615      653 
     621      635      654      594      531      530      517      448 
     379      363      425      508      521      496      504      507 
     459      419      441      494      526      502      441      442 
     521      572      542      496      476      463      463      479 
     500      548      577      537      477      449      457      507 
     534      480      423      440      495      541      546      511 
     510      545      518      446      434      479      500      472 
     434      430      459      486      469      414      398      449 
     523      584      585      527      492      483      453      442 
     480      508      465      386      378      457      527      538 
     564      658      730      708      650      614      591      544 
     473      427      418      410      399      426      456      456 
     465      480      464      421      372      336      341      414 
     527      580      554      558      581      533      457      448 
     504      572      604      591      541      468      434      488 
     542      514      454      438      459      471      486      533 
     595      614      557      465      418      445      471      446 
     419      415      414      413      440      531      625      614 
     529      479      500      546      534      454      399      442 
     529      594      618      589      533      471      417      407 
     441      480      476      418      382      418      472      514 
     564      602      583      523      473      481      544      573 
     531      456      409      409      421      441      480      491 
     468      480      504      479      457      472      484      465 
     413      367      382      449      535      587      577      554 
     564      583      587      579      550      503      472      473 
     486      473      450      471      533      554      483      426 
