Origin Time       2025/03/30 10:18:00
Lat.              34.667
Long.             140.825
Depth. (km)       69
Mag.              4.9
Station Code      YMNH12
Station Lat.      35.5623
Station Long.     138.4490
Station Height(m) 147.5
Record Time       2025/03/30 10:19:34
Sampling Freq(Hz) 100Hz
Duration Time(s)  120
Dir.              1
Scale Factor      2940(gal)/6170270
Max. Acc. (gal)   0.181
Last Correction   2025/03/30 10:19:19
Memo.             
[...]
    1170     1182     1191     1201     1209     1205     1197     1193 
    1188     1183     1180     1174     1170     1171     1174     1178 
    1181     1179     1173     1165     1160     1159     1162     1169 
    1174     1177     1183     1192     1199     1204     1203     1201 
    1198     1194     1192     1191     1192     1194     1194     1189 
    1182     1176     1173     1170     1166     1165     1167     1170 
    1172     1174     1176     1174     1171     1172     1176     1179 
    1182     1187     1194     1195     1192     1189     1187     1190 
    1200     1209     1209     1206     1205     1206     1207     1206 
    1205     1203     1195     1186     1181     1180     1181     1180 
    1178     1174     1168     1165     1164     1164     1166     1169 
    1173     1174     1172     1172     1172     1175     1182     1185 
    1184     1182     1181     1182     1186     1192     1200     1205 
    1209     1208     1199     1188     1180     1171     1167     1170 
    1171     1172     1181     1189     1189     1184     1180     1179 
    1185     1192     1194     1188     1185     1186     1188     1191 
    1194     1195     1194     1191     1189     1187     1182     1172 
    1163     1160     1161     1160     1160     1165     1172     1182 
    1193     1201     1206     1210     1209     1202     1195     1189 
    1186     1186     1182     1177     1178     1185     1193     1193 
    1183     1174     1169     1163     1158     1157     1159     1162 
    1168     1173     1176     1182     1186     1189     1197     1206 
    1210     1208     1203     1199     1199     1202     1198     1188 
    1181     1181     1185     1188     1186     1180     1169     1161 
    1164     1170     1174     1176     1172     1166     1162     1161 
    1164     1170     1177     1185     1193     1197     1201     1204 
    1202     1201     1200     1199     1199     1199     1194     1184 
    1173     1170     1174     1173     1169     1165     1161     1163 
    1167     1165     1160     1159     1160     1163     1171     1179 
    1184     1188     1191     1193     1194     1191     1189     1194 
    1201     1210     1212     1206     1202     1198     1187     1179 
    1179     1176     1175     1181     1186     1189     1196     1205 
    1208     1203     1193     1183     1177     1178     1187     1196 
    1196     1192     1188     1184     1179     1171     1160     1155 
    1157     1160     1168     1178     1183     1185     1191     1200 
    1206     1208     1209     1211     1212     1212     1211     1207 
    1201     1195     1186     1177     1167     1159     1156     1162 
    1168     1169     1164     1158     1154     1158     1160     1163 
    1169     1174     1177     1181     1181     1179     1177     1180 
    1190     1202     1211     1215     1217     1219     1223     1218 
    1206     1201     1198     1192     1184     1177     1171     1168 
    1166     1165     1164     1161     1160     1165     1172     1177 
    1179     1179     1174     1169     1168     1170     1167     1161 
    1159     1161     1166     1173     1182     1191     1197     1196 
    1189     1180     1171     1165     1166     1167     1166     1172 
    1183     1187     1186     1185     1183     1182     1183     1189 
    1197     1201     1199     1199     1199     1200     1203     1207 
    1204     1197     1195     1195     1191     1184     1180     1182 
    1185     1185     1186     1184     1178     1177     1181     1182 
    1182     1180     1173     1165     1157     1154     1160     1169 
    1179     1186     1189     1189     1187     1186     1188     1192 
    1194     1190     1185     1186     1193     1200     1206     1210 
    1211     1205     1197     1195     1195     1192     1189     1187 
    1186     1187     1184     1179     1173     1165     1163     1165 
    1163     1163     1171     1179     1179     1173     1168     1167 
    1168     1169     1171     1174     1182     1192     1193     1189 
    1184     1184     1190     1201     1210     1214     1215     1210 
    1203     1197     1192     1185     1175     1168     1166     1168 
    1171     1176     1185     1188     1185     1180     1176     1177 
    1180     1183     1190     1195     1195     1192     1187     1176 
    1168     1168     1172     1176     1184     1189     1193     1197 
    1199     1207     1216     1218     1213     1204     1200     1199 
    1193     1188     1183     1174     1166     1160     1153     1147 
    1143     1144     1152     1162     1170     1178     1184     1187 
    1194     1202     1202     1201     1200     1197     1196     1193 
    1189     1188     1186     1180     1173     1169     1167     1170 
    1175     1180     1187     1189     1187     1187     1190     1192 
    1194     1198     1202     1204     1204     1203     1200     1195 
    1188     1183     1179     1175     1173     1172     1166     1153 
    1142     1139     1142     1148     1155     1162     1170     1178 
    1185     1192     1199     1203     1210     1221     1228     1229 
    1225     1220     1213     1204     1193     1182     1175     1171 
    1165     1162     1164     1172     1180     1186     1192     1199 
    1199     1191     1180     1174     1174     1171     1168     1169 
    1169     1171     1180     1187     1192     1194     1190     1189 
    1194     1199     1201     1203     1207     1206     1199     1190 
    1182     1175     1170     1166     1163     1162     1164     1168 
    1170     1173     1178     1185     1189     1189     1185     1178 
    1171     1171     1172     1169     1168     1174     1183     1196 
    1209     1214     1213     1206     1196     1185     1177     1174 
    1173     1172     1175     1178     1179     1181     1186     1190 
    1189     1183     1180     1179     1173     1171     1174     1174 
    1175     1179     1179     1177     1178     1177     1176     1178 
    1178     1178     1177     1180     1187     1196     1202     1202 
    1201     1206     1210     1214     1218     1218     1215     1206 
    1191     1178     1168     1162     1157     1155     1155     1158 
    1158     1155     1156     1162     1166     1171     1181     1188 
    1191     1191     1188     1178     1169     1169     1176     1186 
    1200     1209     1205     1198     1190     1183     1183     1185 
    1184     1187     1189     1183     1169     1157     1154     1160 
    1170     1180     1186     1187     1185     1183     1182     1182 
    1184     1189     1198     1209     1214     1214     1214     1214 
    1210     1201     1191     1188     1190     1192     1194     1193 
    1188     1185     1187     1188     1188     1184     1178     1174 
    1170     1172     1180     1191     1196     1197     1194     1185 
    1180     1184     1188     1189     1192     1191     1186     1185 
    1187     1188     1188     1189     1189     1186     1181     1177 
    1172     1168     1165     1165     1164     1162     1158     1156 
    1156     1160     1165     1167     1168     1174     1181     1185 
    1187     1189     1188     1190     1194     1194     1194     1193 
    1189     1184     1180     1179     1182     1182     1179     1177 
    1176     1176     1176     1178     1181     1180     1176     1174 
    1176     1181     1189     1199     1205     1206     1198     1187 
    1175     1168     1175     1188     1197     1195     1189     1185 
    1182     1177     1173     1171     1176     1184     1189     1195 
    1201     1205     1207     1210     1212     1207     1195     1184 
    1178     1173     1172     1172     1168     1162     1159     1163 
    1172     1183     1189     1191     1191     1190     1191     1190 
    1181     1172     1171     1175     1182     1187     1187     1187 
    1189     1191     1191     1191     1191     1190     1187     1180 
    1169     1162     1157     1154     1151     1149     1150     1156 
    1165     1180     1195     1202     1206     1208     1206     1204 
    1203     1198     1195     1196     1197     1195     1191     1186 
    1180     1171     1168     1169     1168     1166     1165     1166 
    1172     1182     1188     1188     1190     1192     1193     1197 
    1203     1204     1203     1204     1201     1197     1199     1204 
    1205     1200     1195     1190     1188     1188     1186     1182 
    1183     1188     1194     1200     1201     1200     1195     1189 
    1188     1189     1186     1187     1186     1180     1174     1168 
    1163     1162     1163     1168     1171     1173     1177     1183 
    1188     1193     1195     1190     1184     1182     1180     1176 
    1173     1173     1174     1174     1176     1180     1186     1189 
    1184     1180     1176     1171     1168     1175     1184     1189 
    1191     1192     1196     1198     1195     1187     1178     1172 
    1167     1162     1162     1168     1171     1171     1171     1172 
    1174     1174     1175     1183     1192     1197     1203     1207 
    1206     1202     1194     1183     1176     1177     1179     1178 
    1177     1179     1183     1187     1190     1195     1203     1207 
    1202     1199     1202     1208     1211     1206     1199     1194 
    1192     1191     1191     1188     1184     1179     1170     1162 
    1158     1157     1158     1158     1154     1150     1153     1163 
    1171     1176     1178     1178     1176     1179     1180     1179 
    1180     1183     1185     1186     1184     1179     1173     1171 
    1171     1170     1169     1171     1178     1188     1191     1190 
    1189     1188     1189     1193     1193     1184     1177     1177 
    1181     1186     1188     1192     1199     1209     1216     1219 
    1220     1220     1216     1209     1203     1196     1190     1184 
    1177     1167     1160     1158     1161     1166     1169     1168 
    1167     1170     1176     1184     1189     1194     1200     1201 
    1204     1209     1209     1209     1212     1212     1210     1208 
    1203     1195     1186     1180     1180     1180     1178     1177 
    1176     1172     1170     1171     1171     1175     1185     1191 
    1193     1192     1187     1185     1185     1180     1173     1166 
    1164     1170     1183     1193     1197     1192     1185     1183 
    1182     1184     1191     1200     1207     1210     1211     1211 
    1206     1198     1193     1191     1185     1176     1163     1146 
    1132     1128     1137     1152     1163     1169     1170     1168 
    1167     1168     1172     1180     1187     1191     1195     1201 
    1205     1206     1208     1210     1212     1215     1218     1214 
    1208     1205     1201     1194     1183     1172     1169     1171 
    1168     1163     1162     1165     1168     1173     1177     1181 
    1183     1183     1183     1186     1189     1191     1191     1192 
    1195     1203     1210     1216     1226     1233     1232     1230 
    1230     1231     1229     1227     1222     1215     1209     1205 
    1199     1194     1195     1202     1207     1205     1198     1189 
    1182     1175     1167     1161     1162     1170     1181     1189 
    1189     1183     1180     1176     1170     1163     1154     1145 
    1137     1126     1113     1100     1091     1091     1099     1105 
    1111     1119     1132     1143     1151     1156     1155     1150 
    1147     1152     1162     1172     1180     1185     1184     1182 
    1186     1185     1177     1173     1171     1166     1163     1158 
    1150     1145     1145     1144     1138     1133     1135     1146 
    1161     1176     1188     1195     1203     1207     1209     1212 
    1209     1202     1200     1201     1202     1200     1195     1194 
    1190     1175     1158     1145     1137     1137     1141     1146 
    1145     1132     1118     1111     1112     1122     1142     1164 
    1183     1197     1206     1213     1215     1211     1202     1195 
    1189     1181     1171     1162     1156     1157     1164     1175 
    1191     1203     1209     1212     1210     1211     1216     1227 
    1242     1257     1268     1271     1269     1263     1257     1254 
    1251     1245     1242     1244     1246     1244     1238     1226 
    1214     1210     1213     1219     1220     1220     1228     1243 
    1264     1287     1305     1315     1322     1325     1325     1325 
    1320     1313     1301     1284     1270     1262     1259     1257 
    1259     1261     1253     1239     1227     1212     1188     1160 
    1135     1114     1098     1084     1070     1056     1046     1043 
    1049     1064     1082     1099     1117     1133     1144     1152 
    1156     1156     1156     1156     1150     1142     1141     1150 
    1162     1168     1164     1144     1111     1076     1048     1030 
    1020     1019     1024     1033     1038     1037     1035     1035 
    1038     1050     1070     1097     1127     1147     1148     1138 
    1134     1141     1159     1185     1214     1235     1243     1242 
    1233     1217     1202     1189     1175     1164     1156     1148 
    1143     1149     1165     1185     1209     1229     1235     1229 
    1215     1196     1179     1167     1148     1128     1111     1092 
    1081     1083     1102     1146     1212     1289     1360     1417 
    1463     1502     1537     1559     1563     1554     1527     1482 
    1432     1376     1312     1250     1195     1152     1130     1121 
    1119     1120     1119     1120     1121     1117     1114     1128 
    1156     1189     1218     1237     1243     1236     1228     1225 
    1225     1220     1214     1209     1199     1180     1152     1118 
    1080     1040      996      962      943      931      932      956 
     996     1049     1114     1189     1262     1327     1378     1413 
    1430     1429     1415     1394     1367     1337     1306     1270 
    1227     1182     1133     1081     1034     1001      988      991 
    1002     1020     1038     1047     1050     1057     1066     1074 
    1083     1098     1124     1161     1205     1245     1275     1297 
    1312     1323     1331     1341     1351     1354     1352     1345 
    1328     1297     1253     1196     1135     1080     1034      999 
     971      945      930      928      929      936      951      973 
    1001     1040     1088     1134     1171     1201     1223     1242 
    1266     1288     1297     1288     1268     1251     1241     1238 
    1236     1232     1220     1198     1174     1155     1140     1131 
    1132     1137     1144     1151     1156     1159     1165     1175 
    1179     1173     1165     1154     1145     1146     1158     1177 
    1208     1241     1271     1303     1329     1343     1351     1355 
    1357     1359     1357     1349     1333     1313     1291     1263 
    1232     1204     1183     1169     1161     1157     1158     1169 
    1187     1209     1236     1263     1287     1308     1321     1319 
    1303     1280     1258     1237     1216     1192     1162     1124 
    1077     1023      976      944      932      940      962      989 
    1018     1045     1073     1107     1148     1191     1226     1247 
    1257     1263     1271     1275     1273     1271     1266     1256 
    1244     1232     1217     1201     1186     1174     1166     1162 
    1161     1163     1171     1182     1196     1209     1212     1210 
    1208     1199     1189     1186     1184     1181     1182     1180 
    1170     1158     1143     1130     1124     1125     1125     1128 
    1132     1132     1133     1146     1166     1183     1190     1187 
    1182     1182     1189     1201     1212     1218     1216     1205 
    1191     1174     1158     1151     1153     1159     1167     1172 
    1170     1163     1157     1160     1166     1164     1147     1116 
    1082     1055     1046     1055     1071     1085     1094     1102 
    1111     1124     1138     1150     1159     1168     1179     1193 
    1216     1243     1267     1291     1319     1342     1355     1355 
    1341     1319     1302     1291     1282     1272     1252     1219 
    1180     1145     1117     1100     1100     1117     1141     1167 
    1190     1203     1211     1229     1254     1277     1292     1292 
    1282     1276     1271     1262     1255     1250     1240     1225 
    1206     1187     1170     1153     1137     1121     1097     1069 
    1049     1041     1040     1040     1044     1058     1082     1110 
    1136     1160     1188     1213     1226     1229     1226     1217 
    1207     1203     1207     1211     1215     1222     1226     1224 
    1220     1215     1206     1196     1191     1190     1191     1195 
    1199     1203     1206     1208     1212     1215     1218     1220 
    1218     1214     1213     1220     1234     1250     1262     1267 
    1260     1245     1230     1217     1205     1193     1184     1178 
    1172     1164     1154     1141     1128     1118     1105     1091 
    1084     1080     1076     1076     1075     1072     1074     1080 
    1091     1108     1130     1153     1175     1198     1220     1238 
    1245     1242     1236     1231     1225     1218     1208     1194 
    1173     1152     1143     1146     1157     1167     1171     1170 
    1164     1159     1156     1159     1167     1176     1190     1210 
    1224     1231     1233     1235     1239     1240     1240     1242 
    1245     1246     1249     1251     1246     1235     1225     1217 
    1213     1209     1202     1194     1187     1179     1172     1160 
    1140     1120     1107     1100     1099     1099     1100     1109 
    1129     1156     1179     1196     1207     1216     1222     1228 
    1232     1231     1227     1222     1218     1213     1205     1202 
    1204     1204     1198     1187     1177     1176     1179     1185 
    1192     1193     1183     1173     1172     1176     1180     1183 
    1184     1183     1177     1167     1159     1154     1147     1147 
    1157     1164     1166     1164     1155     1139     1129     1131 
    1134     1139     1143     1146     1146     1151     1162     1176 
    1188     1194     1193     1187     1185     1190     1197     1203 
    1208     1208     1208     1212     1216     1216     1210     1203 
    1198     1199     1206     1213     1219     1226     1228     1226 
    1218     1208     1202     1200     1202     1203     1197     1193 
    1190     1181     1170     1162     1157     1158     1163     1172 
    1182     1194     1207     1214     1219     1226     1231     1235 
    1238     1236     1231     1219     1201     1188     1179     1172 
    1166     1166     1164     1156     1149     1148     1153     1165 
    1185     1200     1205     1204     1203     1202     1205     1208 
    1205     1195     1181     1168     1157     1152     1154     1158 
    1161     1160     1155     1149     1143     1142     1146     1152 
    1156     1156     1154     1149     1143     1142     1147     1154 
    1168     1186     1198     1200     1197     1195     1192     1188 
    1186     1186     1184     1178     1173     1172     1173     1174 
