Origin Time       2025/03/30 10:18:00
Lat.              34.667
Long.             140.825
Depth. (km)       69
Mag.              4.9
Station Code      YMNH14
Station Lat.      35.5115
Station Long.     138.9675
Station Height(m) 1010
Record Time       2025/03/30 10:19:21
Sampling Freq(Hz) 100Hz
Duration Time(s)  120
Dir.              5
Scale Factor      7845(gal)/8223790
Max. Acc. (gal)   2.300
Last Correction   2025/03/30 10:19:21
Memo.             
[...]
  -16020   -15839   -15728   -15736   -15876   -16119   -16252   -16150 
  -16125   -16276   -16282   -16114   -15934   -15790   -15786   -15917 
  -16075   -16233   -16303   -16212   -16098   -16121   -16164   -16023 
  -15823   -15781   -15846   -15959   -16119   -16225   -16218   -16116 
  -16036   -16054   -16044   -16065   -16221   -16228   -16009   -15836 
  -15718   -15637   -15766   -16117   -16478   -16568   -16380   -16239 
  -16133   -15822   -15576   -15705   -15963   -16112   -16204   -16289 
  -16320   -16267   -16193   -16116   -15965   -15839   -15805   -15750 
  -15772   -16020   -16291   -16330   -16208   -16139   -16179   -16216 
  -16210   -16189   -16073   -15842   -15677   -15735   -15907   -16019 
  -16136   -16343   -16425   -16218   -15970   -15948   -16036   -16040 
  -15971   -15870   -15820   -15959   -16200   -16303   -16274   -16244 
  -16208   -16070   -15842   -15696   -15761   -15978   -16212   -16333 
  -16336   -16314   -16239   -16073   -15862   -15707   -15761   -15936 
  -16011   -16086   -16225   -16216   -16100   -16058   -16020   -15911 
  -15863   -15994   -16193   -16268   -16218   -16178   -16141   -16063 
  -16021   -15986   -15892   -15854   -15957   -16140   -16312   -16340 
  -16197   -16001   -15842   -15758   -15745   -15724   -15761   -16071 
  -16560   -16821   -16680   -16293   -15880   -15655   -15639   -15662 
  -15742   -15965   -16222   -16441   -16563   -16455   -16158   -15861 
  -15692   -15735   -15920   -16016   -15971   -15967   -16093   -16276 
  -16363   -16254   -16032   -15796   -15661   -15858   -16240   -16398 
  -16360   -16252   -15986   -15715   -15696   -15884   -16093   -16255 
  -16341   -16254   -16073   -16025   -16092   -16029   -15817   -15782 
  -16019   -16201   -16224   -16174   -16025   -15920   -15930   -15892 
  -15876   -15970   -16065   -16197   -16407   -16553   -16499   -16187 
  -15795   -15618   -15658   -15817   -16063   -16221   -16248   -16283 
  -16290   -16179   -16040   -15955   -15900   -15867   -15886   -15932 
  -15970   -16025   -16158   -16326   -16370   -16245   -16035   -15828 
  -15746   -15807   -15912   -16029   -16191   -16366   -16382   -16141 
  -15844   -15766   -15913   -16114   -16306   -16382   -16181   -15944 
  -16016   -16179   -16117   -15944   -15846   -15822   -15822   -15913 
  -16121   -16193   -16067   -16071   -16278   -16420   -16312   -16023 
  -15835   -15898   -16001   -15940   -15800   -15813   -16016   -16155 
  -16173   -16283   -16424   -16386   -16224   -16000   -15746   -15633 
  -15745   -16015   -16303   -16409   -16302   -16163   -16077   -15970 
  -15797   -15731   -15878   -15993   -15993   -16071   -16135   -16085 
  -16166   -16366   -16333   -16100   -15971   -15901   -15769   -15759 
  -15934   -16105   -16206   -16297   -16399   -16344   -16066   -15889 
  -15947   -15988   -15919   -15839   -15880   -16032   -16081   -16036 
  -16079   -16198   -16384   -16532   -16359   -15889   -15516   -15529 
  -15842   -16218   -16437   -16343   -16094   -16025   -16171   -16293 
  -16175   -15890   -15709   -15704   -15859   -16150   -16279   -16143 
  -16074   -16158   -16181   -16113   -15975   -15762   -15677   -15857 
  -16105   -16183   -16094   -16062   -16225   -16387   -16335   -16100 
  -15888   -15898   -15998   -15952   -15886   -15959   -16100   -16214 
  -16243   -16189   -16096   -16001   -16006   -16151   -16197   -15950 
  -15716   -15797   -15952   -16024   -16151   -16240   -16217   -16216 
  -16222   -16143   -16000   -15919   -15985   -16096   -16140   -16077 
  -15892   -15792   -15881   -15970   -16077   -16252   -16330   -16332 
  -16301   -16170   -16040   -15969   -15925   -15986   -16070   -16029 
  -15947   -15920   -15936   -15984   -16035   -16162   -16351   -16335 
  -16104   -15888   -15731   -15750   -15998   -16166   -16096   -16025 
  -16208   -16528   -16470   -15938   -15580   -15709   -15959   -16086 
  -16114   -16058   -16025   -16135   -16291   -16322   -16154   -15901 
  -15747   -15792   -16044   -16289   -16218   -15939   -15817   -15921 
  -16044   -16090   -16104   -16056   -16008   -16152   -16352   -16289 
  -16087   -16105   -16320   -16352   -16043   -15757   -15782   -15936 
  -16016   -16020   -15954   -15913   -16035   -16206   -16231   -16117 
  -16020   -16097   -16247   -16171   -15961   -15847   -15751   -15762 
  -15979   -16158   -16244   -16335   -16312   -16177   -16075   -16011 
  -15921   -15888   -15977   -16075   -16104   -16121   -16090   -15970 
  -15950   -16101   -16162   -16043   -15963   -16005   -16054   -16040 
  -16038   -16102   -16182   -16212   -16146   -15975   -15870   -15962 
  -16094   -16104   -16019   -15940   -15924   -15988   -16160   -16312 
  -16221   -16015   -15938   -15930   -15971   -16175   -16426   -16517 
  -16401   -16166   -15932   -15751   -15645   -15637   -15735   -15955 
  -16212   -16306   -16248   -16213   -16185   -16077   -15925   -15827 
  -15908   -16119   -16209   -16189   -16174   -16073   -15930   -15901 
  -15970   -16046   -16065   -16077   -16129   -16102   -16013   -16028 
  -16096   -16094   -16086   -16147   -16171   -16028   -15828   -15773 
  -15866   -15985   -16029   -16044   -16109   -16224   -16417   -16582 
  -16461   -16079   -15777   -15759   -15826   -15755   -15757   -16011 
  -16291   -16455   -16451   -16170   -15816   -15731   -15907   -16054 
  -16000   -15924   -16000   -16116   -16197   -16240   -16159   -16060 
  -16151   -16275   -16195   -15969   -15734   -15638   -15765   -16009 
  -16201   -16181   -16020   -16046   -16255   -16336   -16224   -16100 
  -16119   -16193   -16127   -15965   -15869   -15913   -16085   -16227 
  -16174   -15990   -15903   -15981   -16009   -15935   -15897   -15861 
  -15889   -16082   -16249   -16308   -16348   -16314   -16185   -16038 
  -15920   -15839   -15809   -15904   -16097   -16181   -16092   -16048 
  -16163   -16279   -16303   -16197   -15869   -15506   -15450   -15784 
  -16326   -16713   -16721   -16488   -16131   -15753   -15539   -15468 
  -15508   -15777   -16167   -16418   -16472   -16433   -16340   -16182 
  -16027   -15880   -15673   -15587   -15849   -16254   -16438   -16362 
  -16245   -16221   -16158   -15970   -15861   -15908   -15981   -16109 
  -16210   -16029   -15766   -15826   -16073   -16163   -16116   -16117 
  -16187   -16209   -16135   -16031   -15928   -15904   -16001   -16031 
  -15950   -15965   -16056   -16082   -16065   -16060   -16078   -16119 
  -16177   -16155   -15993   -15936   -16170   -16343   -16162   -15975 
  -16062   -16102   -15961   -15903   -15930   -15913   -16013   -16308 
  -16471   -16248   -15935   -15897   -16002   -16001   -15911   -15822 
  -15778   -15822   -15962   -16183   -16394   -16460   -16410   -16357 
  -16237   -15966   -15696   -15587   -15627   -15823   -16131   -16347 
  -16363   -16258   -16159   -16150   -16065   -15778   -15585   -15658 
  -15886   -16235   -16528   -16563   -16440   -16275   -16096   -15927 
  -15770   -15670   -15687   -15805   -15965   -16063   -16110   -16243 
  -16428   -16486   -16397   -16198   -15908   -15728   -15789   -15948 
  -16112   -16171   -16063   -15998   -16042   -16063   -16109   -16178 
  -16151   -16001   -15749   -15601   -15808   -16202   -16470   -16549 
  -16430   -16098   -15755   -15650   -15730   -15813   -15898   -16074 
  -16322   -16506   -16529   -16389   -16039   -15576   -15333   -15499 
  -15940   -16343   -16460   -16407   -16440   -16533   -16456   -16087 
  -15633   -15415   -15508   -15788   -16081   -16239   -16340   -16465 
  -16471   -16351   -16212   -15982   -15753   -15746   -15799   -15712 
  -15680   -15846   -16147   -16463   -16548   -16297   -15986   -15880 
  -15923   -15904   -15835   -15988   -16310   -16479   -16448   -16241 
  -15897   -15691   -15738   -15894   -16025   -16004   -15920   -16040 
  -16274   -16352   -16224   -15984   -15857   -15981   -16143   -16098 
  -15974   -16058   -16333   -16452   -16225   -15869   -15622   -15588 
  -15819   -16116   -16204   -16206   -16336   -16483   -16425   -16125 
  -15778   -15603   -15606   -15699   -15873   -16100   -16268   -16356 
  -16387   -16285   -16092   -15977   -15931   -15882   -15862   -15939 
  -16135   -16316   -16340   -16229   -16029   -15894   -15948   -15974 
  -15877   -15894   -16096   -16290   -16222   -15944   -15890   -16102 
  -16201   -16141   -16042   -15981   -16083   -16178   -16035   -15834 
  -15830   -16036   -16251   -16229   -16083   -16136   -16325   -16310 
  -16054   -15855   -15859   -15871   -15843   -15904   -15934   -15911 
  -16065   -16322   -16425   -16384   -16297   -16155   -15938   -15730 
  -15669   -15762   -15977   -16248   -16344   -16194   -16058   -16020 
  -15965   -15984   -16166   -16266   -16119   -15905   -15820   -15886 
  -16038   -16227   -16376   -16290   -16017   -15889   -15919   -15893 
  -15834   -15888   -16102   -16356   -16459   -16344   -16063   -15803 
  -15739   -15878   -16109   -16213   -16098   -16012   -16093   -16175 
  -16152   -16079   -16015   -15944   -15882   -15886   -15942   -16058 
  -16278   -16416   -16276   -16032   -15946   -15993   -16005   -15963 
  -15978   -16081   -16168   -16159   -16082   -16035   -16087   -16160 
  -16083   -15917   -15881   -15920   -15865   -15851   -16060   -16302 
  -16330   -16209   -16073   -15975   -15981   -16028   -15994   -15971 
  -16028   -16048   -16029   -16056   -16113   -16146   -16173   -16252 
  -16303   -16158   -15925   -15842   -15903   -15954   -15901   -15846 
  -15981   -16240   -16364   -16256   -16015   -15878   -15977   -16056 
  -15947   -15907   -16119   -16407   -16486   -16290   -16081   -15965 
  -15780   -15654   -15774   -15909   -15959   -16146   -16399   -16441 
  -16316   -16243   -16195   -15970   -15673   -15664   -15866   -15971 
  -16011   -16036   -16100   -16274   -16351   -16233   -16079   -15943 
  -15920   -16009   -16017   -15985   -16001   -15950   -15943   -16148 
  -16310   -16237   -16147   -16135   -16033   -15835   -15773   -15916 
  -16047   -16121   -16287   -16394   -16270   -16116   -16071   -16047 
  -15997   -15892   -15792   -15877   -16089   -16183   -16129   -16047 
  -15967   -15982   -16160   -16281   -16168   -15952   -15800   -15834 
  -16029   -16144   -16059   -15973   -16104   -16351   -16402   -16163 
  -15843   -15757   -16019   -16318   -16322   -16082   -15831   -15751 
  -15876   -16086   -16258   -16274   -16114   -15955   -15935   -15967 
  -15965   -16040   -16259   -16418   -16340   -16079   -15807   -15704 
  -15813   -15959   -16001   -15979   -15997   -16089   -16189   -16254 
  -16275   -16213   -16137   -16123   -16059   -15900   -15785   -15834 
  -16021   -16168   -16182   -16166   -16155   -16102   -16039   -15974 
  -15942   -16000   -16062   -16060   -16060   -16101   -16193   -16220 
  -16051   -15911   -15970   -16000   -15936   -15936   -16000   -16063 
  -16085   -16109   -16150   -16102   -16083   -16166   -16123   -16042 
  -16131   -16195   -16113   -16047   -16047   -16015   -15917   -15858 
  -15908   -16020   -16063   -15969   -15938   -16150   -16372   -16340 
  -16164   -16051   -16051   -16147   -16179   -15959   -15693   -15757 
  -16062   -16227   -16156   -16019   -15901   -15865   -16011   -16225 
  -16256   -16148   -16150   -16254   -16251   -16096   -15934   -15934 
  -16120   -16268   -16235   -16090   -15936   -15877   -15921   -15944 
  -15921   -15855   -15769   -15840   -16069   -16239   -16252   -16121 
  -16013   -16083   -16187   -16159   -16058   -16033   -16132   -16191 
  -16098   -15977   -15919   -15908   -15928   -15961   -15997   -16047 
  -16133   -16218   -16168   -16035   -16050   -16164   -16140   -16005 
  -15943   -15979   -16008   -15950   -15835   -15742   -15747   -15934 
  -16152   -16164   -16110   -16186   -16229   -16137   -16043   -16028 
  -16060   -16070   -16071   -16089   -16066   -16078   -16200   -16236 
  -16113   -15998   -15958   -15958   -15961   -15962   -16046   -16214 
  -16359   -16448   -16497   -16447   -16287   -16135   -16021   -15826 
  -15568   -15429   -15491   -15697   -15931   -16139   -16286   -16213 
  -16012   -16046   -16281   -16472   -16602   -16580   -16360   -16137 
  -15966   -15700   -15342   -15137   -15303   -15676   -15936   -16055 
  -16148   -16244   -16363   -16490   -16536   -16536   -16630   -16779 
  -16849   -16795   -16499   -15916   -15329   -15047   -15111   -15360 
  -15603   -15782   -15982   -16255   -16484   -16544   -16548   -16605 
  -16599   -16426   -16039   -15491   -15090   -15083   -15369   -15637 
  -15819   -16177   -16645   -16803   -16609   -16320   -16109   -16070 
  -16139   -16227   -16359   -16518   -16642   -16595   -16222   -15669 
  -15184   -14821   -14625   -14773   -15353   -16179   -16924   -17329 
  -17263   -16908   -16573   -16251   -15931   -15827   -15925   -15986 
  -15990   -16082   -16276   -16363   -16158   -15809   -15531   -15358 
  -15387   -15649   -15948   -16225   -16448   -16356   -15916   -15593 
  -15808   -16403   -16814   -16772   -16447   -15954   -15452   -15323 
  -15616   -15974   -16309   -16744   -17054   -16827   -16105   -15402 
  -15048   -15041   -15277   -15460   -15302   -15075   -15265   -15844 
  -16437   -16912   -17377   -17734   -17690   -17251   -16711   -16160 
  -15711   -15685   -15881   -15758   -15407   -15253   -15336   -15435 
  -15488   -15695   -16081   -16394   -16671   -16976   -17054   -16903 
  -16667   -16173   -15353   -14580   -14276   -14519   -15049   -15581 
  -15897   -15917   -15905   -16185   -16781   -17541   -18233   -18469 
  -17941   -16711   -15228   -14104   -13797   -14374   -15618   -17097 
  -18177   -18411   -17813   -16704   -15604   -14910   -14619   -14654 
  -15041   -15620   -15982   -15866   -15442   -15078   -15028   -15472 
  -16380   -17278   -17671   -17566   -17253   -16930   -16649   -16344 
  -15979   -15620   -15275   -14983   -14862   -14882   -14983   -15252 
  -15691   -16140   -16551   -16969   -17385   -17736   -17887   -17666 
  -16941   -15772   -14584   -13923   -14015   -14809   -15975   -16848 
  -16903   -16278   -15606   -15341   -15314   -15279   -15445   -15969 
  -16621   -17123   -17338   -17296   -17143   -17035   -16941   -16545 
  -15772   -14994   -14490   -14366   -14589   -14885   -15167   -15614 
  -16181   -16640   -16919   -17127   -17269   -17223   -17122   -17151 
  -17010   -16353   -15357   -14368   -13702   -13767   -14702   -16141 
  -17481   -18161   -17983   -17142   -15955   -14906   -14493   -14821 
  -15697   -16672   -17217   -17235   -16923   -16491   -16197   -16051 
  -15691   -15017   -14524   -14667   -15309   -16063   -16781   -17506 
  -18148   -18297   -17601   -16293   -14967   -14083   -13879   -14265 
  -14835   -15344   -15807   -16159   -16344   -16526   -16877   -17294 
  -17493   -17355   -16999   -16517   -15948   -15365   -14966   -14994 
  -15369   -15742   -15967   -16089   -16129   -16093   -15977   -15803 
  -15630   -15549   -15731   -16328   -17228   -17936   -17919   -17197 
  -16252   -15573   -15375   -15437   -15340   -15043   -14848   -14871 
  -14933   -15016   -15367   -16112   -17119   -18026   -18316   -17767 
  -16661   -15573   -15029   -15064   -15354   -15723   -16051   -16119 
  -15753   -15118   -14832   -15322   -16297   -17119   -17379   -17211 
  -17003   -16831   -16592   -16337   -16120   -16019   -16116   -16204 
  -15915   -15255   -14652   -14538   -14975   -15626   -16059   -16150 
  -16117   -16328   -16941   -17572   -17632   -17091   -16360   -15626 
  -14872   -14264   -14126   -14609   -15477   -16390   -17145   -17579 
  -17566   -17112   -16470   -16070   -16063   -16170   -16114   -15838 
  -15446   -15202   -15361   -15847   -16272   -16328   -15942   -15395 
  -15151   -15271   -15607   -16218   -17023   -17555   -17342   -16343 
  -15133   -14512   -14836   -15784   -16811   -17633   -18065   -17798 
  -16856   -15846   -15317   -15178   -15025   -14801   -14847   -15377 
  -16194   -16914   -17240   -17077   -16613   -16155   -15912   -15886 
  -15890   -15712   -15238   -14690   -14638   -15284   -16275   -17194 
  -17570   -17167   -16421   -15785   -15403   -15426   -15804   -16205 
  -16394   -16326   -16075   -15827   -15862   -16309   -16842   -16997 
  -16717   -16202   -15600   -15164   -15226   -15711   -16174   -16440 
  -16540   -16347   -15955   -15716   -15672   -15638   -15634   -15871 
  -16308   -16461   -16163   -15877   -15880   -16109   -16522   -16768 
  -16444   -15828   -15491   -15518   -15630   -15815   -16283   -16758 
  -16681   -16221   -15940   -15846   -15758   -15816   -16028   -16123 
  -15963   -15670   -15530   -15724   -16162   -16645   -16911   -16761 
  -16367   -15988   -15654   -15444   -15464   -15635   -15884   -16177 
  -16401   -16451   -16259   -15908   -15638   -15502   -15499   -15773 
  -16263   -16731   -17066   -17140   -16802   -16155   -15557   -15260 
  -15261   -15439   -15684   -15958   -16227   -16403   -16430   -16221 
  -15898   -15878   -16141   -16183   -15965   -15888   -16046   -16227 
  -16274   -16119   -15862   -15815   -16125   -16596   -16929   -16810 
  -16154   -15457   -15372   -15908   -16437   -16438   -16044   -15780 
  -15800   -15769   -15483   -15152   -15211   -15927   -16920   -17425 
  -17122   -16344   -15673   -15422   -15469   -15626   -15850   -16227 
  -16858   -17377   -17163   -16345   -15600   -15244   -15165   -15288 
  -15626   -15943   -15961   -15857   -15894   -16105   -16460   -16772 
  -16756   -16410   -16021   -15803   -15705   -15651   -15735   -15994 
  -16259   -16374   -16316   -16123   -15888   -15780   -15965   -16370 
  -16657   -16645   -16429   -15997   -15363   -14935   -15141   -15839 
  -16444   -16565   -16364   -16213   -16179   -16093   -15897   -15707 
  -15712   -16006   -16430   -16671   -16490   -15993   -15685   -15796 
  -15930   -15812   -15655   -15700   -15974   -16290   -16440   -16380 
  -16125   -15834   -15790   -15979   -16198   -16353   -16390   -16353 
  -16340   -16281   -16058   -15672   -15367   -15529   -16163   -16711 
  -16683   -16241   -15917   -15909   -15943   -15790   -15558   -15496 
  -15801   -16343   -16663   -16537   -16150   -15762   -15615   -15766 
  -16036   -16343   -16698   -16947   -16927   -16573   -15846   -14962 
  -14445   -14669   -15522   -16482   -17077   -17149   -16717   -16109 
  -15885   -16167   -16484   -16344   -15822   -15448   -15503   -15795 
  -16040   -16109   -16117   -16195   -16191   -15935   -15566   -15445 
  -15830   -16513   -16989   -16972   -16444   -15666   -15172   -15280 
  -15850   -16517   -16849   -16661   -16208   -15769   -15460   -15341 
  -15368   -15599   -16150   -16708   -16837   -16559   -16174   -16013 
  -16120   -16141   -15908   -15628   -15553   -15836   -16394   -16823 
  -16734   -16167   -15587   -15338   -15340   -15519   -15909   -16271 
  -16359   -16367   -16461   -16418   -16193   -16101   -16220   -16289 
  -16159   -15966   -15840   -15765   -15763   -15842   -15865   -15923 
  -16202   -16476   -16479   -16364   -16295   -16164   -15870   -15527 
  -15353   -15425   -15755   -16360   -16922   -16966   -16534   -16036 
  -15662   -15454   -15481   -15661   -15861   -16105   -16371   -16461 
  -16355   -16286   -16337   -16302   -16077   -15882   -15970   -16213 
  -16222   -15907   -15618   -15608   -15746   -15862   -15898   -15886 
