Origin Time       2025/03/30 10:18:00
Lat.              34.667
Long.             140.825
Depth. (km)       69
Mag.              4.9
Station Code      YMNH12
Station Lat.      35.5623
Station Long.     138.4490
Station Height(m) 295
Record Time       2025/03/30 10:19:34
Sampling Freq(Hz) 100Hz
Duration Time(s)  120
Dir.              6
Scale Factor      3920(gal)/6170801
Max. Acc. (gal)   0.180
Last Correction   2025/03/30 10:19:19
Memo.             
[...]
    3953     3944     3956     4001     4027     4011     3978     3940 
    3905     3879     3855     3842     3860     3891     3910     3908 
    3896     3898     3930     3962     3972     3971     3967     3961 
    3961     3965     3967     3966     3955     3938     3934     3935 
    3930     3929     3936     3945     3959     3970     3966     3958 
    3946     3931     3926     3921     3911     3915     3924     3937 
    3962     3984     3991     3989     3979     3959     3936     3914 
    3901     3904     3915     3920     3932     3953     3969     3979 
    3981     3964     3942     3917     3890     3879     3876     3871 
    3878     3876     3850     3851     3904     3958     3983     3998 
    4000     3987     3976     3965     3944     3918     3898     3901 
    3930     3957     3973     3989     3997     3998     3999     3996 
    3978     3952     3935     3925     3918     3924     3942     3950 
    3927     3894     3891     3907     3923     3937     3928     3894 
    3872     3877     3891     3910     3930     3942     3960     3978 
    3982     3977     3971     3965     3960     3948     3926     3909 
    3906     3909     3919     3944     3971     3980     3972     3963 
    3966     3971     3961     3936     3905     3893     3913     3935 
    3923     3904     3909     3926     3932     3920     3905     3907 
    3925     3943     3953     3962     3970     3972     3969     3958 
    3944     3945     3956     3965     3965     3951     3937     3938 
    3941     3946     3951     3940     3927     3932     3946     3959 
    3973     3969     3951     3963     3995     4014     4015     3993 
    3959     3934     3908     3883     3878     3889     3906     3920 
    3914     3894     3885     3895     3917     3945     3955     3930 
    3902     3910     3938     3955     3932     3882     3860     3887 
    3936     3979     3992     3972     3964     3990     4012     4005 
    3979     3952     3936     3934     3932     3923     3906     3889 
    3880     3897     3935     3958     3962     3962     3961     3963 
    3960     3937     3911     3905     3910     3920     3935     3938 
    3924     3919     3935     3945     3946     3955     3974     4005 
    4025     4010     3984     3962     3944     3944     3959     3958 
    3942     3944     3969     3996     3994     3956     3910     3887 
    3878     3871     3877     3891     3905     3919     3934     3944 
    3952     3964     3976     3984     3984     3974     3954     3935 
    3929     3927     3918     3898     3875     3869     3867     3859 
    3859     3866     3878     3904     3936     3960     3977     3995 
    4017     4026     4008     3970     3933     3913     3910     3910 
    3909     3909     3918     3934     3940     3936     3930     3930 
    3939     3946     3958     3975     3976     3962     3948     3940 
    3939     3944     3950     3942     3923     3917     3927     3949 
    3978     3996     3987     3966     3958     3955     3947     3941 
    3929     3912     3905     3913     3933     3964     3991     4000 
    3999     3992     3981     3949     3898     3859     3851     3860 
    3881     3907     3931     3950     3954     3939     3923     3916 
    3919     3936     3964     3977     3962     3940     3922     3918 
    3928     3930     3917     3899     3891     3905     3923     3929 
    3935     3951     3977     3984     3959     3939     3943     3949 
    3943     3928     3930     3948     3953     3954     3966     3980 
    3988     3981     3957     3942     3945     3953     3967     3991 
    4011     4012     3992     3961     3935     3916     3904     3884 
    3855     3849     3866     3877     3877     3877     3890     3923 
    3962     3985     3993     3999     4002     3986     3949     3915 
    3901     3900     3901     3906     3911     3917     3925     3937 
    3971     4011     4021     3999     3967     3943     3934     3936 
    3937     3922     3898     3892     3903     3909     3895     3868 
    3865     3902     3947     3961     3946     3913     3889     3897 
    3929     3974     4009     4002     3968     3942     3935     3938 
    3937     3921     3904     3902     3905     3910     3928     3949 
    3960     3975     3989     3991     3991     3994     3981     3957 
    3937     3928     3934     3955     3966     3951     3926     3911 
    3918     3944     3963     3961     3956     3965     3970     3957 
    3932     3904     3886     3884     3886     3871     3850     3859 
    3910     3973     4004     3988     3959     3954     3963     3961 
    3956     3959     3964     3974     3981     3967     3943     3929 
    3928     3933     3926     3906     3889     3880     3891     3928 
    3957     3948     3922     3905     3905     3927     3966     4000 
    4014     4002     3971     3939     3918     3906     3905     3916 
    3922     3931     3952     3963     3971     3987     3980     3952 
    3932     3911     3886     3874     3883     3905     3922     3928 
    3920     3911     3924     3943     3956     3967     3974     3981 
    3987     3978     3957     3937     3914     3897     3899     3898 
    3876     3852     3839     3858     3900     3918     3914     3931 
    3960     3989     4024     4036     4020     4014     4013     3995 
    3973     3958     3942     3927     3907     3882     3871     3882 
    3898     3912     3934     3968     3996     4000     3989     3979 
    3973     3969     3962     3949     3932     3920     3922     3936 
    3948     3952     3957     3967     3962     3948     3943     3946 
    3951     3943     3918     3907     3913     3910     3903     3903 
    3904     3898     3886     3876     3868     3859     3859     3875 
    3903     3923     3918     3908     3922     3951     3987     4018 
    4024     4019     4017     4009     3992     3971     3953     3959 
    3989     4007     3996     3970     3954     3958     3972     3980 
    3963     3916     3866     3830     3813     3826     3867     3907 
    3936     3955     3970     3992     4025     4045     4038     4020 
    3993     3957     3928     3894     3852     3833     3844     3866 
    3891     3906     3913     3926     3944     3957     3978     4006 
    4024     4028     4023     4014     4005     4002     4006     3998 
    3965     3922     3884     3865     3869     3882     3884     3874 
    3877     3897     3909     3914     3921     3926     3934     3942 
    3932     3921     3929     3949     3980     4000     3985     3967 
    3960     3942     3916     3900     3905     3919     3920     3913 
    3916     3929     3938     3934     3930     3932     3930     3925 
    3919     3906     3895     3900     3929     3967     3983     3967 
    3942     3940     3961     3971     3964     3952     3938     3925 
    3921     3923     3924     3924     3926     3933     3945     3947 
    3936     3933     3937     3927     3904     3882     3868     3875 
    3893     3907     3925     3956     3993     4013     4001     3977 
    3962     3950     3944     3955     3985     4032     4067     4054 
    4014     3979     3951     3945     3958     3957     3945     3935 
    3914     3895     3881     3858     3852     3879     3902     3899 
    3884     3863     3862     3890     3915     3924     3941     3973 
    4003     4004     3977     3962     3980     4003     3996     3957 
    3902     3852     3836     3863     3906     3927     3931     3936 
    3946     3957     3965     3959     3941     3933     3936     3931 
    3926     3942     3974     4010     4022     3998     3969     3951 
    3943     3942     3937     3923     3920     3939     3957     3955 
    3949     3947     3937     3921     3902     3881     3873     3876 
    3879     3878     3873     3877     3912     3969     4017     4027 
    4011     4001     4006     4006     3994     3984     3977     3963 
    3941     3917     3902     3896     3897     3920     3958     3969 
    3943     3910     3888     3874     3875     3883     3887     3891 
    3905     3930     3965     4002     4027     4033     4021     3994 
    3963     3940     3937     3952     3962     3958     3944     3918 
    3884     3869     3890     3927     3964     3983     3972     3959 
    3968     3977     3974     3956     3917     3880     3875     3898 
    3927     3942     3938     3925     3924     3933     3937     3939 
    3942     3944     3950     3954     3946     3930     3916     3908 
    3902     3904     3925     3956     3967     3951     3924     3899 
    3890     3887     3879     3883     3909     3938     3963     3986 
    3990     3976     3951     3930     3942     3978     3998     3985 
    3953     3921     3907     3902     3890     3879     3890     3923 
    3959     3976     3980     3982     3985     3998     4024     4049 
    4051     4025     3991     3966     3935     3893     3856     3825 
    3804     3810     3835     3857     3868     3869     3879     3913 
    3945     3954     3964     3986     4004     4014     4009     3997 
    3993     3988     3970     3952     3943     3932     3909     3886 
    3868     3858     3864     3876     3891     3909     3921     3927 
    3936     3947     3955     3964     3984     4006     4004     3982 
    3969     3971     3966     3940     3918     3922     3935     3934 
    3922     3908     3905     3926     3943     3935     3926     3925 
    3933     3958     3974     3957     3929     3904     3884     3881 
    3881     3868     3855     3847     3844     3860     3899     3942 
    3990     4046     4084     4086     4064     4019     3970     3948 
    3947     3956     3973     3987     3992     3989     3967     3931 
    3895     3868     3860     3875     3900     3914     3909     3902 
    3909     3932     3960     3981     4006     4030     4029     4002 
    3969     3926     3883     3871     3877     3875     3869     3880 
    3924     3977     3993     3981     3969     3963     3962     3961 
    3965     3977     3970     3936     3908     3902     3920     3965 
    4014     4048     4074     4088     4097     4117     4127     4109 
    4066     4022     4002     4002     3990     3960     3910     3843 
    3778     3739     3738     3768     3797     3807     3814     3826 
    3837     3860     3881     3885     3903     3932     3939     3933 
    3933     3934     3946     3975     4003     4013     4011     3999 
    3977     3952     3932     3922     3923     3928     3922     3897 
    3876     3878     3877     3873     3889     3913     3927     3941 
    3950     3954     3958     3952     3947     3957     3964     3963 
    3970     3996     4027     4039     4027     3998     3969     3959 
    3966     3971     3960     3943     3944     3953     3945     3919 
    3887     3863     3859     3868     3879     3886     3880     3863 
    3854     3852     3842     3820     3797     3794     3820     3860 
    3890     3904     3915     3927     3934     3943     3967     3978 
    3980     4006     4049     4088     4108     4098     4064     4014 
    3959     3926     3915     3916     3928     3928     3894     3858 
    3864     3906     3952     3982     3991     4004     4039     4075 
    4090     4076     4048     4040     4053     4069     4087     4094 
    4083     4069     4045     3993     3931     3875     3825     3801 
    3822     3871     3895     3875     3853     3864     3896     3920 
    3926     3919     3909     3904     3907     3921     3940     3960 
    3980     3988     3991     3996     3986     3969     3960     3956 
    3948     3938     3933     3925     3916     3924     3950     3973 
    3974     3950     3910     3878     3865     3854     3836     3825 
    3834     3854     3874     3908     3954     3992     4010     4001 
    3975     3972     3984     3971     3925     3852     3783     3759 
    3764     3764     3759     3747     3727     3727     3763     3823 
    3893     3960     4016     4060     4087     4100     4105     4101 
    4099     4108     4125     4145     4169     4173     4149     4122 
    4105     4087     4060     4013     3946     3883     3843     3808 
    3780     3779     3791     3799     3809     3815     3817     3825 
    3831     3835     3854     3883     3903     3920     3935     3922 
    3883     3852     3841     3849     3871     3895     3922     3963 
    4009     4041     4060     4072     4073     4066     4064     4063 
    4056     4047     4039     4040     4038     4018     3996     3985 
    3953     3893     3839     3800     3780     3777     3762     3740 
    3744     3758     3773     3795     3818     3854     3910     3964 
    4012     4057     4094     4130     4165     4177     4152     4113 
    4083     4056     4033     4029     4043     4056     4048     4029 
    4005     3945     3840     3743     3687     3665     3669     3691 
    3742     3832     3925     3972     3966     3951     3967     3993 
    3989     3963     3942     3943     3964     3996     4025     4034 
    4021     4008     4003     3999     3989     3971     3954     3940 
    3919     3900     3889     3878     3870     3868     3870     3869 
    3871     3886     3915     3951     3997     4046     4080     4095 
    4101     4098     4096     4093     4087     4093     4096     4074 
    4039     3978     3887     3806     3757     3732     3726     3721 
    3713     3704     3686     3661     3654     3682     3730     3787 
    3864     3944     3991     4007     4018     4036     4055     4056 
    4044     4026     3998     3974     3950     3907     3862     3851 
    3880     3928     3982     4043     4100     4130     4133     4129 
    4131     4133     4124     4106     4083     4053     4013     3959 
    3906     3871     3852     3832     3814     3811     3823     3839 
    3851     3853     3839     3820     3813     3818     3821     3821 
    3835     3867     3906     3933     3937     3922     3908     3920 
    3959     3994     3993     3962     3932     3907     3882     3866 
    3870     3912     3980     4025     4038     4049     4064     4071 
    4074     4076     4070     4048     4015     3982     3951     3930 
    3928     3927     3922     3919     3915     3914     3917     3912 
    3900     3898     3922     3961     3971     3955     3959     3970 
    3965     3951     3921     3889     3885     3895     3902     3897 
    3875     3856     3851     3853     3872     3902     3937     3973 
    3998     4010     4018     4032     4060     4082     4088     4092 
    4095     4094     4089     4070     4033     3979     3912     3856 
    3823     3812     3818     3818     3801     3779     3758     3742 
    3747     3791     3867     3935     3977     3999     4005     4001 
    3988     3955     3928     3925     3915     3900     3895     3890 
    3888     3895     3900     3908     3917     3912     3902     3902 
    3918     3947     3969     3966     3959     3977     4011     4047 
    4075     4083     4078     4082     4091     4075     4030     3985 
    3948     3912     3881     3860     3844     3829     3817     3825 
    3856     3891     3915     3935     3947     3950     3946     3930 
    3900     3866     3852     3874     3913     3930     3917     3905 
    3909     3917     3930     3963     3994     3991     3979     3997 
    4020     4021     4012     3995     3984     4005     4051     4086 
    4088     4058     4025     4004     3989     3972     3959     3959 
    3968     3965     3943     3922     3907     3894     3883     3865 
    3841     3810     3776     3742     3715     3707     3722     3753 
    3799     3851     3895     3925     3940     3945     3939     3927 
    3923     3922     3922     3942     3973     3993     4010     4027 
    4026     4012     3995     3983     3989     4005     4000     3981 
    3973     3974     3978     3989     4002     4004     3996     3990 
    3992     3999     4004     3999     3995     3993     3978     3952 
    3929     3914     3914     3933     3950     3951     3935     3914 
    3904     3905     3911     3922     3931     3932     3929     3914 
    3880     3849     3839     3854     3890     3922     3927     3919 
    3911     3913     3931     3943     3947     3955     3957     3961 
    3978     3981     3970     3952     3918     3898     3899     3900 
    3900     3895     3883     3877     3878     3895     3920     3925 
    3926     3946     3976     3995     3991     3977     3958     3938 
    3928     3916     3899     3899     3915     3937     3949     3947 
    3955     3970     3969     3967     3969     3971     3985     4004 
    4019     4031     4035     4027     4015     4012     4021     4033 
    4031     4013     3992     3969     3946     3931     3924     3922 
    3912     3893     3880     3868     3859     3851     3835     3815 
    3802     3804     3826     3852     3865     3857     3843     3858 
    3896     3935     3968     3981     3980     3993     4006     4008 
    4016     4022     4020     4018     4009     3992     3972     3965 
    3976     3972     3943     3915     3892     3875     3878     3907 
    3938     3950     3950     3957     3966     3967     3973     3977 
    3970     3970     3976     3982     3989     3982     3964     3951 
    3940     3934     3932     3911     3888     3889     3894     3893 
    3886     3863     3841     3835     3842     3864     3894     3902 
    3890     3879     3879     3898     3936     3970     3991     4005 
    4004     4005     4019     4025     4016     4001     3981     3968 
    3966     3961     3955     3947     3938     3935     3935     3933 
    3931     3922     3922     3938     3953     3968     3988     3999 
    3995     3982     3958     3919     3880     3855     3853     3878 
    3911     3931     3921     3892     3875     3876     3889     3907 
    3915     3932     3967     3988     3994     4000     3999     3998 
    4017     4037     4032     4004     3960     3920     3904     3894 
    3883     3884     3886     3882     3884     3892     3908     3919 
    3918     3924     3947     3961     3962     3967     3972     3964 
    3957     3960     3965     3967     3954     3932     3928     3939 
    3954     3966     3959     3944     3940     3933     3920     3913 
    3911     3915     3922     3920     3914     3909     3906     3915 
    3929     3928     3923     3930     3942     3963     3984     3988 
    3989     4003     4025     4042     4040     4016     3982     3950 
    3929     3922     3914     3899     3891     3890     3892     3900 
    3907     3909     3917     3933     3949     3947     3935     3936 
    3941     3931     3907     3892     3911     3946     3969     3967 
    3938     3893     3849     3819     3810     3826     3860     3896 
    3920     3930     3936     3956     3985     4004     4018     4026 
    4027     4023     4006     3992     3991     3973     3945     3930 
    3924     3924     3935     3946     3941     3925     3917     3920 
    3928     3939     3939     3933     3933     3930     3929     3938 
    3948     3954     3944     3917     3895     3885     3884     3894 
    3906     3914     3917     3919     3924     3933     3939     3949 
