Origin Time       2025/03/30 10:18:00
Lat.              34.667
Long.             140.825
Depth. (km)       69
Mag.              4.9
Station Code      YMNH11
Station Lat.      35.6247
Station Long.     138.9777
Station Height(m) 465
Record Time       2025/03/30 10:19:23
Sampling Freq(Hz) 100Hz
Duration Time(s)  120
Dir.              6
Scale Factor      3920(gal)/6170801
Max. Acc. (gal)   0.993
Last Correction   2025/03/30 10:19:08
Memo.             
[...]
  -27585   -27807   -27737   -27447   -27190   -27125   -27287   -27591 
  -27853   -27916   -27799   -27644   -27585   -27674   -27817   -27818 
  -27599   -27336   -27252   -27332   -27410   -27427   -27418   -27435 
  -27487   -27511   -27501   -27533   -27614   -27660   -27594   -27457 
  -27426   -27575   -27744   -27753   -27612   -27485   -27501   -27601 
  -27644   -27568   -27448   -27443   -27579   -27701   -27707   -27607 
  -27443   -27339   -27430   -27645   -27737   -27603   -27410   -27371 
  -27505   -27630   -27613   -27508   -27438   -27489   -27646   -27751 
  -27720   -27637   -27556   -27473   -27426   -27451   -27560   -27716 
  -27776   -27652   -27450   -27325   -27328   -27416   -27549   -27731 
  -27884   -27834   -27538   -27195   -27064   -27236   -27544   -27700 
  -27604   -27455   -27451   -27572   -27687   -27707   -27629   -27542 
  -27562   -27667   -27714   -27678   -27644   -27618   -27592   -27562 
  -27462   -27330   -27327   -27478   -27659   -27743   -27658   -27469 
  -27356   -27429   -27579   -27605   -27482   -27387   -27472   -27702 
  -27898   -27871   -27624   -27409   -27405   -27525   -27621   -27590 
  -27417   -27285   -27362   -27555   -27690   -27719   -27664   -27567 
  -27497   -27480   -27462   -27444   -27533   -27716   -27787   -27664 
  -27512   -27492   -27602   -27727   -27711   -27497   -27221   -27098 
  -27230   -27497   -27697   -27754   -27711   -27621   -27531   -27486 
  -27511   -27618   -27779   -27888   -27834   -27628   -27429   -27369 
  -27418   -27458   -27425   -27342   -27289   -27347   -27517   -27730 
  -27879   -27872   -27707   -27476   -27300   -27291   -27467   -27681 
  -27773   -27718   -27579   -27463   -27460   -27527   -27544   -27482 
  -27369   -27291   -27388   -27666   -27904   -27888   -27637   -27395 
  -27377   -27530   -27642   -27616   -27537   -27536   -27600   -27611 
  -27532   -27427   -27358   -27369   -27463   -27556   -27583   -27586 
  -27593   -27600   -27638   -27676   -27623   -27529   -27552   -27708 
  -27837   -27811   -27636   -27428   -27343   -27435   -27557   -27546 
  -27448   -27426   -27511   -27589   -27569   -27461   -27372   -27417 
  -27554   -27658   -27714   -27746   -27735   -27684   -27617   -27567 
  -27578   -27597   -27525   -27430   -27445   -27570   -27712   -27719 
  -27528   -27307   -27230   -27285   -27398   -27506   -27527   -27442 
  -27381   -27510   -27816   -28064   -28022   -27730   -27424   -27259 
  -27235   -27256   -27269   -27376   -27616   -27812   -27841   -27757 
  -27634   -27527   -27458   -27396   -27358   -27408   -27556   -27737 
  -27861   -27874   -27779   -27585   -27329   -27170   -27261   -27522 
  -27697   -27615   -27377   -27279   -27478   -27833   -28059   -27972 
  -27646   -27343   -27266   -27416   -27624   -27714   -27665   -27608 
  -27642   -27692   -27617   -27434   -27274   -27186   -27173   -27234 
  -27358   -27591   -27884   -27981   -27775   -27504   -27419   -27528 
  -27689   -27752   -27668   -27536   -27453   -27418   -27415   -27443 
  -27482   -27517   -27584   -27691   -27758   -27690   -27506   -27324 
  -27267   -27379   -27550   -27646   -27678   -27700   -27714   -27723 
  -27663   -27492   -27322   -27241   -27268   -27427   -27601   -27615 
  -27538   -27543   -27629   -27735   -27869   -27961   -27888   -27695 
  -27581   -27604   -27595   -27434   -27216   -27114   -27180   -27315 
  -27406   -27456   -27500   -27502   -27466   -27462   -27530   -27665 
  -27789   -27794   -27752   -27810   -27872   -27744   -27471   -27239 
  -27185   -27353   -27613   -27719   -27612   -27473   -27437   -27484 
  -27565   -27630   -27645   -27682   -27777   -27792   -27664   -27538 
  -27518   -27555   -27525   -27366   -27211   -27250   -27448   -27606 
  -27623   -27575   -27588   -27669   -27700   -27625   -27545   -27561 
  -27636   -27659   -27588   -27493   -27474   -27522   -27521   -27415 
  -27283   -27256   -27406   -27632   -27728   -27657   -27575   -27603 
  -27711   -27786   -27747   -27593   -27388   -27271   -27385   -27658 
  -27821   -27742   -27535   -27374   -27363   -27452   -27470   -27396 
  -27399   -27558   -27774   -27925   -27943   -27824   -27627   -27432 
  -27289   -27224   -27249   -27334   -27468   -27660   -27824   -27872 
  -27819   -27657   -27419   -27289   -27354   -27475   -27528   -27537 
  -27587   -27715   -27835   -27781   -27532   -27301   -27269   -27409 
  -27594   -27707   -27681   -27608   -27617   -27643   -27529   -27291 
  -27124   -27164   -27339   -27500   -27586   -27621   -27667   -27742 
  -27772   -27704   -27590   -27513   -27500   -27534   -27611   -27720 
  -27790   -27742   -27587   -27439   -27407   -27468   -27541   -27589 
  -27593   -27573   -27584   -27617   -27626   -27573   -27416   -27225 
  -27170   -27304   -27476   -27519   -27462   -27484   -27629   -27761 
  -27778   -27693   -27597   -27587   -27645   -27665   -27610   -27543 
  -27551   -27636   -27729   -27796   -27801   -27683   -27514   -27445 
  -27475   -27471   -27384   -27280   -27243   -27322   -27464   -27532 
  -27479   -27458   -27574   -27692   -27708   -27718   -27794   -27864 
  -27800   -27571   -27334   -27271   -27376   -27488   -27454   -27291 
  -27203   -27335   -27608   -27848   -27943   -27878   -27716   -27558 
  -27462   -27419   -27414   -27460   -27558   -27649   -27634   -27530 
  -27472   -27502   -27550   -27579   -27600   -27662   -27777   -27839 
  -27754   -27574   -27391   -27254   -27221   -27324   -27516   -27659 
  -27621   -27473   -27456   -27631   -27806   -27820   -27660   -27432 
  -27315   -27367   -27444   -27421   -27373   -27420   -27538   -27635 
  -27636   -27509   -27351   -27321   -27459   -27681   -27857   -27885 
  -27816   -27802   -27873   -27875   -27689   -27402   -27235   -27287 
  -27465   -27632   -27700   -27625   -27444   -27295   -27295   -27388 
  -27452   -27474   -27535   -27704   -27905   -27933   -27717   -27453 
  -27334   -27360   -27442   -27501   -27511   -27525   -27568   -27573 
  -27529   -27514   -27584   -27704   -27773   -27746   -27668   -27577 
  -27516   -27512   -27515   -27458   -27344   -27253   -27274   -27383 
  -27484   -27556   -27632   -27695   -27723   -27731   -27734   -27717 
  -27614   -27433   -27334   -27411   -27565   -27667   -27673   -27611 
  -27531   -27488   -27499   -27517   -27515   -27530   -27583   -27642 
  -27680   -27664   -27576   -27471   -27413   -27419   -27457   -27459 
  -27413   -27386   -27440   -27568   -27690   -27724   -27666   -27556 
  -27460   -27495   -27689   -27866   -27853   -27671   -27455   -27346 
  -27383   -27471   -27522   -27515   -27479   -27488   -27525   -27502 
  -27445   -27454   -27538   -27640   -27706   -27723   -27725   -27722 
  -27693   -27620   -27486   -27328   -27283   -27419   -27630   -27764 
  -27738   -27570   -27422   -27461   -27617   -27677   -27588   -27469 
  -27424   -27447   -27501   -27562   -27580   -27527   -27457   -27431 
  -27467   -27569   -27721   -27822   -27731   -27488   -27322   -27366 
  -27568   -27754   -27757   -27586   -27425   -27444   -27569   -27571 
  -27426   -27332   -27402   -27552   -27651   -27667   -27670   -27726 
  -27794   -27771   -27626   -27461   -27396   -27414   -27434   -27446 
  -27476   -27511   -27539   -27566   -27574   -27560   -27577   -27639 
  -27683   -27694   -27701   -27724   -27796   -27851   -27706   -27364 
  -27099   -27114   -27314   -27469   -27487   -27457   -27480   -27526 
  -27503   -27412   -27366   -27450   -27612   -27740   -27775   -27734 
  -27715   -27783   -27839   -27726   -27450   -27171   -27027   -27064 
  -27273   -27539   -27676   -27660   -27649   -27742   -27866   -27908 
  -27814   -27595   -27369   -27308   -27440   -27607   -27688   -27695 
  -27654   -27578   -27499   -27458   -27485   -27527   -27478   -27383 
  -27410   -27612   -27859   -27956   -27818   -27551   -27353   -27361 
  -27536   -27707   -27735   -27618   -27481   -27426   -27413   -27326 
  -27133   -26978   -27067   -27387   -27693   -27794   -27721   -27687 
  -27856   -28091   -28114   -27881   -27556   -27315   -27293   -27467 
  -27642   -27647   -27455   -27201   -27098   -27240   -27499   -27669 
  -27679   -27639   -27641   -27690   -27805   -27918   -27875   -27699 
  -27544   -27442   -27361   -27327   -27337   -27372   -27459   -27545 
  -27508   -27413   -27461   -27656   -27827   -27847   -27653   -27324 
  -27101   -27150   -27430   -27737   -27845   -27686   -27417   -27289 
  -27382   -27549   -27647   -27666   -27654   -27671   -27704   -27667 
  -27591   -27590   -27632   -27612   -27549   -27502   -27488   -27551 
  -27674   -27714   -27607   -27478   -27449   -27539   -27680   -27727 
  -27590   -27340   -27156   -27175   -27363   -27567   -27672   -27615 
  -27467   -27441   -27590   -27737   -27768   -27729   -27704   -27747 
  -27838   -27832   -27631   -27380   -27265   -27288   -27377   -27458 
  -27444   -27340   -27246   -27241   -27328   -27460   -27589   -27674 
  -27735   -27826   -27918   -27939   -27878   -27735   -27557   -27468 
  -27484   -27473   -27358   -27201   -27137   -27233   -27412   -27565 
  -27686   -27812   -27886   -27833   -27701   -27590   -27536   -27492 
  -27394   -27271   -27215   -27268   -27392   -27500   -27554   -27642 
  -27821   -27984   -28009   -27906   -27797   -27804   -27865   -27797 
  -27595   -27410   -27321   -27302   -27310   -27301   -27255   -27213 
  -27252   -27368   -27491   -27617   -27787   -27933   -27940   -27818 
  -27669   -27550   -27490   -27504   -27527   -27492   -27437   -27400 
  -27361   -27358   -27465   -27654   -27832   -27931   -27910   -27790 
  -27704   -27699   -27655   -27494   -27279   -27102   -27024   -27045 
  -27147   -27328   -27537   -27660   -27607   -27430   -27325   -27460 
  -27768   -27935   -27786   -27560   -27547   -27693   -27764   -27655 
  -27452   -27343   -27417   -27541   -27568   -27539   -27565   -27667 
  -27767   -27763   -27620   -27387   -27186   -27123   -27199   -27348 
  -27509   -27629   -27695   -27733   -27760   -27745   -27611   -27397 
  -27340   -27575   -27925   -28125   -28059   -27836   -27710   -27767 
  -27805   -27675   -27465   -27325   -27313   -27339   -27265   -27087 
  -26958   -26998   -27162   -27378   -27652   -27974   -28242   -28326 
  -28167   -27815   -27445   -27259   -27289   -27356   -27294   -27155 
  -27165   -27389   -27600   -27660   -27660   -27674   -27688   -27678 
  -27644   -27666   -27785   -27895   -27844   -27602   -27313   -27157 
  -27125   -27067   -26933   -26845   -26959   -27319   -27780   -28105 
  -28204   -28193   -28141   -28019   -27900   -27897   -27972   -27994 
  -27905   -27773   -27687   -27627   -27497   -27216   -26818   -26477 
  -26380   -26568   -26920   -27284   -27568   -27709   -27676   -27538 
  -27418   -27392   -27516   -27828   -28195   -28391   -28351   -28145 
  -27860   -27572   -27278   -26970   -26782   -26905   -27345   -27870 
  -28209   -28258   -28077   -27793   -27571   -27577   -27836   -28161 
  -28316   -28206   -27880   -27469   -27120   -26891   -26795   -26840 
  -26958   -27055   -27119   -27201   -27305   -27388   -27467   -27573 
  -27748   -28047   -28371   -28504   -28404   -28201   -27948   -27570 
  -27051   -26535   -26241   -26293   -26628   -27027   -27290   -27413 
  -27521   -27706   -27990   -28316   -28514   -28471   -28274   -28061 
  -27865   -27682   -27431   -26983   -26408   -26016   -26020   -26359 
  -26929   -27671   -28408   -28893   -29003   -28764   -28337   -27963 
  -27783   -27711   -27565   -27292   -27005   -26885   -26996   -27183 
  -27245   -27139   -27004   -27033   -27279   -27619   -27920   -28071 
  -28020   -27854   -27694   -27547   -27378   -27220   -27165   -27282 
  -27547   -27838   -27999   -27990   -27942   -27941   -27918   -27818 
  -27711   -27716   -27851   -27961   -27884   -27652   -27401   -27181 
  -27010   -26970   -27083   -27263   -27451   -27658   -27840   -27957 
  -28025   -27953   -27676   -27343   -27105   -26984   -27018   -27191 
  -27381   -27524   -27646   -27742   -27773   -27718   -27576   -27421 
  -27379   -27453   -27515   -27501   -27485   -27584   -27797   -28001 
  -28123   -28142   -27996   -27671   -27286   -27018   -26981   -27087 
  -27142   -27119   -27105   -27144   -27273   -27470   -27645   -27812 
  -28000   -28134   -28175   -28192   -28197   -28101   -27854   -27483 
  -27063   -26741   -26638   -26703   -26822   -26959   -27125   -27334 
  -27622   -28007   -28404   -28693   -28795   -28731   -28616   -28480 
  -28214   -27740   -27116   -26546   -26261   -26321   -26623   -26995 
  -27262   -27372   -27438   -27606   -27903   -28200   -28316   -28219 
  -28033   -27858   -27670   -27422   -27140   -26878   -26657   -26516 
  -26508   -26608   -26717   -26820   -27005   -27313   -27717   -28181 
  -28588   -28786   -28772   -28679   -28627   -28625   -28518   -28106 
  -27436   -26830   -26554   -26597   -26737   -26825   -26954   -27282 
  -27812   -28336   -28539   -28300   -27872   -27627   -27706   -27927 
  -28013   -27867   -27625   -27453   -27339   -27147   -26873   -26721 
  -26773   -26838   -26758   -26621   -26629   -26908   -27372   -27862 
  -28324   -28679   -28785   -28623   -28288   -27886   -27525   -27242 
  -27057   -27065   -27249   -27419   -27484   -27522   -27591   -27656 
  -27669   -27654   -27707   -27852   -27953   -27856   -27581   -27290 
  -27079   -26870   -26566   -26261   -26165   -26405   -26964   -27698 
  -28383   -28818   -28996   -29085   -29114   -28949   -28578   -28137 
  -27740   -27398   -27025   -26608   -26333   -26364   -26654   -27038 
  -27330   -27434   -27440   -27475   -27594   -27822   -28075   -28171 
  -28068   -27921   -27838   -27777   -27663   -27504   -27427   -27575 
  -27876   -28043   -27906   -27610   -27375   -27259   -27219   -27197 
  -27154   -27131   -27208   -27405   -27697   -27982   -28118   -28082 
  -27957   -27779   -27600   -27481   -27375   -27219   -27045   -26912 
  -26903   -27087   -27336   -27437   -27406   -27387   -27405   -27437 
  -27454   -27382   -27277   -27294   -27474   -27739   -27985   -28089 
  -27985   -27754   -27574   -27542   -27584   -27574   -27502   -27444 
  -27475   -27593   -27661   -27582   -27450   -27383   -27402   -27485 
  -27575   -27654   -27775   -27919   -28020   -28069   -28034   -27830 
  -27499   -27218   -27074   -27005   -26940   -26894   -26949   -27144 
  -27421   -27691   -27938   -28206   -28451   -28478   -28182   -27721 
  -27350   -27203   -27226   -27230   -27127   -27054   -27171   -27458 
  -27741   -27850   -27798   -27742   -27750   -27768   -27788   -27830 
  -27833   -27725   -27545   -27371   -27255   -27218   -27222   -27289 
  -27541   -27935   -28197   -28155   -27900   -27657   -27594   -27650 
  -27586   -27314   -27007   -26843   -26846   -26975   -27181   -27395 
  -27545   -27639   -27736   -27850   -27939   -27955   -27917   -27880 
  -27853   -27782   -27598   -27317   -27044   -26913   -27041   -27389 
  -27752   -27975   -28032   -27938   -27750   -27546   -27337   -27142 
  -27114   -27346   -27658   -27850   -27919   -27893   -27750   -27535 
  -27364   -27309   -27360   -27470   -27579   -27613   -27555   -27463 
  -27361   -27239   -27157   -27166   -27245   -27364   -27507   -27647 
  -27736   -27674   -27414   -27115   -27015   -27147   -27351   -27512 
  -27587   -27602   -27716   -27993   -28236   -28288   -28225   -28158 
  -28116   -28072   -27933   -27616   -27238   -27031   -27050   -27169 
  -27272   -27330   -27413   -27577   -27760   -27861   -27840   -27749 
  -27674   -27641   -27637   -27632   -27557   -27384   -27202   -27121 
  -27136   -27184   -27253   -27327   -27407   -27510   -27582   -27622 
  -27712   -27831   -27882   -27841   -27735   -27627   -27611   -27722 
  -27863   -27911   -27841   -27699   -27531   -27406   -27356   -27339 
  -27353   -27468   -27668   -27824   -27847   -27774   -27716   -27715 
  -27675   -27534   -27385   -27304   -27227   -27092   -26956   -26913 
  -26996   -27162   -27352   -27516   -27589   -27541   -27462   -27490 
  -27659   -27846   -27875   -27734   -27621   -27707   -27913   -28000 
  -27887   -27723   -27645   -27672   -27738   -27739   -27633   -27472 
  -27320   -27235   -27266   -27370   -27424   -27387   -27347   -27378 
  -27440   -27464   -27473   -27553   -27698   -27787   -27749   -27667 
  -27649   -27690   -27704   -27647   -27556   -27492   -27476   -27463 
  -27428   -27409   -27453   -27570   -27708   -27778   -27760   -27731 
  -27753   -27803   -27792   -27649   -27428   -27263   -27245   -27334 
  -27383   -27288   -27144   -27134   -27297   -27485   -27563   -27549 
  -27529   -27562   -27636   -27685   -27686   -27684   -27727   -27789 
  -27779   -27663   -27510   -27402   -27399   -27521   -27688   -27798 
  -27813   -27721   -27580   -27512   -27525   -27482   -27307   -27129 
  -27138   -27339   -27561   -27629   -27540   -27457   -27513   -27665 
  -27775   -27809   -27839   -27878   -27839   -27674   -27457   -27299 
  -27256   -27329   -27477   -27654   -27854   -28008   -28005   -27854 
  -27652   -27459   -27306   -27221   -27189   -27144   -27070   -27029 
  -27067   -27220   -27490   -27759   -27916   -27950   -27887   -27767 
  -27678   -27653   -27636   -27596   -27563   -27544   -27524   -27502 
  -27471   -27453   -27499   -27605   -27706   -27760   -27750   -27709 
  -27678   -27611   -27500   -27445   -27447   -27434   -27420   -27428 
  -27427   -27404   -27389   -27412   -27493   -27647   -27832   -27944 
  -27902   -27728   -27557   -27501   -27526   -27556   -27596   -27684 
  -27832   -27979   -28003   -27858   -27615   -27371   -27170   -27027 
  -27001   -27146   -27409   -27631   -27673   -27522   -27306   -27155 
  -27129   -27257   -27490   -27684   -27752   -27718   -27677   -27724 
  -27817   -27791   -27604   -27410   -27360   -27457   -27596   -27686 
  -27705   -27667   -27581   -27455   -27339   -27283   -27277   -27302 
  -27339   -27362   -27387   -27449   -27528   -27578   -27566   -27491 
  -27426   -27486   -27687   -27916   -28058   -28095   -28070   -27996 
  -27887   -27791   -27708   -27603   -27474   -27335   -27235   -27258 
  -27374   -27438   -27361   -27191   -27026   -26951   -27017   -27207 
  -27432   -27646   -27846   -27983   -28038   -28064   -28049   -27971 
  -27880   -27755   -27553   -27339   -27193   -27126   -27140   -27242 
  -27391   -27491   -27518   -27554   -27664   -27824   -27948   -27951 
  -27856   -27770   -27719   -27640   -27486   -27290   -27168   -27186 
  -27263   -27314   -27368   -27452   -27532   -27573   -27583   -27600 
  -27657   -27736   -27810   -27874   -27875   -27770   -27639   -27555 
  -27524   -27548   -27550   -27449   -27333   -27339   -27472   -27650 
  -27754   -27692   -27543   -27474   -27530   -27611   -27612   -27509 
  -27385   -27358   -27435   -27514   -27545   -27563   -27613   -27698 
  -27746   -27665   -27491   -27372   -27399   -27540   -27696   -27768 
  -27710   -27578   -27484   -27453   -27442   -27419   -27349   -27257 
  -27259   -27399   -27588   -27700   -27659   -27524   -27469   -27585 
  -27767   -27849   -27799   -27697   -27630   -27650   -27726   -27732 
  -27608   -27445   -27340   -27310   -27339   -27377   -27379   -27367 
  -27369   -27387   -27437   -27514   -27572   -27600   -27624   -27643 
