Origin Time       2025/03/30 10:18:00
Lat.              34.667
Long.             140.825
Depth. (km)       69
Mag.              4.9
Station Code      YMNH16
Station Lat.      35.7421
Station Long.     138.5653
Station Height(m) 339
Record Time       2025/03/30 10:19:31
Sampling Freq(Hz) 100Hz
Duration Time(s)  120
Dir.              3
Scale Factor      2942(gal)/8224139
Max. Acc. (gal)   0.109
Last Correction   2025/03/30 10:19:31
Memo.             
[...]
 -844183  -844225  -844249  -844225  -844204  -844221  -844230  -844222 
 -844214  -844211  -844191  -844148  -844146  -844204  -844244  -844226 
 -844206  -844213  -844225  -844242  -844268  -844276  -844258  -844215 
 -844188  -844221  -844237  -844204  -844198  -844200  -844175  -844191 
 -844238  -844234  -844211  -844202  -844200  -844219  -844195  -844123 
 -844134  -844200  -844206  -844215  -844249  -844223  -844188  -844225 
 -844249  -844225  -844230  -844256  -844268  -844256  -844203  -844186 
 -844229  -844211  -844153  -844179  -844231  -844234  -844242  -844271 
 -844265  -844231  -844202  -844196  -844204  -844219  -844245  -844238 
 -844204  -844213  -844227  -844210  -844211  -844213  -844190  -844184 
 -844173  -844142  -844168  -844231  -844248  -844227  -844211  -844227 
 -844249  -844222  -844180  -844187  -844192  -844159  -844148  -844184 
 -844213  -844218  -844222  -844236  -844246  -844233  -844213  -844222 
 -844225  -844200  -844206  -844230  -844221  -844199  -844210  -844238 
 -844221  -844182  -844213  -844261  -844222  -844168  -844184  -844229 
 -844244  -844244  -844263  -844260  -844223  -844230  -844261  -844230 
 -844200  -844231  -844244  -844214  -844207  -844234  -844267  -844257 
 -844176  -844121  -844157  -844194  -844175  -844186  -844222  -844192 
 -844180  -844249  -844256  -844191  -844188  -844230  -844246  -844218 
 -844179  -844196  -844221  -844199  -844191  -844186  -844165  -844194 
 -844244  -844258  -844258  -844242  -844226  -844256  -844265  -844200 
 -844165  -844206  -844223  -844214  -844210  -844199  -844217  -844238 
 -844222  -844211  -844202  -844188  -844206  -844230  -844236  -844244 
 -844227  -844186  -844173  -844188  -844191  -844194  -844191  -844182 
 -844194  -844191  -844159  -844191  -844254  -844230  -844195  -844214 
 -844203  -844168  -844169  -844194  -844206  -844211  -844225  -844242 
 -844250  -844253  -844253  -844244  -844233  -844241  -844269  -844245 
 -844182  -844160  -844153  -844156  -844188  -844195  -844196  -844226 
 -844230  -844223  -844240  -844245  -844242  -844244  -844242  -844246 
 -844241  -844226  -844231  -844244  -844230  -844210  -844222  -844260 
 -844260  -844213  -844179  -844169  -844163  -844182  -844225  -844229 
 -844187  -844187  -844230  -844231  -844204  -844211  -844237  -844237 
 -844215  -844202  -844207  -844217  -844215  -844206  -844188  -844192 
 -844219  -844226  -844218  -844211  -844210  -844225  -844213  -844187 
 -844209  -844231  -844217  -844213  -844209  -844186  -844182  -844191 
 -844186  -844191  -844202  -844202  -844223  -844240  -844229  -844245 
 -844265  -844254  -844258  -844264  -844227  -844195  -844207  -844222 
 -844217  -844223  -844241  -844231  -844203  -844217  -844244  -844219 
 -844192  -844213  -844221  -844219  -844252  -844256  -844231  -844258 
 -844287  -844249  -844200  -844188  -844187  -844177  -844163  -844156 
 -844172  -844203  -844215  -844210  -844214  -844192  -844157  -844173 
 -844172  -844117  -844121  -844180  -844222  -844241  -844214  -844195 
 -844238  -844252  -844207  -844186  -844199  -844221  -844226  -844210 
 -844215  -844263  -844291  -844265  -844223  -844191  -844172  -844195 
 -844248  -844276  -844258  -844230  -844227  -844254  -844281  -844263 
 -844207  -844177  -844186  -844192  -844198  -844227  -844260  -844245 
 -844210  -844196  -844187  -844177  -844196  -844218  -844194  -844164 
 -844190  -844218  -844199  -844182  -844195  -844218  -844226  -844198 
 -844168  -844195  -844233  -844223  -844196  -844177  -844180  -844218 
 -844245  -844245  -844242  -844241  -844223  -844191  -844176  -844195 
 -844213  -844206  -844192  -844218  -844268  -844258  -844211  -844207 
 -844213  -844203  -844206  -844213  -844210  -844184  -844172  -844219 
 -844252  -844226  -844210  -844227  -844226  -844191  -844180  -844231 
 -844280  -844258  -844209  -844202  -844229  -844233  -844223  -844221 
 -844198  -844192  -844241  -844269  -844248  -844234  -844236  -844229 
 -844226  -844229  -844236  -844244  -844237  -844206  -844173  -844175 
 -844195  -844191  -844184  -844195  -844206  -844214  -844219  -844206 
 -844190  -844192  -844188  -844186  -844207  -844217  -844217  -844241 
 -844252  -844218  -844190  -844207  -844221  -844196  -844186  -844199 
 -844191  -844167  -844176  -844213  -844227  -844231  -844250  -844256 
 -844234  -844199  -844175  -844168  -844157  -844156  -844179  -844213 
 -844242  -844229  -844194  -844202  -844230  -844241  -844246  -844252 
 -844248  -844236  -844226  -844222  -844229  -844236  -844217  -844195 
 -844219  -844250  -844227  -844206  -844222  -844231  -844229  -844219 
 -844191  -844176  -844183  -844183  -844192  -844229  -844276  -844312 
 -844318  -844288  -844245  -844209  -844175  -844146  -844156  -844192 
 -844217  -844244  -844275  -844271  -844245  -844219  -844171  -844125 
 -844130  -844144  -844142  -844177  -844217  -844217  -844214  -844222 
 -844225  -844229  -844231  -844223  -844200  -844175  -844164  -844161 
 -844169  -844191  -844184  -844165  -844202  -844258  -844253  -844218 
 -844211  -844202  -844192  -844231  -844265  -844242  -844236  -844269 
 -844258  -844221  -844226  -844231  -844219  -844229  -844222  -844223 
 -844284  -844307  -844250  -844188  -844161  -844191  -844213  -844171 
 -844157  -844199  -844229  -844227  -844223  -844229  -844217  -844190 
 -844196  -844213  -844214  -844230  -844246  -844226  -844198  -844204 
 -844211  -844172  -844142  -844184  -844223  -844192  -844194  -844249 
 -844257  -844240  -844244  -844233  -844204  -844167  -844141  -844145 
 -844153  -844171  -844211  -844231  -844240  -844269  -844268  -844209 
 -844169  -844180  -844194  -844203  -844226  -844249  -844275  -844296 
 -844276  -844225  -844188  -844179  -844176  -844188  -844219  -844229 
 -844226  -844240  -844244  -844226  -844209  -844200  -844198  -844195 
 -844172  -844164  -844221  -844280  -844279  -844254  -844237  -844237 
 -844260  -844267  -844238  -844209  -844190  -844173  -844177  -844203 
 -844203  -844190  -844214  -844226  -844210  -844209  -844195  -844180 
 -844190  -844163  -844144  -844194  -844230  -844213  -844190  -844195 
 -844200  -844180  -844190  -844207  -844190  -844202  -844246  -844240 
 -844229  -844256  -844253  -844223  -844200  -844169  -844157  -844186 
 -844223  -844260  -844306  -844310  -844250  -844200  -844191  -844190 
 -844195  -844225  -844264  -844271  -844260  -844276  -844272  -844217 
 -844200  -844226  -844210  -844180  -844165  -844152  -844155  -844156 
 -844157  -844186  -844202  -844190  -844184  -844200  -844221  -844219 
 -844226  -844248  -844244  -844230  -844229  -844233  -844238  -844221 
 -844204  -844226  -844221  -844192  -844204  -844223  -844218  -844221 
 -844248  -844260  -844226  -844194  -844187  -844184  -844188  -844195 
 -844196  -844213  -844222  -844196  -844184  -844223  -844258  -844256 
 -844242  -844227  -844213  -844207  -844223  -844245  -844238  -844213 
 -844195  -844194  -844194  -844202  -844229  -844226  -844188  -844188 
 -844221  -844229  -844225  -844227  -844229  -844241  -844248  -844210 
 -844169  -844179  -844196  -844194  -844188  -844195  -844223  -844244 
 -844229  -844215  -844214  -844196  -844180  -844184  -844182  -844152 
 -844114  -844114  -844177  -844245  -844265  -844257  -844237  -844217 
 -844223  -844241  -844236  -844222  -844209  -844195  -844203  -844206 
 -844179  -844157  -844161  -844198  -844249  -844268  -844261  -844272 
 -844279  -844250  -844241  -844261  -844246  -844223  -844230  -844230 
 -844221  -844218  -844206  -844207  -844219  -844221  -844237  -844265 
 -844258  -844231  -844210  -844186  -844177  -844167  -844152  -844176 
 -844200  -844200  -844222  -844219  -844179  -844206  -844252  -844200 
 -844155  -844177  -844164  -844132  -844159  -844202  -844218  -844231 
 -844252  -844263  -844248  -844226  -844231  -844241  -844218  -844182 
 -844180  -844210  -844230  -844240  -844249  -844244  -844226  -844225 
 -844231  -844236  -844227  -844209  -844192  -844184  -844202  -844231 
 -844242  -844245  -844241  -844218  -844211  -844225  -844236  -844230 
 -844221  -844222  -844218  -844218  -844248  -844240  -844176  -844165 
 -844200  -844187  -844173  -844203  -844231  -844267  -844280  -844226 
 -844190  -844200  -844204  -844190  -844153  -844129  -844171  -844218 
 -844211  -844195  -844191  -844195  -844210  -844218  -844199  -844188 
 -844240  -844295  -844273  -844229  -844233  -844231  -844179  -844133 
 -844144  -844176  -844191  -844199  -844219  -844223  -844211  -844230 
 -844263  -844273  -844258  -844214  -844187  -844213  -844240  -844241 
 -844242  -844211  -844153  -844142  -844171  -844177  -844199  -844252 
 -844264  -844240  -844223  -844217  -844222  -844222  -844213  -844234 
 -844269  -844265  -844256  -844269  -844250  -844202  -844196  -844207 
 -844211  -844238  -844253  -844240  -844237  -844223  -844183  -844168 
 -844169  -844155  -844161  -844204  -844250  -844267  -844238  -844219 
 -844242  -844256  -844225  -844184  -844160  -844161  -844190  -844206 
 -844171  -844134  -844167  -844238  -844277  -844279  -844283  -844308 
 -844302  -844219  -844141  -844125  -844130  -844148  -844179  -844207 
 -844246  -844276  -844253  -844198  -844157  -844145  -844148  -844156 
 -844165  -844173  -844200  -844245  -844271  -844263  -844221  -844168 
 -844165  -844207  -844192  -844133  -844142  -844195  -844202  -844195 
 -844213  -844226  -844222  -844215  -844226  -844271  -844302  -844280 
 -844244  -844222  -844199  -844172  -844175  -844230  -844290  -844306 
 -844307  -844306  -844283  -844249  -844231  -844237  -844238  -844223 
 -844225  -844233  -844204  -844186  -844218  -844233  -844217  -844206 
 -844187  -844175  -844190  -844190  -844190  -844209  -844187  -844153 
 -844160  -844168  -844180  -844206  -844204  -844191  -844203  -844230 
 -844265  -844314  -844325  -844273  -844240  -844227  -844167  -844110 
 -844122  -844164  -844213  -844287  -844356  -844380  -844373  -844356 
 -844298  -844209  -844138  -844087  -844041  -844037  -844087  -844182 
 -844308  -844399  -844403  -844350  -844285  -844217  -844157  -844115 
 -844079  -844061  -844091  -844165  -844248  -844296  -844311  -844296 
 -844263  -844223  -844172  -844140  -844145  -844153  -844163  -844199 
 -844246  -844252  -844184  -844133  -844161  -844182  -844173  -844203 
 -844214  -844183  -844190  -844230  -844261  -844254  -844188  -844117 
 -844096  -844094  -844084  -844114  -844204  -844306  -844371  -844384 
 -844366  -844335  -844263  -844180  -844144  -844149  -844202  -844296 
 -844368  -844364  -844306  -844236  -844150  -844087  -844109  -844161 
 -844176  -844169  -844156  -844119  -844068  -844036  -844041  -844092 
 -844182  -844277  -844353  -844385  -844365  -844303  -844244  -844221 
 -844200  -844182  -844236  -844344  -844407  -844447  -844503  -844499 
 -844423  -844330  -844223  -844133  -844095  -844078  -844056  -844032 
 -844006  -844009  -844045  -844090  -844152  -844238  -844318  -844369 
 -844379  -844323  -844229  -844149  -844098  -844065  -844109  -844182 
 -844184  -844204  -844288  -844321  -844318  -844341  -844346  -844312 
 -844245  -844165  -844145  -844190  -844221  -844238  -844292  -844321 
 -844275  -844213  -844140  -844045  -843976  -843971  -844022  -844094 
 -844146  -844169  -844160  -844144  -844157  -844192  -844253  -844342 
 -844408  -844430  -844443  -844450  -844412  -844333  -844250  -844167 
 -844098  -844110  -844167  -844175  -844188  -844244  -844250  -844175 
 -844083  -844024  -843988  -843968  -843987  -844072  -844199  -844284 
 -844303  -844299  -844287  -844237  -844172  -844194  -844302  -844371 
 -844399  -844427  -844404  -844349  -844294  -844213  -844117  -844061 
 -844099  -844207  -844276  -844273  -844291  -844346  -844357  -844279 
 -844169  -844103  -844078  -844053  -844052  -844106  -844167  -844211 
 -844260  -844268  -844200  -844115  -844092  -844161  -844280  -844356 
 -844352  -844294  -844218  -844176  -844153  -844121  -844142  -844213 
 -844217  -844172  -844165  -844177  -844184  -844214  -844260  -844303 
 -844342  -844375  -844388  -844330  -844210  -844144  -844159  -844176 
 -844177  -844172  -844167  -844155  -844136  -844160  -844237  -844284 
 -844300  -844299  -844237  -844192  -844252  -844338  -844379  -844372 
 -844331  -844312  -844344  -844317  -844187  -844091  -844096  -844128 
 -844142  -844122  -844063  -844020  -844024  -844049  -844069  -844094 
 -844172  -844288  -844356  -844338  -844264  -844163  -844083  -844057 
 -844068  -844109  -844191  -844261  -844273  -844264  -844257  -844204 
 -844105  -844028  -844006  -844053  -844145  -844221  -844268  -844306 
 -844338  -844352  -844362  -844419  -844480  -844464  -844414  -844384 
 -844342  -844308  -844296  -844273  -844263  -844261  -844221  -844173 
 -844161  -844148  -844121  -844078  -844007  -843986  -844041  -844075 
 -844086  -844159  -844240  -844276  -844318  -844366  -844410  -844453 
 -844453  -844391  -844311  -844202  -844057  -843961  -843963  -844029 
 -844114  -844172  -844184  -844176  -844177  -844202  -844234  -844233 
 -844171  -844091  -844063  -844084  -844117  -844176  -844277  -844391 
 -844439  -844381  -844323  -844369  -844433  -844423  -844385  -844354 
 -844300  -844214  -844113  -844022  -843986  -843980  -843966  -843984 
 -844067  -844145  -844145  -844125  -844171  -844227  -844191  -844107 
 -844101  -844176  -844226  -844217  -844219  -844295  -844408  -844479 
 -844499  -844515  -844520  -844461  -844341  -844236  -844192  -844177 
 -844160  -844146  -844152  -844156  -844117  -844082  -844103  -844118 
 -844107  -844133  -844169  -844187  -844215  -844254  -844295  -844330 
 -844337  -844304  -844249  -844210  -844215  -844229  -844234  -844238 
 -844221  -844200  -844200  -844180  -844141  -844121  -844117  -844142 
 -844192  -844195  -844146  -844122  -844132  -844146  -844184  -844242 
 -844250  -844211  -844207  -844225  -844221  -844215  -844187  -844113 
 -844056  -844063  -844126  -844206  -844254  -844315  -844391  -844398 
 -844377  -844371  -844311  -844227  -844177  -844141  -844136  -844179 
 -844215  -844211  -844206  -844215  -844215  -844226  -844253  -844273 
 -844298  -844333  -844352  -844360  -844364  -844356  -844330  -844245 
 -844119  -844076  -844118  -844149  -844184  -844246  -844268  -844252 
 -844231  -844214  -844209  -844187  -844123  -844084  -844098  -844111 
 -844134  -844188  -844215  -844195  -844165  -844141  -844157  -844211 
 -844242  -844236  -844218  -844195  -844210  -844263  -844273  -844260 
 -844271  -844273  -844275  -844295  -844295  -844261  -844234  -844227 
 -844214  -844198  -844218  -844250  -844238  -844186  -844148  -844163 
 -844196  -844191  -844153  -844134  -844156  -844171  -844169  -844187 
 -844200  -844188  -844163  -844137  -844133  -844134  -844138  -844141 
 -844114  -844111  -844180  -844249  -844295  -844333  -844346  -844354 
 -844349  -844296  -844250  -844244  -844214  -844177  -844199  -844231 
 -844217  -844203  -844226  -844249  -844241  -844202  -844171  -844173 
 -844172  -844163  -844167  -844159  -844145  -844163  -844192  -844218 
 -844229  -844213  -844200  -844213  -844222  -844227  -844273  -844325 
 -844333  -844330  -844311  -844267  -844244  -844223  -844183  -844173 
 -844186  -844199  -844238  -844277  -844248  -844175  -844121  -844079 
 -844065  -844125  -844190  -844202  -844209  -844246  -844283  -844269 
 -844233  -844231  -844227  -844199  -844182  -844184  -844204  -844225 
 -844227  -844248  -844284  -844276  -844257  -844281  -844283  -844231 
 -844198  -844191  -844186  -844168  -844140  -844140  -844152  -844134 
 -844138  -844161  -844134  -844101  -844141  -844225  -844261  -844263 
 -844281  -844300  -844296  -844271  -844226  -844191  -844183  -844188 
 -844184  -844179  -844198  -844225  -844234  -844258  -844300  -844318 
 -844312  -844299  -844273  -844250  -844252  -844263  -844245  -844198 
 -844176  -844206  -844226  -844209  -844187  -844167  -844128  -844106 
 -844130  -844145  -844121  -844133  -844202  -844238  -844221  -844204 
 -844202  -844215  -844233  -844230  -844225  -844245  -844272  -844272 
 -844252  -844230  -844199  -844168  -844173  -844204  -844229  -844242 
 -844257  -844269  -844264  -844237  -844210  -844195  -844187  -844188 
 -844195  -844195  -844204  -844231  -844246  -844240  -844249  -844291 
 -844329  -844331  -844307  -844260  -844200  -844152  -844138  -844146 
 -844125  -844084  -844094  -844140  -844177  -844206  -844211  -844198 
 -844203  -844229  -844238  -844206  -844184  -844233  -844280  -844261 
 -844240  -844248  -844263  -844285  -844299  -844272  -844230  -844202 
 -844190  -844183  -844168  -844167  -844175  -844156  -844137  -844156 
 -844168  -844150  -844137  -844157  -844204  -844256  -844299  -844325 
 -844300  -844256  -844248  -844245  -844226  -844223  -844227  -844231 
 -844254  -844254  -844226  -844225  -844219  -844183  -844161  -844167 
 -844195  -844253  -844303  -844330  -844348  -844346  -844322  -844295 
 -844277  -844254  -844222  -844200  -844199  -844192  -844163  -844125 
 -844076  -844049  -844076  -844111  -844119  -844119  -844136  -844177 
 -844206  -844191  -844179  -844198  -844202  -844194  -844213  -844252 
 -844264  -844250  -844261  -844279  -844249  -844198  -844173  -844186 
 -844215  -844226  -844202  -844182  -844190  -844217  -844240  -844233 
 -844222  -844238  -844242  -844229  -844236  -844233  -844210  -844203 
 -844192  -844176  -844187  -844200  -844200  -844202  -844204  -844200 
 -844195  -844196  -844202  -844204  -844209  -844219  -844221  -844214 
 -844236  -844275  -844288  -844273  -844249  -844225  -844218  -844213 
 -844195  -844177  -844169  -844191  -844238  -844245  -844202  -844171 
 -844164  -844157  -844149  -844148  -844150  -844160  -844176  -844211 
 -844272  -844319  -844314  -844271  -844238  -844234  -844248  -844256 
 -844242  -844223  -844231  -844249  -844244  -844234  -844210  -844165 
 -844168  -844210  -844207  -844183  -844188  -844199  -844219  -844250 
 -844244  -844200  -844183  -844214  -844237  -844226  -844222  -844231 
 -844210  -844186  -844204  -844217  -844200  -844202  -844207  -844195 
 -844176  -844157  -844155  -844186  -844206  -844186  -844169  -844191 
 -844217  -844237  -844271  -844291  -844271  -844267  -844284  -844260 
 -844230  -844248  -844254  -844237  -844242  -844248  -844234  -844238 
 -844260  -844284  -844287  -844258  -844242  -844227  -844184  -844167 
 -844169  -844164  -844191  -844218  -844188  -844169  -844190  -844190 
 -844177  -844175  -844164  -844156  -844171  -844198  -844223  -844226 
 -844206  -844195  -844186  -844165  -844167  -844184  -844202  -844227 
 -844252  -844276  -844287  -844258  -844226  -844214  -844192  -844163 
 -844145  -844145  -844153  -844160  -844173  -844199  -844211  -844196 
 -844183  -844191  -844214  -844227  -844223  -844227  -844236  -844233 
 -844231  -844233  -844234  -844246  -844260  -844263  -844253  -844229 
 -844186  -844149  -844133  -844111  -844094  -844113  -844149  -844183 
 -844226  -844267  -844283  -844276  -844256  -844248  -844256  -844252 
 -844244  -844264  -844287  -844283  -844294  -844319  -844307  -844284 
 -844273  -844241  -844204  -844195  -844199  -844199  -844206  -844234 
 -844267  -844272  -844234  -844182  -844156  -844159  -844160  -844157 
