Origin Time       2025/03/30 10:18:00
Lat.              34.667
Long.             140.825
Depth. (km)       69
Mag.              4.9
Station Code      YMNH12
Station Lat.      35.5623
Station Long.     138.4490
Station Height(m) 147.5
Record Time       2025/03/30 10:19:34
Sampling Freq(Hz) 100Hz
Duration Time(s)  120
Dir.              3
Scale Factor      2940(gal)/6170270
Max. Acc. (gal)   0.081
Last Correction   2025/03/30 10:19:19
Memo.             
[...]
  -15982   -15990   -15993   -15992   -15986   -15974   -15963   -15965 
  -15973   -15979   -15989   -15999   -16003   -16006   -16005   -15998 
  -15993   -15994   -15999   -16004   -16001   -15994   -15986   -15977 
  -15975   -15984   -15994   -16002   -16006   -16001   -15996   -15992 
  -15981   -15973   -15970   -15965   -15962   -15965   -15965   -15961 
  -15958   -15956   -15957   -15968   -15981   -15985   -15979   -15968 
  -15965   -15971   -15974   -15967   -15965   -15967   -15971   -15986 
  -16002   -16003   -15993   -15983   -15976   -15976   -15979   -15985 
  -15991   -15990   -15986   -15985   -15990   -15996   -15999   -15996 
  -15994   -15994   -15992   -15985   -15974   -15972   -15977   -15976 
  -15971   -15966   -15965   -15972   -15980   -15979   -15977   -15975 
  -15974   -15980   -15989   -15992   -15991   -15992   -15992   -15989 
  -15989   -15988   -15985   -15987   -15988   -15982   -15980   -15984 
  -15987   -15990   -15988   -15982   -15981   -15984   -15982   -15972 
  -15957   -15948   -15953   -15963   -15970   -15976   -15976   -15970 
  -15964   -15964   -15966   -15964   -15958   -15947   -15938   -15936 
  -15938   -15947   -15967   -15981   -15987   -15984   -15974   -15974 
  -15987   -15997   -16003   -16003   -15993   -15979   -15977   -15987 
  -15998   -16000   -15993   -15989   -15995   -16006   -16014   -16019 
  -16015   -16003   -15991   -15986   -15986   -15983   -15980   -15977 
  -15971   -15966   -15968   -15976   -15981   -15978   -15975   -15974 
  -15973   -15969   -15967   -15968   -15971   -15975   -15978   -15983 
  -15986   -15991   -15998   -15997   -15990   -15985   -15981   -15982 
  -15984   -15980   -15973   -15970   -15971   -15969   -15964   -15961 
  -15959   -15960   -15963   -15966   -15969   -15968   -15962   -15961 
  -15965   -15964   -15961   -15955   -15948   -15949   -15956   -15959 
  -15966   -15972   -15971   -15972   -15975   -15977   -15985   -15991 
  -15989   -15981   -15973   -15965   -15966   -15976   -15984   -15988 
  -15990   -15986   -15983   -15988   -15996   -16001   -16009   -16018 
  -16022   -16024   -16024   -16021   -16018   -16016   -16012   -16003 
  -15990   -15977   -15969   -15973   -15987   -15998   -15999   -15998 
  -15993   -15983   -15978   -15973   -15966   -15965   -15969   -15971 
  -15974   -15979   -15977   -15969   -15966   -15970   -15975   -15985 
  -15996   -15997   -15986   -15976   -15970   -15969   -15966   -15961 
  -15958   -15955   -15953   -15957   -15962   -15966   -15966   -15963 
  -15967   -15975   -15977   -15975   -15969   -15959   -15950   -15949 
  -15953   -15957   -15966   -15977   -15985   -15992   -15996   -15996 
  -15990   -15981   -15969   -15962   -15966   -15982   -15992   -15996 
  -16000   -16002   -15999   -15998   -16001   -16006   -16009   -16008 
  -16000   -15992   -15989   -15993   -15997   -15999   -15999   -15997 
  -15992   -15980   -15969   -15967   -15973   -15979   -15982   -15985 
  -15990   -15990   -15985   -15979   -15972   -15966   -15962   -15961 
  -15960   -15959   -15959   -15957   -15953   -15949   -15941   -15932 
  -15929   -15934   -15948   -15963   -15971   -15979   -15985   -15987 
  -15992   -15995   -15993   -15993   -15992   -15987   -15979   -15970 
  -15967   -15964   -15963   -15969   -15977   -15989   -16007   -16016 
  -16015   -16017   -16017   -16011   -16006   -16005   -16006   -16005 
  -15992   -15969   -15955   -15953   -15957   -15970   -15982   -15980 
  -15977   -15981   -15981   -15978   -15980   -15987   -16000   -16007 
  -16003   -15990   -15975   -15966   -15973   -15993   -16016   -16027 
  -16021   -16002   -15979   -15968   -15972   -15984   -15989   -15986 
  -15979   -15971   -15968   -15969   -15972   -15976   -15975   -15963 
  -15955   -15957   -15963   -15967   -15973   -15976   -15974   -15974 
  -15980   -15986   -15982   -15974   -15967   -15966   -15965   -15960 
  -15954   -15946   -15939   -15942   -15954   -15964   -15973   -15984 
  -15992   -15992   -15987   -15985   -15986   -15994   -16009   -16015 
  -16003   -15983   -15962   -15952   -15962   -15976   -15987   -15996 
  -15995   -15990   -15986   -15979   -15973   -15971   -15976   -15981 
  -15979   -15972   -15970   -15975   -15985   -15991   -15994   -15990 
  -15981   -15978   -15983   -15992   -16001   -16000   -15983   -15963 
  -15957   -15965   -15979   -15994   -16007   -16006   -15993   -15981 
  -15976   -15974   -15971   -15967   -15961   -15955   -15956   -15964 
  -15972   -15978   -15985   -15990   -15986   -15980   -15975   -15968 
  -15966   -15969   -15971   -15977   -15984   -15991   -15994   -15992 
  -15987   -15990   -15994   -15999   -16008   -16013   -16012   -16011 
  -16012   -16011   -16006   -15996   -15992   -15994   -15991   -15984 
  -15978   -15970   -15962   -15960   -15966   -15972   -15974   -15981 
  -15985   -15983   -15984   -15984   -15984   -15987   -15989   -15986 
  -15980   -15968   -15955   -15945   -15941   -15946   -15952   -15955 
  -15963   -15967   -15962   -15961   -15963   -15967   -15974   -15978 
  -15978   -15975   -15964   -15954   -15954   -15961   -15968   -15970 
  -15971   -15978   -15989   -15997   -15998   -15998   -15995   -15987 
  -15981   -15983   -15989   -15999   -16010   -16018   -16019   -16018 
  -16019   -16023   -16025   -16024   -16022   -16017   -16006   -15991 
  -15979   -15974   -15972   -15972   -15976   -15980   -15973   -15957 
  -15946   -15938   -15935   -15938   -15938   -15933   -15928   -15926 
  -15930   -15942   -15959   -15978   -15993   -15997   -15989   -15977 
  -15971   -15977   -15985   -15983   -15972   -15964   -15968   -15973 
  -15979   -15990   -16000   -16006   -16007   -15999   -15987   -15976 
  -15971   -15971   -15969   -15967   -15970   -15977   -15976   -15971 
  -15974   -15978   -15973   -15968   -15966   -15961   -15957   -15960 
  -15968   -15976   -15983   -15983   -15976   -15972   -15972   -15972 
  -15977   -15986   -15992   -15997   -15996   -15989   -15989   -15993 
  -15995   -16001   -16003   -15993   -15979   -15971   -15968   -15968 
  -15971   -15978   -15984   -15985   -15984   -15981   -15975   -15977 
  -15984   -15992   -16003   -16013   -16014   -16010   -16004   -16000 
  -16001   -16006   -16010   -16005   -15990   -15976   -15969   -15974 
  -15984   -15988   -15983   -15980   -15978   -15972   -15965   -15961 
  -15962   -15970   -15976   -15978   -15978   -15976   -15974   -15974 
  -15975   -15976   -15980   -15992   -16003   -16007   -16013   -16014 
  -16007   -16002   -16002   -15996   -15981   -15972   -15972   -15972 
  -15972   -15978   -15981   -15975   -15962   -15946   -15932   -15929 
  -15936   -15945   -15948   -15948   -15946   -15946   -15950   -15956 
  -15964   -15973   -15982   -15986   -15985   -15981   -15975   -15976 
  -15988   -16004   -16012   -16009   -16003   -15997   -15992   -15985 
  -15981   -15986   -15998   -16005   -15999   -15986   -15979   -15981 
  -15991   -16002   -16005   -15995   -15979   -15960   -15946   -15946 
  -15957   -15969   -15979   -15985   -15987   -15988   -15990   -15998 
  -16003   -15999   -15986   -15971   -15957   -15952   -15954   -15958 
  -15962   -15967   -15975   -15982   -15985   -15982   -15975   -15968 
  -15965   -15966   -15971   -15979   -15989   -15992   -15989   -15990 
  -15990   -15985   -15987   -15991   -15982   -15964   -15948   -15947 
  -15961   -15974   -15982   -15985   -15981   -15977   -15971   -15967 
  -15971   -15984   -15996   -15997   -15987   -15976   -15966   -15962 
  -15969   -15981   -15995   -16004   -16004   -16000   -15996   -15994 
  -15992   -15990   -15989   -15984   -15973   -15962   -15957   -15961 
  -15967   -15970   -15976   -15979   -15970   -15965   -15968   -15969 
  -15973   -15975   -15968   -15958   -15950   -15947   -15952   -15958 
  -15959   -15962   -15963   -15964   -15973   -15987   -15996   -16001 
  -16002   -15993   -15986   -15988   -15997   -16006   -16005   -15996 
  -15984   -15973   -15968   -15974   -15983   -15988   -15989   -15985 
  -15983   -15988   -15986   -15977   -15979   -15989   -15993   -15995 
  -16008   -16022   -16029   -16024   -16007   -15991   -15986   -15986 
  -15984   -15987   -15993   -15989   -15978   -15968   -15964   -15967 
  -15981   -15998   -16002   -15994   -15985   -15976   -15970   -15973 
  -15977   -15975   -15973   -15970   -15965   -15964   -15961   -15954 
  -15953   -15955   -15950   -15948   -15955   -15965   -15975   -15984 
  -15994   -15997   -15993   -15991   -15988   -15985   -15988   -15991 
  -15995   -16007   -16014   -16011   -16008   -16010   -16008   -16003 
  -15999   -15996   -15991   -15981   -15972   -15968   -15969   -15972 
  -15976   -15981   -15983   -15976   -15971   -15969   -15971   -15981 
  -15990   -15997   -16007   -16011   -16003   -15997   -15997   -15993 
  -15986   -15980   -15971   -15965   -15970   -15976   -15981   -15986 
  -15988   -15990   -15991   -15985   -15971   -15961   -15962   -15965 
  -15963   -15961   -15957   -15953   -15958   -15969   -15979   -15994 
  -16006   -16013   -16022   -16030   -16027   -16017   -16002   -15988 
  -15974   -15964   -15959   -15959   -15961   -15963   -15963   -15965 
  -15966   -15964   -15963   -15962   -15957   -15954   -15952   -15948 
  -15951   -15956   -15956   -15952   -15951   -15956   -15964   -15968 
  -15966   -15958   -15951   -15945   -15943   -15955   -15974   -15987 
  -15996   -16002   -16000   -15993   -15992   -16002   -16020   -16029 
  -16027   -16025   -16024   -16017   -16006   -15993   -15982   -15972 
  -15963   -15960   -15963   -15974   -15984   -15984   -15976   -15960 
  -15937   -15921   -15914   -15904   -15888   -15872   -15856   -15847 
  -15859   -15880   -15896   -15912   -15926   -15933   -15943   -15962 
  -15989   -16011   -16017   -16010   -16003   -16006   -16017   -16030 
  -16041   -16046   -16041   -16034   -16031   -16036   -16048   -16060 
  -16067   -16068   -16064   -16058   -16050   -16045   -16036   -16026 
  -16024   -16020   -16013   -16013   -16007   -15997   -16000   -16010 
  -16010   -16001   -15987   -15973   -15965   -15958   -15949   -15943 
  -15942   -15943   -15946   -15949   -15956   -15967   -15975   -15977 
  -15972   -15958   -15938   -15926   -15924   -15925   -15929   -15931 
  -15933   -15941   -15950   -15957   -15959   -15960   -15965   -15970 
  -15972   -15975   -15978   -15982   -15986   -15992   -16004   -16015 
  -16023   -16026   -16027   -16032   -16042   -16051   -16054   -16053 
  -16052   -16054   -16060   -16062   -16062   -16060   -16050   -16030 
  -16000   -15968   -15945   -15935   -15935   -15940   -15952   -15966 
  -15977   -15982   -15977   -15961   -15949   -15953   -15973   -15998 
  -16004   -15986   -15967   -15949   -15928   -15917   -15909   -15887 
  -15857   -15837   -15834   -15841   -15850   -15865   -15886   -15897 
  -15898   -15907   -15931   -15959   -15987   -16016   -16039   -16049 
  -16052   -16049   -16039   -16032   -16026   -16015   -16004   -15994 
  -15985   -15980   -15979   -15978   -15982   -15987   -15981   -15966 
  -15949   -15932   -15920   -15919   -15922   -15925   -15927   -15932 
  -15942   -15950   -15957   -15970   -15991   -16011   -16019   -16020 
  -16025   -16028   -16028   -16022   -16003   -15978   -15957   -15939 
  -15929   -15928   -15931   -15937   -15942   -15946   -15956   -15977 
  -16004   -16027   -16047   -16067   -16089   -16108   -16119   -16119 
  -16108   -16086   -16069   -16069   -16082   -16096   -16103   -16100 
  -16082   -16059   -16044   -16036   -16028   -16009   -15983   -15964 
  -15951   -15941   -15932   -15923   -15914   -15909   -15904   -15899 
  -15896   -15892   -15885   -15876   -15869   -15868   -15873   -15881 
  -15886   -15889   -15892   -15901   -15916   -15936   -15961   -15989 
  -16015   -16038   -16054   -16063   -16068   -16068   -16061   -16051 
  -16047   -16047   -16044   -16036   -16028   -16018   -16003   -15989 
  -15975   -15963   -15960   -15959   -15956   -15951   -15943   -15931 
  -15920   -15915   -15914   -15914   -15914   -15916   -15923   -15932 
  -15946   -15968   -15986   -15996   -16010   -16029   -16048   -16063 
  -16074   -16077   -16068   -16050   -16035   -16020   -16001   -15982 
  -15968   -15960   -15954   -15941   -15926   -15925   -15940   -15953 
  -15958   -15960   -15964   -15968   -15975   -15981   -15991   -16001 
  -16002   -15998   -15992   -15981   -15971   -15961   -15942   -15918 
  -15896   -15878   -15881   -15909   -15949   -15982   -15999   -16008 
  -16015   -16017   -16017   -16015   -16005   -15999   -15996   -15988 
  -15980   -15974   -15968   -15962   -15960   -15960   -15962   -15971 
  -15987   -16000   -16008   -16006   -16001   -15998   -15994   -15989 
  -15975   -15952   -15925   -15896   -15873   -15858   -15848   -15846 
  -15851   -15861   -15875   -15895   -15920   -15948   -15973   -15991 
  -16000   -16009   -16022   -16038   -16053   -16062   -16067   -16070 
  -16071   -16072   -16078   -16084   -16084   -16075   -16064   -16058 
  -16048   -16034   -16029   -16025   -16007   -15985   -15978   -15986 
  -15998   -16015   -16032   -16037   -16029   -16017   -16012   -16011 
  -16007   -16002   -15992   -15973   -15953   -15946   -15949   -15949 
  -15941   -15925   -15904   -15884   -15871   -15866   -15868   -15870 
  -15867   -15863   -15856   -15854   -15858   -15860   -15864   -15880 
  -15903   -15932   -15968   -15994   -16007   -16022   -16042   -16069 
  -16099   -16126   -16144   -16149   -16140   -16127   -16117   -16102 
  -16077   -16051   -16029   -16006   -15983   -15962   -15952   -15952 
  -15948   -15935   -15923   -15918   -15919   -15925   -15933   -15941 
  -15950   -15957   -15966   -15977   -15991   -16009   -16023   -16025 
  -16015   -16001   -15989   -15975   -15960   -15949   -15939   -15931 
  -15927   -15924   -15930   -15942   -15953   -15966   -15982   -15993 
  -15998   -16003   -16010   -16016   -16018   -16013   -16001   -15993 
  -15988   -15978   -15965   -15951   -15929   -15903   -15885   -15877 
  -15881   -15899   -15916   -15925   -15924   -15920   -15921   -15926 
  -15932   -15937   -15941   -15939   -15932   -15930   -15941   -15958 
  -15971   -15979   -15992   -16011   -16031   -16052   -16075   -16093 
  -16098   -16085   -16066   -16047   -16031   -16026   -16027   -16026 
  -16022   -16016   -16013   -16012   -16011   -16007   -16002   -15998 
  -15994   -15990   -15987   -15982   -15982   -15993   -16007   -16013 
  -16011   -16002   -15992   -15988   -15989   -15993   -15994   -15988 
  -15978   -15967   -15958   -15949   -15940   -15931   -15923   -15917 
  -15917   -15921   -15924   -15921   -15920   -15924   -15930   -15940 
  -15955   -15968   -15977   -15982   -15988   -15995   -16004   -16018 
  -16031   -16038   -16041   -16037   -16029   -16023   -16019   -16020 
  -16023   -16019   -16009   -15998   -15985   -15976   -15969   -15957 
  -15940   -15926   -15919   -15916   -15918   -15924   -15925   -15917 
  -15910   -15905   -15899   -15899   -15899   -15891   -15882   -15877 
  -15884   -15903   -15921   -15939   -15959   -15974   -15990   -16008 
  -16029   -16050   -16063   -16070   -16078   -16087   -16092   -16089 
  -16083   -16084   -16086   -16083   -16078   -16074   -16073   -16075 
  -16075   -16074   -16072   -16061   -16041   -16019   -15999   -15981 
  -15969   -15966   -15968   -15970   -15968   -15958   -15946   -15938 
  -15937   -15935   -15930   -15926   -15922   -15923   -15926   -15927 
  -15927   -15923   -15910   -15891   -15877   -15878   -15884   -15888 
  -15895   -15902   -15904   -15903   -15910   -15927   -15951   -15973 
  -15990   -16000   -16003   -16001   -15999   -16002   -16010   -16020 
  -16024   -16026   -16026   -16015   -16001   -15997   -15995   -15997 
  -16009   -16020   -16015   -16004   -15997   -15997   -16005   -16014 
  -16017   -16016   -16009   -15999   -15997   -15999   -15996   -15991 
  -15984   -15977   -15977   -15981   -15984   -15987   -15988   -15986 
  -15983   -15982   -15985   -15993   -16006   -16018   -16032   -16046 
  -16048   -16042   -16040   -16035   -16021   -16008   -16000   -15989 
  -15973   -15952   -15933   -15921   -15913   -15908   -15910   -15909 
  -15905   -15902   -15899   -15898   -15902   -15905   -15903   -15904 
  -15909   -15918   -15934   -15948   -15950   -15942   -15933   -15929 
  -15931   -15938   -15955   -15976   -15996   -16013   -16025   -16040 
  -16062   -16077   -16078   -16076   -16079   -16079   -16080   -16086 
  -16085   -16072   -16054   -16032   -16010   -15992   -15976   -15961 
  -15949   -15938   -15927   -15920   -15921   -15926   -15930   -15930 
  -15925   -15925   -15932   -15939   -15944   -15949   -15952   -15956 
  -15954   -15949   -15950   -15953   -15953   -15952   -15949   -15949 
  -15958   -15970   -15981   -15989   -15994   -15997   -16001   -16006 
  -16010   -16013   -16020   -16028   -16037   -16043   -16039   -16029 
  -16019   -16010   -16003   -15998   -15996   -15992   -15986   -15985 
  -15989   -15997   -16004   -16002   -15994   -15987   -15981   -15981 
  -15984   -15987   -15986   -15974   -15964   -15966   -15969   -15968 
  -15969   -15966   -15959   -15952   -15944   -15940   -15941   -15945 
  -15951   -15956   -15957   -15955   -15953   -15949   -15945   -15946 
  -15951   -15961   -15977   -15995   -16006   -16009   -16005   -15993 
  -15978   -15968   -15965   -15969   -15978   -15980   -15975   -15975 
  -15978   -15979   -15981   -15985   -15988   -15989   -15985   -15975 
  -15969   -15970   -15970   -15970   -15973   -15978   -15983   -15985 
  -15981   -15974   -15969   -15967   -15968   -15967   -15960   -15957 
  -15961   -15962   -15968   -15981   -15988   -15989   -15991   -15993 
  -15995   -15999   -16002   -16007   -16012   -16013   -16002   -15990 
  -15986   -15988   -15989   -15993   -15999   -16002   -16004   -15997 
  -15983   -15975   -15974   -15982   -15994   -16001   -15998   -15987 
  -15976   -15973   -15979   -15981   -15973   -15962   -15945   -15928 
  -15922   -15925   -15931   -15939   -15946   -15950   -15951   -15947 
  -15943   -15944   -15946   -15948   -15953   -15960   -15963   -15959 
  -15954   -15957   -15965   -15978   -15989   -15994   -15999   -15999 
  -15996   -15997   -16004   -16012   -16019   -16019   -16014   -16014 
  -16020   -16026   -16030   -16027   -16013   -15998   -15986   -15977 
  -15981   -15997   -16011   -16010   -15999   -15989   -15985   -15983 
  -15986   -15993   -15999   -15997   -15990   -15981   -15974   -15970 
  -15962   -15956   -15953   -15948   -15948   -15951   -15949   -15945 
  -15945   -15944   -15946   -15955   -15963   -15967   -15971   -15972 
  -15972   -15977   -15983   -15992   -16002   -16006   -16007   -16006 
  -16001   -15998   -15999   -15999   -15998   -15995   -15991   -15986 
  -15986   -15993   -15996   -15994   -15992   -15990   -15987   -15983 
  -15977   -15972   -15969   -15967   -15963   -15955   -15950   -15949 
  -15952   -15953   -15950   -15949   -15947   -15945   -15951   -15960 
  -15967   -15971   -15969   -15964   -15961   -15962   -15969   -15979 
  -15982   -15979   -15976   -15976   -15978   -15982   -15990   -15998 
  -16000   -15999   -16004   -16008   -16003   -16000   -15999   -15995 
  -15991   -15989   -15990   -15990   -15988   -15987   -15986   -15983 
