Origin Time       2025/03/30 10:18:00
Lat.              34.667
Long.             140.825
Depth. (km)       69
Mag.              4.9
Station Code      YMNH16
Station Lat.      35.7421
Station Long.     138.5653
Station Height(m) 595
Record Time       2025/03/30 10:19:31
Sampling Freq(Hz) 100Hz
Duration Time(s)  120
Dir.              6
Scale Factor      7845(gal)/8223790
Max. Acc. (gal)   0.343
Last Correction   2025/03/30 10:19:31
Memo.             
[...]
    6459     6542     6563     6474     6496     6535     6527     6613 
    6621     6490     6455     6446     6427     6539     6582     6484 
    6469     6539     6610     6589     6453     6447     6540     6539 
    6566     6592     6513     6517     6566     6501     6473     6509 
    6505     6535     6579     6512     6451     6512     6525     6455 
    6481     6583     6612     6552     6513     6532     6502     6451 
    6519     6594     6525     6494     6589     6574     6461     6484 
    6573     6585     6570     6516     6457     6501     6547     6517 
    6480     6488     6561     6588     6513     6496     6521     6524 
    6581     6583     6461     6443     6563     6567     6485     6496 
    6535     6505     6501     6556     6543     6498     6528     6535 
    6498     6523     6559     6544     6502     6465     6493     6550 
    6524     6489     6465     6423     6509     6627     6594     6548 
    6527     6500     6556     6604     6562     6534     6540     6513 
    6474     6497     6547     6519     6478     6490     6511     6547 
    6562     6532     6524     6489     6459     6566     6606     6500 
    6511     6534     6427     6442     6548     6570     6575     6543 
    6507     6582     6615     6556     6542     6482     6415     6502 
    6565     6486     6469     6508     6517     6575     6602     6516 
    6488     6536     6519     6494     6538     6546     6508     6513 
    6531     6502     6490     6536     6561     6520     6507     6552 
    6578     6551     6497     6477     6493     6467     6451     6523 
    6593     6582     6525     6467     6458     6534     6608     6598 
    6551     6508     6501     6527     6532     6517     6520     6574 
    6592     6488     6448     6542     6574     6542     6509     6477 
    6511     6552     6520     6481     6480     6525     6563     6542 
    6538     6551     6517     6509     6563     6552     6500     6536 
    6551     6469     6459     6523     6540     6531     6521     6508 
    6478     6416     6453     6605     6621     6511     6493     6517 
    6509     6513     6502     6498     6539     6565     6561     6534 
    6500     6507     6527     6519     6505     6519     6594     6625 
    6527     6465     6515     6555     6563     6583     6556     6466 
    6457     6554     6570     6467     6434     6508     6571     6563 
    6515     6509     6538     6552     6571     6551     6480     6458 
    6493     6507     6497     6490     6484     6538     6602     6534 
    6440     6455     6507     6554     6538     6477     6525     6601 
    6581     6590     6593     6496     6481     6538     6521     6532 
    6573     6547     6531     6539     6544     6555     6513     6462 
    6500     6523     6473     6488     6555     6552     6508     6496 
    6528     6547     6528     6521     6519     6511     6544     6585 
    6566     6505     6485     6511     6523     6528     6527     6504 
    6528     6562     6519     6481     6493     6490     6507     6555 
    6548     6528     6561     6569     6527     6493     6488     6513 
    6536     6532     6509     6492     6477     6446     6477     6543 
    6508     6536     6654     6569     6435     6521     6624     6615 
    6552     6484     6496     6521     6502     6500     6475     6470 
    6524     6521     6498     6534     6559     6548     6531     6542 
    6559     6539     6529     6501     6469     6551     6604     6525 
    6521     6532     6474     6511     6544     6493     6523     6558 
    6538     6577     6552     6458     6501     6558     6516     6501 
    6492     6461     6471     6515     6554     6538     6489     6496 
    6516     6529     6554     6505     6450     6500     6577     6597 
    6542     6481     6519     6579     6559     6520     6486     6475 
    6546     6598     6543     6508     6556     6579     6554     6520 
    6494     6509     6515     6509     6547     6525     6488     6554 
    6590     6544     6527     6527     6523     6529     6519     6515 
    6542     6538     6501     6497     6512     6500     6485     6505 
    6507     6484     6500     6551     6571     6521     6485     6528 
    6547     6501     6507     6507     6446     6475     6578     6598 
    6561     6540     6538     6517     6478     6492     6556     6570 
    6521     6520     6552     6516     6477     6509     6565     6579 
    6540     6528     6551     6519     6501     6552     6548     6532 
    6561     6519     6470     6508     6561     6570     6498     6438 
    6482     6513     6497     6546     6581     6527     6511     6550 
    6554     6519     6478     6473     6500     6520     6540     6554 
    6540     6551     6555     6534     6555     6555     6516     6534 
    6548     6502     6466     6490     6534     6505     6438     6457 
    6516     6500     6457     6478     6538     6577     6581     6517 
    6430     6446     6525     6566     6605     6616     6558     6531 
    6554     6540     6515     6542     6590     6593     6561     6538 
    6512     6466     6444     6463     6477     6501     6542     6529 
    6482     6494     6543     6562     6563     6543     6505     6521 
    6551     6521     6493     6521     6546     6532     6554     6602 
    6556     6481     6509     6551     6520     6494     6519     6534 
    6529     6562     6574     6497     6447     6485     6524     6573 
    6600     6507     6416     6470     6544     6538     6521     6502 
    6475     6523     6592     6559     6502     6508     6490     6436 
    6477     6556     6532     6493     6520     6532     6554     6593 
    6561     6523     6520     6507     6532     6524     6465     6498 
    6554     6554     6574     6559     6508     6505     6521     6516 
    6489     6477     6492     6504     6566     6623     6543     6471 
    6520     6550     6562     6589     6577     6565     6516     6442 
    6488     6554     6544     6551     6534     6505     6535     6543 
    6532     6558     6523     6453     6462     6504     6538     6547 
    6498     6469     6511     6542     6546     6516     6463     6488 
    6517     6481     6505     6528     6490     6490     6481     6478 
    6550     6594     6593     6574     6532     6552     6575     6517 
    6497     6531     6520     6516     6559     6578     6536     6500 
    6519     6523     6494     6509     6527     6505     6524     6579 
    6597     6559     6500     6502     6535     6492     6462     6508 
    6507     6478     6528     6567     6551     6554     6552     6521 
    6513     6516     6501     6492     6520     6577     6598     6565 
    6529     6498     6466     6490     6525     6508     6504     6509 
    6500     6534     6562     6520     6466     6450     6485     6529 
    6528     6535     6554     6512     6490     6566     6610     6566 
    6517     6488     6496     6525     6516     6494     6463     6447 
    6504     6546     6556     6596     6597     6558     6544     6546 
    6531     6498     6490     6532     6548     6542     6578     6594 
    6569     6551     6507     6485     6531     6527     6493     6525 
    6534     6520     6539     6519     6471     6466     6490     6521 
    6546     6528     6494     6512     6540     6512     6475     6481 
    6473     6450     6502     6586     6592     6552     6539     6554 
    6534     6494     6544     6601     6561     6562     6577     6478 
    6427     6504     6566     6571     6551     6509     6502     6532 
    6512     6486     6539     6563     6524     6524     6511     6455 
    6470     6512     6527     6552     6515     6493     6578     6562 
    6496     6569     6585     6523     6563     6561     6481     6485 
    6492     6462     6481     6489     6502     6550     6524     6481 
    6531     6588     6594     6579     6531     6478     6494     6534 
    6524     6504     6516     6525     6512     6508     6529     6538 
    6509     6509     6520     6492     6516     6575     6538     6494 
    6534     6543     6535     6542     6501     6504     6566     6551 
    6525     6571     6578     6508     6470     6501     6527     6520 
    6535     6571     6538     6477     6517     6593     6609     6612 
    6586     6512     6504     6544     6527     6511     6493     6420 
    6420     6478     6467     6469     6519     6535     6547     6578 
    6558     6502     6465     6478     6531     6535     6516     6554 
    6567     6500     6474     6527     6525     6507     6543     6531 
    6515     6534     6469     6459     6561     6551     6492     6517 
    6519     6520     6567     6566     6562     6577     6529     6484 
    6505     6558     6598     6565     6484     6485     6539     6559 
    6601     6621     6519     6457     6508     6505     6497     6529 
    6502     6477     6498     6507     6513     6542     6565     6538 
    6502     6528     6548     6515     6500     6520     6493     6462 
    6500     6544     6575     6585     6527     6467     6470     6524 
    6566     6529     6490     6486     6459     6458     6519     6562 
    6562     6546     6521     6528     6586     6605     6544     6532 
    6561     6525     6494     6481     6436     6461     6538     6517 
    6473     6505     6559     6589     6567     6525     6546     6565 
    6550     6578     6573     6521     6544     6571     6511     6446 
    6469     6523     6497     6454     6502     6562     6570     6571 
    6539     6474     6485     6529     6529     6531     6525     6513 
    6539     6575     6578     6536     6478     6484     6528     6521 
    6513     6550     6552     6502     6465     6463     6467     6469 
    6500     6535     6543     6563     6585     6542     6496     6525 
    6540     6497     6494     6535     6539     6515     6511     6496 
    6469     6517     6597     6571     6517     6538     6567     6590 
    6594     6515     6448     6502     6554     6523     6470     6444 
    6469     6507     6504     6508     6534     6532     6542     6575 
    6571     6554     6527     6469     6477     6540     6547     6543 
    6579     6577     6528     6531     6544     6511     6497     6509 
    6534     6583     6581     6501     6440     6463     6538     6596 
    6604     6567     6528     6519     6536     6566     6539     6453 
    6447     6538     6555     6498     6512     6563     6550     6497 
    6484     6508     6529     6523     6477     6469     6529     6554 
    6555     6577     6532     6447     6444     6497     6531     6544 
    6542     6544     6548     6481     6407     6444     6505     6507 
    6538     6577     6543     6517     6529     6535     6540     6542 
    6532     6540     6540     6521     6558     6609     6562     6485 
    6471     6484     6524     6570     6555     6555     6573     6523 
    6501     6521     6505     6516     6538     6535     6554     6532 
    6466     6436     6407     6415     6525     6586     6550     6542 
    6551     6548     6536     6497     6443     6415     6462     6551 
    6582     6577     6588     6570     6538     6505     6438     6424 
    6511     6562     6566     6617     6647     6588     6501     6426 
    6404     6447     6496     6561     6615     6585     6571     6602 
    6582     6548     6517     6473     6494     6552     6565     6561 
    6547     6520     6485     6447     6494     6594     6600     6561 
    6544     6488     6448     6438     6382     6403     6538     6615 
    6631     6632     6555     6489     6520     6528     6481     6485 
    6532     6561     6570     6567     6529     6453     6427     6489 
    6531     6528     6562     6592     6558     6540     6573     6569 
    6554     6605     6643     6632     6632     6581     6448     6362 
    6342     6332     6361     6459     6567     6608     6606     6589 
    6492     6357     6299     6319     6363     6416     6490     6555 
    6581     6628     6693     6691     6640     6601     6588     6601 
    6615     6597     6571     6567     6543     6473     6450     6482 
    6482     6523     6598     6569     6512     6515     6504     6482 
    6444     6386     6399     6439     6423     6419     6463     6482 
    6502     6573     6604     6570     6583     6628     6646     6685 
    6728     6727     6706     6652     6544     6467     6432     6401 
    6431     6486     6484     6516     6536     6394     6274     6299 
    6332     6408     6508     6494     6494     6583     6609     6596 
    6589     6570     6625     6681     6629     6615     6663     6663 
    6640     6628     6617     6589     6507     6438     6466     6525 
    6528     6485     6446     6428     6405     6390     6400     6390 
    6389     6411     6393     6350     6345     6432     6561     6617 
    6609     6589     6602     6670     6733     6755     6702     6588 
    6569     6669     6729     6712     6640     6539     6474     6455 
    6444     6396     6297     6249     6272     6293     6363     6504 
    6605     6610     6602     6620     6610     6590     6573     6527 
    6490     6512     6563     6547     6463     6458     6528     6535 
    6497     6511     6555     6598     6592     6536     6511     6508 
    6486     6459     6430     6405     6417     6448     6478     6528 
    6550     6494     6474     6515     6505     6490     6552     6625 
    6710     6813     6812     6714     6698     6745     6690     6586 
    6569     6588     6555     6494     6428     6324     6210     6165 
    6184     6223     6315     6427     6448     6459     6543     6563 
    6513     6544     6636     6704     6737     6747     6752     6762 
    6727     6608     6462     6394     6419     6448     6469     6531 
    6542     6466     6427     6411     6388     6444     6511     6474 
    6413     6381     6385     6497     6598     6563     6538     6556 
    6527     6561     6681     6739     6756     6764     6698     6582 
    6459     6393     6435     6461     6423     6419     6405     6399 
    6508     6596     6575     6558     6546     6527     6551     6543 
    6498     6508     6502     6478     6490     6450     6417     6517 
    6610     6598     6543     6470     6423     6480     6596     6639 
    6604     6594     6623     6627     6601     6546     6486     6470 
    6481     6521     6585     6582     6524     6471     6408     6362 
    6389     6446     6489     6502     6466     6421     6423     6481 
    6581     6652     6670     6687     6670     6586     6542     6581 
    6615     6609     6590     6536     6471     6442     6426     6448 
    6477     6426     6407     6439     6419     6415     6453     6480 
    6528     6529     6470     6509     6575     6524     6501     6577 
    6647     6720     6737     6632     6534     6484     6459     6516 
    6586     6592     6570     6558     6542     6516     6539     6627 
    6642     6562     6494     6435     6389     6399     6399     6386 
    6423     6496     6575     6586     6509     6538     6664     6656 
    6575     6569     6527     6455     6440     6436     6462     6535 
    6544     6490     6469     6494     6520     6501     6459     6451 
    6497     6579     6621     6563     6474     6467     6546     6594 
    6501     6386     6413     6466     6492     6558     6555     6512 
    6573     6602     6528     6497     6500     6528     6629     6660 
    6592     6594     6637     6636     6643     6612     6521     6492 
    6500     6480     6478     6442     6359     6340     6354     6377 
    6436     6435     6397     6426     6490     6540     6551     6570 
    6652     6696     6681     6702     6679     6604     6583     6558 
    6534     6555     6520     6484     6554     6623     6604     6534 
    6498     6531     6523     6458     6421     6407     6434     6496 
    6520     6547     6550     6492     6501     6527     6488     6531 
    6588     6511     6461     6489     6469     6471     6539     6578 
    6581     6558     6525     6534     6562     6555     6532     6539 
    6550     6531     6509     6481     6450     6435     6430     6467 
    6534     6540     6509     6515     6548     6588     6627     6608 
    6536     6519     6542     6548     6552     6532     6511     6540 
    6547     6490     6471     6523     6555     6525     6485     6463 
    6450     6478     6546     6562     6527     6525     6562     6567 
    6547     6531     6505     6498     6509     6492     6498     6544 
    6551     6539     6548     6546     6554     6581     6556     6500 
    6478     6462     6467     6513     6520     6520     6558     6540 
    6512     6551     6536     6461     6457     6521     6581     6597 
    6567     6525     6512     6507     6512     6534     6525     6488 
    6474     6484     6507     6554     6579     6544     6492     6466 
    6466     6512     6567     6544     6493     6480     6485     6517 
    6559     6562     6525     6521     6585     6624     6583     6538 
    6516     6475     6453     6485     6538     6569     6558     6528 
    6509     6521     6554     6552     6524     6523     6540     6570 
    6625     6640     6546     6430     6434     6507     6507     6461 
    6465     6500     6524     6520     6486     6477     6480     6446 
    6423     6412     6430     6529     6583     6513     6488     6540 
    6567     6602     6670     6671     6619     6579     6552     6558 
    6581     6546     6494     6508     6536     6554     6581     6573 
    6516     6493     6511     6505     6498     6507     6489     6467 
    6458     6443     6451     6458     6439     6459     6520     6534 
    6509     6519     6546     6566     6605     6617     6577     6552 
    6566     6575     6558     6528     6523     6538     6565     6592 
    6562     6485     6459     6473     6447     6426     6444     6471 
    6507     6520     6484     6463     6500     6546     6551     6507 
    6492     6548     6573     6571     6627     6627     6547     6538 
    6554     6490     6448     6473     6478     6466     6484     6505 
    6502     6528     6585     6612     6598     6563     6543     6567 
    6571     6531     6507     6527     6538     6517     6513     6534 
    6536     6519     6535     6554     6521     6504     6485     6431 
    6466     6555     6550     6519     6521     6528     6562     6561 
    6478     6431     6455     6488     6534     6558     6528     6520 
    6516     6496     6536     6574     6554     6565     6597     6577 
    6540     6524     6527     6554     6582     6579     6547     6497 
    6471     6477     6474     6481     6489     6471     6488     6556 
    6585     6542     6494     6493     6523     6535     6517     6498 
    6516     6567     6578     6536     6516     6515     6504     6509 
    6534     6544     6513     6489     6524     6539     6497     6475 
    6473     6467     6508     6566     6566     6554     6571     6567 
    6552     6539     6488     6463     6490     6512     6552     6581 
    6535     6509     6525     6523     6552     6579     6550     6550 
    6558     6534     6536     6528     6492     6490     6502     6496 
    6492     6494     6507     6551     6578     6538     6492     6492 
    6497     6489     6500     6501     6481     6494     6542     6555 
