Origin Time       2025/03/30 10:18:00
Lat.              34.667
Long.             140.825
Depth. (km)       69
Mag.              4.9
Station Code      YMNH16
Station Lat.      35.7421
Station Long.     138.5653
Station Height(m) 339
Record Time       2025/03/30 10:19:31
Sampling Freq(Hz) 100Hz
Duration Time(s)  120
Dir.              2
Scale Factor      2942(gal)/8224139
Max. Acc. (gal)   0.235
Last Correction   2025/03/30 10:19:31
Memo.             
[...]
   61446    61426    61477    61497    61460    61491    61543    61516 
   61497    61508    61488    61487    61499    61456    61433    61462 
   61484    61483    61468    61465    61464    61438    61465    61515 
   61504    61527    61573    61508    61430    61465    61504    61454 
   61456    61545    61534    61439    61446    61499    61466    61426 
   61465    61507    61487    61457    61460    61468    61484    61519 
   61487    61426    61465    61510    61454    61439    61523    61554 
   61512    61504    61510    61480    61487    61545    61533    61469 
   61469    61484    61461    61458    61479    61461    61422    61399 
   61415    61470    61524    61519    61461    61433    61457    61493 
   61511    61497    61497    61534    61545    61538    61531    61488 
   61487    61520    61495    61468    61454    61429    61438    61461 
   61488    61511    61495    61499    61504    61453    61457    61524 
   61530    61503    61499    61483    61466    61501    61553    61524 
   61435    61426    61500    61495    61443    61501    61555    61465 
   61395    61477    61539    61470    61426    61464    61472    61462 
   61488    61514    61508    61483    61485    61520    61507    61439 
   61446    61528    61545    61501    61508    61507    61442    61427 
   61485    61487    61441    61466    61524    61487    61433    61477 
   61510    61466    61462    61508    61531    61496    61453    61484 
   61524    61503    61485    61485    61501    61528    61522    61510 
   61496    61472    61462    61453    61472    61527    61523    61462 
   61419    61418    61479    61534    61515    61480    61458    61439 
   61457    61485    61460    61454    61533    61553    61460    61435 
   61492    61479    61437    61458    61492    61472    61443    61481 
   61531    61503    61465    61474    61499    61518    61512    61503 
   61493    61457    61488    61564    61503    61403    61433    61508 
   61528    61510    61496    61496    61473    61465    61504    61508 
   61461    61477    61526    61472    61427    61520    61587    61519 
   61460    61473    61479    61485    61514    61512    61485    61425 
   61387    61456    61503    61456    61423    61443    61495    61504 
   61461    61477    61507    61473    61474    61493    61443    61420 
   61507    61572    61514    61447    61443    61464    61501    61520 
   61500    61480    61489    61527    61530    61481    61485    61504 
   61458    61441    61487    61495    61468    61473    61484    61488 
   61492    61454    61418    61433    61446    61462    61500    61497 
   61491    61514    61495    61491    61551    61561    61508    61476 
   61477    61519    61537    61506    61483    61481    61510    61516 
   61465    61427    61414    61410    61425    61447    61461    61460 
   61468    61499    61528    61549    61541    61515    61503    61465 
   61415    61420    61460    61484    61487    61469    61453    61454 
   61481    61515    61508    61477    61476    61508    61537    61538 
   61515    61466    61441    61488    61472    61393    61454    61546 
   61476    61379    61423    61518    61519    61497    61533    61516 
   61446    61454    61531    61545    61503    61499    61492    61449 
   61430    61442    61474    61496    61495    61510    61515    61501 
   61507    61507    61507    61492    61443    61446    61489    61484 
   61470    61481    61488    61468    61414    61415    61476    61489 
   61477    61507    61531    61499    61460    61468    61481    61483 
   61508    61515    61487    61470    61460    61473    61512    61504 
   61461    61450    61481    61503    61474    61447    61470    61496 
   61497    61500    61480    61458    61515    61553    61492    61454 
   61477    61497    61504    61476    61447    61474    61493    61489 
   61518    61522    61462    61453    61500    61487    61442    61449 
   61473    61483    61480    61481    61516    61573    61573    61499 
   61464    61483    61457    61425    61447    61458    61438    61449 
   61501    61527    61473    61420    61466    61524    61526    61541 
   61562    61516    61439    61423    61454    61468    61480    61508 
   61493    61465    61495    61519    61487    61474    61530    61574 
   61523    61462    61470    61457    61415    61441    61487    61464 
   61429    61456    61481    61454    61450    61497    61534    61523 
   61496    61480    61462    61452    61466    61483    61492    61501 
   61497    61492    61503    61523    61543    61518    61457    61437 
   61458    61480    61488    61484    61470    61442    61426    61454 
   61481    61449    61420    61458    61472    61435    61460    61531 
   61558    61515    61452    61474    61524    61508    61506    61520 
   61484    61466    61518    61538    61496    61472    61477    61461 
   61447    61473    61495    61474    61464    61477    61461    61437 
   61452    61480    61470    61442    61485    61542    61510    61477 
   61510    61506    61454    61442    61480    61515    61530    61522 
   61508    61496    61460    61447    61501    61539    61522    61520 
   61501    61418    61383    61445    61480    61443    61422    61454 
   61489    61489    61492    61520    61522    61492    61492    61524 
   61519    61469    61439    61442    61469    61516    61527    61508 
   61507    61508    61487    61458    61458    61460    61419    61407 
   61468    61499    61483    61507    61531    61528    61542    61526 
   61497    61497    61491    61492    61496    61476    61483    61501 
   61495    61492    61468    61438    61484    61527    61508    61515 
   61515    61456    61418    61418    61442    61483    61489    61479 
   61480    61472    61483    61507    61477    61439    61443    61435 
   61434    61485    61514    61491    61468    61474    61489    61487 
   61493    61501    61465    61418    61399    61431    61493    61504 
   61468    61456    61470    61514    61550    61539    61526    61537 
   61538    61500    61473    61507    61519    61481    61481    61483 
   61460    61469    61473    61449    61458    61499    61512    61470 
   61442    61477    61500    61491    61504    61511    61485    61484 
   61500    61514    61537    61528    61514    61516    61483    61460 
   61488    61479    61443    61449    61466    61468    61457    61485 
   61522    61480    61456    61528    61554    61488    61468    61503 
   61497    61488    61503    61473    61412    61387    61408    61422 
   61425    61469    61499    61479    61483    61501    61488    61464 
   61447    61447    61462    61473    61495    61530    61554    61564 
   61545    61504    61499    61519    61535    61543    61510    61477 
   61468    61430    61425    61481    61481    61430    61442    61515 
   61568    61549    61488    61460    61469    61465    61450    61469 
   61488    61453    61443    61501    61512    61450    61431    61477 
   61507    61489    61476    61522    61572    61553    61518    61512 
   61500    61466    61447    61468    61460    61389    61380    61458 
   61492    61472    61485    61518    61488    61435    61456    61507 
   61531    61562    61558    61479    61422    61441    61483    61489 
   61468    61464    61474    61479    61477    61477    61477    61462 
   61445    61447    61466    61485    61487    61465    61454    61487 
   61526    61520    61501    61503    61499    61479    61488    61524 
   61522    61514    61541    61535    61481    61443    61465    61515 
   61516    61485    61464    61434    61415    61427    61445    61441 
   61449    61477    61499    61523    61538    61534    61542    61520 
   61464    61446    61454    61453    61457    61470    61474    61474 
   61491    61497    61488    61481    61474    61497    61524    61512 
   61497    61496    61497    61506    61491    61464    61473    61497 
   61496    61493    61493    61496    61523    61528    61506    61500 
   61484    61454    61450    61458    61462    61469    61472    61464 
   61441    61438    61484    61518    61500    61503    61518    61460 
   61399    61420    61454    61441    61423    61425    61422    61412 
   61433    61520    61587    61539    61495    61516    61518    61488 
   61464    61461    61457    61458    61522    61547    61476    61453 
   61474    61442    61410    61450    61518    61523    61489    61489 
   61499    61492    61504    61520    61495    61452    61441    61456 
   61453    61452    61508    61560    61542    61514    61500    61499 
   61495    61500    61535    61523    61465    61480    61523    61483 
   61443    61488    61499    61434    61425    61500    61534    61481 
   61469    61524    61480    61403    61462    61522    61484    61458 
   61474    61495    61492    61472    61442    61429    61443    61460 
   61470    61473    61477    61489    61474    61452    61464    61504 
   61511    61469    61450    61458    61461    61477    61501    61503 
   61460    61433    61466    61493    61495    61503    61480    61457 
   61487    61493    61468    61489    61528    61530    61528    61531 
   61518    61523    61547    61565    61533    61442    61422    61488 
   61462    61403    61468    61528    61473    61420    61435    61450 
   61447    61480    61504    61473    61483    61545    61558    61500 
   61449    61485    61528    61492    61483    61526    61510    61465 
   61484    61485    61420    61376    61384    61420    61465    61501 
   61501    61464    61452    61466    61465    61479    61507    61531 
   61533    61491    61458    61458    61445    61418    61420    61449 
   61493    61533    61506    61485    61550    61561    61501    61487 
   61504    61510    61496    61476    61474    61461    61435    61464 
   61489    61442    61422    61469    61499    61491    61456    61416 
   61439    61508    61533    61516    61511    61524    61545    61541 
   61511    61479    61466    61485    61501    61487    61474    61483 
   61496    61511    61530    61558    61597    61578    61488    61422 
   61407    61408    61437    61472    61522    61582    61574    61545 
   61545    61479    61381    61350    61356    61385    61434    61506 
   61604    61649    61622    61576    61516    61483    61481    61472 
   61474    61518    61560    61528    61474    61489    61491    61411 
   61366    61400    61437    61450    61480    61512    61503    61400 
   61288    61317    61379    61396    61469    61523    61499    61493 
   61514    61503    61470    61480    61534    61526    61480    61508 
   61534    61474    61433    61442    61460    61542    61657    61662 
   61577    61546    61570    61507    61395    61362    61362    61341 
   61330    61365    61431    61469    61497    61554    61580    61551 
   61503    61462    61439    61412    61360    61283    61229    61254 
   61339    61470    61623    61703    61723    61707    61642    61545 
   61373    61192    61159    61242    61392    61630    61836    61897 
   61828    61682    61546    61449    61356    61306    61310    61341 
   61457    61611    61658    61646    61643    61580    61495    61465 
   61464    61492    61533    61527    61520    61518    61457    61383 
   61361    61350    61354    61411    61476    61506    61515    61551 
   61615    61666    61704    61713    61662    61572    61481    61388 
   61303    61279    61317    61387    61479    61511    61449    61398 
   61399    61442    61500    61530    61541    61537    61506    61476 
   61456    61416    61371    61403    61523    61626    61688    61709 
   61642    61572    61531    61411    61285    61272    61322    61376 
   61411    61434    61453    61447    61407    61312    61221    61213 
   61214    61161    61169    61349    61588    61757    61871    61909 
   61839    61749    61685    61635    61568    61456    61348    61306 
   61361    61484    61596    61647    61618    61565    61526    61418 
   61295    61277    61288    61264    61246    61252    61319    61438 
   61507    61560    61631    61632    61568    61497    61420    61364 
   61371    61434    61519    61624    61716    61746    61746    61730 
   61666    61565    61462    61419    61456    61526    61557    61473 
   61306    61196    61155    61146    61230    61353    61403    61422 
   61474    61511    61516    61539    61546    61524    61557    61624 
   61685    61778    61848    61854    61839    61774    61677    61639 
   61591    61496    61462    61437    61352    61277    61207    61102 
   60995    60925    60967    61159    61387    61504    61530    61547 
   61581    61657    61717    61688    61647    61659    61678    61693 
   61723    61731    61659    61558    61522    61549    61553    61503 
   61460    61430    61407    61395    61339    61258    61214    61164 
   61132    61203    61315    61376    61439    61555    61666    61704 
   61673    61645    61630    61560    61435    61287    61180    61214 
   61306    61373    61516    61674    61743    61750    61682    61591 
   61577    61635    61681    61622    61470    61353    61318    61287 
   61257    61298    61377    61454    61519    61522    61461    61426 
   61469    61524    61533    61558    61670    61796    61836    61757 
   61551    61298    61150    61169    61240    61275    61307    61356 
   61346    61257    61202    61215    61254    61385    61607    61761 
   61743    61647    61616    61569    61442    61458    61661    61830 
   61940    62066    62139    62071    61890    61726    61611    61497 
   61429    61406    61321    61177    61061    61005    60998    61034 
   61083    61084    61069    61084    61125    61233    61408    61574 
   61666    61672    61654    61681    61753    61821    61832    61777 
   61703    61650    61607    61488    61318    61223    61210    61188 
   61169    61186    61210    61307    61528    61731    61804    61788 
   61716    61619    61547    61533    61541    61538    61572    61611 
   61576    61541    61607    61670    61574    61396    61298    61287 
   61292    61253    61192    61202    61268    61333    61407    61488 
   61542    61591    61709    61821    61782    61689    61634    61503 
   61314    61248    61327    61445    61562    61657    61715    61770 
   61778    61661    61500    61461    61511    61489    61416    61399 
   61399    61373    61350    61353    61406    61462    61470    61447 
   61381    61307    61325    61407    61492    61555    61534    61457 
   61434    61437    61380    61319    61360    61469    61512    61487 
   61500    61518    61510    61601    61754    61788    61724    61699 
   61672    61576    61538    61634    61696    61643    61576    61491 
   61345    61242    61261    61335    61362    61310    61260    61288 
   61322    61322    61368    61458    61510    61537    61581    61627 
   61668    61670    61641    61604    61507    61399    61361    61342 
   61335    61345    61377    61485    61605    61659    61670    61628 
   61522    61412    61391    61445    61470    61427    61362    61350 
   61377    61338    61276    61268    61276    61311    61425    61528 
   61519    61514    61582    61589    61516    61497    61546    61555 
   61538    61591    61650    61620    61551    61537    61569    61568 
   61534    61553    61572    61497    61437    61484    61500    61433 
   61415    61454    61438    61381    61353    61362    61371    61368 
   61411    61465    61464    61507    61581    61555    61487    61480 
   61506    61512    61515    61558    61591    61549    61560    61681 
   61704    61578    61520    61542    61516    61493    61497    61445 
   61389    61419    61439    61404    61439    61535    61547    61468 
   61410    61433    61487    61499    61450    61368    61308    61312 
   61371    61453    61497    61485    61468    61461    61458    61476 
   61472    61411    61372    61411    61464    61500    61542    61554 
   61504    61472    61493    61504    61508    61524    61518    61508 
   61537    61569    61574    61585    61605    61557    61462    61426 
   61408    61376    61423    61514    61510    61443    61469    61562 
   61527    61411    61373    61331    61263    61318    61473    61591 
   61632    61615    61538    61416    61356    61450    61570    61597 
   61589    61584    61592    61591    61573    61555    61528    61518 
   61489    61439    61465    61508    61446    61373    61384    61387 
   61342    61384    61506    61514    61443    61464    61499    61438 
   61368    61426    61520    61504    61485    61515    61483    61430 
   61423    61433    61472    61508    61508    61530    61572    61591 
   61595    61573    61537    61541    61554    61524    61491    61485 
   61485    61497    61531    61551    61547    61528    61510    61503 
   61468    61429    61434    61445    61452    61472    61445    61393 
   61383    61379    61356    61352    61406    61485    61499    61454 
   61433    61452    61468    61477    61514    61557    61555    61557 
   61573    61578    61615    61632    61560    61499    61523    61534 
   61480    61449    61456    61457    61473    61530    61581    61572 
   61523    61460    61380    61344    61389    61439    61389    61290 
   61314    61418    61416    61431    61572    61642    61623    61657 
   61674    61603    61546    61560    61543    61480    61445    61443 
   61437    61404    61420    61496    61476    61406    61419    61400 
   61330    61342    61420    61442    61389    61410    61523    61560 
   61522    61537    61570    61566    61560    61576    61604    61635 
   61653    61619    61538    61454    61415    61429    61447    61433 
   61387    61365    61400    61418    61414    61473    61549    61541 
   61477    61437    61402    61338    61342    61426    61470    61491 
   61519    61497    61441    61407    61407    61423    61453    61484 
   61499    61488    61483    61524    61554    61507    61476    61510 
   61511    61491    61519    61568    61573    61526    61507    61558 
   61581    61522    61472    61458    61437    61450    61492    61507 
   61507    61510    61503    61470    61437    61437    61443    61442 
   61460    61493    61524    61541    61528    61485    61469    61484 
   61476    61474    61511    61550    61576    61570    61542    61531 
   61547    61545    61507    61489    61483    61442    61410    61434 
   61466    61468    61493    61530    61538    61547    61538    61491 
   61426    61357    61339    61364    61384    61433    61492    61499 
   61487    61487    61489    61491    61481    61453    61418    61415 
   61442    61445    61422    61434    61477    61497    61503    61497 
   61474    61470    61456    61442    61470    61500    61519    61539 
   61549    61519    61470    61477    61533    61564    61542    61516 
   61535    61553    61549    61557    61538    61466    61431    61462 
   61496    61515    61547    61566    61501    61433    61472    61520 
   61516    61534    61539    61510    61481    61441    61387    61391 
   61465    61499    61462    61449    61458    61423    61418    61483 
   61508    61464    61446    61460    61449    61434    61466    61501 
   61480    61488    61520    61470    61422    61468    61519    61537 
   61547    61508    61420    61387    61442    61483    61441    61406 
