Origin Time       2025/03/30 10:18:00
Lat.              34.667
Long.             140.825
Depth. (km)       69
Mag.              4.9
Station Code      YMNH11
Station Lat.      35.6247
Station Long.     138.9777
Station Height(m) 265
Record Time       2025/03/30 10:19:23
Sampling Freq(Hz) 100Hz
Duration Time(s)  120
Dir.              1
Scale Factor      2940(gal)/6170270
Max. Acc. (gal)   0.202
Last Correction   2025/03/30 10:19:08
Memo.             
[...]
   44942    44931    44917    44920    44931    44944    44940    44909 
   44875    44869    44898    44939    44944    44916    44912    44927 
   44928    44936    44946    44914    44860    44842    44862    44886 
   44906    44932    44942    44913    44897    44926    44944    44920 
   44892    44900    44943    44974    44962    44917    44875    44872 
   44898    44915    44922    44920    44901    44879    44867    44859 
   44864    44881    44895    44910    44918    44911    44923    44949 
   44943    44908    44881    44883    44907    44933    44942    44933 
   44929    44926    44909    44892    44891    44889    44873    44870 
   44898    44921    44917    44904    44899    44903    44906    44898 
   44884    44873    44859    44845    44853    44886    44925    44951 
   44947    44920    44912    44937    44959    44956    44929    44904 
   44913    44939    44953    44945    44912    44893    44903    44906 
   44891    44882    44885    44898    44903    44897    44899    44903 
   44912    44938    44958    44949    44935    44939    44945    44935 
   44921    44925    44957    44981    44968    44933    44908    44900 
   44901    44905    44915    44928    44919    44885    44873    44889 
   44888    44869    44861    44869    44890    44919    44941    44931 
   44908    44908    44914    44899    44874    44857    44850    44841 
   44835    44853    44878    44892    44915    44946    44966    44967 
   44958    44948    44924    44892    44894    44928    44951    44937 
   44909    44904    44917    44921    44926    44943    44947    44934 
   44935    44949    44950    44940    44925    44904    44893    44905 
   44924    44916    44884    44873    44899    44930    44927    44895 
   44874    44887    44919    44929    44909    44887    44883    44891 
   44902    44900    44889    44890    44905    44904    44881    44870 
   44886    44914    44933    44930    44910    44893    44887    44892 
   44894    44880    44871    44887    44908    44909    44882    44858 
   44873    44910    44933    44942    44932    44899    44875    44890 
   44937    44973    44978    44971    44951    44924    44919    44939 
   44961    44957    44920    44890    44890    44893    44880    44859 
   44862    44903    44947    44961    44947    44922    44901    44888 
   44890    44908    44915    44908    44909    44918    44925    44931 
   44934    44936    44939    44927    44901    44892    44899    44900 
   44893    44893    44923    44953    44937    44915    44925    44920 
   44887    44868    44878    44890    44887    44879    44888    44909 
   44918    44913    44901    44888    44880    44884    44908    44935 
   44932    44908    44904    44917    44908    44890    44891    44905 
   44921    44923    44907    44904    44919    44923    44904    44892 
   44905    44920    44917    44912    44933    44958    44956    44940 
   44928    44914    44899    44890    44886    44891    44904    44913 
   44920    44939    44960    44960    44941    44924    44921    44905 
   44870    44865    44891    44903    44900    44894    44872    44856 
   44872    44896    44904    44904    44909    44909    44897    44901 
   44922    44923    44906    44903    44922    44942    44944    44919 
   44890    44886    44907    44934    44942    44915    44896    44925 
   44962    44966    44954    44942    44926    44905    44900    44913 
   44920    44916    44910    44904    44899    44893    44893    44902 
   44902    44891    44891    44903    44924    44935    44907    44877 
   44899    44929    44926    44918    44921    44925    44928    44920 
   44912    44909    44905    44899    44886    44865    44847    44844 
   44851    44858    44868    44886    44894    44892    44890    44902 
   44927    44954    44964    44952    44936    44940    44958    44966 
   44951    44916    44881    44864    44855    44843    44835    44847 
   44888    44920    44917    44918    44935    44940    44940    44949 
   44958    44963    44956    44929    44902    44890    44887    44898 
   44921    44929    44917    44903    44890    44877    44880    44899 
   44907    44900    44889    44890    44907    44920    44930    44944 
   44958    44980    44990    44966    44955    44972    44967    44935 
   44912    44897    44881    44877    44880    44889    44908    44909 
   44881    44871    44898    44938    44944    44900    44862    44874 
   44897    44894    44873    44859    44868    44882    44882    44885 
   44900    44905    44907    44907    44893    44897    44929    44938 
   44910    44890    44902    44934    44949    44935    44918    44912 
   44901    44877    44856    44851    44858    44879    44910    44931 
   44949    44966    44960    44957    44968    44962    44948    44935 
   44905    44879    44884    44900    44905    44906    44916    44932 
   44946    44945    44926    44908    44893    44880    44886    44906 
   44923    44928    44914    44895    44894    44913    44924    44909 
   44881    44857    44849    44855    44872    44887    44886    44895 
   44930    44947    44931    44928    44950    44963    44958    44950 
   44929    44898    44890    44893    44881    44873    44867    44850 
   44859    44906    44950    44962    44948    44934    44931    44923 
   44909    44915    44940    44948    44940    44939    44929    44905 
   44897    44908    44918    44923    44916    44900    44886    44887 
   44910    44925    44904    44878    44884    44914    44930    44921 
   44919    44930    44937    44942    44937    44916    44896    44883 
   44878    44897    44925    44931    44907    44880    44873    44875 
   44869    44867    44881    44897    44890    44874    44875    44886 
   44902    44922    44933    44942    44953    44966    44977    44964 
   44932    44921    44920    44898    44878    44896    44924    44922 
   44902    44878    44848    44842    44887    44938    44938    44913 
   44909    44917    44914    44912    44925    44941    44946    44947 
   44935    44906    44895    44921    44946    44943    44924    44894 
   44873    44878    44874    44844    44835    44847    44864    44899 
   44925    44924    44935    44957    44959    44936    44910    44913 
   44944    44960    44944    44930    44933    44936    44928    44918 
   44911    44903    44892    44879    44877    44891    44904    44910 
   44902    44879    44872    44878    44872    44877    44906    44931 
   44940    44951    44977    44988    44958    44918    44891    44872 
   44869    44875    44875    44884    44916    44937    44918    44873 
   44845    44851    44870    44881    44891    44901    44917    44946 
   44961    44944    44921    44921    44941    44949    44921    44886 
   44876    44880    44884    44886    44881    44870    44880    44913 
   44935    44932    44915    44901    44914    44944    44962    44969 
   44967    44967    44973    44955    44922    44914    44933    44951 
   44939    44916    44910    44909    44906    44904    44887    44860 
   44850    44863    44881    44889    44898    44909    44910    44905 
   44897    44892    44904    44928    44934    44917    44891    44873 
   44869    44865    44857    44869    44905    44924    44910    44897 
   44897    44899    44921    44954    44959    44940    44935    44941 
   44931    44921    44930    44919    44882    44878    44904    44913 
   44906    44893    44884    44898    44920    44933    44937    44922 
   44902    44913    44932    44920    44896    44897    44909    44915 
   44915    44901    44879    44871    44886    44910    44914    44901 
   44900    44912    44922    44925    44916    44915    44939    44954 
   44950    44952    44946    44925    44912    44896    44878    44891 
   44914    44892    44849    44824    44813    44831    44879    44917 
   44932    44954    44970    44947    44922    44933    44951    44960 
   44964    44952    44927    44905    44883    44867    44865    44863 
   44855    44848    44849    44858    44873    44895    44918    44938 
   44953    44959    44975    45009    45001    44947    44922    44937 
   44934    44915    44898    44887    44906    44930    44921    44912 
   44913    44897    44881    44874    44870    44875    44876    44875 
   44884    44896    44913    44941    44950    44928    44904    44898 
   44917    44949    44959    44945    44933    44911    44875    44855 
   44857    44861    44867    44885    44912    44928    44924    44924 
   44936    44944    44946    44948    44948    44942    44936    44927 
   44913    44900    44891    44892    44896    44884    44874    44881 
   44894    44899    44887    44868    44867    44891    44918    44917 
   44884    44871    44895    44913    44920    44928    44929    44929 
   44921    44889    44869    44883    44900    44916    44939    44953 
   44950    44937    44924    44923    44938    44965    44976    44944 
   44899    44875    44868    44875    44890    44900    44917    44928 
   44913    44901    44900    44889    44885    44899    44920    44941 
   44945    44926    44914    44923    44933    44930    44903    44869 
   44855    44855    44858    44878    44916    44939    44925    44898 
   44891    44889    44888    44906    44916    44899    44887    44896 
   44918    44950    44968    44958    44950    44964    44975    44961 
   44939    44925    44910    44892    44883    44882    44886    44891 
   44879    44864    44878    44907    44935    44965    44991    45005 
   45005    44969    44907    44867    44859    44853    44850    44864 
   44893    44918    44916    44898    44896    44905    44906    44910 
   44929    44940    44928    44913    44893    44861    44839    44841 
   44846    44843    44846    44864    44892    44913    44923    44928 
   44917    44889    44877    44890    44903    44923    44968    45006 
   45013    45005    44994    44971    44932    44895    44878    44878 
   44874    44859    44856    44874    44891    44901    44911    44929 
   44946    44948    44947    44945    44941    44939    44926    44899 
   44882    44881    44886    44891    44896    44886    44876    44888 
   44900    44902    44911    44918    44924    44930    44918    44892 
   44875    44870    44884    44917    44931    44916    44916    44935 
   44957    44981    44990    44979    44961    44930    44896    44880 
   44874    44875    44885    44888    44886    44894    44899    44892 
   44882    44884    44898    44904    44900    44897    44894    44891 
   44889    44894    44911    44933    44950    44960    44956    44937 
   44914    44895    44877    44861    44865    44873    44855    44832 
   44842    44869    44909    44951    44948    44904    44885    44897 
   44908    44917    44938    44960    44959    44941    44939    44959 
   44981    44989    44971    44938    44918    44912    44907    44891 
   44870    44866    44882    44888    44883    44900    44939    44965 
   44973    44981    44984    44980    44975    44975    44983    44984 
   44966    44947    44940    44937    44933    44916    44879    44865 
   44907    44954    44959    44939    44916    44902    44905    44913 
   44909    44895    44887    44890    44893    44896    44910    44921 
   44904    44883    44892    44913    44927    44948    44966    44955 
   44924    44900    44881    44856    44831    44823    44829    44826 
   44816    44815    44825    44849    44881    44895    44877    44853 
   44847    44852    44848    44834    44830    44846    44865    44882 
   44899    44903    44883    44857    44843    44837    44837    44854 
   44880    44914    44964    45003    45028    45043    45012    44946 
   44902    44893    44894    44901    44926    44962    44993    45017 
   45025    44990    44917    44856    44825    44800    44797    44840 
   44892    44924    44942    44940    44913    44880    44856    44838 
   44844    44885    44918    44916    44913    44923    44937    44962 
   44968    44942    44927    44942    44954    44951    44961    44999 
   45030    45023    45001    45004    45023    45028    45018    45000 
   44951    44882    44827    44803    44812    44842    44881    44924 
   44959    44980    44995    45000    44984    44942    44895    44858 
   44816    44768    44744    44755    44795    44860    44935    44993 
   45017    45012    44991    44964    44931    44895    44860    44821 
   44776    44736    44721    44743    44774    44788    44800    44811 
   44801    44785    44790    44799    44792    44798    44839    44873 
   44899    44954    45007    45041    45098    45174    45222    45219 
   45162    45077    45012    44985    44986    44994    44986    44960 
   44926    44886    44869    44892    44891    44821    44755    44751 
   44792    44865    44954    45024    45057    45037    44954    44858 
   44817    44835    44871    44890    44880    44862    44865    44873 
   44860    44841    44844    44887    44968    45032    45029    44962 
   44865    44803    44813    44872    44932    44953    44927    44877 
   44840    44836    44849    44887    44966    45036    45038    44983 
   44920    44888    44880    44874    44868    44876    44911    44977 
   45047    45093    45115    45089    45001    44902    44844    44854 
   44931    45018    45057    45048    44997    44913    44825    44734 
   44641    44590    44605    44646    44666    44667    44670    44668 
   44659    44674    44702    44722    44749    44787    44841    44937 
   45078    45225    45320    45334    45285    45216    45166    45138 
   45103    45055    44987    44917    44892    44902    44901    44904 
   44921    44943    44986    45047    45085    45080    45041    44979 
   44911    44859    44833    44841    44878    44915    44906    44852 
   44804    44778    44748    44725    44713    44698    44700    44715 
   44734    44789    44871    44940    44991    45019    45012    44995 
   45001    45053    45135    45198    45222    45216    45174    45114 
   45067    45015    44924    44807    44716    44676    44675    44712 
   44766    44792    44791    44796    44807    44814    44825    44840 
   44845    44834    44800    44764    44772    44799    44797    44785 
   44784    44779    44763    44760    44788    44834    44883    44948 
   45023    45070    45065    45032    45017    45031    45048    45050 
   45035    45009    44984    44967    44954    44954    44966    44986 
   45015    45038    45041    45025    45001    44981    44959    44936 
   44925    44914    44895    44868    44843    44853    44912    44983 
   45026    45039    45038    45032    45018    45009    45005    44971 
   44917    44894    44912    44935    44938    44938    44937    44893 
   44805    44725    44698    44721    44751    44748    44724    44725 
   44770    44842    44904    44924    44910    44891    44870    44840 
   44812    44788    44779    44813    44884    44939    44959    44986 
   45029    45062    45081    45070    45031    44998    44968    44931 
   44893    44863    44863    44880    44878    44843    44779    44712 
   44704    44778    44869    44912    44917    44934    44967    44976 
   44950    44896    44828    44786    44790    44818    44850    44888 
   44953    45039    45116    45157    45172    45176    45166    45127 
   45059    44974    44896    44839    44796    44754    44722    44724 
   44742    44736    44722    44729    44751    44787    44826    44856 
   44890    44939    44998    45053    45083    45069    45031    45006 
   45000    44995    44985    44970    44969    44991    44992    44946 
   44888    44852    44863    44916    44964    44998    45026    45029 
   45016    45005    44990    44975    44946    44881    44834    44837 
   44826    44786    44763    44755    44755    44768    44780    44795 
   44837    44900    44975    45038    45042    45010    44999    45020 
   45048    45061    45057    45043    45010    44952    44885    44832 
   44788    44742    44683    44612    44564    44573    44625    44694 
   44756    44793    44817    44858    44914    44961    44979    44965 
   44965    45002    45026    45011    45006    45025    45027    45003 
   44985    44971    44951    44928    44900    44886    44900    44913 
   44915    44917    44913    44914    44932    44927    44904    44921 
   44964    44980    44975    44961    44927    44895    44873    44834 
   44799    44794    44798    44793    44788    44797    44829    44905 
   45013    45086    45090    45047    44995    44976    44994    45008 
   44990    44958    44931    44910    44889    44880    44882    44868 
   44838    44801    44767    44748    44751    44779    44833    44887 
   44918    44928    44927    44928    44956    44993    45006    45021 
   45066    45108    45123    45125    45118    45115    45114    45080 
   45002    44921    44860    44833    44852    44890    44913    44914 
   44895    44866    44831    44791    44775    44798    44818    44813 
   44814    44827    44832    44844    44881    44939    45002    45034 
   45028    45011    44992    44970    44950    44916    44873    44857 
   44873    44901    44924    44919    44870    44807    44766    44746 
   44731    44709    44688    44700    44739    44768    44774    44774 
   44779    44819    44900    44976    45019    45049    45062    45049 
   45041    45052    45061    45070    45085    45075    45018    44932 
   44846    44803    44821    44863    44894    44927    44956    44971 
   44981    44985    44986    45005    45022    45005    44971    44937 
   44902    44884    44882    44882    44892    44905    44904    44898 
   44902    44916    44940    44957    44958    44959    44958    44932 
   44891    44858    44839    44845    44866    44893    44937    44975 
   44969    44935    44909    44878    44827    44785    44770    44764 
   44767    44788    44810    44817    44830    44860    44896    44927 
   44945    44944    44935    44917    44889    44873    44876    44885 
   44891    44894    44902    44906    44903    44912    44932    44934 
   44935    44953    44965    44973    44983    44987    44986    44979 
   44972    44982    44999    44999    44977    44939    44915    44935 
   44967    44962    44921    44885    44881    44906    44934    44940 
   44928    44918    44917    44908    44882    44864    44877    44902 
   44910    44898    44869    44829    44804    44814    44843    44866 
   44886    44905    44921    44938    44935    44907    44881    44865 
   44860    44878    44901    44906    44913    44938    44977    45012 
   45014    44972    44922    44903    44907    44894    44848    44801 
   44795    44830    44861    44861    44855    44862    44877    44900 
   44917    44909    44897    44912    44951    44978    44973    44946 
   44911    44877    44859    44853    44848    44856    44874    44882 
   44874    44863    44867    44889    44909    44918    44925    44946 
   44979    45002    44997    44970    44936    44920    44929    44948 
   44966    44986    45001    44997    44963    44917    44894    44886 
   44878    44876    44868    44856    44866    44898    44923    44942 
   44976    45019    45038    45007    44951    44930    44947    44948 
   44924    44900    44880    44868    44866    44853    44825    44814 
   44832    44867    44904    44930    44950    44962    44961    44971 
