Origin Time       2025/03/30 10:18:00
Lat.              34.667
Long.             140.825
Depth. (km)       69
Mag.              4.9
Station Code      YMNH11
Station Lat.      35.6247
Station Long.     138.9777
Station Height(m) 465
Record Time       2025/03/30 10:19:23
Sampling Freq(Hz) 100Hz
Duration Time(s)  120
Dir.              4
Scale Factor      3920(gal)/6170801
Max. Acc. (gal)   2.444
Last Correction   2025/03/30 10:19:08
Memo.             
[...]
   -4509    -4190    -3860    -3746    -3903    -4175    -4361    -4411 
   -4391    -4322    -4200    -4077    -4012    -4016    -4050    -4059 
   -4012    -3937    -3913    -3985    -4086    -4131    -4125    -4094 
   -4035    -3985    -4006    -4092    -4162    -4166    -4145    -4154 
   -4169    -4149    -4100    -4039    -3993    -4017    -4104    -4172 
   -4199    -4207    -4184    -4115    -4046    -4043    -4093    -4116 
   -4100    -4110    -4177    -4256    -4283    -4239    -4172    -4135 
   -4094    -4003    -3924    -3947    -4070    -4201    -4237    -4142 
   -3975    -3837    -3808    -3891    -4027    -4173    -4299    -4354 
   -4321    -4258    -4214    -4181    -4138    -4097    -4091    -4115 
   -4109    -4065    -4047    -4069    -4081    -4076    -4093    -4127 
   -4117    -4049    -3981    -3930    -3883    -3866    -3899    -3971 
   -4085    -4222    -4318    -4338    -4300    -4257    -4256    -4293 
   -4332    -4340    -4317    -4304    -4308    -4282    -4210    -4136 
   -4097    -4062    -3996    -3952    -4011    -4153    -4258    -4200 
   -3942    -3612    -3425    -3471    -3654    -3831    -3954    -4052 
   -4138    -4181    -4180    -4173    -4169    -4152    -4133    -4121 
   -4123    -4165    -4245    -4305    -4303    -4268    -4234    -4204 
   -4200    -4256    -4339    -4352    -4268    -4177    -4160    -4233 
   -4320    -4296    -4116    -3908    -3836    -3933    -4079    -4151 
   -4128    -4056    -3995    -3998    -4062    -4133    -4169    -4144 
   -4047    -3926    -3870    -3961    -4189    -4430    -4538    -4442 
   -4202    -3976    -3877    -3886    -3939    -3993    -4026    -4025 
   -3976    -3891    -3821    -3801    -3818    -3859    -3927    -3999 
   -4079    -4219    -4414    -4588    -4667    -4624    -4507    -4391 
   -4293    -4201    -4127    -4121    -4222    -4368    -4401    -4230 
   -3936    -3677    -3547    -3542    -3630    -3794    -3971    -4069 
   -4074    -4047    -4041    -4089    -4192    -4294    -4343    -4338 
   -4282    -4189    -4108    -4085    -4118    -4154    -4127    -4026 
   -3920    -3877    -3905    -3957    -3995    -4031    -4106    -4209 
   -4296    -4341    -4339    -4315    -4294    -4274    -4256    -4252 
   -4246    -4218    -4182    -4175    -4214    -4255    -4209    -4075 
   -3971    -3981    -4064    -4132    -4114    -4013    -3907    -3870 
   -3937    -4085    -4180    -4074    -3813    -3603    -3597    -3783 
   -4018    -4171    -4224    -4222    -4200    -4147    -4051    -3977 
   -4008    -4107    -4173    -4214    -4333    -4532    -4650    -4550 
   -4313    -4147    -4115    -4098    -4036    -3999    -4044    -4135 
   -4206    -4240    -4290    -4356    -4334    -4154    -3890    -3703 
   -3695    -3835    -3993    -4055    -4003    -3890    -3781    -3753 
   -3842    -4009    -4171    -4251    -4259    -4290    -4414    -4599 
   -4713    -4621    -4339    -4033    -3831    -3762    -3810    -3917 
   -4023    -4121    -4192    -4181    -4082    -3963    -3879    -3836 
   -3841    -3923    -4062    -4172    -4188    -4129    -4087    -4121 
   -4205    -4294    -4380    -4453    -4487    -4449    -4328    -4155 
   -4000    -3926    -3920    -3922    -3922    -3940    -3969    -3993 
   -4020    -4055    -4088    -4096    -4071    -4050    -4083    -4172 
   -4253    -4261    -4180    -4070    -4039    -4131    -4253    -4293 
   -4253    -4196    -4149    -4119    -4093    -4062    -4039    -4032 
   -4031    -4038    -4072    -4137    -4187    -4145    -4008    -3883 
   -3862    -3934    -4058    -4218    -4359    -4413    -4380    -4312 
   -4226    -4097    -3933    -3799    -3756    -3817    -3939    -4052 
   -4089    -4035    -3961    -3979    -4104    -4223    -4245    -4200 
   -4177    -4220    -4302    -4374    -4427    -4469    -4477    -4392 
   -4205    -4012    -3939    -4020    -4170    -4253    -4205    -4082 
   -3962    -3880    -3849    -3882    -3957    -4004    -3981    -3912 
   -3855    -3847    -3900    -3998    -4130    -4274    -4355    -4303 
   -4143    -3983    -3936    -4006    -4079    -4063    -3998    -3955 
   -3955    -4004    -4101    -4201    -4260    -4272    -4234    -4163 
   -4118    -4169    -4328    -4527    -4658    -4651    -4527    -4374 
   -4260    -4197    -4171    -4169    -4188    -4203    -4160    -4037 
   -3876    -3717    -3583    -3504    -3531    -3672    -3849    -3979 
   -4043    -4086    -4153    -4212    -4186    -4064    -3933    -3888 
   -3952    -4071    -4167    -4197    -4189    -4177    -4135    -4043 
   -3982    -4054    -4240    -4414    -4477    -4438    -4393    -4417 
   -4492    -4544    -4536    -4477    -4376    -4253    -4160    -4139 
   -4185    -4229    -4176    -3989    -3707    -3384    -3114    -3026 
   -3166    -3446    -3718    -3865    -3890    -3885    -3904    -3945 
   -4033    -4206    -4453    -4683    -4803    -4804    -4744    -4690 
   -4677    -4701    -4728    -4707    -4591    -4405    -4226    -4099 
   -4003    -3893    -3754    -3629    -3560    -3544    -3572    -3639 
   -3724    -3817    -3905    -3952    -3951    -3971    -4078    -4229 
   -4316    -4321    -4309    -4285    -4216    -4127    -4082    -4106 
   -4172    -4219    -4196    -4104    -4009    -3972    -3992    -4052 
   -4151    -4250    -4257    -4171    -4125    -4198    -4283    -4255 
   -4156    -4078    -4015    -3942    -3927    -4041    -4237    -4405 
   -4446    -4313    -4090    -3953    -3989    -4132    -4269    -4311 
   -4256    -4163    -4065    -3951    -3830    -3755    -3782    -3895 
   -4009    -4045    -3996    -3926    -3914    -3979    -4078    -4151 
   -4175    -4175    -4174    -4183    -4210    -4247    -4268    -4296 
   -4368    -4440    -4403    -4202    -3935    -3785    -3844    -4038 
   -4216    -4270    -4196    -4077    -4002    -3998    -4035    -4091 
   -4157    -4213    -4238    -4222    -4167    -4091    -4037    -4039 
   -4069    -4059    -4009    -3999    -4050    -4087    -4046    -3966 
   -3953    -4050    -4187    -4259    -4227    -4137    -4069    -4063 
   -4099    -4142    -4170    -4157    -4084    -3980    -3905    -3874 
   -3879    -3928    -4019    -4126    -4224    -4281    -4278    -4234 
   -4192    -4219    -4357    -4563    -4721    -4735    -4601    -4393 
   -4193    -4068    -4039    -4052    -4021    -3922    -3796    -3687 
   -3617    -3597    -3631    -3700    -3755    -3769    -3774    -3820 
   -3926    -4063    -4160    -4170    -4138    -4159    -4274    -4409 
   -4466    -4445    -4403    -4364    -4331    -4333    -4399    -4496 
   -4533    -4458    -4314    -4165    -4048    -3985    -3960    -3926 
   -3871    -3857    -3928    -4024    -4057    -4003    -3900    -3809 
   -3788    -3850    -3949    -4025    -4065    -4088    -4089    -4050 
   -3998    -3995    -4063    -4157    -4221    -4228    -4201    -4210 
   -4275    -4313    -4285    -4253    -4254    -4269    -4294    -4353 
   -4436    -4466    -4375    -4201    -4038    -3954    -3989    -4104 
   -4169    -4105    -3979    -3905    -3921    -3983    -4021    -3969 
   -3838    -3755    -3837    -4018    -4147    -4170    -4104    -3962 
   -3779    -3641    -3629    -3729    -3854    -3964    -4081    -4207 
   -4320    -4408    -4448    -4419    -4341    -4274    -4294    -4434 
   -4617    -4710    -4662    -4524    -4365    -4206    -4056    -3958 
   -3970    -4102    -4260    -4294    -4158    -3953    -3796    -3717 
   -3686    -3703    -3807    -3980    -4120    -4148    -4083    -4002 
   -3942    -3888    -3846    -3846    -3894    -3983    -4110    -4248 
   -4347    -4388    -4400    -4405    -4400    -4348    -4211    -4030 
   -3918    -3957    -4107    -4245    -4267    -4140    -3922    -3746 
   -3731    -3882    -4103    -4290    -4373    -4326    -4218    -4168 
   -4226    -4338    -4384    -4296    -4146    -4035    -3989    -3992 
   -4024    -4073    -4128    -4161    -4151    -4112    -4070    -4019 
   -3945    -3885    -3897    -3967    -4020    -4020    -4017    -4057 
   -4085    -4031    -3946    -3947    -4070    -4238    -4352    -4374 
   -4294    -4134    -3997    -3992    -4074    -4127    -4123    -4094 
   -4072    -4082    -4124    -4194    -4297    -4408    -4465    -4432 
   -4352    -4293    -4259    -4211    -4154    -4121    -4117    -4133 
   -4140    -4083    -3967    -3857    -3785    -3750    -3773    -3867 
   -3999    -4109    -4122    -3979    -3751    -3606    -3636    -3790 
   -3944    -4025    -4067    -4146    -4287    -4446    -4566    -4619 
   -4583    -4460    -4310    -4237    -4297    -4443    -4565    -4554 
   -4393    -4188    -4038    -3960    -3950    -3957    -3899    -3783 
   -3683    -3640    -3670    -3771    -3870    -3890    -3864    -3895 
   -4010    -4115    -4129    -4080    -4027    -4026    -4118    -4276 
   -4397    -4394    -4249    -4021    -3835    -3798    -3903    -4059 
   -4180    -4231    -4236    -4248    -4284    -4329    -4377    -4405 
   -4363    -4267    -4184    -4147    -4131    -4112    -4090    -4060 
   -4003    -3919    -3849    -3843    -3936    -4122    -4353    -4554 
   -4629    -4522    -4273    -3986    -3765    -3684    -3764    -3942 
   -4124    -4261    -4337    -4321    -4204    -4065    -4049    -4194 
   -4385    -4505    -4543    -4538    -4492    -4375    -4197    -4032 
   -3948    -3946    -3971    -3940    -3820    -3669    -3559    -3534 
   -3635    -3860    -4115    -4279    -4302    -4210    -4054    -3888 
   -3756    -3664    -3582    -3521    -3570    -3768    -4051    -4344 
   -4594    -4745    -4799    -4800    -4764    -4662    -4500    -4324 
   -4174    -4095    -4114    -4159    -4129    -4023    -3933    -3930 
   -4019    -4178    -4381    -4576    -4700    -4701    -4549    -4289 
   -4030    -3842    -3761    -3800    -3876    -3852    -3702    -3532 
   -3425    -3365    -3342    -3414    -3604    -3823    -3954    -3951 
   -3847    -3709    -3593    -3532    -3539    -3636    -3836    -4119 
   -4434    -4741    -4989    -5107    -5043    -4842    -4632    -4508 
   -4488    -4539    -4588    -4593    -4607    -4671    -4723    -4653 
   -4455    -4270    -4247    -4394    -4583    -4661    -4567    -4346 
   -4097    -3906    -3812    -3809    -3830    -3772    -3598    -3361 
   -3144    -3018    -3013    -3091    -3185    -3263    -3358    -3524 
   -3762    -4003    -4210    -4407    -4607    -4752    -4757    -4591 
   -4308    -3972    -3645    -3398    -3271    -3285    -3434    -3638 
   -3782    -3845    -3918    -4099    -4398    -4763    -5174    -5617 
   -6006    -6259    -6397    -6488    -6537    -6460    -6142    -5562 
   -4855    -4188    -3607    -3046    -2480    -2015    -1753    -1660 
   -1638    -1649    -1722    -1886    -2136    -2481    -2950    -3503 
   -3978    -4214    -4187    -3997    -3818    -3872    -4276    -4938 
   -5612    -5996    -5899    -5458    -5096    -5138    -5540    -5994 
   -6179    -5981    -5531    -5017    -4543    -4180    -3973    -3910 
   -3938    -3950    -3821    -3510    -3090    -2671    -2335    -2154 
   -2230    -2593    -3086    -3456    -3547    -3426    -3299    -3329 
   -3590    -4055    -4583    -5064    -5489    -5862    -6129    -6176 
   -5929    -5455    -4911    -4455    -4202    -4158    -4218    -4266 
   -4191    -3896    -3407    -2904    -2576    -2482    -2554    -2682 
   -2770    -2767    -2693    -2632    -2673    -2879    -3285    -3889 
   -4645    -5463    -6205    -6723    -6949    -6943    -6786    -6505 
   -6106    -5602    -5016    -4418    -3918    -3556    -3231    -2829 
   -2372    -1964    -1673    -1542    -1628    -1942    -2417    -2976 
   -3553    -4092    -4593    -5062    -5443    -5667    -5736    -5696 
   -5579    -5409    -5215    -5039    -4930    -4887    -4812    -4576 
   -4123    -3515    -2883    -2378    -2126    -2154    -2380    -2689 
   -2982    -3259    -3622    -4124    -4680    -5159    -5471    -5580 
   -5499    -5273    -4963    -4640    -4385    -4260    -4253    -4289 
   -4320    -4346    -4386    -4461    -4556    -4618    -4612    -4565 
   -4540    -4579    -4681    -4800    -4883    -4888    -4762    -4425 
   -3846    -3105    -2382    -1848    -1529    -1322    -1163    -1087 
   -1191    -1566    -2186    -2909    -3593    -4201    -4777    -5301 
   -5717    -6065    -6429    -6794    -7015    -6930    -6515    -5899 
   -5209    -4482    -3769    -3240    -3067    -3227    -3508    -3719 
   -3788    -3719    -3562    -3420    -3452    -3780    -4340    -4882 
   -5142    -5002    -4577    -4164    -4038    -4269    -4679    -4991 
   -5053    -4912    -4675    -4413    -4121    -3753    -3330    -2932 
   -2611    -2378    -2246    -2264    -2449    -2706    -2917    -3103 
   -3381    -3774    -4148    -4342    -4361    -4376    -4508    -4709 
   -4870    -4954    -5026    -5163    -5351    -5498    -5535    -5526 
   -5587    -5751    -5924    -5959    -5813    -5577    -5329    -5047 
   -4574    -3757    -2708    -1767    -1226    -1166    -1424    -1734 
   -2008    -2337    -2730    -3067    -3235    -3254    -3306    -3559 
   -4010    -4522    -4928    -5137    -5155    -5017    -4807    -4669 
   -4724    -4984    -5337    -5623    -5737    -5661    -5449    -5238 
   -5174    -5230    -5219    -5011    -4629    -4153    -3632    -3089 
   -2528    -1944    -1389     -984     -849    -1030    -1485    -2113 
   -2791    -3445    -4094    -4774    -5504    -6286    -7053    -7666 
   -7956    -7778    -7130    -6164    -5070    -4042    -3271    -2862 
   -2776    -2887    -3074    -3228    -3232    -3089    -2990    -3099 
   -3403    -3799    -4142    -4224    -3901    -3278    -2696    -2503 
   -2810    -3409    -3945    -4142    -3993    -3797    -3890    -4342 
   -4941    -5437    -5729    -5836    -5803    -5680    -5529    -5407 
   -5358    -5408    -5551    -5715    -5753    -5532    -5051    -4456 
   -3933    -3562    -3263    -2911    -2506    -2177    -2024    -2022 
   -2054    -2025    -1951    -1898    -1886    -1944    -2148    -2542 
   -3078    -3637    -4079    -4341    -4533    -4826    -5299    -5918 
   -6530    -6939    -7042    -6840    -6414    -5923    -5534    -5318 
   -5169    -4878    -4371    -3785    -3325    -3136    -3235    -3513 
   -3810    -3994    -4027    -3954    -3820    -3623    -3382    -3163 
   -3015    -2922    -2863    -2874    -2995    -3223    -3516    -3834 
   -4177    -4524    -4785    -4897    -4898    -4859    -4814    -4750 
   -4583    -4216    -3668    -3118    -2800    -2833    -3107    -3392 
   -3569    -3703    -3918    -4262    -4679    -5087    -5416    -5593 
   -5570    -5421    -5299    -5265    -5239    -5086    -4769    -4411 
   -4143    -3982    -3887    -3795    -3653    -3446    -3157    -2782 
   -2433    -2285    -2401    -2705    -3084    -3470    -3853    -4224 
   -4560    -4867    -5166    -5437    -5604    -5590    -5402    -5109 
   -4764    -4383    -4001    -3696    -3521    -3412    -3230    -2915 
   -2635    -2691    -3180    -3914    -4592    -4964    -4987    -4840 
   -4739    -4780    -4917    -5045    -5104    -5088    -4966    -4709 
   -4337    -3872    -3350    -2920    -2774    -2951    -3295    -3593 
   -3743    -3809    -3889    -4006    -4114    -4170    -4179    -4172 
   -4129    -3991    -3792    -3696    -3781    -3910    -3915    -3783 
   -3635    -3577    -3614    -3718    -3863    -4007    -4164    -4418 
   -4738    -4978    -5060    -5019    -4941    -4889    -4875    -4876 
   -4837    -4742    -4628    -4515    -4419    -4359    -4320    -4290 
   -4269    -4246    -4191    -4065    -3894    -3759    -3676    -3592 
   -3478    -3351    -3238    -3147    -3071    -3006    -2986    -3083 
   -3327    -3663    -3974    -4177    -4291    -4377    -4466    -4570 
   -4691    -4805    -4901    -4977    -4994    -4923    -4789    -4644 
   -4534    -4478    -4450    -4428    -4429    -4465    -4481    -4385 
   -4139    -3815    -3516    -3278    -3091    -2944    -2869    -2895 
   -3009    -3176    -3348    -3477    -3561    -3644    -3771    -3967 
   -4230    -4520    -4794    -5038    -5241    -5395    -5497    -5558 
   -5606    -5652    -5638    -5465    -5096    -4592    -4034    -3497 
   -3084    -2880    -2864    -2907    -2894    -2821    -2737    -2701 
   -2772    -2968    -3263    -3617    -3984    -4306    -4511    -4553 
   -4466    -4343    -4291    -4372    -4588    -4880    -5141    -5289 
   -5337    -5355    -5388    -5415    -5374    -5255    -5101    -4907 
   -4621    -4240    -3841    -3498    -3194    -2868    -2527    -2252 
   -2113    -2142    -2334    -2623    -2861    -2944    -2964    -3126 
   -3529    -4097    -4682    -5188    -5594    -5882    -6012    -5987 
   -5874    -5744    -5627    -5494    -5289    -4983    -4569    -4041 
   -3457    -2974    -2737    -2737    -2847    -2961    -3033    -3062 
   -3085    -3178    -3427    -3846    -4334    -4704    -4787    -4568 
   -4212    -3942    -3890    -4032    -4264    -4504    -4687    -4726 
   -4612    -4462    -4391    -4426    -4511    -4552    -4512    -4413 
   -4265    -4071    -3886    -3791    -3781    -3757    -3667    -3584 
   -3600    -3700    -3764    -3722    -3638    -3628    -3751    -3954 
   -4139    -4285    -4438    -4604    -4740    -4822    -4875    -4932 
   -4938    -4819    -4609    -4418    -4307    -4259    -4216    -4122 
   -3944    -3688    -3432    -3286    -3304    -3459    -3640    -3756 
   -3793    -3777    -3731    -3671    -3608    -3577    -3645    -3860 
   -4189    -4524    -4770    -4881    -4860    -4777    -4726    -4742 
   -4788    -4807    -4748    -4568    -4233    -3780    -3354    -3117 
   -3106    -3212    -3297    -3306    -3289    -3333    -3475    -3695 
   -3960    -4265    -4617    -4977    -5265    -5441    -5508    -5442 
   -5249    -5027    -4904    -4911    -4968    -4933    -4711    -4321 
   -3854    -3415    -3069    -2817    -2655    -2581    -2556    -2548 
   -2601    -2762    -3004    -3250    -3430    -3520    -3595    -3797 
   -4213    -4773    -5285    -5567    -5576    -5451    -5400    -5512 
   -5696    -5772    -5637    -5327    -4934    -4530    -4137    -3760 
   -3442    -3208    -3021    -2854    -2728    -2670    -2689    -2769 
   -2888    -3058    -3307    -3616    -3913    -4117    -4184    -4158 
   -4171    -4350    -4699    -5083    -5341    -5388    -5227    -4923 
   -4590    -4336    -4221    -4255    -4377    -4443    -4330    -4067 
   -3779    -3584    -3549    -3656    -3831    -4023    -4178    -4246 
   -4230    -4177    -4147    -4175    -4252    -4356    -4475    -4554 
   -4513    -4346    -4148    -3993    -3871    -3757    -3671    -3640 
   -3634    -3582    -3480    -3419    -3494    -3719    -3998    -4169 
   -4156    -4064    -4046    -4149    -4323    -4452    -4464    -4414 
   -4375    -4358    -4346    -4325    -4306    -4302    -4304    -4294 
   -4282    -4281    -4307    -4371    -4445    -4472    -4404    -4245 
   -4036    -3834    -3687    -3612    -3605    -3674    -3796    -3893 
   -3901    -3839    -3774    -3760    -3804    -3883    -3988    -4096 
   -4153    -4130    -4085    -4110    -4243    -4448    -4654    -4804 
   -4869    -4864    -4823    -4755    -4639    -4490    -4326    -4114 
   -3829    -3498    -3157    -2876    -2758    -2845    -3054    -3245 
