Origin Time       2025/03/30 10:18:00
Lat.              34.667
Long.             140.825
Depth. (km)       69
Mag.              4.9
Station Code      YMNH14
Station Lat.      35.5115
Station Long.     138.9675
Station Height(m) 1010
Record Time       2025/03/30 10:19:21
Sampling Freq(Hz) 100Hz
Duration Time(s)  120
Dir.              6
Scale Factor      7845(gal)/8223790
Max. Acc. (gal)   1.143
Last Correction   2025/03/30 10:19:21
Memo.             
[...]
    8255     8588     8739     8595     8344     8160     8024     7861 
    7830     8117     8540     8738     8606     8347     8201     8248 
    8378     8363     8182     8131     8262     8267     8159     8210 
    8348     8407     8407     8340     8306     8426     8509     8349 
    8071     7916     7985     8141     8222     8316     8491     8572 
    8542     8519     8363     8058     7932     8094     8307     8455 
    8581     8606     8444     8237     8145     8116     8040     8044 
    8232     8415     8469     8479     8444     8310     8176     8194 
    8320     8402     8399     8321     8189     8106     8102     8154 
    8353     8691     8874     8648     8116     7682     7635     7908 
    8330     8743     8911     8719     8287     7859     7770     8137 
    8603     8814     8741     8415     7939     7676     7823     8178 
    8540     8781     8689     8259     7938     8036     8268     8344 
    8325     8264     8266     8464     8630     8479     8148     7909 
    7889     8121     8455     8654     8648     8442     8117     7979 
    8220     8581     8642     8247     7778     7777     8179     8515 
    8653     8676     8591     8415     8170     7967     8027     8289 
    8441     8388     8313     8297     8283     8253     8199     8190 
    8330     8513     8525     8334     8149     8143     8222     8263 
    8299     8355     8410     8384     8198     8043     8141     8329 
    8424     8444     8338     8141     8083     8229     8395     8402 
    8268     8252     8418     8417     8187     8167     8415     8525 
    8371     8186     8081     8056     8201     8452     8534     8376 
    8208     8183     8251     8365     8503     8533     8356     8091 
    8004     8171     8370     8418     8403     8406     8355     8213 
    8094     8140     8297     8430     8492     8410     8241     8217 
    8282     8259     8244     8264     8260     8324     8390     8311 
    8210     8222     8297     8348     8324     8317     8419     8479 
    8402     8253     8044     7956     8199     8492     8463     8248 
    8193     8344     8475     8478     8445     8370     8209     8032 
    7873     7847     8124     8500     8633     8568     8518     8452 
    8293     8125     8046     8090     8248     8425     8488     8314 
    8037     8052     8375     8591     8572     8487     8361     8193 
    8060     8023     8167     8459     8575     8401     8233     8210 
    8251     8337     8357     8217     8098     8181     8386     8505 
    8459     8353     8228     8086     8081     8245     8425     8519 
    8455     8283     8235     8268     8213     8255     8444     8440 
    8217     8114     8210     8330     8405     8432     8372     8262 
    8208     8228     8210     8143     8203     8394     8433     8282 
    8191     8203     8235     8364     8537     8509     8318     8189 
    8120     8078     8136     8247     8344     8451     8532     8502 
    8351     8201     8185     8278     8375     8348     8164     8037 
    8144     8352     8448     8424     8401     8382     8314     8279 
    8294     8176     7986     8001     8239     8518     8691     8645 
    8449     8301     8206     8116     8070     8070     8166     8411 
    8604     8515     8237     8016     8013     8224     8465     8581 
    8538     8356     8122     7954     7935     8108     8406     8677 
    8752     8553     8298     8233     8272     8240     8162     8139 
    8147     8120     8137     8309     8525     8600     8544     8399 
    8183     8075     8155     8245     8259     8230     8170     8148 
    8256     8502     8739     8742     8502     8162     7830     7738 
    7986     8303     8483     8534     8475     8372     8297     8271 
    8352     8486     8438     8167     7967     8060     8284     8386 
    8374     8388     8433     8437     8338     8155     8094     8251 
    8375     8294     8208     8297     8473     8544     8359     8032 
    7986     8252     8351     8247     8321     8554     8698     8610 
    8249     7877     7824     8083     8409     8563     8476     8364 
    8340     8266     8189     8309     8478     8394     8118     7955 
    8066     8357     8580     8538     8307     8170     8202     8187 
    8124     8197     8357     8455     8406     8239     8151     8267 
    8445     8480     8306     8083     8095     8356     8533     8452 
    8274     8132     8070     8175     8352     8395     8398     8476 
    8478     8310     8105     8004     8079     8298     8496     8536 
    8438     8311     8271     8325     8351     8333     8280     8100 
    7952     8095     8391     8610     8680     8488     8131     7966 
    8067     8185     8224     8344     8579     8675     8479     8214 
    8117     8172     8289     8348     8244     8097     8125     8326 
    8546     8623     8461     8193     8058     8116     8247     8329 
    8318     8278     8286     8307     8294     8287     8301     8318 
    8332     8282     8145     8041     8102     8314     8548     8652 
    8544     8318     8151     8149     8309     8483     8472     8220 
    7960     7942     8129     8392     8596     8590     8451     8329 
    8201     8124     8167     8181     8202     8361     8495     8482 
    8392     8286     8240     8264     8267     8274     8321     8298 
    8225     8216     8220     8235     8360     8448     8316     8109 
    8059     8210     8410     8491     8506     8522     8445     8307 
    8241     8201     8090     8039     8191     8388     8414     8343 
    8332     8365     8344     8276     8275     8345     8345     8245 
    8212     8262     8228     8168     8271     8446     8540     8509 
    8290     8023     7969     8095     8233     8378     8487     8463 
    8386     8388     8371     8257     8237     8322     8263     8145 
    8199     8294     8325     8382     8407     8336     8255     8209 
    8176     8148     8187     8361     8521     8463     8257     8091 
    8102     8286     8426     8410     8399     8434     8382     8253 
    8179     8243     8363     8303     8116     8117     8282     8353 
    8338     8353     8399     8433     8410     8290     8171     8235 
    8438     8492     8245     7898     7800     8101     8554     8723 
    8533     8301     8229     8266     8310     8298     8263     8299 
    8309     8162     8050     8194     8483     8645     8530     8274 
    8117     8117     8225     8320     8230     8105     8247     8513 
    8565     8430     8326     8293     8222     8085     8035     8168 
    8344     8432     8448     8445     8446     8429     8347     8152 
    7942     7978     8257     8417     8349     8311     8384     8418 
    8361     8306     8324     8353     8329     8301     8247     8121 
    8120     8352     8581     8603     8468     8274     8077     7960 
    8010     8186     8338     8410     8476     8577     8577     8344 
    8031     7921     8064     8257     8343     8371     8401     8370 
    8287     8290     8378     8410     8384     8378     8353     8283 
    8199     8085     7992     8094     8372     8576     8591     8471 
    8313     8224     8222     8202     8132     8109     8185     8329 
    8467     8509     8476     8459     8398     8218     8033     7998 
    8158     8409     8503     8352     8160     8131     8276     8475 
    8549     8445     8325     8241     8068     7920     8012     8237 
    8429     8595     8664     8533     8324     8191     8121     8106 
    8198     8297     8282     8267     8379     8487     8418     8235 
    8118     8162     8313     8444     8475     8364     8136     7977 
    8043     8249     8446     8561     8542     8402     8249     8166 
    8160     8214     8283     8329     8301     8232     8293     8465 
    8503     8353     8241     8263     8264     8233     8314     8375 
    8262     8179     8197     8193     8276     8414     8379     8228 
    8159     8248     8424     8448     8257     8127     8206     8338 
    8401     8391     8367     8398     8376     8217     8074     8089 
    8266     8456     8464     8382     8367     8332     8291     8290 
    8176     8024     8122     8384     8514     8467     8325     8166 
    8117     8217     8364     8457     8418     8229     8063     8116 
    8289     8375     8410     8482     8495     8379     8221     8141 
    8176     8283     8391     8410     8307     8208     8209     8239 
    8280     8410     8491     8355     8160     8129     8247     8371 
    8356     8243     8244     8386     8492     8436     8217     8039 
    8101     8309     8457     8445     8297     8189     8243     8333 
    8320     8252     8199     8190     8267     8370     8371     8318 
    8320     8352     8355     8284     8172     8124     8198     8388 
    8575     8576     8392     8174     8025     8009     8112     8275 
    8461     8581     8563     8451     8293     8141     8102     8190 
    8310     8368     8332     8244     8155     8129     8241     8407 
    8480     8486     8463     8338     8164     8048     8010     8128 
    8411     8610     8548     8360     8217     8143     8166     8316 
    8442     8398     8275     8174     8143     8245     8357     8341 
    8332     8384     8372     8293     8209     8104     8062     8244 
    8525     8584     8426     8320     8337     8306     8170     8129 
    8257     8318     8249     8226     8252     8257     8329     8465 
    8510     8383     8163     8040     8132     8313     8438     8532 
    8494     8237     8039     8101     8276     8428     8475     8361 
    8230     8194     8195     8233     8305     8336     8330     8283 
    8171     8118     8248     8457     8537     8451     8359     8341 
    8352     8348     8322     8302     8255     8094     7960     8064 
    8344     8544     8505     8318     8225     8284     8353     8357 
    8310     8218     8160     8217     8289     8279     8307     8421 
    8456     8357     8266     8241     8264     8355     8464     8476 
    8345     8143     8029     8124     8360     8608     8729     8554 
    8171     7892     7870     8051     8293     8455     8486     8382 
    8174     8050     8151     8282     8275     8322     8500     8572 
    8425     8213     8108     8137     8195     8228     8301     8394 
    8424     8341     8121     7947     8063     8336     8560     8726 
    8762     8591     8266     7938     7843     8047     8329     8488 
    8483     8364     8235     8108     7973     8009     8267     8455 
    8446     8429     8442     8403     8367     8340     8287     8310 
    8379     8301     8131     8082     8183     8305     8340     8275 
    8260     8426     8580     8513     8344     8253     8256     8262 
    8181     8094     8124     8249     8419     8509     8426     8397 
    8513     8471     8187     7997     8094     8275     8316     8226 
    8151     8230     8448     8567     8457     8316     8309     8270 
    8031     7823     7955     8287     8492     8534     8515     8480 
    8444     8355     8193     8110     8266     8507     8487     8225 
    8118     8282     8448     8487     8449     8372     8324     8314 
    8218     7993     7819     7938     8294     8494     8370     8168 
    8089     8137     8293     8434     8479     8518     8586     8565 
    8409     8263     8307     8455     8482     8370     8191     7977 
    7820     7828     8014     8279     8417     8387     8348     8392 
    8538     8726     8725     8424     8079     7942     7981     8093 
    8263     8492     8669     8625     8370     8068     7915     8104 
    8540     8816     8741     8357     7797     7443     7565     7948 
    8320     8587     8672     8592     8487     8425     8368     8320 
    8299     8270     8201     8141     8205     8415     8546     8436 
    8290     8271     8226     8160     8271     8457     8510     8486 
    8460     8378     8235     8005     7699     7541     7684     8075 
    8569     8874     8808     8537     8289     8156     8148     8218 
    8422     8761     8907     8629     8167     7888     7955     8287 
    8587     8607     8351     7992     7796     7924     8166     8228 
    8163     8135     8187     8294     8380     8442     8596     8850 
    8966     8702     8154     7700     7653     8021     8522     8826 
    8861     8739     8463     8082     7857     7863     7921     7981 
    8091     8147     8091     8109     8271     8397     8405     8384 
    8428     8559     8646     8549     8324     8090     7985     8127 
    8364     8518     8675     8775     8638     8364     8154     8051 
    8027     8024     8060     8235     8467     8598     8599     8471 
    8275     8163     8136     8105     8064     8033     8059     8195 
    8348     8380     8365     8446     8571     8533     8193     7719 
    7551     7832     8268     8602     8721     8677     8676     8727 
    8681     8523     8249     7923     7746     7777     7987     8394 
    8768     8804     8568     8290     8074     8025     8179     8371 
    8469     8479     8359     8125     8033     8166     8257     8237 
    8272     8318     8262     8182     8166     8268     8499     8604 
    8372     8082     8117     8465     8830     8947     8781     8473 
    8174     7951     7807     7727     7769     7990     8325     8625 
    8741     8549     8118     7827     7993     8506     9009     9177 
    8820     8067     7371     7098     7256     7731     8390     8970 
    9256     9143     8625     7958     7545     7607     8062     8598 
    8911     8908     8660     8316     8086     8137     8414     8640 
    8614     8434     8232     8013     7896     8037     8334     8595 
    8708     8499     7992     7619     7649     7913     8262     8580 
    8683     8579     8399     8172     7966     7912     8093     8409 
    8575     8490     8357     8309     8326     8418     8515     8464 
    8282     8171     8251     8382     8380     8310     8271     8156 
    7940     7843     8009     8405     8887     9104     8765     8105 
    7568     7447     7909     8719     9269     9243     8806     8237 
    7789     7614     7674     7871     8116     8324     8495     8618 
    8591     8457     8361     8278     8068     7785     7757     8158 
    8635     8806     8739     8556     8310     8251     8455     8646 
    8652     8487     8163     7809     7723     8005     8375     8571 
    8646     8627     8320     7766     7383     7447     7873     8425 
    8888     9040     8777     8305     8000     7954     7993     8174 
    8560     8814     8739     8507     8167     7817     7793     8160 
    8590     8758     8565     8141     7785     7778     8198     8723 
    8860     8580     8237     8070     8170     8440     8567     8452 
    8298     8221     8203     8213     8226     8307     8421     8383 
    8212     8055     7963     8029     8333     8689     8829     8618 
    8170     7825     7820     8102     8473     8680     8579     8311 
    8139     8176     8341     8483     8541     8483     8262     8044 
    8055     8217     8320     8321     8284     8293     8348     8289 
    8082     7962     8024     8162     8313     8394     8338     8302 
    8425     8594     8633     8452     8101     7877     8062     8478 
    8684     8542     8280     8139     8147     8220     8310     8398 
    8457     8484     8448     8301     8101     7996     8073     8290 
    8500     8541     8425     8310     8252     8201     8133     8104 
    8159     8233     8244     8212     8170     8172     8313     8534 
    8665     8635     8446     8152     7901     7900     8224     8642 
    8835     8727     8484     8282     8133     7994     7928     8051 
    8355     8633     8635     8351     7996     7820     7933     8187 
    8332     8334     8307     8310     8379     8445     8398     8375 
    8461     8403     8159     7983     7927     8027     8382     8710 
    8715     8552     8430     8349     8244     8101     8031     8135 
    8352     8569     8644     8460     8155     8014     8132     8403 
    8658     8700     8441     8112     7990     8025     8137     8374 
    8584     8573     8394     8156     7874     7647     7711     8121 
    8588     8773     8611     8294     8075     8109     8291     8379 
    8359     8352     8328     8290     8309     8337     8338     8297 
    8193     8201     8417     8610     8557     8309     8070     8031 
    8190     8370     8433     8386     8341     8379     8397     8255 
    8052     8021     8236     8545     8671     8436     8046     7909 
    8086     8341     8544     8630     8549     8344     8090     7931 
    8046     8316     8486     8532     8430     8186     8036     8110 
    8268     8451     8603     8546     8278     7960     7812     8041 
    8446     8594     8472     8313     8210     8195     8264     8359 
    8387     8309     8271     8379     8446     8320     8205     8314 
    8484     8484     8336     8112     7911     7942     8168     8280 
    8268     8407     8640     8653     8424     8118     7909     8010 
    8397     8691     8653     8422     8240     8185     8175     8172 
    8236     8353     8442     8430     8290     8140     8162     8302 
    8301     8089     7917     8035     8328     8546     8606     8482 
    8235     8085     8106     8168     8221     8353     8548     8638 
    8569     8413     8235     8120     8141     8233     8313     8401 
    8492     8490     8363     8212     8122     8087     8050     8024 
    8105     8349     8626     8722     8571     8295     8091     8075 
    8145     8208     8355     8596     8739     8654     8363     8020 
    7823     7793     7925     8276     8649     8754     8554     8163 
    7882     8006     8361     8611     8642     8432     8100     7919 
    7971     8195     8519     8687     8517     8235     8145     8276 
    8434     8428     8325     8306     8320     8286     8284     8274 
    8178     8162     8337     8496     8419     8167     7959     7969 
    8218     8503     8567     8433     8336     8403     8468     8260 
    7893     7780     7981     8260     8509     8631     8529     8374 
    8320     8236     8108     8094     8199     8333     8438     8460 
    8440     8445     8411     8330     8286     8266     8278     8338 
    8372     8382     8402     8351     8213     8106     8122     8226 
    8310     8351     8406     8463     8437     8299     8109     7954 
    7955     8191     8515     8629     8441     8144     7969     8012 
    8228     8484     8615     8526     8279     8035     7962     8136 
    8415     8554     8486     8363     8332     8330     8264     8220 
    8286     8395     8446     8388     8203     8058     8136     8295 
    8332     8301     8266     8256     8321     8397     8390     8333 
    8289     8291     8329     8325     8248     8218     8318     8445 
    8478     8383     8253     8232     8282     8228     8070     8004 
    8116     8313     8469     8495     8391     8297     8266     8217 
    8159     8152     8203     8321     8449     8465     8374     8268 
    8179     8132     8175     8275     8370     8424     8403     8380 
    8394     8325     8216     8224     8299     8321     8290     8235 
