Origin Time       2025/03/30 10:18:00
Lat.              34.667
Long.             140.825
Depth. (km)       69
Mag.              4.9
Station Code      YMNH16
Station Lat.      35.7421
Station Long.     138.5653
Station Height(m) 595
Record Time       2025/03/30 10:19:31
Sampling Freq(Hz) 100Hz
Duration Time(s)  120
Dir.              5
Scale Factor      7845(gal)/8223790
Max. Acc. (gal)   0.712
Last Correction   2025/03/30 10:19:31
Memo.             
[...]
   -2547    -2525    -2489    -2501    -2500    -2448    -2415    -2403 
   -2413    -2497    -2563    -2504    -2425    -2439    -2513    -2567 
   -2501    -2370    -2378    -2497    -2566    -2575    -2540    -2489 
   -2486    -2501    -2505    -2490    -2417    -2378    -2435    -2486 
   -2508    -2544    -2552    -2512    -2447    -2393    -2446    -2538 
   -2516    -2475    -2515    -2525    -2458    -2411    -2465    -2562 
   -2569    -2490    -2431    -2396    -2374    -2434    -2527    -2529 
   -2494    -2527    -2566    -2516    -2436    -2403    -2423    -2496 
   -2550    -2524    -2494    -2519    -2517    -2448    -2404    -2458 
   -2525    -2527    -2511    -2461    -2381    -2427    -2565    -2585 
   -2501    -2430    -2388    -2416    -2496    -2513    -2473    -2492 
   -2569    -2585    -2517    -2475    -2492    -2471    -2417    -2425 
   -2481    -2502    -2501    -2517    -2540    -2546    -2513    -2428 
   -2346    -2343    -2393    -2465    -2597    -2674    -2552    -2396 
   -2373    -2425    -2489    -2536    -2519    -2431    -2371    -2412 
   -2479    -2524    -2582    -2596    -2496    -2409    -2444    -2497 
   -2490    -2471    -2470    -2477    -2490    -2543    -2589    -2524 
   -2407    -2394    -2486    -2540    -2492    -2442    -2447    -2489 
   -2566    -2602    -2543    -2474    -2452    -2442    -2457    -2482 
   -2446    -2393    -2412    -2454    -2496    -2542    -2539    -2496 
   -2466    -2424    -2408    -2463    -2498    -2484    -2474    -2471 
   -2516    -2597    -2573    -2470    -2439    -2454    -2439    -2419 
   -2439    -2502    -2521    -2455    -2439    -2542    -2617    -2566 
   -2436    -2339    -2362    -2438    -2486    -2552    -2590    -2540 
   -2520    -2548    -2496    -2435    -2490    -2521    -2408    -2323 
   -2392    -2515    -2620    -2651    -2574    -2493    -2471    -2473 
   -2455    -2381    -2313    -2357    -2486    -2619    -2660    -2565 
   -2427    -2405    -2458    -2457    -2455    -2477    -2444    -2404 
   -2432    -2493    -2529    -2552    -2578    -2536    -2401    -2285 
   -2323    -2477    -2566    -2550    -2519    -2535    -2573    -2532 
   -2469    -2498    -2528    -2482    -2415    -2373    -2409    -2528 
   -2623    -2598    -2504    -2471    -2508    -2508    -2454    -2404 
   -2377    -2382    -2484    -2620    -2596    -2454    -2412    -2489 
   -2542    -2494    -2415    -2396    -2428    -2459    -2489    -2521 
   -2539    -2550    -2569    -2550    -2469    -2384    -2373    -2457 
   -2520    -2479    -2461    -2542    -2578    -2506    -2430    -2405 
   -2444    -2504    -2502    -2459    -2425    -2435    -2516    -2583 
   -2540    -2457    -2404    -2394    -2448    -2519    -2538    -2517 
   -2488    -2485    -2527    -2529    -2481    -2481    -2512    -2492 
   -2444    -2407    -2416    -2498    -2516    -2435    -2424    -2471 
   -2497    -2511    -2484    -2443    -2465    -2515    -2538    -2532 
   -2509    -2506    -2532    -2531    -2515    -2521    -2500    -2419 
   -2370    -2393    -2408    -2425    -2492    -2528    -2513    -2531 
   -2581    -2559    -2442    -2376    -2423    -2465    -2490    -2551 
   -2554    -2485    -2473    -2511    -2473    -2374    -2386    -2516 
   -2555    -2475    -2439    -2479    -2529    -2555    -2560    -2550 
   -2511    -2447    -2389    -2351    -2394    -2524    -2569    -2505 
   -2506    -2531    -2474    -2436    -2450    -2461    -2470    -2494 
   -2490    -2434    -2430    -2527    -2585    -2543    -2481    -2411 
   -2377    -2416    -2451    -2488    -2554    -2582    -2569    -2505 
   -2412    -2411    -2475    -2502    -2496    -2490    -2485    -2459 
   -2442    -2500    -2554    -2498    -2423    -2416    -2443    -2498 
   -2508    -2428    -2428    -2539    -2569    -2497    -2430    -2411 
   -2443    -2504    -2555    -2563    -2502    -2427    -2450    -2528 
   -2544    -2500    -2465    -2467    -2485    -2493    -2477    -2466 
   -2519    -2586    -2543    -2428    -2374    -2397    -2432    -2461 
   -2478    -2485    -2508    -2523    -2527    -2524    -2485    -2455 
   -2489    -2519    -2474    -2398    -2403    -2473    -2492    -2469 
   -2497    -2544    -2509    -2427    -2428    -2498    -2524    -2501 
   -2516    -2556    -2533    -2462    -2409    -2413    -2459    -2492 
   -2474    -2431    -2446    -2533    -2575    -2540    -2521    -2531 
   -2509    -2452    -2397    -2390    -2434    -2446    -2470    -2560 
   -2579    -2500    -2444    -2446    -2508    -2583    -2555    -2428 
   -2344    -2397    -2513    -2551    -2490    -2447    -2471    -2496 
   -2523    -2531    -2451    -2394    -2451    -2513    -2524    -2508 
   -2482    -2481    -2479    -2458    -2459    -2485    -2485    -2428 
   -2397    -2477    -2562    -2550    -2540    -2555    -2489    -2386 
   -2413    -2560    -2602    -2471    -2374    -2411    -2469    -2496 
   -2533    -2555    -2523    -2471    -2436    -2423    -2409    -2409 
   -2486    -2604    -2631    -2550    -2458    -2435    -2465    -2459 
   -2439    -2482    -2513    -2477    -2461    -2466    -2447    -2444 
   -2488    -2538    -2560    -2523    -2432    -2398    -2447    -2469 
   -2473    -2525    -2554    -2517    -2469    -2447    -2454    -2469 
   -2490    -2494    -2431    -2351    -2355    -2443    -2527    -2563 
   -2583    -2589    -2567    -2539    -2496    -2446    -2434    -2451 
   -2465    -2470    -2447    -2417    -2462    -2551    -2550    -2474 
   -2452    -2492    -2501    -2469    -2454    -2482    -2502    -2502 
   -2517    -2515    -2477    -2471    -2496    -2497    -2485    -2458 
   -2430    -2444    -2485    -2492    -2457    -2434    -2454    -2470 
   -2455    -2471    -2517    -2513    -2452    -2397    -2436    -2567 
   -2620    -2529    -2436    -2416    -2427    -2455    -2511    -2567 
   -2577    -2552    -2532    -2477    -2409    -2415    -2438    -2417 
   -2432    -2512    -2594    -2613    -2565    -2505    -2459    -2457 
   -2512    -2520    -2463    -2431    -2404    -2404    -2496    -2570 
   -2547    -2486    -2428    -2427    -2492    -2502    -2436    -2405 
   -2430    -2471    -2506    -2532    -2562    -2550    -2479    -2443 
   -2469    -2488    -2474    -2431    -2390    -2416    -2493    -2544 
   -2536    -2490    -2455    -2444    -2438    -2467    -2517    -2498 
   -2450    -2452    -2486    -2504    -2509    -2516    -2490    -2440 
   -2469    -2558    -2555    -2486    -2488    -2531    -2529    -2475 
   -2425    -2434    -2478    -2504    -2488    -2461    -2479    -2521 
   -2515    -2479    -2465    -2465    -2470    -2488    -2513    -2505 
   -2451    -2443    -2509    -2544    -2527    -2498    -2440    -2390 
   -2419    -2478    -2498    -2525    -2567    -2536    -2481    -2474 
   -2454    -2421    -2412    -2380    -2371    -2454    -2574    -2639 
   -2581    -2448    -2389    -2398    -2381    -2407    -2509    -2558 
   -2532    -2535    -2570    -2555    -2504    -2475    -2435    -2400 
   -2448    -2511    -2489    -2461    -2509    -2575    -2573    -2533 
   -2508    -2448    -2359    -2339    -2405    -2477    -2532    -2563 
   -2554    -2536    -2528    -2513    -2474    -2403    -2371    -2401 
   -2434    -2481    -2524    -2529    -2578    -2636    -2560    -2435 
   -2400    -2405    -2412    -2419    -2407    -2448    -2524    -2528 
   -2543    -2587    -2542    -2444    -2389    -2377    -2392    -2455 
   -2529    -2563    -2601    -2646    -2616    -2520    -2427    -2369 
   -2394    -2436    -2403    -2397    -2485    -2548    -2524    -2488 
   -2512    -2547    -2521    -2475    -2417    -2336    -2346    -2493 
   -2628    -2625    -2571    -2578    -2551    -2417    -2319    -2332 
   -2400    -2488    -2540    -2535    -2527    -2505    -2481    -2481 
   -2473    -2465    -2459    -2411    -2370    -2398    -2478    -2604 
   -2708    -2658    -2463    -2322    -2339    -2420    -2469    -2516 
   -2548    -2505    -2443    -2448    -2506    -2554    -2551    -2488 
   -2398    -2376    -2443    -2500    -2509    -2525    -2552    -2574 
   -2550    -2462    -2415    -2419    -2398    -2413    -2502    -2548 
   -2505    -2461    -2467    -2486    -2506    -2542    -2554    -2504 
   -2442    -2431    -2455    -2479    -2535    -2598    -2593    -2516 
   -2408    -2354    -2438    -2544    -2529    -2469    -2462    -2475 
   -2475    -2466    -2465    -2488    -2511    -2501    -2486    -2484 
   -2475    -2454    -2403    -2382    -2465    -2546    -2542    -2512 
   -2478    -2446    -2450    -2465    -2469    -2501    -2515    -2446 
   -2362    -2396    -2523    -2586    -2555    -2531    -2543    -2513 
   -2427    -2396    -2447    -2489    -2485    -2451    -2463    -2563 
   -2614    -2558    -2481    -2408    -2366    -2421    -2489    -2486 
   -2485    -2506    -2509    -2511    -2509    -2492    -2500    -2519 
   -2493    -2455    -2455    -2500    -2525    -2492    -2492    -2542 
   -2538    -2488    -2484    -2489    -2435    -2382    -2390    -2434 
   -2498    -2551    -2520    -2439    -2413    -2455    -2501    -2515 
   -2512    -2501    -2469    -2432    -2455    -2542    -2594    -2548 
   -2466    -2442    -2463    -2471    -2461    -2451    -2469    -2494 
   -2485    -2446    -2440    -2511    -2560    -2504    -2432    -2436 
   -2461    -2459    -2465    -2474    -2469    -2501    -2571    -2543 
   -2425    -2415    -2490    -2498    -2470    -2470    -2486    -2513 
   -2525    -2525    -2532    -2542    -2566    -2555    -2452    -2354 
   -2351    -2388    -2450    -2544    -2567    -2486    -2442    -2501 
   -2546    -2509    -2505    -2539    -2500    -2431    -2442    -2494 
   -2509    -2498    -2477    -2438    -2400    -2405    -2457    -2489 
   -2498    -2520    -2511    -2466    -2484    -2540    -2516    -2435 
   -2392    -2408    -2471    -2538    -2517    -2421    -2401    -2489 
   -2575    -2621    -2582    -2463    -2425    -2519    -2567    -2471 
   -2381    -2425    -2496    -2493    -2496    -2521    -2519    -2509 
   -2498    -2457    -2407    -2397    -2412    -2430    -2488    -2551 
   -2548    -2520    -2532    -2548    -2502    -2447    -2438    -2431 
   -2409    -2415    -2447    -2493    -2535    -2547    -2573    -2609 
   -2556    -2415    -2300    -2259    -2286    -2378    -2497    -2563 
   -2562    -2582    -2648    -2659    -2562    -2428    -2324    -2262 
   -2242    -2290    -2423    -2551    -2601    -2612    -2601    -2555 
   -2489    -2421    -2381    -2389    -2425    -2508    -2641    -2727 
   -2654    -2504    -2469    -2524    -2517    -2481    -2505    -2525 
   -2471    -2409    -2454    -2581    -2662    -2655    -2594    -2496 
   -2363    -2269    -2299    -2411    -2485    -2524    -2581    -2610 
   -2574    -2497    -2411    -2357    -2328    -2262    -2220    -2315 
   -2492    -2616    -2655    -2643    -2590    -2525    -2469    -2407 
   -2359    -2354    -2400    -2511    -2625    -2658    -2604    -2479 
   -2363    -2377    -2506    -2662    -2764    -2714    -2539    -2394 
   -2347    -2355    -2335    -2286    -2338    -2496    -2658    -2776 
   -2793    -2693    -2528    -2304    -2084    -2039    -2201    -2404 
   -2535    -2598    -2614    -2652    -2700    -2609    -2400    -2266 
   -2286    -2343    -2336    -2332    -2380    -2488    -2666    -2802 
   -2771    -2621    -2461    -2308    -2196    -2212    -2336    -2440 
   -2490    -2589    -2739    -2806    -2762    -2637    -2427    -2173 
   -1962    -1915    -2093    -2421    -2776    -3078    -3219    -3079 
   -2728    -2377    -2141    -2061    -2127    -2308    -2554    -2729 
   -2787    -2779    -2687    -2527    -2377    -2238    -2139    -2189 
   -2332    -2432    -2496    -2544    -2513    -2436    -2423    -2432 
   -2390    -2381    -2466    -2585    -2644    -2605    -2533    -2471 
   -2450    -2533    -2643    -2667    -2658    -2682    -2762    -2856 
   -2817    -2606    -2361    -2169    -1992    -1884    -1984    -2242 
   -2461    -2585    -2664    -2740    -2795    -2740    -2558    -2338 
   -2191    -2173    -2254    -2367    -2473    -2567    -2678    -2767 
   -2754    -2646    -2535    -2442    -2346    -2286    -2350    -2536 
   -2687    -2714    -2693    -2660    -2600    -2555    -2509    -2393 
   -2254    -2133    -1999    -1937    -2061    -2336    -2629    -2806 
   -2844    -2762    -2535    -2259    -2177    -2366    -2608    -2724 
   -2764    -2793    -2810    -2791    -2677    -2488    -2343    -2301 
   -2300    -2292    -2292    -2351    -2479    -2554    -2515    -2446 
   -2361    -2224    -2081    -2004    -2054    -2251    -2538    -2826 
   -2992    -2914    -2678    -2506    -2457    -2498    -2619    -2708 
   -2694    -2629    -2573    -2542    -2513    -2462    -2401    -2332 
   -2253    -2199    -2228    -2359    -2493    -2547    -2583    -2663 
   -2710    -2609    -2363    -2137    -2087    -2231    -2484    -2731 
   -2832    -2725    -2527    -2400    -2428    -2587    -2749    -2744 
   -2560    -2430    -2490    -2596    -2570    -2428    -2300    -2214 
   -2101    -2057    -2284    -2700    -2980    -3007    -2879    -2697 
   -2497    -2258    -2034    -1966    -2069    -2231    -2357    -2423 
   -2506    -2671    -2797    -2743    -2619    -2633    -2755    -2725 
   -2455    -2185    -2200    -2494    -2778    -2803    -2641    -2479 
   -2332    -2160    -2023    -1989    -2039    -2135    -2312    -2636 
   -3014    -3229    -3191    -2911    -2436    -2022    -1973    -2284 
   -2667    -2880    -2899    -2809    -2636    -2363    -2124    -2134 
   -2334    -2466    -2469    -2439    -2350    -2168    -2056    -2114 
   -2231    -2324    -2398    -2466    -2519    -2543    -2532    -2551 
   -2694    -2901    -2983    -2890    -2781    -2727    -2610    -2478 
   -2494    -2609    -2632    -2506    -2346    -2286    -2335    -2396 
   -2434    -2442    -2338    -2087    -1834    -1796    -2085    -2594 
   -3015    -3125    -2980    -2733    -2502    -2411    -2548    -2812 
   -2914    -2768    -2587    -2415    -2151    -1944    -1999    -2286 
   -2563    -2596    -2477    -2484    -2621    -2659    -2502    -2280 
   -2158    -2173    -2241    -2332    -2444    -2528    -2617    -2755 
   -2793    -2593    -2304    -2223    -2424    -2648    -2683    -2646 
   -2668    -2682    -2620    -2489    -2384    -2427    -2533    -2502 
   -2351    -2269    -2315    -2334    -2232    -2174    -2319    -2558 
   -2686    -2647    -2500    -2357    -2338    -2463    -2619    -2744 
   -2826    -2754    -2532    -2394    -2475    -2666    -2812    -2787 
   -2597    -2398    -2282    -2226    -2253    -2346    -2366    -2295 
   -2284    -2396    -2535    -2582    -2519    -2513    -2644    -2714 
   -2601    -2392    -2209    -2161    -2245    -2377    -2519    -2600 
   -2559    -2459    -2366    -2322    -2369    -2454    -2519    -2606 
   -2713    -2737    -2623    -2492    -2511    -2621    -2632    -2539 
   -2471    -2438    -2419    -2440    -2435    -2377    -2370    -2424 
   -2431    -2354    -2295    -2358    -2508    -2691    -2872    -2948 
   -2864    -2655    -2401    -2218    -2169    -2281    -2511    -2651 
   -2547    -2351    -2305    -2420    -2550    -2581    -2521    -2465 
   -2452    -2459    -2516    -2641    -2747    -2741    -2610    -2394 
   -2169    -2057    -2139    -2304    -2434    -2532    -2590    -2608 
   -2592    -2524    -2466    -2466    -2455    -2386    -2301    -2278 
   -2358    -2470    -2539    -2579    -2596    -2592    -2582    -2539 
   -2474    -2452    -2473    -2508    -2616    -2790    -2849    -2693 
   -2439    -2270    -2246    -2276    -2317    -2401    -2493    -2520 
   -2519    -2539    -2540    -2516    -2447    -2304    -2184    -2173 
   -2251    -2373    -2527    -2678    -2752    -2744    -2714    -2668 
   -2597    -2516    -2439    -2405    -2435    -2485    -2532    -2555 
   -2493    -2431    -2511    -2625    -2602    -2466    -2326    -2245 
   -2228    -2292    -2447    -2619    -2679    -2590    -2452    -2377 
   -2405    -2484    -2484    -2386    -2326    -2374    -2473    -2570 
   -2654    -2706    -2683    -2577    -2502    -2497    -2435    -2309 
   -2269    -2343    -2442    -2528    -2628    -2728    -2739    -2614 
   -2481    -2474    -2520    -2504    -2439    -2351    -2293    -2358 
   -2509    -2620    -2662    -2627    -2447    -2185    -2085    -2245 
   -2431    -2448    -2408    -2461    -2558    -2613    -2637    -2612 
   -2513    -2417    -2367    -2331    -2334    -2419    -2555    -2675 
   -2748    -2766    -2728    -2651    -2546    -2432    -2330    -2266 
   -2288    -2377    -2482    -2575    -2597    -2536    -2478    -2488 
   -2501    -2388    -2214    -2193    -2344    -2531    -2633    -2635 
   -2656    -2728    -2671    -2452    -2270    -2218    -2245    -2347 
   -2502    -2612    -2614    -2533    -2459    -2477    -2562    -2620 
   -2614    -2532    -2405    -2343    -2398    -2490    -2558    -2589 
   -2570    -2543    -2494    -2376    -2290    -2346    -2455    -2512 
   -2540    -2562    -2562    -2579    -2628    -2629    -2531    -2389 
   -2296    -2281    -2323    -2376    -2415    -2492    -2606    -2640 
   -2567    -2478    -2412    -2376    -2377    -2409    -2451    -2508 
   -2554    -2538    -2505    -2504    -2498    -2470    -2444    -2457 
   -2489    -2501    -2528    -2608    -2687    -2698    -2674    -2666 
   -2601    -2430    -2257    -2178    -2209    -2347    -2508    -2559 
   -2479    -2390    -2405    -2485    -2516    -2484    -2442    -2435 
   -2457    -2475    -2475    -2488    -2573    -2678    -2652    -2496 
   -2362    -2350    -2425    -2479    -2435    -2343    -2346    -2493 
   -2636    -2652    -2601    -2593    -2579    -2466    -2332    -2332 
   -2462    -2542    -2505    -2494    -2582    -2670    -2662    -2578 
   -2490    -2421    -2385    -2381    -2353    -2317    -2374    -2497 
   -2601    -2670    -2667    -2556    -2404    -2326    -2328    -2343 
   -2408    -2547    -2614    -2578    -2601    -2673    -2639    -2521 
   -2392    -2295    -2290    -2350    -2438    -2533    -2567    -2548 
   -2546    -2533    -2446    -2338    -2316    -2367    -2415    -2454 
   -2517    -2585    -2616    -2594    -2509    -2398    -2342    -2369 
   -2417    -2405    -2397    -2498    -2619    -2643    -2573    -2478 
   -2459    -2474    -2458    -2484    -2529    -2489    -2455    -2550 
   -2651    -2620    -2512    -2424    -2369    -2323    -2312    -2400 
   -2523    -2567    -2566    -2583    -2583    -2558    -2505    -2443 
   -2432    -2416    -2355    -2338    -2393    -2488    -2592    -2660 
   -2704    -2695    -2544    -2335    -2247    -2285    -2358    -2405 
   -2431    -2506    -2610    -2632    -2583    -2558    -2515    -2411 
   -2340    -2361    -2435    -2497    -2511    -2550    -2654    -2717 
   -2679    -2570    -2431    -2304    -2245    -2281    -2382    -2493 
   -2547    -2520    -2501    -2560    -2628    -2606    -2493    -2361 
   -2276    -2278    -2380    -2489    -2511    -2517    -2597    -2648 
   -2547    -2388    -2328    -2365    -2407    -2404    -2438    -2575 
   -2708    -2700    -2574    -2466    -2465    -2498    -2450    -2350 
   -2328    -2409    -2506    -2596    -2666    -2641    -2529    -2450 
