Origin Time       2025/03/30 10:18:00
Lat.              34.667
Long.             140.825
Depth. (km)       69
Mag.              4.9
Station Code      YMNH14
Station Lat.      35.5115
Station Long.     138.9675
Station Height(m) 1010
Record Time       2025/03/30 10:19:21
Sampling Freq(Hz) 100Hz
Duration Time(s)  120
Dir.              4
Scale Factor      7845(gal)/8223790
Max. Acc. (gal)   2.068
Last Correction   2025/03/30 10:19:21
Memo.             
[...]
  -10482   -10411   -10169    -9938    -9915   -10062   -10104    -9991 
   -9981   -10084   -10192   -10372   -10504   -10393   -10160   -10000 
   -9931    -9950   -10068   -10204   -10330   -10413   -10349   -10172 
  -10041   -10029   -10085   -10153   -10204   -10200   -10126   -10050 
  -10076   -10134   -10102   -10060   -10081   -10120   -10228   -10397 
  -10384   -10183   -10091   -10138   -10161   -10125   -10034   -10062 
  -10296   -10438   -10370   -10189    -9949    -9923   -10100   -10104 
  -10077   -10227   -10269   -10181   -10223   -10238   -10087   -10044 
  -10112   -10089   -10071   -10099   -10160   -10292   -10309   -10254 
  -10308   -10247   -10019    -9886    -9868   -10007   -10330   -10521 
  -10465   -10331   -10130    -9926    -9887    -9975   -10054   -10096 
  -10141   -10176   -10160   -10245   -10471   -10485   -10179    -9952 
   -9985   -10061   -10100   -10183   -10316   -10444   -10419   -10184 
   -9857    -9657    -9819   -10170   -10300   -10289   -10305   -10200 
  -10073   -10181   -10284   -10127   -10026   -10168   -10270   -10246 
  -10216   -10197   -10143   -10026    -9996   -10095   -10093   -10127 
  -10396   -10571   -10451   -10254   -10071    -9848    -9663    -9703 
   -9985   -10234   -10372   -10511   -10466   -10218   -10087   -10072 
  -10034   -10069   -10179   -10219   -10168   -10157   -10273   -10326 
  -10180   -10064   -10044    -9991   -10023   -10206   -10399   -10484 
  -10305    -9958    -9848   -10019   -10134   -10111   -10183   -10357 
  -10388   -10288   -10176    -9964    -9817   -10011   -10245   -10176 
  -10111   -10305   -10388   -10214   -10131   -10104    -9953    -9907 
  -10060   -10253   -10369   -10380   -10349   -10255   -10107   -10037 
   -9996   -10015   -10193   -10231   -10045   -10042   -10224   -10303 
  -10307   -10300   -10207   -10089   -10031    -9956    -9921   -10049 
  -10208   -10293   -10319   -10268   -10212   -10157   -10054   -10027 
  -10095   -10158   -10224   -10212   -10115   -10130   -10183   -10110 
  -10135   -10342   -10458   -10400   -10243   -10058    -9967    -9933 
   -9910    -9995   -10106   -10147   -10207   -10305   -10415   -10384 
  -10129    -9996   -10133   -10127    -9882    -9841   -10138   -10426 
  -10574   -10589   -10334    -9941    -9771    -9913   -10057    -9987 
  -10052   -10401   -10558   -10407   -10284   -10203   -10050    -9892 
   -9842    -9907    -9983   -10145   -10400   -10434   -10261   -10162 
  -10119   -10112   -10141   -10131   -10185   -10272   -10226   -10234 
  -10350   -10297   -10143   -10089   -10033    -9964    -9954    -9973 
  -10019   -10027   -10072   -10276   -10357   -10289   -10338   -10270 
  -10064   -10089   -10184   -10114   -10076   -10142   -10207   -10238 
  -10250   -10266   -10251   -10204   -10177   -10122   -10022   -10006 
  -10061   -10042   -10042   -10174   -10220   -10077    -9981   -10092 
  -10273   -10332   -10331   -10350   -10308   -10226   -10139    -9979 
   -9863   -10014   -10280   -10291   -10157   -10237   -10359   -10266 
  -10110    -9964    -9898   -10084   -10312   -10334   -10258   -10138 
  -10025   -10114   -10264   -10226   -10157   -10146   -10118   -10093 
  -10026   -10035   -10168   -10123   -10060   -10227   -10301   -10219 
  -10169   -10096   -10089   -10200   -10250   -10276   -10372   -10331 
  -10061    -9864    -9942   -10129   -10218   -10227   -10262   -10245 
  -10162   -10219   -10257   -10058   -10008   -10241   -10250    -9990 
   -9902    -9987   -10029   -10172   -10392   -10312   -10071   -10085 
  -10250   -10335   -10304   -10156    -9984    -9890    -9972   -10235 
  -10407   -10389   -10390   -10358   -10162    -9934    -9813    -9857 
  -10068   -10284   -10349   -10312   -10288   -10230   -10077   -10019 
  -10092   -10022    -9891    -9998   -10196   -10331   -10473   -10512 
  -10396   -10262   -10131   -10017    -9954    -9969   -10103   -10222 
  -10158   -10014    -9972   -10091   -10326   -10476   -10342   -10076 
   -9976   -10064   -10188   -10273   -10268   -10192   -10139   -10092 
   -9983    -9856    -9841   -10054   -10334   -10389   -10295   -10257 
  -10277   -10301   -10253   -10170   -10120   -10035   -10017   -10089 
  -10079   -10115   -10300   -10397   -10323   -10222   -10177   -10141 
  -10052    -9996   -10003    -9896    -9798   -10017   -10324   -10470 
  -10594   -10592   -10382   -10168    -9985    -9877    -9867    -9865 
   -9961   -10096   -10141   -10201   -10270   -10322   -10377   -10314 
  -10183   -10127   -10131   -10161   -10133   -10014    -9937   -10044 
  -10254   -10272   -10160   -10246   -10401   -10392   -10179    -9834 
   -9709    -9863    -9977   -10052   -10242   -10516   -10706   -10654 
  -10412   -10149    -9968    -9918    -9964    -9956    -9856    -9942 
  -10214   -10300   -10322   -10494   -10494   -10245    -9995    -9810 
   -9741    -9837   -10075   -10341   -10440   -10412   -10404   -10345 
  -10208   -10150   -10185   -10153   -10003    -9857    -9848    -9948 
  -10129   -10415   -10555   -10343   -10077   -10015   -10042   -10075 
  -10115   -10133   -10145   -10201   -10285   -10342   -10316   -10220 
  -10116    -9991    -9826    -9755    -9903   -10226   -10534   -10608 
  -10397   -10162   -10196   -10295   -10073    -9801    -9922   -10161 
  -10212   -10242   -10268   -10220   -10180   -10130   -10046    -9991 
  -10012   -10118   -10215   -10230   -10276   -10327   -10207   -10073 
  -10120   -10143   -10104   -10164   -10177   -10058   -10017   -10104 
  -10149   -10131   -10161   -10249   -10324   -10345   -10336   -10288 
  -10168   -10088   -10073   -10012    -9972   -10050   -10185   -10324 
  -10415   -10336   -10106    -9936    -9909    -9987   -10102   -10126 
  -10157   -10303   -10397   -10401   -10315   -10146   -10057    -9973 
   -9860    -9902   -10010   -10095   -10234   -10392   -10508   -10485 
  -10280   -10091   -10018    -9960   -10000   -10173   -10158    -9946 
   -9917   -10091   -10330   -10536   -10471   -10245   -10108    -9972 
   -9911   -10035   -10139   -10238   -10454   -10584   -10381    -9911 
   -9622    -9813   -10126   -10179   -10123   -10177   -10238   -10200 
  -10184   -10226   -10233   -10250   -10296   -10251   -10131   -10098 
  -10177   -10180   -10076   -10050   -10112   -10196   -10292   -10373 
  -10385   -10180    -9867    -9838   -10025   -10104   -10115   -10177 
  -10284   -10334   -10231   -10119   -10114   -10068    -9985    -9988 
  -10004   -10045   -10234   -10447   -10562   -10566   -10338    -9976 
   -9875   -10039   -10046    -9855    -9857   -10173   -10481   -10544 
  -10434   -10201    -9964    -9976   -10077   -10030   -10122   -10336 
  -10300   -10187   -10203   -10161   -10076   -10080   -10141   -10158 
  -10071   -10014   -10083   -10143   -10191   -10293   -10397   -10427 
  -10341   -10133    -9929    -9846    -9864    -9960   -10071   -10126 
  -10235   -10374   -10376   -10280   -10172   -10108   -10145   -10188 
  -10164   -10173   -10228   -10276   -10326   -10269   -10077   -10021 
  -10156   -10227   -10158   -10056    -9992    -9949    -9890    -9917 
  -10087   -10228   -10366   -10558   -10477   -10138    -9979    -9980 
   -9931    -9900    -9992   -10215   -10388   -10416   -10440   -10416 
  -10276   -10215   -10206   -10017    -9725    -9636    -9896   -10246 
  -10355   -10303   -10277   -10242   -10172   -10161   -10222   -10273 
  -10284   -10285   -10234   -10019    -9846   -10025   -10254   -10131 
   -9937    -9946   -10048   -10220   -10436   -10500   -10365   -10219 
  -10176   -10066    -9826    -9749   -10006   -10368   -10581   -10554 
  -10328   -10095    -9995    -9980    -9995    -9992   -10003   -10129 
  -10253   -10272   -10291   -10293   -10242   -10161   -10007    -9954 
  -10166   -10368   -10303   -10146   -10096   -10066    -9996   -10037 
  -10153   -10170   -10142   -10154   -10195   -10243   -10245   -10179 
  -10107   -10076   -10106   -10134   -10118   -10173   -10304   -10334 
  -10243   -10153   -10042    -9914    -9891    -9990   -10220   -10573 
  -10710   -10438   -10114   -10045   -10099   -10116   -10126   -10127 
  -10052    -9973    -9973    -9940    -9883    -9950   -10129   -10273 
  -10334   -10393   -10397   -10250   -10161   -10227   -10230   -10174 
  -10173   -10156   -10134   -10216   -10311   -10172    -9860    -9787 
  -10003   -10168   -10234   -10315   -10327   -10208   -10037    -9984 
  -10119   -10208   -10174   -10251   -10377   -10287   -10100   -10084 
  -10177   -10156   -10031   -10034   -10162   -10214   -10212   -10168 
  -10023   -10035   -10276   -10334   -10172   -10108   -10100   -10088 
  -10127   -10177   -10273   -10280   -10165   -10242   -10343   -10199 
  -10033    -9894    -9840   -10096   -10380   -10350   -10203   -10158 
  -10212   -10239   -10061    -9856    -9949   -10100   -10088   -10181 
  -10318   -10268   -10226   -10309   -10390   -10324   -10115    -9961 
   -9892    -9877   -10015   -10187   -10237   -10296   -10416   -10449 
  -10351   -10222   -10118   -10021    -9936    -9875    -9864    -9976 
  -10157   -10320   -10431   -10388   -10193   -10050   -10079   -10138 
  -10093   -10119   -10231   -10222   -10216   -10330   -10361   -10276 
  -10147    -9942    -9748    -9705    -9886   -10203   -10417   -10492 
  -10515   -10395   -10158   -10021   -10017   -10046   -10083   -10062 
   -9996   -10053   -10212   -10341   -10478   -10540   -10324    -9994 
   -9860    -9946   -10102   -10170   -10123   -10098   -10158   -10251 
  -10304   -10243   -10112   -10044   -10087   -10134   -10072   -10025 
  -10114   -10239   -10346   -10416   -10305   -10073    -9990   -10046 
  -10095   -10129   -10096   -10027   -10060   -10195   -10380   -10469 
  -10358   -10234   -10162   -10039    -9960    -9980   -10083   -10233 
  -10239   -10108   -10035   -10035   -10120   -10245   -10253   -10239 
  -10324   -10359   -10228   -10071   -10029   -10049   -10075   -10119 
  -10176   -10251   -10330   -10336   -10245   -10103    -9945    -9823 
   -9904   -10174   -10308   -10235   -10246   -10343   -10318   -10238 
  -10183   -10014    -9850    -9957   -10095   -10031   -10080   -10324 
  -10409   -10330   -10312   -10265   -10111   -10012    -9991   -10025 
  -10118   -10160   -10208   -10262   -10115    -9963   -10065   -10237 
  -10322   -10277   -10142   -10120   -10177   -10188   -10230   -10276 
  -10268   -10318   -10409   -10388   -10216   -10014    -9880    -9838 
   -9879    -9960   -10093   -10281   -10358   -10272   -10134    -9976 
   -9886    -9944   -10038   -10126   -10327   -10573   -10609   -10397 
  -10096    -9844    -9786    -9929   -10104   -10197   -10235   -10300 
  -10289   -10093    -9973   -10065   -10133   -10115   -10099   -10096 
  -10064    -9999   -10092   -10347   -10431   -10315   -10218   -10165 
  -10174   -10239   -10247   -10241   -10291   -10260   -10068    -9879 
   -9857    -9968   -10085   -10118   -10064   -10103   -10308   -10451 
  -10462   -10431   -10315   -10129    -9923    -9769    -9795    -9948 
  -10196   -10528   -10546   -10169    -9983   -10131   -10223   -10220 
  -10220   -10150   -10050   -10081   -10307   -10523   -10457   -10183 
   -9922    -9788    -9915   -10197   -10226   -10037   -10012   -10046 
   -9960   -10019   -10311   -10619   -10855   -10952   -10831   -10539 
  -10188    -9779    -9333    -9147    -9297    -9494    -9702   -10042 
  -10459   -10835   -10998   -10937   -10744   -10426   -10111    -9896 
   -9779    -9840    -9957    -9979   -10081   -10235   -10176   -10022 
  -10019   -10072   -10054   -10118   -10328   -10446   -10385   -10347 
  -10365   -10318   -10241   -10264   -10320   -10174    -9857    -9595 
   -9383    -9358    -9784   -10365   -10689   -10887   -11060   -10998 
  -10682   -10257    -9769    -9402    -9435    -9774   -10003   -10045 
  -10226   -10462   -10297    -9880    -9751    -9958   -10230   -10405 
  -10399   -10247   -10095   -10137   -10451   -10655   -10461   -10172 
  -10004    -9875    -9753    -9620    -9494    -9520    -9841   -10316 
  -10523   -10435   -10527   -10883   -11051   -10818   -10359    -9815 
   -9328    -9096    -9173    -9475    -9861   -10250   -10632   -10848 
  -10840   -10818   -10789   -10620   -10405   -10177    -9890    -9670 
   -9706   -10085   -10496   -10511   -10281   -10045    -9675    -9355 
   -9549   -10264   -11094   -11576   -11388   -10597    -9601    -8814 
   -8496    -8692    -9288   -10079   -10729   -10928   -10760   -10524 
  -10315   -10123    -9900    -9707    -9826   -10304   -10829   -11068 
  -10906   -10523   -10134    -9898    -9929   -10029    -9994    -9946 
   -9927    -9884    -9852    -9768    -9687    -9823   -10161   -10542 
  -10733   -10498   -10145   -10208   -10550   -10740   -10698   -10493 
  -10338   -10480   -10805   -11044   -11018   -10449    -9342    -8347 
   -8040    -8479    -9418   -10420   -11078   -11161   -10604    -9740 
   -9173    -9167    -9556   -10092   -10636   -11121   -11391   -11296 
  -10956   -10582   -10228    -9880    -9541    -9229    -8978    -8959 
   -9532   -10659   -11638   -11877   -11427   -10752   -10211    -9768 
   -9398    -9234    -9286    -9617   -10188   -10517   -10388   -10192 
  -10216   -10339   -10355   -10320   -10381   -10282    -9857    -9578 
   -9738   -10049   -10293   -10370   -10242   -10120    -9919    -9428 
   -9030    -9209    -9969   -10833   -11173   -10916   -10362    -9690 
   -9288    -9562   -10343   -11122   -11595   -11726   -11566   -11179 
  -10581    -9875    -9320    -8910    -8445    -8050    -7990    -8413 
   -9393   -10660   -11665   -12151   -12143   -11653   -10859   -10099 
   -9636    -9691   -10241   -10866   -11124   -10845   -10309    -9952 
   -9760    -9516    -9288    -9213    -9275    -9409    -9583    -9798 
  -10085   -10504   -10913   -11105   -11090   -10804   -10147    -9396 
   -8961    -8991    -9370    -9957   -10613   -11132   -11491   -11745 
  -11643   -10995   -10076    -9379    -9228    -9462    -9632    -9562 
   -9390    -9347    -9463    -9556    -9814   -10485   -11188   -11487 
  -11384   -10990   -10382    -9730    -9366    -9462    -9806   -10251 
  -10732   -11048   -11117   -10816   -10046    -9153    -8645    -8681 
   -9016    -9393    -9871   -10458   -10867   -10980   -11021   -11136 
  -11200   -11016   -10513    -9821    -9211    -8802    -8536    -8606 
   -9228   -10203   -11183   -11797   -11780   -11304   -10704   -10282 
  -10264   -10346   -10137    -9787    -9595    -9543    -9429    -9274 
   -9410    -9963   -10624   -11063   -11118   -10756   -10131    -9559 
   -9254    -9358    -9903   -10450   -10585   -10590   -10759   -10930 
  -10991   -10933   -10639    -9949    -9003    -8409    -8622    -9377 
  -10062   -10396   -10482   -10525   -10623   -10646   -10430   -10145 
  -10114   -10323   -10435   -10222    -9914    -9976   -10459   -10944 
  -11051   -10712   -10131    -9643    -9462    -9553    -9801   -10008 
  -10003    -9994   -10184   -10426   -10559   -10408    -9948    -9543 
   -9366    -9441    -9934   -10494   -10504   -10174   -10141   -10395 
  -10589   -10700   -10802   -10810   -10748   -10832   -11011   -10903 
  -10443    -9969    -9536    -9019    -8656    -8631    -8716    -8876 
   -9333    -9980   -10604   -11226   -11755   -11843   -11286   -10422 
   -9760    -9359    -9251    -9761   -10592   -10922   -10674   -10381 
  -10231   -10012    -9679    -9514    -9575    -9580    -9543    -9706 
  -10037   -10415   -10755   -10835   -10647   -10404   -10053    -9713 
   -9751   -10073   -10376   -10596   -10771   -10928   -10980   -10872 
  -10733   -10508    -9900    -9092    -8716    -8946    -9396    -9763 
  -10068   -10399   -10511   -10211    -9890    -9915   -10112   -10228 
  -10270   -10358   -10507   -10690   -10918   -11061   -10908   -10497 
  -10017    -9539    -9193    -9193    -9518   -10011   -10543   -10797 
  -10575   -10223   -10118   -10185   -10165    -9996    -9877    -9968 
  -10189   -10359   -10459   -10629   -10797   -10647   -10170    -9703 
   -9378    -9142    -9115    -9394    -9842   -10291   -10600   -10689 
  -10613   -10563   -10663   -10656   -10355   -10075    -9973    -9918 
   -9938   -10015   -10095   -10305   -10608   -10750   -10565   -10083 
   -9598    -9374    -9452    -9733    -9967   -10085   -10295   -10617 
  -10890   -10921   -10639   -10295   -10110   -10008    -9940    -9964 
  -10033   -10197   -10548   -10723   -10384    -9859    -9513    -9312 
   -9225    -9351    -9747   -10345   -10893   -11072   -10889   -10528 
   -9979    -9440    -9377    -9794   -10365   -10813   -10847   -10581 
  -10416   -10350   -10277   -10291   -10308   -10161    -9904    -9670 
   -9525    -9487    -9544    -9759   -10122   -10462   -10696   -10721 
  -10432   -10096    -9904    -9738    -9715    -9961   -10285   -10570 
  -10790   -10874   -10789   -10563   -10278    -9963    -9694    -9676 
   -9809    -9895   -10022   -10169   -10201   -10118    -9904    -9661 
   -9597    -9736   -10053   -10547   -10898   -10813   -10498   -10282 
  -10241   -10276   -10284   -10280   -10284   -10293   -10381   -10449 
  -10200    -9703    -9366    -9335    -9535    -9861   -10184   -10497 
  -10709   -10687   -10559   -10400   -10222   -10119   -10081   -10106 
  -10187   -10183   -10066   -10021   -10185   -10378   -10315   -10131 
  -10008    -9836    -9706    -9815   -10052   -10269   -10380   -10350 
  -10261   -10050    -9738    -9721   -10083   -10408   -10584   -10690 
  -10585   -10318   -10053    -9811    -9744    -9899   -10100   -10324 
  -10520   -10585   -10548   -10327    -9896    -9489    -9265    -9332 
   -9720   -10239   -10740   -11144   -11195   -10751   -10226   -10052 
   -9964    -9679    -9548    -9738    -9896    -9971   -10073   -10015 
   -9940   -10262   -10704   -10694   -10378   -10211   -10284   -10484 
  -10629   -10512   -10141    -9806    -9825   -10103   -10207   -10080 
   -9979    -9877    -9687    -9602    -9761   -10079   -10420   -10624 
  -10550   -10246    -9937    -9868   -10030   -10176   -10262   -10443 
  -10635   -10602   -10335    -9969    -9618    -9432    -9520    -9775 
  -10072   -10409   -10694   -10790   -10797   -10786   -10589   -10193 
   -9828    -9629    -9661    -9892   -10137   -10237   -10222   -10241 
  -10303   -10280   -10179   -10015    -9836    -9775    -9828   -10054 
  -10512   -10835   -10756   -10496   -10287   -10183   -10114   -10083 
  -10145   -10071    -9841    -9829    -9981   -10065   -10157   -10238 
  -10230   -10174   -10083   -10053   -10239   -10471   -10473   -10287 
  -10042    -9867    -9872    -9859    -9771    -9903   -10180   -10300 
  -10214    -9979    -9792    -9852   -10093   -10408   -10651   -10640 
  -10444   -10343   -10428   -10444   -10222    -9977    -9906    -9952 
  -10069   -10219   -10260   -10103    -9931   -10022   -10277   -10374 
  -10277   -10169   -10052    -9869    -9807    -9914   -10011   -10146 
  -10388   -10544   -10517   -10435   -10380   -10291   -10142   -10072 
  -10195   -10292   -10139    -9999   -10049   -10045    -9948    -9923 
   -9958    -9984    -9981   -10019   -10188   -10396   -10501   -10498 
  -10407   -10185    -9914    -9823   -10006   -10255   -10315   -10141 
   -9899    -9865   -10157   -10480   -10539   -10424   -10274   -10119 
  -10065   -10166   -10293   -10260   -10029    -9819    -9828    -9969 
