Origin Time       2025/03/30 10:18:00
Lat.              34.667
Long.             140.825
Depth. (km)       69
Mag.              4.9
Station Code      YMNH11
Station Lat.      35.6247
Station Long.     138.9777
Station Height(m) 265
Record Time       2025/03/30 10:19:23
Sampling Freq(Hz) 100Hz
Duration Time(s)  120
Dir.              2
Scale Factor      2940(gal)/6170270
Max. Acc. (gal)   0.190
Last Correction   2025/03/30 10:19:08
Memo.             
[...]
 -141748  -141752  -141778  -141794  -141777  -141756  -141752  -141759 
 -141772  -141781  -141785  -141783  -141758  -141737  -141756  -141792 
 -141807  -141802  -141794  -141787  -141778  -141765  -141736  -141710 
 -141727  -141762  -141761  -141738  -141731  -141743  -141767  -141787 
 -141783  -141761  -141753  -141763  -141764  -141753  -141755  -141775 
 -141793  -141804  -141806  -141779  -141737  -141726  -141747  -141766 
 -141767  -141757  -141742  -141727  -141729  -141745  -141756  -141749 
 -141731  -141738  -141776  -141798  -141793  -141784  -141772  -141762 
 -141786  -141827  -141833  -141808  -141791  -141780  -141765  -141743 
 -141713  -141702  -141734  -141764  -141749  -141727  -141733  -141748 
 -141758  -141772  -141774  -141746  -141722  -141728  -141749  -141769 
 -141771  -141758  -141765  -141778  -141772  -141773  -141792  -141802 
 -141789  -141778  -141782  -141784  -141779  -141773  -141764  -141751 
 -141740  -141737  -141746  -141756  -141768  -141779  -141777  -141770 
 -141766  -141758  -141767  -141789  -141797  -141794  -141789  -141775 
 -141757  -141738  -141720  -141720  -141728  -141729  -141741  -141760 
 -141756  -141749  -141761  -141765  -141754  -141756  -141778  -141794 
 -141785  -141770  -141784  -141811  -141816  -141811  -141797  -141771 
 -141750  -141727  -141702  -141717  -141770  -141796  -141781  -141767 
 -141757  -141734  -141717  -141718  -141731  -141751  -141765  -141769 
 -141784  -141801  -141790  -141768  -141757  -141754  -141760  -141778 
 -141788  -141771  -141754  -141757  -141761  -141753  -141750  -141749 
 -141733  -141720  -141725  -141725  -141715  -141714  -141726  -141736 
 -141751  -141788  -141812  -141791  -141777  -141795  -141803  -141799 
 -141805  -141805  -141800  -141796  -141790  -141786  -141782  -141771 
 -141764  -141757  -141737  -141720  -141735  -141777  -141803  -141791 
 -141754  -141714  -141705  -141729  -141739  -141729  -141730  -141743 
 -141762  -141786  -141797  -141791  -141778  -141766  -141761  -141763 
 -141752  -141728  -141716  -141722  -141738  -141763  -141787  -141790 
 -141768  -141749  -141759  -141775  -141770  -141760  -141767  -141777 
 -141778  -141782  -141782  -141775  -141784  -141805  -141806  -141788 
 -141787  -141798  -141794  -141779  -141761  -141732  -141714  -141719 
 -141733  -141751  -141764  -141762  -141751  -141750  -141763  -141772 
 -141768  -141769  -141777  -141781  -141791  -141791  -141763  -141747 
 -141759  -141748  -141715  -141712  -141731  -141740  -141751  -141770 
 -141784  -141788  -141786  -141784  -141779  -141773  -141768  -141764 
 -141770  -141776  -141759  -141734  -141716  -141720  -141746  -141769 
 -141777  -141776  -141764  -141759  -141778  -141794  -141787  -141770 
 -141749  -141723  -141718  -141743  -141778  -141797  -141787  -141770 
 -141767  -141776  -141794  -141805  -141788  -141774  -141783  -141792 
 -141791  -141774  -141743  -141731  -141738  -141743  -141750  -141756 
 -141748  -141741  -141741  -141738  -141729  -141729  -141744  -141753 
 -141745  -141745  -141756  -141770  -141782  -141783  -141772  -141770 
 -141773  -141768  -141754  -141747  -141757  -141766  -141753  -141735 
 -141749  -141779  -141780  -141755  -141736  -141732  -141744  -141764 
 -141769  -141766  -141776  -141804  -141834  -141841  -141820  -141783 
 -141756  -141759  -141785  -141791  -141760  -141729  -141715  -141711 
 -141724  -141738  -141730  -141722  -141740  -141770  -141785  -141775 
 -141767  -141783  -141788  -141764  -141748  -141755  -141766  -141774 
 -141778  -141771  -141765  -141769  -141768  -141755  -141751  -141757 
 -141762  -141772  -141776  -141771  -141771  -141759  -141725  -141709 
 -141736  -141772  -141778  -141765  -141764  -141780  -141781  -141765 
 -141761  -141773  -141783  -141779  -141763  -141747  -141749  -141773 
 -141793  -141791  -141783  -141788  -141792  -141779  -141752  -141733 
 -141739  -141762  -141770  -141760  -141771  -141814  -141836  -141819 
 -141803  -141787  -141759  -141737  -141715  -141687  -141690  -141725 
 -141739  -141730  -141729  -141732  -141736  -141748  -141767  -141782 
 -141795  -141801  -141786  -141771  -141775  -141787  -141796  -141800 
 -141792  -141769  -141730  -141700  -141704  -141726  -141742  -141753 
 -141757  -141752  -141760  -141775  -141762  -141738  -141737  -141744 
 -141732  -141712  -141716  -141731  -141730  -141748  -141786  -141793 
 -141767  -141752  -141766  -141788  -141800  -141807  -141806  -141783 
 -141761  -141768  -141791  -141805  -141801  -141785  -141764  -141760 
 -141777  -141789  -141782  -141775  -141770  -141762  -141752  -141748 
 -141750  -141756  -141756  -141755  -141759  -141761  -141759  -141753 
 -141737  -141720  -141729  -141756  -141765  -141759  -141759  -141768 
 -141780  -141795  -141806  -141804  -141782  -141761  -141760  -141769 
 -141777  -141779  -141777  -141779  -141789  -141802  -141805  -141789 
 -141760  -141740  -141741  -141753  -141760  -141758  -141750  -141745 
 -141748  -141751  -141751  -141750  -141758  -141765  -141757  -141729 
 -141707  -141726  -141768  -141784  -141788  -141804  -141805  -141785 
 -141773  -141773  -141765  -141757  -141756  -141741  -141729  -141747 
 -141763  -141758  -141752  -141756  -141767  -141776  -141780  -141784 
 -141780  -141780  -141799  -141815  -141807  -141792  -141770  -141746 
 -141736  -141733  -141745  -141775  -141798  -141796  -141780  -141756 
 -141738  -141735  -141735  -141733  -141739  -141752  -141770  -141779 
 -141771  -141763  -141760  -141755  -141747  -141732  -141722  -141734 
 -141758  -141779  -141797  -141787  -141745  -141724  -141734  -141747 
 -141761  -141768  -141753  -141740  -141748  -141756  -141745  -141728 
 -141722  -141740  -141777  -141803  -141804  -141793  -141780  -141764 
 -141747  -141742  -141748  -141751  -141751  -141750  -141743  -141744 
 -141761  -141770  -141765  -141759  -141758  -141753  -141743  -141746 
 -141772  -141801  -141819  -141820  -141798  -141765  -141757  -141773 
 -141787  -141795  -141801  -141803  -141796  -141780  -141777  -141780 
 -141759  -141733  -141734  -141744  -141754  -141762  -141756  -141747 
 -141762  -141789  -141794  -141776  -141759  -141751  -141751  -141755 
 -141759  -141756  -141739  -141733  -141740  -141730  -141720  -141729 
 -141740  -141743  -141742  -141741  -141754  -141787  -141824  -141832 
 -141813  -141808  -141812  -141797  -141778  -141771  -141764  -141764 
 -141774  -141772  -141757  -141749  -141759  -141768  -141774  -141783 
 -141788  -141782  -141759  -141734  -141738  -141758  -141758  -141745 
 -141732  -141729  -141745  -141757  -141767  -141795  -141816  -141805 
 -141787  -141789  -141797  -141788  -141770  -141750  -141728  -141723 
 -141732  -141737  -141745  -141749  -141747  -141748  -141752  -141756 
 -141766  -141773  -141759  -141739  -141737  -141748  -141752  -141749 
 -141745  -141736  -141732  -141754  -141790  -141807  -141790  -141760 
 -141738  -141730  -141741  -141759  -141767  -141768  -141778  -141793 
 -141800  -141793  -141785  -141779  -141771  -141774  -141791  -141794 
 -141772  -141746  -141729  -141730  -141760  -141787  -141792  -141804 
 -141816  -141802  -141773  -141749  -141728  -141711  -141716  -141747 
 -141780  -141789  -141780  -141757  -141720  -141701  -141712  -141729 
 -141733  -141734  -141738  -141750  -141769  -141791  -141800  -141788 
 -141777  -141782  -141797  -141806  -141801  -141782  -141759  -141741 
 -141735  -141741  -141748  -141748  -141746  -141745  -141743  -141749 
 -141762  -141756  -141735  -141729  -141743  -141763  -141785  -141800 
 -141803  -141802  -141799  -141789  -141768  -141744  -141739  -141743 
 -141740  -141734  -141730  -141742  -141769  -141790  -141802  -141802 
 -141787  -141771  -141760  -141747  -141742  -141755  -141779  -141799 
 -141799  -141787  -141778  -141766  -141755  -141748  -141734  -141726 
 -141743  -141768  -141773  -141763  -141765  -141788  -141810  -141817 
 -141811  -141780  -141738  -141727  -141743  -141753  -141754  -141756 
 -141753  -141752  -141767  -141783  -141784  -141778  -141765  -141739 
 -141727  -141751  -141786  -141797  -141794  -141792  -141777  -141762 
 -141766  -141767  -141751  -141733  -141727  -141733  -141741  -141735 
 -141733  -141758  -141783  -141783  -141772  -141757  -141742  -141743 
 -141755  -141750  -141728  -141712  -141722  -141746  -141764  -141772 
 -141775  -141775  -141777  -141774  -141761  -141750  -141752  -141759 
 -141768  -141783  -141797  -141799  -141788  -141767  -141752  -141751 
 -141759  -141765  -141770  -141784  -141804  -141808  -141792  -141775 
 -141774  -141777  -141760  -141730  -141721  -141733  -141742  -141755 
 -141773  -141765  -141739  -141733  -141740  -141749  -141764  -141786 
 -141806  -141815  -141803  -141783  -141777  -141774  -141764  -141747 
 -141716  -141693  -141713  -141750  -141765  -141770  -141775  -141769 
 -141752  -141743  -141739  -141729  -141736  -141765  -141773  -141756 
 -141753  -141758  -141763  -141775  -141776  -141761  -141757  -141766 
 -141766  -141756  -141759  -141773  -141784  -141802  -141821  -141820 
 -141806  -141801  -141789  -141767  -141760  -141773  -141779  -141769 
 -141751  -141731  -141723  -141739  -141755  -141750  -141739  -141748 
 -141781  -141812  -141811  -141782  -141758  -141751  -141753  -141745 
 -141719  -141698  -141700  -141714  -141725  -141736  -141741  -141746 
 -141754  -141760  -141768  -141787  -141804  -141800  -141784  -141787 
 -141809  -141819  -141811  -141797  -141784  -141779  -141778  -141771 
 -141767  -141771  -141771  -141764  -141751  -141738  -141734  -141739 
 -141750  -141768  -141781  -141782  -141777  -141767  -141761  -141770 
 -141787  -141792  -141778  -141743  -141706  -141702  -141738  -141779 
 -141796  -141793  -141786  -141780  -141771  -141763  -141756  -141745 
 -141724  -141710  -141715  -141724  -141728  -141731  -141737  -141745 
 -141745  -141744  -141749  -141745  -141732  -141729  -141729  -141714 
 -141702  -141714  -141731  -141739  -141744  -141740  -141731  -141729 
 -141741  -141766  -141786  -141784  -141772  -141766  -141765  -141767 
 -141770  -141753  -141711  -141673  -141654  -141642  -141626  -141625 
 -141659  -141711  -141747  -141764  -141775  -141786  -141809  -141836 
 -141842  -141819  -141781  -141749  -141733  -141733  -141741  -141745 
 -141749  -141754  -141761  -141777  -141808  -141835  -141843  -141842 
 -141856  -141881  -141897  -141899  -141890  -141863  -141812  -141770 
 -141766  -141787  -141820  -141852  -141857  -141853  -141861  -141868 
 -141870  -141860  -141826  -141792  -141791  -141798  -141785  -141764 
 -141764  -141774  -141783  -141800  -141814  -141799  -141771  -141762 
 -141788  -141847  -141906  -141930  -141921  -141902  -141892  -141892 
 -141878  -141851  -141828  -141801  -141761  -141723  -141690  -141660 
 -141665  -141703  -141732  -141741  -141746  -141740  -141716  -141690 
 -141674  -141663  -141652  -141643  -141636  -141635  -141640  -141645 
 -141644  -141628  -141595  -141574  -141579  -141581  -141588  -141640 
 -141709  -141749  -141778  -141806  -141810  -141784  -141738  -141703 
 -141714  -141758  -141809  -141853  -141868  -141851  -141834  -141840 
 -141861  -141878  -141881  -141857  -141807  -141771  -141764  -141744 
 -141710  -141709  -141735  -141753  -141761  -141765  -141761  -141753 
 -141742  -141729  -141714  -141690  -141669  -141669  -141688  -141725 
 -141778  -141831  -141857  -141838  -141785  -141732  -141697  -141672 
 -141659  -141663  -141680  -141708  -141746  -141787  -141832  -141872 
 -141885  -141871  -141842  -141804  -141771  -141775  -141820  -141866 
 -141892  -141905  -141907  -141895  -141859  -141786  -141697  -141636 
 -141621  -141632  -141658  -141704  -141776  -141852  -141889  -141871 
 -141811  -141723  -141625  -141547  -141523  -141564  -141653  -141742 
 -141785  -141795  -141786  -141749  -141695  -141649  -141627  -141646 
 -141697  -141749  -141790  -141836  -141885  -141908  -141895  -141860 
 -141816  -141779  -141766  -141773  -141779  -141797  -141855  -141926 
 -141994  -142051  -142050  -141979  -141885  -141791  -141720  -141685 
 -141649  -141607  -141608  -141666  -141736  -141775  -141774  -141751 
 -141733  -141740  -141776  -141831  -141878  -141896  -141874  -141816 
 -141757  -141728  -141709  -141679  -141640  -141599  -141578  -141580 
 -141597  -141626  -141641  -141630  -141623  -141651  -141724  -141828 
 -141914  -141934  -141891  -141832  -141786  -141753  -141739  -141744 
 -141746  -141711  -141632  -141543  -141490  -141484  -141514  -141565 
 -141635  -141723  -141812  -141873  -141877  -141829  -141781  -141775 
 -141798  -141815  -141808  -141792  -141774  -141737  -141689  -141660 
 -141651  -141650  -141660  -141684  -141715  -141755  -141815  -141881 
 -141926  -141953  -141961  -141944  -141925  -141923  -141923  -141912 
 -141899  -141897  -141905  -141915  -141922  -141932  -141966  -142036 
 -142099  -142099  -142055  -142008  -141949  -141858  -141761  -141693 
 -141656  -141638  -141625  -141606  -141598  -141608  -141609  -141605 
 -141621  -141655  -141702  -141762  -141806  -141793  -141732  -141668 
 -141618  -141585  -141580  -141600  -141603  -141583  -141577  -141568 
 -141519  -141475  -141487  -141531  -141578  -141639  -141711  -141764 
 -141784  -141775  -141747  -141715  -141705  -141725  -141744  -141736 
 -141727  -141749  -141811  -141902  -142005  -142092  -142135  -142146 
 -142160  -142161  -142117  -142042  -141979  -141949  -141926  -141886 
 -141840  -141796  -141751  -141702  -141663  -141653  -141662  -141661 
 -141644  -141630  -141627  -141628  -141632  -141638  -141645  -141668 
 -141702  -141725  -141740  -141753  -141747  -141720  -141687  -141657 
 -141661  -141721  -141799  -141832  -141816  -141788  -141779  -141792 
 -141809  -141822  -141829  -141822  -141823  -141862  -141900  -141882 
 -141808  -141702  -141603  -141559  -141578  -141634  -141700  -141737 
 -141737  -141728  -141726  -141721  -141699  -141667  -141657  -141671 
 -141690  -141709  -141723  -141718  -141710  -141721  -141751  -141794 
 -141853  -141946  -142029  -142021  -141951  -141919  -141946  -141986 
 -141996  -141942  -141837  -141756  -141737  -141741  -141731  -141718 
 -141725  -141755  -141771  -141748  -141711  -141691  -141666  -141613 
 -141561  -141547  -141578  -141643  -141725  -141818  -141910  -141965 
 -141967  -141920  -141835  -141740  -141671  -141635  -141629  -141645 
 -141671  -141698  -141702  -141679  -141651  -141625  -141620  -141657 
 -141710  -141740  -141769  -141817  -141859  -141882  -141881  -141854 
 -141824  -141793  -141761  -141756  -141764  -141787  -141855  -141923 
 -141923  -141868  -141806  -141754  -141727  -141727  -141732  -141730 
 -141729  -141737  -141754  -141768  -141765  -141763  -141777  -141785 
 -141785  -141792  -141775  -141711  -141640  -141608  -141628  -141697 
 -141800  -141897  -141942  -141915  -141840  -141780  -141761  -141746 
 -141728  -141743  -141776  -141782  -141768  -141756  -141722  -141661 
 -141616  -141619  -141652  -141690  -141738  -141805  -141878  -141928 
 -141923  -141849  -141739  -141651  -141620  -141627  -141628  -141600 
 -141582  -141617  -141688  -141749  -141783  -141815  -141866  -141916 
 -141947  -141962  -141963  -141969  -141998  -142027  -142013  -141954 
 -141893  -141850  -141799  -141722  -141633  -141559  -141539  -141593 
 -141670  -141716  -141734  -141734  -141712  -141686  -141682  -141688 
 -141666  -141630  -141647  -141723  -141814  -141890  -141928  -141913 
 -141861  -141797  -141748  -141732  -141734  -141737  -141722  -141688 
 -141662  -141649  -141626  -141591  -141565  -141592  -141682  -141765 
 -141798  -141815  -141845  -141870  -141863  -141825  -141785  -141785 
 -141819  -141840  -141828  -141820  -141831  -141844  -141852  -141842 
 -141819  -141806  -141795  -141764  -141729  -141718  -141716  -141691 
 -141651  -141625  -141625  -141640  -141636  -141607  -141589  -141601 
 -141639  -141697  -141753  -141790  -141815  -141834  -141859  -141897 
 -141911  -141874  -141819  -141786  -141793  -141831  -141842  -141784 
 -141677  -141570  -141513  -141541  -141632  -141741  -141829  -141863 
 -141837  -141778  -141742  -141751  -141766  -141784  -141840  -141905 
 -141934  -141918  -141877  -141858  -141885  -141916  -141904  -141862 
 -141833  -141822  -141819  -141825  -141823  -141798  -141768  -141750 
 -141748  -141763  -141792  -141818  -141833  -141850  -141864  -141844 
 -141800  -141760  -141737  -141742  -141777  -141826  -141881  -141917 
 -141900  -141850  -141820  -141808  -141785  -141754  -141723  -141669 
 -141590  -141528  -141508  -141531  -141585  -141639  -141669  -141681 
 -141715  -141772  -141806  -141802  -141792  -141792  -141803  -141821 
 -141819  -141782  -141731  -141683  -141649  -141642  -141650  -141646 
 -141641  -141659  -141688  -141701  -141715  -141737  -141737  -141710 
 -141700  -141710  -141706  -141694  -141700  -141735  -141799  -141862 
 -141890  -141882  -141850  -141824  -141829  -141841  -141839  -141842 
 -141846  -141832  -141814  -141811  -141823  -141839  -141839  -141810 
 -141778  -141774  -141780  -141764  -141722  -141676  -141650  -141646 
 -141648  -141646  -141636  -141624  -141613  -141614  -141634  -141667 
 -141696  -141720  -141749  -141794  -141846  -141873  -141848  -141801 
 -141785  -141795  -141784  -141744  -141709  -141700  -141714  -141737 
 -141762  -141794  -141823  -141837  -141824  -141805  -141804  -141815 
 -141826  -141820  -141795  -141783  -141809  -141855  -141885  -141892 
 -141898  -141910  -141899  -141842  -141759  -141697  -141677  -141681 
 -141687  -141701  -141726  -141753  -141777  -141784  -141767  -141746 
 -141734  -141724  -141717  -141718  -141730  -141756  -141778  -141767 
 -141724  -141690  -141687  -141701  -141715  -141720  -141709  -141684 
 -141660  -141661  -141710  -141778  -141808  -141790  -141746  -141706 
 -141701  -141740  -141806  -141864  -141877  -141840  -141792  -141775 
 -141788  -141803  -141799  -141764  -141722  -141716  -141755  -141806 
 -141848  -141882  -141893  -141864  -141820  -141802  -141805  -141795 
 -141771  -141763  -141766  -141755  -141755  -141789  -141840  -141891 
 -141917  -141884  -141817  -141770  -141760  -141762  -141759  -141750 
 -141737  -141728  -141717  -141692  -141665  -141653  -141642  -141637 
 -141653  -141677  -141698  -141716  -141715  -141694  -141675  -141680 
 -141704  -141724  -141740  -141760  -141776  -141779  -141766  -141747 
 -141740  -141750  -141767  -141773  -141765  -141760  -141773  -141792 
 -141797  -141786  -141779  -141784  -141793  -141805  -141815  -141823 
 -141833  -141834  -141828  -141833  -141847  -141857  -141869  -141872 
 -141852  -141829  -141817  -141802  -141774  -141737  -141707  -141683 
 -141654  -141634  -141647  -141684  -141727  -141753  -141752  -141753 
 -141783  -141829  -141873  -141898  -141888  -141860  -141834  -141799 
 -141748  -141713  -141721  -141739  -141742  -141744  -141746  -141739 
 -141720  -141702  -141692  -141684  -141699  -141749  -141798  -141827 
 -141829  -141788  -141723  -141679  -141676  -141692  -141716  -141742 
 -141747  -141719  -141684  -141663  -141659  -141678  -141700  -141704 
 -141705  -141720  -141739  -141750  -141754  -141746  -141723  -141708 
