Origin Time       2025/03/30 10:18:00
Lat.              34.667
Long.             140.825
Depth. (km)       69
Mag.              4.9
Station Code      YMNH12
Station Lat.      35.5623
Station Long.     138.4490
Station Height(m) 295
Record Time       2025/03/30 10:19:34
Sampling Freq(Hz) 100Hz
Duration Time(s)  120
Dir.              5
Scale Factor      3920(gal)/6170801
Max. Acc. (gal)   0.382
Last Correction   2025/03/30 10:19:19
Memo.             
[...]
    2612     2620     2610     2597     2582     2566     2563     2584 
    2613     2633     2644     2651     2641     2609     2575     2563 
    2572     2590     2620     2655     2669     2660     2650     2639 
    2618     2596     2583     2579     2582     2590     2598     2597 
    2583     2566     2568     2589     2618     2649     2680     2698 
    2697     2686     2669     2653     2647     2644     2633     2620 
    2619     2627     2623     2596     2564     2544     2550     2587 
    2635     2674     2696     2684     2642     2600     2571     2561 
    2573     2595     2614     2624     2622     2612     2611     2616 
    2613     2611     2617     2629     2645     2657     2652     2636 
    2616     2591     2569     2557     2555     2565     2578     2588 
    2607     2629     2638     2634     2623     2603     2586     2585 
    2601     2611     2610     2620     2634     2643     2660     2672 
    2661     2643     2636     2645     2665     2671     2641     2593 
    2552     2533     2545     2571     2593     2611     2628     2647 
    2677     2710     2713     2683     2640     2605     2595     2603 
    2605     2593     2571     2552     2556     2579     2596     2593 
    2583     2592     2613     2632     2644     2649     2658     2665 
    2656     2641     2629     2613     2594     2580     2576     2583 
    2597     2617     2629     2619     2603     2589     2571     2564 
    2576     2585     2586     2594     2611     2629     2645     2652 
    2642     2621     2614     2632     2647     2636     2626     2622 
    2612     2619     2641     2642     2625     2616     2616     2625 
    2644     2661     2661     2642     2616     2592     2571     2565 
    2582     2612     2632     2630     2620     2608     2586     2578 
    2589     2593     2592     2602     2615     2624     2624     2608 
    2590     2586     2601     2622     2641     2663     2694     2708 
    2688     2659     2636     2619     2614     2620     2619     2603 
    2583     2574     2580     2589     2598     2616     2634     2647 
    2663     2663     2643     2633     2631     2623     2610     2596 
    2589     2595     2610     2619     2604     2576     2566     2574 
    2573     2567     2586     2615     2617     2616     2633     2640 
    2634     2636     2635     2622     2615     2615     2614     2614 
    2611     2615     2633     2647     2654     2665     2666     2656 
    2643     2630     2623     2623     2624     2616     2594     2571 
    2559     2565     2583     2601     2611     2605     2603     2624 
    2650     2669     2686     2693     2682     2659     2635     2602 
    2556     2513     2484     2486     2525     2576     2620     2649 
    2647     2626     2608     2591     2576     2581     2608     2649 
    2694     2725     2720     2680     2645     2634     2624     2610 
    2610     2617     2616     2603     2589     2583     2579     2579 
    2593     2609     2621     2638     2659     2667     2648     2616 
    2586     2567     2570     2578     2571     2571     2589     2609 
    2635     2656     2645     2624     2611     2603     2608     2620 
    2627     2629     2632     2641     2654     2660     2653     2639 
    2624     2603     2583     2585     2609     2635     2655     2660 
    2638     2611     2597     2585     2573     2564     2557     2562 
    2581     2604     2627     2625     2608     2619     2655     2687 
    2704     2700     2683     2664     2647     2628     2593     2545 
    2510     2496     2507     2533     2565     2587     2595     2597 
    2594     2592     2601     2617     2633     2651     2672     2685 
    2679     2665     2661     2664     2662     2662     2655     2634 
    2629     2652     2668     2650     2615     2591     2580     2579 
    2585     2591     2591     2585     2583     2587     2586     2587 
    2602     2620     2629     2620     2601     2595     2610     2628 
    2639     2636     2625     2631     2656     2668     2656     2636 
    2624     2624     2629     2625     2596     2570     2573     2590 
    2604     2624     2644     2654     2648     2630     2612     2604 
    2613     2631     2633     2611     2587     2577     2580     2584 
    2583     2571     2557     2563     2585     2606     2624     2635 
    2637     2639     2638     2640     2642     2636     2640     2651 
    2649     2643     2637     2621     2597     2583     2582     2576 
    2570     2583     2596     2598     2609     2628     2630     2620 
    2616     2604     2584     2585     2607     2625     2642     2658 
    2666     2669     2662     2647     2631     2614     2594     2577 
    2570     2574     2577     2575     2578     2589     2599     2608 
    2618     2634     2651     2660     2661     2655     2644     2640 
    2637     2632     2626     2612     2600     2612     2639     2658 
    2663     2661     2647     2623     2614     2614     2601     2588 
    2578     2564     2560     2568     2583     2594     2589     2581 
    2578     2588     2619     2653     2668     2664     2649     2632 
    2621     2622     2639     2651     2648     2652     2663     2662 
    2658     2655     2634     2604     2590     2596     2613     2623 
    2615     2597     2571     2546     2538     2557     2597     2639 
    2659     2650     2628     2624     2639     2652     2662     2670 
    2666     2655     2650     2644     2616     2578     2558     2554 
    2563     2577     2584     2583     2574     2561     2551     2537 
    2522     2530     2562     2597     2635     2661     2657     2648 
    2651     2660     2673     2678     2670     2658     2638     2614 
    2593     2569     2549     2547     2569     2606     2644     2668 
    2670     2657     2644     2631     2627     2632     2634     2636 
    2649     2657     2640     2609     2581     2569     2575     2596 
    2629     2663     2681     2677     2656     2635     2621     2612 
    2617     2624     2621     2617     2617     2608     2597     2594 
    2595     2604     2625     2644     2641     2620     2604     2599 
    2588     2562     2537     2529     2549     2590     2633     2659 
    2654     2626     2605     2603     2612     2625     2637     2641 
    2635     2626     2622     2619     2618     2624     2631     2631 
    2629     2622     2610     2599     2586     2570     2558     2555 
    2555     2558     2577     2607     2635     2658     2666     2663 
    2672     2683     2678     2671     2660     2619     2562     2534 
    2527     2526     2546     2583     2609     2624     2639     2644 
    2650     2668     2691     2703     2696     2678     2662     2639 
    2609     2586     2567     2548     2539     2547     2565     2596 
    2637     2661     2666     2667     2651     2630     2632     2649 
    2666     2675     2661     2632     2613     2596     2571     2555 
    2548     2550     2579     2625     2654     2656     2644     2615 
    2576     2546     2535     2544     2563     2591     2626     2640 
    2636     2632     2623     2613     2613     2621     2627     2628 
    2622     2605     2583     2575     2587     2599     2605     2626 
    2647     2649     2652     2653     2635     2622     2623     2622 
    2619     2627     2636     2634     2636     2652     2669     2683 
    2682     2666     2659     2660     2657     2652     2635     2605 
    2587     2591     2604     2615     2609     2586     2581     2602 
    2616     2619     2629     2637     2622     2593     2566     2542 
    2533     2551     2578     2594     2606     2615     2609     2601 
    2606     2615     2626     2655     2689     2694     2669     2639 
    2614     2596     2589     2588     2588     2587     2587     2582 
    2564     2546     2550     2571     2600     2638     2669     2665 
    2645     2635     2622     2597     2571     2546     2525     2529 
    2569     2624     2666     2704     2732     2717     2681     2671 
    2668     2654     2648     2643     2623     2598     2588     2590 
    2593     2601     2617     2636     2648     2650     2638     2623 
    2611     2601     2597     2592     2574     2550     2539     2544 
    2557     2576     2596     2611     2617     2618     2624     2639 
    2658     2668     2672     2673     2659     2631     2597     2567 
    2558     2573     2590     2596     2600     2604     2610     2625 
    2644     2647     2635     2630     2632     2627     2617     2613 
    2615     2619     2620     2620     2627     2645     2663     2668 
    2659     2640     2618     2607     2606     2605     2600     2583 
    2565     2571     2595     2620     2641     2649     2645     2628 
    2611     2617     2644     2668     2674     2658     2623     2587 
    2568     2558     2549     2556     2573     2587     2600     2608 
    2608     2623     2643     2638     2619     2605     2607     2629 
    2662     2680     2666     2641     2628     2613     2594     2591 
    2607     2631     2649     2642     2613     2586     2579     2594 
    2620     2644     2651     2646     2643     2638     2623     2613 
    2612     2613     2618     2609     2584     2569     2580     2600 
    2614     2620     2626     2633     2642     2650     2648     2639 
    2634     2631     2627     2625     2620     2620     2621     2600 
    2555     2516     2516     2549     2594     2631     2637     2618 
    2605     2605     2604     2600     2599     2602     2612     2626 
    2637     2649     2657     2646     2623     2595     2571     2574 
    2608     2643     2671     2676     2646     2606     2584     2593 
    2622     2647     2664     2667     2655     2639     2624     2613 
    2614     2624     2644     2659     2660     2652     2631     2597 
    2576     2575     2583     2591     2582     2556     2541     2548 
    2560     2572     2585     2599     2620     2654     2690     2700 
    2677     2634     2580     2539     2522     2526     2546     2566 
    2580     2594     2604     2608     2614     2623     2635     2641 
    2653     2684     2703     2689     2663     2635     2607     2599 
    2616     2643     2682     2734     2773     2782     2761     2713 
    2649     2586     2541     2536     2557     2574     2579     2578 
    2568     2561     2579     2609     2612     2598     2594     2596 
    2599     2606     2606     2600     2595     2595     2599     2596 
    2587     2591     2599     2598     2589     2571     2566     2597 
    2644     2688     2725     2743     2745     2738     2718     2683 
    2644     2626     2634     2636     2630     2626     2608     2582 
    2559     2527     2499     2497     2516     2542     2558     2563 
    2575     2595     2616     2627     2611     2582     2570     2575 
    2596     2622     2629     2608     2573     2544     2543     2571 
    2614     2647     2664     2670     2658     2636     2624     2611 
    2592     2590     2605     2622     2643     2649     2624     2591 
    2574     2561     2542     2530     2533     2556     2602     2640 
    2642     2629     2623     2626     2645     2672     2672     2636 
    2586     2546     2521     2503     2507     2553     2623     2690 
    2738     2761     2767     2768     2756     2724     2704     2733 
    2788     2836     2873     2873     2803     2698     2611     2552 
    2517     2502     2500     2511     2528     2543     2562     2582 
    2598     2628     2677     2728     2749     2726     2668     2593 
    2521     2467     2449     2477     2544     2621     2685     2711 
    2696     2668     2652     2649     2669     2706     2749     2798 
    2828     2819     2788     2746     2694     2638     2583     2539 
    2513     2498     2491     2489     2476     2447     2424     2433 
    2465     2505     2550     2582     2573     2532     2475     2413 
    2368     2355     2370     2411     2472     2534     2592     2641 
    2672     2693     2706     2701     2682     2672     2685     2723 
    2773     2805     2790     2724     2638     2554     2483     2475 
    2538     2623     2694     2740     2745     2715     2685     2680 
    2697     2733     2790     2839     2840     2774     2649     2501 
    2372     2304     2302     2326     2352     2375     2376     2349 
    2313     2297     2324     2397     2508     2634     2725     2772 
    2802     2819     2809     2780     2751     2734     2726     2727 
    2742     2758     2773     2801     2837     2862     2879     2882 
    2851     2790     2712     2618     2530     2480     2449     2411 
    2372     2329     2281     2244     2232     2264     2359     2507 
    2681     2851     2983     3054     3056     3010     2964     2949 
    2969     3001     3013     2988     2914     2767     2575     2391 
    2247     2173     2187     2262     2347     2417     2481     2545 
    2602     2658     2713     2755     2788     2811     2798     2736 
    2623     2469     2310     2204     2181     2232     2333     2460 
    2564     2616     2658     2716     2761     2799     2850     2898 
    2923     2924     2898     2850     2787     2707     2622     2563 
    2545     2539     2515     2472     2429     2402     2407     2440 
    2494     2568     2654     2739     2814     2861     2878     2890 
    2897     2885     2851     2774     2647     2500     2362     2247 
    2164     2109     2062     2023     2014     2061     2180     2356 
    2530     2672     2787     2880     2963     3029     3059     3067 
    3082     3105     3122     3112     3060     2970     2856     2747 
    2663     2599     2555     2520     2463     2384     2311     2254 
    2215     2213     2250     2297     2335     2361     2368     2365 
    2363     2376     2434     2548     2679     2791     2874     2913 
    2906     2889     2882     2872     2856     2843     2820     2776 
    2710     2630     2568     2543     2520     2486     2470     2469 
    2448     2393     2320     2249     2198     2197     2252     2329 
    2405     2474     2529     2581     2649     2739     2846     2959 
    3064     3142     3180     3179     3135     3050     2961     2890 
    2827     2755     2671     2588     2533     2517     2533     2562 
    2573     2554     2532     2555     2629     2725     2818     2868 
    2840     2748     2610     2445     2306     2236     2222     2236 
    2276     2342     2402     2430     2426     2389     2330     2300 
    2321     2364     2418     2502     2620     2745     2853     2944 
    3005     3026     3025     3011     2993     2970     2941     2915 
    2887     2839     2766     2667     2561     2489     2466     2470 
    2485     2490     2475     2450     2423     2404     2408     2437 
    2494     2570     2648     2715     2742     2709     2632     2539 
    2473     2450     2451     2465     2493     2517     2541     2585 
    2646     2709     2775     2838     2867     2855     2825     2778 
    2721     2676     2654     2651     2659     2659     2627     2548 
    2416     2270     2184     2208     2322     2460     2570     2633 
    2654     2666     2687     2695     2695     2730     2786     2812 
    2805     2778     2709     2596     2478     2393     2356     2380 
    2463     2576     2687     2779     2835     2860     2878     2887 
    2869     2825     2774     2738     2711     2673     2611     2521 
    2434     2399     2431     2514     2621     2708     2727     2678 
    2586     2486     2403     2352     2351     2385     2421     2453 
    2476     2483     2492     2519     2547     2563     2573     2585 
    2606     2635     2672     2718     2763     2795     2818     2834 
    2837     2814     2770     2713     2648     2599     2581     2572 
    2564     2563     2552     2536     2529     2524     2527     2546 
    2581     2637     2685     2700     2707     2712     2700     2685 
    2676     2670     2671     2674     2669     2641     2582     2520 
    2483     2476     2501     2548     2596     2637     2662     2667 
    2647     2606     2578     2581     2610     2655     2690     2711 
    2730     2729     2710     2678     2641     2623     2622     2621 
    2609     2560     2486     2434     2427     2466     2538     2618 
    2691     2732     2724     2685     2638     2605     2601     2610 
    2638     2705     2788     2843     2860     2850     2805     2724 
    2640     2573     2513     2470     2448     2435     2437     2458 
    2498     2547     2579     2597     2622     2659     2703     2733 
    2736     2735     2744     2764     2785     2788     2775     2756 
    2730     2700     2649     2571     2492     2429     2389     2379 
    2372     2352     2336     2348     2389     2436     2476     2504 
    2518     2532     2565     2603     2622     2624     2633     2661 
    2700     2739     2772     2789     2785     2768     2760     2764 
    2763     2757     2750     2740     2727     2688     2608     2511 
    2429     2383     2385     2416     2438     2439     2436     2458 
    2505     2549     2580     2608     2634     2652     2670     2692 
    2701     2707     2730     2759     2785     2794     2783     2761 
    2721     2672     2641     2632     2651     2688     2718     2724 
    2703     2664     2620     2574     2536     2528     2540     2553 
    2561     2568     2571     2576     2589     2605     2618     2640 
    2672     2691     2688     2668     2634     2591     2550     2524 
    2503     2472     2442     2419     2395     2385     2405     2436 
    2474     2517     2548     2571     2597     2626     2656     2672 
    2656     2629     2626     2646     2679     2727     2769     2784 
    2776     2758     2746     2747     2743     2728     2711     2688 
    2654     2608     2554     2519     2517     2536     2579     2645 
    2703     2737     2762     2781     2783     2771     2754     2741 
    2737     2727     2701     2665     2627     2577     2518     2465 
    2426     2392     2358     2339     2345     2378     2446     2535 
    2619     2697     2760     2792     2797     2763     2701     2653 
    2619     2597     2612     2651     2688     2722     2739     2725 
    2688     2653     2639     2648     2673     2689     2681     2664 
    2640     2596     2529     2450     2391     2384     2415     2457 
    2503     2537     2554     2558     2549     2558     2597     2651 
    2704     2738     2751     2743     2716     2696     2688     2667 
    2643     2617     2576     2543     2532     2529     2527     2521 
    2512     2500     2491     2489     2494     2507     2546     2603 
    2649     2670     2677     2678     2679     2680     2682     2674 
    2655     2647     2655     2662     2672     2687     2698     2710 
    2721     2718     2701     2672     2636     2600     2571     2570 
    2608     2652     2666     2658     2644     2620     2596     2592 
    2607     2615     2610     2609     2614     2622     2634     2650 
    2664     2665     2657     2642     2612     2583     2565     2545 
    2539     2558     2578     2581     2565     2551     2553     2555 
    2549     2539     2525     2526     2550     2575     2593     2602 
