Origin Time       2025/03/28 03:50:00
Lat.              35.403
Long.             140.360
Depth. (km)       54
Mag.              4.4
Station Code      CHBH06
Station Lat.      35.7215
Station Long.     140.5046
Station Height(m) -145
Record Time       2025/03/28 03:50:49
Sampling Freq(Hz) 100Hz
Duration Time(s)  120
Dir.              3
Scale Factor      3923(gal)/8224838
Max. Acc. (gal)   0.843
Last Correction   2025/03/28 03:50:49
Memo.             
[...]
      63       63       64       62       63       67       68       67 
      62       60       64       63       62       62       66       68 
      70       66       66       64       64       63       63       67 
      67       66       67       68       64       63       63       64 
      64       63       63       63       62       63       64       63 
      62       63       63       66       68       66       66       68 
      68       68       66       66       68       66       64       67 
      67       67       67       64       64       66       66       64 
      60       63       64       64       66       66       67       68 
      64       62       66       67       64       63       64       63 
      62       64       64       60       59       60       60       59 
      59       60       60       60       63       63       63       62 
      62       64       66       64       63       62       62       60 
      60       60       60       63       63       60       60       59 
      58       58       58       58       60       62       60       59 
      60       63       63       62       62       62       60       63 
      64       60       59       63       64       60       59       62 
      62       60       60       62       63       63       62       63 
      60       59       62       60       60       60       58       59 
      63       64       62       60       64       66       63       62 
      64       66       67       67       66       66       66       64 
      64       67       68       66       66       67       66       64 
      63       63       66       66       66       67       68       66 
      62       63       66       66       63       62       66       66 
      63       64       64       62       66       67       63       63 
      66       63       62       62       63       63       60       63 
      62       58       59       62       60       59       60       62 
      60       59       60       58       55       55       58       62 
      60       59       62       59       55       55       56       58 
      60       58       54       56       56       54       58       63 
      60       59       60       62       62       59       59       62 
      63       62       60       60       59       58       60       62 
      62       62       62       59       59       62       63       67 
      66       62       64       66       63       64       68       67 
      67       68       66       64       67       63       59       64 
      68       64       63       67       68       67       67       71 
      71       67       67       68       68       71       68       67 
      71       71       66       66       68       67       67       71 
      71       68       68       70       70       68       70       70 
      66       68       74       71       68       71       68       67 
      71       70       66       67       70       68       67       66 
      67       68       66       66       67       66       63       66 
      66       66       67       64       64       68       67       63 
      63       63       62       62       64       66       64       66 
      66       63       63       66       63       59       60       63 
      62       62       64       66       62       60       60       62 
      64       64       62       63       63       60       60       63 
      62       60       64       63       56       60       64       59 
      62       63       59       60       63       59       56       58 
      58       60       60       59       60       58       55       59 
      60       58       58       59       59       56       58       56 
      58       60       56       54       56       59       58       58 
      58       58       59       59       59       60       60       58 
      56       58       58       59       60       58       55       56 
      59       58       55       56       60       64       60       58 
      59       62       59       58       62       63       60       62 
      63       63       63       60       60       62       62       64 
      64       62       63       62       58       60       66       66 
      66       67       67       63       62       64       70       67 
      63       66       67       64       63       67       68       63 
      63       66       67       67       67       70       67       63 
      66       67       63       63       64       64       63       62 
      63       67       64       62       62       63       64       64 
      66       66       63       63       63       63       64       67 
      64       62       63       62       64       66       64       64 
      64       64       66       66       67       66       62       62 
      62       62       62       62       63       63       63       67 
      64       62       62       64       64       64       62       60 
      62       62       62       62       60       62       63       62 
      62       60       58       60       63       64       64       64 
      63       63       67       67       63       60       62       62 
      62       63       64       59       58       63       63       64 
      66       60       62       66       62       56       60       64 
      60       59       66       66       62       59       62       66 
      63       62       66       64       59       59       63       66 
      67       63       60       62       63       64       62       59 
      63       63       58       60       64       63       63       64 
      63       59       56       58       59       62       62       62 
      63       59       59       62       60       60       62       63 
      66       66       64       64       64       60       62       66 
      66       67       67       63       60       62       63       60 
      60       63       66       66       62       62       62       62 
      62       66       68       63       60       62       64       70 
      70       64       64       67       63       60       66       70 
      67       66       66       64       64       67       67       66 
      66       68       71       68       64       64       66       70 
      74       70       63       66       70       64       63       67 
      68       66       66       67       66       63       66       70 
      66       62       64       67       68       70       68       67 
      67       66       64       64       66       66       64       63 
      62       63       63       62       62       62       66       66 
      59       51       31      -27     -147     -342     -544     -599 
    -433     -151      174      621     1050      992      403     -105 
    -141       24      -62     -507     -899     -742     -114      433 
     658      830      942      683      152     -345     -419      167 
     822      878      257     -500     -324      562      538     -514 
   -1194     -912       33      693       79     -523      198      457 
    -384     -368      399      585      664      961      974     1139 
    1458      812     -619    -1479    -1043       98      205     -942 
   -1328     -622     -298     -355      -55      226      116      167 
     437      272      -63        8      306      607      864      940 
     812      603      527      579      162     -653     -724     -207 
    -141     -248     -187     -174     -162     -383     -649     -473 
    -145      257      688      953     1355     1290       63    -1119 
   -1071     -170      556      461      151      267      433      449 
     187     -430     -858     -920     -608       27      433      594 
     380     -394     -402      480      399     -425     -502       17 
     548      858      517     -222     -463     -187      274      837 
     750     -225     -770     -491     -473     -486      164      398 
    -278     -683     -390      113      612      903      739      276 
     -43       70      399      438      153      -49      -32       78 
     240      322      206       43      -71     -113      -91     -151 
    -218     -232     -349     -411      -33      502      441       99 
     313      692      676      580      531      315       44     -167 
    -433     -560     -361     -313     -579     -552     -135      114 
     153      195      137      365      822      457     -249     -249 
    -143     -148      179      449      400      279       18     -311 
    -236       83       66       25      361      481      182      -12 
    -276     -814    -1078     -978     -704      -58      685      972 
    1009     1047      714       45     -535     -724       59     1375 
    1648      932      234     -490     -989     -795     -584     -681 
    -357      288      244     -469     -773     -471     -338     -346 
      22      648     1186     1320     1047      787      703      869 
    1165      876       66     -135      261       44     -830    -1336 
   -1192     -747     -270      -91     -282     -571     -818     -549 
     360      859      562      232      319      764     1121      830 
      89     -202      205      557      571      734      614     -415 
   -1296    -1328    -1058     -502     -272     -985    -1247     -225 
     932     1449     1491     1112      604      665     1102     1242 
     999      359     -434    -1067    -1443    -1023      -66      364 
     332      199     -162     -476     -460     -410     -592     -565 
     102      819      808      417      384      587      556      434 
     634      986     1007      745      330     -395    -1139    -1370 
   -1202    -1024     -649      -41      178      -67     -487     -919 
    -676      305      888      965     1209     1131      685      781 
    1104      963      398     -448    -1008     -832     -414     -155 
    -106     -514     -886     -426      191      175       20      -55 
    -380     -518       14      575      602      376      283      426 
     376       33       -4      206      305      514      595      -18 
    -801     -928     -693     -445      109      634      533       89 
    -218     -193      149      560      854      837      607      486 
     190     -237     -249     -151     -319     -496     -549     -449 
    -268     -117      -66     -172      -70      222      259      256 
     122     -303     -244      195      233      413     1036     1152 
     792      842      781      -86     -684     -496     -429     -386 
     -91      -75     -167     -260     -522     -560     -719    -1105 
    -785       47      591      855     1073     1134      777      378 
     344      434      546      687      592      129     -302     -264 
    -226     -665     -955     -746     -623     -692     -499     -102 
      70      -85      -41      492      796      660      827     1063 
     734      301      221      334      423      238      117      379 
     318     -234     -599     -595     -371     -193     -168     -175 
    -425     -702     -530     -280     -162       78      373      600 
     669      751     1048     1077      452     -317     -400       89 
     135     -321     -527     -634     -791     -538      -64      249 
     368      243      162      170      -28      -56      226      337 
     463      807      816      498      355      216      -49      -97 
    -103     -333     -353     -243     -468     -537     -228     -191 
    -384     -299       62      499      773      604      329      430 
     479      290      313      415      465      530      378      125 
      28      -59     -292     -622     -785     -637     -475     -369 
    -163      -56      -83      -31      122      526     1105     1216 
     687      194       51       25       74       60     -175     -268 
    -135      -75       37      140      -91     -383     -324       21 
     283      180     -170     -394     -268       81      413      611 
     579      310      110      334      637      340     -206     -357 
    -321     -103      360      325     -360     -684     -325        4 
      51       81      210      299      109        2      371      615 
     373       86     -156     -218      216      538      171     -241 
    -157      175      514      595      234     -247     -606     -818 
    -683     -144      365      375       51     -214     -334     -130 
     282      411      342      427      490      380      325      325 
     160      -55        5      168      -12     -399     -693     -895 
    -830     -495     -301     -298     -236     -137       31      344 
     565      594      562      433      217      330      881     1175 
     892      540      387      225      -25     -144      -44        4 
    -145     -321     -425     -518     -483     -214       43      186 
     645     1441     1740     1192      407     -102     -259     -198 
    -144     -230     -433     -642     -816     -807     -584     -464 
    -405     -287     -364     -352        8      180      -99     -654 
   -1113     -918     -189      442      841     1082     1050      745 
     441      297       33     -388     -660     -880    -1209    -1444 
   -1452    -1304    -1115     -683      217     1081     1498     1672 
    1649     1525     1529     1470     1101      522      109      179 
     510      669      541      160     -379     -862    -1109    -1011 
    -699     -550     -550     -322       37      199      229      318 
     614     1119     1512     1728     1830     1529      923      527 
     144     -541     -992    -1100    -1404    -1570    -1159     -630 
    -357     -226      -82       27      -40     -206     -191       55 
     303      481      576      387      113      306      712      642 
     325      153     -168     -665     -982    -1096    -1113    -1054 
    -912     -724     -560     -306      170      750     1254     1541 
    1607     1549     1399     1283     1198      973      715      459 
      72     -261     -351     -309     -380     -577     -646     -526 
    -367     -232      -66      186      425      467      229      -54 
     117      772     1232     1163      822      398      118      118 
      78     -109     -234     -471     -947    -1309    -1372    -1340 
   -1356    -1267     -849     -218      279      529      661      828 
    1021     1100      939      556      160      -90     -302     -475 
    -406     -198     -198     -421     -472      -85      414      561 
     372       10     -352     -407     -176       49      178      287 
     456      554      477      479      747     1090     1143      760 
     218     -230     -595     -773     -739     -745     -830     -770 
    -450       54      560     1013     1382     1418     1073      615 
     148     -278     -440     -338     -195      -89      -55     -120 
     -82      125      232       86     -228     -550     -738     -788 
    -747     -642     -521     -379     -151       28      -32     -118 
      36      326      577      680      623      576      652      747 
     670      303     -268     -707     -764     -645     -652     -685 
    -604     -557     -615     -591     -368      -97      182      662 
    1183     1459     1529     1247      629      310      465      641 
     594      345      162      291      488      465      386      398 
     310       62      -81      -90     -195     -306     -388     -654 
    -909     -920     -814     -475      170      741     1048     1186 
    1066      650      247       83        1     -162     -403     -611 
    -599     -411     -295     -260     -191     -141     -153     -233 
    -419     -587     -558     -388     -226     -108       66      373 
     692      901      950      718      272     -105     -271     -265 
    -201      -81      202      452      417      311      329      361 
     441      603      658      537      315       51     -121     -133 
    -114     -164     -202      -79      126      182       54     -217 
    -500     -526     -302       21      403      681      734      687 
     634      513      336      276      325      319      255       63 
    -376     -866    -1250    -1584    -1672    -1320     -729     -178 
     148      278      442      669      816      873      930      982 
     885      630      261     -279     -710     -741     -688     -751 
    -643     -245      232      542      618      554      426      240 
      -6     -206     -226     -106       70      245      341      427 
     467      240      -98     -252     -295     -319     -305     -352 
    -491     -519     -322     -103      -20       18      114      361 
     747     1038     1080      901      658      608      720      714 
     587      483      332       21     -456     -978    -1347    -1509 
   -1453    -1146     -720     -373      -59      375      841     1220 
    1493     1483     1152      827      664      567      527      464 
     234     -130     -544     -842     -839     -639     -436     -249 
    -116      -91     -135     -157      -98       21      152      216 
      79     -198     -373     -363     -251      -81      143      325 
     390      390      398      476      676      896     1007     1040 
     963      700      346      -58     -521     -861     -999    -1055 
   -1081    -1071    -1024     -886     -712     -607     -461     -101 
     392      819     1084     1210     1248     1139      816      445 
     248      189      180      263      406      522      588      552 
     349       37     -271     -515     -642     -662     -600     -436 
    -292     -249     -125      159      475      702      754      623 
     419      301      290      264      216      222      268      345 
     419      418      240     -162     -621     -938    -1054    -1008 
    -965     -978     -924     -835     -741     -515     -253     -105 
      64      260      353      465      656      762      805      891 
     895      773      707      727      746      696      446       47 
    -271     -456     -542     -538     -504     -452     -388     -442 
    -542     -479     -373     -360     -280     -130      -86      -82 
      14      191      446      737      942     1036     1093     1162 
    1186     1000      525      -70     -557     -895    -1069    -1001 
    -800     -634     -494     -340     -178      -28      103      276 
     436      430      310      207      124       76       72       21 
     -70     -116      -79       70      376      756     1016     1073 
     946      653      301       24     -184     -326     -348     -314 
    -345     -434     -492     -454     -310      -82      125      232 
     332      456      479      405      353      348      378      375 
     253       58     -128     -319     -453     -423     -299     -171 
     -41       27        2      -31       -9       37       56       45 
      58       94      140      268      476      631      619      453 
     252       81      -66     -195     -357     -502     -519     -477 
    -464     -421     -325     -143      153      444      687      919 
    1044     1034      932      737      544      411      240       39 
    -121     -290     -467     -549     -542     -542     -534     -448 
    -353     -318     -255     -122       25      153      245      361 
