Origin Time       2025/03/28 03:50:00
Lat.              35.403
Long.             140.360
Depth. (km)       54
Mag.              4.4
Station Code      CHBH10
Station Lat.      35.5458
Station Long.     140.2417
Station Height(m) -1935
Record Time       2025/03/28 03:50:47
Sampling Freq(Hz) 100Hz
Duration Time(s)  120
Dir.              2
Scale Factor      2942(gal)/8224139
Max. Acc. (gal)   1.037
Last Correction   2025/03/28 03:50:47
Memo.             
[...]
  -54218   -54218   -54218   -54217   -54217   -54220   -54220   -54218 
  -54217   -54216   -54217   -54218   -54216   -54217   -54220   -54218 
  -54216   -54220   -54221   -54218   -54218   -54218   -54218   -54218 
  -54220   -54220   -54218   -54218   -54220   -54220   -54221   -54220 
  -54217   -54217   -54217   -54217   -54218   -54221   -54220   -54218 
  -54220   -54220   -54220   -54220   -54218   -54218   -54220   -54218 
  -54221   -54222   -54221   -54220   -54221   -54222   -54222   -54220 
  -54220   -54224   -54221   -54218   -54218   -54218   -54221   -54221 
  -54217   -54218   -54221   -54218   -54218   -54222   -54224   -54221 
  -54220   -54220   -54220   -54220   -54220   -54221   -54222   -54220 
  -54217   -54218   -54218   -54220   -54221   -54220   -54220   -54220 
  -54218   -54218   -54218   -54217   -54216   -54214   -54216   -54220 
  -54220   -54218   -54220   -54218   -54217   -54221   -54221   -54218 
  -54220   -54220   -54217   -54220   -54220   -54218   -54218   -54217 
  -54220   -54221   -54220   -54217   -54217   -54216   -54217   -54217 
  -54214   -54217   -54217   -54214   -54216   -54220   -54217   -54216 
  -54218   -54217   -54217   -54217   -54216   -54214   -54216   -54217 
  -54218   -54216   -54214   -54216   -54217   -54218   -54218   -54217 
  -54216   -54214   -54214   -54217   -54218   -54214   -54214   -54217 
  -54216   -54214   -54216   -54216   -54216   -54217   -54217   -54216 
  -54216   -54217   -54217   -54218   -54217   -54214   -54217   -54218 
  -54214   -54216   -54218   -54217   -54216   -54217   -54218   -54220 
  -54220   -54218   -54216   -54216   -54216   -54216   -54217   -54217 
  -54216   -54217   -54217   -54214   -54217   -54218   -54213   -54213 
  -54218   -54220   -54218   -54218   -54218   -54220   -54218   -54216 
  -54216   -54217   -54218   -54217   -54214   -54216   -54218   -54220 
  -54218   -54218   -54220   -54218   -54217   -54218   -54220   -54220 
  -54220   -54220   -54217   -54216   -54216   -54216   -54217   -54220 
  -54221   -54220   -54217   -54216   -54217   -54218   -54220   -54218 
  -54216   -54217   -54221   -54220   -54217   -54218   -54220   -54220 
  -54217   -54214   -54216   -54216   -54216   -54217   -54217   -54216 
  -54216   -54216   -54218   -54217   -54217   -54216   -54214   -54216 
  -54216   -54218   -54220   -54218   -54216   -54217   -54220   -54218 
  -54218   -54218   -54218   -54218   -54218   -54218   -54220   -54218 
  -54217   -54218   -54220   -54218   -54218   -54218   -54218   -54217 
  -54216   -54218   -54221   -54221   -54220   -54218   -54218   -54220 
  -54218   -54216   -54217   -54217   -54217   -54218   -54220   -54220 
  -54220   -54218   -54218   -54214   -54213   -54217   -54217   -54214 
  -54217   -54218   -54218   -54218   -54218   -54218   -54218   -54218 
  -54217   -54217   -54217   -54217   -54217   -54217   -54222   -54221 
  -54216   -54217   -54220   -54216   -54216   -54217   -54216   -54218 
  -54220   -54218   -54218   -54218   -54217   -54218   -54220   -54218 
  -54218   -54217   -54218   -54220   -54217   -54216   -54217   -54218 
  -54220   -54218   -54216   -54218   -54220   -54217   -54216   -54216 
  -54216   -54216   -54214   -54216   -54218   -54217   -54216   -54218 
  -54217   -54216   -54216   -54214   -54216   -54214   -54216   -54218 
  -54217   -54216   -54218   -54220   -54218   -54218   -54217   -54218 
  -54218   -54216   -54216   -54214   -54214   -54216   -54218   -54218 
  -54216   -54216   -54217   -54216   -54216   -54217   -54216   -54218 
  -54218   -54218   -54217   -54218   -54218   -54218   -54218   -54216 
  -54216   -54216   -54217   -54217   -54218   -54217   -54216   -54217 
  -54220   -54220   -54216   -54217   -54220   -54218   -54216   -54217 
  -54217   -54218   -54218   -54218   -54217   -54217   -54217   -54220 
  -54221   -54218   -54218   -54220   -54217   -54217   -54220   -54218 
  -54218   -54221   -54220   -54218   -54220   -54218   -54218   -54217 
  -54217   -54218   -54217   -54217   -54218   -54218   -54217   -54220 
  -54221   -54220   -54218   -54218   -54217   -54217   -54217   -54218 
  -54218   -54218   -54221   -54220   -54221   -54222   -54220   -54217 
  -54217   -54218   -54220   -54221   -54220   -54218   -54217   -54217 
  -54218   -54220   -54218   -54218   -54221   -54222   -54220   -54218 
  -54220   -54218   -54218   -54220   -54221   -54218   -54217   -54218 
  -54220   -54218   -54218   -54220   -54220   -54218   -54221   -54221 
  -54221   -54224   -54221   -54220   -54220   -54217   -54214   -54217 
  -54220   -54218   -54214   -54217   -54220   -54218   -54220   -54218 
  -54217   -54218   -54220   -54217   -54220   -54220   -54220   -54218 
  -54218   -54220   -54220   -54220   -54218   -54216   -54217   -54220 
  -54217   -54214   -54214   -54216   -54217   -54217   -54218   -54216 
  -54217   -54218   -54217   -54218   -54220   -54220   -54220   -54218 
  -54217   -54217   -54216   -54217   -54218   -54220   -54217   -54216 
  -54218   -54220   -54218   -54220   -54218   -54220   -54221   -54218 
  -54216   -54220   -54221   -54216   -54216   -54218   -54218   -54217 
  -54218   -54217   -54218   -54217   -54213   -54213   -54216   -54218 
  -54221   -54217   -54216   -54220   -54221   -54218   -54218   -54216 
  -54217   -54220   -54218   -54217   -54218   -54217   -54216   -54214 
  -54214   -54217   -54217   -54216   -54217   -54218   -54218   -54217 
  -54216   -54218   -54216   -54216   -54218   -54218   -54218   -54217 
  -54214   -54214   -54216   -54217   -54218   -54218   -54218   -54218 
  -54220   -54218   -54217   -54217   -54217   -54216   -54214   -54217 
  -54218   -54217   -54217   -54218   -54216   -54216   -54217   -54218 
  -54218   -54217   -54217   -54217   -54218   -54220   -54217   -54214 
  -54216   -54217   -54216   -54217   -54218   -54217   -54217   -54216 
  -54218   -54220   -54216   -54217   -54218   -54218   -54218   -54217 
  -54214   -54217   -54220   -54218   -54218   -54220   -54217   -54217 
  -54217   -54217   -54218   -54225   -54229   -54233   -54241   -54244 
  -54237   -54228   -54226   -54234   -54240   -54244   -54241   -54214 
  -54147   -54062   -54055   -54157   -54276   -54351   -54361   -54275 
  -54182   -54176   -54170   -54174   -54220   -54156   -54086   -54184 
  -54243   -54220   -54306   -54328   -54189   -54168   -54259   -54224 
  -54199   -54274   -54238   -54184   -54221   -54198   -54233   -54353 
  -54309   -54248   -54322   -54276   -54116   -54090   -54133   -54139 
  -54176   -54210   -54217   -54271   -54319   -54278   -54205   -54179 
  -54162   -54139   -54140   -54108   -54108   -54179   -54198   -54229 
  -54390   -54414   -54164   -54102   -54255   -54210   -54218   -54356 
  -54190   -54054   -54267   -54314   -54272   -54427   -54344   -54221 
  -54303   -54025   -53910   -54414   -54453   -54083   -54155   -54241 
  -54095   -54145   -54315   -54295   -54157   -54108   -54183   -54252 
  -54232   -54243   -54249   -54153   -54122   -54095   -54095   -54392 
  -54498   -54176   -54156   -54321   -54209   -54252   -54465   -54332 
  -54009   -54051   -54369   -54399   -54228   -54224   -54067   -53939 
  -54313   -54463   -54152   -54075   -54145   -54149   -54103   -53937 
  -54051   -54367   -54240   -54032   -54248   -54369   -54147   -54137 
  -54415   -54390   -54156   -54170   -54270   -54332   -54276   -54094 
  -54182   -54430   -54446   -54441   -54546   -54396   -54029   -54048 
  -54279   -54079   -53977   -54432   -54630   -54342   -54226   -54202 
  -53995   -54043   -54299   -54229   -54116   -54052   -53797   -54021 
  -54508   -54340   -54047   -54002   -53924   -54068   -54368   -54275 
  -53952   -54121   -54511   -54367   -54168   -54265   -54210   -54330 
  -54616   -54421   -54194   -54384   -54599   -54452   -53974   -53754 
  -53831   -53900   -54209   -54367   -54195   -54403   -54608   -54363 
  -54261   -54253   -54091   -54070   -54099   -54152   -54271   -54248 
  -54272   -54284   -54014   -54009   -54287   -54171   -54198   -54518 
  -54190   -53816   -54082   -54332   -54531   -54577   -54193   -54106 
  -54487   -54730   -54499   -53870   -53700   -54035   -54001   -53913 
  -54085   -54152   -54353   -54535   -54346   -54301   -54392   -54314 
  -54299   -54230   -54067   -53968   -53844   -53955   -54348   -54471 
  -54218   -54010   -54036   -54180   -54411   -54483   -54032   -53654 
  -54049   -54476   -54367   -54302   -54405   -54503   -54554   -54186 
  -53817   -54166   -54514   -54267   -54117   -54314   -54379   -54337 
  -54607   -54839   -54322   -53650   -53739   -54110   -54286   -54526 
  -54508   -53921   -53470   -53894   -54522   -54236   -53867   -54213 
  -54237   -54075   -54353   -54398   -54290   -54413   -54333   -54020 
  -53771   -53809   -54263   -54564   -54276   -53991   -54302   -54922 
  -55078   -54576   -54054   -53878   -53925   -54174   -54325   -54076 
  -53836   -54024   -54324   -54311   -54287   -54313   -54141   -54256 
  -54537   -54341   -53836   -53677   -54245   -54554   -54199   -54133 
  -54120   -54097   -54456   -54494   -54226   -54220   -54313   -54315 
  -54137   -54009   -54244   -54400   -54194   -54062   -54210   -54426 
  -54607   -54625   -54149   -53503   -53491   -54168   -54776   -54546 
  -53860   -53738   -54060   -54183   -54070   -53974   -54051   -54276 
  -54567   -54687   -54553   -54541   -54486   -54074   -53855   -54016 
  -54259   -54491   -54488   -54260   -54008   -53920   -54098   -54218 
  -54218   -54249   -54257   -54170   -53863   -53777   -54194   -54364 
  -54193   -54201   -54279   -54344   -54454   -54494   -54356   -54222 
  -54440   -54661   -54444   -54230   -54303   -54279   -54184   -54392 
  -54510   -54199   -54093   -54256   -54091   -53878   -53967   -53944 
  -53811   -53966   -54179   -54070   -53825   -53844   -54199   -54391 
  -54224   -54278   -54500   -54367   -54136   -54087   -54082   -54291 
  -54745   -54621   -53819   -53534   -54033   -54738   -55148   -54895 
  -54580   -54506   -54202   -54051   -54183   -54252   -54415   -54236 
  -53754   -53917   -54135   -53991   -54351   -54739   -54567   -54193 
  -53650   -53445   -53785   -54070   -54259   -54180   -53786   -53836 
  -54525   -55040   -54913   -54545   -54086   -53627   -53646   -53858 
  -53829   -53847   -53939   -54093   -54314   -54368   -54533   -54724 
  -54658   -54823   -54943   -54488   -54029   -54041   -54279   -54157 
  -53773   -53838   -54121   -54275   -54604   -54908   -54731   -54144 
  -53863   -54240   -54546   -54684   -54816   -54286   -53677   -53871 
  -53985   -53731   -53751   -53774   -53831   -54236   -54457   -54495 
  -54572   -54152   -53428   -53207   -53522   -54010   -54529   -55021 
  -55285   -55161   -54919   -54837   -54766   -54703   -54619   -54263 
  -54032   -54186   -54171   -53958   -53929   -54001   -53932   -53496 
  -52899   -52807   -52952   -52759   -52679   -53057   -53707   -54340 
  -54853   -55383   -55547   -55179   -54965   -55005   -54827   -54561 
  -54557   -54766   -54880   -54473   -53678   -53203   -53184   -53293 
  -53443   -53595   -53658   -53700   -53817   -54086   -54403   -54388 
  -53966   -53457   -53261   -53732   -54406   -54853   -55567   -55780 
  -54305   -52712   -52988   -54527   -56016   -57013   -57028   -55732 
  -53851   -52558   -52330   -53261   -55183   -56309   -55534   -54642 
  -54122   -53157   -53129   -54244   -54571   -54276   -54500   -54714 
  -54440   -53978   -53566   -53604   -54048   -54337   -54388   -54130 
  -53392   -52984   -53944   -55120   -54820   -53913   -53352   -53072 
  -53638   -54710   -55422   -55607   -55323   -55274   -55192   -54187 
  -53366   -53599   -54361   -54946   -54039   -52339   -52450   -53774 
  -54464   -55024   -55787   -56234   -56127   -55479   -54517   -53196 
  -52077   -51885   -52523   -54550   -56504   -55219   -52766   -53063 
  -54957   -55682   -55173   -54723   -54348   -53477   -52645   -52859 
  -54459   -55746   -54541   -52775   -53499   -55066   -55113   -54226 
  -53319   -52812   -52749   -52820   -53370   -55055   -56741   -56235 
  -54622   -54028   -53514   -52953   -53268   -53678   -53948   -54315 
  -54152   -53388   -53312   -54625   -55495   -54818   -54295   -54409 
  -53906   -53492   -54378   -54845   -54068   -54548   -55864   -55486 
  -54734   -54680   -54035   -53573   -53734   -53056   -52429   -53142 
  -54251   -55182   -55309   -54018   -53096   -54230   -55425   -54244 
  -52755   -53530   -54832   -55067   -54980   -54999   -55603   -56111 
  -54845   -53505   -53829   -54056   -53927   -54356   -54306   -53925 
  -54396   -54372   -53275   -53337   -54133   -54016   -54492   -55437 
  -54445   -52687   -53048   -54951   -56008   -55607   -55028   -55296 
  -55539   -54885   -54087   -54067   -54622   -54367   -53491   -53874 
  -54735   -54507   -53878   -53473   -53038   -52343   -51853   -52452 
  -53940   -55080   -54947   -54272   -54477   -55185   -55179   -54484 
  -53689   -53091   -52578   -52131   -52326   -52770   -52381   -52196 
  -53431   -54757   -55159   -55408   -55547   -54688   -53308   -52968 
  -54144   -55723   -56070   -54930   -53635   -52899   -52394   -52365 
  -53410   -54827   -55460   -55722   -56366   -56675   -55952   -54749 
  -54072   -54796   -55925   -54922   -52724   -52853   -54661   -55142 
  -55073   -56174   -56826   -55584   -54043   -53790   -54429   -55185 
  -55579   -55462   -55192   -54606   -53815   -53551   -53298   -52590 
  -52051   -51671   -51318   -51398   -51787   -52081   -52355   -52786 
  -53223   -53751   -54504   -54822   -54373   -54259   -55057   -55638 
  -55283   -54916   -55532   -56517   -56292   -54749   -53584   -53721 
  -53931   -53365   -53048   -53373   -54013   -54997   -55676   -55710 
  -55478   -55054   -54859   -55212   -55448   -55167   -54958   -55144 
  -54843   -53596   -52645   -52751   -52929   -52609   -52616   -53349 
  -54036   -54010   -53673   -54110   -55144   -55530   -55424   -55399 
  -55011   -54448   -54472   -54850   -54903   -54575   -54176   -53959 
  -53967   -53890   -53712   -53646   -53248   -52768   -53250   -54117 
  -54336   -54380   -54504   -54290   -53964   -53761   -53482   -53210 
  -53276   -53815   -54468   -54880   -54857   -54336   -53904   -53781 
  -53588   -53833   -54585   -54753   -54531   -54855   -55313   -55316 
  -55031   -54523   -53721   -53217   -53558   -54062   -54051   -53894 
  -54074   -54691   -55266   -55171   -54685   -54392   -54367   -54349 
  -54149   -53960   -53717   -53245   -53002   -52983   -52996   -53730 
  -54893   -55159   -54704   -54456   -54415   -54568   -55017   -55237 
  -54954   -54564   -54283   -54000   -53642   -53503   -53908   -54460 
  -54702   -54737   -54575   -54193   -53929   -53956   -54027   -54012 
  -54058   -54282   -54534   -54492   -54256   -54287   -54394   -54078 
  -53674   -53566   -53543   -53809   -54426   -54720   -54629   -54395 
  -53981   -53742   -53781   -53800   -54064   -54828   -55463   -55310 
  -54768   -54274   -53612   -53295   -53854   -54353   -54243   -54334 
  -54827   -55028   -54857   -54562   -53940   -53038   -52259   -52018 
  -52577   -53234   -53257   -53338   -54163   -55067   -55198   -54931 
  -55158   -55637   -55684   -55580   -55583   -55236   -54696   -54515 
  -54380   -54337   -54869   -55067   -54063   -52767   -52126   -52185 
  -52814   -53561   -54144   -54729   -55067   -55142   -55310   -55274 
  -54707   -53913   -53345   -53253   -53516   -53769   -53773   -53631 
  -53507   -53559   -54141   -54954   -55005   -54353   -54025   -54211 
  -54409   -54400   -54198   -53897   -53643   -53686   -54101   -54305 
  -53927   -53585   -54144   -55352   -55921   -55695   -55597   -55359 
  -54639   -54059   -53646   -53434   -53730   -53866   -53603   -53676 
  -53933   -53860   -53804   -54139   -54565   -54680   -54697   -54924 
  -55053   -54726   -54006   -53422   -53487   -54004   -54569   -54800 
  -54333   -53719   -53565   -53387   -53034   -53036   -53277   -53512 
  -53932   -54471   -54827   -54985   -55046   -54908   -54656   -54592 
  -54577   -54375   -54193   -54193   -54337   -54469   -54286   -53985 
  -54089   -54380   -54409   -54301   -54133   -53820   -53640   -53754 
  -54033   -54519   -55039   -55173   -54934   -54646   -54502   -54518 
  -54625   -54688   -54413   -53813   -53454   -53500   -53572   -53472 
  -53446   -53765   -53955   -53812   -54159   -54982   -55339   -55071 
  -54618   -54434   -54649   -54606   -54068   -53975   -54518   -54785 
  -54584   -54348   -54251   -54099   -53765   -53765   -54220   -54360 
  -54082   -53879   -53906   -54373   -55169   -55476   -54939   -54180 
  -53802   -53605   -53329   -53238   -53246   -52974   -52816   -53225 
  -53882   -54541   -55129   -55237   -54778   -54411   -54535   -54733 
  -54600   -54247   -53871   -53616   -53541   -53603   -53885   -54272 
  -54352   -54110   -53879   -53813   -53823   -53829   -53964   -54122 
  -54129   -54373   -54873   -54984   -54762   -54575   -54313   -54263 
  -54665   -54903   -54675   -54363   -54105   -53885   -53919   -54124 
  -54109   -54052   -54291   -54626   -54692   -54498   -54527   -55004 
  -55425   -55320   -54772   -54338   -54348   -54378   -54178   -53997 
  -53719   -53399   -53693   -54481   -55000   -55131   -54989   -54704 
  -54572   -54372   -53869   -53461   -53387   -53585   -54081   -54546 
  -54453   -54009   -53825   -53828   -53812   -54029   -54390   -54567 
  -54649   -54729   -54695   -54565   -54330   -53838   -53341   -53366 
  -53700   -53848   -54006   -54106   -53752   -53260   -53037   -53071 
  -53219   -53354   -53646   -54159   -54614   -54804   -54596   -54182 
  -54029   -54194   -54395   -54413   -54190   -53801   -53515   -53763 
  -54423   -54885   -54984   -54826   -54522   -54356   -54402   -54434 
  -54427   -54486   -54449   -54237   -54139   -54298   -54441   -54363 
  -54224   -54117   -53905   -53612   -53487   -53716   -54060   -54120 
  -54078   -54221   -54337   -54271   -54171   -54187   -54216   -53978 
  -53720   -53978   -54461   -54577   -54456   -54486   -54660   -54710 
  -54649   -54615   -54407   -54029   -53851   -53974   -54195   -54279 
  -54210   -54174   -54151   -54094   -54153   -54257   -54309   -54534 
  -54855   -54884   -54743   -54688   -54581   -54446   -54452   -54446 
  -54344   -54355   -54467   -54396   -54049   -53651   -53511   -53694 
  -53958   -53919   -53460   -52999   -52963   -53261   -53601   -53865 
  -54141   -54591   -55102   -55337   -55313   -55374   -55503   -55331 
  -54741   -54121   -53858   -53848   -53805   -53646   -53466   -53435 
  -53585   -53693   -53688   -53817   -54091   -54210   -54220   -54409 
  -54803   -55235   -55387   -55065   -54558   -54164   -53851   -53634 
  -53542   -53455   -53392   -53511   -53801   -54116   -54318   -54398 
  -54507   -54600   -54517   -54400   -54502   -54824   -55165   -55414 
  -55507   -55231   -54645   -54116   -53732   -53439   -53361   -53597 
  -54051   -54477   -54738   -54859   -54801   -54693   -54787   -54874 
  -54703   -54495   -54357   -54112   -53808   -53623   -53516   -53427 
  -53458   -53584   -53657   -53696   -53766   -53758   -53493   -53119 
  -53034   -53280   -53603   -53975   -54498   -55111   -55629   -55907 
  -55902   -55571   -55011   -54541   -54305   -54160   -54078   -54187 
