Origin Time       2025/03/28 03:50:00
Lat.              35.403
Long.             140.360
Depth. (km)       54
Mag.              4.4
Station Code      CHBH06
Station Lat.      35.7215
Station Long.     140.5046
Station Height(m) -145
Record Time       2025/03/28 03:50:49
Sampling Freq(Hz) 100Hz
Duration Time(s)  120
Dir.              1
Scale Factor      3923(gal)/8224838
Max. Acc. (gal)   2.910
Last Correction   2025/03/28 03:50:49
Memo.             
[...]
   -1047    -1042    -1039    -1042    -1042    -1039    -1042    -1042 
   -1040    -1042    -1043    -1042    -1040    -1040    -1040    -1042 
   -1043    -1043    -1042    -1042    -1042    -1043    -1046    -1043 
   -1040    -1042    -1039    -1036    -1042    -1043    -1039    -1039 
   -1040    -1038    -1039    -1042    -1039    -1038    -1042    -1040 
   -1036    -1036    -1038    -1035    -1038    -1042    -1036    -1035 
   -1040    -1039    -1035    -1035    -1036    -1039    -1042    -1040 
   -1036    -1039    -1040    -1038    -1038    -1043    -1043    -1040 
   -1039    -1038    -1040    -1042    -1039    -1038    -1039    -1039 
   -1038    -1038    -1038    -1036    -1040    -1040    -1036    -1034 
   -1036    -1036    -1034    -1035    -1038    -1038    -1038    -1039 
   -1036    -1035    -1039    -1040    -1036    -1036    -1038    -1038 
   -1042    -1042    -1036    -1035    -1038    -1040    -1044    -1043 
   -1038    -1035    -1039    -1039    -1039    -1042    -1040    -1038 
   -1040    -1042    -1035    -1035    -1039    -1034    -1035    -1042 
   -1040    -1038    -1042    -1039    -1035    -1035    -1035    -1036 
   -1040    -1043    -1039    -1035    -1036    -1038    -1036    -1038 
   -1036    -1036    -1038    -1038    -1039    -1038    -1036    -1040 
   -1042    -1038    -1036    -1039    -1039    -1038    -1036    -1034 
   -1036    -1040    -1040    -1036    -1034    -1034    -1035    -1038 
   -1039    -1038    -1036    -1035    -1034    -1036    -1039    -1038 
   -1039    -1040    -1036    -1034    -1034    -1036    -1038    -1035 
   -1039    -1044    -1040    -1039    -1043    -1036    -1034    -1040 
   -1040    -1036    -1036    -1036    -1036    -1038    -1035    -1035 
   -1039    -1039    -1040    -1043    -1038    -1032    -1038    -1043 
   -1039    -1038    -1042    -1040    -1038    -1035    -1036    -1039 
   -1039    -1040    -1046    -1043    -1035    -1038    -1042    -1042 
   -1043    -1043    -1042    -1040    -1042    -1042    -1043    -1043 
   -1040    -1039    -1042    -1044    -1043    -1046    -1047    -1040 
   -1040    -1044    -1040    -1039    -1047    -1051    -1047    -1044 
   -1047    -1046    -1043    -1043    -1043    -1043    -1042    -1043 
   -1044    -1046    -1047    -1046    -1042    -1043    -1044    -1043 
   -1047    -1046    -1040    -1044    -1047    -1044    -1047    -1046 
   -1044    -1046    -1046    -1044    -1043    -1044    -1046    -1042 
   -1040    -1048    -1050    -1044    -1044    -1044    -1043    -1042 
   -1042    -1039    -1038    -1042    -1046    -1044    -1039    -1038 
   -1038    -1040    -1044    -1044    -1039    -1038    -1038    -1035 
   -1038    -1042    -1038    -1038    -1046    -1046    -1040    -1042 
   -1043    -1039    -1036    -1036    -1036    -1038    -1042    -1043 
   -1042    -1036    -1034    -1036    -1038    -1036    -1038    -1039 
   -1040    -1042    -1038    -1032    -1035    -1036    -1039    -1039 
   -1036    -1034    -1034    -1036    -1036    -1035    -1034    -1032 
   -1034    -1034    -1032    -1036    -1039    -1036    -1036    -1036 
   -1035    -1034    -1035    -1038    -1036    -1036    -1036    -1035 
   -1032    -1035    -1039    -1035    -1032    -1039    -1038    -1032 
   -1038    -1042    -1036    -1035    -1036    -1034    -1032    -1034 
   -1035    -1036    -1038    -1035    -1034    -1039    -1040    -1036 
   -1036    -1036    -1039    -1040    -1038    -1035    -1036    -1039 
   -1042    -1039    -1036    -1039    -1036    -1034    -1039    -1039 
   -1035    -1036    -1035    -1035    -1038    -1039    -1042    -1044 
   -1039    -1038    -1042    -1040    -1035    -1039    -1044    -1042 
   -1038    -1040    -1042    -1042    -1039    -1038    -1039    -1039 
   -1039    -1040    -1038    -1038    -1042    -1042    -1040    -1043 
   -1044    -1043    -1042    -1039    -1040    -1044    -1043    -1040 
   -1043    -1044    -1040    -1038    -1040    -1042    -1040    -1040 
   -1039    -1042    -1043    -1039    -1039    -1043    -1040    -1035 
   -1036    -1040    -1042    -1040    -1043    -1042    -1042    -1043 
   -1039    -1039    -1042    -1039    -1038    -1042    -1043    -1042 
   -1038    -1038    -1039    -1039    -1036    -1036    -1039    -1040 
   -1036    -1035    -1038    -1036    -1035    -1036    -1036    -1036 
   -1040    -1038    -1031    -1032    -1039    -1038    -1034    -1036 
   -1040    -1040    -1038    -1036    -1036    -1039    -1036    -1032 
   -1038    -1040    -1034    -1035    -1039    -1035    -1032    -1036 
   -1039    -1038    -1035    -1034    -1035    -1038    -1040    -1036 
   -1032    -1036    -1038    -1032    -1034    -1040    -1040    -1039 
   -1038    -1038    -1038    -1040    -1042    -1036    -1038    -1042 
   -1042    -1040    -1039    -1039    -1038    -1036    -1039    -1040 
   -1042    -1042    -1039    -1038    -1036    -1040    -1043    -1043 
   -1043    -1043    -1042    -1040    -1038    -1036    -1040    -1044 
   -1046    -1043    -1036    -1035    -1038    -1036    -1038    -1043 
   -1043    -1039    -1042    -1044    -1039    -1038    -1039    -1038 
   -1039    -1044    -1043    -1040    -1038    -1039    -1039    -1042 
   -1047    -1047    -1043    -1043    -1044    -1043    -1042    -1042 
   -1042    -1044    -1044    -1043    -1042    -1039    -1039    -1046 
   -1044    -1040    -1046    -1047    -1043    -1039    -1035    -1032 
   -1040    -1046    -1044    -1044    -1047    -1043    -1035    -1036 
   -1042    -1040    -1042    -1050    -1048    -1042    -1040    -1039 
   -1036    -1038    -1040    -1043    -1046    -1046    -1039    -1036 
   -1036    -1038    -1043    -1050    -1047    -1043    -1042    -1035 
   -1032    -1038    -1038    -1039    -1047    -1047    -1040    -1038 
   -1035    -1035    -1040    -1043    -1043    -1042    -1040    -1039 
   -1040    -1043    -1040    -1040    -1042    -1040    -1040    -1044 
   -1042    -1039    -1040    -1039    -1036    -1040    -1042    -1043 
   -1046    -1042    -1035    -1036    -1039    -1040    -1039    -1042 
   -1044    -1042    -1038    -1040    -1042    -1038    -1040    -1042 
   -1039    -1039    -1038    -1040    -1044    -1042    -1039    -1040 
   -1040    -1039    -1038    -1038    -1038    -1040    -1046    -1039 
   -1035    -1042    -1042    -1035    -1040    -1046    -1040    -1040 
   -1042    -1039    -1038    -1039    -1038    -1040    -1047    -1044 
   -1036    -1036    -1042    -1046    -1057    -1074    -1089    -1092 
   -1080    -1059    -1028     -994     -970     -970    -1009    -1055 
   -1055    -1026    -1024    -1065    -1109    -1105    -1051     -993 
    -963     -942     -918     -928     -993    -1069    -1097    -1074 
   -1024     -980     -986    -1043    -1059     -985     -924     -996 
   -1140    -1212    -1161    -1065    -1054    -1138    -1156    -1074 
   -1021    -1009     -939     -901    -1042    -1175    -1081     -945 
    -989    -1051    -1003     -994    -1057    -1086    -1119    -1115 
    -982     -949    -1098    -1097     -962    -1026    -1111     -966 
    -909    -1108    -1200    -1071    -1007     -990     -869     -864 
   -1092    -1181     -997     -927    -1075    -1161    -1115    -1009 
    -834     -761     -924    -1023     -897     -899    -1119    -1316 
   -1521    -1669    -1421     -962     -884    -1127    -1092     -743 
    -630     -924    -1189    -1109     -950    -1055    -1323    -1381 
   -1134     -870     -796     -762     -683     -747    -1011    -1206 
   -1200    -1093     -936     -885    -1116    -1348    -1216     -918 
    -792     -862    -1121    -1352    -1166     -897    -1096    -1358 
   -1219    -1004     -908     -823     -954    -1167     -973     -645 
    -665     -787     -832    -1013    -1254    -1347    -1289    -1129 
   -1028    -1159    -1375    -1382    -1085     -737     -715     -988 
   -1159    -1131    -1094    -1086    -1105    -1115     -878     -560 
    -714    -1092    -1047     -932    -1144    -1166     -932    -1036 
   -1372    -1362     -966     -599     -612    -1026    -1448    -1474 
   -1216    -1169    -1395    -1398    -1038     -738     -631     -608 
    -918    -1486    -1580    -1080     -652     -608     -911    -1416 
   -1505     -997     -770    -1039    -1032     -849    -1062    -1209 
    -869     -650     -789     -795     -793    -1158    -1360    -1102 
    -969    -1040    -1003    -1093    -1306    -1233    -1107    -1266 
   -1285     -945     -832    -1159    -1359    -1158     -878     -741 
    -726     -820     -963    -1034     -955     -818     -772     -780 
    -892    -1289    -1603    -1368    -1044    -1162    -1294    -1101 
    -976    -1115    -1324    -1493    -1418    -1054     -788     -712 
    -579     -484     -534     -576     -760    -1134    -1161     -855 
    -891    -1228    -1355    -1285    -1244    -1231    -1173     -988 
    -808    -1039    -1568    -1683    -1321    -1096    -1080    -1001 
    -997    -1116    -1084     -812     -500     -418     -673    -1040 
   -1246    -1289    -1194     -924     -743     -869    -1084    -1347 
   -1664    -1590    -1120     -855     -876     -909     -972     -939 
    -727     -699     -897     -982    -1146    -1499    -1505    -1062 
    -772     -823     -903     -943    -1073    -1181    -1112     -982 
    -965    -1012    -1053    -1171    -1331    -1364    -1317    -1228 
    -932     -581     -588     -843     -908     -793     -792    -1028 
   -1449    -1710    -1494    -1116    -1008    -1107    -1156     -974 
    -653     -573     -792    -1000    -1112    -1201    -1102     -720 
    -411     -588    -1124    -1479    -1381     -973     -599     -684 
   -1210    -1503    -1278    -1102    -1336    -1641    -1640    -1239 
    -689     -473     -653     -922    -1142    -1129     -761     -498 
    -703     -973     -978     -976    -1143    -1401    -1644    -1698 
   -1534    -1297    -1003     -766     -845    -1062     -972     -626 
    -440     -603     -974    -1193    -1138    -1227    -1559    -1593 
   -1217     -943     -963    -1001     -951     -915     -855     -842 
    -972     -924     -645     -707    -1171    -1381    -1202    -1120 
   -1192    -1125     -997     -945     -913    -1057    -1364    -1277 
    -700     -402     -665     -981    -1174    -1344    -1321    -1193 
   -1278    -1308     -953     -708     -913    -1109    -1135    -1148 
    -936     -616     -697     -990    -1026    -1058    -1248    -1170 
    -923     -908     -859     -688     -919    -1521    -1740    -1374 
    -986     -851     -800     -803     -909     -985     -943     -962 
   -1127    -1283    -1405    -1435    -1190     -931    -1071    -1259 
   -1042     -953    -1359    -1470     -928     -525     -572     -533 
    -294     -318     -739    -1092    -1046     -982    -1336    -1815 
   -1921    -1672    -1267     -942    -1065    -1387    -1329    -1100 
   -1097    -1101    -1038    -1140    -1225    -1105     -970     -737 
    -378     -465     -928     -950     -716     -903    -1190    -1169 
    -984     -730     -670    -1023    -1254    -1042     -938    -1148 
   -1154     -981    -1131    -1364    -1231    -1008     -970    -1050 
   -1306    -1571    -1429    -1027     -869    -1012    -1254    -1448 
   -1309     -758     -352     -500     -795     -803     -720     -746 
    -741     -783    -1073    -1370    -1370    -1333    -1621    -1927 
   -1665     -978     -631     -911    -1325    -1378    -1182    -1102 
   -1047     -769     -560     -724     -920     -819     -747     -977 
   -1152     -972     -619     -341     -375     -870    -1404    -1377 
    -999     -949    -1240    -1421    -1456    -1532    -1579    -1499 
   -1333    -1198    -1235    -1391    -1364    -1047     -781     -783 
    -766     -583     -548     -738     -801     -654     -611     -824 
   -1108    -1248    -1252    -1225    -1197    -1104     -891     -805 
   -1077    -1309    -1196    -1086    -1048     -808     -662     -845 
    -919     -865    -1163    -1580    -1618    -1479    -1435    -1372 
   -1256    -1144    -1019     -881     -730     -583     -554     -606 
    -664     -873    -1125    -1096     -949     -963     -999    -1057 
   -1297    -1439    -1329    -1339    -1433    -1258    -1155    -1483 
   -1599    -1046     -527     -596     -865     -977     -959     -788 
    -545     -492     -660     -891    -1086    -1154    -1051     -955 
   -1005    -1071    -1059    -1021    -1035    -1235    -1458    -1204 
    -598     -409     -688     -869     -990    -1275    -1401    -1270 
   -1244    -1267    -1059     -940    -1263    -1552    -1355    -1031 
    -835     -558     -433     -808    -1212    -1131     -899     -797 
    -668     -751    -1206    -1344     -961     -901    -1308    -1416 
   -1228    -1213    -1169     -920     -892    -1152    -1289    -1298 
   -1399    -1557    -1695    -1669    -1378    -1085    -1007     -916 
    -591     -313     -492     -903    -1020     -830     -602     -492 
    -614     -913    -1089     -936     -675     -634     -839    -1169 
   -1447    -1468    -1301    -1125     -949     -986    -1471    -1875 
   -1568     -919     -558     -332       47      287      135     -205 
    -522     -864    -1389    -2122    -2770    -3117    -3419    -3865 
   -4113    -3974    -3838    -3846    -3474    -2559    -1717    -1267 
    -916     -608     -564     -812    -1347    -2034    -2357    -1952 
   -1107     -256      568     1474     2512     3743     4822     5062 
    4361     3096     1401     -414    -1552    -1703    -1382     -992 
    -604     -465     -562     -348      284      668      346     -480 
   -1489    -2363    -2594    -1984    -1193     -993    -1255    -1413 
   -1482    -1834    -2411    -2964    -3511    -3786    -3229    -2118 
   -1321     -951     -639     -441     -502     -760    -1358    -2303 
   -2870    -2608    -2174    -2178    -2338    -2187    -1699    -1247 
   -1151    -1273    -1286    -1144     -862     -382       74      172 
     -79     -526    -1082    -1598    -1983    -2270    -2409    -2466 
   -2883    -3777    -4414    -4218    -3568    -3011    -2539    -1854 
    -962     -334     -194       13      634     1090     1023      923 
    1127     1389     1570     1799     2049     2182     2160     1985 
    1906     2180     2523     2529     2280     1850      850     -940 
   -2990    -4527    -5132    -4677    -3372    -1939    -1028     -629 
    -592     -858     -946     -394      271      105     -919    -2057 
   -2907    -3443    -3446    -2821    -2035    -1636    -1773    -2299 
   -2764    -2628    -1980    -1439    -1086     -558     -113     -247 
    -718    -1055    -1291    -1661    -2139    -2428    -2363    -2226 
   -2246    -2133    -1717    -1490    -1660    -1536     -826     -325 
    -537     -982    -1173    -1148    -1040     -704      -35      565 
     471     -290    -1031    -1254     -962     -325      371      565 
      -6     -785    -1151    -1208    -1277    -1250    -1017     -918 
   -1108    -1192     -878     -253      486      874      522     -152 
    -508     -635     -831    -1032    -1309    -1907    -2527    -2716 
   -2708    -2839    -2924    -2843    -2776    -2671    -2382    -2127 
   -2046    -1728     -788      437     1250     1318      870      287 
    -319     -977    -1398    -1224     -685     -460     -807    -1408 
   -1900    -1965    -1341     -322      321      180     -464    -1124 
   -1482    -1391     -988     -826    -1247    -1679    -1377     -673 
    -514    -1070    -1694    -1848    -1517    -1030     -734     -730 
    -939    -1289    -1529    -1313     -810     -626     -970    -1431 
   -1625    -1711    -2014    -2281    -1881     -791      205      444 
     -12     -702    -1109     -939     -417       14      155      -71 
    -656    -1344    -1858    -2141    -2182    -1925    -1518    -1304 
   -1329    -1317    -1115     -811     -503     -338     -550    -1105 
   -1626    -1829    -1721    -1474    -1175     -854     -646     -654 
    -830    -1085    -1260    -1193     -980     -819     -604     -206 
      45     -122     -322     -243     -329     -841    -1210    -1134 
   -1092    -1260    -1262    -1151    -1274    -1435    -1344    -1192 
   -1129    -1050    -1054    -1277    -1530    -1717    -1908    -1892 
   -1497    -1201    -1443    -1792    -1786    -1746    -1806    -1462 
    -831     -675     -976    -1009     -606     -163      166      351 
     163     -344     -665     -508     -110      122      -18     -387 
    -707     -961    -1128     -942     -446      -81       10        2 
     -94     -328     -569     -799    -1161    -1561    -1780    -1922 
   -2204    -2563    -2841    -3022    -3100    -3010    -2853    -2799 
   -2754    -2533    -2196    -1834    -1451    -1231    -1382    -1672 
   -1702    -1459    -1138     -804     -562     -610     -947    -1359 
   -1578    -1356     -769     -299     -162      -18      352      756 
    1031     1128      907      438       72     -143     -430     -734 
    -950    -1177    -1398    -1464    -1437    -1540    -1775    -1896 
   -1760    -1374     -834     -430     -287     -121       79      -87 
    -513     -689     -762    -1186    -1702    -1845    -1730    -1594 
   -1482    -1575    -1888    -2038    -1842    -1476     -969     -271 
     406      854     1174     1474     1640     1584     1314      757 
    -168    -1341    -2432    -3137    -3483    -3678    -3744    -3622 
   -3430    -3299    -3219    -3188    -3199    -3073    -2671    -2199 
   -1883    -1621    -1377    -1372    -1576    -1621    -1279     -664 
     -44      406      664      800      847      670      187     -473 
   -1163    -1729    -1950    -1857    -1818    -2006    -2176    -2107 
   -1736    -1057     -280      222      391      454      378      -14 
    -473     -684     -842    -1190    -1483    -1439    -1212    -1017 
    -751     -387     -121       44      271      518      653      719 
     865     1088     1194     1061      712      209     -342     -801 
   -1156    -1521    -2000    -2592    -3157    -3520    -3628    -3622 
   -3572    -3338    -2924    -2601    -2459    -2277    -1980    -1709 
   -1447    -1055     -595     -306     -298     -464     -685     -938 
   -1217    -1409    -1344    -1086     -899     -823     -675     -419 
    -189      -39       29      -89     -448     -792     -850     -753 
    -749     -845    -1027    -1328    -1598    -1622    -1387    -1054 
    -784     -618     -548     -645     -990    -1433    -1715    -1788 
   -1723    -1528    -1258     -974     -648     -368     -346     -583 
    -864    -1082    -1281    -1432    -1498    -1536    -1534    -1401 
   -1210    -1163    -1254    -1316    -1350    -1426    -1462    -1301 
    -978     -702     -583     -535     -484     -483     -514     -423 
    -175       21      -32     -306     -622     -868    -1071    -1314 
   -1587    -1817    -1988    -2041    -1826    -1304     -660     -122 
     265      565      726      602      156     -463    -1098    -1701 
   -2311    -2941    -3450    -3661    -3576    -3321    -2983    -2540 
   -1977    -1429     -977     -549     -183        9      103      214 
     330      446      579      641      511      159     -338     -830 
