Origin Time       2025/03/28 03:50:00
Lat.              35.403
Long.             140.360
Depth. (km)       54
Mag.              4.4
Station Code      CHBH06
Station Lat.      35.7215
Station Long.     140.5046
Station Height(m) 35
Record Time       2025/03/28 03:50:49
Sampling Freq(Hz) 100Hz
Duration Time(s)  120
Dir.              6
Scale Factor      7845(gal)/8223790
Max. Acc. (gal)   4.213
Last Correction   2025/03/28 03:50:49
Memo.             
[...]
  -18960   -18963   -18968   -18963   -18966   -18976   -18966   -18943 
  -18945   -18966   -18971   -18966   -18964   -18960   -18956   -18964 
  -18972   -18968   -18967   -18960   -18941   -18939   -18959   -18967 
  -18959   -18962   -18963   -18955   -18952   -18962   -18966   -18964 
  -18960   -18951   -18948   -18959   -18964   -18968   -18970   -18963 
  -18954   -18948   -18952   -18967   -18972   -18962   -18947   -18945 
  -18960   -18970   -18968   -18962   -18955   -18958   -18966   -18972 
  -18970   -18954   -18947   -18948   -18947   -18963   -18976   -18963 
  -18958   -18963   -18962   -18958   -18949   -18954   -18962   -18959 
  -18964   -18968   -18962   -18959   -18968   -18970   -18959   -18955 
  -18963   -18971   -18971   -18958   -18949   -18960   -18964   -18960 
  -18963   -18972   -18979   -18971   -18954   -18954   -18963   -18962 
  -18967   -18972   -18958   -18951   -18959   -18960   -18964   -18964 
  -18956   -18955   -18968   -18976   -18968   -18959   -18952   -18952 
  -18959   -18967   -18974   -18978   -18978   -18970   -18958   -18951 
  -18958   -18970   -18971   -18966   -18962   -18952   -18952   -18971 
  -18975   -18960   -18956   -18972   -18978   -18967   -18956   -18947 
  -18951   -18963   -18960   -18955   -18964   -18967   -18958   -18952 
  -18960   -18968   -18960   -18962   -18974   -18968   -18956   -18945 
  -18944   -18964   -18972   -18960   -18962   -18967   -18958   -18954 
  -18962   -18963   -18954   -18943   -18944   -18963   -18978   -18976 
  -18971   -18958   -18947   -18949   -18954   -18956   -18956   -18945 
  -18945   -18966   -18978   -18967   -18958   -18960   -18968   -18968 
  -18951   -18939   -18944   -18956   -18963   -18963   -18962   -18964 
  -18970   -18966   -18948   -18941   -18954   -18962   -18963   -18963 
  -18960   -18962   -18962   -18954   -18956   -18963   -18960   -18956 
  -18955   -18956   -18960   -18951   -18948   -18959   -18964   -18967 
  -18962   -18954   -18956   -18960   -18964   -18960   -18947   -18956 
  -18978   -18970   -18954   -18954   -18954   -18952   -18951   -18948 
  -18952   -18962   -18967   -18971   -18966   -18958   -18962   -18967 
  -18960   -18956   -18964   -18966   -18964   -18966   -18967   -18955 
  -18943   -18952   -18964   -18964   -18967   -18968   -18968   -18970 
  -18964   -18960   -18967   -18966   -18964   -18978   -18968   -18945 
  -18954   -18968   -18972   -18974   -18966   -18956   -18952   -18960 
  -18978   -18978   -18964   -18960   -18968   -18975   -18976   -18966 
  -18951   -18949   -18956   -18966   -18981   -18982   -18959   -18945 
  -18951   -18958   -18968   -18974   -18966   -18963   -18966   -18966 
  -18970   -18972   -18971   -18966   -18952   -18945   -18955   -18963 
  -18964   -18967   -18968   -18967   -18964   -18964   -18974   -18976 
  -18964   -18960   -18959   -18952   -18956   -18964   -18967   -18966 
  -18962   -18960   -18964   -18966   -18967   -18971   -18966   -18956 
  -18958   -18964   -18963   -18955   -18956   -18966   -18963   -18955 
  -18967   -18971   -18955   -18954   -18955   -18948   -18952   -18956 
  -18962   -18982   -18985   -18970   -18958   -18952   -18960   -18966 
  -18962   -18962   -18955   -18948   -18954   -18960   -18970   -18972 
  -18963   -18959   -18963   -18958   -18952   -18954   -18960   -18971 
  -18966   -18952   -18959   -18964   -18958   -18958   -18962   -18955 
  -18951   -18964   -18967   -18951   -18945   -18955   -18964   -18966 
  -18962   -18968   -18970   -18960   -18963   -18962   -18947   -18949 
  -18963   -18964   -18956   -18956   -18970   -18966   -18956   -18966 
  -18964   -18952   -18954   -18960   -18962   -18964   -18968   -18963 
  -18954   -18963   -18972   -18960   -18945   -18947   -18958   -18960 
  -18959   -18966   -18966   -18962   -18967   -18964   -18958   -18959 
  -18956   -18955   -18959   -18958   -18960   -18966   -18962   -18955 
  -18956   -18960   -18963   -18960   -18960   -18963   -18960   -18964 
  -18968   -18962   -18964   -18967   -18959   -18962   -18968   -18966 
  -18967   -18963   -18951   -18951   -18956   -18962   -18964   -18962 
  -18964   -18966   -18958   -18958   -18964   -18958   -18949   -18956 
  -18964   -18960   -18960   -18960   -18952   -18955   -18972   -18975 
  -18966   -18966   -18958   -18944   -18952   -18967   -18967   -18966 
  -18963   -18952   -18949   -18952   -18955   -18963   -18972   -18971 
  -18964   -18960   -18958   -18955   -18955   -18963   -18967   -18960 
  -18959   -18962   -18959   -18956   -18967   -18971   -18959   -18958 
  -18967   -18956   -18947   -18958   -18968   -18970   -18963   -18960 
  -18968   -18960   -18958   -18970   -18958   -18943   -18951   -18956 
  -18960   -18968   -18964   -18964   -18960   -18951   -18959   -18971 
  -18970   -18967   -18966   -18955   -18949   -18956   -18960   -18959 
  -18960   -18960   -18966   -18972   -18964   -18955   -18959   -18959 
  -18952   -18949   -18954   -18967   -18968   -18955   -18964   -18975 
  -18955   -18948   -18962   -18958   -18960   -18968   -18956   -18949 
  -18958   -18959   -18956   -18959   -18963   -18962   -18959   -18962 
  -18959   -18949   -18949   -18960   -18962   -18959   -18966   -18968 
  -18960   -18962   -18959   -18947   -18947   -18962   -18966   -18956 
  -18956   -18967   -18966   -18955   -18949   -18956   -18968   -18971 
  -18964   -18956   -18954   -18954   -18956   -18962   -18959   -18958 
  -18966   -18967   -18956   -18954   -18954   -18962   -18970   -18963 
  -18958   -18967   -18970   -18960   -18963   -18967   -18954   -18959 
  -18999   -19053   -19161   -19379   -19703   -20034   -20159   -19893 
  -19261   -18458   -17640   -16980   -16884   -17636   -18777   -19431 
  -19336   -19143   -19603   -20603   -21173   -20517   -18945   -17517 
  -16833   -16795   -17231   -17961   -18724   -19318   -19435   -18870 
  -18084   -18068   -19186   -20248   -19967   -19068   -19199   -20530 
  -21698   -21335   -19670   -18729   -19450   -20027   -19234   -17949 
  -16661   -15638   -16070   -17878   -19006   -18524   -17829   -18274 
  -19826   -21554   -22025   -20534   -18576   -18369   -19743   -20680 
  -20358   -19188   -17855   -17582   -18563   -18990   -17855   -16694 
  -17100   -18526   -19615   -19791   -19012   -17984   -18041   -19337 
  -20291   -19773   -18688   -18565   -19479   -20092   -19457   -18166 
  -17529   -18229   -19473   -19818   -19464   -19593   -20077   -20266 
  -19926   -18819   -17234   -16409   -17435   -19708   -21207   -20694 
  -18859   -17550   -18138   -19858   -20436   -19153   -17693   -17518 
  -18357   -19282   -19649   -19107   -18189   -18272   -19500   -20490 
  -20526   -19658   -18215   -17532   -18401   -19438   -19184   -18088 
  -17431   -17882   -19178   -20306   -20283   -18994   -17448   -17151 
  -18539   -20383   -21186   -20656   -19658   -18989   -18867   -19367 
  -20075   -20056   -19016   -17617   -16602   -16453   -17394   -18728 
  -19381   -19434   -19425   -19194   -18868   -18925   -18928   -18559 
  -18760   -19708   -20016   -19348   -18801   -18646   -18553   -18814 
  -19423   -19575   -18971   -18098   -17462   -17770   -19246   -20536 
  -20515   -19928   -19496   -18939   -18447   -18532   -18871   -19025 
  -19063   -19048   -19170   -19588   -19776   -19244   -18574   -18582 
  -19037   -19237   -18863   -17944   -17221   -17605   -18912   -20252 
  -20688   -19654   -17907   -17122   -17971   -19408   -20082   -19680 
  -18754   -18094   -18053   -18168   -17946   -17852   -18657   -20185 
  -21693   -22563   -22194   -20660   -18975   -17838   -17336   -17397 
  -17621   -17752   -18058   -18384   -18122   -17355   -16875   -17424 
  -19110   -21081   -22052   -21400   -19855   -18952   -19437   -20447 
  -20606   -19815   -19202   -19107   -18663   -17604   -16530   -15927 
  -16256   -17577   -18856   -19129   -18601   -17957   -17747   -18553 
  -20232   -21267   -20719   -19654   -19225   -19442   -20052   -20572 
  -20162   -18867   -17942   -18095   -18816   -19534   -19716   -18941 
  -18141   -18650   -19927   -20205   -18917   -17331   -16951   -18045 
  -19558   -19908   -18635   -17253   -17355   -18870   -20776   -21790 
  -20884   -18796   -17583   -18141   -19543   -20399   -19834   -17880 
  -15861   -15431   -16690   -18342   -19124   -18612   -17717   -18019 
  -19842   -21620   -22098   -21720   -21049   -20148   -19272   -18584 
  -18238   -18584   -19430   -19936   -19607   -18805   -18004   -17444 
  -17505   -18216   -18878   -19074   -19126   -19056   -18542   -17968 
  -17838   -18100   -18731   -19537   -19876   -19440   -18786   -18782 
  -19380   -19668   -19446   -19507   -20191   -20981   -21126   -19862 
  -17367   -15508   -15832   -17571   -19009   -19286   -18333   -16974 
  -16857   -18681   -21265   -22924   -22852   -21339   -19512   -18630 
  -18760   -18863   -18546   -18351   -18331   -18144   -18049   -18173 
  -17898   -17208   -17184   -18428   -20217   -21270   -20852   -19614 
  -18913   -19095   -19584   -19777   -19241   -18160   -17342   -17219 
  -17491   -17875   -18451   -19180   -19885   -20309   -20078   -19387 
  -18945   -18940   -19016   -18985   -18878   -18605   -18212   -18235 
  -18698   -18712   -18261   -18524   -19831   -21162   -21537   -20861 
  -19728   -19114   -19538   -19965   -19184   -17733   -16737   -16771 
  -17998   -19462   -19666   -18669   -17801   -17555   -17598   -17987 
  -18520   -18742   -19199   -20201   -20587   -19549   -17934   -17212 
  -17899   -19298   -20601   -21253   -20969   -20371   -20077   -19665 
  -18921   -18416   -18392   -18453   -18227   -17817   -17440   -17324 
  -17783   -18455   -18705   -18909   -19665   -20525   -20679   -20083 
  -19314   -18797   -18823   -19577   -20474   -20428   -19384   -18330 
  -17784   -17523   -17313   -17215   -17433   -17996   -18632   -19009 
  -19136   -19392   -19816   -20108   -20281   -20071   -18962   -17655 
  -17529   -18562   -19391   -19091   -18258   -18223   -19291   -20603 
  -21358   -21247   -20362   -19164   -18199   -17721   -17594   -17613 
  -17892   -18565   -19183   -19109   -18557   -18347   -18731   -19357 
  -19963   -20316   -20158   -19677   -19368   -19263   -18995   -18559 
  -18307   -18257   -18085   -17813   -17756   -17957   -18168   -18154 
  -18037   -18247   -18809   -19341   -19828   -20294   -20424   -20254 
  -20162   -20027   -19546   -19083   -19090   -19245   -19138   -18987 
  -18871   -18474   -17998   -18026   -18567   -19035   -18937   -18497 
  -18432   -18819   -18941   -18489   -18130   -18474   -19090   -19326 
  -19218   -19083   -19080   -19195   -19423   -19808   -20021   -19607 
  -18897   -18814   -19315   -19153   -17922   -16877   -17142   -18461 
  -19745   -19932   -18909   -17864   -18029   -19369   -20814   -21290 
  -20476   -19078   -18315   -18631   -19168   -18951   -18052   -17508 
  -18231   -19772   -20646   -20070   -18751   -17950   -18169   -18909 
  -19322   -18932   -17991   -17284   -17516   -18593   -19638   -20013 
  -19820   -19500   -19489   -19822   -19971   -19521   -18670   -17984 
  -17979   -18724   -19521   -19506   -18597   -17543   -17209   -17797 
  -18862   -19865   -20131   -19323   -18319   -18319   -19273   -20182 
  -20440   -20027   -19161   -18422   -18345   -18756   -19122   -19137 
  -18881   -18809   -19352   -20148   -20335   -19739   -18905   -18318 
  -18215   -18453   -18570   -18249   -17666   -17361   -17597   -18218 
  -19045   -19595   -19403   -19156   -19801   -20952   -21582   -21190 
  -19954   -18758   -18415   -18640   -18578   -17980   -17297   -17038 
  -17452   -18297   -18836   -18729   -18461   -18388   -18474   -18832 
  -19388   -19674   -19453   -18924   -18454   -18380   -18758   -19230 
  -19363   -19149   -18963   -18997   -19206   -19503   -19545   -19006 
  -18253   -18036   -18658   -19639   -20196   -19948   -19260   -18943 
  -19552   -20868   -21871   -21639   -20386   -19105   -18652   -19045 
  -19315   -18750   -17670   -16823   -16798   -17643   -18720   -19163 
  -18706   -17987   -17678   -17814   -18285   -18954   -19332   -19164 
  -18840   -18787   -19120   -19699   -20150   -20223   -20169   -20422 
  -20818   -20659   -19739   -18462   -17259   -16548   -16552   -16930 
  -17019   -16648   -16534   -17335   -18652   -19688   -20086   -19826 
  -19361   -19577   -20634   -21674   -21978   -21465   -20456   -19530 
  -19113   -18990   -18624   -18076   -17895   -18057   -18009   -17525 
  -16842   -16417   -16599   -17247   -18057   -18900   -19651   -20337 
  -21097   -21709   -21913   -21868   -21651   -21034   -19862   -18280 
  -16875   -16279   -16607   -17473   -18277   -18657   -18821   -19072 
  -19380   -19754   -20173   -20115   -19199   -17950   -17226   -17305 
  -17901   -18600   -19045   -19117   -19099   -19248   -19472   -19627 
  -19626   -19386   -18978   -18558   -18214   -18000   -17888   -17757 
  -17523   -17189   -17064   -17629   -18777   -19809   -20484   -21135 
  -21932   -22751   -23206   -22808   -21664   -20316   -18998   -17709 
  -16525   -15612   -15269   -15732   -16761   -17748   -18162   -17973 
  -17848   -18365   -19279   -20043   -20463   -20676   -20773   -20733 
  -20518   -19944   -19242   -19217   -19801   -19897   -19137   -18030 
  -16835   -15940   -16143   -17463   -19111   -20569   -21573   -21844 
  -21508   -20876   -19799   -17999   -15950   -14675   -14710   -15838 
  -17622   -19542   -21072   -22110   -22829   -23249   -23145   -22135 
  -20178   -17883   -15931   -14764   -14544   -14998   -16006   -17652 
  -19471   -20804   -21405   -21141   -20044   -18684   -17703   -17267 
  -17302   -17614   -17813   -17999   -18814   -20231   -21323   -21546 
  -21184   -20636   -20112   -19666   -19246   -19066   -19383   -19965 
  -20278   -19930   -18893   -17616   -16715   -16383   -16314   -16218 
  -16210   -16740   -17952   -19342   -20289   -20591   -20652   -21081 
  -21807   -22235   -22119   -21402   -20042   -18607   -17963   -18189 
  -18731   -19257   -19589   -19354   -18323   -16830   -15612   -15302 
  -16024   -17406   -18765   -19508   -19701   -19854   -20124   -20237 
  -20048   -19797   -19773   -19835   -19691   -19354   -18891   -18292 
  -17809   -17710   -17968   -18307   -18254   -17797   -17637   -18172 
  -18985   -19472   -19380   -18866   -18365   -18427   -19207   -20205 
  -20798   -20680   -19927   -18898   -17926   -17281   -17273   -17937 
  -18900   -19684   -19934   -19560   -18912   -18516   -18615   -19125 
  -19764   -20182   -20349   -20617   -21138   -21622   -21691   -21189 
  -20345   -19421   -18262   -16788   -15456   -14798   -14939   -15604 
  -16472   -17564   -18993   -20333   -20929   -20653   -19985   -19568 
  -19614   -19727   -19503   -18855   -17938   -17319   -17628   -18715 
  -19712   -19969   -19602   -19244   -19302   -19619   -19811   -19584 
  -18847   -17940   -17531   -17955   -18851   -19564   -19796   -19761 
  -19785   -19885   -19699   -19032   -18199   -17625   -17616   -18160 
  -18682   -18704   -18480   -18577   -19251   -20143   -20564   -20297 
  -19827   -19585   -19419   -19049   -18458   -17822   -17543   -18046 
  -19128   -19840   -19556   -18779   -18354   -18532   -18933   -19001 
  -18621   -18114   -17783   -17855   -18351   -18948   -19290   -19322 
  -19236   -19287   -19583   -19982   -20410   -21003   -21593   -21694 
  -21128   -20075   -18774   -17510   -16641   -16468   -16960   -17703 
  -18233   -18289   -17919   -17470   -17332   -17670   -18368   -19147 
  -19791   -20247   -20563   -20817   -20953   -20829   -20552   -20277 
  -19801   -18970   -18129   -17740   -17820   -18003   -17979   -17737 
  -17471   -17451   -17949   -18847   -19496   -19548   -19337   -19248 
  -19337   -19468   -19407   -19109   -18814   -18621   -18458   -18393 
  -18430   -18407   -18300   -18358   -18708   -19089   -19322   -19630 
  -20160   -20630   -20596   -19988   -19228   -18760   -18655   -18721 
  -18759   -18640   -18327   -17880   -17427   -17193   -17442   -18283 
  -19585   -20903   -21670   -21710   -21335   -20911   -20560   -20158 
  -19481   -18570   -17790   -17450   -17527   -17860   -18353   -18864 
  -19138   -19001   -18459   -17685   -17010   -16726   -16799   -17059 
  -17489   -18038   -18517   -18810   -18921   -18914   -18983   -19369 
  -20078   -20767   -21050   -20926   -20661   -20360   -19974   -19514 
  -19055   -18775   -18777   -18771   -18538   -18357   -18439   -18634 
  -18978   -19607   -20229   -20439   -20177   -19546   -18731   -18076 
  -17751   -17622   -17587   -17582   -17610   -17878   -18523   -19365 
  -20069   -20385   -20212   -19669   -19078   -18690   -18535   -18442 
  -18175   -17752   -17514   -17683   -18193   -18825   -19259   -19292 
  -19132   -19238   -19807   -20518   -20966   -21069   -20914   -20591 
  -20062   -19126   -17883   -16896   -16553   -16795   -17381   -18000 
  -18500   -19013   -19581   -20085   -20374   -20233   -19645   -18906 
  -18341   -18162   -18414   -18949   -19521   -19913   -20070   -20042 
  -19923   -19823   -19712   -19468   -19018   -18427   -17937   -17698 
  -17587   -17543   -17693   -18030   -18403   -18787   -19144   -19260 
  -19086   -18820   -18647   -18689   -18947   -19213   -19345   -19448 
  -19570   -19638   -19629   -19522   -19273   -18945   -18671   -18603 
  -18765   -18975   -19022   -18778   -18296   -17856   -17683   -17787 
  -18100   -18526   -18975   -19458   -20007   -20538   -20871   -20879 
  -20590   -20144   -19738   -19519   -19489   -19562   -19627   -19579 
  -19396   -19129   -18902   -18767   -18526   -18029   -17437   -17041 
  -17035   -17363   -17749   -17972   -18019   -18025   -18088   -18198 
  -18347   -18577   -18897   -19183   -19229   -19048   -18852   -18783 
  -18890   -19118   -19299   -19336   -19211   -18975   -18698   -18380 
  -18104   -18108   -18500   -19136   -19768   -20182   -20383   -20587 
  -20891   -21181   -21263   -21019   -20530   -19944   -19305   -18581 
  -17826   -17266   -17122   -17435   -18013   -18508   -18742   -18794 
  -18871   -19206   -19822   -20416   -20760   -20839   -20591   -19962 
  -19025   -17907   -16877   -16221   -16066   -16465   -17244   -17998 
  -18512   -18829   -19141   -19641   -20181   -20447   -20318   -19851 
  -19180   -18453   -17830   -17486   -17455   -17686   -18164   -18785 
  -19251   -19291   -18936   -18484   -18334   -18717   -19521   -20463 
  -21228   -21600   -21556   -21134   -20507   -19911   -19357   -18854 
  -18507   -18343   -18274   -18144   -17955   -17860   -17852   -17833 
  -17737   -17494   -17230   -17250   -17664   -18353   -19103   -19692 
  -20086   -20467   -20892   -21118   -20930   -20409   -19753   -19134 
  -18625   -18192   -17882   -17743   -17730   -17886   -18227   -18615 
  -18905   -18999   -18936   -18914   -19079   -19386   -19676   -19830 
  -19828   -19732   -19627   -19492   -19194   -18642   -17977   -17551 
  -17597   -18064   -18773   -19508   -20079   -20387   -20461   -20466 
  -20487   -20344   -19843   -19030   -18092   -17296   -16850   -16698 
  -16746   -17034   -17559   -18265   -19064   -19743   -20038   -19873 
  -19454   -19080   -18894   -18867   -18927   -19009   -19083   -19151 
  -19257   -19431   -19588   -19633   -19548   -19361   -19228   -19246 
  -19290   -19279   -19259   -19326   -19531   -19678   -19527   -19053 
