Origin Time       2025/03/28 03:50:00
Lat.              35.403
Long.             140.360
Depth. (km)       54
Mag.              4.4
Station Code      CHBH19
Station Lat.      35.5943
Station Long.     140.5107
Station Height(m) 1
Record Time       2025/03/28 03:50:47
Sampling Freq(Hz) 100Hz
Duration Time(s)  120
Dir.              6
Scale Factor      7845(gal)/8223790
Max. Acc. (gal)   5.323
Last Correction   2025/03/28 03:50:48
Memo.             
[...]
    -801     -839     -851     -819     -807     -811     -800     -795 
    -814     -839     -816     -801     -835     -827     -810     -835 
    -812     -785     -826     -826     -792     -814     -831     -823 
    -822     -819     -822     -816     -820     -839     -815     -803 
    -827     -811     -805     -841     -831     -801     -811     -828 
    -803     -797     -841     -830     -797     -820     -818     -792 
    -810     -834     -816     -799     -824     -831     -812     -822 
    -831     -812     -800     -819     -827     -793     -796     -827 
    -799     -787     -830     -820     -795     -819     -830     -797 
    -796     -826     -812     -803     -832     -816     -793     -826 
    -828     -810     -826     -838     -814     -801     -837     -841 
    -804     -805     -823     -810     -796     -820     -835     -812 
    -819     -837     -811     -807     -832     -819     -797     -811 
    -807     -776     -799     -849     -814     -783     -831     -812 
    -756     -800     -837     -800     -797     -826     -801     -774 
    -824     -834     -773     -788     -823     -792     -792     -826 
    -815     -797     -820     -827     -801     -815     -841     -811 
    -793     -824     -822     -792     -801     -824     -807     -792 
    -816     -822     -799     -811     -832     -801     -796     -820 
    -800     -799     -832     -819     -799     -814     -824     -816 
    -805     -820     -828     -796     -803     -830     -795     -788 
    -826     -805     -784     -812     -815     -795     -804     -827 
    -818     -800     -823     -831     -797     -810     -838     -803 
    -789     -815     -801     -796     -837     -826     -784     -807 
    -839     -812     -799     -839     -830     -772     -796     -828 
    -788     -796     -830     -796     -788     -828     -824     -807 
    -824     -823     -797     -805     -830     -816     -803     -824 
    -814     -784     -814     -843     -812     -796     -823     -820 
    -797     -810     -822     -801     -796     -818     -812     -789 
    -812     -835     -804     -800     -827     -800     -781     -818 
    -832     -811     -803     -818     -820     -804     -810     -816 
    -800     -810     -831     -808     -804     -835     -810     -789 
    -819     -811     -796     -815     -814     -804     -812     -822 
    -816     -808     -827     -834     -811     -810     -823     -818 
    -815     -823     -822     -812     -810     -819     -820     -811 
    -823     -826     -797     -810     -832     -814     -816     -838 
    -819     -800     -814     -826     -816     -814     -824     -814 
    -793     -814     -822     -797     -820     -843     -819     -820 
    -839     -819     -808     -830     -816     -785     -803     -820 
    -797     -804     -837     -815     -785     -819     -835     -793 
    -785     -824     -819     -777     -800     -842     -816     -800 
    -816     -804     -804     -827     -822     -810     -824     -834 
    -803     -791     -818     -818     -793     -807     -822     -795 
    -793     -824     -810     -796     -826     -810     -776     -804 
    -818     -795     -803     -824     -819     -803     -819     -838 
    -819     -811     -822     -812     -796     -808     -819     -803 
    -811     -828     -797     -796     -834     -818     -793     -815 
    -826     -812     -814     -832     -830     -803     -801     -812 
    -803     -819     -824     -797     -811     -834     -819     -815 
    -839     -839     -811     -804     -822     -812     -796     -808 
    -815     -800     -799     -822     -822     -808     -824     -822 
    -799     -807     -819     -812     -815     -826     -822     -803 
    -811     -830     -814     -814     -835     -811     -800     -830 
    -818     -803     -826     -822     -799     -807     -823     -815 
    -804     -826     -828     -797     -811     -826     -789     -788 
    -820     -801     -777     -803     -818     -797     -799     -815 
    -807     -804     -824     -823     -808     -822     -830     -800 
    -801     -832     -822     -807     -820     -810     -800     -814 
    -810     -796     -800     -814     -814     -804     -818     -838 
    -816     -805     -834     -820     -788     -807     -814     -791 
    -803     -824     -810     -810     -826     -811     -797     -808 
    -814     -811     -818     -824     -816     -804     -815     -822 
    -801     -804     -827     -818     -810     -824     -826     -814 
    -816     -826     -805     -784     -796     -804     -797     -805 
    -805     -801     -811     -811     -797     -797     -812     -820 
    -816     -822     -823     -805     -801     -814     -805     -793 
    -801     -811     -814     -812     -822     -831     -820     -823 
    -823     -797     -805     -828     -807     -799     -818     -811 
    -810     -828     -826     -814     -812     -816     -816     -812 
    -815     -812     -810     -816     -810     -796     -807     -812 
    -796     -801     -822     -823     -822     -828     -827     -812 
    -807     -811     -811     -810     -811     -819     -820     -812 
    -812     -818     -819     -814     -810     -815     -815     -808 
    -805     -804     -804     -812     -816     -818     -822     -811 
    -803     -818     -818     -799     -810     -818     -795     -799 
    -823     -815     -801     -812     -811     -800     -811     -820 
    -801     -795     -819     -826     -818     -823     -818     -810 
    -827     -834     -811     -803     -814     -815     -810     -819 
    -828     -818     -808     -812     -820     -816     -816     -830 
    -822     -819     -831     -820     -810     -816     -808     -795 
    -808     -819     -804     -796     -811     -819     -811     -816 
    -839     -828     -807     -826     -822     -793     -816     -815 
    -787     -812     -822     -801     -818     -824     -805     -818 
    -832     -815     -800     -811     -830     -826     -799     -808 
    -826     -807     -810     -824     -814     -803     -799     -805 
    -807     -804     -815     -815     -814     -826     -816     -804 
    -811     -812     -810     -811     -814     -808     -799     -807 
    -819     -818     -820     -819     -805     -803     -811     -816 
    -818     -815     -812     -803     -801     -805     -772     -726 
    -706     -688     -689     -719     -746     -787     -811     -749 
    -688     -777     -954    -1107    -1229    -1250    -1177    -1148 
   -1028     -750     -653     -729     -622     -400     -313     -476 
    -966    -1387    -1174     -681     -584     -766     -816     -649 
    -525     -669     -903     -911     -554     -332     -850    -1630 
   -1827    -1290     -731     -900    -1259     -951     -511     -585 
    -548     -336     -433     -414     -433     -685     -838    -1144 
   -1279    -1027    -1075     -939     -143       13     -594     -575 
    -407     -919    -1155    -1003    -1304    -1358     -750     -665 
   -1078    -1124     -880     -521     -675    -1151     -687     -278 
    -808    -1135    -1169    -1005     -394     -182     -592     -626 
    -330     -378     -523     -990    -1468     -946     -646    -1128 
   -1250    -1031     -427     -186    -1206    -1915    -1470     -691 
    -217     -392     -596     -621     -908     -876     -638    -1020 
   -1485    -1212     -662     -741     -963     -610     -198     -275 
    -904    -1150     -664     -576     -734     -706     -672     -692 
    -972    -1071     -880     -591     -414     -719     -930    -1209 
   -1588    -1174     -805    -1031     -945     -533     -471     -862 
   -1318    -1537    -1058     -263     -271     -491     -257     -448 
    -766     -684     -959    -1107     -730     -661     -853    -1247 
   -1421     -760     -429     -688     -513     -411     -824    -1183 
   -1198     -935     -884     -903     -492     -324     -576     -749 
    -949     -965     -843    -1009    -1042     -785     -679     -990 
   -1485    -1242     -662     -851     -967     -664     -518     -241 
    -364     -695     -303     -264     -607     -656    -1308    -1921 
   -1638    -1221     -764     -445     -515     -550     -650     -731 
    -645     -724     -935    -1196    -1318     -990     -526     -463 
    -486     -305     -603     -989     -808     -838    -1134    -1225 
   -1243    -1003     -658     -973    -1514    -1341     -909     -595 
    -427     -753     -830     -265     -175     -807    -1142     -830 
    -484     -280     -492    -1250    -1418     -815     -361     -675 
   -1485    -1389     -770     -864     -911     -745     -865     -982 
   -1108    -1138    -1032     -849     -395     -415     -966     -784 
    -109     -121     -841    -1237     -622      103     -353    -1564 
   -1803     -738      -71     -364     -542     -695    -1074     -715 
      25     -230    -1000    -1358    -1494    -1432    -1323    -1320 
    -984     -676     -765     -660     -317     -178     -495    -1011 
    -951     -568     -622    -1059    -1432    -1220     -835     -981 
   -1089     -869     -824     -826     -571     -477     -612     -733 
   -1131    -1296     -972     -743     -419     -326     -577     -631 
    -783     -810     -626     -567     -483     -685     -916     -834 
   -1050    -1468    -1518    -1070     -453     -240     -409     -610 
    -575     -303     -715    -1821    -2012    -1493    -1410    -1302 
   -1192    -1075     -541     -329     -103      502      403      -17 
    -282     -901    -1278    -1215    -1367    -1534    -1323     -719 
    -257     -544     -949    -1004    -1152    -1262    -1023     -402 
     -20     -531    -1102    -1012     -557     -252     -583    -1232 
   -1474    -1105     -525     -214     -391     -874    -1314    -1564 
   -1123     -502     -996    -1630    -1065     -139     -172     -893 
   -1150     -680      -31     -303    -1112     -805     -211     -441 
    -927    -1487    -1711    -1186     -681     -693     -780     -789 
    -824     -900    -1084     -934     -337     -166     -712    -1370 
   -1698    -1563    -1027     -407     -243     -753     -959     -359 
     -85     -499     -820     -716     -515     -633     -889     -924 
    -801     -777     -932    -1066     -931     -550     -560    -1142 
   -1304     -954     -935    -1208    -1293     -963     -584     -594 
    -795    -1057     -972     -372     -344     -827     -788     -514 
    -336     -400     -716     -534     -275     -803    -1568    -1915 
   -1586     -857     -437     -645    -1289    -1570    -1209     -853 
    -718     -503     -267     -450     -672     -305       18     -256 
    -711     -993    -1220    -1447    -1386     -967     -714     -886 
    -977     -777     -679     -735     -882    -1177    -1089     -618 
    -792    -1248     -966     -409     -178     -427     -869     -904 
    -853     -985     -778     -232      -56     -496     -885     -762 
    -587     -873    -1378    -1655    -1328     -639     -549     -756 
    -761    -1208    -1570     -963     -270     -384     -760     -853 
    -826     -652     -641    -1132    -1414    -1246    -1030     -780 
    -657     -442       97      156     -396     -542     -230      -94 
    -186     -561    -1212    -1948    -2623    -2716    -2016    -1186 
    -517      143      456      398      237      -35     -186     -473 
   -1270    -1971    -2182    -1915    -1285    -1003    -1039     -859 
    -822     -850     -650     -329      228      247     -585    -1105 
   -1333    -1683    -1422     -841     -999    -1501    -1524    -1101 
    -527     -171     -193     -303     -552    -1115    -1279     -822 
    -812    -1124     -688      -93      -63     -190     -700    -1437 
   -1422    -1204    -1536    -1649    -1142     -511      110      677 
     670       67     -433     -629    -1165    -1987    -1954    -1213 
   -1069    -1648    -1895    -1143     -305      -76      203      453 
     194     -346     -864    -1275    -1640    -1718    -1566    -1609 
   -1590    -1174     -526       72      210     -160     -531     -699 
    -749     -888    -1336    -1578    -1251     -820     -818    -1320 
   -1561    -1200     -741     -272       63      122      264      434 
      89     -870    -1715    -1946    -1958    -1775    -1277    -1082 
   -1028     -556     -286     -399     -311     -159      -52      -25 
    -510    -1293    -1833    -1989    -1725    -1201     -689     -403 
    -317     -229     -355     -746     -888     -793     -912    -1140 
   -1193    -1023     -573      -16      295      264      -63     -498 
    -905    -1344    -1676    -1784    -1728    -1493    -1278    -1263 
   -1171     -741     -151      112       39      -66     -409    -1134 
   -1987    -2334    -1641     -421      664     1240      945        2 
   -1298    -2585    -2943    -2385    -1737    -1053     -406     -405 
    -795     -932    -1054    -1371    -1449     -981     -282      135 
     103     -383    -1220    -1995    -2165    -1391     -147      676 
     841      599       52     -724    -1393    -1570    -1067     -302 
    -164     -591     -895    -1038    -1034     -731     -241      -39 
    -550    -1371    -1788    -1734    -1657    -1522     -676      832 
    2018     2022     1027      226      199      232     -762    -3046 
   -5352    -6392    -6027    -4510    -2439     -696      326     1040 
    2020     3056     3620     3497     2539      976     -660    -2182 
   -3573    -4702    -5593    -6212    -5902    -4124    -1290     1551 
    3256     3441     2582     1377      604      697     1247     1139 
    -668    -3474    -4966    -4500    -3466    -2133     -459       14 
    -909    -1395    -1011     -522      180     1077     1154      407 
     396     1171     1248      390     -907    -2268    -3061    -2921 
   -2226    -2039    -2702    -2901    -2020     -928       59      783 
     949     1232     1911     2160     1387     -222    -1738    -2601 
   -3306    -3861    -3547    -2457    -1233     -137      251     -494 
   -1324    -1323     -685      549     1892     2304     1819      853 
    -481    -1491    -1834    -2049    -2389    -2810    -3095    -2911 
   -2408    -1642     -306     1057     1471      962       47     -972 
   -1665    -1879    -1880    -1422     -176     1201     1691      851 
    -720    -1791    -2251    -2970    -3793    -3883    -2813     -832 
     793     1320     1651     2215     1957      464    -1125    -2274 
   -3350    -3663    -2729    -1522     -627     -125     -179     -309 
      49      762     1127      491     -843    -1915    -1938    -1129 
    -702     -900     -945     -845    -1066    -1624    -1852    -1042 
     256      954      441    -1264    -3080    -4024    -4023    -2987 
   -1258      319     1491     2165     2192     1881     1251       -2 
   -1615    -2725    -2652    -2177    -2362    -2725    -2658    -2070 
   -1105     -550     -344      507     1593     1829     1553     1321 
     762     -305    -1647    -2803    -3288    -3377    -3253    -2647 
   -1867     -922      480     1703     2263     2338     1775      484 
    -930    -1798    -2054    -2064    -2002    -1858    -1655    -1408 
   -1123     -599       58      128     -715    -1937    -2521    -1838 
    -240     1233     1296     -152    -1615    -2285    -2462    -2292 
   -1877    -1146      -58      670      608       47     -785    -1615 
   -2309    -2700    -2122     -693      411      658      599      676 
     602       66     -943    -2126    -2701    -2440    -1864    -1225 
    -703     -534     -832    -1390    -1510     -959     -106      646 
     891      751      627      602      394     -537    -1965    -3196 
   -4032    -4037    -2965    -1410       10      800      922      973 
    1135     1123      753      -71    -1209    -2286    -3006    -3265 
   -2855    -1703     -498       99      163       86      291      669 
     537     -373    -1672    -2620    -2471    -1327     -117      534 
     641      372     -137     -819    -1626    -2390    -2768    -2551 
   -1823     -716      453     1209     1332      842      -14     -828 
   -1287    -1331    -1266    -1379    -1566    -1699    -1850    -1917 
   -1663    -1247    -1026    -1035    -1155    -1310    -1355    -1048 
    -441       -5       -8     -406    -1116    -1584    -1128      -78 
     816     1309     1170      363     -571    -1263    -1919    -2550 
   -2598    -1784     -580      328      553      197     -341     -797 
   -1115    -1363    -1544    -1491    -1318    -1287    -1316    -1273 
   -1100     -847     -692     -607     -638     -907    -1162    -1186 
   -1024     -735     -475     -437     -768    -1495    -2150    -2084 
   -1374     -473      471     1054      660     -313     -785     -498 
     -76     -114     -643    -1236    -1478    -1197     -533      -21 
     -67     -484     -997    -1448    -1595    -1459    -1263     -853 
     -68      633      911      926      634     -105    -1120    -2039 
   -2516    -2452    -2058    -1725    -1761    -1918    -1668     -976 
    -301     -175     -754    -1497    -1746    -1507    -1023     -426 
    -141     -421     -942    -1437    -1868    -2068    -1869    -1417 
    -963     -415      301      835      920      660      207     -399 
    -924    -1038     -974    -1070    -1074     -859     -560      -79 
     390      376     -162     -970    -1622    -1713    -1356     -936 
    -826    -1269    -1850    -1877    -1273     -382      434      823 
     616      -17     -683    -1097    -1318    -1490    -1633    -1617 
   -1341    -1027     -928    -1007    -1169    -1345    -1493    -1480 
   -1059     -387      -17     -190     -689    -1259    -1696    -1818 
   -1688    -1485    -1297    -1171    -1011     -720     -372      -44 
     234      490      710      685      278     -313     -864    -1213 
   -1196     -889     -615     -621     -865    -1012     -818     -483 
    -359     -526     -846    -1119    -1063     -548      186      738 
     803      310     -618    -1804    -2949    -3624    -3520    -2803 
   -1984    -1325     -913     -761     -600     -237      132      210 
     -39     -423     -797    -1070    -1132    -1031     -994    -1143 
   -1399    -1557    -1368     -949     -633     -461     -441     -506 
    -422     -182      135      449      567      430       64     -487 
   -1039    -1420    -1571    -1549    -1441    -1283    -1128     -951 
    -731     -581     -522     -514     -608     -774     -899     -888 
    -795     -805     -945    -1138    -1393    -1663    -1688    -1260 
    -675     -372     -402     -706    -1210    -1626    -1648    -1200 
    -548      -91      -51     -432     -920    -1084     -837     -403 
    -159     -375     -826    -1092    -1097     -976     -814     -714 
    -724     -718     -571     -301      -81      -98     -305     -596 
   -1019    -1458    -1641    -1572    -1404    -1210    -1017     -641 
     -14      423      307     -311    -1165    -1830    -2023    -1736 
   -1151     -621     -419     -498     -689     -841     -814     -762 
    -853     -915     -947    -1081    -1188    -1188    -1111     -963 
