Origin Time       2025/03/28 03:50:00
Lat.              35.403
Long.             140.360
Depth. (km)       54
Mag.              4.4
Station Code      CHBH10
Station Lat.      35.5458
Station Long.     140.2417
Station Height(m) -1935
Record Time       2025/03/28 03:50:47
Sampling Freq(Hz) 100Hz
Duration Time(s)  120
Dir.              3
Scale Factor      2942(gal)/8224139
Max. Acc. (gal)   1.011
Last Correction   2025/03/28 03:50:47
Memo.             
[...]
  237818   237820   237818   237817   237817   237816   237814   237814 
  237814   237817   237817   237817   237814   237811   237816   237818 
  237817   237817   237817   237816   237814   237816   237818   237817 
  237817   237816   237816   237814   237814   237816   237816   237817 
  237818   237818   237818   237816   237813   237814   237813   237813 
  237817   237820   237817   237816   237814   237816   237818   237818 
  237816   237813   237813   237816   237817   237816   237814   237814 
  237817   237818   237820   237821   237818   237813   237814   237816 
  237816   237817   237818   237818   237818   237818   237820   237820 
  237817   237816   237817   237814   237816   237818   237817   237817 
  237820   237818   237817   237820   237817   237816   237817   237820 
  237818   237816   237817   237817   237816   237820   237821   237820 
  237818   237818   237818   237817   237817   237820   237820   237818 
  237818   237818   237820   237820   237817   237816   237817   237818 
  237818   237821   237820   237818   237818   237817   237818   237820 
  237820   237817   237817   237818   237817   237816   237817   237817 
  237818   237818   237817   237817   237817   237816   237816   237816 
  237818   237820   237818   237816   237816   237818   237820   237817 
  237814   237817   237818   237817   237816   237814   237814   237817 
  237817   237814   237817   237818   237816   237816   237817   237817 
  237814   237814   237817   237816   237816   237820   237820   237817 
  237817   237820   237818   237816   237817   237818   237816   237813 
  237816   237818   237817   237816   237816   237817   237817   237817 
  237817   237816   237816   237817   237818   237817   237817   237814 
  237814   237816   237816   237816   237816   237814   237814   237814 
  237816   237814   237814   237816   237817   237816   237813   237811 
  237814   237816   237814   237817   237818   237816   237814   237816 
  237818   237818   237816   237816   237816   237813   237814   237817 
  237817   237816   237817   237818   237817   237817   237817   237817 
  237818   237820   237818   237816   237816   237818   237818   237817 
  237821   237821   237816   237814   237816   237816   237817   237817 
  237816   237818   237820   237816   237814   237818   237820   237817 
  237818   237820   237818   237818   237818   237816   237814   237817 
  237818   237818   237818   237820   237817   237816   237818   237817 
  237816   237816   237817   237816   237817   237817   237817   237817 
  237817   237818   237820   237818   237817   237817   237817   237817 
  237817   237818   237818   237818   237817   237817   237817   237817 
  237817   237816   237816   237816   237817   237816   237816   237818 
  237817   237817   237817   237817   237816   237814   237816   237817 
  237817   237820   237821   237818   237818   237818   237818   237816 
  237817   237817   237817   237816   237816   237817   237816   237814 
  237816   237818   237820   237817   237814   237817   237818   237817 
  237817   237817   237816   237816   237818   237818   237817   237817 
  237817   237816   237814   237814   237817   237816   237816   237817 
  237817   237817   237817   237817   237816   237816   237814   237813 
  237816   237818   237817   237817   237817   237813   237814   237817 
  237816   237816   237817   237817   237814   237813   237818   237816 
  237811   237816   237816   237811   237816   237817   237817   237818 
  237816   237817   237818   237817   237816   237817   237817   237820 
  237821   237820   237818   237821   237821   237817   237816   237820 
  237820   237817   237817   237817   237817   237818   237817   237814 
  237816   237820   237818   237817   237814   237814   237816   237817 
  237818   237817   237816   237818   237820   237817   237816   237816 
  237816   237816   237817   237817   237814   237814   237817   237814 
  237816   237817   237817   237817   237818   237818   237817   237814 
  237814   237818   237820   237818   237818   237817   237817   237817 
  237816   237816   237817   237817   237816   237817   237820   237817 
  237817   237817   237816   237818   237820   237817   237816   237816 
  237816   237817   237817   237816   237816   237816   237816   237818 
  237820   237817   237814   237816   237817   237814   237817   237820 
  237817   237816   237817   237818   237818   237817   237816   237816 
  237817   237818   237820   237817   237813   237816   237818   237818 
  237820   237818   237816   237818   237817   237817   237818   237817 
  237817   237820   237820   237817   237817   237821   237818   237814 
  237817   237818   237817   237818   237817   237817   237816   237816 
  237818   237818   237816   237816   237816   237814   237816   237817 
  237816   237816   237816   237816   237818   237816   237813   237817 
  237818   237816   237816   237817   237816   237816   237817   237817 
  237817   237816   237814   237817   237817   237816   237817   237816 
  237816   237817   237817   237816   237816   237814   237816   237818 
  237818   237818   237817   237817   237818   237817   237816   237817 
  237817   237817   237820   237818   237817   237818   237817   237813 
  237816   237820   237820   237818   237818   237816   237814   237817 
  237817   237816   237817   237817   237817   237820   237818   237816 
  237817   237817   237818   237816   237816   237818   237814   237813 
  237818   237820   237816   237816   237816   237813   237813   237817 
  237817   237817   237817   237816   237816   237817   237817   237816 
  237816   237816   237814   237817   237817   237816   237817   237818 
  237818   237816   237814   237816   237818   237816   237816   237817 
  237818   237818   237817   237817   237817   237818   237821   237818 
  237817   237816   237816   237820   237820   237818   237817   237818 
  237818   237817   237818   237821   237820   237817   237817   237817 
  237816   237817   237820   237818   237817   237818   237820   237818 
  237820   237820   237817   237816   237817   237818   237816   237814 
  237814   237816   237818   237818   237817   237816   237817   237818 
  237818   237817   237816   237817   237820   237818   237817   237818 
  237818   237817   237816   237816   237818   237820   237818   237816 
  237817   237818   237817   237820   237820   237820   237821   237818 
  237816   237818   237818   237817   237817   237817   237817   237818 
  237818   237816   237816   237816   237817   237818   237817   237817 
  237818   237818   237816   237817   237820   237818   237817   237820 
  237818   237818   237818   237817   237818   237820   237818   237818 
  237820   237818   237817   237820   237820   237817   237817   237817 
  237817   237817   237817   237816   237816   237817   237818   237816 
  237816   237820   237820   237817   237817   237820   237817   237814 
  237816   237816   237816   237818   237817   237814   237816   237817 
  237818   237818   237817   237816   237817   237818   237818   237818 
  237817   237818   237818   237817   237816   237818   237818   237817 
  237817   237816   237813   237816   237818   237817   237818   237818 
  237816   237813   237816   237818   237816   237811   237813   237814 
  237816   237816   237816   237816   237814   237817   237818   237816 
  237817   237816   237813   237816   237814   237814   237818   237817 
  237816   237817   237816   237816   237816   237814   237814   237817 
  237817   237817   237816   237813   237813   237816   237817   237816 
  237816   237816   237817   237817   237816   237817   237818   237816 
  237814   237817   237818   237817   237817   237820   237817   237814 
  237816   237816   237816   237816   237816   237816   237817   237818 
  237818   237817   237817   237814   237814   237817   237820   237820 
  237816   237814   237817   237816   237814   237816   237817   237816 
  237817   237818   237816   237816   237818   237816   237816   237818 
  237817   237816   237817   237817   237814   237814   237817   237816 
  237814   237816   237816   237817   237817   237817   237816   237813 
  237811   237814   237817   237817   237816   237814   237817   237817 
  237816   237816   237816   237813   237814   237814   237814   237816 
  237814   237813   237816   237816   237816   237817   237816   237814 
  237816   237818   237818   237817   237817   237820   237817   237814 
  237816   237816   237814   237814   237814   237816   237817   237817 
  237817   237816   237814   237814   237816   237818   237814   237813 
  237817   237818   237817   237816   237816   237817   237814   237814 
  237817   237816   237816   237816   237814   237814   237817   237818 
  237820   237820   237820   237817   237817   237818   237818   237817 
  237820   237818   237816   237817   237817   237813   237816   237820 
  237816   237817   237821   237817   237816   237818   237817   237814 
  237814   237817   237818   237817   237816   237818   237817   237811 
  237811   237813   237817   237820   237818   237818   237817   237817 
  237820   237818   237816   237816   237817   237816   237817   237817 
  237811   237814   237818   237817   237818   237818   237817   237818 
  237818   237816   237816   237814   237814   237816   237814   237813 
  237817   237817   237816   237816   237816   237816   237817   237817 
  237816   237816   237817   237816   237816   237817   237817   237816 
  237816   237816   237817   237816   237814   237814   237814   237817 
  237818   237817   237816   237816   237816   237813   237814   237816 
  237817   237817   237817   237816   237814   237814   237814   237814 
  237816   237816   237817   237817   237813   237811   237817   237820 
  237820   237816   237816   237820   237818   237814   237816   237816 
  237814   237816   237817   237820   237820   237818   237816   237816 
  237818   237817   237816   237817   237817   237816   237814   237814 
  237818   237818   237816   237817   237817   237817   237817   237816 
  237816   237817   237818   237817   237816   237817   237818   237817 
  237814   237814   237816   237816   237817   237817   237816   237817 
  237817   237816   237818   237818   237816   237817   237820   237817 
  237816   237817   237817   237816   237817   237817   237814   237817 
  237820   237816   237811   237813   237817   237816   237816   237817 
  237816   237814   237817   237817   237814   237814   237814   237816 
  237817   237818   237818   237816   237816   237817   237814   237814 
  237817   237818   237817   237817   237817   237817   237818   237817 
  237816   237816   237817   237817   237816   237816   237818   237818 
  237817   237817   237816   237813   237813   237816   237816   237816 
  237818   237818   237814   237811   237813   237813   237814   237817 
  237818   237818   237825   237841   237872   237917   237965   237982 
  237942   237897   237898   237925   237961   237998   237964   237766 
  237324   236817   236788   237375   238037   238519   238686   238207 
  237678   237629   237487   237531   237926   237447   236904   237514 
  237587   237327   238281   238531   237717   238092   238468   237790 
  238014   238414   237708   237674   237863   237257   237860   238731 
  237963   237857   238624   237960   237165   237686   238032   237852 
  237816   237365   236956   237559   238262   238206   237946   237832 
  237416   237105   237458   237722   237741   237595   237146   237338 
  238130   238265   237996   237897   237701   237679   237604   237486 
  237917   237891   237632   238115   238015   237497   237853   238283 
  238302   238135   238219   239218   239517   238361   238350   239176 
  238333   237303   237726   238192   238107   237739   237227   237362 
  237847   237836   237836   237587   236379   235553   235984   236899 
  237393   236992   236949   237883   238185   237918   238326   238165 
  237153   237942   239376   238081   236403   236869   237108   237030 
  238194   238603   238208   239049   239615   239176   239124   238592 
  237358   236989   237392   237924   238373   238161   237712   237911 
  238427   238690   238306   237370   237519   238712   238538   237386 
  236694   236034   236089   237122   237585   237201   236830   237208 
  238330   239210   239394   238613   237120   236663   236997   236655 
  237396   239230   238956   238412   239369   238350   237018   238283 
  238650   237585   237116   236568   236387   237012   237724   237932 
  237189   237126   238252   238427   238057   237820   237234   238299 
  239996   238974   237698   237942   237779   238181   239033   238546 
  237914   237508   236783   236517   236387   236613   237872   238311 
  237552   237693   238549   238654   237837   237208   238021   239291 
  238729   236892   236536   237789   238216   237200   237134   238495 
  238504   237197   236637   237231   238250   237813   236802   238084 
  239460   238311   237163   237520   237903   238081   238077   237477 
  237224   237756   238539   238580   237520   237236   237870   238246 
  238709   239009   238962   237972   236146   236233   238161   238708 
  237609   237454   238478   238617   238468   239048   238685   237236 
  236264   236058   236777   237833   237535   236960   237589   237278 
  236129   237019   238524   238449   238149   238064   237546   237861 
  238874   238256   237365   238354   238999   238546   238680   238846 
  238580   238651   238528   238067   238129   237766   237018   237509 
  238033   237795   237838   237994   238624   238844   236671   234991 
  236305   237662   238196   238624   237423   236075   236850   237876 
  238084   238270   237859   237267   237412   237459   237172   236511 
  235962   237023   238434   238338   237963   238528   239232   239171 
  238651   238063   237620   237976   238682   238723   238569   238563 
  238261   237918   237925   238145   238246   237705   236858   237114 
  238092   238229   237964   238000   237930   237541   236696   235915 
  236617   238320   238607   237519   237197   237732   237740   237236 
  237135   237290   237431   237915   238214   238033   238269   238491 
  238033   238032   238464   238153   237779   238293   238427   237564 
  237265   237348   237386   237944   237975   237783   237983   237516 
  237019   237239   237891   238536   238300   237902   238068   238320 
  238671   238179   237402   238204   238573   237324   236491   236445 
  236962   237895   238339   238558   238643   238014   237574   237633 
  237689   237934   237733   237348   237571   237729   237963   238111 
  237717   237622   237521   237473   238002   237645   237176   238216 
  238977   238852   238415   237513   237509   238119   237784   237621 
  237898   237159   236590   237791   238993   238632   237729   237319 
  237595   237791   237440   237717   238210   237490   237016   237951 
  238759   238935   238758   238279   238262   238007   237444   237890 
  237860   236807   236668   237184   237405   237416   237374   237763 
  237975   237501   237822   238500   237979   237543   237760   237308 
  236596   236946   237749   237925   238269   238847   238489   238162 
  239020   239553   238646   237668   237689   238141   238092   237099 
  236401   237026   237394   237051   237578   238513   238580   238015 
  237390   237408   238053   238310   238331   238540   238284   237624 
  237492   238308   239094   238639   237903   237490   236885   237172 
  237718   237281   237412   237606   236837   237084   238056   237774 
  237124   237193   237398   237566   237844   238003   237996   238133 
  238557   238769   238428   237852   237708   238180   238405   238183 
  237951   237913   238531   239091   238542   237679   237061   236345 
  236522   237716   237961   237296   237099   237165   237374   237851 
  237979   237706   237213   236898   237697   238545   238204   237987 
  237890   237085   237165   238558   239132   238167   237444   238345 
  239371   238716   237772   237924   238088   238006   238167   237973 
  237451   237174   236918   236412   236194   237168   238396   238270 
  237996   238582   238270   237007   237030   238114   238099   237244 
  237609   238570   237980   237340   238273   238572   238080   238304 
  237857   236899   237379   238071   237582   237377   238133   238527 
  237895   237172   237296   237420   237081   237856   239418   239292 
  237703   236887   237289   238276   239076   238948   238269   237358 
  236861   237316   237091   236787   238415   239681   239215   238959 
  238763   237652   236335   235813   236478   237420   237504   237425 
  238131   238678   238076   237332   237749   238869   239238   238519 
  237654   237130   236923   237092   237520   237979   238025   237574 
  237321   237809   238395   237929   237213   237574   237968   237736 
  237841   237995   237563   237381   237586   237595   237818   238123 
  238221   238607   238482   237446   237244   237980   238222   238231 
  238374   238002   237123   236555   236752   237247   237636   238407 
  239344   239087   237969   237691   238189   238432   238211   237586 
  236848   236549   236781   237428   238034   238133   238330   238495 
  237726   237026   237394   237643   237381   237520   237509   237177 
  237481   237863   238003   238384   238423   238212   238403   238496 
  237994   237270   237346   238603   239506   238885   237953   237797 
  237806   237616   237428   237389   237852   238269   237640   236556 
  236422   237220   237633   237508   237560   237451   237108   237174 
  237678   238315   238499   238027   237887   238150   237899   237824 
  238439   238523   237986   237780   237848   237861   237851   237901 
  238204   238523   238339   238233   238601   238242   237030   236509 
  236769   236911   237320   238094   238233   237863   237834   237902 
  237766   237840   237946   237725   237598   237852   238086   237917 
  237917   238496   238686   238204   238094   238289   237844   237236 
  237323   237471   237234   237243   237485   237595   237849   238125 
  238077   237924   238018   238500   238824   238532   238121   237774 
  237334   237250   237411   237026   236571   236906   237417   237624 
  237987   238253   237952   237708   237973   238248   238416   238557 
  238276   237860   237932   237910   237421   237379   237724   237660 
  237655   238026   238262   238341   238482   238519   238243   237651 
  237159   237300   237668   237813   238195   238461   237932   237307 
  237093   237303   237991   238162   237455   237168   237412   237618 
  238054   238011   237393   237745   238443   238019   237450   237520 
  237651   237802   238103   238023   237536   237432   237668   237799 
  238133   238414   238169   237956   238107   238176   237779   237188 
  236991   237093   237251   237555   237791   238000   238297   238214 
  237941   237986   237990   237872   237890   237802   237689   237743 
  237639   237361   237184   237392   237895   237883   237606   237928 
  238108   237728   237587   237575   237439   237617   237895   238034 
  238339   238724   239082   239359   239137   238505   237924   237598 
  237663   237713   237537   237645   237595   236956   236763   237289 
  237666   237728   237756   237799   237791   237722   237736   237805 
  237826   237807   237691   237728   237969   238038   238202   238423 
