Origin Time       2025/03/28 03:50:00
Lat.              35.403
Long.             140.360
Depth. (km)       54
Mag.              4.4
Station Code      CHBH17
Station Lat.      35.1714
Station Long.     140.3398
Station Height(m) 10
Record Time       2025/03/28 03:50:50
Sampling Freq(Hz) 100Hz
Duration Time(s)  120
Dir.              6
Scale Factor      7845(gal)/8223790
Max. Acc. (gal)   3.425
Last Correction   2025/03/28 03:50:50
Memo.             
   17761    17772    17764    17751    17749    17756    17763    17767 
   17760    17749    17751    17761    17764    17757    17753    17759 
   17759    17753    17756    17760    17755    17757    17770    17770 
   17757    17755    17757    17755    17756    17767    17767    17757 
   17753    17755    17756    17763    17764    17757    17753    17757 
   17761    17760    17757    17756    17756    17760    17764    17759 
   17753    17755    17761    17771    17772    17764    17753    17749 
   17752    17757    17766    17772    17766    17753    17749    17752 
   17764    17778    17774    17757    17745    17751    17766    17772 
   17770    17771    17764    17752    17753    17761    17761    17763 
   17768    17766    17756    17755    17757    17759    17766    17774 
   17770    17756    17752    17755    17759    17768    17774    17764 
   17751    17751    17766    17772    17767    17764    17761    17755 
   17760    17770    17764    17755    17752    17755    17766    17775 
   17768    17751    17744    17752    17767    17772    17764    17753 
   17752    17757    17757    17757    17760    17763    17767    17767 
   17757    17747    17749    17763    17770    17766    17761    17756 
   17747    17748    17760    17768    17770    17767    17757    17747 
   17747    17757    17760    17756    17764    17771    17757    17744 
   17751    17766    17771    17768    17759    17745    17747    17764 
   17771    17761    17756    17757    17753    17747    17751    17761 
   17771    17774    17763    17748    17745    17753    17767    17771 
   17763    17757    17753    17755    17759    17760    17761    17770 
   17771    17763    17749    17739    17747    17766    17772    17770 
   17761    17752    17752    17760    17764    17763    17760    17756 
   17757    17760    17759    17761    17761    17757    17761    17767 
   17764    17759    17757    17759    17761    17764    17766    17761 
   17761    17766    17764    17760    17760    17760    17759    17755 
   17757    17766    17770    17766    17757    17749    17752    17768 
   17778    17767    17753    17752    17757    17760    17763    17766 
   17760    17752    17753    17759    17764    17766    17766    17761 
   17756    17755    17761    17767    17770    17764    17753    17749 
   17752    17760    17776    17775    17755    17745    17751    17759 
   17770    17776    17767    17753    17755    17760    17761    17764 
   17764    17757    17756    17764    17766    17764    17764    17763 
   17759    17756    17760    17766    17761    17760    17766    17760 
   17753    17760    17767    17767    17768    17763    17753    17749 
   17752    17767    17778    17770    17755    17747    17747    17757 
   17771    17775    17766    17749    17743    17753    17767    17771 
   17767    17756    17744    17751    17767    17768    17761    17759 
   17755    17752    17752    17756    17760    17761    17761    17759 
   17751    17749    17761    17768    17763    17756    17753    17755 
   17761    17770    17764    17749    17749    17759    17759    17761 
   17764    17760    17759    17759    17755    17752    17760    17770 
   17767    17757    17748    17745    17755    17767    17770    17766 
   17756    17748    17747    17753    17767    17778    17775    17761 
   17748    17745    17755    17764    17774    17775    17760    17747 
   17747    17756    17768    17779    17772    17757    17752    17752 
   17760    17771    17770    17764    17763    17759    17756    17764 
   17770    17764    17759    17760    17764    17761    17763    17768 
   17766    17763    17767    17763    17757    17766    17771    17767 
   17761    17757    17756    17759    17766    17771    17766    17756 
   17757    17764    17766    17759    17760    17766    17764    17761 
   17759    17753    17755    17767    17771    17766    17759    17755 
   17757    17763    17766    17764    17760    17755    17752    17756 
   17768    17772    17761    17751    17745    17753    17774    17782 
   17764    17745    17747    17760    17771    17774    17761    17748 
   17749    17761    17766    17767    17768    17756    17747    17753 
   17760    17763    17764    17766    17764    17753    17748    17755 
   17764    17770    17772    17759    17737    17740    17763    17774 
   17770    17760    17752    17751    17756    17766    17770    17757 
   17748    17752    17756    17760    17766    17759    17753    17753 
   17755    17757    17761    17763    17759    17755    17755    17755 
   17759    17760    17752    17752    17757    17763    17767    17761 
   17751    17751    17761    17768    17764    17755    17752    17756 
   17761    17766    17764    17756    17748    17753    17764    17766 
   17760    17756    17749    17747    17755    17766    17770    17763 
   17753    17751    17753    17766    17774    17763    17752    17752 
   17751    17755    17766    17770    17764    17760    17764    17759 
   17749    17751    17757    17764    17771    17768    17756    17748 
   17751    17760    17768    17772    17768    17760    17756    17753 
   17753    17759    17767    17768    17766    17763    17753    17749 
   17759    17763    17760    17766    17766    17752    17747    17760 
   17775    17767    17749    17745    17757    17771    17779    17772 
   17751    17748    17766    17768    17763    17767    17766    17759 
   17760    17764    17763    17764    17767    17767    17757    17743 
   17751    17774    17775    17763    17755    17753    17760    17772 
   17772    17763    17753    17752    17753    17757    17768    17768 
   17760    17759    17760    17761    17761    17752    17749    17763 
   17774    17774    17766    17757    17749    17748    17760    17771 
   17768    17760    17753    17749    17755    17767    17768    17761 
   17763    17764    17753    17751    17764    17770    17759    17751 
   17749    17753    17764    17774    17767    17749    17747    17759 
   17763    17761    17761    17757    17752    17761    17774    17764 
   17755    17756    17757    17756    17761    17768    17766    17759 
   17756    17753    17756    17768    17774    17761    17753    17753 
   17757    17763    17763    17759    17753    17755    17761    17767 
   17770    17763    17752    17748    17755    17763    17771    17774 
   17763    17755    17757    17759    17756    17759    17767    17768 
   17760    17759    17760    17755    17755    17763    17766    17766 
   17766    17757    17749    17752    17761    17770    17763    17757 
   17766    17767    17755    17751    17760    17763    17760    17763 
   17761    17755    17755    17757    17759    17760    17760    17761 
   17760    17759    17760    17761    17760    17756    17757    17764 
   17764    17757    17756    17760    17763    17761    17757    17755 
   17759    17766    17761    17759    17760    17757    17752    17753 
   17767    17782    17771    17745    17733    17740    17764    17790 
   17786    17753    17734    17747    17764    17770    17767    17756 
   17744    17749    17766    17770    17761    17756    17756    17759 
   17763    17761    17755    17756    17763    17761    17756    17752 
   17760    17771    17770    17759    17749    17747    17752    17763 
   17767    17766    17759    17751    17748    17759    17767    17766 
   17760    17755    17755    17759    17763    17760    17760    17764 
   17763    17759    17753    17752    17755    17760    17767    17766 
   17755    17749    17753    17760    17764    17767    17764    17752 
   17752    17766    17766    17759    17761    17761    17753    17755 
   17764    17766    17764    17763    17757    17757    17763    17766 
   17763    17757    17757    17761    17764    17764    17763    17759 
   17756    17761    17768    17764    17759    17763    17763    17756 
   17759    17764    17767    17764    17761    17759    17756    17759 
   17764    17767    17766    17760    17759    17759    17753    17755 
   17763    17764    17761    17760    17757    17755    17760    17764 
   17760    17756    17760    17759    17759    17763    17764    17763 
   17756    17749    17759    17771    17767    17760    17753    17748 
   17760    17776    17764    17749    17755    17763    17760    17757 
   17761    17760    17757    17764    17766    17760    17757    17753 
   17755    17766    17775    17770    17752    17741    17752    17768 
   17775    17775    17761    17745    17749    17763    17771    17774 
   17766    17753    17752    17756    17759    17766    17768    17766 
   17763    17763    17759    17751    17749    17759    17768    17770 
   17768    17757    17745    17751    17761    17763    17759    17757 
   17760    17757    17753    17756    17755    17755    17761    17766 
   17763    17764    17760    17744    17740    17759    17776    17771 
   17753    17744    17749    17760    17772    17772    17759    17751 
   17753    17753    17753    17761    17768    17763    17756    17751 
   17751    17756    17766    17771    17767    17757    17752    17752 
   17757    17761    17761    17759    17759    17760    17761    17761 
   17755    17756    17761    17760    17760    17756    17751    17759 
   17767    17761    17760    17761    17764    17767    17759    17748 
   17752    17767    17768    17756    17751    17753    17757    17767 
   17774    17764    17751    17752    17755    17755    17761    17766 
   17761    17757    17757    17757    17757    17764    17771    17763 
   17749    17752    17760    17760    17766    17772    17764    17748 
   17748    17759    17767    17774    17771    17753    17743    17751 
   17764    17771    17770    17764    17757    17749    17752    17767 
   17772    17764    17753    17747    17755    17766    17767    17761 
   17756    17752    17756    17763    17761    17752    17753    17757 
   17759    17767    17767    17753    17751    17757    17759    17760 
   17766    17761    17751    17748    17760    17768    17764    17760 
   17756    17748    17745    17757    17771    17772    17770    17761 
   17748    17744    17753    17760    17766    17775    17772    17757 
   17749    17749    17759    17768    17767    17760    17755    17755 
   17759    17760    17763    17763    17763    17763    17759    17753 
   17755    17757    17763    17770    17768    17760    17753    17751 
   17756    17767    17770    17766    17757    17749    17749    17761 
   17771    17766    17755    17756    17760    17759    17763    17767 
   17759    17755    17760    17763    17760    17760    17759    17753 
   17756    17768    17770    17757    17752    17755    17760    17770 
   17774    17763    17747    17747    17759    17768    17772    17768 
   17757    17752    17753    17760    17766    17766    17766    17760 
   17755    17757    17763    17764    17761    17759    17761    17766 
   17761    17755    17752    17756    17764    17771    17766    17753 
   17751    17759    17768    17770    17764    17755    17748    17753 
   17764    17770    17759    17748    17755    17766    17767    17764 
   17757    17747    17747    17763    17772    17763    17752    17751 
   17755    17761    17767    17763    17753    17751    17759    17761 
   17760    17759    17753    17751    17757    17768    17768    17759 
   17749    17745    17751    17763    17771    17766    17755    17753 
   17760    17764    17763    17759    17755    17757    17766    17766 
   17763    17757    17747    17748    17761    17768    17763    17757 
   17753    17748    17757    17767    17759    17753    17764    17766 
   17760    17759    17756    17748    17753    17774    17780    17764 
   17745    17740    17749    17768    17778    17768    17749    17741 
   17752    17766    17771    17770    17757    17747    17753    17768 
   17767    17756    17756    17760    17760    17759    17756    17756 
   17761    17768    17767    17761    17753    17752    17760    17766 
   17766    17766    17761    17757    17759    17764    17767    17761 
   17753    17755    17761    17764    17768    17764    17752    17751 
   17766    17768    17760    17756    17759    17757    17751    17745 
   17744    17747    17770    17780    17722    17628    17609    17725 
   17892    17998    18060    18112    18037    17743    17273    16773 
   16622    17096    17984    18720    18598    17910    18092    19148 
   19577    19055    18037    16640    15495    15375    16256    17567 
   18280    17957    17732    18115    18177    18079    18635    19075 
   18404    17123    16398    17064    18403    18601    17728    17047 
   16812    17057    17498    17756    17859    17370    16738    17051 
   18164    19921    21350    20324    17710    16501    16745    16780 
   16970    17718    17720    16818    16102    16190    17452    19020 
   19434    18982    18635    18536    18158    17065    16186    16762 
   18226    18706    17606    16795    17374    17965    17825    17466 
   17504    18418    19134    18168    16735    17172    18779    18840 
   17298    16366    16868    18064    18623    17906    17018    16922 
   17354    17780    17990    18260    18616    18715    18639    18484 
   17964    16950    16078    16332    17653    18775    18557    17505 
   17165    17535    17464    17108    17496    18743    19588    18846 
   17135    16125    16757    18339    19111    18428    17379    17149 
   17513    17402    17019    17374    18207    18428    17848    17429 
   17581    17830    18318    18731    18021    16877    16946    18112 
   18631    17702    16792    17145    18063    18289    17655    17300 
   17726    18243    18426    17984    17050    16641    17359    18630 
   19062    18257    17716    17837    17389    16757    16915    17155 
   17410    18396    18981    18333    17774    17787    17799    18160 
   18743    18481    17320    16197    16005    17082    18566    18909 
   17690    16556    17057    18274    18658    18215    17761    17856 
   18269    18364    17865    16992    16713    17706    18671    18211 
   17231    17130    17714    18258    18430    17918    16989    16741 
   17455    18152    18146    17613    17065    17078    17694    18333 
   18665    18620    18000    17311    17555    18311    18229    17451 
   17061    17212    17436    17559    17599    17466    17377    17960 
   18906    18769    17585    17240    18015    18435    18300    18192 
   18069    17894    17618    17127    16826    17084    17410    17277 
   17093    17381    18026    18593    18669    18401    18014    17329 
   16783    17045    17938    18627    18435    17736    17277    17444 
   18173    18490    17825    16964    16845    17748    18686    18493 
   17805    17675    17984    18117    17643    17039    17193    17807 
   18019    17940    18117    18311    17949    17311    17074    17238 
   17454    17644    17825    17878    17884    18080    18096    17759 
   17779    18079    17872    17324    16875    16873    17470    17740 
   17404    17477    18099    18852    19273    18544    17239    16996 
   17718    18050    17942    18301    18702    17982    16611    16009 
   16637    17787    18482    18667    18524    17701    16834    17103 
   17892    17986    17794    17992    18068    17838    18027    18384 
   18065    17528    17363    16964    16168    16197    17793    19674 
   20052    18922    17406    16247    16194    17463    18658    18511 
   17666    17487    18049    18261    17810    17644    18002    18037 
   17748    17699    17629    17462    17617    17784    17612    17597 
   18014    18382    18320    17737    16760    16391    17501    18906 
   18855    17605    16605    16676    17633    18746    19255    18643 
   17361    16696    17205    18223    18775    18343    17103    16108 
   16561    17923    18362    17550    16933    17640    19078    19446 
   18279    17041    16857    17687    18590    18334    17193    16941 
   18044    18709    17821    16564    16335    17285    18522    18805 
   17950    17030    17109    18060    18639    18438    18229    18064 
   17523    17047    17301    18018    18137    17263    16456    16657 
   17528    18374    18805    18729    18381    18087    17821    17344 
   17228    18169    19060    18405    16883    16093    16347    17253 
   18493    19226    18887    18206    17695    17244    17147    17423 
   17778    18044    17678    16854    16768    17770    19091    19734 
   19195    17890    16575    16120    16953    18021    18111    17629 
   17425    17328    17259    17721    18111    17743    17622    18127 
   18334    18225    17918    17049    16347    16880    18347    19483 
   19352    18121    16787    16444    17459    18821    19032    17788 
   16281    16044    17274    18559    18771    18033    17049    16630 
   17274    18584    19290    18603    17570    17567    18162    18276 
   17879    17452    17266    17428    17783    17988    17928    17620 
   17134    16850    17128    17879    18681    18954    18303    17267 
   17103    17948    18578    18247    17258    16578    17014    17964 
   18253    17880    17566    17474    17466    17637    17925    18181 
   18280    17767    16906    16825    17516    18145    18492    18424 
   18011    17741    17610    17516    17755    18227    18297    17691 
   17131    17436    18226    18580    18331    17869    17393    17043 
   17400    18465    18804    17659    16389    16195    16703    17486 
   18566    19168    18530    17543    17412    17979    18547    18681 
   18060    16926    16236    16603    17791    19109    19614    18802 
   17408    16676    17103    18220    19014    18698    17640    16981 
   17193    17640    17585    17215    17053    16881    16541    16528 
   16900    17444    18149    18355    17523    16622    16737    17420 
   17987    18603    19002    18662    18253    18442    18655    18396 
   18187    18588    19017    18657    17801    17099    16907    17211 
   17393    16976    16371    16582    17716    18493    18370    17915 
   17282    16880    17405    18436    18971    18733    18107    17400 
   16960    17128    17437    17211    16721    16773    17570    18539 
   19143    18929    17822    17167    18022    19186    19398    19083 
   18882    18731    18351    17734    17112    16549    16013    15633 
   15538    15859    16892    18586    19757    19419    18654    18713 
   18906    18401    17601    17019    16742    16815    17134    17302 
   17182    17095    17172    17097    16681    16397    16826    17672 
   18185    18144    17945    18164    19087    20286    20587    19342 
   17423    16110    16039    17039    18073    18326    18152    17986 
   17725    17656    17990    18138    17998    17963    17824    17682 
   17942    18268    18405    18439    18068    17223    16335    15691 
   15616    16582    18131    18920    18652    18453    18759    18705 
   18075    17718    17767    17560    16895    16160    15940    16445 
   17274    17836    17822    17695    18144    18912    19165    18704 
   18018    17540    17464    17795    18235    18573    18675    18206 
   17298    16764    17028    17716    18355    18696    18580    18189 
   17960    18123    18418    18166    17227    16505    16734    17539 
