Origin Time       2025/03/28 03:50:00
Lat.              35.403
Long.             140.360
Depth. (km)       54
Mag.              4.4
Station Code      CHBH19
Station Lat.      35.5943
Station Long.     140.5107
Station Height(m) -1629
Record Time       2025/03/28 03:50:47
Sampling Freq(Hz) 100Hz
Duration Time(s)  120
Dir.              3
Scale Factor      2942(gal)/8224139
Max. Acc. (gal)   1.167
Last Correction   2025/03/28 03:50:48
Memo.             
[...]
  -54804   -54805   -54805   -54805   -54805   -54805   -54808   -54810 
  -54807   -54808   -54808   -54805   -54803   -54801   -54801   -54805 
  -54807   -54804   -54804   -54804   -54804   -54803   -54803   -54804 
  -54804   -54805   -54804   -54804   -54805   -54807   -54807   -54804 
  -54804   -54807   -54805   -54803   -54805   -54808   -54808   -54805 
  -54804   -54804   -54805   -54804   -54805   -54808   -54807   -54804 
  -54805   -54807   -54805   -54804   -54804   -54805   -54807   -54805 
  -54805   -54807   -54804   -54805   -54807   -54805   -54805   -54805 
  -54804   -54805   -54807   -54804   -54804   -54808   -54807   -54804 
  -54805   -54805   -54807   -54807   -54807   -54807   -54807   -54805 
  -54808   -54808   -54805   -54805   -54808   -54808   -54805   -54807 
  -54805   -54803   -54807   -54810   -54807   -54804   -54803   -54804 
  -54804   -54805   -54810   -54807   -54804   -54804   -54808   -54808 
  -54804   -54805   -54805   -54803   -54803   -54808   -54811   -54807 
  -54803   -54804   -54807   -54805   -54803   -54804   -54805   -54807 
  -54805   -54804   -54804   -54804   -54805   -54807   -54807   -54805 
  -54805   -54805   -54807   -54808   -54808   -54805   -54803   -54804 
  -54805   -54805   -54805   -54807   -54807   -54807   -54807   -54805 
  -54807   -54808   -54807   -54807   -54808   -54807   -54804   -54805 
  -54807   -54807   -54807   -54807   -54805   -54805   -54805   -54805 
  -54807   -54805   -54804   -54803   -54804   -54807   -54804   -54804 
  -54807   -54805   -54804   -54804   -54805   -54805   -54805   -54805 
  -54807   -54807   -54805   -54805   -54807   -54807   -54808   -54807 
  -54805   -54808   -54807   -54803   -54805   -54807   -54804   -54805 
  -54804   -54804   -54805   -54804   -54804   -54807   -54804   -54803 
  -54807   -54807   -54804   -54807   -54807   -54805   -54805   -54804 
  -54805   -54808   -54805   -54805   -54807   -54805   -54805   -54805 
  -54803   -54803   -54805   -54805   -54805   -54807   -54805   -54805 
  -54807   -54805   -54805   -54805   -54804   -54804   -54805   -54804 
  -54803   -54804   -54801   -54801   -54804   -54804   -54805   -54807 
  -54805   -54803   -54807   -54807   -54804   -54804   -54804   -54803 
  -54804   -54805   -54805   -54804   -54805   -54805   -54801   -54801 
  -54803   -54804   -54804   -54803   -54801   -54801   -54805   -54808 
  -54804   -54801   -54801   -54803   -54805   -54805   -54804   -54805 
  -54803   -54804   -54804   -54803   -54804   -54803   -54800   -54804 
  -54805   -54803   -54805   -54807   -54804   -54803   -54805   -54805 
  -54804   -54805   -54805   -54805   -54805   -54804   -54801   -54803 
  -54807   -54808   -54805   -54804   -54805   -54808   -54807   -54804 
  -54807   -54808   -54805   -54807   -54808   -54803   -54803   -54805 
  -54801   -54803   -54805   -54803   -54804   -54808   -54805   -54803 
  -54805   -54805   -54804   -54804   -54805   -54807   -54807   -54804 
  -54804   -54807   -54807   -54805   -54805   -54808   -54810   -54808 
  -54804   -54803   -54807   -54811   -54805   -54803   -54805   -54807 
  -54805   -54805   -54805   -54804   -54805   -54810   -54808   -54808 
  -54807   -54805   -54807   -54808   -54808   -54808   -54808   -54807 
  -54807   -54807   -54805   -54807   -54807   -54805   -54805   -54805 
  -54804   -54804   -54805   -54804   -54805   -54810   -54811   -54805 
  -54803   -54804   -54804   -54804   -54807   -54807   -54807   -54808 
  -54807   -54804   -54805   -54805   -54804   -54805   -54805   -54804 
  -54805   -54807   -54807   -54808   -54808   -54805   -54804   -54804 
  -54807   -54805   -54804   -54805   -54805   -54805   -54805   -54805 
  -54804   -54804   -54804   -54807   -54807   -54807   -54805   -54804 
  -54805   -54805   -54805   -54805   -54804   -54805   -54807   -54805 
  -54804   -54805   -54804   -54807   -54807   -54804   -54804   -54804 
  -54804   -54807   -54810   -54810   -54807   -54803   -54803   -54805 
  -54807   -54805   -54807   -54807   -54805   -54807   -54810   -54807 
  -54804   -54807   -54808   -54805   -54804   -54805   -54808   -54808 
  -54805   -54805   -54807   -54805   -54804   -54805   -54807   -54807 
  -54807   -54810   -54808   -54807   -54804   -54803   -54804   -54804 
  -54805   -54807   -54804   -54805   -54808   -54807   -54808   -54811 
  -54810   -54807   -54805   -54805   -54807   -54808   -54808   -54808 
  -54808   -54807   -54805   -54805   -54805   -54807   -54807   -54805 
  -54804   -54804   -54805   -54807   -54807   -54808   -54807   -54803 
  -54804   -54805   -54807   -54808   -54808   -54805   -54804   -54804 
  -54805   -54805   -54805   -54804   -54805   -54805   -54801   -54804 
  -54810   -54807   -54805   -54804   -54803   -54804   -54805   -54807 
  -54805   -54804   -54807   -54807   -54805   -54807   -54804   -54803 
  -54807   -54808   -54807   -54805   -54808   -54807   -54803   -54805 
  -54808   -54807   -54805   -54805   -54804   -54805   -54807   -54807 
  -54805   -54805   -54805   -54805   -54805   -54805   -54808   -54807 
  -54805   -54805   -54805   -54805   -54808   -54807   -54804   -54807 
  -54808   -54807   -54808   -54808   -54807   -54807   -54805   -54805 
  -54807   -54807   -54805   -54804   -54805   -54805   -54804   -54804 
  -54805   -54804   -54807   -54807   -54807   -54805   -54805   -54805 
  -54803   -54803   -54805   -54805   -54807   -54807   -54804   -54805 
  -54808   -54805   -54805   -54805   -54800   -54800   -54808   -54810 
  -54805   -54807   -54805   -54804   -54805   -54805   -54807   -54805 
  -54801   -54803   -54807   -54807   -54805   -54803   -54800   -54803 
  -54807   -54810   -54805   -54803   -54804   -54805   -54807   -54805 
  -54805   -54808   -54805   -54800   -54803   -54805   -54803   -54804 
  -54807   -54807   -54805   -54805   -54805   -54805   -54804   -54804 
  -54804   -54804   -54803   -54804   -54807   -54805   -54803   -54804 
  -54804   -54804   -54807   -54808   -54805   -54804   -54807   -54805 
  -54804   -54801   -54803   -54804   -54804   -54804   -54804   -54804 
  -54807   -54808   -54807   -54804   -54803   -54805   -54807   -54808 
  -54808   -54804   -54801   -54804   -54805   -54804   -54805   -54804 
  -54801   -54805   -54808   -54805   -54803   -54805   -54807   -54808 
  -54808   -54807   -54804   -54805   -54805   -54803   -54801   -54803 
  -54803   -54801   -54803   -54805   -54804   -54804   -54805   -54807 
  -54804   -54800   -54801   -54805   -54804   -54804   -54807   -54805 
  -54807   -54808   -54805   -54805   -54808   -54807   -54804   -54804 
  -54804   -54805   -54807   -54807   -54804   -54803   -54804   -54803 
  -54801   -54805   -54805   -54803   -54804   -54805   -54804   -54804 
  -54805   -54805   -54804   -54805   -54810   -54808   -54804   -54804 
  -54805   -54803   -54804   -54807   -54808   -54808   -54804   -54800 
  -54801   -54804   -54807   -54807   -54805   -54805   -54810   -54808 
  -54804   -54805   -54808   -54805   -54803   -54807   -54805   -54804 
  -54807   -54805   -54803   -54805   -54808   -54805   -54805   -54808 
  -54807   -54807   -54807   -54807   -54805   -54807   -54807   -54804 
  -54805   -54808   -54807   -54807   -54808   -54805   -54807   -54808 
  -54807   -54807   -54807   -54805   -54804   -54807   -54807   -54805 
  -54807   -54808   -54808   -54810   -54807   -54805   -54805   -54807 
  -54805   -54805   -54807   -54807   -54807   -54805   -54805   -54808 
  -54810   -54808   -54807   -54808   -54807   -54805   -54808   -54805 
  -54804   -54805   -54804   -54807   -54805   -54805   -54807   -54807 
  -54805   -54805   -54803   -54804   -54808   -54807   -54804   -54804 
  -54805   -54808   -54807   -54804   -54805   -54807   -54805   -54805 
  -54805   -54805   -54805   -54805   -54804   -54805   -54807   -54807 
  -54805   -54804   -54804   -54804   -54804   -54805   -54807   -54805 
  -54807   -54805   -54805   -54807   -54807   -54805   -54807   -54805 
  -54803   -54805   -54808   -54804   -54803   -54805   -54805   -54805 
  -54807   -54807   -54804   -54805   -54807   -54807   -54803   -54803 
  -54805   -54807   -54807   -54805   -54807   -54807   -54801   -54801 
  -54805   -54805   -54804   -54805   -54805   -54803   -54805   -54807 
  -54805   -54804   -54804   -54803   -54801   -54804   -54807   -54804 
  -54800   -54788   -54760   -54715   -54669   -54643   -54653   -54691 
  -54750   -54808   -54816   -54756   -54683   -54699   -54869   -55138 
  -55347   -55395   -55363   -55262   -54955   -54610   -54490   -54472 
  -54413   -54394   -54426   -54602   -55097   -55459   -55331   -55084 
  -54552   -53983   -54415   -54922   -54535   -54664   -55247   -55008 
  -54669   -54546   -54406   -55030   -55858   -55686   -55381   -55513 
  -54716   -53855   -54746   -55015   -53919   -54216   -54747   -54352 
  -54797   -54961   -54237   -54716   -55471   -55395   -55684   -55161 
  -53441   -53206   -54199   -54329   -54495   -55448   -55999   -56004 
  -55414   -54588   -54554   -54549   -54365   -54710   -55071   -54997 
  -55058   -55206   -54448   -53921   -54645   -55059   -55135   -55371 
  -55023   -54449   -53935   -53406   -53828   -55013   -55097   -54936 
  -56168   -56162   -54477   -54415   -55043   -54442   -54090   -54747 
  -55359   -55393   -55583   -55304   -54018   -53769   -54037   -54163 
  -55821   -56374   -54625   -54653   -55611   -54480   -53958   -55044 
  -54600   -54018   -55412   -55525   -54454   -54969   -54811   -54022 
  -54810   -54835   -54147   -54746   -54886   -54523   -55090   -55223 
  -54518   -54513   -55089   -55409   -55539   -55017   -54442   -55027 
  -55069   -54180   -54526   -55350   -55240   -55021   -55104   -54997 
  -54554   -54048   -53959   -54645   -55092   -54519   -54616   -55343 
  -54953   -54635   -54949   -54919   -54934   -54703   -54303   -54440 
  -54481   -54507   -55134   -55640   -55069   -54540   -55116   -54842 
  -53836   -54353   -54773   -54329   -54884   -55374   -55162   -55219 
  -54842   -54760   -55401   -55212   -55204   -55517   -54754   -54552 
  -54801   -54243   -54325   -54399   -53971   -54722   -55291   -54774 
  -54591   -54801   -55279   -55390   -55171   -55416   -54638   -53613 
  -54081   -54317   -54496   -55476   -55653   -55186   -55273   -55305 
  -54841   -54696   -54861   -54388   -53829   -54518   -55225   -54479 
  -54256   -55107   -54969   -54610   -55231   -55468   -55150   -55401 
  -55225   -54171   -54170   -54724   -54328   -54495   -55094   -54444 
  -54256   -55382   -55607   -54621   -54163   -54554   -54842   -55100 
  -55331   -54927   -54510   -54704   -54758   -54373   -54768   -55679 
  -55385   -54677   -54776   -54888   -54712   -54691   -55109   -55289 
  -54672   -54677   -54899   -54147   -53883   -54317   -54985   -55468 
  -54811   -54572   -55281   -55220   -54472   -53987   -54297   -54814 
  -54538   -54410   -55080   -55055   -54332   -54330   -54812   -55178 
  -55387   -55580   -55583   -54913   -54604   -55015   -54756   -54252 
  -54330   -54359   -54461   -54869   -55071   -55073   -54992   -54851 
  -54548   -54473   -55270   -55501   -54916   -55219   -55674   -55320 
  -54666   -54365   -54345   -54260   -54842   -55468   -55255   -54930 
  -54525   -54233   -54198   -54052   -54364   -55074   -55175   -54911 
  -54847   -54256   -53931   -54811   -54936   -54800   -55703   -55615 
  -54722   -54464   -54483   -54677   -54600   -54390   -55143   -55941 
  -55499   -55224   -55846   -55649   -54564   -54284   -54645   -54332 
  -53865   -54018   -54187   -54360   -54491   -54600   -55209   -55290 
  -54633   -54824   -55560   -55003   -53966   -54787   -55432   -54279 
  -54764   -56231   -55345   -54009   -54070   -54472   -54445   -54279 
  -54642   -54959   -54976   -55385   -55293   -54616   -54544   -54156 
  -53752   -54986   -55985   -55478   -55192   -55115   -54972   -55495 
  -55232   -54086   -54163   -54535   -54425   -54654   -54677   -54911 
  -55429   -55185   -54905   -54845   -54747   -55027   -54669   -53754 
  -54124   -54955   -54735   -54646   -55451   -55783   -55224   -54951 
  -54904   -54529   -54441   -54684   -55281   -55935   -55273   -54298 
  -54625   -54984   -54388   -54103   -54600   -54592   -54391   -54842 
  -55285   -55350   -54679   -54021   -54425   -54672   -54697   -55181 
  -55094   -54619   -54521   -54515   -54787   -55190   -55098   -54969 
  -54940   -54487   -54157   -54375   -54688   -54896   -54901   -54912 
  -55001   -54882   -54955   -54997   -54824   -55111   -54837   -53889 
  -54032   -54764   -55104   -55212   -55048   -55224   -55655   -55252 
  -54545   -54523   -54880   -55194   -55229   -54916   -54718   -54680 
  -54623   -54465   -54102   -54411   -55136   -54951   -54699   -54886 
  -54824   -55042   -55447   -55235   -54599   -54183   -54437   -54440 
  -53948   -54560   -55435   -55194   -55038   -55250   -55190   -54799 
  -54372   -54359   -54487   -54631   -54803   -54812   -54862   -54878 
  -54765   -54714   -54904   -55102   -54908   -54878   -55300   -55344 
  -54990   -54714   -54226   -53858   -54091   -54641   -55366   -55397 
  -54635   -54503   -54773   -54770   -54712   -54891   -55530   -55849 
  -55756   -55900   -55452   -54502   -54083   -53601   -52926   -52968 
  -53451   -53603   -53712   -54220   -54658   -54926   -55383   -55935 
  -56589   -57198   -57350   -56941   -55903   -54735   -54029   -53206 
  -52335   -52243   -52459   -52662   -53361   -54783   -56423   -57435 
  -58067   -57820   -55780   -54159   -54167   -54009   -54143   -55255 
  -55324   -54591   -54507   -53707   -52768   -53805   -55159   -55282 
  -55401   -55941   -56218   -56062   -55510   -54811   -54754   -55420 
  -55910   -55833   -55278   -54587   -54110   -53156   -51763   -51543 
  -52589   -53744   -55032   -56288   -56825   -57194   -57747   -57593 
  -56346   -54750   -53477   -52650   -52708   -53322   -53299   -53084 
  -53574   -54221   -54585   -55119   -56122   -56955   -56741   -55829 
  -55250   -54874   -53985   -53076   -53384   -54945   -56243   -56336 
  -55831   -55101   -54328   -54243   -54765   -55394   -55975   -55864 
  -54560   -52879   -52409   -53200   -53784   -54405   -55530   -56056 
  -56199   -56029   -55417   -55919   -56019   -54113   -53279   -53948 
  -53802   -53642   -54375   -54730   -54535   -55228   -56185   -55733 
  -55051   -55479   -55750   -55224   -54789   -54334   -53759   -53782 
  -54213   -54818   -55134   -54345   -53847   -54306   -54310   -54515 
  -55421   -55825   -55841   -55833   -55460   -54778   -54147   -53893 
  -54112   -54810   -55625   -55833   -55405   -54645   -53906   -53757 
  -53796   -53713   -54193   -54970   -55185   -55120   -55512   -55844 
  -55173   -54422   -54803   -55351   -55065   -54598   -54486   -54265 
  -53896   -54282   -55177   -55182   -54947   -55696   -55991   -55202 
  -54845   -54637   -53782   -53320   -53809   -54592   -54886   -54498 
  -54433   -54792   -54715   -55120   -56050   -55938   -55433   -55459 
  -55347   -55071   -54989   -55042   -54822   -54303   -54423   -54899 
  -54815   -54612   -54496   -54576   -54808   -54500   -54371   -54957 
  -55281   -55512   -55841   -55378   -54303   -53557   -53451   -53568 
  -53825   -54606   -55173   -55350   -56052   -56296   -55378   -54795 
  -54774   -54629   -54684   -54843   -54642   -54459   -54607   -54481 
  -54036   -54174   -54629   -54778   -55142   -55634   -55632   -55290 
  -54915   -54693   -54858   -55075   -54711   -54099   -53946   -54297 
  -54885   -55220   -55128   -54919   -54585   -54338   -54602   -55039 
  -55175   -55131   -55248   -55312   -54922   -54668   -54700   -54271 
  -54152   -54847   -54963   -54762   -55165   -55262   -54886   -54406 
  -53902   -54097   -54650   -54815   -55008   -55371   -55583   -55459 
  -55111   -54822   -54464   -54259   -54598   -55188   -55705   -55741 
  -55213   -54502   -53708   -53392   -53835   -54305   -54575   -54913 
  -55387   -55570   -55080   -54765   -55116   -55266   -55085   -54963 
  -54824   -54835   -54977   -54972   -54706   -54436   -54564   -54643 
  -54523   -54783   -55190   -55378   -55355   -55015   -54475   -54116 
  -54018   -53954   -54085   -54399   -54294   -54168   -54807   -55517 
  -55610   -55436   -55259   -54949   -54475   -54429   -55077   -55432 
  -55196   -55090   -54877   -54483   -54446   -54303   -54085   -54587 
  -55171   -55146   -54999   -54870   -54859   -55220   -55372   -55233 
  -55275   -55097   -54641   -54369   -54213   -54184   -54252   -54345 
  -54735   -55127   -55061   -54864   -54936   -55028   -54648   -54297 
  -54741   -55178   -55023   -55092   -55467   -55412   -55055   -54958 
  -54990   -54932   -54853   -54751   -54718   -54719   -54554   -54276 
  -54179   -54306   -54371   -54503   -54808   -54922   -54999   -55220 
  -55205   -54967   -54835   -54793   -54631   -54279   -54075   -54348 
  -54706   -54819   -55066   -55387   -55395   -55300   -55108   -54702 
  -54494   -54589   -54691   -54801   -54970   -54976   -54861   -54864 
  -54839   -54810   -54878   -54679   -54391   -54517   -54703   -54818 
  -55129   -55309   -55231   -55277   -55237   -54830   -54558   -54612 
  -54649   -54656   -54683   -54762   -54899   -54950   -54920   -54797 
  -54573   -54498   -54629   -54691   -54534   -54357   -54295   -54085 
  -53831   -54010   -54433   -54795   -55174   -55416   -55431   -55317 
  -55201   -55364   -55529   -55179   -54780   -54747   -54696   -54622 
  -54758   -54908   -55061   -55227   -55270   -55517   -55742   -55329 
  -54766   -54392   -54078   -54126   -54229   -54014   -54021   -54230 
  -54213   -54332   -54723   -54954   -55067   -55177   -55119   -54966 
  -54932   -55050   -55078   -54966   -54982   -55067   -55097   -55212 
  -55294   -55216   -55081   -54853   -54599   -54363   -53991   -53761 
  -53844   -54010   -54418   -55080   -55506   -55556   -55489   -55340 
  -55001   -54751   -54843   -54978   -54963   -54953   -54978   -55048 
  -55179   -55277   -55298   -55243   -55132   -54940   -54639   -54361 
  -54178   -54040   -53869   -53709   -53882   -54399   -54841   -55004 
  -54992   -54943   -54832   -54642   -54562   -54727   -55028   -55302 
  -55417   -55283   -54926   -54565   -54525   -54706   -54646   -54411 
  -54396   -54541   -54661   -54865   -55135   -55221   -55143   -55113 
  -55089   -55038   -55071   -55061   -54913   -54710   -54495   -54490 
  -54600   -54487   -54383   -54388   -54272   -54283   -54623   -54992 
  -55147   -55109   -54946   -54753   -54669   -54745   -54928   -55102 
  -55132   -55040   -55062   -55260   -55379   -55366   -55348   -55305 
  -55240   -55142   -54992   -54976   -55054   -54976   -54742   -54414 
  -54052   -53771   -53613   -53744   -54130   -54410   -54608   -54919 
  -55048   -54864   -54807   -55071   -55323   -55343   -55175   -54938 
  -54765   -54735   -54804   -54791   -54691   -54666   -54696   -54764 
  -54814   -54741   -54734   -54891   -55073   -55248   -55282   -55196 
  -55205   -55104   -54900   -54904   -54846   -54569   -54368   -54151 
  -53877   -53848   -54072   -54475   -54988   -55286   -55333   -55352 
  -55269   -55090   -54989   -54932   -54838   -54697   -54564   -54459 
  -54378   -54373   -54491   -54724   -54940   -55042   -55067   -54957 
  -54792   -54741   -54724   -54789   -54908   -54766   -54569   -54616 
