Origin Time       2025/03/28 03:50:00
Lat.              35.403
Long.             140.360
Depth. (km)       54
Mag.              4.4
Station Code      CHBH17
Station Lat.      35.1714
Station Long.     140.3398
Station Height(m) -811.7
Record Time       2025/03/28 03:50:50
Sampling Freq(Hz) 100Hz
Duration Time(s)  120
Dir.              3
Scale Factor      2942(gal)/8224139
Max. Acc. (gal)   0.859
Last Correction   2025/03/28 03:50:50
Memo.             
[...]
 -186891  -186894  -186871  -186868  -186895  -186894  -186884  -186889 
 -186877  -186880  -186908  -186889  -186861  -186887  -186898  -186872 
 -186883  -186895  -186869  -186875  -186896  -186883  -186869  -186880 
 -186896  -186881  -186864  -186885  -186891  -186868  -186873  -186896 
 -186881  -186860  -186881  -186900  -186881  -186881  -186898  -186889 
 -186879  -186885  -186880  -186873  -186895  -186900  -186876  -186876 
 -186888  -186877  -186879  -186894  -186892  -186896  -186898  -186879 
 -186875  -186895  -186898  -186884  -186884  -186888  -186877  -186881 
 -186894  -186888  -186881  -186881  -186884  -186885  -186881  -186891 
 -186892  -186884  -186892  -186888  -186880  -186887  -186889  -186887 
 -186876  -186879  -186891  -186879  -186879  -186891  -186881  -186884 
 -186887  -186880  -186884  -186887  -186891  -186900  -186889  -186883 
 -186891  -186883  -186876  -186877  -186877  -186880  -186888  -186892 
 -186885  -186884  -186891  -186885  -186879  -186887  -186895  -186880 
 -186868  -186883  -186895  -186884  -186880  -186888  -186891  -186885 
 -186875  -186876  -186879  -186881  -186887  -186883  -186880  -186881 
 -186872  -186869  -186887  -186891  -186877  -186880  -186884  -186872 
 -186875  -186888  -186876  -186862  -186877  -186884  -186880  -186876 
 -186879  -186900  -186888  -186852  -186867  -186904  -186899  -186868 
 -186868  -186892  -186898  -186888  -186867  -186876  -186902  -186872 
 -186854  -186887  -186879  -186871  -186892  -186872  -186860  -186884 
 -186898  -186902  -186885  -186862  -186867  -186875  -186879  -186877 
 -186879  -186880  -186873  -186880  -186900  -186885  -186867  -186880 
 -186884  -186881  -186895  -186892  -186871  -186868  -186880  -186888 
 -186898  -186887  -186862  -186877  -186896  -186880  -186873  -186888 
 -186885  -186868  -186873  -186887  -186869  -186864  -186894  -186891 
 -186862  -186871  -186894  -186899  -186889  -186879  -186871  -186871 
 -186880  -186898  -186887  -186869  -186883  -186877  -186862  -186875 
 -186881  -186871  -186869  -186888  -186887  -186864  -186879  -186895 
 -186879  -186877  -186881  -186876  -186868  -186862  -186885  -186902 
 -186884  -186876  -186884  -186883  -186883  -186894  -186899  -186892 
 -186879  -186879  -186885  -186877  -186879  -186884  -186881  -186887 
 -186888  -186875  -186873  -186892  -186889  -186871  -186883  -186896 
 -186887  -186885  -186892  -186895  -186879  -186862  -186883  -186891 
 -186879  -186900  -186900  -186871  -186888  -186894  -186868  -186892 
 -186907  -186861  -186858  -186904  -186906  -186875  -186875  -186889 
 -186884  -186881  -186884  -186879  -186880  -186888  -186889  -186891 
 -186877  -186875  -186889  -186883  -186879  -186895  -186887  -186871 
 -186884  -186894  -186881  -186869  -186880  -186894  -186885  -186883 
 -186887  -186877  -186879  -186888  -186888  -186881  -186880  -186889 
 -186889  -186879  -186879  -186880  -186868  -186868  -186889  -186891 
 -186868  -186879  -186902  -186889  -186880  -186884  -186875  -186877 
 -186887  -186891  -186889  -186873  -186873  -186898  -186898  -186884 
 -186880  -186880  -186892  -186902  -186884  -186881  -186884  -186880 
 -186884  -186872  -186876  -186898  -186895  -186889  -186884  -186876 
 -186871  -186865  -186887  -186906  -186884  -186868  -186880  -186883 
 -186885  -186892  -186879  -186872  -186872  -186860  -186869  -186898 
 -186904  -186889  -186872  -186875  -186892  -186891  -186884  -186889 
 -186887  -186879  -186881  -186883  -186881  -186888  -186888  -186881 
 -186880  -186876  -186873  -186873  -186883  -186898  -186879  -186868 
 -186887  -186884  -186891  -186895  -186861  -186879  -186918  -186892 
 -186873  -186876  -186867  -186885  -186892  -186880  -186892  -186887 
 -186869  -186881  -186887  -186876  -186881  -186880  -186875  -186883 
 -186867  -186860  -186896  -186899  -186873  -186881  -186884  -186880 
 -186881  -186872  -186869  -186883  -186887  -186873  -186871  -186877 
 -186881  -186888  -186883  -186879  -186895  -186884  -186861  -186879 
 -186903  -186894  -186875  -186877  -186884  -186884  -186888  -186885 
 -186876  -186868  -186877  -186900  -186885  -186864  -186881  -186894 
 -186889  -186894  -186891  -186880  -186873  -186876  -186876  -186881 
 -186896  -186895  -186887  -186883  -186871  -186877  -186894  -186880 
 -186876  -186902  -186903  -186876  -186876  -186885  -186877  -186871 
 -186875  -186885  -186887  -186883  -186894  -186891  -186869  -186881 
 -186898  -186889  -186889  -186889  -186876  -186885  -186899  -186883 
 -186876  -186889  -186880  -186875  -186902  -186906  -186877  -186877 
 -186887  -186869  -186867  -186881  -186898  -186894  -186868  -186875 
 -186898  -186884  -186871  -186887  -186891  -186881  -186892  -186894 
 -186873  -186877  -186899  -186900  -186889  -186884  -186877  -186868 
 -186880  -186894  -186889  -186887  -186879  -186869  -186883  -186883 
 -186873  -186888  -186885  -186881  -186894  -186877  -186875  -186895 
 -186881  -186881  -186902  -186889  -186884  -186904  -186896  -186876 
 -186885  -186896  -186888  -186880  -186875  -186881  -186888  -186881 
 -186887  -186887  -186865  -186875  -186891  -186888  -186888  -186880 
 -186889  -186900  -186881  -186873  -186887  -186885  -186879  -186888 
 -186885  -186869  -186887  -186899  -186883  -186888  -186889  -186862 
 -186871  -186896  -186877  -186875  -186903  -186900  -186883  -186881 
 -186883  -186879  -186883  -186887  -186889  -186898  -186885  -186869 
 -186881  -186894  -186881  -186884  -186904  -186894  -186883  -186899 
 -186887  -186872  -186884  -186888  -186873  -186865  -186875  -186885 
 -186888  -186887  -186888  -186885  -186883  -186888  -186891  -186892 
 -186888  -186884  -186892  -186884  -186867  -186875  -186889  -186887 
 -186876  -186875  -186884  -186884  -186884  -186891  -186891  -186892 
 -186889  -186881  -186888  -186888  -186875  -186883  -186892  -186881 
 -186888  -186891  -186872  -186884  -186895  -186872  -186877  -186896 
 -186879  -186867  -186879  -186884  -186883  -186880  -186880  -186887 
 -186891  -186887  -186889  -186887  -186872  -186879  -186900  -186898 
 -186875  -186868  -186883  -186877  -186875  -186889  -186873  -186865 
 -186892  -186900  -186889  -186873  -186868  -186885  -186904  -186898 
 -186875  -186867  -186887  -186896  -186883  -186868  -186864  -186875 
 -186888  -186891  -186884  -186875  -186875  -186887  -186895  -186887 
 -186885  -186887  -186871  -186880  -186899  -186879  -186871  -186895 
 -186883  -186872  -186889  -186884  -186880  -186888  -186871  -186869 
 -186896  -186892  -186871  -186877  -186892  -186887  -186876  -186888 
 -186903  -186892  -186887  -186895  -186880  -186871  -186877  -186872 
 -186885  -186899  -186881  -186872  -186887  -186891  -186887  -186889 
 -186884  -186877  -186891  -186900  -186880  -186862  -186880  -186898 
 -186899  -186889  -186873  -186881  -186895  -186885  -186883  -186881 
 -186884  -186894  -186884  -186881  -186883  -186880  -186902  -186895 
 -186858  -186875  -186903  -186877  -186860  -186885  -186900  -186891 
 -186881  -186873  -186875  -186891  -186903  -186903  -186880  -186864 
 -186879  -186895  -186894  -186884  -186881  -186881  -186881  -186891 
 -186883  -186867  -186884  -186899  -186883  -186883  -186896  -186883 
 -186887  -186896  -186873  -186881  -186896  -186867  -186877  -186908 
 -186884  -186868  -186884  -186896  -186903  -186892  -186879  -186880 
 -186881  -186889  -186896  -186887  -186885  -186883  -186877  -186889 
 -186881  -186860  -186875  -186894  -186894  -186902  -186883  -186869 
 -186899  -186891  -186868  -186881  -186881  -186879  -186888  -186884 
 -186872  -186883  -186912  -186906  -186881  -186892  -186892  -186880 
 -186891  -186895  -186887  -186894  -186889  -186885  -186902  -186934 
 -186987  -186981  -186879  -186808  -186773  -186673  -186557  -186563 
 -186864  -187369  -187668  -187672  -187431  -186862  -186383  -186547 
 -186806  -186119  -185124  -185295  -186146  -186748  -187475  -188191 
 -188476  -188276  -187755  -187785  -187546  -186062  -185604  -186495 
 -186522  -186088  -186098  -186484  -187359  -187790  -187174  -186814 
 -187209  -187312  -187096  -187031  -187066  -187110  -186850  -187091 
 -187798  -187343  -186970  -186926  -185286  -184482  -185650  -186090 
 -186236  -186979  -187780  -188268  -187631  -187197  -187825  -187942 
 -187710  -187114  -186105  -186198  -186162  -185109  -185373  -186895 
 -187807  -187953  -187685  -187254  -187127  -187135  -186634  -186387 
 -187010  -187197  -186952  -187012  -186540  -186119  -186888  -187413 
 -186610  -186250  -187483  -187797  -186039  -185272  -186231  -186895 
 -187184  -187502  -187659  -187812  -187745  -187222  -186853  -187057 
 -186964  -185980  -185402  -186235  -187370  -187678  -187046  -186082 
 -186119  -187137  -187543  -187253  -187392  -187756  -187548  -186950 
 -186495  -186420  -186818  -187208  -186856  -186354  -186505  -186564 
 -186220  -186059  -186162  -186638  -187286  -187488  -187292  -187184 
 -187386  -187469  -187284  -187315  -187107  -186439  -186505  -186999 
 -186555  -186042  -186271  -186565  -187174  -187894  -187556  -186819 
 -186860  -187093  -186911  -186768  -186668  -186397  -186476  -186777 
 -186861  -186943  -186734  -186592  -187095  -187122  -187004  -187658 
 -187608  -187003  -187211  -187188  -186657  -186553  -186302  -185907 
 -186241  -186576  -186194  -185974  -186517  -187431  -188161  -188258 
 -187718  -187046  -186930  -187209  -186914  -186571  -186970  -186985 
 -186301  -186005  -186254  -186634  -186808  -186807  -187142  -187355 
 -186979  -186845  -187120  -187267  -187155  -186838  -186777  -186921 
 -186736  -186516  -186588  -186852  -187128  -187176  -187200  -187346 
 -187269  -187033  -186838  -186752  -186888  -186819  -186358  -186254 
 -186661  -186945  -186931  -186764  -186810  -187211  -187357  -187336 
 -187650  -187643  -186794  -186025  -186291  -186679  -186252  -186136 
 -186632  -186663  -186634  -186858  -186726  -186826  -187431  -187693 
 -187512  -187339  -187388  -187192  -186483  -186206  -186490  -186409 
 -186201  -186718  -187542  -187628  -187080  -186840  -187161  -187278 
 -186999  -187088  -187161  -186622  -186146  -186050  -186359  -186771 
 -186626  -186705  -187363  -187313  -186725  -186613  -186684  -186776 
 -187033  -187153  -187126  -187018  -186672  -186383  -186733  -187459 
 -187479  -186939  -187181  -187776  -187438  -187037  -187130  -186471 
 -185793  -186341  -186529  -185965  -186314  -187095  -187365  -187836 
 -188226  -187787  -187384  -187348  -186918  -186318  -185957  -185707 
 -185931  -186603  -186934  -186907  -186918  -186679  -186201  -186200 
 -186838  -187506  -187685  -187523  -187594  -187713  -187033  -186196 
 -186564  -187030  -186579  -186719  -187475  -187294  -186664  -186591 
 -186487  -186277  -186818  -187393  -187018  -186900  -187778  -188092 
 -187212  -186463  -186194  -185749  -185569  -186268  -187012  -187029 
 -186910  -187128  -187401  -187416  -186935  -186331  -186351  -186750 
 -187004  -187185  -187154  -186916  -186752  -186688  -187119  -187729 
 -187409  -186742  -186557  -186212  -185820  -186109  -186868  -187627 
 -187856  -187357  -187110  -187425  -187303  -186921  -186914  -186757 
 -186403  -186409  -186729  -186934  -186651  -186316  -186532  -186771 
 -186980  -187515  -187529  -186938  -186771  -187294  -187752  -187123 
 -186135  -186259  -186723  -186668  -186900  -187263  -186894  -186541 
 -187081  -187428  -186663  -186057  -186502  -187189  -187617  -187704 
 -187435  -187169  -186877  -186599  -186768  -186942  -186787  -186713 
 -186371  -186125  -186754  -186946  -186264  -186224  -186858  -187327 
 -187533  -187452  -187224  -187108  -187049  -186852  -186520  -186316 
 -186309  -186560  -187112  -187227  -186614  -186293  -186614  -187014 
 -187342  -187471  -187243  -186798  -186310  -186258  -186842  -187309 
 -187135  -186804  -186845  -186935  -186705  -186688  -187083  -187188 
 -186972  -186884  -186759  -186312  -186034  -186626  -187597  -187998 
 -187925  -187658  -187078  -186499  -186393  -186574  -186659  -186601 
 -186553  -186756  -186943  -186733  -186587  -186984  -187587  -187799 
 -187500  -186942  -186420  -186416  -186877  -187074  -187016  -187006 
 -186741  -186518  -186941  -187353  -187020  -186372  -186084  -186467 
 -187100  -187243  -187076  -186981  -186732  -186723  -187308  -187288 
 -186538  -186567  -186927  -186636  -186529  -186779  -186763  -186695 
 -186740  -186788  -187081  -187564  -187640  -187168  -186633  -186325 
 -186295  -186511  -186680  -186686  -186676  -186730  -187045  -187452 
 -187367  -186881  -186588  -186653  -186748  -186846  -187157  -187150 
 -186698  -186657  -186958  -187153  -187513  -187726  -187496  -187292 
 -187162  -186980  -186619  -186131  -186196  -186696  -186992  -187123 
 -187043  -186775  -186678  -186645  -186387  -186283  -186572  -186570 
 -186290  -186644  -187274  -187089  -186509  -186521  -186969  -187355 
 -187726  -188175  -188175  -187320  -186466  -186372  -186497  -186336 
 -185992  -185831  -186236  -186962  -187358  -187185  -186953  -186969 
 -186865  -186748  -186906  -187141  -187270  -187123  -186929  -186929 
 -186570  -186052  -186268  -186726  -186753  -186775  -187014  -187544 
 -188273  -188320  -187841  -187785  -187613  -186845  -186287  -186317 
 -186548  -186835  -187255  -187548  -187587  -187539  -187303  -186895 
 -186355  -185623  -185201  -185124  -184752  -184481  -184979  -185773 
 -186252  -186493  -186844  -187339  -187567  -187539  -187737  -187874 
 -187685  -187836  -188320  -188542  -188478  -188117  -187739  -187762 
 -187628  -187209  -187108  -186981  -186736  -186925  -187143  -187038 
 -187066  -187227  -186889  -186144  -185870  -185834  -185303  -185064 
 -185764  -186495  -186537  -186386  -186663  -186911  -186538  -186011 
 -185932  -186349  -186900  -187095  -187115  -187452  -187828  -187903 
 -187994  -188068  -187863  -187716  -187779  -187596  -187134  -187020 
 -187297  -187245  -186984  -187130  -187240  -186908  -186598  -186385 
 -186066  -185728  -185360  -185322  -185863  -186262  -186502  -187123 
 -187338  -186732  -186451  -187080  -187809  -187794  -187386  -187182 
 -186868  -186536  -186656  -186865  -186995  -187122  -186921  -186733 
 -187042  -187401  -187419  -187219  -187033  -187004  -187002  -186985 
 -187054  -187119  -187250  -187284  -186673  -185955  -186040  -186274 
 -185916  -185793  -186617  -187640  -187805  -187440  -187386  -187232 
 -186722  -186341  -186066  -186128  -186597  -186611  -186435  -186872 
 -187245  -187115  -187074  -187116  -186965  -186858  -186904  -186918 
 -186734  -186406  -186398  -186960  -187610  -187821  -187606  -187326 
 -187336  -187385  -187041  -186807  -186733  -186256  -186196  -186900 
 -187211  -187010  -186840  -186750  -186807  -186614  -186116  -186220 
 -186948  -187450  -187497  -187382  -187234  -186912  -186551  -186422 
 -186306  -186079  -186086  -186426  -186845  -187238  -187466  -187343 
 -187385  -187832  -187930  -187640  -187475  -187222  -186865  -186883 
 -187061  -186857  -186582  -186629  -186565  -186224  -185980  -185869 
 -185766  -185668  -185654  -185943  -186501  -187039  -187444  -187732 
 -187907  -187840  -187404  -186989  -186876  -186705  -186502  -186668 
 -186930  -186984  -187126  -187282  -187112  -186798  -186625  -186524 
 -186482  -186802  -187465  -187975  -188212  -188438  -188547  -188207 
 -187439  -186646  -186264  -186177  -185973  -185924  -186158  -186225 
 -186241  -186220  -186003  -186159  -186671  -186813  -186571  -186445 
 -186721  -186976  -186771  -186602  -186930  -187500  -187947  -188052 
 -187951  -188030  -188106  -187764  -187224  -186659  -186028  -185828 
 -186223  -186452  -186329  -186467  -186899  -187018  -186576  -186124 
 -186158  -186273  -186054  -185788  -185680  -185743  -186124  -186586 
 -186841  -187340  -188130  -188300  -187864  -187712  -187701  -187340 
 -187120  -187429  -187726  -187496  -186958  -186626  -186788  -187188 
 -187246  -186984  -186877  -186916  -186888  -186868  -186879  -186714 
 -186449  -186443  -186607  -186516  -186183  -186065  -186235  -186403 
 -186525  -186707  -186883  -186829  -186621  -186713  -187178  -187710 
 -188044  -188030  -187736  -187189  -186621  -186518  -186786  -187088 
 -187328  -187285  -187073  -187006  -186831  -186474  -186317  -186453 
 -186699  -186857  -186964  -187093  -186989  -186795  -186853  -186806 
 -186607  -186757  -187004  -186976  -186946  -186871  -186675  -186815 
 -187112  -186976  -186651  -186497  -186381  -186240  -186267  -186617 
 -186991  -187154  -187303  -187393  -187463  -187624  -187513  -187123 
 -186775  -186507  -186526  -186892  -187230  -187317  -187218  -187222 
 -187386  -187357  -187018  -186584  -186420  -186538  -186439  -186197 
 -186312  -186682  -186813  -186537  -186204  -186197  -186557  -186938 
 -187016  -186962  -186952  -186898  -186898  -187015  -187056  -187068 
 -187199  -187162  -186838  -186719  -186887  -186889  -186791  -186831 
 -186825  -186742  -186803  -186899  -186841  -186790  -186845  -186772 
 -186506  -186439  -186888  -187500  -187701  -187529  -187550  -187914 
 -188023  -187654  -187154  -186598  -186248  -186331  -186391  -186443 
 -186798  -187150  -187289  -187282  -187118  -186954  -187008  -187083 
 -186857  -186634  -186700  -186561  -186139  -186078  -186441  -186845 
 -187115  -187212  -187234  -187207  -186966  -186520  -186306  -186607 
 -186935  -186840  -186659  -186873  -187305  -187496  -187448  -187277 
 -186867  -186468  -186463  -186534  -186371  -186309  -186321  -186166 
 -186194  -186412  -186464  -186700  -187215  -187513  -187674  -187771 
 -187552  -187242  -187078  -187014  -187077  -187137  -187004  -186718 
 -186449  -186345  -186410  -186597  -186754  -186791  -186862  -186956 
 -187039  -187253  -187435  -187396  -187226  -186992  -186808  -186800 
 -186867  -186989  -187284  -187481  -187311  -187050  -186921  -186796 
 -186552  -186270  -186175  -186271  -186433  -186671  -186968  -187186 
 -187093  -186831  -186898  -187128  -187020  -186794  -186790  -186854 
 -186912  -187022  -187057  -186984  -186926  -186887  -186742  -186547 
 -186579  -186772  -186786  -186795  -187034  -187227  -187301  -187365 
 -187204  -186833  -186563  -186480  -186529  -186551  -186425  -186331 
 -186362  -186497  -186690  -186802  -186942  -187143  -187208  -187218 
 -187277  -187257  -187103  -186999  -187060  -187143  -187188  -187172 
 -187018  -186876  -186871  -186827  -186692  -186664  -186781  -186931 
 -187083  -187231  -187317  -187242  -187061  -187015  -187104  -187031 
 -186746  -186578  -186653  -186696  -186579  -186498  -186528  -186484 
 -186383  -186345  -186321  -186408  -186695  -186981  -187118  -187114 
 -187050  -187057  -187029  -186781  -186557  -186661  -186829  -186773 
 -186788  -187026  -187188  -187262  -187405  -187519  -187577  -187593 
 -187525  -187434  -187334  -187195  -186945  -186632  -186514  -186475 
 -186232  -186040  -186185  -186443  -186592  -186788  -187058  -187070 
 -186840  -186773  -186848  -186819  -186779  -186826  -186965  -187199 
 -187396  -187462  -187467  -187392  -187165  -186914  -186713  -186499 
 -186366  -186390  -186471  -186540  -186632  -186738  -186791  -186752 
