Origin Time       2025/03/28 03:50:00
Lat.              35.403
Long.             140.360
Depth. (km)       54
Mag.              4.4
Station Code      CHBH11
Station Lat.      35.2867
Station Long.     140.1529
Station Height(m) -1920
Record Time       2025/03/28 03:50:48
Sampling Freq(Hz) 100Hz
Duration Time(s)  120
Dir.              2
Scale Factor      2942(gal)/8224139
Max. Acc. (gal)   0.978
Last Correction   2025/03/28 03:50:48
Memo.             
[...]
   38570    38569    38569    38570    38570    38569    38569    38569 
   38569    38569    38569    38568    38569    38573    38573    38569 
   38569    38573    38574    38572    38572    38572    38570    38569 
   38570    38572    38570    38568    38569    38572    38572    38570 
   38572    38573    38573    38574    38570    38568    38569    38569 
   38570    38572    38572    38572    38572    38572    38572    38573 
   38570    38569    38570    38570    38572    38573    38570    38569 
   38570    38569    38570    38574    38573    38570    38569    38570 
   38572    38570    38569    38568    38569    38572    38573    38570 
   38570    38569    38569    38570    38569    38569    38573    38573 
   38570    38568    38569    38569    38570    38572    38570    38569 
   38570    38570    38572    38572    38570    38570    38570    38569 
   38569    38570    38572    38569    38569    38570    38569    38570 
   38572    38570    38570    38572    38569    38568    38570    38569 
   38569    38572    38570    38566    38568    38570    38570    38570 
   38570    38569    38569    38570    38570    38570    38572    38569 
   38569    38569    38569    38568    38568    38569    38572    38572 
   38570    38569    38569    38570    38570    38569    38570    38570 
   38570    38570    38570    38573    38574    38570    38569    38569 
   38570    38570    38570    38570    38570    38570    38570    38569 
   38569    38570    38569    38569    38572    38572    38569    38569 
   38570    38569    38569    38570    38570    38572    38570    38570 
   38569    38569    38570    38572    38570    38569    38569    38570 
   38570    38569    38569    38569    38570    38570    38570    38572 
   38572    38572    38573    38572    38569    38570    38569    38568 
   38570    38570    38570    38573    38570    38570    38573    38569 
   38569    38573    38574    38573    38573    38573    38572    38570 
   38572    38570    38570    38570    38572    38572    38572    38572 
   38572    38570    38570    38572    38570    38572    38574    38570 
   38568    38572    38573    38572    38572    38570    38572    38573 
   38572    38570    38570    38572    38573    38572    38569    38570 
   38570    38570    38570    38570    38570    38569    38569    38570 
   38570    38570    38572    38569    38569    38573    38574    38573 
   38573    38573    38570    38570    38570    38570    38570    38572 
   38572    38570    38572    38572    38569    38570    38570    38568 
   38569    38572    38570    38570    38570    38570    38569    38570 
   38572    38572    38572    38572    38569    38570    38572    38570 
   38569    38570    38570    38572    38570    38569    38572    38572 
   38569    38570    38572    38570    38572    38573    38570    38569 
   38570    38569    38569    38570    38569    38569    38570    38570 
   38568    38568    38570    38572    38570    38570    38570    38569 
   38570    38570    38569    38570    38572    38572    38570    38569 
   38569    38569    38570    38568    38569    38570    38570    38572 
   38570    38568    38570    38572    38569    38570    38570    38566 
   38569    38573    38570    38570    38572    38570    38570    38573 
   38569    38566    38570    38572    38572    38572    38570    38569 
   38569    38572    38572    38570    38572    38572    38568    38569 
   38573    38572    38570    38570    38572    38570    38570    38572 
   38572    38573    38573    38572    38573    38570    38569    38569 
   38569    38570    38573    38572    38569    38572    38573    38572 
   38572    38570    38569    38572    38573    38573    38572    38570 
   38569    38572    38574    38570    38569    38573    38572    38570 
   38572    38570    38569    38570    38572    38573    38572    38572 
   38572    38570    38570    38573    38572    38570    38572    38572 
   38570    38572    38573    38570    38569    38572    38572    38570 
   38570    38570    38572    38572    38572    38572    38570    38568 
   38569    38569    38570    38572    38570    38569    38573    38572 
   38570    38572    38573    38570    38570    38573    38570    38570 
   38572    38572    38570    38572    38570    38570    38572    38572 
   38572    38572    38570    38570    38570    38572    38572    38570 
   38570    38572    38570    38570    38572    38572    38572    38572 
   38570    38569    38570    38572    38570    38569    38570    38572 
   38572    38570    38569    38572    38573    38569    38570    38572 
   38572    38570    38569    38570    38573    38572    38569    38570 
   38572    38569    38570    38572    38570    38570    38572    38569 
   38568    38572    38570    38568    38569    38569    38568    38570 
   38569    38569    38572    38572    38569    38569    38568    38568 
   38569    38569    38569    38572    38570    38569    38569    38570 
   38569    38568    38568    38569    38570    38572    38570    38569 
   38569    38569    38568    38568    38569    38569    38572    38574 
   38578    38583    38584    38583    38580    38576    38572    38562 
   38557    38550    38539    38533    38530    38522    38523    38530 
   38541    38560    38584    38615    38645    38643    38631    38616 
   38562    38511    38519    38510    38418    38387    38511    38601 
   38551    38524    38661    38834    38767    38607    38650    38654 
   38503    38429    38437    38503    38605    38588    38538    38641 
   38769    38715    38626    38688    38716    38619    38522    38408 
   38334    38392    38531    38612    38523    38479    38593    38651 
   38634    38570    38533    38643    38696    38538    38439    38543 
   38588    38506    38514    38534    38438    38368    38414    38487 
   38491    38515    38641    38759    38780    38743    38693    38580 
   38485    38546    38577    38460    38414    38415    38395    38565 
   38735    38668    38703    38843    38782    38634    38500    38416 
   38533    38674    38622    38547    38587    38588    38522    38497 
   38480    38457    38556    38720    38813    38774    38616    38554 
   38616    38572    38446    38373    38414    38568    38628    38503 
   38462    38699    38944    38880    38705    38738    38773    38619 
   38508    38512    38504    38449    38337    38256    38259    38323 
   38464    38522    38458    38497    38587    38627    38665    38611 
   38560    38642    38682    38583    38461    38488    38580    38507 
   38449    38534    38607    38646    38535    38392    38541    38736 
   38781    38877    38931    38821    38655    38503    38507    38564 
   38410    38292    38431    38553    38593    38666    38611    38527 
   38607    38534    38330    38354    38425    38433    38668    38970 
   38904    38673    38718    38758    38497    38361    38470    38495 
   38553    38632    38472    38412    38630    38662    38543    38524 
   38457    38448    38645    38765    38665    38577    38643    38616 
   38460    38503    38655    38588    38411    38416    38541    38622 
   38691    38662    38518    38512    38585    38434    38327    38578 
   38790    38720    38686    38778    38722    38454    38365    38502 
   38368    38125    38281    38573    38647    38626    38699    38746 
   38616    38527    38541    38500    38483    38475    38441    38581 
   38815    38840    38789    38913    38966    38697    38429    38483 
   38558    38384    38296    38479    38570    38472    38546    38801 
   38847    38777    38816    38736    38620    38662    38561    38310 
   38232    38348    38491    38438    38314    38470    38650    38561 
   38499    38653    38821    38809    38722    38685    38695    38739 
   38580    38164    37889    38059    38502    38612    38479    38715 
   38971    38850    38740    38743    38614    38395    38280    38206 
   38156    38437    38920    39050    38863    38761    38649    38369 
   38238    38302    38210    38167    38434    38607    38537    38523 
   38612    38653    38651    38884    39297    39324    39051    38954 
   38811    38524    38377    38284    38141    38103    38267    38524 
   38560    38429    38580    38847    38867    38831    38828    38893 
   39114    39078    38666    38318    37989    37605    37527    37759 
   37971    38164    38502    38789    38916    39127    39329    39353 
   39345    39123    38546    38071    38094    38539    38835    38545 
   38203    38337    38556    38480    38250    38182    38368    38534 
   38626    38766    38665    38389    38511    38713    38507    38404 
   38619    38703    38704    38709    38496    38269    38168    38101 
   38298    38713    39044    39154    38967    38794    38730    38514 
   38394    38468    38569    38780    38898    38705    38356    38018 
   37951    38369    38935    39094    38808    38518    38522    38658 
   38691    38703    38778    38785    38715    38612    38361    38064 
   38020    38315    38784    39017    38789    38394    38249    38414 
   38647    38665    38383    38268    38574    38728    38618    38612 
   38515    38275    38175    38218    38391    38661    38820    38770 
   38542    38394    38719    39235    39399    39366    39210    38726 
   38195    37953    37899    37937    38071    38182    38237    38373 
   38605    38786    38897    39000    38988    38870    38848    38886 
   38877    38809    38592    38414    38492    38452    38171    38119 
   38375    38607    38742    38920    39032    38882    38596    38307 
   38075    38164    38584    38770    38659    38830    39050    38832 
   38511    38356    38333    38345    38267    38284    38376    38276 
   38156    38250    38524    38835    38986    38874    38627    38558 
   38697    38797    38800    38641    38376    38375    38651    38801 
   38596    38194    37976    38102    38379    38735    39079    39077 
   38835    38678    38465    38179    38124    38360    38745    39055 
   39109    38919    38549    38292    38425    38596    38541    38434 
   38250    38128    38252    38338    38342    38499    38807    39168 
   39298    39182    39236    39333    39236    39182    39112    38970 
   38925    38813    38485    38032    37606    37388    37428    37655 
   37863    37947    38128    38489    38920    39357    39656    39765 
   39676    39274    38826    38639    38492    38295    38348    38803 
   39487    40082    40412    40396    39988    39401    38750    37828 
   36760    36107    36221    36813    37288    37659    38202    38622 
   38655    38589    38651    38762    38880    38928    38745    38362 
   37957    37623    37380    37343    37724    38281    38488    38358 
   38196    38022    37725    37407    37377    37523    37419    37301 
   37701    38484    39262    39888    40196    40112    39812    39453 
   39375    39873    40616    40938    40470    39796    39718    39719 
   39190    38681    38595    38630    38441    38006    37739    37785 
   37631    37247    37326    37901    38326    38298    37897    37571 
   37771    38198    38504    38863    39171    39285    39556    39970 
   39965    39494    39037    38828    38705    38302    37585    37079 
   37147    37743    38533    39047    39073    38650    37990    37408 
   37066    37021    37330    37999    38981    39968    40400    40080 
   39499    39156    39117    39295    39386    39206    39113    39125 
   38789    38340    38383    38732    38921    39051    39102    38763 
   38279    38018    37862    37694    37596    37597    37575    37501 
   37585    37763    37812    37951    38254    38435    38503    38475 
   38381    38458    38511    38315    38175    38302    38676    39008 
   38828    38184    37604    37509    37864    38176    38230    38350 
   38623    38773    38746    38745    38859    38961    38919    38685 
   38294    38087    38392    39006    39579    39966    40063    39888 
   39685    39658    39825    40080    40263    40270    39988    39410 
   38890    38574    38133    37543    37169    37224    37636    38121 
   38434    38600    38831    39098    39066    38777    38551    38319 
   38034    37790    37426    37050    37045    37434    38025    38476 
   38646    38955    39325    39272    39066    38986    38840    38596 
   38327    38237    38512    38965    39459    39939    39976    39297 
   38227    37246    36678    36622    36971    37528    38128    38763 
   39432    40042    40478    40466    39900    39074    38145    37133 
   36429    36678    37955    39386    40158    40261    39954    39455 
   38902    38337    37837    37439    37214    37332    37677    37945 
   38036    38045    38229    38747    39418    39997    40346    40385 
   40069    39374    38597    38223    38317    38534    38489    38088 
   37712    37670    37860    38037    37963    37746    37743    37922 
   38152    38441    38566    38400    38191    38176    38388    38607 
   38641    38593    38514    38337    38173    38109    38161    38481 
   39067    39515    39569    39382    39020    38551    38273    38354 
   38647    38947    39198    39434    39610    39595    39422    39351 
   39556    39823    39761    39301    38767    38457    38412    38514 
   38576    38497    38360    38241    38122    37997    37802    37554 
   37430    37345    37164    37177    37538    37914    38083    38151 
   38191    38115    37990    38017    38221    38585    39262    40246 
   41092    41303    40802    39857    38792    37858    37237    36987 
   37089    37505    38083    38580    38932    39299    39654    39749 
   39590    39243    38620    37918    37386    37014    36883    37092 
   37593    38395    39410    40254    40536    40369    40163    39862 
   39345    38839    38326    37789    37484    37411    37509    37824 
   38090    38094    38016    38017    38169    38530    38882    38936 
   38867    38985    39132    39027    38699    38198    37602    37264 
   37366    37746    38237    38757    39233    39534    39591    39609 
   39699    39660    39275    38649    38222    38129    38168    38354 
   38583    38596    38556    38628    38616    38362    37971    37764 
   37909    38237    38618    38988    39280    39575    39803    39688 
   39182    38493    37864    37450    37343    37534    37727    37728 
   37728    37835    38009    38326    38769    39253    39741    40073 
   40131    39919    39367    38572    37928    37662    37817    38330 
   38915    39357    39668    39791    39695    39399    38880    38308 
   37876    37531    37351    37513    37925    38377    38778    39118 
   39357    39398    39205    38890    38600    38391    38175    37893 
   37740    37791    37747    37517    37381    37378    37404    37569 
   37902    38246    38483    38622    38742    38867    38920    38867 
   38853    38990    39128    39019    38685    38389    38286    38319 
   38384    38438    38607    39009    39440    39630    39582    39244 
   38516    37798    37586    37748    37952    38136    38381    38812 
   39398    39872    39988    39699    39187    38761    38601    38711 
   38971    39168    39195    39148    39075    38913    38630    38323 
   38183    38195    38132    37867    37471    37180    37169    37408 
   37849    38348    38686    38885    39013    39046    38994    38823 
   38527    38261    38132    38113    38213    38526    38997    39351 
   39374    39172    39054    39050    38993    38939    38909    38792 
   38664    38592    38452    38202    37970    37822    37671    37494 
   37486    37775    38294    38878    39307    39501    39576    39549 
   39374    39079    38646    38144    37755    37593    37698    37941 
   38092    38149    38232    38330    38333    38265    38295    38426 
   38515    38507    38381    38240    38156    38083    38172    38458 
   38672    38801    38938    39010    39087    39268    39445    39444 
   39181    38776    38387    38048    37804    37744    37849    37987 
   38086    38240    38438    38497    38414    38380    38520    38826 
   39208    39549    39679    39557    39418    39397    39411    39476 
   39599    39685    39748    39814    39812    39699    39436    39024 
   38649    38493    38484    38524    38654    38807    38819    38634 
   38310    37948    37592    37258    37003    36887    37003    37342 
   37758    38242    38770    39066    39016    38915    38955    39006 
   38962    38827    38581    38287    38060    37941    38014    38273 
   38446    38345    38121    37936    37832    37847    37972    38126 
   38253    38342    38473    38831    39345    39679    39730    39596 
   39235    38681    38186    37943    37974    38140    38280    38408 
   38578    38765    38977    39221    39394    39393    39247    39044 
   38817    38614    38488    38433    38372    38210    37949    37708 
   37608    37697    37849    37902    37867    37840    37935    38205 
   38484    38647    38807    39062    39380    39644    39714    39603 
   39448    39264    39029    38915    39009    39164    39224    39150 
   39043    38978    38892    38754    38604    38458    38375    38406 
   38457    38399    38230    38059    37941    37800    37601    37482 
   37525    37671    37831    37964    38074    38196    38408    38662 
   38817    38871    38848    38731    38634    38649    38763    38983 
   39193    39241    39237    39324    39409    39415    39357    39222 
   39050    38915    38800    38678    38570    38503    38503    38499 
   38379    38217    38124    38080    38041    37959    37822    37697 
   37636    37647    37704    37786    37870    37947    38068    38259 
   38506    38766    38940    39031    39182    39406    39598    39742 
   39839    39806    39595    39285    38979    38719    38511    38376 
   38292    38254    38302    38429    38611    38800    38866    38718 
   38437    38161    37974    37897    37947    38122    38327    38475 
   38591    38719    38855    38970    39037    39071    39110    39082 
   38853    38489    38168    37903    37648    37434    37358    37481 
   37694    37859    37966    38065    38195    38334    38484    38669 
   38812    38844    38817    38790    38774    38805    38907    38982 
   38955    38890    38842    38758    38680    38740    38889    38935 
   38834    38681    38584    38572    38615    38704    38816    38948 
   39097    39168    39108    38982    38848    38749    38770    38923 
   39062    39047    38885    38634    38331    38061    37839    37597 
   37432    37420    37438    37454    37570    37870    38368    38927 
   39361    39607    39657    39545    39387    39237    39052    38809 
   38526    38273    38156    38164    38183    38173    38182    38261 
   38384    38439    38426    38422    38404    38354    38281    38157 
   38040    38043    38180    38399    38632    38830    38977    39040 
   39015    38992    39024    39028    38966    38938    39016    39116 
   39113    39002    38857    38732    38634    38554    38484    38458 
   38491    38476    38365    38245    38155    38056    37945    37887 
   37976    38186    38391    38534    38623    38624    38527    38407 
   38354    38433    38626    38830    38966    39024    38963    38794 
   38630    38553    38568    38691    38870    38994    39039    39071 
