Origin Time       2025/03/28 03:50:00
Lat.              35.403
Long.             140.360
Depth. (km)       54
Mag.              4.4
Station Code      CHBH16
Station Lat.      35.1384
Station Long.     139.9649
Station Height(m) -1842.75
Record Time       2025/03/28 03:50:50
Sampling Freq(Hz) 100Hz
Duration Time(s)  120
Dir.              1
Scale Factor      7845(gal)/8223790
Max. Acc. (gal)   0.393
Last Correction   2025/03/28 03:50:50
Memo.             
[...]
  -50758   -50764   -50764   -50760   -50760   -50761   -50761   -50758 
  -50760   -50762   -50762   -50760   -50762   -50761   -50760   -50761 
  -50760   -50761   -50764   -50764   -50762   -50761   -50760   -50761 
  -50761   -50760   -50760   -50761   -50764   -50762   -50761   -50761 
  -50760   -50760   -50761   -50761   -50762   -50762   -50761   -50760 
  -50761   -50761   -50760   -50761   -50764   -50760   -50758   -50761 
  -50764   -50762   -50760   -50760   -50761   -50761   -50761   -50760 
  -50761   -50762   -50761   -50762   -50762   -50760   -50761   -50764 
  -50764   -50760   -50757   -50760   -50762   -50762   -50761   -50760 
  -50760   -50760   -50761   -50760   -50761   -50762   -50761   -50760 
  -50761   -50760   -50760   -50760   -50758   -50758   -50762   -50764 
  -50761   -50761   -50762   -50762   -50764   -50762   -50761   -50761 
  -50760   -50761   -50764   -50761   -50758   -50758   -50760   -50761 
  -50760   -50761   -50764   -50762   -50760   -50762   -50764   -50761 
  -50760   -50760   -50760   -50761   -50760   -50760   -50762   -50761 
  -50760   -50760   -50760   -50762   -50762   -50760   -50762   -50764 
  -50760   -50758   -50760   -50761   -50761   -50761   -50762   -50764 
  -50764   -50761   -50758   -50758   -50758   -50761   -50764   -50762 
  -50761   -50762   -50762   -50762   -50760   -50758   -50761   -50764 
  -50762   -50760   -50761   -50762   -50760   -50761   -50762   -50761 
  -50761   -50764   -50761   -50755   -50757   -50760   -50760   -50760 
  -50761   -50761   -50761   -50760   -50760   -50762   -50762   -50761 
  -50762   -50762   -50761   -50761   -50762   -50762   -50764   -50762 
  -50760   -50760   -50762   -50761   -50758   -50760   -50761   -50760 
  -50761   -50762   -50760   -50761   -50764   -50764   -50762   -50762 
  -50762   -50760   -50760   -50761   -50761   -50762   -50761   -50760 
  -50762   -50761   -50757   -50760   -50761   -50761   -50764   -50765 
  -50761   -50758   -50762   -50762   -50760   -50758   -50760   -50761 
  -50761   -50761   -50761   -50761   -50758   -50760   -50762   -50762 
  -50760   -50760   -50762   -50761   -50760   -50760   -50758   -50760 
  -50762   -50761   -50761   -50765   -50765   -50761   -50760   -50761 
  -50760   -50758   -50761   -50761   -50760   -50760   -50761   -50761 
  -50760   -50758   -50760   -50761   -50761   -50762   -50762   -50760 
  -50760   -50760   -50760   -50762   -50764   -50760   -50758   -50761 
  -50762   -50761   -50762   -50764   -50761   -50761   -50761   -50760 
  -50760   -50760   -50762   -50764   -50761   -50760   -50762   -50762 
  -50758   -50757   -50761   -50762   -50760   -50761   -50762   -50761 
  -50762   -50762   -50762   -50762   -50761   -50760   -50761   -50761 
  -50761   -50760   -50760   -50762   -50762   -50762   -50760   -50760 
  -50761   -50762   -50762   -50761   -50760   -50761   -50762   -50761 
  -50761   -50760   -50760   -50761   -50762   -50762   -50764   -50760 
  -50757   -50761   -50764   -50761   -50761   -50761   -50761   -50762 
  -50762   -50762   -50762   -50760   -50760   -50762   -50761   -50760 
  -50761   -50761   -50760   -50761   -50762   -50762   -50761   -50761 
  -50761   -50761   -50762   -50764   -50761   -50761   -50762   -50762 
  -50762   -50762   -50761   -50762   -50762   -50764   -50764   -50761 
  -50761   -50764   -50764   -50762   -50764   -50764   -50760   -50760 
  -50762   -50760   -50760   -50764   -50762   -50761   -50762   -50762 
  -50760   -50762   -50762   -50761   -50761   -50761   -50761   -50761 
  -50761   -50761   -50761   -50762   -50762   -50760   -50760   -50762 
  -50761   -50760   -50761   -50761   -50760   -50761   -50764   -50761 
  -50757   -50760   -50762   -50762   -50761   -50761   -50761   -50762 
  -50762   -50762   -50762   -50761   -50761   -50761   -50760   -50761 
  -50762   -50761   -50761   -50761   -50764   -50762   -50760   -50761 
  -50761   -50760   -50761   -50761   -50758   -50758   -50761   -50760 
  -50758   -50762   -50764   -50762   -50762   -50762   -50758   -50760 
  -50765   -50764   -50760   -50761   -50762   -50762   -50761   -50761 
  -50761   -50761   -50762   -50764   -50764   -50762   -50762   -50761 
  -50761   -50761   -50761   -50761   -50761   -50761   -50760   -50760 
  -50760   -50760   -50760   -50762   -50764   -50761   -50760   -50761 
  -50760   -50760   -50761   -50762   -50762   -50764   -50762   -50761 
  -50762   -50762   -50760   -50758   -50762   -50762   -50761   -50762 
  -50762   -50760   -50760   -50762   -50762   -50761   -50761   -50760 
  -50761   -50761   -50762   -50764   -50765   -50764   -50761   -50760 
  -50760   -50760   -50760   -50761   -50761   -50760   -50761   -50764 
  -50761   -50762   -50762   -50761   -50761   -50761   -50758   -50757 
  -50760   -50760   -50758   -50760   -50761   -50762   -50761   -50758 
  -50761   -50764   -50762   -50761   -50761   -50761   -50761   -50761 
  -50760   -50761   -50760   -50760   -50761   -50761   -50761   -50761 
  -50758   -50758   -50761   -50758   -50760   -50762   -50761   -50760 
  -50761   -50761   -50761   -50762   -50761   -50760   -50761   -50761 
  -50761   -50761   -50761   -50762   -50761   -50761   -50761   -50758 
  -50761   -50761   -50761   -50761   -50762   -50761   -50761   -50761 
  -50761   -50761   -50760   -50758   -50760   -50761   -50761   -50762 
  -50761   -50761   -50764   -50762   -50760   -50758   -50760   -50762 
  -50764   -50760   -50760   -50764   -50764   -50760   -50758   -50760 
  -50760   -50761   -50760   -50762   -50762   -50761   -50760   -50762 
  -50762   -50762   -50762   -50761   -50761   -50760   -50760   -50762 
  -50762   -50764   -50762   -50760   -50760   -50761   -50762   -50762 
  -50760   -50760   -50761   -50762   -50761   -50758   -50757   -50760 
  -50760   -50760   -50757   -50754   -50753   -50754   -50754   -50750 
  -50746   -50747   -50746   -50743   -50742   -50743   -50749   -50754 
  -50760   -50766   -50776   -50780   -50785   -50792   -50795   -50793 
  -50791   -50782   -50774   -50769   -50769   -50773   -50774   -50777 
  -50778   -50773   -50766   -50766   -50762   -50750   -50741   -50735 
  -50730   -50726   -50720   -50720   -50731   -50753   -50769   -50768 
  -50762   -50770   -50788   -50801   -50801   -50799   -50791   -50768 
  -50758   -50784   -50799   -50768   -50734   -50750   -50787   -50785 
  -50738   -50687   -50676   -50706   -50730   -50724   -50718   -50735 
  -50766   -50787   -50792   -50793   -50803   -50823   -50836   -50822 
  -50796   -50787   -50789   -50795   -50804   -50797   -50761   -50728 
  -50719   -50724   -50719   -50691   -50673   -50689   -50716   -50731 
  -50750   -50766   -50765   -50784   -50820   -50826   -50824   -50826 
  -50788   -50751   -50769   -50777   -50733   -50703   -50719   -50726 
  -50715   -50720   -50722   -50719   -50749   -50787   -50792   -50772 
  -50766   -50791   -50799   -50774   -50755   -50742   -50711   -50693 
  -50712   -50738   -50760   -50789   -50818   -50820   -50803   -50797 
  -50803   -50776   -50722   -50700   -50726   -50742   -50724   -50731 
  -50777   -50781   -50739   -50742   -50778   -50773   -50747   -50754 
  -50780   -50792   -50776   -50735   -50711   -50712   -50704   -50711 
  -50757   -50788   -50799   -50820   -50834   -50828   -50801   -50754 
  -50726   -50749   -50792   -50809   -50784   -50750   -50746   -50750 
  -50739   -50739   -50769   -50811   -50828   -50811   -50793   -50793 
  -50781   -50738   -50703   -50703   -50703   -50696   -50711   -50742 
  -50769   -50792   -50814   -50823   -50818   -50799   -50782   -50784 
  -50795   -50791   -50765   -50724   -50688   -50677   -50695   -50714 
  -50733   -50776   -50803   -50785   -50777   -50782   -50749   -50693 
  -50684   -50715   -50739   -50749   -50768   -50792   -50788   -50773 
  -50774   -50781   -50797   -50815   -50799   -50755   -50728   -50719 
  -50706   -50720   -50781   -50831   -50831   -50824   -50827   -50807 
  -50784   -50773   -50750   -50726   -50708   -50683   -50664   -50688 
  -50743   -50772   -50754   -50746   -50769   -50805   -50831   -50836 
  -50839   -50834   -50812   -50791   -50764   -50738   -50719   -50700 
  -50693   -50704   -50719   -50727   -50726   -50737   -50765   -50777 
  -50766   -50750   -50742   -50754   -50765   -50743   -50716   -50728 
  -50747   -50731   -50707   -50708   -50730   -50751   -50760   -50753 
  -50745   -50751   -50768   -50768   -50757   -50769   -50789   -50791 
  -50792   -50814   -50845   -50863   -50862   -50853   -50845   -50836 
  -50826   -50807   -50781   -50764   -50760   -50750   -50741   -50751 
  -50773   -50778   -50745   -50700   -50701   -50741   -50766   -50762 
  -50741   -50714   -50714   -50746   -50768   -50768   -50761   -50753 
  -50749   -50754   -50753   -50735   -50716   -50700   -50691   -50703 
  -50742   -50758   -50735   -50735   -50770   -50782   -50758   -50739 
  -50750   -50773   -50776   -50757   -50749   -50751   -50754   -50753 
  -50750   -50745   -50743   -50746   -50755   -50784   -50820   -50834 
  -50820   -50793   -50762   -50757   -50781   -50795   -50785   -50765 
  -50754   -50770   -50808   -50839   -50830   -50782   -50723   -50697 
  -50737   -50778   -50776   -50782   -50812   -50811   -50781   -50772 
  -50782   -50793   -50795   -50784   -50777   -50762   -50723   -50684 
  -50679   -50683   -50672   -50677   -50704   -50710   -50712   -50739 
  -50758   -50772   -50784   -50774   -50751   -50735   -50731   -50737 
  -50735   -50723   -50720   -50731   -50730   -50733   -50761   -50762 
  -50738   -50768   -50832   -50862   -50842   -50789   -50730   -50712 
  -50755   -50808   -50826   -50819   -50816   -50824   -50830   -50827 
  -50820   -50816   -50815   -50799   -50764   -50747   -50755   -50731 
  -50670   -50650   -50681   -50718   -50735   -50719   -50707   -50745 
  -50793   -50801   -50784   -50755   -50724   -50712   -50724   -50743 
  -50750   -50746   -50738   -50735   -50757   -50776   -50760   -50737 
  -50739   -50757   -50770   -50778   -50780   -50754   -50730   -50754 
  -50792   -50784   -50761   -50770   -50804   -50830   -50830   -50818 
  -50818   -50807   -50787   -50799   -50818   -50797   -50766   -50762 
  -50765   -50742   -50714   -50716   -50737   -50753   -50750   -50724 
  -50715   -50727   -50723   -50727   -50773   -50815   -50814   -50796 
  -50795   -50797   -50780   -50760   -50755   -50757   -50762   -50765 
  -50758   -50757   -50747   -50711   -50669   -50647   -50647   -50676 
  -50701   -50696   -50696   -50724   -50749   -50768   -50789   -50789 
  -50766   -50753   -50757   -50765   -50793   -50836   -50862   -50872 
  -50865   -50841   -50831   -50843   -50836   -50797   -50750   -50724 
  -50733   -50760   -50782   -50774   -50746   -50737   -50764   -50814 
  -50843   -50820   -50772   -50754   -50770   -50778   -50766   -50734 
  -50696   -50699   -50719   -50712   -50701   -50710   -50735   -50770 
  -50796   -50800   -50776   -50724   -50688   -50681   -50679   -50684 
  -50710   -50738   -50758   -50768   -50772   -50785   -50808   -50827 
  -50849   -50855   -50809   -50728   -50687   -50696   -50708   -50734 
  -50792   -50828   -50805   -50765   -50734   -50706   -50680   -50673 
  -50696   -50737   -50773   -50785   -50784   -50807   -50830   -50827 
  -50835   -50861   -50858   -50803   -50727   -50697   -50722   -50739 
  -50733   -50742   -50772   -50784   -50770   -50751   -50719   -50699 
  -50720   -50746   -50745   -50738   -50746   -50773   -50800   -50819 
  -50828   -50804   -50770   -50778   -50793   -50777   -50764   -50751 
  -50731   -50718   -50716   -50712   -50703   -50696   -50681   -50669 
  -50680   -50704   -50728   -50761   -50780   -50773   -50769   -50784 
  -50805   -50818   -50820   -50808   -50769   -50743   -50769   -50800 
  -50811   -50830   -50847   -50838   -50816   -50777   -50737   -50735 
  -50746   -50749   -50768   -50791   -50795   -50781   -50766   -50765 
  -50777   -50789   -50780   -50749   -50724   -50719   -50722   -50724 
  -50719   -50701   -50695   -50699   -50706   -50741   -50787   -50788 
  -50770   -50791   -50823   -50836   -50836   -50823   -50795   -50774 
  -50792   -50824   -50815   -50755   -50715   -50701   -50696   -50716 
  -50741   -50741   -50734   -50733   -50745   -50769   -50784   -50780 
  -50760   -50728   -50727   -50761   -50762   -50718   -50697   -50722 
  -50761   -50803   -50843   -50850   -50812   -50773   -50745   -50716 
  -50701   -50712   -50749   -50780   -50773   -50754   -50765   -50789 
  -50789   -50769   -50764   -50769   -50753   -50737   -50751   -50766 
  -50761   -50747   -50726   -50700   -50693   -50712   -50737   -50745 
  -50741   -50750   -50778   -50812   -50836   -50847   -50841   -50815 
  -50782   -50769   -50777   -50793   -50803   -50791   -50776   -50770 
  -50768   -50765   -50747   -50719   -50715   -50745   -50784   -50800 
  -50787   -50753   -50719   -50700   -50677   -50634   -50602   -50598 
  -50603   -50602   -50602   -50604   -50603   -50615   -50642   -50658 
  -50656   -50657   -50683   -50724   -50757   -50773   -50773   -50778 
  -50820   -50866   -50872   -50851   -50828   -50793   -50765   -50766 
  -50780   -50799   -50804   -50782   -50769   -50787   -50801   -50800 
  -50796   -50787   -50772   -50774   -50785   -50787   -50778   -50764 
  -50730   -50701   -50719   -50787   -50881   -50951   -50982   -51005 
  -51013   -50969   -50896   -50862   -50900   -50982   -51067   -51135 
  -51173   -51167   -51128   -51065   -50976   -50876   -50797   -50757 
  -50741   -50730   -50714   -50699   -50681   -50647   -50603   -50589 
  -50625   -50666   -50679   -50687   -50704   -50707   -50684   -50653 
  -50623   -50615   -50631   -50652   -50666   -50676   -50684   -50688 
  -50691   -50683   -50633   -50537   -50440   -50372   -50355   -50407 
  -50508   -50614   -50707   -50800   -50908   -50997   -51044   -51046 
  -51000   -50926   -50843   -50757   -50668   -50595   -50529   -50465 
  -50448   -50496   -50587   -50695   -50784   -50835   -50868   -50895 
  -50917   -50926   -50923   -50917   -50889   -50835   -50765   -50689 
  -50647   -50673   -50722   -50750   -50777   -50815   -50835   -50832 
  -50843   -50878   -50872   -50796   -50699   -50611   -50550   -50535 
  -50561   -50637   -50761   -50869   -50931   -50966   -50974   -50959 
  -50961   -50973   -50966   -50949   -50920   -50859   -50792   -50745 
  -50714   -50695   -50700   -50710   -50704   -50704   -50718   -50727 
  -50730   -50718   -50704   -50720   -50738   -50720   -50689   -50680 
  -50691   -50699   -50689   -50670   -50658   -50685   -50749   -50797 
  -50815   -50822   -50823   -50814   -50799   -50796   -50803   -50793 
  -50762   -50724   -50706   -50718   -50742   -50774   -50811   -50826 
  -50828   -50850   -50885   -50911   -50905   -50846   -50754   -50688 
  -50668   -50672   -50695   -50720   -50707   -50654   -50612   -50599 
  -50593   -50599   -50634   -50697   -50764   -50818   -50863   -50892 
  -50892   -50865   -50805   -50720   -50654   -50650   -50689   -50738 
  -50797   -50858   -50876   -50849   -50812   -50773   -50734   -50720 
  -50730   -50739   -50755   -50792   -50820   -50820   -50801   -50772 
  -50737   -50733   -50766   -50795   -50792   -50782   -50784   -50776 
  -50749   -50739   -50757   -50784   -50804   -50809   -50812   -50814 
  -50796   -50766   -50753   -50757   -50762   -50761   -50757   -50753 
  -50746   -50746   -50770   -50803   -50820   -50827   -50795   -50727 
  -50674   -50654   -50664   -50700   -50731   -50753   -50764   -50753 
  -50745   -50753   -50753   -50755   -50774   -50782   -50768   -50764 
  -50782   -50804   -50809   -50785   -50739   -50699   -50662   -50627 
  -50599   -50587   -50598   -50602   -50592   -50610   -50652   -50681 
  -50688   -50665   -50630   -50627   -50652   -50680   -50708   -50754 
  -50815   -50884   -50939   -50957   -50954   -50959   -50969   -50962 
  -50935   -50895   -50854   -50816   -50791   -50788   -50788   -50782 
  -50774   -50755   -50753   -50800   -50869   -50904   -50900   -50882 
  -50868   -50859   -50863   -50885   -50909   -50917   -50907   -50893 
  -50885   -50876   -50855   -50815   -50762   -50716   -50699   -50712 
  -50737   -50755   -50778   -50800   -50800   -50781   -50758   -50733 
  -50730   -50762   -50801   -50827   -50839   -50841   -50828   -50797 
  -50745   -50691   -50664   -50642   -50592   -50538   -50518   -50526 
  -50546   -50566   -50580   -50610   -50657   -50699   -50734   -50768 
  -50801   -50854   -50919   -50962   -50973   -50940   -50865   -50782 
  -50730   -50684   -50620   -50568   -50558   -50577   -50603   -50637 
  -50689   -50739   -50749   -50718   -50696   -50712   -50742   -50758 
  -50742   -50697   -50661   -50645   -50623   -50598   -50577   -50580 
  -50623   -50679   -50711   -50722   -50726   -50720   -50703   -50687 
  -50679   -50676   -50688   -50722   -50762   -50796   -50815   -50828 
  -50857   -50904   -50942   -50959   -50976   -50988   -50986   -50986 
  -51012   -51038   -51021   -50976   -50931   -50897   -50877   -50868 
  -50862   -50850   -50826   -50791   -50757   -50739   -50750   -50762 
  -50731   -50680   -50653   -50643   -50646   -50676   -50716   -50749 
  -50773   -50777   -50753   -50723   -50706   -50688   -50657   -50629 
  -50618   -50626   -50626   -50599   -50577   -50571   -50566   -50580 
  -50619   -50661   -50704   -50749   -50785   -50820   -50853   -50863 
  -50869   -50890   -50915   -50926   -50927   -50931   -50927   -50895 
  -50854   -50827   -50805   -50777   -50745   -50710   -50670   -50641 
  -50637   -50650   -50676   -50718   -50780   -50835   -50854   -50849 
  -50827   -50792   -50768   -50772   -50780   -50785   -50788   -50780 
  -50751   -50716   -50707   -50712   -50707   -50699   -50712   -50734 
  -50737   -50724   -50719   -50723   -50719   -50707   -50701   -50720 
  -50761   -50804   -50830   -50849   -50870   -50888   -50889   -50866 
  -50822   -50780   -50749   -50716   -50700   -50704   -50707   -50708 
  -50715   -50723   -50730   -50730   -50727   -50739   -50766   -50805 
  -50839   -50853   -50863   -50870   -50855   -50843   -50851   -50858 
  -50855   -50853   -50843   -50818   -50773   -50711   -50657   -50626 
  -50606   -50602   -50622   -50670   -50724   -50754   -50761   -50754 
  -50750   -50765   -50785   -50799   -50801   -50788   -50762   -50720 
  -50674   -50647   -50642   -50649   -50654   -50656   -50673   -50711 
  -50754   -50789   -50812   -50824   -50842   -50872   -50892   -50896 
  -50908   -50917   -50889   -50845   -50807   -50760   -50719   -50700 
  -50680   -50656   -50652   -50670   -50708   -50750   -50778   -50800 
  -50818   -50827   -50827   -50816   -50799   -50780   -50755   -50731 
  -50715   -50707   -50699   -50676   -50645   -50622   -50607   -50602 
  -50610   -50626   -50649   -50680   -50711   -50745   -50788   -50827 
  -50859   -50897   -50930   -50936   -50916   -50896   -50893   -50890 
  -50878   -50868   -50858   -50842   -50832   -50832   -50830   -50823 
  -50811   -50787   -50755   -50714   -50677   -50672   -50670   -50661 
  -50658   -50660   -50669   -50693   -50720   -50730   -50726   -50728 
  -50731   -50723   -50710   -50704   -50716   -50743   -50772   -50800 
  -50822   -50832   -50842   -50851   -50849   -50843   -50842   -50835 
