Origin Time       2025/03/28 03:50:00
Lat.              35.403
Long.             140.360
Depth. (km)       54
Mag.              4.4
Station Code      CHBH19
Station Lat.      35.5943
Station Long.     140.5107
Station Height(m) -1629
Record Time       2025/03/28 03:50:47
Sampling Freq(Hz) 100Hz
Duration Time(s)  120
Dir.              1
Scale Factor      2942(gal)/8224139
Max. Acc. (gal)   1.895
Last Correction   2025/03/28 03:50:48
Memo.             
[...]
 -159082  -159082  -159079  -159081  -159084  -159084  -159081  -159081 
 -159084  -159082  -159081  -159085  -159084  -159082  -159084  -159084 
 -159082  -159082  -159081  -159081  -159082  -159086  -159085  -159084 
 -159084  -159082  -159079  -159079  -159082  -159084  -159084  -159082 
 -159082  -159084  -159084  -159084  -159082  -159081  -159082  -159082 
 -159078  -159079  -159081  -159082  -159084  -159082  -159081  -159081 
 -159085  -159086  -159084  -159084  -159081  -159078  -159079  -159084 
 -159081  -159079  -159084  -159084  -159084  -159084  -159081  -159079 
 -159085  -159088  -159085  -159082  -159082  -159084  -159082  -159081 
 -159082  -159082  -159078  -159079  -159082  -159084  -159085  -159082 
 -159081  -159082  -159081  -159079  -159079  -159082  -159082  -159079 
 -159079  -159081  -159082  -159082  -159081  -159079  -159082  -159084 
 -159084  -159081  -159081  -159082  -159082  -159081  -159081  -159082 
 -159084  -159079  -159078  -159081  -159082  -159082  -159084  -159082 
 -159081  -159082  -159082  -159082  -159082  -159082  -159082  -159081 
 -159082  -159084  -159082  -159079  -159081  -159085  -159084  -159082 
 -159082  -159081  -159081  -159084  -159084  -159082  -159084  -159084 
 -159082  -159081  -159081  -159082  -159085  -159082  -159079  -159084 
 -159085  -159084  -159085  -159085  -159081  -159081  -159084  -159082 
 -159081  -159082  -159084  -159082  -159084  -159085  -159084  -159082 
 -159082  -159082  -159082  -159081  -159082  -159084  -159084  -159082 
 -159085  -159085  -159082  -159085  -159085  -159081  -159081  -159082 
 -159082  -159084  -159084  -159082  -159082  -159081  -159081  -159082 
 -159081  -159079  -159082  -159084  -159082  -159082  -159085  -159085 
 -159082  -159084  -159085  -159085  -159082  -159079  -159081  -159081 
 -159082  -159082  -159081  -159082  -159084  -159082  -159082  -159082 
 -159081  -159081  -159081  -159082  -159084  -159081  -159082  -159085 
 -159082  -159082  -159084  -159082  -159079  -159081  -159079  -159081 
 -159082  -159084  -159082  -159081  -159081  -159081  -159081  -159084 
 -159085  -159082  -159081  -159084  -159085  -159081  -159084  -159086 
 -159082  -159082  -159082  -159081  -159084  -159082  -159078  -159082 
 -159085  -159081  -159082  -159085  -159082  -159081  -159082  -159084 
 -159084  -159084  -159084  -159085  -159084  -159082  -159084  -159085 
 -159084  -159082  -159082  -159086  -159086  -159082  -159082  -159084 
 -159084  -159084  -159081  -159078  -159081  -159085  -159084  -159081 
 -159082  -159082  -159084  -159084  -159082  -159081  -159082  -159084 
 -159082  -159081  -159082  -159082  -159082  -159084  -159081  -159079 
 -159082  -159084  -159084  -159084  -159081  -159079  -159084  -159085 
 -159084  -159082  -159082  -159084  -159081  -159081  -159079  -159081 
 -159082  -159081  -159081  -159082  -159081  -159081  -159082  -159081 
 -159082  -159084  -159082  -159084  -159085  -159082  -159081  -159081 
 -159084  -159082  -159082  -159088  -159086  -159079  -159079  -159081 
 -159081  -159082  -159082  -159081  -159082  -159086  -159086  -159082 
 -159081  -159084  -159084  -159079  -159082  -159086  -159082  -159079 
 -159081  -159084  -159085  -159082  -159081  -159081  -159082  -159081 
 -159081  -159084  -159084  -159081  -159081  -159084  -159082  -159082 
 -159084  -159081  -159081  -159081  -159079  -159081  -159082  -159081 
 -159081  -159084  -159084  -159084  -159081  -159081  -159084  -159082 
 -159081  -159081  -159081  -159081  -159079  -159081  -159085  -159085 
 -159081  -159084  -159085  -159085  -159084  -159084  -159082  -159082 
 -159081  -159082  -159085  -159085  -159084  -159079  -159078  -159082 
 -159084  -159081  -159079  -159082  -159084  -159082  -159082  -159082 
 -159081  -159082  -159085  -159085  -159084  -159085  -159082  -159081 
 -159082  -159084  -159084  -159082  -159082  -159084  -159084  -159082 
 -159082  -159085  -159085  -159079  -159075  -159079  -159085  -159084 
 -159079  -159081  -159082  -159082  -159082  -159084  -159082  -159082 
 -159082  -159079  -159081  -159085  -159082  -159079  -159081  -159085 
 -159084  -159079  -159084  -159084  -159081  -159082  -159082  -159081 
 -159084  -159082  -159079  -159084  -159084  -159081  -159084  -159084 
 -159081  -159082  -159082  -159081  -159082  -159085  -159084  -159081 
 -159079  -159082  -159082  -159082  -159085  -159084  -159081  -159084 
 -159084  -159082  -159084  -159082  -159081  -159084  -159082  -159082 
 -159084  -159081  -159082  -159085  -159084  -159081  -159081  -159082 
 -159084  -159082  -159079  -159079  -159082  -159082  -159079  -159079 
 -159082  -159082  -159082  -159082  -159081  -159082  -159084  -159082 
 -159082  -159084  -159085  -159082  -159079  -159082  -159085  -159085 
 -159082  -159081  -159081  -159082  -159084  -159082  -159082  -159082 
 -159082  -159082  -159082  -159085  -159085  -159082  -159081  -159081 
 -159079  -159081  -159084  -159082  -159081  -159082  -159081  -159079 
 -159082  -159082  -159081  -159082  -159084  -159084  -159082  -159084 
 -159084  -159081  -159081  -159082  -159081  -159081  -159085  -159084 
 -159082  -159085  -159085  -159081  -159081  -159082  -159082  -159082 
 -159082  -159081  -159085  -159086  -159085  -159086  -159085  -159078 
 -159079  -159084  -159082  -159081  -159085  -159086  -159084  -159082 
 -159084  -159084  -159084  -159081  -159081  -159082  -159082  -159082 
 -159084  -159082  -159082  -159082  -159081  -159082  -159084  -159084 
 -159082  -159082  -159082  -159084  -159082  -159079  -159081  -159085 
 -159086  -159081  -159081  -159084  -159082  -159084  -159085  -159082 
 -159079  -159084  -159085  -159082  -159082  -159084  -159082  -159079 
 -159081  -159082  -159084  -159081  -159082  -159084  -159081  -159081 
 -159084  -159085  -159084  -159082  -159079  -159084  -159088  -159085 
 -159082  -159084  -159082  -159079  -159081  -159085  -159085  -159082 
 -159081  -159082  -159084  -159084  -159081  -159082  -159085  -159085 
 -159084  -159081  -159081  -159082  -159082  -159081  -159081  -159081 
 -159081  -159084  -159085  -159084  -159084  -159082  -159081  -159082 
 -159084  -159079  -159077  -159081  -159085  -159084  -159082  -159082 
 -159082  -159082  -159082  -159081  -159084  -159086  -159082  -159081 
 -159082  -159084  -159084  -159084  -159081  -159079  -159081  -159082 
 -159084  -159082  -159082  -159082  -159082  -159079  -159079  -159082 
 -159085  -159086  -159084  -159082  -159085  -159085  -159082  -159082 
 -159084  -159079  -159078  -159082  -159085  -159085  -159085  -159081 
 -159079  -159081  -159084  -159085  -159084  -159084  -159084  -159084 
 -159084  -159084  -159084  -159084  -159084  -159081  -159081  -159079 
 -159079  -159081  -159082  -159082  -159084  -159084  -159082  -159082 
 -159082  -159082  -159084  -159084  -159081  -159081  -159082  -159082 
 -159081  -159082  -159079  -159079  -159082  -159082  -159082  -159085 
 -159082  -159079  -159084  -159085  -159082  -159082  -159084  -159082 
 -159085  -159084  -159082  -159084  -159079  -159078  -159081  -159081 
 -159081  -159084  -159084  -159082  -159082  -159081  -159081  -159084 
 -159084  -159082  -159084  -159082  -159082  -159082  -159079  -159079 
 -159082  -159085  -159085  -159086  -159085  -159084  -159084  -159085 
 -159085  -159084  -159082  -159082  -159081  -159084  -159085  -159084 
 -159082  -159082  -159085  -159085  -159084  -159081  -159081  -159081 
 -159082  -159085  -159085  -159084  -159082  -159078  -159081  -159084 
 -159082  -159081  -159082  -159084  -159084  -159082  -159081  -159082 
 -159081  -159081  -159082  -159082  -159082  -159082  -159082  -159082 
 -159082  -159081  -159081  -159084  -159084  -159081  -159081  -159081 
 -159079  -159081  -159084  -159084  -159082  -159081  -159084  -159084 
 -159079  -159081  -159084  -159082  -159081  -159082  -159085  -159085 
 -159084  -159082  -159084  -159084  -159082  -159081  -159084  -159088 
 -159086  -159084  -159082  -159082  -159084  -159084  -159081  -159082 
 -159082  -159077  -159066  -159050  -159035  -159024  -159019  -159023 
 -159038  -159058  -159066  -159061  -159050  -159047  -159100  -159190 
 -159241  -159264  -159312  -159300  -159179  -159088  -159019  -158923 
 -158920  -158935  -158869  -158926  -159151  -159250  -159217  -159264 
 -159100  -158897  -159167  -159148  -158712  -158957  -159321  -159089 
 -159047  -159048  -158897  -159278  -159579  -159246  -159156  -159318 
 -159025  -158890  -159151  -158901  -158755  -159295  -159148  -158592 
 -158936  -159088  -158845  -159283  -159333  -158962  -159385  -159387 
 -158666  -158704  -159030  -158905  -158973  -159210  -159320  -159468 
 -159317  -159113  -159136  -158811  -158750  -159152  -159058  -158870 
 -159309  -159533  -158884  -158765  -159366  -159213  -158963  -159200 
 -158981  -158688  -159031  -159231  -158944  -158843  -159011  -159262 
 -159486  -159335  -158836  -158712  -159247  -159390  -158758  -158580 
 -159071  -159455  -159695  -159320  -158631  -159085  -159379  -158750 
 -159086  -159305  -158652  -159158  -159529  -158565  -158711  -159679 
 -159286  -158826  -159381  -159266  -158835  -159232  -159163  -158766 
 -158974  -159042  -158946  -159071  -159124  -159084  -159152  -159177 
 -159071  -159160  -159169  -158971  -159166  -159231  -158899  -159138 
 -159347  -158707  -158688  -159447  -159306  -158980  -159181  -158993 
 -159038  -159418  -159109  -158872  -159094  -158839  -158689  -159147 
 -159170  -159003  -159040  -158922  -159214  -159347  -158866  -159011 
 -159317  -158981  -158859  -159120  -159200  -159291  -159413  -158874 
 -158485  -159219  -159499  -159058  -159174  -159090  -158899  -159399 
 -159436  -159030  -159012  -158924  -158976  -159098  -158839  -158986 
 -159347  -159166  -158926  -158862  -158967  -159071  -158949  -159062 
 -159059  -158792  -159151  -159507  -159241  -159179  -159248  -159100 
 -159001  -158911  -159019  -159294  -159229  -159243  -159379  -159008 
 -158827  -159152  -159104  -158838  -158724  -158739  -159047  -159124 
 -158892  -158959  -159074  -159132  -159475  -159679  -159332  -159109 
 -159224  -159098  -159116  -159273  -158919  -158776  -159034  -158820 
 -158801  -159324  -159306  -158965  -158863  -158793  -158942  -159158 
 -159008  -158734  -158770  -159287  -159486  -158946  -159050  -159564 
 -159372  -159389  -159448  -158963  -158846  -159061  -159198  -159290 
 -159150  -159063  -159089  -158938  -158631  -158566  -159317  -159632 
 -158807  -158824  -159364  -159000  -158754  -158978  -159020  -159012 
 -159113  -159109  -159111  -159073  -158850  -159055  -159464  -159250 
 -158907  -159198  -159644  -159329  -158847  -158858  -158731  -158765 
 -159202  -159158  -158893  -159023  -159171  -159170  -159116  -158977 
 -158835  -158955  -159356  -159378  -159135  -159263  -159291  -159024 
 -158797  -158969  -159386  -159217  -159016  -159217  -159273  -159472 
 -159451  -158855  -158550  -158592  -158706  -159038  -159013  -158620 
 -158770  -159117  -159213  -159308  -159092  -159150  -159933  -160049 
 -159321  -159142  -159383  -158876  -158187  -158454  -158863  -158895 
 -159173  -159379  -159264  -159112  -158782  -158780  -159244  -159031 
 -158521  -158769  -159111  -159069  -158967  -159102  -159509  -159563 
 -159205  -159197  -159428  -159273  -159119  -159435  -159368  -158818 
 -159035  -159308  -158834  -158989  -159254  -158641  -158390  -158635 
 -158841  -158934  -158970  -159471  -159601  -159223  -159524  -159362 
 -158550  -158854  -159615  -159624  -159227  -158815  -158853  -159298 
 -159236  -159062  -159248  -158888  -158612  -159165  -159317  -158924 
 -158746  -158557  -158391  -158706  -159177  -159259  -159186  -159360 
 -159493  -159324  -159244  -159298  -159220  -159171  -159148  -158839 
 -158585  -158947  -159220  -159013  -159038  -158946  -158828  -159329 
 -159391  -159057  -159336  -159363  -158996  -159086  -159147  -158919 
 -158970  -159196  -159217  -159189  -159156  -158847  -158747  -159016 
 -158881  -158755  -158932  -158764  -158874  -159426  -159409  -159162 
 -159337  -159501  -159302  -159044  -159104  -159302  -159278  -159147 
 -158985  -158743  -158892  -159304  -159339  -159209  -158901  -158517 
 -158776  -159162  -158823  -158526  -158949  -159279  -159270  -159424 
 -159418  -159274  -159424  -159310  -158774  -158718  -159008  -158939 
 -159082  -159565  -159451  -158922  -158750  -158901  -159009  -158951 
 -158997  -159154  -159016  -158776  -158866  -159085  -159186  -159219 
 -159310  -159529  -159664  -159633  -159412  -159035  -158997  -159094 
 -158911  -158711  -158507  -158602  -158971  -158889  -158604  -158634 
 -158988  -159210  -159063  -159286  -159474  -159040  -159200  -159663 
 -159247  -158824  -158890  -158973  -158966  -158743  -158774  -159186 
 -159317  -159462  -159567  -159086  -158537  -158274  -158210  -158194 
 -158186  -158670  -159470  -159989  -160282  -160708  -161214  -161171 
 -160821  -160633  -160127  -159547  -159251  -158930  -158589  -158161 
 -157885  -158126  -158242  -157746  -157071  -156933  -158045  -159846 
 -160971  -161951  -163448  -163370  -160647  -158456  -158359  -157073 
 -154759  -156147  -159462  -158854  -157021  -158568  -158920  -155900 
 -155730  -158803  -160034  -160419  -162035  -161991  -159547  -158402 
 -159602  -160292  -158901  -157156  -157445  -158665  -157991  -156735 
 -156853  -156811  -157378  -160004  -161937  -162849  -163750  -162029 
 -159545  -159930  -159507  -157248  -157221  -157000  -154120  -153785 
 -157022  -159186  -160416  -161694  -161562  -160829  -159879  -159413 
 -161449  -162847  -160606  -158309  -158400  -158647  -157639  -157426 
 -158679  -159220  -160348  -162527  -160618  -156146  -156309  -158585 
 -157670  -157022  -159183  -160189  -158556  -157743  -159316  -160419 
 -159470  -159310  -160767  -160652  -158727  -157694  -157947  -157859 
 -157150  -157813  -160124  -161025  -160020  -160242  -161484  -160775 
 -159224  -159598  -160581  -159428  -157245  -157769  -159872  -159221 
 -157690  -158457  -159520  -159651  -159570  -159352  -159163  -158762 
 -158326  -158128  -157485  -157405  -159142  -160551  -159587  -158198 
 -158735  -159744  -159000  -157682  -157958  -159295  -160262  -160805 
 -160520  -159135  -158029  -157968  -158656  -159254  -159046  -159362 
 -160471  -160386  -159420  -158939  -158278  -157690  -158553  -159417 
 -158415  -157229  -157499  -158220  -158607  -159196  -160172  -160890 
 -161096  -161011  -160793  -160608  -160012  -158553  -157511  -158562 
 -160095  -159579  -158619  -158615  -158251  -158109  -158654  -158494 
 -158121  -158565  -159054  -159075  -158857  -158830  -159750  -160814 
 -160181  -158649  -158429  -159209  -158866  -157311  -157223  -159277 
 -160567  -160228  -160203  -160625  -160118  -158861  -158085  -157889 
 -158148  -159166  -159996  -159938  -159367  -158541  -158623  -159456 
 -159062  -158317  -158704  -159143  -159270  -159344  -158832  -158244 
 -158477  -159067  -159202  -158877  -158421  -158174  -158627  -159459 
 -159362  -158446  -158241  -158761  -159078  -159250  -159707  -160497 
 -161007  -160645  -159756  -159090  -159190  -159459  -158943  -158616 
 -158930  -158500  -158009  -158765  -159389  -158901  -158379  -158631 
 -159208  -159409  -159345  -159243  -159239  -159617  -159698  -159052 
 -158722  -159094  -159232  -158704  -158222  -158444  -158866  -158754 
 -158773  -159318  -159227  -158943  -159722  -160429  -160127  -159449 
 -158905  -158710  -158777  -158723  -158171  -157819  -158693  -159590 
 -159613  -159787  -159830  -159416  -159511  -159742  -159212  -158630 
 -158920  -159360  -159283  -159329  -159162  -158460  -158506  -159210 
 -159466  -159493  -159349  -158912  -158629  -158280  -157975  -158384 
 -158804  -158512  -158068  -158122  -159155  -160461  -160402  -159540 
 -159622  -160135  -159845  -159162  -158693  -158456  -158606  -158938 
 -159057  -159244  -159617  -159715  -159241  -158495  -158363  -158927 
 -159173  -158938  -158735  -158635  -158700  -158924  -159105  -159258 
 -159544  -159948  -160157  -159881  -159229  -158620  -158434  -158699 
 -158828  -158529  -158687  -159331  -159229  -158710  -158749  -158940 
 -158777  -158495  -158595  -159043  -159372  -159490  -159139  -158475 
 -158623  -159371  -159516  -159398  -159605  -159718  -159656  -159656 
 -159553  -159142  -158544  -158245  -158448  -158846  -159219  -159305 
 -159205  -159228  -159070  -158922  -159212  -159417  -159379  -159414 
 -159263  -159070  -159402  -159742  -159322  -158674  -158561  -158859 
 -159052  -158923  -158823  -158818  -158660  -158680  -159027  -159383 
 -159498  -159282  -159219  -159416  -159286  -159012  -158946  -158820 
 -158699  -158923  -159190  -159090  -159043  -159205  -159179  -159258 
 -159426  -159090  -158619  -158626  -159057  -159576  -159727  -159516 
 -159345  -159237  -159174  -159177  -158911  -158599  -158737  -158822 
 -158607  -158673  -158942  -159039  -159178  -159497  -159706  -159660 
 -159629  -159667  -159352  -158762  -158558  -158741  -158755  -158342 
 -157651  -157269  -157665  -158415  -158966  -159529  -160007  -159884 
 -159513  -159382  -159366  -159379  -159196  -158750  -158537  -158611 
 -158719  -159034  -159613  -160022  -159988  -159921  -160161  -160250 
 -159903  -159613  -159568  -159440  -159312  -159254  -158930  -158608 
 -158728  -158904  -158824  -158803  -159106  -159502  -159494  -158998 
 -158377  -158121  -158481  -158884  -158781  -158772  -159358  -160023 
 -160173  -159733  -159221  -158953  -158566  -158386  -158820  -158931 
 -158487  -158498  -158827  -158742  -158425  -158296  -158377  -158346 
 -158157  -158155  -158245  -158280  -158635  -159300  -159703  -159861 
 -160137  -160281  -160211  -160239  -160122  -159699  -159430  -159321 
 -158992  -158620  -158541  -158608  -158638  -158787  -159032  -159124 
 -159368  -159946  -159997  -159337  -158958  -158970  -158851  -158735 
 -158773  -158764  -158683  -158684  -158796  -158936  -158985  -158800 
 -158550  -158641  -158863  -158706  -158450  -158510  -158684  -158866 
 -159058  -159189  -159430  -159759  -159849  -159814  -160027  -160348 
 -160425  -160386  -160384  -160154  -159610  -159043  -158679  -158545 
 -158518  -158495  -158508  -158458  -158349  -158426  -158589  -158654 
 -158662  -158538  -158500  -158838  -159204  -159321  -159383  -159433 
 -159356  -159171  -158994  -158903  -158836  -158791  -158876  -159183 
 -159619  -159887  -159945  -159926  -159763  -159524  -159371  -159264 
 -159097  -158884  -158797  -158770  -158619  -158510  -158458  -158402 
 -158599  -158989  -159174  -159117  -159061  -159051  -158895  -158602 
 -158434  -158453  -158645  -158916  -158985  -158974  -159187  -159401 
 -159354  -159128  -158916  -158831  -158830  -158967  -159229  -159409 
 -159494  -159493  -159499  -159750  -159958  -159796  -159638  -159683 
 -159520  -159027  -158620  -158461  -158342  -158383  -158722  -158992 
 -159065  -159246  -159401  -159262  -159119  -159196  -159331  -159386 
 -159229  -158962  -158955  -159162  -159293  -159399  -159460  -159277 
 -159078  -159108  -159054  -158842  -158768  -158823  -158907  -158911 
 -158761  -158660  -158773  -158962  -159005  -158939  -159001  -159231 
 -159363  -159200  -159075  -159267  -159347  -159101  -158895  -158908 
