Origin Time       2025/03/28 03:50:00
Lat.              35.403
Long.             140.360
Depth. (km)       54
Mag.              4.4
Station Code      CHBH13
Station Lat.      35.8307
Station Long.     140.2980
Station Height(m) -1288
Record Time       2025/03/28 03:50:51
Sampling Freq(Hz) 100Hz
Duration Time(s)  120
Dir.              2
Scale Factor      2942(gal)/8224139
Max. Acc. (gal)   0.530
Last Correction   2025/03/28 03:50:51
Memo.             
[...]
 -120241  -120241  -120243  -120241  -120241  -120243  -120243  -120241 
 -120241  -120241  -120240  -120241  -120243  -120243  -120241  -120243 
 -120243  -120240  -120239  -120240  -120241  -120241  -120243  -120240 
 -120237  -120240  -120241  -120240  -120240  -120241  -120240  -120240 
 -120241  -120241  -120243  -120241  -120241  -120243  -120241  -120240 
 -120240  -120240  -120240  -120243  -120243  -120241  -120240  -120240 
 -120241  -120241  -120241  -120243  -120244  -120243  -120241  -120241 
 -120240  -120240  -120243  -120243  -120243  -120241  -120241  -120241 
 -120241  -120241  -120240  -120240  -120243  -120243  -120241  -120241 
 -120240  -120239  -120240  -120244  -120244  -120241  -120239  -120241 
 -120243  -120241  -120243  -120244  -120241  -120240  -120243  -120243 
 -120243  -120243  -120244  -120245  -120244  -120243  -120243  -120244 
 -120243  -120243  -120241  -120241  -120241  -120241  -120241  -120241 
 -120241  -120241  -120240  -120241  -120243  -120241  -120239  -120243 
 -120245  -120243  -120240  -120240  -120241  -120241  -120241  -120241 
 -120240  -120240  -120241  -120241  -120241  -120243  -120243  -120241 
 -120240  -120239  -120241  -120241  -120241  -120241  -120241  -120241 
 -120241  -120241  -120243  -120243  -120240  -120241  -120244  -120243 
 -120239  -120241  -120241  -120241  -120241  -120241  -120241  -120243 
 -120241  -120243  -120243  -120240  -120240  -120241  -120243  -120243 
 -120241  -120241  -120240  -120240  -120241  -120244  -120244  -120241 
 -120241  -120244  -120243  -120240  -120239  -120240  -120240  -120240 
 -120241  -120241  -120241  -120243  -120243  -120240  -120241  -120244 
 -120243  -120243  -120243  -120243  -120243  -120241  -120240  -120240 
 -120243  -120244  -120241  -120241  -120243  -120244  -120243  -120240 
 -120240  -120243  -120241  -120240  -120241  -120243  -120241  -120243 
 -120244  -120243  -120241  -120240  -120241  -120241  -120243  -120244 
 -120241  -120240  -120243  -120243  -120243  -120241  -120241  -120241 
 -120241  -120240  -120240  -120241  -120241  -120241  -120243  -120241 
 -120240  -120241  -120243  -120243  -120243  -120243  -120241  -120239 
 -120239  -120243  -120244  -120243  -120241  -120241  -120240  -120239 
 -120241  -120244  -120244  -120243  -120241  -120241  -120241  -120240 
 -120243  -120244  -120240  -120241  -120244  -120241  -120240  -120243 
 -120243  -120240  -120240  -120243  -120244  -120244  -120241  -120240 
 -120241  -120243  -120244  -120243  -120241  -120243  -120243  -120241 
 -120241  -120243  -120241  -120241  -120243  -120241  -120239  -120241 
 -120244  -120244  -120243  -120241  -120240  -120243  -120243  -120241 
 -120243  -120244  -120244  -120241  -120239  -120241  -120243  -120241 
 -120241  -120243  -120243  -120243  -120243  -120244  -120244  -120241 
 -120240  -120243  -120243  -120244  -120244  -120243  -120243  -120244 
 -120243  -120241  -120243  -120241  -120241  -120244  -120241  -120240 
 -120244  -120244  -120240  -120240  -120241  -120241  -120241  -120240 
 -120240  -120241  -120241  -120241  -120240  -120241  -120240  -120240 
 -120243  -120243  -120239  -120240  -120241  -120241  -120243  -120243 
 -120241  -120241  -120240  -120240  -120243  -120244  -120241  -120240 
 -120243  -120245  -120245  -120243  -120241  -120240  -120243  -120244 
 -120243  -120240  -120239  -120243  -120243  -120240  -120239  -120239 
 -120241  -120241  -120240  -120241  -120244  -120241  -120240  -120241 
 -120243  -120243  -120240  -120241  -120243  -120241  -120240  -120241 
 -120243  -120240  -120240  -120243  -120244  -120240  -120241  -120244 
 -120241  -120241  -120243  -120243  -120243  -120241  -120243  -120243 
 -120240  -120240  -120244  -120243  -120241  -120240  -120241  -120243 
 -120241  -120240  -120243  -120243  -120243  -120243  -120244  -120244 
 -120243  -120240  -120241  -120243  -120241  -120240  -120241  -120241 
 -120241  -120243  -120244  -120244  -120240  -120241  -120244  -120241 
 -120241  -120243  -120240  -120239  -120241  -120241  -120240  -120241 
 -120243  -120243  -120243  -120244  -120241  -120240  -120244  -120244 
 -120240  -120239  -120241  -120241  -120240  -120240  -120243  -120241 
 -120243  -120243  -120241  -120243  -120243  -120240  -120241  -120241 
 -120243  -120243  -120240  -120241  -120244  -120241  -120241  -120244 
 -120244  -120243  -120241  -120241  -120241  -120241  -120244  -120245 
 -120244  -120243  -120244  -120244  -120243  -120245  -120245  -120241 
 -120241  -120241  -120241  -120241  -120243  -120241  -120241  -120241 
 -120240  -120240  -120243  -120243  -120243  -120243  -120244  -120243 
 -120240  -120241  -120243  -120241  -120243  -120244  -120243  -120241 
 -120243  -120243  -120243  -120241  -120243  -120245  -120243  -120240 
 -120241  -120243  -120243  -120243  -120241  -120241  -120240  -120241 
 -120241  -120241  -120243  -120243  -120241  -120243  -120243  -120241 
 -120243  -120243  -120241  -120241  -120241  -120241  -120240  -120240 
 -120243  -120243  -120240  -120240  -120241  -120241  -120241  -120241 
 -120240  -120240  -120241  -120241  -120240  -120241  -120243  -120241 
 -120241  -120241  -120241  -120241  -120241  -120241  -120241  -120243 
 -120243  -120243  -120241  -120240  -120241  -120244  -120244  -120241 
 -120241  -120243  -120243  -120241  -120239  -120239  -120241  -120244 
 -120243  -120240  -120241  -120243  -120243  -120241  -120243  -120241 
 -120240  -120241  -120243  -120241  -120240  -120241  -120240  -120240 
 -120243  -120241  -120240  -120243  -120241  -120240  -120241  -120241 
 -120243  -120245  -120244  -120240  -120241  -120244  -120241  -120243 
 -120243  -120240  -120239  -120245  -120245  -120241  -120240  -120243 
 -120241  -120239  -120240  -120240  -120240  -120240  -120240  -120243 
 -120241  -120240  -120243  -120243  -120240  -120241  -120241  -120241 
 -120241  -120240  -120240  -120241  -120240  -120241  -120243  -120241 
 -120241  -120241  -120241  -120243  -120241  -120241  -120241  -120240 
 -120237  -120239  -120239  -120239  -120239  -120241  -120241  -120241 
 -120241  -120239  -120240  -120243  -120241  -120239  -120241  -120240 
 -120235  -120233  -120232  -120229  -120229  -120229  -120233  -120237 
 -120241  -120241  -120237  -120236  -120235  -120231  -120235  -120245 
 -120248  -120244  -120239  -120241  -120262  -120280  -120264  -120228 
 -120213  -120226  -120243  -120239  -120226  -120240  -120267  -120264 
 -120244  -120233  -120236  -120244  -120251  -120235  -120206  -120241 
 -120310  -120302  -120248  -120210  -120186  -120217  -120286  -120253 
 -120155  -120171  -120249  -120245  -120243  -120303  -120306  -120244 
 -120216  -120222  -120283  -120329  -120255  -120224  -120244  -120175 
 -120191  -120298  -120286  -120205  -120206  -120302  -120278  -120160 
 -120255  -120349  -120201  -120150  -120249  -120255  -120228  -120282 
 -120337  -120256  -120172  -120256  -120307  -120255  -120205  -120199 
 -120289  -120270  -120158  -120252  -120344  -120235  -120166  -120228 
 -120293  -120247  -120204  -120285  -120235  -120094  -120214  -120349 
 -120225  -120136  -120193  -120243  -120256  -120218  -120205  -120263 
 -120216  -120136  -120264  -120403  -120321  -120224  -120239  -120283 
 -120326  -120306  -120256  -120263  -120245  -120140  -120052  -120158 
 -120395  -120432  -120247  -120158  -120174  -120109  -120077  -120175 
 -120260  -120256  -120217  -120194  -120199  -120236  -120283  -120241 
 -120136  -120159  -120290  -120393  -120457  -120417  -120226  -120168 
 -120301  -120251  -120097  -120131  -120266  -120411  -120343  -120083 
 -120143  -120368  -120290  -120123  -120186  -120387  -120424  -120255 
 -120186  -120249  -120233  -120190  -120241  -120330  -120275  -120093 
 -120097  -120220  -120137  -119994  -120069  -120228  -120225  -120240 
 -120405  -120405  -120229  -120190  -120313  -120449  -120471  -120406 
 -120411  -120438  -120380  -120312  -120185  -119994  -119925  -119916 
 -119977  -120286  -120502  -120325  -120148  -120204  -120283  -120286 
 -120231  -120239  -120364  -120383  -120276  -120197  -120112  -120066 
 -120074  -120075  -120168  -120349  -120425  -120339  -120263  -120294 
 -120267  -120118  -120050  -120150  -120322  -120483  -120514  -120386 
 -120294  -120370  -120428  -120294  -120135  -120102  -120113  -120112 
 -120071  -120025  -120110  -120282  -120372  -120388  -120430  -120341 
 -120004  -119920  -120228  -120222  -120005  -120214  -120514  -120503 
 -120415  -120388  -120289  -120028  -119902  -120112  -120279  -120325 
 -120441  -120425  -120283  -120166  -120006  -119992  -120166  -120278 
 -120344  -120364  -120232  -120093  -120129  -120272  -120298  -120228 
 -120278  -120378  -120397  -120378  -120355  -120260  -120087  -120110 
 -120324  -120306  -120131  -120086  -120128  -120266  -120375  -120295 
 -120298  -120441  -120403  -120316  -120471  -120519  -120154  -119820 
 -119844  -119978  -120124  -120280  -120289  -120249  -120260  -120205 
 -120201  -120298  -120326  -120221  -120074  -120083  -120244  -120357 
 -120283  -120075  -120116  -120405  -120525  -120521  -120429  -120237 
 -120235  -120287  -120123  -120013  -120136  -120255  -120177  -120047 
 -120218  -120514  -120436  -120202  -120172  -120202  -120259  -120306 
 -120198  -120154  -120372  -120579  -120475  -120263  -120287  -120263 
 -119963  -119886  -120078  -120116  -120140  -120222  -120245  -120291 
 -120245  -120175  -120228  -120171  -120182  -120445  -120411  -120136 
 -120272  -120469  -120275  -120160  -120232  -120128  -120089  -120333 
 -120403  -120235  -120291  -120405  -120216  -120079  -120307  -120518 
 -120474  -120465  -120449  -120226  -120050  -120017  -119997  -119983 
 -119908  -119873  -120056  -120294  -120421  -120429  -120291  -120179 
 -120306  -120490  -120488  -120368  -120276  -120301  -120326  -120248 
 -120205  -120260  -120285  -120164  -120051  -120035  -119940  -119955 
 -120279  -120499  -120391  -120337  -120484  -120430  -120171  -120198 
 -120368  -120351  -120398  -120420  -120204  -120135  -120199  -120093 
 -119992  -119965  -120023  -120217  -120276  -120194  -120293  -120480 
 -120414  -120123  -119958  -120081  -120324  -120420  -120221  -120044 
 -120260  -120517  -120476  -120397  -120293  -120037  -119970  -120201 
 -120368  -120429  -120478  -120391  -120245  -120177  -120187  -120262 
 -120255  -120075  -119956  -120089  -120212  -120197  -120305  -120336 
 -120086  -120040  -120314  -120488  -120440  -120328  -120320  -120360 
 -120318  -120326  -120293  -120081  -120009  -120144  -120263  -120276 
 -120159  -120120  -120195  -120166  -120175  -120326  -120414  -120374 
 -120318  -120334  -120285  -120110  -120179  -120401  -120252  -120002 
 -120089  -120195  -120086  -120105  -120344  -120370  -120178  -120182 
 -120278  -120283  -120352  -120432  -120447  -120525  -120502  -120272 
 -120182  -120237  -120143  -120056  -120032  -119947  -120067  -120375 
 -120476  -120438  -120410  -120251  -120071  -119993  -119936  -120096 
 -120383  -120326  -120155  -120244  -120364  -120394  -120334  -120205 
 -120218  -120272  -120170  -120143  -120218  -120221  -120294  -120382 
 -120263  -120166  -120237  -120229  -120205  -120356  -120459  -120341 
 -120159  -120060  -120156  -120329  -120285  -120145  -120179  -120279 
 -120235  -120066  -120060  -120264  -120340  -120282  -120263  -120183 
 -120044  -120033  -120163  -120309  -120424  -120505  -120442  -120233 
 -120159  -120310  -120418  -120334  -120214  -120235  -120190  -119982 
 -120055  -120309  -120275  -120214  -120237  -120166  -120198  -120251 
 -120114  -120059  -120163  -120210  -120295  -120476  -120556  -120586 
 -120688  -120679  -120478  -120274  -120113  -120001  -120029  -120159 
 -120216  -120050  -119877  -120037  -120280  -120174  -119936  -119992 
 -120182  -120244  -120313  -120302  -120185  -120298  -120398  -120239 
 -120291  -120395  -120094  -119912  -120101  -120297  -120471  -120553 
 -120480  -120455  -120550  -120621  -120487  -120271  -120198  -120132 
 -120024  -120106  -120222  -120102  -119998  -120071  -120131  -120081 
 -119989  -120079  -120316  -120387  -120332  -120293  -120202  -120152 
 -120268  -120337  -120345  -120556  -120636  -120316  -120025  -119947 
 -120056  -120360  -120483  -120307  -120237  -120332  -120334  -120266 
 -120258  -120245  -120216  -120253  -120233  -120123  -120108  -120164 
 -120243  -120351  -120334  -120172  -120101  -120160  -120110  -119934 
 -119832  -119881  -120114  -120368  -120310  -120172  -120336  -120525 
 -120517  -120453  -120303  -120098  -120052  -120185  -120274  -120241 
 -120204  -120175  -120287  -120513  -120451  -120262  -120367  -120534 
 -120523  -120393  -120132  -119819  -119574  -119404  -119362  -119542 
 -119827  -119985  -120079  -120298  -120451  -120351  -120235  -120322 
 -120637  -121058  -121350  -121428  -121343  -121113  -120806  -120536 
 -120310  -119959  -119541  -119385  -119423  -119329  -119142  -119065 
 -119159  -119430  -119803  -120181  -120556  -120879  -120966  -120746 
 -120430  -120228  -120268  -120641  -121085  -121278  -121235  -120995 
 -120663  -120417  -120212  -120113  -120193  -120150  -119938  -119765 
 -119587  -119377  -119353  -119630  -119927  -120047  -120285  -120665 
 -120744  -120672  -120968  -121219  -120839  -120337  -120185  -120104 
 -120141  -120472  -120711  -120672  -120667  -120690  -120316  -119739 
 -119597  -119799  -119885  -119755  -119443  -119114  -119016  -119202 
 -119685  -120414  -121109  -121593  -121724  -121373  -120907  -120776 
 -120860  -120846  -120681  -120472  -120285  -120108  -119907  -119599 
 -119195  -119040  -119317  -119658  -119896  -120170  -120314  -120263 
 -120245  -120243  -120198  -120334  -120618  -120669  -120372  -120070 
 -120063  -120128  -120058  -120332  -120993  -121194  -120819  -120469 
 -120293  -120143  -119951  -119805  -119815  -119961  -120144  -120110 
 -119889  -119778  -119766  -119874  -120066  -120017  -120004  -120544 
 -121266  -121471  -121111  -120557  -120128  -120020  -120162  -120320 
 -120355  -120168  -119923  -119967  -120164  -120266  -120418  -120448 
 -120201  -120171  -120410  -120429  -120283  -120360  -120579  -120464 
 -120039  -119765  -119728  -119816  -119982  -120135  -120266  -120387 
 -120465  -120557  -120652  -120607  -120513  -120486  -120299  -119969 
 -119842  -119893  -120069  -120370  -120448  -120289  -120159  -119956 
 -119765  -119888  -120181  -120425  -120615  -120583  -120290  -120047 
 -119997  -120113  -120375  -120610  -120649  -120476  -120178  -119994 
 -120137  -120359  -120364  -120336  -120297  -120145  -120141  -120355 
 -120607  -120711  -120513  -120222  -120162  -120270  -120283  -120132 
 -119942  -119854  -120019  -120287  -120330  -120287  -120437  -120591 
 -120560  -120407  -120193  -120020  -119920  -119801  -119655  -119493 
 -119306  -119092  -118891  -118920  -119250  -119622  -119929  -120253 
 -120441  -120399  -120432  -120698  -120938  -121032  -121095  -121051 
 -120765  -120363  -120110  -120086  -120237  -120488  -120607  -120467 
 -120276  -120170  -120017  -119726  -119375  -119217  -119377  -119576 
 -119680  -119848  -120078  -120370  -120677  -120688  -120528  -120645 
 -120818  -120812  -121030  -121444  -121521  -121360  -121373  -121344 
 -121035  -120714  -120479  -120204  -119961  -119799  -119588  -119327 
 -119218  -119403  -119642  -119592  -119454  -119591  -119916  -120290 
 -120534  -120518  -120511  -120594  -120561  -120526  -120625  -120761 
 -120854  -120897  -120885  -120796  -120569  -120148  -119650  -119321 
 -119248  -119325  -119415  -119562  -119897  -120237  -120403  -120519 
 -120657  -120793  -120958  -121163  -121288  -121144  -120772  -120452 
 -120437  -120606  -120550  -120347  -120233  -119807  -119053  -118786 
 -119110  -119361  -119515  -119871  -120177  -120251  -120339  -120569 
 -120795  -120814  -120673  -120576  -120540  -120519  -120549  -120537 
 -120391  -120264  -120235  -120082  -119770  -119484  -119241  -119161 
 -119416  -119826  -120198  -120476  -120576  -120523  -120398  -120318 
 -120440  -120642  -120627  -120447  -120318  -120224  -120216  -120437 
 -120742  -120962  -121157  -121197  -120949  -120699  -120555  -120286 
 -120019  -119909  -119805  -119716  -119736  -119819  -119884  -119924 
 -119997  -120090  -120197  -120351  -120426  -120357  -120388  -120505 
 -120353  -120064  -120020  -120086  -120077  -120009  -119826  -119688 
 -119790  -119962  -120010  -120020  -120249  -120619  -120731  -120592 
 -120469  -120395  -120368  -120428  -120502  -120509  -120472  -120492 
 -120529  -120380  -120052  -119817  -119767  -119800  -119927  -120077 
 -120096  -120123  -120332  -120637  -120866  -120862  -120633  -120391 
 -120140  -119888  -119909  -120128  -120239  -120256  -120216  -120071 
 -119889  -119766  -119862  -120212  -120528  -120567  -120428  -120275 
 -120109  -120000  -120096  -120289  -120402  -120499  -120568  -120492 
 -120357  -120245  -120101  -120023  -120086  -120094  -120033  -120071 
 -120096  -120051  -120144  -120352  -120482  -120468  -120374  -120305 
 -120293  -120305  -120263  -120135  -120033  -120021  -120058  -120132 
 -120231  -120322  -120418  -120572  -120702  -120657  -120549  -120472 
 -120299  -120050  -119886  -119844  -119858  -119973  -120199  -120278 
 -120159  -120159  -120252  -120218  -120035  -119784  -119705  -119951 
 -120297  -120523  -120665  -120779  -120803  -120721  -120684  -120707 
 -120606  -120386  -120202  -120101  -120094  -120181  -120290  -120345 
 -120286  -120120  -119946  -119911  -120051  -120181  -120197  -120226 
 -120317  -120316  -120131  -119894  -119754  -119745  -119880  -120075 
 -120249  -120486  -120698  -120637  -120438  -120387  -120430  -120445 
 -120440  -120410  -120348  -120245  -120112  -120044  -120006  -119880 
 -119784  -119886  -120091  -120241  -120267  -120209  -120179  -120163 
 -120052  -119878  -119731  -119697  -119820  -119944  -119958  -119967 
 -120036  -120133  -120206  -120228  -120279  -120379  -120474  -120569 
 -120615  -120569  -120475  -120440  -120588  -120839  -120973  -120955 
 -120861  -120672  -120440  -120352  -120437  -120469  -120361  -120253 
 -120182  -120066  -119973  -120027  -120089  -119978  -119828  -119846 
 -120008  -120185  -120351  -120487  -120484  -120366  -120283  -120310 
 -120388  -120434  -120442  -120386  -120199  -120010  -120004  -120082 
 -120152  -120249  -120239  -120101  -120054  -120096  -120118  -120133 
 -120199  -120395  -120557  -120421  -120195  -120179  -120271  -120312 
 -120322  -120326  -120329  -120364  -120390  -120345  -120272  -120232 
 -120244  -120245  -120197  -120216  -120317  -120360  -120313  -120217 
 -120123  -120043  -119963  -119938  -119958  -119969  -120031  -120140 
 -120136  -119993  -119894  -119975  -120178  -120355  -120469  -120572 
 -120684  -120733  -120613  -120383  -120185  -120063  -120052  -120086 
 -120086  -120148  -120275  -120375  -120459  -120514  -120557  -120623 
 -120673  -120657  -120510  -120289  -120162  -120106  -119977  -119823 
 -119796  -119839  -119823  -119838  -119947  -120063  -120160  -120267 
 -120382  -120432  -120367  -120326  -120386  -120407  -120355  -120325 
 -120293  -120193  -120081  -120067  -120164  -120245  -120256  -120259 
 -120293  -120380  -120453  -120417  -120384  -120398  -120367  -120313 
