Origin Time       2025/03/28 03:50:00
Lat.              35.403
Long.             140.360
Depth. (km)       54
Mag.              4.4
Station Code      CHBH13
Station Lat.      35.8307
Station Long.     140.2980
Station Height(m) 12
Record Time       2025/03/28 03:50:51
Sampling Freq(Hz) 100Hz
Duration Time(s)  120
Dir.              5
Scale Factor      7845(gal)/8223790
Max. Acc. (gal)   5.672
Last Correction   2025/03/28 03:50:51
Memo.             
[...]
   -1305    -1305    -1314    -1321    -1312    -1308    -1314    -1309 
   -1297    -1300    -1306    -1301    -1294    -1304    -1324    -1324 
   -1309    -1300    -1309    -1321    -1321    -1306    -1291    -1296 
   -1306    -1309    -1312    -1306    -1297    -1302    -1305    -1301 
   -1304    -1316    -1327    -1317    -1290    -1279    -1294    -1312 
   -1306    -1287    -1294    -1312    -1309    -1308    -1316    -1308 
   -1312    -1337    -1327    -1287    -1286    -1316    -1317    -1301 
   -1301    -1302    -1297    -1302    -1321    -1320    -1300    -1297 
   -1306    -1304    -1298    -1302    -1309    -1306    -1294    -1293 
   -1305    -1305    -1302    -1313    -1309    -1305    -1320    -1316 
   -1302    -1309    -1296    -1277    -1300    -1321    -1321    -1327 
   -1324    -1309    -1290    -1279    -1294    -1317    -1325    -1321 
   -1323    -1318    -1296    -1281    -1283    -1289    -1301    -1314 
   -1314    -1309    -1312    -1323    -1327    -1313    -1304    -1300 
   -1297    -1317    -1332    -1309    -1286    -1294    -1305    -1309 
   -1316    -1320    -1325    -1332    -1313    -1290    -1285    -1283 
   -1297    -1312    -1313    -1318    -1320    -1305    -1301    -1306 
   -1308    -1318    -1332    -1314    -1293    -1296    -1304    -1316 
   -1320    -1310    -1309    -1312    -1304    -1296    -1302    -1313 
   -1317    -1317    -1302    -1289    -1312    -1331    -1316    -1317 
   -1321    -1297    -1289    -1300    -1301    -1309    -1320    -1327 
   -1329    -1306    -1294    -1313    -1314    -1314    -1313    -1277 
   -1273    -1305    -1308    -1317    -1331    -1320    -1331    -1333 
   -1297    -1293    -1309    -1302    -1309    -1316    -1285    -1283 
   -1309    -1305    -1320    -1336    -1316    -1320    -1331    -1312 
   -1305    -1313    -1310    -1304    -1300    -1297    -1300    -1309 
   -1305    -1309    -1329    -1327    -1318    -1320    -1304    -1289 
   -1300    -1323    -1317    -1293    -1302    -1309    -1291    -1298 
   -1318    -1324    -1327    -1328    -1308    -1287    -1305    -1328 
   -1318    -1306    -1300    -1290    -1294    -1304    -1310    -1324 
   -1328    -1321    -1309    -1294    -1304    -1321    -1318    -1305 
   -1289    -1286    -1289    -1298    -1310    -1316    -1321    -1321 
   -1318    -1332    -1323    -1294    -1291    -1301    -1301    -1310 
   -1327    -1317    -1294    -1293    -1304    -1313    -1324    -1331 
   -1331    -1317    -1294    -1289    -1294    -1300    -1305    -1305 
   -1298    -1294    -1304    -1313    -1310    -1309    -1320    -1316 
   -1293    -1286    -1301    -1320    -1329    -1312    -1287    -1290 
   -1298    -1297    -1316    -1336    -1332    -1304    -1270    -1275 
   -1309    -1323    -1323    -1318    -1297    -1275    -1285    -1305 
   -1308    -1316    -1340    -1341    -1306    -1281    -1285    -1294 
   -1306    -1327    -1318    -1291    -1290    -1289    -1290    -1310 
   -1312    -1306    -1317    -1321    -1316    -1304    -1289    -1296 
   -1304    -1302    -1310    -1313    -1318    -1332    -1325    -1314 
   -1327    -1312    -1255    -1231    -1258    -1286    -1294    -1316 
   -1360    -1395    -1387    -1321    -1260    -1247    -1225    -1223 
   -1287    -1314    -1304    -1367    -1433    -1428    -1393    -1306 
   -1208    -1204    -1236    -1240    -1286    -1351    -1331    -1298 
   -1293    -1277    -1367    -1479    -1439    -1390    -1270    -1055 
   -1119    -1312    -1321    -1298    -1244    -1240    -1426    -1510 
   -1424    -1354    -1246    -1156    -1206    -1297    -1302    -1283 
   -1374    -1425    -1314    -1256    -1304    -1336    -1324    -1290 
   -1317    -1305    -1197    -1254    -1408    -1422    -1339    -1216 
   -1198    -1277    -1306    -1406    -1421    -1239    -1250    -1397 
   -1405    -1367    -1258    -1185    -1341    -1444    -1325    -1196 
   -1082    -1055    -1283    -1507    -1495    -1389    -1273    -1291 
   -1421    -1378    -1275    -1254    -1196    -1224    -1296    -1193 
   -1089    -1175    -1387    -1574    -1547    -1364    -1277    -1323 
   -1389    -1321    -1194    -1260    -1343    -1294    -1260    -1113 
    -970    -1123    -1375    -1678    -1906    -1659    -1219    -1011 
    -970    -1061    -1255    -1478    -1613    -1537    -1420    -1389 
   -1269     -984     -851    -1175    -1645    -1790    -1680    -1537 
   -1387    -1210     -915     -610     -619     -969    -1448    -1857 
   -1973    -1698    -1171     -762     -926    -1536    -1921    -1838 
   -1491    -1080     -815     -804     -982    -1151    -1177    -1281 
   -1597    -1768    -1572    -1296    -1298    -1571    -1682    -1425 
   -1235    -1348    -1429    -1309    -1127     -916     -749     -774 
   -1020    -1405    -1748    -1861    -1726    -1490    -1314    -1178 
    -974     -849    -1042    -1443    -1620    -1408    -1162    -1163 
   -1273    -1351    -1455    -1618    -1717    -1607    -1328     -965 
    -621     -581     -961    -1386    -1555    -1656    -1830    -1740 
   -1296     -962     -923    -1024    -1254    -1539    -1713    -1679 
   -1436    -1119     -884     -892    -1167    -1390    -1431    -1478 
   -1588    -1659    -1421     -931     -778    -1185    -1787    -2065 
   -1692    -1030     -510     -224     -454    -1024    -1435    -1838 
   -2223    -2276    -2020    -1501     -938     -719     -880    -1255 
   -1642    -1803    -1613    -1213     -878     -643     -575     -850 
   -1387    -2004    -2268    -1776     -999     -568     -521     -692 
    -954    -1350    -1912    -2467    -2727    -2319    -1420     -638 
    -105      -51     -785    -1710    -2069    -1857    -1495    -1314 
   -1274    -1259    -1348    -1539    -1768    -1961    -1849    -1282 
    -645     -472     -814    -1300    -1471    -1129     -723     -695 
    -864    -1151    -1593    -1818    -1713    -1551    -1435    -1328 
   -1143     -880     -720     -666     -635     -864    -1401    -1783 
   -1833    -1620    -1066     -576     -720    -1528    -2490    -2814 
   -2488    -2041    -1524    -1192    -1278    -1497    -1784    -1933 
   -1630    -1173     -826     -683     -845     -945     -672     -426 
    -568     -986    -1541    -1929    -1741    -1121     -540     -345 
    -702    -1263    -1529    -1472    -1347    -1266    -1140    -1021 
   -1046    -1232    -1660    -1939    -1598    -1240    -1358    -1615 
   -1976    -2304    -2195    -1780    -1306     -994    -1012     -974 
    -801    -1004    -1568    -2053    -2288    -2224    -1854    -1301 
    -633      -97     -130     -537     -831    -1166    -1582    -1610 
   -1266     -950     -696     -585     -834    -1189    -1441    -1737 
   -1971    -1953    -1621    -1129     -969    -1143    -1244    -1271 
   -1216    -1127    -1351    -1687    -1682    -1557    -1628    -1725 
   -1750    -1810    -1853    -1884    -1958    -1836    -1413    -1005 
    -733     -490     -329     -471    -1030    -1637    -1945    -2030 
   -1715    -1042     -587     -535     -724     -912     -835     -602 
    -467     -600    -1024    -1455    -1750    -2006    -2162    -2077 
   -1764    -1467    -1317    -1202    -1121    -1058    -1067    -1363 
   -1687    -1792    -1991    -2238    -2236    -2043    -1655    -1247 
   -1166    -1174    -1051     -977     -926     -918     -854     -464 
    -240     -610    -1077    -1308    -1350    -1302    -1374    -1529 
   -1575    -1490    -1333    -1215    -1201    -1335    -1657    -1883 
   -1682    -1210     -826     -762     -961    -1152    -1270    -1394 
   -1605    -1826    -1804    -1574    -1301    -1026     -959    -1119 
   -1300    -1503    -1648    -1746    -1863    -1729    -1439    -1296 
   -1144     -961     -873     -822     -949    -1309    -1671    -1844 
   -1672    -1248     -878     -714     -776     -976    -1260    -1578 
   -1605    -1337    -1161    -1201    -1520    -2076    -2334    -1831 
    -930     -465     -561     -627     -619     -980    -1574    -1914 
   -1935    -1763    -1555    -1564    -1620    -1332     -832     -468 
    -367     -508     -727     -967    -1391    -1894    -2153    -2130 
   -1930    -1624    -1447    -1642    -2074    -2357    -2292    -1945 
   -1379     -716     -328     -310     -236       62      178     -244 
    -966    -1561    -1991    -2169    -1979    -1779    -1782    -1759 
   -1572    -1250     -896     -553     -216     -178     -708    -1528 
   -2091    -2170    -1931    -1688    -1742    -2037    -2174    -2072 
   -1826    -1402     -972     -696     -510     -454     -564     -689 
    -842    -1239    -1768    -1985    -1840    -1632    -1548    -1618 
   -1586    -1271     -953     -870     -982    -1206    -1435    -1583 
   -1651    -1599    -1466    -1374    -1248    -1169    -1390    -1598 
   -1412    -1016     -622     -415     -610    -1200    -1956    -2324 
   -2127    -1733    -1140     -515     -329     -333     -324     -588 
   -1082    -1609    -1983    -2111    -2232    -2346    -2196    -1788 
   -1256     -853     -623     -337     -197     -484    -1011    -1606 
   -2093    -2181    -1972    -1864    -1919    -1858    -1638    -1471 
   -1297    -1023     -901    -1043    -1217    -1266    -1208    -1121 
   -1154    -1377    -1566    -1401     -893     -361     -103     -191 
    -535    -1063    -1672    -2083    -2139    -2008    -1830    -1602 
   -1385    -1170     -920     -814     -936    -1165    -1431    -1649 
   -1656    -1440    -1221    -1178    -1258    -1393    -1584    -1709 
   -1732    -1876    -2178    -2249    -1854    -1308     -953     -814 
    -858    -1042    -1204    -1240    -1151    -1003     -915     -939 
    -997    -1062    -1113    -1039     -940     -997    -1115    -1231 
   -1318    -1236    -1131    -1181    -1204    -1233    -1445    -1636 
   -1641    -1509    -1328    -1368    -1706    -1992    -2016    -1836 
   -1575    -1310     -931     -548     -483     -692    -1023    -1424 
   -1690    -1755    -1803    -1814    -1642    -1445    -1356    -1117 
    -716     -600     -924    -1447    -1891    -2145    -2350    -2452 
   -2064    -1212     -438     -152     -363     -774    -1124    -1285 
   -1171    -1016    -1062    -1105    -1063    -1058    -1015     -963 
   -1012    -1167    -1506    -1876    -1977    -1952    -2069    -2228 
   -2187    -1829    -1294     -832     -475     -153       32      -31 
    -321     -711    -1053    -1301    -1507    -1752    -2096    -2512 
   -2789    -2625    -2030    -1433    -1142    -1088    -1124    -1125 
    -970     -756     -583     -318       35      171      -67     -388 
    -441     -337     -403     -745    -1301    -1821    -2045    -2008 
   -1837    -1713    -1867    -2359    -3095    -3813    -4193    -4129 
   -3623    -2689    -1556     -492      264      426       81     -342 
    -704    -1063    -1383    -1451    -1053     -540     -432     -685 
    -994    -1075     -780     -183      506      846      518     -372 
   -1682    -3030    -3689    -3516    -3134    -2930    -2752    -2411 
   -1911    -1364     -735      201     1336     2096     2011      936 
    -805    -2515    -3861    -4957    -5782    -6157    -5890    -5046 
   -3996    -2697     -853     1186     2577     2656     1652      666 
     234      -29     -221     -238     -306     -459     -599     -885 
   -1243    -1293    -1217    -1655    -2592    -3159    -2702    -1471 
    -240      407      415      -66    -1108    -2654    -4178    -5042 
   -4980    -4332    -3537    -2577    -1441     -363      503     1013 
    1378     2096     2772     2440     1039     -710    -2137    -2866 
   -2880    -2477    -2161    -2168    -2106    -1721    -1328    -1089 
    -984    -1200    -1777    -2482    -3136    -3465    -3146    -2359 
   -1656    -1185     -666      -51      345      361      230      257 
     494      666      361     -487    -1502    -2347    -3064    -3769 
   -4326    -4432    -3877    -2872    -1935    -1166     -353      255 
     237     -359    -1165    -1817    -2112    -2035    -1661    -1140 
    -602     -130       40     -186     -418     -295      -14       32 
    -263     -743    -1333    -2080    -2721    -2929    -2843    -2760 
   -2737    -2602    -2134    -1426     -858     -595     -556     -545 
    -353     -122     -162     -450     -784    -1027    -1208    -1443 
   -1587    -1482    -1298    -1124    -1000    -1177    -1699    -2308 
   -2806    -3099    -3171    -3022    -2732    -2651    -2924    -3154 
   -2875    -1929     -668      307      774      811      564      253 
     -79     -558    -1054    -1273    -1250    -1286    -1401    -1451 
   -1528    -1652    -1502     -874      -91      463      827      977 
     811      672     1004     1831     2728     3056     2521     1317 
    -166    -1613    -3019    -4471    -5645    -6099    -5906    -5448 
   -4854    -3989    -2751    -1432     -464       52       24     -792 
   -2316    -4101    -5528    -6080    -5703    -4691    -3319    -1809 
    -457      529     1340     2288     3164     3356     2654     1464 
     279     -668    -1356    -1798    -1992    -2002    -2016    -2276 
   -2662    -2652    -2070    -1215     -371      309      911     1482 
    1618     1020      -43    -1142    -2119    -3145    -4276    -5223 
   -5717    -5784    -5652    -5352    -4658    -3496    -2112     -876 
     -70      143     -446    -1930    -3727    -4824    -4692    -3547 
   -1926     -174     1606     3208     4279     4639     4441     3888 
    2924     1609      417     -326     -664     -737     -859    -1255 
   -1714    -2053    -2371    -2698    -3005    -3334    -3646    -3797 
   -3541    -2721    -1597     -684     -384     -700    -1317    -1956 
   -2394    -2384    -1958    -1516    -1367    -1489    -1760    -2123 
   -2505    -2747    -2760    -2613    -2366    -2087    -1840    -1439 
    -642      368     1186     1679     1867     1663     1086      265 
    -693    -1459    -1680    -1426    -1034     -747     -517     -284 
    -356     -900    -1568    -2015    -2285    -2515    -2709    -2867 
   -3065    -3389    -3859    -4321    -4496    -4213    -3435    -2249 
    -999      -78      495      924     1198     1152      751       66 
    -791    -1513    -1767    -1620    -1386    -1115     -683     -117 
     409      722      847      889      684       18    -1008    -2169 
   -3276    -4145    -4704    -4959    -4810    -4168    -3207    -2187 
   -1229     -464      -86     -152     -496     -865    -1144    -1213 
    -880     -264      257      333     -305    -1416    -2442    -3183 
   -3545    -3253    -2308    -1081      -10      665     1004     1100 
     955      541     -148     -924    -1443    -1603    -1582    -1480 
   -1254     -945     -780     -911    -1220    -1440    -1493    -1551 
   -1730    -1964    -2200    -2451    -2741    -3094    -3437    -3643 
   -3630    -3304    -2656    -1887    -1240     -777     -459     -202 
     129      556      901     1012      969      897      662       98 
    -742    -1765    -2756    -3370    -3515    -3284    -2743    -1989 
   -1090     -180      504      936     1220     1283      919       20 
   -1314    -2918    -4536    -5734    -6185    -5864    -4885    -3465 
   -1895     -368      919     1765     2219     2384     2172     1564 
     638     -508    -1622    -2492    -3141    -3649    -4031    -4251 
   -4217    -3874    -3373    -2952    -2547    -1864     -834      292 
    1158     1605     1787     1759     1377      615     -445    -1718 
   -3102    -4430    -5406    -5779    -5417    -4305    -2733    -1139 
     184      985     1096      649      -32     -688    -1239    -1687 
   -1923    -1838    -1539    -1179     -711      -24      772     1526 
    2187     2533     2309     1664      936       99    -1036    -2211 
   -2997    -3427    -3738    -3974    -4017    -3770    -3352    -3005 
   -2814    -2690    -2504    -2236    -1987    -1825    -1707    -1545 
   -1347    -1198    -1089     -950     -843     -845     -916    -1000 
   -1067    -1089     -976     -653     -209      201      503      606 
     400      -20     -356     -465     -542     -724     -932    -1146 
   -1340    -1389    -1329    -1332    -1362    -1331    -1351    -1545 
   -1821    -2026    -2151    -2303    -2546    -2847    -3114    -3246 
   -3184    -3005    -2782    -2493    -2182    -1906    -1632    -1406 
   -1320    -1289    -1194    -1011     -773     -600     -602     -730 
    -834     -807     -691     -592     -537     -535     -638     -865 
   -1124    -1205    -1069     -862     -606     -295       22      325 
     486      409      182     -124     -587    -1314    -2197    -2891 
   -3207    -3271    -3203    -2986    -2670    -2366    -2046    -1718 
   -1472    -1209     -805     -380      -79       59        9     -270 
    -816    -1618    -2454    -2964    -2999    -2705    -2182    -1425 
    -507      352      865      866      469     -130     -862    -1710 
   -2539    -3148    -3487    -3608    -3456    -2930    -2103    -1236 
    -545      -49      260      337      129     -351     -977    -1637 
   -2355    -3107    -3748    -4216    -4452    -4261    -3569    -2546 
   -1375     -182      880     1692     2295     2739     2943     2756 
    2045      853     -515    -1779    -2841    -3631    -4036    -4060 
   -3812    -3341    -2619    -1694     -716       95      498      345 
    -332    -1340    -2390    -3261    -3873    -4135    -3998    -3564 
   -2926    -2142    -1351     -687     -193       98      114     -172 
    -626    -1005    -1155    -1050     -734     -328      -18       74 
      21       31      274      689     1051     1198     1070      629 
    -102    -1004    -1927    -2749    -3408    -3919    -4328    -4484 
   -4151    -3389    -2459    -1559     -843     -437     -369     -604 
   -1065    -1624    -2123    -2443    -2516    -2296    -1794    -1161 
    -631     -400     -504     -761     -976    -1144    -1362    -1649 
   -1984    -2338    -2606    -2641    -2412    -1976    -1395     -841 
    -519     -433     -503     -738    -1017    -1143    -1162    -1188 
   -1128     -897     -584     -294     -106     -129     -407     -876 
   -1362    -1665    -1740    -1630    -1318     -816     -245      245 
     542      584      403       78     -372     -950    -1614    -2293 
   -2879    -3194    -3172    -2959    -2690    -2440    -2276    -2145 
   -1965    -1734    -1433    -1107     -862     -756     -881    -1258 
   -1698    -2047    -2311    -2471    -2469    -2297    -2047    -1818 
   -1582    -1329    -1143     -992     -811     -614     -365      -72 
     143      228      179       10     -162     -255     -373     -669 
   -1047    -1313    -1495    -1757    -2178    -2627    -2849    -2847 
   -2762    -2602    -2417    -2269    -2122    -1962    -1780    -1512 
   -1163     -850     -692     -719     -822     -873     -876     -882 
    -939    -1090    -1251    -1271    -1161    -1030     -950     -989 
   -1215    -1593    -1946    -2100    -2027    -1809    -1530    -1215 
    -832     -468     -221      -60       35       44      -49     -225 
    -379     -479     -618     -918    -1426    -2027    -2525    -2812 
   -2876    -2797    -2637    -2397    -2068    -1656    -1228     -885 
