Origin Time       2025/03/28 03:50:00
Lat.              35.403
Long.             140.360
Depth. (km)       54
Mag.              4.4
Station Code      CHBH19
Station Lat.      35.5943
Station Long.     140.5107
Station Height(m) 1
Record Time       2025/03/28 03:50:47
Sampling Freq(Hz) 100Hz
Duration Time(s)  120
Dir.              4
Scale Factor      7845(gal)/8223790
Max. Acc. (gal)   9.656
Last Correction   2025/03/28 03:50:48
Memo.             
[...]
   -7985    -7989    -7998    -7987    -7982    -8001    -8008    -7989 
   -7982    -7996    -7987    -7982    -8008    -8014    -7996    -7997 
   -8001    -7983    -7978    -7994    -7996    -7987    -7997    -8002 
   -7990    -7997    -8005    -7994    -7987    -7993    -7989    -7977 
   -7978    -7992    -7987    -7970    -7975    -7993    -7982    -7969 
   -7981    -7989    -7977    -7983    -7992    -7979    -7977    -7982 
   -7978    -7977    -7983    -7983    -7977    -7989    -7994    -7977 
   -7979    -8000    -7983    -7975    -8001    -7992    -7974    -7979 
   -7973    -7973    -7990    -7986    -7973    -7974    -7987    -7987 
   -7978    -7993    -8010    -7997    -7986    -7987    -7981    -7971 
   -7989    -8009    -7993    -7983    -7996    -7990    -7992    -8004 
   -8001    -7990    -7986    -7986    -7987    -7998    -8006    -7993 
   -7982    -7996    -8004    -7989    -7990    -8002    -7986    -7977 
   -7996    -7997    -7974    -7979    -8001    -7998    -8000    -8006 
   -8000    -7998    -8001    -7990    -7983    -7982    -7986    -7987 
   -7987    -7987    -7987    -7989    -7987    -7996    -8001    -7993 
   -7993    -7978    -7962    -7985    -7996    -7977    -7981    -7996 
   -7983    -7973    -7993    -7997    -7979    -7990    -8000    -7975 
   -7975    -7993    -7987    -7993    -8013    -8006    -7978    -7979 
   -8001    -7996    -7993    -8001    -7986    -7985    -7998    -7986 
   -7986    -7994    -7990    -7989    -7983    -7982    -7985    -7974 
   -7978    -7997    -7987    -7978    -7987    -7985    -7983    -7990 
   -7990    -7985    -7975    -7985    -7996    -7982    -7979    -7989 
   -7993    -7997    -7990    -7982    -7985    -7987    -7990    -7981 
   -7978    -7998    -7990    -7974    -7989    -7986    -7971    -7992 
   -8001    -7981    -7982    -7993    -7983    -7989    -8002    -7990 
   -7990    -7993    -7982    -7978    -7974    -7979    -7990    -7978 
   -7979    -7990    -7986    -7989    -7987    -7982    -7992    -7998 
   -7990    -7986    -7993    -7997    -7979    -7981    -8008    -8000 
   -7989    -8004    -7993    -7979    -7994    -7997    -7986    -7985 
   -7992    -7986    -7979    -7986    -7994    -7996    -7998    -7997 
   -7985    -7981    -7996    -7998    -7985    -7990    -7994    -7983 
   -7983    -7993    -7997    -7996    -7992    -7992    -7993    -7982 
   -7982    -7994    -7997    -7992    -7986    -7983    -7985    -7990 
   -7996    -8000    -7997    -7983    -7981    -7986    -7987    -7993 
   -7996    -7997    -7998    -7993    -7996    -7993    -7977    -7981 
   -7987    -7986    -7992    -7990    -7986    -7987    -7996    -8009 
   -8005    -7994    -8002    -8001    -7989    -7990    -7992    -7982 
   -7986    -7997    -7989    -7975    -7981    -7986    -7987    -7992 
   -7993    -7990    -7992    -7996    -7997    -7997    -7994    -7993 
   -7992    -7990    -7989    -7981    -7979    -7997    -8001    -7987 
   -7992    -7997    -7989    -7997    -8002    -7996    -7998    -8004 
   -8002    -8001    -7996    -7992    -7998    -8002    -7996    -7986 
   -7996    -8010    -7986    -7974    -8009    -8009    -7975    -7983 
   -8004    -7997    -7983    -7985    -7993    -7998    -7996    -7990 
   -7981    -7982    -7990    -7987    -7982    -7986    -7990    -7975 
   -7971    -7989    -7989    -7979    -7979    -7973    -7975    -7987 
   -7987    -7977    -7975    -7985    -7978    -7971    -7985    -7987 
   -7986    -8001    -8005    -7996    -7993    -7996    -8002    -8001 
   -7998    -8002    -7997    -7990    -7994    -8005    -8012    -8009 
   -8005    -7993    -7983    -7990    -7996    -7994    -7994    -7998 
   -7989    -7966    -7973    -7997    -7992    -7985    -7992    -7989 
   -7986    -7996    -8005    -8005    -7998    -7994    -7992    -7990 
   -7989    -7981    -7975    -7979    -7989    -7985    -7970    -7975 
   -7990    -7981    -7979    -7997    -7993    -7978    -7982    -7986 
   -7975    -7965    -7971    -7981    -7979    -7992    -7998    -7986 
   -7989    -7990    -7982    -7987    -7989    -7977    -7973    -7970 
   -7970    -7975    -7967    -7965    -7982    -7989    -7993    -7997 
   -7987    -7982    -7983    -7981    -7986    -7986    -7977    -7973 
   -7978    -7989    -7992    -7979    -7977    -7994    -7996    -7986 
   -7998    -8004    -7990    -7990    -7996    -7983    -7975    -7981 
   -7982    -7982    -7989    -7990    -7987    -7989    -7993    -7998 
   -7994    -7987    -7992    -7983    -7970    -7987    -7996    -7981 
   -7990    -8004    -7985    -7977    -7985    -7975    -7982    -7997 
   -7979    -7971    -7992    -7997    -7985    -7989    -7997    -7993 
   -7994    -7997    -7997    -7997    -7989    -7989    -7993    -7985 
   -7979    -7978    -7974    -7986    -8000    -7989    -7981    -7990 
   -7982    -7978    -7993    -7998    -8000    -7996    -7992    -7993 
   -7982    -7983    -7996    -7992    -7990    -7997    -7994    -7992 
   -8004    -8013    -8010    -8006    -8002    -7998    -7987    -7977 
   -7978    -7979    -7978    -7977    -7971    -7981    -7994    -7983 
   -7983    -8001    -8004    -7997    -7998    -7997    -7996    -7997 
   -7989    -7977    -7974    -7977    -7981    -7983    -7989    -7987 
   -7982    -7990    -7994    -7985    -7982    -7986    -7982    -7986 
   -7997    -7989    -7985    -8000    -8000    -7985    -7993    -8005 
   -7996    -7990    -7998    -7994    -7989    -7998    -8001    -7994 
   -7998    -7998    -7989    -7990    -7996    -7993    -7996    -8000 
   -7998    -7996    -7996    -7998    -8001    -7998    -8000    -8002 
   -7996    -7996    -8000    -7994    -7990    -7989    -7989    -7993 
   -7994    -7993    -7994    -8000    -8008    -8001    -7987    -7989 
   -7996    -7990    -7990    -7997    -7989    -7979    -7989    -7997 
   -7979    -7974    -7990    -7989    -7986    -7992    -7986    -7983 
   -7992    -7993    -7986    -7985    -7993    -7993    -7982    -7987 
   -7998    -7989    -7985    -8001    -8001    -7986    -7990    -8000 
   -7997    -8001    -8000    -7978    -7962    -7971    -7985    -7993 
   -7997    -7993    -7993    -7993    -7989    -7994    -7996    -7989 
   -7989    -7971    -7971    -7994    -7983    -7962    -7978    -7996 
   -7985    -7986    -8001    -7987    -7981    -7998    -7997    -7986 
   -7983    -7982    -7978    -7978    -7990    -7989    -7979    -7994 
   -7997    -7986    -7990    -7997    -7997    -7996    -8004    -8006 
   -7985    -7981    -7993    -7989    -7993    -7996    -7979    -7974 
   -7981    -7985    -7989    -7993    -7990    -7979    -7973    -7978 
   -7981    -7985    -7992    -7998    -7998    -7983    -7971    -7977 
   -7986    -7996    -7993    -7977    -7969    -7962    -7959    -7973 
   -7986    -7998    -8005    -7987    -7955    -7935    -7955    -8002 
   -8036    -8047    -8046    -8028    -7983    -7915    -7882    -7940 
   -8010    -7998    -7943    -7933    -8024    -8137    -8112    -7981 
   -7917    -7929    -7939    -7933    -7948    -8044    -8163    -8133 
   -7948    -7797    -7811    -7960    -8094    -8075    -7983    -7990 
   -8047    -7978    -7894    -8020    -8125    -8060    -8017    -7979 
   -7954    -7919    -7819    -7900    -8083    -8085    -8082    -8068 
   -7877    -7861    -8081    -8077    -7969    -8054    -8117    -8052 
   -7939    -7762    -7686    -7835    -7962    -8008    -8116    -8128 
   -8112    -8225    -8109    -7850    -7888    -8032    -8033    -7963 
   -7916    -7921    -7920    -7866    -7890    -8021    -8037    -8056 
   -8140    -8051    -7981    -7950    -7848    -7913    -7909    -7858 
   -8124    -8259    -8059    -7911    -7836    -7836    -7947    -8046 
   -8171    -8235    -8063    -7936    -8039    -8041    -7917    -7932 
   -7963    -7881    -7734    -7713    -8035    -8276    -8198    -8170 
   -8105    -7912    -7742    -7742    -8060    -8236    -8081    -7973 
   -7929    -7894    -7847    -7875    -8056    -8160    -8104    -8081 
   -8144    -7992    -7716    -7771    -7944    -8016    -8082    -8106 
   -8160    -8149    -7965    -7796    -7643    -7619    -7912    -8110 
   -8024    -7973    -7944    -7915    -7959    -8033    -8232    -8372 
   -8237    -8159    -8214    -8109    -7867    -7624    -7550    -7730 
   -7896    -7959    -8005    -8087    -8324    -8349    -7981    -7807 
   -7786    -7600    -7669    -8054    -8333    -8392    -8320    -8163 
   -7920    -7892    -8155    -8158    -7958    -7933    -7866    -7776 
   -7792    -7866    -8116    -8240    -8036    -7933    -7832    -7546 
   -7623    -8102    -8338    -8263    -8176    -8066    -7888    -7744 
   -7670    -7723    -7992    -8322    -8390    -8280    -8191    -7881 
   -7553    -7595    -7696    -7873    -8212    -8257    -8109    -8104 
   -8082    -8055    -8120    -8056    -7931    -7967    -7884    -7670 
   -7758    -8019    -8062    -7960    -7929    -7965    -8024    -8075 
   -8079    -8135    -8128    -7911    -7739    -7762    -7951    -8270 
   -8548    -8530    -8009    -7468    -7635    -8048    -7867    -7484 
   -7681    -8170    -8243    -7978    -7747    -7782    -8329    -8884 
   -8691    -8013    -7527    -7541    -7875    -8035    -8089    -8202 
   -7978    -7736    -8005    -8070    -7649    -7672    -8160    -8332 
   -8217    -8074    -7894    -7861    -7966    -8077    -8129    -7974 
   -7902    -8144    -8094    -7684    -7703    -8054    -8127    -8039 
   -7935    -7854    -8075    -8260    -7908    -7588    -7697    -7749 
   -7929    -8511    -8538    -7875    -7696    -7877    -7766    -7735 
   -7900    -8194    -8546    -8486    -8133    -7879    -7619    -7431 
   -7627    -8031    -8166    -8048    -8020    -8151    -8343    -8480 
   -8444    -8280    -8101    -7724    -7190    -7167    -7796    -8309 
   -8279    -7962    -7668    -7649    -8041    -8334    -8062    -7797 
   -7875    -7954    -8063    -8175    -8247    -8498    -8503    -8009 
   -7875    -8365    -8587    -8197    -7816    -7769    -7576    -7250 
   -7514    -8131    -8232    -7709    -7192    -7157    -7322    -7614 
   -8374    -9047    -8931    -8607    -8606    -8387    -7927    -7812 
   -7905    -7803    -7651    -7834    -8089    -7963    -7736    -7777 
   -7990    -8002    -7877    -8083    -8256    -7902    -7587    -7813 
   -8083    -8017    -8070    -8102    -7681    -7518    -7970    -8302 
   -8313    -8257    -7974    -7677    -7954    -8486    -8533    -8221 
   -8035    -7892    -7666    -7676    -7897    -8047    -8079    -7821 
   -7503    -7615    -7785    -7913    -8293    -8274    -7824    -7708 
   -7821    -8001    -8259    -8271    -8172    -8322    -8523    -8467 
   -8168    -7827    -7632    -7527    -7472    -7666    -7948    -8122 
   -8347    -8321    -7892    -7647    -7797    -8023    -7944    -7601 
   -7593    -7809    -7946    -8471    -9047    -8881    -8314    -7857 
   -7619    -7766    -8129    -8275    -8202    -8110    -7847    -7469 
   -7434    -7708    -7927    -8063    -8164    -8048    -7587    -7222 
   -7549    -8179    -8240    -8056    -8441    -8915    -8812    -8581 
   -8615    -8434    -7708    -6968    -6697    -6909    -7524    -8009 
   -8044    -8014    -7892    -7695    -7893    -8186    -8164    -8166 
   -8336    -8496    -8398    -8058    -7878    -7786    -7614    -7654 
   -7875    -8129    -8374    -8434    -8405    -8388    -8476    -8772 
   -8680    -7885    -7229    -7063    -6980    -7037    -7342    -7641 
   -7925    -8383    -8772    -8745    -8463    -8145    -7931    -7956 
   -7985    -7875    -7805    -8029    -8482    -8452    -8002    -7890 
   -7834    -7580    -7751    -8380    -8662    -8174    -7389    -7003 
   -6995    -7092    -7684    -8716    -9166    -8806    -8287    -7803 
   -7554    -7955    -8564    -8706    -8413    -7921    -7433    -7117 
   -7083    -7376    -7672    -7793    -8051    -8403    -8586    -8564 
   -8397    -8310    -8191    -7604    -6936    -7049    -7905    -8721 
   -9026    -9008    -8912    -8480    -7803    -7538    -7456    -7157 
   -6972    -6826    -6890    -7580    -8225    -8488    -8681    -8536 
   -8283    -8341    -8321    -8318    -8756    -9063    -8549    -7661 
   -7366    -7794    -8262    -8359    -8078    -7391    -6640    -6420 
   -6790    -7329    -7843    -8573    -9262    -9232    -8773    -8604 
   -8565    -8208    -7755    -7564    -7526    -7626    -7881    -8009 
   -7893    -7735    -7763    -7812    -7591    -7470    -7900    -8479 
   -8583    -8226    -7909    -7960    -8093    -7896    -7763    -8197 
   -8758    -8876    -8710    -8652    -8590    -8156    -7423    -6913 
   -6831    -6852    -6840    -6948    -7307    -7992    -8610    -8692 
   -8590    -8586    -8283    -7807    -7685    -7862    -8249    -8750 
   -8876    -8538    -7847    -6990    -6781    -7287    -7681    -7877 
   -8094    -8122    -7719    -6984    -6423    -6324    -6733    -7852 
   -9289   -10184   -10578   -10970   -11160   -10912   -10706   -10713 
  -10189    -8985    -7994    -7483    -7052    -6777    -6718    -6754 
   -6963    -6941    -6158    -5119    -4924    -6249    -8899   -11977 
  -14416   -15296   -14189   -11461    -7958    -4722    -2867    -2972 
   -4546    -6357    -7368    -7334    -6430    -4969    -3766    -3595 
   -4425    -6104    -8488   -10478   -10866   -10091    -9441    -9526 
  -10314   -10935   -10048    -7623    -4843    -2177      376     1532 
    -359    -5042   -10771   -15716   -18111   -17096   -13761   -10269 
   -7970    -6627    -5329    -3786    -2343    -1216     -832    -2427 
   -6705   -12181   -16178   -16939   -14069    -8954    -4923    -4330 
   -6141    -7921    -8796    -9335    -9855   -10224   -10345   -10245 
  -10326   -10525    -9734    -7553    -5162    -3935    -4191    -5204 
   -6517    -8100    -9242    -9462    -9289    -8887    -8108    -7765 
   -8345    -8662    -7848    -7250    -8031    -8463    -7242    -6589 
   -8226   -10366   -10956   -10214    -9013    -7751    -7325    -8652 
  -10559   -10381    -7411    -3982    -2830    -4718    -8284   -11510 
  -13286   -13504   -12009    -8706    -4857    -2504    -1819    -1358 
   -1356    -3240    -6386    -9086   -10737   -11280   -10793    -9693 
   -8409    -7512    -7615    -8596    -9938   -11030   -10767    -9022 
   -7257    -6276    -5710    -5421    -5632    -6319    -7195    -8105 
   -9059    -9846    -9886    -8935    -7925    -7661    -7416    -6891 
   -6870    -6997    -6415    -5467    -5244    -6967   -10380   -13069 
  -13377   -11847    -9713    -8174    -7827    -8591   -10434   -12332 
  -12351   -10324    -7734    -5331    -3233    -1877    -1660    -2816 
   -5310    -7955    -9200    -9433   -10052   -10831   -11129   -11218 
  -10709    -9054    -6917    -5096    -3997    -4129    -5817    -8402 
  -10555   -11570   -11506   -10639    -9239    -7464    -5994    -5825 
   -7118    -9204   -10798   -10794    -9535    -7965    -6513    -5626 
   -5640    -6238    -6804    -6635    -5595    -5053    -6291    -8272 
   -9269    -9128    -8564    -8124    -7857    -7136    -5968    -5651 
   -6698    -8191    -9734   -11434   -12545   -12128   -10407    -8523 
   -7017    -5975    -6038    -6883    -6871    -5771    -4699    -4180 
   -4468    -5859    -8102   -10434   -12229   -13354   -13668   -12950 
  -11026    -7927    -4955    -3657    -3709    -4380    -5726    -7273 
   -8456    -9375   -10006   -10531   -11259   -11651   -11196    -9969 
   -8402    -7485    -7434    -7063    -6035    -5332    -5394    -5811 
   -6070    -5925    -5756    -6417    -8120    -9875   -10747   -10822 
  -10489   -10072    -9900    -9799    -9324    -8571    -7886    -7042 
   -5638    -4077    -3265    -3925    -6286    -9431   -11693   -12387 
  -12052   -10979    -9019    -6592    -4666    -3831    -4186    -5524 
   -6880    -7418    -7674    -8334    -8946    -8733    -7765    -6982 
   -7038    -7815    -9186   -10921   -12140   -12037   -10585    -8622 
   -7419    -7399    -7554    -6670    -4896    -3481    -3168    -4048 
   -6011    -8337   -10201   -11304   -11516   -11021   -10432    -9979 
   -9425    -8915    -8731    -8438    -7399    -5907    -5019    -5282 
   -6358    -7867    -9297    -9651    -8727    -7549    -6663    -5769 
   -5247    -6048    -7962    -9659   -10285    -9887    -8870    -7659 
   -6582    -5884    -5825    -6751    -8598   -10343   -10976   -10592 
   -9840    -8943    -7739    -6542    -6207    -6917    -7878    -8491 
   -8783    -8766    -8322    -7808    -7911    -8780   -10014   -10953 
  -10800    -9351    -7160    -4899    -3438    -3651    -5594    -8348 
  -10632   -11551   -10947    -9235    -7304    -6210    -6253    -6720 
   -7069    -7493    -8023    -8171    -7638    -6852    -6667    -7241 
   -7803    -8060    -8646    -9764   -10759   -11020   -10380    -9070 
   -7659    -6620    -6095    -6091    -6538    -7217    -7697    -7723 
   -7634    -7884    -8495    -9167    -9497    -9086    -7994    -7140 
   -7194    -7501    -7384    -7226    -7488    -8087    -8718    -8961 
   -8608    -7983    -7549    -7477    -7515    -7065    -5952    -4752 
   -3959    -3807    -4683    -6450    -8171    -9297    -9892    -9869 
   -9389    -9154    -9397    -9695    -9859    -9949    -9845    -9540 
   -9246    -9120    -9193    -9223    -9032    -8808    -8533    -7965 
   -7152    -6419    -6210    -6839    -8105    -9435   -10372   -10678 
  -10127    -8725    -7142    -6239    -6048    -5934    -5649    -5452 
   -5580    -6012    -6508    -7110    -8178    -9736   -11384   -12596 
  -12953   -12387   -11145    -9609    -8205    -7226    -6556    -5799 
   -4773    -3666    -2890    -2847    -3514    -4514    -5660    -6880 
   -7987    -8962   -10003   -11030   -11526   -11261   -10736   -10531 
  -10835   -11508   -12039   -11863   -10864    -9248    -7295    -5502 
   -4430    -4182    -4473    -5167    -6224    -7352    -8212    -8833 
   -9382    -9761    -9648    -8942    -7978    -7036    -6092    -5347 
   -5108    -5267    -5688    -6492    -7547    -8411    -8824    -8876 
   -8753    -8533    -8361    -8495    -8911    -9290    -9405    -9347 
   -9321    -9283    -9109    -8780    -8294    -7792    -7437    -7177 
   -6978    -6841    -6662    -6426    -6432    -6947    -7746    -8413 
   -8864    -9207    -9417    -9301    -8685    -7676    -6567    -5478 
   -4491    -4077    -4793    -6624    -9058   -11523   -13324   -13744 
  -12650   -10702    -8842    -7533    -6673    -6214    -6273    -6762 
   -7333    -7778    -8158    -8374    -8271    -8060    -8046    -8187 
   -8217    -7920    -7395    -7076    -7226    -7661    -8159    -8652 
   -8986    -8974    -8586    -7893    -7128    -6698    -6794    -7168 
   -7466    -7609    -7765    -7932    -7900    -7618    -7272    -7067 
   -7059    -7083    -6974    -6771    -6632    -6723    -7049    -7416 
   -7773    -8328    -9185   -10076   -10701   -10968   -10736    -9922 
   -8808    -7777    -7007    -6513    -6187    -5987    -6065    -6546 
   -7395    -8544    -9877   -11049   -11561   -11145   -10048    -8824 
   -7974    -7682    -7835    -8202    -8445    -8151    -7334    -6539 
   -6247    -6396    -6573    -6536    -6330    -6084    -5961    -6106 
   -6531    -7203    -8051    -8849    -9408    -9829   -10210   -10322 
