Origin Time       2025/03/28 03:50:00
Lat.              35.403
Long.             140.360
Depth. (km)       54
Mag.              4.4
Station Code      CHBH06
Station Lat.      35.7215
Station Long.     140.5046
Station Height(m) -145
Record Time       2025/03/28 03:50:49
Sampling Freq(Hz) 100Hz
Duration Time(s)  120
Dir.              2
Scale Factor      3923(gal)/8224838
Max. Acc. (gal)   3.545
Last Correction   2025/03/28 03:50:49
Memo.             
[...]
   -6957    -6960    -6961    -6959    -6956    -6957    -6963    -6963 
   -6955    -6956    -6961    -6959    -6956    -6955    -6955    -6956 
   -6955    -6957    -6957    -6951    -6953    -6961    -6956    -6949 
   -6955    -6956    -6951    -6952    -6956    -6953    -6951    -6953 
   -6959    -6957    -6956    -6957    -6953    -6951    -6953    -6953 
   -6955    -6955    -6952    -6949    -6949    -6951    -6951    -6948 
   -6948    -6951    -6951    -6952    -6953    -6956    -6952    -6947 
   -6949    -6952    -6952    -6951    -6951    -6953    -6955    -6956 
   -6956    -6953    -6951    -6948    -6944    -6947    -6951    -6951 
   -6951    -6951    -6951    -6952    -6949    -6945    -6945    -6949 
   -6951    -6955    -6953    -6947    -6948    -6951    -6945    -6947 
   -6952    -6949    -6949    -6952    -6949    -6947    -6948    -6948 
   -6947    -6948    -6948    -6948    -6949    -6949    -6947    -6945 
   -6948    -6948    -6948    -6951    -6948    -6948    -6951    -6949 
   -6948    -6953    -6953    -6949    -6951    -6951    -6948    -6949 
   -6948    -6948    -6951    -6948    -6947    -6947    -6947    -6949 
   -6952    -6951    -6948    -6947    -6948    -6953    -6955    -6952 
   -6951    -6951    -6951    -6951    -6952    -6955    -6952    -6951 
   -6949    -6951    -6952    -6951    -6949    -6951    -6952    -6953 
   -6955    -6952    -6949    -6951    -6953    -6953    -6953    -6953 
   -6951    -6949    -6951    -6952    -6953    -6953    -6952    -6952 
   -6952    -6953    -6956    -6957    -6956    -6956    -6955    -6953 
   -6956    -6960    -6957    -6953    -6953    -6953    -6953    -6955 
   -6957    -6959    -6952    -6952    -6956    -6953    -6952    -6960 
   -6959    -6955    -6955    -6956    -6957    -6956    -6953    -6955 
   -6955    -6951    -6952    -6956    -6955    -6956    -6959    -6959 
   -6957    -6959    -6957    -6953    -6955    -6956    -6955    -6956 
   -6956    -6957    -6959    -6957    -6956    -6956    -6957    -6956 
   -6957    -6960    -6957    -6955    -6955    -6957    -6961    -6960 
   -6953    -6956    -6960    -6957    -6957    -6960    -6957    -6959 
   -6959    -6953    -6953    -6959    -6960    -6955    -6955    -6959 
   -6959    -6955    -6956    -6963    -6959    -6953    -6955    -6956 
   -6955    -6957    -6957    -6957    -6959    -6957    -6956    -6959 
   -6957    -6955    -6956    -6959    -6957    -6956    -6956    -6953 
   -6953    -6955    -6952    -6953    -6957    -6953    -6949    -6953 
   -6955    -6949    -6951    -6956    -6953    -6949    -6952    -6953 
   -6949    -6949    -6955    -6951    -6945    -6949    -6952    -6949 
   -6948    -6952    -6952    -6944    -6948    -6953    -6947    -6947 
   -6948    -6947    -6949    -6951    -6949    -6949    -6947    -6947 
   -6949    -6949    -6948    -6948    -6949    -6951    -6947    -6947 
   -6951    -6951    -6951    -6951    -6949    -6949    -6953    -6951 
   -6948    -6948    -6945    -6945    -6948    -6945    -6943    -6951 
   -6953    -6948    -6948    -6949    -6949    -6949    -6951    -6949 
   -6948    -6953    -6952    -6945    -6948    -6949    -6947    -6948 
   -6949    -6948    -6948    -6945    -6947    -6949    -6948    -6947 
   -6947    -6947    -6951    -6951    -6947    -6948    -6945    -6944 
   -6951    -6953    -6951    -6951    -6951    -6947    -6945    -6949 
   -6949    -6948    -6951    -6955    -6953    -6951    -6951    -6953 
   -6955    -6953    -6949    -6951    -6955    -6955    -6952    -6951 
   -6956    -6957    -6953    -6952    -6955    -6955    -6952    -6953 
   -6953    -6955    -6956    -6956    -6952    -6952    -6953    -6953 
   -6956    -6960    -6960    -6955    -6951    -6953    -6953    -6953 
   -6955    -6959    -6959    -6953    -6953    -6956    -6957    -6955 
   -6953    -6953    -6955    -6952    -6951    -6953    -6952    -6952 
   -6956    -6956    -6952    -6952    -6953    -6953    -6952    -6952 
   -6951    -6952    -6953    -6952    -6952    -6953    -6956    -6951 
   -6944    -6949    -6956    -6956    -6955    -6955    -6953    -6951 
   -6951    -6953    -6953    -6953    -6953    -6953    -6955    -6952 
   -6947    -6949    -6955    -6953    -6949    -6947    -6947    -6952 
   -6953    -6949    -6953    -6953    -6948    -6951    -6952    -6949 
   -6949    -6955    -6956    -6957    -6956    -6955    -6953    -6952 
   -6951    -6952    -6955    -6956    -6956    -6955    -6957    -6956 
   -6953    -6955    -6956    -6956    -6959    -6957    -6955    -6953 
   -6953    -6955    -6957    -6955    -6953    -6955    -6957    -6959 
   -6960    -6961    -6960    -6955    -6956    -6959    -6957    -6959 
   -6960    -6959    -6961    -6960    -6956    -6956    -6955    -6955 
   -6957    -6960    -6960    -6955    -6955    -6959    -6959    -6959 
   -6960    -6959    -6956    -6957    -6957    -6955    -6957    -6955 
   -6952    -6959    -6960    -6957    -6959    -6960    -6957    -6955 
   -6953    -6955    -6959    -6960    -6960    -6957    -6957    -6960 
   -6961    -6956    -6953    -6956    -6959    -6959    -6959    -6957 
   -6959    -6960    -6959    -6959    -6955    -6957    -6963    -6959 
   -6956    -6957    -6955    -6953    -6961    -6964    -6957    -6953 
   -6957    -6960    -6960    -6960    -6957    -6955    -6960    -6964 
   -6959    -6956    -6961    -6961    -6957    -6956    -6956    -6955 
   -6957    -6961    -6961    -6961    -6957    -6953    -6956    -6957 
   -6955    -6957    -6957    -6961    -6976    -6991    -7005    -7009 
   -6990    -6961    -6947    -6924    -6875    -6867    -6936    -6986 
   -6951    -6912    -6951    -7025    -7057    -7032    -6967    -6894 
   -6849    -6829    -6810    -6841    -6934    -6995    -6998    -7002 
   -6987    -6914    -6894    -6997    -7014    -6833    -6758    -6949 
   -7113    -7088    -7052    -7061    -7082    -7119    -7051    -6907 
   -6887    -6858    -6696    -6713    -6991    -7109    -6953    -6932 
   -7119    -7118    -6929    -6936    -7024    -6903    -6848    -6952 
   -6862    -6745    -6948    -7109    -6986    -6932    -6956    -6801 
   -6708    -6894    -6990    -6853    -6894    -7076    -6995    -6943 
   -7261    -7364    -6937    -6729    -6983    -6984    -6620    -6493 
   -6644    -6712    -6859    -7223    -7303    -7025    -7002    -7254 
   -7327    -7234    -7172    -7094    -6979    -6920    -6863    -6687 
   -6646    -7032    -7341    -6951    -6359    -6408    -6953    -7317 
   -7245    -6961    -6755    -6756    -6883    -6883    -6754    -6820 
   -7128    -7294    -7114    -6847    -6764    -6839    -6984    -7034 
   -6745    -6376    -6571    -7207    -7406    -7106    -7074    -7373 
   -7446    -7103    -6708    -6728    -7015    -6963    -6589    -6596 
   -7055    -7182    -6735    -6389    -6605    -7095    -7379    -7269 
   -6895    -6778    -7258    -7632    -7213    -6644    -6698    -6902 
   -6658    -6482    -6812    -7099    -7114    -7227    -7260    -6957 
   -6837    -7099    -7107    -6802    -6701    -6669    -6484    -6643 
   -7314    -7703    -7306    -6778    -6786    -7005    -6922    -6675 
   -6639    -6791    -6924    -7059    -7281    -7465    -7373    -7083 
   -6936    -6932    -6917    -6948    -6897    -6651    -6567    -6876 
   -7121    -6963    -6890    -7103    -6949    -6502    -6685    -7349 
   -7501    -7087    -6710    -6548    -6546    -6700    -6883    -7021 
   -7241    -7496    -7361    -6793    -6501    -6828    -7236    -7298 
   -7090    -6764    -6570    -6795    -7290    -7496    -7169    -6804 
   -6841    -6840    -6430    -6284    -6795    -7141    -6848    -6635 
   -6917    -7098    -6902    -6983    -7545    -7743    -7217    -6713 
   -6704    -6885    -6998    -7060    -7013    -6817    -6632    -6613 
   -6808    -7133    -7265    -7101    -7006    -6979    -6627    -6336 
   -6689    -7114    -7060    -7025    -7187    -7118    -7045    -7222 
   -7024    -6405    -6462    -7372    -7912    -7576    -7149    -7069 
   -6993    -6882    -6936    -6890    -6566    -6377    -6575    -6772 
   -6783    -6928    -7190    -7273    -7308    -7292    -6841    -6274 
   -6318    -6709    -6839    -6886    -7155    -7333    -7222    -7246 
   -7508    -7442    -6988    -6813    -7051    -7086    -6833    -6878 
   -7130    -7026    -6739    -6608    -6427    -6242    -6512    -7132 
   -7410    -7091    -6683    -6759    -7230    -7561    -7414    -6901 
   -6561    -6762    -7114    -7150    -7034    -7022    -7048    -7014 
   -6862    -6678    -6801    -7179    -7217    -6826    -6701    -7024 
   -7117    -6859    -6851    -7076    -7064    -6932    -6974    -6949 
   -6747    -6774    -6980    -6940    -6870    -6956    -6860    -6631 
   -6612    -6777    -7037    -7342    -7383    -7115    -7002    -7078 
   -6933    -6720    -6879    -7218    -7209    -6860    -6590    -6558 
   -6652    -6836    -7148    -7364    -7207    -6878    -6768    -6959 
   -7225    -7294    -7064    -6794    -6890    -7168    -7007    -6578 
   -6624    -7056    -7101    -6748    -6677    -6932    -7094    -7291 
   -7662    -7654    -7001    -6519    -6756    -6995    -6820    -6851 
   -7045    -6702    -6311    -6673    -7018    -6667    -6523    -6917 
   -6976    -6752    -6953    -7179    -6856    -6601    -6871    -7091 
   -7150    -7558    -7881    -7403    -6845    -7083    -7391    -7098 
   -6821    -6820    -6706    -6662    -6822    -6762    -6616    -6795 
   -6987    -6990    -7105    -7182    -6941    -6786    -7056    -7408 
   -7503    -7283    -6723    -6251    -6403    -6717    -6513    -6304 
   -6762    -7248    -7044    -6766    -7080    -7416    -7129    -6635 
   -6524    -6624    -6644    -6797    -7238    -7546    -7291    -6852 
   -6856    -7113    -7202    -7341    -7654    -7642    -7133    -6812 
   -7044    -7206    -6929    -6697    -6631    -6431    -6423    -6895 
   -7258    -7090    -6778    -6799    -7122    -7287    -7099    -6943 
   -7020    -7003    -6804    -6718    -6799    -6870    -6868    -6793 
   -6721    -6747    -6814    -6921    -7126    -7248    -7026    -6637 
   -6490    -6639    -6858    -7045    -7121    -7075    -7128    -7281 
   -7281    -7248    -7465    -7680    -7429    -6879    -6593    -6644 
   -6650    -6515    -6508    -6691    -6891    -7080    -7257    -7219 
   -6991    -6979    -7132    -6963    -6725    -6978    -7244    -6890 
   -6598    -7051    -7419    -7018    -6620    -6824    -7107    -7137 
   -7177    -7069    -6602    -6390    -6735    -6905    -6583    -6407 
   -6681    -6988    -7072    -7079    -7102    -7223    -7429    -7485 
   -7442    -7445    -7221    -6709    -6552    -6987    -7179    -6725 
   -6442    -6741    -6895    -6606    -6548    -6902    -7152    -7265 
   -7485    -7530    -7122    -6664    -6613    -6732    -6639    -6583 
   -6909    -7204    -7060    -6863    -6831    -6713    -6732    -7172 
   -7588    -7499    -7075    -6731    -6666    -6810    -6948    -6960 
   -6940    -7048    -7223    -7128    -6766    -6636    -6874    -7163 
   -7366    -7400    -7121    -6739    -6650    -6814    -6907    -6949 
   -7123    -7177    -6906    -6774    -7042    -7126    -6759    -6507 
   -6646    -6916    -7110    -7098    -6912    -6894    -7191    -7389 
   -7215    -7007    -6990    -6933    -6818    -6895    -7040    -6885 
   -6558    -6516    -6673    -6610    -6570    -6936    -7184    -6890 
   -6763    -7238    -7570    -7338    -7153    -7333    -7435    -7265 
   -7071    -6808    -6324    -5945    -6023    -6328    -6489    -6578 
   -6835    -7133    -7155    -6978    -6937    -7038    -7111    -7206 
   -7302    -7182    -6844    -6563    -6605    -6998    -7330    -7173 
   -6853    -6948    -7283    -7349    -7196    -7140    -7171    -7173 
   -7275    -7443    -7412    -7304    -7429    -7479    -7096    -6789 
   -6975    -7145    -7015    -6999    -7068    -6898    -6759    -6898 
   -6925    -6693    -6605    -6625    -6369    -6193    -6567    -6832 
   -6278    -5599    -5691    -6207    -6400    -6251    -6160    -6245 
   -6509    -7055    -7554    -7535    -7258    -7203    -7276    -7227 
   -7176    -7179    -6951    -6511    -6327    -6480    -6636    -6771 
   -7002    -7107    -6905    -6704    -6913    -7399    -7838    -8220 
   -8436    -8268    -7938    -7646    -7200    -6732    -6708    -7026 
   -7142    -6963    -6748    -6544    -6393    -6470    -6639    -6505 
   -5957    -5337    -5094    -5445    -6301    -7190    -7600    -7646 
   -7956    -8829    -9987   -11101   -11940   -12253   -11936   -11022 
   -9486    -7457    -5414    -3896    -2992    -2346    -1690    -1213 
   -1441    -2682    -4456    -5823    -6440    -6752    -7184    -7921 
   -9073   -10250   -10609    -9775    -8249    -6859    -6038    -5759 
   -5946    -6493    -7072    -7292    -6920    -6120    -5725    -6492 
   -7825    -8279    -7447    -6315    -5718    -5541    -5582    -6085 
   -7079    -8031    -8336    -7707    -6447    -5525    -5643    -6255 
   -6443    -6378    -6828    -7646    -8136    -8488    -9262    -9945 
   -9587    -8337    -7076    -6184    -5529    -5081    -4966    -5242 
   -5638    -5682    -5459    -5818    -7198    -8914   -10041   -10326 
   -9992    -9259    -8239    -7113    -6334    -6280    -6547    -6254 
   -5325    -4903    -5813    -7285    -8268    -8892    -9618   -10246 
  -10446   -10269    -9864    -9186    -8089    -6539    -4604    -2386 
    -378      480     -211    -1733    -3187    -4374    -5474    -6547 
   -7628    -8903   -10312   -11227   -11180   -10581   -10012    -9448 
   -8789    -8286    -7989    -7522    -6698    -5841    -5277    -4988 
   -4916    -5120    -5431    -5483    -5382    -5737    -6701    -7554 
   -7743    -7707    -7967    -8143    -7792    -7360    -7260    -7103 
   -6529    -5894    -5728    -5983    -6293    -6647    -7218    -7946 
   -8640    -9185    -9435    -9109    -8278    -7542    -7245    -7079 
   -6663    -5931    -5043    -4268    -3912    -4237    -5169    -6056 
   -6409    -6642    -7280    -8083    -8530    -8521    -8340    -8174 
   -7807    -7002    -6104    -5772    -6147    -6763    -7121    -6944 
   -6297    -5757    -5937    -6733    -7433    -7611    -7574    -7747 
   -8013    -8159    -8333    -8440    -8071    -7391    -6990    -6889 
   -6654    -6345    -6469    -6887    -6839    -6312    -6092    -6415 
   -6795    -7001    -7222    -7450    -7389    -7071    -6910    -6988 
   -7011    -7047    -7415    -7809    -7542    -6736    -6164    -6054 
   -6056    -6076    -6326    -6752    -7028    -7015    -6960    -6971 
   -6767    -6350    -6234    -6552    -6751    -6477    -6119    -6264 
   -6932    -7649    -8154    -8548    -8799    -8630    -8012    -7438 
   -7349    -7534    -7511    -7144    -6536    -5764    -5073    -4931 
   -5401    -5810    -5630    -5289    -5501    -6191    -6814    -7325 
   -7862    -8128    -7956    -7668    -7593    -7805    -8101    -8141 
   -7823    -7317    -6801    -6423    -6323    -6520    -6774    -6737 
   -6442    -6403    -6824    -7284    -7483    -7565    -7636    -7522 
   -7168    -6907    -7059    -7480    -7781    -7827    -7719    -7441 
   -6937    -6463    -6426    -6847    -7218    -7102    -6732    -6613 
   -6727    -6694    -6569    -6678    -6874    -6859    -6870    -7200 
   -7599    -7689    -7568    -7581    -7755    -7711    -7126    -6164 
   -5464    -5559    -6162    -6461    -6247    -6122    -6443    -6955 
   -7410    -7724    -7750    -7507    -7295    -7296    -7433    -7588 
   -7619    -7399    -7075    -6891    -6751    -6500    -6304    -6278 
   -6235    -6116    -6104    -6232    -6384    -6505    -6471    -6188 
   -5876    -5833    -6108    -6575    -6974    -7005    -6656    -6241 
   -6068    -6216    -6509    -6686    -6629    -6435    -6309    -6419 
   -6727    -7067    -7443    -7973    -8603    -9124    -9369    -9389 
   -9360    -9285    -8991    -8444    -7788    -7163    -6785    -6903 
   -7387    -7672    -7388    -6779    -6386    -6390    -6408    -6115 
   -5761    -5718    -5859    -5891    -5977    -6426    -6970    -7042 
   -6697    -6459    -6427    -6366    -6313    -6451    -6777    -7167 
   -7495    -7704    -7855    -8056    -8167    -7857    -7261    -7002 
   -7277    -7657    -7803    -7684    -7308    -6821    -6513    -6370 
   -6123    -5826    -5782    -5994    -6273    -6543    -6739    -6820 
   -6833    -6736    -6471    -6147    -5899    -5768    -5745    -5792 
   -5838    -5846    -5902    -6124    -6469    -6794    -7037    -7161 
   -7153    -7186    -7450    -7792    -7906    -7842    -7873    -7966 
   -7809    -7412    -7210    -7321    -7284    -6890    -6562    -6561 
   -6663    -6759    -6999    -7358    -7663    -7933    -8232    -8386 
   -8249    -7997    -7842    -7780    -7734    -7688    -7582    -7250 
   -6640    -6030    -5726    -5672    -5653    -5706    -6014    -6512 
   -6963    -7350    -7790    -8176    -8270    -7993    -7461    -6889 
   -6466    -6223    -6097    -6085    -6216    -6485    -6789    -7026 
   -7299    -7780    -8378    -8819    -8972    -8893    -8619    -8090 
   -7342    -6516    -5628    -4645    -3736    -3159    -2951    -2982 
   -3214    -3748    -4631    -5722    -6821    -7784    -8527    -9001 
   -9192    -9201    -9159    -9045    -8797    -8502    -8282    -8131 
   -7962    -7742    -7539    -7395    -7233    -7010    -6804    -6631 
   -6478    -6453    -6627    -6878    -7003    -6957    -6870    -6824 
   -6758    -6556    -6161    -5653    -5254    -5080    -5067    -5206 
   -5570    -6097    -6610    -7079    -7653    -8301    -8776    -9054 
   -9332    -9636    -9745    -9490    -8959    -8387    -7846    -7268 
   -6686    -6222    -5871    -5543    -5286    -5225    -5323    -5444 
   -5598    -5907    -6345    -6702    -6867    -6961    -7134    -7357 
   -7500    -7516    -7422    -7298    -7218    -7111    -6852    -6494 
   -6250    -6205    -6258    -6343    -6507    -6725    -6835    -6729 
   -6497    -6330    -6355    -6575    -6922    -7298    -7603    -7808 
   -7923    -7920    -7801    -7684    -7699    -7804    -7815    -7677 
   -7472    -7190    -6801    -6412    -6199    -6165    -6151    -6127 
   -6246    -6473    -6562    -6509    -6640    -7096    -7588    -7785 
   -7681    -7442    -7172    -6890    -6574    -6220    -5899    -5690 
   -5667    -5903    -6291    -6562    -6664    -6826    -7161    -7511 
   -7734    -7893    -8039    -8118    -8127    -8051    -7894    -7786 
   -7782    -7715    -7430    -7001    -6648    -6484    -6443    -6494 
   -6709    -7015    -7171    -7059    -6856    -6781    -6798    -6786 
   -6762    -6758    -6683    -6461    -6188    -6048    -6069    -6149 
   -6245    -6355    -6439    -6486    -6586    -6793    -6988    -7024 
   -6933    -6889    -6953    -7067    -7172    -7271    -7400    -7565 
   -7734    -7925    -8140    -8302    -8337    -8228    -8000    -7713 
   -7476    -7366    -7317    -7157    -6844    -6540    -6400    -6373 
   -6249    -5935    -5649    -5679    -6029    -6446    -6778    -7061 
   -7268    -7291    -7187    -7103    -6979    -6652    -6204    -5861 
   -5638    -5447    -5378    -5593    -6081    -6712    -7389    -8014 
   -8468    -8712    -8808    -8808    -8723    -8563    -8332    -8019 
