Origin Time       2025/03/28 03:50:00
Lat.              35.403
Long.             140.360
Depth. (km)       54
Mag.              4.4
Station Code      CHBH16
Station Lat.      35.1384
Station Long.     139.9649
Station Height(m) 160
Record Time       2025/03/28 03:50:50
Sampling Freq(Hz) 100Hz
Duration Time(s)  120
Dir.              4
Scale Factor      7845(gal)/8223790
Max. Acc. (gal)   4.255
Last Correction   2025/03/28 03:50:50
Memo.             
[...]
   -4689    -4687    -4688    -4691    -4691    -4691    -4689    -4687 
   -4688    -4691    -4689    -4691    -4693    -4691    -4689    -4692 
   -4691    -4688    -4688    -4691    -4689    -4688    -4688    -4689 
   -4688    -4689    -4691    -4688    -4685    -4688    -4691    -4689 
   -4689    -4689    -4688    -4688    -4687    -4688    -4688    -4687 
   -4688    -4689    -4691    -4689    -4688    -4689    -4689    -4688 
   -4688    -4688    -4689    -4691    -4689    -4688    -4692    -4691 
   -4688    -4688    -4689    -4689    -4691    -4692    -4691    -4688 
   -4689    -4688    -4685    -4687    -4691    -4691    -4691    -4689 
   -4688    -4689    -4689    -4687    -4689    -4691    -4691    -4693 
   -4693    -4691    -4688    -4691    -4692    -4691    -4691    -4689 
   -4688    -4688    -4688    -4688    -4691    -4692    -4688    -4689 
   -4689    -4688    -4692    -4692    -4688    -4687    -4691    -4692 
   -4689    -4687    -4688    -4688    -4688    -4691    -4692    -4692 
   -4687    -4683    -4689    -4693    -4691    -4689    -4689    -4685 
   -4685    -4688    -4689    -4689    -4688    -4689    -4689    -4687 
   -4688    -4688    -4688    -4688    -4691    -4688    -4685    -4687 
   -4689    -4688    -4687    -4692    -4693    -4691    -4691    -4689 
   -4687    -4689    -4689    -4687    -4688    -4689    -4688    -4689 
   -4688    -4687    -4689    -4689    -4689    -4689    -4689    -4689 
   -4689    -4689    -4691    -4689    -4689    -4689    -4691    -4692 
   -4691    -4688    -4689    -4691    -4688    -4688    -4688    -4691 
   -4692    -4691    -4689    -4691    -4691    -4691    -4689    -4689 
   -4693    -4692    -4691    -4692    -4691    -4688    -4689    -4691 
   -4691    -4692    -4691    -4689    -4689    -4689    -4691    -4693 
   -4695    -4693    -4692    -4693    -4691    -4687    -4689    -4695 
   -4693    -4693    -4695    -4693    -4692    -4692    -4693    -4692 
   -4692    -4692    -4692    -4691    -4688    -4688    -4691    -4693 
   -4693    -4692    -4692    -4691    -4691    -4693    -4692    -4692 
   -4692    -4691    -4689    -4689    -4689    -4691    -4692    -4691 
   -4692    -4692    -4689    -4689    -4688    -4687    -4687    -4688 
   -4689    -4692    -4692    -4691    -4689    -4689    -4689    -4688 
   -4689    -4692    -4692    -4689    -4689    -4689    -4688    -4689 
   -4689    -4691    -4691    -4691    -4689    -4687    -4689    -4691 
   -4693    -4696    -4691    -4687    -4688    -4689    -4691    -4693 
   -4692    -4689    -4689    -4687    -4685    -4689    -4692    -4693 
   -4692    -4689    -4688    -4687    -4688    -4691    -4691    -4691 
   -4692    -4688    -4687    -4691    -4691    -4689    -4693    -4695 
   -4692    -4689    -4688    -4688    -4688    -4689    -4691    -4689 
   -4688    -4688    -4688    -4689    -4691    -4692    -4692    -4689 
   -4688    -4688    -4687    -4687    -4689    -4692    -4692    -4689 
   -4687    -4688    -4689    -4691    -4689    -4689    -4691    -4691 
   -4689    -4688    -4685    -4684    -4687    -4689    -4691    -4692 
   -4692    -4689    -4688    -4688    -4688    -4691    -4689    -4689 
   -4692    -4691    -4688    -4688    -4689    -4688    -4687    -4689 
   -4692    -4689    -4688    -4688    -4687    -4689    -4689    -4689 
   -4691    -4692    -4693    -4692    -4689    -4689    -4689    -4689 
   -4692    -4692    -4689    -4688    -4689    -4691    -4691    -4689 
   -4691    -4693    -4691    -4688    -4691    -4691    -4689    -4692 
   -4691    -4689    -4689    -4689    -4691    -4693    -4695    -4693 
   -4691    -4691    -4689    -4691    -4695    -4692    -4689    -4693 
   -4695    -4691    -4689    -4691    -4691    -4692    -4693    -4692 
   -4691    -4688    -4688    -4691    -4691    -4693    -4693    -4691 
   -4689    -4689    -4689    -4692    -4692    -4691    -4692    -4691 
   -4689    -4691    -4688    -4689    -4691    -4691    -4692    -4691 
   -4689    -4691    -4689    -4688    -4691    -4693    -4692    -4689 
   -4689    -4689    -4689    -4689    -4688    -4688    -4689    -4688 
   -4689    -4691    -4687    -4684    -4687    -4691    -4689    -4689 
   -4692    -4689    -4687    -4688    -4689    -4688    -4688    -4689 
   -4688    -4685    -4685    -4685    -4688    -4692    -4689    -4688 
   -4687    -4687    -4687    -4688    -4688    -4689    -4689    -4687 
   -4687    -4688    -4687    -4688    -4689    -4689    -4689    -4689 
   -4688    -4687    -4688    -4689    -4685    -4687    -4689    -4689 
   -4688    -4692    -4696    -4700    -4706    -4708    -4714    -4720 
   -4726    -4727    -4729    -4730    -4731    -4727    -4715    -4698 
   -4676    -4654    -4630    -4604    -4587    -4575    -4563    -4557 
   -4563    -4576    -4600    -4635    -4683    -4733    -4777    -4811 
   -4822    -4810    -4773    -4720    -4664    -4608    -4561    -4531 
   -4522    -4537    -4579    -4646    -4725    -4806    -4876    -4918 
   -4924    -4900    -4851    -4787    -4710    -4637    -4579    -4538 
   -4526    -4544    -4581    -4633    -4685    -4731    -4770    -4801 
   -4830    -4854    -4874    -4885    -4884    -4865    -4831    -4777 
   -4707    -4634    -4563    -4507    -4475    -4461    -4471    -4517 
   -4606    -4743    -4909    -5067    -5181    -5215    -5152    -5009 
   -4815    -4615    -4449    -4328    -4240    -4191    -4198    -4267 
   -4388    -4545    -4722    -4882    -4978    -4970    -4862    -4711 
   -4573    -4473    -4415    -4387    -4371    -4378    -4426    -4529 
   -4685    -4866    -5036    -5159    -5202    -5159    -5039    -4880 
   -4745    -4669    -4634    -4604    -4538    -4428    -4328    -4301 
   -4356    -4461    -4572    -4679    -4801    -4942    -5078    -5171 
   -5185    -5111    -4951    -4722    -4464    -4217    -4029    -3954 
   -4027    -4240    -4517    -4756    -4903    -4957    -4958    -4972 
   -5019    -5058    -5030    -4915    -4741    -4563    -4436    -4395 
   -4432    -4506    -4599    -4687    -4745    -4781    -4815    -4849 
   -4870    -4857    -4804    -4714    -4612    -4557    -4579    -4657 
   -4749    -4815    -4837    -4823    -4787    -4764    -4800    -4891 
   -4992    -5055    -5069    -5065    -5049    -4995    -4874    -4673 
   -4414    -4153    -3958    -3878    -3931    -4090    -4309    -4542 
   -4761    -4941    -5085    -5198    -5267    -5269    -5178    -5000 
   -4765    -4511    -4276    -4104    -4039    -4095    -4249    -4471 
   -4708    -4908    -5040    -5108    -5116    -5057    -4918    -4714 
   -4487    -4286    -4159    -4126    -4178    -4299    -4461    -4627 
   -4781    -4905    -4992    -5024    -4989    -4887    -4725    -4534 
   -4383    -4328    -4384    -4542    -4758    -4969    -5107    -5138 
   -5069    -4946    -4824    -4746    -4706    -4675    -4630    -4591 
   -4584    -4608    -4654    -4722    -4810    -4903    -4981    -4996 
   -4911    -4733    -4514    -4332    -4237    -4225    -4275    -4369 
   -4490    -4626    -4780    -4934    -5065    -5147    -5169    -5135 
   -5057    -4942    -4808    -4680    -4591    -4571    -4627    -4719 
   -4783    -4774    -4696    -4580    -4475    -4422    -4438    -4515 
   -4622    -4712    -4765    -4783    -4777    -4762    -4743    -4715 
   -4665    -4592    -4517    -4463    -4433    -4425    -4433    -4450 
   -4487    -4542    -4599    -4648    -4680    -4693    -4700    -4707 
   -4711    -4716    -4726    -4742    -4760    -4772    -4769    -4746 
   -4714    -4693    -4680    -4654    -4627    -4607    -4602    -4607 
   -4608    -4619    -4677    -4795    -4955    -5124    -5243    -5279 
   -5219    -5063    -4851    -4635    -4460    -4359    -4333    -4365 
   -4434    -4507    -4568    -4621    -4675    -4743    -4830    -4926 
   -5001    -5030    -5008    -4955    -4887    -4800    -4680    -4531 
   -4380    -4261    -4203    -4205    -4241    -4282    -4314    -4359 
   -4444    -4573    -4727    -4864    -4949    -4963    -4909    -4823 
   -4757    -4738    -4754    -4784    -4814    -4842    -4870    -4889 
   -4899    -4927    -4986    -5058    -5124    -5152    -5119    -5020 
   -4872    -4696    -4531    -4403    -4320    -4274    -4253    -4263 
   -4329    -4465    -4644    -4822    -4962    -5027    -5005    -4918 
   -4792    -4662    -4549    -4446    -4348    -4274    -4251    -4301 
   -4422    -4576    -4718    -4827    -4897    -4930    -4919    -4853 
   -4735    -4595    -4484    -4438    -4452    -4484    -4495    -4471 
   -4446    -4460    -4513    -4568    -4579    -4548    -4523    -4557 
   -4661    -4816    -4974    -5092    -5151    -5143    -5071    -4953 
   -4808    -4658    -4509    -4371    -4282    -4259    -4291    -4369 
   -4482    -4627    -4799    -4968    -5100    -5170    -5170    -5111 
   -5012    -4905    -4828    -4799    -4803    -4820    -4834    -4841 
   -4845    -4834    -4799    -4739    -4668    -4592    -4531    -4502 
   -4507    -4530    -4557    -4588    -4633    -4696    -4785    -4882 
   -4954    -4970    -4928    -4837    -4707    -4557    -4415    -4303 
   -4218    -4174    -4197    -4287    -4417    -4569    -4742    -4915 
   -5051    -5127    -5119    -5016    -4841    -4648    -4495    -4415 
   -4401    -4434    -4503    -4594    -4692    -4780    -4845    -4889 
   -4926    -4954    -4953    -4914    -4834    -4725    -4612    -4534 
   -4506    -4545    -4652    -4799    -4934    -5009    -4990    -4891 
   -4760    -4650    -4594    -4588    -4615    -4635    -4637    -4618 
   -4565    -4472    -4365    -4287    -4252    -4248    -4260    -4279 
   -4303    -4355    -4459    -4622    -4819    -4996    -5103    -5119 
   -5061    -4974    -4907    -4876    -4861    -4828    -4764    -4680 
   -4602    -4554    -4556    -4590    -4638    -4688    -4720    -4734 
   -4729    -4710    -4696    -4695    -4712    -4750    -4791    -4830 
   -4880    -4931    -4961    -4958    -4931    -4877    -4785    -4666 
   -4563    -4499    -4491    -4533    -4599    -4661    -4695    -4689 
   -4656    -4608    -4564    -4542    -4546    -4567    -4596    -4635 
   -4685    -4752    -4826    -4900    -4969    -5015    -5007    -4918 
   -4737    -4500    -4275    -4125    -4089    -4152    -4280    -4430 
   -4588    -4762    -4943    -5112    -5259    -5362    -5382    -5310 
   -5147    -4914    -4661    -4442    -4294    -4222    -4216    -4260 
   -4340    -4434    -4533    -4637    -4737    -4819    -4873    -4907 
   -4947    -5005    -5067    -5100    -5074    -4981    -4833    -4657 
   -4514    -4455    -4482    -4560    -4641    -4692    -4707    -4683 
   -4608    -4491    -4359    -4234    -4129    -4044    -4004    -4036 
   -4144    -4314    -4521    -4730    -4914    -5058    -5170    -5240 
   -5265    -5250    -5190    -5078    -4923    -4754    -4599    -4479 
   -4402    -4360    -4348    -4369    -4430    -4526    -4633    -4730 
   -4806    -4862    -4895    -4897    -4884    -4884    -4912    -4962 
   -5004    -4992    -4914    -4800    -4711    -4685    -4703    -4722 
   -4720    -4698    -4654    -4598    -4531    -4465    -4417    -4411 
   -4465    -4561    -4671    -4769    -4831    -4834    -4784    -4706 
   -4629    -4565    -4511    -4480    -4486    -4536    -4626    -4730 
   -4826    -4888    -4891    -4837    -4764    -4700    -4665    -4669 
   -4700    -4735    -4765    -4800    -4845    -4899    -4945    -4947 
   -4881    -4766    -4645    -4545    -4483    -4465    -4482    -4529 
   -4603    -4677    -4729    -4750    -4741    -4696    -4623    -4545 
   -4476    -4419    -4371    -4344    -4368    -4475    -4657    -4865 
   -5049    -5161    -5182    -5124    -5009    -4880    -4777    -4704 
   -4646    -4590    -4533    -4483    -4448    -4429    -4428    -4452 
   -4509    -4591    -4680    -4769    -4851    -4899    -4891    -4833 
   -4753    -4679    -4614    -4561    -4541    -4569    -4658    -4792 
   -4930    -5044    -5120    -5146    -5116    -5027    -4878    -4689 
   -4500    -4355    -4272    -4249    -4268    -4313    -4369    -4430 
   -4502    -4581    -4649    -4683    -4688    -4669    -4627    -4575 
   -4523    -4487    -4490    -4554    -4661    -4783    -4903    -5022 
   -5124    -5186    -5188    -5128    -5016    -4874    -4729    -4596 
   -4494    -4441    -4438    -4486    -4567    -4650    -4711    -4737 
   -4731    -4711    -4691    -4681    -4695    -4733    -4772    -4789 
   -4770    -4725    -4666    -4602    -4534    -4461    -4391    -4337 
   -4310    -4313    -4355    -4432    -4530    -4638    -4750    -4860 
   -4954    -5015    -5028    -4982    -4870    -4706    -4509    -4311 
   -4153    -4063    -4052    -4121    -4255    -4426    -4604    -4768 
   -4905    -5012    -5074    -5077    -5008    -4878    -4711    -4552 
   -4453    -4456    -4567    -4754    -4965    -5146    -5256    -5283 
   -5229    -5103    -4915    -4695    -4471    -4267    -4114    -4043 
   -4052    -4140    -4290    -4472    -4656    -4810    -4903    -4927 
   -4893    -4838    -4806    -4835    -4939    -5105    -5317    -5559 
   -5811    -6048    -6246    -6390    -6474    -6498    -6467    -6392 
   -6276    -6129    -5965    -5790    -5589    -5366    -5128    -4862 
   -4554    -4205    -3831    -3488    -3258    -3217    -3381    -3728 
   -4201    -4722    -5198    -5555    -5736    -5711    -5475    -5046 
   -4475    -3829    -3152    -2466    -1806    -1210     -719     -376 
    -230     -334     -700    -1316    -2143    -3123    -4168    -5197 
   -6146    -6943    -7522    -7847    -7904    -7686    -7207    -6517 
   -5710    -4891    -4162    -3607    -3271    -3163    -3276    -3577 
   -3997    -4450    -4866    -5186    -5358    -5366    -5247    -5065 
   -4882    -4765    -4761    -4868    -5044    -5238    -5389    -5464 
   -5472    -5414    -5290    -5144    -5039    -5011    -5084    -5259 
   -5490    -5705    -5838    -5854    -5733    -5499    -5209    -4908 
   -4618    -4357    -4135    -3964    -3874    -3885    -4016    -4276 
   -4633    -5007    -5314    -5493    -5516    -5383    -5111    -4723 
   -4259    -3769    -3326    -3005    -2866    -2949    -3271    -3797 
   -4455    -5144    -5757    -6197    -6404    -6353    -6069    -5625 
   -5109    -4604    -4178    -3871    -3717    -3736    -3910    -4199 
   -4557    -4932    -5265    -5491    -5564    -5478    -5263    -4968 
   -4654    -4391    -4207    -4094    -4020    -3947    -3850    -3738 
   -3655    -3650    -3759    -4002    -4363    -4801    -5279    -5740 
   -6100    -6291    -6266    -6016    -5580    -5040    -4496    -4033 
   -3696    -3501    -3441    -3491    -3623    -3788    -3954    -4131 
   -4341    -4592    -4851    -5062    -5185    -5209    -5146    -5009 
   -4824    -4634    -4494    -4441    -4510    -4722    -5067    -5506 
   -5991    -6457    -6818    -6976    -6860    -6442    -5755    -4887 
   -3967    -3132    -2501    -2154    -2133    -2434    -3001    -3721 
   -4475    -5152    -5667    -5975    -6068    -5960    -5691    -5323 
   -4908    -4503    -4162    -3939    -3863    -3919    -4056    -4225 
   -4396    -4584    -4795    -5019    -5256    -5508    -5761    -5984 
   -6111    -6069    -5798    -5292    -4617    -3875    -3180    -2635 
   -2309    -2234    -2417    -2844    -3462    -4198    -4957    -5630 
   -6123    -6378    -6389    -6193    -5864    -5483    -5109    -4777 
   -4498    -4268    -4098    -3994    -3959    -3991    -4081    -4210 
   -4359    -4502    -4625    -4738    -4860    -4995    -5140    -5286 
   -5414    -5501    -5514    -5435    -5258    -4986    -4658    -4326 
   -4051    -3881    -3835    -3897    -4027    -4175    -4311    -4429 
   -4545    -4672    -4806    -4938    -5057    -5147    -5211    -5250 
   -5269    -5270    -5243    -5163    -5007    -4761    -4446    -4118 
   -3836    -3646    -3584    -3653    -3840    -4114    -4430    -4765 
   -5104    -5418    -5679    -5871    -5983    -6011    -5961    -5844 
   -5672    -5462    -5224    -4986    -4780    -4610    -4455    -4290 
   -4112    -3937    -3790    -3678    -3623    -3643    -3743    -3912 
   -4139    -4415    -4720    -5016    -5270    -5463    -5582    -5614 
   -5563    -5444    -5275    -5090    -4927    -4810    -4753    -4750 
   -4785    -4818    -4801    -4691    -4472    -4160    -3807    -3478 
   -3235    -3118    -3149    -3325    -3611    -3959    -4324    -4649 
   -4887    -5028    -5097    -5123    -5132    -5144    -5159    -5152 
   -5092    -4963    -4788    -4607    -4465    -4405    -4455    -4618 
   -4873    -5184    -5493    -5752    -5910    -5921    -5783    -5522 
   -5169    -4764    -4364    -4017    -3748    -3566    -3474    -3485 
   -3595    -3780    -4020    -4298    -4592    -4878    -5130    -5317 
   -5409    -5402    -5320    -5198    -5061    -4938    -4855    -4818 
   -4812    -4812    -4796    -4757    -4707    -4661    -4644    -4685 
   -4797    -4954    -5100    -5182    -5166    -5040    -4826    -4580 
   -4353    -4174    -4060    -4023    -4063    -4172    -4342    -4567 
   -4820    -5058    -5246    -5358    -5375    -5297    -5117    -4851 
   -4544    -4243    -3991    -3836    -3794    -3846    -3955    -4091 
   -4239    -4386    -4527    -4666    -4808    -4954    -5100    -5236 
   -5362    -5464    -5520    -5512    -5435    -5300    -5127    -4941 
   -4756    -4575    -4407    -4268    -4167    -4102    -4082    -4101 
   -4144    -4198    -4259    -4325    -4395    -4460    -4507    -4545 
   -4588    -4645    -4715    -4793    -4866    -4912    -4930    -4926 
   -4908    -4892    -4884    -4880    -4897    -4961    -5071    -5209 
   -5350    -5468    -5553    -5590    -5571    -5491    -5331    -5085 
   -4787    -4480    -4207    -4001    -3874    -3821    -3831    -3879 
   -3947    -4029    -4112    -4183    -4234    -4255    -4240    -4199 
   -4168    -4175    -4236    -4361    -4538    -4716    -4855    -4935 
   -4939    -4880    -4792    -4719    -4684    -4691    -4735    -4814 
   -4915    -5028    -5136    -5232    -5312    -5366    -5387    -5379 
   -5336    -5259    -5155    -5040    -4928    -4819    -4707    -4602 
   -4507    -4442    -4423    -4442    -4480    -4526    -4556    -4563 
   -4552    -4531    -4517    -4515    -4522    -4533    -4538    -4529 
   -4507    -4476    -4437    -4396    -4357    -4345    -4379    -4459 
   -4575    -4704    -4823    -4911    -4959    -4974    -4977    -4990 
   -5030    -5096    -5173    -5238    -5262    -5221    -5111    -4935 
   -4711    -4467    -4237    -4059    -3960    -3952    -4029    -4174 
   -4365    -4592    -4847    -5112    -5373    -5616    -5819    -5962 
   -6019    -5965    -5795    -5506    -5104    -4621    -4110    -3632 
   -3249    -3006    -2911    -2949    -3102    -3348    -3666    -4045 
   -4477    -4935    -5379    -5764    -6041    -6164    -6110    -5892 
   -5555    -5151    -4731    -4336    -3991    -3715    -3514    -3392 
   -3358    -3418    -3570    -3809    -4108    -4436    -4752    -5007 
   -5171    -5235    -5201    -5104    -4997    -4916    -4888    -4920 
   -5001    -5111    -5223    -5317    -5377    -5381    -5335    -5246 
   -5112    -4949    -4770    -4591    -4429    -4309    -4248    -4251 
   -4307    -4399    -4499    -4583    -4646    -4685    -4692    -4680 
