Origin Time       2025/03/28 03:50:00
Lat.              35.403
Long.             140.360
Depth. (km)       54
Mag.              4.4
Station Code      CHBH16
Station Lat.      35.1384
Station Long.     139.9649
Station Height(m) 160
Record Time       2025/03/28 03:50:50
Sampling Freq(Hz) 100Hz
Duration Time(s)  120
Dir.              6
Scale Factor      7845(gal)/8223790
Max. Acc. (gal)   1.287
Last Correction   2025/03/28 03:50:50
Memo.             
[...]
   27248    27247    27249    27251    27248    27248    27247    27245 
   27248    27247    27245    27248    27245    27245    27248    27247 
   27245    27247    27248    27248    27247    27245    27248    27247 
   27245    27249    27249    27247    27251    27249    27245    27247 
   27248    27248    27249    27249    27251    27247    27244    27247 
   27245    27245    27251    27249    27248    27251    27248    27247 
   27249    27249    27248    27248    27248    27248    27248    27249 
   27249    27248    27249    27248    27247    27251    27248    27248 
   27251    27249    27248    27249    27247    27248    27248    27248 
   27248    27247    27247    27249    27249    27248    27249    27248 
   27251    27249    27243    27245    27249    27247    27251    27253 
   27245    27244    27247    27247    27248    27244    27244    27248 
   27245    27245    27248    27247    27247    27247    27245    27247 
   27248    27248    27248    27245    27245    27245    27243    27245 
   27248    27245    27248    27247    27244    27245    27244    27244 
   27247    27247    27248    27248    27244    27245    27248    27248 
   27248    27247    27245    27248    27247    27245    27247    27244 
   27245    27249    27247    27244    27244    27244    27248    27248 
   27247    27248    27248    27245    27247    27247    27248    27248 
   27247    27249    27251    27247    27247    27248    27249    27248 
   27248    27248    27245    27244    27249    27251    27249    27249 
   27248    27247    27248    27248    27249    27249    27247    27248 
   27248    27245    27247    27248    27247    27251    27252    27248 
   27248    27248    27248    27249    27248    27248    27248    27247 
   27247    27245    27247    27249    27249    27249    27249    27245 
   27245    27249    27248    27245    27248    27248    27247    27245 
   27247    27249    27248    27247    27248    27249    27248    27247 
   27247    27249    27249    27245    27248    27249    27248    27251 
   27249    27247    27247    27247    27248    27249    27247    27249 
   27252    27249    27247    27247    27247    27248    27248    27247 
   27249    27251    27249    27245    27243    27248    27249    27247 
   27249    27249    27247    27248    27248    27248    27251    27248 
   27248    27248    27248    27248    27247    27247    27251    27248 
   27245    27247    27248    27249    27249    27245    27245    27247 
   27247    27249    27248    27245    27247    27247    27247    27248 
   27247    27247    27247    27249    27249    27247    27248    27249 
   27245    27244    27248    27247    27245    27251    27248    27245 
   27247    27248    27251    27251    27247    27248    27247    27245 
   27248    27248    27248    27251    27248    27248    27248    27247 
   27248    27248    27247    27249    27248    27247    27248    27247 
   27247    27249    27248    27248    27247    27244    27247    27248 
   27247    27248    27247    27248    27249    27247    27248    27249 
   27247    27248    27251    27248    27249    27251    27251    27251 
   27247    27247    27249    27247    27248    27251    27249    27249 
   27247    27245    27248    27249    27247    27245    27240    27234 
   27225    27206    27186    27160    27128    27099    27072    27045 
   27028    27012    26998    26994    26994    27008    27039    27093 
   27175    27278    27391    27507    27608    27681    27720    27722 
   27685    27616    27521    27411    27295    27190    27118    27089 
   27109    27183    27295    27425    27552    27646    27696    27691 
   27633    27530    27379    27199    27037    26917    26847    26829 
   26856    26933    27048    27174    27307    27433    27526    27584 
   27610    27614    27594    27534    27444    27326    27187    27047 
   26920    26813    26739    26696    26700    26766    26878    27022 
   27184    27332    27448    27521    27537    27507    27432    27333 
   27245    27156    27037    26896    26765    26688    26686    26759 
   26914    27148    27421    27696    27945    28115    28150    28027 
   27783    27471    27135    26829    26612    26523    26585    26759 
   26973    27195    27402    27535    27568    27517    27437    27355 
   27256    27144    27048    26993    26986    27036    27133    27256 
   27386    27526    27675    27785    27807    27730    27571    27346 
   27076    26798    26570    26431    26416    26566    26862    27222 
   27531    27699    27729    27681    27604    27526    27426    27283 
   27140    27039    26985    26983    27039    27141    27297    27483 
   27649    27741    27735    27643    27490    27328    27228    27199 
   27190    27153    27099    27083    27137    27236    27334    27406 
   27449    27486    27502    27460    27340    27140    26905    26707 
   26589    26581    26682    26842    26998    27130    27274    27475 
   27699    27864    27901    27808    27654    27519    27415    27301 
   27153    27001    26886    26836    26875    26995    27130    27244 
   27369    27517    27658    27750    27746    27625    27379    27047 
   26735    26550    26515    26615    26802    27009    27202    27348 
   27406    27372    27286    27209    27189    27243    27367    27502 
   27592    27616    27562    27452    27317    27160    27024    26952 
   26944    26991    27064    27118    27153    27184    27237    27340 
   27473    27614    27734    27789    27760    27642    27450    27252 
   27109    27044    27062    27124    27191    27234    27232    27190 
   27137    27095    27079    27070    27039    26991    26947    26931 
   26968    27059    27205    27392    27585    27739    27796    27722 
   27558    27373    27216    27126    27109    27130    27159    27145 
   27093    27058    27063    27113    27202    27299    27387    27434 
   27406    27325    27232    27148    27108    27117    27164    27206 
   27206    27170    27122    27083    27087    27144    27238    27352 
   27446    27488    27471    27400    27319    27255    27201    27170 
   27164    27163    27162    27176    27214    27271    27336    27398 
   27440    27433    27376    27276    27147    27017    26919    26862 
   26867    26960    27132    27319    27463    27533    27529    27468 
   27386    27305    27228    27172    27151    27162    27195    27230 
   27268    27315    27367    27415    27452    27454    27422    27360 
   27294    27259    27253    27249    27243    27240    27253    27288 
   27334    27360    27340    27265    27170    27094    27049    27040 
   27051    27072    27116    27164    27190    27194    27184    27193 
   27234    27291    27334    27330    27249    27114    26982    26892 
   26883    26970    27128    27318    27502    27649    27734    27747 
   27692    27580    27433    27291    27182    27121    27101    27083 
   27054    27033    27035    27066    27121    27187    27256    27295 
   27280    27240    27226    27249    27286    27317    27344    27369 
   27387    27411    27430    27407    27329    27220    27121    27064 
   27035    27013    26989    26960    26970    27068    27241    27433 
   27587    27670    27681    27623    27513    27369    27202    27022 
   26865    26769    26790    26936    27143    27332    27453    27499 
   27487    27425    27303    27135    26952    26827    26819    26931 
   27122    27322    27454    27498    27473    27414    27367    27355 
   27376    27421    27459    27480    27480    27444    27369    27283 
   27218    27203    27241    27328    27432    27483    27446    27334 
   27174    27014    26902    26852    26870    26948    27071    27213 
   27330    27398    27429    27426    27405    27396    27402    27413 
   27415    27388    27342    27297    27251    27201    27156    27122 
   27106    27090    27049    27010    27017    27086    27213    27379 
   27546    27664    27691    27618    27452    27236    27039    26905 
   26851    26855    26878    26909    26955    27017    27093    27167 
   27228    27276    27303    27302    27276    27225    27166    27130 
   27144    27216    27321    27430    27530    27599    27611    27572 
   27494    27399    27310    27233    27180    27152    27139    27152 
   27195    27238    27267    27267    27244    27236    27248    27271 
   27310    27368    27429    27467    27448    27376    27268    27135 
   27017    26943    26927    26990    27120    27270    27392    27449 
   27430    27338    27186    27033    26935    26914    26967    27075 
   27205    27307    27329    27283    27199    27086    26975    26909 
   26914    26990    27116    27301    27549    27784    27909    27907 
   27820    27700    27573    27463    27380    27328    27290    27267 
   27275    27310    27336    27290    27144    26924    26696    26532 
   26470    26530    26707    26952    27195    27396    27522    27558 
   27519    27417    27294    27213    27198    27229    27264    27283 
   27295    27302    27302    27317    27360    27437    27550    27675 
   27764    27776    27676    27483    27245    27018    26862    26790 
   26774    26784    26808    26855    26939    27058    27203    27342 
   27427    27454    27438    27384    27311    27236    27189    27207 
   27288    27391    27472    27506    27491    27445    27380    27318 
   27280    27280    27318    27382    27427    27413    27310    27137 
   26962    26846    26825    26892    27013    27157    27284    27353 
   27349    27276    27171    27082    27035    27041    27082    27135 
   27220    27346    27488    27611    27672    27650    27556    27402 
   27237    27118    27066    27078    27140    27221    27302    27375 
   27430    27457    27426    27345    27271    27244    27259    27275 
   27257    27202    27129    27078    27086    27144    27221    27291 
   27313    27286    27244    27193    27136    27081    27036    27017 
   27017    27021    27025    27009    26993    27022    27112    27256 
   27448    27639    27769    27800    27731    27592    27423    27267 
   27171    27129    27122    27152    27194    27221    27230    27210 
   27157    27098    27060    27081    27152    27237    27325    27396 
   27423    27410    27369    27318    27265    27199    27122    27059 
   27032    27059    27126    27207    27290    27355    27394    27400 
   27371    27315    27238    27148    27074    27041    27070    27145 
   27228    27301    27368    27406    27403    27372    27310    27213 
   27102    27012    26975    26987    27017    27056    27095    27128 
   27162    27190    27229    27294    27371    27441    27498    27533 
   27533    27471    27376    27315    27313    27364    27453    27529 
   27540    27471    27338    27191    27081    27027    27021    27035 
   27059    27110    27178    27244    27315    27371    27400    27417 
   27411    27383    27330    27244    27133    27008    26900    26856 
   26892    27005    27174    27342    27463    27514    27508    27479 
   27425    27341    27255    27182    27121    27070    27039    27048 
   27103    27202    27344    27499    27618    27677    27677    27625 
   27540    27436    27319    27206    27105    27028    26970    26925 
   26921    26981    27087    27198    27272    27306    27317    27303 
   27279    27247    27193    27122    27060    27024    27028    27081 
   27157    27210    27190    27097    26968    26851    26784    26792 
   26883    27059    27284    27507    27689    27788    27783    27687 
   27531    27365    27247    27193    27187    27197    27205    27226 
   27253    27253    27225    27180    27132    27105    27120    27168 
   27240    27324    27402    27429    27378    27280    27174    27066 
   26973    26921    26937    27031    27183    27363    27526    27633 
   27680    27672    27596    27483    27363    27247    27162    27139 
   27201    27361    27596    27858    28088    28223    28231    28119 
   27918    27666    27391    27117    26881    26708    26634    26661 
   26755    26898    27064    27209    27333    27436    27499    27515 
   27473    27359    27179    26935    26642    26358    26156    26095 
   26177    26357    26603    26874    27120    27305    27417    27472 
   27517    27587    27693    27822    27939    28000    27947    27765 
   27479    27129    26771    26491    26345    26350    26493    26732 
   27022    27306    27527    27684    27800    27891    27950    27955 
   27892    27761    27571    27360    27166    27002    26887    26829 
   26823    26871    26968    27099    27244    27373    27472    27527 
   27513    27417    27240    27006    26778    26611    26530    26546 
   26655    26817    26983    27109    27175    27195    27198    27220 
   27275    27367    27494    27626    27720    27777    27803    27796 
   27758    27692    27608    27515    27390    27233    27082    26971 
   26929    26973    27108    27313    27522    27673    27746    27719 
   27598    27434    27257    27082    26914    26765    26649    26573 
   26545    26586    26704    26912    27222    27592    27946    28202 
   28305    28243    28031    27696    27309    26954    26704    26603 
   26655    26843    27113    27380    27587    27703    27700    27596 
   27441    27280    27167    27130    27157    27218    27275    27311 
   27314    27253    27149    27052    26977    26912    26851    26784 
   26685    26549    26424    26369    26393    26518    26767    27121 
   27541    27969    28325    28549    28597    28453    28147    27729 
   27275    26896    26659    26586    26646    26767    26882    26947 
   26955    26950    26959    26998    27082    27203    27342    27498 
   27660    27807    27932    28032    28107    28136    28088    27946 
   27731    27469    27198    26954    26771    26667    26634    26650 
   26689    26734    26805    26908    27006    27108    27211    27295 
   27336    27315    27248    27163    27082    27047    27072    27129 
   27184    27199    27148    27041    26901    26766    26701    26735 
   26862    27068    27328    27598    27828    27980    28035    28005 
   27918    27799    27672    27554    27463    27384    27324    27276 
   27214    27126    27024    26932    26883    26883    26933    27041 
   27194    27376    27562    27700    27751    27712    27602    27452 
   27283    27108    26940    26786    26657    26562    26501    26515 
   26643    26860    27118    27360    27531    27610    27594    27519 
   27452    27433    27471    27553    27637    27681    27662    27562 
   27399    27206    27018    26866    26754    26693    26704    26774 
   26889    27060    27279    27515    27730    27881    27945    27907 
   27774    27598    27425    27290    27210    27167    27141    27130 
   27128    27118    27087    27043    27010    26997    26990    26983 
   26963    26932    26902    26882    26898    26960    27055    27184 
   27332    27477    27616    27734    27820    27866    27845    27750 
   27596    27386    27144    26898    26681    26526    26447    26447 
   26523    26639    26755    26855    26936    27013    27101    27218 
   27379    27567    27769    27970    28131    28204    28174    28048 
   27858    27638    27423    27253    27149    27113    27139    27202 
   27267    27305    27294    27238    27149    27039    26931    26850 
   26805    26821    26897    27010    27140    27252    27317    27342 
   27333    27310    27309    27325    27352    27392    27438    27473 
   27468    27405    27284    27143    27032    26975    26971    27028 
   27126    27218    27274    27299    27311    27337    27387    27476 
   27612    27762    27881    27934    27886    27730    27486    27187 
   26901    26680    26532    26464    26460    26505    26595    26705 
   26816    26940    27074    27202    27319    27429    27519    27573 
   27575    27542    27487    27411    27328    27240    27157    27101 
   27081    27101    27162    27264    27402    27557    27691    27781 
   27816    27792    27708    27572    27407    27251    27124    27049 
   27027    27022    27009    26975    26919    26871    26862    26901 
   26979    27062    27120    27147    27139    27116    27102    27087 
   27066    27047    27045    27062    27074    27086    27112    27149 
   27217    27322    27450    27585    27687    27723    27714    27677 
   27634    27612    27616    27643    27675    27673    27618    27503 
   27332    27129    26932    26781    26703    26693    26725    26788 
   26875    26989    27114    27229    27334    27425    27486    27522 
   27546    27569    27610    27657    27689    27685    27623    27502 
   27333    27148    26987    26870    26806    26805    26850    26910 
   26979    27043    27091    27129    27149    27163    27183    27199 
   27207    27203    27176    27129    27066    26991    26927    26887 
   26879    26900    26941    27001    27063    27124    27205    27313 
   27440    27587    27735    27868    27969    28021    28019    27955 
   27831    27673    27506    27352    27234    27148    27090    27055 
   27036    27031    27045    27081    27133    27203    27279    27357 
   27425    27486    27548    27587    27575    27503    27372    27206 
   27040    26896    26794    26735    26701    26692    26689    26684 
   26701    26758    26865    27025    27220    27430    27634    27797 
   27912    27973    27969    27913    27820    27683    27513    27324 
   27133    26966    26821    26716    26659    26649    26704    26832 
   27018    27249    27492    27723    27923    28054    28086    28013 
   27842    27599    27322    27049    26809    26619    26495    26453 
   26491    26600    26769    26964    27163    27340    27460    27513 
   27492    27411    27309    27218    27156    27135    27144    27157 
   27152    27117    27067    27028    27012    27032    27082    27155 
   27233    27284    27294    27265    27205    27141    27105    27106 
   27166    27272    27395    27510    27602    27672    27720    27741 
   27729    27699    27642    27565    27492    27419    27344    27270 
   27205    27152    27110    27075    27047    27025    27020    27041 
   27089    27157    27229    27267    27267    27241    27199    27157 
   27129    27122    27145    27187    27233    27278    27309    27322 
   27324    27311    27287    27244    27187    27128    27060    26994 
   26944    26910    26905    26933    26981    27048    27133    27224 
   27318    27403    27465    27518    27548    27548    27541    27544 
   27567    27616    27670    27720    27754    27746    27699    27625 
   27527    27413    27287    27159    27052    26979    26941    26935 
   26947    26968    26982    26985    26990    27000    27008    27022 
   27045    27087    27149    27205    27249    27278    27275    27257 
   27240    27226    27224    27233    27261    27307    27353    27402 
   27452    27483    27480    27440    27371    27292    27217    27143 
   27078    27025    26995    26990    27004    27041    27095    27155 
   27226    27299    27348    27368    27356    27317    27263    27198 
   27143    27112    27094    27094    27106    27122    27148    27174 
   27190    27199    27199    27190    27178    27162    27159    27176 
   27211    27268    27338    27405    27459    27492    27508    27519 
