Origin Time       2025/03/28 03:50:00
Lat.              35.403
Long.             140.360
Depth. (km)       54
Mag.              4.4
Station Code      CHBH13
Station Lat.      35.8307
Station Long.     140.2980
Station Height(m) -1288
Record Time       2025/03/28 03:50:51
Sampling Freq(Hz) 100Hz
Duration Time(s)  120
Dir.              3
Scale Factor      2942(gal)/8224139
Max. Acc. (gal)   0.427
Last Correction   2025/03/28 03:50:51
Memo.             
[...]
  157623   157620   157620   157621   157621   157620   157621   157621 
  157620   157620   157623   157621   157620   157620   157621   157619 
  157620   157623   157621   157620   157623   157623   157621   157621 
  157619   157620   157623   157621   157623   157623   157619   157619 
  157620   157620   157620   157620   157620   157620   157621   157620 
  157619   157621   157621   157623   157621   157620   157621   157626 
  157623   157620   157620   157621   157623   157623   157621   157621 
  157620   157623   157623   157619   157617   157620   157621   157624 
  157626   157621   157619   157620   157623   157621   157623   157623 
  157621   157621   157623   157620   157620   157621   157623   157624 
  157623   157623   157624   157620   157617   157620   157620   157621 
  157621   157620   157623   157624   157621   157620   157620   157620 
  157621   157621   157621   157621   157620   157620   157619   157620 
  157623   157621   157621   157623   157620   157620   157621   157621 
  157620   157621   157623   157621   157620   157623   157623   157621 
  157624   157623   157619   157619   157623   157623   157621   157623 
  157623   157620   157621   157623   157621   157621   157621   157621 
  157621   157621   157619   157621   157624   157620   157619   157621 
  157621   157619   157620   157621   157623   157623   157621   157620 
  157620   157620   157621   157620   157619   157619   157620   157623 
  157623   157621   157619   157621   157621   157620   157620   157621 
  157621   157620   157621   157620   157619   157619   157621   157623 
  157621   157620   157620   157621   157621   157620   157621   157620 
  157619   157621   157620   157620   157624   157626   157623   157621 
  157621   157621   157623   157621   157619   157620   157619   157617 
  157620   157623   157621   157621   157621   157620   157619   157619 
  157621   157624   157621   157617   157619   157620   157620   157620 
  157617   157617   157623   157626   157624   157620   157621   157621 
  157619   157620   157621   157621   157620   157620   157621   157620 
  157620   157624   157624   157620   157619   157621   157623   157620 
  157621   157623   157621   157620   157619   157619   157621   157621 
  157620   157619   157620   157620   157621   157621   157621   157621 
  157621   157621   157621   157621   157621   157621   157623   157623 
  157621   157620   157620   157621   157623   157621   157620   157620 
  157623   157621   157621   157623   157621   157621   157623   157620 
  157619   157620   157621   157623   157621   157620   157619   157617 
  157619   157621   157621   157621   157621   157623   157623   157620 
  157619   157620   157620   157619   157620   157623   157621   157619 
  157617   157620   157621   157621   157620   157619   157620   157620 
  157621   157623   157620   157619   157619   157619   157620   157621 
  157621   157620   157621   157623   157621   157620   157621   157620 
  157617   157620   157621   157620   157620   157621   157620   157619 
  157619   157620   157621   157621   157619   157620   157621   157619 
  157619   157620   157620   157620   157619   157619   157621   157621 
  157619   157619   157623   157623   157620   157621   157623   157620 
  157620   157620   157620   157623   157623   157620   157620   157619 
  157619   157621   157623   157621   157620   157620   157623   157623 
  157621   157620   157621   157623   157620   157620   157623   157621 
  157619   157621   157623   157623   157623   157623   157623   157623 
  157621   157621   157621   157621   157620   157620   157621   157624 
  157621   157619   157620   157621   157620   157620   157621   157620 
  157621   157623   157621   157619   157619   157620   157621   157620 
  157620   157620   157623   157623   157619   157621   157624   157621 
  157620   157623   157621   157620   157620   157619   157619   157621 
  157621   157621   157623   157621   157623   157621   157619   157620 
  157621   157620   157621   157620   157617   157619   157621   157620 
  157623   157624   157621   157620   157621   157623   157621   157623 
  157623   157621   157620   157621   157621   157620   157621   157623 
  157621   157620   157621   157621   157621   157620   157619   157620 
  157623   157620   157620   157619   157617   157620   157619   157617 
  157619   157619   157617   157619   157621   157623   157621   157619 
  157620   157620   157620   157621   157620   157619   157621   157623 
  157621   157620   157621   157623   157623   157621   157621   157621 
  157620   157621   157621   157621   157623   157623   157621   157621 
  157620   157619   157621   157621   157620   157621   157620   157617 
  157617   157620   157623   157623   157623   157623   157623   157621 
  157621   157621   157621   157621   157621   157621   157623   157623 
  157620   157620   157620   157621   157623   157621   157621   157621 
  157621   157621   157621   157623   157624   157620   157619   157623 
  157623   157620   157620   157623   157623   157620   157620   157623 
  157623   157623   157623   157621   157620   157619   157619   157621 
  157621   157621   157623   157619   157617   157620   157620   157616 
  157617   157620   157621   157620   157620   157619   157619   157617 
  157619   157620   157620   157621   157620   157619   157620   157620 
  157620   157621   157620   157619   157621   157621   157623   157623 
  157621   157621   157623   157621   157621   157620   157619   157620 
  157620   157619   157620   157621   157621   157623   157620   157620 
  157621   157621   157621   157621   157620   157620   157621   157623 
  157623   157623   157624   157623   157621   157621   157621   157619 
  157620   157621   157621   157621   157621   157619   157619   157620 
  157619   157619   157620   157619   157620   157620   157620   157620 
  157620   157619   157620   157623   157621   157620   157623   157621 
  157620   157621   157623   157620   157619   157621   157623   157620 
  157620   157620   157620   157621   157623   157621   157617   157617 
  157621   157621   157620   157623   157621   157619   157620   157621 
  157617   157617   157621   157621   157617   157619   157621   157619 
  157619   157620   157620   157620   157620   157620   157623   157620 
  157620   157620   157619   157620   157619   157616   157613   157603 
  157582   157558   157538   157524   157527   157546   157577   157613 
  157648   157663   157644   157626   157616   157573   157532   157550 
  157577   157599   157640   157667   157717   157802   157778   157659 
  157592   157540   157492   157534   157577   157577   157663   157751 
  157729   157732   157751   157697   157723   157743   157550   157453 
  157547   157563   157597   157623   157538   157585   157711   157665 
  157592   157643   157700   157689   157657   157613   157569   157615 
  157688   157619   157566   157604   157567   157585   157603   157478 
  157542   157755   157693   157511   157603   157773   157619   157451 
  157658   157797   157589   157512   157708   157746   157578   157634 
  157815   157635   157441   157634   157670   157477   157496   157553 
  157520   157468   157416   157553   157658   157599   157690   157794 
  157744   157725   157778   157824   157667   157511   157746   157874 
  157601   157532   157831   158074   158001   157783   157773   157912 
  157794   157511   157551   157725   157666   157489   157287   157229 
  157268   157203   157388   157777   157897   157855   157761   157539 
  157341   157306   157415   157607   157705   157532   157395   157458 
  157395   157300   157399   157523   157594   157750   158017   158128 
  157991   157688   157177   156941   157338   157698   157615   157550 
  157698   157837   158014   158078   157801   157670   157916   158013 
  157782   157508   157252   157086   157272   157470   157315   157318 
  157594   157696   157592   157515   157682   157983   158026   157935 
  158086   158218   157866   157443   157536   157604   157184   156929 
  157119   157378   157550   157743   158058   158118   157773   157551 
  157499   157399   157501   157770   157879   157866   157800   157638 
  157513   157391   157175   157221   157620   157819   157705   157609 
  157414   157281   157673   158059   157932   157844   158106   158282 
  158021   157623   157492   157476   157431   157455   157455   157415 
  157447   157594   157743   157623   157269   157146   157439   157797 
  157929   157824   157516   157230   157126   157059   157214   157681 
  157905   157754   157530   157297   157200   157308   157590   158039 
  158301   158271   158240   158112   157839   157601   157295   157000 
  157029   157358   157817   158060   157977   158079   158198   157891 
  157755   157940   157821   157554   157604   157705   157422   157108 
  157315   157597   157424   157140   157157   157465   157766   157852 
  157810   157671   157512   157539   157688   157608   157222   157052 
  157287   157509   157744   158005   157912   157688   157678   157671 
  157655   157624   157316   157226   157728   157929   157605   157619 
  157824   157779   157820   157948   157908   157781   157542   157293 
  157257   157304   157518   157893   157740   157130   157072   157585 
  157816   157813   157987   157863   157465   157519   157754   157754 
  157740   157698   157584   157559   157685   157925   157939   157493 
  157141   157191   157287   157470   157885   158248   158268   157914 
  157478   157215   157218   157462   157619   157540   157457   157462 
  157495   157542   157644   157827   158035   158152   158033   157550 
  157063   157157   157408   157335   157570   158079   158153   158089 
  158094   157698   157273   157441   157580   157285   157249   157408 
  157337   157611   158140   158062   157642   157554   157700   157675 
  157497   157527   157734   157761   157505   157312   157558   157913 
  157856   157594   157461   157270   156972   156963   157287   157545 
  157669   157831   157959   157869   157650   157709   158010   158031 
  157893   157894   157686   157349   157497   157885   157786   157437 
  157389   157408   157338   157442   157685   157864   157837   157605 
  157405   157474   157734   157815   157653   157617   157621   157482 
  157524   157632   157511   157455   157631   157711   157546   157513 
  157680   157620   157535   157694   157701   157573   157569   157513 
  157573   157774   157735   157742   157854   157721   157747   158036 
  157914   157412   157157   157196   157200   157158   157393   157896 
  157964   157447   157248   157665   157901   157728   157767   157974 
  157964   157914   157819   157542   157435   157638   157712   157518 
  157410   157515   157736   157916   157885   157789   157615   157304 
  157279   157543   157596   157405   157239   157241   157405   157585 
  157752   157979   158076   157917   157816   157835   157628   157387 
  157466   157582   157551   157516   157395   157275   157447   157581 
  157465   157540   157628   157462   157593   157977   158047   158012 
  158114   158078   157937   157874   157746   157562   157377   157125 
  157094   157384   157538   157566   157796   157925   157850   157860 
  157709   157387   157405   157551   157499   157584   157717   157596 
  157538   157594   157500   157410   157509   157763   157881   157678 
  157528   157561   157442   157169   157088   157347   157665   157732 
  157613   157547   157767   158106   158089   157842   157724   157693 
  157657   157477   157233   157256   157495   157670   157752   157761 
  157669   157619   157712   157813   157832   157843   157873   157823 
  157682   157620   157740   157897   157843   157673   157601   157535 
  157459   157470   157491   157418   157302   157389   157626   157661 
  157572   157584   157523   157254   157207   157634   157904   157717 
  157578   157546   157450   157554   157806   157859   157777   157761 
  157762   157582   157326   157279   157311   157393   157624   157731 
  157702   157732   157778   157798   157796   157808   157770   157666 
  157662   157698   157715   157804   157697   157369   157408   157725 
  157744   157588   157509   157465   157442   157507   157621   157589 
  157585   157817   157839   157496   157264   157374   157670   157781 
  157662   157704   157837   157748   157617   157640   157761   157901 
  157825   157526   157391   157378   157269   157237   157318   157488 
  157783   157954   157862   157720   157624   157443   157248   157366 
  157709   157781   157640   157704   157869   157863   157743   157719 
  157727   157466   157233   157464   157767   157893   158022   157981 
  157675   157454   157594   157810   157636   157339   157324   157437 
  157542   157589   157527   157522   157536   157430   157454   157658 
  157657   157503   157531   157654   157810   157993   157866   157518 
  157476   157632   157578   157505   157619   157663   157612   157715 
  157873   157877   157800   157738   157763   157863   157846   157810 
  157862   157785   157674   157684   157611   157523   157550   157526 
  157388   157148   156959   157006   157081   157121   157380   157792 
  158008   157836   157565   157576   157680   157746   158009   158275 
  158294   158217   158075   157910   157891   157875   157738   157611 
  157503   157369   157296   157307   157316   157345   157478   157596 
  157674   157896   158124   158118   157927   157708   157536   157285 
  156963   156774   156629   156428   156527   157169   157952   158322 
  158226   158095   158145   158168   158170   158214   158008   157573 
  157378   157415   157374   157369   157518   157681   157775   157743 
  157516   157265   157195   157130   157021   157171   157365   157345 
  157447   157674   157671   157574   157636   157785   157850   157758 
  157717   157924   158078   157994   157867   157852   158067   158255 
  158064   157675   157207   156713   156585   156714   156736   156929 
  157365   157592   157698   158059   158468   158592   158635   158797 
  158695   158224   157862   157655   157403   157260   157172   156948 
  156818   156884   156976   157221   157650   158009   158211   158174 
  157739   157158   156973   157231   157596   157940   158074   157971 
  158017   158157   158133   158107   157966   157478   157088   157189 
  157547   157724   157601   157509   157499   157393   157412   157458 
  157291   157216   157369   157665   158041   158091   157847   157798 
  157732   157499   157612   157897   157762   157492   157431   157410 
  157373   157221   157013   157146   157445   157551   157700   157963 
  158066   157995   157833   157630   157577   157657   157666   157720 
  157883   157832   157431   157059   157053   157239   157342   157458 
  157659   157728   157659   157635   157608   157586   157580   157442 
  157380   157639   157923   157886   157702   157697   157829   157970 
  158080   158044   157890   157847   157991   158109   157998   157752 
  157443   157134   157023   157061   157099   157171   157287   157392 
  157400   157329   157362   157513   157555   157468   157497   157675 
  157785   157755   157686   157716   157904   158129   158237   158122 
  157839   157603   157505   157550   157662   157648   157539   157411 
  157185   157017   157150   157430   157577   157693   157877   157912 
  157836   157862   157836   157663   157557   157601   157800   158110 
  158332   158355   158224   158039   157908   157756   157558   157474 
  157493   157499   157447   157330   157312   157426   157380   157140 
  157041   157148   157333   157694   158080   158141   158083   158113 
  157986   157782   157724   157657   157496   157350   157303   157369 
  157420   157392   157393   157469   157554   157648   157735   157619 
  157333   157227   157373   157585   157771   157831   157702   157485 
  157345   157312   157327   157378   157435   157496   157572   157617 
  157632   157561   157400   157415   157661   157881   157951   157871 
  157696   157573   157646   157932   158264   158448   158406   158242 
  158087   157887   157677   157577   157489   157324   157187   157106 
  157026   156994   157104   157339   157488   157356   157107   157025 
  157130   157376   157673   157837   157855   157851   157916   158080 
  158202   158113   157936   157752   157447   157250   157360   157399 
  157241   157257   157523   157759   157828   157825   157825   157790 
  157785   157959   158186   158193   158112   158124   158010   157771 
  157688   157624   157377   157194   157256   157364   157376   157383 
  157465   157646   157904   158067   157989   157770   157580   157443 
  157288   157088   156964   157033   157134   157207   157428   157644 
  157638   157640   157823   157983   158021   157983   157835   157671 
  157528   157304   157207   157366   157609   157813   157836   157720 
  157748   157887   157904   157781   157636   157635   157800   157925 
  157975   158056   158021   157779   157577   157562   157573   157554 
  157627   157690   157563   157420   157410   157376   157368   157549 
  157732   157731   157586   157347   157177   157221   157289   157234 
  157191   157223   157254   157314   157477   157724   157952   158016 
  157958   158006   158102   158020   157848   157762   157677   157491 
  157404   157589   157777   157765   157782   157887   157873   157762 
  157613   157420   157369   157491   157545   157531   157554   157528 
  157470   157454   157423   157470   157696   157883   157916   157962 
  157998   157924   157832   157770   157693   157655   157750   157844 
  157702   157432   157281   157225   157183   157127   157054   157094 
  157256   157432   157642   157806   157806   157752   157723   157630 
  157532   157584   157698   157712   157720   157806   157759   157518 
  157333   157326   157357   157383   157507   157693   157856   158021 
  158114   158018   157824   157671   157559   157484   157478   157508 
  157594   157729   157779   157775   157801   157771   157671   157559 
  157473   157516   157662   157786   157808   157626   157427   157474 
  157550   157557   157681   157731   157697   157833   157869   157646 
  157524   157542   157542   157593   157667   157678   157674   157689 
  157692   157669   157642   157593   157505   157439   157435   157416 
  157307   157237   157327   157397   157358   157434   157628   157720 
  157766   157897   158012   157993   157871   157759   157708   157662 
  157580   157513   157489   157477   157539   157700   157778   157742 
  157765   157837   157897   157935   157881   157767   157663   157518 
  157346   157256   157273   157307   157333   157403   157461   157481 
  157573   157725   157782   157715   157635   157582   157536   157555 
  157657   157742   157769   157758   157729   157708   157638   157524 
  157470   157464   157441   157437   157511   157665   157824   157890 
  157854   157806   157833   157894   157867   157740   157600   157462 
  157378   157449   157562   157561   157546   157616   157677   157650 
  157570   157543   157582   157557   157432   157350   157428   157584 
  157669   157693   157720   157709   157669   157666   157673   157670 
  157688   157681   157623   157551   157478   157438   157462   157523 
  157585   157648   157713   157767   157781   157785   157840   157870 
