Origin Time       2025/03/28 03:50:00
Lat.              35.403
Long.             140.360
Depth. (km)       54
Mag.              4.4
Station Code      CHBH10
Station Lat.      35.5458
Station Long.     140.2417
Station Height(m) 65
Record Time       2025/03/28 03:50:47
Sampling Freq(Hz) 100Hz
Duration Time(s)  120
Dir.              6
Scale Factor      7845(gal)/8223790
Max. Acc. (gal)   3.764
Last Correction   2025/03/28 03:50:47
Memo.             
[...]
   -5805    -5807    -5811    -5811    -5810    -5805    -5799    -5802 
   -5807    -5810    -5811    -5814    -5817    -5817    -5813    -5809 
   -5806    -5806    -5802    -5802    -5803    -5802    -5806    -5815 
   -5817    -5810    -5807    -5809    -5807    -5809    -5815    -5814 
   -5809    -5810    -5810    -5806    -5807    -5809    -5805    -5803 
   -5809    -5811    -5806    -5810    -5817    -5811    -5806    -5803 
   -5803    -5813    -5817    -5811    -5809    -5811    -5815    -5815 
   -5813    -5811    -5809    -5813    -5815    -5811    -5811    -5811 
   -5805    -5805    -5810    -5811    -5810    -5813    -5814    -5807 
   -5805    -5806    -5809    -5810    -5810    -5813    -5817    -5815 
   -5815    -5811    -5805    -5807    -5810    -5807    -5810    -5811 
   -5811    -5815    -5814    -5809    -5806    -5803    -5807    -5814 
   -5814    -5815    -5814    -5809    -5807    -5806    -5811    -5814 
   -5809    -5811    -5814    -5814    -5818    -5818    -5810    -5807 
   -5807    -5809    -5814    -5819    -5819    -5813    -5807    -5809 
   -5813    -5814    -5814    -5811    -5809    -5813    -5811    -5810 
   -5811    -5809    -5809    -5813    -5811    -5813    -5813    -5811 
   -5815    -5814    -5807    -5809    -5813    -5811    -5810    -5806 
   -5806    -5813    -5815    -5810    -5809    -5814    -5817    -5811 
   -5809    -5813    -5815    -5811    -5807    -5810    -5813    -5813 
   -5811    -5810    -5809    -5809    -5809    -5810    -5815    -5818 
   -5818    -5815    -5803    -5805    -5815    -5813    -5810    -5815 
   -5814    -5811    -5809    -5805    -5813    -5819    -5815    -5813 
   -5813    -5813    -5814    -5810    -5807    -5811    -5813    -5809 
   -5810    -5817    -5819    -5813    -5806    -5803    -5803    -5806 
   -5807    -5809    -5811    -5810    -5803    -5803    -5810    -5814 
   -5810    -5806    -5805    -5814    -5822    -5821    -5811    -5806 
   -5811    -5811    -5807    -5807    -5807    -5807    -5809    -5806 
   -5807    -5814    -5817    -5817    -5815    -5810    -5810    -5817 
   -5815    -5809    -5811    -5811    -5806    -5809    -5810    -5805 
   -5807    -5811    -5811    -5813    -5813    -5811    -5810    -5809 
   -5809    -5807    -5807    -5815    -5821    -5815    -5807    -5809 
   -5810    -5807    -5806    -5803    -5803    -5810    -5807    -5805 
   -5811    -5814    -5810    -5809    -5809    -5811    -5813    -5809 
   -5810    -5817    -5814    -5813    -5814    -5811    -5810    -5811 
   -5809    -5806    -5805    -5800    -5800    -5807    -5809    -5807 
   -5810    -5810    -5809    -5814    -5817    -5817    -5811    -5810 
   -5814    -5813    -5809    -5807    -5810    -5811    -5809    -5810 
   -5806    -5802    -5809    -5809    -5800    -5805    -5806    -5803 
   -5807    -5811    -5813    -5814    -5809    -5807    -5811    -5807 
   -5807    -5811    -5815    -5817    -5814    -5810    -5807    -5809 
   -5809    -5806    -5806    -5810    -5810    -5803    -5802    -5810 
   -5814    -5811    -5811    -5810    -5807    -5806    -5807    -5810 
   -5810    -5813    -5815    -5814    -5811    -5809    -5806    -5803 
   -5803    -5806    -5807    -5806    -5809    -5817    -5814    -5806 
   -5809    -5815    -5814    -5815    -5817    -5815    -5814    -5813 
   -5811    -5809    -5805    -5809    -5813    -5810    -5814    -5822 
   -5810    -5799    -5803    -5806    -5806    -5809    -5813    -5813 
   -5814    -5817    -5814    -5811    -5817    -5819    -5814    -5809 
   -5814    -5821    -5814    -5810    -5811    -5813    -5810    -5809 
   -5806    -5803    -5805    -5806    -5806    -5810    -5813    -5811 
   -5815    -5821    -5819    -5818    -5814    -5811    -5810    -5814 
   -5822    -5822    -5813    -5810    -5809    -5803    -5807    -5815 
   -5810    -5807    -5811    -5811    -5810    -5811    -5813    -5811 
   -5809    -5813    -5817    -5815    -5814    -5813    -5811    -5807 
   -5807    -5811    -5815    -5815    -5811    -5806    -5810    -5817 
   -5814    -5810    -5807    -5806    -5809    -5814    -5814    -5809 
   -5810    -5815    -5813    -5813    -5815    -5815    -5813    -5813 
   -5809    -5806    -5807    -5814    -5817    -5810    -5809    -5811 
   -5810    -5811    -5810    -5809    -5811    -5811    -5813    -5813 
   -5809    -5807    -5809    -5807    -5809    -5814    -5821    -5818 
   -5813    -5814    -5815    -5810    -5811    -5819    -5818    -5810 
   -5809    -5810    -5810    -5817    -5818    -5813    -5810    -5805 
   -5805    -5814    -5814    -5810    -5814    -5809    -5799    -5802 
   -5811    -5815    -5813    -5810    -5809    -5811    -5810    -5806 
   -5805    -5809    -5810    -5810    -5811    -5817    -5819    -5813 
   -5800    -5798    -5800    -5803    -5806    -5813    -5817    -5811 
   -5806    -5803    -5805    -5810    -5814    -5807    -5802    -5807 
   -5818    -5825    -5826    -5822    -5815    -5806    -5802    -5803 
   -5805    -5805    -5805    -5803    -5805    -5806    -5809    -5810 
   -5807    -5803    -5805    -5807    -5813    -5819    -5817    -5811 
   -5805    -5800    -5806    -5811    -5810    -5814    -5814    -5810 
   -5811    -5811    -5807    -5807    -5809    -5807    -5811    -5815 
   -5814    -5807    -5807    -5807    -5800    -5799    -5806    -5813 
   -5810    -5805    -5807    -5817    -5819    -5817    -5813    -5817 
   -5821    -5813    -5805    -5806    -5810    -5811    -5811    -5809 
   -5806    -5805    -5805    -5806    -5810    -5811    -5811    -5807 
   -5806    -5807    -5811    -5813    -5811    -5813    -5814    -5810 
   -5810    -5814    -5815    -5810    -5803    -5800    -5809    -5814 
   -5813    -5807    -5805    -5803    -5805    -5806    -5809    -5814 
   -5814    -5809    -5810    -5814    -5813    -5813    -5815    -5814 
   -5811    -5814    -5817    -5811    -5807    -5810    -5809    -5806 
   -5811    -5815    -5815    -5810    -5803    -5805    -5807    -5806 
   -5806    -5807    -5811    -5814    -5813    -5810    -5810    -5815 
   -5817    -5807    -5807    -5813    -5813    -5815    -5818    -5818 
   -5814    -5806    -5805    -5809    -5809    -5810    -5814    -5814 
   -5811    -5813    -5814    -5814    -5810    -5809    -5811    -5813 
   -5814    -5815    -5813    -5811    -5811    -5811    -5813    -5813 
   -5813    -5810    -5807    -5807    -5809    -5807    -5806    -5809 
   -5813    -5810    -5806    -5806    -5809    -5817    -5819    -5817 
   -5811    -5807    -5810    -5810    -5811    -5814    -5809    -5806 
   -5810    -5809    -5809    -5811    -5809    -5806    -5810    -5807 
   -5802    -5806    -5807    -5807    -5807    -5806    -5809    -5811 
   -5807    -5807    -5809    -5807    -5806    -5806    -5810    -5814 
   -5809    -5805    -5805    -5805    -5806    -5810    -5807    -5811 
   -5814    -5805    -5802    -5810    -5813    -5809    -5803    -5807 
   -5813    -5807    -5805    -5810    -5809    -5806    -5807    -5806 
   -5803    -5810    -5814    -5809    -5809    -5814    -5814    -5809 
   -5807    -5814    -5814    -5810    -5813    -5810    -5813    -5819 
   -5813    -5810    -5810    -5809    -5814    -5817    -5813    -5815 
   -5819    -5815    -5814    -5813    -5813    -5810    -5811    -5817 
   -5814    -5811    -5815    -5817    -5815    -5817    -5815    -5813 
   -5814    -5813    -5811    -5810    -5809    -5811    -5814    -5813 
   -5814    -5813    -5813    -5813    -5811    -5811    -5815    -5814 
   -5814    -5815    -5815    -5813    -5810    -5811    -5813    -5813 
   -5810    -5806    -5809    -5817    -5821    -5815    -5810    -5813 
   -5814    -5807    -5805    -5810    -5813    -5811    -5811    -5814 
   -5818    -5819    -5809    -5802    -5807    -5811    -5809    -5809 
   -5815    -5815    -5807    -5803    -5803    -5807    -5809    -5810 
   -5809    -5809    -5809    -5810    -5811    -5811    -5810    -5807 
   -5803    -5805    -5811    -5813    -5813    -5817    -5818    -5815 
   -5811    -5805    -5802    -5809    -5814    -5810    -5806    -5806 
   -5809    -5811    -5813    -5810    -5806    -5806    -5807    -5806 
   -5809    -5814    -5815    -5811    -5807    -5809    -5807    -5807 
   -5811    -5813    -5814    -5819    -5818    -5809    -5811    -5814 
   -5802    -5796    -5806    -5814    -5815    -5811    -5806    -5805 
   -5807    -5811    -5818    -5819    -5817    -5813    -5813    -5813 
   -5810    -5809    -5810    -5809    -5809    -5813    -5814    -5814 
   -5815    -5811    -5806    -5803    -5811    -5819    -5815    -5810 
   -5809    -5806    -5811    -5813    -5807    -5810    -5813    -5810 
   -5810    -5807    -5805    -5810    -5810    -5807    -5810    -5809 
   -5806    -5810    -5813    -5810    -5807    -5807    -5807    -5814 
   -5814    -5810    -5807    -5807    -5809    -5805    -5806    -5815 
   -5817    -5810    -5811    -5811    -5810    -5814    -5817    -5811 
   -5806    -5805    -5805    -5807    -5810    -5811    -5811    -5810 
   -5809    -5813    -5815    -5815    -5813    -5814    -5811    -5809 
   -5813    -5814    -5810    -5810    -5809    -5802    -5799    -5800 
   -5806    -5807    -5803    -5809    -5813    -5811    -5813    -5814 
   -5814    -5814    -5809    -5803    -5809    -5813    -5811    -5807 
   -5802    -5805    -5809    -5809    -5806    -5806    -5807    -5805 
   -5800    -5800    -5805    -5810    -5810    -5809    -5814    -5818 
   -5811    -5809    -5810    -5807    -5807    -5809    -5809    -5810 
   -5809    -5803    -5798    -5795    -5796    -5799    -5799    -5805 
   -5814    -5817    -5809    -5809    -5814    -5809    -5806    -5809 
   -5805    -5807    -5814    -5811    -5811    -5815    -5817    -5814 
   -5807    -5803    -5806    -5809    -5810    -5809    -5805    -5806 
   -5810    -5814    -5814    -5811    -5810    -5813    -5815    -5818 
   -5817    -5814    -5811    -5809    -5807    -5813    -5815    -5814 
   -5813    -5810    -5811    -5814    -5814    -5814    -5811    -5809 
   -5811    -5817    -5817    -5813    -5805    -5806    -5809    -5809 
   -5813    -5819    -5819    -5818    -5815    -5815    -5817    -5814 
   -5811    -5813    -5817    -5814    -5809    -5807    -5814    -5822 
   -5818    -5806    -5807    -5814    -5815    -5814    -5813    -5814 
   -5817    -5811    -5806    -5809    -5809    -5803    -5803    -5810 
   -5817    -5821    -5814    -5813    -5818    -5819    -5813    -5809 
   -5807    -5814    -5815    -5806    -5806    -5813    -5810    -5803 
   -5806    -5811    -5811    -5807    -5810    -5814    -5811    -5810 
   -5814    -5815    -5810    -5803    -5805    -5806    -5802    -5806 
   -5811    -5810    -5810    -5813    -5810    -5806    -5806    -5810 
   -5813    -5809    -5806    -5809    -5807    -5806    -5809    -5810 
   -5811    -5811    -5811    -5811    -5809    -5810    -5809    -5799 
   -5798    -5810    -5814    -5807    -5803    -5809    -5813    -5810 
   -5809    -5814    -5818    -5811    -5807    -5809    -5811    -5809 
   -5803    -5803    -5806    -5810    -5806    -5806    -5811    -5809 
   -5805    -5807    -5810    -5810    -5811    -5814    -5814    -5814 
   -5814    -5805    -5803    -5811    -5810    -5807    -5809    -5809 
   -5813    -5813    -5811    -5814    -5807    -5805    -5810    -5813 
   -5809    -5809    -5811    -5814    -5813    -5810    -5810    -5811 
   -5810    -5809    -5807    -5809    -5813    -5813    -5806    -5799 
   -5803    -5809    -5809    -5810    -5814    -5815    -5818    -5818 
   -5815    -5811    -5807    -5809    -5814    -5814    -5810    -5810 
   -5807    -5805    -5809    -5813    -5811    -5813    -5815    -5811 
   -5806    -5811    -5822    -5821    -5810    -5809    -5815    -5817 
   -5815    -5811    -5805    -5805    -5810    -5810    -5806    -5810 
   -5818    -5815    -5810    -5807    -5810    -5815    -5811    -5806 
   -5807    -5811    -5817    -5821    -5817    -5805    -5791    -5765 
   -5715    -5647    -5591    -5597    -5657    -5726    -5767    -5759 
   -5703    -5657    -5730    -6079    -6729    -7271    -7134    -6326 
   -5260    -4320    -4060    -4615    -5422    -6315    -6974    -6797 
   -6631    -6957    -6635    -6097    -6084    -5412    -4633    -4881 
   -4920    -4980    -5918    -6104    -5464    -5494    -5814    -6239 
   -6770    -6238    -5309    -5428    -5528    -4865    -4635    -5289 
   -6231    -6701    -6315    -6054    -6559    -6724    -6338    -6048 
   -5377    -4691    -4819    -5354    -6434    -7326    -6478    -5595 
   -6227    -6415    -5810    -5821    -5676    -5105    -5260    -5603 
   -5657    -6249    -6612    -5852    -5749    -6647    -6177    -5123 
   -5593    -5983    -5319    -5046    -5306    -5433    -4819    -3666 
   -3894    -5382    -5656    -5054    -5587    -6856    -7179    -6023 
   -4968    -5717    -6814    -6297    -5314    -5139    -5470    -6394 
   -7708    -8735    -8862    -7433    -6083    -6270    -5695    -3952 
   -3609    -4560    -5572    -6473    -6489    -5670    -5609    -6615 
   -7245    -7086    -6806    -6062    -5070    -4957    -4842    -3746 
   -3055    -3616    -4460    -5036    -5975    -7338    -7892    -7416 
   -6689    -5695    -5030    -5144    -4773    -3991    -4440    -5769 
   -6473    -6297    -5726    -5796    -7157    -8237    -7898    -7163 
   -6681    -6623    -6621    -5562    -4050    -3127    -2636    -3331 
   -5574    -8082    -9756    -9428    -7150    -5200    -3929    -2485 
   -2778    -4760    -5256    -5054    -6264    -7607    -8509    -8829 
   -7620    -6216    -5761    -5165    -4345    -4152    -4600    -5497 
   -6524    -7114    -6590    -4781    -3326    -3716    -5125    -6291 
   -6670    -6318    -5973    -5895    -5752    -5580    -5840    -7052 
   -8149    -7577    -6594    -6201    -5270    -4257    -3836    -3796 
   -4895    -6107    -5652    -5146    -6066    -7107    -7137    -6288 
   -5698    -6064    -6200    -5589    -5379    -6002    -6573    -6164 
   -5549    -5791    -5641    -4698    -4769    -5992    -7032    -7107 
   -6072    -5173    -5624    -6469    -6376    -5414    -4872    -5823 
   -6663    -5738    -4739    -4688    -4483    -4116    -4256    -5648 
   -7943    -8325    -6583    -5753    -5498    -4398    -4018    -4675 
   -5034    -5078    -5309    -6458    -8415    -8891    -7294    -6210 
   -6465    -6708    -6739    -6708    -6350    -5410    -3686    -2616 
   -3859    -5996    -6528    -5733    -5864    -6885    -6732    -5787 
   -5667    -5821    -5270    -4523    -4351    -4660    -5185    -5980 
   -7028    -7828    -7649    -6697    -5729    -5097    -5008    -4939 
   -4604    -5375    -7150    -7576    -6524    -5260    -3844    -3770 
   -6056    -7676    -6872    -5663    -5100    -5015    -5221    -5017 
   -5012    -6296    -7801    -8131    -7593    -6997    -6652    -6261 
   -5410    -4608    -4048    -3435    -3844    -5521    -6539    -6177 
   -5705    -6003    -6604    -6542    -5829    -5431    -5877    -6608 
   -6361    -5375    -5377    -6034    -5819    -4878    -4338    -4796 
   -5582    -6235    -7172    -7557    -6571    -5607    -5733    -5962 
   -5451    -4901    -5209    -5983    -6328    -6307    -6588    -7206 
   -7346    -6365    -4807    -4247    -4931    -5169    -4957    -5575 
   -6064    -5536    -5246    -5933    -6791    -6627    -5431    -4735 
   -5275    -5910    -5674    -5300    -5817    -6652    -6531    -5949 
   -6434    -7287    -6686    -5148    -4653    -5544    -6038    -5221 
   -4739    -5715    -6786    -6490    -5444    -5236    -5690    -5371 
   -4633    -4847    -5730    -6230    -6297    -6542    -7236    -7578 
   -6655    -5563    -5653    -5852    -5455    -5698    -6238    -5644 
   -4707    -4695    -5061    -4993    -4776    -5186    -6004    -6234 
   -6079    -6262    -6366    -5849    -5193    -5321    -6130    -6350 
   -5630    -5293    -6052    -6824    -6801    -6621    -6863    -6901 
   -5714    -4233    -4594    -5676    -5198    -4518    -5036    -5630 
   -5980    -6458    -6835    -7294    -7492    -6778    -6072    -6077 
   -6089    -5736    -5182    -4590    -4068    -3755    -4212    -5533 
   -6648    -6891    -6779    -6656    -6285    -6014    -6304    -6463 
   -6228    -6004    -5250    -4137    -3709    -4054    -5240    -6783 
   -7302    -6929    -6637    -6488    -6165    -5706    -5528    -5471 
   -5259    -5015    -4469    -4245    -5063    -6021    -6968    -7767 
   -7082    -5827    -5710    -6019    -5988    -5517    -4514    -3964 
   -4584    -5655    -6578    -7388    -8055    -8175    -7138    -5181 
   -3754    -3807    -4598    -5057    -5336    -5813    -6299    -6685 
   -6660    -6366    -6474    -6600    -6280    -5667    -4753    -4317 
   -5007    -5560    -5314    -5613    -6512    -6521    -5811    -5510 
   -5859    -6700    -7133    -6475    -5933    -6251    -6552    -6467 
   -6156    -5645    -4993    -4444    -4742    -5763    -6088    -5645 
   -5854    -6751    -6934    -6158    -5362    -4986    -4981    -4897 
   -4510    -4860    -6322    -7338    -6963    -5945    -5112    -4908 
   -5514    -6239    -6384    -6363    -6683    -7250    -7496    -6655 
   -5155    -4245    -3996    -3902    -4072    -4872    -6465    -7861 
   -7704    -6700    -5942    -4997    -4311    -4806    -5603    -5814 
   -5632    -5436    -5710    -6421    -7013    -7231    -7144    -6833 
   -5980    -4878    -4621    -4799    -4564    -4761    -5628    -6091 
   -6085    -5971    -5641    -5483    -5667    -5737    -5778    -6259 
   -7001    -7102    -6616    -6727    -7190    -6524    -4747    -3419 
   -3466    -4286    -4995    -5406    -5726    -6230    -6890    -7375 
   -7514    -7122    -6203    -5260    -4646    -4460    -4564    -4652 
   -5123    -6154    -6669    -6386    -6303    -6382    -5919    -5220 
   -5028    -5640    -6667    -7222    -6928    -6216    -5721    -5721 
   -5688    -5178    -4801    -5078    -5687    -6351    -6660    -6170 
   -5590    -5539    -5267    -4710    -4833    -5471    -6215    -6991 
   -6880    -6210    -6265    -6342    -6088    -6261    -6322    -5933 
   -5425    -4581    -3773    -3851    -4931    -6423    -7303    -7194 
   -6893    -6673    -6270    -6242    -6578    -6369    -5655    -4903 
   -4279    -4314    -5120    -5867    -6120    -6268    -6419    -6508 
   -6818    -6994    -6390    -5601    -5400    -5572    -5655    -5377 
   -4995    -5086    -5513    -5706    -5734    -5813    -5456    -4580 
   -4166    -4669    -5499    -6060    -6207    -6440    -6924    -6605 
   -5427    -4976    -5680    -6488    -6690    -6640    -7079    -7491 
   -6667    -5138    -4580    -5267    -6161    -6497    -5919    -4621 
   -3716    -3890    -4808    -6070    -6909    -6473    -5576    -5668 
   -6493    -7049    -7217    -7069    -6278    -4842    -3669    -3719 
   -4884    -6507    -7863    -7867    -6362    -4814    -4386    -5101 
   -6292    -6858    -6554    -6048    -5549    -5086    -4943    -5320 
   -6289    -7308    -7296    -6130    -4703    -3727    -3512    -4050 
   -5070    -6015    -6345    -6474    -6964    -7412    -7460    -7222 
   -6690    -6021    -5475    -4823    -3905    -3503    -4433    -6118 
   -7272    -7435    -6957    -6488    -6458    -6474    -5979    -5044 
