Origin Time       2025/03/28 03:50:00
Lat.              35.403
Long.             140.360
Depth. (km)       54
Mag.              4.4
Station Code      CHBH10
Station Lat.      35.5458
Station Long.     140.2417
Station Height(m) 65
Record Time       2025/03/28 03:50:47
Sampling Freq(Hz) 100Hz
Duration Time(s)  120
Dir.              4
Scale Factor      7845(gal)/8223790
Max. Acc. (gal)   6.486
Last Correction   2025/03/28 03:50:47
Memo.             
[...]
    4151     4145     4144     4144     4144     4148     4147     4145 
    4148     4148     4147     4152     4151     4147     4148     4145 
    4145     4149     4151     4151     4151     4148     4145     4148 
    4152     4158     4158     4151     4149     4145     4139     4141 
    4147     4148     4147     4144     4143     4148     4155     4156 
    4159     4162     4156     4149     4149     4148     4145     4147 
    4149     4148     4148     4151     4153     4152     4151     4148 
    4145     4145     4143     4144     4153     4151     4143     4141 
    4145     4148     4143     4135     4136     4144     4148     4152 
    4153     4153     4158     4155     4148     4144     4144     4148 
    4153     4152     4145     4143     4140     4139     4141     4145 
    4149     4148     4143     4141     4145     4148     4148     4149 
    4148     4145     4143     4144     4149     4155     4153     4148 
    4148     4149     4148     4149     4151     4145     4139     4139 
    4139     4143     4148     4151     4156     4159     4153     4149 
    4147     4148     4155     4156     4152     4151     4149     4155 
    4153     4144     4144     4147     4147     4148     4145     4148 
    4153     4149     4147     4151     4152     4145     4141     4147 
    4155     4152     4148     4153     4156     4153     4151     4144 
    4140     4147     4148     4147     4148     4147     4143     4147 
    4149     4151     4149     4145     4149     4152     4147     4148 
    4148     4143     4143     4141     4141     4145     4148     4151 
    4152     4145     4141     4147     4151     4147     4145     4144 
    4143     4143     4148     4152     4151     4144     4139     4139 
    4148     4159     4159     4155     4153     4152     4145     4137 
    4139     4141     4137     4139     4144     4148     4155     4152 
    4141     4141     4147     4149     4152     4149     4148     4153 
    4151     4147     4151     4152     4151     4149     4143     4141 
    4145     4144     4143     4149     4145     4137     4145     4155 
    4156     4159     4155     4149     4152     4152     4148     4151 
    4153     4159     4162     4156     4143     4135     4136     4136 
    4139     4147     4151     4149     4151     4153     4152     4149 
    4145     4143     4149     4156     4152     4147     4148     4149 
    4148     4147     4145     4144     4141     4144     4148     4148 
    4147     4145     4143     4141     4145     4151     4151     4151 
    4152     4147     4144     4148     4151     4153     4149     4140 
    4140     4141     4144     4149     4147     4144     4147     4149 
    4152     4152     4152     4153     4148     4141     4140     4140 
    4137     4143     4148     4151     4153     4153     4149     4148 
    4148     4148     4148     4149     4149     4151     4149     4145 
    4145     4153     4153     4140     4140     4153     4156     4151 
    4148     4147     4147     4148     4141     4140     4147     4144 
    4141     4149     4152     4147     4147     4147     4147     4145 
    4144     4148     4155     4152     4141     4137     4140     4149 
    4152     4151     4153     4156     4155     4152     4148     4143 
    4141     4148     4153     4151     4147     4144     4145     4151 
    4155     4151     4149     4149     4147     4147     4148     4149 
    4152     4153     4155     4153     4144     4140     4152     4158 
    4148     4148     4153     4155     4152     4147     4144     4147 
    4151     4151     4149     4151     4153     4149     4144     4151 
    4156     4160     4160     4153     4153     4153     4148     4140 
    4136     4141     4145     4145     4149     4156     4159     4153 
    4152     4153     4149     4148     4147     4152     4156     4152 
    4148     4149     4148     4144     4144     4149     4145     4140 
    4140     4141     4141     4144     4147     4148     4147     4149 
    4149     4149     4148     4145     4145     4148     4147     4141 
    4141     4145     4152     4152     4145     4145     4145     4139 
    4133     4139     4144     4147     4149     4156     4159     4153 
    4151     4153     4151     4149     4148     4145     4147     4144 
    4141     4145     4149     4147     4147     4151     4149     4144 
    4144     4151     4149     4145     4145     4145     4143     4143 
    4148     4153     4151     4144     4145     4151     4153     4148 
    4144     4149     4152     4147     4147     4149     4148     4144 
    4140     4139     4143     4145     4148     4153     4153     4147 
    4144     4145     4151     4159     4163     4159     4152     4147 
    4144     4149     4160     4183     4203     4162     4040     3973 
    4029     4104     4195     4310     4326     4301     4239     4031 
    3955     4044     3966     4041     4347     4270     4110     4179 
    4043     4035     4251     4168     4168     4247     4081     4207 
    4328     4010     4060     4336     4106     3859     3948     4233 
    4549     4341     3915     4086     4274     4035     4051     4178 
    3940     3975     4293     4217     4187     4307     4239     4422 
    4348     3669     3690     4247     4141     4014     4311     4283 
    4025     3981     4175     4522     4564     4162     3813     3874 
    4143     4104     3921     3971     4050     4159     4298     4419 
    4741     4698     4036     3825     4159     4082     3624     3474 
    4028     4650     4384     4104     4554     4496     4027     4309 
    4429     3759     3393     3631     4217     4476     3748     3690 
    4934     5161     4233     3931     4126     3959     3623     3910 
    4525     4256     3731     4121     4577     4307     3819     3807 
    4283     4410     4101     4147     4375     4228     3985     4099 
    4325     4167     3997     4112     4074     4068     4274     4222 
    3975     3834     3987     4671     5076     4344     3659     3978 
    4228     3964     3720     3627     3956     4502     4704     4715 
    4506     4245     4340     4102     3558     3693     3919     3751 
    4097     4665     4673     4627     4449     3852     3626     3755 
    3948     4287     3944     3335     3766     4318     4280     4557 
    4926     4681     4062     3636     4045     4630     4245     3858 
    4095     3977     3726     4031     4415     4511     4526     4708 
    4795     4218     3581     3626     3896     4017     3839     3701 
    4170     4409     4224     4661     5050     4644     4193     3865 
    3780     4070     3861     3289     3203     3468     4025     4529 
    4518     4460     4376     4321     4604     4417     3778     3672 
    3838     3905     4018     4110     4217     4168     4125     4830 
    5398     4646     3836     3927     4155     4075     3892     4207 
    4710     4176     3541     4101     4348     3811     4031     4584 
    4428     4066     4032     4205     4083     3742     4133     4785 
    4176     3203     3611     4302     3889     3391     3809     4637 
    4757     4217     4303     4675     4275     3796     3659     3516 
    3527     3802     4341     5003     5197     4818     4695     5107 
    5103     4172     3207     3287     3763     3385     2997     3707 
    4642     5038     5252     5184     4444     3422     2961     3431 
    3897     3542     3424     4220     4966     5236     5003     4446 
    4479     4733     4338     3840     3384     2789     2799     3435 
    3867     4117     4337     4504     4928     4995     4499     4433 
    4371     3871     3669     3495     3330     3915     4569     4633 
    4488     4336     4488     4761     4622     4322     4106     4104 
    4091     3721     3623     3935     4074     4249     4480     4318 
    4094     4322     4631     4299     3682     3746     4062     3805 
    3588     4005     4511     4608     4484     4483     4560     4226 
    3620     3580     3937     4048     4093     3910     3353     3307 
    3946     4545     4824     4904     5026     4957     4294     3600 
    3520     3829     4329     4708     4394     3778     3596     3906 
    4391     4407     3963     3856     4083     4203     4297     4465 
    4530     4337     4224     4502     4645     4243     3809     3856 
    4198     4337     4045     3747     3848     3892     3439     3032 
    3395     4158     4410     4259     4305     4587     4671     4332 
    4318     4707     4361     3537     3346     3793     4175     4028 
    4090     4962     5321     4558     4175     4457     4280     3923 
    4043     4232     4140     3792     3717     4283     4567     4256 
    4183     4340     4509     4779     4735     4461     4302     3817 
    3499     3889     3742     2959     2874     3457     3982     4106 
    4070     4322     4351     3909     3807     4178     4548     4760 
    4846     4870     4707     4413     4167     3897     3821     3933 
    3863     3865     3963     3807     3686     3835     4178     4510 
    4631     4621     4355     4144     4423     4581     4518     4490 
    4166     4054     4349     4230     3985     4067     4149     4118 
    3804     3569     3850     3916     3835     4194     4217     3854 
    4099     4700     4915     4558     3929     3605     3431     3256 
    3676     4588     5070     4671     3909     3345     3069     3372 
    4120     4500     4546     4904     5215     4851     4291     4217 
    4428     4122     3065     2606     3731     4974     5063     4711 
    4365     4110     4360     4657     4563     4432     4328     4280 
    4149     3564     3130     3495     4055     4212     4241     4450 
    4708     4619     3970     3341     3219     3260     3497     4074 
    4324     3959     3599     3730     4152     4236     3888     3819 
    4351     4936     5016     4579     4099     4198     4792     4908 
    4271     3923     4252     4537     4608     4695     4666     4514 
    4460     4730     5085     4892     4406     4236     4048     3724 
    3609     3499     3291     3296     3615     3889     3524     2839 
    2826     3229     3161     2875     2984     3773     5084     5998 
    6114     5768     5159     4779     4679     4336     3862     3466 
    3223     3145     2925     3119     4405     5667     5915     5763 
    5391     4580     4136     4355     4230     3628     3441     3774 
    4099     4216     4299     4359     3979     3327     3267     3742 
    3971     3910     3743     3450     3389     3699     4125     4607 
    4916     4899     4893     4953     4774     4347     3828     3500 
    3550     3574     3449     3762     4444     4712     4604     4665 
    4796     4896     4808     4066     3346     3454     4129     5127 
    5691     5481     5412     5232     4383     3582     2901     2072 
    1459      967      637     1015     1842     2643     3304     3547 
    3686     4002     3920     3716     4229     5143     5865     6238 
    6133     5695     5304     5136     4981     4583     4147     3954 
    3982     3981     3678     3396     3761     4572     5120     5382 
    5579     5331     4368     3156     2378     2358     2991     4064 
    5368     6378     6508     6007     5578     5383     5198     4839 
    4467     4464     4857     5247     5205     5053     5709     6866 
    7015     5574     3015      247     -908      901     4371     6523 
    5833     3481     1497     1112     2697     5221     6682     6097 
    4045     1412    -1135    -2124     -294     3133     5620     5832 
    4725     4554     5903     7188     7315     6463     5290     4536 
    4043     3076     1879     1252     1687     3256     5111     5935 
    5343     4287     4171     5198     5926     5472     4781     4523 
    4153     3418     2793     2830     3893     5647     6741     5881 
    3329     1167     1375     3659     6049     6932     6241     4957 
    3600     2404     2153     2876     3647     4279     4557     3541 
    1525      353     1395     3846     5589     5983     5941     6111 
    6737     7249     6467     4899     3836     3071     2551     2806 
    3156     2863     2361     2180     2508     3323     4176     4610 
    4504     4113     3904     3921     3947     4060     4394     4888 
    5202     4930     4341     4257     4772     5185     5044     4054 
    2313     1161     1856     3863     5398     5132     3505     2095 
    1742     2374     3782     5485     6745     7121     6835     6359 
    5907     5837     6370     6882     6542     4978     2729     1379 
    1895     3770     5796     6373     5150     3838     3485     3538 
    3555     3665     4174     4973     5483     5724     6089     6529 
    6953     6999     6126     4815     3962     3704     3569     3149 
    2972     3531     4000     3904     3601     2818     1455      234 
    -508     -816     -364     1038     2754     3917     4704     5745 
    6565     6431     5702     4830     3542     1622     -313    -1140 
    -414     1312     3283     4649     4827     4429     4518     5348 
    6444     7088     7091     7095     7381     7454     6995     5931 
    4256     2601     1719     1761     2835     4530     5717     6060 
    6264     7106     8384     8904     7997     5800     2867      650 
     449     1764     3210     4139     4499     4476     4549     4816 
    4955     4861     4298     3415     3353     4247     4764     4434 
    3773     2940     1752       82    -1659    -2651    -2488    -1096 
    1395     4217     6516     7933     8259     7307     5408     3468 
    2605     3638     5821     7165     7217     7024     6779     6274 
    5684     5036     4554     4342     3959     3323     2546     1698 
    1458     2371     4036     5614     6353     6049     5178     4136 
    3254     3276     4455     5996     7196     7927     7824     6473 
    4518     3176     2586     1822      519     -638    -1201    -1120 
      48     2301     4617     6034     6374     6191     6238     6650 
    7107     7287     6858     5946     4914     3630     2091      699 
    -213     -383      175     1115     2258     3510     4734     5792 
    6288     5937     5194     4896     5405     6293     6887     6862 
    6345     5850     5782     5956     5935     5482     4618     3724 
    2979     2014      893      399     1170     3048     4968     5811 
    5371     4372     3820     4116     4847     5475     5806     5892 
    5771     5428     4831     4020     3181     2276     1165      201 
    -126      176      908     2096     3545     4706     5397     5852 
    6299     6797     7071     6737     5759     4492     3412     2948 
    3380     4534     5682     5991     5163     3712     2407     1802 
    2207     3335     4507     5321     5398     4579     3555     3042 
    3105     3765     4841     5752     6342     6705     6596     5918 
    4926     3739     2367     1223      787      993     1769     3169 
    4741     5994     6920     7407     7187     6350     5196     3967 
    2810     1817     1300     1732     2955     4085     4423     3928 
    3029     2380     2396     2986     3720     4113     4145     4255 
    4533     4899     5694     6945     7871     7697     6496     5143 
    4305     3969     4041     4202     3805     2903     2097     1503 
    1042      936     1356     2228     3277     4189     5043     5948 
    6708     7276     7526     7207     6324     4850     3145     2045 
    1752     1979     2544     3082     3379     3715     4283     4995 
    5794     6496     6664     6143     5250     4255     3299     2708 
    2577     2531     2439     2666     3477     4557     5265     5281 
    4804     4518     5084     6088     6393     5694     4614     3534 
    2370     1224      568      729     1595     2933     4487     5917 
    7006     7693     7705     6671     4843     3095     2083     1985 
    2524     2902     2513     1721     1459     2164     3388     4482 
    5144     5359     5391     5638     6133     6648     7091     7218 
    6664     5489     4071     2782     1949     1800     2243     2747 
    2910     2992     3312     3721     3991     4121     4280     4469 
    4425     4256     4374     4783     5188     5501     5865     6299 
    6562     6515     6041     4916     3445     2317     1656     1213 
     873      658      886     1772     3011     4288     5417     6241 
    6808     6966     6501     5734     4982     4226     3566     3130 
    2976     3163     3577     4012     4283     4203     3951     4048 
    4568     5061     5103     4631     4008     3613     3530     3663 
    3843     3951     3929     3682     3277     3011     3100     3589 
    4386     5104     5429     5447     5231     4888     4641     4448 
    4197     3827     3315     2956     2965     3244     3815     4591 
    5240     5567     5401     4639     3711     3373     3924     4761 
    5017     4639     4105     3665     3592     4086     4773     5208 
    5375     5301     4858     4198     3734     3597     3484     3119 
    2682     2479     2555     2856     3392     4052     4514     4626 
    4602     4657     4841     5081     5238     5287     5302     5170 
    4665     3893     3312     3183     3289     3252     2917     2532 
    2535     3060     3793     4313     4460     4360     4264     4301 
    4205     3771     3337     3227     3456     4010     4801     5536 
    6011     6187     6042     5695     5367     5051     4644     4149 
    3465     2601     1908     1699     2130     3079     3997     4473 
    4496     4145     3701     3565     3743     4041     4417     4715 
    4757     4719     4880     5174     5340     5281     5055     4715 
    4332     3989     3708     3469     3289     3196     3168     3218 
    3465     3969     4595     5221     5715     5821     5479     4945 
    4476     4280     4459     4760     4774     4472     4117     3740 
    3322     2988     2651     2295     2255     2559     2920     3318 
    3747     4143     4639     5189     5470     5298     4765     4324 
    4297     4394     4391     4519     4797     5022     5238     5464 
    5443     5026     4305     3493     2893     2666     2763     3126 
    3651     4170     4590     4847     4946     4997     4985     4896 
    4835     4776     4692     4665     4580     4332     4083     3928 
    3821     3685     3389     2978     2623     2435     2536     2961 
    3601     4257     4652     4644     4361     4021     3840     4012 
    4471     4878     4903     4406     3584     2817     2343     2278 
    2633     3307     4126     4793     5078     5031     4800     4442 
    3958     3410     3005     2898     3167     3888     4854     5645 
    6076     6141     5886     5475     5067     4708     4328     3846 
    3345     3107     3446     4396     5533     6303     6384     5715 
    4592     3600     3082     3032     3435     4118     4710     4996 
    4851     4178     3227     2425     2016     2168     2882     3869 
    4806     5444     5661     5678     5672     5456     4963     4347 
    3619     2839     2253     2038     2208     2721     3505     4290 
    4698     4765     4819     4941     5063     5150     5089     4716 
    4023     3312     3011     3161     3445     3720     4017     4267 
