Origin Time       2025/03/28 03:50:00
Lat.              35.403
Long.             140.360
Depth. (km)       54
Mag.              4.4
Station Code      CHBH16
Station Lat.      35.1384
Station Long.     139.9649
Station Height(m) -1842.75
Record Time       2025/03/28 03:50:50
Sampling Freq(Hz) 100Hz
Duration Time(s)  120
Dir.              3
Scale Factor      7845(gal)/8223790
Max. Acc. (gal)   0.251
Last Correction   2025/03/28 03:50:50
Memo.             
[...]
  -17988   -17990   -17987   -17988   -17988   -17987   -17988   -17990 
  -17990   -17988   -17988   -17988   -17990   -17988   -17984   -17986 
  -17991   -17990   -17987   -17987   -17987   -17986   -17988   -17990 
  -17990   -17990   -17988   -17987   -17988   -17988   -17990   -17991 
  -17988   -17988   -17991   -17990   -17988   -17987   -17987   -17987 
  -17987   -17987   -17987   -17990   -17990   -17987   -17988   -17987 
  -17986   -17987   -17988   -17987   -17988   -17990   -17990   -17988 
  -17987   -17988   -17988   -17987   -17990   -17990   -17987   -17987 
  -17987   -17990   -17991   -17987   -17984   -17987   -17990   -17991 
  -17988   -17987   -17987   -17988   -17988   -17988   -17990   -17990 
  -17986   -17988   -17990   -17986   -17990   -17991   -17987   -17987 
  -17990   -17987   -17986   -17987   -17984   -17986   -17988   -17990 
  -17988   -17986   -17987   -17988   -17988   -17990   -17990   -17990 
  -17988   -17988   -17990   -17988   -17990   -17988   -17988   -17988 
  -17986   -17986   -17988   -17988   -17987   -17987   -17988   -17988 
  -17988   -17988   -17988   -17988   -17990   -17988   -17986   -17987 
  -17988   -17988   -17986   -17988   -17990   -17987   -17987   -17990 
  -17990   -17988   -17987   -17987   -17987   -17987   -17986   -17987 
  -17988   -17987   -17984   -17987   -17988   -17988   -17988   -17987 
  -17988   -17988   -17986   -17986   -17987   -17987   -17988   -17987 
  -17988   -17990   -17990   -17988   -17990   -17988   -17988   -17987 
  -17987   -17990   -17988   -17986   -17988   -17988   -17988   -17991 
  -17988   -17987   -17991   -17990   -17988   -17990   -17988   -17987 
  -17988   -17992   -17991   -17987   -17986   -17987   -17988   -17990 
  -17988   -17987   -17988   -17990   -17988   -17987   -17990   -17990 
  -17987   -17987   -17988   -17987   -17990   -17990   -17988   -17988 
  -17986   -17987   -17990   -17988   -17988   -17988   -17988   -17991 
  -17991   -17986   -17986   -17991   -17991   -17987   -17987   -17990 
  -17988   -17988   -17991   -17990   -17987   -17990   -17991   -17987 
  -17987   -17990   -17988   -17987   -17990   -17988   -17987   -17990 
  -17990   -17988   -17990   -17991   -17990   -17988   -17988   -17988 
  -17988   -17988   -17990   -17990   -17988   -17990   -17988   -17987 
  -17988   -17991   -17992   -17990   -17990   -17991   -17988   -17984 
  -17987   -17990   -17990   -17988   -17990   -17988   -17986   -17988 
  -17991   -17988   -17984   -17990   -17990   -17987   -17990   -17990 
  -17986   -17987   -17988   -17988   -17991   -17990   -17987   -17988 
  -17988   -17988   -17988   -17987   -17987   -17987   -17988   -17990 
  -17990   -17990   -17988   -17988   -17988   -17990   -17988   -17986 
  -17988   -17990   -17990   -17991   -17990   -17988   -17988   -17987 
  -17988   -17991   -17988   -17987   -17990   -17988   -17988   -17990 
  -17987   -17986   -17987   -17986   -17987   -17990   -17988   -17987 
  -17988   -17990   -17988   -17986   -17987   -17988   -17988   -17990 
  -17990   -17987   -17988   -17990   -17987   -17988   -17990   -17990 
  -17987   -17987   -17990   -17987   -17988   -17990   -17990   -17988 
  -17988   -17990   -17988   -17986   -17987   -17988   -17987   -17988 
  -17990   -17990   -17987   -17988   -17990   -17988   -17986   -17986 
  -17988   -17988   -17986   -17986   -17987   -17988   -17987   -17987 
  -17988   -17988   -17987   -17987   -17990   -17991   -17987   -17986 
  -17990   -17990   -17988   -17991   -17990   -17986   -17987   -17990 
  -17988   -17988   -17988   -17988   -17990   -17986   -17986   -17988 
  -17988   -17988   -17988   -17987   -17988   -17991   -17988   -17987 
  -17988   -17987   -17987   -17986   -17986   -17988   -17990   -17990 
  -17988   -17988   -17988   -17988   -17990   -17991   -17991   -17988 
  -17986   -17990   -17991   -17987   -17986   -17988   -17990   -17990 
  -17990   -17991   -17988   -17987   -17990   -17990   -17988   -17990 
  -17988   -17986   -17987   -17988   -17987   -17987   -17987   -17986 
  -17984   -17990   -17994   -17990   -17987   -17987   -17988   -17994 
  -17990   -17984   -17988   -17992   -17992   -17990   -17986   -17990 
  -17991   -17987   -17988   -17990   -17991   -17991   -17988   -17990 
  -17991   -17990   -17990   -17988   -17987   -17988   -17990   -17988 
  -17987   -17990   -17990   -17988   -17988   -17990   -17988   -17986 
  -17988   -17991   -17990   -17990   -17991   -17990   -17988   -17987 
  -17988   -17988   -17988   -17991   -17991   -17987   -17987   -17986 
  -17986   -17988   -17990   -17987   -17984   -17986   -17988   -17988 
  -17987   -17988   -17990   -17991   -17988   -17986   -17988   -17990 
  -17988   -17988   -17984   -17987   -17994   -17990   -17987   -17990 
  -17990   -17988   -17990   -17990   -17987   -17988   -17988   -17987 
  -17990   -17990   -17987   -17990   -17988   -17986   -17988   -17990 
  -17986   -17988   -17991   -17988   -17990   -17992   -17987   -17986 
  -17990   -17988   -17988   -17990   -17987   -17988   -17992   -17991 
  -17988   -17988   -17986   -17984   -17987   -17990   -17988   -17987 
  -17987   -17987   -17988   -17991   -17987   -17984   -17987   -17990 
  -17988   -17987   -17988   -17988   -17987   -17987   -17986   -17986 
  -17988   -17990   -17987   -17988   -17991   -17987   -17987   -17987 
  -17983   -17984   -17992   -17990   -17984   -17988   -17990   -17988 
  -17987   -17984   -17987   -17991   -17987   -17984   -17988   -17990 
  -17986   -17986   -17988   -17986   -17983   -17990   -17992   -17984 
  -17983   -17987   -17990   -17990   -17991   -17988   -17988   -17990 
  -17987   -17988   -17991   -17991   -17991   -17988   -17986   -17987 
  -17991   -17992   -17992   -17990   -17987   -17987   -17987   -17990 
  -17990   -17988   -17988   -17987   -17986   -17988   -17990   -17987 
  -17986   -17991   -17990   -17986   -17990   -17990   -17987   -17988 
  -17988   -17987   -17987   -17986   -17987   -17990   -17988   -17987 
  -17990   -17990   -17991   -17990   -17987   -17987   -17990   -17988 
  -17987   -17990   -17988   -17987   -17984   -17986   -17990   -17990 
  -17986   -17986   -17990   -17987   -17984   -17987   -17988   -17987 
  -17984   -17986   -17991   -17987   -17984   -17990   -17988   -17986 
  -17987   -17987   -17988   -17988   -17988   -17991   -17988   -17984 
  -17990   -17991   -17987   -17988   -17990   -17986   -17987   -17990 
  -17990   -17990   -17988   -17987   -17988   -17988   -17987   -17987 
  -17988   -17992   -17988   -17986   -17991   -17991   -17986   -17986 
  -17990   -17990   -17987   -17990   -17994   -17990   -17988   -17991 
  -17991   -17988   -17988   -17992   -17987   -17984   -17992   -17990 
  -17982   -17991   -17994   -17986   -17987   -17990   -17987   -17987 
  -17988   -17990   -17988   -17987   -17988   -17992   -17991   -17991 
  -17988   -17984   -17987   -17990   -17990   -17990   -17990   -17988 
  -17990   -17991   -17990   -17988   -17988   -17990   -17991   -17990 
  -17990   -17990   -17990   -17990   -17988   -17991   -17991   -17986 
  -17986   -17991   -17990   -17988   -17991   -17991   -17988   -17990 
  -17991   -17988   -17987   -17990   -17990   -17991   -17990   -17986 
  -17986   -17990   -17990   -17984   -17984   -17988   -17990   -17988 
  -17990   -17991   -17987   -17986   -17990   -17990   -17987   -17988 
  -17988   -17986   -17986   -17990   -17987   -17986   -17990   -17992 
  -17991   -17988   -17990   -17991   -17991   -17988   -17987   -17987 
  -17991   -17992   -17991   -17991   -17991   -17990   -17991   -17988 
  -17988   -17988   -17987   -17988   -17988   -17988   -17990   -17990 
  -17987   -17987   -17990   -17987   -17987   -17990   -17990   -17988 
  -17987   -17988   -17990   -17987   -17988   -17990   -17988   -17990 
  -17990   -17988   -17988   -17990   -17988   -17987   -17988   -17988 
  -17988   -17990   -17990   -17988   -17988   -17988   -17988   -17990 
  -17990   -17990   -17990   -17990   -17990   -17986   -17987   -17992 
  -17991   -17991   -17991   -17987   -17987   -17987   -17987   -17990 
  -17991   -17988   -17986   -17987   -17988   -17988   -17987   -17988 
  -17990   -17987   -17988   -17990   -17990   -17986   -17984   -17988 
  -17991   -17986   -17984   -17987   -17986   -17987   -17991   -17988 
  -17986   -17991   -17991   -17987   -17990   -17990   -17986   -17987 
  -17988   -17988   -17990   -17988   -17987   -17987   -17988   -17988 
  -17987   -17990   -17992   -17987   -17984   -17990   -17991   -17988 
  -17990   -17988   -17987   -17991   -17990   -17986   -17988   -17988 
  -17988   -17988   -17984   -17986   -17991   -17991   -17990   -17991 
  -17988   -17987   -17991   -17991   -17987   -17990   -17990   -17987 
  -17988   -17988   -17987   -17990   -17991   -17990   -17990   -17990 
  -17988   -17991   -17988   -17984   -17986   -17988   -17988   -17988 
  -17988   -17987   -17988   -17988   -17987   -17991   -17992   -17987 
  -17986   -17990   -17991   -17987   -17987   -17991   -17992   -17990 
  -17988   -17990   -17988   -17988   -17991   -17991   -17990   -17991 
  -17990   -17986   -17987   -17991   -17992   -17992   -17988   -17987 
  -17990   -17990   -17987   -17987   -17987   -17986   -17986   -17990 
  -17991   -17984   -17986   -17991   -17990   -17988   -17988   -17987 
  -17990   -17992   -17991   -17987   -17988   -17990   -17991   -17991 
  -17988   -17987   -17988   -17990   -17988   -17988   -17991   -17992 
  -17988   -17986   -17990   -17992   -17992   -17990   -17986   -17987 
  -17990   -17987   -17987   -17990   -17990   -17987   -17988   -17990 
  -17990   -17991   -17990   -17987   -17986   -17987   -17990   -17990 
  -17990   -17990   -17988   -17986   -17990   -17992   -17991   -17991 
  -17990   -17988   -17987   -17991   -17994   -17990   -17984   -17987 
  -17991   -17990   -17988   -17988   -17990   -17990   -17988   -17987 
  -17991   -17990   -17986   -17988   -17992   -17988   -17986   -17988 
  -17992   -17991   -17990   -17988   -17984   -17987   -17990   -17990 
  -17990   -17990   -17990   -17990   -17987   -17988   -17991   -17990 
  -17990   -17990   -17992   -17994   -17988   -17988   -17992   -17990 
  -17987   -17990   -17988   -17986   -17988   -17986   -17986   -17992 
  -17991   -17987   -17988   -17987   -17986   -17988   -17990   -17987 
  -17987   -17990   -17990   -17990   -17988   -17988   -17990   -17990 
  -17987   -17987   -17990   -17990   -17988   -17986   -17986   -17988 
  -17987   -17986   -17987   -17988   -17987   -17987   -17987   -17987 
  -17988   -17988   -17990   -17991   -17991   -17987   -17987   -17988 
  -17990   -17990   -17988   -17988   -17988   -17988   -17987   -17987 
  -17990   -17991   -17990   -17988   -17988   -17988   -17990   -17990 
  -17988   -17987   -17990   -17990   -17990   -17988   -17987   -17987 
  -17990   -17991   -17990   -17988   -17988   -17986   -17988   -17990 
  -17984   -17986   -17991   -17988   -17987   -17991   -17990   -17988 
  -17988   -17987   -17988   -17991   -17990   -17990   -17986   -17983 
  -17988   -17990   -17987   -17988   -17988   -17987   -17990   -17990 
  -17987   -17988   -17988   -17988   -17990   -17986   -17986   -17990 
  -17988   -17986   -17990   -17991   -17988   -17986   -17987   -17992 
  -17995   -17990   -17986   -17988   -17988   -17986   -17988   -17988 
  -17986   -17991   -17992   -17988   -17988   -17987   -17990   -17994 
  -17988   -17986   -17990   -17988   -17986   -17988   -17990   -17988 
  -17990   -17990   -17988   -17990   -17990   -17988   -17990   -17988 
  -17984   -17990   -17994   -17991   -17984   -17987   -17994   -17992 
  -17986   -17988   -17992   -17988   -17987   -17987   -17984   -17986 
  -17991   -17991   -17988   -17990   -17988   -17987   -17992   -17991 
  -17987   -17988   -17990   -17986   -17984   -17987   -17988   -17987 
  -17990   -17991   -17988   -17988   -17990   -17988   -17990   -17990 
  -17988   -17987   -17986   -17988   -17991   -17987   -17986   -17988 
  -17986   -17987   -17988   -17988   -17988   -17988   -17987   -17987 
  -17987   -17988   -17988   -17987   -17987   -17991   -17992   -17990 
  -17988   -17988   -17988   -17990   -17987   -17988   -17991   -17992 
  -17988   -17987   -17991   -17992   -17990   -17991   -17995   -17999 
  -18007   -18019   -18036   -18052   -18061   -18064   -18067   -18068 
  -18069   -18073   -18076   -18080   -18077   -18058   -18026   -17986 
  -17938   -17898   -17863   -17832   -17813   -17805   -17802   -17813 
  -17840   -17880   -17925   -17960   -17980   -17991   -17992   -17980 
  -17959   -17949   -17953   -17960   -17967   -17975   -17988   -18009 
  -18033   -18061   -18094   -18121   -18112   -18068   -18029   -18007 
  -17982   -17944   -17915   -17905   -17878   -17838   -17860   -17942 
  -17975   -17914   -17891   -18011   -18150   -18141   -18046   -18037 
  -18131   -18226   -18241   -18175   -18080   -18026   -18029   -18014 
  -17917   -17793   -17780   -17892   -17973   -17942   -17876   -17872 
  -17964   -18069   -18098   -18069   -18029   -17994   -17994   -18042 
  -18076   -18044   -18017   -18046   -18060   -18013   -17965   -17946 
  -17911   -17865   -17856   -17853   -17861   -17925   -17976   -17957 
  -17964   -18023   -18052   -18057   -18073   -18042   -17979   -18003 
  -18114   -18184   -18145   -18036   -17934   -17905   -17923   -17918 
  -17869   -17801   -17771   -17820   -17921   -18054   -18160   -18184 
  -18208   -18252   -18212   -18100   -18011   -18007   -18054   -18057 
  -18002   -17973   -17996   -18002   -17956   -17950   -17991   -17946 
  -17874   -17926   -17988   -17928   -17879   -17925   -17934   -17860 
  -17814   -17829   -17861   -17913   -17948   -17972   -18029   -18029 
  -17955   -17949   -17984   -17973   -17960   -17929   -17842   -17794 
  -17802   -17824   -17918   -18069   -18158   -18202   -18222   -18192 
  -18176   -18183   -18112   -18000   -17984   -18019   -17984   -17917 
  -17909   -17937   -17955   -17942   -17896   -17847   -17856   -17946 
  -18031   -18056   -18072   -18095   -18087   -18045   -18011   -18014 
  -18052   -18103   -18117   -18088   -18065   -17998   -17867   -17809 
  -17844   -17882   -17932   -17983   -17977   -17955   -17984   -18064 
  -18146   -18188   -18189   -18168   -18088   -17973   -17923   -17917 
  -17861   -17811   -17860   -17953   -18003   -18009   -17984   -17944 
  -17938   -17967   -17963   -17934   -17919   -17923   -17963   -18014 
  -18027   -18044   -18069   -18046   -18004   -17998   -17995   -17971 
  -17940   -17928   -17950   -17964   -17949   -17933   -17936   -17950 
  -17977   -18027   -18094   -18130   -18139   -18129   -18091   -18052 
  -18037   -18056   -18075   -18030   -17969   -17956   -17914   -17841 
  -17820   -17820   -17803   -17811   -17829   -17853   -17929   -18017 
  -18064   -18096   -18133   -18148   -18127   -18077   -18017   -17972 
  -17972   -17994   -17983   -17975   -18009   -18030   -18004   -17950 
  -17915   -17921   -17917   -17919   -17992   -18057   -18025   -17961 
  -17938   -17948   -17999   -18094   -18149   -18126   -18079   -18050 
  -18022   -17967   -17919   -17915   -17923   -17949   -18019   -18083 
  -18095   -18092   -18094   -18071   -18009   -17933   -17886   -17876 
  -17851   -17783   -17767   -17836   -17898   -17937   -17988   -18022 
  -18040   -18075   -18115   -18092   -18015   -18004   -18061   -18050 
  -17995   -17982   -17965   -17957   -18027   -18090   -18045   -17977 
  -17940   -17903   -17919   -17980   -17988   -17961   -17942   -17913 
  -17922   -18014   -18100   -18091   -18038   -18006   -17984   -17961 
  -17944   -17937   -17940   -17949   -17999   -18076   -18110   -18090 
  -18057   -18057   -18052   -17982   -17922   -17929   -17944   -17967 
  -18009   -18017   -17975   -17906   -17856   -17880   -17964   -18037 
  -18052   -18025   -18025   -18048   -18025   -17969   -17953   -17994 
  -18036   -18018   -18000   -18025   -18006   -17919   -17849   -17825 
  -17841   -17902   -17983   -18038   -18056   -18054   -18031   -18000 
  -17998   -18023   -18037   -18025   -18004   -17984   -17988   -18006 
  -17963   -17891   -17902   -17972   -18006   -18004   -18000   -17995 
  -17999   -17999   -17976   -17964   -17986   -17998   -17994   -18006 
  -18053   -18112   -18139   -18125   -18075   -18017   -17972   -17937 
  -17933   -17961   -17991   -18036   -18087   -18084   -18031   -17992 
  -17995   -17995   -17979   -18004   -18042   -18011   -17953   -17922 
  -17903   -17896   -17926   -17979   -18011   -18007   -17963   -17898 
  -17874   -17896   -17899   -17864   -17851   -17884   -17926   -17957 
  -18013   -18085   -18085   -18030   -18057   -18123   -18100   -18033 
  -17982   -17940   -17907   -17902   -17919   -17907   -17911   -18004 
  -18052   -18002   -18007   -18050   -18030   -18006   -18023   -18045 
  -18049   -18036   -18034   -18026   -17977   -17953   -17967   -17969 
  -17975   -17979   -17949   -17937   -17979   -18017   -17995   -17942 
  -17915   -17941   -17983   -18019   -18069   -18114   -18088   -18017 
  -17996   -18009   -17987   -17982   -17992   -17950   -17890   -17849 
  -17830   -17869   -17942   -17959   -17906   -17888   -17960   -18046 
  -18088   -18088   -18073   -18095   -18144   -18164   -18139   -18076 
  -18014   -17992   -17967   -17914   -17895   -17922   -17959   -17996 
  -18004   -17959   -17929   -17946   -17988   -18063   -18131   -18108 
  -18007   -17942   -17982   -18046   -18023   -17963   -17972   -18011 
  -18017   -17994   -17941   -17894   -17888   -17911   -17965   -18034 
  -18050   -18002   -17963   -17952   -17928   -17953   -18042   -18054 
  -17987   -17960   -17967   -17942   -17906   -17915   -17975   -18025 
  -18015   -17959   -17898   -17874   -17871   -17856   -17851   -17891 
  -17948   -17953   -17917   -17941   -18069   -18191   -18229   -18225 
  -18199   -18158   -18141   -18152   -18142   -18095   -18064   -18042 
  -17967   -17861   -17799   -17795   -17847   -17928   -17987   -18017 
  -18031   -18050   -18069   -18044   -17971   -17913   -17891   -17895 
  -17914   -17930   -17929   -17922   -17942   -17979   -18010   -18022 
  -18006   -17995   -17992   -17957   -17928   -17963   -18037   -18110 
  -18160   -18150   -18064   -17940   -17883   -17932   -17964   -17955 
  -18003   -18052   -18031   -18000   -17955   -17923   -17959   -17972 
  -17937   -17911   -17874   -17845   -17884   -17948   -18002   -18068 
  -18115   -18095   -18060   -18073   -18080   -18054   -18040   -18045 
  -18061   -18057   -17990   -17928   -17938   -17955   -17929   -17915 
  -17940   -17965   -17963   -17934   -17932   -17968   -17986   -17964 
  -17959   -17965   -17975   -18018   -18058   -18068   -18085   -18091 
  -18064   -18058   -18081   -18067   -17977   -17869   -17811   -17809 
  -17856   -17934   -17949   -17903   -17915   -17964   -17971   -17976 
  -18017   -18064   -18087   -18094   -18110   -18117   -18077   -18013 
  -17964   -17963   -17977   -17946   -17901   -17911   -17963   -17998 
  -18009   -18013   -18027   -18061   -18107   -18111   -18058   -18010 
  -17987   -17964   -17934   -17914   -17937   -17973   -17950   -17911 
  -17938   -17984   -17975   -17957   -17973   -17986   -17976   -17965 
  -17971   -17984   -17968   -17936   -17925   -17911   -17898   -17922 
