Origin Time       2025/03/28 03:50:00
Lat.              35.403
Long.             140.360
Depth. (km)       54
Mag.              4.4
Station Code      CHBH11
Station Lat.      35.2867
Station Long.     140.1529
Station Height(m) 80
Record Time       2025/03/28 03:50:48
Sampling Freq(Hz) 100Hz
Duration Time(s)  120
Dir.              4
Scale Factor      7845(gal)/8223790
Max. Acc. (gal)   4.143
Last Correction   2025/03/28 03:50:48
Memo.             
[...]
   -3240    -3252    -3240    -3230    -3249    -3253    -3237    -3248 
   -3249    -3223    -3242    -3260    -3237    -3238    -3252    -3245 
   -3240    -3237    -3240    -3248    -3235    -3235    -3256    -3249 
   -3226    -3241    -3257    -3233    -3231    -3257    -3244    -3229 
   -3250    -3250    -3233    -3240    -3250    -3250    -3242    -3235 
   -3238    -3242    -3241    -3241    -3242    -3244    -3238    -3235 
   -3242    -3245    -3242    -3244    -3248    -3244    -3237    -3242 
   -3244    -3237    -3254    -3246    -3219    -3245    -3260    -3233 
   -3237    -3254    -3244    -3235    -3240    -3246    -3245    -3238 
   -3245    -3248    -3241    -3242    -3241    -3238    -3242    -3242 
   -3244    -3249    -3238    -3235    -3253    -3244    -3226    -3246 
   -3253    -3231    -3237    -3252    -3241    -3240    -3249    -3246 
   -3240    -3242    -3246    -3234    -3231    -3253    -3254    -3235 
   -3233    -3244    -3252    -3248    -3241    -3246    -3244    -3234 
   -3245    -3254    -3246    -3241    -3241    -3246    -3246    -3238 
   -3248    -3252    -3237    -3246    -3254    -3237    -3235    -3250 
   -3249    -3241    -3244    -3250    -3248    -3241    -3249    -3248 
   -3230    -3241    -3260    -3246    -3234    -3248    -3249    -3237 
   -3240    -3252    -3248    -3238    -3244    -3256    -3246    -3240 
   -3249    -3248    -3238    -3245    -3246    -3241    -3245    -3245 
   -3240    -3244    -3245    -3248    -3250    -3244    -3237    -3244 
   -3245    -3238    -3248    -3252    -3235    -3237    -3257    -3249 
   -3237    -3242    -3242    -3242    -3250    -3244    -3233    -3241 
   -3252    -3246    -3238    -3242    -3248    -3246    -3241    -3241 
   -3246    -3242    -3241    -3245    -3245    -3244    -3238    -3238 
   -3244    -3241    -3244    -3252    -3244    -3237    -3244    -3245 
   -3246    -3249    -3240    -3235    -3237    -3240    -3246    -3246 
   -3240    -3240    -3238    -3241    -3246    -3245    -3248    -3244 
   -3235    -3238    -3242    -3238    -3240    -3244    -3242    -3237 
   -3237    -3245    -3248    -3242    -3241    -3241    -3235    -3244 
   -3250    -3241    -3235    -3238    -3238    -3242    -3246    -3242 
   -3241    -3238    -3242    -3253    -3244    -3235    -3242    -3237 
   -3242    -3256    -3245    -3238    -3242    -3241    -3240    -3238 
   -3242    -3253    -3244    -3234    -3242    -3246    -3245    -3241 
   -3240    -3248    -3246    -3242    -3246    -3246    -3241    -3244 
   -3248    -3241    -3237    -3246    -3250    -3241    -3242    -3250 
   -3244    -3241    -3249    -3248    -3241    -3241    -3245    -3246 
   -3244    -3241    -3242    -3241    -3242    -3245    -3240    -3242 
   -3249    -3245    -3238    -3248    -3253    -3244    -3241    -3244 
   -3241    -3242    -3245    -3246    -3246    -3241    -3237    -3245 
   -3248    -3242    -3240    -3242    -3245    -3244    -3241    -3245 
   -3246    -3242    -3242    -3244    -3242    -3244    -3248    -3245 
   -3241    -3241    -3244    -3242    -3240    -3244    -3249    -3244 
   -3244    -3248    -3240    -3234    -3242    -3246    -3240    -3240 
   -3246    -3245    -3241    -3240    -3245    -3244    -3238    -3240 
   -3242    -3245    -3246    -3244    -3240    -3241    -3245    -3245 
   -3244    -3241    -3241    -3240    -3240    -3248    -3248    -3234 
   -3234    -3245    -3246    -3244    -3237    -3237    -3245    -3242 
   -3241    -3248    -3244    -3231    -3235    -3249    -3253    -3241 
   -3234    -3241    -3240    -3237    -3246    -3245    -3238    -3245 
   -3242    -3241    -3246    -3246    -3245    -3240    -3238    -3246 
   -3242    -3235    -3248    -3250    -3237    -3238    -3246    -3248 
   -3249    -3246    -3241    -3241    -3242    -3245    -3241    -3238 
   -3241    -3240    -3240    -3244    -3248    -3248    -3248    -3257 
   -3267    -3261    -3250    -3241    -3218    -3199    -3203    -3210 
   -3227    -3277    -3283    -3195    -3159    -3264    -3318    -3211 
   -3198    -3407    -3462    -3217    -3130    -3280    -3304    -3268 
   -3242    -3163    -3149    -3060    -2967    -3273    -3458    -3110 
   -3107    -3647    -3782    -3388    -3114    -3186    -3342    -3200 
   -2945    -3150    -3414    -3013    -2647    -3090    -3538    -3427 
   -3354    -3566    -3720    -3456    -2957    -2862    -3015    -3088 
   -3154    -2940    -2840    -3376    -3678    -3370    -3211    -3389 
   -3601    -3624    -3356    -3024    -2982    -3192    -3292    -3171 
   -2995    -2918    -3132    -3385    -3244    -3148    -3392    -3550 
   -3623    -3464    -2903    -2818    -3424    -3665    -3349    -3154 
   -3245    -3369    -3271    -2967    -2826    -2918    -3117    -3375 
   -3316    -3137    -3676    -4301    -3742    -2701    -2559    -3275 
   -3769    -3222    -2451    -2735    -3416    -3426    -3196    -3133 
   -3029    -3115    -3343    -3399    -3639    -3812    -3407    -3316 
   -3591    -3099    -2575    -2749    -2675    -2674    -3300    -3493 
   -3308    -3485    -3510    -3620    -4175    -3886    -2960    -2998 
   -3208    -2736    -2755    -3080    -2737    -2527    -2745    -2925 
   -3557    -4132    -3769    -3465    -3601    -3416    -3134    -2938 
   -2874    -3295    -3400    -2987    -3434    -4241    -3861    -3053 
   -2828    -2690    -2490    -2447    -2517    -3067    -4008    -4506 
   -4563    -4595    -4234    -3304    -2528    -2467    -2716    -2542 
   -2358    -3009    -3647    -3383    -3025    -2848    -2493    -2497 
   -3090    -3642    -3773    -3708    -3734    -3705    -3414    -3123 
   -3187    -3358    -3167    -2666    -2385    -2772    -3632    -4036 
   -3599    -3262    -3504    -3595    -3372    -3275    -3366    -3420 
   -3165    -2967    -3400    -3673    -2851    -1836    -1976    -3137 
   -4059    -4044    -3543    -3211    -3348    -3596    -3160    -2335 
   -2366    -3311    -3805    -3470    -3402    -3666    -3554    -3441 
   -3473    -3265    -3269    -3546    -3429    -3080    -2749    -2411 
   -2714    -3542    -3551    -2766    -2444    -2980    -3998    -4529 
   -3821    -3110    -3542    -3983    -3460    -2756    -2583    -2613 
   -2508    -2405    -2554    -3177    -3996    -4187    -3643    -3298 
   -3665    -4104    -3801    -2845    -2038    -2073    -3056    -4062 
   -4020    -3508    -3491    -3288    -2428    -2103    -2643    -2822 
   -2874    -3913    -4635    -3820    -3242    -3603    -3331    -2602 
   -2443    -2704    -3308    -3673    -3242    -3184    -3962    -4264 
   -3711    -3252    -3225    -3080    -2859    -3045    -3215    -2922 
   -2741    -3096    -3493    -3465    -3211    -2798    -2208    -2365 
   -3426    -3996    -3971    -4110    -3793    -2781    -2390    -3034 
   -3277    -2636    -2529    -3572    -4639    -4340    -2887    -2235 
   -2864    -3391    -3515    -3693    -3866    -3890    -3369    -2428 
   -2336    -3136    -3365    -3022    -3300    -3909    -3685    -2890 
   -2442    -2566    -3134    -3607    -3839    -4116    -3882    -3276 
   -3217    -3258    -3129    -3306    -3226    -2781    -2797    -2871 
   -2798    -3488    -4023    -3188    -2725    -3636    -4028    -3343 
   -2955    -3148    -3461    -3612    -3231    -2706    -2570    -2274 
   -1821    -2153    -3126    -3797    -3991    -3970    -3716    -3277 
   -3017    -3528    -4548    -4495    -3295    -2675    -2820    -2956 
   -3017    -2913    -3168    -3963    -3750    -2563    -2347    -2988 
   -3418    -3827    -3842    -2980    -2475    -2984    -3233    -2706 
   -2317    -2691    -3765    -4580    -4218    -3468    -3237    -3157 
   -3041    -3113    -3478    -3847    -3589    -3256    -3568    -3613 
   -3084    -2930    -3231    -3353    -3106    -2829    -2840    -3087 
   -3235    -2921    -2670    -3287    -3847    -3465    -2995    -2847 
   -2925    -3264    -3075    -2187    -1726    -2308    -3470    -4352 
   -4533    -4450    -4442    -3970    -3057    -2771    -2974    -2793 
   -2531    -2413    -2505    -3276    -3928    -3773    -3847    -4090 
   -3447    -2794    -3056    -3137    -2662    -2700    -3311    -3964 
   -4263    -3649    -2677    -2123    -1884    -2497    -3794    -4251 
   -4068    -4120    -3793    -3408    -3751    -3798    -3138    -2735 
   -2779    -3217    -3898    -3971    -3531    -3464    -3241    -2407 
   -2184    -2751    -3121    -3474    -3667    -3119    -2805    -3078 
   -2763    -2069    -2126    -2798    -3524    -4122    -4191    -3743 
   -3767    -4359    -4253    -3370    -2840    -2793    -2706    -2587 
   -2613    -2907    -3546    -4155    -4222    -3685    -2785    -1879 
   -1468    -1841    -2451    -2617    -2795    -3476    -3906    -3631 
   -3414    -3655    -3947    -4186    -4237    -3852    -3553    -3580 
   -3400    -3003    -2836    -3123    -3585    -3767    -3696    -3473 
   -3231    -3094    -2785    -2560    -2871    -2976    -2620    -2887 
   -3680    -3964    -4018    -4052    -3582    -3240    -3543    -3631 
   -3179    -2631    -2207    -2326    -2747    -2625    -2573    -3106 
   -3136    -2810    -3207    -3531    -3227    -3337    -3726    -3681 
   -3728    -3848    -3465    -3233    -3701    -3912    -3202    -2647 
   -3036    -3361    -2921    -2371    -2231    -2412    -2775    -3099 
   -3154    -3235    -3735    -4321    -4425    -4098    -3784    -3584 
   -3423    -3377    -3245    -2783    -2343    -2470    -3015    -3361 
   -3319    -3122    -3092    -3415    -3758    -3678    -3411    -3508 
   -3798    -3642    -3138    -2867    -2855    -2860    -2755    -2593 
   -2705    -3080    -3353    -3410    -3368    -3466    -3720    -3846 
   -3757    -3555    -3168    -2739    -2835    -3303    -3488    -3391 
   -3036    -2681    -2937    -3180    -2759    -2538    -2739    -2675 
   -2679    -3095    -3604    -4205    -4321    -3383    -2593    -2559 
   -2317    -2289    -3164    -3835    -3993    -4344    -4187    -3110 
   -2484    -2835    -3121    -2947    -2673    -2617    -3053    -3586 
   -3815    -4212    -4642    -4461    -4149    -4162    -3877    -2983 
   -1842     -981    -1088    -1965    -2430    -2358    -2566    -2928 
   -2999    -3154    -3748    -4444    -4768    -4788    -4899    -4968 
   -4467    -3573    -3046    -3096    -3357    -3420    -3079    -2866 
   -3599    -4860    -5475    -5468    -5510    -5192    -3958    -2532 
   -2035    -2550    -3172    -3307    -3010    -2404    -1861    -1769 
   -1904    -1976    -2103    -2227    -1995    -1547    -1382    -1466 
   -1722    -2463    -3438    -3935    -3828    -3562    -3658    -4314 
   -5132    -5240    -4229    -3015    -2592    -2620    -2376    -2062 
   -2305    -2717    -2506    -2177    -2600    -3443    -4033    -4174 
   -3840    -3208    -2739    -2916    -3950    -5370    -6234    -5941 
   -4784    -3697    -3241    -3010    -2666    -2635    -3009    -3217 
   -3001    -2505    -1818    -1142    -1047    -1869    -3088    -3973 
   -4201    -3820    -3271    -2955    -2965    -3488    -4287    -4525 
   -4001    -3252    -2679    -2305    -2034    -2211    -2990    -3620 
   -3677    -3564    -3491    -3199    -2762    -2786    -3195    -3067 
   -2362    -2119    -2598    -2970    -2979    -3105    -3483    -3908 
   -4025    -3821    -3951    -4317    -4085    -3495    -3353    -3572 
   -3731    -3705    -3400    -3180    -3813    -4939    -5144    -4074 
   -2836    -2300    -2393    -2798    -3196    -3360    -3422    -3514 
   -3402    -3064    -2787    -2466    -2192    -2596    -3424    -3969 
   -4371    -4823    -5256    -5660    -5516    -4482    -3406    -2955 
   -2411    -1239     -230      -40     -499    -1417    -2586    -3609 
   -4043    -3673    -3030    -2664    -2451    -2525    -3198    -4156 
   -4932    -5130    -4498    -3507    -2855    -2501    -2196    -2241 
   -2843    -3566    -4024    -4141    -3854    -3420    -3441    -4063 
   -4738    -4880    -4594    -4291    -3865    -3132    -2340    -1664 
   -1136     -731     -309     -183     -788    -1838    -2874    -3689 
   -4314    -4995    -5305    -4607    -3601    -3196    -3213    -3461 
   -3993    -4581    -4969    -4935    -4450    -4031    -3958    -3836 
   -3622    -3461    -2851    -1734     -949     -793     -793     -648 
    -459     -521    -1038    -1649    -2023    -2654    -3595    -4077 
   -4175    -4405    -4637    -4839    -5146    -5354    -5246    -4776 
   -4031    -3298    -2809    -2652    -3094    -4002    -4423    -4039 
   -3554    -3137    -2475    -1840    -1767    -2435    -3478    -4095 
   -3908    -3429    -3146    -3173    -3666    -4328    -4546    -4414 
   -4063    -2990    -1480     -685     -827    -1556    -2847    -4109 
   -4629    -4662    -4611    -4472    -4283    -3937    -3426    -3231 
   -3508    -3807    -3871    -3604    -2956    -2268    -1701    -1144 
    -997    -1680    -2847    -3879    -4367    -4213    -3828    -3557 
   -3338    -3361    -3875    -4480    -4741    -4773    -4579    -3653 
   -1998     -634     -338     -931    -1786    -2278    -2393    -2528 
   -2679    -3001    -3935    -5116    -5829    -6035    -5806    -5109 
   -4392    -4012    -3542    -2528    -1209     -306     -338    -1007 
   -1714    -2421    -3095    -3331    -3333    -3736    -4550    -5594 
   -6656    -6932    -6056    -4762    -3751    -3202    -2941    -2693 
   -2647    -3114    -3838    -4463    -4853    -4675    -3483    -1498 
     257     1100     1070      338     -761    -1794    -2519    -2756 
   -2679    -2886    -3586    -4438    -5074    -5274    -5142    -4945 
   -4658    -4183    -3472    -2573    -1971    -2011    -2346    -2713 
   -3179    -3477    -3198    -2501    -1861    -1447    -1277    -1543 
   -2459    -4010    -5709    -6737    -6825    -6475    -6000    -5336 
   -4598    -3892    -3233    -2658    -2076    -1728    -2107    -2902 
   -3285    -3069    -2700    -2610    -2867    -3157    -3307    -3505 
   -3665    -3546    -3310    -2997    -2452    -1867    -1451    -1296 
   -1593    -2149    -2355    -2197    -2151    -2231    -2309    -2640 
   -3295    -3936    -4360    -4689    -5027    -5204    -5015    -4579 
   -4141    -3829    -3829    -4224    -4576    -4406    -3805    -3079 
   -2506    -2539    -3222    -3962    -4341    -4318    -3951    -3520 
   -3276    -3137    -2906    -2367    -1517     -846     -837    -1452 
   -2350    -3161    -3672    -3931    -3928    -3657    -3319    -2947 
   -2621    -2646    -2863    -2955    -3026    -3140    -3172    -3230 
   -3484    -3821    -4145    -4540    -4773    -4453    -3689    -2782 
   -1993    -1802    -2327    -2987    -3242    -3090    -2708    -2201 
   -1911    -2309    -3265    -4125    -4522    -4607    -4595    -4538 
   -4473    -4384    -4155    -3724    -3048    -2135    -1260     -838 
   -1038    -1686    -2509    -3208    -3543    -3684    -3862    -3904 
   -3746    -3515    -3161    -2816    -2809    -3156    -3589    -3963 
   -4153    -3991    -3763    -3909    -4257    -4498    -4698    -4730 
   -4267    -3543    -3145    -3159    -3208    -3073    -2799    -2567 
   -2496    -2463    -2462    -2606    -2682    -2567    -2674    -3299 
   -4058    -4306    -3897    -3261    -2840    -2621    -2343    -2065 
   -2106    -2529    -3087    -3489    -3682    -3894    -4175    -4229 
   -3874    -3267    -2752    -2655    -2847    -2759    -2154    -1472 
   -1240    -1475    -1960    -2732    -3758    -4757    -5514    -5794 
   -5449    -4715    -3966    -3397    -3119    -3210    -3608    -4116 
   -4456    -4352    -3759    -2957    -2339    -2033    -1888    -1881 
   -1999    -2070    -2200    -2632    -3227    -3589    -3531    -3353 
   -3389    -3581    -3746    -3685    -3283    -2787    -2478    -2493 
   -2859    -3298    -3582    -3705    -3543    -3169    -2879    -2729 
   -2755    -3063    -3454    -3638    -3693    -3653    -3277    -2814 
   -2852    -3311    -3739    -3937    -3809    -3578    -3649    -3832 
   -3765    -3527    -3196    -2771    -2501    -2597    -2879    -3041 
   -3001    -2944    -3132    -3545    -3916    -4064    -3902    -3531 
   -3163    -2928    -2980    -3360    -3847    -4239    -4446    -4360 
   -3998    -3694    -3597    -3411    -3064    -2820    -2706    -2528 
   -2262    -2015    -1852    -1945    -2284    -2501    -2590    -2845 
   -3113    -3217    -3361    -3645    -4105    -4773    -5198    -4959 
   -4378    -3898    -3468    -2928    -2396    -2025    -1841    -1807 
   -1875    -2042    -2344    -2747    -3146    -3457    -3674    -3869 
   -4104    -4356    -4438    -4158    -3676    -3303    -2978    -2539 
   -2135    -1885    -1746    -1803    -2099    -2405    -2606    -2847 
   -3221    -3751    -4340    -4738    -4835    -4698    -4449    -4218 
   -4110    -4097    -3960    -3503    -2853    -2408    -2301    -2311 
   -2413    -2775    -3339    -3921    -4372    -4560    -4484    -4280 
   -4014    -3667    -3343    -3180    -3078    -2875    -2636    -2606 
   -2809    -2910    -2801    -2721    -2729    -2772    -2832    -2731 
   -2450    -2282    -2362    -2646    -3071    -3306    -3121    -2821 
   -2697    -2794    -3141    -3519    -3609    -3416    -3102    -2835 
   -2837    -3169    -3596    -3832    -3811    -3661    -3531    -3491 
   -3581    -3780    -3952    -4036    -4010    -3812    -3469    -3082 
   -2793    -2708    -2789    -3032    -3465    -3834    -3807    -3501 
   -3273    -3190    -3256    -3531    -3817    -3956    -3897    -3499 
   -2947    -2614    -2524    -2612    -2920    -3265    -3289    -2974 
   -2602    -2253    -1999    -2119    -2556    -2929    -3100    -3254 
   -3528    -3711    -3665    -3728    -4074    -4345    -4286    -4153 
   -4213    -4280    -4106    -3728    -3321    -2986    -2745    -2654 
   -2687    -2694    -2722    -2921    -3172    -3385    -3673    -3893 
   -3786    -3373    -2786    -2255    -2081    -2219    -2428    -2660 
   -2901    -3061    -3152    -3248    -3415    -3654    -3886    -4090 
   -4228    -4160    -3897    -3585    -3288    -2999    -2768    -2637 
   -2527    -2322    -2087    -2023    -2273    -2809    -3430    -3959 
   -4356    -4564    -4533    -4347    -4105    -3777    -3424    -3261 
   -3192    -2951    -2652    -2451    -2222    -1989    -1965    -2211 
   -2647    -3110    -3462    -3689    -3778    -3690    -3526    -3441 
   -3426    -3402    -3395    -3410    -3381    -3292    -3204    -3203 
   -3310    -3491    -3717    -3906    -3967    -3923    -3823    -3651 
   -3393    -3059    -2683    -2343    -2081    -1852    -1705    -1840 
   -2296    -2889    -3372    -3570    -3570    -3632    -3850    -4068 
   -4237    -4487    -4720    -4715    -4522    -4274    -3915    -3441 
   -3032    -2830    -2770    -2667    -2494    -2403    -2443    -2505 
   -2565    -2658    -2828    -3150    -3478    -3549    -3456    -3439 
   -3446    -3385    -3306    -3173    -2917    -2596    -2403    -2482 
   -2731    -3045    -3505    -3978    -4237    -4299    -4149    -3763 
   -3416    -3333    -3321    -3188    -3011    -2890    -2810    -2732 
   -2632    -2560    -2629    -2779    -2772    -2644    -2621    -2771 
   -3061    -3389    -3682    -3981    -4175    -4079    -3811    -3600 
   -3476    -3491    -3754    -4063    -4117    -3993    -3856    -3597 
