Origin Time       2025/03/28 03:50:00
Lat.              35.403
Long.             140.360
Depth. (km)       54
Mag.              4.4
Station Code      CHBH10
Station Lat.      35.5458
Station Long.     140.2417
Station Height(m) 65
Record Time       2025/03/28 03:50:47
Sampling Freq(Hz) 100Hz
Duration Time(s)  120
Dir.              5
Scale Factor      7845(gal)/8223790
Max. Acc. (gal)   7.023
Last Correction   2025/03/28 03:50:47
Memo.             
[...]
   -2143    -2127    -2119    -2127    -2141    -2143    -2141    -2143 
   -2146    -2146    -2143    -2131    -2126    -2134    -2134    -2130 
   -2135    -2143    -2151    -2150    -2137    -2130    -2133    -2138 
   -2143    -2146    -2146    -2143    -2135    -2130    -2133    -2134 
   -2131    -2127    -2130    -2134    -2134    -2133    -2133    -2133 
   -2126    -2119    -2123    -2137    -2146    -2146    -2139    -2135 
   -2133    -2139    -2149    -2149    -2141    -2134    -2127    -2127 
   -2138    -2149    -2147    -2138    -2133    -2130    -2128    -2135 
   -2143    -2141    -2137    -2131    -2131    -2142    -2151    -2146 
   -2134    -2127    -2130    -2139    -2146    -2146    -2141    -2130 
   -2123    -2127    -2141    -2151    -2151    -2141    -2128    -2124 
   -2126    -2134    -2147    -2151    -2142    -2135    -2133    -2133 
   -2143    -2150    -2145    -2133    -2124    -2130    -2139    -2145 
   -2145    -2138    -2131    -2127    -2128    -2138    -2146    -2143 
   -2137    -2137    -2141    -2142    -2139    -2139    -2142    -2135 
   -2126    -2130    -2143    -2150    -2142    -2134    -2135    -2139 
   -2135    -2133    -2139    -2145    -2139    -2133    -2131    -2139 
   -2147    -2150    -2145    -2133    -2130    -2135    -2139    -2142 
   -2142    -2142    -2145    -2143    -2138    -2141    -2143    -2137 
   -2130    -2130    -2137    -2141    -2138    -2142    -2149    -2141 
   -2130    -2127    -2133    -2142    -2145    -2138    -2135    -2139 
   -2137    -2133    -2135    -2139    -2143    -2145    -2138    -2135 
   -2138    -2138    -2133    -2124    -2124    -2128    -2133    -2138 
   -2141    -2141    -2141    -2133    -2130    -2135    -2139    -2135 
   -2128    -2128    -2138    -2145    -2145    -2138    -2133    -2130 
   -2124    -2124    -2127    -2131    -2135    -2135    -2131    -2134 
   -2138    -2142    -2143    -2143    -2137    -2124    -2120    -2128 
   -2134    -2134    -2135    -2141    -2142    -2139    -2143    -2145 
   -2138    -2133    -2123    -2112    -2119    -2138    -2146    -2142 
   -2135    -2134    -2138    -2134    -2130    -2141    -2143    -2137 
   -2131    -2130    -2134    -2139    -2137    -2133    -2131    -2133 
   -2133    -2137    -2145    -2142    -2131    -2124    -2123    -2127 
   -2137    -2142    -2143    -2142    -2139    -2138    -2138    -2135 
   -2134    -2139    -2139    -2133    -2134    -2141    -2145    -2139 
   -2130    -2128    -2131    -2123    -2118    -2130    -2145    -2147 
   -2137    -2131    -2137    -2138    -2137    -2139    -2137    -2135 
   -2139    -2139    -2139    -2135    -2130    -2128    -2135    -2141 
   -2142    -2141    -2146    -2146    -2141    -2138    -2134    -2134 
   -2147    -2149    -2138    -2137    -2141    -2142    -2145    -2141 
   -2133    -2133    -2137    -2137    -2135    -2138    -2142    -2139 
   -2134    -2134    -2135    -2135    -2135    -2134    -2138    -2145 
   -2142    -2145    -2151    -2147    -2135    -2127    -2130    -2135 
   -2137    -2139    -2141    -2138    -2138    -2141    -2143    -2141 
   -2134    -2133    -2135    -2137    -2138    -2141    -2139    -2134 
   -2130    -2130    -2130    -2134    -2145    -2149    -2143    -2141 
   -2139    -2138    -2137    -2133    -2126    -2118    -2115    -2124 
   -2137    -2141    -2141    -2142    -2141    -2134    -2130    -2130 
   -2135    -2141    -2141    -2135    -2133    -2135    -2138    -2137 
   -2130    -2123    -2126    -2137    -2146    -2146    -2141    -2141 
   -2138    -2133    -2127    -2126    -2133    -2137    -2131    -2130 
   -2135    -2137    -2133    -2135    -2138    -2131    -2131    -2138 
   -2138    -2141    -2142    -2138    -2130    -2119    -2119    -2134 
   -2145    -2146    -2149    -2150    -2150    -2146    -2137    -2126 
   -2120    -2118    -2116    -2128    -2151    -2162    -2151    -2139 
   -2138    -2134    -2133    -2138    -2138    -2137    -2137    -2137 
   -2142    -2145    -2141    -2135    -2127    -2126    -2135    -2139 
   -2134    -2134    -2139    -2142    -2134    -2123    -2128    -2146 
   -2154    -2149    -2138    -2138    -2143    -2143    -2139    -2137 
   -2134    -2139    -2147    -2147    -2146    -2138    -2123    -2126 
   -2135    -2131    -2127    -2130    -2137    -2145    -2142    -2137 
   -2145    -2153    -2151    -2143    -2135    -2133    -2137    -2143 
   -2146    -2145    -2141    -2135    -2130    -2131    -2138    -2139 
   -2142    -2145    -2143    -2139    -2137    -2133    -2135    -2141 
   -2141    -2139    -2145    -2146    -2146    -2146    -2139    -2135 
   -2137    -2139    -2134    -2133    -2137    -2135    -2130    -2137 
   -2137    -2128    -2135    -2142    -2135    -2134    -2134    -2135 
   -2145    -2150    -2141    -2134    -2134    -2138    -2139    -2134 
   -2130    -2134    -2134    -2134    -2135    -2137    -2141    -2141 
   -2139    -2142    -2138    -2134    -2135    -2135    -2133    -2128 
   -2128    -2138    -2142    -2139    -2134    -2130    -2126    -2134 
   -2147    -2146    -2135    -2128    -2127    -2130    -2126    -2122 
   -2127    -2134    -2135    -2128    -2130    -2138    -2138    -2131 
   -2130    -2137    -2138    -2131    -2134    -2145    -2146    -2135 
   -2131    -2138    -2138    -2130    -2122    -2120    -2127    -2137 
   -2137    -2130    -2128    -2127    -2124    -2128    -2137    -2143 
   -2143    -2138    -2138    -2138    -2137    -2138    -2137    -2130 
   -2123    -2123    -2128    -2131    -2130    -2128    -2126    -2126 
   -2131    -2137    -2141    -2141    -2137    -2139    -2145    -2142 
   -2135    -2134    -2139    -2143    -2138    -2137    -2142    -2142 
   -2135    -2133    -2135    -2137    -2135    -2137    -2141    -2141 
   -2141    -2142    -2143    -2147    -2149    -2142    -2138    -2139 
   -2141    -2146    -2150    -2143    -2138    -2138    -2131    -2127 
   -2137    -2141    -2137    -2137    -2139    -2146    -2149    -2143 
   -2139    -2138    -2138    -2142    -2153    -2157    -2149    -2143 
   -2142    -2142    -2143    -2139    -2137    -2141    -2145    -2142 
   -2139    -2138    -2137    -2138    -2139    -2138    -2142    -2147 
   -2146    -2142    -2137    -2137    -2145    -2139    -2131    -2135 
   -2138    -2135    -2137    -2135    -2134    -2138    -2138    -2134 
   -2127    -2130    -2138    -2135    -2133    -2138    -2141    -2137 
   -2139    -2146    -2142    -2133    -2131    -2137    -2138    -2138 
   -2138    -2135    -2134    -2134    -2138    -2139    -2135    -2133 
   -2133    -2134    -2138    -2143    -2143    -2143    -2139    -2130 
   -2128    -2135    -2138    -2142    -2146    -2146    -2143    -2141 
   -2135    -2135    -2139    -2142    -2142    -2120    -2068    -2039 
   -2043    -2068    -2151    -2236    -2293    -2366    -2311    -2115 
   -2006    -1880    -1765    -2012    -2288    -2274    -2308    -2187 
   -1888    -2052    -2273    -2196    -2400    -2467    -2087    -2006 
   -1969    -1669    -1829    -2227    -2249    -2236    -2336    -2332 
   -2349    -2340    -2146    -2027    -2074    -1977    -1846    -1902 
   -1921    -1991    -2259    -2432    -2446    -2296    -2124    -2320 
   -2397    -1979    -1709    -1734    -1911    -2300    -2365    -2027 
   -1972    -2201    -2374    -2532    -2558    -2165    -1775    -1985 
   -2164    -1854    -1833    -2045    -2134    -2496    -2562    -2138 
   -2185    -2290    -2029    -2187    -2393    -1958    -1467    -1458 
   -1966    -2587    -2606    -2307    -2380    -2458    -2157    -1892 
   -1900    -1980    -1981    -1975    -2128    -2134    -1798    -1837 
   -2365    -2772    -2847    -2324    -1660    -1742    -2049    -2193 
   -2397    -2126    -1605    -1815    -2516    -2608    -1887    -1570 
   -2216    -2925    -3076    -2516    -1617    -1372    -1772    -2077 
   -2089    -1908    -1875    -2118    -2435    -2710    -2523    -1937 
   -1833    -2228    -2451    -2324    -1926    -1582    -1714    -2081 
   -2193    -2076    -1888    -1906    -2334    -2633    -2636    -2732 
   -2475    -1869    -1695    -1746    -1796    -1861    -1539    -1521 
   -2496    -3334    -3308    -2826    -2095    -1710    -1984    -1965 
   -1671    -1925    -2115    -1849    -1791    -1849    -1888    -2365 
   -3009    -3157    -2755    -2164    -1680    -1341    -1296    -1587 
   -1918    -2296    -2536    -2273    -1998    -2070    -2331    -2917 
   -3276    -2671    -1687    -1032    -1044    -1714    -2155    -2274 
   -2674    -2845    -2655    -2558    -2158    -1656    -1725    -2038 
   -2211    -2091    -1656    -1425    -1709    -2280    -2667    -2620 
   -2555    -2489    -2008    -1664    -1838    -1921    -1813    -1841 
   -2124    -2560    -2521    -2031    -1975    -2334    -2668    -2902 
   -2571    -1728    -1248    -1510    -2218    -2590    -2296    -2270 
   -2687    -2631    -2273    -1971    -1404    -1150    -1729    -2469 
   -2793    -2390    -1575    -1518    -2173    -2532    -2690    -2841 
   -2525    -1863    -1401    -1259    -1453    -1931    -2288    -2417 
   -2485    -2439    -2592    -3018    -2922    -2089    -1358    -1289 
   -1557    -1811    -2043    -2143    -2242    -2363    -2278    -2529 
   -3229    -3229    -2448    -2070    -2101    -1750    -1323    -1437 
   -1865    -2238    -2442    -2506    -2373    -1736    -1167    -1516 
   -1976    -1861    -1933    -2263    -2232    -1953    -1603    -1425 
   -2103    -3281    -3646    -2917    -1917    -1395    -1667    -2420 
   -2960    -2961    -2578    -2261    -2377    -2403    -1715     -977 
   -1250    -2263    -2633    -1938    -1391    -1753    -2527    -3269 
   -3591    -3177    -2304    -1467    -1204    -1341    -1358    -1649 
   -2191    -2296    -2138    -2068    -2145    -2304    -2214    -1966 
   -1813    -1759    -2016    -2251    -1958    -1657    -1931    -2531 
   -2857    -2668    -2218    -1896    -1906    -2184    -2560    -2598 
   -2173    -2084    -2461    -2613    -2612    -2501    -2118    -1841 
   -1641    -1404    -1518    -1977    -2330    -2199    -1765    -1711 
   -2038    -2250    -2473    -2845    -2940    -2457    -1715    -1458 
   -1876    -2297    -2385    -2442    -2494    -2269    -1719    -1286 
   -1486    -2073    -2498    -2685    -2546    -2010    -1543    -1513 
   -1788    -2134    -2323    -2390    -2594    -2681    -2354    -2146 
   -2344    -2263    -1715    -1525    -1987    -2581    -2790    -2358 
   -1664    -1193     -943    -1115    -1912    -2898    -3142    -2246 
   -1418    -1756    -2567    -3095    -3330    -3227    -2791    -2062 
   -1285    -1140    -1773    -2466    -2893    -3168    -2965    -2289 
   -1764    -1557    -1597    -1788    -1815    -1877    -2154    -2131 
   -1922    -1977    -1896    -1595    -1671    -2034    -2080    -1795 
   -1707    -1942    -2007    -1698    -1449    -1791    -2551    -2910 
   -2851    -2905    -2960    -3024    -3075    -2767    -2350    -2019 
   -1764    -1952    -2336    -2331    -1903    -1329    -1206    -1657 
   -2038    -1966    -1709    -1906    -2349    -2420    -2587    -2749 
   -2273    -1794    -1659    -1752    -2359    -2875    -2744    -2532 
   -2416    -2157    -1819    -1601    -1771    -2278    -2636    -2538 
   -2027    -1391    -1109    -1416    -2135    -2965    -3480    -3206 
   -2227    -1443    -1332    -1524    -1890    -2080    -1599    -1139 
   -1385    -2003    -2701    -3226    -3299    -3048    -2655    -2195 
   -1709    -1239    -1005    -1347    -2141    -2594    -2578    -2793 
   -3164    -3254    -3013    -2311    -1441    -1040    -1305    -2004 
   -2419    -1972    -1112     -749    -1324    -2531    -3592    -3821 
   -3141    -2169    -1494    -1394    -1769    -1868    -1532    -1622 
   -2304    -2937    -3103    -2720    -2122    -1696    -1433    -1417 
   -1914    -2596    -2833    -2660    -2415    -2270    -2347    -2396 
   -2293    -2365    -2309    -1895    -1811    -2095    -2149    -1957 
   -1707    -1613    -1726    -1771    -1918    -2407    -2749    -2392 
   -1510    -1044    -1467    -2164    -2798    -3275    -3078    -2316 
   -1606    -1231    -1418    -1998    -2463    -2677    -2409    -1753 
   -1620    -2191    -2853    -3416    -3635    -3156    -2317    -1813 
   -1941    -2245    -1996    -1300     -878    -1038    -1570    -2142 
   -2436    -2305    -2026    -1975    -1972    -1780    -1815    -2459 
   -3148    -2866    -1675     -739     -764    -1532    -2450    -2945 
   -2813    -2397    -2316    -2772    -3240    -3103    -2501    -2058 
   -1996    -2120    -2218    -2093    -1695    -1143     -774    -1069 
   -1971    -2789    -3091    -3119    -3049    -2812    -2666    -2536 
   -1973    -1416    -1255    -1243    -1555    -1961    -2074    -2442 
   -2917    -2825    -2327    -1638    -1264    -1768    -2486    -2741 
   -2616    -2158    -1695    -1665    -1968    -2332    -2407    -1775 
    -697       -1     -168    -1063    -2114    -2632    -2373    -1740 
   -1120     -569     -376     -864    -1732    -2687    -3808    -4942 
   -5733    -5860    -5201    -4176    -3461    -3330    -3541    -3582 
   -2986    -1775     -384      938     1939     2112     1435      449 
    -440     -769     -306       97     -529    -2361    -4719    -6031 
   -5428    -3801    -2423    -2288    -3920    -6353    -7414    -5683 
   -2007     1046     1372    -1050    -4372    -6160    -4711     -303 
    4237     5225     1528    -3993    -6891    -5062     -584     2475 
    1838    -1717    -5521    -6978    -5454    -2531     -236      652 
      71    -2200    -5012    -5861    -4108    -1260     1197     1900 
     206    -2697    -5042    -5602    -4023    -1300      877     1120 
   -1030    -4347    -6543    -6149    -3352      -48     1125     -600 
   -3334    -4806    -4309    -2624     -963     -445    -1607    -3503 
   -4575    -4383    -3354    -1962     -669      221      373     -699 
   -2436    -2976    -1561      197      263    -1848    -4941    -6802 
   -5562    -1668     1952     2759     1031    -1354    -2991    -3150 
   -2258    -1695    -1891    -2479    -3318    -4005    -4062    -3418 
   -2482    -1877    -1547    -1308    -1593    -2053    -1850    -1350 
   -1027     -633     -198      -89     -594    -1582    -2457    -2652 
   -2154    -1968    -2963    -4521    -5474    -4903    -2623     -209 
     288    -1378    -3812    -5331    -5008    -3559    -2693    -2851 
   -2623    -1039      900     1667      885     -760    -2245    -2641 
   -1965    -1605    -2650    -4345    -5170    -4510    -3134    -2331 
   -2447    -2826    -2709    -2147    -2211    -3234    -4099    -3767 
   -2058     -144      106    -1422    -3103    -3734    -3194    -2072 
   -1375    -1863    -2933    -3075    -2160    -1428    -1096     -407 
     500      672     -360    -2077    -3414    -3577    -2447     -764 
      39     -741    -2106    -2631    -2242    -2003    -2242    -2471 
   -2651    -2722    -2274    -1440     -758     -359     -174     -518 
   -1474    -2523    -3418    -4054    -4108    -3620    -2852    -1949 
   -1039     -197      284      -35     -954    -1756    -2069    -2018 
   -2170    -3130    -4503    -5096    -4256    -2566    -1533    -1841 
   -2508    -2810    -2799    -2177    -1088     -467     -658    -1239 
   -1938    -2785    -3531    -3713    -3380    -3063    -3198    -3616 
   -3670    -3115    -2201    -1213     -514     -429    -1174    -2789 
   -4703    -5983    -5952    -4480    -2397     -984     -672     -993 
   -1452    -1695    -1223      132     1634     2382     2128     1136 
    -122    -1379    -2639    -3658    -3955    -3377    -2342    -1297 
    -379      -62     -985    -2782    -4398    -5364    -5773    -5679 
   -5440    -5678    -6158    -5773    -3842     -969     1393     2450 
    2590     2459     2354     2057      957    -1301    -4299    -6890 
   -8102    -7977    -7163    -6289    -5736    -5281    -4243    -2338 
     -17     1987     3095     3277     3046     2608     1837      915 
    -228    -1941    -3921    -5575    -6565    -6550    -5427    -3902 
   -3036    -3083    -3384    -3195    -2367    -1381     -557      203 
     642      446      -56     -770    -1879    -2875    -3179    -3053 
   -3119    -3569    -3991    -3847    -3009    -1840    -1073    -1331 
   -2265    -2670    -1831     -369      341     -280    -1429    -2141 
   -2112    -1495     -923    -1024    -1671    -2405    -3102    -3765 
   -4259    -4417    -4093    -3289    -2411    -1958    -1981    -2054 
   -1736    -1075     -553     -530    -1009    -1749    -2336    -2520 
   -2683    -3126    -3300    -2905    -2447    -2349    -2663    -3045 
   -2934    -2313    -1624    -1111     -680     -230      159      475 
     610       58    -1470    -3558    -5501    -6681    -6659    -5364 
   -3419    -2150    -2423    -3499    -3835    -2820    -1279     -400 
    -668    -1750    -2632    -2303     -842      796     1730     1509 
     351    -1007    -2038    -2674    -3111    -3476    -3717    -3956 
   -4240    -4149    -3564    -2880    -2188    -1517    -1294    -1564 
   -1769    -1522     -903     -290      -74     -369    -1123    -2193 
   -3261    -4066    -4452    -4299    -3728    -2868    -1796     -828 
    -166      120     -241    -1232    -2413    -3451    -4125    -4268 
   -3960    -3321    -2413    -1497     -969    -1227    -2335    -3628 
   -4365    -4311    -3364    -1846     -662     -251     -330     -410 
    -203       76      168        1     -687    -1996    -3551    -4865 
   -5448    -5050    -4063    -3289    -3179    -3306    -2889    -1818 
    -697     -112     -178     -592     -953    -1067    -1027    -1102 
   -1485    -2080    -2660    -3061    -3229    -3265    -3369    -3554 
   -3640    -3615    -3608    -3603    -3460    -3138    -2853    -2678 
   -2177    -1174     -245      218      352       89     -731    -1706 
   -2182    -2054    -1891    -2174    -2654    -2763    -2250    -1255 
    -297      -39     -711    -1876    -2837    -3276    -3280    -2864 
   -2219    -1872    -1885    -1875    -1867    -2111    -2454    -2720 
   -3109    -3640    -3825    -3362    -2682    -2473    -2905    -3443 
   -3380    -2498    -1281     -619    -1013    -1987    -2659    -2531 
   -1699     -738     -137       25     -261     -977    -1977    -3033 
   -3688    -3639    -3230    -2998    -3183    -3720    -4055    -3511 
   -2158     -661      399      760      436     -446    -1652    -2797 
   -3612    -3906    -3534    -2862    -2494    -2440    -2344    -2081 
   -1759    -1605    -1922    -2789    -3738    -4006    -3304    -2166 
   -1339    -1069    -1055     -781      -29      784     1081      530 
    -962    -2943    -4625    -5464    -5225    -4232    -3059    -1796 
    -510      423      780      639      253     -349    -1372    -2799 
   -4500    -6119    -6920    -6443    -4961    -3314    -2328    -2057 
   -1900    -1431     -708       -6      355      -25    -1219    -2664 
   -3723    -4176    -3994    -3184    -2046    -1050     -430     -194 
    -292     -587     -882    -1129    -1516    -2247    -3302    -4367 
   -4976    -4908    -4378    -3704    -3099    -2681    -2405    -2249 
   -2289    -2374    -2149    -1424     -368      506      741      303 
