Origin Time       2025/03/28 03:50:00
Lat.              35.403
Long.             140.360
Depth. (km)       54
Mag.              4.4
Station Code      CHBH11
Station Lat.      35.2867
Station Long.     140.1529
Station Height(m) -1920
Record Time       2025/03/28 03:50:48
Sampling Freq(Hz) 100Hz
Duration Time(s)  120
Dir.              3
Scale Factor      2942(gal)/8224139
Max. Acc. (gal)   0.694
Last Correction   2025/03/28 03:50:48
Memo.             
[...]
   52502    52505    52502    52501    52502    52501    52501    52502 
   52501    52500    52502    52504    52501    52501    52502    52502 
   52501    52502    52504    52501    52502    52502    52502    52501 
   52502    52505    52504    52502    52502    52501    52502    52504 
   52504    52502    52501    52501    52502    52502    52501    52501 
   52498    52498    52501    52500    52501    52502    52501    52502 
   52502    52500    52500    52502    52502    52501    52501    52501 
   52500    52501    52500    52498    52500    52501    52501    52500 
   52501    52502    52501    52501    52501    52500    52500    52501 
   52504    52504    52501    52502    52502    52501    52501    52501 
   52501    52501    52501    52500    52500    52502    52501    52498 
   52500    52500    52498    52500    52501    52501    52502    52504 
   52500    52498    52501    52501    52502    52502    52501    52502 
   52504    52502    52501    52501    52501    52502    52504    52502 
   52502    52501    52501    52502    52502    52502    52501    52501 
   52502    52504    52501    52501    52502    52502    52501    52501 
   52501    52501    52504    52504    52502    52502    52502    52501 
   52501    52498    52500    52502    52501    52501    52504    52502 
   52501    52502    52500    52500    52502    52504    52504    52502 
   52500    52501    52501    52498    52500    52505    52505    52502 
   52502    52504    52501    52500    52501    52501    52500    52501 
   52502    52502    52502    52500    52501    52502    52501    52500 
   52500    52501    52504    52502    52501    52504    52502    52500 
   52500    52498    52500    52502    52505    52504    52502    52504 
   52502    52504    52504    52502    52501    52500    52498    52501 
   52501    52501    52502    52502    52501    52500    52501    52502 
   52501    52501    52502    52502    52502    52502    52504    52504 
   52502    52502    52501    52501    52500    52498    52500    52502 
   52500    52498    52501    52502    52501    52501    52504    52502 
   52502    52502    52502    52502    52502    52500    52501    52502 
   52501    52504    52505    52502    52501    52501    52501    52502 
   52502    52502    52502    52501    52501    52502    52502    52502 
   52502    52502    52501    52500    52501    52502    52502    52504 
   52504    52500    52501    52504    52501    52500    52502    52502 
   52501    52502    52504    52500    52498    52501    52502    52502 
   52502    52502    52501    52501    52501    52504    52505    52504 
   52501    52501    52502    52502    52502    52501    52500    52501 
   52504    52502    52500    52502    52504    52498    52501    52504 
   52501    52500    52498    52498    52498    52500    52500    52498 
   52498    52500    52498    52501    52504    52501    52501    52501 
   52500    52500    52500    52500    52500    52500    52500    52501 
   52504    52502    52500    52498    52497    52498    52501    52501 
   52500    52502    52501    52500    52501    52502    52504    52502 
   52504    52504    52502    52500    52501    52501    52500    52500 
   52501    52501    52500    52501    52501    52500    52500    52502 
   52501    52501    52504    52504    52500    52500    52501    52500 
   52501    52500    52500    52500    52501    52502    52501    52502 
   52504    52502    52502    52506    52504    52501    52504    52504 
   52500    52502    52505    52502    52501    52502    52502    52501 
   52501    52502    52504    52504    52504    52502    52502    52501 
   52502    52502    52501    52501    52504    52504    52501    52501 
   52502    52502    52504    52504    52502    52501    52502    52501 
   52501    52504    52504    52502    52501    52500    52502    52504 
   52501    52500    52500    52502    52504    52504    52502    52501 
   52501    52501    52502    52502    52502    52501    52500    52501 
   52502    52502    52501    52501    52502    52502    52500    52501 
   52501    52498    52501    52502    52500    52500    52502    52502 
   52501    52501    52500    52500    52501    52505    52504    52501 
   52502    52504    52501    52501    52501    52501    52501    52501 
   52502    52501    52502    52504    52502    52502    52505    52505 
   52502    52500    52501    52504    52501    52501    52504    52502 
   52502    52505    52502    52501    52504    52502    52500    52504 
   52505    52501    52502    52504    52500    52498    52502    52502 
   52501    52502    52502    52500    52500    52500    52501    52500 
   52500    52501    52502    52502    52500    52501    52504    52502 
   52500    52501    52502    52502    52500    52500    52502    52502 
   52501    52501    52502    52501    52498    52501    52504    52502 
   52502    52504    52501    52500    52500    52500    52500    52498 
   52498    52502    52502    52500    52500    52501    52500    52498 
   52500    52498    52498    52501    52501    52501    52502    52504 
   52502    52501    52501    52502    52502    52502    52502    52502 
   52502    52502    52504    52505    52504    52500    52500    52504 
   52504    52501    52501    52502    52502    52504    52504    52501 
   52501    52502    52504    52502    52500    52501    52504    52502 
   52501    52502    52502    52504    52505    52502    52501    52504 
   52505    52504    52502    52502    52504    52505    52504    52502 
   52502    52504    52504    52505    52504    52502    52504    52505 
   52504    52504    52505    52505    52505    52504    52502    52504 
   52504    52502    52502    52504    52505    52504    52502    52502 
   52501    52504    52505    52504    52500    52502    52505    52501 
   52501    52505    52501    52497    52500    52502    52504    52501 
   52498    52498    52501    52501    52500    52502    52504    52502 
   52502    52502    52502    52501    52501    52501    52502    52502 
   52500    52500    52501    52501    52501    52502    52502    52501 
   52501    52501    52500    52500    52501    52504    52505    52504 
   52502    52502    52502    52500    52501    52504    52501    52498 
   52504    52502    52498    52501    52502    52501    52504    52501 
   52498    52501    52502    52501    52501    52501    52502    52502 
   52501    52501    52501    52500    52501    52504    52504    52502 
   52501    52501    52502    52502    52501    52504    52505    52504 
   52502    52504    52505    52506    52505    52502    52501    52502 
   52505    52506    52504    52501    52502    52504    52504    52504 
   52505    52505    52504    52504    52505    52504    52505    52504 
   52501    52502    52505    52502    52502    52506    52505    52504 
   52504    52504    52502    52502    52506    52505    52502    52504 
   52505    52502    52502    52504    52505    52504    52504    52505 
   52505    52504    52504    52504    52502    52502    52504    52504 
   52501    52501    52505    52505    52502    52502    52505    52505 
   52505    52504    52502    52504    52502    52502    52504    52502 
   52501    52502    52502    52500    52502    52504    52504    52502 
   52501    52502    52504    52501    52501    52505    52505    52501 
   52501    52502    52501    52501    52502    52504    52505    52504 
   52504    52504    52504    52502    52501    52500    52501    52502 
   52502    52501    52501    52501    52501    52502    52501    52501 
   52502    52502    52501    52502    52502    52502    52502    52501 
   52501    52501    52500    52498    52502    52505    52501    52498 
   52500    52500    52500    52501    52500    52498    52500    52500 
   52501    52501    52501    52501    52500    52500    52501    52501 
   52501    52501    52500    52500    52498    52501    52504    52504 
   52501    52501    52501    52500    52498    52500    52500    52498 
   52500    52501    52501    52498    52496    52497    52500    52501 
   52501    52502    52504    52501    52497    52498    52501    52500 
   52498    52500    52501    52502    52501    52501    52502    52500 
   52498    52498    52498    52501    52501    52500    52502    52505 
   52501    52500    52500    52501    52501    52500    52498    52500 
   52501    52501    52498    52498    52501    52501    52500    52500 
   52501    52500    52500    52500    52500    52500    52502    52502 
   52498    52498    52501    52501    52498    52500    52502    52502 
   52501    52498    52501    52502    52500    52500    52501    52502 
   52501    52498    52500    52502    52501    52498    52498    52502 
   52504    52501    52502    52502    52502    52502    52502    52502 
   52501    52501    52501    52501    52501    52504    52502    52500 
   52502    52504    52504    52504    52502    52500    52500    52501 
   52502    52501    52501    52504    52505    52504    52501    52500 
   52502    52504    52501    52502    52502    52504    52504    52502 
   52502    52504    52501    52502    52504    52502    52504    52504 
   52502    52504    52505    52504    52505    52504    52502    52504 
   52504    52502    52504    52505    52504    52502    52502    52502 
   52502    52501    52501    52501    52501    52502    52501    52501 
   52504    52505    52504    52504    52502    52504    52506    52504 
   52502    52502    52504    52504    52504    52504    52504    52504 
   52504    52504    52504    52504    52505    52505    52502    52501 
   52502    52502    52500    52500    52501    52502    52502    52502 
   52501    52501    52498    52501    52505    52502    52500    52505 
   52504    52500    52501    52501    52501    52502    52501    52500 
   52501    52501    52502    52504    52504    52501    52501    52501 
   52502    52502    52502    52501    52502    52502    52502    52502 
   52502    52502    52501    52501    52502    52504    52502    52501 
   52501    52502    52504    52502    52501    52501    52500    52497 
   52500    52500    52500    52501    52501    52501    52501    52498 
   52497    52500    52501    52502    52502    52501    52501    52502 
   52502    52501    52501    52502    52501    52500    52502    52504 
   52502    52501    52501    52501    52500    52501    52500    52500 
   52502    52502    52501    52502    52501    52498    52500    52502 
   52502    52502    52501    52500    52500    52501    52502    52504 
   52502    52500    52500    52501    52500    52497    52498    52502 
   52502    52501    52504    52505    52501    52500    52502    52502 
   52502    52501    52501    52501    52498    52500    52502    52502 
   52502    52502    52502    52502    52501    52501    52502    52502 
   52504    52502    52501    52502    52502    52502    52504    52502 
   52504    52502    52500    52501    52504    52504    52500    52498 
   52501    52504    52502    52502    52504    52504    52502    52505 
   52505    52504    52502    52502    52501    52500    52501    52500 
   52500    52501    52501    52500    52498    52500    52501    52500 
   52501    52501    52501    52502    52502    52504    52504    52500 
   52500    52504    52501    52498    52501    52502    52501    52500 
   52500    52500    52501    52502    52500    52500    52501    52500 
   52501    52504    52504    52502    52501    52498    52498    52500 
   52500    52500    52501    52504    52502    52502    52502    52501 
   52504    52505    52502    52500    52500    52501    52501    52504 
   52504    52502    52502    52502    52502    52502    52502    52504 
   52504    52504    52502    52500    52500    52502    52502    52502 
   52502    52502    52501    52500    52501    52502    52501    52502 
   52502    52501    52501    52501    52502    52504    52502    52504 
   52502    52500    52502    52501    52500    52502    52502    52501 
   52501    52501    52502    52502    52502    52501    52502    52502 
   52500    52500    52498    52498    52501    52501    52500    52500 
   52501    52501    52501    52502    52502    52502    52504    52502 
   52504    52504    52501    52502    52501    52493    52481    52462 
   52442    52427    52421    52429    52454    52488    52517    52542 
   52567    52600    52628    52637    52640    52645    52629    52591 
   52544    52474    52400    52331    52284    52339    52402    52447 
   52639    52785    52648    52617    52937    52995    52498    52208 
   52481    52605    52057    51551    52046    52717    52504    52285 
   52621    52849    52803    52585    52294    52343    52547    52242 
   51911    52230    52420    52128    52138    52513    52999    53401 
   53165    52536    52235    52570    53049    52698    52203    52284 
   52234    52342    52478    51988    52015    52702    52713    52363 
   52438    52637    52898    53250    53306    53157    53098    52998 
   52656    52273    52259    52374    52124    51738    51934    52783 
   53060    52336    52077    52828    53453    53352    52698    51869 
   51571    51807    51871    51867    52056    52246    52695    53100 
   52679    52324    52953    53299    52755    52498    52690    52785 
   52753    52417    51922    51557    51381    51894    52647    52698 
   52748    53067    53048    52972    52820    52362    51983    51807 
   51854    51861    51335    50967    51437    51996    52408    52895 
   52967    52817    52937    53129    53484    54108    54441    53811 
   52786    52735    53046    52591    52170    52107    51965    52143 
   52509    52505    52355    52203    52030    52209    52758    53010 
   52610    52205    52293    52617    53019    53118    52558    52060 
   51869    51403    51077    51383    51988    52488    52674    53068 
   53647    53376    52587    52276    52228    52293    52704    52928 
   52905    53325    53566    53010    52596    52377    51368    50569 
   51320    52442    52874    52991    52917    52712    52569    52555 
   52678    52860    53103    53015    52348    52003    52207    52307 
   52488    52413    51749    51727    52679    53410    53441    53279 
   53005    52232    51520    51802    52317    51804    51270    51946 
   52917    53393    53527    53302    52926    52658    52276    51889 
   52085    52597    52639    52327    52265    52560    52824    53167 
   53743    53392    52031    51413    51925    52536    52552    52101 
   51848    52047    52672    53293    53090    52571    52866    53257 
   52726    52174    52115    51753    51511    52197    52987    52879 
   52112    51557    51719    52132    52316    52758    53277    53312 
   53462    53399    52691    52520    52536    52143    52432    52833 
   52245    51393    51312    52307    53048    52432    52035    52852 
   53404    52898    52332    52288    52261    52068    51827    51745 
   52231    52851    53261    53545    53304    53123    53080    52038 
   51106    51497    51864    51714    51822    52035    52340    52879 
   52918    52528    52371    52424    52744    53119    53543    54205 
   53978    53086    53065    52882    51691    50909    50984    51644 
   52793    53553    53420    52882    52594    52872    53181    53037 
   53009    53342    53100    52289    51871    51403    50760    51020 
   52016    52789    52851    52413    52118    52006    52064    52134 
   51737    51745    52779    53551    53434    52999    52936    53443 
   53516    52897    52745    52905    52309    51471    51444    51815 
   51840    51862    52018    52081    52394    52843    53115    53608 
   54155    53746    52413    51683    51888    51642    51035    51133 
   51615    52166    53065    53663    53272    52833    53330    53716 
   53038    52319    52095    51876    51834    52033    52552    53427 
   53430    52640    52604    52883    52408    51583    51609    52732 
   53217    52555    52332    52608    52591    52470    52255    52072 
   52358    52515    52053    51993    52636    52920    52614    52262 
   52473    53347    53693    53006    52296    52084    52305    52664 
   52438    51707    51475    51784    52035    52357    52550    52266 
   52220    52762    53244    53137    52662    52662    53001    52706 
   52234    52297    52182    51780    51921    52488    52875    52888 
   52910    53302    53343    52871    52731    52691    52478    52533 
   52543    52266    52195    52342    52473    52712    52924    52720 
   52281    52087    52135    52359    52706    52740    52440    52366 
   52560    52803    52955    52612    52122    52347    52933    52976 
   52478    52128    51961    51480    51302    52137    53102    53122 
   52555    52186    52068    52319    52687    52394    52038    52226 
   52127    52004    52631    53157    53145    53072    53109    53342 
   53244    52521    52014    51873    51921    52488    52942    52704 
   52374    52222    52270    52540    52481    51904    51444    51690 
   52408    53086    53593    53623    53252    53001    52671    52243 
   51887    51682    52266    53184    53271    52897    52442    51781 
   51599    52057    52682    53250    53098    52277    51765    51734 
   52078    52494    52247    51827    52262    52930    52778    52442 
   52857    53192    52699    52543    53248    53569    53106    52605 
   52390    52394    52448    52132    51314    50685    50863    51576 
   52266    52691    53207    53881    53627    52709    52860    53680 
   53759    53188    52548    52220    52222    52311    52370    52169 
   52127    52733    52956    52444    52307    52290    51962    52366 
   53323    53457    52857    52362    52064    51856    51880    52045 
   52057    52058    52319    52726    52976    52772    52178    51833 
   52104    52417    52394    52577    53057    53256    52982    52465 
   52080    51997    52000    51884    51641    51513    51694    51925 
   52042    52363    52822    52982    53156    53462    53360    53152 
   53256    53547    53520    52710    52312    52928    53092    52833 
   53171    53419    52807    51930    51665    52039    52303    52089 
   51935    52122    52299    52596    52893    52471    51894    51822 
   51707    51633    51910    52039    52047    52578    53383    53701 
   53565    53153    52641    52450    52509    52551    52289    51912 
   52192    52540    52218    52162    52582    52532    51995    51727 
   52061    52478    52273    51867    52299    53190    53460    53308 
   53169    53001    52929    52678    52236    52251    52462    52258 
   51826    51520    51699    52542    53596    54174    53974    53346 
   52720    52095    51578    51551    51988    52420    52606    52598 
   52334    52007    52100    52297    52064    51972    52469    52969 
   52979    52618    52321    52320    52463    52494    52461    52766 
   52975    52412    51953    52230    52419    52290    52309    52564 
   52887    52805    52293    51985    51999    52228    52623    52785 
   52690    52694    52735    52559    52266    52104    52103    52278 
   52618    52906    53133    53462    53651    53269    52628    52470 
   52677    52814    53013    53109    52786    52454    52446    52454 
   52312    52189    52200    52265    52095    51686    51428    51422 
