Origin Time       2025/03/28 03:50:00
Lat.              35.403
Long.             140.360
Depth. (km)       54
Mag.              4.4
Station Code      CHBH11
Station Lat.      35.2867
Station Long.     140.1529
Station Height(m) -1920
Record Time       2025/03/28 03:50:48
Sampling Freq(Hz) 100Hz
Duration Time(s)  120
Dir.              1
Scale Factor      2942(gal)/8224139
Max. Acc. (gal)   1.290
Last Correction   2025/03/28 03:50:48
Memo.             
[...]
  220963   220961   220962   220963   220962   220962   220963   220965 
  220966   220966   220963   220962   220962   220963   220962   220962 
  220965   220965   220963   220965   220965   220962   220962   220962 
  220962   220963   220962   220961   220961   220961   220963   220966 
  220965   220962   220962   220963   220963   220963   220962   220961 
  220962   220963   220963   220962   220962   220962   220965   220963 
  220961   220961   220962   220961   220961   220963   220965   220962 
  220961   220962   220962   220961   220961   220963   220963   220961 
  220959   220961   220961   220961   220961   220961   220962   220962 
  220961   220962   220961   220959   220961   220962   220962   220961 
  220962   220963   220961   220961   220962   220962   220962   220963 
  220963   220959   220959   220961   220962   220961   220959   220959 
  220962   220962   220962   220962   220961   220959   220959   220961 
  220963   220962   220961   220962   220961   220961   220962   220963 
  220963   220959   220959   220962   220961   220961   220962   220961 
  220959   220959   220961   220963   220962   220962   220961   220961 
  220961   220959   220959   220961   220961   220962   220961   220959 
  220959   220961   220962   220963   220961   220959   220962   220962 
  220961   220962   220962   220958   220959   220963   220962   220962 
  220963   220963   220963   220963   220962   220961   220962   220962 
  220961   220963   220963   220963   220965   220965   220963   220963 
  220963   220961   220963   220963   220961   220959   220959   220959 
  220962   220963   220963   220962   220962   220961   220961   220962 
  220965   220965   220962   220961   220963   220962   220961   220962 
  220963   220965   220962   220962   220963   220961   220961   220963 
  220962   220962   220963   220961   220959   220962   220962   220961 
  220961   220961   220962   220962   220962   220963   220962   220962 
  220966   220963   220962   220962   220962   220962   220963   220963 
  220962   220961   220962   220962   220961   220962   220962   220961 
  220961   220961   220962   220963   220963   220961   220962   220962 
  220962   220963   220962   220961   220962   220962   220962   220962 
  220962   220962   220963   220962   220962   220962   220961   220959 
  220961   220961   220959   220962   220965   220963   220961   220962 
  220962   220959   220958   220962   220965   220961   220959   220963 
  220963   220962   220962   220962   220962   220962   220961   220962 
  220962   220962   220962   220962   220962   220963   220962   220961 
  220962   220962   220963   220963   220963   220963   220963   220962 
  220962   220963   220961   220959   220961   220962   220963   220965 
  220963   220965   220965   220963   220959   220959   220962   220961 
  220962   220963   220961   220959   220965   220968   220962   220962 
  220968   220965   220961   220962   220963   220963   220965   220965 
  220963   220963   220963   220962   220963   220965   220963   220962 
  220962   220962   220965   220965   220963   220963   220965   220965 
  220963   220963   220965   220966   220963   220962   220962   220963 
  220965   220962   220962   220965   220963   220962   220965   220965 
  220965   220963   220963   220963   220963   220963   220965   220965 
  220965   220965   220963   220963   220965   220963   220962   220963 
  220963   220963   220963   220962   220963   220966   220961   220961 
  220965   220965   220962   220962   220961   220962   220963   220962 
  220962   220962   220962   220962   220961   220962   220963   220961 
  220959   220963   220963   220963   220965   220963   220961   220961 
  220965   220963   220959   220962   220963   220962   220962   220962 
  220961   220962   220963   220963   220963   220963   220965   220962 
  220959   220962   220963   220962   220963   220963   220961   220961 
  220963   220963   220961   220961   220963   220963   220962   220963 
  220965   220963   220962   220963   220965   220963   220961   220961 
  220962   220962   220959   220961   220963   220965   220963   220963 
  220965   220965   220962   220961   220962   220961   220962   220963 
  220965   220963   220962   220963   220963   220961   220962   220962 
  220959   220961   220962   220961   220961   220965   220962   220961 
  220963   220965   220962   220962   220962   220963   220965   220963 
  220962   220963   220963   220963   220965   220962   220961   220963 
  220962   220962   220965   220963   220961   220962   220963   220963 
  220963   220962   220961   220962   220963   220962   220961   220961 
  220962   220963   220963   220963   220963   220963   220961   220962 
  220965   220963   220963   220963   220962   220962   220962   220962 
  220962   220963   220962   220961   220962   220961   220962   220963 
  220962   220962   220963   220961   220961   220963   220963   220962 
  220963   220962   220962   220962   220962   220963   220963   220965 
  220965   220962   220962   220963   220962   220963   220963   220965 
  220968   220965   220962   220962   220961   220962   220965   220963 
  220963   220965   220965   220965   220965   220963   220965   220965 
  220963   220965   220965   220962   220962   220961   220961   220963 
  220965   220963   220965   220962   220961   220963   220963   220965 
  220965   220962   220961   220962   220966   220966   220963   220962 
  220963   220963   220961   220961   220962   220962   220961   220963 
  220965   220965   220965   220963   220963   220962   220962   220962 
  220962   220961   220962   220963   220965   220963   220962   220962 
  220962   220961   220963   220963   220962   220963   220963   220963 
  220966   220966   220963   220962   220963   220963   220965   220965 
  220962   220961   220962   220963   220963   220962   220963   220965 
  220963   220963   220965   220963   220963   220962   220963   220966 
  220965   220962   220962   220962   220965   220966   220963   220962 
  220965   220965   220962   220962   220963   220962   220963   220963 
  220963   220962   220963   220968   220965   220963   220963   220963 
  220962   220962   220963   220965   220963   220963   220961   220962 
  220966   220966   220965   220962   220963   220965   220963   220959 
  220962   220963   220962   220962   220963   220962   220961   220962 
  220963   220965   220962   220962   220963   220963   220962   220961 
  220959   220959   220962   220963   220962   220961   220962   220962 
  220961   220962   220961   220962   220962   220959   220959   220961 
  220959   220959   220962   220963   220965   220963   220962   220961 
  220958   220955   220951   220946   220947   220947   220943   220943 
  220950   220955   220962   220977   221000   221009   220996   220989 
  220989   220976   220970   220966   220932   220887   220851   220873 
  220959   220990   220949   220988   221076   221058   220986   220969 
  220990   221003   220966   220893   220862   220936   221015   220978 
  220914   220896   220901   220982   221039   220968   220966   221071 
  221080   220996   220908   220930   221047   220997   220837   220801 
  220862   220966   221005   220946   220989   221047   220966   220926 
  220986   221016   220999   220980   220942   220861   220849   220931 
  220946   220922   220946   220950   220928   220896   220904   221036 
  221090   220980   220958   221019   220959   220864   220901   220970 
  220953   221030   221169   221090   220949   221003   221073   221017 
  220922   220846   220855   220918   220919   220887   220927   221031 
  221046   220970   220986   221107   221181   221136   221004   220877 
  220860   220858   220769   220743   220834   220895   220918   220980 
  221063   221120   221177   221216   221167   221086   221054   220980 
  220806   220708   220795   220946   221013   220924   220834   220903 
  220958   220900   220812   220741   220819   221035   221131   221034 
  220873   220834   221031   221193   221057   220904   220909   220873 
  220881   221013   221016   220919   220946   221001   220968   220969 
  221088   221169   221165   221223   221286   221175   220909   220661 
  220569   220649   220861   221066   221103   221051   221038   221003 
  220931   220864   220801   220793   220865   220982   221127   221304 
  221390   221171   220828   220710   220720   220683   220671   220781 
  220976   221070   221058   221157   221254   221135   220984   220872 
  220699   220631   220739   220903   221055   221036   220881   220845 
  220965   221100   221097   220959   220900   221039   221251   221319 
  221173   220999   220899   220891   221023   221076   220969   220963 
  220982   220924   221008   221073   220862   220693   220792   220796 
  220587   220625   220915   221081   221189   221132   220804   220712 
  220826   220766   220812   220988   220995   220931   220966   221107 
  221232   221246   221220   221194   221231   221289   221093   220777 
  220693   220722   220841   221039   221065   221080   221101   220969 
  220892   220850   220869   221040   221078   220942   220785   220675 
  220699   220766   220896   221197   221428   221308   221011   220872 
  220864   220847   220919   221047   221046   220942   220865   220896 
  221023   221046   221003   221094   221043   220753   220714   220915 
  220955   220877   220837   220842   220865   220905   221039   221103 
  220988   220927   220891   220889   221053   221080   221001   221071 
  221030   220903   220946   220955   220934   221019   220934   220772 
  220864   220904   220757   220742   220841   220934   221011   221101 
  221379   221632   221439   221105   221054   221071   221047   221028 
  220923   220882   220874   220691   220587   220731   220891   220988 
  221109   221228   221308   221254   220954   220662   220722   221005 
  221028   220737   220641   220822   220916   220907   221008   221189 
  221186   221016   220957   221063   221274   221418   221282   220922 
  220482   220236   220459   220746   220619   220526   220887   221190 
  221157   221175   221198   221103   221080   221031   220957   220920 
  220639   220220   220172   220495   220719   220791   221027   221358 
  221530   221540   221482   221420   221431   221489   221401   221196 
  220986   220683   220430   220396   220517   220764   221007   221173 
  221297   221182   220843   220733   220972   221262   221427   221337 
  221061   220950   220990   220977   221001   220959   220833   220939 
  221031   220892   220984   221131   220930   220706   220513   220378 
  220680   221143   221292   221162   220934   220827   220904   221000 
  220905   220545   220266   220306   220498   220814   221090   221093 
  221146   221339   221320   221171   221113   221047   220973   221059 
  221233   221225   221077   220988   220877   220795   220845   220807 
  220675   220760   221092   221418   221537   221413   221124   220839 
  220828   221139   221324   221109   220916   220954   220839   220541 
  220446   220623   220754   220756   220951   221278   221293   221038 
  220860   220873   221004   221169   221324   221320   221082   220887 
  220893   220849   220635   220522   220681   220881   220939   221005 
  221094   221035   220974   221165   221464   221570   221406   221206 
  221144   220969   220554   220334   220494   220652   220648   220631 
  220584   220496   220522   220758   221165   221452   221350   221163 
  221231   221310   221290   221198   220842   220518   220634   220959 
  221229   221335   221219   221065   220958   220895   220931   220907 
  220764   220750   220922   221090   221171   221263   221439   221510 
  221373   221306   221447   221522   221352   221023   220662   220387 
  220275   220279   220311   220402   220660   220958   221103   221310 
  221674   221756   221494   221285   221296   221486   221494   221000 
  220382   219970   219569   219183   219165   219600   220232   220923 
  221675   222439   223159   223701   223732   223129   222242   221332 
  220369   219510   219091   219073   219092   219072   219206   219623 
  220237   220683   220769   220714   220685   220680   220788   221115 
  221491   221591   221258   220637   219994   219461   219230   219516 
  220039   220396   220639   220846   220999   221221   221818   222871 
  223720   223929   224074   224311   224082   223468   222893   222200 
  221111   219866   218948   218633   218856   219325   219989   220995 
  221919   221884   220900   220035   219921   220363   220857   220854 
  220477   220348   220531   220820   221112   221181   220980   220649 
  220241   219967   220198   221030   221888   221984   221328   220603 
  220306   220513   220985   221350   221352   221066   220822   220781 
  220912   221297   221811   222060   221881   221505   221247   221051 
  220658   220347   220463   220668   220661   220502   220194   220064 
  220491   221128   221605   221996   222203   222062   221587   220916 
  220436   220457   220970   221744   222378   222602   222313   221621 
  220866   220141   219538   219422   219640   219821   220190   220754 
  220978   220864   220679   220278   219892   219956   220368   221121 
  222108   222705   222809   222654   222102   221213   220310   219616 
  219342   219562   220167   220912   221557   222050   222166   221586 
  220538   219591   219240   219596   220074   220274   220441   220467 
  219948   219203   218844   218914   219337   220066   220758   221417 
  222374   223404   224154   224569   224371   223429   222316   221485 
  220731   219994   219775   220317   221117   221814   222284   221998 
  220995   220140   219828   219978   220421   220818   221057   221190 
  221080   220614   219871   219213   219056   219227   219335   219628 
  220361   221017   221121   220957   220901   220970   221179   221572 
  222073   222655   223357   224062   224410   224151   223302   221991 
  220750   220067   219612   219184   219210   219802   220625   221235 
  221385   221246   221139   221229   221278   220958   220468   220110 
  219870   219604   219241   219198   219913   220990   221757   222084 
  222146   222068   221876   221647   221490   221305   221026   220788 
  220673   220791   221143   221309   220899   220259   220087   220356 
  220626   220943   221333   221602   221771   221919   221913   221522 
  220835   220137   219561   219298   219553   220245   221128   221985 
  222690   222914   222272   220997   219685   218732   218525   219231 
  220357   221350   222079   222382   222222   221975   221692   221070 
  220313   219925   219951   219943   219754   219825   220272   220649 
  220920   221379   221788   221830   221773   221895   222089   222181 
  222019   221586   221020   220461   220139   220176   220336   220500 
  220704   220787   220779   220919   221143   221301   221562   222104 
  222741   223128   223049   222440   221489   220603   220083   219909 
  219798   219686   219762   219821   219624   219352   218983   218423 
  217998   218155   219122   220571   221817   222563   222929   222956 
  222697   222370   221894   221150   220572   220507   220757   221111 
  221589   222120   222358   222131   221667   221205   220920   220950 
  221335   221925   222188   221751   220945   220212   219715   219588 
  219805   220105   220261   220305   220492   221089   221992   222664 
  222717   222401   222049   221563   220957   220514   220234   219924 
  219597   219491   219828   220475   221107   221636   222000   222131 
  222137   222025   221713   221348   221107   220986   220907   220784 
  220531   220229   220077   220012   219831   219690   219874   220255 
  220540   220772   221116   221341   221262   221171   221132   220977 
  220823   220756   220768   220876   221065   221341   221616   221809 
  221842   221493   220864   220311   219917   219615   219393   219252 
  219292   219659   220236   220727   221080   221327   221522   221894 
  222397   222604   222301   221715   221192   220826   220483   220153 
  220051   220271   220702   221366   222189   222799   223065   223184 
  223230   223118   222687   221910   221073   220338   219613   219056 
  218948   219242   219757   220356   220815   221027   221046   220897 
  220756   220768   220804   220729   220517   220291   220174   220176 
  220530   221273   221826   221865   221665   221440   221266   221215 
  221204   221142   221044   220963   221063   221412   221705   221682 
  221335   220680   219929   219497   219526   219852   220233   220510 
  220745   221022   221309   221541   221580   221425   221279   221240 
  221302   221444   221516   221394   221246   221250   221364   221572 
  221802   221833   221653   221498   221463   221329   220947   220432 
  219836   219292   219171   219492   219898   220209   220434   220625 
  220785   220850   220969   221337   221730   221838   221697   221401 
  221020   220689   220494   220490   220650   220796   220810   220800 
  220932   221166   221385   221497   221359   221008   220707   220611 
  220530   220264   220089   220210   220329   220326   220396   220521 
  220580   220688   220963   221265   221491   221663   221665   221462 
  221181   220845   220514   220414   220645   220982   221157   221236 
  221448   221732   221883   221944   222033   222115   222077   221821 
  221431   221128   220941   220738   220459   220140   219916   219927 
  220102   220217   220233   220330   220580   220876   221152   221474 
  221815   221958   221854   221675   221472   221225   220881   220483 
  220278   220351   220657   221171   221678   221987   222141   222207 
  222166   221938   221499   220892   220307   220033   220044   220110 
  220220   220406   220509   220449   220441   220596   220725   220734 
  220711   220691   220658   220602   220606   220835   221212   221505 
  221643   221598   221421   221356   221505   221688   221803   221888 
  221887   221717   221529   221440   221235   220789   220334   220067 
  219916   219780   219686   219778   220112   220503   220757   220810 
  220653   220499   220569   220777   221034   221294   221360   221224 
  221147   221246   221382   221367   221162   220950   220907   220962 
  221000   221024   220995   220847   220662   220564   220587   220684 
  220797   220909   220990   221003   220993   220973   220864   220730 
  220722   220877   221196   221539   221678   221575   221312   221011 
  220827   220766   220816   221024   221279   221433   221502   221518 
  221517   221540   221513   221360   221061   220634   220243   220055 
  220083   220244   220460   220702   220957   221182   221339   221458 
  221567   221599   221501   221381   221386   221445   221383   221185 
  220954   220720   220453   220216   220133   220249   220413   220452 
  220403   220348   220279   220236   220279   220418   220637   220865 
  221017   221081   221096   221074   221043   221120   221308   221422 
  221385   221262   221067   220818   220599   220492   220522   220645 
  220785   220877   220957   221117   221359   221636   221899   222035 
  221985   221867   221848   221931   222011   222010   221876   221591 
  221202   220803   220500   220326   220221   220137   220079   220063 
  220079   220116   220190   220361   220619   220877   221097   221242 
  221278   221263   221239   221223   221177   221039   220901   220843 
