Origin Time       2025/03/28 03:50:00
Lat.              35.403
Long.             140.360
Depth. (km)       54
Mag.              4.4
Station Code      CHBH17
Station Lat.      35.1714
Station Long.     140.3398
Station Height(m) 10
Record Time       2025/03/28 03:50:50
Sampling Freq(Hz) 100Hz
Duration Time(s)  120
Dir.              5
Scale Factor      7845(gal)/8223790
Max. Acc. (gal)   9.105
Last Correction   2025/03/28 03:50:50
Memo.             
[...]
   -3530    -3524    -3515    -3520    -3527    -3528    -3534    -3535 
   -3531    -3530    -3526    -3514    -3511    -3520    -3530    -3537 
   -3542    -3537    -3524    -3518    -3515    -3518    -3524    -3532 
   -3532    -3526    -3523    -3530    -3531    -3530    -3531    -3530 
   -3526    -3524    -3519    -3518    -3524    -3528    -3530    -3531 
   -3532    -3528    -3523    -3527    -3535    -3530    -3516    -3518 
   -3531    -3535    -3538    -3538    -3526    -3520    -3524    -3522 
   -3523    -3532    -3537    -3534    -3526    -3523    -3531    -3531 
   -3527    -3526    -3523    -3524    -3531    -3532    -3528    -3532 
   -3538    -3534    -3524    -3523    -3520    -3515    -3520    -3531 
   -3535    -3535    -3541    -3537    -3524    -3518    -3516    -3522 
   -3530    -3534    -3538    -3539    -3534    -3524    -3519    -3522 
   -3528    -3530    -3531    -3534    -3530    -3524    -3524    -3528 
   -3534    -3537    -3534    -3528    -3523    -3518    -3518    -3522 
   -3530    -3539    -3538    -3530    -3524    -3520    -3522    -3526 
   -3528    -3528    -3531    -3532    -3531    -3528    -3528    -3523 
   -3520    -3528    -3534    -3532    -3531    -3528    -3526    -3524 
   -3522    -3528    -3535    -3532    -3532    -3534    -3527    -3526 
   -3528    -3520    -3515    -3523    -3532    -3537    -3541    -3538 
   -3528    -3523    -3522    -3518    -3518    -3523    -3526    -3532 
   -3539    -3541    -3535    -3527    -3516    -3512    -3516    -3522 
   -3530    -3538    -3541    -3537    -3526    -3518    -3515    -3519 
   -3524    -3530    -3535    -3537    -3530    -3519    -3516    -3519 
   -3526    -3534    -3534    -3531    -3530    -3523    -3514    -3515 
   -3524    -3527    -3526    -3530    -3530    -3524    -3527    -3531 
   -3527    -3526    -3524    -3520    -3522    -3526    -3528    -3531 
   -3530    -3527    -3526    -3526    -3526    -3527    -3530    -3534 
   -3530    -3524    -3526    -3524    -3523    -3524    -3527    -3527 
   -3528    -3532    -3532    -3528    -3530    -3530    -3522    -3518 
   -3523    -3534    -3539    -3532    -3520    -3512    -3512    -3527 
   -3541    -3539    -3534    -3531    -3526    -3519    -3518    -3523 
   -3528    -3530    -3526    -3528    -3530    -3523    -3522    -3523 
   -3523    -3526    -3527    -3526    -3530    -3531    -3523    -3516 
   -3520    -3527    -3530    -3534    -3537    -3531    -3523    -3520 
   -3519    -3523    -3531    -3534    -3528    -3527    -3527    -3526 
   -3524    -3524    -3526    -3530    -3531    -3526    -3520    -3522 
   -3522    -3526    -3532    -3534    -3528    -3524    -3523    -3526 
   -3528    -3530    -3531    -3531    -3531    -3534    -3531    -3523 
   -3520    -3522    -3523    -3527    -3534    -3539    -3541    -3531 
   -3520    -3515    -3515    -3520    -3531    -3539    -3542    -3538 
   -3527    -3518    -3515    -3519    -3527    -3537    -3539    -3537 
   -3531    -3524    -3519    -3518    -3520    -3524    -3530    -3532 
   -3531    -3530    -3532    -3531    -3530    -3527    -3520    -3518 
   -3519    -3524    -3537    -3542    -3541    -3534    -3522    -3510 
   -3510    -3519    -3532    -3542    -3543    -3534    -3522    -3515 
   -3518    -3524    -3531    -3532    -3528    -3527    -3528    -3527 
   -3524    -3524    -3526    -3527    -3532    -3537    -3531    -3519 
   -3519    -3528    -3526    -3519    -3527    -3535    -3532    -3530 
   -3528    -3524    -3524    -3523    -3522    -3524    -3527    -3531 
   -3532    -3532    -3537    -3530    -3520    -3522    -3520    -3518 
   -3528    -3538    -3539    -3535    -3524    -3518    -3515    -3516 
   -3526    -3535    -3542    -3541    -3530    -3516    -3512    -3512 
   -3518    -3530    -3541    -3542    -3537    -3530    -3523    -3519 
   -3519    -3523    -3526    -3526    -3528    -3534    -3534    -3532 
   -3530    -3519    -3512    -3522    -3530    -3532    -3534    -3530 
   -3522    -3522    -3527    -3527    -3524    -3527    -3532    -3530 
   -3526    -3527    -3520    -3516    -3522    -3531    -3541    -3543 
   -3532    -3514    -3507    -3514    -3526    -3538    -3543    -3535 
   -3519    -3510    -3516    -3524    -3527    -3531    -3538    -3534 
   -3524    -3526    -3526    -3518    -3519    -3530    -3532    -3534 
   -3538    -3530    -3516    -3515    -3519    -3522    -3534    -3541 
   -3534    -3527    -3522    -3518    -3520    -3528    -3531    -3523 
   -3518    -3526    -3534    -3537    -3534    -3523    -3515    -3519 
   -3528    -3532    -3531    -3530    -3527    -3524    -3527    -3535 
   -3535    -3528    -3523    -3518    -3516    -3524    -3532    -3531 
   -3531    -3532    -3527    -3523    -3526    -3524    -3519    -3523 
   -3531    -3535    -3534    -3530    -3526    -3522    -3520    -3526 
   -3528    -3526    -3530    -3531    -3527    -3526    -3523    -3518 
   -3522    -3532    -3532    -3531    -3538    -3538    -3527    -3519 
   -3519    -3522    -3527    -3532    -3537    -3535    -3534    -3528 
   -3522    -3518    -3520    -3524    -3527    -3531    -3532    -3531 
   -3535    -3535    -3524    -3520    -3524    -3526    -3528    -3532 
   -3530    -3526    -3526    -3528    -3528    -3527    -3530    -3530 
   -3526    -3527    -3531    -3528    -3520    -3522    -3530    -3534 
   -3532    -3530    -3527    -3524    -3524    -3524    -3528    -3531 
   -3528    -3522    -3520    -3527    -3534    -3532    -3532    -3530 
   -3523    -3522    -3527    -3528    -3528    -3532    -3530    -3523 
   -3526    -3531    -3531    -3531    -3532    -3526    -3518    -3520 
   -3527    -3532    -3535    -3535    -3531    -3522    -3518    -3523 
   -3530    -3531    -3532    -3532    -3530    -3530    -3528    -3520 
   -3516    -3527    -3535    -3534    -3532    -3526    -3516    -3518 
   -3527    -3537    -3542    -3539    -3524    -3512    -3516    -3523 
   -3530    -3537    -3539    -3535    -3527    -3522    -3522    -3524 
   -3524    -3526    -3530    -3532    -3530    -3526    -3519    -3518 
   -3523    -3531    -3537    -3535    -3526    -3518    -3519    -3524 
   -3524    -3528    -3538    -3534    -3524    -3524    -3524    -3519 
   -3523    -3527    -3526    -3530    -3534    -3532    -3527    -3523 
   -3522    -3518    -3520    -3532    -3539    -3531    -3519    -3516 
   -3519    -3526    -3531    -3534    -3534    -3527    -3519    -3516 
   -3520    -3523    -3527    -3534    -3541    -3537    -3526    -3519 
   -3518    -3518    -3522    -3537    -3545    -3537    -3528    -3522 
   -3516    -3522    -3527    -3527    -3531    -3534    -3528    -3526 
   -3528    -3524    -3519    -3522    -3527    -3530    -3535    -3538 
   -3532    -3520    -3519    -3523    -3523    -3526    -3532    -3534 
   -3528    -3526    -3527    -3526    -3520    -3520    -3530    -3538 
   -3537    -3531    -3524    -3522    -3520    -3522    -3524    -3532 
   -3535    -3528    -3528    -3532    -3528    -3524    -3527    -3524 
   -3516    -3515    -3526    -3535    -3538    -3537    -3530    -3518 
   -3514    -3518    -3524    -3528    -3535    -3539    -3532    -3523 
   -3524    -3523    -3519    -3523    -3530    -3530    -3534    -3534 
   -3524    -3516    -3515    -3520    -3531    -3535    -3531    -3527 
   -3528    -3526    -3522    -3527    -3531    -3524    -3523    -3528 
   -3528    -3524    -3523    -3526    -3528    -3531    -3539    -3538 
   -3526    -3518    -3526    -3539    -3538    -3530    -3524    -3499 
   -3462    -3457    -3488    -3537    -3585    -3647    -3753    -3804 
   -3661    -3456    -3369    -3279    -3138    -3148    -3261    -3285 
   -3348    -3653    -4099    -4322    -4129    -3819    -3654    -3445 
   -3111    -2972    -3144    -3369    -3466    -3530    -3713    -3854 
   -3655    -3314    -3238    -3343    -3352    -3407    -3774    -4178 
   -4158    -3908    -3869    -3870    -3510    -2874    -2357    -2160 
   -2408    -3111    -3765    -4172    -4727    -5040    -4533    -3829 
   -3545    -3327    -2917    -2646    -2760    -3154    -3623    -3866 
   -3788    -3681    -3627    -3511    -3310    -3086    -3119    -3427 
   -3667    -3982    -4552    -4895    -4594    -3802    -2843    -1993 
   -1537    -1725    -2539    -3615    -4610    -5186    -4993    -4396 
   -4109    -3933    -3288    -2458    -2195    -2659    -3365    -3742 
   -3688    -3724    -4202    -4588    -4243    -3424    -2887    -2745 
   -2620    -2705    -3376    -4209    -4590    -4421    -3964    -3653 
   -3493    -3069    -2745    -2990    -3181    -3060    -3150    -3566 
   -4090    -4405    -4306    -4012    -3712    -3415    -3129    -2762 
   -2508    -2791    -3431    -3881    -3979    -3937    -4148    -4426 
   -4002    -3175    -2848    -2883    -3025    -3531    -4180    -4363 
   -3923    -3438    -3311    -3137    -2805    -2833    -3288    -3736 
   -3855    -3771    -3894    -4133    -3970    -3496    -3177    -2999 
   -2953    -3213    -3438    -3388    -3530    -3975    -4141    -3954 
   -3871    -3794    -3489    -3154    -2848    -2616    -2729    -3234 
   -3878    -4299    -4353    -4241    -3970    -3464    -3082    -3080 
   -3292    -3603    -3774    -3650    -3655    -3854    -3639    -3109 
   -2871    -2921    -2971    -3048    -3393    -3951    -4332    -4461 
   -4399    -4045    -3576    -3325    -3273    -3115    -2783    -2589 
   -2736    -3200    -3823    -4193    -4167    -4068    -3958    -3788 
   -3681    -3451    -3037    -2874    -3137    -3551    -3906    -4137 
   -4124    -3713    -3196    -3044    -3022    -2890    -3056    -3574 
   -3963    -4075    -4054    -3848    -3422    -3091    -3167    -3503 
   -3771    -3855    -3778    -3577    -3331    -3145    -3072    -3264 
   -3753    -4068    -3875    -3433    -3126    -3045    -3041    -3196 
   -3720    -4345    -4642    -4473    -3932    -3204    -2469    -2047 
   -2393    -3420    -4330    -4484    -3985    -3356    -3048    -3136 
   -3366    -3584    -3790    -3975    -4191    -4374    -4141    -3365 
   -2578    -2289    -2434    -2781    -3426    -4464    -5251    -5088 
   -4311    -3488    -2732    -2258    -2201    -2381    -2752    -3321 
   -3925    -4450    -4862    -5020    -4779    -4255    -3645    -3010 
   -2412    -1988    -1988    -2531    -3330    -4098    -4662    -4727 
   -4213    -3437    -2901    -2762    -2641    -2673    -3477    -4634 
   -5150    -4909    -4428    -3920    -3171    -2398    -2242    -2559 
   -2936    -3501    -4054    -4032    -3545    -3254    -3352    -3461 
   -3542    -3825    -4018    -3784    -3484    -3478    -3515    -3391 
   -3366    -3584    -3735    -3645    -3512    -3456    -3414    -3396 
   -3566    -3839    -3743    -3353    -3218    -3229    -3132    -3246 
   -3677    -3982    -3889    -3581    -3361    -3357    -3473    -3484 
   -3406    -3597    -4095    -4379    -4106    -3476    -2798    -2297 
   -2332    -3021    -3778    -4044    -3940    -3843    -3888    -3974 
   -3962    -3820    -3585    -3298    -3086    -3041    -3134    -3369 
   -3634    -3820    -4059    -4255    -4020    -3289    -2520    -2373 
   -2902    -3473    -3874    -4274    -4444    -4243    -3894    -3503 
   -3109    -2957    -3296    -3890    -4031    -3508    -2975    -2889 
   -3073    -3307    -3526    -3707    -3775    -3661    -3396    -3129 
   -3225    -3844    -4496    -4610    -4162    -3553    -3038    -2602 
   -2343    -2523    -3175    -3943    -4450    -4537    -4147    -3465 
   -2886    -2546    -2459    -2976    -4021    -4696    -4649    -4325 
   -3877    -3289    -2803    -2690    -3055    -3647    -4074    -4155 
   -3852    -3379    -3118    -3111    -3179    -3279    -3439    -3770 
   -4147    -4037    -3388    -2763    -2421    -2505    -3258    -4240 
   -4706    -4639    -4387    -4037    -3589    -3242    -3111    -2965 
   -2845    -3159    -3709    -3921    -3792    -3551    -3244    -3075 
   -3331    -3796    -3946    -3703    -3379    -3229    -3361    -3661 
   -3952    -4118    -4027    -3743    -3402    -2972    -2581    -2511 
   -2928    -3693    -4276    -4401    -4287    -3885    -3206    -2795 
   -2839    -3094    -3457    -3746    -3855    -3886    -3767    -3570 
   -3557    -3624    -3604    -3596    -3661    -3757    -3765    -3504 
   -2991    -2536    -2519    -3009    -3757    -4410    -4600    -4337 
   -4013    -3731    -3299    -2712    -2239    -2327    -3125    -4159 
   -4822    -4892    -4464    -3645    -2720    -2335    -2741    -3397 
   -3761    -3770    -3635    -3545    -3576    -3605    -3462    -3323 
   -3396    -3454    -3393    -3518    -3896    -4125    -3867    -3410 
   -3360    -3627    -3735    -3866    -4014    -3589    -2833    -2533 
   -2760    -3164    -3501    -3748    -3993    -4139    -4175    -4249 
   -4294    -4114    -3558    -2700    -2035    -1972    -2385    -3079 
   -3944    -4634    -4799    -4476    -3928    -3339    -2849    -2597 
   -2628    -2994    -3684    -4340    -4584    -4521    -4321    -3883 
   -3295    -2841    -2625    -2671    -3118    -3870    -4336    -4124 
   -3713    -3568    -3419    -3234    -3439    -3929    -4201    -4066 
   -3578    -2826    -1984    -1239     -687     -364     -307     -625 
   -1471    -2930    -4801    -6482    -7485    -7975    -8136    -7489 
   -5683    -3199     -687     1404     2444     1944      110    -2477 
   -5362    -7987    -9698   -10179    -9255    -6772    -3306      -74 
    2050     2621     1248    -1902    -5818    -9431   -12096   -13072 
  -11701    -8279    -4081     -502     1759     2512     1669     -249 
   -2232    -3600    -4023    -3460    -2446    -1709    -1549    -1749 
   -2029    -2415    -2809    -2779    -2342    -2311    -3383    -5332 
   -7391    -8769    -8694    -6980    -4287    -1308     1394     3046 
    3100     1601     -943    -3758    -6070    -7371    -7577    -7076 
   -6392    -5846    -5628    -5740    -5791    -5354    -4348    -2856 
   -1080      479     1182      801     -186    -1259    -2366    -3352 
   -3877    -3990    -4014    -4293    -5013    -6010    -6986    -7631 
   -7770    -7443    -6501    -4908    -3419    -2647    -2253    -2031 
   -2301    -2812    -2736    -1752     -429      398      372     -368 
   -1536    -2851    -4055    -4874    -5290    -5690    -6222    -6466 
   -5988    -4800    -3241    -1679     -514     -132     -615    -1813 
   -3508    -5174    -6048    -5649    -4145    -2331    -1296    -1753 
   -3527    -5856    -8019    -9435    -9517    -7877    -4842    -1347 
    1676     3403     3184     1127    -1833    -4737    -6826    -7233 
   -5714    -3163     -788      429      -12    -1868    -4436    -6787 
   -8122    -8245    -7272    -5470    -3554    -2324    -2079    -2577 
   -3082    -2791    -1756     -766     -437    -1085    -2876    -5340 
   -7457    -8391    -7685    -5366    -2234      488     1807     1248 
   -1044    -4261    -7083    -8322    -7653    -5472    -2605     -122 
    1339     1537      244    -2181    -4955    -7372    -8544    -8041 
   -6467    -4526    -2717    -1641    -1572    -2249    -3256    -4315 
   -5323    -6073    -6011    -4745    -2667     -681      341      -66 
   -1719    -3971    -5931    -6763    -6178    -4453    -2242     -395 
     348     -440    -2614    -5296    -7326    -7929    -7025    -5082 
   -2739     -673      410      144    -1128    -2585    -3670    -4380 
   -4789    -4850    -4688    -4587    -4639    -4820    -5093    -5107 
   -4432    -3192    -1953    -1159    -1063    -1806    -3152    -4498 
   -5412    -5722    -5240    -4062    -2687    -1611    -1104    -1221 
   -1961    -3231    -4652    -5757    -6169    -5709    -4626    -3424 
   -2494    -1926    -1701    -2061    -3099    -4201    -4695    -4517 
   -3861    -2943    -2116    -1702    -1890    -2693    -3852    -5020 
   -5853    -6031    -5566    -4745    -3727    -2546    -1447     -776 
    -742    -1460    -2822    -4430    -5917    -6945    -7063    -6033 
   -4167    -2246    -1000     -676    -1266    -2597    -3993    -4734 
   -4770    -4392    -3758    -3126    -2907    -3172    -3599    -3886 
   -3937    -3666    -3041    -2459    -2520    -3325    -4429    -5339 
   -5680    -5206    -3977    -2496    -1502    -1412    -1975    -2799 
   -3766    -4673    -5185    -5142    -4587    -3748    -2925    -2344 
   -2299    -2930    -3893    -4583    -4602    -4086    -3600    -3489 
   -3626    -3805    -3983    -4055    -3844    -3412    -2924    -2334 
   -1665    -1169    -1142    -1779    -2926    -4186    -5233    -5672 
   -5185    -4009    -2851    -2401    -2839    -3672    -4345    -4677 
   -4614    -4133    -3385    -2654    -2214    -2199    -2596    -3257 
   -3906    -4333    -4534    -4567    -4363    -3925    -3569    -3499 
   -3450    -3184    -2852    -2716    -2909    -3414    -4012    -4302 
   -4082    -3601    -3105    -2625    -2370    -2555    -3044    -3657 
   -4328    -4806    -4839    -4531    -4144    -3900    -3917    -4118 
   -4303    -4244    -3794    -3168    -2725    -2540    -2524    -2658 
   -2974    -3473    -4001    -4299    -4282    -3958    -3225    -2172 
   -1217     -726     -913    -1819    -3127    -4399    -5354    -5806 
   -5755    -5486    -5178    -4712    -4027    -3315    -2798    -2606 
   -2841    -3491    -4336    -4969    -4959    -4228    -3150    -2150 
   -1514    -1426    -1879    -2690    -3596    -4337    -4747    -4766 
   -4456    -3971    -3416    -2901    -2643    -2745    -3067    -3422 
   -3724    -3943    -4112    -4302    -4473    -4495    -4317    -3882 
   -3140    -2346    -1888    -1917    -2431    -3279    -4108    -4649 
   -4828    -4622    -4089    -3487    -3167    -3288    -3709    -4176 
   -4461    -4374    -3801    -2864    -1958    -1462    -1516    -2026 
   -2705    -3184    -3300    -3245    -3279    -3468    -3754    -3959 
   -3952    -3916    -4028    -4135    -4114    -4083    -4116    -4180 
   -4229    -4168    -3979    -3777    -3645    -3580    -3620    -3834 
   -4132    -4240    -3959    -3406    -2874    -2555    -2539    -2833 
   -3250    -3576    -3762    -3788    -3647    -3422    -3136    -2851 
   -2798    -3153    -3792    -4364    -4552    -4264    -3681    -3148 
   -2944    -3051    -3264    -3501    -3751    -3890    -3820    -3581 
   -3200    -2768    -2566    -2764    -3257    -3900    -4537    -4891 
   -4773    -4271    -3595    -2902    -2335    -2099    -2288    -2739 
   -3231    -3631    -3817    -3827    -3921    -4232    -4619    -4916 
   -4989    -4695    -4012    -3123    -2313    -1819    -1737    -2047 
   -2639    -3284    -3802    -4175    -4432    -4536    -4457    -4164 
   -3631    -3006    -2563    -2455    -2739    -3407    -4236    -4899 
   -5150    -4888    -4194    -3261    -2361    -1788    -1711    -2155 
   -3029    -4036    -4803    -5128    -4961    -4345    -3545    -2914 
   -2628    -2713    -3130    -3692    -4113    -4198    -3916    -3408 
   -2920    -2656    -2712    -3083    -3650    -4199    -4563    -4652 
   -4461    -4083    -3620    -3167    -2883    -2884    -3114    -3426 
   -3700    -3879    -3951    -3843    -3458    -2878    -2349    -2073 
   -2142    -2532    -3086    -3586    -3927    -4160    -4371    -4541 
   -4631    -4662    -4572    -4241    -3715    -3219    -2975    -3026 
