Origin Time       2025/03/28 03:50:00
Lat.              35.403
Long.             140.360
Depth. (km)       54
Mag.              4.4
Station Code      CHBH19
Station Lat.      35.5943
Station Long.     140.5107
Station Height(m) 1
Record Time       2025/03/28 03:50:47
Sampling Freq(Hz) 100Hz
Duration Time(s)  120
Dir.              5
Scale Factor      7845(gal)/8223790
Max. Acc. (gal)   8.051
Last Correction   2025/03/28 03:50:48
Memo.             
[...]
   -2641    -2650    -2636    -2633    -2651    -2644    -2640    -2664 
   -2650    -2636    -2666    -2656    -2641    -2667    -2650    -2627 
   -2646    -2652    -2637    -2633    -2640    -2646    -2631    -2635 
   -2658    -2643    -2628    -2637    -2629    -2628    -2647    -2639 
   -2628    -2635    -2633    -2636    -2644    -2646    -2646    -2648 
   -2646    -2640    -2633    -2632    -2640    -2643    -2628    -2640 
   -2656    -2635    -2628    -2639    -2637    -2646    -2648    -2646 
   -2641    -2637    -2646    -2643    -2640    -2646    -2631    -2617 
   -2636    -2651    -2629    -2613    -2625    -2633    -2636    -2641 
   -2627    -2621    -2632    -2631    -2639    -2647    -2633    -2631 
   -2635    -2637    -2647    -2628    -2623    -2643    -2631    -2625 
   -2635    -2624    -2628    -2637    -2637    -2637    -2636    -2636 
   -2631    -2632    -2643    -2641    -2636    -2633    -2632    -2633 
   -2633    -2639    -2635    -2629    -2644    -2654    -2641    -2639 
   -2644    -2640    -2644    -2656    -2656    -2656    -2655    -2655 
   -2656    -2650    -2639    -2632    -2643    -2652    -2643    -2637 
   -2636    -2631    -2637    -2646    -2646    -2639    -2636    -2646 
   -2646    -2633    -2632    -2643    -2640    -2624    -2628    -2644 
   -2641    -2639    -2646    -2640    -2646    -2644    -2625    -2640 
   -2644    -2619    -2635    -2643    -2632    -2647    -2651    -2644 
   -2641    -2641    -2629    -2620    -2633    -2627    -2617    -2632 
   -2633    -2627    -2632    -2639    -2637    -2637    -2652    -2644 
   -2627    -2647    -2650    -2632    -2643    -2647    -2644    -2656 
   -2644    -2632    -2640    -2644    -2644    -2643    -2650    -2641 
   -2633    -2651    -2646    -2633    -2656    -2656    -2641    -2654 
   -2650    -2625    -2631    -2647    -2643    -2644    -2648    -2640 
   -2647    -2666    -2664    -2647    -2640    -2639    -2624    -2631 
   -2635    -2624    -2647    -2654    -2637    -2646    -2643    -2654 
   -2654    -2623    -2629    -2635    -2629    -2650    -2643    -2636 
   -2654    -2646    -2631    -2640    -2644    -2640    -2644    -2648 
   -2648    -2659    -2659    -2651    -2656    -2646    -2635    -2636 
   -2627    -2636    -2644    -2632    -2636    -2639    -2641    -2644 
   -2637    -2646    -2655    -2641    -2643    -2654    -2648    -2650 
   -2658    -2659    -2660    -2656    -2648    -2643    -2637    -2650 
   -2655    -2641    -2647    -2659    -2650    -2655    -2664    -2643 
   -2639    -2664    -2655    -2640    -2652    -2646    -2631    -2640 
   -2647    -2652    -2663    -2652    -2639    -2654    -2664    -2650 
   -2647    -2652    -2641    -2636    -2641    -2629    -2627    -2633 
   -2629    -2632    -2631    -2621    -2637    -2644    -2621    -2621 
   -2632    -2617    -2627    -2647    -2636    -2636    -2646    -2632 
   -2631    -2639    -2628    -2631    -2648    -2641    -2620    -2623 
   -2647    -2643    -2628    -2644    -2643    -2624    -2632    -2640 
   -2640    -2643    -2641    -2640    -2636    -2637    -2637    -2633 
   -2632    -2632    -2633    -2640    -2641    -2629    -2629    -2644 
   -2643    -2633    -2635    -2647    -2648    -2646    -2652    -2648 
   -2643    -2650    -2652    -2656    -2650    -2636    -2640    -2636 
   -2635    -2648    -2644    -2639    -2640    -2637    -2632    -2644 
   -2660    -2643    -2627    -2640    -2639    -2629    -2641    -2648 
   -2636    -2635    -2647    -2643    -2637    -2651    -2656    -2647 
   -2650    -2654    -2632    -2620    -2635    -2637    -2635    -2650 
   -2641    -2625    -2640    -2651    -2643    -2648    -2648    -2639 
   -2633    -2629    -2631    -2628    -2629    -2641    -2637    -2628 
   -2643    -2656    -2651    -2643    -2647    -2633    -2625    -2655 
   -2650    -2617    -2636    -2647    -2631    -2640    -2652    -2646 
   -2632    -2636    -2641    -2628    -2633    -2644    -2628    -2620 
   -2635    -2646    -2641    -2644    -2652    -2640    -2629    -2641 
   -2651    -2640    -2636    -2639    -2633    -2637    -2647    -2641 
   -2636    -2631    -2624    -2619    -2625    -2641    -2636    -2632 
   -2648    -2652    -2644    -2647    -2654    -2644    -2641    -2655 
   -2641    -2635    -2656    -2644    -2639    -2656    -2654    -2646 
   -2644    -2636    -2637    -2650    -2647    -2627    -2620    -2633 
   -2641    -2640    -2639    -2640    -2644    -2660    -2670    -2654 
   -2643    -2643    -2639    -2635    -2628    -2633    -2640    -2631 
   -2636    -2644    -2635    -2632    -2643    -2648    -2641    -2640 
   -2640    -2631    -2631    -2641    -2641    -2640    -2643    -2632 
   -2628    -2644    -2639    -2624    -2640    -2650    -2636    -2635 
   -2647    -2643    -2629    -2643    -2656    -2641    -2635    -2641 
   -2631    -2625    -2646    -2655    -2641    -2647    -2658    -2643 
   -2637    -2652    -2646    -2629    -2635    -2633    -2620    -2635 
   -2659    -2654    -2639    -2643    -2652    -2640    -2632    -2647 
   -2637    -2621    -2647    -2655    -2631    -2644    -2656    -2641 
   -2658    -2677    -2656    -2629    -2628    -2643    -2636    -2631 
   -2643    -2637    -2629    -2646    -2641    -2625    -2637    -2648 
   -2633    -2632    -2650    -2647    -2640    -2650    -2655    -2643 
   -2639    -2650    -2646    -2636    -2644    -2639    -2623    -2620 
   -2621    -2619    -2625    -2644    -2647    -2633    -2652    -2668 
   -2639    -2621    -2639    -2636    -2625    -2644    -2656    -2636 
   -2631    -2651    -2651    -2640    -2647    -2646    -2635    -2639 
   -2648    -2647    -2650    -2658    -2652    -2641    -2643    -2646 
   -2636    -2624    -2636    -2644    -2636    -2648    -2655    -2644 
   -2646    -2647    -2641    -2650    -2647    -2631    -2635    -2648 
   -2644    -2631    -2633    -2647    -2641    -2629    -2633    -2646 
   -2654    -2654    -2656    -2652    -2636    -2639    -2646    -2631 
   -2636    -2651    -2633    -2633    -2650    -2637    -2631    -2639 
   -2641    -2647    -2646    -2637    -2632    -2633    -2644    -2652 
   -2646    -2637    -2635    -2636    -2644    -2647    -2633    -2640 
   -2655    -2639    -2631    -2650    -2650    -2637    -2646    -2654 
   -2646    -2640    -2635    -2624    -2624    -2647    -2651    -2628 
   -2631    -2648    -2639    -2624    -2635    -2632    -2610    -2628 
   -2647    -2631    -2636    -2650    -2635    -2632    -2652    -2647 
   -2631    -2644    -2648    -2635    -2640    -2647    -2646    -2643 
   -2648    -2659    -2647    -2631    -2652    -2664    -2643    -2641 
   -2663    -2640    -2621    -2656    -2648    -2613    -2644    -2658 
   -2632    -2639    -2652    -2639    -2627    -2647    -2656    -2625 
   -2637    -2668    -2644    -2635    -2643    -2635    -2633    -2639 
   -2646    -2633    -2621    -2643    -2644    -2632    -2651    -2651 
   -2632    -2641    -2651    -2639    -2635    -2644    -2651    -2654 
   -2648    -2641    -2637    -2632    -2633    -2641    -2641    -2635 
   -2639    -2639    -2633    -2646    -2658    -2646    -2637    -2641 
   -2632    -2619    -2629    -2643    -2675    -2727    -2708    -2631 
   -2592    -2577    -2563    -2582    -2623    -2660    -2689    -2652 
   -2575    -2596    -2690    -2708    -2636    -2543    -2528    -2654 
   -2759    -2732    -2694    -2693    -2686    -2614    -2497    -2494 
   -2633    -2818    -2870    -2650    -2420    -2450    -2621    -2697 
   -2648    -2658    -2732    -2687    -2556    -2563    -2625    -2563 
   -2619    -2786    -2767    -2627    -2516    -2523    -2601    -2636 
   -2762    -2906    -2791    -2617    -2620    -2544    -2357    -2454 
   -2752    -2790    -2704    -2802    -2747    -2455    -2454    -2671 
   -2720    -2685    -2705    -2814    -2767    -2432    -2274    -2411 
   -2548    -2666    -2764    -2776    -2814    -2882    -2798    -2689 
   -2624    -2515    -2581    -2646    -2493    -2555    -2808    -2818 
   -2544    -2296    -2340    -2540    -2776    -2987    -2982    -2805 
   -2517    -2290    -2454    -2651    -2513    -2488    -2705    -2748 
   -2540    -2431    -2694    -2967    -2878    -2743    -2716    -2554 
   -2479    -2673    -2671    -2494    -2471    -2528    -2706    -2787 
   -2736    -2832    -2714    -2474    -2523    -2682    -2782    -2686 
   -2543    -2624    -2641    -2416    -2316    -2455    -2596    -2778 
   -2895    -2743    -2681    -2808    -2768    -2625    -2587    -2551 
   -2525    -2629    -2619    -2400    -2405    -2729    -2948    -2872 
   -2775    -2884    -2926    -2737    -2590    -2477    -2335    -2293 
   -2385    -2531    -2587    -2702    -2921    -2806    -2536    -2621 
   -2853    -2911    -2673    -2365    -2470    -2654    -2616    -2743 
   -2798    -2617    -2631    -2698    -2729    -2910    -3051    -2987 
   -2663    -2376    -2424    -2394    -2223    -2234    -2335    -2535 
   -2712    -2678    -2748    -2972    -3075    -2952    -2658    -2481 
   -2497    -2575    -2667    -2589    -2408    -2542    -2880    -2880 
   -2621    -2528    -2636    -2791    -2781    -2497    -2226    -2419 
   -2945    -2980    -2562    -2512    -2701    -2646    -2471    -2467 
   -2632    -2608    -2317    -2280    -2675    -2978    -3052    -3078 
   -2830    -2589    -2673    -2640    -2471    -2563    -2810    -2740 
   -2350    -2358    -2771    -2816    -2609    -2535    -2374    -2265 
   -2623    -3067    -2968    -2856    -3195    -3053    -2253    -1938 
   -2220    -2455    -2641    -2709    -2569    -2687    -3013    -2983 
   -2731    -2527    -2234    -2288    -3049    -3362    -2614    -2193 
   -2593    -2786    -2658    -2614    -2647    -2760    -2747    -2636 
   -2713    -2533    -2092    -2246    -2890    -3110    -2628    -2137 
   -2250    -2484    -2427    -2466    -2643    -2799    -3032    -3148 
   -3057    -2979    -2889    -2751    -2439    -1975    -2070    -2575 
   -2666    -2690    -2803    -2689    -2614    -2583    -2556    -2656 
   -2782    -2791    -2563    -2513    -2713    -2475    -2246    -2617 
   -2884    -2797    -2764    -2845    -2938    -2810    -2527    -2513 
   -2602    -2654    -2745    -2462    -2079    -2216    -2552    -2701 
   -2616    -2571    -2785    -2926    -3017    -3064    -2693    -2230 
   -2266    -2767    -3064    -2751    -2606    -2853    -2666    -2442 
   -2689    -2592    -2223    -2396    -2768    -2700    -2357    -2295 
   -2562    -2774    -2964    -3154    -2910    -2535    -2853    -3326 
   -2924    -2246    -2296    -2623    -2485    -2323    -2420    -2277 
   -2208    -2639    -2833    -2330    -2016    -2547    -3156    -3221 
   -2940    -2718    -2911    -3026    -2683    -2411    -2390    -2574 
   -2936    -3184    -3160    -2998    -2808    -2397    -1879    -1759 
   -1873    -1956    -2331    -2855    -3065    -2990    -2905    -3233 
   -3720    -3345    -2481    -2380    -2639    -2493    -2400    -2497 
   -2303    -1871    -1784    -2276    -2762    -2841    -2755    -2660 
   -2802    -3256    -3435    -3181    -3033    -3052    -2621    -1834 
   -1587    -1776    -1825    -2018    -2463    -2859    -3176    -3342 
   -3161    -2793    -2805    -3153    -3033    -2574    -2508    -2521 
   -2378    -2577    -2917    -2917    -2793    -2758    -2795    -2889 
   -2759    -2127    -1402    -1420    -2224    -2855    -2735    -2253 
   -2073    -2574    -3238    -3368    -3420    -3852    -4072    -3615 
   -2886    -2386    -2142    -1989    -1667    -1202    -1391    -2408 
   -3168    -3198    -2944    -2628    -2307    -2053    -2073    -2474 
   -2691    -2566    -2755    -3211    -3364    -3456    -3879    -4063 
   -3576    -2903    -2304    -1771    -1655    -1954    -2115    -2103 
   -2181    -2235    -2195    -2041    -1965    -2149    -2342    -2552 
   -2806    -3065    -3574    -4121    -4379    -4305    -3645    -2542 
   -1815    -1993    -2683    -2984    -2629    -2328    -2529    -2619 
   -2126    -1641    -1768    -2064    -2069    -2227    -2654    -2870 
   -2894    -3033    -3144    -2862    -2447    -2546    -2945    -2937 
   -2600    -2425    -2574    -3003    -3402    -3338    -2963    -2756 
   -2474    -1802    -1475    -1794    -2088    -2416    -3063    -3514 
   -3485    -3169    -2663    -2247    -2201    -2488    -2874    -2983 
   -2735    -2465    -2313    -2219    -2269    -2409    -2524    -2708 
   -2853    -2886    -3110    -3488    -3543    -3034    -2335    -2126 
   -2428    -2745    -2883    -2597    -2120    -2262    -2605    -2338 
   -2065    -2376    -2682    -2550    -2355    -2408    -2664    -2926 
   -3092    -3272    -3377    -3307    -3132    -2918    -2754    -2539 
   -2203    -1915    -1962    -2351    -2506    -2546    -3033    -3350 
   -3105    -2852    -2550    -1964    -1624    -1903    -2292    -2328 
   -2246    -2359    -2563    -2527    -2417    -2786    -3391    -3582 
   -3532    -3520    -3400    -3198    -2955    -2714    -2628    -2559 
   -2392    -2246    -2172    -2161    -2234    -2342    -2289    -2049 
   -1906    -2014    -2411    -2867    -2902    -2832    -3167    -3532 
   -3609    -3353    -2636    -2026    -2150    -2596    -2866    -3026 
   -3230    -3229    -2516    -1593    -1534    -2043    -2116    -1624 
   -1024     -531     -125      -85     -634    -1621    -3025    -4754 
   -6457    -7843    -8676    -8776    -7838    -5506    -2115     1318 
    3931     5437     5799     4812     2161    -1826    -5744    -8225 
   -8962    -8357    -6955    -5476    -4604    -3952    -2902    -1954 
   -1243     -172      945     1416     1151      261    -1285    -3288 
   -4958    -5977    -6804    -7279    -6874    -5815    -4324    -2076 
     373     1476      801     -664    -1948    -2409    -2019    -1462 
    -896     -382     -974    -2718    -4144    -5116    -6286    -6951 
   -6373    -4773    -2606     -711       95     -132     -791    -1202 
   -1102    -1163    -2204    -3665    -4051    -3422    -3383    -4216 
   -5105    -6421    -8095    -7935    -4869     -897     1998     3415 
    3068     1255     -441    -1205    -1807    -2540    -2884    -3323 
   -4715    -6118    -5805    -4105    -2727    -1583      492     2297 
    1513    -1548    -4762    -6961    -7712    -6750    -5108    -4114 
   -3399    -1908      608     3300     4564     3897     2220      -52 
   -2864    -5397    -7101    -8463    -9578    -9212    -6762    -3670 
   -1175      857     1722       51    -3025    -4357    -2768     -132 
    1054     -106    -2778    -5563    -7299    -7622    -7133    -6027 
   -3686     -765      666       90    -1158    -1853    -1132      471 
     842     -278    -1486    -2913    -4444    -4695    -4028    -3499 
   -2637    -2033    -3308    -5229    -5433    -4639    -4504    -4418 
   -3484    -2473    -1891     -723     1171     1864      390    -1755 
   -3117    -3541    -3323    -3226    -4016    -5051    -4681    -2536 
    -479      -44     -483     -997    -2189    -4041    -5425    -5823 
   -5205    -3596    -2455    -3450    -5333    -5401    -3130      -36 
    2211     2494      754    -1783    -3561    -3825    -2929    -2034 
   -2154    -3045    -3721    -3682    -3009    -2165    -1547     -897 
    -153       76     -328    -1127    -2743    -5285    -7789    -9576 
  -10353    -9200    -5626     -899     2654     3397     1613     -685 
   -1603    -1418    -1583    -1958    -1435     -182      527     -379 
   -2741    -5278    -7268    -8660    -8684    -6871    -4344    -2108 
      66     1966     2513     1301    -1043    -3653    -5493    -5456 
   -3558    -1428     -884    -1925    -2789    -2745    -2947    -3828 
   -4384    -4016    -2776     -868      841     1556     1209     -642 
   -3910    -6640    -7454    -7084    -6173    -4422    -2255    -1057 
   -1502    -2646    -3144    -2747    -1881     -835      -33       48 
    -774    -2312    -3928    -5235    -6222    -6219    -4725    -2668 
    -940      541     1603     1674      531    -1549    -3832    -5562 
   -6463    -6247    -4664    -2698    -1923    -2485    -3285    -3639 
   -3522    -2818    -1709    -1152    -1556    -2413    -3268    -3181 
   -1447      569     1158      537     -503    -1941    -3782    -5664 
   -7006    -7186    -6197    -4791    -3458    -2135    -1000     -459 
    -562    -1123    -1713    -1919    -2245    -3516    -5244    -5998 
   -5244    -3601    -1787     -664     -745    -1235    -1347    -1174 
    -950    -1081    -1844    -2644    -2863    -2828    -3042    -3446 
   -3793    -3785    -3307    -2797    -2484    -2133    -1853    -1887 
   -2020    -2104    -2380    -2916    -3389    -3823    -4483    -4827 
   -4040    -2458    -1166     -672    -1024    -2208    -3389    -3539 
   -2813    -1975    -1518    -1518    -1868    -2501    -2956    -2772 
   -2249    -1804    -1648    -1948    -2539    -3121    -3566    -3801 
   -3862    -3910    -4120    -4527    -4770    -4417    -3607    -2686 
   -1690     -768     -513    -1289    -2542    -3150    -2601    -1671 
   -1356    -1653    -2070    -2415    -2675    -2886    -3141    -3427 
   -3635    -3784    -4082    -4649    -4939    -3889    -1506      645 
    1259      328    -1425    -3067    -4085    -4590    -4679    -4345 
   -3736    -3163    -2837    -2412    -1480     -449       31     -152 
    -818    -1680    -2378    -2735    -2905    -3190    -3603    -3950 
   -4286    -4572    -4507    -4201    -4020    -3828    -3248    -2394 
   -1822    -1887    -2255    -2195    -1468     -652     -391     -737 
   -1483    -2377    -3025    -3380    -3612    -3512    -3078    -2639 
   -2184    -1748    -1741    -2313    -3145    -3869    -4264    -4270 
   -4045    -3829    -3661    -3542    -3694    -4052    -4024    -3393 
   -2659    -2176    -1713     -934      -36      380      176     -259 
    -692    -1073    -1394    -1856    -2573    -3439    -4383    -5059 
   -5100    -4823    -4571    -4202    -3674    -2991    -2128    -1505 
   -1405    -1287     -727     -267     -584    -1455    -2200    -2554 
   -2598    -2451    -2442    -3052    -4106    -4787    -4819    -4571 
   -4222    -3711    -3079    -2596    -2521    -2759    -3165    -3667 
   -3775    -3190    -2494    -2143    -1803    -1282     -908     -895 
   -1061    -1262    -1817    -2880    -3815    -4054    -3850    -3688 
   -3608    -3480    -3423    -3466    -3294    -2690    -1678     -449 
     499      730      337     -318    -1185    -2423    -3785    -4619 
   -4514    -3666    -2806    -2610    -3007    -3608    -4233    -4672 
   -4854    -4922    -4749    -4336    -3946    -3292    -2037     -828 
    -436     -696    -1142    -1709    -2431    -3005    -3049    -2693 
   -2440    -2347    -2054    -1499     -951     -654     -706    -1046 
   -1597    -2423    -3582    -4710    -5324    -5472    -5270    -4531 
   -3376    -2266    -1536    -1351    -1688    -2189    -2400    -2155 
   -1640    -1082     -538      -83       33     -364    -1277    -2644 
   -4313    -5998    -7325    -7749    -6945    -5273    -3327    -1568 
    -303      294      268      -41     -529    -1343    -2211    -2911 
   -3661    -4353    -4515    -3978    -3072    -2334    -2052    -2205 
   -2728    -3404    -3867    -4060    -4266    -4557    -4598    -4031 
