Origin Time       2025/03/28 03:50:00
Lat.              35.403
Long.             140.360
Depth. (km)       54
Mag.              4.4
Station Code      CHBH17
Station Lat.      35.1714
Station Long.     140.3398
Station Height(m) -811.7
Record Time       2025/03/28 03:50:50
Sampling Freq(Hz) 100Hz
Duration Time(s)  120
Dir.              2
Scale Factor      2942(gal)/8224139
Max. Acc. (gal)   2.048
Last Correction   2025/03/28 03:50:50
Memo.             
[...]
 -350578  -350576  -350576  -350577  -350576  -350574  -350574  -350577 
 -350577  -350577  -350577  -350573  -350574  -350578  -350577  -350574 
 -350574  -350574  -350577  -350576  -350572  -350573  -350578  -350577 
 -350573  -350576  -350580  -350580  -350577  -350576  -350574  -350574 
 -350574  -350576  -350574  -350576  -350578  -350577  -350576  -350577 
 -350578  -350577  -350576  -350577  -350580  -350577  -350574  -350577 
 -350576  -350570  -350573  -350577  -350576  -350576  -350577  -350577 
 -350573  -350573  -350577  -350576  -350576  -350576  -350574  -350573 
 -350573  -350577  -350578  -350576  -350573  -350574  -350576  -350576 
 -350574  -350576  -350576  -350574  -350574  -350574  -350573  -350574 
 -350576  -350574  -350574  -350574  -350573  -350574  -350576  -350573 
 -350574  -350574  -350573  -350574  -350576  -350574  -350574  -350576 
 -350573  -350572  -350574  -350574  -350573  -350572  -350572  -350572 
 -350573  -350572  -350574  -350576  -350572  -350574  -350576  -350573 
 -350574  -350576  -350574  -350574  -350574  -350573  -350574  -350572 
 -350569  -350569  -350570  -350573  -350572  -350572  -350576  -350576 
 -350573  -350574  -350576  -350576  -350573  -350572  -350573  -350573 
 -350573  -350574  -350574  -350573  -350572  -350573  -350574  -350574 
 -350572  -350570  -350574  -350576  -350572  -350572  -350576  -350573 
 -350572  -350573  -350573  -350573  -350573  -350573  -350574  -350576 
 -350574  -350573  -350572  -350572  -350574  -350576  -350577  -350574 
 -350573  -350573  -350576  -350577  -350577  -350576  -350576  -350576 
 -350574  -350576  -350577  -350576  -350576  -350574  -350573  -350576 
 -350578  -350576  -350576  -350576  -350574  -350574  -350577  -350576 
 -350574  -350576  -350577  -350574  -350577  -350577  -350576  -350574 
 -350574  -350574  -350574  -350573  -350574  -350576  -350577  -350577 
 -350576  -350576  -350574  -350577  -350578  -350574  -350573  -350576 
 -350576  -350577  -350578  -350577  -350573  -350573  -350576  -350576 
 -350574  -350573  -350576  -350576  -350574  -350574  -350576  -350573 
 -350572  -350573  -350574  -350576  -350578  -350576  -350573  -350576 
 -350574  -350573  -350576  -350574  -350574  -350574  -350574  -350576 
 -350576  -350574  -350574  -350576  -350574  -350573  -350576  -350576 
 -350574  -350574  -350577  -350577  -350576  -350576  -350576  -350574 
 -350576  -350578  -350577  -350573  -350574  -350577  -350577  -350577 
 -350580  -350581  -350576  -350573  -350573  -350572  -350576  -350577 
 -350572  -350570  -350576  -350578  -350578  -350578  -350576  -350577 
 -350577  -350573  -350576  -350576  -350574  -350576  -350576  -350576 
 -350578  -350578  -350578  -350578  -350577  -350577  -350576  -350574 
 -350577  -350577  -350576  -350577  -350577  -350573  -350573  -350577 
 -350580  -350577  -350574  -350573  -350574  -350580  -350580  -350576 
 -350576  -350577  -350577  -350576  -350574  -350576  -350577  -350576 
 -350574  -350576  -350577  -350578  -350578  -350576  -350574  -350574 
 -350576  -350577  -350577  -350576  -350574  -350574  -350576  -350577 
 -350576  -350576  -350573  -350573  -350574  -350576  -350577  -350577 
 -350574  -350576  -350574  -350574  -350576  -350576  -350576  -350577 
 -350577  -350576  -350573  -350574  -350577  -350576  -350576  -350576 
 -350574  -350574  -350577  -350581  -350578  -350572  -350573  -350576 
 -350573  -350576  -350580  -350577  -350572  -350572  -350574  -350576 
 -350578  -350578  -350576  -350574  -350578  -350578  -350576  -350574 
 -350574  -350574  -350576  -350577  -350576  -350576  -350577  -350576 
 -350574  -350573  -350576  -350577  -350573  -350573  -350578  -350576 
 -350572  -350576  -350580  -350576  -350574  -350574  -350576  -350577 
 -350573  -350572  -350574  -350574  -350573  -350573  -350576  -350576 
 -350576  -350574  -350574  -350574  -350576  -350576  -350576  -350576 
 -350574  -350574  -350573  -350572  -350570  -350570  -350574  -350578 
 -350574  -350574  -350577  -350573  -350570  -350574  -350578  -350576 
 -350574  -350576  -350576  -350576  -350576  -350574  -350574  -350576 
 -350577  -350576  -350574  -350573  -350572  -350573  -350576  -350577 
 -350574  -350574  -350574  -350572  -350569  -350572  -350576  -350577 
 -350578  -350577  -350576  -350576  -350577  -350574  -350572  -350574 
 -350576  -350574  -350576  -350578  -350578  -350574  -350574  -350576 
 -350576  -350577  -350574  -350574  -350578  -350576  -350574  -350577 
 -350576  -350572  -350573  -350576  -350577  -350576  -350576  -350576 
 -350576  -350574  -350574  -350576  -350576  -350574  -350576  -350576 
 -350573  -350574  -350576  -350576  -350574  -350576  -350580  -350578 
 -350574  -350573  -350576  -350578  -350578  -350577  -350576  -350576 
 -350577  -350577  -350577  -350576  -350576  -350577  -350576  -350576 
 -350578  -350577  -350573  -350574  -350576  -350576  -350576  -350576 
 -350574  -350573  -350573  -350576  -350576  -350574  -350576  -350576 
 -350576  -350577  -350577  -350576  -350574  -350576  -350576  -350574 
 -350576  -350576  -350578  -350580  -350576  -350574  -350574  -350574 
 -350576  -350578  -350578  -350578  -350577  -350576  -350576  -350576 
 -350573  -350573  -350576  -350578  -350577  -350576  -350577  -350576 
 -350572  -350574  -350577  -350573  -350573  -350576  -350574  -350574 
 -350573  -350572  -350574  -350577  -350577  -350574  -350574  -350576 
 -350574  -350572  -350574  -350576  -350574  -350574  -350574  -350574 
 -350576  -350577  -350577  -350576  -350577  -350576  -350574  -350576 
 -350580  -350578  -350576  -350576  -350577  -350574  -350574  -350576 
 -350574  -350573  -350574  -350577  -350574  -350574  -350576  -350573 
 -350572  -350573  -350577  -350577  -350574  -350573  -350573  -350573 
 -350570  -350572  -350576  -350576  -350574  -350573  -350570  -350569 
 -350572  -350578  -350576  -350576  -350577  -350574  -350574  -350576 
 -350574  -350574  -350577  -350576  -350576  -350577  -350576  -350573 
 -350573  -350574  -350576  -350577  -350576  -350573  -350576  -350580 
 -350576  -350573  -350576  -350577  -350574  -350574  -350576  -350577 
 -350578  -350577  -350576  -350576  -350577  -350576  -350576  -350577 
 -350577  -350577  -350577  -350576  -350576  -350576  -350574  -350576 
 -350577  -350577  -350574  -350577  -350580  -350578  -350574  -350577 
 -350578  -350577  -350574  -350574  -350574  -350577  -350578  -350576 
 -350576  -350576  -350577  -350581  -350578  -350573  -350576  -350577 
 -350573  -350576  -350578  -350576  -350574  -350576  -350574  -350576 
 -350580  -350581  -350578  -350576  -350577  -350576  -350576  -350577 
 -350574  -350574  -350581  -350581  -350576  -350576  -350578  -350577 
 -350577  -350580  -350578  -350576  -350577  -350574  -350573  -350574 
 -350576  -350576  -350577  -350578  -350577  -350576  -350577  -350576 
 -350573  -350576  -350580  -350580  -350577  -350577  -350577  -350577 
 -350576  -350576  -350578  -350578  -350577  -350577  -350576  -350576 
 -350577  -350577  -350577  -350576  -350577  -350578  -350577  -350578 
 -350578  -350577  -350577  -350577  -350574  -350576  -350577  -350577 
 -350574  -350576  -350576  -350574  -350574  -350576  -350576  -350576 
 -350574  -350572  -350574  -350576  -350573  -350573  -350576  -350577 
 -350576  -350572  -350573  -350577  -350578  -350574  -350574  -350574 
 -350573  -350572  -350574  -350577  -350576  -350573  -350574  -350573 
 -350570  -350573  -350576  -350572  -350570  -350574  -350573  -350573 
 -350573  -350573  -350573  -350573  -350573  -350573  -350576  -350576 
 -350572  -350573  -350576  -350573  -350574  -350577  -350576  -350576 
 -350574  -350573  -350576  -350576  -350576  -350576  -350577  -350577 
 -350576  -350574  -350574  -350576  -350576  -350574  -350577  -350577 
 -350574  -350574  -350574  -350573  -350574  -350574  -350576  -350577 
 -350577  -350577  -350577  -350576  -350574  -350576  -350576  -350576 
 -350576  -350574  -350574  -350574  -350574  -350578  -350581  -350581 
 -350582  -350585  -350581  -350569  -350554  -350547  -350553  -350558 
 -350574  -350603  -350628  -350643  -350630  -350595  -350562  -350546 
 -350542  -350555  -350551  -350499  -350465  -350493  -350539  -350624 
 -350694  -350616  -350518  -350519  -350534  -350577  -350624  -350600 
 -350607  -350617  -350601  -350657  -350666  -350619  -350689  -350698 
 -350582  -350535  -350469  -350447  -350582  -350584  -350438  -350465 
 -350596  -350639  -350655  -350674  -350627  -350503  -350426  -350539 
 -350671  -350572  -350400  -350437  -350611  -350654  -350622  -350676 
 -350626  -350543  -350607  -350559  -350476  -350508  -350447  -350514 
 -350739  -350705  -350620  -350663  -350658  -350688  -350590  -350376 
 -350439  -350578  -350592  -350635  -350584  -350538  -350646  -350644 
 -350543  -350489  -350391  -350329  -350377  -350480  -350663  -350774 
 -350743  -350811  -350827  -350697  -350709  -350649  -350404  -350342 
 -350372  -350331  -350279  -350306  -350613  -350933  -350970  -350931 
 -350794  -350596  -350553  -350549  -350482  -350339  -350256  -350379 
 -350464  -350474  -350535  -350559  -350715  -350990  -350970  -350728 
 -350632  -350469  -350152  -350320  -350821  -350744  -350401  -350468 
 -350574  -350511  -350493  -350499  -350589  -350742  -350693  -350531 
 -350487  -350549  -350662  -350686  -350581  -350615  -350728  -350643 
 -350546  -350503  -350361  -350335  -350515  -350692  -350793  -350708 
 -350504  -350519  -350673  -350636  -350516  -350551  -350720  -350838 
 -350751  -350549  -350366  -350239  -350289  -350428  -350515  -350657 
 -350703  -350526  -350447  -350620  -350797  -350744  -350582  -350627 
 -350692  -350480  -350369  -350516  -350539  -350484  -350590  -350731 
 -350694  -350535  -350559  -350759  -350752  -350539  -350446  -350524 
 -350623  -350636  -350577  -350478  -350387  -350507  -350742  -350677 
 -350424  -350431  -350582  -350512  -350431  -350654  -350797  -350569 
 -350411  -350578  -350773  -350761  -350577  -350403  -350399  -350535 
 -350669  -350736  -350796  -350879  -350788  -350531  -350474  -350431 
 -350091  -349978  -350325  -350649  -350902  -351083  -350835  -350411 
 -350331  -350472  -350613  -350742  -350713  -350519  -350304  -350262 
 -350516  -350717  -350684  -350734  -350796  -350746  -350773  -350747 
 -350609  -350582  -350570  -350381  -350145  -350063  -350203  -350489 
 -350716  -350809  -350811  -350739  -350755  -350832  -350685  -350478 
 -350497  -350632  -350769  -350784  -350582  -350266  -349967  -349938 
 -350276  -350622  -350676  -350646  -350881  -351132  -351009  -350734 
 -350542  -350458  -350523  -350589  -350635  -350632  -350381  -350210 
 -350368  -350470  -350504  -350665  -350724  -350690  -350816  -350941 
 -350762  -350468  -350374  -350353  -350326  -350464  -350689  -350821 
 -350779  -350584  -350428  -350419  -350476  -350481  -350393  -350445 
 -350671  -350716  -350649  -350744  -350766  -350596  -350520  -350536 
 -350551  -350670  -350659  -350380  -350322  -350562  -350666  -350623 
 -350530  -350407  -350437  -350561  -350640  -350715  -350713  -350604 
 -350578  -350680  -350617  -350428  -350496  -350735  -350779  -350605 
 -350559  -350747  -350619  -350200  -350258  -350640  -350731  -350674 
 -350697  -350651  -350514  -350415  -350349  -350329  -350427  -350630 
 -350811  -350769  -350601  -350607  -350670  -350608  -350536  -350528 
 -350565  -350518  -350311  -350246  -350527  -350802  -350779  -350740 
 -350844  -350828  -350694  -350526  -350389  -350442  -350431  -350339 
 -350484  -350612  -350620  -350721  -350761  -350612  -350381  -350233 
 -350249  -350373  -350484  -350511  -350669  -350939  -350920  -350743 
 -350762  -350716  -350396  -350230  -350477  -350682  -350554  -350547 
 -350890  -351051  -350713  -350350  -350403  -350654  -350743  -350569 
 -350314  -350306  -350433  -350424  -350441  -350592  -350762  -350843 
 -350734  -350590  -350636  -350736  -350684  -350492  -350298  -350199 
 -350204  -350318  -350532  -350747  -350921  -351048  -350897  -350446 
 -350179  -350347  -350613  -350662  -350573  -350528  -350578  -350697 
 -350815  -350869  -350754  -350536  -350508  -350638  -350681  -350640 
 -350573  -350455  -350318  -350231  -350225  -350230  -350268  -350447 
 -350690  -350742  -350650  -350655  -350707  -350789  -350870  -350777 
 -350734  -350865  -350819  -350536  -350266  -350222  -350445  -350596 
 -350451  -350347  -350458  -350508  -350532  -350689  -350773  -350708 
 -350617  -350512  -350457  -350584  -350820  -350912  -350806  -350627 
 -350420  -350345  -350393  -350387  -350404  -350423  -350330  -350331 
 -350512  -350712  -350928  -351095  -350985  -350738  -350649  -350654 
 -350584  -350441  -350383  -350458  -350412  -350195  -350163  -350357 
 -350435  -350509  -350867  -351189  -351244  -351203  -350994  -350681 
 -350420  -350049  -349785  -349969  -350271  -350362  -350476  -350730 
 -350852  -350840  -350890  -350905  -350913  -350975  -350897  -350716 
 -350507  -350266  -350218  -350307  -350265  -350175  -350246  -350433 
 -350551  -350528  -350447  -350528  -350775  -350881  -350796  -350721 
 -350692  -350693  -350670  -350497  -350257  -350168  -350226  -350343 
 -350511  -350595  -350599  -350716  -350811  -350774  -350823  -350993 
 -351201  -351373  -351376  -351256  -351017  -350586  -350084  -349524 
 -348827  -348166  -347750  -347465  -347148  -347137  -347777  -348877 
 -350391  -352309  -354188  -355635  -356301  -355803  -354168  -351773 
 -349224  -347271  -346256  -346075  -346657  -347922  -349548  -351093 
 -352254  -352956  -353070  -352590  -352004  -351610  -351409  -351791 
 -352876  -354038  -354852  -355347  -355294  -354153  -351823  -349213 
 -347589  -347242  -347602  -348178  -348588  -348840  -349466  -350485 
 -351407  -352055  -352348  -352048  -350955  -349331  -347988  -347467 
 -347718  -348441  -349158  -349497  -349488  -349305  -349077  -348844 
 -348522  -348309  -348660  -349490  -350362  -351120  -351808  -352545 
 -353173  -353308  -353137  -353043  -352906  -352760  -352872  -352944 
 -352474  -351600  -350906  -350551  -350042  -349253  -348722  -348597 
 -348489  -348351  -348502  -348946  -349497  -350172  -350898  -351506 
 -351895  -351913  -351598  -351148  -350657  -350227  -350002  -350075 
 -350470  -351009  -351256  -350885  -350272  -349932  -349698  -349601 
 -350167  -351186  -351951  -352259  -352034  -351012  -349585  -348804 
 -348968  -349521  -350333  -351342  -351828  -351541  -351133  -350808 
 -350323  -349870  -349536  -349320  -349616  -350338  -350917  -351213 
 -351324  -351264  -350966  -350584  -350738  -351502  -352167  -352375 
 -352227  -351942  -351673  -351141  -350052  -348767  -347932  -347710 
 -347892  -348544  -349689  -350927  -351918  -352445  -352378  -351839 
 -350928  -349882  -349132  -348744  -348633  -348899  -349458  -350029 
 -350387  -350389  -350163  -350115  -350449  -350839  -350897  -350700 
 -350608  -350913  -351540  -351915  -351714  -351238  -350688  -350096 
 -349735  -349824  -350272  -350732  -350990  -351305  -351765  -352004 
 -351911  -351768  -351619  -351171  -350580  -350526  -351048  -351550 
 -352016  -352572  -352733  -352354  -351926  -351611  -351136  -350443 
 -349756  -349192  -348804  -348714  -348862  -349139  -349524  -349710 
 -349463  -349112  -349030  -349132  -349196  -349354  -349798  -350244 
 -350401  -350337  -350107  -349789  -349591  -349609  -349794  -350127 
 -350553  -351032  -351726  -352583  -353222  -353504  -353494  -353227 
 -352829  -352381  -351855  -351247  -350680  -350357  -350237  -350210 
 -350320  -350503  -350580  -350408  -349906  -349046  -347927  -347122 
 -347276  -348179  -349139  -349851  -350258  -350384  -350469  -350665 
 -350898  -351230  -351638  -351864  -351905  -351864  -351693  -351454 
 -351141  -350827  -350762  -350784  -350611  -350457  -350577  -350883 
 -351122  -351102  -350917  -350762  -350586  -350399  -350320  -350183 
 -349744  -349131  -348831  -349254  -350257  -351247  -351675  -351473 
 -350917  -350222  -349691  -349632  -349992  -350550  -351180  -351727 
 -351849  -351544  -351445  -351704  -351722  -351334  -350797  -350262 
 -349899  -349663  -349335  -349061  -349128  -349515  -349964  -350293 
 -350516  -350696  -350901  -351129  -351182  -350866  -350300  -350068 
 -350574  -351217  -351225  -350904  -350858  -350777  -350275  -349770 
 -349660  -349847  -350234  -350723  -350989  -350896  -350744  -350824 
 -351143  -351544  -351764  -351657  -351405  -351307  -351284  -350956 
 -350453  -350254  -350311  -350377  -350462  -350460  -350203  -349853 
 -349739  -349879  -349990  -350009  -350118  -350366  -350671  -350796 
 -350511  -350032  -349779  -349888  -350249  -350634  -350921  -351245 
 -351589  -351689  -351488  -351141  -350746  -350364  -350032  -349787 
 -349697  -349708  -349834  -350264  -350838  -351163  -351166  -350994 
 -350774  -350584  -350499  -350566  -350684  -350736  -350730  -350681 
 -350605  -350542  -350423  -350203  -350110  -350322  -350643  -350847 
 -350892  -350701  -350265  -349867  -349759  -349888  -350188  -350628 
 -351004  -351151  -351102  -350937  -350730  -350480  -350210  -350026 
 -350018  -350218  -350597  -351076  -351483  -351552  -351302  -351075 
 -351013  -350960  -350921  -350982  -350916  -350522  -350065  -349932 
 -350137  -350329  -350273  -350244  -350493  -350850  -351128  -351217 
 -351049  -350770  -350478  -350129  -349917  -350110  -350553  -350927 
 -351156  -351135  -350763  -350338  -350127  -350014  -349903  -349861 
 -349863  -349813  -349762  -349880  -350177  -350418  -350470  -350514 
 -350732  -350990  -351066  -351010  -350936  -350773  -350572  -350455 
 -350395  -350453  -350738  -351033  -351130  -351210  -351425  -351542 
 -351341  -350955  -350666  -350515  -350349  -350218  -350318  -350590 
 -350805  -350889  -350865  -350727  -350573  -350530  -350532  -350496 
 -350426  -350242  -350018  -349999  -350146  -350280  -350381  -350450 
 -350491  -350563  -350757  -351045  -351214  -351110  -350832  -350504 
 -350167  -349934  -349952  -350157  -350372  -350489  -350557  -350697 
 -350912  -351036  -350955  -350736  -350501  -350353  -350333  -350342 
 -350288  -350145  -349964  -349957  -350171  -350391  -350536  -350570 
 -350410  -350172  -350088  -350229  -350511  -350813  -351103  -351449 
 -351834  -352026  -351859  -351515  -351244  -351017  -350828  -350705 
 -350443  -350034  -349834  -349915  -350034  -350064  -350073  -350219 
 -350476  -350669  -350766  -350739  -350597  -350442  -350279  -350190 
 -350272  -350358  -350397  -350539  -350744  -350856  -350800  -350605 
 -350397  -350233  -350131  -350157  -350315  -350577  -350832  -350896 
 -350844  -350902  -351017  -351037  -351008  -350940  -350789  -350595 
 -350419  -350357  -350469  -350680  -350874  -350963  -350921  -350758 
 -350520  -350314  -350173  -350011  -349863  -349855  -349944  -350057 
 -350188  -350246  -350253  -350403  -350717  -351010  -351186  -351260 
 -351245  -351144  -350973  -350782  -350730  -350900  -351068  -350981 
 -350725  -350519  -350431  -350412  -350395  -350374  -350372  -350323 
 -350227  -350207  -350312  -350443  -350511  -350534  -350578  -350669 
 -350751  -350773  -350755  -350715  -350632  -350497  -350361  -350303 
