Origin Time       2025/03/28 03:50:00
Lat.              35.403
Long.             140.360
Depth. (km)       54
Mag.              4.4
Station Code      CHBH16
Station Lat.      35.1384
Station Long.     139.9649
Station Height(m) 160
Record Time       2025/03/28 03:50:50
Sampling Freq(Hz) 100Hz
Duration Time(s)  120
Dir.              5
Scale Factor      7845(gal)/8223790
Max. Acc. (gal)   2.307
Last Correction   2025/03/28 03:50:50
Memo.             
[...]
    1711     1710     1710     1706     1707     1709     1710     1713 
    1713     1710     1713     1711     1707     1709     1709     1709 
    1710     1707     1707     1709     1710     1713     1714     1713 
    1711     1710     1711     1711     1710     1711     1711     1709 
    1711     1713     1710     1710     1713     1713     1713     1710 
    1710     1714     1714     1713     1713     1711     1711     1711 
    1711     1713     1713     1714     1714     1713     1711     1713 
    1713     1713     1713     1713     1715     1713     1709     1710 
    1710     1710     1715     1715     1714     1715     1713     1710 
    1711     1713     1713     1714     1715     1715     1713     1711 
    1711     1711     1715     1715     1713     1711     1710     1711 
    1714     1715     1713     1717     1715     1713     1713     1713 
    1713     1714     1714     1714     1714     1714     1714     1714 
    1714     1714     1713     1713     1715     1717     1715     1711 
    1713     1713     1710     1710     1713     1714     1713     1714 
    1714     1711     1713     1714     1713     1711     1711     1710 
    1709     1709     1710     1711     1713     1714     1713     1713 
    1711     1710     1711     1714     1714     1711     1707     1709 
    1713     1713     1714     1715     1711     1710     1713     1707 
    1707     1713     1715     1714     1710     1710     1711     1709 
    1710     1715     1715     1713     1711     1710     1709     1710 
    1713     1715     1711     1709     1711     1710     1707     1711 
    1714     1714     1714     1711     1709     1706     1709     1713 
    1713     1713     1714     1711     1710     1713     1713     1713 
    1714     1713     1713     1713     1710     1713     1713     1711 
    1713     1714     1714     1715     1714     1713     1714     1714 
    1713     1713     1714     1715     1713     1709     1709     1713 
    1714     1711     1711     1714     1714     1713     1713     1711 
    1710     1711     1713     1713     1714     1714     1714     1711 
    1710     1711     1714     1714     1713     1711     1711     1713 
    1713     1714     1717     1714     1713     1714     1713     1713 
    1714     1713     1711     1711     1714     1717     1713     1713 
    1715     1713     1714     1715     1710     1711     1713     1710 
    1713     1714     1713     1711     1711     1710     1711     1711 
    1713     1713     1713     1714     1713     1710     1713     1713 
    1713     1715     1714     1713     1710     1707     1711     1714 
    1711     1714     1713     1710     1710     1710     1710     1713 
    1713     1713     1710     1710     1715     1715     1711     1714 
    1713     1711     1713     1713     1713     1715     1713     1714 
    1715     1713     1713     1714     1714     1713     1707     1707 
    1711     1711     1711     1713     1710     1710     1713     1710 
    1711     1714     1714     1713     1710     1711     1713     1710 
    1711     1713     1710     1713     1713     1710     1711     1711 
    1711     1714     1714     1711     1710     1710     1710     1710 
    1710     1713     1713     1713     1710     1707     1710     1711 
    1707     1710     1714     1711     1710     1710     1709     1710 
    1711     1713     1715     1715     1715     1719     1719     1718 
    1722     1725     1726     1728     1730     1733     1736     1736 
    1730     1719     1709     1699     1687     1678     1672     1664 
    1657     1651     1648     1644     1644     1660     1690     1723 
    1768     1814     1844     1858     1863     1848     1825     1792 
    1752     1714     1682     1657     1649     1653     1676     1719 
    1763     1794     1807     1802     1782     1748     1698     1632 
    1557     1493     1452     1437     1444     1467     1510     1575 
    1655     1741     1819     1872     1900     1914     1911     1902 
    1888     1854     1804     1744     1678     1614     1551     1490 
    1449     1449     1505     1598     1707     1826     1946     2047 
    2104     2088     1988     1836     1678     1552     1463     1399 
    1366     1377     1435     1541     1678     1810     1902     1941 
    1952     1965     1961     1915     1846     1771     1702     1642 
    1591     1561     1559     1572     1606     1664     1736     1795 
    1821     1837     1880     1948     2004     2012     1969     1903 
    1815     1694     1552     1413     1310     1273     1298     1367 
    1448     1544     1674     1829     1972     2061     2065     1975 
    1815     1630     1485     1421     1437     1512     1606     1695 
    1780     1850     1879     1863     1818     1763     1711     1664 
    1614     1571     1559     1609     1711     1829     1934     1995 
    1979     1888     1775     1691     1641     1584     1513     1466 
    1494     1610     1759     1875     1939     1939     1885     1825 
    1792     1790     1792     1776     1737     1690     1668     1691 
    1714     1671     1561     1451     1406     1433     1475     1483 
    1463     1455     1494     1584     1711     1846     1954     2020 
    2064     2097     2108     2073     1983     1865     1748     1637 
    1557     1534     1559     1602     1637     1675     1721     1757 
    1772     1755     1695     1607     1512     1437     1425     1474 
    1551     1653     1779     1934     2096     2212     2250     2203 
    2072     1880     1655     1440     1290     1221     1225     1293 
    1410     1564     1718     1821     1846     1799     1711     1637 
    1620     1663     1730     1798     1869     1937     1972     1968 
    1908     1795     1668     1560     1470     1402     1368     1378 
    1439     1525     1607     1675     1728     1776     1830     1883 
    1930     1949     1925     1868     1809     1765     1749     1753 
    1780     1817     1842     1846     1827     1799     1780     1765 
    1737     1688     1622     1556     1522     1537     1594     1659 
    1715     1768     1811     1818     1772     1684     1588     1520 
    1483     1490     1555     1669     1807     1937     2031     2080 
    2073     2002     1880     1745     1628     1543     1495     1497 
    1544     1617     1687     1725     1718     1694     1676     1669 
    1675     1692     1722     1759     1792     1849     1929     1993 
    2016     1998     1927     1809     1653     1490     1354     1262 
    1220     1227     1271     1344     1439     1543     1653     1782 
    1915     2018     2064     2068     2066     2081     2107     2110 
    2066     1971     1822     1633     1447     1297     1198     1158 
    1170     1231     1335     1441     1522     1591     1676     1786 
    1904     2008     2088     2134     2146     2137     2107     2042 
    1935     1799     1655     1513     1383     1291     1267     1324 
    1458     1648     1875     2100     2268     2334     2286     2133 
    1915     1701     1534     1432     1383     1374     1399     1444 
    1497     1552     1603     1647     1664     1642     1602     1582 
    1590     1601     1591     1570     1570     1620     1723     1848 
    1937     1973     1972     1953     1937     1933     1929     1910 
    1883     1876     1899     1921     1914     1884     1837     1782 
    1732     1690     1661     1645     1609     1529     1424     1337 
    1298     1297     1312     1345     1409     1510     1629     1734 
    1811     1858     1881     1892     1902     1915     1917     1873 
    1779     1657     1536     1445     1410     1444     1541     1675 
    1818     1930     1979     1968     1915     1829     1732     1656 
    1613     1610     1637     1675     1715     1755     1788     1825 
    1857     1873     1869     1849     1815     1776     1749     1740 
    1737     1730     1722     1705     1671     1624     1580     1578 
    1621     1686     1745     1779     1783     1765     1725     1679 
    1649     1633     1621     1620     1638     1680     1737     1787 
    1814     1818     1802     1777     1760     1755     1755     1741 
    1709     1671     1633     1597     1571     1561     1576     1607 
    1632     1656     1687     1721     1765     1817     1873     1933 
    1965     1965     1952     1935     1912     1872     1803     1721 
    1630     1518     1413     1354     1366     1445     1552     1647 
    1713     1740     1726     1669     1575     1475     1402     1372 
    1390     1452     1555     1669     1753     1799     1811     1799 
    1782     1772     1773     1780     1786     1784     1777     1764 
    1749     1740     1738     1764     1822     1902     1983     2045 
    2079     2088     2073     2057     2058     2064     2047     2011 
    1989     2007     2027     1988     1879     1713     1512     1306 
    1132     1011      945      928      986     1161     1441     1763 
    2020     2146     2134     2003     1799     1598     1448     1381 
    1417     1528     1661     1775     1827     1806     1723     1620 
    1528     1453     1397     1377     1409     1497     1622     1746 
    1846     1919     1953     1934     1873     1784     1694     1634 
    1629     1678     1771     1895     2030     2153     2238     2258 
    2209     2130     2038     1921     1777     1622     1475     1367 
    1302     1277     1285     1329     1408     1493     1564     1624 
    1682     1738     1795     1833     1827     1786     1744     1738 
    1780     1846     1906     1935     1931     1902     1846     1775 
    1705     1647     1603     1584     1579     1576     1582     1603 
    1651     1723     1794     1827     1821     1803     1809     1827 
    1838     1836     1804     1757     1718     1684     1651     1613 
    1575     1571     1636     1764     1934     2095     2184     2165 
    2045     1864     1660     1459     1275     1116      993      938 
     973     1102     1316     1574     1811     1975     2047     2041 
    1972     1861     1745     1648     1584     1563     1564     1561 
    1547     1518     1491     1479     1491     1551     1674     1845 
    2031     2189     2285     2313     2288     2236     2178     2124 
    2083     2046     2006     1958     1900     1813     1691     1553 
    1425     1317     1231     1192     1202     1248     1336     1468 
    1621     1759     1846     1869     1840     1779     1710     1649 
    1610     1610     1663     1752     1850     1918     1934     1908 
    1864     1822     1798     1775     1729     1656     1563     1470 
    1391     1340     1325     1329     1347     1397     1493     1630 
    1796     1953     2080     2165     2191     2150     2056     1927 
    1795     1672     1564     1485     1418     1358     1314     1297 
    1316     1368     1439     1524     1628     1733     1823     1885 
    1927     1972     2019     2053     2083     2116     2162     2216 
    2246     2222     2130     1988     1827     1676     1559     1478 
    1404     1337     1294     1273     1277     1316     1383     1467 
    1549     1618     1686     1761     1846     1939     2042     2151 
    2250     2312     2342     2354     2344     2324     2311     2309 
    2315     2309     2276     2201     2087     1954     1823     1701 
    1614     1572     1541     1499     1447     1389     1331     1278 
    1239     1220     1208     1198     1189     1166     1136     1113 
    1105     1120     1150     1193     1267     1358     1422     1422 
    1356     1254     1140     1017      907      857      901     1043 
    1263     1543     1846     2115     2299     2388     2390     2340 
    2265     2172     2069     1972     1884     1800     1725     1668 
    1645     1653     1665     1645     1588     1528     1480     1439 
    1393     1343     1304     1290     1286     1279     1282     1313 
    1406     1574     1792     2038     2274     2459     2573     2608 
    2571     2485     2358     2205     2047     1899     1777     1692 
    1645     1660     1749     1910     2133     2396     2667     2906 
    3063     3134     3138     3083     2988     2884     2798     2743 
    2708     2660     2573     2407     2168     1900     1626     1372 
    1156      969      814      699      602      496      369      243 
     141       79       72      129      236      387      587      838 
    1139     1444     1702     1891     2012     2068     2070     2043 
    1998     1930     1845     1746     1638     1530     1439     1367 
    1318     1300     1306     1320     1339     1379     1459     1590 
    1764     1964     2164     2334     2447     2490     2455     2353 
    2203     2016     1795     1547     1287     1040      826      680 
     653      787     1085     1516     2029     2567     3069     3497 
    3813     3990     4009     3839     3461     2906     2228     1514 
     870      390      153      195      456      827     1190     1428 
    1448     1235      847      400        0     -274     -353     -211 
     132      623     1192     1765     2276     2667     2922     3059 
    3098     3071     3014     2963     2941     2932     2905     2829 
    2673     2421     2074     1648     1204      823      577      525 
     688     1054     1561     2126     2668     3122     3430     3565 
    3531     3333     2994     2527     1954     1327      695      126 
    -317     -603     -706     -607     -322      135      746     1455 
    2176     2828     3352     3705     3842     3736     3404     2889 
    2263     1614     1034      610      379      326      417      585 
     766      923     1043     1138     1237     1375     1574     1837 
    2147     2498     2848     3121     3256     3225     3025     2681 
    2245     1784     1359     1039      878      881     1013     1240 
    1530     1854     2169     2416     2556     2581     2478     2269 
    1973     1617     1242      899      616      417      321      325 
     400      514      658      835     1032     1236     1424     1572 
    1683     1757     1804     1852     1903     1968     2061     2185 
    2326     2457     2555     2600     2560     2439     2265     2072 
    1902     1788     1750     1800     1926     2084     2220     2296 
    2293     2215     2076     1923     1803     1718     1655     1611 
    1579     1539     1467     1351     1213     1093     1004      954 
     951      992     1075     1193     1324     1453     1584     1737 
    1915     2106     2289     2439     2535     2567     2536     2439 
    2277     2066     1837     1621     1435     1281     1163     1090 
    1065     1085     1136     1206     1287     1378     1479     1576 
    1675     1790     1911     2016     2092     2134     2137     2097 
    2015     1899     1763     1622     1468     1291     1101      911 
     742      619      575      645      858     1192     1605     2060 
    2517     2952     3346     3659     3851     3878     3696     3295 
    2702     1972     1201      491      -58     -367     -410     -193 
     247      834     1498     2181     2806     3316     3663     3808 
    3762     3547     3206     2801     2385     1999     1669     1399 
    1174      981      811      665      535      419      324      245 
     190      184      267      464      778     1190     1645     2076 
    2435     2697     2853     2924     2932     2884     2793     2658 
    2465     2201     1869     1487     1090      708      371      126 
      14       54      247      569      976     1420     1834     2172 
    2411     2548     2597     2585     2552     2524     2504     2490 
    2482     2447     2362     2220     2016     1753     1439     1100 
     796      577      487      562      808     1209     1725     2274 
    2779     3171     3392     3419     3264     2967     2596     2203 
    1844     1575     1409     1331     1309     1313     1325     1333 
    1328     1314     1298     1278     1264     1264     1287     1336 
    1398     1459     1507     1534     1537     1513     1466     1417 
    1381     1363     1356     1351     1351     1374     1432     1526 
    1641     1753     1858     1960     2058     2153     2239     2323 
    2400     2452     2481     2469     2396     2255     2065     1849 
    1648     1495     1409     1371     1343     1314     1281     1227 
    1146     1057      982      953      990     1105     1297     1548 
    1825     2085     2297     2444     2512     2502     2442     2363 
    2289     2228     2184     2155     2149     2154     2142     2083 
    1961     1772     1521     1247      997      810      704      681 
     714      781      876      984     1107     1252     1417     1605 
    1800     1987     2157     2297     2407     2501     2575     2621 
    2646     2641     2600     2500     2323     2072     1761     1409 
    1051      727      473      321      282      356      541      812 
    1138     1489     1823     2106     2301     2392     2380     2276 
    2103     1896     1684     1486     1308     1140      985      858 
     785      801      938     1198     1571     2002     2428     2787 
    3037     3164     3169     3071     2909     2710     2502     2319 
    2168     2043     1938     1833     1717     1599     1489     1393 
    1325     1296     1320     1413     1576     1798     2049     2300 
    2524     2686     2758     2721     2579     2354     2066     1723 
    1339      940      565      253       45      -28       40      229 
     506      830     1166     1503     1836     2146     2419     2632 
    2754     2763     2658     2465     2223     1956     1698     1480 
    1313     1205     1165     1181     1244     1343     1467     1609 
    1759     1911     2058     2182     2270     2312     2301     2236 
    2115     1952     1773     1593     1425     1285     1179     1128 
    1138     1197     1300     1424     1534     1625     1691     1738 
    1775     1796     1795     1772     1734     1691     1655     1626 
    1607     1598     1590     1579     1571     1575     1598     1642 
    1718     1819     1927     2015     2068     2073     2029     1937 
    1819     1699     1582     1483     1418     1385     1371     1374 
    1379     1383     1391     1406     1440     1506     1607     1737 
    1884     2043     2205     2342     2432     2471     2457     2390 
    2276     2123     1944     1745     1544     1363     1216     1127 
    1120     1192     1339     1543     1757     1950     2093     2169 
    2173     2118     2016     1879     1718     1543     1366     1206 
    1077      973      895      857      866      930     1058     1247 
    1487     1757     2022     2268     2489     2667     2786     2832 
    2798     2700     2550     2365     2165     1972     1802     1667 
    1578     1540     1534     1534     1533     1522     1499     1482 
    1480     1494     1524     1560     1599     1656     1738     1844 
    1961     2085     2199     2276     2305     2293     2243     2160 
    2062     1960     1846     1714     1563     1408     1262     1132 
    1038      984      967      997     1061     1138     1216     1278 
    1321     1351     1363     1364     1364     1371     1394     1441 
