Origin Time       2025/03/28 03:50:00
Lat.              35.403
Long.             140.360
Depth. (km)       54
Mag.              4.4
Station Code      CHBH16
Station Lat.      35.1384
Station Long.     139.9649
Station Height(m) -1842.75
Record Time       2025/03/28 03:50:50
Sampling Freq(Hz) 100Hz
Duration Time(s)  120
Dir.              2
Scale Factor      7845(gal)/8223790
Max. Acc. (gal)   0.341
Last Correction   2025/03/28 03:50:50
Memo.             
[...]
  -13437   -13428   -13436   -13439   -13429   -13433   -13440   -13432 
  -13435   -13441   -13432   -13429   -13437   -13433   -13429   -13439 
  -13437   -13429   -13435   -13439   -13432   -13433   -13439   -13433 
  -13432   -13437   -13433   -13432   -13440   -13436   -13431   -13439 
  -13439   -13429   -13435   -13439   -13429   -13435   -13440   -13431 
  -13432   -13441   -13432   -13428   -13437   -13433   -13428   -13439 
  -13439   -13431   -13436   -13437   -13429   -13433   -13439   -13433 
  -13432   -13437   -13435   -13432   -13437   -13435   -13431   -13436 
  -13436   -13429   -13436   -13439   -13429   -13435   -13444   -13432 
  -13429   -13440   -13435   -13429   -13436   -13435   -13428   -13437 
  -13439   -13428   -13435   -13440   -13429   -13431   -13441   -13435 
  -13432   -13440   -13433   -13429   -13440   -13437   -13428   -13435 
  -13439   -13431   -13435   -13440   -13432   -13435   -13441   -13432 
  -13431   -13439   -13435   -13432   -13440   -13437   -13431   -13439 
  -13440   -13431   -13435   -13441   -13432   -13431   -13439   -13433 
  -13432   -13441   -13437   -13428   -13439   -13440   -13429   -13435 
  -13440   -13429   -13432   -13439   -13431   -13433   -13441   -13431 
  -13429   -13441   -13436   -13427   -13435   -13437   -13431   -13437 
  -13440   -13429   -13432   -13439   -13431   -13431   -13441   -13435 
  -13428   -13439   -13437   -13429   -13436   -13437   -13429   -13436 
  -13439   -13429   -13433   -13440   -13433   -13435   -13441   -13436 
  -13431   -13437   -13436   -13432   -13437   -13437   -13427   -13433 
  -13440   -13431   -13431   -13440   -13433   -13433   -13440   -13433 
  -13431   -13439   -13436   -13429   -13436   -13437   -13429   -13436 
  -13440   -13429   -13432   -13439   -13429   -13429   -13439   -13433 
  -13429   -13436   -13435   -13429   -13436   -13437   -13431   -13436 
  -13440   -13433   -13435   -13439   -13432   -13431   -13437   -13432 
  -13428   -13437   -13436   -13429   -13439   -13441   -13428   -13432 
  -13441   -13433   -13432   -13440   -13433   -13429   -13439   -13435 
  -13429   -13437   -13437   -13431   -13437   -13437   -13429   -13435 
  -13440   -13433   -13432   -13439   -13432   -13429   -13439   -13433 
  -13428   -13436   -13432   -13427   -13437   -13439   -13428   -13433 
  -13439   -13431   -13432   -13440   -13432   -13427   -13436   -13435 
  -13432   -13439   -13435   -13427   -13435   -13436   -13427   -13435 
  -13443   -13431   -13432   -13443   -13433   -13428   -13439   -13437 
  -13431   -13437   -13436   -13429   -13435   -13439   -13432   -13435 
  -13439   -13431   -13431   -13437   -13432   -13429   -13437   -13435 
  -13431   -13440   -13439   -13429   -13433   -13439   -13431   -13432 
  -13439   -13432   -13431   -13440   -13433   -13429   -13440   -13437 
  -13431   -13440   -13439   -13428   -13435   -13439   -13431   -13433 
  -13439   -13431   -13431   -13439   -13432   -13428   -13436   -13433 
  -13433   -13443   -13436   -13427   -13436   -13439   -13429   -13433 
  -13440   -13431   -13431   -13441   -13436   -13431   -13437   -13435 
  -13429   -13437   -13437   -13429   -13433   -13437   -13429   -13431 
  -13439   -13435   -13432   -13436   -13432   -13432   -13440   -13435 
  -13428   -13435   -13436   -13428   -13435   -13440   -13431   -13432 
  -13439   -13432   -13429   -13436   -13431   -13431   -13437   -13431 
  -13423   -13431   -13427   -13413   -13417   -13417   -13408   -13410 
  -13413   -13402   -13401   -13404   -13401   -13409   -13420   -13423 
  -13443   -13462   -13467   -13485   -13497   -13489   -13490   -13494 
  -13478   -13454   -13443   -13443   -13437   -13435   -13444   -13451 
  -13448   -13454   -13459   -13448   -13441   -13444   -13435   -13423 
  -13419   -13409   -13390   -13385   -13396   -13410   -13428   -13440 
  -13444   -13464   -13475   -13463   -13463   -13470   -13448   -13423 
  -13420   -13429   -13435   -13425   -13405   -13408   -13437   -13446 
  -13413   -13382   -13369   -13373   -13402   -13421   -13406   -13414 
  -13456   -13489   -13493   -13470   -13443   -13451   -13473   -13467 
  -13443   -13432   -13433   -13441   -13463   -13473   -13451   -13424 
  -13417   -13412   -13398   -13385   -13371   -13383   -13420   -13433 
  -13436   -13463   -13481   -13481   -13478   -13463   -13446   -13456 
  -13471   -13448   -13420   -13417   -13397   -13379   -13414   -13432 
  -13402   -13405   -13425   -13421   -13428   -13437   -13425   -13431 
  -13454   -13467   -13479   -13482   -13455   -13423   -13409   -13394 
  -13375   -13379   -13398   -13409   -13416   -13417   -13416   -13435 
  -13459   -13478   -13489   -13463   -13425   -13436   -13468   -13487 
  -13493   -13473   -13439   -13425   -13420   -13402   -13406   -13448 
  -13473   -13448   -13419   -13419   -13419   -13400   -13389   -13400 
  -13416   -13423   -13412   -13406   -13424   -13450   -13494   -13537 
  -13529   -13491   -13462   -13432   -13412   -13400   -13387   -13392 
  -13379   -13344   -13356   -13410   -13441   -13439   -13436   -13440 
  -13424   -13409   -13433   -13447   -13425   -13431   -13452   -13433 
  -13424   -13462   -13491   -13504   -13517   -13510   -13477   -13444 
  -13439   -13432   -13402   -13393   -13414   -13425   -13437   -13446 
  -13436   -13441   -13454   -13450   -13454   -13452   -13412   -13369 
  -13358   -13363   -13371   -13390   -13414   -13448   -13468   -13466 
  -13481   -13505   -13475   -13428   -13416   -13413   -13412   -13429 
  -13435   -13420   -13427   -13439   -13416   -13398   -13432   -13462 
  -13440   -13404   -13400   -13425   -13439   -13424   -13435   -13493 
  -13533   -13528   -13516   -13502   -13489   -13473   -13437   -13406 
  -13396   -13382   -13370   -13375   -13393   -13421   -13443   -13435 
  -13420   -13410   -13413   -13437   -13450   -13444   -13468   -13478 
  -13433   -13408   -13412   -13396   -13400   -13424   -13405   -13396 
  -13431   -13443   -13432   -13444   -13458   -13467   -13485   -13478 
  -13454   -13440   -13428   -13408   -13404   -13420   -13424   -13417 
  -13424   -13440   -13471   -13490   -13458   -13441   -13479   -13486 
  -13451   -13441   -13446   -13424   -13401   -13409   -13421   -13416 
  -13420   -13432   -13427   -13425   -13433   -13427   -13417   -13401 
  -13373   -13369   -13381   -13392   -13419   -13456   -13464   -13463 
  -13483   -13498   -13477   -13441   -13433   -13440   -13437   -13433 
  -13432   -13424   -13410   -13421   -13467   -13468   -13402   -13367 
  -13381   -13374   -13365   -13370   -13347   -13338   -13386   -13439 
  -13483   -13532   -13548   -13544   -13554   -13545   -13520   -13508 
  -13478   -13410   -13347   -13332   -13356   -13379   -13400   -13440 
  -13477   -13493   -13504   -13493   -13460   -13439   -13432   -13433 
  -13441   -13433   -13413   -13417   -13437   -13432   -13429   -13446 
  -13443   -13429   -13440   -13447   -13441   -13444   -13431   -13385 
  -13359   -13377   -13390   -13389   -13401   -13427   -13454   -13464 
  -13471   -13487   -13466   -13420   -13425   -13460   -13454   -13428 
  -13416   -13396   -13369   -13366   -13371   -13385   -13425   -13455 
  -13456   -13468   -13489   -13491   -13482   -13470   -13456   -13437 
  -13429   -13433   -13425   -13412   -13402   -13401   -13421   -13456 
  -13481   -13497   -13506   -13506   -13500   -13474   -13436   -13405 
  -13366   -13329   -13327   -13339   -13348   -13363   -13396   -13431 
  -13454   -13473   -13474   -13460   -13462   -13464   -13463   -13460 
  -13432   -13401   -13404   -13410   -13404   -13409   -13419   -13425 
  -13462   -13508   -13491   -13446   -13436   -13435   -13435   -13468 
  -13495   -13474   -13448   -13460   -13460   -13428   -13419   -13439 
  -13435   -13413   -13419   -13420   -13390   -13386   -13412   -13424 
  -13439   -13462   -13471   -13467   -13450   -13448   -13464   -13439 
  -13404   -13424   -13433   -13396   -13394   -13424   -13413   -13400 
  -13424   -13436   -13433   -13448   -13451   -13459   -13500   -13513 
  -13478   -13456   -13451   -13417   -13373   -13360   -13373   -13401 
  -13446   -13460   -13431   -13410   -13401   -13396   -13423   -13458 
  -13473   -13501   -13520   -13501   -13490   -13501   -13485   -13451 
  -13433   -13397   -13346   -13354   -13414   -13440   -13428   -13437 
  -13444   -13423   -13413   -13401   -13374   -13375   -13393   -13412 
  -13444   -13456   -13451   -13455   -13435   -13409   -13424   -13433 
  -13425   -13450   -13470   -13454   -13444   -13439   -13420   -13423 
  -13435   -13423   -13416   -13441   -13475   -13486   -13474   -13462 
  -13452   -13432   -13406   -13390   -13397   -13421   -13437   -13435 
  -13433   -13443   -13451   -13464   -13463   -13427   -13390   -13381 
  -13386   -13404   -13421   -13428   -13429   -13420   -13409   -13433 
  -13468   -13470   -13475   -13506   -13516   -13510   -13514   -13495 
  -13447   -13413   -13406   -13387   -13351   -13333   -13333   -13343 
  -13385   -13431   -13433   -13423   -13429   -13439   -13447   -13455 
  -13467   -13482   -13478   -13455   -13440   -13433   -13419   -13408 
  -13408   -13404   -13396   -13409   -13421   -13428   -13464   -13487 
  -13462   -13454   -13460   -13454   -13460   -13470   -13447   -13428 
  -13448   -13459   -13450   -13468   -13485   -13460   -13446   -13456 
  -13441   -13413   -13405   -13410   -13419   -13424   -13413   -13379 
  -13348   -13356   -13381   -13393   -13409   -13435   -13456   -13470 
  -13473   -13477   -13479   -13474   -13474   -13467   -13441   -13432 
  -13447   -13447   -13428   -13410   -13393   -13386   -13405   -13427 
  -13435   -13444   -13466   -13466   -13444   -13466   -13504   -13493 
  -13464   -13452   -13447   -13450   -13456   -13467   -13491   -13514 
  -13518   -13497   -13462   -13425   -13387   -13360   -13366   -13406 
  -13441   -13424   -13398   -13404   -13417   -13428   -13432   -13440 
  -13447   -13412   -13378   -13382   -13375   -13362   -13379   -13393 
  -13398   -13416   -13441   -13473   -13483   -13474   -13483   -13489 
  -13455   -13425   -13427   -13427   -13427   -13451   -13477   -13477 
  -13468   -13452   -13431   -13414   -13400   -13381   -13385   -13406 
  -13417   -13431   -13459   -13468   -13440   -13397   -13362   -13347 
  -13348   -13348   -13358   -13375   -13379   -13387   -13406   -13409 
  -13409   -13421   -13424   -13425   -13448   -13450   -13420   -13386 
  -13360   -13355   -13355   -13335   -13336   -13371   -13414   -13467 
  -13509   -13514   -13506   -13483   -13459   -13452   -13440   -13425 
  -13436   -13462   -13490   -13531   -13594   -13670   -13720   -13725 
  -13717   -13702   -13647   -13555   -13475   -13431   -13406   -13369 
  -13329   -13332   -13370   -13427   -13491   -13524   -13524   -13525 
  -13491   -13432   -13402   -13377   -13324   -13267   -13223   -13181 
  -13147   -13144   -13177   -13221   -13254   -13286   -13342   -13412 
  -13479   -13532   -13560   -13586   -13635   -13680   -13674   -13624 
  -13587   -13548   -13470   -13387   -13340   -13327   -13321   -13324 
  -13354   -13397   -13421   -13431   -13446   -13486   -13531   -13548 
  -13562   -13589   -13595   -13545   -13458   -13381   -13328   -13286 
  -13267   -13282   -13300   -13294   -13301   -13329   -13344   -13366 
  -13420   -13490   -13558   -13589   -13555   -13501   -13462   -13423 
  -13387   -13381   -13408   -13444   -13485   -13539   -13567   -13549 
  -13525   -13506   -13481   -13437   -13392   -13370   -13340   -13271 
  -13205   -13181   -13217   -13304   -13374   -13392   -13392   -13387 
  -13385   -13394   -13405   -13420   -13462   -13518   -13590   -13687 
  -13755   -13756   -13732   -13694   -13647   -13608   -13560   -13506 
  -13489   -13505   -13493   -13433   -13375   -13331   -13279   -13246 
  -13255   -13284   -13292   -13289   -13277   -13251   -13243   -13266 
  -13284   -13296   -13336   -13408   -13494   -13555   -13566   -13545 
  -13517   -13489   -13456   -13424   -13412   -13421   -13441   -13478 
  -13506   -13491   -13477   -13478   -13447   -13371   -13311   -13298 
  -13336   -13413   -13500   -13549   -13548   -13502   -13425   -13371 
  -13367   -13383   -13424   -13512   -13608   -13662   -13666   -13632 
  -13566   -13487   -13410   -13346   -13311   -13292   -13277   -13294 
  -13338   -13371   -13385   -13378   -13348   -13333   -13367   -13433 
  -13510   -13590   -13633   -13612   -13581   -13555   -13504   -13456 
  -13416   -13350   -13289   -13254   -13254   -13304   -13379   -13443 
  -13494   -13544   -13590   -13616   -13628   -13648   -13639   -13566 
  -13475   -13386   -13288   -13211   -13180   -13177   -13190   -13203 
  -13204   -13228   -13284   -13348   -13428   -13508   -13539   -13520 
  -13513   -13527   -13508   -13462   -13443   -13452   -13452   -13435 
  -13417   -13408   -13410   -13437   -13487   -13514   -13510   -13525 
  -13564   -13585   -13583   -13547   -13468   -13385   -13335   -13331 
  -13374   -13408   -13398   -13381   -13358   -13319   -13292   -13284 
  -13298   -13343   -13400   -13448   -13471   -13477   -13473   -13454 
  -13441   -13441   -13440   -13456   -13490   -13528   -13562   -13566 
  -13524   -13459   -13401   -13378   -13379   -13404   -13447   -13475 
  -13490   -13521   -13549   -13536   -13487   -13437   -13410   -13419 
  -13450   -13489   -13536   -13563   -13567   -13554   -13491   -13397 
  -13316   -13266   -13248   -13265   -13315   -13373   -13428   -13500 
  -13599   -13707   -13780   -13792   -13765   -13693   -13548   -13374 
  -13235   -13159   -13139   -13159   -13203   -13263   -13335   -13414 
  -13495   -13544   -13547   -13518   -13464   -13400   -13343   -13325 
  -13359   -13397   -13402   -13390   -13373   -13355   -13342   -13306 
  -13251   -13227   -13243   -13270   -13301   -13340   -13397   -13450 
  -13464   -13474   -13505   -13522   -13536   -13578   -13617   -13609 
  -13570   -13552   -13547   -13514   -13462   -13409   -13375   -13390 
  -13420   -13428   -13451   -13487   -13508   -13535   -13568   -13564 
  -13527   -13485   -13436   -13383   -13347   -13320   -13289   -13248 
  -13207   -13205   -13242   -13278   -13306   -13325   -13351   -13390 
  -13417   -13436   -13459   -13475   -13489   -13494   -13498   -13512 
  -13502   -13458   -13431   -13443   -13458   -13462   -13479   -13495 
  -13486   -13473   -13462   -13435   -13416   -13432   -13464   -13479 
  -13474   -13478   -13494   -13508   -13524   -13543   -13528   -13483 
  -13454   -13439   -13424   -13419   -13427   -13436   -13447   -13470 
  -13489   -13467   -13423   -13404   -13393   -13365   -13355   -13377 
  -13412   -13455   -13495   -13528   -13551   -13549   -13528   -13524 
  -13524   -13506   -13487   -13448   -13390   -13356   -13331   -13302 
  -13292   -13282   -13267   -13270   -13297   -13340   -13387   -13424 
  -13451   -13479   -13502   -13520   -13532   -13531   -13501   -13468 
  -13460   -13458   -13431   -13393   -13396   -13435   -13470   -13508 
  -13540   -13533   -13509   -13491   -13451   -13387   -13343   -13320 
  -13312   -13320   -13333   -13317   -13288   -13270   -13243   -13219 
  -13238   -13289   -13346   -13412   -13485   -13537   -13564   -13599 
  -13640   -13641   -13605   -13563   -13527   -13504   -13510   -13540 
  -13555   -13539   -13525   -13518   -13490   -13454   -13437   -13436 
  -13428   -13414   -13417   -13424   -13402   -13370   -13348   -13331 
  -13319   -13313   -13308   -13320   -13356   -13383   -13389   -13389 
  -13400   -13423   -13440   -13455   -13468   -13475   -13483   -13471 
  -13459   -13483   -13504   -13493   -13483   -13474   -13443   -13406 
  -13397   -13409   -13402   -13379   -13360   -13340   -13335   -13365 
  -13402   -13439   -13497   -13559   -13608   -13630   -13625   -13616 
  -13606   -13583   -13562   -13547   -13497   -13409   -13329   -13297 
  -13302   -13328   -13358   -13374   -13383   -13397   -13397   -13379 
  -13348   -13321   -13331   -13358   -13381   -13412   -13435   -13440 
  -13441   -13444   -13456   -13458   -13452   -13463   -13466   -13451 
  -13450   -13444   -13414   -13390   -13381   -13365   -13350   -13348 
  -13350   -13362   -13374   -13369   -13378   -13400   -13408   -13417 
  -13437   -13473   -13514   -13524   -13516   -13514   -13489   -13456 
  -13450   -13450   -13444   -13443   -13455   -13474   -13479   -13483 
  -13495   -13494   -13501   -13529   -13562   -13585   -13602   -13602 
  -13581   -13549   -13522   -13493   -13467   -13459   -13452   -13429 
  -13400   -13374   -13355   -13336   -13331   -13346   -13347   -13327 
  -13312   -13304   -13308   -13325   -13347   -13370   -13385   -13387 
  -13386   -13389   -13393   -13392   -13383   -13365   -13360   -13377 
  -13386   -13408   -13444   -13486   -13540   -13555   -13528   -13520 
  -13529   -13527   -13516   -13510   -13502   -13475   -13440   -13425 
  -13429   -13424   -13402   -13379   -13346   -13302   -13284   -13275 
  -13258   -13261   -13293   -13342   -13400   -13450   -13489   -13529 
  -13562   -13579   -13594   -13599   -13585   -13566   -13539   -13506 
  -13493   -13485   -13466   -13437   -13414   -13421   -13429   -13413 
  -13404   -13405   -13397   -13393   -13400   -13402   -13397   -13379 
  -13360   -13367   -13390   -13406   -13428   -13446   -13452   -13466 
  -13464   -13452   -13448   -13432   -13419   -13431   -13437   -13428 
  -13437   -13466   -13486   -13500   -13516   -13509   -13477   -13450 
  -13428   -13394   -13366   -13358   -13352   -13356   -13396   -13448 
  -13485   -13502   -13498   -13485   -13482   -13477   -13471   -13483 
  -13491   -13474   -13446   -13427   -13414   -13405   -13402   -13405 
  -13398   -13385   -13374   -13363   -13366   -13386   -13409   -13443 
  -13481   -13494   -13508   -13520   -13502   -13487   -13494   -13493 
  -13470   -13439   -13414   -13387   -13348   -13317   -13308   -13312 
  -13332   -13365   -13390   -13416   -13450   -13486   -13513   -13524 
  -13529   -13521   -13494   -13474   -13471   -13460   -13441   -13425 
  -13413   -13397   -13373   -13359   -13351   -13340   -13347   -13366 
  -13378   -13401   -13440   -13475   -13495   -13500   -13505   -13508 
  -13486   -13454   -13447   -13451   -13435   -13406   -13398   -13406 
  -13420   -13447   -13463   -13464   -13483   -13504   -13495   -13487 
  -13483   -13459   -13414   -13371   -13340   -13315   -13300   -13302 
  -13315   -13336   -13373   -13416   -13458   -13491   -13521   -13543 
  -13547   -13554   -13563   -13559   -13539   -13510   -13495   -13482 
  -13455   -13443   -13447   -13443   -13425   -13408   -13404   -13400 
  -13392   -13393   -13390   -13383   -13398   -13423   -13440   -13456 
  -13450   -13424   -13404   -13373   -13343   -13344   -13358   -13383 
  -13427   -13456   -13463   -13452   -13416   -13392   -13394   -13390 
  -13393   -13416   -13433   -13454   -13483   -13501   -13504   -13509 
  -13500   -13475   -13459   -13448   -13421   -13390   -13378   -13382 
  -13390   -13406   -13417   -13413   -13417   -13417   -13413   -13431 
  -13454   -13464   -13483   -13494   -13485   -13482   -13482   -13481 
  -13483   -13485   -13474   -13454   -13441   -13447   -13447   -13440 
  -13440   -13443   -13429   -13414   -13409   -13402   -13397   -13405 
  -13412   -13409   -13408   -13404   -13400   -13404   -13401   -13394 
