Origin Time       2025/03/28 03:50:00
Lat.              35.403
Long.             140.360
Depth. (km)       54
Mag.              4.4
Station Code      CHBH13
Station Lat.      35.8307
Station Long.     140.2980
Station Height(m) 12
Record Time       2025/03/28 03:50:51
Sampling Freq(Hz) 100Hz
Duration Time(s)  120
Dir.              6
Scale Factor      7845(gal)/8223790
Max. Acc. (gal)   2.919
Last Correction   2025/03/28 03:50:51
Memo.             
[...]
   -2331    -2299    -2326    -2354    -2359    -2378    -2378    -2342 
   -2328    -2336    -2331    -2339    -2366    -2366    -2350    -2326 
   -2303    -2335    -2370    -2359    -2369    -2367    -2332    -2336 
   -2357    -2353    -2350    -2338    -2334    -2349    -2350    -2355 
   -2366    -2346    -2323    -2338    -2349    -2335    -2340    -2361 
   -2373    -2369    -2349    -2343    -2350    -2344    -2347    -2347 
   -2336    -2327    -2335    -2350    -2338    -2340    -2378    -2384 
   -2350    -2339    -2349    -2330    -2315    -2347    -2346    -2328 
   -2369    -2380    -2354    -2359    -2343    -2323    -2342    -2351 
   -2351    -2361    -2336    -2322    -2338    -2338    -2346    -2363 
   -2350    -2347    -2355    -2336    -2323    -2323    -2339    -2377 
   -2365    -2331    -2359    -2359    -2324    -2355    -2353    -2309 
   -2353    -2374    -2338    -2363    -2366    -2323    -2339    -2355 
   -2343    -2334    -2316    -2317    -2340    -2353    -2366    -2376 
   -2355    -2340    -2336    -2311    -2332    -2388    -2361    -2323 
   -2338    -2330    -2334    -2365    -2359    -2350    -2367    -2353 
   -2317    -2326    -2349    -2357    -2361    -2344    -2336    -2351 
   -2339    -2334    -2362    -2384    -2366    -2326    -2313    -2322 
   -2331    -2362    -2373    -2349    -2338    -2343    -2355    -2358 
   -2354    -2354    -2349    -2330    -2317    -2336    -2358    -2346 
   -2347    -2365    -2359    -2365    -2358    -2338    -2351    -2351 
   -2328    -2343    -2357    -2355    -2369    -2351    -2327    -2344 
   -2347    -2334    -2353    -2361    -2349    -2343    -2339    -2344 
   -2347    -2339    -2363    -2385    -2350    -2322    -2340    -2343 
   -2340    -2353    -2353    -2354    -2355    -2344    -2357    -2359 
   -2342    -2359    -2371    -2344    -2328    -2324    -2323    -2342 
   -2357    -2361    -2369    -2353    -2323    -2338    -2373    -2370 
   -2349    -2344    -2331    -2312    -2331    -2362    -2358    -2347 
   -2362    -2377    -2354    -2334    -2343    -2340    -2336    -2346 
   -2354    -2347    -2335    -2347    -2365    -2354    -2347    -2340 
   -2330    -2349    -2354    -2336    -2354    -2369    -2346    -2344 
   -2343    -2332    -2366    -2365    -2301    -2319    -2389    -2369 
   -2326    -2343    -2359    -2358    -2354    -2343    -2340    -2353 
   -2358    -2342    -2319    -2312    -2336    -2351    -2355    -2382 
   -2373    -2342    -2363    -2350    -2315    -2339    -2336    -2323 
   -2353    -2342    -2336    -2382    -2370    -2339    -2361    -2359 
   -2335    -2332    -2343    -2335    -2309    -2326    -2363    -2353 
   -2351    -2363    -2354    -2355    -2349    -2326    -2328    -2349 
   -2342    -2326    -2357    -2380    -2334    -2316    -2361    -2377 
   -2357    -2349    -2349    -2327    -2319    -2347    -2354    -2344 
   -2358    -2365    -2363    -2357    -2320    -2317    -2349    -2358 
   -2363    -2354    -2343    -2359    -2346    -2327    -2351    -2362 
   -2357    -2343    -2305    -2301    -2339    -2371    -2389    -2390 
   -2359    -2328    -2342    -2338    -2312    -2349    -2367    -2327 
   -2331    -2347    -2347    -2366    -2373    -2369    -2357    -2336 
   -2346    -2357    -2338    -2330    -2346    -2339    -2331    -2361 
   -2377    -2349    -2332    -2357    -2373    -2354    -2343    -2347 
   -2346    -2342    -2330    -2327    -2346    -2358    -2365    -2365 
   -2339    -2323    -2342    -2367    -2386    -2384    -2351    -2335 
   -2338    -2322    -2324    -2351    -2370    -2377    -2349    -2322 
   -2346    -2358    -2353    -2370    -2374    -2361    -2349    -2323 
   -2313    -2322    -2339    -2380    -2380    -2339    -2343    -2351 
   -2336    -2347    -2361    -2353    -2340    -2342    -2351    -2343 
   -2355    -2373    -2332    -2313    -2342    -2342    -2355    -2378 
   -2347    -2332    -2359    -2361    -2347    -2339    -2324    -2338 
   -2354    -2334    -2332    -2353    -2350    -2357    -2370    -2351 
   -2326    -2330    -2355    -2365    -2336    -2320    -2336    -2350 
   -2355    -2355    -2351    -2353    -2343    -2338    -2355    -2354 
   -2349    -2361    -2339    -2313    -2330    -2346    -2349    -2353 
   -2344    -2330    -2342    -2366    -2344    -2315    -2347    -2366 
   -2350    -2366    -2355    -2313    -2324    -2351    -2336    -2326 
   -2351    -2374    -2361    -2344    -2357    -2359    -2340    -2340 
   -2344    -2324    -2309    -2332    -2359    -2343    -2332    -2371 
   -2384    -2349    -2328    -2339    -2349    -2339    -2344    -2353 
   -2316    -2308    -2351    -2369    -2361    -2363    -2378    -2382 
   -2339    -2301    -2317    -2328    -2324    -2351    -2371    -2349 
   -2342    -2366    -2350    -2335    -2362    -2338    -2317    -2367 
   -2357    -2323    -2363    -2357    -2311    -2336    -2355    -2344 
   -2355    -2358    -2351    -2335    -2332    -2361    -2362    -2353 
   -2370    -2353    -2330    -2344    -2326    -2307    -2339    -2355 
   -2363    -2374    -2338    -2331    -2388    -2378    -2327    -2349 
   -2373    -2326    -2308    -2344    -2353    -2336    -2347    -2369 
   -2353    -2327    -2363    -2382    -2336    -2339    -2363    -2349 
   -2344    -2342    -2328    -2342    -2357    -2344    -2344    -2361 
   -2351    -2351    -2365    -2350    -2359    -2367    -2331    -2343 
   -2370    -2332    -2326    -2354    -2343    -2344    -2369    -2363 
   -2334    -2340    -2377    -2358    -2320    -2350    -2371    -2332 
   -2315    -2343    -2367    -2362    -2361    -2370    -2351    -2343 
   -2369    -2355    -2332    -2359    -2378    -2357    -2324    -2326 
   -2365    -2363    -2327    -2338    -2357    -2344    -2357    -2376 
   -2346    -2334    -2373    -2371    -2330    -2327    -2344    -2347 
   -2338    -2335    -2343    -2346    -2359    -2389    -2381    -2342 
   -2327    -2331    -2331    -2339    -2344    -2342    -2353    -2376 
   -2367    -2334    -2334    -2353    -2344    -2342    -2350    -2343 
   -2350    -2363    -2347    -2327    -2338    -2354    -2355    -2354 
   -2349    -2339    -2350    -2366    -2349    -2335    -2340    -2342 
   -2349    -2344    -2330    -2339    -2350    -2336    -2327    -2349 
   -2362    -2344    -2346    -2365    -2354    -2338    -2330    -2326 
   -2323    -2324    -2357    -2377    -2343    -2331    -2359    -2359 
   -2347    -2354    -2353    -2335    -2327    -2339    -2339    -2331 
   -2342    -2340    -2343    -2371    -2361    -2324    -2322    -2327 
   -2342    -2363    -2347    -2338    -2349    -2335    -2339    -2354 
   -2349    -2357    -2347    -2308    -2311    -2347    -2359    -2354 
   -2346    -2340    -2349    -2353    -2349    -2353    -2342    -2331 
   -2339    -2332    -2327    -2362    -2381    -2369    -2358    -2338 
   -2327    -2339    -2336    -2336    -2346    -2331    -2317    -2334 
   -2362    -2384    -2386    -2381    -2358    -2326    -2319    -2320 
   -2324    -2340    -2353    -2355    -2354    -2353    -2367    -2371 
   -2351    -2346    -2340    -2342    -2353    -2328    -2324    -2362 
   -2354    -2340    -2357    -2344    -2349    -2376    -2349    -2324 
   -2346    -2349    -2353    -2380    -2370    -2344    -2347    -2351 
   -2344    -2355    -2366    -2347    -2324    -2322    -2338    -2370 
   -2396    -2393    -2358    -2322    -2326    -2334    -2330    -2351 
   -2359    -2339    -2353    -2363    -2336    -2350    -2385    -2374 
   -2359    -2347    -2320    -2324    -2346    -2353    -2355    -2347 
   -2343    -2362    -2363    -2335    -2340    -2365    -2359    -2355 
   -2347    -2335    -2346    -2343    -2338    -2355    -2338    -2340 
   -2393    -2373    -2311    -2323    -2365    -2361    -2354    -2350 
   -2338    -2353    -2354    -2328    -2324    -2330    -2359    -2388 
   -2343    -2319    -2350    -2361    -2371    -2370    -2328    -2322 
   -2349    -2332    -2326    -2357    -2350    -2339    -2357    -2343 
   -2338    -2365    -2365    -2351    -2354    -2351    -2340    -2335 
   -2340    -2354    -2349    -2334    -2347    -2353    -2336    -2357 
   -2373    -2353    -2354    -2347    -2324    -2332    -2339    -2331 
   -2335    -2344    -2350    -2343    -2349    -2363    -2353    -2350 
   -2370    -2353    -2311    -2326    -2369    -2354    -2326    -2344 
   -2362    -2344    -2343    -2369    -2361    -2334    -2350    -2362 
   -2336    -2334    -2347    -2335    -2330    -2351    -2353    -2334 
   -2347    -2361    -2340    -2336    -2358    -2371    -2358    -2324 
   -2315    -2336    -2350    -2351    -2354    -2351    -2324    -2327 
   -2374    -2373    -2342    -2351    -2362    -2359    -2343    -2320 
   -2332    -2350    -2336    -2334    -2346    -2349    -2347    -2357 
   -2358    -2357    -2366    -2363    -2350    -2344    -2338    -2334 
   -2342    -2331    -2304    -2323    -2367    -2376    -2380    -2397 
   -2363    -2332    -2354    -2335    -2300    -2328    -2353    -2339 
   -2347    -2350    -2334    -2355    -2373    -2354    -2353    -2351 
   -2339    -2351    -2358    -2350    -2353    -2350    -2349    -2334 
   -2309    -2339    -2361    -2347    -2361    -2358    -2338    -2350 
   -2347    -2340    -2367    -2380    -2371    -2343    -2292    -2289 
   -2328    -2344    -2359    -2389    -2396    -2371    -2354    -2347 
   -2313    -2305    -2332    -2327    -2324    -2357    -2378    -2380 
   -2359    -2342    -2342    -2319    -2319    -2373    -2382    -2357 
   -2365    -2359    -2327    -2320    -2324    -2327    -2349    -2370 
   -2362    -2339    -2344    -2362    -2346    -2336    -2363    -2365 
   -2344    -2336    -2324    -2309    -2334    -2365    -2354    -2347 
   -2370    -2370    -2355    -2357    -2344    -2335    -2338    -2330 
   -2336    -2347    -2342    -2346    -2350    -2344    -2351    -2353 
   -2349    -2365    -2374    -2355    -2328    -2332    -2347    -2339 
   -2340    -2355    -2350    -2340    -2354    -2361    -2335    -2335 
   -2374    -2371    -2336    -2336    -2353    -2349    -2327    -2323 
   -2339    -2349    -2363    -2362    -2327    -2335    -2374    -2367 
   -2346    -2353    -2350    -2336    -2349    -2350    -2324    -2323 
   -2338    -2355    -2378    -2370    -2358    -2367    -2351    -2332 
   -2351    -2351    -2334    -2339    -2343    -2346    -2353    -2347 
   -2346    -2353    -2351    -2354    -2354    -2351    -2349    -2335 
   -2339    -2363    -2353    -2328    -2332    -2340    -2349    -2365 
   -2359    -2340    -2343    -2355    -2366    -2382    -2365    -2334 
   -2344    -2336    -2299    -2312    -2343    -2354    -2377    -2374 
   -2351    -2373    -2381    -2353    -2332    -2317    -2326    -2362 
   -2349    -2316    -2338    -2355    -2346    -2361    -2374    -2367 
   -2367    -2358    -2343    -2342    -2317    -2317    -2366    -2361 
   -2335    -2358    -2362    -2346    -2354    -2357    -2361    -2369 
   -2338    -2334    -2363    -2339    -2340    -2361    -2319    -2309 
   -2331    -2324    -2370    -2390    -2335    -2357    -2405    -2357 
   -2323    -2353    -2349    -2338    -2346    -2313    -2300    -2327 
   -2334    -2353    -2376    -2374    -2394    -2412    -2428    -2485 
   -2515    -2504    -2485    -2405    -2319    -2301    -2292    -2273 
   -2265    -2272    -2340    -2439    -2532    -2614    -2532    -2251 
   -1987    -1880    -1999    -2258    -2305    -2196    -2369    -2612 
   -2578    -2504    -2392    -2165    -2141    -2176    -2012    -2106 
   -2498    -2562    -2367    -2216    -2016    -2232    -2886    -3064 
   -2582    -1883    -1661    -2251    -2841    -3005    -2862    -2270 
   -1719    -1741    -2155    -2701    -2880    -2479    -2099    -1934 
   -1954    -2466    -3041    -3002    -2351    -1780    -1946    -2299 
   -2397    -2596    -2648    -2254    -1876    -2133    -2631    -2579 
   -2430    -2363    -1952    -1831    -2169    -2357    -2474    -2440 
   -2212    -2331    -2673    -2737    -2570    -2359    -2320    -2560 
   -2859    -3022    -2673    -1736    -1293    -1782    -2270    -2515 
   -2577    -2111    -1665    -1796    -2176    -2538    -2691    -2508 
   -2076    -1502    -1117    -1370    -2111    -2766    -2918    -2509 
   -2273    -2493    -2369    -2092    -2350    -3041    -3694    -3593 
   -3110    -2817    -2150    -1587    -1814    -2405    -3244    -3707 
   -3114    -2209    -1684    -1540    -2020    -3110    -3727    -3152 
   -2285    -1912    -1598    -1355    -1788    -2228    -1956    -1875 
   -2413    -2859    -2968    -2856    -2477    -2026    -1622     -854 
    -135     -880    -2805    -3901    -3395    -2089    -1035    -1151 
   -2486    -4031    -4734    -3946    -2126    -1165    -2100    -3711 
   -4291    -3481    -1987     -454      310     -465    -1999    -2928 
   -3049    -2623    -2254    -2759    -3569    -3543    -2837    -2018 
   -1439    -1680    -2533    -2756    -2088    -1792    -2546    -3538 
   -3751    -2695     -823      263     -506    -2438    -4094    -4409 
   -3407    -2214    -1752    -2050    -2664    -3005    -2814    -2502 
   -2389    -2158    -1802    -1827    -1888    -1321     -986    -1800 
   -2814    -3002    -2558    -2020    -2037    -2895    -3770    -3570 
   -2513    -1925    -2025    -2019    -1867    -1621    -1406    -1707 
   -2268    -2721    -3044    -3082    -2639    -1624     -913    -1471 
   -2924    -4509    -5197    -4251    -2288     -206      712     -317 
   -1490    -1868    -2902    -3986    -3825    -3488    -3279    -2247 
   -1074     -972    -1424    -1879    -2932    -3881    -3516    -2562 
   -1836    -1439    -1833    -2928    -3754    -3620    -2740    -1545 
    -608     -972    -2180    -2739    -2679    -2110    -1183    -1298 
   -2539    -3640    -3869    -2990    -1858    -1651    -2242    -2875 
   -3067    -2624    -1682     -946    -1302    -2535    -3298    -3037 
   -2550    -2150    -1636    -1530    -2038    -2556    -2952    -3221 
   -2897    -2085    -1406    -1389    -2373    -3769    -4482    -3937 
   -2330     -645      106     -776    -2990    -4417    -3542    -1521 
    -499    -1174    -2903    -4619    -4548    -2531    -1062    -1192 
   -2030    -3110    -3692    -2925    -1260     -476    -1458    -2479 
   -2590    -2909    -2866    -1881    -1548    -2039    -2439    -3099 
   -3577    -2789    -1665    -1436    -1556    -1939    -3119    -3994 
   -3307    -2039    -1692    -1860    -2053    -2822    -3619    -3520 
   -2581    -1035      151     -132    -1371    -2498    -3122    -3454 
   -3781    -3524    -2610    -2176    -2403    -2651    -2542    -1944 
   -1327    -1077    -1221    -2065    -3385    -4125    -3869    -3048 
   -1790     -807    -1325    -2720    -3430    -3214    -2644    -2207 
   -2224    -2490    -2532    -2639    -2771    -2043    -1227    -1705 
   -2640    -3129    -3491    -3227    -1980     -909     -886    -1572 
   -2357    -2756    -2270    -1233     -932    -1370    -1607    -2161 
   -3361    -3987    -3643    -2971    -2088    -1426    -1995    -3385 
   -3920    -3445    -2876    -2026    -1121     -966    -1170    -1478 
   -2350    -3578    -4016    -3105    -2079    -1757    -1629    -1861 
   -2636    -3181    -3149    -2836    -2177    -1350    -1227    -1791 
   -2259    -2589    -2793    -2420    -1657    -1389    -1902    -2782 
   -3605    -3894    -3289    -2069    -1375    -1918    -2705    -3106 
   -3383    -2952    -2054    -1775    -1784    -1918    -2560    -2907 
   -2354    -1358     -696     -982    -1776    -2546    -3343    -3403 
   -2378    -1505    -1382    -1539    -1973    -2853    -3528    -3267 
   -2555    -2127    -1854    -2154    -3141    -3252    -2454    -2123 
   -1819    -1424    -2049    -3188    -3500    -3284    -3168    -2344 
   -1174    -1483    -2536    -2803    -2936    -2841    -1844    -1100 
   -1529    -2409    -2980    -3115    -2586    -1466     -970    -1715 
   -2763    -3415    -3515    -3060    -2506    -2084    -1738    -1652 
   -1809    -2114    -2578    -2984    -2984    -2490    -2079    -2308 
   -2593    -2258    -1794    -1717    -1865    -2097    -2312    -2486 
   -2756    -2918    -2766    -2412    -2080    -2137    -2506    -2616 
   -2497    -2432    -2224    -1969    -1971    -1957    -1903    -2346 
   -3006    -3119    -2794    -2328    -1794    -1744    -2509    -3483 
   -3936    -3572    -2471    -1236     -884    -1732    -2732    -2960 
   -2542    -1825    -1235    -1109    -1502    -2484    -3352    -3211 
   -2473    -1759    -1455    -2043    -2982    -3285    -2970    -2536 
   -2157    -1844    -1937    -2475    -2849    -2713    -2236    -1953 
   -2151    -2497    -2797    -2952    -2808    -2339    -1736    -1630 
   -2138    -2713    -3019    -2843    -2242    -1503    -1109    -1530 
   -2373    -3049    -3370    -3179    -2610    -2088    -1904    -2047 
   -2470    -2967    -2918    -2351    -1910    -1733    -1765    -2039 
   -2455    -2704    -2579    -2396    -2177    -1787    -1714    -1929 
   -1979    -2037    -2249    -2542    -2847    -2949    -2949    -2849 
   -2415    -2114    -2272    -2556    -2857    -2898    -2513    -2189 
   -2093    -2211    -2620    -2868    -2504    -1844    -1441    -1336 
   -1417    -1881    -2559    -2762    -2446    -2288    -2381    -2442 
   -2604    -2837    -2847    -2605    -2296    -2097    -1938    -1831 
   -2038    -2442    -2832    -3156    -3183    -2875    -2533    -2451 
   -2636    -2597    -2066    -1505    -1147     -940    -1105    -1587 
   -2189    -2737    -2924    -3048    -3404    -3504    -3103    -2373 
   -1691    -1638    -2115    -2662    -3110    -2852    -1777    -1221 
   -1763    -2390    -2569    -2551    -2322    -1972    -2019    -2679 
   -3442    -3667    -3361    -2853    -2401    -2313    -2619    -2863 
   -2664    -2231    -2029    -1933    -1642    -1339    -1131    -1051 
   -1281    -1624    -1745    -1710    -1834    -2253    -2593    -2679 
   -3029    -3489    -3368    -3005    -2760    -2424    -2376    -2668 
   -2736    -2504    -2096    -1810    -1942    -2235    -2539    -2797 
   -2814    -2712    -2517    -2153    -1950    -2106    -2242    -1989 
   -1529    -1275    -1359    -1719    -2295    -2832    -2925    -2768 
   -2965    -3316    -3218    -2795    -2455    -2293    -2532    -3115 
   -3284    -2853    -2338    -1782    -1163     -882    -1333    -2403 
   -3159    -2889    -2169    -1838    -2088    -2770    -3325    -3133 
   -2358    -1578    -1151    -1208    -1637    -2272    -2943    -3227 
   -2843    -2076    -1526    -1682    -2469    -3349    -3900    -3886 
   -3381    -2887    -2550    -2191    -2107    -2404    -2562    -2232 
   -1553    -1021    -1070    -1588    -2280    -2795    -2822    -2609 
   -2528    -2548    -2498    -2282    -2043    -1960    -2012    -2115 
   -2209    -2331    -2454    -2436    -2316    -2054    -1548    -1325 
   -1848    -2590    -3034    -3241    -3204    -2984    -2798    -2689 
   -2583    -2420    -2335    -2223    -1887    -1944    -2594    -3041 
   -3046    -2751    -2080    -1399    -1291    -1841    -2678    -3348 
   -3472    -2855    -1775     -843     -472     -812    -1721    -2652 
   -3125    -3098    -2760    -2340    -2049    -1892    -1804    -1925 
