Origin Time       2025/03/28 03:50:00
Lat.              35.403
Long.             140.360
Depth. (km)       54
Mag.              4.4
Station Code      CHBH17
Station Lat.      35.1714
Station Long.     140.3398
Station Height(m) 10
Record Time       2025/03/28 03:50:50
Sampling Freq(Hz) 100Hz
Duration Time(s)  120
Dir.              4
Scale Factor      7845(gal)/8223790
Max. Acc. (gal)   8.331
Last Correction   2025/03/28 03:50:50
Memo.             
[...]
   -2033    -2020    -2020    -2023    -2026    -2035    -2041    -2031 
   -2023    -2023    -2029    -2035    -2038    -2031    -2023    -2018 
   -2019    -2027    -2035    -2033    -2030    -2033    -2039    -2039 
   -2031    -2026    -2027    -2023    -2020    -2030    -2039    -2038 
   -2034    -2031    -2029    -2031    -2026    -2019    -2027    -2035 
   -2034    -2030    -2030    -2034    -2039    -2031    -2022    -2022 
   -2029    -2031    -2030    -2031    -2038    -2038    -2027    -2019 
   -2026    -2037    -2035    -2034    -2037    -2027    -2016    -2025 
   -2043    -2047    -2033    -2018    -2025    -2039    -2031    -2019 
   -2020    -2026    -2035    -2042    -2042    -2039    -2033    -2019 
   -2018    -2027    -2034    -2034    -2031    -2034    -2042    -2039 
   -2029    -2027    -2027    -2025    -2029    -2035    -2037    -2033 
   -2030    -2034    -2041    -2042    -2033    -2016    -2012    -2023 
   -2033    -2034    -2041    -2050    -2041    -2022    -2019    -2026 
   -2026    -2029    -2034    -2035    -2034    -2031    -2033    -2038 
   -2034    -2025    -2023    -2027    -2031    -2031    -2026    -2031 
   -2042    -2037    -2029    -2022    -2022    -2029    -2037    -2037 
   -2031    -2029    -2030    -2027    -2026    -2029    -2030    -2035 
   -2039    -2031    -2029    -2027    -2020    -2025    -2034    -2038 
   -2034    -2029    -2030    -2035    -2033    -2031    -2030    -2020 
   -2020    -2033    -2035    -2029    -2030    -2038    -2038    -2029 
   -2031    -2039    -2026    -2010    -2015    -2030    -2038    -2038 
   -2031    -2026    -2031    -2034    -2025    -2023    -2035    -2038 
   -2031    -2029    -2026    -2025    -2027    -2031    -2034    -2039 
   -2039    -2030    -2023    -2022    -2019    -2023    -2033    -2035 
   -2033    -2031    -2030    -2031    -2035    -2033    -2025    -2025 
   -2033    -2034    -2034    -2033    -2027    -2018    -2023    -2037 
   -2038    -2034    -2034    -2025    -2019    -2020    -2025    -2041 
   -2053    -2038    -2020    -2020    -2027    -2038    -2042    -2029 
   -2016    -2026    -2035    -2035    -2039    -2043    -2037    -2026 
   -2022    -2029    -2033    -2031    -2030    -2031    -2035    -2035 
   -2033    -2033    -2035    -2034    -2031    -2030    -2030    -2031 
   -2029    -2026    -2029    -2037    -2042    -2035    -2029    -2030 
   -2033    -2030    -2034    -2037    -2031    -2026    -2023    -2029 
   -2035    -2037    -2034    -2031    -2027    -2027    -2034    -2034 
   -2031    -2037    -2035    -2029    -2027    -2029    -2030    -2030 
   -2034    -2039    -2031    -2026    -2026    -2020    -2026    -2035 
   -2030    -2031    -2035    -2031    -2033    -2037    -2027    -2023 
   -2029    -2029    -2029    -2031    -2034    -2038    -2035    -2026 
   -2025    -2029    -2027    -2030    -2037    -2035    -2029    -2026 
   -2033    -2034    -2027    -2027    -2033    -2033    -2027    -2026 
   -2037    -2041    -2027    -2023    -2029    -2027    -2029    -2038 
   -2034    -2029    -2037    -2039    -2033    -2026    -2020    -2026 
   -2035    -2037    -2037    -2033    -2023    -2025    -2037    -2035 
   -2023    -2027    -2033    -2031    -2035    -2039    -2035    -2030 
   -2025    -2025    -2031    -2034    -2037    -2038    -2034    -2030 
   -2026    -2020    -2025    -2035    -2038    -2033    -2031    -2037 
   -2033    -2025    -2020    -2026    -2031    -2031    -2031    -2033 
   -2035    -2034    -2030    -2030    -2023    -2018    -2034    -2046 
   -2035    -2029    -2031    -2030    -2025    -2025    -2030    -2033 
   -2035    -2034    -2034    -2034    -2031    -2027    -2026    -2029 
   -2038    -2038    -2023    -2020    -2029    -2034    -2038    -2035 
   -2033    -2031    -2022    -2023    -2033    -2031    -2031    -2035 
   -2037    -2037    -2035    -2029    -2023    -2023    -2026    -2033 
   -2042    -2041    -2029    -2023    -2033    -2041    -2034    -2026 
   -2027    -2029    -2029    -2029    -2039    -2045    -2026    -2016 
   -2030    -2035    -2034    -2037    -2027    -2015    -2022    -2035 
   -2042    -2039    -2033    -2029    -2026    -2025    -2029    -2038 
   -2038    -2029    -2025    -2029    -2026    -2029    -2037    -2031 
   -2026    -2037    -2037    -2026    -2029    -2037    -2034    -2027 
   -2025    -2023    -2025    -2033    -2041    -2039    -2033    -2029 
   -2027    -2026    -2026    -2033    -2042    -2042    -2033    -2023 
   -2023    -2022    -2023    -2033    -2039    -2046    -2046    -2031 
   -2018    -2016    -2022    -2034    -2041    -2038    -2034    -2033 
   -2033    -2033    -2034    -2034    -2023    -2020    -2031    -2035 
   -2033    -2037    -2037    -2031    -2029    -2029    -2034    -2033 
   -2027    -2027    -2027    -2029    -2038    -2038    -2033    -2031 
   -2027    -2023    -2033    -2041    -2037    -2034    -2033    -2029 
   -2027    -2029    -2026    -2030    -2037    -2035    -2037    -2039 
   -2035    -2026    -2020    -2025    -2037    -2038    -2033    -2035 
   -2035    -2026    -2020    -2029    -2038    -2035    -2029    -2031 
   -2034    -2030    -2027    -2033    -2035    -2031    -2029    -2033 
   -2033    -2030    -2025    -2020    -2033    -2043    -2035    -2026 
   -2027    -2030    -2026    -2025    -2031    -2035    -2033    -2030 
   -2027    -2030    -2034    -2030    -2026    -2029    -2027    -2029 
   -2038    -2041    -2033    -2027    -2022    -2023    -2035    -2038 
   -2031    -2033    -2031    -2026    -2026    -2029    -2033    -2033 
   -2026    -2025    -2033    -2037    -2037    -2037    -2029    -2019 
   -2022    -2031    -2039    -2041    -2034    -2023    -2019    -2026 
   -2034    -2031    -2030    -2035    -2038    -2033    -2030    -2033 
   -2029    -2022    -2027    -2035    -2041    -2042    -2030    -2018 
   -2018    -2027    -2038    -2043    -2042    -2035    -2029    -2023 
   -2026    -2034    -2035    -2030    -2031    -2037    -2034    -2026 
   -2029    -2035    -2029    -2025    -2033    -2035    -2029    -2023 
   -2029    -2042    -2038    -2026    -2029    -2033    -2025    -2025 
   -2030    -2030    -2034    -2037    -2030    -2027    -2029    -2026 
   -2026    -2027    -2035    -2039    -2031    -2022    -2022    -2026 
   -2030    -2037    -2037    -2031    -2025    -2020    -2025    -2033 
   -2035    -2035    -2033    -2029    -2027    -2029    -2029    -2029 
   -2029    -2033    -2038    -2035    -2026    -2020    -2020    -2031 
   -2043    -2037    -2025    -2025    -2030    -2035    -2042    -2037 
   -2023    -2022    -2026    -2027    -2037    -2042    -2035    -2026 
   -2026    -2033    -2031    -2025    -2033    -2037    -2025    -2023 
   -2035    -2037    -2023    -2025    -2042    -2046    -2029    -2019 
   -2023    -2030    -2037    -2043    -2041    -2030    -2022    -2020 
   -2023    -2033    -2041    -2035    -2029    -2031    -2033    -2026 
   -2022    -2030    -2038    -2031    -2025    -2033    -2037    -2034 
   -2029    -2027    -2031    -2030    -2027    -2030    -2033    -2033 
   -2033    -2030    -2027    -2025    -2027    -2037    -2039    -2038 
   -2035    -2031    -2027    -2026    -2029    -2033    -2037    -2038 
   -2033    -2025    -2027    -2033    -2031    -2030    -2031    -2031 
   -2030    -2030    -2033    -2031    -2019    -2011    -2022    -2043 
   -2046    -2033    -2047    -2103    -2126    -2049    -1950    -1925 
   -1925    -1914    -1926    -1965    -2011    -2096    -2334    -2589 
   -2416    -1976    -1998    -2276    -1984    -1355    -1181    -1433 
   -1625    -1779    -2354    -3129    -3105    -2307    -1975    -2274 
   -2096    -1323    -1167    -1854    -2089    -1483    -1359    -2403 
   -3337    -2921    -1958    -1831    -2146    -1644     -766    -1077 
   -2339    -2914    -2558    -2280    -2601    -3053    -2640    -1332 
    -608    -1317    -2131    -1678    -1128    -1935    -2818    -2393 
   -1846    -2596    -3707    -3281    -1664     -831    -1143    -1520 
   -1378    -1213    -1979    -3206    -3226    -1910     -957    -1505 
   -2563    -2592    -2124    -2285    -2484    -2130    -1564    -1074 
   -1327    -2581    -3397    -2799    -1853    -1553    -1489    -1209 
   -1221    -2047    -2995    -3024    -2382    -1999    -2018    -1965 
   -1695    -1591    -2010    -2578    -2342    -1177     -402    -1183 
   -2778    -3281    -2421    -1871    -2347    -2760    -2196    -1301 
   -1433    -2343    -2380    -1563    -1459    -2297    -2874    -2551 
   -1965    -1723    -1530    -1360    -1690    -2278    -2636    -2743 
   -2413    -1651    -1237    -1595    -2091    -2286    -2490    -2686 
   -2301    -1422    -1151    -1911    -2469    -2088    -1779    -2216 
   -2506    -1890    -1167    -1372    -2141    -2583    -2695    -2945 
   -3005    -2196    -1209    -1159    -1548    -1548    -1528    -1922 
   -2392    -2470    -2126    -1825    -2097    -2709    -2731    -1993 
   -1537    -1722    -1718    -1586    -2103    -2783    -2705    -2104 
   -1702    -1734    -1915    -1761    -1512    -1881    -2573    -2624 
   -1935    -1374    -1659    -2238    -2219    -2158    -2650    -2728 
   -1993    -1570    -1745    -1611    -1105    -1166    -2062    -3001 
   -3326    -3037    -2390    -1787    -1476    -1360    -1449    -1749 
   -2060    -2254    -2305    -2297    -2255    -2010    -1671    -1625 
   -1864    -2002    -1786    -1524    -1840    -2465    -2538    -2303 
   -2515    -2749    -2261    -1545    -1422    -1495    -1359    -1744 
   -2717    -3057    -2516    -2065    -2029    -2014    -1822    -1620 
   -1648    -1848    -1966    -1957    -2089    -2538    -2845    -2565 
   -2180    -2169    -1902    -1000     -433     -954    -1898    -2350 
   -2516    -2898    -3073    -2559    -1736    -1301    -1513    -1888 
   -2068    -2457    -3046    -3052    -2367    -1733    -1432    -1128 
    -853    -1128    -2103    -3064    -3132    -2586    -2328    -2018 
   -1017     -340    -1070    -2369    -2964    -2890    -2805    -2787 
   -2392    -1629    -1156    -1343    -1863    -2150    -2026    -1908 
   -2077    -2301    -2455    -2535    -2367    -1958    -1602    -1526 
   -1588    -1408    -1177    -1638    -2592    -2941    -2587    -2459 
   -2579    -2124    -1382    -1591    -2582    -2729    -1826    -1443 
   -1869    -1892    -1543    -1945    -2921    -3091    -2155    -1312 
   -1148    -1120    -1169    -1692    -2488    -2964    -2845    -2315 
   -1717    -1509    -1969    -2450    -2316    -2188    -2421    -2347 
   -2027    -2130    -2293    -1848    -1286    -1432    -2018    -2245 
   -2068    -2060    -2309    -2223    -1656    -1321    -1607    -2068 
   -2409    -2772    -2991    -2668    -1854    -1104    -1043    -1584 
   -1939    -2054    -2482    -2760    -2161    -1290    -1231    -2030 
   -2722    -2758    -2586    -2404    -1819    -1112    -1061    -1709 
   -2465    -2824    -2617    -2193    -2065    -1968    -1324     -811 
   -1497    -2768    -3294    -2864    -2062    -1462    -1348    -1521 
   -1821    -2218    -2286    -2006    -2014    -2223    -2108    -2004 
   -2320    -2617    -2334    -1566     -943     -999    -1723    -2573 
   -2995    -3011    -2794    -2192    -1327     -934    -1432    -2020 
   -1903    -1710    -2134    -2697    -2841    -2631    -2411    -2185 
   -1659    -1182    -1300    -1745    -2160    -2589    -2833    -2489 
   -1875    -1672    -1634    -1397    -1536    -2205    -2741    -2929 
   -2903    -2581    -1860     -934     -400     -768    -1718    -2577 
   -3167    -3493    -3269    -2349    -1228     -649     -722    -1162 
   -2002    -2987    -3283    -2870    -2548    -2297    -1765    -1352 
   -1208    -1138    -1466    -2108    -2404    -2431    -2613    -2687 
   -2359    -2108    -2187    -1941    -1247     -839     -976    -1525 
   -2494    -3420    -3433    -2389    -1239     -996    -1598    -2313 
   -2733    -2741    -2471    -2145    -1883    -1993    -2250    -1911 
   -1401    -1575    -1922    -1717    -1476    -1944    -2671    -2670 
   -2037    -1678    -1809    -1898    -1665    -1556    -2007    -2579 
   -2664    -2346    -1929    -1692    -1864    -2289    -2613    -2511 
   -1956    -1444    -1462    -1875    -2118    -2095    -2272    -2492 
   -2265    -1895    -1831    -1980    -2054    -1998    -2153    -2488 
   -2311    -1605    -1269    -1749    -2496    -2656    -2160    -1756 
   -1798    -1938    -1937    -1954    -2265    -2718    -2731    -2185 
   -1763    -1917    -1907    -1169     -804    -1540    -2205    -2014 
   -1884    -2538    -3071    -2621    -2064    -2255    -2412    -1848 
   -1212    -1111    -1239    -1279    -1410    -1973    -2988    -3767 
   -3584    -2767    -2054    -1377     -611     -537    -1512    -2525 
   -2890    -3005    -3083    -2976    -2569    -1773    -1004     -753 
    -778     -810    -1165    -1941    -2608    -2749    -2670    -2675 
   -2432    -1946    -1794    -1879    -1756    -1674    -1860    -2046 
   -2253    -2610    -2628    -1912    -1185    -1393    -2200    -2706 
   -2905    -3153    -3352    -3258    -2791    -2254    -2301    -2988 
   -3211    -2052      -94     1659     3028     3739     2911      334 
   -2914    -5759    -7959    -9181    -8694    -6542    -3667     -857 
    1275     2146     1792      584    -1057    -2168    -1833     -240 
    1775     3802     5478     5405     2528    -1926    -5988    -8995 
  -10764   -10552    -7759    -3106     1382     4047     4504     2984 
     302    -2374    -4548    -6045    -6536    -6309    -6234    -6534 
   -6463    -5705    -4959    -4664    -4618    -4707    -4714    -4140 
   -2805    -1144        2       98     -345     -382      299     1379 
    2288     2565     2141      926    -1093    -2933    -3080    -1219 
    1431     3208     2841      175    -3441    -6426    -7989    -7711 
   -5764    -3291    -1339     -184        1     -957    -2506    -3784 
   -4465    -4384    -3361    -1726     -315       56     -560    -1289 
   -1732    -2178    -2528    -2177    -1034     -307    -1198    -2943 
   -4279    -5296    -5873    -5016    -2478      842     3613     4737 
    3778      857    -3199    -6690    -7898    -6251    -2894      135 
    1638     1429     -325    -2754    -4594    -5279    -4966    -4109 
   -3072    -1850     -720     -446    -1225    -2261    -2532    -1742 
    -565       40     -291    -1267    -2481    -3623    -4486    -5030 
   -5104    -4255    -2347      -75     1772     2789     2455      580 
   -1890    -3662    -4135    -3275    -1453      322      889      -22 
   -1696    -3260    -4399    -5360    -6164    -6393    -5802    -4471 
   -2922    -1977    -1790    -1750    -1499    -1070     -633     -588 
   -1046    -1552    -1910    -2268    -2404    -1865     -575     1044 
    2255     2215      611    -1873    -4293    -5971    -6146    -4517 
   -2025     -149      286     -525    -1881    -3257    -4318    -4691 
   -4270    -3325    -2029     -530      538      483     -693    -2405 
   -3832    -4306    -3902    -3069    -2038    -1080     -488     -260 
    -278     -579    -1256    -2053    -2336    -1925    -1493    -1683 
   -2304    -2856    -3234    -3622    -4070    -4170    -3362    -1853 
    -491      284      554      263     -753    -2118    -2984    -3076 
   -2963    -3052    -3022    -2524    -1713     -928     -737    -1649 
   -3126    -4214    -4604    -4102    -2623     -880      141      237 
    -114     -727    -1782    -3030    -3782    -3550    -2373     -855 
     129      143     -533    -1472    -2686    -3951    -4398    -3804 
   -2952    -2288    -1744    -1460    -1613    -2049    -2338    -2160 
   -1683    -1139     -615     -533    -1236    -2270    -2716    -2253 
   -1665    -1684    -1992    -2139    -2286    -2691    -3319    -3802 
   -3727    -3159    -2482    -1975    -1810    -2042    -2479    -2694 
   -2432    -2041    -1888    -1714    -1377    -1343    -1836    -2413 
   -2670    -2710    -2662    -2232    -1352     -550     -271     -419 
    -803    -1470    -2290    -2709    -2516    -2238    -2145    -1873 
   -1422    -1363    -1885    -2401    -2216    -1458    -1026    -1356 
   -1952    -2359    -2627    -2694    -2324    -1672    -1310    -1491 
   -1777    -1741    -1578    -1683    -2018    -2297    -2485    -2554 
   -2269    -1772    -1653    -2170    -2898    -3164    -2895    -2687 
   -2817    -2988    -3083    -3256    -3406    -3040    -1884     -450 
     437      534      171     -410    -1287    -2393    -3245    -3441 
   -3057    -2255    -1142     -244     -251    -1267    -2835    -4338 
   -5287    -5391    -4564    -3095    -1524     -243      383       56 
    -965    -2064    -2879    -3223    -2812    -1615     -322      261 
      68     -633    -1722    -2779    -3219    -2997    -2455    -1841 
   -1449    -1674    -2371    -2925    -3159    -3226    -2974    -2374 
   -1771    -1462    -1543    -1813    -1980    -2070    -2127    -2045 
   -1988    -2209    -2513    -2506    -2219    -2042    -2058    -1939 
   -1593    -1375    -1479    -1651    -1606    -1414    -1426    -1817 
   -2326    -2659    -2863    -3005    -2910    -2531    -2197    -2212 
   -2435    -2502    -2308    -2053    -1918    -1848    -1711    -1590 
   -1576    -1534    -1447    -1506    -1710    -1896    -1998    -2011 
   -2023    -2188    -2512    -2698    -2463    -1988    -1665    -1588 
   -1672    -1915    -2266    -2459    -2263    -1709    -1082     -800 
    -997    -1360    -1624    -1760    -1826    -1957    -2169    -2290 
   -2223    -2012    -1814    -1807    -1992    -2241    -2440    -2570 
   -2760    -3067    -3256    -3055    -2624    -2417    -2516    -2612 
   -2579    -2548    -2596    -2570    -2216    -1528     -865     -603 
    -746    -1008    -1336    -1892    -2467    -2651    -2529    -2477 
   -2554    -2606    -2548    -2300    -1925    -1679    -1597    -1543 
   -1598    -1780    -1830    -1757    -1892    -2239    -2436    -2277 
   -1849    -1393    -1162    -1210    -1340    -1425    -1572    -1821 
   -2026    -2138    -2131    -1973    -1930    -2309    -2916    -3265 
   -3163    -2752    -2254    -1890    -1813    -1860    -1800    -1818 
   -2085    -2324    -2312    -2120    -1795    -1383    -1148    -1341 
   -1800    -2207    -2523    -2776    -2809    -2536    -2087    -1667 
   -1437    -1513    -1910    -2388    -2648    -2601    -2228    -1609 
   -1044     -861    -1146    -1732    -2374    -2864    -3025    -2830 
   -2457    -2131    -2052    -2235    -2397    -2324    -2114    -1850 
   -1464     -947     -537     -545     -939    -1464    -2043    -2648 
   -3115    -3254    -2986    -2431    -1903    -1734    -2022    -2539 
   -2974    -3142    -2979    -2589    -2211    -1965    -1852    -1925 
   -2239    -2639    -2762    -2425    -1857    -1340    -1017     -958 
   -1098    -1360    -1665    -1779    -1628    -1441    -1383    -1482 
   -1701    -1995    -2398    -2856    -3188    -3277    -3022    -2366 
   -1520     -908     -820    -1196    -1814    -2401    -2640    -2450 
   -1999    -1447    -1030     -966    -1188    -1570    -2077    -2606 
   -3013    -3240    -3238    -2924    -2338    -1742    -1410    -1390 
   -1625    -2104    -2733    -3188    -3192    -2754    -2004    -1175 
