Origin Time       2025/03/28 03:50:00
Lat.              35.403
Long.             140.360
Depth. (km)       54
Mag.              4.4
Station Code      CHBH10
Station Lat.      35.5458
Station Long.     140.2417
Station Height(m) -1935
Record Time       2025/03/28 03:50:47
Sampling Freq(Hz) 100Hz
Duration Time(s)  120
Dir.              1
Scale Factor      2942(gal)/8224139
Max. Acc. (gal)   1.388
Last Correction   2025/03/28 03:50:47
Memo.             
[...]
  135415   135414   135415   135415   135414   135415   135414   135413 
  135414   135415   135417   135418   135418   135417   135417   135415 
  135414   135411   135413   135415   135415   135415   135417   135414 
  135413   135415   135415   135414   135414   135415   135414   135414 
  135417   135418   135417   135417   135415   135417   135418   135415 
  135414   135415   135413   135413   135415   135417   135415   135415 
  135418   135419   135417   135417   135417   135414   135414   135415 
  135418   135418   135417   135417   135418   135418   135417   135414 
  135414   135417   135418   135417   135417   135415   135417   135417 
  135415   135417   135417   135415   135417   135418   135415   135413 
  135415   135418   135415   135414   135417   135417   135415   135414 
  135414   135417   135417   135417   135417   135415   135414   135414 
  135414   135414   135414   135411   135413   135415   135413   135413 
  135414   135413   135413   135417   135418   135413   135411   135414 
  135415   135414   135414   135414   135415   135415   135415   135415 
  135414   135415   135415   135413   135411   135413   135414   135414 
  135414   135413   135409   135411   135415   135414   135413   135415 
  135415   135415   135417   135414   135413   135414   135414   135415 
  135415   135417   135414   135414   135414   135411   135411   135414 
  135415   135414   135415   135417   135414   135411   135411   135413 
  135414   135413   135414   135417   135415   135414   135414   135417 
  135418   135418   135415   135417   135418   135417   135414   135415 
  135415   135414   135415   135415   135414   135414   135417   135418 
  135417   135414   135417   135418   135415   135414   135417   135415 
  135413   135414   135415   135414   135414   135415   135417   135415 
  135415   135418   135417   135413   135413   135415   135414   135414 
  135414   135415   135414   135413   135414   135417   135413   135411 
  135414   135413   135411   135414   135413   135413   135415   135414 
  135413   135413   135413   135415   135415   135413   135414   135415 
  135411   135410   135413   135414   135415   135411   135411   135411 
  135410   135410   135415   135418   135415   135414   135414   135414 
  135414   135415   135414   135414   135413   135413   135413   135414 
  135414   135413   135415   135415   135413   135414   135414   135414 
  135417   135415   135415   135418   135417   135413   135411   135415 
  135417   135417   135417   135415   135415   135417   135417   135414 
  135413   135415   135414   135411   135414   135418   135414   135413 
  135419   135418   135415   135417   135415   135415   135418   135415 
  135414   135417   135417   135415   135417   135418   135417   135417 
  135417   135417   135414   135413   135418   135419   135417   135415 
  135415   135417   135418   135419   135418   135417   135417   135415 
  135414   135415   135414   135413   135417   135417   135415   135417 
  135415   135417   135415   135413   135413   135415   135415   135417 
  135415   135414   135415   135417   135418   135417   135415   135415 
  135415   135414   135417   135417   135415   135415   135414   135414 
  135417   135415   135414   135418   135417   135414   135417   135415 
  135414   135415   135415   135414   135417   135418   135414   135411 
  135413   135414   135414   135415   135417   135418   135415   135415 
  135415   135414   135413   135414   135417   135417   135415   135418 
  135419   135417   135415   135417   135415   135411   135411   135415 
  135419   135419   135417   135418   135417   135414   135417   135417 
  135414   135414   135417   135417   135415   135414   135414   135417 
  135418   135414   135415   135415   135413   135414   135415   135415 
  135414   135414   135413   135411   135414   135415   135413   135414 
  135415   135415   135414   135413   135413   135411   135409   135413 
  135415   135410   135410   135417   135419   135414   135414   135415 
  135415   135415   135415   135411   135411   135411   135411   135413 
  135417   135417   135415   135415   135415   135415   135415   135414 
  135413   135413   135415   135417   135415   135414   135417   135418 
  135415   135415   135417   135415   135415   135417   135417   135418 
  135418   135415   135415   135418   135415   135413   135415   135417 
  135417   135417   135414   135415   135417   135414   135414   135417 
  135414   135414   135417   135417   135414   135413   135413   135415 
  135415   135414   135414   135414   135414   135414   135411   135411 
  135414   135415   135415   135415   135414   135413   135417   135417 
  135414   135415   135417   135415   135414   135413   135414   135414 
  135413   135414   135417   135418   135417   135415   135415   135415 
  135417   135418   135415   135411   135414   135415   135414   135415 
  135415   135414   135414   135415   135415   135415   135415   135415 
  135415   135415   135415   135414   135414   135415   135417   135414 
  135414   135417   135418   135419   135417   135414   135413   135414 
  135415   135418   135417   135415   135415   135415   135414   135414 
  135417   135418   135418   135417   135417   135417   135415   135415 
  135417   135417   135417   135417   135415   135415   135417   135418 
  135418   135418   135415   135414   135413   135414   135417   135415 
  135417   135418   135417   135417   135417   135415   135415   135418 
  135417   135417   135417   135414   135415   135418   135415   135411 
  135417   135419   135417   135415   135415   135415   135415   135415 
  135417   135417   135417   135421   135425   135427   135432   135436 
  135436   135432   135432   135432   135434   135440   135436   135414 
  135373   135318   135299   135353   135429   135488   135519   135486 
  135436   135429   135413   135387   135384   135332   135282   135341 
  135373   135346   135423   135490   135432   135449   135525   135463 
  135407   135452   135421   135398   135471   135445   135415   135502 
  135506   135481   135533   135477   135342   135303   135291   135271 
  135356   135454   135427   135436   135548   135544   135417   135330 
  135280   135275   135333   135353   135309   135298   135334   135340 
  135399   135498   135475   135421   135448   135537   135587   135480 
  135373   135306   135202   135321   135531   135504   135522   135645 
  135522   135394   135608   135724   135546   135433   135295   135222 
  135380   135425   135388   135471   135571   135515   135342   135338 
  135430   135414   135330   135243   135230   135201   135124   135216 
  135313   135283   135418   135564   135459   135342   135414   135550 
  135445   135322   135442   135295   135109   135379   135461   135364 
  135625   135793   135672   135616   135708   135831   135727   135461 
  135409   135491   135527   135467   135291   135353   135481   135237 
  135264   135638   135425   134913   134973   135330   135384   135220 
  135157   135267   135384   135391   135425   135456   135359   135352 
  135475   135461   135333   135247   135294   135442   135364   135170 
  135429   135846   135737   135575   135783   135607   135172   135434 
  135742   135457   135342   135345   135112   135113   135426   135633 
  135545   135577   135777   135556   135324   135310   135005   135058 
  135622   135722   135612   135758   135668   135415   135427   135332 
  134989   135036   135333   135148   134725   134688   135201   135926 
  136179   135938   135657   135418   135214   135162   135342   135592 
  135530   135292   135353   135382   135128   135149   135346   135256 
  135290   135525   135384   135238   135594   135874   135847   135778 
  135607   135556   135619   135569   135511   135402   135441   135471 
  135120   135054   135240   135059   135209   135711   135626   135491 
  135577   135226   135081   135496   135714   135537   135230   135090 
  135148   135355   135608   135631   135641   135718   135500   135109 
  135074   135429   135437   135005   135024   135592   135810   135326 
  134719   134670   135265   135676   135635   135911   136038   135515 
  135272   135217   135074   135567   136081   135824   135677   135880 
  135727   135376   135078   135047   135544   135787   135464   135209 
  135315   135622   135530   135390   135795   135718   134967   134716 
  134962   135114   135122   135009   134998   135159   135355   135560 
  135646   135841   136011   135581   135298   135687   135483   134767 
  135175   136085   136028   135552   135326   135152   135244   135492 
  135365   135183   135137   135189   135467   135542   135495   135441 
  135041   135109   135801   135858   135513   135558   135591   135486 
  135334   135083   135222   135696   135768   135444   135116   135136 
  135730   136189   135814   135036   134678   135132   135603   135395 
  135184   135136   135121   135500   135661   135243   135108   135564 
  135942   135558   134921   135171   135642   135309   135151   135629 
  135967   135977   135544   135014   135167   135421   135180   135174 
  135450   135441   135522   135774   135561   135280   135418   135552 
  135616   135519   135396   135765   135919   135500   135198   134852 
  134477   134693   135152   135440   135750   135911   135712   135297 
  135033   134968   134931   135079   135270   135495   135845   135951 
  135835   135580   135252   135145   135240   135423   135688   135939 
  135958   135699   135625   135783   135567   135068   134802   134952 
  135507   135913   135939   136003   135756   135116   134998   135454 
  135791   135552   134852   134612   134877   134920   135110   135625 
  135949   135962   135502   135000   135031   135043   134929   134824 
  134519   134717   135515   136098   136389   136341   136175   136142 
  135672   135191   135319   135430   135392   135410   135378   135394 
  135388   135290   135332   135738   136112   135851   135534   135405 
  134939   134798   135090   134983   134835   135086   135261   135128 
  135112   135317   135376   135329   135425   135783   136066   135805 
  135604   135818   135764   135596   135722   135842   135915   135878 
  135480   135040   135021   135129   134801   134464   135016   135878 
  135857   135548   135656   135591   135614   135953   135629   134923 
  134781   134951   135359   135874   135864   135764   135641   134998 
  134890   135545   135796   135606   135191   134599   134437   134750 
  134979   135140   135237   134947   134474   134175   134104   134087 
  133891   133942   134605   135510   136287   136320   135480   134905 
  134912   135091   135897   137131   137817   138078   138071   137195 
  135822   134970   135082   136024   136636   135958   135009   134836 
  134773   134249   133969   134338   134613   134550   134840   135384 
  135795   136277   136756   136919   136190   134805   134391   135218 
  136497   137776   138188   137519   136193   135120   135666   136578 
  135851   134920   134944   134454   133497   133799   134877   134898 
  134346   134974   136485   136944   135769   134416   133990   134125 
  134172   134424   135359   135838   135135   134604   135205   136925 
  138389   137137   134401   133523   133617   133523   134962   136696 
  136089   134800   134740   134640   134311   135298   136344   135626 
  135777   137416   136302   133720   134369   136393   136651   136231 
  136189   136136   135845   135518   135153   134752   135129   135661 
  135267   135533   136568   136476   135733   135483   135621   135264 
  134218   134115   135191   135656   135278   135287   135718   135459 
  134665   134268   134149   134588   135684   136301   136212   135766 
  135367   135719   136094   136200   136894   136811   135099   134126 
  134874   135244   134061   132675   132636   133907   135141   135610 
  135777   135668   135753   136360   135562   133668   133681   134811 
  135118   135664   136179   135504   135180   136092   136792   136718 
  136281   135604   135197   135364   135699   135828   135398   134558 
  134131   134368   135147   136366   137154   136737   135828   135338 
  135328   136193   137357   137023   136215   136429   135903   134792 
  135484   136622   135996   135184   135762   136663   136561   135598 
  135206   135823   136070   135805   136132   136636   136459   135795 
  135151   135394   136210   135737   134547   134582   135157   135076 
  134910   135292   135237   134153   133510   133647   133510   133439 
  133814   134055   134090   134457   135220   135891   136174   135939 
  135365   135000   134686   134010   133570   133706   134009   134943 
  136620   137451   136703   135382   134416   134401   135287   135912 
  135814   135893   136412   136409   135468   135010   136128   137201 
  136796   135793   134978   134935   136194   137440   137436   136810 
  136020   135108   134770   135153   135600   136062   136590   136474 
  135441   134400   133964   133860   134248   135307   136119   135753 
  134789   134632   135487   136418   136783   136507   136026   135450 
  134312   133116   132680   132646   132823   133779   135567   137354 
  138126   137573   136111   134230   132571   132166   133272   134713 
  135766   136621   136837   136043   135252   135703   136957   137585 
  137546   137504   137270   136656   135660   134532   134010   134172 
  134326   134173   133996   134021   134125   134107   134387   135585 
  137045   137866   138240   138187   137652   137220   137164   137089 
  136522   135643   134743   133213   131534   131561   133061   134370 
  135091   135179   134740   134765   135742   136911   137340   136645 
  135349   134817   135356   135541   134932   134499   134437   134507 
  134777   135021   135210   135508   135486   135415   135966   136061 
  135292   135326   136321   136927   136840   136370   135923   135770 
  135426   135018   135494   136206   136031   135693   135804   135457 
  134465   134090   134717   135361   135510   135390   135299   135268 
  135101   134893   134896   135363   136034   136139   135800   135383 
  134720   134176   134082   134277   134743   135179   135340   135589 
  135866   135859   136080   136651   136723   136209   136074   136443 
  136368   135702   135008   134557   134376   134210   134268   134804 
  135082   134939   135036   135390   135642   135770   136100   136360 
  135835   135184   135233   135193   134797   134923   135425   135662 
  135761   135800   135811   135994   136094   135950   135816   135642 
  135017   134025   133729   134559   135503   135953   136117   136038 
  135808   135683   135684   135662   135530   135394   135450   135668 
  135588   134977   134561   134968   135567   135653   135217   134354 
  133936   134832   135977   136119   135712   135618   136035   136605 
  136871   136691   136183   135679   135340   135051   135022   135224 
  134947   134148   133577   133542   133794   134185   134827   135491 
  135835   136178   136833   137423   137470   137033   136456   135899 
  135531   135446   135415   135313   135074   134488   133736   133373 
  133586   134187   134862   135243   135205   134917   134819   135272 
  135796   135683   135075   134497   134356   134746   135271   135602 
  135606   135436   135526   135621   135454   135599   136035   136271 
  136491   136644   136289   135804   135907   136355   136422   136043 
  135606   135351   135228   135241   135693   136470   136833   136363 
  135430   134794   134704   134859   135218   135558   135307   134728 
  134636   134963   135202   135604   136429   137134   137344   137269 
  136996   136447   135849   135657   135851   135834   135322   134666 
  134285   134137   133979   133898   134131   134711   135274   135274 
  134748   134362   134485   134928   135305   135314   134997   134740 
  134825   135021   135130   135456   136084   136640   136740   136269 
  135615   135222   135062   134943   134815   134824   135120   135463 
  135448   135186   135243   135738   136360   136817   136728   136140 
  135599   135268   135000   134657   134149   133741   133942   134906 
  136142   136984   137204   136912   136453   136308   136507   136580 
  136050   135071   134424   134418   134604   134531   134177   134091 
  134612   135098   134836   134287   134481   135272   135591   135321 
  135103   135125   135299   135529   135643   135669   135859   136121 
  135935   135540   135616   135727   135413   135210   135260   135182 
  135000   135010   135344   135770   136019   136000   135599   135010 
  134650   134566   134686   134943   135249   135629   135899   136082 
  136394   136377   135939   135797   135726   135091   134469   134491 
  134751   134751   134576   134553   134856   135488   136231   136763 
  137130   137289   136830   136101   135935   136235   136414   136316 
  135982   135604   135548   135673   135560   135346   135162   134974 
  135178   135666   135734   135321   134909   134870   135206   135580 
  135865   136136   136194   136039   136004   136017   135847   135569 
  135282   135029   134820   134693   134817   135056   135071   134886 
  134504   133899   133587   133806   134023   133980   133987   134275 
  134709   134943   135004   135290   135731   135805   135363   134867 
  134817   135171   135540   135735   135822   135832   135677   135325 
  134952   134770   134844   135257   135865   136075   135675   135245 
  135172   135176   135172   135407   135735   135907   136196   136738 
  137122   137127   137077   137220   137300   137020   136483   135905 
  135545   135603   135839   136007   136219   136302   135953   135379 
  134863   134423   134129   134154   134465   134732   134827   134998 
  135341   135666   135820   135783   135561   135209   134854   134530 
  134298   134311   134516   134719   134778   134593   134225   133878 
  133726   133876   134272   134777   135328   135795   136061   136233 
  136359   136355   136260   136165   136090   136066   136005   135827 
  135784   136028   136194   136065   135891   135876   135882   135658 
  135278   135028   134973   135024   135145   135399   135796   136120 
  136248   136286   136225   136082   136063   136181   136223   136138 
  135862   135229   134437   133857   133490   133263   133235   133394 
  133884   134732   135398   135529   135425   135294   135126   135089 
  135340   135720   135909   135886   135841   135818   135811   135783 
  135652   135450   135279   135171   135075   135067   135314   135791 
  136374   136896   137089   136946   136717   136412   136040   135850 
  135749   135367   134816   134505   134509   134730   135075   135342 
  135440   135341   134885   134307   134210   134717   135441   136059 
  136420   136401   136030   135546   135176   134960   134882   134860 
  134750   134662   134794   134956   135067   135464   136027   136204 
  136098   136128   136119   135918   135733   135517   135105   134562 
  134088   133834   133789   133895   134080   134310   134723   135220 
  135548   135792   136046   136291   136617   136973   137099   136865 
  136437   136020   135724   135677   135838   135961   136015   136082 
  136038   135781   135441   135157   134920   134761   134763   134873 
  134974   135033   135093   135108   135078   135201   135514   135854 
  136084   136121   136031   135834   135483   135203   135141   135091 
