Origin Time       2025/03/28 03:50:00
Lat.              35.403
Long.             140.360
Depth. (km)       54
Mag.              4.4
Station Code      CHBH13
Station Lat.      35.8307
Station Long.     140.2980
Station Height(m) -1288
Record Time       2025/03/28 03:50:51
Sampling Freq(Hz) 100Hz
Duration Time(s)  120
Dir.              1
Scale Factor      2942(gal)/8224139
Max. Acc. (gal)   0.810
Last Correction   2025/03/28 03:50:51
Memo.             
[...]
   85904    85905    85905    85905    85905    85907    85907    85905 
   85905    85905    85904    85904    85904    85905    85905    85904 
   85904    85904    85905    85907    85905    85907    85908    85905 
   85904    85905    85907    85905    85903    85904    85905    85905 
   85905    85904    85904    85905    85905    85904    85907    85908 
   85905    85904    85904    85907    85905    85905    85904    85905 
   85907    85905    85904    85905    85904    85904    85907    85907 
   85907    85905    85904    85903    85904    85903    85901    85905 
   85909    85908    85903    85903    85904    85904    85904    85904 
   85903    85905    85907    85905    85905    85905    85904    85905 
   85907    85905    85905    85907    85903    85903    85905    85907 
   85905    85903    85905    85904    85903    85905    85907    85905 
   85905    85905    85905    85905    85904    85905    85905    85904 
   85905    85907    85904    85904    85905    85905    85907    85907 
   85905    85905    85905    85907    85905    85907    85908    85907 
   85907    85907    85907    85905    85901    85904    85905    85904 
   85904    85905    85905    85904    85904    85907    85908    85907 
   85908    85908    85907    85905    85905    85905    85904    85904 
   85905    85905    85903    85905    85905    85904    85907    85908 
   85907    85905    85905    85907    85904    85904    85907    85907 
   85905    85905    85904    85905    85905    85904    85905    85905 
   85904    85905    85904    85904    85908    85908    85905    85905 
   85905    85904    85907    85905    85904    85904    85905    85905 
   85904    85905    85903    85903    85907    85907    85903    85904 
   85907    85904    85904    85907    85905    85904    85905    85904 
   85903    85905    85907    85907    85907    85905    85907    85908 
   85907    85907    85907    85907    85905    85905    85903    85901 
   85904    85905    85904    85904    85905    85907    85905    85903 
   85905    85908    85907    85907    85907    85905    85905    85907 
   85904    85903    85904    85905    85907    85907    85907    85904 
   85905    85907    85905    85905    85905    85905    85905    85905 
   85905    85904    85905    85908    85905    85904    85904    85905 
   85905    85904    85904    85907    85905    85904    85904    85904 
   85904    85907    85907    85904    85904    85904    85904    85907 
   85905    85904    85905    85905    85904    85904    85905    85905 
   85905    85905    85904    85904    85905    85907    85905    85905 
   85905    85907    85908    85907    85904    85904    85904    85904 
   85904    85904    85904    85905    85905    85903    85901    85903 
   85905    85907    85904    85904    85905    85905    85907    85905 
   85904    85907    85907    85903    85904    85905    85904    85905 
   85905    85907    85905    85901    85903    85904    85904    85905 
   85904    85904    85904    85904    85904    85904    85903    85903 
   85905    85905    85904    85905    85907    85905    85905    85903 
   85904    85907    85905    85907    85905    85903    85903    85905 
   85905    85905    85904    85905    85908    85907    85905    85904 
   85903    85904    85904    85907    85907    85904    85903    85905 
   85905    85905    85905    85907    85907    85905    85905    85905 
   85905    85905    85907    85905    85904    85905    85904    85904 
   85907    85904    85903    85907    85907    85907    85907    85905 
   85904    85905    85904    85903    85905    85905    85903    85905 
   85905    85905    85905    85903    85903    85904    85904    85904 
   85907    85907    85903    85903    85905    85907    85907    85907 
   85905    85905    85904    85903    85904    85904    85904    85905 
   85904    85903    85904    85905    85905    85905    85904    85904 
   85904    85905    85905    85904    85904    85904    85904    85907 
   85907    85904    85903    85904    85905    85905    85904    85905 
   85905    85905    85907    85908    85905    85903    85899    85892 
   85877    85861    85843    85826    85818    85827    85849    85874 
   85897    85911    85911    85905    85896    85878    85881    85904 
   85909    85912    85941    85972    86019    86065    86024    85922 
   85851    85814    85800    85830    85870    85920    85992    86005 
   85950    85923    85935    85915    85891    85862    85793    85835 
   85953    85980    85970    85924    85857    85865    85915    85905 
   85814    85803    85885    85889    85897    85992    86008    85974 
   85992    85947    85932    86004    85904    85803    85868    85814 
   85769    85914    85985    85954    85949    85930    85820    85761 
   85928    86034    85884    85824    85955    86050    86039    86000 
   85970    85858    85810    85903    85838    85756    85808    85806 
   85873    85834    85642    85742    85866    85795    85853    85947 
   86030    86119    86073    86089    86086    85943    86065    86309 
   86225    86061    86082    86109    86085    86127    86177    86089 
   85818    85634    85824    86069    86058    85942    85779    85630 
   85580    85533    85542    85692    85860    85885    85749    85661 
   85742    85819    85795    85831    86004    86158    86229    86215 
   86032    85816    85716    85638    85648    85851    86031    86084 
   86063    85907    85603    85406    85696    86208    86190    85903 
   85984    86182    86239    86166    85992    85853    85658    85644 
   86024    86175    85899    85720    85816    85887    85584    85176 
   85256    85567    85622    85637    85776    85924    86109    86355 
   86687    86979    86832    86373    86231    86298    86078    85719 
   85479    85309    85244    85375    85641    85774    85658    85509 
   85496    85652    85881    86101    86462    86786    86589    86154 
   86038    85880    85459    85383    85706    85823    85714    85735 
   85877    85986    86001    85946    85938    85888    85830    85923 
   85899    85796    85978    86144    85999    85753    85590    85579 
   85668    85824    86047    86092    85857    85642    85688    85918 
   86167    86323    86281    86175    86209    86242    86281    86316 
   86082    85843    85784    85587    85328    85274    85471    85745 
   85861    86034    86327    86282    86103    86274    86401    86182 
   85990    85963    85946    85729    85390    85303    85290    85195 
   85305    85351    85276    85681    86323    86562    86522    86362 
   86211    86270    86282    86076    85946    86092    86306    86247 
   86050    85938    85672    85483    85857    86161    85919    85760 
   85770    85638    85635    85727    85661    85672    85788    85841 
   86054    86333    86215    86035    86251    86224    85741    85619 
   85845    85920    85896    85800    85787    85926    85846    85660 
   85801    86054    86090    86019    85986    85935    85872    85968 
   85989    85727    85604    85723    85793    85858    85951    85912 
   85776    85729    85791    85831    85892    86174    86364    86026 
   85872    86213    86088    85679    85696    85788    85891    86124 
   86112    85841    85637    85612    85672    85769    85893    85908 
   85935    86109    86173    86020    85764    85588    85644    85672 
   85644    85938    86271    86248    86239    86314    86147    85920 
   85905    85980    85999    85999    85947    85897    86112    86340 
   86146    85850    85731    85683    85607    85317    85136    85347 
   85519    85617    85857    86098    86281    86398    86344    86082 
   85768    85672    85742    85648    85515    85660    85942    86157 
   86225    86140    86013    85934    85912    85941    86023    86127 
   86186    86148    85988    85814    85881    86204    86355    86174 
   85878    85572    85464    85571    85600    85563    85610    85687 
   85683    85753    85920    85847    85758    85922    85934    85923 
   86240    86458    86471    86551    86424    86001    85654    85580 
   85683    85742    85746    85861    86119    86283    86081    85816 
   85930    86080    85916    85815    85846    85712    85695    85943 
   86070    86081    86082    85824    85394    85239    85395    85519 
   85500    85461    85612    85972    86012    85731    85815    86044 
   85897    85878    86281    86483    86360    86302    86158    85943 
   86005    86054    85904    85931    85981    85808    85735    85850 
   85931    85989    86136    86252    86123    85904    85868    85839 
   85738    85739    85676    85626    85930    86255    86329    86377 
   86364    86223    86051    85930    85907    85923    85907    85737 
   85445    85349    85402    85368    85477    85823    85908    85708 
   85865    86163    86067    85985    86109    86123    86085    86069 
   85980    85900    85884    85833    85819    85847    85770    85750 
   85819    85650    85372    85401    85610    85679    85664    85745 
   85959    86120    86082    85996    85974    86123    86421    86393 
   86053    86054    86244    86206    86243    86336    86231    86152 
   86030    85680    85461    85491    85546    85668    85811    85849 
   85820    85671    85498    85607    85895    86085    86177    86062 
   85715    85503    85630    85851    85899    85892    85968    85989 
   86003    86119    86186    86105    86069    86163    86058    85776 
   85746    85774    85618    85592    85719    85764    85842    86004 
   86062    86065    86076    86065    86169    86213    86019    85938 
   85999    85972    85962    85946    85985    86059    85828    85680 
   85909    85974    85962    86120    86013    85718    85652    85696 
   85731    85851    85973    86026    86042    85905    85743    85878 
   86127    86116    85982    85951    85807    85615    85738    85969 
   85953    85773    85679    85702    85675    85668    85812    85893 
   85896    86008    86028    85900    85895    85947    86007    86130 
   86109    86015    86093    86151    85969    85753    85776    85916 
   85968    85982    85974    85827    85612    85671    86008    86154 
   86015    85853    85689    85592    85698    85907    86067    86151 
   86238    86354    86374    86151    85810    85561    85392    85436 
   85760    85912    85773    85761    85935    86019    85996    86113 
   86258    86121    85985    86094    86128    85958    85787    85837 
   86078    86171    86069    85962    85914    85908    85806    85618 
   85536    85544    85584    85617    85714    85939    85928    85691 
   85671    85739    85719    85726    85726    85735    85826    85911 
   85938    85891    85734    85548    85457    85461    85371    85237 
   85460    85942    86263    86449    86559    86505    86305    86104 
   86167    86363    86402    86390    86255    85953    85843    85908 
   85946    86065    86212    86213    86020    85727    85590    85608 
   85572    85488    85521    85727    85955    85977    85685    85338 
   85471    86080    86552    86606    86367    86030    85703    85382 
   85280    85507    85680    85754    86066    86431    86578    86610 
   86574    86494    86397    86314    86266    86007    85564    85456 
   85703    85764    85591    85450    85257    85152    85445    85934 
   86259    86324    86206    86013    85860    85854    85932    85962 
   85905    85797    85900    86381    86902    87129    87091    86894 
   86572    86147    85719    85314    84863    84635    84825    85029 
   85064    85149    85249    85336    85533    85725    85864    86125 
   86325    86267    86317    86578    86568    86273    86143    86111 
   85899    85781    86007    86093    85567    84936    84910    85351 
   85830    86166    86359    86476    86429    86217    86020    85892 
   86009    86363    86259    85484    84962    85226    85679    85819 
   85774    85797    86009    86150    86017    85845    85723    85734 
   85999    86162    86050    86003    85978    85861    85953    86063 
   85916    85916    85978    85712    85421    85415    85756    86289 
   86575    86545    86437    86242    86092    86236    86512    86629 
   86597    86517    86252    85727    85301    85155    85133    85268 
   85453    85542    85708    85887    85835    85703    85766    85932 
   85922    85758    85680    85812    86148    86398    86271    85922 
   85625    85564    85878    86316    86447    86394    86462    86485 
   86190    85725    85499    85552    85681    85838    85843    85706 
   85737    85845    85818    85888    86219    86509    86486    86186 
   85762    85463    85384    85307    85133    84990    84996    85225 
   85679    86320    86908    87014    86687    86374    86150    85892 
   85708    85676    85730    85795    85781    85789    85993    86138 
   86030    86077    86366    86455    86456    86547    86409    86023 
   85688    85631    85820    85841    85602    85541    85826    86147 
   86139    85858    85606    85330    84983    84730    84516    84279 
   84183    84415    84924    85396    85611    85675    85799    85905 
   85855    85891    86092    86142    86044    86038    86038    85993 
   86146    86494    86656    86551    86481    86460    86429    86560 
   86686    86522    86354    86359    86285    86204    86371    86641 
   86838    87029    87158    87165    87123    87008    86887    86813 
   86601    86209    85696    85055    84423    83926    83640    83816 
   84281    84458    84480    84758    85108    85472    85995    86402 
   86568    86675    86590    86157    85635    85330    85291    85428 
   85676    86003    86296    86427    86408    86337    86235    86198 
   86254    86140    85919    85903    86061    86196    86136    85945 
   85947    86189    86401    86323    85924    85542    85483    85641 
   85795    85923    86001    85972    86046    86298    86448    86474 
   86436    86258    86031    85834    85658    85472    85166    84823 
   84643    84622    84721    84916    85176    85552    85942    86188 
   86317    86377    86435    86553    86601    86593    86690    86732 
   86637    86568    86429    86108    85850    85757    85693    85684 
   85746    85949    86346    86680    86930    87130    86899    86393 
   86109    85900    85731    85691    85456    85116    84996    84940 
   84893    85021    85233    85415    85590    85700    85808    85955 
   85905    85666    85518    85430    85290    85278    85583    86034 
   86302    86448    86643    86651    86347    86024    85888    85869 
   85828    85710    85499    85290    85298    85526    85804    86022 
   86023    85862    85808    85885    85922    85877    85846    85833 
   85822    85918    86098    86323    86699    87029    87003    86813 
   86699    86570    86368    86100    85850    85850    85957    85855 
   85769    85936    86069    85978    85843    85715    85526    85417 
   85500    85591    85536    85423    85367    85388    85436    85479 
   85429    85229    85121    85272    85510    85741    86012    86310 
   86555    86632    86568    86526    86530    86485    86366    86232 
   86085    85818    85453    85212    85224    85425    85719    85997 
   86135    86107    85984    85776    85548    85495    85581    85604 
   85671    85899    86151    86364    86537    86645    86752    86713 
   86421    86163    85992    85758    85622    85577    85472    85465 
   85606    85693    85765    85857    85855    85878    86035    86197 
   86270    86182    85968    85785    85719    85819    85909    85774 
   85691    85850    85915    85797    85726    85720    85777    85884 
   85920    85942    86001    85985    85914    85866    85845    85884 
   85959    85974    85959    86008    86111    86188    86224    86227 
   86173    86096    86076    86058    85908    85626    85398    85376 
   85425    85379    85368    85444    85499    85583    85734    85914 
   86104    86197    86152    86090    86070    86084    86086    86026 
   85999    86074    86132    86130    86098    86017    85880    85672 
   85456    85380    85337    85234    85299    85500    85612    85735 
   85938    86084    86132    86139    86162    86189    86270    86428 
   86445    86233    86047    86059    86128    86154    86211    86292 
   86389    86481    86398    86170    86009    85935    85905    85895 
   85810    85735    85826    85973    85957    85785    85688    85781 
   85931    85945    85838    85783    85750    85657    85588    85538 
   85475    85506    85595    85633    85696    85780    85784    85822 
   85966    86042    85972    85870    85864    85990    86134    86124 
   86023    85968    85888    85747    85738    85915    86051    86016 
   85935    85884    85835    85804    85776    85752    85754    85753 
   85791    85882    85880    85793    85823    85931    85953    85953 
   86066    86236    86300    86242    86186    86189    86247    86316 
   86262    86085    85993    86051    86096    86105    86159    86142 
   85931    85660    85526    85563    85638    85627    85569    85575 
   85645    85711    85752    85768    85734    85702    85762    85853 
   85882    85882    85858    85835    85882    85953    85966    85972 
   86005    85986    85880    85801    85851    85934    85928    85907 
   85922    85873    85804    85842    85884    85830    85806    85849 
   85857    85838    85831    85785    85762    85892    86067    86162 
   86227    86238    86193    86170    86098    85945    85846    85862 
   85958    86053    86028    85934    85895    85939    85990    85936 
   85872    85892    85865    85819    85874    85939    85931    85909 
   85930    85914    85811    85800    85907    85918    85787    85662 
   85641    85745    85912    86016    86017    85965    85927    85927 
   85851    85714    85735    85872    85927    85965    86043    86103 
   86147    86147    86073    85985    85916    85833    85739    85716 
   85774    85799    85787    85847    85919    85865    85722    85595 
   85558    85600    85660    85770    85958    86131    86182    86100 
   86020    86040    86109    86158    86136    86069    86031    85976 
   85876    85796    85756    85801    85893    85904    85874    85858 
   85874    85970    86008    85895    85783    85762    85779    85781 
   85752    85719    85750    85843    85932    85993    86093    86189 
   86140    86013    85990    86053    86097    86109    86073    85989 
   85909    85876    85891    85909    85878    85818    85792    85810 
   85838    85862    85853    85831    85872    85973    86073    86100 
   86035    85974    85980    86019    86042    85999    85961    85988 
   85980    85969    86054    86105    86049    85985    85915    85806 
   85753    85745    85708    85706    85725    85683    85621    85558 
   85499    85500    85572    85699    85808    85842    85899    86009 
   86030    85939    85903    85982    86013    85942    85965    86061 
   86057    86012    86008    86020    86086    86139    86058    85959 
   85958    85946    85854    85753    85716    85756    85846    85920 
   85874    85754    85742    85793    85746    85684    85715    85746 
   85715    85671    85652    85673    85733    85824    85927    86001 
