Origin Time       2025/03/28 03:50:00
Lat.              35.403
Long.             140.360
Depth. (km)       54
Mag.              4.4
Station Code      CHBH06
Station Lat.      35.7215
Station Long.     140.5046
Station Height(m) 35
Record Time       2025/03/28 03:50:49
Sampling Freq(Hz) 100Hz
Duration Time(s)  120
Dir.              4
Scale Factor      7845(gal)/8223790
Max. Acc. (gal)   11.895
Last Correction   2025/03/28 03:50:49
Memo.             
[...]
   -1020    -1027    -1026    -1015    -1007    -1004    -1009    -1015 
   -1019    -1021    -1023    -1024    -1020    -1016    -1019    -1020 
   -1023    -1023    -1017    -1024    -1027    -1015    -1008    -1011 
   -1019    -1032    -1032    -1017    -1009    -1017    -1024    -1023 
   -1021    -1024    -1032    -1031    -1016    -1013    -1023    -1019 
   -1011    -1015    -1017    -1005     -996    -1008    -1021    -1021 
   -1020    -1026    -1021    -1016    -1019    -1023    -1027    -1030 
   -1020    -1012    -1015    -1015    -1016    -1016    -1008    -1008 
   -1021    -1030    -1026    -1013    -1008    -1020    -1030    -1020 
   -1011    -1017    -1028    -1020    -1012    -1020    -1023    -1013 
   -1005    -1004    -1013    -1020    -1013    -1011    -1012    -1013 
   -1016    -1019    -1021    -1023    -1021    -1019    -1011    -1012 
   -1024    -1030    -1026    -1013    -1008    -1020    -1026    -1019 
   -1011    -1008    -1015    -1023    -1023    -1017    -1015    -1016 
   -1019    -1019    -1016    -1011    -1008    -1012    -1016    -1023 
   -1026    -1017    -1017    -1026    -1030    -1032    -1021    -1009 
   -1017    -1026    -1026    -1026    -1031    -1027    -1015    -1015 
   -1024    -1027    -1023    -1012    -1009    -1016    -1020    -1016 
   -1015    -1021    -1023    -1016    -1020    -1028    -1020    -1011 
   -1015    -1020    -1021    -1015    -1009    -1016    -1023    -1024 
   -1024    -1021    -1021    -1024    -1026    -1027    -1031    -1026 
   -1017    -1017    -1024    -1026    -1023    -1019    -1016    -1017 
   -1024    -1032    -1027    -1016    -1015    -1011    -1005    -1016 
   -1023    -1016    -1015    -1024    -1023    -1015    -1019    -1026 
   -1023    -1027    -1032    -1023    -1012    -1013    -1015    -1020 
   -1032    -1036    -1028    -1024    -1023    -1017    -1016    -1016 
   -1016    -1012    -1004    -1001    -1011    -1024    -1036    -1036 
   -1034    -1030    -1015    -1016    -1034    -1031    -1011    -1005 
   -1021    -1032    -1021    -1011    -1011    -1020    -1026    -1012 
   -1005    -1017    -1027    -1027    -1020    -1019    -1027    -1034 
   -1035    -1030    -1019    -1016    -1016    -1009    -1009    -1013 
   -1013    -1017    -1026    -1028    -1028    -1030    -1030    -1024 
   -1019    -1017    -1015    -1013    -1019    -1020    -1015    -1019 
   -1017    -1013    -1015    -1020    -1021    -1023    -1026    -1027 
   -1026    -1019    -1013    -1020    -1034    -1030    -1012    -1005 
   -1011    -1012    -1012    -1021    -1023    -1012    -1013    -1019 
   -1019    -1017    -1011    -1011    -1020    -1023    -1017    -1019 
   -1021    -1016    -1015    -1023    -1027    -1020    -1019    -1020 
   -1020    -1021    -1020    -1016    -1017    -1023    -1020    -1012 
   -1013    -1020    -1017    -1008    -1004    -1005    -1012    -1026 
   -1026    -1019    -1020    -1021    -1026    -1023    -1013    -1017 
   -1021    -1016    -1017    -1023    -1024    -1026    -1032    -1031 
   -1017    -1012    -1015    -1011    -1009    -1017    -1024    -1031 
   -1031    -1028    -1030    -1031    -1032    -1030    -1015    -1003 
   -1000    -1003    -1017    -1030    -1023    -1016    -1020    -1027 
   -1026    -1023    -1019    -1015    -1015    -1020    -1026    -1024 
   -1020    -1021    -1023    -1017    -1008    -1011    -1021    -1015 
   -1012    -1017    -1013    -1020    -1032    -1028    -1027    -1035 
   -1031    -1020    -1009    -1000    -1003    -1009    -1012    -1012 
   -1015    -1017    -1019    -1017    -1021    -1031    -1024    -1009 
   -1011    -1017    -1019    -1019    -1016    -1020    -1024    -1019 
   -1021    -1017    -1011    -1017    -1017    -1011    -1012    -1017 
   -1028    -1028    -1016    -1015    -1026    -1032    -1021    -1009 
   -1019    -1031    -1024    -1013    -1016    -1023    -1021    -1020 
   -1020    -1020    -1024    -1021    -1017    -1020    -1024    -1024 
   -1021    -1020    -1021    -1019    -1020    -1021    -1013    -1011 
   -1021    -1028    -1026    -1024    -1024    -1013    -1008    -1016 
   -1021    -1023    -1021    -1016    -1015    -1015    -1019    -1024 
   -1020    -1013    -1015    -1020    -1015    -1012    -1023    -1028 
   -1027    -1024    -1016    -1015    -1017    -1019    -1017    -1013 
   -1012    -1015    -1012    -1009    -1015    -1023    -1028    -1030 
   -1030    -1028    -1023    -1009    -1003    -1011    -1023    -1026 
   -1020    -1021    -1026    -1017    -1011    -1013    -1023    -1030 
   -1019    -1011    -1019    -1020    -1015    -1017    -1024    -1027 
   -1030    -1028    -1021    -1016    -1016    -1015    -1017    -1021 
   -1017    -1017    -1027    -1030    -1021    -1016    -1024    -1035 
   -1032    -1027    -1023    -1015    -1009    -1009    -1012    -1015 
   -1021    -1032    -1032    -1023    -1021    -1026    -1020    -1015 
   -1019    -1019    -1017    -1020    -1020    -1026    -1026    -1015 
   -1015    -1023    -1021    -1016    -1021    -1030    -1024    -1009 
   -1005    -1021    -1032    -1024    -1026    -1038    -1028    -1016 
   -1019    -1019    -1019    -1024    -1027    -1027    -1019    -1005 
   -1001    -1004    -1008    -1019    -1026    -1023    -1027    -1031 
   -1032    -1031    -1019    -1015    -1021    -1021    -1026    -1030 
   -1021    -1017    -1016    -1012    -1023    -1036    -1031    -1017 
   -1012    -1015    -1015    -1009    -1007    -1016    -1024    -1024 
   -1024    -1024    -1017    -1013    -1019    -1027    -1030    -1027 
   -1020    -1016    -1012    -1015    -1026    -1026    -1019    -1024 
   -1026    -1015    -1013    -1020    -1016    -1012    -1017    -1017 
   -1011    -1012    -1023    -1030    -1021    -1013    -1020    -1023 
   -1013    -1020    -1027    -1021    -1019    -1015    -1009    -1016 
   -1017    -1012    -1015    -1015    -1019    -1031    -1026    -1015 
   -1015    -1016    -1020    -1028    -1024    -1017    -1020    -1024 
   -1016    -1005    -1013    -1026    -1020    -1019    -1020    -1011 
   -1008    -1019    -1023    -1019    -1019    -1017    -1013    -1020 
   -1026    -1024    -1032    -1048    -1047    -1021     -988     -976 
   -1005    -1059    -1120    -1183    -1196    -1059     -808     -612 
    -571     -657     -853    -1124    -1347    -1447    -1482    -1518 
   -1544    -1444    -1065     -494      -90      -14      -98     -325 
    -888    -1661    -2150    -2074    -1660    -1301    -1150    -1070 
    -841     -414      -82     -260     -912    -1479    -1602    -1345 
   -1043    -1201    -1425     -760       67     -318    -1165    -1159 
    -772     -706    -1004    -1792    -2392    -1929    -1163     -984 
    -976     -822     -653     -382     -117     -203     -625    -1092 
   -1320    -1317    -1404    -1522    -1445    -1398    -1281     -814 
    -595     -981    -1293    -1170     -877     -548     -400     -743 
   -1233    -1314    -1147    -1004     -854     -876    -1174    -1393 
   -1309    -1181    -1227    -1277    -1067     -634     -338     -346 
    -558     -850     -940     -977    -1560    -2272    -2173    -1447 
    -774     -364     -213     -302     -422     -425     -627    -1318 
   -2069    -2316    -2070    -1532     -888     -602     -892    -1142 
    -803     -427     -602     -893    -1000    -1128    -1062     -784 
    -760     -772     -494     -391     -656    -1089    -1776    -2295 
   -2050    -1630    -1655    -1641    -1328     -974     -465      178 
     513      464      157     -473    -1119    -1325    -1314    -1485 
   -1622    -1408    -1213    -1472    -1749    -1551    -1202    -1090 
   -1205    -1561    -1939    -1775    -1097     -467      -85      -32 
    -301     -257      298      383     -436    -1298    -1675    -1827 
   -1833    -1649    -1474    -1205     -677     -433     -855    -1413 
   -1744    -1984    -1941    -1545    -1345    -1439    -1229     -596 
     110      710      912      414     -430    -1050    -1482    -1904 
   -2095    -1802    -1124     -712    -1094    -1692    -1692    -1127 
    -581     -706    -1549    -2282    -2219    -1561     -766      -98 
     130      -74      -83      352      473     -283    -1563    -2621 
   -2760    -2035    -1368    -1221    -1248    -1093     -652     -190 
    -259     -820    -1128     -965     -930    -1274    -1595    -1653 
   -1495    -1043     -457     -321     -783    -1327    -1314     -572 
     117     -251    -1468    -2242    -1958    -1305     -940     -837 
    -845     -924    -1007     -932     -672     -414     -271     -427 
   -1127    -1934    -2139    -1881    -1602    -1314    -1128    -1135 
    -869     -141      334      163     -319     -976    -1471    -1366 
   -1223    -1582    -1676    -1057     -797    -1344    -1713    -1564 
   -1204     -599     -112     -167     -318     -338     -706    -1351 
   -1800    -2037    -2200    -2211    -1898    -1444    -1125     -793 
    -477     -355      -20      751     1202      731     -245    -1269 
   -2054    -2137    -1899    -2180    -2632    -2447    -1722    -1044 
    -733     -761     -900     -980    -1081    -1171     -958     -382 
     297      697      552      -75     -888    -1472    -1603    -1638 
   -2060    -2587    -2570    -2073    -1502     -891     -402     -322 
    -405     -419     -691    -1170    -1204     -711     -317     -440 
   -1131    -1958    -1849     -491      845     1061      189    -1287 
   -2489    -2604    -1899    -1308    -1367    -2058    -2790    -2713 
   -1696     -479      117       28     -129     -194     -306      -25 
     738     1111      634     -337    -1498    -2431    -2808    -3007 
   -3245    -3165    -2700    -2127    -1630    -1165     -480      511 
    1343     1293      311     -561     -387      394      656      -79 
   -1532    -2836    -3005    -2211    -1703    -1911    -2228    -2331 
   -2070    -1285     -464     -211     -232      -25       78     -171 
    -326     -525    -1071    -1300    -1223    -1744    -2508    -2562 
   -1925    -1011     -183      132      -55     -189      -52     -234 
   -1102    -2091    -2565    -2474    -2006    -1363     -822     -526 
    -168      353      369     -330    -1070    -1502    -1476     -808 
     -41      108     -247     -657    -1107    -1737    -2408    -2868 
   -2922    -2478    -1802    -1377    -1119     -591        9      310 
     495      557      105     -639    -1085    -1395    -1914    -2381 
   -2484    -2033    -1112     -307        5       32       49       20 
    -361    -1177    -2025    -2531    -2635    -2290    -1741    -1460 
   -1294     -805     -157      222      176      -72     -232     -407 
    -753    -1227    -1849    -2347    -2166    -1387     -696     -280 
     125      295      -21     -504     -900    -1274    -1715    -2219 
   -2466    -2209    -1750    -1516    -1575    -1640    -1414    -1148 
   -1194    -1350    -1350    -1166     -751     -278       66      460 
     915     1007      641      128     -471    -1174    -1803    -2265 
   -2419    -2253    -2209    -2296    -2006    -1448    -1047     -835 
    -584     -184      -18     -372     -791     -743     -492     -854 
   -1849    -2527    -2547    -2381    -2126    -1525     -764     -218 
     193      635      858      750      486      -17     -745    -1286 
   -1632    -2143    -2677    -2731    -2242    -1702    -1536    -1530 
   -1212     -687     -480     -699     -913     -733     -351     -288 
    -580     -884    -1035     -939     -560     -232     -359     -882 
   -1306    -1275    -1152    -1420    -1937    -2339    -2313    -1691 
    -901     -487     -257       71      243        1     -577    -1208 
   -1541    -1544    -1528    -1653    -1809    -1845    -1659    -1293 
    -877     -325      168      -44     -846    -1389    -1344     -909 
    -414     -226     -324     -454     -696    -1024    -1090    -1020 
   -1335    -2000    -2488    -2443    -1852    -1036     -515     -418 
    -402     -394     -656    -1151    -1513    -1607    -1602    -1524 
   -1323    -1158    -1021     -731     -391     -195     -218     -508 
    -862     -973     -946     -989     -899     -525     -203     -247 
    -639    -1287    -1877    -2018    -1925    -1988    -2022    -1853 
   -1679    -1525    -1229     -799     -342       28      187       17 
    -460    -1003    -1412    -1655    -1613    -1175     -585     -225 
    -171     -247     -229      -67     -172     -982    -2081    -2598 
   -2446    -2220    -2091    -1829    -1444    -1134    -1097    -1347 
   -1528    -1296     -820     -562     -607     -661     -503      -86 
     407      603      376        2     -326     -747    -1262    -1621 
   -1864    -2245    -2527    -2247    -1555     -970     -631     -411 
    -298     -294     -395     -662    -1058    -1466    -1894    -2313 
   -2578    -2551    -2093    -1290     -542     -174     -217     -403 
    -336     -149     -387    -1034    -1525    -1549    -1300    -1070 
    -832     -464     -113      -64     -483    -1197    -1792    -2016 
   -1744    -1044     -507     -626    -1155    -1691    -2011    -1827 
   -1243     -805     -564     -155      427      901     1001      611 
    -116     -999    -2127    -3430    -4459    -4970    -5134    -5236 
   -5398    -5431    -5235    -4996    -4594    -3600    -2052     -503 
     604     1170     1281     1104      641     -148     -846     -886 
    -359      483     1938     4190     6843     9316    11006    11450 
   10454     7827     3609    -1422    -6014    -9154   -10543   -10428 
   -9205    -7310    -5015    -2235      913     3572     4673     3802 
    1394    -1422    -3454    -4360    -4379    -3537    -1836      145 
    1320      982     -483    -2120    -3257    -3685    -3492    -2976 
   -2582    -2452    -2019     -797      618     1269      864     -468 
   -2444    -4603    -6683    -8517    -9439    -8598    -5937    -2440 
     861     3601     5667     7007     7757     7803     6772     4727 
    2023    -1258    -4785    -7537    -8592    -7709    -5332    -2712 
   -1136     -810    -1310    -2274    -3061    -3229    -2951    -2384 
   -1591     -816     -140      839     2532     4463     5665     5795 
    5147     4059     2644     1155       18     -873    -2014    -3462 
   -4630    -4738    -3469    -1236      885     1753     1028     -888 
   -3480    -6208    -8436    -9489    -9005    -7279    -4947    -2614 
    -742      595     1683     2782     3923     4869     5300     4903 
    3501     1487     -437    -2000    -3146    -3771    -3975    -3785 
   -2963    -1539      -32      896      938      417     -309    -1379 
   -2708    -3669    -3885    -3387    -2292     -893      353     1051 
    1000      395     -444    -1495    -2659    -3543    -3905    -3829 
   -3635    -3527    -3179    -2295    -1210      -86     1455     3291 
    4623     4780     3542     1242    -1352    -3384    -4170    -3707 
   -2739    -1907    -1247     -500      357     1013     1161      761 
      58     -629    -1151    -1381    -1240    -1108    -1507    -2473 
   -3630    -4496    -4795    -4646    -4183    -3343    -2164     -754 
     766     2128     3064     3538     3619     3273     2346      781 
   -1078    -2640    -3541    -3817    -3688    -3321    -2875    -2689 
   -3123    -3900    -4070    -3184    -1841     -696      198     1081 
    2122     3176     3789     3623     2721     1287     -464    -2245 
   -3739    -4773    -5394    -5719    -5611    -4610    -2502      186 
    2494     3665     3547     2644     1649      801     -245    -1713 
   -3176    -3978    -3834    -2949    -1802     -827     -186      317 
     886     1252      896     -189    -1394    -2269    -2899    -3476 
   -3856    -3697    -2906    -1867    -1120     -776     -456      198 
    1179     1999     2012     1121     -184    -1399    -2381    -3368 
   -4448    -5182    -5124    -4299    -3015    -1583     -152     1251 
    2446     3133     3145     2459     1289       22    -1036    -1784 
   -2326    -2760    -2929    -2702    -2242    -1776    -1360     -893 
    -275      506     1458     2432     2933     2567     1543      243 
   -1331    -3169    -4839    -5856    -6146    -5958    -5370    -4288 
   -2872    -1404       29     1391     2528     3227     3346     2910 
    2127     1166      -10    -1321    -2593    -3920    -5190    -5755 
   -5212    -3925    -2594    -1618     -904     -203      608     1506 
    2253     2494     2147     1637     1462     1510     1302      749 
     120     -367     -653     -853    -1135    -1474    -1653    -1510 
   -1244    -1210    -1408    -1669    -2106    -2806    -3578    -4257 
   -4939    -5736    -6523    -6991    -6845    -5976    -4581    -2979 
   -1305      326     1651     2544     3121     3318     2847     1683 
     186    -1212    -2247    -2897    -3240    -3258    -2894    -2181 
   -1206      -89      878     1424     1659     1827     1908     1804 
    1583     1344     1050      561     -170     -980    -1615    -1898 
   -1769    -1399    -1069     -954    -1179    -1775    -2452    -2739 
   -2342    -1332      -79      977     1617     1883     1760     1075 
     -59    -1206    -2130    -2930    -3699    -4298    -4473    -4048 
   -3119    -2002     -837      473     1899     3123     3798     3785 
    3113     1910      390    -1183    -2500    -3429    -4137    -4806 
   -5629    -6770    -7888    -8383    -8070    -7001    -5232    -3038 
    -834     1098     2583     3545     3993     3924     3489     2963 
    2463     2077     1848     1518      824     -141    -1092    -1841 
   -2361    -2691    -2928    -3133    -3230    -3080    -2533    -1686 
    -969     -684     -846    -1354    -1917    -2281    -2450    -2376 
   -1914    -1151     -294      576     1370     1887     1983     1634 
     897     -144    -1440    -2828    -3927    -4419    -4267    -3534 
   -2299     -770      718     1868     2529     2641     2139     1061 
    -303    -1559    -2427    -2764    -2641    -2342    -2058    -1849 
   -1765    -1736    -1637    -1549    -1637    -1837    -1931    -1830 
   -1564    -1204     -874     -596     -243      221      653      916 
    1024     1112     1225     1163      680     -213    -1336    -2521 
   -3492    -3885    -3573    -2803    -1971    -1402    -1277    -1491 
   -1671    -1494     -934     -332     -221     -861    -2020    -3142 
   -3684    -3514    -2905    -2169    -1539    -1035     -376      569 
    1587     2465     2983     2848     2053      984       79     -488 
    -826    -1028    -1048     -874     -649     -592     -889    -1579 
   -2447    -3211    -3754    -3985    -3788    -3238    -2506    -1638 
    -720       12      446      626      540      187     -375    -1158 
   -2112    -3053    -3766    -4045    -3844    -3316    -2493    -1340 
    -124      742     1090     1067      923      768      469     -148 
   -1061    -2120    -3176    -4066    -4579    -4460    -3573    -2011 
     -13     2074     3873     5082     5528     5140     3994     2342 
     441    -1520    -3237    -4351    -4727    -4517    -4010    -3426 
   -2884    -2546    -2425    -2353    -2253    -2060    -1637     -981 
    -198      654     1580     2513     3230     3497     3206     2386 
