Origin Time       2025/03/28 03:50:00
Lat.              35.403
Long.             140.360
Depth. (km)       54
Mag.              4.4
Station Code      CHBH13
Station Lat.      35.8307
Station Long.     140.2980
Station Height(m) 12
Record Time       2025/03/28 03:50:51
Sampling Freq(Hz) 100Hz
Duration Time(s)  120
Dir.              4
Scale Factor      7845(gal)/8223790
Max. Acc. (gal)   5.077
Last Correction   2025/03/28 03:50:51
Memo.             
[...]
    -815     -803     -800     -805     -822     -822     -816     -827 
    -815     -799     -822     -828     -803     -797     -808     -812 
    -824     -832     -822     -811     -805     -804     -807     -814 
    -826     -819     -803     -816     -828     -815     -796     -789 
    -812     -830     -816     -812     -815     -804     -807     -815 
    -822     -838     -837     -824     -820     -805     -785     -788 
    -793     -792     -804     -832     -853     -850     -837     -816 
    -789     -788     -803     -803     -818     -839     -822     -818 
    -827     -793     -778     -819     -839     -837     -831     -807 
    -804     -816     -800     -800     -820     -816     -818     -823 
    -803     -803     -822     -814     -807     -818     -820     -828 
    -835     -820     -810     -808     -796     -796     -807     -803 
    -814     -834     -820     -816     -831     -824     -819     -824 
    -818     -803     -799     -811     -822     -812     -808     -808 
    -799     -805     -823     -820     -808     -816     -826     -811 
    -810     -826     -818     -805     -808     -818     -816     -801 
    -807     -815     -812     -819     -819     -818     -814     -799 
    -812     -822     -808     -818     -816     -801     -814     -815 
    -808     -818     -815     -816     -818     -795     -797     -819 
    -804     -799     -826     -812     -799     -831     -830     -807 
    -812     -805     -805     -822     -807     -801     -819     -812 
    -799     -803     -812     -824     -826     -814     -807     -810 
    -801     -787     -803     -831     -823     -807     -796     -803 
    -818     -801     -807     -837     -826     -811     -818     -807 
    -811     -830     -824     -827     -811     -761     -772     -815 
    -807     -810     -826     -818     -812     -800     -791     -812 
    -819     -800     -796     -803     -810     -820     -828     -827 
    -824     -820     -824     -834     -819     -791     -791     -783 
    -780     -816     -816     -808     -839     -831     -810     -822 
    -820     -810     -808     -800     -810     -830     -811     -796 
    -800     -789     -788     -812     -826     -823     -816     -810 
    -810     -807     -801     -818     -835     -823     -811     -808 
    -808     -814     -808     -803     -815     -820     -826     -839 
    -828     -804     -791     -793     -828     -846     -810     -797 
    -826     -818     -804     -814     -801     -800     -831     -839 
    -830     -800     -756     -774     -828     -835     -811     -795 
    -805     -822     -799     -768     -787     -814     -816     -839 
    -843     -804     -827     -850     -785     -776     -800     -773 
    -800     -851     -855     -874     -861     -800     -804     -842 
    -838     -818     -778     -770     -828     -877     -864     -781 
    -718     -765     -858     -880     -811     -766     -812     -885 
    -918     -842     -719     -666     -707     -837     -907     -835 
    -778     -768     -784     -865     -873     -789     -783     -796 
    -795     -854     -845     -753     -760     -815     -816     -796 
    -772     -804     -892     -912     -893     -874     -776     -712 
    -770     -801     -795     -824     -847     -895     -945     -899 
    -862     -893     -903     -959    -1001     -886     -714     -592 
    -639     -834     -947     -916     -789     -703     -805     -947 
    -889     -627     -436     -534     -734     -847     -958    -1046 
   -1011     -873     -702     -560     -472     -436     -525     -783 
   -1063    -1152    -1012     -865     -866     -888     -787     -592 
    -515     -704     -977    -1071     -957     -818     -789     -801 
    -838     -861     -814     -830     -936     -999    -1026     -947 
    -642     -332     -413     -873    -1258    -1225     -896     -691 
    -847    -1067     -967     -625     -422     -626    -1023    -1113 
    -807     -441     -283     -372     -571     -834    -1108    -1053 
    -769     -873    -1305    -1433    -1092     -670     -573     -820 
   -1098    -1123     -918     -719     -649     -643     -653     -688 
    -753     -804     -770     -720     -756     -722     -422        4 
     207       47     -297     -557     -594     -511     -502     -611 
    -781     -886     -810     -781    -1062    -1362    -1498    -1706 
   -1763    -1269     -646     -656    -1255    -1794    -1917    -1711 
   -1449    -1286    -1081     -832     -826    -1040    -1154    -1108 
   -1057     -946     -637     -270     -135     -255     -481     -673 
    -630     -446     -422     -487     -468     -278      191      545 
     306     -205     -550     -796     -985     -986     -799     -522 
    -410     -706    -1120    -1221    -1174    -1381    -1910    -2382 
   -2216    -1339     -378      -36     -379     -864    -1139    -1196 
   -1070    -1011    -1132    -1136     -934     -704     -456     -371 
    -751    -1177    -1039     -645     -535     -688     -934    -1021 
    -615       95      480      232     -355     -812    -1015    -1057 
   -1080    -1155    -1113     -988    -1047    -1101     -907     -823 
   -1159    -1428    -1028     -310       37      -51     -272     -422 
    -614    -1143    -2023    -2772    -2718    -1823     -812     -251 
    -222     -517     -627     -432     -359     -507     -700     -970 
   -1196     -935     -141      518      477     -117     -870    -1509 
   -1771    -1601    -1198     -641       28      521      618      403 
    -121    -1019    -1813    -1965    -1711    -1518    -1470    -1332 
    -882     -406     -449    -1047    -1721    -2003    -1725    -1155 
    -670     -305      -21       64     -175     -774    -1479    -1885 
   -1871    -1491     -788       51      766     1042      573     -375 
   -1143    -1453    -1336     -927     -492     -174      -93     -392 
    -842    -1097    -1304    -1678    -1942    -1799    -1345     -824 
    -421     -170       24       94     -284    -1038    -1485    -1290 
    -908     -797     -838     -762     -689     -816     -988     -908 
    -606     -515     -858    -1208    -1155     -839     -577     -548 
    -797    -1161    -1309    -1219    -1158    -1075     -792     -521 
    -538     -648     -635     -800    -1323    -1863    -1910    -1169 
     -81      548      465       27     -288     -417     -649    -1066 
   -1424    -1386     -905     -359     -135     -274     -494     -666 
    -916    -1192    -1278    -1142    -1142    -1460    -1599    -1277 
    -832     -506     -351     -313     -245     -415     -997    -1366 
   -1061     -565     -467     -665     -703     -479     -259     -187 
    -441    -1232    -2119    -2461    -2230    -1651     -996     -540 
    -252     -114     -319     -743     -950    -1017    -1339    -1593 
   -1318     -839     -513     -257      -95     -265     -780    -1316 
   -1606    -1460     -853     -184      205      226     -180     -602 
    -580     -438     -513     -602     -558     -469     -467     -652 
    -962    -1173    -1246    -1470    -1911    -2219    -2112    -1517 
    -589      136      198     -261     -851    -1366    -1575    -1233 
    -583     -197     -313     -706     -904     -612     -226     -299 
    -668     -938    -1119    -1212     -989     -495     -120       -5 
       1     -120     -444     -762     -805     -706     -955    -1690 
   -2434    -2663    -2277    -1661    -1283    -1237    -1294    -1155 
    -754     -399     -272     -114       70      -56     -318     -375 
    -395     -518     -700    -1017    -1345    -1304     -815     -228 
     130      179      -64     -526    -1038    -1363    -1302     -985 
    -769     -743     -697     -475     -263     -411     -861    -1155 
   -1112    -1004    -1057    -1182    -1278    -1375    -1406    -1201 
    -781     -361      -51      156      209       -2     -554    -1339 
   -1985    -2073    -1624    -1077     -646     -409     -556     -939 
   -1151    -1162    -1216    -1260    -1081     -756     -418     -113 
      62       71     -133     -568     -984    -1066     -870     -789 
    -943    -1134    -1377    -1772    -2166    -2311    -2162    -1809 
   -1270     -707     -427     -383     -260       25      287      191 
    -298     -677     -692     -546     -342     -174     -143     -194 
    -306     -434     -471     -388     -328     -583    -1101    -1391 
   -1242     -897     -633     -664    -1069    -1530    -1642    -1443 
   -1124     -756     -619     -966    -1458    -1657    -1660    -1622 
   -1391     -969     -641     -545     -506     -383     -257     -270 
    -580    -1146    -1556    -1603    -1459    -1177     -778     -418 
    -120       97      148       67      -85     -198     -220     -309 
    -469     -580     -703     -882    -1102    -1340    -1433    -1320 
   -1169    -1015     -708     -318     -160     -406     -858    -1124 
   -1090     -993     -946     -913     -922     -923     -908    -1069 
   -1462    -1853    -1966    -1637    -1000     -484     -306     -313 
    -360     -387     -453     -629     -707     -650     -745     -951 
   -1035     -993     -837     -673     -685     -758     -750     -746 
    -737     -603     -365     -186     -283     -692    -1208    -1625 
   -1683    -1246     -693     -413     -367     -471     -634     -724 
    -880    -1209    -1425    -1323    -1131    -1144    -1318    -1328 
   -1078     -770     -463     -144       95      234      295      190 
    -166     -695    -1204    -1514    -1566    -1385     -942     -305 
     143      101     -288     -695     -837     -664     -432     -353 
    -530     -986    -1441    -1688    -1896    -2070    -2080    -1952 
   -1659    -1192     -737     -531     -687    -1081    -1513    -1803 
   -1715    -1196     -546     -110      -40     -307     -758    -1170 
   -1378    -1278     -743      105      735      822      498      -98 
    -866    -1502    -1818    -2077    -2482    -2643    -2272    -1714 
   -1246     -776     -326       72      538     1116     1844     2640 
    3090     2814     1818      446     -781    -1493    -1734    -1842 
   -2091    -2465    -2847    -3404    -4145    -4423    -3977    -3451 
   -3218    -2955    -2334    -1360     -375      361      913     1300 
    1491     1551     1383      865      116     -633    -1146    -1193 
    -681      265     1198     1510     1023      113     -799    -1483 
   -1773    -1591    -1075     -479       31      217     -211    -1206 
   -2444    -3557    -4131    -3991    -3439    -2855    -2339    -1856 
   -1259     -419      311      506      390      411      766     1584 
    2596     2965     2367     1386      622      226      -20     -432 
   -1057    -1880    -2990    -4148    -4955    -5359    -5317    -4569 
   -3159    -1601     -434      257      738      974      811      523 
     314       -6     -438     -581     -261       81       64     -145 
    -371     -591     -692     -702     -777     -758     -436     -120 
    -151     -360     -558     -743     -768     -579     -410     -355 
    -378     -784    -1831    -3049    -3732    -3734    -3217    -2205 
    -977     -162       97      172      224      319      519      576 
     429      367      391      236     -319    -1368    -2602    -3476 
   -3767    -3631    -3226    -2439    -1116      487     1837     2504 
    2281     1351      224     -623     -935     -832     -708     -707 
    -745     -773     -673     -534     -745    -1270    -1679    -1871 
   -1865    -1537     -980     -527     -503    -1034    -1792    -2176 
   -1876    -1097     -282      156       -9     -545     -923    -1090 
   -1409    -1741    -1472     -486      502      884      823      642 
     352     -166    -1009    -2002    -2718    -2906    -2589    -1821 
    -573      926     1971     1952      940     -548    -1910    -2740 
   -3053    -2925    -2223    -1059       24      571      653      619 
     554      279     -221     -612     -587     -372     -540    -1301 
   -2247    -2840    -3092    -3341    -3624    -3742    -3431    -2547 
   -1458     -739     -506     -521     -561     -432       43      864 
    1777     2500     2952     3306     3623     3516     2446      368 
   -2170    -4383    -5547    -5501    -4814    -4027    -3218    -2548 
   -2369    -2735    -3241    -3310    -2683    -1564     -243     1116 
    2284     2920     2880     2303     1444      584      -28     -217 
     -22      238      179     -475    -1617    -2701    -3223    -3090 
   -2459    -1476     -245      967     1730     1854     1640     1439 
    1237      901      496      153     -180     -778    -1819    -3095 
   -4232    -5019    -5310    -4862    -3545    -1717      -93      824 
    1003      693      314      230      440      658      526     -226 
   -1467    -2664    -3271    -3179    -2794    -2493    -2254    -1931 
   -1475     -955     -569     -396     -279     -117       41      260 
     683     1270     1765     1892     1502      633     -480    -1479 
   -2042    -2128    -2041    -2069    -2207    -2290    -2131    -1638 
   -1036     -704     -697     -716     -484       14      491      556 
     184     -203     -333     -476    -1053    -1983    -2812    -3287 
   -3353    -2760    -1264      710     2339     3269     3655     3757 
    3642     3107     2029      661     -607    -1578    -2392    -3387 
   -4584    -5591    -6100    -6135    -5771    -4916    -3631    -2340 
   -1275     -299      540     1016     1082      861      560      394 
     369      321      151     -133     -492     -838    -1054    -1109 
   -1111    -1161    -1204    -1111     -905     -792     -854     -915 
    -842     -684     -498     -224      213      719     1102     1258 
    1084      477     -529    -1729    -2701    -2960    -2457    -1645 
    -974     -715     -908    -1273    -1541    -1634    -1584    -1572 
   -1730    -1971    -2058    -1764    -1151     -483      172      788 
    1116     1008      649      282       14     -183     -457     -792 
    -880     -529       83      684     1096     1204      955      402 
    -294     -978    -1590    -2118    -2585    -3132    -3743    -4099 
   -3978    -3443    -2802    -2452    -2416    -2380    -2207    -1918 
   -1491     -804      301     1520     2177     2165     1977     1863 
    1624     1077      297     -513    -1293    -2061    -2616    -2682 
   -2278    -1726    -1237     -726     -202       64      -44     -423 
    -986    -1606    -2052    -2134    -1915    -1675    -1583    -1464 
   -1005     -148      841     1628     1987     1906     1642     1460 
    1341     1112      684       66     -727    -1718    -2852    -3896 
   -4580    -4824    -4727    -4396    -3834    -2987    -1829     -464 
     816     1707     2043     1821     1229      584      136      -35 
      -6      148      391      571      507      233     -152     -712 
   -1451    -2212    -2767    -2876    -2548    -1964    -1194     -411 
      27      -68     -556    -1116    -1622    -2195    -2683    -2689 
   -2174    -1460     -795     -268      108      360      441      257 
    -140     -556     -820     -842     -569     -120      180       83 
    -437    -1185    -1769    -1873    -1512     -974     -557     -429 
    -648    -1069    -1345    -1267     -900     -390       66      245 
     117     -191     -699    -1524    -2525    -3368    -3827    -3777 
   -3245    -2470    -1620     -745       -8      449      684      827 
    1031     1436     1995     2470     2581     2193     1356      201 
   -1086    -2196    -2799    -2843    -2574    -2203    -1775    -1422 
   -1362    -1605    -1915    -2019    -1810    -1435    -1089     -742 
    -328        6       72      -85     -255     -361     -564    -1054 
   -1767    -2332    -2455    -2205    -1764    -1198     -646     -272 
     -44      135      287      398      382      171     -149     -422 
    -521     -378      -45      255      367      326      152     -238 
    -793    -1414    -2103    -2781    -3288    -3465    -3150    -2390 
   -1463     -649     -120       86       74       14       -8      -62 
    -206     -403     -592     -665     -549     -337     -210     -267 
    -496     -889    -1414    -1891    -2112    -2147    -2188    -2273 
   -2347    -2330    -2126    -1698    -1062     -271      515     1086 
    1331     1286     1081      807      490      133     -261     -666 
    -957     -994     -781     -477     -292     -326     -533     -855 
   -1250    -1633    -1945    -2112    -2037    -1686    -1150     -591 
    -202     -141     -445     -934    -1305    -1386    -1242    -1048 
    -924     -911    -1016    -1179    -1347    -1501    -1503    -1212 
    -751     -405     -288     -332     -472     -723    -1069    -1462 
   -1836    -2099    -2224    -2182    -1858    -1219     -417      282 
     685      847      884      823      689      526      340      103 
    -213     -611    -1057    -1495    -1815    -1952    -1977    -1949 
   -1827    -1597    -1255     -807     -369      -55      148      241 
     168      -54     -325     -534     -668     -780     -918    -1134 
   -1418    -1688    -1904    -2026    -1975    -1842    -1807    -1804 
   -1701    -1544    -1375    -1117     -714     -201      288      642 
     882     1021     1021      935      797      548      244       40 
     -48     -133     -360     -799    -1355    -1903    -2385    -2728 
   -2806    -2612    -2339    -2196    -2138    -1896    -1432    -1015 
    -823     -874    -1120    -1387    -1552    -1621    -1520    -1127 
    -518       98      648     1105     1358     1379     1275     1077 
     769      349     -203     -820    -1343    -1692    -1869    -1896 
   -1877    -1895    -1860    -1686    -1462    -1324    -1309    -1321 
   -1275    -1240    -1221    -1117     -930     -718     -472     -180 
      74      147      -12     -305     -599     -805     -936    -1038 
   -1088    -1104    -1135    -1101     -905     -627     -365     -139 
      20       89      114      128       66     -145     -506    -1009 
   -1599    -2106    -2494    -2808    -2862    -2496    -1877    -1216 
    -580      -56      260      346      222      -35     -284     -445 
    -557     -685     -837    -1012    -1239    -1495    -1669    -1696 
   -1637    -1555    -1494    -1497    -1513    -1480    -1381    -1182 
    -853     -394      160      711     1101     1208     1015      660 
     330       87     -112     -315     -549     -714     -704     -634 
    -623     -622     -585     -531     -542     -695     -935    -1190 
   -1463    -1705    -1846    -1830    -1679    -1555    -1559    -1657 
   -1799    -1926    -2025    -2099    -2072    -1900    -1640    -1335 
   -1004     -635     -209      203      468      531      469      352 
     148     -178     -572     -943    -1219    -1404    -1532    -1555 
   -1470    -1389    -1324    -1177     -886     -491      -87      225 
     419      531      583      561      456      270       13     -307 
    -695    -1116    -1499    -1772    -1869    -1792    -1644    -1532 
   -1495    -1516    -1575    -1664    -1729    -1701    -1582    -1443 
   -1294    -1112     -884     -540      -74      367      685      872 
