Origin Time       2025/03/28 03:50:00
Lat.              35.403
Long.             140.360
Depth. (km)       54
Mag.              4.4
Station Code      CHBH19
Station Lat.      35.5943
Station Long.     140.5107
Station Height(m) -1629
Record Time       2025/03/28 03:50:47
Sampling Freq(Hz) 100Hz
Duration Time(s)  120
Dir.              2
Scale Factor      2942(gal)/8224139
Max. Acc. (gal)   1.088
Last Correction   2025/03/28 03:50:48
Memo.             
[...]
  124240   124241   124241   124237   124236   124240   124240   124239 
  124240   124239   124239   124240   124241   124243   124243   124241 
  124243   124241   124239   124239   124240   124237   124236   124240 
  124241   124239   124239   124241   124239   124236   124241   124244 
  124241   124240   124244   124241   124239   124239   124239   124239 
  124240   124240   124240   124239   124240   124241   124241   124239 
  124239   124241   124243   124241   124240   124240   124239   124239 
  124240   124239   124239   124240   124240   124239   124239   124240 
  124241   124241   124239   124236   124240   124240   124240   124241 
  124241   124240   124240   124243   124243   124239   124239   124240 
  124239   124239   124240   124241   124240   124240   124240   124239 
  124237   124239   124240   124240   124240   124240   124243   124241 
  124239   124237   124237   124239   124243   124241   124240   124241 
  124243   124241   124244   124244   124241   124240   124239   124237 
  124239   124240   124240   124239   124241   124243   124241   124240 
  124241   124241   124241   124240   124240   124241   124243   124240 
  124239   124240   124240   124240   124239   124243   124243   124239 
  124239   124241   124240   124237   124239   124241   124243   124240 
  124241   124243   124240   124239   124241   124243   124241   124240 
  124241   124241   124239   124241   124243   124241   124241   124240 
  124240   124240   124240   124243   124243   124240   124240   124241 
  124240   124240   124243   124241   124240   124241   124243   124240 
  124241   124243   124240   124239   124241   124241   124241   124240 
  124240   124243   124241   124239   124239   124240   124241   124241 
  124240   124240   124239   124240   124241   124240   124241   124244 
  124241   124239   124237   124240   124241   124239   124237   124240 
  124241   124240   124240   124239   124239   124241   124241   124240 
  124241   124241   124240   124240   124240   124239   124239   124240 
  124239   124239   124241   124241   124241   124241   124241   124240 
  124240   124241   124241   124240   124241   124243   124240   124237 
  124239   124241   124240   124240   124241   124239   124240   124243 
  124241   124239   124241   124240   124239   124240   124240   124241 
  124241   124240   124241   124243   124240   124239   124240   124239 
  124239   124239   124239   124239   124240   124239   124239   124239 
  124240   124239   124239   124240   124240   124243   124244   124241 
  124240   124243   124240   124240   124241   124239   124241   124244 
  124241   124239   124240   124240   124240   124243   124243   124237 
  124235   124240   124241   124241   124244   124240   124239   124241 
  124243   124240   124239   124241   124241   124239   124239   124240 
  124241   124241   124241   124241   124239   124240   124241   124240 
  124239   124240   124241   124243   124241   124240   124241   124240 
  124239   124237   124236   124241   124243   124237   124237   124241 
  124243   124243   124243   124241   124240   124239   124240   124241 
  124240   124241   124243   124240   124239   124240   124241   124241 
  124240   124241   124243   124240   124240   124241   124243   124241 
  124240   124240   124241   124241   124239   124240   124241   124240 
  124240   124241   124240   124239   124240   124239   124239   124243 
  124243   124241   124241   124243   124240   124239   124241   124241 
  124239   124240   124241   124240   124241   124243   124243   124240 
  124240   124241   124240   124239   124240   124240   124240   124240 
  124239   124240   124243   124241   124241   124240   124239   124240 
  124243   124240   124239   124240   124240   124239   124240   124241 
  124240   124239   124241   124243   124240   124240   124240   124240 
  124241   124240   124239   124240   124241   124241   124239   124239 
  124240   124241   124240   124239   124240   124243   124243   124240 
  124240   124239   124240   124241   124241   124241   124240   124240 
  124243   124241   124239   124240   124240   124240   124243   124243 
  124241   124240   124239   124239   124241   124240   124239   124240 
  124240   124240   124241   124244   124244   124241   124239   124241 
  124243   124239   124240   124241   124240   124240   124241   124241 
  124239   124237   124240   124240   124240   124241   124240   124240 
  124243   124241   124239   124240   124240   124239   124240   124240 
  124239   124239   124239   124239   124237   124240   124241   124240 
  124240   124241   124243   124243   124243   124240   124239   124240 
  124240   124241   124240   124239   124240   124241   124240   124240 
  124239   124239   124239   124240   124240   124239   124239   124241 
  124241   124240   124241   124241   124239   124237   124239   124240 
  124239   124237   124240   124240   124241   124244   124241   124239 
  124241   124241   124243   124241   124237   124239   124241   124241 
  124240   124240   124241   124243   124241   124240   124239   124240 
  124241   124241   124241   124240   124237   124241   124243   124240 
  124241   124243   124241   124241   124240   124239   124241   124241 
  124239   124239   124240   124240   124240   124241   124241   124241 
  124243   124240   124240   124241   124240   124240   124241   124240 
  124240   124241   124241   124240   124240   124240   124240   124240 
  124240   124240   124240   124240   124243   124241   124239   124240 
  124240   124239   124240   124241   124237   124235   124240   124244 
  124241   124239   124241   124240   124236   124239   124243   124241 
  124237   124236   124237   124240   124240   124239   124237   124239 
  124240   124240   124240   124239   124240   124241   124241   124241 
  124241   124240   124237   124237   124240   124241   124239   124236 
  124239   124239   124237   124239   124239   124237   124240   124243 
  124243   124240   124239   124240   124239   124237   124240   124241 
  124240   124240   124240   124240   124241   124240   124239   124241 
  124241   124237   124237   124241   124241   124239   124237   124239 
  124239   124240   124243   124241   124239   124239   124240   124241 
  124243   124243   124241   124239   124237   124239   124241   124240 
  124239   124243   124244   124240   124239   124241   124241   124240 
  124240   124241   124241   124240   124240   124244   124244   124241 
  124240   124243   124244   124241   124240   124241   124243   124243 
  124240   124239   124237   124239   124237   124236   124239   124243 
  124240   124239   124240   124240   124240   124241   124243   124243 
  124241   124239   124239   124239   124240   124243   124241   124240 
  124241   124240   124240   124241   124240   124240   124241   124241 
  124241   124244   124243   124239   124237   124239   124240   124243 
  124244   124241   124240   124240   124237   124239   124241   124241 
  124239   124240   124240   124240   124240   124240   124240   124243 
  124240   124239   124240   124240   124240   124240   124240   124241 
  124241   124239   124239   124237   124239   124239   124237   124239 
  124240   124239   124239   124243   124241   124239   124240   124240 
  124239   124240   124240   124240   124241   124241   124239   124239 
  124239   124239   124240   124241   124239   124240   124243   124241 
  124239   124240   124241   124240   124240   124244   124244   124240 
  124237   124240   124240   124239   124240   124241   124243   124243 
  124240   124240   124241   124240   124240   124239   124237   124239 
  124243   124243   124239   124239   124240   124239   124241   124240 
  124239   124240   124241   124241   124240   124240   124243   124243 
  124241   124240   124239   124240   124243   124243   124240   124240 
  124240   124240   124240   124241   124241   124241   124240   124243 
  124244   124239   124237   124240   124241   124241   124241   124240 
  124240   124240   124237   124239   124239   124239   124241   124243 
  124240   124239   124239   124241   124241   124239   124240   124240 
  124239   124240   124241   124237   124239   124243   124240   124239 
  124241   124241   124239   124240   124239   124237   124240   124241 
  124240   124239   124240   124240   124240   124239   124240   124241 
  124240   124240   124244   124245   124247   124247   124241   124239 
  124241   124240   124235   124236   124243   124237   124224   124218 
  124222   124236   124241   124212   124193   124228   124267   124272 
  124268   124268   124247   124190   124146   124143   124193   124317 
  124386   124268   124127   124179   124298   124275   124229   124237 
  124210   124289   124382   124241   124166   124299   124306   124141 
  124039   124067   124187   124345   124386   124378   124414   124267 
  124097   124183   124249   124270   124383   124208   123813   123944 
  124455   124528   124251   124270   124394   124163   124121   124421 
  124382   124218   124268   124185   124071   124229   124255   124054 
  124119   124245   124245   124298   124341   124452   124418   124170 
  124214   124352   124174   124152   124383   124279   124136   124163 
  124094   124313   124409   123967   123986   124422   124428   124251 
  124208   124240   124146   124089   124366   124322   124108   124343 
  124243   124062   124492   124330   123851   124309   124507   124089 
  124328   124530   124073   124271   124545   123817   123863   124646 
  124330   123923   124252   124309   124281   124424   124146   123901 
  124170   124475   124538   124258   123962   124222   124403   124074 
  124182   124541   124276   124023   124143   124263   124413   124303 
  124048   124185   124379   124372   124291   124236   124193   123970 
  123944   124232   124198   124104   124505   124680   124278   124182 
  124326   124162   124020   124054   124259   124488   124326   124158 
  124290   124212   124090   124349   124544   124317   123997   124029 
  124383   124457   124119   124024   124074   124038   124389   124430 
  124036   124371   124606   124281   124245   124123   124113   124283 
  124166   124305   124383   124295   124374   124089   124132   124595 
  124366   124073   124173   124193   124298   124324   124125   124051 
  124125   124193   124197   124270   124318   124065   123985   124335 
  124270   124094   124482   124367   123931   124312   124671   124465 
  124229   124089   124146   124204   124224   124328   124205   124248 
  124449   124160   123951   124270   124432   124291   124324   124231 
  123921   124056   124248   123970   124024   124553   124610   124225 
  124066   124125   124143   124229   124341   124168   124143   124511 
  124591   124267   124151   124178   123915   124046   124537   124237 
  123862   124271   124587   124173   123746   124160   124563   124335 
  124394   124676   124472   124290   124533   124434   124081   124208 
  124205   123903   123965   124200   124267   124097   123930   124098 
  124233   124264   124541   124530   124100   124074   124328   124294 
  124272   124395   124320   124266   124367   124268   124186   124263 
  124181   124038   124108   124295   124229   124027   124160   124517 
  124542   124164   124077   124173   124058   124293   124402   124089 
  124231   124405   124187   124137   124305   124233   124071   124411 
  124507   124086   124272   124587   124321   124241   124371   124123 
  123957   124179   124186   123963   123966   124339   124762   124484 
  123975   124183   124320   124028   124167   124163   123719   124032 
  124565   124362   124168   124154   124255   124623   124687   124449 
  124217   124146   124467   124637   124422   124340   124276   123998 
  123921   124137   124147   123878   123847   124139   123986   123601 
  123935   124420   124429   124183   124195   124661   124584   124183 
  124549   124794   124348   124163   124332   124376   124382   124232 
  124096   124220   124021   123940   124285   124127   124158   124569 
  124320   124147   124164   123923   124251   124563   124082   123931 
  124425   124524   124181   124224   124363   124074   123990   124352 
  124424   124028   124033   124463   124409   124229   124411   124467 
  124443   124348   124208   124482   124406   123805   123869   124011 
  123749   124032   124258   123877   123861   124297   124542   124405 
  124150   124179   124447   124644   124355   123894   124228   124722 
  124436   124222   124472   124513   124352   124205   123946   123934 
  124402   124445   123836   123633   123936   124177   124303   124376 
  124322   124132   124206   124345   124008   124019   124480   124371 
  124218   124476   124461   124286   124441   124551   124179   124150 
  124636   124349   123861   124298   124659   124289   123803   123853 
  124351   124451   124197   124089   123963   124015   124282   124290 
  124044   123832   123997   124345   124341   124340   124455   124245 
  124275   124621   124443   124239   124428   124416   124247   124013 
  123777   123865   124187   124287   123973   123997   124384   124222 
  124067   124429   124551   124267   124029   124166   124580   124861 
  125185   125726   125955   125841   125838   125632   124830   123992 
  123268   122327   122010   122465   122855   123615   124569   125136 
  125948   126431   125996   125471   124615   123431   123064   123171 
  123126   123707   124518   124513   124598   124884   124522   124534 
  125042   124880   124279   123577   122913   122420   121528   121200 
  122646   123492   122582   122851   124567   125562   126076   126472 
  126142   125591   125377   124872   123449   121857   122419   124984 
  125226   123230   123560   124929   124553   124536   124827   123688 
  123434   124379   123662   123045   124263   124353   123349   123732 
  124737   124908   124185   123849   125005   125518   123979   123068 
  123857   124588   125050   125238   124661   124568   125092   124578 
  123137   122613   124038   125151   124272   124329   125593   124765 
  123535   124552   124799   122817   122465   125076   126971   125609 
  123408   123556   124475   123970   123353   123321   123777   124502 
  123727   122976   125112   127170   126377   124997   124768   124837 
  124262   123978   124467   123866   122983   123946   124572   123607 
  123272   123728   123908   124038   124104   123911   124017   124916 
  125135   123388   122089   122802   123198   122627   122899   123903 
  124818   125543   125109   123888   123863   124958   125884   126270 
  126181   126018   125790   124808   123519   123283   123507   123012 
  123114   124406   124687   123133   121603   121684   123155   124140 
  123503   123450   125266   126295   125763   125454   125432   125305 
  125115   124768   124437   124263   124576   124576   123507   123514 
  124869   124927   124224   124275   124185   123965   123921   123187 
  122365   122558   123211   123635   123809   123823   124224   125290 
  125793   125359   125531   125687   124453   123734   124228   124221 
  124391   125240   125378   124988   124447   123541   123284   123743 
  123742   123898   124903   125011   123630   122899   123461   123778 
  123511   123527   124004   124637   125042   125041   124794   124401 
  124399   124888   124814   124182   123843   123746   123859   124093 
  123944   123565   123291   123336   123917   124425   124372   124625 
  125362   125323   124498   124087   124155   124375   124861   124985 
  124505   124289   124175   123816   123769   123691   123531   124086 
  124730   125059   125655   125818   124937   123712   122944   122796 
  122881   123336   123934   123795   123489   123782   124244   124710 
  125151   125253   125155   125027   124907   125277   125551   124656 
  123599   123533   123873   123570   122542   122445   123935   124872 
  124540   124610   125088   124946   124536   124132   123716   123680 
  123828   124013   124464   124699   124217   123556   123568   124094 
  124491   124880   125286   125147   124549   124156   124055   123907 
  123523   123140   123303   123917   124451   124687   124553   124434 
  124741   125051   124912   124360   123853   124036   124632   124587 
  124016   123927   124112   123816   123322   123446   124194   124390 
  123966   124074   124298   123925   123735   124002   124101   124378 
  125145   125172   124417   124510   125115   124937   124440   124360 
  124460   124333   124102   124048   123903   123647   123898   124330 
  124070   123508   123408   123819   124312   124110   123460   123573 
  124249   124465   124335   124443   124807   125080   125109   124923 
  124599   124380   124393   124409   124360   124384   124136   123780 
  124106   124533   124379   124213   124233   124244   124224   124189 
  124324   124443   124198   123936   123955   123912   123911   124282 
  124445   124141   123955   123962   124104   124336   124216   123931 
  123973   124195   124287   124089   123751   123730   124098   124394 
  124452   124611   124884   124985   124833   124590   124556   124630 
  124514   124344   124239   124166   124141   124058   123901   123876 
  124155   124642   124978   124899   124642   124521   124339   124119 
  124132   124096   123873   123822   123992   124027   123930   124046 
  124119   123800   123556   123620   123515   123240   123174   123095 
  122944   123205   123827   124372   124779   125169   125531   125543 
  125188   124993   124849   124438   124398   124860   124933   124537 
  124502   124972   125304   125153   124783   124534   124335   124054 
  123871   123719   123465   123512   123751   123574   123438   123877 
  124416   124831   125070   125049   125189   125512   125510   125058 
  124537   124382   124328   123878   123300   123066   123064   123144 
  123520   124087   124430   124505   124314   123911   123597   123402 
  123221   123229   123462   123660   123781   124009   124345   124652 
  124829   124833   124641   124360   124299   124425   124441   124484 
  124582   124491   124383   124430   124480   124351   123989   123709 
  123696   123832   124158   124316   124044   123998   124376   124611 
  124603   124460   124299   124526   124862   124753   124555   124359 
  123830   123510   123773   123990   123927   124032   124336   124474 
  124463   124532   124649   124661   124410   124086   124082   124272 
  124441   124586   124540   124336   124236   124264   124402   124622 
  124625   124263   123896   123653   123310   123107   123245   123331 
  123377   123719   124086   124293   124571   124764   124785   124876 
  124811   124519   124553   124977   125352   125562   125648   125516 
  125043   124420   123951   123589   123356   123342   123381   123506 
  123716   123812   123897   123962   123863   123804   123874   123973 
  124146   124326   124344   124255   124260   124432   124533   124321 
  124114   124217   124297   124239   124344   124482   124444   124355 
  124191   124013   124016   124039   123984   124016   124042   123950 
  123863   123874   123989   124222   124530   124672   124614   124699 
  124802   124533   124254   124310   124353   124310   124449   124564 
  124367   124089   123988   123958   123985   124194   124380   124390 
  124549   124880   124875   124552   124390   124287   123951   123668 
