Origin Time       2025/03/28 03:50:00
Lat.              35.403
Long.             140.360
Depth. (km)       54
Mag.              4.4
Station Code      CHBH06
Station Lat.      35.7215
Station Long.     140.5046
Station Height(m) 35
Record Time       2025/03/28 03:50:49
Sampling Freq(Hz) 100Hz
Duration Time(s)  120
Dir.              5
Scale Factor      7845(gal)/8223790
Max. Acc. (gal)   15.546
Last Correction   2025/03/28 03:50:49
Memo.             
[...]
   -2872    -2872    -2878    -2883    -2875    -2874    -2883    -2884 
   -2880    -2876    -2871    -2878    -2883    -2880    -2883    -2886 
   -2875    -2867    -2871    -2880    -2878    -2864    -2859    -2864 
   -2879    -2894    -2894    -2883    -2883    -2891    -2894    -2891 
   -2887    -2882    -2879    -2879    -2874    -2874    -2880    -2870 
   -2866    -2872    -2867    -2874    -2887    -2880    -2875    -2872 
   -2866    -2874    -2889    -2891    -2891    -2889    -2879    -2875 
   -2875    -2883    -2891    -2880    -2863    -2864    -2872    -2880 
   -2897    -2905    -2886    -2871    -2872    -2874    -2876    -2882 
   -2878    -2874    -2876    -2875    -2879    -2884    -2879    -2878 
   -2876    -2876    -2880    -2887    -2891    -2887    -2876    -2878 
   -2879    -2872    -2878    -2884    -2880    -2875    -2868    -2860 
   -2864    -2871    -2875    -2883    -2887    -2876    -2871    -2882 
   -2887    -2883    -2884    -2883    -2870    -2871    -2879    -2876 
   -2871    -2872    -2875    -2866    -2860    -2868    -2866    -2857 
   -2867    -2874    -2874    -2880    -2882    -2876    -2876    -2882 
   -2883    -2875    -2874    -2883    -2875    -2862    -2866    -2875 
   -2876    -2879    -2878    -2874    -2876    -2879    -2874    -2868 
   -2870    -2870    -2870    -2878    -2879    -2875    -2874    -2868 
   -2871    -2886    -2889    -2878    -2870    -2872    -2876    -2876 
   -2875    -2871    -2871    -2871    -2870    -2874    -2878    -2883 
   -2889    -2883    -2879    -2886    -2883    -2879    -2884    -2883 
   -2876    -2883    -2890    -2882    -2876    -2883    -2886    -2882 
   -2876    -2870    -2870    -2874    -2870    -2870    -2875    -2876 
   -2878    -2880    -2884    -2884    -2875    -2868    -2867    -2874 
   -2890    -2894    -2880    -2874    -2870    -2870    -2879    -2890 
   -2891    -2882    -2874    -2876    -2886    -2883    -2874    -2876 
   -2878    -2874    -2880    -2886    -2887    -2883    -2872    -2872 
   -2875    -2867    -2863    -2870    -2880    -2883    -2876    -2882 
   -2893    -2893    -2887    -2879    -2868    -2867    -2872    -2876 
   -2882    -2886    -2879    -2880    -2886    -2884    -2884    -2883 
   -2871    -2860    -2860    -2871    -2882    -2883    -2884    -2880 
   -2870    -2871    -2878    -2878    -2880    -2880    -2880    -2884 
   -2884    -2886    -2886    -2882    -2879    -2879    -2883    -2884 
   -2872    -2868    -2880    -2884    -2882    -2880    -2876    -2875 
   -2878    -2874    -2878    -2883    -2872    -2868    -2875    -2880 
   -2882    -2884    -2884    -2883    -2883    -2887    -2886    -2879 
   -2875    -2874    -2872    -2872    -2874    -2874    -2875    -2870 
   -2868    -2878    -2884    -2893    -2893    -2878    -2864    -2863 
   -2872    -2883    -2882    -2875    -2872    -2878    -2879    -2875 
   -2879    -2880    -2871    -2872    -2880    -2876    -2874    -2880 
   -2883    -2878    -2880    -2889    -2884    -2870    -2863    -2863 
   -2866    -2871    -2876    -2886    -2895    -2891    -2884    -2883 
   -2882    -2880    -2879    -2879    -2884    -2886    -2879    -2874 
   -2875    -2880    -2879    -2874    -2868    -2868    -2876    -2886 
   -2886    -2884    -2886    -2886    -2878    -2870    -2870    -2867 
   -2866    -2872    -2875    -2878    -2886    -2884    -2876    -2872 
   -2871    -2876    -2879    -2874    -2874    -2878    -2879    -2880 
   -2883    -2884    -2882    -2875    -2870    -2867    -2868    -2872 
   -2875    -2868    -2864    -2872    -2880    -2880    -2882    -2882 
   -2882    -2879    -2871    -2868    -2870    -2860    -2856    -2867 
   -2874    -2871    -2876    -2882    -2876    -2875    -2875    -2867 
   -2867    -2874    -2876    -2876    -2876    -2872    -2876    -2878 
   -2872    -2882    -2889    -2874    -2864    -2866    -2863    -2867 
   -2880    -2886    -2879    -2878    -2876    -2876    -2878    -2878 
   -2876    -2871    -2863    -2867    -2876    -2882    -2884    -2884 
   -2878    -2875    -2878    -2872    -2867    -2867    -2870    -2879 
   -2883    -2878    -2882    -2884    -2879    -2878    -2875    -2870 
   -2866    -2866    -2870    -2871    -2874    -2880    -2889    -2890 
   -2887    -2882    -2880    -2882    -2876    -2867    -2868    -2874 
   -2874    -2880    -2883    -2875    -2872    -2875    -2880    -2889 
   -2887    -2886    -2884    -2875    -2868    -2871    -2880    -2886 
   -2886    -2887    -2886    -2875    -2866    -2871    -2875    -2872 
   -2876    -2883    -2883    -2879    -2875    -2878    -2879    -2874 
   -2880    -2894    -2884    -2872    -2876    -2876    -2872    -2876 
   -2882    -2878    -2876    -2886    -2889    -2886    -2880    -2871 
   -2870    -2879    -2882    -2876    -2874    -2876    -2876    -2876 
   -2880    -2889    -2891    -2882    -2879    -2883    -2878    -2874 
   -2876    -2876    -2883    -2889    -2883    -2879    -2874    -2868 
   -2874    -2878    -2878    -2879    -2886    -2886    -2879    -2880 
   -2887    -2880    -2876    -2879    -2882    -2887    -2887    -2878 
   -2871    -2867    -2870    -2872    -2875    -2883    -2890    -2890 
   -2893    -2894    -2890    -2887    -2879    -2876    -2883    -2879 
   -2874    -2875    -2868    -2870    -2883    -2893    -2894    -2891 
   -2882    -2871    -2866    -2866    -2872    -2886    -2890    -2887 
   -2890    -2886    -2880    -2886    -2883    -2880    -2886    -2884 
   -2883    -2879    -2868    -2872    -2890    -2887    -2882    -2887 
   -2887    -2883    -2882    -2872    -2867    -2875    -2879    -2886 
   -2895    -2891    -2884    -2880    -2870    -2862    -2870    -2876 
   -2878    -2879    -2876    -2874    -2876    -2883    -2886    -2887 
   -2890    -2887    -2876    -2870    -2872    -2870    -2863    -2871 
   -2883    -2884    -2882    -2886    -2883    -2875    -2874    -2871 
   -2871    -2882    -2886    -2882    -2880    -2876    -2868    -2868 
   -2874    -2878    -2880    -2882    -2880    -2875    -2871    -2871 
   -2864    -2851    -2833    -2818    -2836    -2897    -2974    -3038 
   -3067    -3055    -2991    -2848    -2708    -2725    -2876    -2926 
   -2782    -2605    -2539    -2574    -2722    -3028    -3368    -3476 
   -3183    -2670    -2381    -2546    -2949    -3284    -3433    -3315 
   -2848    -2300    -2205    -2566    -2828    -2759    -2582    -2442 
   -2286    -2284    -2870    -4009    -4822    -4602    -3738    -3078 
   -2787    -2305    -1617    -1626    -2266    -2293    -1868    -2162 
   -2920    -3399    -3728    -3886    -3611    -3051    -2454    -2330 
   -3014    -3607    -3321    -2856    -2948    -3307    -3312    -2806 
   -2413    -2513    -2471    -2035    -1836    -2019    -2239    -2620 
   -3258    -3697    -3761    -3777    -3724    -3312    -2924    -3138 
   -3481    -3242    -2721    -2411    -2188    -1833    -1576    -1881 
   -2683    -3381    -3568    -3253    -2921    -3110    -3489    -3433 
   -3002    -2492    -2118    -2099    -2421    -2999    -3568    -3585 
   -3156    -3051    -3391    -3519    -3171    -2906    -3040    -3055 
   -2629    -2052    -1644    -1679    -2181    -2724    -3044    -3285 
   -3469    -3389    -3184    -3379    -3886    -3843    -3073    -2373 
   -2160    -2231    -2312    -2191    -2124    -2430    -2786    -3071 
   -3666    -4396    -4598    -4067    -3034    -1840     -966     -837 
   -1599    -2847    -3631    -3366    -2627    -2469    -2979    -3311 
   -3234    -3268    -3354    -2982    -2377    -2193    -2581    -3383 
   -4303    -4752    -4521    -4000    -3299    -2440    -1903    -1864 
   -1887    -1687    -1300     -936    -1061    -1921    -3134    -4028 
   -4178    -3896    -3881    -4024    -3662    -3032    -2926    -3154 
   -2998    -2614    -2520    -2643    -2759    -2716    -2493    -2550 
   -3045    -3280    -2825    -2188    -1952    -2047    -2322    -3033 
   -3913    -4005    -3321    -2860    -2899    -3113    -3213    -2845 
   -2374    -2415    -2481    -2199    -2319    -3215    -4290    -4815 
   -4433    -3493    -2764    -2401    -2064    -1817    -1899    -2069 
   -2004    -2037    -2605    -3310    -3408    -2790    -2223    -2511 
   -3181    -3462    -3807    -4461    -4579    -3933    -3242    -2839 
   -2565    -2377    -2342    -2266    -1863    -1256     -791     -861 
   -1842    -3258    -4101    -4293    -4313    -4016    -3322    -3006 
   -3412    -3597    -3127    -2997    -3512    -3551    -2686    -1771 
   -1364    -1333    -1648    -2335    -3102    -3732    -4137    -3996 
   -3237    -2513    -2457    -2832    -2947    -2643    -2447    -2694 
   -2857    -2407    -1938    -2296    -3096    -3596    -3944    -4228 
   -4066    -3523    -2918    -2532    -2658    -2968    -2857    -2501 
   -2130    -1439     -828    -1278    -2717    -4018    -4368    -4045 
   -3700    -3456    -3350    -3532    -3728    -3569    -2924    -1844 
    -976    -1116    -2041    -2926    -3315    -3069    -2376    -1794 
   -1803    -2654    -4189    -5464    -5548    -4590    -3352    -2374 
   -1845    -1664    -1607    -1534    -1370    -1394    -2218    -3740 
   -4877    -4946    -4536    -4324    -4040    -3465    -2941    -2340 
   -1273     -240      -98     -988    -2457    -3667    -3850    -3218 
   -2521    -2173    -2528    -3632    -4693    -5020    -4738    -4010 
   -2902    -2101    -2336    -3161    -3454    -2893    -2042    -1489 
   -1502    -1895    -2191    -2196    -2139    -2188    -2421    -3149 
   -4417    -5513    -5580    -4498    -2938    -1755    -1321    -1386 
   -1591    -1906    -2273    -2478    -2597    -2928    -3577    -4334 
   -4800    -4715    -4072    -3038    -2126    -1817    -1849    -1829 
   -1718    -1529    -1520    -1875    -2350    -2889    -3542    -4148 
   -4661    -5030    -4949    -4347    -3562    -2824    -2219    -2018 
   -2234    -2272    -1759    -1144     -897    -1057    -1814    -3156 
   -4232    -4484    -4407    -4275    -3717    -2789    -2262    -2694 
   -3493    -3694    -3492    -3434    -3175    -2724    -2604    -2490 
   -2062    -1729    -1556    -1321    -1277    -1683    -2274    -2830 
   -3532    -4275    -4448    -3959    -3609    -3682    -3557    -3187 
   -3063    -3026    -2835    -2820    -3055    -3125    -2848    -2442 
   -2258    -2363    -2397    -2245    -2263    -2551    -2814    -2990 
   -3215    -3546    -3835    -3663    -3067    -2650    -2403    -2107 
   -2301    -3183    -3786    -3284    -2242    -1675    -1529    -1505 
   -2030    -3028    -3689    -3690    -3237    -2728    -2675    -3057 
   -3361    -3518    -3825    -4143    -4090    -3759    -3626    -3807 
   -3854    -3461    -2879    -2384    -1919    -1386     -827     -398 
    -382     -947    -1922    -3092    -4230    -4777    -4434    -3798 
   -3581    -3774    -3870    -3638    -3387    -3198    -2674    -1891 
   -1602    -2138    -2857    -3145    -3100    -2844    -2266    -1773 
   -2031    -2771    -3184    -3190    -3180    -3207    -3069    -2663 
   -2160    -2054    -2566    -3176    -3457    -3665    -3916    -3763 
   -3136    -2679    -2733    -2918    -3037    -3310    -3551    -3225 
   -2500    -2079    -2033    -1931    -1752    -1869    -2398    -3029 
   -3585    -4202    -4734    -4830    -4541    -4071    -3369    -2616 
   -2249    -2035    -1425     -757     -564     -561     -704    -1640 
   -3202    -4222    -4210    -3794    -3561    -3559    -3669    -3719 
   -3721    -3917    -4039    -3566    -2884    -2521    -2061    -1377 
   -1208    -1723    -2258    -2466    -2606    -3019    -3700    -4276 
   -4581    -4703    -4402    -3501    -2282    -1028     -126     -167 
   -1183    -2434    -3288    -3732    -3942    -4060    -4237    -4418 
   -4347    -3925    -3303    -2654    -2120    -1833    -1826    -1992 
   -2174    -2419    -2799    -2956    -2754    -2716    -2952    -3126 
   -3272    -3254    -2795    -2407    -2650    -3126    -3361    -3430 
   -3360    -2948    -2339    -2207    -2786    -3321    -3258    -2922 
   -2822    -3168    -3655    -3736    -3437    -3111    -2694    -2080 
   -1547    -1364    -1460    -1621    -1865    -2331    -2964    -3626 
   -4297    -4793    -4646    -3781    -2916    -2596    -2519    -2392 
   -2381    -2404    -2200    -1949    -2002    -2430    -3078    -3643 
   -3920    -3996    -3921    -3655    -3345    -3087    -2790    -2536 
   -2540    -2658    -2529    -2168    -1841    -1710    -1946    -2563 
   -3172    -3403    -3218    -2833    -2573    -2488    -2451    -2608 
   -3082    -3605    -3902    -3838    -3418    -2992    -2960    -3279 
   -3510    -3370    -3157    -3218    -3474    -3785    -4101    -4313 
   -4180    -3403    -2142    -1019     -357     -133     -399    -1016 
   -1518    -1764    -2134    -2847    -3653    -4278    -4602    -4347 
   -3364    -2309    -2060    -2604    -3226    -3262    -2586    -1659 
   -1136    -1377    -2166    -3044    -3866    -4492    -4537    -3942 
   -3122    -2463    -2002    -1557    -1136     -916     -897    -1090 
   -1614    -2392    -3362    -4572    -5671    -6203    -6278    -6127 
   -5649    -4962    -4409    -3892    -3025    -1908    -1167    -1098 
   -1420    -2039    -2929    -3554    -3454    -2749    -1742     -602 
     506     1286     1590     1460      660    -1071    -3393    -6023 
   -9146   -12321   -14477   -15265   -14989   -13706   -11349    -8094 
   -4091      708     5915    10282    12754    13419    12799    11026 
    8048     4210      409    -2625    -4923    -6835    -8513    -9972 
  -11252   -12316   -13009   -13020   -11988   -10066    -7742    -5206 
   -2725     -772      629     1894     3219     4205     4045     2365 
     -76    -2162    -3518    -4182    -3931    -2482     -129     1946 
    2362      832    -1605    -3782    -5283    -6386    -7377    -8154 
   -8719    -9267    -9494    -8779    -7091    -5065    -3160    -1472 
    -175      697     1458     2243     3133     4284     5105     4618 
    2625     -583    -4320    -7333    -9003    -9776   -10274   -10731 
  -10714    -9439    -6632    -2872      573     2542     2944     2354 
     993    -1182    -3658    -5227    -5184    -4234    -3566    -3557 
   -3738    -3326    -1933      -67     1394     2023     1931     1287 
       6    -1911    -3925    -5296    -5942    -6444    -7082    -7373 
   -6878    -5840    -4592    -3175    -1737     -549      274      653 
     395     -641    -2353    -4280    -5840    -6697    -6747    -6025 
   -4750    -3235    -1810     -714        1      332      187     -421 
   -1223    -1948    -2641    -3495    -4499    -5286    -5359    -4614 
   -3414    -2174    -1402    -1563    -2465    -3422    -4004    -4253 
   -4415    -4536    -4367    -3778    -3117    -2781    -2552    -1857 
    -618      584     1011      224    -1560    -3596    -5100    -5602 
   -5069    -3835    -2358    -1088     -464     -685    -1507    -2432 
   -2957    -2830    -2319    -1954    -1979    -2371    -3029    -3605 
   -3819    -3920    -4333    -5035    -5791    -6585    -7322    -7642 
   -7306    -6370    -5009    -3323    -1335      666     2054     2506 
    2365     1937     1081     -159    -1385    -2438    -3333    -3809 
   -3703    -3311    -3007    -2902    -3117    -3924    -5287    -6702 
   -7704    -8143    -8077    -7495    -6169    -4023    -1502      673 
    1966     2285     1867      955     -149    -1078    -1831    -2571 
   -3076    -3076    -2694    -2270    -2089    -2164    -2296    -2428 
   -2660    -3083    -3865    -4988    -5989    -6442    -6357    -5994 
   -5463    -4541    -3111    -1501     -184      476      414      -24 
    -409     -607     -872    -1676    -3065    -4395    -5162    -5517 
   -5737    -5784    -5493    -4896    -4249    -3744    -3356    -2944 
   -2308    -1390     -508       -9       51     -373    -1219    -2042 
   -2601    -3148    -3751    -4135    -4166    -3867    -3230    -2382 
   -1780    -1958    -2988    -4388    -5601    -6397    -6720    -6359 
   -5235    -3674    -2092     -869     -357     -523    -1034    -1773 
   -2733    -3545    -3708    -3083    -1975     -920     -302      -89 
     -28      -81     -591    -1908    -3825    -5645    -6808    -7267 
   -7330    -7180    -6571    -5213    -3291    -1368       -1      629 
     729      498       70     -349     -699    -1135    -1807    -2848 
   -4259    -5687    -6687    -7052    -6640    -5387    -3613    -1904 
    -692     -113        5        5      -16     -201     -507     -854 
   -1393    -2219    -3210    -4182    -4880    -4984    -4399    -3406 
   -2466    -1841    -1505    -1401    -1540    -1854    -2227    -2640 
   -3156    -3862    -4779    -5813    -6833    -7684    -8172    -8239 
   -7894    -7042    -5578    -3619    -1544      218     1445     2062 
    2047     1494      607     -469    -1661    -2671    -2970    -2405 
   -1557    -1151    -1420    -2215    -3361    -4631    -5566    -5756 
   -5351    -4823    -4405    -4081    -3771    -3372    -2963    -2748 
   -2749    -2889    -3142    -3491    -3794    -3875    -3865    -4037 
   -4229    -4054    -3478    -2660    -1690     -733       25      580 
     963      981      444     -387    -1080    -1561    -1998    -2532 
   -3195    -3850    -4329    -4552    -4561    -4546    -4629    -4719 
   -4710    -4606    -4506    -4486    -4418    -4152    -3694    -3006 
   -2218    -1822    -1995    -2440    -2840    -2959    -2786    -2490 
   -2118    -1792    -1730    -1883    -2118    -2457    -2845    -3067 
   -2920    -2428    -1841    -1443    -1459    -1953    -2766    -3647 
   -4328    -4594    -4476    -4293    -4348    -4584    -4707    -4540 
   -4074    -3397    -2671    -2030    -1536    -1227    -1142    -1279 
   -1591    -2045    -2631    -3377    -4230    -4932    -5227    -5024 
   -4286    -3018    -1439       47     1047     1281      596     -899 
   -2868    -4916    -6613    -7560    -7595    -6863    -5649    -4125 
   -2322     -419     1127     2007     2246     1915     1179      321 
    -612    -1621    -2481    -3175    -3898    -4654    -5377    -6104 
   -6743    -7103    -7125    -6778    -6011    -4959    -3931    -3175 
   -2664    -2130    -1413     -602      118      444       85     -961 
   -2376    -3728    -4773    -5472    -5773    -5610    -5049    -4158 
   -2938    -1459      184     1771     2913     3383     3127     2108 
     378    -1895    -4469    -7068    -9409   -11121   -11859   -11584 
  -10500    -8810    -6654    -4126    -1424     1100     3080     4255 
    4564     4082     2886     1260     -400    -1898    -3109    -3974 
   -4618    -5162    -5580    -5738    -5524    -5007    -4338    -3595 
   -2855    -2197    -1637    -1243    -1020     -839     -766    -1051 
   -1759    -2724    -3724    -4585    -5266    -5726    -5871    -5675 
   -5115    -4259    -3414    -2863    -2664    -2637    -2511    -2243 
   -1876    -1350     -724     -299     -427    -1229    -2513    -3964 
   -5217    -5894    -5844    -5186    -4195    -3234    -2511    -1987 
   -1648    -1524    -1555    -1687    -1927    -2273    -2654    -2929 
   -3029    -3010    -2887    -2539    -1976    -1468    -1220    -1236 
   -1480    -1833    -2209    -2671    -3261    -3947    -4618    -5022 
