Origin Time       2025/03/28 03:50:00
Lat.              35.403
Long.             140.360
Depth. (km)       54
Mag.              4.4
Station Code      CHBH17
Station Lat.      35.1714
Station Long.     140.3398
Station Height(m) -811.7
Record Time       2025/03/28 03:50:50
Sampling Freq(Hz) 100Hz
Duration Time(s)  120
Dir.              1
Scale Factor      2942(gal)/8224139
Max. Acc. (gal)   2.175
Last Correction   2025/03/28 03:50:50
Memo.             
[...]
 -246480  -246480  -246477  -246478  -246480  -246477  -246476  -246480 
 -246481  -246478  -246477  -246478  -246480  -246481  -246480  -246480 
 -246480  -246480  -246481  -246478  -246477  -246480  -246483  -246478 
 -246478  -246480  -246480  -246481  -246480  -246478  -246481  -246483 
 -246480  -246480  -246480  -246480  -246481  -246481  -246480  -246480 
 -246481  -246481  -246481  -246478  -246480  -246481  -246481  -246481 
 -246480  -246478  -246478  -246481  -246480  -246477  -246478  -246478 
 -246480  -246483  -246478  -246477  -246481  -246481  -246478  -246480 
 -246481  -246480  -246478  -246477  -246480  -246483  -246481  -246480 
 -246480  -246481  -246481  -246480  -246480  -246481  -246483  -246480 
 -246478  -246480  -246481  -246478  -246478  -246484  -246485  -246484 
 -246487  -246485  -246481  -246480  -246481  -246484  -246484  -246483 
 -246485  -246485  -246480  -246480  -246481  -246480  -246481  -246483 
 -246480  -246481  -246484  -246481  -246480  -246480  -246481  -246481 
 -246481  -246481  -246478  -246478  -246483  -246481  -246480  -246480 
 -246480  -246478  -246481  -246481  -246478  -246480  -246481  -246480 
 -246478  -246480  -246481  -246483  -246483  -246481  -246481  -246480 
 -246478  -246478  -246481  -246481  -246480  -246478  -246481  -246481 
 -246478  -246480  -246481  -246480  -246480  -246478  -246480  -246478 
 -246478  -246480  -246483  -246481  -246480  -246478  -246477  -246478 
 -246480  -246478  -246480  -246483  -246481  -246480  -246481  -246481 
 -246481  -246481  -246480  -246478  -246480  -246481  -246481  -246480 
 -246477  -246478  -246480  -246480  -246480  -246480  -246480  -246480 
 -246480  -246480  -246480  -246480  -246478  -246478  -246478  -246480 
 -246481  -246481  -246478  -246478  -246480  -246480  -246480  -246480 
 -246477  -246478  -246481  -246478  -246480  -246481  -246480  -246478 
 -246481  -246481  -246481  -246483  -246481  -246478  -246477  -246478 
 -246478  -246477  -246477  -246480  -246480  -246477  -246477  -246480 
 -246478  -246477  -246480  -246480  -246478  -246480  -246481  -246477 
 -246478  -246480  -246480  -246480  -246480  -246480  -246480  -246480 
 -246480  -246477  -246478  -246481  -246481  -246480  -246481  -246481 
 -246478  -246478  -246480  -246480  -246480  -246480  -246478  -246478 
 -246481  -246480  -246478  -246481  -246483  -246483  -246483  -246481 
 -246481  -246483  -246481  -246481  -246483  -246483  -246481  -246480 
 -246481  -246483  -246483  -246481  -246481  -246483  -246480  -246478 
 -246478  -246477  -246478  -246481  -246481  -246481  -246481  -246481 
 -246480  -246480  -246481  -246481  -246478  -246478  -246478  -246480 
 -246483  -246483  -246481  -246481  -246483  -246483  -246481  -246480 
 -246480  -246480  -246478  -246480  -246480  -246477  -246478  -246483 
 -246481  -246480  -246480  -246481  -246481  -246478  -246478  -246478 
 -246478  -246480  -246478  -246474  -246477  -246481  -246480  -246480 
 -246483  -246481  -246480  -246483  -246483  -246481  -246483  -246483 
 -246484  -246483  -246478  -246480  -246481  -246478  -246478  -246481 
 -246480  -246478  -246480  -246480  -246480  -246480  -246480  -246480 
 -246480  -246480  -246481  -246483  -246481  -246477  -246477  -246480 
 -246481  -246481  -246480  -246481  -246484  -246483  -246483  -246483 
 -246483  -246481  -246481  -246481  -246483  -246483  -246481  -246483 
 -246481  -246480  -246480  -246480  -246481  -246481  -246481  -246483 
 -246483  -246483  -246481  -246481  -246481  -246480  -246481  -246481 
 -246480  -246481  -246484  -246483  -246478  -246478  -246481  -246483 
 -246480  -246480  -246481  -246481  -246483  -246484  -246483  -246481 
 -246483  -246483  -246483  -246481  -246483  -246483  -246480  -246478 
 -246483  -246483  -246478  -246478  -246481  -246483  -246481  -246480 
 -246478  -246481  -246481  -246480  -246481  -246483  -246481  -246481 
 -246483  -246483  -246484  -246481  -246480  -246481  -246483  -246483 
 -246483  -246481  -246481  -246483  -246483  -246483  -246481  -246483 
 -246483  -246483  -246481  -246480  -246481  -246483  -246481  -246483 
 -246484  -246480  -246481  -246484  -246481  -246480  -246478  -246480 
 -246481  -246480  -246480  -246480  -246477  -246478  -246481  -246480 
 -246480  -246480  -246477  -246478  -246480  -246478  -246480  -246480 
 -246478  -246481  -246483  -246481  -246480  -246478  -246474  -246476 
 -246478  -246480  -246478  -246477  -246480  -246481  -246480  -246478 
 -246478  -246480  -246480  -246478  -246478  -246478  -246478  -246478 
 -246480  -246481  -246481  -246480  -246478  -246478  -246480  -246481 
 -246481  -246483  -246483  -246480  -246480  -246484  -246483  -246478 
 -246480  -246481  -246478  -246480  -246478  -246478  -246481  -246481 
 -246478  -246478  -246481  -246481  -246483  -246481  -246478  -246478 
 -246483  -246484  -246483  -246481  -246481  -246480  -246480  -246481 
 -246480  -246481  -246484  -246481  -246481  -246483  -246481  -246481 
 -246481  -246481  -246481  -246481  -246481  -246480  -246478  -246480 
 -246483  -246481  -246478  -246483  -246483  -246478  -246477  -246481 
 -246483  -246480  -246480  -246480  -246483  -246484  -246481  -246480 
 -246481  -246481  -246481  -246481  -246480  -246478  -246480  -246481 
 -246481  -246478  -246480  -246483  -246481  -246480  -246478  -246478 
 -246477  -246480  -246481  -246481  -246481  -246480  -246480  -246480 
 -246480  -246481  -246483  -246481  -246483  -246481  -246478  -246480 
 -246481  -246480  -246481  -246481  -246481  -246481  -246480  -246478 
 -246480  -246481  -246481  -246481  -246481  -246484  -246481  -246480 
 -246483  -246481  -246478  -246480  -246481  -246481  -246483  -246483 
 -246481  -246481  -246483  -246481  -246481  -246481  -246480  -246480 
 -246480  -246480  -246480  -246481  -246481  -246481  -246484  -246483 
 -246478  -246480  -246483  -246481  -246478  -246480  -246481  -246481 
 -246481  -246480  -246481  -246481  -246478  -246478  -246481  -246483 
 -246483  -246480  -246480  -246483  -246481  -246483  -246484  -246481 
 -246481  -246481  -246481  -246481  -246481  -246481  -246484  -246484 
 -246481  -246481  -246483  -246481  -246483  -246483  -246484  -246483 
 -246480  -246481  -246483  -246480  -246480  -246483  -246483  -246480 
 -246480  -246483  -246484  -246483  -246483  -246481  -246481  -246483 
 -246483  -246483  -246483  -246481  -246480  -246481  -246481  -246480 
 -246480  -246483  -246481  -246481  -246481  -246483  -246484  -246483 
 -246481  -246480  -246480  -246480  -246483  -246483  -246480  -246481 
 -246480  -246481  -246481  -246478  -246478  -246481  -246481  -246480 
 -246481  -246483  -246483  -246483  -246481  -246480  -246481  -246483 
 -246480  -246480  -246480  -246480  -246481  -246481  -246478  -246478 
 -246480  -246480  -246480  -246480  -246480  -246480  -246481  -246480 
 -246480  -246481  -246481  -246484  -246483  -246480  -246481  -246480 
 -246477  -246481  -246483  -246480  -246481  -246483  -246478  -246477 
 -246481  -246481  -246480  -246481  -246483  -246484  -246481  -246480 
 -246480  -246480  -246483  -246484  -246480  -246478  -246480  -246483 
 -246480  -246477  -246480  -246483  -246480  -246478  -246483  -246483 
 -246481  -246483  -246483  -246481  -246483  -246483  -246481  -246481 
 -246481  -246480  -246480  -246481  -246481  -246480  -246480  -246480 
 -246480  -246481  -246483  -246483  -246483  -246483  -246481  -246481 
 -246481  -246478  -246480  -246481  -246481  -246481  -246481  -246481 
 -246480  -246480  -246480  -246481  -246483  -246480  -246480  -246483 
 -246478  -246476  -246481  -246483  -246478  -246480  -246484  -246484 
 -246483  -246480  -246478  -246481  -246481  -246480  -246480  -246478 
 -246480  -246481  -246480  -246480  -246480  -246478  -246480  -246483 
 -246483  -246480  -246481  -246484  -246483  -246478  -246477  -246477 
 -246480  -246478  -246477  -246478  -246481  -246481  -246478  -246469 
 -246457  -246456  -246473  -246499  -246516  -246531  -246562  -246584 
 -246511  -246379  -246312  -246295  -246316  -246447  -246589  -246574 
 -246493  -246645  -246942  -246964  -246738  -246530  -246356  -246211 
 -246042  -245959  -246125  -246161  -246172  -246565  -246792  -246708 
 -246720  -246736  -246888  -246959  -246470  -246080  -246287  -246423 
 -246206  -246095  -246281  -246588  -246684  -246528  -246566  -246766 
 -246769  -246607  -246304  -246226  -246585  -246661  -246458  -246526 
 -246495  -246383  -246530  -246558  -246437  -246450  -246478  -246298 
 -246048  -246132  -246292  -246280  -246574  -246929  -246816  -246649 
 -246686  -246703  -246591  -246423  -246272  -246211  -246357  -246384 
 -246188  -246399  -246744  -246659  -246732  -246946  -246618  -246240 
 -246318  -246329  -246164  -246280  -246501  -246551  -246545  -246426 
 -246396  -246634  -246689  -246514  -246512  -246597  -246442  -246233 
 -246403  -246748  -246807  -246578  -246292  -246264  -246545  -246636 
 -246415  -246280  -246245  -246190  -246262  -246423  -246488  -246489 
 -246615  -246873  -246897  -246628  -246501  -246456  -246316  -246312 
 -246338  -246414  -246682  -246611  -246267  -246426  -246823  -246757 
 -246443  -246329  -246307  -246285  -246480  -246605  -246342  -246262 
 -246623  -246883  -246854  -246528  -246099  -246160  -246501  -246478 
 -246199  -246118  -246423  -246713  -246655  -246593  -246670  -246755 
 -246762  -246481  -246133  -246144  -246423  -246576  -246477  -246451 
 -246515  -246373  -246218  -246304  -246612  -246888  -246730  -246430 
 -246385  -246368  -246522  -246839  -246724  -246385  -246349  -246461 
 -246477  -246381  -246269  -246225  -246275  -246389  -246468  -246520 
 -246597  -246716  -246936  -246933  -246553  -246376  -246437  -246330 
 -246275  -246350  -246302  -246260  -246427  -246661  -246771  -246721 
 -246541  -246408  -246457  -246515  -246404  -246262  -246253  -246256 
 -246276  -246468  -246564  -246438  -246480  -246701  -246703  -246496 
 -246441  -246618  -246731  -246605  -246456  -246435  -246474  -246504 
 -246456  -246447  -246535  -246406  -246240  -246335  -246354  -246318 
 -246434  -246454  -246377  -246376  -246495  -246661  -246669  -246588 
 -246537  -246465  -246497  -246561  -246503  -246607  -246850  -246839 
 -246634  -246419  -246199  -246157  -246356  -246481  -246435  -246515 
 -246615  -246350  -246086  -246214  -246334  -246277  -246310  -246477 
 -246711  -246757  -246531  -246511  -246681  -246636  -246568  -246627 
 -246642  -246672  -246770  -246786  -246605  -246233  -246014  -246146 
 -246163  -246033  -246157  -246350  -246487  -246592  -246553  -246628 
 -246700  -246554  -246703  -246946  -246699  -246308  -246153  -246329 
 -246667  -246786  -246788  -246770  -246581  -246379  -246304  -246392 
 -246445  -246157  -245991  -246250  -246406  -246407  -246562  -246713 
 -246620  -246312  -246113  -246303  -246620  -246597  -246446  -246642 
 -246900  -246856  -246662  -246376  -246150  -246215  -246315  -246322 
 -246423  -246527  -246622  -246701  -246561  -246422  -246396  -246264 
 -246227  -246361  -246522  -246727  -246746  -246508  -246248  -246044 
 -246060  -246307  -246523  -246785  -247075  -247013  -246759  -246623 
 -246423  -246257  -246311  -246375  -246483  -246666  -246584  -246311 
 -246269  -246435  -246546  -246497  -246385  -246449  -246609  -246586 
 -246491  -246530  -246640  -246690  -246581  -246348  -246153  -246152 
 -246326  -246493  -246497  -246341  -246261  -246392  -246523  -246631 
 -246788  -246742  -246532  -246477  -246504  -246422  -246262  -246188 
 -246337  -246647  -246827  -246755  -246688  -246673  -246658  -246723 
 -246636  -246484  -246607  -246642  -246365  -246076  -245883  -245992 
 -246380  -246555  -246497  -246541  -246607  -246423  -246082  -246042 
 -246369  -246564  -246573  -246669  -246696  -246642  -246619  -246442 
 -246285  -246420  -246604  -246703  -246711  -246559  -246504  -246693 
 -246762  -246478  -246203  -246316  -246511  -246350  -246150  -246283 
 -246419  -246384  -246461  -246634  -246785  -246874  -246685  -246406 
 -246504  -246721  -246607  -246352  -246196  -246053  -245901  -245918 
 -246129  -246377  -246585  -246693  -246777  -246935  -246920  -246622 
 -246418  -246519  -246627  -246585  -246495  -246362  -246325  -246485 
 -246574  -246515  -246586  -246684  -246588  -246430  -246221  -246109 
 -246357  -246653  -246723  -246686  -246573  -246511  -246515  -246449 
 -246481  -246530  -246338  -246219  -246262  -246237  -246396  -246763 
 -246883  -246763  -246676  -246592  -246427  -246277  -246242  -246357 
 -246582  -246677  -246531  -246329  -246219  -246295  -246473  -246450 
 -246356  -246492  -246618  -246508  -246395  -246491  -246748  -246873 
 -246693  -246531  -246572  -246465  -246213  -246226  -246350  -246277 
 -246307  -246511  -246512  -246358  -246366  -246416  -246321  -246279 
 -246281  -246210  -246291  -246422  -246404  -246478  -246670  -246757 
 -246762  -246744  -246716  -246743  -246766  -246746  -246712  -246542 
 -246275  -246177  -246256  -246276  -246257  -246412  -246719  -246919 
 -246808  -246555  -246542  -246672  -246626  -246492  -246307  -246088 
 -246052  -246076  -246092  -246381  -246744  -246715  -246466  -246514 
 -246766  -246716  -246470  -246415  -246545  -246838  -247170  -247278 
 -247251  -247239  -247023  -246491  -245895  -245280  -244660  -244408 
 -244435  -244522  -245060  -246140  -247486  -249000  -250344  -251043 
 -250877  -249868  -248171  -245903  -243503  -241682  -240659  -240401 
 -240970  -242210  -243789  -245315  -246487  -247329  -247707  -247475 
 -247195  -247293  -247317  -246985  -246694  -246609  -246438  -246202 
 -246180  -246273  -246149  -245921  -246122  -246944  -248171  -249617 
 -251035  -252089  -252423  -251803  -250603  -249401  -248379  -247779 
 -247822  -248065  -247992  -247695  -247070  -245686  -243919  -242586 
 -241880  -241741  -242127  -242692  -243252  -243922  -244475  -244649 
 -244725  -245155  -246095  -247182  -247869  -247990  -247573  -246827 
 -246202  -245778  -245403  -245378  -246123  -247365  -248320  -248701 
 -248830  -248825  -248559  -248204  -248035  -247922  -247464  -246750 
 -246348  -246253  -245987  -245596  -245312  -245080  -244984  -245176 
 -245484  -245732  -246042  -246387  -246412  -246168  -246068  -246164 
 -246299  -246318  -246109  -245895  -245741  -245524  -245633  -246365 
 -247328  -248032  -248476  -248778  -248625  -248028  -247568  -247251 
 -246832  -246497  -246265  -246084  -246073  -246052  -245748  -245207 
 -244687  -244514  -244752  -245043  -245207  -245421  -245744  -245988 
 -246003  -245998  -246379  -247089  -247693  -247864  -247537  -247048 
 -246689  -246357  -245984  -245679  -245813  -246754  -247976  -248616 
 -248703  -248582  -248154  -247396  -246721  -246503  -246564  -246454 
 -246333  -246639  -247039  -247023  -246709  -246218  -245528  -244973 
 -244806  -244740  -244580  -244633  -245118  -245693  -245894  -245889 
 -246034  -246354  -246893  -247513  -247783  -247550  -247070  -246684 
 -246465  -246391  -246456  -246365  -245998  -245702  -245650  -245686 
 -245660  -245546  -245377  -245182  -245033  -244999  -245177  -245636 
 -246072  -246211  -246376  -246865  -247387  -247568  -247386  -247077 
 -246954  -247190  -247756  -248513  -249093  -249311  -249500  -249673 
 -249489  -249137  -248871  -248537  -248143  -247892  -247818  -247661 
 -247190  -246581  -245963  -245312  -244903  -244814  -244841  -244890 
 -244648  -244097  -243751  -243633  -243481  -243367  -243264  -243225 
 -243494  -243946  -244344  -244764  -245384  -246429  -247938  -249328 
 -249905  -249654  -249092  -248676  -248398  -247959  -247434  -247098 
 -246871  -246694  -246715  -246882  -246981  -246948  -246861  -246790 
 -246904  -247245  -247518  -247538  -247463  -247375  -247044  -246291 
 -245346  -244609  -244287  -244341  -244609  -244908  -245080  -245119 
 -245191  -245408  -245787  -246206  -246352  -246191  -246284  -247005 
 -247989  -248664  -248761  -248468  -248228  -248089  -247820  -247378 
 -246677  -245844  -245435  -245587  -245874  -246111  -246306  -246366 
 -246358  -246318  -246161  -245992  -245960  -246096  -246321  -246492 
 -246657  -246815  -246771  -246638  -246703  -246979  -247282  -247279 
 -246773  -246082  -245648  -245544  -245623  -245799  -246136  -246541 
 -246735  -246716  -246640  -246478  -246204  -245961  -245837  -245764 
 -245803  -246067  -246426  -246670  -246688  -246570  -246601  -246842 
 -247004  -246879  -246495  -246068  -245971  -246192  -246223  -245949 
 -245806  -246022  -246472  -246883  -246990  -246813  -246595  -246635 
 -247067  -247509  -247504  -247156  -246817  -246669  -246638  -246524 
 -246288  -246140  -246173  -246192  -246014  -245698  -245474  -245570 
 -245952  -246365  -246688  -246948  -247120  -247128  -246986  -246784 
 -246581  -246393  -246275  -246352  -246657  -246967  -247018  -246859 
 -246728  -246690  -246646  -246493  -246208  -246006  -246075  -246256 
 -246316  -246187  -246013  -245972  -245929  -245786  -245843  -246240 
 -246704  -246987  -247012  -246866  -246712  -246618  -246624  -246613 
 -246411  -246196  -246172  -246292  -246507  -246719  -246788  -246736 
 -246622  -246392  -246173  -246213  -246402  -246528  -246690  -246951 
 -247120  -247121  -247091  -247070  -247012  -246927  -246773  -246497 
 -246230  -246146  -246261  -246457  -246537  -246342  -245924  -245536 
 -245392  -245501  -245789  -246113  -246291  -246422  -246680  -246927 
 -246996  -246946  -246815  -246605  -246449  -246441  -246526  -246651 
 -246851  -247176  -247509  -247623  -247561  -247460  -247226  -246859 
 -246569  -246356  -246095  -245785  -245524  -245523  -245906  -246489 
 -246919  -247008  -246788  -246291  -245648  -245208  -245119  -245168 
 -245201  -245280  -245419  -245643  -246071  -246569  -246851  -247016 
 -247290  -247537  -247583  -247459  -247240  -247068  -247006  -246824 
 -246402  -245999  -245828  -245898  -246173  -246474  -246613  -246646 
 -246689  -246708  -246720  -246840  -246924  -246751  -246466  -246285 
 -246199  -246132  -246007  -245880  -245936  -246148  -246312  -246429 
 -246570  -246643  -246591  -246499  -246468  -246554  -246666  -246659 
 -246638  -246757  -246912  -247010  -247078  -247067  -246943  -246788 
 -246670  -246620  -246591  -246456  -246229  -246079  -246037  -245967 
 -245868  -245895  -246045  -246141  -246103  -246103  -246303  -246545 
 -246692  -246885  -247067  -247020  -246816  -246604  -246385  -246245 
 -246323  -246566  -246804  -246931  -246952  -246940  -246894  -246736 
 -246472  -246088  -245613  -245286  -245227  -245286  -245427  -245760 
 -246271  -246753  -247041  -247160  -247217  -247291  -247368  -247311 
 -247048  -246686  -246393  -246280  -246334  -246478  -246680  -246883 
 -247037  -247113  -247045  -246851  -246597  -246275  -245937  -245682 
 -245493  -245357  -245309  -245443  -245848  -246412  -246881  -247151 
 -247276  -247329  -247356  -247380  -247378  -247236  -246928  -246597 
 -246350  -246223  -246211  -246230  -246210  -246125  -245980  -245874 
 -245848  -245818  -245758  -245768  -245910  -246184  -246581  -246970 
 -247087  -246875  -246623  -246489  -246360  -246262  -246264  -246267 
 -246314  -246445  -246505  -246510  -246566  -246670  -246840  -247048 
