Origin Time       2025/03/28 03:50:00
Lat.              35.403
Long.             140.360
Depth. (km)       54
Mag.              4.4
Station Code      CHBH11
Station Lat.      35.2867
Station Long.     140.1529
Station Height(m) 80
Record Time       2025/03/28 03:50:48
Sampling Freq(Hz) 100Hz
Duration Time(s)  120
Dir.              5
Scale Factor      7845(gal)/8223790
Max. Acc. (gal)   3.632
Last Correction   2025/03/28 03:50:48
Memo.             
[...]
   -2691    -2695    -2698    -2695    -2697    -2693    -2694    -2700 
   -2693    -2698    -2705    -2694    -2695    -2697    -2686    -2695 
   -2705    -2697    -2698    -2698    -2697    -2700    -2694    -2691 
   -2698    -2695    -2700    -2701    -2687    -2690    -2708    -2701 
   -2687    -2690    -2700    -2701    -2685    -2687    -2709    -2704 
   -2687    -2689    -2700    -2709    -2697    -2681    -2693    -2702 
   -2697    -2698    -2698    -2695    -2695    -2693    -2695    -2702 
   -2698    -2689    -2694    -2705    -2702    -2693    -2691    -2697 
   -2697    -2695    -2700    -2698    -2691    -2693    -2695    -2698 
   -2698    -2691    -2691    -2697    -2694    -2700    -2698    -2689 
   -2695    -2705    -2695    -2694    -2697    -2690    -2691    -2702 
   -2700    -2690    -2691    -2698    -2705    -2701    -2691    -2694 
   -2700    -2697    -2697    -2701    -2698    -2693    -2693    -2697 
   -2700    -2701    -2701    -2693    -2695    -2705    -2698    -2694 
   -2704    -2701    -2697    -2698    -2695    -2697    -2700    -2697 
   -2702    -2702    -2694    -2695    -2695    -2691    -2695    -2701 
   -2706    -2698    -2683    -2698    -2714    -2693    -2687    -2704 
   -2700    -2687    -2700    -2712    -2700    -2683    -2691    -2708 
   -2701    -2695    -2700    -2689    -2690    -2709    -2701    -2691 
   -2698    -2693    -2693    -2708    -2697    -2687    -2702    -2702 
   -2690    -2701    -2714    -2693    -2682    -2709    -2704    -2677 
   -2706    -2718    -2681    -2695    -2713    -2682    -2700    -2717 
   -2679    -2690    -2720    -2686    -2681    -2713    -2695    -2682 
   -2714    -2704    -2678    -2709    -2710    -2678    -2708    -2727 
   -2678    -2685    -2724    -2693    -2681    -2716    -2701    -2683 
   -2713    -2705    -2685    -2706    -2695    -2682    -2717    -2704 
   -2678    -2710    -2712    -2674    -2689    -2721    -2695    -2683 
   -2716    -2705    -2679    -2708    -2712    -2678    -2698    -2716 
   -2686    -2695    -2716    -2686    -2689    -2717    -2697    -2689 
   -2710    -2690    -2685    -2718    -2704    -2681    -2706    -2708 
   -2681    -2697    -2718    -2691    -2685    -2717    -2702    -2681 
   -2706    -2704    -2686    -2704    -2700    -2693    -2709    -2698 
   -2687    -2706    -2709    -2689    -2689    -2702    -2695    -2694 
   -2712    -2697    -2687    -2709    -2701    -2686    -2708    -2708 
   -2685    -2690    -2708    -2697    -2691    -2706    -2693    -2689 
   -2708    -2695    -2691    -2708    -2693    -2697    -2712    -2687 
   -2689    -2710    -2693    -2683    -2704    -2705    -2687    -2694 
   -2708    -2700    -2693    -2695    -2694    -2698    -2700    -2690 
   -2689    -2701    -2702    -2693    -2693    -2701    -2693    -2690 
   -2698    -2693    -2700    -2705    -2683    -2686    -2706    -2694 
   -2687    -2700    -2698    -2686    -2695    -2706    -2694    -2685 
   -2697    -2695    -2691    -2701    -2697    -2695    -2697    -2685 
   -2694    -2710    -2694    -2687    -2701    -2695    -2685    -2695 
   -2705    -2694    -2690    -2698    -2695    -2693    -2705    -2697 
   -2681    -2693    -2705    -2695    -2695    -2705    -2695    -2689 
   -2697    -2700    -2695    -2691    -2695    -2706    -2702    -2690 
   -2697    -2704    -2691    -2691    -2708    -2702    -2685    -2693 
   -2710    -2705    -2698    -2701    -2697    -2695    -2697    -2695 
   -2700    -2694    -2695    -2708    -2697    -2698    -2710    -2690 
   -2687    -2706    -2698    -2697    -2701    -2693    -2700    -2701 
   -2694    -2709    -2701    -2681    -2700    -2710    -2698    -2700 
   -2698    -2697    -2702    -2697    -2698    -2701    -2690    -2698 
   -2708    -2700    -2702    -2705    -2690    -2694    -2704    -2702 
   -2702    -2693    -2695    -2710    -2697    -2689    -2701    -2700 
   -2695    -2700    -2698    -2701    -2701    -2697    -2698    -2695 
   -2695    -2705    -2698    -2690    -2698    -2698    -2691    -2694 
   -2702    -2702    -2695    -2689    -2698    -2704    -2693    -2693 
   -2697    -2689    -2691    -2701    -2702    -2698    -2693    -2695 
   -2701    -2695    -2694    -2700    -2689    -2690    -2704    -2697 
   -2693    -2700    -2697    -2698    -2697    -2691    -2700    -2695 
   -2687    -2704    -2702    -2691    -2700    -2695    -2691    -2702 
   -2698    -2697    -2698    -2690    -2700    -2706    -2693    -2695 
   -2701    -2689    -2693    -2704    -2701    -2697    -2691    -2693 
   -2701    -2697    -2697    -2698    -2694    -2700    -2702    -2695 
   -2698    -2698    -2695    -2700    -2694    -2695    -2702    -2697 
   -2697    -2701    -2695    -2698    -2700    -2697    -2700    -2695 
   -2693    -2702    -2701    -2698    -2702    -2698    -2697    -2701 
   -2694    -2697    -2704    -2697    -2697    -2700    -2697    -2701 
   -2702    -2694    -2697    -2701    -2698    -2700    -2698    -2697 
   -2700    -2695    -2693    -2704    -2700    -2693    -2701    -2694 
   -2689    -2701    -2701    -2695    -2698    -2700    -2698    -2698 
   -2695    -2698    -2698    -2695    -2700    -2700    -2695    -2697 
   -2698    -2697    -2698    -2698    -2698    -2697    -2697    -2700 
   -2698    -2694    -2701    -2704    -2697    -2694    -2695    -2695 
   -2697    -2698    -2700    -2700    -2698    -2698    -2698    -2698 
   -2698    -2698    -2694    -2695    -2698    -2700    -2702    -2701 
   -2697    -2697    -2693    -2698    -2705    -2694    -2693    -2705 
   -2695    -2686    -2702    -2704    -2695    -2694    -2693    -2695 
   -2698    -2697    -2702    -2698    -2691    -2695    -2700    -2701 
   -2698    -2694    -2693    -2698    -2705    -2706    -2698    -2693 
   -2700    -2693    -2689    -2701    -2704    -2698    -2701    -2700 
   -2697    -2695    -2693    -2698    -2704    -2695    -2694    -2697 
   -2698    -2698    -2695    -2695    -2695    -2697    -2700    -2698 
   -2694    -2694    -2697    -2700    -2697    -2694    -2697    -2694 
   -2690    -2697    -2700    -2690    -2682    -2682    -2685    -2691 
   -2697    -2693    -2698    -2712    -2716    -2722    -2733    -2729 
   -2721    -2714    -2693    -2663    -2639    -2625    -2625    -2636 
   -2677    -2744    -2778    -2758    -2743    -2775    -2785    -2727 
   -2690    -2714    -2718    -2594    -2378    -2407    -2721    -2774 
   -2644    -2853    -2972    -2666    -2571    -2833    -2911    -2710 
   -2536    -2542    -2616    -2577    -2469    -2494    -2652    -2830 
   -3032    -3040    -2794    -2727    -2828    -2708    -2529    -2614 
   -2748    -2590    -2400    -2623    -2863    -2644    -2527    -2817 
   -2999    -2880    -2593    -2374    -2592    -2955    -2798    -2457 
   -2573    -2791    -2698    -2644    -2794    -2822    -2644    -2505 
   -2628    -2953    -3083    -2812    -2566    -2623    -2735    -2870 
   -2886    -2619    -2482    -2401    -2153    -2343    -2887    -2961 
   -2690    -2663    -2951    -3199    -3006    -2596    -2486    -2575 
   -2629    -2679    -2694    -2756    -2820    -2562    -2272    -2461 
   -2828    -2994    -2922    -2662    -2570    -2739    -2783    -2763 
   -2862    -2678    -2347    -2596    -2903    -2546    -2322    -2589 
   -2691    -2766    -2860    -2577    -2444    -2678    -2775    -2995 
   -3211    -2774    -2412    -2766    -2994    -2837    -2741    -2511 
   -2353    -2787    -3102    -2736    -2497    -2632    -2655    -2775 
   -2947    -2778    -2515    -2359    -2447    -2768    -2735    -2434 
   -2496    -2770    -2983    -2940    -2497    -2340    -2794    -3045 
   -2855    -2774    -2760    -2592    -2801    -3451    -3454    -2542 
   -1908    -2083    -2320    -2436    -2783    -2848    -2361    -2338 
   -2963    -3067    -2747    -2994    -3276    -2901    -2640    -2825 
   -2631    -2026    -1838    -2141    -2461    -2845    -3368    -3543 
   -3210    -2925    -2813    -2322    -1660    -1733    -2392    -2849 
   -3090    -3214    -3103    -3009    -3079    -3169    -3086    -2733 
   -2462    -2521    -2593    -2469    -2317    -2191    -2080    -2239 
   -2802    -3276    -3045    -2593    -2728    -2921    -2604    -2463 
   -2795    -3067    -3265    -3399    -3114    -2751    -2620    -2380 
   -2261    -2506    -2357    -1688    -1574    -2255    -2874    -2960 
   -2786    -2898    -3492    -3851    -3273    -2407    -2263    -2689 
   -3026    -3044    -2756    -2357    -2026    -1841    -2123    -2911 
   -3213    -2416    -1807    -2361    -3015    -3175    -3438    -3520 
   -2978    -2525    -2704    -2909    -2520    -2155    -2425    -2685 
   -2832    -3424    -3705    -2976    -2338    -2419    -2128    -1414 
   -1701    -2907    -3630    -3431    -2698    -2106    -2245    -2583 
   -2678    -2983    -3194    -2995    -3133    -3550    -3373    -2749 
   -2398    -2274    -2111    -2300    -2716    -2498    -2006    -2323 
   -2936    -2647    -2204    -2899    -3657    -3134    -2411    -2581 
   -2945    -3007    -3072    -2913    -2214    -1607    -1659    -1964 
   -2405    -3121    -3481    -3303    -3253    -3350    -3030    -2412 
   -2350    -2971    -3194    -2566    -2031    -2180    -2493    -2597 
   -2660    -2683    -2691    -2910    -3198    -3207    -2782    -1973 
   -1482    -2085    -3210    -3609    -3069    -2431    -2447    -2809 
   -2848    -2716    -2666    -2623    -2789    -3172    -3141    -2598 
   -2219    -2147    -2405    -3196    -3600    -2984    -2581    -2857 
   -2663    -2273    -2678    -2963    -2536    -2492    -2874    -2764 
   -2440    -2583    -2922    -2803    -2324    -2122    -2141    -2165 
   -2610    -3130    -3005    -2856    -3180    -3330    -3129    -2943 
   -2701    -2323    -2173    -2420    -2674    -2481    -2003    -2022 
   -2691    -3307    -3458    -3169    -2682    -2415    -2643    -3006 
   -2812    -2390    -2593    -3049    -3109    -2982    -2782    -2218 
   -1522    -1678    -2695    -3198    -2907    -2739    -2953    -3246 
   -3133    -2604    -2407    -2714    -2943    -2797    -2650    -2843 
   -3007    -2810    -2398    -2003    -2088    -2587    -2668    -2461 
   -2598    -2864    -3129    -3489    -3632    -3377    -2941    -2477 
   -2103    -2072    -2362    -2651    -2650    -2478    -2682    -2943 
   -2412    -2064    -2991    -3604    -2907    -2589    -2964    -2451 
   -1408    -1248    -1606    -1971    -2759    -3523    -3604    -3410 
   -3520    -3871    -3649    -2721    -2161    -1993    -1759    -2309 
   -3339    -3160    -2305    -2274    -2697    -2992    -3159    -2910 
   -2624    -2880    -3246    -3397    -3380    -2797    -1838    -1464 
   -1745    -2249    -3046    -3649    -3245    -2462    -2280    -2259 
   -2134    -2492    -2976    -2998    -2960    -2964    -2893    -3042 
   -3183    -3157    -3291    -3080    -2257    -1917    -2354    -2513 
   -2332    -2594    -2853    -2516    -2338    -2619    -2635    -2609 
   -3144    -3493    -3053    -2489    -2103    -1745    -1937    -2802 
   -3341    -2970    -2454    -2632    -3198    -3395    -3060    -2686 
   -2586    -2517    -2609    -3006    -3056    -2527    -2263    -2779 
   -3140    -2532    -1869    -1930    -2174    -2463    -3017    -3122 
   -2627    -2643    -3126    -3084    -2725    -2544    -2527    -2768 
   -3061    -3148    -3107    -2835    -2594    -2880    -3061    -2470 
   -1895    -1871    -1891    -2218    -3192    -3599    -2889    -2412 
   -2621    -2741    -2736    -2880    -2922    -2751    -2705    -2668 
   -2214    -1961    -2490    -2964    -2839    -2794    -3129    -3269 
   -3028    -2782    -2683    -2540    -2350    -2511    -2952    -3053 
   -2781    -2552    -2446    -2435    -2592    -2713    -2664    -2785 
   -2998    -2739    -2128    -1856    -2083    -2374    -2606    -3048 
   -3478    -3402    -3032    -2922    -3009    -2879    -2535    -2290 
   -2235    -2208    -2154    -2328    -2794    -3044    -3033    -3200 
   -3238    -3037    -3242    -3515    -3118    -2670    -2681    -2494 
   -2054    -1973    -2011    -1694    -1436    -1825    -2774    -3612 
   -3609    -3040    -2832    -3034    -3381    -3834    -3597    -2425 
   -1763    -2104    -2417    -2628    -3082    -3161    -2717    -2513 
   -2484    -2057    -1777    -2180    -2720    -3022    -3171    -3271 
   -3342    -3134    -2633    -2173    -1800    -1629    -2108    -2926 
   -3141    -2817    -2617    -2457    -2307    -2532    -2872    -2901 
   -2712    -2601    -2663    -2841    -3314    -3851    -3701    -3015 
   -2585    -2436    -2076    -1479    -1174    -1267    -1351    -1486 
   -1912    -2230    -2038    -1761    -2115    -2961    -3582    -3778 
   -3507    -2690    -1890    -1605    -1863    -2790    -4140    -5146 
   -5401    -5086    -4486    -3701    -2911    -2363    -2054    -2026 
   -2250    -2316    -2286    -2614    -3181    -3739    -4456    -5343 
   -5799    -5248    -4000    -2616    -1105      193      522      -63 
   -1003    -2088    -2967    -3018    -2516    -2608    -3592    -4572 
   -4957    -4634    -3312    -1402     -336     -714    -1634    -2177 
   -2228    -2166    -2106    -1911    -1864    -2178    -2794    -3693 
   -4303    -4075    -3426    -2905    -2691    -2806    -3154    -3581 
   -3609    -2978    -2218    -1660    -1273    -1225    -1377    -1456 
   -1590    -1933    -2417    -2675    -2349    -1575     -843     -804 
   -1968    -4078    -5956    -6505    -5910    -5107    -4575    -4275 
   -4039    -3665    -3073    -2343    -1456     -693     -587     -834 
    -962    -1247    -1632    -1850    -2266    -2805    -2751    -2254 
   -2081    -2157    -2174    -2605    -3542    -4083    -3753    -3114 
   -2637    -2265    -2184    -2519    -2816    -2891    -2818    -2436 
   -2168    -2594    -3250    -3735    -4248    -4496    -4326    -4110 
   -3728    -3172    -2979    -3125    -3218    -3163    -2960    -2740 
   -2786    -3130    -3397    -3214    -2639    -1899    -1151     -724 
    -916    -1645    -2602    -3404    -3735    -3381    -2573    -2110 
   -2238    -2427    -2606    -3114    -3612    -3520    -3105    -2803 
   -2349    -1572    -1093    -1250    -1474    -1534    -1711    -1757 
   -1556    -1721    -2311    -2694    -2941    -3505    -4001    -3747 
   -2802    -1745    -1008     -822    -1368    -2455    -3370    -3666 
   -3657    -3539    -3180    -2911    -3091    -3696    -4540    -5042 
   -4905    -4534    -4023    -3154    -2141    -1305     -695     -280 
     -70     -187     -777    -1632    -2189    -2246    -2297    -2681 
   -3241    -3781    -3964    -3761    -3770    -4083    -4101    -3771 
   -3411    -2974    -2367    -1771    -1556    -1888    -2396    -2802 
   -3356    -3994    -4143    -3789    -3524    -3522    -3431    -3156 
   -3064    -3248    -3306    -2965    -2234    -1332     -627     -247 
    -211     -456     -668     -818    -1044    -1285    -1803    -2779 
   -3638    -4144    -4622    -4803    -4445    -3928    -3466    -3204 
   -3227    -3215    -3196    -3562    -4179    -4648    -4766    -4403 
   -3690    -2941    -2214    -1597    -1329    -1294    -1189    -1093 
   -1213    -1548    -2147    -2891    -3410    -3766    -4052    -3866 
   -3233    -2779    -2721    -2633    -2165    -1516    -1177    -1296 
   -1503    -1566    -1625    -1606    -1390    -1445    -2062    -2655 
   -2922    -3183    -3389    -3466    -3681    -3898    -3721    -3214 
   -2781    -2760    -3148    -3618    -3909    -3784    -3061    -2123 
   -1634    -1834    -2378    -2875    -3235    -3335    -3096    -2737 
   -2430    -2224    -2181    -2191    -2235    -2459    -2728    -2955 
   -3229    -3217    -2647    -2033    -2019    -2709    -3763    -4527 
   -4430    -3545    -2432    -1582    -1208    -1348    -1818    -2265 
   -2646    -3092    -3431    -3530    -3489    -3257    -2736    -2062 
   -1525    -1327    -1413    -1721    -2112    -2207    -2076    -2284 
   -2893    -3515    -4004    -4268    -4202    -4035    -3960    -3758 
   -3245    -2579    -2076    -1950    -2110    -2326    -2466    -2385 
   -2081    -1876    -2034    -2520    -3153    -3676    -3924    -3829 
   -3322    -2578    -1914    -1505    -1548    -2108    -2857    -3360 
   -3516    -3456    -3202    -2956    -3179    -3657    -3616    -3063 
   -2501    -1957    -1578    -1723    -2091    -2099    -1647    -1028 
    -756    -1163    -2022    -2837    -3183    -2862    -2270    -2031 
   -2250    -2783    -3619    -4472    -4887    -4797    -4340    -3534 
   -2648    -2212    -2313    -2542    -2550    -2255    -1871    -1694 
   -1737    -2026    -2678    -3254    -3310    -3177    -3163    -3194 
   -3295    -3349    -3098    -2678    -2440    -2400    -2423    -2512 
   -2550    -2401    -2277    -2340    -2421    -2461    -2639    -2995 
   -3318    -3411    -3206    -2725    -2182    -1931    -2093    -2373 
   -2421    -2211    -1915    -1644    -1621    -2160    -3094    -3894 
   -4245    -3975    -3227    -2558    -2231    -2191    -2547    -3299 
   -4151    -4801    -5001    -4554    -3680    -2940    -2434    -1846 
   -1309    -1129    -1182    -1304    -1476    -1518    -1367    -1405 
   -1921    -2721    -3526    -4243    -4766    -4858    -4534    -4051 
   -3438    -2772    -2330    -2035    -1684    -1532    -1786    -2131 
   -2305    -2371    -2340    -2188    -2018    -1933    -1980    -2092 
   -2189    -2385    -2717    -3006    -3222    -3450    -3630    -3659 
   -3485    -3121    -2716    -2458    -2365    -2265    -2114    -2039 
   -2056    -2111    -2269    -2560    -2810    -2875    -2903    -3032 
   -3130    -3192    -3361    -3441    -3207    -2868    -2552    -2160 
   -1811    -1733    -1900    -2192    -2600    -3067    -3419    -3561 
   -3577    -3573    -3476    -3211    -2864    -2502    -2181    -2015 
   -2008    -2073    -2218    -2452    -2613    -2604    -2635    -2872 
   -3114    -3110    -2890    -2621    -2431    -2428    -2610    -2866 
   -3109    -3225    -3086    -2797    -2585    -2474    -2444    -2497 
   -2543    -2627    -2790    -2934    -3129    -3385    -3491    -3430 
   -3296    -3086    -2968    -3055    -3055    -2864    -2759    -2743 
   -2641    -2641    -2848    -2864    -2430    -1745    -1066     -604 
    -495     -729    -1174    -1605    -1911    -2166    -2454    -2847 
   -3353    -3875    -4290    -4495    -4469    -4315    -4090    -3788 
   -3499    -3225    -2889    -2540    -2262    -2118    -2033    -1868 
   -1759    -1763    -1683    -1614    -1780    -2089    -2486    -3033 
   -3512    -3734    -3817    -3774    -3496    -3105    -2735    -2334 
   -1960    -1822    -1864    -1895    -2007    -2295    -2620    -2924 
   -3211    -3443    -3677    -3855    -3821    -3596    -3279    -2948 
   -2686    -2505    -2466    -2652    -2964    -3275    -3466    -3362 
   -3009    -2493    -1784    -1143     -861     -861    -1046    -1474 
   -2049    -2500    -2771    -3064    -3431    -3817    -4206    -4440 
   -4363    -4097    -3921    -3881    -3719    -3335    -2898    -2463 
   -2011    -1710    -1675    -1660    -1467    -1201     -957     -772 
    -788    -1146    -1790    -2463    -2936    -3122    -3061    -2984 
   -3096    -3245    -3223    -3164    -3194    -3133    -2889    -2629 
