Origin Time       2025/03/28 03:50:00
Lat.              35.403
Long.             140.360
Depth. (km)       54
Mag.              4.4
Station Code      CHBH11
Station Lat.      35.2867
Station Long.     140.1529
Station Height(m) 80
Record Time       2025/03/28 03:50:48
Sampling Freq(Hz) 100Hz
Duration Time(s)  120
Dir.              6
Scale Factor      7845(gal)/8223790
Max. Acc. (gal)   2.123
Last Correction   2025/03/28 03:50:48
Memo.             
[...]
   -2587    -2590    -2592    -2583    -2583    -2594    -2590    -2590 
   -2596    -2590    -2586    -2589    -2587    -2596    -2597    -2585 
   -2585    -2587    -2590    -2594    -2590    -2592    -2596    -2589 
   -2589    -2590    -2586    -2594    -2593    -2579    -2589    -2601 
   -2589    -2583    -2592    -2594    -2593    -2596    -2592    -2582 
   -2583    -2593    -2597    -2597    -2593    -2586    -2586    -2594 
   -2593    -2586    -2593    -2598    -2590    -2590    -2590    -2587 
   -2593    -2594    -2594    -2594    -2587    -2592    -2593    -2587 
   -2594    -2593    -2587    -2598    -2593    -2583    -2596    -2596 
   -2585    -2587    -2592    -2593    -2592    -2589    -2593    -2592 
   -2585    -2590    -2594    -2586    -2593    -2596    -2583    -2590 
   -2596    -2579    -2585    -2593    -2586    -2590    -2594    -2586 
   -2585    -2583    -2586    -2594    -2590    -2586    -2587    -2586 
   -2589    -2593    -2589    -2587    -2585    -2586    -2592    -2587 
   -2581    -2587    -2594    -2589    -2582    -2582    -2587    -2589 
   -2590    -2592    -2586    -2585    -2589    -2585    -2585    -2592 
   -2585    -2581    -2589    -2585    -2583    -2587    -2586    -2590 
   -2587    -2585    -2590    -2585    -2581    -2590    -2587    -2590 
   -2596    -2582    -2581    -2593    -2582    -2581    -2596    -2590 
   -2579    -2587    -2589    -2586    -2589    -2586    -2583    -2582 
   -2583    -2585    -2586    -2594    -2594    -2579    -2586    -2596 
   -2583    -2582    -2592    -2587    -2586    -2585    -2582    -2587 
   -2592    -2593    -2590    -2583    -2586    -2589    -2586    -2586 
   -2590    -2590    -2590    -2586    -2583    -2593    -2592    -2582 
   -2592    -2594    -2583    -2583    -2589    -2592    -2589    -2585 
   -2589    -2593    -2587    -2589    -2592    -2581    -2586    -2594 
   -2590    -2587    -2586    -2586    -2596    -2592    -2585    -2587 
   -2585    -2590    -2596    -2589    -2592    -2594    -2583    -2587 
   -2594    -2589    -2589    -2587    -2583    -2592    -2594    -2583 
   -2583    -2592    -2593    -2589    -2586    -2589    -2590    -2586 
   -2589    -2594    -2590    -2589    -2592    -2585    -2587    -2596 
   -2590    -2589    -2590    -2589    -2592    -2587    -2585    -2593 
   -2593    -2590    -2590    -2583    -2590    -2596    -2585    -2585 
   -2592    -2593    -2590    -2583    -2583    -2594    -2593    -2587 
   -2592    -2590    -2587    -2593    -2587    -2585    -2593    -2590 
   -2587    -2589    -2589    -2592    -2590    -2585    -2589    -2589 
   -2589    -2590    -2587    -2593    -2596    -2582    -2583    -2593 
   -2589    -2590    -2592    -2585    -2592    -2594    -2586    -2587 
   -2592    -2593    -2593    -2586    -2587    -2589    -2582    -2587 
   -2596    -2587    -2586    -2589    -2590    -2593    -2586    -2583 
   -2594    -2593    -2582    -2589    -2593    -2590    -2589    -2586 
   -2587    -2589    -2585    -2587    -2586    -2583    -2592    -2589 
   -2579    -2587    -2583    -2579    -2592    -2590    -2582    -2590 
   -2585    -2579    -2590    -2590    -2582    -2578    -2585    -2596 
   -2586    -2578    -2590    -2593    -2587    -2592    -2587    -2585 
   -2589    -2583    -2583    -2594    -2593    -2585    -2582    -2583 
   -2593    -2594    -2583    -2581    -2586    -2592    -2592    -2585 
   -2587    -2594    -2589    -2585    -2587    -2585    -2587    -2593 
   -2589    -2590    -2589    -2581    -2585    -2592    -2592    -2590 
   -2586    -2589    -2593    -2586    -2587    -2594    -2587    -2587 
   -2592    -2585    -2590    -2593    -2585    -2593    -2596    -2586 
   -2589    -2589    -2586    -2597    -2596    -2589    -2590    -2587 
   -2586    -2587    -2585    -2589    -2593    -2590    -2587    -2583 
   -2586    -2593    -2587    -2581    -2590    -2589    -2582    -2586 
   -2586    -2587    -2592    -2583    -2585    -2592    -2587    -2586 
   -2589    -2585    -2586    -2586    -2587    -2590    -2582    -2585 
   -2594    -2586    -2583    -2587    -2582    -2583    -2589    -2585 
   -2583    -2586    -2585    -2586    -2586    -2583    -2585    -2589 
   -2586    -2583    -2587    -2590    -2586    -2582    -2587    -2589 
   -2582    -2585    -2589    -2586    -2587    -2586    -2586    -2592 
   -2587    -2585    -2586    -2581    -2586    -2596    -2583    -2583 
   -2592    -2586    -2592    -2589    -2578    -2589    -2589    -2582 
   -2593    -2589    -2581    -2589    -2590    -2587    -2589    -2587 
   -2587    -2587    -2587    -2594    -2593    -2583    -2590    -2597 
   -2586    -2585    -2587    -2589    -2597    -2592    -2582    -2593 
   -2594    -2585    -2585    -2589    -2594    -2596    -2587    -2585 
   -2587    -2596    -2598    -2581    -2581    -2601    -2593    -2578 
   -2585    -2589    -2593    -2598    -2586    -2582    -2592    -2594 
   -2590    -2586    -2589    -2596    -2589    -2583    -2593    -2590 
   -2586    -2593    -2592    -2589    -2590    -2582    -2583    -2593 
   -2590    -2587    -2592    -2590    -2589    -2589    -2585    -2592 
   -2594    -2583    -2586    -2594    -2589    -2586    -2582    -2586 
   -2596    -2589    -2585    -2587    -2585    -2593    -2596    -2583 
   -2585    -2590    -2587    -2587    -2586    -2589    -2590    -2582 
   -2586    -2594    -2587    -2582    -2585    -2589    -2590    -2583 
   -2583    -2592    -2582    -2578    -2592    -2593    -2585    -2585 
   -2585    -2587    -2592    -2586    -2583    -2590    -2592    -2589 
   -2583    -2586    -2593    -2586    -2582    -2590    -2587    -2583 
   -2590    -2593    -2589    -2590    -2589    -2590    -2590    -2582 
   -2586    -2600    -2593    -2582    -2585    -2590    -2594    -2586 
   -2589    -2597    -2583    -2581    -2594    -2589    -2587    -2592 
   -2587    -2590    -2592    -2585    -2592    -2596    -2587    -2587 
   -2592    -2590    -2590    -2586    -2583    -2585    -2586    -2597 
   -2590    -2574    -2594    -2602    -2578    -2589    -2598    -2581 
   -2587    -2590    -2581    -2593    -2594    -2582    -2589    -2590 
   -2586    -2589    -2593    -2587    -2583    -2593    -2592    -2582 
   -2592    -2597    -2579    -2581    -2594    -2583    -2582    -2597 
   -2590    -2583    -2589    -2590    -2590    -2589    -2581    -2583 
   -2596    -2587    -2586    -2594    -2585    -2579    -2592    -2593 
   -2585    -2586    -2596    -2589    -2578    -2590    -2593    -2585 
   -2592    -2590    -2583    -2593    -2587    -2583    -2589    -2586 
   -2589    -2592    -2586    -2589    -2593    -2589    -2582    -2585 
   -2598    -2592    -2577    -2589    -2598    -2585    -2582    -2594 
   -2590    -2579    -2590    -2598    -2586    -2586    -2589    -2583 
   -2592    -2592    -2586    -2590    -2586    -2587    -2596    -2590 
   -2583    -2587    -2589    -2582    -2582    -2600    -2592    -2573 
   -2589    -2593    -2577    -2592    -2593    -2577    -2587    -2597 
   -2586    -2585    -2583    -2586    -2594    -2586    -2579    -2596 
   -2594    -2578    -2585    -2593    -2587    -2587    -2585    -2586 
   -2589    -2582    -2587    -2592    -2585    -2590    -2587    -2579 
   -2597    -2594    -2577    -2587    -2590    -2583    -2589    -2586 
   -2586    -2590    -2586    -2587    -2590    -2586    -2582    -2581 
   -2592    -2590    -2578    -2585    -2592    -2582    -2585    -2594 
   -2586    -2582    -2593    -2589    -2581    -2587    -2587    -2587 
   -2593    -2585    -2581    -2589    -2587    -2587    -2594    -2589 
   -2583    -2585    -2592    -2590    -2583    -2590    -2593    -2581 
   -2586    -2594    -2586    -2589    -2594    -2586    -2587    -2596 
   -2593    -2582    -2583    -2597    -2594    -2583    -2586    -2589 
   -2587    -2589    -2586    -2589    -2592    -2587    -2587    -2589 
   -2587    -2589    -2589    -2585    -2589    -2596    -2586    -2579 
   -2587    -2590    -2594    -2592    -2579    -2585    -2590    -2583 
   -2590    -2592    -2582    -2585    -2583    -2583    -2593    -2589 
   -2586    -2589    -2583    -2587    -2593    -2581    -2583    -2593 
   -2585    -2581    -2587    -2594    -2593    -2585    -2585    -2592 
   -2592    -2586    -2582    -2583    -2590    -2592    -2592    -2593 
   -2585    -2578    -2589    -2590    -2585    -2593    -2590    -2582 
   -2590    -2587    -2583    -2594    -2587    -2577    -2590    -2594 
   -2586    -2590    -2593    -2592    -2585    -2582    -2592    -2593 
   -2585    -2585    -2586    -2593    -2594    -2582    -2585    -2594 
   -2589    -2589    -2590    -2586    -2586    -2583    -2585    -2596 
   -2593    -2585    -2589    -2592    -2592    -2594    -2585    -2581 
   -2592    -2593    -2587    -2586    -2589    -2592    -2592    -2587 
   -2590    -2592    -2590    -2589    -2585    -2592    -2596    -2586 
   -2589    -2592    -2583    -2590    -2592    -2587    -2596    -2587 
   -2579    -2594    -2596    -2587    -2593    -2590    -2586    -2594 
   -2590    -2587    -2594    -2590    -2587    -2593    -2593    -2590 
   -2592    -2592    -2593    -2593    -2593    -2593    -2590    -2589 
   -2592    -2587    -2590    -2597    -2589    -2585    -2593    -2592 
   -2593    -2598    -2587    -2586    -2594    -2593    -2590    -2590 
   -2590    -2594    -2586    -2581    -2592    -2594    -2585    -2587 
   -2590    -2589    -2589    -2587    -2589    -2590    -2586    -2589 
   -2592    -2587    -2587    -2589    -2587    -2593    -2590    -2586 
   -2589    -2589    -2592    -2590    -2583    -2587    -2593    -2589 
   -2590    -2589    -2582    -2585    -2589    -2589    -2589    -2586 
   -2587    -2589    -2585    -2587    -2589    -2586    -2589    -2586 
   -2583    -2590    -2589    -2581    -2587    -2587    -2581    -2590 
   -2590    -2582    -2589    -2586    -2578    -2585    -2589    -2587 
   -2585    -2581    -2583    -2590    -2585    -2581    -2587    -2586 
   -2582    -2586    -2590    -2587    -2582    -2586    -2592    -2585 
   -2583    -2589    -2582    -2583    -2589    -2581    -2586    -2590 
   -2585    -2589    -2586    -2581    -2590    -2590    -2583    -2587 
   -2585    -2583    -2586    -2585    -2590    -2590    -2581    -2585 
   -2589    -2586    -2592    -2587    -2581    -2587    -2590    -2586 
   -2586    -2585    -2587    -2590    -2583    -2586    -2593    -2587 
   -2587    -2590    -2583    -2583    -2590    -2592    -2590    -2585 
   -2585    -2589    -2586    -2587    -2596    -2600    -2616    -2639 
   -2651    -2662    -2670    -2660    -2639    -2600    -2560    -2532 
   -2486    -2431    -2397    -2380    -2381    -2408    -2475    -2589 
   -2702    -2803    -2911    -2951    -2890    -2781    -2573    -2293 
   -2207    -2366    -2367    -2038    -1989    -2509    -2758    -2479 
   -2697    -3566    -3946    -3276    -2311    -2172    -2776    -2793 
   -1993    -1837    -2623    -2795    -2111    -2123    -3141    -3821 
   -3387    -2667    -2872    -3354    -2554    -1283    -1371    -2250 
   -2479    -2100    -1968    -2488    -3122    -3172    -2717    -2536 
   -3099    -3508    -2895    -2107    -2151    -2716    -3006    -2824 
   -2398    -1942    -1815    -1952    -1949    -2123    -2424    -2367 
   -2502    -2903    -2793    -2704    -3206    -3447    -2947    -2218 
   -2038    -2620    -2895    -2033    -1069    -1455    -2934    -4024 
   -3977    -3304    -2988    -3460    -3775    -2880    -1761    -1890 
   -2423    -1918    -1065    -1271    -2282    -2941    -2901    -2574 
   -2485    -2889    -3564    -4060    -3973    -3127    -2168    -2120 
   -2440    -1879    -1178    -1509    -2370    -2995    -3154    -3114 
   -3549    -4006    -3721    -3666    -4079    -3456    -2079    -1544 
   -1814    -2209    -2354    -1729     -846     -710     -916    -1424 
   -2821    -3376    -1956    -1316    -2860    -4179    -3982    -3140 
   -2581    -2866    -3183    -2563    -2155    -2843    -3222    -2415 
   -1773    -2349    -2894    -2335    -1923    -2579    -3298    -3438 
   -3495    -3582    -3133    -2115    -1406    -1676    -2392    -2493 
   -2081    -2313    -3307    -3816    -3127    -2027    -1822    -2316 
   -2104    -1678    -2376    -3196    -3265    -3496    -3624    -2717 
   -1837    -2149    -2651    -2236    -1765    -2374    -3445    -3550 
   -2562    -1818    -2214    -2844    -2431    -1574    -1782    -2943 
   -3627    -3468    -3302    -3013    -2004     -954     -970    -2197 
   -3442    -3410    -2656    -2732    -3719    -4209    -3420    -2191 
   -1629    -1845    -2475    -3137    -3331    -2876    -2133    -1705 
   -1908    -2357    -2189    -1309    -1090    -2133    -2728    -2068 
   -1836    -2852    -3788    -3681    -3217    -3593    -4672    -4446 
   -2284    -1092    -2513    -3742    -2751    -1227     -905    -1760 
   -2860    -3198    -3134    -3507    -3532    -2687    -2222    -2443 
   -2428    -2567    -3150    -2736    -1286     -951    -2219    -3387 
   -3368    -2374    -1421    -1637    -2592    -2542    -1698    -2249 
   -4018    -4723    -4118    -3420    -2866    -2531    -2643    -2424 
   -1444    -1124    -2081    -2785    -2906    -3414    -3550    -2683 
   -2031    -1868    -1725    -1908    -2039    -1881    -2328    -2999 
   -2547    -1831    -2650    -3584    -2481    -1192    -2151    -4059 
   -4401    -3172    -2524    -3234    -3632    -2813    -1915    -2002 
   -2608    -2369    -1520    -2002    -3815    -4361    -2367     -363 
   -1135    -3229    -3765    -2905    -2458    -2740    -2494    -1549 
   -1117    -1347    -1761    -2596    -3761    -4546    -4405    -3326 
   -2193    -2128    -2774    -2794    -2457    -2874    -3295    -2898 
   -2581    -2559    -2201    -1701    -1655    -2193    -2496    -1984 
   -1545    -2187    -3447    -3788    -2982    -2644    -3249    -3372 
   -2459    -2076    -3002    -3018    -1267     -792    -2358    -2960 
   -2231    -2316    -3308    -4012    -4120    -3935    -3550    -2701 
   -1521    -1090    -2205    -3403    -2597     -843     -877    -2583 
   -3208    -1966    -1593    -3361    -4590    -3508    -1973    -1995 
   -2895    -3098    -2563    -2228    -2409    -2542    -2336    -2162 
   -2038    -2146    -3082    -3867    -3160    -2076    -2020    -2628 
   -3284    -3570    -3238    -2836    -2650    -2389    -2332    -2450 
   -1910    -1021    -1298    -2713    -3171    -2141    -1676    -2546 
   -3353    -3352    -3153    -3385    -3565    -2813    -1711    -1744 
   -2933    -3524    -2523    -1464    -1775    -2592    -3098    -3152 
   -2332    -1561    -2177    -3229    -3172    -2559    -2469    -2446 
   -2085    -2056    -2643    -3061    -2485    -1723    -2141    -2992 
   -3184    -3241    -3299    -2949    -2536    -2396    -2579    -3090 
   -3146    -2126    -1449    -2301    -3002    -2419    -1995    -2504 
   -3160    -3403    -3400    -3333    -2739    -1638    -1031    -1262 
   -1999    -3013    -3615    -3191    -2493    -2567    -3204    -3692 
   -3726    -3207    -2470    -2196    -2444    -2743    -2802    -2272 
   -1263     -868    -1460    -2320    -3202    -3835    -3298    -1965 
   -1567    -2351    -2917    -2463    -1684    -1930    -3217    -3786 
   -3102    -2744    -3176    -3348    -3277    -3423    -3024    -1844 
   -1246    -1760    -2486    -2875    -2602    -1898    -2188    -3360 
   -3323    -2228    -2080    -2590    -2465    -2235    -2641    -3176 
   -3196    -2655    -1976    -1804    -2250    -2502    -2419    -2841 
   -3407    -3258    -2856    -2637    -2419    -2377    -2589    -2590 
   -2454    -2728    -2982    -2582    -2177    -2332    -2511    -2664 
   -3106    -3123    -2648    -2806    -3283    -2960    -2282    -2003 
   -1991    -2116    -2257    -2367    -2741    -2772    -1883    -1590 
   -2633    -2945    -1971    -1729    -2355    -2667    -3071    -3564 
   -3451    -3426    -3712    -3246    -2515    -2821    -2967    -1679 
    -796    -1413    -2050    -2297    -2721    -2948    -2972    -3267 
   -3373    -3102    -3061    -2910    -2137    -1732    -2411    -3055 
   -2718    -2014    -1761    -2208    -2911    -3063    -2906    -3223 
   -3615    -3271    -2504    -2035    -1837    -1641    -1518    -1877 
   -2882    -3500    -2826    -1799    -1655    -2332    -3140    -3416 
   -2925    -2249    -2251    -2883    -3306    -3311    -3051    -2343 
   -1757    -2232    -3111    -2976    -2123    -1795    -1964    -2012 
   -1865    -1683    -2060    -3419    -4558    -4251    -3379    -3026 
   -2929    -2911    -2961    -2686    -2208    -1815    -1533    -1787 
   -2398    -2363    -2057    -2311    -2420    -2385    -3306    -4163 
   -3403    -2253    -2087    -2354    -2624    -2860    -3019    -3325 
   -3373    -2748    -2164    -2010    -1648    -1169    -1599    -2816 
   -3438    -3067    -2617    -2574    -2571    -2434    -2533    -3164 
   -3782    -3342    -2108    -1783    -2659    -3083    -2542    -2280 
   -2664    -2745    -2223    -1752    -1695    -1902    -2112    -2227 
   -2423    -2739    -2914    -3037    -3387    -3690    -3678    -3437 
   -3046    -2840    -2849    -2633    -2309    -2103    -1779    -1397 
   -1399    -1961    -2751    -3416    -3703    -3245    -2338    -1806 
   -1818    -2173    -2691    -3024    -3009    -2633    -1881    -1260 
   -1624    -2940    -3943    -3792    -3302    -3343    -3504    -3299 
   -3014    -2845    -2465    -1941    -1964    -2403    -2386    -1988 
   -1919    -2231    -2474    -2398    -2103    -1850    -1842    -1871 
   -1588    -1395    -1857    -2504    -2781    -3100    -3655    -3681 
   -3055    -2845    -3261    -3323    -2880    -2772    -3235    -3601 
   -3427    -3071    -3018    -3094    -2700    -1984    -1873    -2427 
   -2697    -2425    -2145    -2016    -1962    -1973    -1837    -1528 
   -1512    -2273    -3701    -4687    -4212    -3154    -3014    -3500 
   -3420    -2729    -2299    -2207    -1768    -1059     -765    -1150 
   -1647    -1478    -1225    -2122    -3659    -4376    -4099    -3433 
   -2500    -1722    -1988    -2814    -2821    -2169    -1989    -2538 
   -3311    -3665    -3186    -2370    -2218    -2627    -2762    -2832 
   -3042    -2674    -2176    -2533    -2955    -2813    -2825    -3010 
   -3034    -3056    -2785    -2114    -1853    -2231    -2511    -2833 
   -3693    -3940    -2911    -2131    -2218    -2079    -1571    -1364 
   -1574    -2053    -2570    -2967    -3273    -3207    -2539    -1786 
   -1556    -1755    -1988    -2085    -1921    -1690    -2000    -2913 
   -3755    -4136    -4248    -4415    -4712    -4683    -3870    -2787 
   -2386    -2316    -1528     -622     -958    -2130    -2698    -2300 
   -1892    -2201    -2512    -2058    -1545    -1896    -2760    -3068 
   -2527    -2124    -2482    -2872    -2911    -3144    -3532    -3493 
   -3114    -3013    -3268    -3226    -2544    -1938    -2116    -2459 
   -2100    -1548    -1676    -2211    -2496    -2581    -2643    -2640 
   -2749    -3049    -3385    -3593    -3295    -2619    -2400    -2610 
   -2667    -2798    -2957    -2463    -1707    -1620    -1907    -1964 
   -2076    -2446    -2740    -2853    -2907    -3030    -3346    -3526 
   -3215    -2837    -2816    -2785    -2423    -2011    -1813    -1798 
