Origin Time       2025/03/28 03:50:00
Lat.              35.403
Long.             140.360
Depth. (km)       54
Mag.              4.4
Station Code      IBRH19
Station Lat.      36.2137
Station Long.     140.0893
Station Height(m) -34.5
Record Time       2025/03/28 03:51:08
Sampling Freq(Hz) 100Hz
Duration Time(s)  120
Dir.              2
Scale Factor      3923(gal)/8224838
Max. Acc. (gal)   0.176
Last Correction   2025/03/28 03:51:09
Memo.             
[...]
  -18639   -18635   -18636   -18647   -18647   -18634   -18627   -18632 
  -18646   -18654   -18638   -18625   -18634   -18643   -18648   -18643 
  -18631   -18632   -18643   -18647   -18638   -18627   -18632   -18647 
  -18650   -18638   -18627   -18634   -18647   -18648   -18634   -18625 
  -18638   -18650   -18647   -18636   -18631   -18636   -18650   -18648 
  -18627   -18623   -18646   -18659   -18648   -18630   -18623   -18638 
  -18654   -18644   -18627   -18630   -18644   -18652   -18643   -18627 
  -18628   -18646   -18654   -18640   -18624   -18630   -18648   -18654 
  -18642   -18627   -18625   -18643   -18657   -18642   -18624   -18634 
  -18648   -18650   -18642   -18632   -18635   -18648   -18648   -18638 
  -18631   -18630   -18639   -18648   -18642   -18631   -18635   -18643 
  -18643   -18639   -18635   -18639   -18642   -18638   -18638   -18639 
  -18639   -18640   -18638   -18636   -18642   -18642   -18639   -18636 
  -18638   -18642   -18642   -18636   -18634   -18634   -18636   -18639 
  -18640   -18640   -18638   -18635   -18636   -18643   -18642   -18635 
  -18636   -18638   -18636   -18642   -18644   -18639   -18636   -18639 
  -18640   -18636   -18635   -18639   -18642   -18642   -18638   -18634 
  -18636   -18640   -18642   -18640   -18632   -18628   -18639   -18648 
  -18644   -18634   -18631   -18635   -18643   -18644   -18636   -18636 
  -18635   -18632   -18640   -18640   -18635   -18635   -18635   -18632 
  -18635   -18638   -18635   -18638   -18644   -18640   -18635   -18631 
  -18630   -18636   -18644   -18640   -18628   -18623   -18635   -18651 
  -18652   -18639   -18624   -18625   -18638   -18647   -18647   -18640 
  -18632   -18628   -18631   -18638   -18647   -18647   -18643   -18640 
  -18635   -18636   -18648   -18652   -18648   -18643   -18632   -18628 
  -18636   -18640   -18642   -18650   -18654   -18648   -18647   -18646 
  -18647   -18658   -18658   -18643   -18635   -18631   -18627   -18634 
  -18647   -18658   -18662   -18657   -18643   -18632   -18628   -18636 
  -18648   -18654   -18652   -18644   -18636   -18627   -18624   -18639 
  -18659   -18661   -18654   -18640   -18634   -18652   -18666   -18654 
  -18639   -18632   -18630   -18628   -18625   -18623   -18636   -18662 
  -18659   -18623   -18604   -18615   -18640   -18657   -18638   -18613 
  -18621   -18648   -18665   -18642   -18601   -18600   -18631   -18648 
  -18635   -18598   -18593   -18634   -18658   -18638   -18613   -18619 
  -18640   -18646   -18624   -18603   -18609   -18628   -18632   -18623 
  -18631   -18669   -18686   -18659   -18625   -18619   -18639   -18654 
  -18638   -18604   -18604   -18644   -18663   -18635   -18628   -18666 
  -18697   -18694   -18658   -18620   -18630   -18671   -18675   -18634 
  -18608   -18608   -18616   -18630   -18631   -18634   -18671   -18704 
  -18686   -18658   -18662   -18674   -18658   -18617   -18593   -18624 
  -18686   -18711   -18677   -18628   -18619   -18654   -18663   -18617 
  -18580   -18597   -18635   -18650   -18636   -18613   -18616   -18648 
  -18658   -18604   -18555   -18584   -18648   -18686   -18678   -18636 
  -18615   -18643   -18666   -18636   -18586   -18586   -18647   -18694 
  -18655   -18586   -18574   -18619   -18681   -18709   -18669   -18617 
  -18613   -18635   -18630   -18608   -18617   -18659   -18689   -18670 
  -18620   -18592   -18609   -18638   -18642   -18639   -18650   -18667 
  -18685   -18655   -18597   -18609   -18681   -18715   -18705   -18681 
  -18648   -18634   -18635   -18604   -18561   -18567   -18617   -18658 
  -18659   -18639   -18627   -18624   -18628   -18623   -18623   -18666 
  -18705   -18681   -18628   -18609   -18634   -18666   -18644   -18586 
  -18588   -18646   -18670   -18638   -18581   -18561   -18621   -18706 
  -18706   -18632   -18594   -18625   -18673   -18685   -18659   -18628 
  -18632   -18655   -18635   -18580   -18590   -18669   -18709   -18673 
  -18615   -18590   -18624   -18677   -18675   -18640   -18642   -18681 
  -18711   -18689   -18636   -18617   -18632   -18634   -18608   -18580 
  -18596   -18661   -18705   -18677   -18607   -18586   -18628   -18661 
  -18646   -18619   -18623   -18661   -18692   -18675   -18612   -18578 
  -18627   -18678   -18661   -18621   -18638   -18692   -18704   -18650 
  -18569   -18532   -18580   -18651   -18674   -18655   -18647   -18673 
  -18692   -18661   -18604   -18554   -18550   -18597   -18631   -18630 
  -18619   -18603   -18616   -18667   -18692   -18685   -18681   -18667 
  -18652   -18640   -18615   -18598   -18619   -18671   -18719   -18719 
  -18675   -18617   -18573   -18573   -18608   -18650   -18665   -18635 
  -18605   -18611   -18648   -18697   -18702   -18652   -18630   -18661 
  -18666   -18617   -18569   -18551   -18590   -18673   -18711   -18675 
  -18642   -18644   -18662   -18669   -18667   -18661   -18661   -18665 
  -18631   -18588   -18596   -18616   -18632   -18658   -18655   -18639 
  -18644   -18644   -18627   -18623   -18628   -18621   -18598   -18582 
  -18601   -18658   -18700   -18690   -18647   -18603   -18597   -18631 
  -18651   -18635   -18619   -18625   -18642   -18647   -18636   -18617 
  -18607   -18639   -18688   -18693   -18679   -18684   -18671   -18632 
  -18598   -18580   -18576   -18586   -18598   -18638   -18702   -18732 
  -18716   -18674   -18627   -18608   -18613   -18600   -18592   -18639 
  -18706   -18724   -18690   -18652   -18628   -18628   -18646   -18642 
  -18636   -18652   -18631   -18584   -18578   -18609   -18631   -18632 
  -18612   -18588   -18630   -18723   -18752   -18702   -18628   -18570 
  -18582   -18635   -18634   -18581   -18570   -18642   -18713   -18679 
  -18582   -18547   -18621   -18752   -18775   -18612   -18470   -18524 
  -18694   -18813   -18739   -18535   -18457   -18594   -18767   -18797 
  -18682   -18571   -18603   -18674   -18663   -18620   -18593   -18593 
  -18628   -18643   -18597   -18582   -18670   -18747   -18715   -18640 
  -18590   -18613   -18692   -18684   -18581   -18513   -18549   -18670 
  -18748   -18697   -18608   -18590   -18674   -18750   -18739   -18692 
  -18640   -18616   -18609   -18567   -18551   -18627   -18711   -18698 
  -18631   -18615   -18651   -18673   -18652   -18586   -18567   -18665 
  -18723   -18674   -18620   -18580   -18585   -18681   -18720   -18621 
  -18551   -18570   -18597   -18620   -18636   -18638   -18671   -18709 
  -18677   -18634   -18617   -18592   -18609   -18671   -18675   -18635 
  -18627   -18623   -18589   -18603   -18647   -18635   -18625   -18646 
  -18669   -18711   -18709   -18634   -18585   -18593   -18635   -18677 
  -18639   -18561   -18549   -18603   -18679   -18708   -18659   -18623 
  -18650   -18677   -18643   -18569   -18553   -18642   -18747   -18755 
  -18650   -18542   -18577   -18701   -18748   -18674   -18547   -18522 
  -18630   -18702   -18708   -18717   -18711   -18719   -18733   -18654 
  -18559   -18562   -18613   -18655   -18644   -18592   -18594   -18644 
  -18652   -18623   -18593   -18600   -18651   -18701   -18701   -18657 
  -18658   -18696   -18631   -18527   -18519   -18553   -18605   -18663 
  -18642   -18635   -18698   -18689   -18596   -18558   -18616   -18706 
  -18751   -18692   -18577   -18547   -18613   -18655   -18631   -18593 
  -18594   -18647   -18682   -18634   -18581   -18620   -18679   -18670 
  -18624   -18589   -18593   -18654   -18706   -18686   -18646   -18662 
  -18697   -18688   -18652   -18636   -18644   -18651   -18621   -18577 
  -18590   -18651   -18673   -18657   -18655   -18667   -18694   -18700 
  -18643   -18619   -18657   -18659   -18613   -18566   -18576   -18659 
  -18716   -18670   -18584   -18565   -18639   -18715   -18675   -18577 
  -18573   -18642   -18646   -18577   -18520   -18527   -18609   -18712 
  -18711   -18612   -18584   -18652   -18698   -18678   -18639   -18632 
  -18657   -18666   -18631   -18598   -18628   -18705   -18721   -18634 
  -18551   -18558   -18638   -18720   -18732   -18688   -18671   -18696 
  -18704   -18675   -18654   -18670   -18711   -18715   -18654   -18589 
  -18569   -18549   -18513   -18516   -18553   -18607   -18666   -18666 
  -18613   -18593   -18623   -18673   -18702   -18701   -18671   -18623 
  -18596   -18601   -18601   -18582   -18554   -18549   -18593   -18654 
  -18684   -18688   -18686   -18669   -18630   -18601   -18604   -18623 
  -18643   -18651   -18646   -18631   -18648   -18706   -18727   -18696 
  -18666   -18635   -18620   -18639   -18654   -18665   -18662   -18638 
  -18646   -18667   -18659   -18661   -18671   -18667   -18674   -18679 
  -18650   -18605   -18607   -18659   -18681   -18651   -18634   -18616 
  -18601   -18634   -18659   -18621   -18584   -18603   -18628   -18615 
  -18576   -18551   -18586   -18662   -18706   -18684   -18632   -18612 
  -18628   -18640   -18636   -18634   -18632   -18625   -18623   -18630 
  -18647   -18654   -18615   -18571   -18580   -18620   -18634   -18601 
  -18578   -18631   -18733   -18773   -18711   -18648   -18646   -18657 
  -18647   -18607   -18567   -18613   -18720   -18765   -18698   -18620 
  -18642   -18706   -18711   -18654   -18604   -18607   -18639   -18651 
  -18639   -18638   -18684   -18727   -18679   -18570   -18511   -18551 
  -18636   -18669   -18611   -18559   -18604   -18665   -18670   -18639 
  -18593   -18567   -18594   -18644   -18679   -18700   -18685   -18630 
  -18565   -18544   -18574   -18597   -18598   -18608   -18646   -18689 
  -18694   -18681   -18688   -18688   -18677   -18661   -18632   -18628 
  -18658   -18667   -18658   -18648   -18636   -18650   -18689   -18698 
  -18677   -18644   -18608   -18603   -18635   -18663   -18677   -18673 
  -18673   -18678   -18648   -18582   -18530   -18530   -18585   -18634 
  -18638   -18609   -18586   -18616   -18674   -18684   -18650   -18621 
  -18624   -18681   -18750   -18742   -18650   -18569   -18546   -18555 
  -18584   -18621   -18651   -18666   -18665   -18646   -18619   -18615 
  -18642   -18654   -18640   -18642   -18654   -18659   -18648   -18612 
  -18593   -18620   -18655   -18666   -18651   -18631   -18619   -18611 
  -18615   -18644   -18685   -18729   -18758   -18719   -18640   -18620 
  -18661   -18684   -18665   -18627   -18596   -18617   -18675   -18669 
  -18598   -18567   -18585   -18592   -18581   -18582   -18609   -18661 
  -18679   -18613   -18550   -18597   -18692   -18709   -18634   -18553 
  -18555   -18630   -18684   -18667   -18630   -18631   -18677   -18697 
  -18662   -18655   -18696   -18717   -18693   -18632   -18616   -18685 
  -18727   -18674   -18584   -18563   -18634   -18697   -18688   -18620 
  -18565   -18605   -18667   -18643   -18623   -18666   -18693   -18662 
  -18598   -18557   -18586   -18655   -18655   -18567   -18509   -18559 
  -18654   -18682   -18655   -18644   -18675   -18711   -18694   -18627 
  -18581   -18596   -18620   -18593   -18561   -18616   -18717   -18729 
  -18655   -18600   -18621   -18696   -18723   -18658   -18571   -18558 
  -18642   -18721   -18715   -18681   -18696   -18725   -18705   -18644 
  -18598   -18604   -18663   -18705   -18659   -18567   -18531   -18576 
  -18634   -18651   -18635   -18607   -18593   -18600   -18612   -18635 
  -18674   -18696   -18662   -18604   -18598   -18651   -18686   -18655 
  -18581   -18551   -18628   -18736   -18751   -18671   -18592   -18571 
  -18598   -18651   -18702   -18733   -18742   -18716   -18662   -18638 
  -18669   -18717   -18729   -18686   -18646   -18658   -18675   -18646 
  -18590   -18557   -18584   -18652   -18689   -18674   -18648   -18620 
  -18607   -18617   -18612   -18603   -18623   -18638   -18621   -18594 
  -18584   -18605   -18654   -18692   -18685   -18650   -18616   -18593 
  -18594   -18612   -18627   -18613   -18582   -18563   -18565   -18593 
  -18643   -18669   -18663   -18635   -18607   -18609   -18616   -18608 
  -18613   -18643   -18701   -18736   -18685   -18604   -18586   -18630 
  -18675   -18675   -18634   -18620   -18657   -18673   -18628   -18577 
  -18585   -18640   -18661   -18623   -18604   -18666   -18763   -18792 
  -18720   -18635   -18609   -18625   -18635   -18624   -18638   -18705 
  -18755   -18724   -18651   -18603   -18580   -18578   -18600   -18617 
  -18630   -18658   -18685   -18689   -18692   -18721   -18743   -18717 
  -18666   -18613   -18580   -18584   -18612   -18620   -18586   -18523 
  -18453   -18426   -18462   -18507   -18522   -18511   -18504   -18559 
  -18674   -18744   -18713   -18638   -18573   -18538   -18536   -18543 
  -18551   -18555   -18543   -18539   -18574   -18634   -18697   -18729 
  -18702   -18667   -18662   -18667   -18679   -18708   -18758   -18824 
  -18848   -18790   -18697   -18628   -18597   -18609   -18642   -18648 
  -18634   -18636   -18665   -18709   -18751   -18747   -18682   -18623 
  -18642   -18698   -18716   -18686   -18636   -18598   -18594   -18593 
  -18566   -18550   -18576   -18608   -18612   -18596   -18588   -18598 
  -18615   -18611   -18605   -18655   -18723   -18704   -18590   -18482 
  -18472   -18557   -18663   -18728   -18732   -18705   -18692   -18689 
  -18661   -18608   -18584   -18586   -18580   -18574   -18600   -18647 
  -18682   -18661   -18601   -18586   -18644   -18723   -18752   -18728 
  -18723   -18787   -18855   -18832   -18740   -18675   -18675   -18721 
  -18746   -18701   -18659   -18677   -18704   -18685   -18640   -18624 
  -18643   -18644   -18617   -18571   -18526   -18527   -18561   -18561 
  -18544   -18596   -18713   -18825   -18854   -18767   -18628   -18528 
  -18476   -18424   -18343   -18270   -18287   -18392   -18503   -18554 
  -18565   -18605   -18698   -18804   -18850   -18829   -18819   -18843 
  -18855   -18796   -18663   -18547   -18532   -18596   -18643   -18598 
  -18519   -18535   -18630   -18697   -18698   -18630   -18562   -18577 
  -18635   -18646   -18585   -18530   -18574   -18677   -18725   -18696 
  -18650   -18631   -18652   -18688   -18708   -18758   -18843   -18855 
  -18748   -18596   -18486   -18469   -18516   -18530   -18499   -18523 
  -18640   -18760   -18796   -18762   -18727   -18719   -18720   -18719 
  -18704   -18685   -18700   -18708   -18662   -18616   -18601   -18590 
  -18565   -18505   -18436   -18434   -18511   -18589   -18603   -18563 
  -18523   -18504   -18497   -18511   -18547   -18598   -18654   -18675 
  -18652   -18666   -18748   -18836   -18860   -18794   -18678   -18588 
  -18562   -18573   -18581   -18613   -18694   -18800   -18894   -18936 
  -18922   -18886   -18813   -18715   -18625   -18578   -18611   -18655 
  -18590   -18426   -18289   -18279   -18397   -18569   -18717   -18810 
  -18858   -18890   -18897   -18852   -18804   -18766   -18688   -18573 
  -18468   -18420   -18449   -18463   -18426   -18424   -18516   -18658 
  -18747   -18713   -18615   -18584   -18651   -18727   -18723   -18625 
  -18528   -18543   -18623   -18666   -18679   -18706   -18750   -18789 
  -18789   -18767   -18747   -18690   -18596   -18509   -18468   -18492 
  -18542   -18544   -18526   -18557   -18638   -18690   -18647   -18573 
  -18580   -18669   -18763   -18785   -18724   -18693   -18767   -18850 
  -18790   -18586   -18391   -18345   -18432   -18542   -18574   -18535 
  -18543   -18627   -18661   -18571   -18446   -18426   -18566   -18744 
  -18828   -18821   -18812   -18875   -18941   -18891   -18781   -18739 
  -18744   -18688   -18563   -18461   -18435   -18477   -18516   -18488 
  -18477   -18580   -18709   -18736   -18663   -18584   -18577   -18631 
  -18634   -18557   -18517   -18570   -18648   -18700   -18723   -18773 
  -18873   -18909   -18804   -18639   -18530   -18509   -18524   -18520 
  -18527   -18582   -18666   -18736   -18766   -18770   -18779   -18771 
  -18694   -18573   -18480   -18459   -18511   -18585   -18636   -18657 
  -18670   -18713   -18767   -18765   -18700   -18613   -18516   -18445 
  -18435   -18476   -18563   -18677   -18731   -18684   -18589   -18576 
  -18696   -18823   -18831   -18766   -18724   -18748   -18797   -18774 
  -18651   -18532   -18513   -18544   -18536   -18501   -18538   -18661 
  -18744   -18716   -18650   -18643   -18728   -18819   -18781   -18643 
  -18580   -18647   -18712   -18643   -18489   -18412   -18484   -18617 
  -18667   -18605   -18550   -18594   -18679   -18689   -18604   -18542 
  -18588   -18674   -18705   -18677   -18648   -18667   -18715   -18743 
  -18729   -18674   -18590   -18512   -18466   -18466   -18492   -18493 
  -18455   -18445   -18505   -18609   -18684   -18662   -18571   -18538 
  -18605   -18689   -18732   -18724   -18671   -18644   -18686   -18727 
  -18705   -18655   -18632   -18644   -18636   -18586   -18553   -18571 
  -18623   -18670   -18679   -18661   -18675   -18746   -18796   -18770 
  -18723   -18717   -18765   -18823   -18805   -18704   -18627   -18647 
  -18713   -18735   -18684   -18603   -18571   -18620   -18684   -18712 
  -18715   -18701   -18663   -18592   -18527   -18536   -18597   -18628 
  -18609   -18581   -18574   -18590   -18624   -18636   -18627   -18648 
  -18661   -18601   -18523   -18503   -18551   -18625   -18662   -18661 
  -18662   -18673   -18675   -18662   -18612   -18538   -18516   -18566 
  -18640   -18720   -18758   -18705   -18638   -18639   -18688   -18701 
  -18642   -18577   -18600   -18671   -18688   -18627   -18546   -18535 
  -18625   -18700   -18670   -18631   -18669   -18725   -18740   -18702 
  -18634   -18612   -18650   -18658   -18612   -18589   -18621   -18666 
  -18667   -18624   -18596   -18624   -18674   -18685   -18635   -18567 
  -18530   -18531   -18558   -18598   -18635   -18650   -18647   -18651 
  -18689   -18752   -18806   -18805   -18736   -18642   -18569   -18549 
  -18588   -18648   -18681   -18666   -18625   -18609   -18625   -18636 
  -18632   -18639   -18659   -18654   -18605   -18551   -18553   -18611 
  -18675   -18694   -18642   -18567   -18555   -18584   -18601   -18616 
  -18621   -18604   -18592   -18603   -18620   -18658   -18728   -18783 
  -18794   -18790   -18767   -18700   -18624   -18574   -18554   -18550 
  -18531   -18508   -18534   -18596   -18654   -18694   -18690   -18661 
  -18647   -18635   -18624   -18640   -18679   -18735   -18760   -18708 
  -18635   -18609   -18620   -18639   -18636   -18609   -18594   -18612 
  -18635   -18644   -18652   -18650   -18631   -18607   -18590   -18601 
  -18642   -18670   -18661   -18662   -18702   -18758   -18782   -18747 
  -18663   -18616   -18621   -18605   -18536   -18485   -18539   -18679 
  -18771   -18736   -18644   -18600   -18646   -18706   -18662   -18553 
  -18526   -18589   -18661   -18692   -18671   -18651   -18658   -18639 
  -18580   -18534   -18543   -18597   -18639   -18643   -18639   -18650 
  -18665   -18643   -18582   -18532   -18517   -18516   -18517   -18544 
  -18604   -18644   -18628   -18594   -18573   -18574   -18609   -18634 
  -18613   -18605   -18654   -18711   -18717   -18679   -18648   -18652 
  -18682   -18705   -18682   -18643   -18657   -18708   -18729   -18696 
  -18634   -18600   -18612   -18636   -18630   -18581   -18539   -18555 
  -18612   -18688   -18763   -18805   -18806   -18777   -18720   -18665 
  -18651   -18693   -18743   -18739   -18675   -18594   -18546   -18547 
  -18561   -18557   -18562   -18597   -18643   -18659   -18644   -18639 
  -18670   -18711   -18729   -18731   -18720   -18696   -18658   -18608 
  -18573   -18580   -18611   -18615   -18600   -18607   -18640   -18677 
