Origin Time       2025/03/28 03:50:00
Lat.              35.403
Long.             140.360
Depth. (km)       54
Mag.              4.4
Station Code      IBRH08
Station Lat.      36.1188
Station Long.     140.5621
Station Height(m) -1160
Record Time       2025/03/28 03:51:04
Sampling Freq(Hz) 100Hz
Duration Time(s)  120
Dir.              3
Scale Factor      7845(gal)/8223790
Max. Acc. (gal)   0.117
Last Correction   2025/03/28 03:51:04
Memo.             
     803      804      801      801      804      805      801      799 
     803      805      804      804      803      803      805      805 
     801      801      803      801      801      803      803      803 
     804      804      804      807      805      803      801      804 
     805      804      803      804      805      804      803      803 
     805      805      803      800      803      804      801      801 
     804      804      803      805      805      804      804      804 
     803      801      801      804      803      800      801      805 
     805      803      801      804      803      803      805      803 
     800      801      805      805      804      805      804      803 
     804      804      801      801      804      804      804      804 
     804      807      805      803      803      803      803      803 
     804      803      801      804      803      801      804      804 
     804      805      805      804      804      804      804      804 
     805      805      805      805      804      803      803      803 
     805      805      804      803      804      804      801      800 
     803      807      807      804      803      804      803      800 
     801      805      803      801      804      803      803      804 
     803      803      805      803      803      805      803      801 
     804      804      804      804      805      804      803      805 
     805      801      803      803      803      804      804      803 
     801      803      803      801      804      805      803      803 
     804      804      803      801      801      804      805      803 
     804      805      803      801      805      803      801      805 
     804      803      804      805      803      803      805      805 
     803      801      803      803      801      803      804      801 
     804      807      803      801      805      803      800      803 
     803      804      804      801      801      804      800      800 
     803      804      803      804      804      801      800      803 
     803      801      803      804      803      801      803      804 
     801      801      803      801      803      805      804      801 
     804      804      804      803      803      803      803      805 
     804      801      801      803      804      805      803      801 
     804      805      803      803      804      804      803      804 
     803      801      803      803      804      805      804      804 
     804      803      801      801      803      803      805      807 
     803      801      804      804      803      804      805      803 
     803      803      803      804      803      801      804      807 
     804      800      801      804      805      803      803      803 
     803      801      800      804      805      803      804      805 
     804      804      804      803      801      801      801      803 
     803      804      804      803      803      801      803      804 
     804      804      803      801      803      801      801      803 
     803      803      803      803      804      805      805      804 
     803      804      804      801      801      801      804      804 
     803      803      803      801      804      804      801      801 
     803      804      804      804      803      804      805      805 
     804      805      804      803      800      800      804      804 
     799      800      804      803      804      807      804      801 
     804      807      805      801      801      804      805      804 
     804      804      803      801      800      804      805      804 
     801      800      800      803      804      804      805      804 
     803      804      801      801      804      804      803      803 
     804      807      803      799      803      803      797      800 
     801      801      804      803      803      804      804      804 
     803      801      803      803      801      801      800      801 
     804      803      800      797      799      799      795      795 
     796      795      793      795      795      793      792      791 
     788      787      788      792      792      793      797      797 
     801      812      820      824      826      826      827      824 
     823      826      828      828      824      816      812      812 
     815      822      824      818      800      783      773      778 
     789      793      792      788      783      781      787      795 
     805      804      791      792      810      815      815      818 
     815      816      815      801      799      799      789      796 
     808      807      812      822      819      815      804      787 
     791      804      799      793      799      803      812      828 
     835      828      819      808      797      788      778      780 
     789      784      783      803      804      785      791      804 
     787      772      783      795      788      774      781      797 
     791      788      811      816      801      805      830      845 
     835      832      846      855      847      826      797      791 
     816      822      800      810      834      828      819      819 
     796      762      749      766      796      805      795      789 
     797      800      801      822      835      816      800      805 
     810      811      807      791      793      811      797      777 
     784      793      799      819      822      799      789      795 
     804      820      824      810      791      796      828      838 
     819      814      822      811      797      814      826      810 
     805      812      805      805      812      804      801      814 
     803      769      758      765      766      776      793      795 
     788      783      783      807      820      799      799      810 
     788      788      822      828      818      818      819      826 
     819      799      799      803      797      805      823      828 
     826      822      808      793      789      784      772      768 
     780      795      792      792      800      808      819      824 
     818      803      796      808      810      792      795      801 
     796      814      824      812      811      796      784      808 
     826      822      811      785      776      804      831      839 
     827      791      760      770      803      815      812      805 
     789      792      827      843      828      812      805      811 
     832      832      789      760      770      781      789      812 
     824      803      785      803      814      807      807      795 
     780      784      781      772      776      795      814      810 
     801      805      796      784      788      787      793      827 
     843      820      805      818      819      816      830      832 
     789      745      753      776      788      819      853      864 
     864      861      849      831      815      801      784      781 
     777      749      734      756      784      795      778      766 
     789      815      818      815      814      803      800      812 
     808      780      781      812      805      768      762      778 
     796      828      851      846      841      832      818      818 
     814      785      769      784      807      827      839      823 
     796      784      797      823      831      819      804      788 
     773      772      796      818      808      795      805      823 
     834      828      805      797      810      815      808      795 
     785      783      766      765      789      804      804      796 
     793      822      853      869      874      832      774      768 
     784      785      784      792      818      846      851      812 
     768      769      783      781      799      820      799      768 
     781      796      762      730      745      791      831      846 
     850      845      818      799      796      792      796      815 
     831      839      832      812      793      772      764      793 
     837      837      795      778      784      795      830      847 
     835      835      835      818      799      793      789      788 
     799      810      797      777      789      822      822      804 
     804      785      730      710      749      778      801      823 
     799      773      810      838      815      803      823      834 
     831      834      837      858      911      926      868      807 
     776      762      757      761      777      796      793      769 
     758      787      810      770      723      738      774      781 
     788      814      828      818      800      810      846      866 
     851      830      819      807      801      814      801      747 
     718      749      796      819      811      793      788      799 
     814      815      820      838      822      792      803      812 
     792      770      754      745      738      750      800      839 
     847      862      866      850      858      861      838      819 
     793      765      768      784      778      773      780      778 
     783      814      830      807      785      812      855      854 
     832      820      811      799      788      781      801      828 
     823      816      827      811      770      760      793      824 
     804      757      733      735      768      820      846      827 
     808      819      828      820      800      783      805      854 
     876      866      838      796      773      778      785      776 
     762      764      772      777      777      764      757      772 
     788      801      822      819      803      822      855      861 
     861      857      831      807      787      765      757      753 
     761      803      842      845      838      830      815      803 
     823      865      872      843      814      772      724      704 
     712      733      776      827      839      834      845      838 
     811      810      808      785      776      784      792      800 
     808      808      792      780      793      808      804      807 
     826      849      864      847      804      774      787      808 
     804      795      797      807      814      811      789      766 
     761      772      777      778      785      783      785      805 
     788      760      784      815      815      816      826      838 
     850      859      866      855      818      801      822      818 
     777      760      784      823      841      820      801      795 
     772      768      784      784      787      805      819      823 
     804      777      772      774      793      831      842      835 
     842      837      803      778      783      801      820      838 
     839      818      805      814      816      801      783      766 
     749      731      733      742      747      776      810      823 
     845      862      853      843      832      815      814      818 
     803      783      772      773      792      810      814      834 
     857      835      788      770      769      768      800      838 
     838      837      843      828      801      783      776      784 
     801      805      793      785      783      769      758      768 
     778      768      746      747      773      800      820      824 
     807      781      787      837      872      854      850      874 
     857      818      816      828      826      823      819      799 
     787      797      811      818      820      824      824      816 
     796      778      783      805      831      846      841      828 
     834      830      788      749      723      695      695      735 
     764      772      788      799      804      826      838      835 
     850      869      862      841      827      826      819      807 
     801      792      774      768      756      733      746      780 
     784      784      799      810      818      826      827      818 
     804      805      812      811      811      812      797      780 
     778      799      819      820      816      823      834      835 
     831      835      827      799      773      768      777      784 
     789      801      801      791      787      781      780      796 
     810      816      818      808      807      819      838      847 
     834      822      820      820      823      815      791      773 
     766      765      764      760      762      778      810      841 
     843      839      845      834      822      820      808      796 
     795      774      758      780      792      774      766      765 
     770      799      828      837      835      834      827      815 
     801      795      789      778      780      789      787      784 
     783      780      785      799      815      832      838      822 
     797      788      799      818      828      828      811      781 
     754      747      766      797      827      841      838      834 
     822      793      780      801      831      845      839      832 
     831      822      803      800      810      814      827      850 
     855      847      824      796      791      785      757      734 
     719      710      726      747      754      768      785      805 
     819      815      812      816      805      808      838      850 
     839      842      839      818      811      823      822      820 
     831      824      804      797      788      776      784      803 
     823      846      847      822      804      803      797      784 
     774      766      756      751      749      741      742      757 
     765      772      784      793      815      858      893      878 
     831      801      789      783      796      818      816      815 
     842      862      868      872      865      846      831      811 
     770      727      716      723      731      747      758      746 
     742      764      789      801      812      827      841      854 
     872      884      870      835      810      819      834      838 
     846      843      823      811      805      807      819      822 
     811      812      818      796      757      735      743      756 
     761      785      820      834      837      831      803      768 
     750      743      749      768      778      778      793      811 
     811      805      805      807      807      812      816      819 
     826      830      823      810      800      796      805      820 
     830      828      804      757      738      772      820      855 
     882      882      866      857      845      838      842      826 
     788      765      768      769      753      733      720      716 
     716      722      765      824      841      814      784      776 
     777      784      823      872      880      866      855      845 
     828      814      799      787      795      804      789      776 
     785      801      801      797      810      814      800      801 
     811      810      804      808      815      815      804      789 
     780      787      804      818      824      822      805      787 
     795      819      820      805      797      801      816      823 
     812      799      776      745      731      737      749      774 
     807      830      838      831      824      830      842      838 
     818      805      803      801      801      811      824      819 
     795      788      805      820      828      823      803      777 
     762      756      746      747      768      785      811      851 
     858      823      792      776      768      780      797      797 
     793      797      807      831      858      873      880      872 
     841      819      816      805      785      766      762      780 
     797      808      810      791      751      726      731      758 
     776      770      760      754      773      822      854      855 
     859      853      828      820      832      846      849      838 
     824      807      783      774      781      780      768      774 
     804      827      828      824      834      853      857      841 
     815      795      787      789      781      754      737      743 
     753      745      731      746      789      822      839      853 
     855      842      820      812      828      845      834      818 
     811      803      796      795      800      804      805      808 
     805      780      757      764      781      793      804      819 
     843      861      865      865      854      824      796      787 
     788      777      749      729      727      735      742      743 
     747      769      801      835      869      889      884      868 
     861      854      827      777      731      722      739      753 
     769      792      796      795      818      862      901      913 
     909      901      872      828      807      807      801      788 
     781      785      787      777      769      773      778      769 
     757      762      774      787      801      815      815      788 
     743      720      737      769      796      805      810      815 
     820      832      839      834      830      835      851      864 
     849      819      810      820      834      845      845      827 
     800      773      751      742      729      702      689      704 
     727      750      783      822      849      866      874      855 
     827      818      805      783      766      769      789      812 
     824      835      853      862      864      866      868      870 
     868      851      828      819      811      789      765      760 
     768      766      751      746      749      749      761      788 
     811      826      837      849      869      882      878      853 
     800      739      707      693      680      684      710      737 
     750      764      795      835      851      835      826      838 
     851      866      874      854      815      784      761      749 
     756      770      788      804      811      826      842      845 
     847      851      846      845      845      837      819      807 
     792      770      762      776      788      789      801      826 
     834      819      811      812      811      812      814      811 
     805      797      787      774      770      770      768      773 
     787      789      789      791      789      793      803      811 
     820      838      853      858      854      843      823      811 
     816      823      822      814      808      800      785      784 
     792      793      797      801      804      808      808      812 
     812      791      760      735      714      712      743      785 
     818      843      859      849      823      803      801      814 
     814      793      778      785      807      832      853      857 
     849      830      807      778      747      741      768      797 
     814      827      845      857      865      870      864      849 
     838      810      760      716      699      704      723      746 
