Origin Time       2025/03/28 03:50:00
Lat.              35.403
Long.             140.360
Depth. (km)       54
Mag.              4.4
Station Code      IBRH19
Station Lat.      36.2137
Station Long.     140.0893
Station Height(m) -34.5
Record Time       2025/03/28 03:51:08
Sampling Freq(Hz) 100Hz
Duration Time(s)  120
Dir.              1
Scale Factor      3923(gal)/8224838
Max. Acc. (gal)   0.185
Last Correction   2025/03/28 03:51:09
Memo.             
[...]
  -19087   -19086   -19084   -19086   -19101   -19101   -19083   -19075 
  -19079   -19098   -19114   -19105   -19095   -19098   -19090   -19070 
  -19049   -19041   -19057   -19080   -19079   -19068   -19082   -19109 
  -19118   -19099   -19074   -19070   -19086   -19083   -19053   -19021 
  -19018   -19041   -19055   -19049   -19056   -19090   -19122   -19122 
  -19098   -19078   -19071   -19057   -19021   -18989   -18999   -19053 
  -19106   -19117   -19102   -19097   -19087   -19060   -19026   -19010 
  -19040   -19105   -19148   -19141   -19103   -19056   -19012   -18998 
  -19021   -19044   -19066   -19090   -19126   -19175   -19179   -19113 
  -19062   -19066   -19083   -19070   -19030   -19032   -19086   -19126 
  -19122   -19086   -19060   -19089   -19141   -19153   -19132   -19125 
  -19141   -19148   -19128   -19083   -19048   -19056   -19082   -19083 
  -19083   -19111   -19141   -19140   -19117   -19094   -19089   -19086 
  -19052   -19024   -19033   -19055   -19059   -19056   -19094   -19178 
  -19211   -19148   -19057   -19026   -19060   -19068   -19008   -18963 
  -19008   -19103   -19151   -19110   -19063   -19086   -19134   -19125 
  -19047   -18998   -19055   -19125   -19087   -18990   -18964   -19040 
  -19116   -19076   -18982   -19016   -19157   -19226   -19151   -19028 
  -19016   -19099   -19110   -19029   -18983   -19041   -19140   -19151 
  -19086   -19075   -19122   -19133   -19102   -19098   -19151   -19182 
  -19121   -19030   -19009   -19052   -19079   -19049   -19040   -19113 
  -19194   -19180   -19110   -19087   -19138   -19197   -19168   -19087 
  -19071   -19089   -19026   -18909   -18859   -18951   -19110   -19168 
  -19087   -19002   -19020   -19086   -19095   -19057   -19079   -19165 
  -19192   -19102   -18999   -18997   -19056   -19053   -18999   -19030 
  -19152   -19228   -19172   -19078   -19105   -19222   -19210   -19029 
  -18909   -18968   -19089   -19107   -19029   -19022   -19148   -19228 
  -19151   -19028   -19014   -19094   -19087   -18971   -18943   -19067 
  -19182   -19149   -19028   -18994   -19072   -19120   -19080   -19067 
  -19138   -19205   -19176   -19086   -19056   -19133   -19190   -19133 
  -19052   -19029   -19018   -18967   -18921   -18964   -19107   -19234 
  -19228   -19157   -19151   -19155   -19062   -18933   -18909   -19025 
  -19163   -19176   -19055   -18963   -19001   -19045   -18990   -18932 
  -18998   -19170   -19287   -19228   -19110   -19091   -19122   -19084 
  -18986   -18962   -19063   -19168   -19147   -19036   -18983   -19040 
  -19089   -19033   -18972   -19022   -19132   -19205   -19219   -19197 
  -19165   -19118   -19049   -19025   -19068   -19136   -19165   -19113 
  -19045   -19035   -19053   -19072   -19084   -19094   -19125   -19133 
  -19089   -19032   -19017   -19076   -19152   -19157   -19114   -19078 
  -19064   -19070   -19044   -18990   -18981   -19029   -19089   -19121 
  -19124   -19124   -19118   -19103   -19082   -19052   -19044   -19072 
  -19089   -19080   -19087   -19103   -19102   -19084   -19075   -19097 
  -19126   -19122   -19075   -19009   -18989   -19026   -19048   -19045 
  -19091   -19186   -19245   -19214   -19109   -19022   -19022   -19049 
  -19030   -18987   -18987   -19020   -19020   -19009   -19040   -19095 
  -19141   -19171   -19202   -19256   -19255   -19145   -19030   -19010 
  -19040   -19028   -18959   -18940   -19030   -19140   -19164   -19151 
  -19192   -19240   -19182   -19047   -18966   -19003   -19091   -19090 
  -18995   -18972   -19071   -19160   -19141   -19071   -19072   -19176 
  -19256   -19175   -18997   -18909   -18958   -19021   -19035   -19076 
  -19199   -19303   -19253   -19078   -18971   -19018   -19087   -19047 
  -18956   -18963   -19084   -19164   -19121   -19071   -19091   -19091 
  -19003   -18887   -18863   -18981   -19097   -19075   -19017   -19057 
  -19134   -19164   -19165   -19174   -19186   -19167   -19116   -19071 
  -19067   -19087   -19089   -19047   -19010   -19022   -19099   -19201 
  -19214   -19180   -19202   -19222   -19180   -19095   -19010   -19051 
  -19191   -19164   -18990   -18979   -19106   -19137   -19024   -18893 
  -18981   -19209   -19164   -18867   -18720   -18905   -19226   -19286 
  -19109   -19075   -19182   -19240   -19178   -19060   -19068   -19129 
  -19037   -18871   -18900   -19148   -19265   -19095   -18895   -18933 
  -19171   -19292   -19180   -19074   -19125   -19232   -19163   -18902 
  -18812   -18999   -19126   -19026   -18885   -18924   -19124   -19230 
  -19093   -18937   -19037   -19241   -19233   -19014   -18868   -18978 
  -19133   -19101   -19006   -19043   -19207   -19298   -19165   -18994 
  -19035   -19197   -19228   -19132   -19087   -19151   -19213   -19124 
  -18985   -19016   -19145   -19179   -19076   -18956   -18985   -19078 
  -19045   -18955   -18948   -19049   -19148   -19095   -18999   -19059 
  -19215   -19298   -19221   -19057   -19006   -19089   -19137   -19107 
  -19040   -18993   -19067   -19179   -19179   -19098   -19033   -19045 
  -19122   -19151   -19101   -19060   -19052   -19035   -19049   -19103 
  -19101   -19055   -19033   -19010   -19006   -19030   -19029   -19029 
  -19057   -19093   -19117   -19110   -19086   -19080   -19098   -19117 
  -19147   -19148   -19095   -19057   -19049   -19039   -19048   -19084 
  -19083   -19033   -19025   -19110   -19180   -19153   -19091   -19068 
  -19111   -19147   -19070   -18986   -19041   -19145   -19117   -18989 
  -18955   -19089   -19233   -19198   -19032   -18968   -19095   -19201 
  -19125   -19008   -19018   -19128   -19197   -19130   -19040   -19083 
  -19144   -19063   -18945   -18943   -19024   -19091   -19082   -19032 
  -19093   -19253   -19264   -19091   -18979   -19036   -19151   -19148 
  -18987   -18875   -18960   -19110   -19145   -19082   -19067   -19163 
  -19219   -19122   -19018   -19060   -19168   -19183   -19084   -18995 
  -19016   -19076   -19066   -19006   -18994   -19044   -19089   -19084 
  -19093   -19157   -19222   -19206   -19111   -19033   -19025   -19037 
  -19012   -18968   -18990   -19093   -19183   -19179   -19107   -19052 
  -19059   -19095   -19107   -19105   -19140   -19202   -19209   -19110 
  -18985   -18962   -19029   -19063   -19036   -19018   -19041   -19068 
  -19062   -19053   -19084   -19143   -19174   -19126   -19071   -19091 
  -19111   -19071   -19008   -18972   -19035   -19147   -19175   -19136 
  -19109   -19098   -19094   -19074   -19033   -19006   -18986   -18979 
  -19017   -19103   -19205   -19221   -19171   -19183   -19233   -19219 
  -19143   -19032   -18972   -19017   -19062   -19029   -18993   -19032 
  -19107   -19143   -19120   -19074   -19047   -19055   -19074   -19074 
  -19053   -19049   -19086   -19134   -19165   -19152   -19093   -19051 
  -19052   -19055   -19037   -19022   -19051   -19099   -19113   -19099 
  -19098   -19124   -19152   -19138   -19087   -19030   -19029   -19101 
  -19165   -19179   -19151   -19098   -19048   -19002   -18943   -18914 
  -18976   -19071   -19114   -19105   -19087   -19129   -19195   -19165 
  -19062   -19002   -19008   -19024   -19016   -19014   -19067   -19148 
  -19143   -19035   -18987   -19071   -19165   -19167   -19105   -19083 
  -19149   -19207   -19152   -19037   -19013   -19070   -19064   -18991 
  -18976   -19076   -19226   -19279   -19176   -19052   -19029   -19075 
  -19121   -19125   -19097   -19094   -19116   -19084   -19002   -18947 
  -18962   -19029   -19097   -19113   -19099   -19111   -19132   -19113 
  -19064   -19028   -19020   -19022   -19035   -19059   -19102   -19148 
  -19138   -19084   -19060   -19060   -19055   -19045   -19032   -19032 
  -19063   -19101   -19126   -19164   -19183   -19126   -19033   -18993 
  -19043   -19117   -19117   -19053   -19037   -19098   -19164   -19148 
  -19063   -19030   -19089   -19125   -19084   -19026   -18999   -19021 
  -19087   -19137   -19125   -19087   -19051   -19024   -19036   -19055 
  -19035   -19013   -19026   -19083   -19176   -19240   -19241   -19225 
  -19199   -19140   -19051   -18976   -18978   -19059   -19148   -19163 
  -19098   -19064   -19093   -19097   -19035   -18943   -18922   -19030 
  -19144   -19136   -19076   -19078   -19099   -19076   -19041   -19021 
  -19052   -19116   -19094   -19012   -19006   -19053   -19048   -18989 
  -18976   -19074   -19198   -19249   -19232   -19205   -19210   -19213 
  -19160   -19079   -19025   -19025   -19060   -19074   -19064   -19074 
  -19080   -19067   -19051   -19024   -18985   -18979   -19032   -19124 
  -19198   -19211   -19180   -19130   -19079   -19051   -19048   -19048 
  -19033   -19017   -19025   -19048   -19068   -19074   -19076   -19084 
  -19087   -19086   -19075   -19078   -19118   -19138   -19126   -19117 
  -19110   -19107   -19091   -19049   -19040   -19079   -19101   -19086 
  -19060   -19036   -19056   -19125   -19163   -19124   -19072   -19078 
  -19116   -19121   -19090   -19049   -19022   -19026   -19028   -18997 
  -18993   -19049   -19099   -19124   -19136   -19120   -19098   -19075 
  -19047   -19059   -19090   -19079   -19056   -19072   -19124   -19153 
  -19111   -19037   -19026   -19095   -19149   -19110   -19022   -19003 
  -19059   -19090   -19068   -19055   -19099   -19179   -19190   -19101 
  -19045   -19113   -19201   -19192   -19120   -19079   -19114   -19140 
  -19037   -18909   -18914   -18995   -19043   -19033   -19021   -19079 
  -19167   -19184   -19118   -19048   -19040   -19064   -19079   -19094 
  -19068   -18978   -18904   -18924   -19026   -19117   -19125   -19106 
  -19143   -19201   -19213   -19172   -19138   -19160   -19171   -19075 
  -18943   -18925   -19032   -19132   -19147   -19128   -19149   -19211 
  -19232   -19152   -19053   -19049   -19109   -19132   -19083   -19029 
  -19049   -19102   -19087   -19028   -19010   -19045   -19079   -19082 
  -19075   -19098   -19145   -19137   -19036   -18962   -18983   -19025 
  -19039   -19036   -19022   -19017   -19005   -18991   -19041   -19145 
  -19210   -19182   -19105   -19067   -19084   -19087   -19033   -18995 
  -19049   -19134   -19152   -19105   -19059   -19055   -19056   -19044 
  -19051   -19080   -19102   -19106   -19109   -19144   -19201   -19195 
  -19118   -19066   -19090   -19116   -19078   -19040   -19060   -19094 
  -19083   -19024   -18982   -19026   -19120   -19148   -19103   -19098 
  -19144   -19156   -19110   -19066   -19080   -19129   -19109   -18997 
  -18904   -18931   -19036   -19106   -19103   -19090   -19101   -19095 
  -19056   -19003   -18987   -19028   -19053   -19041   -19064   -19138 
  -19192   -19165   -19070   -18987   -18982   -19018   -19039   -19067 
  -19159   -19252   -19252   -19180   -19124   -19107   -19111   -19095 
  -19030   -18963   -18943   -18944   -18939   -18971   -19070   -19147 
  -19137   -19091   -19076   -19097   -19124   -19111   -19049   -19045 
  -19144   -19229   -19234   -19225   -19234   -19225   -19176   -19120 
  -19106   -19153   -19192   -19144   -19066   -19078   -19140   -19116 
  -19006   -18945   -19005   -19103   -19120   -19060   -19041   -19114 
  -19156   -19044   -18890   -18879   -18994   -19064   -19003   -18905 
  -18917   -19006   -19028   -18974   -18959   -19041   -19151   -19171 
  -19116   -19126   -19228   -19276   -19198   -19120   -19192   -19372 
  -19434   -19256   -19002   -18929   -19052   -19138   -19053   -18927 
  -18947   -19098   -19180   -19086   -18966   -18983   -19082   -19107 
  -19029   -18968   -19025   -19120   -19101   -18986   -18931   -18991 
  -19067   -19041   -18955   -18971   -19102   -19182   -19128   -19041 
  -19076   -19214   -19255   -19125   -18994   -19008   -19111   -19133 
  -19043   -19003   -19093   -19168   -19109   -18997   -19003   -19147 
  -19256   -19202   -19078   -19043   -19089   -19074   -18963   -18889 
  -18955   -19055   -19048   -18985   -18978   -19039   -19109   -19136 
  -19126   -19157   -19233   -19264   -19240   -19217   -19203   -19203 
  -19206   -19190   -19155   -19098   -19030   -18997   -18997   -18998 
  -18998   -19028   -19111   -19203   -19232   -19188   -19143   -19137 
  -19107   -18993   -18871   -18847   -18918   -18960   -18894   -18832 
  -18889   -19026   -19138   -19120   -19014   -18982   -19013   -19055 
  -19138   -19260   -19391   -19434   -19336   -19205   -19121   -19056 
  -18976   -18913   -18945   -19055   -19145   -19175   -19183   -19213 
  -19241   -19202   -19105   -19039   -19028   -19012   -18959   -18921 
  -18952   -19026   -19070   -19067   -19067   -19097   -19113   -19055 
  -18974   -18958   -18971   -18991   -19030   -19070   -19153   -19245 
  -19237   -19182   -19164   -19164   -19147   -19090   -19049   -19105 
  -19203   -19226   -19156   -19075   -19080   -19156   -19183   -19128 
  -19064   -19047   -19040   -19006   -19003   -19102   -19229   -19263 
  -19178   -19071   -19056   -19090   -19055   -18975   -18958   -19039 
  -19111   -19053   -18912   -18816   -18823   -18898   -18972   -19055 
  -19163   -19233   -19179   -19030   -18951   -19030   -19136   -19106 
  -18978   -18924   -19030   -19174   -19152   -18982   -18886   -18958 
  -19063   -19083   -19055   -19078   -19159   -19198   -19140   -19091 
  -19137   -19187   -19168   -19153   -19203   -19265   -19238   -19078 
  -18905   -18890   -19005   -19089   -19076   -19025   -19039   -19117 
  -19187   -19241   -19338   -19444   -19449   -19344   -19197   -19053 
  -18972   -18962   -18998   -19087   -19136   -19056   -18970   -19013 
  -19151   -19241   -19187   -19084   -19078   -19130   -19121   -19055 
  -19029   -19074   -19082   -18945   -18762   -18694   -18724   -18754 
  -18774   -18852   -19025   -19192   -19226   -19151   -19086   -19102 
  -19182   -19219   -19190   -19179   -19202   -19203   -19195   -19206 
  -19237   -19251   -19217   -19184   -19202   -19237   -19238   -19172 
  -19056   -18991   -19010   -19048   -19083   -19084   -19022   -18955 
  -18922   -18910   -18908   -18925   -18979   -19053   -19084   -19062 
  -19055   -19102   -19145   -19099   -18960   -18852   -18895   -19024 
  -19074   -19012   -18945   -18983   -19103   -19176   -19136   -19072 
  -19087   -19161   -19218   -19238   -19244   -19245   -19221   -19148 
  -19070   -19090   -19190   -19217   -19117   -18998   -18994   -19080 
  -19110   -19052   -18993   -18982   -18989   -18927   -18831   -18850 
  -18993   -19118   -19167   -19192   -19237   -19271   -19218   -19093 
  -19022   -19060   -19098   -19035   -18937   -18924   -18993   -19064 
  -19074   -19049   -19083   -19168   -19192   -19133   -19083   -19107 
  -19179   -19198   -19122   -19021   -18997   -19044   -19057   -19012 
  -18997   -19070   -19168   -19195   -19134   -19075   -19105   -19198 
  -19255   -19226   -19174   -19167   -19160   -19083   -18990   -18983 
  -19059   -19109   -19067   -18989   -18974   -19032   -19040   -18959 
  -18922   -19022   -19172   -19237   -19201   -19178   -19224   -19252 
  -19170   -19030   -18954   -18967   -18987   -18960   -18949   -19025 
  -19120   -19125   -19083   -19107   -19184   -19194   -19074   -18918 
  -18891   -18991   -19062   -19039   -18989   -18999   -19078   -19118 
  -19080   -19070   -19125   -19191   -19221   -19199   -19197   -19249 
  -19257   -19163   -19036   -18964   -18968   -18990   -18975   -18974 
  -19047   -19134   -19134   -19057   -19010   -19053   -19126   -19152 
  -19140   -19136   -19144   -19113   -19056   -19053   -19087   -19089 
  -19043   -18991   -19010   -19082   -19095   -19057   -19062   -19137 
  -19221   -19199   -19066   -18952   -18947   -18987   -18990   -18963 
  -18978   -19053   -19145   -19183   -19160   -19165   -19218   -19237 
  -19191   -19143   -19143   -19180   -19203   -19179   -19149   -19161 
  -19178   -19144   -19082   -19049   -19062   -19083   -19074   -19037 
  -19022   -19045   -19056   -19028   -18991   -18995   -19025   -19008 
  -18941   -18895   -18898   -18922   -18948   -18958   -18987   -19064 
  -19157   -19219   -19234   -19233   -19253   -19244   -19174   -19101 
  -19075   -19094   -19117   -19102   -19068   -19049   -19030   -19003 
  -18995   -19005   -19021   -19047   -19083   -19110   -19137   -19167 
  -19160   -19105   -19043   -19010   -19018   -19057   -19098   -19116 
  -19101   -19066   -19033   -18990   -18945   -18947   -18967   -18962 
  -18964   -19009   -19086   -19167   -19206   -19183   -19160   -19194 
  -19244   -19241   -19197   -19149   -19106   -19071   -19041   -19010 
  -18991   -19013   -19063   -19109   -19165   -19217   -19222   -19192 
  -19144   -19101   -19106   -19134   -19145   -19130   -19079   -19012 
  -18959   -18917   -18894   -18936   -19049   -19174   -19230   -19194 
  -19130   -19102   -19090   -19049   -19005   -19014   -19057   -19078 
  -19075   -19094   -19144   -19172   -19109   -18982   -18924   -18986 
  -19066   -19082   -19084   -19133   -19205   -19234   -19198   -19144 
  -19121   -19103   -19051   -19006   -19033   -19076   -19063   -19021 
  -19024   -19076   -19097   -19041   -18989   -19012   -19078   -19098 
  -19053   -19024   -19057   -19120   -19129   -19056   -18993   -19009 
  -19039   -19041   -19062   -19111   -19163   -19175   -19125   -19074 
  -19097   -19148   -19140   -19067   -19012   -19056   -19128   -19107 
  -19030   -18995   -19028   -19090   -19114   -19106   -19107   -19116 
  -19102   -19070   -19045   -19053   -19060   -19040   -19025   -19036 
  -19056   -19082   -19120   -19148   -19153   -19141   -19111   -19087 
  -19095   -19110   -19099   -19070   -19047   -19057   -19099   -19116 
  -19091   -19070   -19079   -19103   -19114   -19086   -19037   -19032 
  -19056   -19068   -19089   -19132   -19179   -19197   -19145   -19052 
  -19016   -19064   -19128   -19113   -19044   -19036   -19116   -19170 
  -19121   -19033   -19022   -19109   -19186   -19160   -19076   -19041 
  -19056   -19037   -18972   -18970   -19080   -19184   -19172   -19095 
  -19072   -19109   -19116   -19071   -19035   -19057   -19114   -19128 
  -19078   -19028   -19013   -19003   -18983   -18972   -19009   -19064 
  -19076   -19036   -19010   -19051   -19145   -19237   -19257   -19182 
  -19080   -19052   -19090   -19121   -19098   -19014   -18936   -18944 
  -19020   -19083   -19076   -19024   -19008   -19060   -19107   -19090 
  -19051   -19056   -19110   -19156   -19134   -19090   -19122   -19192 
  -19171   -19086   -19057   -19103   -19156   -19152   -19091   -19059 
  -19097   -19137   -19122   -19080   -19059   -19062   -19060   -19040 
  -19028   -19063   -19107   -19124   -19130   -19136   -19136   -19121 
  -19076   -19032   -19021   -19039   -19052   -19041   -19040   -19074 
  -19084   -19062   -19043   -19032   -19037   -19059   -19063   -19052 
  -19064   -19091   -19103   -19111   -19122   -19111   -19082   -19057 
  -19067   -19120   -19161   -19129   -19066   -19047   -19067   -19094 
  -19090   -19055   -19053   -19083   -19105   -19125   -19144   -19144 
  -19143   -19132   -19117   -19129   -19136   -19093   -19047   -19066 
  -19114   -19117   -19059   -18981   -18954   -18986   -19017   -19026 
  -19047   -19078   -19107   -19121   -19102   -19095   -19134   -19143 
  -19094   -19062   -19074   -19093   -19089   -19039   -18975   -18978 
  -19033   -19052   -19037   -19049   -19094   -19155   -19184   -19152 
  -19113   -19111   -19118   -19121   -19133   -19138   -19128   -19102 
  -19076   -19082   -19122   -19140   -19098   -19043   -19025   -19041 
