Origin Time       2025/03/28 03:50:00
Lat.              35.403
Long.             140.360
Depth. (km)       54
Mag.              4.4
Station Code      IBRH20
Station Lat.      35.8284
Station Long.     140.7323
Station Height(m) 5.7
Record Time       2025/03/28 03:51:01
Sampling Freq(Hz) 100Hz
Duration Time(s)  120
Dir.              6
Scale Factor      7845(gal)/8223790
Max. Acc. (gal)   0.599
Last Correction   2025/03/28 03:51:02
Memo.             
[...]
    2686     2681     2678     2682     2685     2685     2687     2690 
    2685     2679     2685     2685     2678     2686     2693     2682 
    2674     2683     2687     2695     2708     2694     2682     2691 
    2690     2693     2704     2695     2686     2686     2687     2687 
    2694     2694     2682     2673     2678     2681     2682     2689 
    2683     2681     2690     2690     2690     2693     2687     2681 
    2678     2674     2675     2687     2690     2677     2674     2686 
    2695     2705     2708     2691     2683     2691     2694     2694 
    2698     2687     2677     2685     2685     2677     2683     2686 
    2674     2674     2683     2683     2690     2690     2670     2671 
    2691     2689     2685     2689     2687     2677     2667     2673 
    2687     2694     2687     2675     2664     2667     2679     2685 
    2689     2690     2681     2675     2682     2683     2681     2682 
    2679     2668     2662     2675     2691     2682     2678     2681 
    2671     2679     2695     2691     2690     2687     2678     2675 
    2682     2694     2697     2683     2671     2675     2687     2693 
    2695     2693     2685     2686     2683     2677     2690     2695 
    2681     2677     2683     2683     2686     2690     2690     2689 
    2682     2675     2681     2689     2683     2685     2686     2675 
    2673     2682     2689     2689     2685     2682     2681     2686 
    2689     2687     2686     2683     2681     2686     2690     2687 
    2686     2682     2679     2678     2677     2685     2690     2678 
    2674     2686     2695     2704     2702     2690     2686     2693 
    2704     2702     2686     2674     2667     2666     2673     2678 
    2681     2681     2671     2667     2681     2685     2683     2682 
    2675     2673     2677     2685     2685     2683     2687     2678 
    2677     2689     2689     2690     2701     2694     2685     2687 
    2685     2681     2689     2690     2682     2678     2675     2675 
    2678     2683     2690     2691     2686     2685     2685     2689 
    2700     2695     2685     2691     2695     2691     2697     2701 
    2689     2686     2686     2679     2685     2685     2675     2679 
    2685     2681     2683     2686     2677     2678     2685     2682 
    2681     2677     2668     2673     2677     2674     2679     2683 
    2682     2685     2694     2694     2686     2685     2685     2685 
    2693     2690     2686     2686     2681     2682     2697     2694 
    2679     2679     2690     2697     2694     2686     2686     2687 
    2685     2691     2698     2689     2675     2681     2690     2686 
    2686     2682     2674     2683     2701     2698     2685     2685 
    2686     2678     2677     2685     2682     2678     2678     2674 
    2674     2682     2682     2685     2693     2686     2678     2686 
    2695     2689     2677     2681     2689     2681     2678     2689 
    2693     2683     2682     2693     2686     2679     2697     2698 
    2685     2687     2687     2682     2679     2679     2682     2683 
    2674     2664     2668     2678     2678     2674     2675     2678 
    2677     2679     2686     2683     2686     2686     2675     2682 
    2689     2678     2681     2693     2690     2685     2693     2697 
    2689     2686     2690     2693     2694     2686     2673     2666 
    2666     2660     2637     2612     2604     2600     2597     2608 
    2628     2636     2640     2662     2683     2682     2671     2673 
    2689     2683     2651     2635     2656     2716     2793     2849 
    2849     2805     2779     2801     2817     2779     2695     2628 
    2628     2662     2682     2663     2631     2668     2787     2860 
    2772     2592     2512     2617     2774     2806     2713     2636 
    2698     2833     2893     2824     2643     2502     2573     2705 
    2721     2659     2529     2465     2697     2997     2995     2887 
    2957     2984     2794     2566     2398     2304     2307     2308 
    2351     2543     2644     2605     2712     2798     2664     2666 
    2841     2794     2527     2430     2718     3087     3154     3100 
    3109     2988     2833     2862     2836     2565     2334     2342 
    2430     2496     2598     2704     2675     2552     2527     2590 
    2625     2647     2610     2527     2671     2984     2995     2679 
    2465     2571     2849     2955     2808     2650     2567     2517 
    2528     2552     2519     2475     2420     2349     2467     2816 
    2999     2852     2725     2791     2779     2616     2532     2565 
    2690     2868     2907     2843     2809     2698     2574     2596 
    2644     2689     2705     2602     2682     3042     3144     2856 
    2613     2501     2380     2354     2450     2587     2771     2775 
    2497     2416     2686     2839     2722     2597     2681     2897 
    2878     2648     2631     2754     2704     2569     2508     2477 
    2493     2706     3006     3080     2929     2795     2787     2771 
    2593     2411     2554     2941     3030     2752     2682     2875 
    2895     2709     2481     2447     2716     2751     2457     2582 
    2956     2843     2523     2479     2652     2840     2793     2555 
    2488     2624     2736     2794     2782     2639     2600     2754 
    2790     2756     2791     2664     2447     2393     2493     2670 
    2690     2596     2733     2868     2745     2652     2660     2708 
    2748     2601     2461     2598     2779     2818     2768     2613 
    2482     2528     2594     2565     2555     2629     2733     2759 
    2614     2490     2613     2782     2795     2871     3125     3229 
    2975     2722     2770     2876     2775     2569     2477     2482 
    2463     2442     2467     2616     2812     2744     2556     2616 
    2721     2802     2995     2932     2679     2798     2983     2799 
    2578     2559     2660     2701     2556     2492     2643     2698 
    2498     2317     2475     2721     2635     2506     2652     2725 
    2525     2376     2512     2731     2779     2758     2809     2832 
    2713     2562     2562     2689     2840     2965     2886     2681 
    2741     2913     2840     2801     2949     2897     2682     2710 
    2847     2737     2575     2736     3033     2960     2532     2226 
    2299     2593     2783     2768     2725     2660     2533     2548 
    2667     2646     2594     2650     2709     2751     2775     2690 
    2498     2322     2353     2570     2678     2694     2802     2832 
    2744     2705     2695     2789     3005     2988     2697     2558 
    2628     2655     2706     2852     2806     2555     2482     2643 
    2732     2633     2513     2546     2670     2770     2826     2667 
    2362     2412     2690     2621     2408     2457     2635     2805 
    2871     2686     2536     2713     2910     2822     2600     2474 
    2566     2812     2932     2880     2944     3049     2899     2698 
    2641     2577     2636     2817     2760     2589     2523     2492 
    2624     2805     2666     2436     2519     2836     3038     2884 
    2631     2583     2555     2481     2528     2569     2556     2644 
    2712     2644     2647     2759     2770     2704     2694     2670 
    2608     2587     2612     2708     2880     2953     2841     2763 
    2764     2697     2668     2698     2658     2732     2853     2772 
    2801     2947     2782     2551     2613     2721     2710     2592 
    2370     2357     2646     2789     2623     2494     2597     2764 
    2863     2932     2862     2619     2558     2701     2681     2610 
    2710     2705     2563     2571     2560     2390     2482     2893 
    3033     2832     2813     2951     2787     2515     2625     2862 
    2795     2652     2629     2558     2493     2513     2506     2565 
    2794     2967     2953     2932     2952     2955     2967     2848 
    2500     2289     2394     2440     2344     2361     2420     2388 
    2322     2285     2431     2656     2605     2536     2830     3001 
    2832     2883     3068     2916     2670     2635     2704     2745 
    2694     2735     3024     3059     2646     2540     2862     2905 
    2702     2693     2781     2762     2646     2548     2605     2729 
    2747     2689     2641     2601     2632     2795     2886     2756 
    2651     2671     2605     2500     2520     2552     2529     2547 
    2582     2625     2764     2947     3009     2840     2532     2477 
    2820     3045     2821     2620     2797     2925     2727     2539 
    2524     2512     2458     2438     2485     2478     2376     2430 
    2644     2689     2582     2575     2674     2729     2640     2517 
    2627     2907     2951     2758     2656     2556     2443     2635 
    2922     2893     2771     2863     2990     2972     2929     2955 
    2913     2713     2539     2528     2581     2623     2631     2565 
    2528     2609     2724     2799     2797     2695     2643     2712 
    2745     2733     2760     2717     2596     2586     2585     2444 
    2440     2671     2817     2739     2556     2459     2521     2582 
    2552     2566     2693     2817     2921     3057     3073     2843 
    2590     2579     2741     2787     2605     2442     2479     2569 
    2640     2758     2794     2728     2756     2789     2689     2716 
    2998     3214     3125     2857     2691     2713     2697     2558 
    2471     2432     2424     2504     2520     2475     2513     2517 
    2474     2565     2733     2798     2727     2668     2770     2876 
    2785     2658     2673     2651     2532     2574     2710     2666 
    2585     2602     2640     2776     2866     2708     2593     2643 
    2593     2563     2809     3100     3069     2778     2579     2552 
    2562     2585     2586     2570     2586     2571     2573     2701 
    2851     2921     2926     2810     2596     2489     2582     2712 
    2686     2589     2613     2695     2659     2554     2525     2573 
    2632     2677     2658     2594     2608     2741     2893     2978 
    3034     3034     2970     2964     2943     2736     2432     2232 
    2301     2554     2625     2506     2554     2732     2767     2731 
    2786     2853     2799     2624     2511     2627     2828     2893 
    2887     2938     2964     2901     2828     2681     2409     2261 
    2328     2401     2448     2559     2643     2631     2635     2758 
    2916     2961     2871     2727     2640     2679     2752     2776 
    2810     2801     2659     2521     2508     2528     2498     2488 
    2546     2598     2608     2655     2776     2876     2849     2794 
    2833     2818     2666     2577     2613     2633     2636     2685 
    2767     2814     2783     2752     2717     2625     2608     2686 
    2727     2733     2731     2709     2651     2548     2578     2767 
    2816     2768     2828     2729     2427     2332     2431     2528 
    2689     2814     2848     2875     2817     2706     2635     2532 
    2513     2644     2683     2616     2613     2658     2716     2758 
    2728     2716     2752     2721     2710     2825     2820     2675 
    2736     2860     2755     2656     2651     2532     2421     2489 
    2658     2832     2886     2774     2668     2644     2587     2477 
    2431     2486     2508     2496     2577     2652     2620     2600 
    2621     2686     2843     2960     2944     2928     2959     2964 
    2959     2949     2849     2705     2662     2708     2732     2687 
    2633     2702     2890     2983     2878     2739     2690     2685 
    2704     2763     2809     2836     2875     2880     2808     2717 
    2674     2612     2462     2308     2228     2184     2164     2199 
    2285     2424     2555     2565     2550     2662     2770     2770 
    2745     2693     2596     2524     2484     2443     2436     2511 
    2635     2702     2671     2640     2693     2752     2709     2609 
    2602     2747     2955     3056     2965     2830     2835     2902 
    2864     2781     2776     2768     2709     2686     2685     2671 
    2673     2641     2605     2667     2764     2782     2821     2937 
    2971     2917     2905     2806     2562     2405     2382     2366 
    2366     2401     2482     2614     2709     2754     2820     2855 
    2857     2953     3086     3079     2933     2744     2656     2708 
    2685     2547     2475     2465     2494     2636     2778     2808 
    2768     2701     2675     2698     2717     2758     2774     2732 
    2732     2689     2524     2477     2563     2533     2457     2486 
    2544     2573     2608     2710     2870     2893     2766     2709 
    2686     2613     2632     2682     2605     2508     2500     2536 
    2589     2667     2720     2737     2816     2945     2948     2852 
    2853     2878     2817     2799     2826     2768     2687     2670 
    2620     2512     2439     2397     2385     2436     2500     2590 
    2802     3006     2982     2766     2548     2442     2466     2532 
    2528     2479     2481     2531     2594     2698     2798     2782 
    2706     2721     2783     2789     2747     2714     2733     2779 
    2767     2675     2617     2658     2664     2582     2566     2686 
    2825     2884     2901     2965     3107     3215     3176     3063 
    3025     3063     3032     2879     2687     2493     2293     2138 
    2056     2056     2195     2443     2624     2647     2643     2735 
    2829     2805     2716     2658     2606     2490     2362     2367 
    2525     2698     2778     2758     2737     2816     2914     2898 
    2818     2809     2866     2895     2852     2775     2713     2652 
    2606     2644     2749     2793     2739     2685     2722     2799 
    2829     2840     2841     2771     2651     2490     2265     2127 
    2199     2353     2504     2690     2849     2851     2718     2585 
    2508     2489     2490     2475     2515     2624     2710     2756 
    2783     2767     2743     2751     2745     2720     2716     2779 
    2907     3048     3144     3153     3078     2965     2836     2710 
    2597     2454     2278     2147     2104     2124     2158     2232 
    2412     2619     2741     2812     2847     2853     2905     2959 
    2951     2963     2991     2945     2830     2691     2589     2581 
    2677     2821     2875     2828     2817     2830     2789     2710 
    2613     2531     2484     2458     2533     2705     2805     2797 
    2779     2735     2647     2586     2528     2478     2492     2504 
    2493     2535     2617     2675     2736     2808     2809     2768 
    2837     2972     2959     2747     2502     2344     2215     2107 
    2131     2286     2469     2628     2755     2879     3032     3169 
    3223     3169     3042     2910     2813     2740     2717     2789 
    2859     2843     2814     2774     2671     2612     2658     2673 
    2570     2439     2428     2555     2678     2716     2702     2702 
    2739     2733     2685     2705     2743     2673     2567     2551 
    2585     2609     2639     2654     2597     2505     2457     2465 
    2538     2702     2856     2910     2929     2894     2771     2694 
    2678     2643     2636     2687     2744     2759     2741     2727 
    2724     2708     2658     2596     2555     2551     2590     2671 
    2786     2897     2943     2891     2782     2679     2620     2620 
    2654     2667     2643     2583     2496     2432     2415     2407 
    2413     2467     2533     2566     2610     2710     2791     2828 
    2876     2897     2874     2884     2867     2758     2681     2656 
    2604     2587     2629     2654     2701     2805     2856     2809 
    2764     2802     2855     2839     2755     2640     2528     2463 
    2466     2533     2629     2683     2716     2776     2790     2740 
    2708     2662     2571     2548     2614     2677     2724     2797 
    2864     2878     2857     2836     2752     2585     2430     2374 
    2401     2440     2463     2517     2600     2664     2735     2832 
    2945     3073     3145     3088     2988     2928     2890     2867 
    2848     2806     2740     2660     2587     2533     2484     2447 
    2417     2369     2370     2469     2558     2575     2583     2581 
    2519     2470     2479     2504     2523     2520     2490     2482 
    2515     2563     2647     2770     2862     2891     2899     2922 
    2926     2864     2798     2794     2782     2735     2710     2718 
    2763     2864     2937     2910     2860     2852     2828     2731 
    2609     2546     2528     2502     2501     2577     2722     2848 
    2890     2955     3100     3184     3164     3110     2970     2751 
    2579     2484     2438     2462     2520     2562     2608     2654 
    2660     2652     2670     2671     2640     2621     2598     2546 
    2478     2381     2262     2173     2169     2272     2419     2533 
    2587     2585     2582     2592     2562     2523     2536     2592 
    2667     2727     2754     2789     2837     2857     2835     2791 
    2731     2679     2685     2708     2709     2760     2871     2957 
    2998     2999     2965     2920     2864     2775     2667     2594 
    2577     2585     2579     2542     2519     2542     2558     2579 
    2666     2764     2817     2832     2810     2787     2771     2704 
    2608     2577     2600     2612     2623     2652     2682     2745 
    2871     2976     3006     3028     3041     2974     2837     2712 
    2656     2629     2563     2489     2427     2393     2451     2542 
    2582     2633     2706     2736     2732     2722     2686     2610 
    2546     2513     2482     2455     2466     2502     2538     2563 
    2583     2602     2609     2563     2465     2390     2407     2492 
    2614     2755     2855     2910     2970     3009     2998     2988 
    3011     3042     3040     2997     2940     2887     2849     2818 
    2797     2812     2840     2816     2724     2621     2535     2457 
    2404     2400     2428     2452     2448     2431     2416     2407 
    2427     2490     2581     2677     2752     2814     2879     2945 
    3006     3044     3045     3014     2937     2836     2729     2608 
    2525     2513     2497     2454     2416     2428     2538     2700 
    2822     2924     3021     3069     3056     2987     2878     2756 
    2627     2502     2432     2389     2330     2288     2276     2277 
    2293     2322     2336     2336     2362     2438     2547     2662 
    2764     2863     2955     2999     2994     2999     2994     2902 
    2766     2654     2565     2523     2536     2569     2643     2770 
    2871     2932     3007     3076     3102     3102     3079     3026 
    2967     2893     2794     2690     2573     2455     2408     2463 
    2586     2698     2751     2770     2791     2779     2717     2650 
    2582     2504     2438     2394     2370     2405     2520     2654 
    2772     2914     3064     3136     3126     3082     3005     2920 
    2855     2785     2689     2571     2451     2351     2268     2203 
    2169     2173     2224     2331     2486     2660     2801     2898 
    2970     3005     2991     2937     2849     2741     2663     2614 
