Origin Time       2025/03/28 03:50:00
Lat.              35.403
Long.             140.360
Depth. (km)       54
Mag.              4.4
Station Code      IBRH07
Station Lat.      35.9521
Station Long.     140.3301
Station Height(m) -1197
Record Time       2025/03/28 03:50:52
Sampling Freq(Hz) 100Hz
Duration Time(s)  120
Dir.              1
Scale Factor      7845(gal)/8223790
Max. Acc. (gal)   0.679
Last Correction   2025/03/28 03:50:52
Memo.             
[...]
  -26107   -26109   -26107   -26104   -26109   -26110   -26106   -26106 
  -26110   -26109   -26107   -26110   -26109   -26106   -26109   -26110 
  -26109   -26109   -26109   -26107   -26106   -26104   -26109   -26110 
  -26107   -26107   -26109   -26110   -26110   -26109   -26110   -26110 
  -26107   -26107   -26109   -26107   -26107   -26107   -26107   -26109 
  -26110   -26107   -26107   -26107   -26109   -26110   -26107   -26106 
  -26107   -26109   -26111   -26110   -26109   -26107   -26109   -26110 
  -26107   -26107   -26109   -26107   -26106   -26106   -26109   -26107 
  -26104   -26106   -26109   -26109   -26109   -26107   -26106   -26109 
  -26109   -26107   -26109   -26107   -26104   -26106   -26110   -26107 
  -26106   -26109   -26107   -26106   -26107   -26109   -26109   -26109 
  -26107   -26107   -26107   -26104   -26107   -26110   -26111   -26110 
  -26107   -26109   -26107   -26107   -26107   -26106   -26106   -26106 
  -26106   -26107   -26109   -26107   -26106   -26107   -26107   -26107 
  -26109   -26110   -26109   -26106   -26107   -26109   -26106   -26107 
  -26109   -26109   -26107   -26106   -26109   -26110   -26106   -26104 
  -26107   -26107   -26107   -26109   -26109   -26107   -26106   -26107 
  -26109   -26107   -26107   -26107   -26106   -26107   -26110   -26107 
  -26104   -26107   -26107   -26103   -26106   -26107   -26109   -26111 
  -26110   -26106   -26106   -26106   -26106   -26107   -26107   -26109 
  -26109   -26107   -26109   -26109   -26107   -26106   -26106   -26107 
  -26107   -26109   -26109   -26107   -26110   -26110   -26107   -26107 
  -26107   -26107   -26107   -26107   -26107   -26107   -26109   -26106 
  -26104   -26107   -26107   -26107   -26110   -26110   -26109   -26107 
  -26107   -26106   -26106   -26109   -26107   -26106   -26107   -26109 
  -26109   -26107   -26109   -26110   -26107   -26107   -26110   -26110 
  -26109   -26109   -26107   -26106   -26106   -26107   -26107   -26107 
  -26109   -26109   -26107   -26106   -26107   -26107   -26109   -26111 
  -26110   -26107   -26106   -26109   -26109   -26106   -26107   -26107 
  -26107   -26109   -26110   -26110   -26107   -26106   -26106   -26109 
  -26110   -26109   -26107   -26110   -26107   -26106   -26107   -26104 
  -26106   -26110   -26107   -26106   -26109   -26107   -26106   -26107 
  -26109   -26107   -26106   -26106   -26107   -26109   -26107   -26106 
  -26106   -26107   -26109   -26110   -26107   -26104   -26107   -26109 
  -26109   -26109   -26109   -26111   -26111   -26109   -26109   -26107 
  -26107   -26109   -26109   -26107   -26107   -26106   -26107   -26110 
  -26110   -26107   -26107   -26109   -26110   -26107   -26107   -26110 
  -26109   -26107   -26106   -26106   -26109   -26109   -26106   -26107 
  -26109   -26109   -26110   -26109   -26109   -26110   -26107   -26107 
  -26110   -26109   -26109   -26109   -26109   -26109   -26110   -26109 
  -26109   -26109   -26107   -26106   -26106   -26109   -26106   -26107 
  -26110   -26109   -26109   -26109   -26107   -26106   -26104   -26106 
  -26110   -26109   -26107   -26109   -26111   -26111   -26106   -26107 
  -26110   -26106   -26106   -26109   -26107   -26104   -26107   -26109 
  -26107   -26110   -26111   -26107   -26107   -26109   -26107   -26107 
  -26109   -26109   -26109   -26109   -26107   -26110   -26109   -26106 
  -26109   -26110   -26107   -26107   -26107   -26109   -26111   -26111 
  -26110   -26109   -26107   -26106   -26107   -26107   -26109   -26109 
  -26109   -26109   -26110   -26110   -26107   -26107   -26110   -26110 
  -26110   -26110   -26107   -26104   -26106   -26107   -26109   -26110 
  -26109   -26107   -26109   -26110   -26107   -26106   -26109   -26109 
  -26106   -26107   -26110   -26107   -26107   -26107   -26107   -26109 
  -26109   -26106   -26106   -26107   -26107   -26106   -26109   -26109 
  -26109   -26109   -26107   -26107   -26110   -26110   -26107   -26106 
  -26109   -26110   -26109   -26106   -26106   -26107   -26106   -26104 
  -26107   -26109   -26106   -26107   -26109   -26109   -26107   -26106 
  -26106   -26107   -26110   -26109   -26107   -26110   -26109   -26106 
  -26107   -26109   -26107   -26107   -26109   -26107   -26107   -26109 
  -26106   -26106   -26107   -26106   -26106   -26107   -26109   -26110 
  -26109   -26106   -26104   -26107   -26109   -26109   -26109   -26107 
  -26107   -26109   -26106   -26106   -26109   -26110   -26109   -26107 
  -26106   -26106   -26109   -26107   -26106   -26109   -26109   -26106 
  -26109   -26109   -26107   -26107   -26106   -26104   -26107   -26109 
  -26107   -26107   -26106   -26109   -26109   -26106   -26104   -26106 
  -26106   -26106   -26107   -26110   -26107   -26106   -26109   -26107 
  -26103   -26106   -26107   -26106   -26104   -26106   -26107   -26107 
  -26107   -26107   -26107   -26107   -26107   -26104   -26107   -26111 
  -26109   -26106   -26109   -26109   -26106   -26107   -26104   -26104 
  -26109   -26107   -26104   -26109   -26107   -26104   -26107   -26106 
  -26104   -26106   -26107   -26106   -26106   -26106   -26107   -26106 
  -26104   -26107   -26107   -26107   -26109   -26107   -26106   -26107 
  -26107   -26107   -26107   -26107   -26107   -26107   -26107   -26109 
  -26107   -26104   -26104   -26107   -26107   -26107   -26109   -26109 
  -26107   -26109   -26107   -26106   -26107   -26107   -26109   -26107 
  -26106   -26107   -26106   -26106   -26107   -26109   -26109   -26107 
  -26107   -26107   -26106   -26107   -26109   -26107   -26107   -26107 
  -26109   -26110   -26107   -26106   -26110   -26107   -26104   -26107 
  -26109   -26106   -26107   -26110   -26109   -26106   -26107   -26107 
  -26106   -26106   -26107   -26106   -26106   -26107   -26109   -26110 
  -26109   -26107   -26107   -26107   -26109   -26109   -26109   -26110 
  -26110   -26109   -26109   -26109   -26110   -26110   -26111   -26111 
  -26114   -26118   -26123   -26129   -26130   -26127   -26127   -26129 
  -26127   -26131   -26134   -26130   -26123   -26103   -26067   -26041 
  -26036   -26038   -26057   -26088   -26096   -26092   -26118   -26156 
  -26165   -26167   -26164   -26121   -26083   -26103   -26121   -26106 
  -26098   -26088   -26063   -26059   -26096   -26122   -26126   -26164 
  -26164   -26077   -26048   -26102   -26129   -26122   -26113   -26110 
  -26098   -26050   -26068   -26183   -26229   -26167   -26100   -26056 
  -26025   -26045   -26091   -26094   -26075   -26086   -26115   -26144 
  -26146   -26140   -26126   -26092   -26069   -26084   -26127   -26123 
  -26071   -26063   -26109   -26118   -26080   -26100   -26172   -26184 
  -26150   -26113   -26096   -26094   -26050   -26064   -26142   -26152 
  -26149   -26142   -26077   -26090   -26161   -26134   -26084   -26099 
  -26099   -26063   -26028   -26022   -26050   -26091   -26119   -26125 
  -26146   -26185   -26181   -26142   -26130   -26157   -26106   -25971 
  -25967   -26055   -26055   -26060   -26073   -26013   -25994   -26064 
  -26122   -26130   -26114   -26087   -26109   -26192   -26210   -26169 
  -26164   -26131   -26125   -26222   -26257   -26184   -26118   -26072 
  -26096   -26218   -26260   -26169   -26094   -26075   -26057   -26019 
  -26013   -26082   -26109   -26010   -25914   -25940   -26045   -26098 
  -26076   -26084   -26134   -26142   -26098   -26080   -26121   -26149 
  -26140   -26118   -26104   -26106   -26121   -26153   -26163   -26141 
  -26140   -26141   -26158   -26234   -26254   -26176   -26114   -26094 
  -26107   -26167   -26217   -26185   -26052   -25914   -25914   -26021 
  -26067   -26036   -26052   -26111   -26126   -26103   -26057   -26052 
  -26144   -26183   -26127   -26122   -26142   -26103   -26095   -26188 
  -26229   -26126   -26057   -26110   -26172   -26222   -26231   -26142 
  -26094   -26114   -26046   -25983   -26040   -26056   -25971   -25929 
  -26013   -26129   -26140   -26125   -26233   -26285   -26107   -25956 
  -26028   -26090   -26045   -26077   -26173   -26180   -26160   -26177 
  -26123   -26057   -26114   -26191   -26225   -26287   -26320   -26272 
  -26179   -25996   -25813   -25868   -26032   -26075   -26126   -26208 
  -26173   -26083   -26013   -25945   -25915   -25960   -26083   -26198 
  -26181   -26094   -26030   -25955   -25949   -26091   -26195   -26214 
  -26276   -26329   -26302   -26261   -26238   -26154   -26032   -26065 
  -26249   -26299   -26140   -25978   -25884   -25836   -25975   -26262 
  -26349   -26131   -25864   -25799   -25907   -26011   -26103   -26185 
  -26222   -26315   -26441   -26431   -26260   -26026   -25867   -25840 
  -25878   -25952   -26056   -26109   -26130   -26156   -26117   -26103 
  -26181   -26210   -26183   -26156   -26055   -25967   -26072   -26195 
  -26157   -26161   -26234   -26206   -26180   -26223   -26215   -26100 
  -25940   -25860   -25925   -26041   -26100   -26114   -26100   -26048 
  -26102   -26276   -26323   -26239   -26157   -26065   -26037   -26090 
  -26059   -25960   -25992   -26134   -26198   -26158   -26068   -25940 
  -25866   -25902   -25983   -26099   -26206   -26180   -26121   -26164 
  -26196   -26141   -26119   -26184   -26168   -26038   -26019   -26134 
  -26208   -26246   -26276   -26252   -26180   -26072   -25979   -26010 
  -26118   -26233   -26291   -26158   -25995   -26018   -26113   -26157 
  -26163   -26140   -26110   -26083   -26011   -25968   -26083   -26165 
  -26067   -26006   -26056   -26072   -26092   -26154   -26144   -26096 
  -26130   -26196   -26183   -26067   -25975   -25952   -25934   -25982 
  -26041   -26036   -26086   -26192   -26241   -26161   -26061   -26145 
  -26283   -26262   -26206   -26185   -26165   -26218   -26269   -26177 
  -26041   -26019   -26082   -26118   -26171   -26248   -26211   -26102 
  -26048   -26007   -25947   -25915   -25933   -25988   -26033   -26009 
  -25995   -26050   -26110   -26176   -26214   -26161   -26090   -26053 
  -26113   -26229   -26221   -26131   -26121   -26104   -26045   -26102 
  -26172   -26084   -26059   -26168   -26204   -26194   -26169   -26072 
  -26014   -26056   -26079   -26055   -26115   -26248   -26284   -26254 
  -26237   -26163   -26049   -26050   -26164   -26146   -25987   -25951 
  -25979   -25915   -25875   -25922   -26011   -26096   -26111   -26098 
  -26107   -26146   -26218   -26231   -26187   -26211   -26187   -26082 
  -26142   -26212   -26083   -26071   -26161   -26131   -26227   -26337 
  -26127   -25941   -25975   -25964   -25952   -26100   -26227   -26152 
  -26082   -26130   -26109   -26069   -26118   -26161   -26167   -26109 
  -26068   -26163   -26249   -26212   -26173   -26165   -26072   -25969 
  -26026   -26136   -26129   -26068   -26002   -25926   -25969   -26141 
  -26257   -26245   -26136   -26040   -26059   -26103   -26133   -26192 
  -26194   -26117   -26080   -26114   -26126   -26072   -26037   -26053 
  -26060   -26056   -26076   -26107   -26140   -26145   -26099   -26057 
  -26041   -26067   -26160   -26223   -26145   -26015   -26036   -26131 
  -26133   -26148   -26229   -26257   -26227   -26156   -26098   -26098 
  -26034   -25961   -26017   -26068   -26050   -26053   -26044   -26046 
  -26125   -26157   -26107   -26119   -26169   -26150   -26142   -26148 
  -26082   -26046   -26100   -26145   -26179   -26225   -26185   -26068 
  -26072   -26165   -26136   -26068   -26094   -26094   -26048   -26034 
  -26023   -26029   -26111   -26175   -26134   -26095   -26080   -26029 
  -25986   -25971   -25996   -26086   -26129   -26111   -26185   -26273 
  -26173   -26028   -26080   -26229   -26272   -26227   -26203   -26218 
  -26194   -26113   -26036   -25994   -25995   -26011   -26063   -26157 
  -26154   -26064   -26077   -26165   -26188   -26157   -26146   -26148 
  -26109   -26046   -26059   -26119   -26104   -26076   -26137   -26167 
  -26096   -26091   -26149   -26090   -25998   -26028   -26040   -25995 
  -26056   -26096   -25982   -25937   -26056   -26160   -26191   -26219 
  -26289   -26323   -26271   -26238   -26222   -26115   -26014   -25987 
  -25976   -26015   -26067   -26034   -26029   -26111   -26145   -26077 
  -26019   -26026   -26068   -26107   -26110   -26110   -26179   -26239 
  -26227   -26245   -26229   -26096   -26068   -26156   -26173   -26183 
  -26191   -26103   -26026   -26007   -25983   -25971   -25980   -26009 
  -26041   -26055   -26094   -26140   -26153   -26168   -26163   -26142 
  -26161   -26172   -26133   -26118   -26126   -26099   -26056   -25994 
  -25972   -26050   -26090   -26077   -26145   -26225   -26250   -26214 
  -26103   -26068   -26163   -26214   -26184   -26153   -26106   -26048 
  -26040   -26036   -25995   -25976   -25988   -26045   -26127   -26137 
  -26104   -26100   -26114   -26153   -26138   -26064   -26057   -26050 
  -26015   -26098   -26211   -26202   -26144   -26131   -26152   -26164 
  -26153   -26103   -26056   -26098   -26199   -26242   -26198   -26144 
  -26141   -26127   -26068   -26022   -26014   -26073   -26167   -26185 
  -26148   -26123   -26110   -26084   -26088   -26082   -25983   -25969 
  -26087   -26086   -26011   -26061   -26150   -26207   -26227   -26161 
  -26102   -26104   -26094   -26104   -26133   -26092   -26053   -26067 
  -26028   -25903   -25810   -25844   -25971   -26103   -26176   -26226 
  -26312   -26357   -26323   -26327   -26350   -26314   -26295   -26304 
  -26256   -26176   -26114   -26030   -25894   -25755   -25718   -25790 
  -25859   -25886   -25940   -26018   -26038   -26015   -26059   -26104 
  -26084   -26158   -26304   -26330   -26368   -26532   -26682   -26777 
  -26819   -26744   -26601   -26443   -26262   -26068   -25824   -25562 
  -25411   -25412   -25473   -25471   -25450   -25546   -25749   -25942 
  -26142   -26400   -26542   -26446   -26302   -26215   -26111   -25994 
  -25949   -25998   -26029   -25992   -25955   -25941   -26040   -26312 
  -26536   -26504   -26431   -26455   -26346   -26153   -26109   -26122 
  -26107   -26134   -26167   -26113   -26019   -26018   -26083   -26091 
  -26077   -26157   -26245   -26160   -25936   -25787   -25790   -25802 
  -25768   -25832   -25971   -26052   -26102   -26134   -26191   -26354 
  -26480   -26453   -26434   -26501   -26470   -26222   -25987   -25967 
  -26001   -25995   -26059   -26149   -26173   -26145   -25991   -25704 
  -25575   -25780   -26056   -26086   -25934   -25936   -26118   -26227 
  -26231   -26229   -26310   -26522   -26646   -26492   -26244   -26090 
  -25992   -26007   -26137   -26109   -25901   -25841   -25988   -26111 
  -26109   -26044   -26026   -26064   -26071   -26041   -26053   -26069 
  -25988   -25960   -26164   -26403   -26449   -26350   -26180   -25999 
  -25938   -26021   -26119   -26175   -26196   -26130   -26082   -26207 
  -26302   -26164   -26005   -25992   -25974   -25918   -25974   -26076 
  -26061   -25955   -25909   -26006   -26153   -26218   -26207   -26185 
  -26171   -26181   -26180   -26083   -25999   -26052   -26149   -26161 
  -26099   -26037   -26005   -26019   -26064   -26052   -25988   -25986 
  -26041   -26102   -26215   -26322   -26272   -26167   -26180   -26226 
  -26214   -26154   -26030   -25894   -25859   -25955   -26123   -26254 
  -26275   -26266   -26329   -26335   -26203   -26072   -25999   -25948 
  -25968   -26064   -26123   -26099   -26055   -26030   -25998   -26013 
  -26141   -26276   -26268   -26142   -26029   -25990   -26075   -26239 
  -26254   -26094   -25951   -25883   -25920   -26029   -26057   -26077 
  -26219   -26339   -26334   -26229   -26090   -26068   -26091   -25952 
  -25794   -25797   -25876   -25987   -26092   -26129   -26154   -26160 
  -26084   -26079   -26231   -26338   -26246   -26098   -26091   -26204 
  -26320   -26396   -26401   -26362   -26325   -26234   -26168   -26233 
  -26203   -25957   -25778   -25813   -25903   -25961   -26050   -26142 
  -26149   -26157   -26223   -26241   -26149   -25998   -25883   -25837 
  -25860   -26017   -26183   -26169   -26150   -26284   -26392   -26334 
  -26233   -26172   -26060   -25988   -26076   -26133   -26045   -25930 
  -25855   -25876   -26046   -26212   -26245   -26214   -26190   -26231 
  -26349   -26399   -26325   -26192   -26065   -25999   -25994   -26026 
  -26095   -26175   -26226   -26202   -26109   -26010   -25880   -25733 
  -25718   -25852   -26007   -26141   -26279   -26423   -26491   -26404 
  -26304   -26323   -26320   -26187   -26050   -25949   -25883   -25936 
  -26029   -26025   -25967   -25938   -25955   -25987   -25995   -25937 
  -25834   -25751   -25762   -25899   -26026   -26023   -25992   -26060 
  -26198   -26312   -26354   -26343   -26352   -26416   -26496   -26519 
  -26412   -26217   -26064   -25913   -25740   -25701   -25764   -25805 
  -25925   -26177   -26392   -26415   -26314   -26285   -26361   -26430 
  -26434   -26338   -26195   -26153   -26177   -26100   -25994   -26011 
  -26065   -26098   -26200   -26298   -26287   -26227   -26129   -25984 
  -25883   -25826   -25776   -25772   -25839   -25952   -26069   -26145 
  -26195   -26215   -26180   -26150   -26161   -26165   -26150   -26123 
  -26088   -26060   -26019   -25951   -25905   -25930   -26022   -26118 
  -26194   -26275   -26273   -26133   -26025   -26022   -25963   -25871 
  -25918   -26003   -25996   -26001   -26041   -26049   -26087   -26227 
  -26369   -26412   -26407   -26410   -26395   -26350   -26293   -26242 
  -26187   -26083   -25965   -25967   -26088   -26163   -26146   -26114 
  -26038   -25961   -26014   -26099   -26088   -26076   -26064   -25996 
  -26003   -26125   -26207   -26192   -26153   -26136   -26138   -26126 
  -26053   -25942   -25884   -25920   -26013   -26103   -26134   -26127 
  -26111   -26088   -26121   -26171   -26084   -25925   -25883   -25949 
  -25979   -25956   -25967   -26002   -26037   -26119   -26211   -26246 
  -26280   -26329   -26306   -26253   -26276   -26292   -26245   -26203 
  -26172   -26160   -26164   -26144   -26137   -26138   -26099   -26095 
  -26110   -26057   -26011   -26032   -26017   -25996   -26086   -26203 
  -26244   -26226   -26184   -26187   -26207   -26163   -26137   -26149 
  -26136   -26138   -26122   -26075   -26077   -26040   -25911   -25852 
  -25884   -25915   -25918   -25932   -26018   -26121   -26138   -26127 
  -26140   -26099   -26021   -26013   -26063   -26113   -26176   -26234 
  -26266   -26315   -26343   -26302   -26246   -26215   -26157   -26083 
  -26040   -25996   -25955   -25975   -26032   -26044   -26042   -26050 
  -26071   -26158   -26264   -26268   -26187   -26100   -26044   -26010 
  -25983   -25980   -26025   -26068   -26057   -26032   -26063   -26134 
  -26179   -26191   -26249   -26346   -26366   -26318   -26284   -26264 
  -26233   -26188   -26127   -26065   -26005   -25964   -26007   -26111 
  -26127   -26046   -26001   -25965   -25907   -25915   -25956   -25956 
  -25959   -26001   -26055   -26106   -26154   -26180   -26161   -26145 
  -26172   -26202   -26206   -26164   -26084   -26055   -26091   -26136 
  -26177   -26200   -26203   -26185   -26073   -25937   -25938   -26022 
  -26063   -26088   -26163   -26229   -26215   -26175   -26150   -26125 
  -26142   -26181   -26160   -26123   -26118   -26082   -26029   -26007 
  -25976   -25948   -25975   -26013   -26025   -26071   -26141   -26156 
  -26111   -26057   -26018   -26002   -26025   -26121   -26233   -26254 
  -26221   -26221   -26262   -26318   -26360   -26377   -26379   -26327 
  -26207   -26100   -26068   -26064   -26060   -26053   -26033   -26013 
