Origin Time       2025/03/28 03:50:00
Lat.              35.403
Long.             140.360
Depth. (km)       54
Mag.              4.4
Station Code      IBRH07
Station Lat.      35.9521
Station Long.     140.3301
Station Height(m) -1197
Record Time       2025/03/28 03:50:52
Sampling Freq(Hz) 100Hz
Duration Time(s)  120
Dir.              2
Scale Factor      7845(gal)/8223790
Max. Acc. (gal)   1.090
Last Correction   2025/03/28 03:50:52
Memo.             
[...]
   -6301    -6300    -6309    -6312    -6304    -6301    -6307    -6305 
   -6300    -6301    -6307    -6308    -6304    -6303    -6307    -6308 
   -6304    -6303    -6304    -6307    -6304    -6301    -6307    -6309 
   -6304    -6303    -6305    -6307    -6305    -6304    -6307    -6309 
   -6303    -6303    -6308    -6308    -6305    -6305    -6307    -6308 
   -6305    -6303    -6308    -6309    -6304    -6301    -6308    -6308 
   -6300    -6301    -6308    -6309    -6305    -6303    -6307    -6309 
   -6304    -6303    -6307    -6305    -6300    -6299    -6305    -6308 
   -6303    -6301    -6308    -6308    -6303    -6305    -6309    -6307 
   -6303    -6303    -6308    -6307    -6300    -6301    -6307    -6304 
   -6301    -6304    -6307    -6308    -6303    -6303    -6309    -6309 
   -6301    -6303    -6309    -6308    -6301    -6303    -6308    -6308 
   -6303    -6304    -6311    -6311    -6301    -6303    -6309    -6308 
   -6301    -6304    -6311    -6308    -6301    -6304    -6311    -6308 
   -6303    -6303    -6308    -6308    -6301    -6303    -6308    -6307 
   -6303    -6303    -6307    -6305    -6301    -6304    -6305    -6303 
   -6301    -6305    -6308    -6303    -6300    -6304    -6311    -6305 
   -6299    -6303    -6308    -6305    -6301    -6304    -6308    -6304 
   -6300    -6307    -6309    -6301    -6301    -6308    -6309    -6304 
   -6303    -6307    -6309    -6304    -6301    -6307    -6307    -6303 
   -6303    -6305    -6304    -6301    -6301    -6305    -6307    -6303 
   -6303    -6307    -6305    -6301    -6304    -6309    -6308    -6303 
   -6303    -6311    -6308    -6301    -6303    -6307    -6308    -6305 
   -6303    -6305    -6305    -6300    -6303    -6311    -6307    -6300 
   -6304    -6307    -6303    -6301    -6304    -6304    -6303    -6303 
   -6305    -6307    -6304    -6299    -6304    -6311    -6305    -6300 
   -6305    -6309    -6304    -6300    -6305    -6309    -6304    -6300 
   -6303    -6307    -6303    -6300    -6304    -6308    -6304    -6301 
   -6304    -6307    -6303    -6300    -6304    -6308    -6305    -6300 
   -6303    -6308    -6305    -6301    -6305    -6308    -6301    -6300 
   -6305    -6308    -6304    -6303    -6307    -6308    -6304    -6303 
   -6308    -6309    -6301    -6300    -6307    -6308    -6303    -6301 
   -6307    -6308    -6303    -6301    -6305    -6307    -6301    -6301 
   -6305    -6307    -6303    -6303    -6305    -6305    -6301    -6299 
   -6304    -6305    -6303    -6303    -6307    -6305    -6299    -6303 
   -6308    -6305    -6301    -6305    -6309    -6305    -6301    -6305 
   -6309    -6307    -6301    -6304    -6311    -6307    -6297    -6303 
   -6311    -6305    -6301    -6305    -6308    -6304    -6300    -6304 
   -6309    -6308    -6301    -6303    -6309    -6307    -6301    -6304 
   -6309    -6305    -6300    -6303    -6308    -6305    -6303    -6308 
   -6309    -6304    -6301    -6305    -6308    -6305    -6301    -6303 
   -6307    -6305    -6301    -6304    -6309    -6307    -6303    -6307 
   -6309    -6303    -6300    -6305    -6308    -6304    -6301    -6307 
   -6312    -6305    -6301    -6308    -6308    -6300    -6299    -6305 
   -6309    -6304    -6300    -6305    -6309    -6304    -6303    -6308 
   -6308    -6301    -6300    -6305    -6308    -6304    -6303    -6308 
   -6308    -6303    -6301    -6307    -6308    -6303    -6301    -6308 
   -6307    -6301    -6303    -6308    -6307    -6304    -6305    -6309 
   -6305    -6299    -6303    -6309    -6305    -6301    -6307    -6311 
   -6305    -6301    -6304    -6305    -6303    -6300    -6303    -6305 
   -6304    -6304    -6307    -6308    -6305    -6303    -6304    -6305 
   -6303    -6300    -6304    -6308    -6305    -6303    -6304    -6305 
   -6304    -6303    -6305    -6307    -6303    -6299    -6304    -6309 
   -6301    -6299    -6307    -6307    -6300    -6303    -6308    -6308 
   -6304    -6304    -6308    -6308    -6303    -6300    -6303    -6305 
   -6303    -6304    -6307    -6305    -6300    -6303    -6311    -6308 
   -6300    -6304    -6309    -6305    -6300    -6304    -6312    -6308 
   -6301    -6304    -6308    -6304    -6300    -6307    -6311    -6303 
   -6299    -6305    -6308    -6301    -6299    -6305    -6307    -6303 
   -6301    -6307    -6308    -6303    -6300    -6307    -6307    -6301 
   -6301    -6307    -6308    -6303    -6301    -6308    -6309    -6303 
   -6301    -6307    -6307    -6300    -6301    -6307    -6305    -6301 
   -6301    -6305    -6307    -6303    -6301    -6307    -6307    -6301 
   -6303    -6307    -6307    -6303    -6303    -6309    -6308    -6301 
   -6303    -6308    -6304    -6299    -6304    -6309    -6303    -6299 
   -6305    -6308    -6304    -6303    -6307    -6308    -6301    -6299 
   -6308    -6309    -6303    -6304    -6308    -6307    -6303    -6304 
   -6307    -6308    -6304    -6301    -6307    -6308    -6303    -6301 
   -6307    -6307    -6303    -6301    -6304    -6307    -6303    -6300 
   -6308    -6309    -6301    -6301    -6309    -6308    -6301    -6303 
   -6308    -6308    -6300    -6301    -6308    -6307    -6301    -6301 
   -6305    -6305    -6301    -6301    -6307    -6305    -6300    -6303 
   -6309    -6307    -6301    -6303    -6307    -6304    -6301    -6303 
   -6307    -6307    -6303    -6304    -6309    -6307    -6300    -6303 
   -6309    -6305    -6300    -6304    -6308    -6305    -6301    -6303 
   -6304    -6303    -6300    -6301    -6307    -6305    -6301    -6305 
   -6307    -6303    -6303    -6305    -6308    -6304    -6299    -6303 
   -6305    -6303    -6300    -6305    -6309    -6305    -6303    -6304 
   -6307    -6305    -6301    -6304    -6309    -6304    -6300    -6308 
   -6311    -6304    -6301    -6305    -6308    -6305    -6300    -6303 
   -6307    -6303    -6297    -6303    -6308    -6301    -6297    -6304 
   -6305    -6299    -6296    -6300    -6301    -6296    -6296    -6303 
   -6303    -6295    -6293    -6303    -6307    -6311    -6322    -6330 
   -6331    -6328    -6319    -6313    -6316    -6304    -6273    -6258 
   -6264    -6268    -6280    -6308    -6309    -6293    -6304    -6316 
   -6315    -6335    -6350    -6330    -6305    -6315    -6332    -6307 
   -6291    -6320    -6323    -6288    -6277    -6286    -6293    -6289 
   -6270    -6278    -6304    -6300    -6285    -6303    -6343    -6361 
   -6338    -6320    -6330    -6331    -6304    -6264    -6245    -6251 
   -6262    -6269    -6281    -6318    -6358    -6349    -6316    -6328 
   -6349    -6327    -6272    -6245    -6291    -6326    -6305    -6299 
   -6309    -6304    -6304    -6324    -6324    -6288    -6264    -6281 
   -6289    -6293    -6338    -6349    -6313    -6320    -6346    -6331 
   -6316    -6353    -6376    -6328    -6295    -6301    -6293    -6273 
   -6245    -6218    -6234    -6265    -6282    -6303    -6324    -6345 
   -6349    -6331    -6346    -6363    -6326    -6281    -6253    -6242 
   -6270    -6288    -6291    -6309    -6292    -6241    -6269    -6346 
   -6362    -6358    -6357    -6312    -6286    -6313    -6340    -6336 
   -6277    -6210    -6230    -6328    -6409    -6397    -6331    -6276 
   -6257    -6282    -6285    -6254    -6284    -6326    -6280    -6257 
   -6323    -6353    -6295    -6254    -6270    -6282    -6255    -6234 
   -6254    -6278    -6286    -6320    -6369    -6372    -6350    -6359 
   -6374    -6388    -6404    -6358    -6291    -6280    -6289    -6309 
   -6331    -6301    -6278    -6301    -6305    -6288    -6293    -6276 
   -6238    -6261    -6311    -6318    -6303    -6272    -6230    -6228 
   -6282    -6315    -6289    -6266    -6297    -6345    -6353    -6330 
   -6330    -6339    -6324    -6304    -6307    -6340    -6354    -6322 
   -6335    -6420    -6455    -6384    -6295    -6286    -6319    -6281 
   -6220    -6216    -6205    -6162    -6164    -6245    -6338    -6347 
   -6285    -6253    -6289    -6335    -6332    -6295    -6277    -6291 
   -6280    -6227    -6185    -6262    -6413    -6420    -6346    -6385 
   -6431    -6423    -6448    -6431    -6327    -6254    -6280    -6357 
   -6386    -6345    -6303    -6266    -6253    -6247    -6197    -6187 
   -6253    -6289    -6289    -6266    -6230    -6253    -6276    -6234 
   -6207    -6222    -6243    -6286    -6345    -6359    -6328    -6326 
   -6358    -6397    -6471    -6513    -6458    -6377    -6328    -6313 
   -6332    -6331    -6277    -6222    -6160    -6085    -6104    -6228 
   -6340    -6354    -6296    -6277    -6326    -6340    -6307    -6308 
   -6354    -6381    -6384    -6377    -6332    -6276    -6261    -6261 
   -6266    -6303    -6361    -6394    -6335    -6224    -6172    -6227 
   -6353    -6412    -6365    -6296    -6269    -6309    -6335    -6266 
   -6201    -6249    -6363    -6446    -6403    -6250    -6146    -6153 
   -6174    -6176    -6211    -6284    -6355    -6343    -6250    -6284 
   -6475    -6593    -6563    -6467    -6392    -6376    -6339    -6247 
   -6185    -6205    -6254    -6273    -6300    -6328    -6273    -6180 
   -6138    -6138    -6208    -6342    -6417    -6409    -6359    -6323 
   -6342    -6335    -6281    -6253    -6232    -6224    -6272    -6345 
   -6384    -6378    -6381    -6353    -6246    -6239    -6350    -6342 
   -6286    -6323    -6327    -6269    -6293    -6376    -6340    -6251 
   -6277    -6305    -6239    -6178    -6180    -6265    -6384    -6439 
   -6420    -6346    -6281    -6313    -6346    -6299    -6289    -6346 
   -6374    -6346    -6292    -6261    -6245    -6216    -6214    -6285 
   -6400    -6442    -6377    -6299    -6253    -6237    -6241    -6207 
   -6191    -6257    -6307    -6316    -6324    -6315    -6338    -6380 
   -6388    -6403    -6369    -6282    -6269    -6293    -6307    -6378 
   -6412    -6328    -6247    -6200    -6183    -6212    -6214    -6226 
   -6312    -6338    -6269    -6205    -6227    -6335    -6416    -6408 
   -6434    -6531    -6521    -6361    -6245    -6238    -6253    -6250 
   -6196    -6156    -6195    -6218    -6237    -6312    -6347    -6308 
   -6288    -6345    -6415    -6428    -6392    -6359    -6342    -6292 
   -6219    -6200    -6222    -6243    -6309    -6377    -6370    -6372 
   -6377    -6305    -6246    -6261    -6299    -6355    -6373    -6258 
   -6178    -6282    -6355    -6296    -6285    -6315    -6332    -6413 
   -6427    -6300    -6245    -6293    -6332    -6358    -6361    -6327 
   -6277    -6235    -6228    -6254    -6274    -6224    -6172    -6235 
   -6318    -6336    -6340    -6332    -6328    -6357    -6357    -6296 
   -6241    -6264    -6330    -6343    -6307    -6301    -6289    -6219 
   -6212    -6343    -6454    -6421    -6342    -6324    -6396    -6450 
   -6365    -6255    -6241    -6254    -6281    -6295    -6250    -6243 
   -6291    -6286    -6246    -6249    -6278    -6293    -6299    -6297 
   -6268    -6272    -6345    -6366    -6336    -6332    -6291    -6239 
   -6293    -6393    -6424    -6390    -6338    -6268    -6191    -6157 
   -6203    -6304    -6373    -6385    -6435    -6490    -6411    -6285 
   -6262    -6265    -6269    -6297    -6284    -6254    -6226    -6216 
   -6319    -6403    -6381    -6376    -6295    -6127    -6110    -6242 
   -6315    -6280    -6259    -6319    -6390    -6386    -6322    -6315 
   -6369    -6369    -6350    -6385    -6436    -6419    -6346    -6362 
   -6380    -6245    -6149    -6165    -6138    -6112    -6166    -6259 
   -6339    -6334    -6282    -6308    -6361    -6354    -6318    -6265 
   -6238    -6284    -6330    -6319    -6301    -6312    -6307    -6296 
   -6372    -6470    -6478    -6409    -6328    -6291    -6288    -6286 
   -6303    -6322    -6308    -6305    -6345    -6346    -6274    -6224 
   -6207    -6195    -6239    -6289    -6286    -6281    -6282    -6251 
   -6203    -6212    -6251    -6245    -6281    -6338    -6305    -6315 
   -6430    -6497    -6469    -6412    -6369    -6359    -6350    -6295 
   -6247    -6261    -6280    -6251    -6220    -6276    -6370    -6354 
   -6269    -6285    -6359    -6316    -6237    -6272    -6268    -6154 
   -6156    -6238    -6234    -6259    -6372    -6438    -6431    -6434 
   -6463    -6432    -6331    -6284    -6315    -6319    -6312    -6315 
   -6243    -6129    -6111    -6196    -6265    -6309    -6417    -6496 
   -6428    -6319    -6284    -6274    -6291    -6345    -6299    -6204 
   -6241    -6305    -6303    -6278    -6243    -6208    -6204    -6273 
   -6380    -6408    -6392    -6438    -6462    -6419    -6390    -6366 
   -6311    -6231    -6131    -6122    -6249    -6362    -6380    -6327 
   -6268    -6242    -6211    -6193    -6235    -6300    -6365    -6400 
   -6373    -6342    -6357    -6374    -6340    -6257    -6218    -6259 
   -6303    -6345    -6392    -6400    -6426    -6448    -6380    -6277 
   -6188    -6123    -6146    -6231    -6284    -6320    -6373    -6377 
   -6320    -6299    -6328    -6351    -6328    -6255    -6232    -6305 
   -6343    -6300    -6232    -6160    -6123    -6139    -6226    -6378 
   -6457    -6396    -6335    -6342    -6350    -6342    -6304    -6219 
   -6177    -6143    -6039    -6025    -6112    -6160    -6238    -6431 
   -6635    -6758    -6828    -6859    -6867    -6859    -6766    -6642 
   -6565    -6376    -6037    -5757    -5614    -5574    -5628    -5726 
   -5836    -5960    -6029    -5998    -5935    -5919    -5996    -6138 
   -6285    -6405    -6469    -6493    -6546    -6718    -7009    -7269 
   -7423    -7447    -7281    -6983    -6628    -6238    -5965    -5907 
   -5923    -5830    -5543    -5242    -5163    -5244    -5459    -5900 
   -6440    -6805    -6822    -6636    -6501    -6454    -6543    -6747 
   -6832    -6759    -6604    -6345    -6116    -6052    -6107    -6238 
   -6347    -6311    -6193    -6142    -6102    -6068    -6249    -6501 
   -6493    -6405    -6493    -6562    -6492    -6411    -6332    -6313 
   -6474    -6728    -6905    -6799    -6377    -6015    -5935    -5907 
   -5845    -5838    -5827    -5815    -5871    -5965    -6107    -6253 
   -6335    -6407    -6474    -6459    -6351    -6305    -6501    -6820 
   -6933    -6766    -6563    -6457    -6369    -6331    -6327    -6196 
   -6007    -5994    -6154    -6238    -6106    -5991    -6103    -6247 
   -6243    -6224    -6343    -6494    -6505    -6446    -6417    -6308 
   -6161    -6265    -6519    -6575    -6578    -6664    -6594    -6411 
   -6268    -6158    -6208    -6309    -6196    -6046    -6100    -6212 
   -6224    -6137    -6011    -6000    -6123    -6184    -6169    -6203 
   -6300    -6450    -6575    -6573    -6490    -6401    -6313    -6330 
   -6529    -6679    -6509    -6214    -6119    -6173    -6170    -6100 
   -6119    -6273    -6359    -6346    -6376    -6373    -6270    -6193 
   -6281    -6469    -6486    -6343    -6327    -6424    -6393    -6280 
   -6330    -6462    -6404    -6200    -6019    -5923    -6015    -6270 
   -6450    -6447    -6378    -6330    -6320    -6386    -6501    -6566 
   -6525    -6419    -6318    -6234    -6135    -6077    -6157    -6343 
   -6529    -6647    -6662    -6558    -6366    -6187    -6111    -6129 
   -6151    -6091    -5992    -6021    -6154    -6204    -6173    -6222 
   -6346    -6386    -6369    -6415    -6393    -6193    -6060    -6156 
   -6269    -6242    -6166    -6181    -6304    -6409    -6461    -6531 
   -6528    -6388    -6284    -6338    -6440    -6427    -6349    -6380 
   -6478    -6493    -6389    -6228    -6168    -6228    -6230    -6154 
   -6160    -6268    -6340    -6269    -6134    -6083    -6192    -6421 
   -6534    -6424    -6307    -6292    -6288    -6243    -6193    -6174 
   -6200    -6257    -6324    -6382    -6358    -6227    -6124    -6084 
   -6033    -6048    -6143    -6254    -6411    -6490    -6384    -6339 
   -6459    -6525    -6521    -6546    -6593    -6644    -6551    -6268 
   -6050    -5991    -5949    -5967    -6103    -6208    -6264    -6390 
   -6525    -6538    -6493    -6470    -6392    -6269    -6254    -6378 
   -6516    -6542    -6465    -6388    -6374    -6399    -6357    -6239 
   -6112    -5998    -5977    -6068    -6127    -6119    -6156    -6304 
   -6482    -6581    -6604    -6604    -6582    -6519    -6443    -6376 
   -6270    -6187    -6276    -6432    -6455    -6403    -6377    -6397 
   -6419    -6339    -6178    -6043    -5921    -5829    -5823    -5842 
   -5810    -5755    -5728    -5783    -5911    -6061    -6303    -6652 
   -6851    -6791    -6669    -6586    -6605    -6743    -6797    -6714 
   -6650    -6602    -6420    -6122    -5927    -5931    -6052    -6211 
   -6316    -6313    -6303    -6407    -6569    -6637    -6624    -6616 
   -6573    -6457    -6300    -6126    -6002    -5989    -6007    -5946 
   -5894    -5987    -6192    -6407    -6571    -6624    -6556    -6439 
   -6326    -6200    -6092    -6079    -6170    -6296    -6349    -6296 
   -6246    -6285    -6361    -6400    -6432    -6542    -6651    -6613 
   -6516    -6502    -6512    -6480    -6393    -6266    -6193    -6168 
   -6131    -6168    -6214    -6129    -6053    -6092    -6137    -6177 
   -6232    -6259    -6304    -6385    -6457    -6531    -6563    -6467 
   -6338    -6269    -6177    -6053    -6010    -6058    -6123    -6207 
   -6324    -6432    -6477    -6417    -6349    -6378    -6350    -6200 
   -6126    -6177    -6268    -6322    -6285    -6227    -6207    -6245 
   -6399    -6578    -6678    -6724    -6685    -6550    -6455    -6412 
   -6305    -6142    -5994    -5899    -5871    -5919    -6049    -6195 
   -6301    -6399    -6515    -6585    -6562    -6528    -6523    -6463 
   -6319    -6192    -6185    -6232    -6262    -6336    -6432    -6400 
   -6266    -6147    -6064    -6065    -6189    -6338    -6370    -6309 
   -6323    -6411    -6423    -6373    -6338    -6264    -6176    -6191 
   -6265    -6300    -6309    -6296    -6255    -6262    -6299    -6251 
   -6191    -6226    -6265    -6262    -6277    -6303    -6305    -6299 
   -6276    -6220    -6173    -6178    -6245    -6373    -6480    -6489 
   -6463    -6442    -6393    -6318    -6234    -6193    -6237    -6309 
   -6359    -6403    -6432    -6426    -6413    -6435    -6440    -6365 
   -6297    -6299    -6328    -6377    -6389    -6357    -6336    -6280 
   -6207    -6199    -6205    -6185    -6162    -6168    -6222    -6292 
   -6328    -6282    -6142    -6026    -6035    -6100    -6166    -6232 
   -6212    -6150    -6199    -6284    -6313    -6367    -6480    -6554 
   -6546    -6542    -6563    -6516    -6409    -6313    -6288    -6340 
   -6351    -6336    -6396    -6427    -6408    -6419    -6400    -6392 
   -6454    -6500    -6482    -6397    -6278    -6173    -6060    -6021 
   -6097    -6160    -6195    -6243    -6239    -6177    -6096    -6018 
   -6010    -6135    -6315    -6413    -6447    -6502    -6567    -6585 
   -6532    -6436    -6369    -6362    -6376    -6357    -6318    -6286 
   -6243    -6195    -6177    -6160    -6133    -6135    -6112    -6037 
   -6022    -6073    -6122    -6208    -6342    -6432    -6466    -6500 
   -6501    -6407    -6280    -6234    -6258    -6278    -6313    -6369 
   -6385    -6399    -6440    -6419    -6339    -6320    -6384    -6426 
   -6397    -6415    -6528    -6586    -6493    -6351    -6297    -6318 
   -6308    -6264    -6254    -6281    -6309    -6330    -6331    -6299 
