Origin Time       2025/03/28 03:50:00
Lat.              35.403
Long.             140.360
Depth. (km)       54
Mag.              4.4
Station Code      IBRH07
Station Lat.      35.9521
Station Long.     140.3301
Station Height(m) 3
Record Time       2025/03/28 03:50:52
Sampling Freq(Hz) 100Hz
Duration Time(s)  120
Dir.              4
Scale Factor      7845(gal)/8223790
Max. Acc. (gal)   3.959
Last Correction   2025/03/28 03:50:52
Memo.             
[...]
    -151     -156     -148     -145     -153     -159     -156     -152 
    -157     -160     -157     -159     -162     -162     -160     -159 
    -166     -163     -152     -155     -157     -152     -156     -162 
    -162     -157     -155     -162     -164     -160     -159     -162 
    -160     -155     -162     -174     -168     -166     -176     -174 
    -170     -174     -170     -162     -166     -171     -166     -163 
    -170     -180     -182     -178     -175     -180     -184     -182 
    -174     -178     -183     -178     -172     -171     -174     -178 
    -178     -174     -174     -176     -174     -168     -171     -171 
    -167     -174     -178     -172     -174     -172     -166     -171 
    -180     -180     -172     -174     -180     -179     -172     -167 
    -172     -176     -175     -175     -174     -168     -166     -171 
    -175     -172     -168     -170     -170     -170     -164     -160 
    -156     -157     -164     -163     -156     -159     -166     -166 
    -162     -163     -163     -152     -144     -149     -153     -152 
    -149     -148     -143     -141     -143     -143     -151     -156 
    -149     -147     -148     -143     -140     -145     -153     -159 
    -155     -151     -151     -152     -152     -145     -137     -137 
    -144     -148     -151     -153     -155     -156     -156     -156 
    -159     -155     -152     -159     -160     -153     -156     -162 
    -162     -160     -166     -175     -178     -175     -172     -171 
    -174     -180     -179     -175     -174     -170     -170     -172 
    -174     -180     -184     -179     -182     -189     -190     -195 
    -199     -191     -189     -191     -186     -184     -187     -178 
    -171     -179     -186     -186     -184     -182     -180     -178 
    -171     -168     -171     -171     -168     -164     -168     -175 
    -170     -168     -171     -167     -164     -167     -163     -159 
    -162     -166     -164     -168     -175     -171     -166     -168 
    -170     -162     -152     -156     -166     -160     -156     -162 
    -159     -156     -164     -166     -162     -162     -162     -155 
    -152     -162     -167     -167     -159     -151     -157     -163 
    -160     -160     -164     -163     -163     -164     -162     -156 
    -153     -149     -149     -155     -155     -152     -155     -160 
    -159     -157     -162     -162     -160     -166     -164     -162 
    -163     -157     -157     -167     -164     -163     -174     -179 
    -174     -170     -171     -172     -171     -170     -168     -167 
    -171     -171     -164     -155     -152     -159     -170     -172 
    -171     -170     -162     -147     -143     -164     -201     -213 
    -183     -132      -82      -55      -90     -168     -236     -295 
    -326     -264     -151      -93      -83     -106     -189     -252 
    -210     -143     -137     -135      -85      -75     -164     -245 
    -261     -288     -295     -199      -87      -64      -85     -106 
    -170     -247     -229     -139     -121     -172     -224     -272 
    -279     -237     -168      -55       14      -49     -189     -279 
    -283     -238     -152      -76      -86     -125     -170     -248 
    -256     -147      -66     -122     -241     -263     -167      -70 
     -70     -171     -253     -233     -152      -72      -99     -191 
    -190     -189     -251     -211     -113     -114     -133     -129 
    -187     -210     -141     -120     -137     -149     -244     -303 
    -214     -112      -60      -55      -79     -121     -248     -371 
    -325     -216     -183     -182     -153     -140     -210     -336 
    -371     -229      -47       17       -9      -67     -139     -218 
    -313     -427     -426     -176       66       37     -118     -222 
    -276     -309     -322     -287     -193      -75      -52     -118 
    -103        1      112      189      171       39     -122     -221 
    -287     -357     -351     -318     -386     -396     -225      -87 
     -52       45       94      -32      -74       40        8     -201 
    -309     -311     -355     -369     -303     -218      -95       24 
     -37     -229     -291     -218     -199     -243     -248     -211 
    -157      -59       95      174       64     -113     -267     -372 
    -338     -272     -307     -282     -101        1      -68     -133 
    -184     -230     -162      -74      -70      -71      -58     -124 
    -287     -380     -324     -210     -151     -216     -333     -351 
    -202      -49     -113     -207     -155     -128     -132      -70 
     -54     -129     -126       21      118      116      118       48 
    -114     -183     -130     -114     -108      -68     -184     -413 
    -475     -337     -141       16       62        1      -35      -28 
     -79     -195     -338     -407     -318     -167      -39      -74 
    -379     -692     -760     -625     -388     -136       86      248 
     230      -43     -415     -603     -594     -554     -387      -18 
     330      500      419       91     -306     -545     -513     -303 
    -101      -71     -249     -441     -498     -468     -315      -44 
     178      247       64     -243     -419     -537     -661     -654 
    -484     -160      197      307      106     -151     -305     -378 
    -340     -162      112      263       72     -240     -365     -292 
     -66      166      153      -47     -152     -108      -40      -40 
    -216     -504     -610     -406      -75      128       60     -167 
    -326     -303     -174     -132     -220     -332     -445     -502 
    -390     -163       10       75       44     -122     -294     -265 
    -101       89      233      230       32     -282     -471     -496 
    -486     -353     -202     -197     -140       17      101      136 
     124       18      -48      -94     -256     -430     -460     -359 
    -205     -121     -126     -125     -199     -363     -383     -237 
     -94      -25      -28      -44      -95     -224     -202       82 
     333      351      233       79      -74     -214     -379     -508 
    -552     -658     -777     -703     -561     -467     -340     -221 
    -101       78      210      288      359      341      232       47 
    -195     -264        6      309      298      174      214      183 
    -143     -541     -807     -966    -1046    -1065     -922     -523 
     -78      244      465      522      344       -6     -386     -577 
    -503     -351     -275     -274     -387     -576     -612     -481 
    -338     -153       43      197      337      337      226      232 
     299      245       99       -6      -98     -162     -135     -209 
    -423     -612     -754     -768     -619     -502     -452     -406 
    -441     -523     -540     -484     -313      -16      298      576 
     706      561      282       47     -109     -149     -133     -210 
    -372     -472     -422     -263      -82       90      189      128 
     -28     -148     -186     -174     -233     -507     -859     -970 
    -858     -677     -422     -180       -2      121      112       75 
     116       79      -49     -109      -70      -49      -86     -109 
    -105       -6      178      256      233      252      253      125 
    -117     -410     -668     -850    -1008    -1090     -927     -573 
    -256      -90     -112     -265     -329     -206      -62       47 
     149      187      164      190      283      321      247      129 
      29        8        8      -47      -29       59       -1     -186 
    -238     -103        0      -79     -282     -513     -670     -684 
    -657     -606     -375      -58       83       85      135      202 
     236      283      203     -103     -375     -460     -569     -729 
    -768     -753     -746     -618     -317      -13      187      356 
     471      434      314      252      225      143      -21     -321 
    -643     -770     -738     -677     -519     -257      -99     -129 
    -197     -170       -1      333      662      691      463      283 
     195      124      121       98      -78     -274     -445     -750 
   -1093    -1237    -1228    -1177    -1034     -803     -556     -263 
      54      241      234      124       25       25      108      139 
      86      -39     -309     -654     -882     -891     -670     -322 
      -1      218      311      236       56      -97     -167     -143 
     -66        8       48       21      -85     -245     -369     -388 
    -346     -310     -295     -309     -380     -476     -494     -395 
    -218      -18       98       54      -89     -191     -232     -279 
    -252      -54      180      303      321      241       91      -40 
    -163     -298     -342     -286     -267     -314     -303     -230 
    -214     -193      -52       90      125      120      156      248 
     330      318      159     -156     -514     -783     -947    -1046 
   -1057     -992     -854     -552     -197      -35      -41      -97 
    -125       -1      245      454      545      514      432      338 
     216      145      139       56      -99     -198     -175      -48 
     155      375      434      279      116      -12     -210     -386 
    -453     -402     -180      106      241      157      -41     -286 
    -553     -724     -685     -533     -396     -259     -211     -395 
    -683     -882     -928     -826     -666     -523     -402     -369 
    -518     -742     -793     -619     -321       44      363      500 
     437      253       20     -217     -402     -523     -575     -511 
    -368     -191      -24       32      -43     -121      -79       52 
     179      297      395      394      253        9     -301     -634 
    -931    -1124    -1174    -1081     -876     -599     -272       83 
     418      641      726      758      745      610      409      217 
      -4     -245     -418     -499     -508     -492     -550     -681 
    -729     -591     -299       56      352      473      391      187 
      -4      -91      -82      -62     -118     -286     -490     -633 
    -719     -780     -808     -801     -747     -650     -483     -166 
     270      621      803      866      753      486      263      159 
     136      164      151       71      -18     -129     -224     -229 
    -167      -86      -35      -56      -47      113      257      199 
      27     -106     -130      -51       95      294      456      513 
     463      234     -184     -660    -1107    -1482    -1674    -1674 
   -1594    -1444    -1194     -873     -594     -437     -332     -230 
    -182     -202     -233     -226     -232     -279     -328     -368 
    -329     -199     -125     -135     -159     -205     -313     -436 
    -399     -144      216      576      819      861      805      793 
     742      513      218       39      -49      -90      -56      -27 
     -75     -180     -418     -797    -1102    -1221    -1189     -903 
    -371      121      342      351      255       74      -48       44 
     234      352      324       78     -284     -468     -353      -72 
     226      398      351      201      116      139      164       63 
    -139     -383     -666     -923    -1096    -1215    -1273    -1248 
   -1209    -1240    -1283    -1193     -936     -600     -245       47 
     182      176       20     -346     -741     -924     -915     -870 
    -803     -591     -322     -184     -109       63      421      967 
    1530     1854     1890     1764     1555     1309     1108     1016 
    1063     1074      760       62     -805    -1556    -1975    -1957 
   -1529     -877     -267       75       45     -210     -414     -411 
    -220       32      199      174      -71     -463     -916    -1302 
   -1439    -1271     -864     -355       52      309      427      391 
     272      144       13      -72      -66        5       70      122 
     261      526      846     1116     1251     1209      951      465 
    -183     -892    -1553    -2066    -2369    -2489    -2583    -2694 
   -2604    -2137    -1304     -218      846     1610     1981     1971 
    1698     1391     1185     1075     1061     1070      977      776 
     545      318      124      -16     -121     -202     -287     -467 
    -731     -936    -1059    -1194    -1298    -1267    -1129    -1013 
    -988    -1034    -1089    -1040     -810     -499     -248      -54 
     112      137      -54     -379     -719     -938     -961     -861 
    -737     -661     -648     -650     -627     -602     -664     -823 
    -978    -1034     -900     -585     -230       59      278      441 
     572      737      981     1262     1529     1763     1934     2027 
    2080     2189     2405     2620     2664     2416     1838      988 
     -43    -1054    -1804    -2274    -2582    -2799    -2992    -3152 
   -3168    -2997    -2620    -2047    -1432     -903     -452      -64 
     322      760     1139     1320     1335     1266     1101      851 
     602      369      189      139      148      144      237      480 
     803     1127     1372     1424     1156      604      -24     -610 
   -1158    -1665    -2124    -2519    -2791    -2940    -2983    -2839 
   -2421    -1792    -1036     -160      768     1638     2377     2884 
    3092     3059     2844     2440     1903     1332      805      422 
     251      291      491      757      980      955      488     -429 
   -1668    -2932    -3847    -4282    -4315    -4094    -3762    -3327 
   -2756    -2172    -1684    -1255     -784     -279      129      383 
     515      615      789     1015     1198     1331     1409     1381 
    1212      924      573      272       83     -128     -476     -864 
   -1158    -1329    -1391    -1366    -1281    -1190    -1092     -919 
    -672     -398     -147        9       63       72       52       76 
     253      515      733      966     1279     1513     1543     1440 
    1243      884      333     -368    -1124    -1757    -2115    -2214 
   -2143    -1937    -1628    -1283     -938     -569     -129      407 
    1019     1659     2247     2654     2748     2420     1698      839 
      99     -434     -673     -553     -202      170      444      600 
     665      648      538      363      186       33      -82     -116 
     -12      236      538      774      847      693      294     -261 
    -789    -1202    -1566    -1925    -2261    -2594    -2917    -3067 
   -2909    -2485    -1867    -1155     -487      114      643     1013 
    1233     1416     1593     1759     1885     1818     1447      881 
     302     -218     -699    -1154    -1553    -1837    -1989    -2018 
   -1852    -1424     -869     -417     -151      -51      -94     -222 
    -321     -263      -33      270      561      754      760      576 
     295       27     -166     -226      -74      294      807     1345 
    1807     2120     2196     2012     1614     1036      307     -503 
   -1237    -1779    -2161    -2438    -2619    -2743    -2841    -2883 
   -2880    -2899    -2886    -2749    -2531    -2272    -1992    -1703 
   -1327     -864     -406       32      450      777     1015     1246 
    1525     1881     2268     2494     2424     2097     1568      896 
     244     -203     -376     -328     -207     -160     -224     -330 
    -363     -248       52      530     1017     1301     1340     1243 
    1090      896      707      553      399      233       14     -338 
    -754    -1057    -1198    -1170     -940     -610     -330     -143 
      -4       70        2     -211     -533     -915    -1258    -1483 
   -1614    -1657    -1561    -1324    -1000     -621     -218      147 
     486      842     1178     1404     1486     1493     1476     1429 
    1362     1248     1026      700      338       31     -135     -167 
    -108       43      233      399      495      432      195     -148 
    -612    -1170    -1736    -2253    -2635    -2770    -2600    -2192 
   -1618     -855       47      928     1655     2137     2331     2232 
    1890     1444     1017      602      166     -279     -714    -1105 
   -1401    -1568    -1584    -1459    -1269    -1102     -988     -947 
   -1035    -1235    -1447    -1617    -1818    -2135    -2493    -2744 
   -2852    -2844    -2718    -2466    -2096    -1641    -1142     -665 
    -224      244      737     1151     1437     1628     1694     1594 
    1404     1213     1053      904      730      598      561      587 
     668      772      843      880      869      810      730      630 
     511      372      199       13     -136     -226     -280     -288 
    -225     -128        0      166      326      486      646      761 
     807      783      703      646      673      746      814      791 
     583      166     -380     -877    -1196    -1328    -1224     -899 
    -508     -203      -67     -101     -229     -378     -500     -606 
    -723     -834     -884     -831     -665     -379       39      521 
     947     1243     1366     1321     1140      858      500      114 
    -214     -448     -627     -743     -800     -892    -1102    -1447 
   -1887    -2328    -2650    -2759    -2666    -2397    -1995    -1591 
   -1271    -1021     -838     -704     -581     -453     -314     -147 
      29      139      167      180      230      307      400      479 
     496      459      368      226      128      171      344      552 
     692      727      681      633      668      758      845      928 
     954      846      630      372      110     -140     -361     -531 
    -621     -621     -580     -525     -417     -286     -211     -189 
    -184     -205     -264     -379     -572     -828    -1062    -1192 
   -1225    -1182    -1009     -706     -344       60      481      789 
     903      857      688      421       89     -271     -629     -936 
   -1136    -1170    -1034     -773     -425      -36      332      654 
     892     1009     1030      953      764      568      465      413 
     321      149      -54     -222     -383     -584     -803    -1026 
   -1224    -1333    -1363    -1329    -1208    -1027     -872     -807 
    -823     -839     -805     -766     -792     -864     -930     -959 
    -893     -692     -364       58      498      882     1190     1402 
    1505     1518     1493     1507     1553     1507     1264      812 
     230     -333     -770    -1050    -1163    -1139    -1059     -969 
    -841     -666     -467     -225       58      295      440      523 
     573      627      741      878     1004     1116     1147     1058 
     885      600      214     -168     -496     -751     -955    -1138 
   -1258    -1297    -1269    -1173    -1004     -788     -579     -422 
    -346     -379     -498     -612     -666     -696     -738     -792 
    -859     -947    -1053    -1155    -1210    -1204    -1151    -1080 
   -1016     -981    -1004    -1107    -1247    -1363    -1387    -1271 
   -1044     -787     -571     -442     -394     -395     -396     -318 
    -149       64      286      484      638      765      866      885 
     831      791      797      846      924     1028     1131     1208 
    1305     1429     1543     1634     1651     1530     1267      915 
     538      186      -99     -324     -491     -579     -584     -526 
