Origin Time       2025/03/28 03:50:00
Lat.              35.403
Long.             140.360
Depth. (km)       54
Mag.              4.4
Station Code      IBRH19
Station Lat.      36.2137
Station Long.     140.0893
Station Height(m) -34.5
Record Time       2025/03/28 03:51:08
Sampling Freq(Hz) 100Hz
Duration Time(s)  120
Dir.              3
Scale Factor      3923(gal)/8224838
Max. Acc. (gal)   0.118
Last Correction   2025/03/28 03:51:09
Memo.             
[...]
   15529    15545    15560    15556    15537    15514    15518    15538 
   15541    15535    15529    15523    15529    15537    15547    15538 
   15525    15530    15522    15525    15562    15573    15552    15534 
   15514    15506    15518    15529    15547    15568    15568    15557 
   15552    15552    15554    15565    15570    15557    15556    15561 
   15539    15537    15564    15579    15576    15569    15566    15564 
   15572    15597    15610    15599    15565    15508    15488    15520 
   15565    15601    15623    15630    15595    15515    15473    15503 
   15527    15526    15574    15637    15612    15541    15503    15512 
   15530    15525    15525    15560    15604    15627    15615    15580 
   15525    15471    15484    15535    15546    15534    15535    15537 
   15518    15489    15481    15491    15484    15495    15531    15539 
   15515    15506    15537    15539    15484    15484    15520    15499 
   15514    15574    15584    15568    15556    15533    15520    15510 
   15487    15488    15529    15569    15561    15518    15506    15550 
   15608    15619    15564    15510    15506    15495    15468    15499 
   15576    15624    15638    15603    15531    15534    15607    15620 
   15574    15553    15533    15502    15538    15626    15637    15568 
   15508    15472    15462    15515    15597    15637    15612    15545 
   15489    15508    15564    15574    15568    15558    15527    15543 
   15588    15565    15534    15543    15560    15587    15583    15527 
   15485    15475    15481    15496    15496    15481    15472    15504 
   15535    15496    15489    15531    15503    15481    15539    15583 
   15626    15677    15612    15462    15385    15430    15565    15684 
   15696    15670    15608    15464    15410    15526    15604    15612 
   15680    15695    15585    15503    15468    15429    15437    15514 
   15610    15633    15574    15518    15495    15512    15538    15510 
   15491    15498    15491    15525    15561    15537    15531    15572 
   15604    15628    15622    15549    15466    15452    15515    15607 
   15647    15627    15593    15533    15449    15430    15508    15619 
   15658    15618    15557    15502    15462    15433    15445    15560 
   15668    15646    15570    15533    15503    15466    15493    15588 
   15634    15612    15610    15607    15545    15495    15507    15538 
   15557    15545    15516    15527    15552    15529    15469    15433 
   15445    15481    15519    15562    15612    15647    15624    15550 
   15491    15462    15466    15531    15606    15599    15545    15518 
   15491    15446    15466    15502    15498    15574    15684    15670 
   15604    15558    15523    15531    15604    15653    15614    15554 
   15519    15502    15493    15473    15484    15514    15514    15560 
   15616    15543    15437    15429    15475    15546    15633    15639 
   15572    15507    15464    15435    15462    15568    15655    15654 
   15611    15556    15518    15542    15581    15576    15557    15558 
   15549    15534    15562    15572    15508    15487    15530    15519 
   15503    15514    15471    15437    15476    15539    15564    15547 
   15539    15553    15579    15614    15630    15620    15591    15552 
   15534    15520    15504    15525    15566    15581    15585    15564 
   15498    15498    15591    15692    15755    15687    15526    15456 
   15473    15499    15511    15453    15404    15480    15547    15533 
   15550    15553    15493    15457    15448    15468    15535    15570 
   15553    15556    15580    15574    15552    15504    15452    15483 
   15584    15657    15650    15576    15479    15391    15385    15465 
   15535    15616    15684    15638    15553    15520    15542    15593 
   15615    15600    15568    15525    15515    15538    15584    15673 
   15731    15653    15500    15445    15483    15512    15564    15634 
   15658    15633    15579    15564    15596    15600    15589    15599 
   15607    15564    15464    15429    15469    15449    15380    15375 
   15415    15398    15364    15426    15537    15589    15546    15458 
   15445    15492    15530    15593    15633    15581    15514    15515 
   15561    15614    15650    15566    15449    15481    15556    15593 
   15643    15654    15657    15651    15591    15556    15557    15549 
   15558    15542    15477    15456    15504    15520    15468    15456 
   15534    15612    15612    15572    15580    15616    15615    15576 
   15530    15557    15622    15584    15514    15495    15498    15543 
   15581    15568    15569    15588    15584    15539    15489    15537 
   15639    15612    15481    15445    15507    15502    15507    15616 
   15651    15570    15473    15381    15388    15506    15626    15695 
   15674    15589    15491    15404    15466    15626    15623    15541 
   15553    15535    15465    15473    15510    15547    15611    15596 
   15573    15633    15592    15477    15477    15549    15612    15603 
   15489    15383    15399    15502    15538    15496    15484    15433 
   15411    15558    15631    15543    15558    15612    15570    15564 
   15588    15583    15589    15595    15614    15616    15539    15464 
   15448    15479    15570    15653    15635    15553    15507    15527 
   15552    15553    15543    15541    15573    15583    15561    15580 
   15583    15535    15512    15526    15566    15615    15599    15527 
   15516    15576    15566    15488    15477    15514    15506    15460 
   15442    15495    15560    15580    15569    15518    15516    15606 
   15633    15564    15489    15464    15491    15503    15515    15595 
   15649    15608    15577    15565    15522    15512    15560    15592 
   15601    15612    15595    15562    15558    15558    15568    15601 
   15573    15495    15465    15460    15441    15481    15518    15442 
   15395    15466    15538    15564    15570    15558    15554    15525 
   15468    15480    15523    15508    15487    15503    15547    15623 
   15669    15635    15597    15574    15529    15516    15565    15615 
   15620    15599    15574    15539    15531    15566    15606    15608 
   15564    15515    15488    15485    15531    15607    15641    15650 
   15638    15519    15369    15375    15466    15488    15516    15573 
   15531    15434    15408    15438    15487    15599    15722    15742 
   15685    15580    15466    15445    15473    15518    15601    15637 
   15616    15601    15566    15534    15539    15535    15507    15487 
   15489    15520    15552    15523    15479    15507    15588    15643 
   15637    15577    15534    15530    15499    15450    15456    15496 
   15507    15506    15523    15545    15553    15550    15564    15583 
   15560    15537    15556    15556    15512    15504    15572    15626 
   15607    15553    15498    15471    15479    15514    15568    15589 
   15554    15507    15448    15407    15484    15596    15579    15541 
   15631    15660    15565    15549    15587    15570    15549    15542 
   15510    15460    15481    15581    15639    15639    15650    15637 
   15577    15550    15554    15543    15547    15557    15547    15562 
   15580    15554    15526    15508    15481    15479    15498    15480 
   15488    15601    15674    15615    15541    15504    15472    15435 
   15422    15475    15553    15592    15604    15570    15499    15437 
   15415    15465    15543    15588    15607    15579    15516    15502 
   15507    15483    15511    15623    15696    15651    15552    15492 
   15495    15523    15554    15573    15604    15619    15550    15523 
   15576    15580    15604    15633    15543    15483    15507    15488 
   15512    15595    15600    15573    15579    15554    15511    15504 
   15530    15568    15581    15542    15511    15526    15541    15542 
   15557    15545    15503    15507    15557    15583    15561    15511 
   15498    15511    15495    15491    15523    15537    15556    15561 
   15508    15475    15481    15466    15458    15481    15507    15552 
   15608    15607    15569    15557    15534    15519    15583    15626 
   15556    15483    15492    15530    15561    15552    15500    15496 
   15560    15611    15637    15642    15618    15585    15547    15550 
   15626    15676    15643    15574    15520    15519    15538    15539 
   15530    15514    15539    15577    15541    15512    15542    15506 
   15444    15475    15514    15496    15488    15507    15533    15542 
   15526    15523    15543    15529    15507    15531    15534    15500 
   15519    15577    15603    15612    15635    15618    15530    15493 
   15568    15635    15641    15615    15550    15491    15491    15529 
   15566    15591    15579    15537    15487    15477    15538    15562 
   15523    15510    15506    15487    15476    15473    15502    15546 
   15564    15546    15499    15481    15522    15566    15597    15623 
   15627    15600    15552    15495    15473    15550    15630    15591 
   15522    15492    15456    15484    15593    15650    15638    15631 
   15614    15552    15507    15519    15537    15547    15556    15545 
   15542    15550    15546    15552    15556    15518    15462    15446 
   15462    15469    15484    15510    15516    15508    15526    15577 
   15623    15627    15601    15570    15554    15539    15535    15591 
   15627    15585    15545    15518    15469    15465    15520    15568 
   15587    15572    15546    15541    15526    15516    15561    15607 
   15616    15616    15615    15576    15515    15487    15485    15484 
   15507    15564    15607    15607    15583    15547    15522    15508 
   15475    15444    15457    15502    15541    15547    15541    15564 
   15558    15512    15500    15488    15464    15502    15545    15527 
   15537    15561    15545    15539    15527    15500    15539    15587 
   15576    15589    15619    15616    15616    15595    15547    15526 
   15529    15541    15566    15573    15546    15530    15558    15593 
   15604    15610    15611    15576    15514    15480    15488    15502 
   15518    15545    15550    15538    15538    15515    15468    15461 
   15493    15502    15485    15493    15519    15530    15534    15539 
   15545    15556    15576    15592    15573    15545    15549    15554 
   15552    15565    15568    15539    15503    15487    15508    15564 
   15589    15579    15607    15653    15637    15608    15607    15584 
   15560    15546    15531    15522    15503    15484    15495    15522 
   15543    15554    15576    15626    15655    15630    15596    15580 
   15561    15553    15569    15561    15507    15462    15452    15438 
   15450    15527    15583    15550    15503    15498    15543    15600 
   15595    15570    15566    15503    15423    15435    15491    15542 
   15585    15574    15529    15500    15485    15479    15485    15507 
   15533    15549    15566    15588    15584    15534    15483    15468 
   15475    15508    15561    15581    15569    15547    15533    15543 
   15552    15580    15628    15630    15600    15569    15525    15508 
   15535    15557    15565    15588    15619    15634    15645    15665 
   15664    15639    15612    15576    15519    15449    15441    15493 
   15504    15487    15516    15560    15576    15569    15553    15537 
   15518    15495    15472    15469    15487    15499    15500    15493 
   15500    15542    15572    15562    15538    15506    15481    15506 
   15572    15619    15615    15581    15552    15562    15572    15543 
   15531    15539    15527    15516    15503    15495    15529    15542 
   15515    15533    15608    15664    15646    15614    15612    15588 
   15561    15577    15569    15537    15542    15562    15585    15611 
   15601    15580    15579    15547    15469    15412    15427    15462 
   15456    15442    15452    15462    15458    15449    15473    15481 
   15423    15360    15331    15348    15427    15525    15576    15597 
   15618    15615    15596    15612    15657    15655    15604    15570 
   15581    15583    15572    15603    15639    15641    15657    15678 
   15678    15695    15705    15676    15634    15570    15477    15402 
   15379    15392    15399    15379    15356    15350    15385    15476 
   15561    15607    15682    15720    15646    15584    15554    15545 
   15553    15512    15499    15553    15604    15619    15589    15565 
   15525    15457    15449    15481    15496    15512    15526    15530 
   15558    15607    15610    15562    15533    15552    15573    15556 
   15541    15564    15592    15619    15623    15583    15576    15581 
   15535    15534    15564    15541    15511    15495    15520    15580 
   15600    15608    15627    15627    15614    15577    15552    15556 
   15518    15462    15462    15465    15412    15372    15364    15377 
   15434    15476    15466    15487    15542    15569    15604    15674 
   15700    15657    15631    15646    15620    15542    15468    15452 
   15487    15515    15554    15615    15666    15701    15684    15643 
   15658    15668    15618    15553    15496    15437    15388    15406 
   15483    15537    15537    15492    15434    15427    15466    15484 
   15469    15454    15439    15471    15556    15600    15597    15615 
   15646    15641    15584    15529    15498    15460    15434    15441 
   15450    15460    15476    15493    15514    15541    15550    15545 
   15541    15541    15568    15596    15583    15574    15577    15576 
   15628    15703    15727    15718    15701    15730    15789    15769 
   15666    15579    15530    15488    15431    15392    15402    15446 
   15527    15612    15646    15630    15579    15537    15535    15525 
   15499    15498    15487    15472    15488    15520    15525    15471 
   15407    15391    15399    15425    15458    15464    15462    15480 
   15507    15556    15603    15612    15623    15646    15623    15579 
   15554    15511    15437    15395    15399    15412    15445    15510 
   15556    15573    15619    15685    15709    15682    15631    15606 
   15638    15669    15639    15595    15570    15558    15547    15542 
   15558    15577    15541    15502    15542    15600    15583    15508 
   15438    15417    15437    15442    15415    15385    15398    15468 
   15538    15566    15601    15642    15630    15581    15553    15581 
   15635    15645    15620    15606    15608    15616    15608    15565 
   15522    15531    15580    15591    15545    15508    15499    15487 
   15492    15519    15516    15481    15457    15457    15473    15491 
   15510    15534    15574    15592    15553    15525    15547    15545 
   15508    15502    15508    15504    15498    15493    15495    15500 
   15506    15514    15533    15576    15611    15573    15515    15522 
   15533    15500    15496    15546    15607    15654    15696    15718 
   15701    15668    15651    15642    15618    15593    15607    15624 
   15580    15506    15466    15445    15433    15465    15535    15564 
   15549    15556    15564    15550    15543    15542    15520    15475 
   15431    15448    15518    15565    15545    15510    15500    15498 
   15481    15438    15425    15481    15526    15520    15531    15564 
   15577    15597    15623    15604    15576    15608    15631    15596 
   15565    15558    15561    15566    15552    15519    15503    15519 
   15556    15584    15589    15562    15547    15560    15527    15499 
   15535    15542    15520    15557    15585    15572    15573    15570 
   15564    15606    15670    15677    15604    15519    15487    15492 
   15496    15484    15462    15427    15396    15399    15418    15421 
   15423    15457    15504    15511    15480    15442    15411    15404 
   15433    15487    15546    15603    15665    15704    15691    15653 
   15626    15626    15649    15673    15700    15723    15718    15689 
   15645    15588    15535    15498    15499    15503    15471    15448 
   15457    15465    15448    15427    15458    15537    15595    15620 
   15638    15653    15641    15587    15530    15495    15458    15433 
   15458    15502    15518    15541    15593    15612    15576    15549 
   15552    15545    15529    15522    15514    15500    15498    15504 
   15500    15502    15508    15481    15441    15442    15476    15518 
   15549    15541    15538    15585    15631    15622    15589    15579 
   15580    15573    15570    15583    15601    15620    15638    15634 
   15595    15531    15493    15498    15491    15457    15437    15444 
   15448    15469    15519    15534    15515    15523    15527    15511 
   15503    15499    15520    15557    15557    15550    15572    15588 
   15593    15616    15637    15637    15637    15635    15620    15608 
   15589    15558    15564    15588    15584    15579    15584    15557 
   15516    15515    15527    15512    15483    15456    15446    15476 
   15522    15549    15549    15547    15568    15566    15549    15547 
   15543    15535    15543    15553    15557    15587    15660    15692 
   15665    15654    15635    15577    15545    15533    15518    15512 
   15499    15481    15493    15522    15534    15526    15507    15498 
   15504    15504    15491    15483    15462    15450    15487    15522 
   15529    15553    15574    15570    15557    15519    15481    15508 
   15568    15570    15546    15574    15612    15603    15599    15616 
   15600    15542    15492    15491    15506    15500    15507    15533 
   15507    15441    15419    15422    15410    15431    15477    15499 
   15525    15550    15543    15538    15566    15599    15622    15630 
   15622    15614    15604    15579    15565    15568    15565    15560 
   15542    15515    15533    15583    15611    15615    15603    15572 
   15541    15526    15531    15541    15515    15475    15476    15498 
   15493    15498    15516    15529    15541    15553    15553    15547 
   15542    15552    15547    15534    15565    15600    15601    15620 
   15647    15622    15583    15588    15595    15581    15573    15549 
   15519    15516    15518    15510    15495    15487    15502    15504 
   15480    15469    15483    15502    15519    15519    15516    15519 
   15518    15530    15561    15570    15558    15566    15584    15589 
   15588    15561    15550    15595    15619    15606    15592    15574 
   15554    15533    15510    15522    15547    15553    15547    15561 
   15589    15569    15511    15498    15511    15511    15519    15514 
   15484    15468    15487    15541    15573    15573    15588    15573 
   15514    15483    15468    15454    15468    15481    15503    15510 
   15488    15514    15565    15568    15546    15527    15535    15561 
   15554    15547    15569    15576    15556    15553    15579    15584 
   15569    15577    15596    15601    15584    15558    15539    15533 
   15543    15556    15549    15533    15529    15525    15522    15543 
   15572    15596    15615    15606    15581    15564    15549    15534 
   15533    15545    15534    15514    15523    15519    15481    15462 
   15466    15462    15473    15496    15504    15515    15526    15535 
   15570    15597    15612    15634    15628    15611    15607    15610 
   15628    15643    15627    15601    15592    15584    15556    15530 
   15516    15506    15504    15522    15539    15541    15541    15547 
