Origin Time       2025/03/28 03:50:00
Lat.              35.403
Long.             140.360
Depth. (km)       54
Mag.              4.4
Station Code      IBRH08
Station Lat.      36.1188
Station Long.     140.5621
Station Height(m) -1160
Record Time       2025/03/28 03:51:04
Sampling Freq(Hz) 100Hz
Duration Time(s)  120
Dir.              1
Scale Factor      7845(gal)/8223790
Max. Acc. (gal)   0.170
Last Correction   2025/03/28 03:51:04
Memo.             
[...]
  -56760   -56762   -56759   -56759   -56759   -56759   -56760   -56762 
  -56760   -56760   -56760   -56760   -56758   -56759   -56762   -56760 
  -56762   -56764   -56762   -56759   -56759   -56760   -56763   -56762 
  -56760   -56762   -56763   -56764   -56762   -56760   -56760   -56759 
  -56760   -56762   -56762   -56760   -56760   -56759   -56759   -56759 
  -56759   -56763   -56762   -56759   -56760   -56760   -56762   -56762 
  -56760   -56762   -56762   -56759   -56759   -56760   -56762   -56762 
  -56759   -56760   -56762   -56760   -56760   -56763   -56763   -56760 
  -56762   -56762   -56759   -56762   -56762   -56762   -56763   -56760 
  -56760   -56763   -56762   -56759   -56760   -56763   -56762   -56762 
  -56762   -56762   -56762   -56760   -56762   -56762   -56759   -56760 
  -56760   -56760   -56760   -56762   -56760   -56760   -56762   -56763 
  -56763   -56760   -56760   -56762   -56762   -56760   -56762   -56762 
  -56762   -56760   -56760   -56760   -56762   -56763   -56759   -56758 
  -56760   -56760   -56760   -56762   -56762   -56764   -56764   -56759 
  -56759   -56760   -56760   -56762   -56760   -56758   -56759   -56763 
  -56760   -56759   -56763   -56763   -56762   -56762   -56760   -56758 
  -56758   -56762   -56763   -56759   -56759   -56760   -56760   -56760 
  -56760   -56760   -56760   -56760   -56760   -56762   -56763   -56762 
  -56763   -56762   -56760   -56759   -56759   -56762   -56762   -56758 
  -56760   -56763   -56760   -56760   -56762   -56758   -56758   -56762 
  -56762   -56762   -56760   -56759   -56758   -56759   -56760   -56759 
  -56760   -56760   -56759   -56756   -56759   -56762   -56760   -56758 
  -56759   -56759   -56760   -56762   -56759   -56759   -56760   -56762 
  -56762   -56759   -56759   -56760   -56760   -56760   -56760   -56760 
  -56760   -56762   -56760   -56759   -56759   -56759   -56760   -56760 
  -56759   -56760   -56760   -56762   -56762   -56760   -56762   -56760 
  -56760   -56760   -56760   -56762   -56763   -56762   -56760   -56763 
  -56763   -56759   -56759   -56760   -56760   -56762   -56762   -56759 
  -56758   -56759   -56760   -56762   -56763   -56759   -56758   -56760 
  -56762   -56760   -56759   -56762   -56764   -56762   -56759   -56762 
  -56763   -56762   -56762   -56763   -56762   -56762   -56762   -56762 
  -56762   -56760   -56760   -56760   -56759   -56760   -56762   -56760 
  -56758   -56760   -56764   -56760   -56756   -56759   -56762   -56762 
  -56762   -56760   -56759   -56759   -56759   -56759   -56762   -56762 
  -56759   -56760   -56760   -56762   -56763   -56760   -56762   -56763 
  -56760   -56759   -56759   -56760   -56762   -56763   -56760   -56759 
  -56759   -56762   -56763   -56760   -56759   -56762   -56760   -56758 
  -56759   -56760   -56763   -56762   -56762   -56763   -56762   -56759 
  -56763   -56763   -56760   -56762   -56762   -56762   -56762   -56760 
  -56759   -56763   -56763   -56760   -56759   -56759   -56760   -56759 
  -56758   -56759   -56759   -56762   -56764   -56762   -56759   -56762 
  -56764   -56762   -56760   -56762   -56762   -56760   -56758   -56760 
  -56762   -56760   -56760   -56762   -56762   -56763   -56763   -56762 
  -56759   -56760   -56763   -56760   -56762   -56764   -56760   -56760 
  -56760   -56760   -56762   -56760   -56759   -56762   -56762   -56760 
  -56762   -56762   -56760   -56762   -56762   -56763   -56764   -56760 
  -56759   -56763   -56763   -56762   -56764   -56764   -56763   -56764 
  -56767   -56767   -56767   -56767   -56764   -56766   -56767   -56767 
  -56767   -56770   -56774   -56771   -56766   -56767   -56768   -56767 
  -56764   -56760   -56756   -56755   -56752   -56749   -56748   -56747 
  -56748   -56748   -56747   -56745   -56748   -56752   -56752   -56749 
  -56747   -56744   -56744   -56748   -56756   -56768   -56776   -56776 
  -56770   -56764   -56760   -56760   -56768   -56774   -56772   -56770 
  -56764   -56763   -56771   -56770   -56759   -56755   -56754   -56749 
  -56751   -56752   -56755   -56764   -56771   -56775   -56779   -56776 
  -56767   -56767   -56768   -56759   -56756   -56760   -56766   -56775 
  -56774   -56759   -56754   -56754   -56754   -56759   -56756   -56743 
  -56736   -56743   -56747   -56751   -56756   -56760   -56760   -56752 
  -56743   -56747   -56751   -56744   -56748   -56767   -56768   -56759 
  -56763   -56768   -56762   -56758   -56766   -56776   -56776   -56771 
  -56775   -56779   -56775   -56776   -56789   -56791   -56783   -56778 
  -56781   -56779   -56768   -56756   -56754   -56767   -56782   -56774 
  -56749   -56740   -56754   -56760   -56747   -56740   -56736   -56731 
  -56745   -56763   -56755   -56744   -56741   -56744   -56749   -56752 
  -56758   -56772   -56781   -56771   -56758   -56762   -56770   -56768 
  -56766   -56767   -56770   -56772   -56767   -56758   -56762   -56764 
  -56755   -56756   -56760   -56755   -56759   -56778   -56791   -56790 
  -56779   -56751   -56722   -56720   -56739   -56745   -56736   -56737 
  -56751   -56770   -56779   -56772   -56770   -56770   -56767   -56763 
  -56743   -56733   -56748   -56752   -56741   -56743   -56743   -56733 
  -56740   -56754   -56755   -56760   -56767   -56763   -56764   -56767 
  -56767   -56774   -56772   -56758   -56756   -56774   -56779   -56774 
  -56778   -56776   -56764   -56763   -56776   -56783   -56783   -56779 
  -56771   -56764   -56768   -56776   -56776   -56764   -56754   -56755 
  -56756   -56754   -56751   -56741   -56731   -56744   -56763   -56752 
  -56732   -56740   -56756   -56759   -56764   -56764   -56752   -56744 
  -56744   -56754   -56762   -56756   -56754   -56760   -56763   -56756 
  -56745   -56740   -56755   -56772   -56778   -56779   -56778   -56771 
  -56778   -56789   -56787   -56785   -56782   -56771   -56754   -56739 
  -56739   -56762   -56787   -56787   -56770   -56764   -56776   -56790 
  -56789   -56772   -56749   -56735   -56733   -56741   -56752   -56756 
  -56743   -56737   -56752   -56759   -56754   -56748   -56737   -56725 
  -56716   -56718   -56729   -56741   -56770   -56790   -56776   -56759 
  -56755   -56759   -56774   -56782   -56772   -56754   -56740   -56754 
  -56771   -56771   -56778   -56793   -56794   -56794   -56797   -56779 
  -56767   -56778   -56778   -56758   -56744   -56740   -56736   -56745 
  -56763   -56770   -56775   -56778   -56760   -56737   -56735   -56743 
  -56749   -56743   -56735   -56748   -56775   -56786   -56779   -56774 
  -56771   -56764   -56764   -56764   -56756   -56758   -56772   -56786 
  -56790   -56790   -56781   -56755   -56739   -56749   -56758   -56736 
  -56722   -56729   -56729   -56735   -56758   -56774   -56774   -56767 
  -56759   -56763   -56775   -56786   -56797   -56798   -56782   -56772 
  -56782   -56803   -56810   -56789   -56766   -56764   -56760   -56748 
  -56756   -56762   -56728   -56698   -56710   -56720   -56713   -56727 
  -56740   -56744   -56755   -56759   -56752   -56755   -56763   -56764 
  -56760   -56770   -56787   -56779   -56762   -56762   -56771   -56778 
  -56770   -56763   -56779   -56785   -56775   -56779   -56781   -56766 
  -56756   -56762   -56759   -56740   -56725   -56729   -56739   -56747 
  -56763   -56774   -56771   -56768   -56774   -56782   -56776   -56764 
  -56752   -56724   -56709   -56736   -56772   -56787   -56793   -56786 
  -56752   -56744   -56782   -56813   -56810   -56785   -56766   -56762 
  -56744   -56727   -56736   -56745   -56747   -56749   -56740   -56740 
  -56759   -56763   -56752   -56751   -56758   -56771   -56776   -56758 
  -56736   -56740   -56759   -56772   -56797   -56830   -56824   -56772 
  -56725   -56721   -56736   -56747   -56764   -56775   -56782   -56786 
  -56767   -56747   -56736   -56735   -56747   -56751   -56756   -56791 
  -56813   -56797   -56794   -56803   -56783   -56762   -56751   -56740 
  -56744   -56748   -56744   -56752   -56760   -56747   -56720   -56718 
  -56743   -56762   -56771   -56764   -56740   -56721   -56720   -56743 
  -56771   -56786   -56795   -56802   -56818   -56813   -56768   -56749 
  -56767   -56754   -56712   -56687   -56693   -56712   -56736   -56755 
  -56755   -56744   -56736   -56739   -56760   -56783   -56786   -56775 
  -56763   -56762   -56782   -56809   -56808   -56781   -56762   -56771 
  -56791   -56790   -56781   -56783   -56791   -56797   -56789   -56767 
  -56754   -56766   -56781   -56772   -56739   -56697   -56682   -56709 
  -56744   -56770   -56798   -56816   -56818   -56817   -56805   -56785 
  -56775   -56774   -56763   -56733   -56700   -56679   -56678   -56700 
  -56729   -56733   -56720   -56721   -56736   -56751   -56772   -56790 
  -56775   -56728   -56695   -56716   -56762   -56790   -56795   -56791 
  -56781   -56779   -56789   -56798   -56797   -56795   -56805   -56814 
  -56808   -56774   -56739   -56745   -56778   -56789   -56760   -56724 
  -56729   -56763   -56783   -56781   -56774   -56768   -56751   -56740 
  -56754   -56758   -56736   -56714   -56713   -56732   -56743   -56739 
  -56743   -56759   -56783   -56787   -56760   -56740   -56737   -56744 
  -56772   -56810   -56822   -56798   -56768   -56759   -56748   -56721 
  -56713   -56727   -56717   -56700   -56716   -56747   -56771   -56787 
  -56793   -56795   -56795   -56790   -56793   -56801   -56791   -56783 
  -56782   -56774   -56776   -56789   -56776   -56751   -56722   -56708 
  -56732   -56755   -56747   -56747   -56758   -56754   -56744   -56732 
  -56720   -56725   -56740   -56751   -56764   -56771   -56771   -56778 
  -56790   -56799   -56799   -56791   -56789   -56794   -56798   -56799 
  -56798   -56785   -56763   -56748   -56740   -56747   -56766   -56779 
  -56785   -56767   -56727   -56700   -56706   -56735   -56751   -56733 
  -56721   -56732   -56741   -56736   -56732   -56751   -56787   -56809 
  -56797   -56760   -56741   -56747   -56751   -56762   -56776   -56778 
  -56774   -56763   -56747   -56741   -56740   -56728   -56716   -56718 
  -56736   -56756   -56772   -56794   -56817   -56826   -56818   -56806 
  -56805   -56803   -56798   -56793   -56787   -56790   -56803   -56801 
  -56771   -56743   -56737   -56735   -56728   -56739   -56752   -56748 
  -56747   -56748   -56747   -56754   -56749   -56725   -56718   -56721 
  -56712   -56717   -56732   -56729   -56716   -56708   -56716   -56737 
  -56764   -56778   -56772   -56770   -56764   -56749   -56755   -56783 
  -56802   -56802   -56801   -56809   -56816   -56812   -56805   -56795 
  -56785   -56781   -56778   -56775   -56785   -56802   -56801   -56785 
  -56776   -56770   -56751   -56722   -56705   -56714   -56732   -56736 
  -56739   -56749   -56747   -56722   -56731   -56771   -56783   -56762 
  -56751   -56756   -56759   -56756   -56748   -56736   -56735   -56749 
  -56771   -56791   -56801   -56793   -56782   -56781   -56778   -56772 
  -56775   -56786   -56787   -56774   -56766   -56760   -56748   -56733 
  -56714   -56714   -56745   -56762   -56749   -56741   -56731   -56717 
  -56727   -56758   -56801   -56836   -56821   -56785   -56771   -56768 
  -56758   -56739   -56728   -56740   -56756   -56758   -56763   -56775 
  -56781   -56772   -56754   -56735   -56721   -56716   -56713   -56713 
  -56731   -56763   -56785   -56786   -56778   -56772   -56756   -56737 
  -56748   -56782   -56798   -56782   -56760   -56758   -56775   -56790 
  -56795   -56803   -56798   -56771   -56759   -56785   -56817   -56825 
  -56805   -56775   -56768   -56764   -56733   -56697   -56686   -56690 
  -56712   -56744   -56760   -56737   -56706   -56700   -56710   -56721 
  -56732   -56754   -56779   -56786   -56766   -56751   -56756   -56760 
  -56760   -56770   -56791   -56806   -56793   -56766   -56755   -56756 
  -56755   -56755   -56752   -56747   -56754   -56782   -56816   -56828 
  -56816   -56795   -56786   -56789   -56795   -56798   -56794   -56791 
  -56786   -56767   -56743   -56732   -56736   -56736   -56712   -56689 
  -56704   -56741   -56764   -56755   -56736   -56740   -56758   -56768 
  -56776   -56793   -56818   -56826   -56797   -56762   -56748   -56732 
  -56704   -56701   -56724   -56731   -56722   -56731   -56740   -56725 
  -56714   -56749   -56795   -56809   -56810   -56806   -56779   -56760 
  -56768   -56768   -56756   -56752   -56749   -56747   -56751   -56756 
  -56754   -56744   -56735   -56732   -56747   -56783   -56817   -56824 
  -56824   -56836   -56845   -56833   -56816   -56803   -56787   -56771 
  -56766   -56775   -56783   -56768   -56755   -56771   -56781   -56767 
  -56754   -56737   -56714   -56698   -56693   -56694   -56697   -56694 
  -56695   -56709   -56724   -56733   -56745   -56751   -56748   -56748 
  -56747   -56755   -56776   -56789   -56794   -56801   -56824   -56864 
  -56875   -56847   -56814   -56793   -56789   -56802   -56802   -56776 
  -56735   -56677   -56635   -56632   -56644   -56667   -56713   -56754 
  -56766   -56763   -56755   -56749   -56762   -56782   -56802   -56817 
  -56808   -56778   -56767   -56786   -56808   -56826   -56843   -56826 
  -56791   -56764   -56752   -56758   -56764   -56764   -56774   -56779 
  -56762   -56736   -56731   -56727   -56717   -56718   -56732   -56729 
  -56702   -56683   -56687   -56675   -56662   -56678   -56694   -56697 
  -56710   -56722   -56725   -56743   -56778   -56821   -56859   -56864 
  -56830   -56794   -56786   -56816   -56862   -56882   -56863   -56839 
  -56820   -56795   -56779   -56790   -56830   -56864   -56856   -56822 
  -56794   -56762   -56722   -56697   -56679   -56656   -56629   -56606 
  -56598   -56598   -56590   -56583   -56605   -56662   -56725   -56767 
  -56775   -56771   -56789   -56829   -56859   -56864   -56864   -56863 
  -56852   -56848   -56845   -56824   -56799   -56793   -56794   -56775 
  -56736   -56728   -56764   -56787   -56787   -56798   -56805   -56793 
  -56776   -56764   -56759   -56754   -56739   -56721   -56701   -56668 
  -56641   -56629   -56631   -56659   -56714   -56763   -56783   -56793 
  -56809   -56820   -56814   -56791   -56744   -56693   -56673   -56702 
  -56771   -56836   -56849   -56822   -56801   -56798   -56808   -56821 
  -56821   -56821   -56822   -56790   -56731   -56704   -56735   -56791 
  -56847   -56874   -56864   -56853   -56860   -56851   -56797   -56733 
  -56708   -56701   -56682   -56659   -56641   -56610   -56592   -56625 
  -56675   -56693   -56700   -56712   -56727   -56745   -56771   -56801 
  -56813   -56808   -56816   -56843   -56870   -56884   -56875   -56830 
  -56778   -56744   -56724   -56724   -56739   -56732   -56717   -56735 
  -56775   -56820   -56852   -56859   -56847   -56829   -56799   -56763 
  -56743   -56741   -56731   -56718   -56713   -56697   -56682   -56686 
  -56687   -56678   -56682   -56704   -56728   -56755   -56783   -56803 
  -56810   -56805   -56795   -56789   -56787   -56786   -56785   -56794 
  -56808   -56808   -56797   -56774   -56754   -56741   -56732   -56729 
  -56737   -56727   -56695   -56681   -56706   -56756   -56793   -56794 
  -56755   -56705   -56687   -56704   -56732   -56764   -56791   -56802 
  -56793   -56781   -56801   -56843   -56863   -56840   -56799   -56762 
  -56737   -56740   -56763   -56781   -56781   -56759   -56731   -56739 
  -56772   -56781   -56759   -56736   -56718   -56706   -56713   -56732 
  -56739   -56732   -56739   -56760   -56764   -56743   -56737   -56755 
  -56758   -56747   -56749   -56764   -56766   -56752   -56759   -56795 
  -56830   -56835   -56809   -56776   -56736   -56693   -56674   -56677 
  -56679   -56695   -56736   -56785   -56825   -56855   -56868   -56870 
  -56871   -56856   -56805   -56752   -56737   -56745   -56747   -56735 
  -56729   -56731   -56718   -56710   -56724   -56735   -56725   -56713 
  -56720   -56736   -56745   -56747   -56747   -56752   -56759   -56755 
  -56743   -56741   -56766   -56797   -56817   -56826   -56829   -56828 
  -56816   -56791   -56771   -56771   -56795   -56825   -56845   -56835 
  -56774   -56712   -56698   -56702   -56693   -56697   -56712   -56709 
  -56706   -56721   -56739   -56756   -56771   -56782   -56794   -56803 
  -56806   -56798   -56785   -56776   -56771   -56755   -56736   -56727 
  -56729   -56737   -56740   -56736   -56747   -56764   -56781   -56790 
  -56789   -56767   -56745   -56743   -56767   -56808   -56837   -56836 
  -56825   -56818   -56810   -56808   -56817   -56825   -56833   -56847 
  -56855   -56849   -56814   -56749   -56685   -56639   -56614   -56621 
  -56656   -56689   -56700   -56697   -56712   -56745   -56772   -56778 
  -56755   -56721   -56712   -56735   -56758   -56768   -56781   -56775 
  -56755   -56756   -56778   -56778   -56767   -56763   -56759   -56745 
  -56732   -56731   -56733   -56732   -56740   -56774   -56817   -56845 
  -56851   -56843   -56822   -56799   -56775   -56741   -56712   -56694 
  -56679   -56674   -56690   -56725   -56768   -56802   -56821   -56841 
  -56851   -56824   -56783   -56759   -56763   -56798   -56832   -56828 
  -56794   -56756   -56728   -56721   -56725   -56721   -56704   -56670 
  -56633   -56619   -56632   -56668   -56722   -56766   -56778   -56770 
  -56760   -56756   -56751   -56737   -56732   -56752   -56778   -56790 
  -56798   -56808   -56818   -56824   -56822   -56826   -56840   -56855 
  -56870   -56876   -56867   -56845   -56806   -56752   -56708   -56695 
  -56704   -56697   -56663   -56640   -56651   -56685   -56724   -56760 
  -56798   -56833   -56853   -56852   -56833   -56821   -56828   -56826 
  -56797   -56754   -56720   -56694   -56671   -56650   -56652   -56686 
  -56720   -56740   -56763   -56782   -56770   -56725   -56682   -56663 
  -56670   -56686   -56704   -56722   -56740   -56763   -56794   -56821 
  -56841   -56852   -56849   -56848   -56845   -56813   -56759   -56724 
  -56721   -56733   -56740   -56732   -56732   -56752   -56768   -56779 
  -56783   -56782   -56785   -56795   -56801   -56802   -56806   -56821 
  -56833   -56824   -56802   -56775   -56748   -56741   -56760   -56782 
  -56786   -56782   -56779   -56779   -56772   -56760   -56764   -56781 
  -56787   -56778   -56764   -56758   -56749   -56739   -56731   -56728 
  -56727   -56728   -56729   -56735   -56732   -56712   -56678   -56660 
  -56671   -56693   -56702   -56697   -56695   -56709   -56735   -56775 
  -56825   -56860   -56860   -56845   -56830   -56816   -56803   -56791 
  -56771   -56741   -56702   -56654   -56613   -56598   -56621   -56687 
  -56776   -56859   -56907   -56911   -56898   -56894   -56907   -56925 
  -56921   -56882   -56820   -56763   -56736   -56732   -56732   -56720 
  -56691   -56667   -56659   -56664   -56674   -56683   -56693   -56698 
  -56701   -56718   -56748   -56781   -56799   -56812   -56828   -56843 
  -56843   -56839   -56829   -56802   -56776   -56772   -56763   -56737 
  -56718   -56712   -56700   -56681   -56673   -56686   -56704   -56713 
  -56720   -56728   -56747   -56774   -56795   -56805   -56802   -56782 
  -56754   -56741   -56740   -56744   -56749   -56744   -56731   -56728 
  -56739   -56763   -56802   -56826   -56821   -56814   -56824   -56836 
  -56836   -56829   -56813   -56771   -56717   -56678   -56659   -56658 
  -56670   -56674   -56670   -56682   -56704   -56731   -56768   -56803 
  -56832   -56860   -56871   -56863   -56841   -56812   -56793   -56789 
  -56782   -56771   -56758   -56736   -56718   -56718   -56727   -56728 
  -56733   -56756   -56783   -56799   -56809   -56817   -56826   -56832 
