Origin Time       2025/03/28 03:50:00
Lat.              35.403
Long.             140.360
Depth. (km)       54
Mag.              4.4
Station Code      IBRH11
Station Lat.      36.3701
Station Long.     140.1401
Station Height(m) -36
Record Time       2025/03/28 03:51:10
Sampling Freq(Hz) 100Hz
Duration Time(s)  120
Dir.              1
Scale Factor      2942(gal)/8224139
Max. Acc. (gal)   0.174
Last Correction   2025/03/28 03:51:10
Memo.             
[...]
 -120235  -120235  -120237  -120231  -120229  -120237  -120241  -120236 
 -120239  -120237  -120225  -120228  -120240  -120243  -120235  -120225 
 -120233  -120241  -120233  -120233  -120240  -120240  -120233  -120226 
 -120233  -120243  -120239  -120236  -120236  -120229  -120235  -120239 
 -120229  -120232  -120241  -120240  -120235  -120233  -120233  -120235 
 -120243  -120240  -120229  -120236  -120240  -120233  -120236  -120243 
 -120235  -120232  -120239  -120235  -120232  -120241  -120239  -120228 
 -120235  -120243  -120231  -120233  -120247  -120236  -120228  -120241 
 -120232  -120218  -120240  -120244  -120224  -120232  -120244  -120232 
 -120225  -120237  -120245  -120236  -120233  -120235  -120228  -120235 
 -120241  -120239  -120240  -120235  -120224  -120231  -120244  -120240 
 -120231  -120235  -120235  -120236  -120243  -120231  -120225  -120235 
 -120236  -120239  -120239  -120233  -120233  -120235  -120235  -120231 
 -120231  -120241  -120243  -120233  -120236  -120235  -120226  -120235 
 -120240  -120237  -120241  -120237  -120229  -120239  -120240  -120228 
 -120231  -120240  -120239  -120236  -120235  -120233  -120235  -120237 
 -120237  -120231  -120232  -120241  -120240  -120233  -120232  -120233 
 -120239  -120241  -120228  -120229  -120245  -120236  -120222  -120233 
 -120243  -120237  -120237  -120236  -120228  -120232  -120243  -120240 
 -120236  -120243  -120247  -120236  -120233  -120245  -120245  -120245 
 -120252  -120244  -120241  -120259  -120263  -120256  -120263  -120267 
 -120255  -120251  -120262  -120259  -120240  -120226  -120228  -120228 
 -120225  -120225  -120217  -120204  -120202  -120205  -120201  -120202 
 -120213  -120218  -120222  -120232  -120235  -120241  -120268  -120293 
 -120275  -120241  -120232  -120237  -120247  -120262  -120251  -120217 
 -120210  -120217  -120224  -120231  -120239  -120247  -120243  -120216 
 -120198  -120222  -120262  -120270  -120255  -120244  -120224  -120236 
 -120293  -120305  -120267  -120235  -120208  -120210  -120249  -120241 
 -120152  -120085  -120110  -120194  -120252  -120226  -120158  -120145 
 -120194  -120232  -120235  -120222  -120208  -120175  -120140  -120162 
 -120233  -120270  -120243  -120193  -120160  -120172  -120233  -120259 
 -120221  -120204  -120224  -120220  -120232  -120289  -120328  -120341 
 -120322  -120264  -120240  -120294  -120372  -120407  -120372  -120309 
 -120272  -120264  -120253  -120239  -120249  -120306  -120337  -120291 
 -120216  -120160  -120151  -120210  -120283  -120302  -120256  -120209 
 -120217  -120244  -120253  -120236  -120187  -120148  -120147  -120159 
 -120179  -120221  -120244  -120220  -120191  -120183  -120181  -120195 
 -120240  -120258  -120222  -120218  -120267  -120299  -120312  -120306 
 -120251  -120208  -120231  -120243  -120209  -120204  -120224  -120224 
 -120245  -120267  -120206  -120135  -120132  -120145  -120179  -120252 
 -120302  -120305  -120274  -120225  -120191  -120210  -120267  -120280 
 -120245  -120232  -120235  -120247  -120274  -120251  -120191  -120187 
 -120233  -120295  -120351  -120330  -120267  -120263  -120268  -120235 
 -120236  -120267  -120274  -120282  -120306  -120267  -120163  -120155 
 -120232  -120243  -120182  -120112  -120097  -120182  -120275  -120297 
 -120283  -120259  -120228  -120197  -120159  -120178  -120271  -120330 
 -120341  -120325  -120247  -120162  -120144  -120168  -120208  -120244 
 -120252  -120229  -120179  -120132  -120160  -120233  -120251  -120245 
 -120278  -120314  -120330  -120343  -120345  -120333  -120313  -120285 
 -120245  -120209  -120206  -120233  -120251  -120229  -120193  -120170 
 -120137  -120135  -120202  -120260  -120251  -120224  -120224  -120262 
 -120316  -120298  -120225  -120210  -120220  -120209  -120225  -120218 
 -120201  -120240  -120240  -120162  -120113  -120110  -120120  -120132 
 -120133  -120162  -120239  -120322  -120356  -120316  -120244  -120189 
 -120191  -120263  -120339  -120360  -120324  -120266  -120231  -120218 
 -120243  -120290  -120276  -120187  -120135  -120183  -120267  -120294 
 -120248  -120190  -120199  -120258  -120299  -120309  -120274  -120206 
 -120190  -120256  -120295  -120279  -120294  -120285  -120194  -120194 
 -120306  -120330  -120293  -120278  -120225  -120175  -120182  -120216 
 -120235  -120190  -120139  -120109  -120145  -120231  -120206  -120187 
 -120247  -120205  -120187  -120216  -120127  -120167  -120329  -120259 
 -120166  -120235  -120218  -120241  -120390  -120394  -120302  -120258 
 -120267  -120278  -120270  -120276  -120224  -120212  -120228  -120093 
 -120106  -120329  -120406  -120326  -120220  -120198  -120236  -120225 
 -120231  -120249  -120299  -120374  -120357  -120297  -120232  -120212 
 -120264  -120228  -120116  -120089  -120137  -120249  -120351  -120297 
 -120144  -120070  -120117  -120206  -120260  -120243  -120236  -120303 
 -120359  -120332  -120241  -120185  -120239  -120252  -120204  -120247 
 -120306  -120271  -120245  -120228  -120143  -120114  -120218  -120262 
 -120174  -120120  -120159  -120216  -120247  -120201  -120116  -120139 
 -120222  -120256  -120305  -120322  -120243  -120204  -120217  -120220 
 -120272  -120291  -120252  -120280  -120316  -120316  -120333  -120344 
 -120330  -120264  -120175  -120135  -120123  -120189  -120307  -120307 
 -120217  -120182  -120182  -120174  -120222  -120280  -120228  -120098 
 -120032  -120132  -120283  -120297  -120282  -120274  -120160  -120116 
 -120224  -120247  -120145  -120104  -120197  -120293  -120278  -120258 
 -120293  -120298  -120297  -120330  -120336  -120279  -120239  -120307 
 -120378  -120371  -120393  -120390  -120325  -120328  -120322  -120271 
 -120252  -120197  -120135  -120120  -120074  -120075  -120141  -120120 
 -120093  -120167  -120183  -120121  -120160  -120295  -120352  -120299 
 -120221  -120170  -120218  -120326  -120366  -120356  -120328  -120253 
 -120191  -120177  -120156  -120121  -120150  -120243  -120276  -120197 
 -120112  -120067  -120042  -120109  -120228  -120264  -120249  -120266 
 -120318  -120334  -120307  -120329  -120402  -120407  -120280  -120154 
 -120170  -120283  -120405  -120490  -120447  -120272  -120144  -120158 
 -120222  -120283  -120324  -120298  -120199  -120143  -120198  -120247 
 -120209  -120187  -120228  -120226  -120182  -120172  -120195  -120259 
 -120313  -120294  -120260  -120231  -120191  -120186  -120213  -120235 
 -120233  -120195  -120139  -120112  -120104  -120108  -120135  -120150 
 -120175  -120218  -120201  -120135  -120135  -120214  -120276  -120253 
 -120205  -120228  -120287  -120325  -120339  -120303  -120259  -120266 
 -120297  -120289  -120235  -120182  -120164  -120201  -120282  -120325 
 -120280  -120228  -120214  -120220  -120272  -120325  -120285  -120231 
 -120251  -120270  -120262  -120289  -120322  -120361  -120395  -120307 
 -120166  -120135  -120160  -120171  -120187  -120170  -120135  -120172 
 -120236  -120240  -120213  -120216  -120244  -120253  -120299  -120356 
 -120280  -120181  -120208  -120247  -120237  -120235  -120258  -120295 
 -120283  -120205  -120151  -120147  -120151  -120156  -120151  -120128 
 -120113  -120113  -120127  -120187  -120262  -120305  -120372  -120418 
 -120366  -120316  -120307  -120274  -120270  -120299  -120275  -120259 
 -120286  -120252  -120221  -120233  -120185  -120156  -120201  -120172 
 -120127  -120162  -120175  -120163  -120205  -120275  -120348  -120383 
 -120339  -120286  -120301  -120318  -120293  -120270  -120255  -120204 
 -120139  -120144  -120218  -120263  -120208  -120116  -120105  -120166 
 -120213  -120208  -120151  -120105  -120140  -120235  -120316  -120345 
 -120339  -120313  -120297  -120328  -120325  -120251  -120263  -120316 
 -120255  -120237  -120280  -120224  -120168  -120171  -120137  -120112 
 -120136  -120141  -120128  -120163  -120191  -120158  -120144  -120193 
 -120237  -120262  -120282  -120294  -120347  -120410  -120390  -120341 
 -120328  -120279  -120217  -120186  -120148  -120124  -120158  -120191 
 -120191  -120226  -120286  -120285  -120244  -120217  -120224  -120249 
 -120262  -120243  -120190  -120147  -120167  -120206  -120226  -120256 
 -120276  -120293  -120332  -120329  -120280  -120255  -120244  -120240 
 -120258  -120262  -120248  -120276  -120318  -120303  -120282  -120291 
 -120301  -120313  -120318  -120293  -120251  -120191  -120136  -120132 
 -120159  -120170  -120160  -120147  -120170  -120224  -120245  -120252 
 -120271  -120264  -120217  -120170  -120154  -120178  -120222  -120199 
 -120108  -120075  -120125  -120174  -120209  -120237  -120244  -120243 
 -120274  -120299  -120272  -120239  -120220  -120210  -120239  -120249 
 -120193  -120177  -120249  -120324  -120379  -120387  -120295  -120229 
 -120283  -120307  -120251  -120228  -120221  -120204  -120218  -120240 
 -120232  -120216  -120206  -120204  -120232  -120270  -120287  -120295 
 -120245  -120160  -120167  -120244  -120286  -120291  -120266  -120249 
 -120249  -120213  -120210  -120253  -120252  -120222  -120209  -120202 
 -120171  -120151  -120206  -120241  -120213  -120222  -120241  -120220 
 -120235  -120260  -120245  -120226  -120232  -120259  -120282  -120262 
 -120225  -120224  -120240  -120240  -120278  -120340  -120366  -120355 
 -120289  -120222  -120226  -120239  -120235  -120235  -120228  -120235 
 -120239  -120208  -120182  -120189  -120195  -120172  -120141  -120167 
 -120212  -120212  -120233  -120260  -120228  -120231  -120267  -120232 
 -120175  -120154  -120154  -120195  -120217  -120190  -120201  -120214 
 -120177  -120181  -120226  -120224  -120216  -120260  -120301  -120312 
 -120309  -120282  -120272  -120307  -120344  -120366  -120351  -120309 
 -120279  -120251  -120226  -120225  -120198  -120178  -120206  -120194 
 -120118  -120090  -120137  -120195  -120221  -120232  -120275  -120307 
 -120258  -120195  -120228  -120290  -120285  -120248  -120240  -120235 
 -120218  -120193  -120171  -120213  -120279  -120274  -120237  -120205 
 -120201  -120255  -120270  -120221  -120220  -120259  -120309  -120334 
 -120259  -120145  -120093  -120098  -120141  -120179  -120195  -120213 
 -120222  -120220  -120251  -120312  -120316  -120297  -120357  -120410 
 -120344  -120239  -120217  -120247  -120228  -120201  -120217  -120226 
 -120220  -120212  -120206  -120210  -120213  -120216  -120217  -120236 
 -120256  -120220  -120166  -120172  -120226  -120275  -120294  -120279 
 -120263  -120276  -120280  -120256  -120259  -120271  -120222  -120166 
 -120175  -120206  -120206  -120190  -120193  -120212  -120218  -120214 
 -120205  -120182  -120177  -120198  -120204  -120201  -120224  -120251 
 -120240  -120221  -120256  -120289  -120272  -120285  -120306  -120272 
 -120239  -120241  -120249  -120222  -120213  -120264  -120264  -120218 
 -120228  -120235  -120189  -120181  -120240  -120279  -120267  -120262 
 -120256  -120220  -120222  -120272  -120278  -120282  -120324  -120290 
 -120217  -120222  -120267  -120294  -120293  -120280  -120251  -120168 
 -120113  -120137  -120154  -120170  -120239  -120299  -120307  -120290 
 -120274  -120249  -120229  -120247  -120247  -120213  -120231  -120271 
 -120264  -120249  -120248  -120224  -120189  -120167  -120132  -120121 
 -120189  -120244  -120239  -120253  -120289  -120287  -120259  -120251 
 -120245  -120225  -120231  -120266  -120276  -120235  -120164  -120120 
 -120139  -120199  -120247  -120235  -120178  -120155  -120194  -120218 
 -120208  -120243  -120272  -120240  -120237  -120276  -120310  -120332 
 -120334  -120334  -120334  -120333  -120318  -120248  -120170  -120150 
 -120160  -120179  -120185  -120155  -120164  -120226  -120251  -120245 
 -120248  -120240  -120212  -120158  -120129  -120172  -120193  -120155 
 -120155  -120197  -120231  -120262  -120290  -120318  -120339  -120324 
 -120312  -120310  -120271  -120216  -120189  -120202  -120252  -120332 
 -120382  -120321  -120245  -120287  -120347  -120302  -120226  -120195 
 -120171  -120137  -120139  -120166  -120187  -120236  -120302  -120333 
 -120329  -120337  -120361  -120334  -120239  -120163  -120151  -120150 
 -120136  -120136  -120140  -120164  -120213  -120209  -120151  -120144 
 -120198  -120248  -120272  -120280  -120266  -120228  -120181  -120160 
 -120172  -120178  -120175  -120205  -120239  -120264  -120298  -120339 
 -120383  -120403  -120372  -120328  -120310  -120306  -120305  -120275 
 -120170  -120087  -120148  -120240  -120199  -120089  -120058  -120116 
 -120205  -120249  -120201  -120145  -120156  -120172  -120162  -120158 
 -120179  -120204  -120210  -120221  -120272  -120321  -120317  -120283 
 -120266  -120267  -120260  -120259  -120279  -120280  -120286  -120312 
 -120293  -120255  -120264  -120279  -120272  -120278  -120278  -120256 
 -120235  -120225  -120225  -120243  -120271  -120295  -120310  -120306 
 -120291  -120307  -120316  -120285  -120274  -120298  -120314  -120255 
 -120133  -120116  -120204  -120213  -120131  -120066  -120023  -119997 
 -119994  -119979  -119977  -120013  -120054  -120105  -120190  -120236 
 -120185  -120148  -120217  -120312  -120382  -120433  -120433  -120403 
 -120372  -120314  -120268  -120290  -120279  -120182  -120125  -120124 
 -120120  -120129  -120110  -120100  -120205  -120326  -120334  -120294 
 -120283  -120290  -120301  -120313  -120291  -120259  -120285  -120340 
 -120360  -120344  -120321  -120295  -120262  -120255  -120287  -120294 
 -120217  -120133  -120123  -120154  -120179  -120231  -120314  -120398 
 -120474  -120505  -120451  -120352  -120258  -120133  -119971  -119889 
 -119884  -119815  -119747  -119826  -119965  -120096  -120268  -120451 
 -120588  -120668  -120698  -120712  -120721  -120661  -120518  -120374 
 -120282  -120220  -120166  -120162  -120209  -120193  -120136  -120166 
 -120221  -120217  -120221  -120222  -120174  -120151  -120202  -120243 
 -120206  -120147  -120137  -120183  -120233  -120236  -120205  -120205 
 -120228  -120214  -120206  -120241  -120249  -120255  -120299  -120312 
 -120286  -120247  -120205  -120212  -120228  -120186  -120151  -120141 
 -120081  -120020  -120040  -120063  -120031  -120019  -120060  -120125 
 -120212  -120282  -120272  -120240  -120237  -120198  -120166  -120236 
 -120309  -120302  -120285  -120287  -120309  -120341  -120353  -120367 
 -120375  -120345  -120321  -120310  -120258  -120198  -120193  -120235 
 -120275  -120268  -120252  -120279  -120336  -120366  -120325  -120259 
 -120231  -120228  -120213  -120214  -120241  -120251  -120251  -120248 
 -120260  -120333  -120397  -120397  -120409  -120391  -120303  -120205 
 -120104  -120006  -119956  -119951  -119963  -119969  -119974  -120015 
 -120067  -120113  -120154  -120191  -120259  -120332  -120345  -120316 
 -120267  -120222  -120256  -120340  -120349  -120287  -120244  -120226 
 -120216  -120202  -120198  -120232  -120270  -120263  -120243  -120240 
 -120231  -120228  -120275  -120344  -120368  -120360  -120352  -120321 
 -120297  -120325  -120361  -120368  -120345  -120278  -120186  -120117 
 -120093  -120094  -120086  -120069  -120078  -120132  -120189  -120216 
 -120251  -120301  -120321  -120328  -120333  -120280  -120221  -120212 
 -120166  -120113  -120140  -120187  -120186  -120174  -120198  -120216 
 -120160  -120094  -120105  -120179  -120249  -120317  -120390  -120410 
 -120413  -120486  -120586  -120610  -120536  -120415  -120290  -120175 
 -120091  -120067  -120132  -120199  -120174  -120147  -120182  -120189 
 -120160  -120201  -120299  -120353  -120334  -120275  -120221  -120224 
 -120283  -120325  -120291  -120270  -120316  -120274  -120094  -119963 
 -119948  -119967  -120009  -120087  -120145  -120135  -120113  -120145 
 -120205  -120232  -120213  -120185  -120177  -120158  -120135  -120170 
 -120255  -120329  -120367  -120366  -120351  -120349  -120353  -120343 
 -120332  -120382  -120472  -120483  -120417  -120349  -120289  -120252 
 -120253  -120258  -120252  -120226  -120186  -120179  -120191  -120178 
 -120133  -120087  -120067  -120071  -120078  -120094  -120120  -120114 
 -120093  -120118  -120174  -120202  -120210  -120255  -120336  -120390 
 -120438  -120488  -120456  -120397  -120402  -120402  -120336  -120264 
 -120214  -120148  -120083  -120066  -120058  -120056  -120073  -120062 
 -120071  -120162  -120233  -120259  -120343  -120436  -120430  -120401 
 -120414  -120390  -120313  -120270  -120283  -120299  -120298  -120290 
 -120263  -120255  -120348  -120428  -120343  -120208  -120151  -120120 
 -120104  -120133  -120167  -120182  -120182  -120159  -120171  -120235 
 -120244  -120155  -120042  -119989  -120046  -120132  -120125  -120089 
 -120109  -120128  -120145  -120214  -120290  -120349  -120372  -120321 
 -120286  -120339  -120367  -120343  -120333  -120309  -120275  -120286 
 -120260  -120156  -120100  -120109  -120063  -120012  -120067  -120163 
 -120212  -120216  -120205  -120208  -120221  -120251  -120314  -120384 
 -120414  -120438  -120467  -120430  -120356  -120286  -120167  -120082 
 -120131  -120178  -120151  -120127  -120109  -120117  -120194  -120286 
 -120332  -120326  -120264  -120178  -120158  -120226  -120263  -120224 
 -120252  -120355  -120379  -120355  -120374  -120380  -120355  -120355 
 -120359  -120299  -120202  -120148  -120128  -120118  -120147  -120191 
 -120228  -120276  -120348  -120420  -120429  -120356  -120267  -120195 
 -120175  -120225  -120256  -120214  -120172  -120172  -120185  -120174 
 -120164  -120159  -120148  -120168  -120217  -120258  -120268  -120232 
 -120201  -120170  -120066  -119970  -119974  -120005  -120024  -120054 
 -120075  -120066  -120066  -120120  -120221  -120318  -120372  -120420 
 -120506  -120579  -120573  -120541  -120517  -120461  -120395  -120351 
 -120280  -120145  -120005  -119931  -119902  -119889  -119946  -120083 
 -120182  -120181  -120175  -120245  -120361  -120478  -120541  -120530 
 -120501  -120495  -120471  -120375  -120259  -120197  -120144  -120083 
 -120069  -120073  -120027  -119992  -120059  -120202  -120339  -120410 
 -120390  -120330  -120309  -120306  -120295  -120325  -120382  -120360 
 -120291  -120280  -120287  -120279  -120282  -120236  -120129  -120031 
 -119952  -119916  -119950  -120004  -120021  -120025  -120077  -120160 
 -120226  -120314  -120388  -120376  -120390  -120444  -120415  -120363 
 -120351  -120325  -120276  -120232  -120218  -120225  -120239  -120245 
 -120209  -120186  -120217  -120217  -120209  -120262  -120293  -120268 
 -120255  -120221  -120147  -120144  -120205  -120201  -120168  -120194 
 -120232  -120268  -120341  -120390  -120370  -120351  -120352  -120314 
 -120259  -120241  -120212  -120167  -120182  -120212  -120187  -120160 
 -120183  -120236  -120291  -120325  -120306  -120260  -120243  -120218 
 -120155  -120140  -120186  -120231  -120274  -120310  -120320  -120307 
 -120267  -120210  -120183  -120202  -120229  -120214  -120145  -120069 
 -120029  -120051  -120116  -120158  -120163  -120150  -120131  -120129 
 -120136  -120178  -120272  -120324  -120307  -120312  -120313  -120295 
 -120325  -120379  -120387  -120356  -120321  -120287  -120289  -120357 
 -120390  -120294  -120183  -120127  -120090  -120074  -120025  -119951 
 -119979  -120112  -120232  -120321  -120426  -120518  -120542  -120532 
 -120538  -120534  -120495  -120436  -120375  -120321  -120247  -120131 
 -120040  -120039  -120056  -120060  -120135  -120249  -120286  -120272 
 -120241  -120154  -120078  -120094  -120131  -120150  -120164  -120144 
