Origin Time       2025/03/28 03:50:00
Lat.              35.403
Long.             140.360
Depth. (km)       54
Mag.              4.4
Station Code      IBRH19
Station Lat.      36.2137
Station Long.     140.0893
Station Height(m) 175
Record Time       2025/03/28 03:51:08
Sampling Freq(Hz) 100Hz
Duration Time(s)  120
Dir.              5
Scale Factor      7845(gal)/8223790
Max. Acc. (gal)   0.382
Last Correction   2025/03/28 03:51:09
Memo.             
[...]
   -6172    -6172    -6173    -6176    -6180    -6176    -6170    -6177 
   -6180    -6170    -6166    -6173    -6181    -6180    -6166    -6174 
   -6183    -6172    -6174    -6177    -6172    -6177    -6174    -6169 
   -6180    -6180    -6169    -6177    -6178    -6170    -6177    -6181 
   -6173    -6173    -6174    -6169    -6173    -6174    -6170    -6176 
   -6177    -6172    -6174    -6174    -6169    -6173    -6180    -6174 
   -6174    -6180    -6176    -6172    -6176    -6176    -6177    -6181 
   -6178    -6174    -6177    -6176    -6173    -6176    -6173    -6174 
   -6177    -6165    -6162    -6178    -6177    -6173    -6174    -6164 
   -6168    -6178    -6170    -6176    -6181    -6166    -6165    -6176 
   -6183    -6187    -6180    -6170    -6176    -6180    -6170    -6164 
   -6177    -6192    -6181    -6168    -6166    -6172    -6178    -6174 
   -6172    -6176    -6178    -6177    -6180    -6180    -6178    -6181 
   -6184    -6173    -6169    -6180    -6178    -6177    -6188    -6178 
   -6169    -6169    -6169    -6181    -6192    -6188    -6184    -6176 
   -6170    -6166    -6165    -6176    -6189    -6185    -6176    -6181 
   -6189    -6172    -6160    -6170    -6185    -6184    -6173    -6183 
   -6195    -6184    -6173    -6170    -6162    -6147    -6142    -6164 
   -6204    -6234    -6227    -6199    -6184    -6170    -6153    -6142 
   -6124    -6130    -6174    -6211    -6207    -6174    -6162    -6172 
   -6158    -6139    -6146    -6149    -6161    -6181    -6180    -6184 
   -6184    -6165    -6176    -6193    -6183    -6174    -6178    -6189 
   -6188    -6162    -6147    -6161    -6166    -6150    -6141    -6153 
   -6161    -6161    -6168    -6172    -6191    -6214    -6191    -6164 
   -6184    -6204    -6191    -6178    -6181    -6184    -6185    -6180 
   -6166    -6187    -6211    -6177    -6131    -6129    -6165    -6210 
   -6220    -6195    -6184    -6185    -6162    -6139    -6153    -6176 
   -6183    -6177    -6187    -6207    -6216    -6218    -6200    -6161 
   -6142    -6156    -6172    -6178    -6188    -6199    -6201    -6191 
   -6185    -6187    -6170    -6139    -6127    -6138    -6146    -6138 
   -6120    -6131    -6178    -6201    -6174    -6143    -6164    -6222 
   -6220    -6170    -6160    -6174    -6199    -6230    -6214    -6164 
   -6162    -6197    -6208    -6184    -6139    -6122    -6151    -6161 
   -6138    -6135    -6141    -6134    -6153    -6183    -6191    -6216 
   -6242    -6211    -6189    -6201    -6187    -6177    -6204    -6234 
   -6250    -6224    -6150    -6096    -6115    -6147    -6139    -6141 
   -6162    -6185    -6218    -6214    -6168    -6176    -6205    -6185 
   -6162    -6170    -6188    -6189    -6158    -6138    -6168    -6200 
   -6188    -6143    -6116    -6139    -6177    -6178    -6170    -6203 
   -6239    -6219    -6166    -6151    -6184    -6174    -6124    -6139 
   -6207    -6231    -6201    -6164    -6151    -6160    -6168    -6153 
   -6133    -6147    -6165    -6150    -6157    -6177    -6188    -6241 
   -6268    -6205    -6166    -6154    -6115    -6123    -6177    -6204 
   -6210    -6211    -6200    -6184    -6158    -6138    -6166    -6208 
   -6215    -6197    -6183    -6181    -6184    -6165    -6134    -6114 
   -6108    -6166    -6251    -6245    -6178    -6158    -6164    -6160 
   -6173    -6177    -6157    -6174    -6214    -6205    -6191    -6184 
   -6160    -6164    -6181    -6168    -6153    -6142    -6135    -6142 
   -6129    -6120    -6145    -6157    -6165    -6197    -6219    -6218 
   -6211    -6184    -6156    -6160    -6176    -6189    -6215    -6237 
   -6224    -6158    -6104    -6130    -6174    -6189    -6183    -6153 
   -6145    -6187    -6199    -6160    -6133    -6133    -6154    -6211 
   -6259    -6270    -6242    -6177    -6139    -6146    -6168    -6199 
   -6183    -6142    -6156    -6157    -6138    -6165    -6184    -6164 
   -6176    -6197    -6191    -6200    -6173    -6127    -6191    -6253 
   -6226    -6210    -6196    -6188    -6191    -6142    -6093    -6088 
   -6095    -6137    -6178    -6170    -6177    -6199    -6188    -6181 
   -6181    -6165    -6178    -6193    -6161    -6153    -6172    -6157 
   -6173    -6196    -6156    -6146    -6177    -6178    -6204    -6232 
   -6223    -6214    -6195    -6160    -6133    -6138    -6169    -6177 
   -6174    -6204    -6227    -6211    -6180    -6141    -6135    -6173 
   -6207    -6188    -6127    -6099    -6126    -6156    -6188    -6223 
   -6243    -6228    -6181    -6147    -6143    -6153    -6154    -6147 
   -6168    -6196    -6177    -6143    -6191    -6253    -6231    -6215 
   -6216    -6161    -6120    -6122    -6115    -6122    -6141    -6173 
   -6212    -6174    -6115    -6154    -6227    -6255    -6214    -6131 
   -6110    -6141    -6173    -6227    -6230    -6174    -6188    -6210 
   -6160    -6138    -6173    -6222    -6268    -6251    -6165    -6085 
   -6045    -6066    -6203    -6284    -6142    -6054    -6177    -6257 
   -6270    -6247    -6149    -6178    -6211    -6122    -6157    -6189 
   -6137    -6142    -6142    -6177    -6212    -6188    -6195    -6142 
   -6102    -6199    -6286    -6270    -6188    -6150    -6151    -6151 
   -6210    -6212    -6147    -6153    -6158    -6139    -6153    -6176 
   -6197    -6196    -6165    -6164    -6165    -6120    -6131    -6232 
   -6281    -6266    -6247    -6177    -6120    -6133    -6107    -6096 
   -6184    -6193    -6083    -6058    -6126    -6199    -6269    -6258 
   -6195    -6156    -6141    -6151    -6180    -6238    -6253    -6178 
   -6180    -6235    -6204    -6149    -6097    -6075    -6158    -6216 
   -6120    -6045    -6124    -6191    -6181    -6200    -6199    -6184 
   -6239    -6286    -6259    -6193    -6118    -6088    -6137    -6189 
   -6192    -6164    -6130    -6135    -6147    -6139    -6181    -6237 
   -6234    -6201    -6184    -6208    -6208    -6173    -6158    -6187 
   -6289    -6303    -6151    -6091    -6150    -6160    -6145    -6102 
   -6075    -6162    -6216    -6200    -6259    -6282    -6208    -6188 
   -6189    -6158    -6118    -6065    -6077    -6143    -6146    -6114 
   -6127    -6183    -6232    -6234    -6210    -6192    -6200    -6249 
   -6253    -6191    -6188    -6188    -6126    -6129    -6162    -6122 
   -6103    -6130    -6139    -6157    -6142    -6102    -6154    -6243 
   -6253    -6210    -6184    -6189    -6169    -6130    -6158    -6200 
   -6181    -6173    -6197    -6231    -6249    -6193    -6130    -6118 
   -6111    -6124    -6145    -6150    -6187    -6245    -6261    -6226 
   -6212    -6253    -6261    -6227    -6196    -6142    -6103    -6115 
   -6135    -6157    -6180    -6168    -6149    -6164    -6193    -6228 
   -6210    -6129    -6118    -6162    -6153    -6130    -6120    -6138 
   -6230    -6285    -6227    -6188    -6188    -6142    -6111    -6139 
   -6149    -6124    -6133    -6156    -6137    -6134    -6164    -6145 
   -6131    -6177    -6220    -6237    -6242    -6246    -6262    -6286 
   -6289    -6239    -6169    -6139    -6170    -6203    -6191    -6153 
   -6099    -6065    -6083    -6123    -6168    -6204    -6214    -6195 
   -6188    -6227    -6253    -6223    -6197    -6174    -6135    -6134 
   -6150    -6124    -6084    -6065    -6081    -6118    -6191    -6284 
   -6276    -6162    -6102    -6139    -6193    -6211    -6203    -6218 
   -6220    -6170    -6145    -6166    -6173    -6157    -6156    -6177 
   -6196    -6199    -6173    -6145    -6153    -6174    -6169    -6154 
   -6165    -6200    -6200    -6172    -6201    -6246    -6255    -6276 
   -6269    -6203    -6137    -6107    -6129    -6164    -6178    -6173 
   -6151    -6164    -6184    -6161    -6170    -6214    -6219    -6200 
   -6138    -6068    -6093    -6165    -6196    -6201    -6181    -6162 
   -6172    -6169    -6165    -6181    -6185    -6210    -6245    -6223 
   -6192    -6145    -6069    -6054    -6080    -6124    -6204    -6234 
   -6226    -6258    -6281    -6254    -6187    -6106    -6075    -6112 
   -6173    -6180    -6153    -6139    -6138    -6174    -6204    -6176 
   -6161    -6165    -6174    -6227    -6272    -6264    -6232    -6214 
   -6241    -6249    -6177    -6124    -6139    -6139    -6127    -6137 
   -6108    -6099    -6151    -6154    -6149    -6199    -6223    -6226 
   -6226    -6223    -6253    -6276    -6246    -6197    -6147    -6107 
   -6097    -6085    -6068    -6049    -6016    -6050    -6154    -6208 
   -6201    -6193    -6200    -6228    -6253    -6259    -6254    -6230 
   -6191    -6157    -6141    -6127    -6116    -6143    -6177    -6162 
   -6146    -6169    -6222    -6289    -6308    -6261    -6191    -6138 
   -6154    -6220    -6231    -6169    -6120    -6134    -6170    -6178 
   -6156    -6130    -6127    -6127    -6124    -6145    -6166    -6191 
   -6224    -6237    -6218    -6174    -6120    -6076    -6080    -6145 
   -6203    -6212    -6183    -6149    -6177    -6238    -6247    -6224 
   -6235    -6251    -6247    -6226    -6189    -6161    -6103    -6007 
   -6003    -6088    -6116    -6110    -6126    -6149    -6208    -6258 
   -6234    -6227    -6259    -6250    -6227    -6223    -6195    -6162 
   -6173    -6196    -6195    -6196    -6199    -6161    -6131    -6147 
   -6134    -6092    -6100    -6157    -6214    -6238    -6223    -6226 
   -6266    -6268    -6211    -6168    -6153    -6133    -6099    -6087 
   -6111    -6133    -6104    -6060    -6061    -6106    -6172    -6219 
   -6219    -6228    -6234    -6214    -6231    -6270    -6265    -6207 
   -6135    -6133    -6195    -6201    -6164    -6156    -6150    -6150 
   -6184    -6205    -6218    -6265    -6284    -6238    -6199    -6201 
   -6196    -6147    -6095    -6079    -6093    -6103    -6091    -6111 
   -6169    -6166    -6135    -6161    -6204    -6231    -6237    -6197 
   -6165    -6173    -6189    -6210    -6215    -6185    -6150    -6111 
   -6084    -6112    -6158    -6180    -6174    -6176    -6205    -6224 
   -6214    -6196    -6183    -6173    -6162    -6151    -6169    -6214 
   -6220    -6191    -6185    -6203    -6200    -6173    -6157    -6151 
   -6151    -6178    -6195    -6207    -6266    -6304    -6281    -6224 
   -6147    -6115    -6119    -6100    -6092    -6093    -6092    -6092 
   -6079    -6092    -6143    -6172    -6169    -6141    -6118    -6158 
   -6226    -6262    -6266    -6247    -6245    -6265    -6266    -6241 
   -6192    -6131    -6147    -6226    -6247    -6227    -6214    -6173 
   -6131    -6135    -6160    -6195    -6219    -6195    -6180    -6183 
   -6141    -6119    -6154    -6164    -6151    -6164    -6183    -6192 
   -6172    -6124    -6102    -6119    -6162    -6205    -6215    -6228 
   -6253    -6227    -6183    -6164    -6147    -6131    -6108    -6077 
   -6084    -6115    -6158    -6227    -6272    -6280    -6276    -6235 
   -6178    -6147    -6137    -6142    -6134    -6106    -6076    -6054 
   -6069    -6115    -6153    -6184    -6196    -6185    -6196    -6220 
   -6222    -6218    -6223    -6230    -6220    -6185    -6174    -6205 
   -6211    -6189    -6178    -6178    -6193    -6183    -6137    -6137 
   -6170    -6162    -6143    -6134    -6123    -6147    -6214    -6264 
   -6277    -6261    -6216    -6162    -6107    -6081    -6108    -6153 
   -6211    -6257    -6246    -6230    -6208    -6141    -6097    -6104 
   -6133    -6158    -6145    -6143    -6203    -6250    -6268    -6305 
   -6327    -6280    -6204    -6162    -6158    -6150    -6120    -6075 
   -6016    -5962    -5913    -5872    -5853    -5853    -5891    -5983 
   -6106    -6243    -6354    -6381    -6331    -6293    -6309    -6323 
   -6299    -6253    -6187    -6133    -6127    -6151    -6196    -6269 
   -6320    -6303    -6278    -6293    -6286    -6250    -6238    -6258 
   -6299    -6318    -6261    -6157    -6061    -5994    -5975    -5985 
   -5984    -5967    -5958    -6008    -6093    -6161    -6204    -6223 
   -6238    -6288    -6319    -6301    -6300    -6318    -6316    -6299 
   -6277    -6262    -6239    -6201    -6158    -6092    -6031    -6019 
   -5998    -5967    -6012    -6114    -6210    -6253    -6181    -6076 
   -6058    -6111    -6184    -6232    -6232    -6237    -6241    -6222 
   -6237    -6276    -6253    -6174    -6118    -6112    -6133    -6154 
   -6164    -6161    -6172    -6212    -6270    -6303    -6288    -6272 
   -6286    -6296    -6278    -6272    -6288    -6297    -6262    -6188 
   -6134    -6115    -6111    -6141    -6170    -6151    -6103    -6050 
   -6035    -6062    -6065    -6080    -6127    -6122    -6075    -6016 
   -5965    -6006    -6143    -6285    -6377    -6411    -6411    -6399 
   -6324    -6204    -6130    -6075    -5971    -5904    -5910    -5919 
   -5946    -6010    -6099    -6211    -6299    -6332    -6361    -6397 
   -6411    -6392    -6362    -6358    -6369    -6349    -6301    -6245 
   -6151    -6041    -5980    -5971    -5949    -5907    -5877    -5879 
   -5929    -6006    -6081    -6166    -6245    -6304    -6381    -6424 
   -6390    -6315    -6219    -6161    -6215    -6308    -6335    -6312 
   -6274    -6228    -6187    -6138    -6104    -6112    -6122    -6097 
   -6102    -6180    -6255    -6264    -6243    -6220    -6172    -6099 
   -6054    -6075    -6099    -6068    -6042    -6085    -6180    -6224 
   -6173    -6104    -6057    -6033    -6042    -6048    -6080    -6156 
   -6200    -6201    -6170    -6126    -6141    -6193    -6215    -6234 
   -6284    -6324    -6396    -6516    -6575    -6520    -6388    -6227 
   -6100    -6023    -5975    -5949    -5940    -5972    -6085    -6230 
   -6323    -6362    -6350    -6281    -6228    -6218    -6197    -6181 
   -6160    -6054    -5917    -5861    -5883    -5972    -6122    -6257 
   -6340    -6378    -6369    -6354    -6372    -6393    -6365    -6268 
   -6133    -6046    -6042    -6046    -6016    -5973    -5944    -5988 
   -6076    -6084    -6011    -5988    -6070    -6222    -6374    -6455 
   -6423    -6324    -6261    -6253    -6241    -6208    -6195    -6211 
   -6238    -6293    -6363    -6363    -6274    -6162    -6076    -6030 
   -5983    -5895    -5825    -5832    -5925    -6076    -6184    -6201 
   -6205    -6241    -6274    -6258    -6199    -6181    -6264    -6409 
   -6509    -6466    -6313    -6177    -6106    -6069    -6054    -6075 
   -6103    -6118    -6130    -6123    -6084    -6027    -5994    -6042 
   -6130    -6162    -6153    -6158    -6204    -6326    -6470    -6529 
   -6494    -6378    -6195    -6033    -5961    -5953    -5958    -5952 
   -5937    -5975    -6100    -6253    -6349    -6390    -6409    -6376 
   -6286    -6204    -6170    -6165    -6143    -6104    -6100    -6151 
   -6220    -6262    -6249    -6185    -6143    -6153    -6156    -6115 
   -6061    -6030    -6033    -6076    -6168    -6261    -6296    -6293 
   -6277    -6224    -6135    -6048    -6021    -6070    -6138    -6195 
   -6259    -6316    -6345    -6349    -6336    -6297    -6227    -6133 
   -6037    -5976    -5967    -6015    -6085    -6112    -6103    -6099 
   -6134    -6210    -6253    -6247    -6268    -6334    -6401    -6442 
   -6435    -6367    -6262    -6177    -6138    -6085    -5992    -5930 
   -5948    -5987    -6012    -6068    -6154    -6220    -6245    -6247 
   -6251    -6276    -6305    -6286    -6204    -6127    -6110    -6137 
   -6164    -6158    -6114    -6064    -6064    -6107    -6129    -6100 
   -6081    -6116    -6164    -6172    -6184    -6219    -6230    -6246 
   -6301    -6336    -6305    -6212    -6120    -6085    -6080    -6075 
   -6064    -6031    -6037    -6114    -6187    -6201    -6162    -6093 
   -6049    -6045    -6075    -6157    -6239    -6262    -6286    -6342 
   -6369    -6335    -6273    -6238    -6241    -6211    -6122    -6072 
   -6097    -6137    -6177    -6223    -6253    -6273    -6286    -6292 
   -6277    -6241    -6230    -6255    -6274    -6228    -6129    -6066 
   -6099    -6154    -6150    -6108    -6084    -6085    -6099    -6123 
   -6156    -6181    -6199    -6203    -6170    -6134    -6168    -6238 
   -6242    -6183    -6135    -6133    -6151    -6168    -6154    -6129 
   -6133    -6168    -6189    -6165    -6142    -6160    -6168    -6145 
   -6129    -6111    -6080    -6087    -6138    -6183    -6196    -6178 
   -6164    -6203    -6286    -6350    -6346    -6291    -6237    -6223 
   -6222    -6178    -6134    -6146    -6165    -6162    -6160    -6141 
   -6127    -6165    -6216    -6214    -6164    -6115    -6102    -6118 
   -6131    -6131    -6134    -6142    -6154    -6178    -6197    -6187 
   -6161    -6172    -6216    -6238    -6238    -6232    -6214    -6178 
   -6137    -6103    -6068    -6069    -6142    -6205    -6201    -6193 
   -6231    -6307    -6361    -6359    -6331    -6281    -6210    -6124 
   -6034    -5996    -6027    -6064    -6083    -6091    -6099    -6116 
   -6131    -6149    -6184    -6201    -6191    -6180    -6176    -6200 
   -6249    -6288    -6320    -6322    -6264    -6172    -6100    -6095 
   -6145    -6180    -6146    -6095    -6084    -6083    -6080    -6120 
   -6185    -6238    -6268    -6265    -6232    -6188    -6151    -6120 
   -6088    -6065    -6073    -6142    -6238    -6285    -6300    -6323 
   -6322    -6285    -6245    -6201    -6174    -6166    -6147    -6130 
   -6141    -6162    -6168    -6124    -6060    -6043    -6083    -6142 
   -6185    -6185    -6170    -6154    -6122    -6114    -6164    -6227 
   -6274    -6292    -6269    -6243    -6245    -6276    -6335    -6376 
   -6342    -6243    -6124    -6041    -6011    -5989    -5960    -5976 
   -6054    -6124    -6143    -6154    -6199    -6257    -6289    -6276 
   -6216    -6156    -6131    -6154    -6208    -6222    -6169    -6110 
   -6065    -6053    -6088    -6134    -6164    -6184    -6199    -6214 
   -6219    -6235    -6251    -6222    -6174    -6145    -6115    -6085 
   -6077    -6102    -6147    -6172    -6156    -6114    -6099    -6124 
   -6137    -6115    -6116    -6178    -6255    -6281    -6262    -6264 
   -6288    -6307    -6322    -6303    -6242    -6189    -6174    -6191 
   -6199    -6154    -6099    -6104    -6142    -6131    -6073    -6033 
   -6048    -6111    -6188    -6268    -6332    -6347    -6316    -6266 
   -6230    -6238    -6259    -6250    -6212    -6158    -6096    -6048 
   -6033    -6053    -6075    -6083    -6093    -6114    -6150    -6187 
   -6203    -6218    -6239    -6258    -6296    -6323    -6304    -6264 
   -6214    -6172    -6162    -6161    -6131    -6100    -6104    -6120 
   -6126    -6115    -6106    -6133    -6160    -6135    -6130    -6191 
   -6255    -6292    -6318    -6304    -6251    -6215    -6200    -6168 
   -6133    -6111    -6069    -6018    -6010    -6049    -6106    -6156 
   -6166    -6122    -6110    -6180    -6246    -6266    -6265    -6231 
   -6207    -6227    -6235    -6214    -6180    -6139    -6116    -6116 
   -6129    -6173    -6241    -6270    -6246    -6203    -6183    -6184 
   -6160    -6127    -6133    -6133    -6107    -6102    -6130    -6174 
   -6210    -6184    -6135    -6124    -6126    -6110    -6087    -6095 
   -6172    -6274    -6303    -6234    -6145    -6123    -6145    -6133 
   -6106    -6126    -6183    -6219    -6224    -6227    -6235    -6255 
   -6315    -6377    -6386    -6342    -6274    -6199    -6138    -6116 
