Origin Time       2025/03/28 03:50:00
Lat.              35.403
Long.             140.360
Depth. (km)       54
Mag.              4.4
Station Code      IBRH11
Station Lat.      36.3701
Station Long.     140.1401
Station Height(m) 67
Record Time       2025/03/28 03:51:10
Sampling Freq(Hz) 100Hz
Duration Time(s)  120
Dir.              4
Scale Factor      7845(gal)/8223790
Max. Acc. (gal)   1.856
Last Correction   2025/03/28 03:51:10
Memo.             
[...]
   -7546    -7628    -7742    -7763    -7821    -7935    -7900    -7674 
   -7441    -7319    -7304    -7356    -7473    -7661    -7750    -7649 
   -7510    -7430    -7342    -7253    -7276    -7407    -7558    -7663 
   -7697    -7701    -7672    -7597    -7576    -7618    -7635    -7582 
   -7541    -7650    -7804    -7847    -7869    -7861    -7736    -7631 
   -7647    -7708    -7770    -7840    -7901    -7875    -7703    -7519 
   -7504    -7569    -7555    -7501    -7492    -7500    -7434    -7300 
   -7245    -7299    -7354    -7469    -7657    -7699    -7591    -7570 
   -7619    -7555    -7411    -7395    -7558    -7707    -7792    -7889 
   -7894    -7819    -7789    -7743    -7645    -7614    -7659    -7653 
   -7577    -7564    -7663    -7754    -7731    -7693    -7697    -7620 
   -7473    -7416    -7511    -7643    -7692    -7744    -7844    -7823 
   -7650    -7477    -7395    -7384    -7387    -7407    -7504    -7591 
   -7554    -7508    -7504    -7434    -7387    -7518    -7705    -7770 
   -7728    -7696    -7715    -7680    -7526    -7450    -7587    -7766 
   -7831    -7759    -7665    -7608    -7496    -7395    -7406    -7456 
   -7503    -7591    -7735    -7861    -7894    -7875    -7842    -7749 
   -7612    -7533    -7538    -7651    -7830    -7912    -7911    -7851 
   -7658    -7435    -7263    -7156    -7290    -7585    -7719    -7701 
   -7663    -7539    -7341    -7204    -7202    -7323    -7468    -7523 
   -7514    -7546    -7670    -7808    -7877    -7931    -7936    -7808 
   -7728    -7761    -7677    -7581    -7674    -7777    -7805    -7842 
   -7782    -7554    -7322    -7310    -7484    -7553    -7516    -7646 
   -7794    -7668    -7470    -7438    -7418    -7387    -7427    -7491 
   -7601    -7695    -7661    -7632    -7678    -7657    -7636    -7769 
   -7893    -7811    -7618    -7591    -7688    -7561    -7400    -7493 
   -7582    -7578    -7632    -7716    -7686    -7531    -7501    -7620 
   -7662    -7724    -7890    -7956    -7858    -7757    -7705    -7622 
   -7514    -7361    -7257    -7387    -7510    -7423    -7393    -7512 
   -7585    -7531    -7402    -7318    -7376    -7539    -7711    -7809 
   -7769    -7707    -7786    -7842    -7750    -7723    -7811    -7844 
   -7803    -7724    -7655    -7630    -7597    -7561    -7534    -7460 
   -7425    -7535    -7661    -7626    -7445    -7294    -7284    -7357 
   -7468    -7641    -7770    -7749    -7663    -7686    -7804    -7819 
   -7769    -7878    -8005    -7848    -7558    -7511    -7651    -7577 
   -7344    -7339    -7453    -7395    -7304    -7411    -7624    -7719 
   -7701    -7707    -7700    -7601    -7480    -7447    -7499    -7518 
   -7507    -7603    -7761    -7788    -7684    -7638    -7661    -7584 
   -7454    -7488    -7653    -7739    -7809    -7970    -8023    -7916 
   -7827    -7742    -7596    -7441    -7376    -7408    -7489    -7632 
   -7815    -7952    -7998    -7935    -7685    -7315    -7160    -7273 
   -7369    -7380    -7387    -7439    -7435    -7261    -7145    -7244 
   -7326    -7308    -7408    -7643    -7804    -7831    -7812    -7916 
   -8133    -8168    -8016    -7960    -7948    -7850    -7763    -7739 
   -7715    -7631    -7539    -7515    -7493    -7470    -7512    -7503 
   -7358    -7215    -7160    -7111    -7121    -7344    -7699    -7909 
   -7904    -7848    -7803    -7761    -7708    -7593    -7555    -7696 
   -7855    -7970    -8082    -8162    -8148    -7982    -7669    -7302 
   -7076    -7064    -7149    -7376    -7695    -7824    -7738    -7508 
   -7198    -6990    -6993    -7214    -7497    -7701    -7854    -7927 
   -7900    -7838    -7781    -7689    -7523    -7422    -7437    -7470 
   -7557    -7695    -7823    -7894    -7885    -7819    -7689    -7561 
   -7504    -7438    -7414    -7515    -7647    -7736    -7746    -7693 
   -7653    -7628    -7653    -7707    -7703    -7711    -7726    -7577 
   -7458    -7587    -7626    -7460    -7450    -7562    -7605    -7624 
   -7577    -7481    -7373    -7215    -7194    -7420    -7686    -7879 
   -8067    -8164    -8060    -7898    -7769    -7631    -7573    -7597 
   -7615    -7647    -7630    -7524    -7487    -7518    -7477    -7387 
   -7366    -7439    -7468    -7466    -7580    -7663    -7646    -7674 
   -7676    -7623    -7600    -7557    -7533    -7572    -7596    -7636 
   -7761    -7882    -7862    -7751    -7669    -7560    -7399    -7356 
   -7411    -7366    -7318    -7474    -7739    -7906    -7952    -7947 
   -7884    -7723    -7535    -7492    -7612    -7731    -7816    -7963 
   -8085    -7992    -7700    -7456    -7296    -7061    -6899    -6963 
   -7096    -7245    -7410    -7515    -7612    -7732    -7820    -7838 
   -7717    -7588    -7677    -7877    -8005    -8104    -8133    -8029 
   -7842    -7649    -7533    -7437    -7317    -7323    -7395    -7381 
   -7414    -7511    -7520    -7534    -7635    -7719    -7738    -7655 
   -7501    -7415    -7379    -7393    -7542    -7699    -7793    -7900 
   -7933    -7920    -7947    -7824    -7596    -7533    -7534    -7433 
   -7326    -7362    -7461    -7433    -7377    -7458    -7508    -7392 
   -7285    -7357    -7553    -7735    -7847    -7956    -8071    -8077 
   -8024    -7966    -7777    -7566    -7523    -7530    -7524    -7592 
   -7732    -7817    -7742    -7603    -7557    -7483    -7265    -7146 
   -7253    -7423    -7543    -7585    -7562    -7499    -7408    -7408 
   -7570    -7773    -7908    -7982    -7992    -7959    -7882    -7711 
   -7588    -7600    -7605    -7595    -7543    -7425    -7469    -7659 
   -7686    -7623    -7688    -7782    -7711    -7501    -7437    -7535 
   -7507    -7442    -7533    -7591    -7526    -7484    -7526    -7573 
   -7584    -7566    -7512    -7473    -7474    -7460    -7472    -7560 
   -7587    -7512    -7514    -7616    -7717    -7824    -7911    -7960 
   -8001    -7938    -7827    -7832    -7786    -7596    -7519    -7570 
   -7535    -7480    -7541    -7603    -7589    -7614    -7638    -7550 
   -7472    -7449    -7407    -7433    -7508    -7492    -7504    -7680 
   -7835    -7793    -7686    -7641    -7615    -7649    -7731    -7712 
   -7591    -7518    -7534    -7539    -7566    -7678    -7761    -7705 
   -7568    -7470    -7431    -7365    -7314    -7356    -7408    -7434 
   -7558    -7780    -7897    -7842    -7761    -7804    -7848    -7730 
   -7620    -7685    -7757    -7736    -7735    -7720    -7599    -7512 
   -7561    -7608    -7600    -7631    -7739    -7836    -7809    -7709 
   -7653    -7630    -7569    -7488    -7449    -7364    -7226    -7236 
   -7369    -7460    -7514    -7564    -7600    -7543    -7385    -7330 
   -7384    -7384    -7437    -7597    -7717    -7763    -7735    -7685 
   -7730    -7786    -7812    -7908    -7959    -7873    -7809    -7847 
   -7886    -7819    -7707    -7722    -7788    -7763    -7749    -7726 
   -7631    -7595    -7572    -7460    -7381    -7385    -7399    -7406 
   -7420    -7469    -7526    -7511    -7433    -7315    -7204    -7209 
   -7252    -7269    -7387    -7510    -7515    -7562    -7681    -7757 
   -7831    -8006    -8174    -8144    -7986    -7892    -7835    -7715 
   -7612    -7641    -7755    -7830    -7797    -7743    -7732    -7659 
   -7572    -7639    -7717    -7623    -7483    -7426    -7408    -7308 
   -7125    -7101    -7263    -7307    -7281    -7423    -7527    -7425 
   -7338    -7414    -7588    -7763    -7928    -8095    -8158    -8046 
   -7912    -7908    -7956    -7897    -7761    -7668    -7582    -7457 
   -7391    -7445    -7541    -7608    -7624    -7572    -7523    -7580 
   -7669    -7670    -7620    -7541    -7404    -7273    -7225    -7285 
   -7437    -7612    -7699    -7680    -7690    -7742    -7712    -7688 
   -7746    -7739    -7700    -7750    -7762    -7715    -7657    -7568 
   -7545    -7535    -7403    -7291    -7335    -7441    -7537    -7678 
   -7820    -7813    -7715    -7740    -7847    -7838    -7766    -7701 
   -7547    -7377    -7302    -7280    -7354    -7543    -7730    -7828 
   -7796    -7673    -7655    -7809    -7938    -7943    -7950    -7921 
   -7680    -7369    -7290    -7391    -7429    -7422    -7523    -7604 
   -7511    -7418    -7460    -7549    -7570    -7512    -7515    -7535 
   -7388    -7233    -7302    -7519    -7677    -7728    -7830    -7911 
   -7824    -7777    -7852    -7877    -7852    -7789    -7682    -7719 
   -7828    -7786    -7804    -7951    -7932    -7743    -7562    -7391 
   -7191    -7061    -7145    -7369    -7551    -7634    -7565    -7383 
   -7273    -7245    -7237    -7361    -7585    -7665    -7595    -7542 
   -7542    -7592    -7695    -7788    -7840    -7812    -7735    -7789 
   -7958    -8068    -8100    -8001    -7800    -7723    -7746    -7690 
   -7605    -7626    -7726    -7736    -7653    -7597    -7515    -7352 
   -7250    -7287    -7380    -7458    -7491    -7461    -7399    -7364 
   -7375    -7384    -7300    -7182    -7171    -7217    -7265    -7352 
   -7474    -7697    -7927    -7992    -8082    -8294    -8367    -8260 
   -8197    -8186    -8016    -7732    -7635    -7738    -7786    -7695 
   -7600    -7600    -7631    -7627    -7564    -7462    -7400    -7341 
   -7249    -7252    -7385    -7533    -7569    -7452    -7319    -7300 
   -7307    -7260    -7214    -7190    -7145    -7136    -7244    -7396 
   -7519    -7663    -7840    -7983    -8074    -8118    -8129    -8199 
   -8289    -8255    -8191    -8183    -8094    -7893    -7693    -7542 
   -7423    -7339    -7322    -7368    -7385    -7406    -7541    -7641 
   -7585    -7492    -7407    -7326    -7245    -7187    -7219    -7311 
   -7368    -7368    -7383    -7420    -7426    -7435    -7491    -7539 
   -7539    -7632    -7894    -8062    -8037    -8050    -8139    -8172 
   -8075    -7900    -7821    -7823    -7763    -7743    -7765    -7603 
   -7341    -7176    -7038    -6930    -7007    -7292    -7672    -7960 
   -8055    -8055    -8027    -7913    -7753    -7657    -7589    -7489 
   -7407    -7376    -7400    -7422    -7414    -7442    -7495    -7530 
   -7510    -7429    -7422    -7530    -7678    -7769    -7709    -7674 
   -7730    -7673    -7634    -7758    -7878    -7923    -7867    -7674 
   -7389    -7068    -6882    -6964    -7128    -7215    -7315    -7472 
   -7620    -7697    -7792    -8036    -8237    -8190    -8125    -8190 
   -8197    -8064    -7893    -7792    -7711    -7495    -7272    -7261 
   -7288    -7225    -7318    -7631    -7878    -7928    -7904    -7866 
   -7717    -7462    -7325    -7369    -7418    -7415    -7416    -7406 
   -7369    -7322    -7284    -7280    -7261    -7160    -7130    -7268 
   -7404    -7504    -7668    -7890    -8155    -8353    -8442    -8576 
   -8689    -8627    -8459    -8194    -7813    -7468    -7175    -6890 
   -6754    -6755    -6774    -6847    -7003    -7246    -7497    -7649 
   -7828    -8083    -8179    -8125    -8148    -8243    -8191    -7901 
   -7574    -7371    -7198    -7051    -7074    -7215    -7315    -7408 
   -7557    -7719    -7839    -7869    -7847    -7830    -7751    -7600 
   -7492    -7449    -7423    -7400    -7396    -7489    -7592    -7615 
   -7713    -7852    -7858    -7804    -7784    -7821    -7896    -7916 
   -7900    -7840    -7619    -7310    -7099    -6972    -6885    -6866 
   -6874    -6885    -6978    -7215    -7557    -7924    -8218    -8390 
   -8455    -8406    -8279    -8143    -8014    -7848    -7530    -7213 
   -7187    -7267    -7271    -7373    -7578    -7749    -7839    -7906 
   -8050    -8104    -7951    -7838    -7790    -7589    -7346    -7229 
   -7192    -7238    -7331    -7387    -7457    -7570    -7636    -7580 
   -7495    -7522    -7626    -7743    -7859    -7898    -7859    -7844 
   -7840    -7803    -7750    -7612    -7393    -7256    -7167    -7003 
   -6875    -6887    -7026    -7177    -7192    -7222    -7430    -7655 
   -7874    -8166    -8402    -8523    -8530    -8411    -8276    -8095 
   -7850    -7734    -7715    -7672    -7600    -7454    -7345    -7362 
   -7334    -7287    -7375    -7472    -7464    -7395    -7369    -7450 
   -7483    -7460    -7597    -7753    -7684    -7535    -7458    -7423 
   -7392    -7399    -7526    -7654    -7628    -7619    -7755    -7870 
   -7896    -7947    -8013    -8002    -7943    -7894    -7847    -7761 
   -7627    -7470    -7314    -7209    -7179    -7149    -7156    -7231 
   -7211    -7118    -7192    -7422    -7655    -7863    -8033    -8160 
   -8214    -8128    -7966    -7838    -7753    -7672    -7562    -7468 
   -7468    -7507    -7566    -7753    -7977    -8035    -7990    -7958 
   -7865    -7709    -7632    -7703    -7816    -7801    -7587    -7261 
   -6999    -6863    -6824    -6885    -6988    -6999    -6940    -6987 
   -7168    -7377    -7643    -7973    -8241    -8326    -8118    -7770 
   -7609    -7597    -7623    -7840    -8124    -8163    -8019    -7888 
   -7770    -7673    -7674    -7712    -7626    -7357    -7049    -6916 
   -7029    -7373    -7820    -8048    -7925    -7676    -7557    -7711 
   -8137    -8631    -8903    -8777    -8316    -7738    -7298    -7142 
   -7087    -6972    -6909    -6818    -6594    -6470    -6602    -6858 
   -7069    -7153    -7160    -7161    -7167    -7276    -7554    -7825 
   -7970    -8098    -8249    -8283    -8186    -8132    -8244    -8488 
   -8768    -9011    -9097    -8946    -8721    -8538    -8336    -8068 
   -7730    -7373    -7040    -6636    -6253    -6080    -5972    -5780 
   -5665    -5683    -5798    -6068    -6540    -7260    -8028    -8407 
   -8445    -8503    -8507    -8413    -8492    -8653    -8567    -8414 
   -8499    -8642    -8687    -8746    -8741    -8507    -8139    -7780 
   -7416    -7078    -6894    -6848    -6882    -6970    -6936    -6737 
   -6525    -6365    -6346    -6521    -6768    -7005    -7125    -7067 
   -7098    -7392    -7757    -8097    -8445    -8677    -8745    -8772 
   -8768    -8652    -8475    -8286    -8064    -7877    -7722    -7542 
   -7379    -7198    -7028    -7032    -7149    -7277    -7484    -7699 
   -7780    -7797    -7809    -7788    -7747    -7616    -7404    -7318 
   -7330    -7314    -7403    -7557    -7528    -7391    -7330    -7260 
   -7144    -7101    -7179    -7375    -7612    -7817    -7977    -8025 
   -7946    -7769    -7493    -7229    -7114    -7198    -7530    -7998 
   -8320    -8471    -8669    -8869    -8920    -8922    -8912    -8689 
   -8212    -7696    -7265    -6875    -6543    -6328    -6205    -6134 
   -6089    -6139    -6467    -6987    -7398    -7732    -8063    -8151 
   -8043    -8068    -8191    -8202    -8124    -8012    -7823    -7507 
   -7195    -7113    -7171    -7213    -7317    -7427    -7415    -7371 
   -7469    -7780    -8114    -8252    -8268    -8264    -8198    -8067 
   -7938    -7869    -7790    -7582    -7377    -7329    -7318    -7319 
   -7484    -7793    -8116    -8326    -8361    -8309    -8189    -7959 
   -7670    -7279    -6727    -6214    -5908    -5768    -5833    -6199 
   -6718    -7094    -7238    -7398    -7750    -8182    -8648    -9169 
   -9509    -9451    -9155    -8889    -8645    -8271    -7816    -7474 
   -7226    -6893    -6565    -6448    -6521    -6697    -6986    -7360 
   -7681    -7832    -7881    -7990    -8194    -8401    -8548    -8617 
   -8554    -8244    -7705    -7206    -6862    -6606    -6523    -6536 
   -6455    -6448    -6716    -7122    -7457    -7631    -7674    -7635 
   -7469    -7244    -7213    -7418    -7646    -7846    -8064    -8290 
   -8500    -8667    -8814    -8915    -8842    -8657    -8545    -8495 
   -8380    -8202    -8054    -7832    -7368    -6891    -6662    -6511 
   -6311    -6210    -6189    -6161    -6239    -6461    -6723    -7053 
   -7454    -7801    -8050    -8194    -8243    -8317    -8460    -8510 
   -8402    -8284    -8189    -7973    -7723    -7674    -7728    -7665 
   -7546    -7443    -7350    -7344    -7407    -7488    -7581    -7603 
   -7573    -7562    -7585    -7765    -7997    -7998    -7846    -7707 
   -7522    -7315    -7219    -7288    -7453    -7546    -7491    -7366 
   -7280    -7272    -7244    -7199    -7341    -7609    -7696    -7641 
   -7646    -7634    -7551    -7510    -7555    -7642    -7707    -7736 
   -7761    -7803    -7906    -8081    -8251    -8347    -8313    -8206 
   -8174    -8174    -8063    -7858    -7611    -7307    -6964    -6666 
   -6511    -6520    -6636    -6789    -6997    -7317    -7615    -7769 
   -7936    -8166    -8303    -8360    -8397    -8414    -8437    -8376 
   -8152    -7900    -7682    -7429    -7176    -7013    -6922    -6878 
   -6922    -7034    -7086    -7068    -7051    -6998    -6952    -7028 
   -7207    -7369    -7434    -7470    -7560    -7676    -7830    -8024 
   -8181    -8287    -8452    -8718    -8935    -8966    -8878    -8738 
   -8527    -8274    -8013    -7696    -7306    -6994    -6868    -6828 
   -6787    -6797    -6879    -6952    -6872    -6697    -6710    -6885 
   -6979    -7075    -7314    -7577    -7728    -7821    -7947    -8059 
   -8135    -8259    -8347    -8275    -8127    -7936    -7776    -7800 
   -7857    -7746    -7616    -7547    -7434    -7376    -7470    -7588 
   -7655    -7677    -7635    -7522    -7396    -7443    -7596    -7597 
   -7533    -7518    -7412    -7295    -7349    -7457    -7501    -7508 
   -7500    -7543    -7622    -7658    -7688    -7735    -7766    -7780 
   -7832    -7958    -8005    -7881    -7751    -7677    -7580    -7500 
   -7492    -7518    -7495    -7415    -7400    -7462    -7501    -7524 
   -7546    -7554    -7608    -7719    -7805    -7827    -7763    -7614 
   -7476    -7377    -7279    -7364    -7685    -7896    -7888    -7912 
   -7943    -7832    -7732    -7719    -7620    -7400    -7179    -7049 
   -7055    -7168    -7308    -7465    -7685    -7886    -8050    -8263 
   -8336    -8159    -7982    -7871    -7678    -7422    -7248    -7241 
   -7308    -7323    -7346    -7420    -7385    -7226    -7179    -7308 
   -7485    -7620    -7622    -7543    -7588    -7746    -7955    -8241 
   -8418    -8399    -8321    -8112    -7746    -7420    -7161    -6947 
   -6833    -6798    -6847    -7020    -7281    -7578    -7869    -8059 
   -8105    -8085    -8054    -7985    -7863    -7754    -7657    -7483 
   -7335    -7360    -7416    -7441    -7608    -7900    -8120    -8268 
   -8401    -8387    -8163    -7867    -7635    -7515    -7438    -7298 
   -7110    -6906    -6681    -6525    -6562    -6777    -7045    -7277 
   -7484    -7655    -7734    -7754    -7869    -8093    -8225    -8183 
   -8104    -8016    -7865    -7703    -7624    -7647    -7709    -7777 
   -7908    -8073    -8114    -8004    -7873    -7751    -7615    -7528 
   -7469    -7407    -7372    -7263    -7083    -7038    -7118    -7187 
   -7277    -7369    -7369    -7344    -7354    -7362    -7375    -7434 
   -7493    -7479    -7483    -7642    -7861    -7982    -8071    -8167 
   -8127    -8013    -8062    -8136    -8001    -7847    -7842    -7861 
   -7886    -7909    -7820    -7661    -7492    -7317    -7211    -7171 
   -7125    -7074    -7052    -7118    -7263    -7393    -7555    -7800 
   -7959    -7973    -7963    -7921    -7782    -7601    -7445    -7354 
   -7325    -7307    -7385    -7609    -7801    -7869    -7925    -7970 
   -7886    -7701    -7558    -7508    -7414    -7226    -7122    -7130 
