Origin Time       2025/03/28 03:50:00
Lat.              35.403
Long.             140.360
Depth. (km)       54
Mag.              4.4
Station Code      IBRH07
Station Lat.      35.9521
Station Long.     140.3301
Station Height(m) -1197
Record Time       2025/03/28 03:50:52
Sampling Freq(Hz) 100Hz
Duration Time(s)  120
Dir.              3
Scale Factor      7845(gal)/8223790
Max. Acc. (gal)   0.418
Last Correction   2025/03/28 03:50:52
Memo.             
[...]
    2430     2423     2427     2432     2428     2425     2428     2432 
    2431     2427     2430     2434     2430     2424     2428     2434 
    2430     2424     2428     2434     2430     2425     2430     2432 
    2427     2423     2430     2432     2425     2425     2432     2432 
    2424     2424     2431     2431     2424     2424     2431     2434 
    2425     2424     2430     2430     2425     2425     2431     2432 
    2424     2424     2432     2431     2424     2425     2431     2428 
    2424     2430     2432     2430     2427     2427     2430     2431 
    2425     2424     2432     2431     2425     2427     2431     2428 
    2424     2427     2432     2430     2423     2427     2434     2430 
    2427     2431     2435     2430     2424     2428     2432     2430 
    2424     2430     2435     2430     2425     2432     2436     2428 
    2421     2430     2435     2428     2423     2427     2431     2430 
    2425     2430     2434     2428     2424     2431     2434     2428 
    2425     2430     2432     2427     2423     2430     2435     2425 
    2423     2432     2432     2424     2425     2432     2432     2427 
    2425     2432     2435     2427     2424     2430     2434     2425 
    2420     2431     2436     2427     2424     2431     2431     2425 
    2425     2431     2434     2427     2423     2428     2432     2424 
    2421     2431     2432     2425     2427     2434     2432     2425 
    2424     2428     2430     2425     2425     2432     2434     2425 
    2425     2436     2434     2421     2424     2434     2432     2425 
    2430     2435     2430     2423     2427     2432     2428     2423 
    2424     2432     2431     2425     2428     2435     2432     2425 
    2428     2434     2431     2425     2431     2435     2430     2423 
    2428     2432     2424     2424     2434     2434     2424     2423 
    2428     2431     2427     2425     2431     2431     2424     2423 
    2428     2434     2427     2423     2432     2436     2425     2421 
    2430     2431     2425     2425     2431     2435     2431     2424 
    2428     2432     2424     2424     2432     2431     2427     2427 
    2430     2430     2424     2424     2431     2432     2428     2427 
    2431     2434     2428     2423     2427     2431     2425     2424 
    2431     2430     2423     2425     2432     2432     2427     2427 
    2434     2432     2421     2424     2434     2430     2424     2430 
    2432     2427     2424     2427     2428     2428     2425     2428 
    2434     2431     2424     2427     2432     2430     2425     2427 
    2434     2432     2424     2425     2432     2428     2423     2430 
    2435     2430     2423     2428     2432     2428     2425     2432 
    2435     2425     2421     2428     2435     2430     2427     2432 
    2432     2428     2427     2430     2430     2425     2425     2432 
    2434     2425     2424     2431     2434     2428     2427     2432 
    2430     2421     2427     2432     2430     2425     2428     2432 
    2431     2425     2428     2434     2430     2424     2427     2431 
    2431     2427     2428     2435     2430     2421     2428     2434 
    2427     2424     2430     2431     2427     2425     2431     2434 
    2428     2423     2430     2435     2430     2424     2430     2435 
    2427     2424     2431     2431     2425     2424     2431     2431 
    2423     2424     2431     2431     2428     2428     2432     2431 
    2424     2425     2432     2430     2424     2427     2432     2431 
    2424     2425     2432     2431     2425     2430     2434     2428 
    2424     2428     2432     2428     2424     2427     2431     2430 
    2423     2427     2434     2430     2421     2425     2432     2428 
    2423     2430     2435     2428     2424     2428     2434     2428 
    2425     2430     2432     2427     2424     2431     2434     2427 
    2424     2431     2435     2430     2425     2432     2435     2424 
    2423     2430     2430     2424     2427     2434     2431     2425 
    2428     2432     2427     2423     2427     2431     2428     2423 
    2425     2432     2431     2424     2427     2434     2431     2424 
    2428     2435     2430     2423     2425     2431     2431     2423 
    2424     2432     2430     2424     2430     2431     2425     2423 
    2428     2432     2425     2424     2431     2435     2428     2423 
    2425     2432     2428     2424     2430     2435     2427     2420 
    2428     2434     2425     2423     2430     2431     2424     2425 
    2435     2435     2425     2423     2430     2431     2425     2425 
    2430     2431     2425     2424     2431     2434     2428     2425 
    2432     2432     2424     2424     2430     2431     2427     2423 
    2430     2434     2427     2424     2431     2431     2423     2424 
    2434     2434     2425     2425     2434     2434     2424     2424 
    2432     2432     2425     2425     2431     2432     2425     2424 
    2432     2435     2425     2423     2434     2435     2424     2424 
    2432     2431     2424     2423     2425     2423     2415     2415 
    2417     2411     2400     2397     2401     2400     2398     2411 
    2416     2404     2398     2415     2432     2455     2498     2532 
    2524     2490     2444     2403     2403     2421     2404     2369 
    2358     2351     2367     2457     2524     2484     2454     2496 
    2500     2465     2471     2478     2396     2305     2328     2376 
    2396     2451     2479     2469     2469     2457     2458     2463 
    2438     2442     2427     2339     2296     2344     2421     2500 
    2554     2513     2412     2374     2417     2448     2431     2412 
    2404     2365     2342     2411     2513     2523     2424     2371 
    2436     2505     2500     2463     2431     2371     2338     2413 
    2452     2370     2354     2408     2455     2521     2494     2380 
    2323     2363     2450     2454     2421     2448     2450     2463 
    2466     2396     2420     2489     2447     2396     2393     2424 
    2463     2417     2373     2447     2479     2409     2461     2619 
    2647     2559     2470     2390     2373     2435     2473     2431 
    2411     2450     2466     2467     2430     2382     2459     2494 
    2339     2247     2295     2313     2340     2392     2386     2390 
    2401     2335     2288     2304     2336     2435     2511     2477 
    2459     2494     2531     2570     2573     2542     2505     2436 
    2378     2382     2396     2416     2505     2567     2478     2358 
    2384     2455     2401     2354     2392     2394     2394     2405 
    2377     2407     2465     2431     2397     2431     2451     2431 
    2353     2276     2297     2367     2451     2624     2745     2633 
    2479     2425     2397     2428     2389     2228     2235     2378 
    2434     2506     2606     2506     2338     2386     2462     2335 
    2278     2443     2520     2443     2416     2405     2404     2428 
    2373     2404     2574     2613     2531     2446     2359     2361 
    2407     2388     2389     2415     2338     2299     2443     2547 
    2515     2496     2475     2413     2380     2339     2222     2215 
    2440     2562     2421     2313     2324     2324     2331     2370 
    2421     2578     2755     2701     2596     2567     2371     2209 
    2358     2529     2559     2601     2648     2569     2417     2351 
    2332     2308     2374     2455     2398     2358     2442     2373 
    2158     2135     2266     2363     2440     2525     2644     2673 
    2459     2269     2362     2516     2544     2574     2563     2392 
    2278     2350     2430     2504     2574     2473     2289     2263 
    2311     2243     2110     2127     2355     2567     2670     2790 
    2814     2606     2378     2313     2309     2322     2389     2415 
    2421     2469     2475     2542     2718     2687     2398     2247 
    2358     2478     2493     2413     2338     2397     2462     2492 
    2598     2600     2366     2180     2227     2320     2377     2478 
    2425     2218     2227     2361     2417     2574     2722     2570 
    2377     2457     2521     2378     2312     2380     2439     2523 
    2565     2528     2547     2469     2268     2270     2355     2362 
    2451     2506     2474     2479     2461     2471     2524     2501 
    2420     2293     2242     2353     2373     2363     2523     2551 
    2412     2359     2389     2498     2551     2419     2293     2274 
    2340     2431     2427     2405     2438     2435     2415     2440 
    2442     2361     2353     2478     2465     2277     2305     2502 
    2508     2500     2635     2637     2497     2444     2442     2374 
    2390     2529     2575     2486     2373     2405     2589     2574 
    2328     2216     2258     2309     2370     2293     2131     2216 
    2442     2542     2575     2542     2365     2227     2316     2513 
    2579     2492     2455     2555     2671     2658     2496     2405 
    2428     2404     2385     2369     2347     2373     2343     2336 
    2424     2435     2419     2466     2482     2489     2525     2486 
    2384     2374     2409     2415     2467     2466     2384     2417 
    2488     2477     2477     2439     2347     2316     2363     2407 
    2363     2280     2262     2304     2307     2292     2373     2467 
    2527     2605     2585     2511     2538     2597     2617     2608 
    2524     2377     2293     2311     2370     2412     2434     2513 
    2562     2488     2454     2504     2586     2617     2450     2274 
    2276     2236     2226     2398     2408     2223     2247     2404 
    2408     2420     2539     2532     2466     2451     2382     2388 
    2438     2363     2349     2431     2420     2349     2308     2307 
    2367     2482     2586     2677     2728     2663     2546     2450 
    2390     2365     2324     2331     2430     2493     2478     2462 
    2469     2452     2424     2443     2400     2255     2232     2353 
    2411     2423     2482     2544     2594     2590     2423     2250 
    2276     2370     2393     2381     2404     2471     2465     2408 
    2423     2428     2394     2451     2527     2457     2382     2466 
    2550     2523     2512     2570     2559     2434     2374     2455 
    2485     2404     2369     2384     2366     2371     2417     2452 
    2517     2555     2479     2393     2354     2319     2307     2278 
    2223     2218     2238     2278     2405     2544     2575     2560 
    2556     2527     2517     2516     2494     2509     2435     2282 
    2332     2470     2417     2331     2344     2385     2457     2511 
    2467     2430     2461     2451     2359     2313     2358     2390 
    2380     2362     2369     2404     2444     2520     2559     2496 
    2436     2448     2490     2531     2531     2479     2425     2377 
    2340     2382     2479     2509     2458     2384     2300     2312 
    2432     2443     2370     2408     2467     2494     2556     2521 
    2386     2339     2355     2355     2347     2322     2344     2419 
    2452     2517     2655     2677     2559     2509     2492     2373 
    2281     2303     2359     2440     2459     2394     2435     2506 
    2401     2300     2332     2338     2340     2438     2478     2409 
    2411     2447     2400     2388     2466     2532     2528     2498 
    2529     2543     2428     2301     2296     2385     2467     2500 
    2523     2505     2417     2384     2394     2338     2316     2421 
    2494     2454     2369     2269     2266     2386     2485     2547 
    2538     2424     2404     2474     2459     2425     2419     2408 
    2451     2492     2436     2336     2308     2403     2484     2415 
    2343     2439     2520     2478     2528     2609     2506     2404 
    2411     2355     2332     2451     2478     2359     2328     2436 
    2512     2488     2443     2415     2390     2386     2398     2404 
    2425     2471     2440     2380     2444     2501     2439     2392 
    2382     2377     2384     2394     2474     2589     2570     2475 
    2482     2458     2351     2373     2436     2377     2315     2305 
    2317     2339     2369     2442     2501     2440     2353     2353 
    2366     2380     2436     2466     2474     2511     2538     2560 
    2587     2563     2497     2452     2401     2313     2303     2407 
    2417     2309     2297     2388     2471     2540     2563     2488 
    2388     2396     2473     2520     2533     2461     2327     2343 
    2465     2446     2367     2392     2446     2486     2542     2524 
    2424     2443     2543     2479     2358     2380     2434     2413 
    2389     2393     2420     2489     2544     2552     2567     2538 
    2401     2245     2161     2180     2232     2197     2143     2208 
    2313     2417     2551     2600     2559     2529     2463     2434 
    2538     2609     2554     2497     2512     2538     2529     2565 
    2621     2596     2536     2489     2425     2393     2362     2297 
    2300     2349     2286     2154     2100     2162     2296     2396 
    2392     2367     2389     2430     2462     2496     2558     2598 
    2517     2338     2243     2336     2462     2481     2458     2473 
    2511     2516     2573     2747     2855     2764     2601     2467 
    2362     2344     2420     2467     2486     2501     2362     2104 
    1991     2050     2169     2277     2301     2370     2583     2679 
    2535     2401     2421     2539     2664     2706     2646     2490 
    2300     2253     2403     2558     2582     2559     2527     2439 
    2354     2299     2205     2142     2196     2215     2143     2173 
    2331     2479     2570     2612     2621     2617     2578     2488 
    2436     2511     2536     2363     2228     2254     2309     2428 
    2592     2631     2573     2508     2431     2366     2374     2448 
    2481     2420     2378     2421     2458     2428     2376     2384 
    2451     2473     2443     2404     2343     2316     2354     2381 
    2381     2376     2336     2273     2285     2398     2462     2430 
    2409     2434     2533     2690     2760     2701     2586     2473 
    2438     2446     2369     2250     2204     2269     2365     2342 
    2301     2440     2609     2643     2602     2490     2313     2234 
    2335     2515     2633     2593     2455     2394     2382     2308 
    2266     2319     2335     2315     2358     2431     2498     2535 
    2497     2455     2475     2455     2359     2285     2253     2300 
    2461     2566     2543     2554     2598     2529     2355     2227 
    2241     2293     2262     2255     2365     2489     2589     2690 
    2774     2824     2790     2636     2440     2290     2212     2243 
    2331     2339     2258     2181     2203     2334     2459     2509 
    2490     2435     2430     2485     2511     2494     2475     2469 
    2440     2369     2332     2355     2370     2382     2401     2377 
    2366     2452     2563     2565     2492     2492     2544     2515 
    2421     2367     2396     2484     2582     2650     2641     2578 
    2524     2485     2423     2340     2274     2192     2100     2111 
    2197     2273     2359     2415     2428     2474     2513     2536 
    2606     2667     2678     2651     2533     2374     2317     2361 
    2428     2492     2498     2477     2496     2494     2423     2377 
    2407     2438     2446     2451     2398     2277     2207     2230 
    2250     2220     2207     2281     2386     2419     2412     2436 
    2467     2463     2443     2435     2390     2311     2305     2362 
    2393     2450     2539     2566     2554     2581     2632     2682 
    2677     2582     2543     2589     2531     2400     2359     2374 
    2389     2417     2425     2394     2340     2272     2191     2137 
    2195     2354     2465     2482     2513     2571     2586     2567 
    2574     2586     2586     2601     2606     2598     2551     2417 
    2281     2204     2153     2149     2161     2189     2280     2362 
    2367     2315     2289     2385     2556     2705     2779     2755 
    2677     2574     2474     2425     2376     2300     2281     2308 
    2354     2421     2417     2371     2404     2447     2467     2490 
    2454     2394     2381     2382     2346     2262     2241     2336 
    2440     2469     2434     2409     2425     2415     2405     2452 
    2488     2511     2547     2547     2531     2538     2525     2479 
    2407     2344     2338     2378     2404     2407     2434     2489 
    2540     2569     2517     2388     2284     2247     2273     2365 
    2479     2556     2571     2562     2571     2536     2430     2358 
    2367     2403     2423     2401     2397     2458     2473     2413 
    2362     2326     2307     2340     2407     2434     2412     2455 
    2544     2536     2446     2371     2350     2363     2349     2335 
    2397     2475     2477     2412     2357     2347     2377     2405 
    2413     2469     2554     2552     2508     2501     2496     2496 
    2512     2512     2482     2436     2405     2417     2471     2500 
    2432     2373     2411     2439     2434     2457     2482     2481 
    2455     2423     2417     2419     2413     2421     2389     2309 
    2277     2304     2332     2355     2386     2423     2432     2415 
    2421     2448     2420     2347     2330     2388     2428     2446 
    2459     2459     2506     2596     2625     2602     2533     2396 
    2327     2397     2475     2477     2427     2384     2353     2347 
    2381     2416     2458     2489     2459     2407     2381     2388 
    2398     2377     2370     2407     2452     2461     2416     2404 
    2463     2497     2492     2482     2461     2492     2569     2590 
    2543     2451     2342     2308     2355     2365     2331     2330 
    2344     2362     2378     2359     2366     2452     2521     2528 
    2535     2527     2474     2439     2459     2478     2455     2401 
    2347     2338     2381     2424     2436     2430     2398     2361 
    2363     2392     2420     2452     2451     2394     2339     2340 
    2382     2419     2450     2517     2574     2540     2490     2497 
    2501     2489     2485     2479     2493     2515     2501     2474 
    2434     2354     2284     2250     2228     2230     2257     2304 
    2370     2430     2474     2532     2573     2554     2521     2515 
    2532     2546     2517     2462     2432     2424     2405     2362 
    2312     2299     2322     2324     2301     2324     2389     2452 
    2488     2475     2467     2497     2506     2478     2459     2470 
    2467     2446     2434     2397     2330     2304     2335     2374 
    2394     2411     2454     2502     2500     2490     2524     2511 
    2423     2373     2373     2381     2407     2432     2430     2446 
    2479     2443     2377     2380     2408     2394     2365     2362 
    2386     2394     2390     2419     2466     2506     2519     2496 
    2489     2519     2527     2479     2432     2424     2408     2367 
    2346     2349     2377     2430     2457     2439     2430     2448 
    2494     2548     2540     2463     2417     2438     2431     2386 
