Origin Time       2025/03/28 03:50:00
Lat.              35.403
Long.             140.360
Depth. (km)       54
Mag.              4.4
Station Code      IBRH11
Station Lat.      36.3701
Station Long.     140.1401
Station Height(m) -36
Record Time       2025/03/28 03:51:10
Sampling Freq(Hz) 100Hz
Duration Time(s)  120
Dir.              2
Scale Factor      2942(gal)/8224139
Max. Acc. (gal)   0.181
Last Correction   2025/03/28 03:51:10
Memo.             
[...]
   94076    94062    94068    94092    94111    94119    94116    94112 
   94107    94070    94022    94005    94031    94080    94107    94099 
   94089    94074    94062    94078    94066    94030    94042    94080 
   94099    94113    94112    94077    94049    94053    94072    94090 
   94093    94086    94096    94100    94089    94086    94085    94068 
   94063    94073    94062    94049    94057    94069    94082    94088 
   94069    94039    94027    94049    94090    94099    94080    94096 
   94105    94065    94046    94051    94034    94046    94092    94093 
   94070    94058    94045    94066    94100    94086    94058    94057 
   94095    94135    94127    94103    94103    94104    94095    94084 
   94088    94093    94108    94115    94078    94062    94092    94069 
   94011    94012    94051    94068    94065    94078    94085    94074 
   94081    94076    94034    94020    94058    94090    94090    94078 
   94072    94089    94115    94080    94026    94038    94069    94080 
   94100    94100    94070    94057    94058    94063    94061    94058 
   94074    94081    94081    94107    94107    94093    94097    94055 
   94058    94142    94128    94107    94161    94096    93974    93993 
   94105    94113    94039    94065    94095    94062    94051    94020 
   94050    94147    94144    94072    94035    94059    94081    94078 
   94063    94001    94041    94132    94072    94073    94136    94061 
   94038    94057    94030    94085    94123    94100    94053    93984 
   94000    94020    94042    94130    94131    94085    94058    94034 
   94058    94100    94124    94109    94108    94135    94086    94062 
   94120    94135    94097    94078    94065    94054    94078    94134 
   94136    94062    94024    94055    94092    94101    94066    94018 
   94015    94078    94147    94159    94135    94096    94054    94016 
   94009    94084    94140    94085    94014    94008    94047    94082 
   94058    94015    94020    94039    94062    94080    94035    93999 
   94069    94124    94055    94032    94103    94089    94035    94051 
   94093    94127    94127    94100    94088    94095    94111    94131 
   94146    94120    94077    94097    94115    94068    94046    94069 
   94085    94058    94034    94068    94078    94090    94139    94085 
   93987    94011    94090    94089    94092    94150    94123    94043 
   94038    94074    94104    94095    94041    94012    94036    94036 
   93989    94005    94074    94078    94042    94042    94072    94099 
   94089    94022    93987    94066    94126    94103    94123    94136 
   94095    94115    94144    94073    93999    94020    94084    94085 
   94043    94062    94113    94093    94066    94078    94095    94139 
   94135    94054    94041    94101    94131    94135    94140    94112 
   94085    94126    94154    94117    94101    94096    94057    94034 
   94045    94050    94031    94004    94018    94065    94070    94035 
   93995    93982    94036    94068    94057    94092    94113    94103 
   94090    94039    94022    94088    94142    94138    94113    94116 
   94105    94063    94072    94105    94081    94050    94031    94020 
   94061    94082    94053    94065    94095    94093    94069    94049 
   94097    94140    94099    94084    94113    94099    94089    94134 
   94124    94032    93992    94008    94045    94088    94080    94072 
   94073    94012    93980    94024    94058    94059    94084    94124 
   94116    94092    94088    94065    94068    94130    94139    94066 
   94030    94063    94113    94124    94077    94034    94041    94032 
   94001    94034    94099    94100    94072    94086    94092    94061 
   94047    94035    94031    94093    94167    94176    94151    94127 
   94093    94078    94100    94109    94090    94078    94078    94061 
   94054    94082    94100    94093    94063    94000    93985    94054 
   94084    94034    93996    94020    94070    94093    94104    94113 
   94080    94047    94078    94119    94109    94069    94042    94061 
   94092    94078    94028    94023    94061    94095    94135    94143 
   94089    94058    94072    94074    94058    94039    94057    94116 
   94146    94100    94043    94068    94127    94113    94051    94024 
   94045    94050    94038    94059    94076    94074    94093    94104 
   94105    94109    94093    94076    94062    94054    94069    94089 
   94077    94049    94042    94053    94065    94063    94042    94061 
   94140    94180    94123    94034    93995    94016    94058    94084 
   94089    94073    94045    94063    94134    94150    94113    94108 
   94086    94059    94100    94119    94080    94065    94078    94081 
   94065    94053    94042    94032    94054    94073    94042    94038 
   94076    94082    94076    94080    94078    94092    94100    94111 
   94169    94211    94173    94113    94092    94073    94028    94001 
   94007    94012    94035    94053    94028    94035    94082    94077 
   94015    93980    94028    94093    94073    94061    94104    94090 
   94059    94084    94084    94082    94120    94116    94074    94086 
   94134    94116    94049    94024    94041    94042    94035    94047 
   94066    94109    94185    94189    94103    94059    94090    94116 
   94128    94132    94095    94039    94041    94076    94096    94096 
   94088    94084    94074    94089    94146    94138    94046    94000 
   94016    94032    94032    94015    94009    94028    94042    94066 
   94086    94065    94061    94086    94097    94112    94135    94130 
   94138    94159    94117    94051    94057    94113    94144    94111 
   94045    94014    94027    94028    94030    94062    94085    94103 
   94116    94085    94054    94045    94039    94061    94081    94069 
   94070    94109    94144    94134    94093    94050    94023    94031 
   94046    94059    94088    94093    94039    94008    94038    94043 
   94028    94049    94072    94096    94142    94180    94173    94099 
   94028    94028    94024    93988    94000    94057    94096    94108 
   94093    94072    94053    94031    94057    94112    94127    94112 
   94103    94095    94089    94103    94138    94162    94150    94112 
   94069    94035    94045    94093    94081    94005    93993    94036 
   94074    94101    94076    94049    94095    94116    94074    94068 
   94078    94057    94045    94054    94096    94146    94117    94076 
   94116    94162    94143    94063    93991    94009    94081    94126 
   94140    94109    94045    94031    94045    94026    94027    94051 
   94063    94062    94034    94038    94095    94104    94068    94042 
   94023    94031    94061    94086    94080    94045    94034    94051 
   94062    94070    94105    94157    94155    94123    94120    94112 
   94089    94085    94092    94105    94127    94138    94113    94089 
   94109    94130    94113    94088    94054    94018    94030    94065 
   94047    94004    93989    94000    94026    94050    94068    94078 
   94084    94112    94139    94116    94065    94028    94015    94026 
   94062    94076    94055    94050    94053    94030    94005    94011 
   94042    94047    94038    94073    94107    94099    94109    94139 
   94139    94124    94123    94140    94170    94173    94142    94122 
   94116    94127    94127    94081    94046    94050    94023    93992 
   94014    94050    94076    94082    94072    94088    94099    94065 
   94072    94119    94124    94095    94073    94046    94027    94042 
   94050    94034    94036    94038    94050    94085    94069    94045 
   94088    94108    94066    94039    94024    93992    94000    94065 
   94119    94135    94147    94142    94089    94057    94105    94157 
   94165    94151    94135    94117    94093    94090    94128    94153 
   94120    94081    94078    94081    94046    93973    93926    93973 
   94053    94066    94026    93966    93922    93955    94019    94053 
   94093    94100    94046    94045    94112    94165    94193    94188 
   94166    94161    94132    94057    93985    93996    94097    94171 
   94163    94128    94100    94081    94070    94066    94076    94104 
   94142    94154    94131    94095    94058    94059    94122    94177 
   94166    94113    94053    93993    93980    94001    94008    94001 
   93969    93923    93931    93966    93982    94000    94034    94078 
   94120    94136    94124    94107    94117    94120    94089    94081 
   94089    94085    94096    94103    94096    94111    94122    94101 
   94096    94104    94061    94016    94050    94099    94120    94123 
   94099    94073    94090    94117    94131    94128    94080    94042 
   94059    94041    94007    94009    93965    93931    94007    94089 
   94105    94128    94147    94126    94111    94130    94140    94120 
   94095    94078    94057    94035    94027    94041    94092    94135 
   94115    94074    94053    94020    93977    93973    94030    94085 
   94085    94085    94119    94119    94081    94088    94155    94217 
   94198    94157    94147    94111    94059    94057    94068    94073 
   94082    94072    94041    94012    93989    93995    94043    94050 
   94004    94012    94054    94026    93965    93964    94009    94012 
   93989    94027    94058    94057    94095    94134    94131    94131 
   94155    94190    94198    94162    94123    94108    94126    94140 
   94108    94077    94058    94027    94031    94051    94039    94065 
   94100    94063    94031    94058    94054    94026    94049    94105 
   94150    94154    94117    94097    94103    94092    94061    94016 
   93982    93993    93996    93978    94012    94063    94065    94055 
   94054    94055    94081    94128    94167    94194    94219    94204 
   94150    94123    94093    94020    93997    94028    94014    94005 
   94057    94088    94085    94072    94039    94020    94032    94058 
   94095    94111    94070    94035    94020    93961    93912    93924 
   93937    93949    93965    93980    94032    94076    94055    94024 
   94027    94081    94170    94225    94224    94221    94243    94242 
   94194    94147    94142    94143    94105    94063    94034    93987 
   93962    93993    94043    94112    94182    94190    94153    94149 
   94208    94274    94277    94255    94251    94225    94173    94124 
   94093    94066    94012    93926    93861    93846    93839    93846 
   93869    93838    93788    93796    93829    93877    93970    94054 
   94084    94113    94186    94286    94367    94401    94412    94394 
   94343    94319    94338    94329    94257    94165    94095    94027 
   93962    93918    93891    93900    93918    93915    93947    94027 
   94113    94186    94227    94243    94265    94277    94293    94321 
   94297    94236    94171    94063    93964    93910    93854    93816 
   93789    93733    93694    93730    93837    93958    94031    94066 
   94097    94105    94097    94113    94142    94159    94171    94166 
   94134    94092    94057    94015    93989    93999    94007    94028 
   94100    94143    94115    94123    94192    94201    94151    94126 
   94069    93972    93957    94018    94047    94004    93941    93938 
   93973    93965    93949    93987    94049    94128    94231    94274 
   94231    94223    94312    94404    94420    94356    94242    94146 
   94096    94035    93968    93934    93922    93907    93885    93900 
   93958    93981    93995    94096    94211    94243    94242    94259 
   94292    94289    94219    94139    94112    94090    94034    93977 
   93928    93874    93850    93912    94020    94086    94108    94105 
   94078    94068    94093    94109    94092    94084    94100    94081 
   94020    93985    93981    93977    93985    93977    93922    93884 
   93891    93897    93910    93962    94023    94042    94038    94090 
   94174    94185    94138    94111    94161    94277    94338    94293 
   94230    94163    94107    94107    94146    94161    94142    94116 
   94093    94112    94212    94275    94208    94100    94018    93953 
   93922    93951    94024    94078    94070    94020    93974    93920 
   93864    93868    93927    93982    94023    94042    94057    94101 
   94151    94185    94240    94297    94325    94331    94296    94246 
   94227    94178    94055    93949    93896    93842    93788    93764 
   93785    93872    93953    93980    94053    94128    94090    94054 
   94059    94014    94003    94101    94180    94190    94177    94143 
   94134    94154    94123    94066    94049    94066    94074    94051 
   94031    94038    94053    94049    94032    94051    94109    94155 
   94181    94230    94278    94273    94258    94286    94290    94255 
   94243    94223    94154    94095    94086    94081    94032    93945 
   93862    93856    93907    93892    93803    93727    93714    93799 
   93943    94027    94030    94027    94039    94051    94049    94043 
   94088    94170    94188    94150    94142    94163    94188    94234 
   94296    94289    94188    94112    94117    94132    94120    94093 
   94041    93988    93989    94022    94028    94003    93989    94034 
   94122    94186    94166    94089    94053    94085    94136    94120 
   94009    93942    94031    94171    94250    94255    94158    93985 
   93849    93814    93854    93885    93846    93744    93661    93704 
   93869    94032    94111    94158    94228    94302    94382    94490 
   94578    94581    94504    94389    94281    94232    94246    94225 
   94127    94045    94047    94096    94119    94132    94236    94385 
   94400    94289    94217    94198    94124    94042    94031    93996 
   93889    93791    93746    93780    93864    93900    93874    93846 
   93846    93881    93892    93884    93928    93989    93995    93947 
   93918    93945    93938    93854    93780    93761    93793    93860 
   93901    93943    94045    94138    94167    94162    94127    94111 
   94203    94343    94396    94340    94275    94252    94203    94146 
   94161    94203    94216    94212    94169    94088    94047    94097 
   94140    94113    94105    94132    94117    94063    94049    94082 
   94099    94097    94115    94095    94014    93973    94023    94086 
   94119    94139    94116    94045    94008    94018    94031    94059 
   94051    93976    93926    93961    94047    94090    94030    93946 
   93943    93992    94057    94165    94279    94346    94373    94356 
   94302    94275    94262    94184    94096    94050    93991    93928 
   93927    93933    93899    93880    93912    93955    93980    94016 
   94080    94134    94143    94131    94170    94239    94228    94165 
   94153    94181    94197    94178    94108    94031    93974    93896 
   93818    93804    93838    93857    93850    93865    93915    93981 
   94036    94055    94051    94070    94112    94117    94112    94185 
   94267    94274    94282    94333    94352    94323    94305    94305 
   94290    94273    94234    94144    94022    93903    93857    93901 
   93960    93987    94003    94045    94092    94081    94042    94066 
   94130    94135    94088    94078    94117    94169    94204    94196 
   94163    94140    94115    94057    93976    93912    93900    93908 
   93888    93833    93757    93695    93685    93758    93900    94027 
   94097    94128    94177    94285    94367    94369    94363    94347 
   94301    94290    94265    94144    94043    94068    94103    94055 
   93992    93924    93850    93868    93985    94078    94108    94119 
   94097    94036    94012    94051    94107    94177    94212    94159 
   94099    94055    94019    94059    94101    94072    94080    94105 
   94053    94011    94055    94092    94074    94062    94049    93984 
   93899    93864    93841    93806    93846    93937    93973    94005 
   94070    94104    94115    94142    94192    94250    94282    94269 
   94220    94174    94159    94157    94166    94189    94186    94169 
   94155    94105    94036    94026    94073    94085    94046    94058 
   94119    94135    94109    94078    94062    94082    94112    94130 
   94149    94171    94163    94095    94022    94018    94077    94109 
   94045    93951    93927    93973    94062    94136    94136    94109 
   94109    94115    94096    94073    94057    94065    94123    94149 
   94092    94057    94074    94070    94043    94049    94066    94043 
   93977    93895    93862    93914    94005    94068    94074    94069 
   94095    94135    94165    94186    94189    94163    94144    94170 
   94190    94134    94027    93957    93949    93961    93972    94011 
   94057    94061    94046    94019    93953    93919    93987    94072 
   94086    94089    94147    94185    94124    94041    94039    94099 
   94150    94163    94140    94111    94072    94015    93946    93879 
   93881    93938    93982    94050    94112    94072    94014    94045 
   94112    94162    94209    94232    94201    94174    94204    94239 
   94212    94181    94205    94197    94144    94135    94142    94140 
   94159    94163    94143    94090    94024    94016    94063    94084 
   94105    94169    94192    94159    94143    94117    94073    94081 
   94126    94124    94084    94050    94012    93961    93928    93885 
   93846    93869    93869    93835    93879    93945    93969    94014 
   94082    94149    94203    94198    94151    94097    94036    94043 
   94159    94235    94182    94107    94080    94059    94028    93999 
   93957    93912    93900    93904    93937    94003    94030    94011 
   94024    94101    94208    94279    94285    94278    94258    94194 
   94155    94143    94085    94034    94061    94126    94142    94092 
   94051    94069    94104    94123    94115    94068    94007    93961 
   93955    94000    94032    94023    94042    94080    94096    94144 
   94196    94138    94026    93955    93916    93897    93920    93974 
   94028    94085    94124    94117    94127    94194    94247    94265 
   94269    94232    94180    94153    94158    94189    94204    94170 
   94119    94093    94101    94107    94100    94105    94120    94116 
   94084    94038    93988    93939    93919    93942    93981    94016 
   94036    94032    94023    94047    94101    94138    94124    94085 
   94046    94014    93999    94004    94043    94128    94171    94142 
   94116    94080    94004    93981    94022    94016    93991    94018 
   94024    93960    93926    93973    94023    94050    94100    94130 
   94080    94015    94003    94058    94153    94178    94109    94074 
   94103    94120    94116    94122    94122    94111    94116    94134 
   94116    94092    94116    94155    94165    94136    94089    94069 
   94051    94043    94089    94111    94065    94024    93996    93970 
   93985    94035    94073    94076    94050    94047    94105    94200 
   94257    94258    94251    94234    94197    94203    94220    94197 
   94174    94161    94126    94095    94053    93965    93901    93907 
   93926    93937    93960    93985    93995    94020    94095    94135 
   94105    94103    94136    94143    94131    94085    94018    93987 
   93962    93931    93957    94008    94003    93960    93960    93993 
   93970    93930    93943    93934    93906    93953    94023    94026 
