Origin Time       2025/03/28 03:50:00
Lat.              35.403
Long.             140.360
Depth. (km)       54
Mag.              4.4
Station Code      IBRH07
Station Lat.      35.9521
Station Long.     140.3301
Station Height(m) 3
Record Time       2025/03/28 03:50:52
Sampling Freq(Hz) 100Hz
Duration Time(s)  120
Dir.              5
Scale Factor      7845(gal)/8223790
Max. Acc. (gal)   2.952
Last Correction   2025/03/28 03:50:52
Memo.             
[...]
    2447     2452     2447     2444     2451     2444     2444     2448 
    2447     2447     2447     2447     2448     2447     2446     2450 
    2454     2448     2447     2448     2443     2444     2446     2447 
    2452     2450     2450     2457     2457     2454     2450     2442 
    2440     2450     2451     2450     2450     2443     2442     2446 
    2448     2450     2446     2447     2452     2451     2452     2454 
    2451     2454     2458     2466     2466     2455     2459     2459 
    2448     2450     2459     2462     2466     2466     2458     2458 
    2462     2462     2458     2454     2461     2452     2442     2457 
    2463     2458     2466     2467     2459     2459     2463     2462 
    2467     2463     2454     2463     2459     2448     2458     2454 
    2455     2465     2457     2459     2461     2446     2448     2458 
    2461     2462     2461     2463     2462     2457     2467     2469 
    2462     2467     2461     2452     2457     2459     2465     2462 
    2454     2461     2463     2455     2461     2463     2458     2455 
    2448     2451     2458     2457     2457     2452     2451     2455 
    2457     2451     2446     2452     2462     2458     2452     2447 
    2442     2450     2459     2458     2459     2461     2448     2452 
    2469     2462     2458     2463     2454     2457     2457     2440 
    2454     2467     2458     2462     2459     2452     2458     2455 
    2455     2454     2448     2448     2452     2458     2458     2458 
    2465     2457     2447     2455     2459     2458     2452     2450 
    2454     2450     2444     2454     2452     2447     2455     2454 
    2452     2461     2459     2455     2452     2448     2451     2451 
    2451     2454     2452     2459     2465     2447     2438     2442 
    2416     2396     2419     2451     2493     2546     2562     2540 
    2500     2446     2400     2385     2397     2427     2450     2454 
    2451     2421     2377     2424     2516     2498     2462     2515 
    2536     2475     2431     2421     2405     2384     2417     2485 
    2485     2466     2505     2509     2465     2462     2501     2506 
    2424     2349     2365     2403     2423     2475     2554     2571 
    2505     2435     2398     2378     2403     2455     2463     2446 
    2463     2508     2508     2458     2486     2548     2494     2394 
    2388     2458     2504     2493     2446     2381     2397     2519 
    2581     2517     2452     2452     2455     2430     2401     2393 
    2411     2425     2427     2467     2508     2511     2533     2529 
    2462     2408     2371     2427     2551     2520     2397     2400 
    2438     2385     2342     2411     2527     2551     2502     2513 
    2536     2462     2357     2308     2344     2431     2479     2490 
    2462     2412     2436     2465     2384     2324     2430     2579 
    2554     2413     2374     2457     2496     2442     2420     2421 
    2388     2378     2398     2415     2427     2465     2521     2523 
    2458     2442     2500     2513     2493     2536     2543     2450 
    2416     2478     2466     2403     2432     2481     2432     2407 
    2484     2508     2432     2409     2474     2498     2450     2415 
    2423     2467     2531     2528     2444     2409     2462     2454 
    2378     2393     2446     2462     2550     2636     2593     2496 
    2401     2305     2285     2380     2412     2346     2382     2525 
    2613     2575     2479     2431     2435     2478     2538     2520 
    2419     2355     2367     2370     2370     2430     2505     2574 
    2552     2424     2416     2559     2600     2474     2367     2380 
    2388     2342     2344     2365     2346     2398     2523     2540 
    2482     2462     2417     2374     2420     2525     2616     2643 
    2651     2620     2482     2349     2363     2486     2567     2581 
    2548     2489     2513     2558     2463     2358     2351     2393 
    2524     2689     2677     2471     2284     2259     2335     2389 
    2425     2512     2655     2701     2524     2304     2220     2209 
    2200     2246     2394     2559     2608     2544     2462     2386 
    2338     2381     2547     2725     2728     2573     2428     2416 
    2494     2521     2555     2636     2594     2423     2272     2207 
    2232     2301     2327     2370     2548     2728     2733     2574 
    2359     2303     2388     2413     2479     2635     2609     2384 
    2223     2188     2222     2328     2438     2461     2400     2343 
    2392     2536     2612     2533     2428     2444     2566     2639 
    2575     2397     2181     2120     2281     2485     2578     2582 
    2556     2448     2327     2393     2577     2686     2682     2600 
    2438     2272     2280     2374     2401     2463     2536     2555 
    2620     2679     2636     2583     2532     2443     2398     2432 
    2509     2551     2457     2300     2224     2192     2174     2191 
    2185     2255     2484     2656     2654     2567     2457     2335 
    2223     2223     2447     2714     2754     2648     2554     2423 
    2262     2230     2385     2596     2697     2660     2635     2671 
    2624     2512     2436     2359     2343     2443     2569     2660 
    2647     2509     2369     2242     2174     2281     2417     2403 
    2370     2462     2520     2363     2195     2286     2488     2496 
    2409     2535     2803     2843     2660     2577     2590     2516 
    2421     2444     2520     2540     2500     2417     2328     2242 
    2118     2014     2030     2142     2307     2502     2583     2511 
    2442     2438     2539     2697     2722     2679     2706     2708 
    2605     2498     2481     2516     2532     2512     2532     2674 
    2859     2964     2936     2759     2528     2378     2281     2193 
    2199     2257     2284     2268     2116     1906     1910     2073 
    2191     2308     2434     2457     2363     2177     1998     1973 
    2131     2452     2812     2994     3001     2925     2768     2593 
    2494     2490     2512     2529     2552     2551     2498     2353 
    2182     2134     2208     2380     2575     2628     2593     2555 
    2436     2296     2255     2282     2309     2315     2331     2378 
    2430     2451     2439     2413     2443     2575     2690     2700 
    2706     2762     2767     2663     2516     2417     2359     2327 
    2349     2417     2535     2660     2652     2482     2299     2226 
    2265     2281     2245     2243     2242     2226     2255     2339 
    2463     2525     2489     2502     2598     2673     2664     2587 
    2592     2654     2614     2565     2586     2581     2508     2384 
    2276     2328     2501     2589     2578     2550     2484     2373 
    2316     2374     2462     2571     2740     2766     2551     2367 
    2398     2461     2396     2359     2428     2475     2509     2578 
    2574     2479     2420     2400     2373     2336     2323     2365 
    2390     2355     2311     2319     2397     2473     2494     2512 
    2559     2581     2547     2516     2478     2450     2525     2592 
    2506     2373     2246     2107     2062     2169     2316     2359 
    2376     2479     2548     2500     2415     2335     2253     2219 
    2255     2304     2349     2413     2471     2467     2416     2366 
    2336     2388     2556     2760     2878     2889     2826     2712 
    2621     2633     2698     2745     2779     2835     2845     2687 
    2462     2354     2326     2326     2392     2452     2462     2455 
    2408     2349     2343     2357     2373     2424     2488     2508 
    2496     2488     2484     2513     2608     2712     2748     2713 
    2644     2551     2450     2358     2265     2209     2214     2230 
    2228     2199     2207     2278     2305     2312     2358     2317 
    2193     2154     2251     2335     2319     2365     2475     2390 
    2191     2153     2253     2359     2420     2420     2442     2524 
    2542     2485     2470     2481     2523     2646     2801     2894 
    2845     2677     2505     2369     2257     2195     2153     2100 
    2119     2243     2346     2384     2459     2590     2660     2604 
    2513     2432     2363     2377     2440     2451     2431     2447 
    2509     2554     2571     2601     2637     2732     2910     3052 
    3080     3003     2817     2558     2334     2195     2119     2149 
    2293     2459     2567     2601     2648     2754     2809     2759 
    2704     2701     2709     2596     2312     2069     2016     2074 
    2161     2228     2278     2339     2413     2525     2620     2628 
    2589     2532     2482     2479     2540     2712     2921     2995 
    2932     2816     2664     2469     2266     2164     2170     2216 
    2290     2367     2434     2501     2508     2424     2311     2226 
    2146     2064     2034     2058     2077     2083     2072     2011 
    1946     1942     1969     2018     2114     2230     2366     2525 
    2660     2713     2673     2610     2643     2749     2821     2829 
    2759     2613     2457     2322     2223     2146     2046     1998 
    2053     2137     2239     2385     2521     2604     2670     2733 
    2754     2771     2880     3002     2998     2905     2755     2521 
    2250     2073     2146     2411     2621     2685     2632     2519 
    2497     2551     2575     2632     2698     2654     2548     2455 
    2404     2419     2427     2388     2349     2301     2219     2172 
    2222     2311     2382     2393     2323     2242     2215     2293 
    2516     2805     3057     3242     3315     3295     3249     3141 
    2932     2704     2486     2242     2031     1894     1779     1692 
    1641     1611     1613     1652     1740     1798     1784     1883 
    2135     2316     2369     2431     2516     2569     2671     2821 
    2874     2916     3114     3358     3484     3488     3439     3392 
    3316     3194     3114     3068     2949     2797     2652     2490 
    2323     2160     2066     2083     2085     2000     1902     1869 
    1919     2039     2212     2362     2385     2296     2199     2114 
    2050     2092     2269     2509     2698     2759     2754     2779 
    2814     2785     2701     2644     2650     2693     2743     2776 
    2824     2929     3045     3096     3052     3007     3068     3157 
    3177     3132     2937     2554     2150     1796     1370      938 
     737      757      762      711      773     1036     1406     1811 
    2281     2817     3376     3862     4129     4113     3948     3843 
    3813     3697     3427     3005     2405     1698     1100      826 
     896     1143     1399     1559     1586     1513     1390     1275 
    1201     1158     1231     1533     1941     2204     2232     2114 
    1993     1952     1991     2131     2425     2840     3213     3426 
    3477     3372     3137     2868     2681     2593     2614     2779 
    3019     3260     3473     3593     3607     3580     3523     3404 
    3196     2911     2551     2128     1752     1486     1293     1225 
    1324     1490     1644     1794     2058     2560     3163     3682 
    4113     4333     4240     4029     3870     3732     3566     3339 
    3033     2643     2228     1958     1975     2218     2458     2529 
    2438     2295     2184     2120     2091     2035     1880     1649 
    1445     1374     1499     1815     2216     2552     2770     2907 
    3038     3241     3493     3736     3912     3910     3709     3403 
    3142     3022     2889     2597     2197     1842     1701     1737 
    1733     1572     1229      765      417      406      770     1385 
    2056     2627     2943     2965     2910     3001     3221     3415 
    3446     3249     2901     2519     2184     1972     1853     1744 
    1660     1574     1422     1237     1116     1134     1317     1667 
    2050     2297     2408     2451     2455     2488     2601     2754 
    2830     2702     2346     1838     1285      872      824     1165 
    1684     2189     2558     2716     2701     2683     2867     3230 
    3655     4183     4737     5082     5131     4958     4653     4189 
    3597     3056     2668     2481     2432     2366     2295     2193 
    1883     1416     1090     1081     1289     1551     1795     1973 
    2056     2099     2258     2594     3003     3388     3597     3549 
    3358     3113     2905     2772     2627     2498     2385     2254 
    2211     2201     2124     2033     1972     1985     2095     2281 
    2515     2729     2870     2906     2878     2813     2635     2362 
    2164     2147     2311     2579     2852     3044     3153     3311 
    3603     3933     4193     4321     4199     3788     3203     2600 
    2141     1841     1560     1313     1139      978      878      939 
    1170     1489     1786     2043     2319     2570     2700     2718 
    2636     2397     2095     1964     1988     1954     1863     1806 
    1719     1536     1302     1101     1030     1108     1264     1444 
    1606     1795     2087     2405     2671     2894     3088     3258 
    3383     3439     3381     3148     2799     2427     2100     1885 
    1725     1561     1516     1625     1831     2153     2552     2961 
    3404     3888     4329     4668     4922     5152     5346     5390 
    5217     4860     4423     4024     3682     3361     3006     2536 
    1918     1144      290     -380     -637     -484      -83      368 
     777     1134     1404     1610     1819     2043     2251     2415 
    2467     2342     2062     1733     1440     1216     1093     1161 
    1455     1863     2255     2621     2948     3177     3319     3457 
    3607     3682     3585     3381     3242     3207     3183     3138 
    3096     3041     2965     2910     2928     3014     3061     2960 
    2712     2404     2130     1933     1804     1725     1671     1678 
    1807     2018     2223     2447     2755     3086     3322     3439 
    3464     3379     3190     2998     2862     2749     2628     2435 
    2180     2011     1957     1972     2019     2025     1991     1999 
    2089     2230     2351     2457     2531     2504     2362     2123 
    1850     1682     1688     1854     2157     2546     2972     3426 
    3827     4087     4198     4148     3993     3827     3626     3370 
    3071     2716     2369     2077     1810     1567     1383     1320 
    1370     1487     1630     1761     1937     2203     2486     2729 
    2871     2835     2605     2246     1902     1671     1563     1610 
    1799     1999     2079     2027     1934     1877     1871     1890 
    1887     1827     1744     1740     1849     1966     2054     2145 
    2192     2151     2011     1765     1561     1517     1571     1709 
    1921     2150     2371     2520     2602     2759     3018     3288 
    3523     3689     3758     3731     3607     3464     3389     3321 
    3231     3188     3160     3068     2926     2798     2682     2555 
    2474     2469     2457     2385     2300     2280     2361     2492 
    2674     2944     3253     3582     3905     4194     4537     4865 
    5024     5050     4930     4600     4106     3505     2909     2415 
    1975     1584     1368     1368     1458     1453     1377     1356 
    1394     1453     1525     1553     1503     1393     1279     1227 
    1227     1210     1120      962      820      758      743      758 
     842     1048     1351     1607     1764     1880     1989     2100 
    2208     2309     2405     2424     2336     2196     2052     1953 
    1907     1852     1804     1863     2060     2315     2529     2731 
    2922     3111     3338     3528     3628     3658     3619     3576 
    3573     3578     3550     3449     3299     3130     2945     2791 
    2698     2690     2774     2893     2972     2963     2886     2778 
    2659     2605     2660     2824     3088     3369     3527     3488 
    3289     3022     2785     2671     2725     2871     3026     3215 
    3433     3577     3588     3488     3346     3215     3122     3109 
    3140     3115     2995     2840     2712     2600     2478     2366 
    2235     2039     1773     1416     1062      866      804      842 
    1008     1262     1593     1999     2376     2623     2702     2660 
    2558     2374     2141     1923     1696     1449     1215     1015 
     881      816      799      819      908     1061     1200     1316 
    1447     1602     1776     1911     2022     2128     2162     2143 
    2110     2007     1871     1803     1860     2043     2269     2473 
    2697     2911     3014     3053     3065     3014     2992     3065 
    3133     3115     3034     2988     3032     3094     3140     3159 
    3094     3026     3034     3049     3053     3064     3056     3014 
    2937     2822     2677     2552     2525     2613     2756     2891 
    3025     3138     3199     3258     3325     3345     3321     3262 
    3206     3221     3258     3234     3163     3073     3034     3059 
    3100     3171     3260     3388     3524     3592     3592     3516 
    3383     3180     2847     2458     2110     1861     1752     1740 
    1833     1981     2083     2177     2254     2236     2135     1966 
    1775     1564     1287      977      685      436      260      125 
       0      -75      -95      -36      171      517      926     1374 
    1842     2250     2498     2566     2538     2490     2466     2509 
    2579     2633     2704     2766     2760     2714     2710     2748 
    2782     2822     2839     2820     2802     2795     2867     3026 
    3262     3576     3863     4078     4207     4237     4187     4075 
    3959     3842     3658     3434     3186     2922     2739     2667 
    2666     2733     2860     3009     3137     3176     3115     3010 
    2874     2732     2623     2546     2471     2388     2262     2080 
    1877     1672     1506     1441     1441     1476     1567     1714 
    1872     1985     2095     2211     2281     2323     2316     2261 
    2193     2135     2131     2141     2146     2150     2093     1976 
    1858     1771     1671     1610     1668     1776     1871     1887 
    1809     1694     1568     1532     1620     1788     2045     2313 
    2506     2613     2662     2718     2799     2837     2820     2778 
    2668     2478     2301     2199     2131     2091     2131     2224 
    2353     2559     2779     2974     3194     3373     3424     3400 
    3319     3141     2960     2830     2710     2604     2506     2420 
    2336     2278     2354     2519     2729     2994     3199     3345 
    3437     3427     3368     3283     3190     3119     3069     3034 
    2975     2876     2759     2624     2485     2385     2396     2498 
    2632     2767     2878     2992     3075     3052     3009     2998 
    2979     2955     2926     2866     2763     2620     2479     2385 
    2349     2380     2415     2425     2443     2376     2226     2100 
    2010     1984     1998     1979     1958     1929     1877     1861 
    1863     1861     1853     1799     1722     1653     1553     1417 
    1248     1085     1000     1001     1073     1205     1350     1475 
    1580     1648     1672     1691     1763     1861     1938     2003 
