Origin Time       2025/03/28 03:50:00
Lat.              35.403
Long.             140.360
Depth. (km)       54
Mag.              4.4
Station Code      IBRH20
Station Lat.      35.8284
Station Long.     140.7323
Station Height(m) -916.83
Record Time       2025/03/28 03:51:01
Sampling Freq(Hz) 100Hz
Duration Time(s)  120
Dir.              2
Scale Factor      2942(gal)/8224139
Max. Acc. (gal)   0.497
Last Correction   2025/03/28 03:51:02
Memo.             
[...]
  -79320   -79323   -79317   -79319   -79323   -79319   -79315   -79317 
  -79320   -79323   -79323   -79319   -79317   -79319   -79321   -79321 
  -79319   -79320   -79321   -79320   -79320   -79319   -79317   -79317 
  -79323   -79323   -79319   -79317   -79319   -79317   -79319   -79321 
  -79317   -79319   -79320   -79317   -79317   -79320   -79320   -79316 
  -79316   -79323   -79323   -79320   -79321   -79320   -79319   -79321 
  -79320   -79317   -79319   -79321   -79320   -79316   -79320   -79324 
  -79320   -79316   -79317   -79319   -79319   -79319   -79321   -79320 
  -79315   -79317   -79321   -79319   -79320   -79321   -79320   -79320 
  -79319   -79319   -79320   -79320   -79321   -79321   -79320   -79321 
  -79320   -79317   -79320   -79321   -79320   -79321   -79324   -79324 
  -79320   -79320   -79320   -79320   -79321   -79320   -79321   -79324 
  -79323   -79320   -79323   -79324   -79323   -79324   -79323   -79321 
  -79323   -79323   -79321   -79321   -79319   -79319   -79319   -79317 
  -79320   -79323   -79319   -79320   -79323   -79320   -79317   -79319 
  -79320   -79321   -79321   -79317   -79316   -79320   -79323   -79319 
  -79316   -79320   -79321   -79320   -79319   -79317   -79320   -79320 
  -79317   -79319   -79319   -79319   -79319   -79317   -79317   -79319 
  -79316   -79315   -79319   -79323   -79319   -79313   -79313   -79316 
  -79316   -79315   -79315   -79316   -79315   -79315   -79317   -79316 
  -79312   -79312   -79315   -79315   -79312   -79312   -79313   -79312 
  -79312   -79313   -79313   -79312   -79311   -79312   -79316   -79317 
  -79316   -79312   -79315   -79316   -79313   -79312   -79315   -79313 
  -79315   -79315   -79311   -79315   -79319   -79312   -79312   -79315 
  -79311   -79312   -79313   -79313   -79313   -79316   -79315   -79313 
  -79315   -79315   -79313   -79313   -79315   -79317   -79315   -79311 
  -79315   -79317   -79312   -79308   -79315   -79319   -79315   -79315 
  -79317   -79316   -79317   -79319   -79319   -79316   -79313   -79316 
  -79319   -79316   -79313   -79316   -79319   -79317   -79313   -79313 
  -79319   -79320   -79316   -79317   -79321   -79319   -79315   -79319 
  -79319   -79315   -79320   -79321   -79316   -79316   -79320   -79321 
  -79320   -79317   -79319   -79316   -79316   -79321   -79323   -79320 
  -79319   -79319   -79320   -79323   -79320   -79316   -79317   -79320 
  -79319   -79316   -79316   -79319   -79315   -79316   -79320   -79316 
  -79316   -79320   -79316   -79315   -79319   -79317   -79316   -79319 
  -79320   -79317   -79315   -79316   -79319   -79317   -79316   -79319 
  -79319   -79315   -79315   -79319   -79319   -79319   -79316   -79315 
  -79317   -79317   -79316   -79316   -79317   -79319   -79320   -79315 
  -79313   -79319   -79319   -79315   -79316   -79319   -79317   -79319 
  -79317   -79316   -79315   -79316   -79316   -79315   -79313   -79316 
  -79316   -79313   -79315   -79317   -79315   -79312   -79317   -79319 
  -79313   -79315   -79316   -79312   -79312   -79315   -79315   -79317 
  -79319   -79315   -79315   -79315   -79313   -79313   -79312   -79315 
  -79315   -79313   -79316   -79315   -79311   -79315   -79319   -79316 
  -79316   -79315   -79315   -79316   -79315   -79317   -79319   -79316 
  -79317   -79319   -79319   -79317   -79313   -79317   -79320   -79315 
  -79315   -79317   -79313   -79315   -79317   -79317   -79317   -79315 
  -79315   -79316   -79315   -79315   -79315   -79316   -79316   -79316 
  -79315   -79313   -79319   -79320   -79317   -79319   -79319   -79316 
  -79317   -79316   -79313   -79317   -79320   -79320   -79319   -79317 
  -79313   -79312   -79316   -79317   -79317   -79317   -79315   -79311 
  -79315   -79316   -79312   -79316   -79320   -79319   -79317   -79317 
  -79319   -79319   -79317   -79316   -79315   -79316   -79320   -79319 
  -79315   -79317   -79321   -79317   -79315   -79319   -79320   -79317 
  -79320   -79323   -79320   -79319   -79320   -79319   -79319   -79320 
  -79321   -79320   -79320   -79320   -79320   -79320   -79321   -79321 
  -79323   -79326   -79323   -79319   -79319   -79321   -79321   -79317 
  -79319   -79320   -79319   -79317   -79317   -79323   -79326   -79320 
  -79319   -79320   -79320   -79320   -79319   -79320   -79321   -79319 
  -79319   -79320   -79320   -79324   -79324   -79320   -79319   -79320 
  -79324   -79321   -79320   -79321   -79319   -79320   -79323   -79321 
  -79321   -79324   -79324   -79320   -79315   -79319   -79321   -79317 
  -79321   -79326   -79321   -79323   -79324   -79326   -79330   -79335 
  -79336   -79338   -79340   -79342   -79342   -79342   -79338   -79336 
  -79332   -79330   -79335   -79334   -79331   -79334   -79338   -79340 
  -79340   -79331   -79315   -79299   -79292   -79296   -79297   -79296 
  -79299   -79304   -79312   -79320   -79319   -79315   -79312   -79315 
  -79319   -79312   -79296   -79280   -79278   -79305   -79338   -79353 
  -79357   -79350   -79324   -79299   -79282   -79276   -79277   -79285 
  -79313   -79350   -79350   -79320   -79308   -79319   -79343   -79374 
  -79362   -79286   -79222   -79211   -79238   -79289   -79354   -79402 
  -79408   -79381   -79365   -79371   -79365   -79327   -79311   -79321 
  -79297   -79274   -79332   -79413   -79438   -79411   -79362   -79316 
  -79280   -79230   -79186   -79191   -79207   -79218   -79274   -79338 
  -79335   -79317   -79350   -79348   -79254   -79178   -79207   -79240 
  -79239   -79288   -79393   -79470   -79485   -79443   -79393   -79380 
  -79380   -79361   -79320   -79281   -79297   -79348   -79357   -79319 
  -79282   -79240   -79224   -79266   -79313   -79366   -79434   -79425 
  -79355   -79355   -79405   -79405   -79370   -79339   -79277   -79231 
  -79316   -79438   -79436   -79355   -79276   -79213   -79215   -79259 
  -79251   -79204   -79223   -79331   -79432   -79439   -79355   -79251 
  -79211   -79245   -79277   -79272   -79255   -79263   -79311   -79367 
  -79413   -79419   -79353   -79303   -79350   -79392   -79371   -79338 
  -79296   -79251   -79222   -79203   -79223   -79317   -79401   -79393 
  -79354   -79378   -79423   -79404   -79389   -79401   -79354   -79312 
  -79342   -79330   -79257   -79253   -79334   -79355   -79286   -79257 
  -79270   -79259   -79263   -79265   -79223   -79228   -79282   -79284 
  -79245   -79222   -79273   -79401   -79440   -79358   -79328   -79367 
  -79375   -79346   -79309   -79307   -79358   -79394   -79357   -79293 
  -79272   -79281   -79292   -79281   -79282   -79312   -79332   -79353 
  -79354   -79313   -79334   -79359   -79284   -79262   -79320   -79316 
  -79354   -79485   -79510   -79412   -79319   -79259   -79263   -79308 
  -79312   -79316   -79336   -79316   -79304   -79317   -79292   -79270 
  -79289   -79311   -79339   -79400   -79463   -79482   -79425   -79311 
  -79232   -79207   -79155   -79147   -79251   -79358   -79402   -79436 
  -79401   -79263   -79186   -79247   -79301   -79307   -79350   -79371 
  -79300   -79249   -79304   -79402   -79459   -79420   -79324   -79300 
  -79328   -79286   -79231   -79266   -79344   -79371   -79303   -79222 
  -79242   -79288   -79245   -79218   -79335   -79471   -79461   -79347 
  -79304   -79386   -79454   -79416   -79373   -79384   -79378   -79326 
  -79286   -79263   -79227   -79236   -79304   -79359   -79419   -79481 
  -79432   -79273   -79155   -79197   -79332   -79384   -79351   -79340 
  -79340   -79343   -79365   -79354   -79319   -79330   -79334   -79227 
  -79078   -79068   -79200   -79319   -79370   -79411   -79416   -79331 
  -79209   -79145   -79155   -79227   -79362   -79489   -79477   -79336 
  -79226   -79240   -79301   -79347   -79421   -79461   -79392   -79334 
  -79377   -79452   -79475   -79421   -79347   -79301   -79272   -79286 
  -79348   -79331   -79232   -79193   -79251   -79284   -79207   -79153 
  -79254   -79385   -79421   -79447   -79469   -79384   -79272   -79269 
  -79362   -79419   -79357   -79277   -79284   -79316   -79307   -79278 
  -79328   -79450   -79451   -79280   -79128   -79172   -79374   -79475 
  -79339   -79209   -79290   -79400   -79374   -79336   -79339   -79308 
  -79317   -79377   -79370   -79365   -79439   -79474   -79436   -79366 
  -79274   -79211   -79227   -79269   -79224   -79146   -79246   -79390 
  -79305   -79176   -79208   -79261   -79294   -79377   -79438   -79448 
  -79455   -79446   -79398   -79316   -79272   -79338   -79380   -79301 
  -79284   -79386   -79415   -79350   -79324   -79338   -79371   -79421 
  -79421   -79367   -79327   -79321   -79297   -79209   -79155   -79232 
  -79292   -79219   -79138   -79130   -79158   -79209   -79281   -79335 
  -79358   -79382   -79382   -79312   -79317   -79469   -79508   -79359 
  -79249   -79205   -79207   -79307   -79394   -79398   -79413   -79431 
  -79375   -79285   -79250   -79253   -79193   -79095   -79147   -79366 
  -79497   -79456   -79428   -79463   -79462   -79438   -79458   -79481 
  -79504   -79535   -79429   -79205   -79115   -79168   -79200   -79250 
  -79344   -79393   -79401   -79413   -79419   -79396   -79367   -79363 
  -79338   -79294   -79257   -79168   -79116   -79191   -79267   -79288 
  -79243   -79131   -79081   -79120   -79153   -79207   -79299   -79348 
  -79369   -79427   -79462   -79448   -79498   -79555   -79508   -79479 
  -79529   -79569   -79570   -79527   -79451   -79382   -79305   -79201 
  -79076   -78995   -79031   -79170   -79340   -79401   -79297   -79200 
  -79200   -79242   -79317   -79429   -79540   -79581   -79531   -79452 
  -79380   -79327   -79281   -79211   -79141   -79078   -79029   -79096 
  -79281   -79420   -79451   -79420   -79409   -79450   -79408   -79234 
  -79112   -79197   -79412   -79558   -79528   -79371   -79224   -79155 
  -79142   -79182   -79251   -79294   -79311   -79293   -79274   -79316 
  -79382   -79405   -79358   -79267   -79209   -79223   -79300   -79374 
  -79393   -79401   -79436   -79493   -79587   -79668   -79648   -79506 
  -79313   -79204   -79228   -79288   -79315   -79309   -79278   -79226 
  -79149   -79123   -79222   -79324   -79290   -79204   -79155   -79110 
  -79087   -79147   -79277   -79381   -79394   -79407   -79424   -79384 
  -79381   -79429   -79439   -79474   -79515   -79452   -79367   -79373 
  -79404   -79378   -79300   -79211   -79168   -79205   -79266   -79267 
  -79278   -79380   -79466   -79447   -79381   -79304   -79249   -79280 
  -79393   -79475   -79471   -79474   -79455   -79308   -79142   -79080 
  -79065   -79053   -79089   -79181   -79249   -79246   -79286   -79428 
  -79508   -79424   -79301   -79245   -79205   -79146   -79135   -79227 
  -79338   -79377   -79369   -79378   -79394   -79367   -79309   -79297 
  -79374   -79431   -79384   -79344   -79369   -79363   -79334   -79347 
  -79417   -79528   -79575   -79496   -79396   -79335   -79277   -79200 
  -79111   -79087   -79201   -79347   -79396   -79378   -79362   -79371 
  -79405   -79405   -79370   -79380   -79444   -79508   -79517   -79417 
  -79250   -79142   -79118   -79114   -79153   -79274   -79382   -79366 
  -79282   -79222   -79147   -79051   -79038   -79116   -79185   -79265 
  -79394   -79458   -79405   -79355   -79363   -79424   -79520   -79577 
  -79554   -79478   -79388   -79340   -79373   -79405   -79353   -79276 
  -79243   -79245   -79293   -79362   -79380   -79367   -79367   -79371 
  -79390   -79421   -79415   -79342   -79278   -79274   -79280   -79280 
  -79297   -79301   -79255   -79188   -79126   -79085   -79101   -79130 
  -79145   -79238   -79367   -79390   -79334   -79296   -79307   -79350 
  -79390   -79434   -79500   -79523   -79467   -79367   -79257   -79218 
  -79294   -79353   -79319   -79300   -79334   -79332   -79284   -79247 
  -79266   -79328   -79365   -79326   -79243   -79197   -79191   -79230 
  -79373   -79559   -79647   -79627   -79554   -79469   -79425   -79428 
  -79434   -79425   -79380   -79285   -79195   -79147   -79139   -79192 
  -79299   -79334   -79242   -79132   -79119   -79201   -79300   -79358 
  -79397   -79439   -79444   -79407   -79355   -79262   -79146   -79122 
  -79157   -79115   -79066   -79119   -79213   -79257   -79213   -79141 
  -79126   -79135   -79122   -79124   -79161   -79203   -79230   -79231 
  -79208   -79184   -79170   -79177   -79231   -79296   -79355   -79475 
  -79637   -79731   -79718   -79602   -79421   -79258   -79115   -78945 
  -78811   -78765   -78765   -78831   -79034   -79270   -79375   -79431 
  -79547   -79623   -79598   -79540   -79494   -79482   -79508   -79536 
  -79571   -79685   -79880   -80028   -80055   -80023   -79979   -79955 
  -79967   -79910   -79744   -79574   -79443   -79330   -79232   -79141 
  -79114   -79226   -79366   -79432   -79509   -79647   -79774   -79837 
  -79785   -79618   -79394   -79164   -78985   -78871   -78773   -78636 
  -78447   -78289   -78200   -78150   -78214   -78452   -78750   -79014 
  -79243   -79452   -79652   -79803   -79806   -79664   -79469   -79263 
  -79110   -79108   -79227   -79381   -79585   -79855   -80165   -80485 
  -80705   -80704   -80520   -80262   -79967   -79618   -79246   -78969 
  -78807   -78651   -78524   -78522   -78590   -78609   -78619   -78691 
  -78754   -78749   -78722   -78706   -78696   -78713   -78786   -78908 
  -79087   -79355   -79635   -79786   -79766   -79633   -79489   -79316 
  -79078   -78922   -78999   -79249   -79500   -79678   -79859   -80092 
  -80260   -80258   -80153   -80033   -79861   -79574   -79238   -78980 
  -78864   -78898   -79039   -79208   -79394   -79668   -79990   -80183 
  -80123   -79841   -79436   -78981   -78530   -78150   -77932   -77955 
  -78213   -78574   -78889   -79145   -79323   -79338   -79231   -79166 
  -79219   -79398   -79682   -79955   -80099   -80060   -79834   -79566 
  -79425   -79378   -79299   -79219   -79204   -79201   -79213   -79343 
  -79517   -79512   -79338   -79213   -79205   -79239   -79289   -79371 
  -79482   -79593   -79652   -79635   -79559   -79425   -79249   -79127 
  -79104   -79078   -79034   -79110   -79273   -79297   -79146   -79018 
  -79000   -79010   -79000   -79003   -79051   -79174   -79413   -79706 
  -79888   -79942   -80034   -80195   -80280   -80206   -79995   -79755 
  -79593   -79462   -79301   -79115   -78887   -78646   -78526   -78610 
  -78806   -78965   -79087   -79216   -79263   -79184   -79083   -79002 
  -78943   -78961   -79027   -79078   -79197   -79450   -79701   -79810 
  -79785   -79694   -79616   -79620   -79679   -79716   -79709   -79668 
  -79590   -79461   -79301   -79180   -79138   -79116   -78972   -78688 
  -78494   -78549   -78798   -79185   -79631   -79928   -79976   -79880 
  -79712   -79465   -79168   -78904   -78764   -78737   -78772   -78852 
  -78976   -79158   -79362   -79463   -79385   -79209   -79099   -79151 
  -79323   -79438   -79384   -79281   -79323   -79489   -79582   -79523 
  -79444   -79448   -79483   -79473   -79404   -79334   -79354   -79443 
  -79517   -79571   -79623   -79652   -79610   -79448   -79213   -79051 
  -79099   -79342   -79586   -79666   -79620   -79587   -79648   -79766 
  -79803   -79683   -79537   -79528   -79574   -79473   -79216   -78992 
  -78896   -78853   -78827   -78907   -79127   -79371   -79501   -79481 
  -79397   -79331   -79258   -79130   -78962   -78844   -78875   -79041 
  -79207   -79258   -79173   -79045   -78992   -79029   -79149   -79361 
  -79547   -79614   -79656   -79726   -79731   -79641   -79551   -79516 
  -79462   -79346   -79280   -79334   -79409   -79451   -79501   -79531 
  -79510   -79483   -79412   -79249   -79083   -78980   -78895   -78841 
  -78864   -78941   -79037   -79139   -79216   -79238   -79200   -79127 
  -79024   -78848   -78641   -78556   -78622   -78715   -78802   -78945 
  -79146   -79315   -79404   -79473   -79579   -79708   -79785   -79775 
  -79735   -79717   -79720   -79712   -79672   -79591   -79509   -79515 
  -79612   -79683   -79698   -79731   -79812   -79876   -79851   -79731 
  -79605   -79577   -79639   -79689   -79659   -79591   -79558   -79546 
  -79488   -79370   -79265   -79227   -79207   -79080   -78814   -78540 
  -78372   -78332   -78421   -78628   -78899   -79141   -79259   -79263 
  -79226   -79203   -79219   -79249   -79240   -79189   -79157   -79193 
  -79274   -79366   -79463   -79567   -79677   -79740   -79705   -79639 
  -79631   -79674   -79708   -79683   -79600   -79478   -79347   -79263 
  -79274   -79338   -79335   -79215   -79053   -78941   -78915   -78995 
  -79130   -79205   -79176   -79112   -79099   -79169   -79338   -79575 
  -79780   -79863   -79814   -79694   -79597   -79573   -79582   -79578 
  -79544   -79490   -79420   -79338   -79277   -79269   -79270   -79223 
  -79127   -79026   -78958   -78962   -79033   -79095   -79112   -79111 
  -79074   -78991   -78914   -78888   -78929   -79004   -79047   -79049 
  -79046   -79064   -79137   -79266   -79390   -79489   -79604   -79714 
  -79747   -79706   -79654   -79583   -79496   -79439   -79411   -79397 
  -79411   -79408   -79335   -79235   -79188   -79222   -79304   -79384 
  -79456   -79552   -79659   -79744   -79789   -79772   -79686   -79519 
  -79282   -79054   -78914   -78868   -78871   -78938   -79120   -79370 
  -79596   -79775   -79921   -80006   -79991   -79894   -79771   -79645 
  -79501   -79290   -79030   -78808   -78687   -78660   -78692   -78714 
  -78733   -78823   -78960   -79029   -79019   -79019   -79068   -79141 
  -79235   -79350   -79462   -79575   -79682   -79725   -79698   -79652 
  -79581   -79466   -79370   -79348   -79361   -79343   -79274   -79166 
  -79034   -78906   -78850   -78895   -78966   -79027   -79110   -79220 
  -79338   -79424   -79446   -79427   -79425   -79463   -79555   -79690 
  -79805   -79878   -79909   -79864   -79747   -79624   -79544   -79483 
  -79420   -79386   -79394   -79400   -79374   -79331   -79267   -79188 
  -79139   -79147   -79173   -79181   -79165   -79130   -79110   -79108 
  -79119   -79158   -79238   -79290   -79239   -79120   -79042   -79051 
  -79107   -79170   -79239   -79303   -79309   -79253   -79204   -79218 
  -79272   -79330   -79390   -79452   -79528   -79627   -79718   -79768 
  -79770   -79693   -79524   -79324   -79157   -79037   -78942   -78894 
  -78899   -78916   -78934   -78983   -79062   -79134   -79174   -79177 
  -79174   -79222   -79316   -79407   -79470   -79516   -79548   -79555 
  -79555   -79562   -79564   -79536   -79488   -79466   -79465   -79447 
  -79431   -79435   -79423   -79353   -79230   -79137   -79139   -79200 
  -79251   -79276   -79288   -79300   -79293   -79259   -79227   -79209 
  -79196   -79178   -79153   -79139   -79174   -79280   -79450   -79648 
  -79848   -80022   -80113   -80094   -80005   -79878   -79716   -79520 
  -79316   -79135   -78995   -78896   -78840   -78834   -78884   -78961 
  -79037   -79096   -79139   -79172   -79188   -79184   -79153   -79110 
  -79077   -79054   -79038   -79050   -79105   -79189   -79263   -79316 
  -79369   -79434   -79502   -79544   -79535   -79512   -79525   -79567 
  -79577   -79524   -79436   -79342   -79269   -79240   -79253   -79278 
  -79300   -79309   -79297   -79278   -79239   -79151   -79046   -78979 
  -78943   -78925   -78941   -78980   -79002   -78999   -79010   -79078 
  -79197   -79307   -79357   -79362   -79367   -79374   -79388   -79432 
  -79483   -79500   -79505   -79528   -79546   -79542   -79537   -79547 
  -79563   -79587   -79612   -79637   -79679   -79731   -79775   -79812 
