Origin Time       2025/03/28 03:50:00
Lat.              35.403
Long.             140.360
Depth. (km)       54
Mag.              4.4
Station Code      IBRH20
Station Lat.      35.8284
Station Long.     140.7323
Station Height(m) 5.7
Record Time       2025/03/28 03:51:01
Sampling Freq(Hz) 100Hz
Duration Time(s)  120
Dir.              4
Scale Factor      7845(gal)/8223790
Max. Acc. (gal)   2.412
Last Correction   2025/03/28 03:51:02
Memo.             
[...]
   -8640    -8642    -8657    -8661    -8660    -8657    -8653    -8656 
   -8658    -8662    -8657    -8645    -8652    -8656    -8648    -8646 
   -8642    -8646    -8656    -8656    -8646    -8640    -8649    -8657 
   -8657    -8658    -8648    -8641    -8649    -8652    -8658    -8662 
   -8654    -8654    -8657    -8654    -8652    -8650    -8654    -8652 
   -8650    -8654    -8650    -8652    -8662    -8667    -8654    -8635 
   -8638    -8660    -8668    -8658    -8646    -8642    -8648    -8657 
   -8671    -8664    -8648    -8656    -8661    -8660    -8660    -8649 
   -8648    -8656    -8652    -8649    -8648    -8644    -8652    -8664 
   -8660    -8645    -8641    -8653    -8660    -8661    -8650    -8634 
   -8642    -8653    -8650    -8650    -8644    -8642    -8657    -8665 
   -8658    -8649    -8648    -8657    -8658    -8658    -8653    -8646 
   -8653    -8658    -8658    -8656    -8648    -8645    -8648    -8654 
   -8652    -8646    -8653    -8654    -8652    -8654    -8653    -8654 
   -8656    -8661    -8661    -8646    -8650    -8662    -8661    -8662 
   -8654    -8641    -8644    -8650    -8652    -8649    -8646    -8656 
   -8654    -8649    -8649    -8641    -8640    -8650    -8652    -8641 
   -8629    -8637    -8649    -8648    -8645    -8645    -8645    -8650 
   -8654    -8653    -8646    -8649    -8649    -8644    -8649    -8641 
   -8637    -8654    -8660    -8653    -8652    -8649    -8653    -8657 
   -8654    -8644    -8631    -8638    -8649    -8661    -8662    -8652 
   -8648    -8654    -8657    -8646    -8645    -8661    -8657    -8650 
   -8652    -8642    -8644    -8653    -8656    -8657    -8649    -8642 
   -8654    -8667    -8662    -8646    -8642    -8649    -8658    -8661 
   -8648    -8646    -8661    -8657    -8656    -8661    -8652    -8654 
   -8665    -8665    -8661    -8652    -8656    -8665    -8661    -8662 
   -8654    -8644    -8656    -8665    -8664    -8657    -8646    -8652 
   -8658    -8660    -8662    -8644    -8630    -8646    -8658    -8653 
   -8642    -8633    -8641    -8650    -8648    -8642    -8638    -8637 
   -8642    -8652    -8648    -8646    -8652    -8649    -8648    -8648 
   -8644    -8653    -8657    -8653    -8652    -8649    -8646    -8649 
   -8657    -8653    -8641    -8645    -8644    -8645    -8656    -8649 
   -8642    -8653    -8657    -8653    -8648    -8652    -8660    -8661 
   -8665    -8660    -8656    -8661    -8665    -8671    -8665    -8656 
   -8658    -8653    -8650    -8658    -8648    -8644    -8658    -8661 
   -8657    -8654    -8649    -8652    -8654    -8654    -8652    -8649 
   -8650    -8653    -8658    -8656    -8649    -8658    -8664    -8665 
   -8669    -8657    -8654    -8660    -8665    -8673    -8662    -8645 
   -8652    -8657    -8658    -8661    -8652    -8649    -8656    -8658 
   -8660    -8652    -8644    -8649    -8656    -8665    -8661    -8644 
   -8641    -8652    -8660    -8656    -8646    -8648    -8654    -8654 
   -8653    -8648    -8642    -8652    -8662    -8658    -8652    -8654 
   -8658    -8665    -8669    -8657    -8648    -8645    -8645    -8650 
   -8644    -8634    -8641    -8649    -8656    -8662    -8653    -8650 
   -8658    -8657    -8658    -8657    -8649    -8644    -8644    -8645 
   -8640    -8637    -8649    -8658    -8656    -8645    -8646    -8656 
   -8653    -8657    -8658    -8646    -8644    -8650    -8656    -8656 
   -8649    -8649    -8652    -8652    -8652    -8645    -8641    -8646 
   -8646    -8646    -8640    -8637    -8650    -8658    -8653    -8648 
   -8648    -8653    -8657    -8653    -8646    -8641    -8640    -8644 
   -8645    -8640    -8640    -8648    -8657    -8667    -8654    -8641 
   -8650    -8660    -8658    -8652    -8645    -8646    -8644    -8644 
   -8649    -8640    -8640    -8660    -8665    -8654    -8648    -8648 
   -8646    -8646    -8654    -8653    -8648    -8649    -8650    -8648 
   -8645    -8645    -8650    -8653    -8649    -8637    -8637    -8648 
   -8648    -8642    -8638    -8630    -8635    -8654    -8662    -8653 
   -8649    -8657    -8661    -8662    -8652    -8638    -8644    -8654 
   -8662    -8671    -8661    -8650    -8653    -8669    -8679    -8657 
   -8630    -8629    -8640    -8650    -8645    -8630    -8637    -8650 
   -8660    -8662    -8653    -8654    -8661    -8660    -8652    -8642 
   -8633    -8622    -8635    -8656    -8662    -8667    -8664    -8660 
   -8671    -8671    -8653    -8644    -8642    -8650    -8672    -8683 
   -8675    -8679    -8696    -8689    -8668    -8649    -8625    -8617 
   -8619    -8598    -8599    -8638    -8648    -8641    -8664    -8688 
   -8700    -8711    -8702    -8650    -8610    -8621    -8653    -8667 
   -8640    -8623    -8672    -8715    -8711    -8712    -8706    -8676 
   -8665    -8662    -8640    -8604    -8572    -8576    -8607    -8617 
   -8625    -8672    -8712    -8703    -8671    -8657    -8664    -8672 
   -8673    -8662    -8638    -8611    -8602    -8635    -8702    -8731 
   -8691    -8664    -8665    -8606    -8513    -8486    -8525    -8595 
   -8677    -8741    -8783    -8792    -8768    -8743    -8712    -8658 
   -8625    -8604    -8575    -8561    -8573    -8608    -8665    -8726 
   -8757    -8723    -8664    -8629    -8594    -8537    -8478    -8457 
   -8502    -8576    -8633    -8677    -8716    -8739    -8770    -8819 
   -8820    -8731    -8621    -8599    -8630    -8615    -8587    -8604 
   -8649    -8712    -8769    -8789    -8796    -8769    -8681    -8592 
   -8544    -8479    -8395    -8391    -8500    -8660    -8800    -8874 
   -8864    -8827    -8812    -8761    -8660    -8571    -8500    -8464 
   -8492    -8565    -8648    -8719    -8773    -8784    -8704    -8579 
   -8546    -8641    -8710    -8661    -8603    -8631    -8695    -8698 
   -8611    -8541    -8576    -8621    -8610    -8618    -8650    -8683 
   -8715    -8695    -8634    -8606    -8621    -8698    -8802    -8810 
   -8748    -8684    -8573    -8488    -8532    -8642    -8756    -8823 
   -8804    -8760    -8734    -8708    -8683    -8673    -8698    -8676 
   -8525    -8405    -8471    -8614    -8698    -8677    -8598    -8564 
   -8599    -8672    -8746    -8762    -8734    -8675    -8591    -8559 
   -8586    -8595    -8571    -8526    -8509    -8583    -8706    -8784 
   -8796    -8765    -8718    -8668    -8615    -8588    -8600    -8631 
   -8668    -8687    -8634    -8538    -8486    -8510    -8577    -8595 
   -8575    -8667    -8812    -8862    -8849    -8764    -8610    -8541 
   -8594    -8680    -8793    -8892    -8868    -8721    -8573    -8537 
   -8619    -8698    -8619    -8437    -8399    -8554    -8677    -8662 
   -8614    -8602    -8635    -8731    -8781    -8656    -8502    -8509 
   -8615    -8739    -8838    -8835    -8746    -8683    -8704    -8765 
   -8731    -8584    -8514    -8611    -8727    -8769    -8754    -8671 
   -8526    -8418    -8413    -8463    -8494    -8546    -8726    -8942 
   -8974    -8853    -8754    -8675    -8584    -8556    -8573    -8549 
   -8459    -8411    -8525    -8700    -8746    -8645    -8552    -8595 
   -8760    -8934    -9020    -8985    -8851    -8714    -8681    -8722 
   -8662    -8540    -8517    -8510    -8425    -8397    -8473    -8542 
   -8564    -8595    -8657    -8723    -8773    -8797    -8761    -8672 
   -8602    -8576    -8557    -8530    -8519    -8564    -8634    -8644 
   -8602    -8596    -8637    -8708    -8824    -8904    -8850    -8727 
   -8671    -8702    -8750    -8807    -8872    -8851    -8745    -8660 
   -8580    -8464    -8387    -8421    -8544    -8668    -8714    -8648 
   -8554    -8592    -8750    -8827    -8729    -8569    -8510    -8546 
   -8557    -8523    -8525    -8610    -8737    -8788    -8741    -8704 
   -8683    -8602    -8549    -8625    -8739    -8761    -8694    -8615 
   -8563    -8553    -8635    -8769    -8796    -8704    -8626    -8573 
   -8519    -8505    -8514    -8540    -8619    -8733    -8822    -8822 
   -8704    -8584    -8580    -8627    -8623    -8638    -8715    -8764 
   -8791    -8811    -8749    -8691    -8731    -8765    -8762    -8761 
   -8742    -8752    -8816    -8849    -8802    -8725    -8637    -8514 
   -8395    -8329    -8302    -8336    -8471    -8621    -8668    -8652 
   -8649    -8675    -8680    -8640    -8614    -8610    -8580    -8572 
   -8615    -8635    -8569    -8506    -8565    -8704    -8847    -8953 
   -8996    -9005    -8995    -8928    -8785    -8592    -8441    -8372 
   -8334    -8322    -8368    -8414    -8395    -8401    -8546    -8730 
   -8799    -8788    -8787    -8826    -8868    -8838    -8733    -8640 
   -8653    -8779    -8912    -8941    -8807    -8563    -8379    -8355 
   -8446    -8608    -8784    -8872    -8795    -8587    -8463    -8546 
   -8660    -8654    -8630    -8671    -8708    -8650    -8556    -8592 
   -8725    -8796    -8788    -8729    -8615    -8487    -8430    -8484 
   -8584    -8665    -8712    -8721    -8707    -8738    -8789    -8783 
   -8715    -8604    -8523    -8554    -8603    -8568    -8521    -8541 
   -8594    -8680    -8847    -8992    -8958    -8803    -8665    -8525 
   -8392    -8421    -8586    -8657    -8577    -8522    -8598    -8699 
   -8748    -8830    -8926    -8891    -8734    -8564    -8438    -8361 
   -8287    -8229    -8298    -8469    -8579    -8648    -8776    -8874 
   -8883    -8889    -8927    -8896    -8772    -8689    -8680    -8661 
   -8641    -8652    -8611    -8480    -8410    -8532    -8721    -8834 
   -8896    -8915    -8866    -8791    -8748    -8748    -8723    -8623 
   -8567    -8630    -8675    -8618    -8548    -8500    -8452    -8421 
   -8409    -8410    -8484    -8634    -8752    -8810    -8823    -8758 
   -8668    -8580    -8455    -8424    -8618    -8839    -8865    -8781 
   -8745    -8743    -8711    -8634    -8550    -8522    -8518    -8500 
   -8527    -8561    -8529    -8548    -8692    -8830    -8841    -8734 
   -8596    -8483    -8403    -8417    -8549    -8711    -8856    -9001 
   -9065    -8951    -8758    -8676    -8714    -8735    -8708    -8676 
   -8675    -8704    -8691    -8629    -8591    -8561    -8549    -8568 
   -8540    -8455    -8383    -8387    -8515    -8657    -8653    -8587 
   -8595    -8619    -8623    -8603    -8542    -8492    -8536    -8683 
   -8827    -8865    -8841    -8830    -8823    -8783    -8741    -8772 
   -8860    -8899    -8835    -8671    -8472    -8383    -8413    -8436 
   -8455    -8511    -8548    -8571    -8637    -8694    -8654    -8530 
   -8463    -8568    -8750    -8835    -8812    -8745    -8633    -8498 
   -8426    -8459    -8584    -8795    -8991    -9016    -8905    -8816 
   -8804    -8838    -8829    -8710    -8573    -8515    -8503    -8471 
   -8422    -8418    -8484    -8571    -8607    -8584    -8563    -8579 
   -8630    -8726    -8873    -9058    -9182    -9143    -9009    -8905 
   -8806    -8644    -8437    -8260    -8170    -8176    -8284    -8449 
   -8559    -8591    -8621    -8681    -8741    -8752    -8738    -8735 
   -8706    -8662    -8700    -8781    -8753    -8602    -8488    -8484 
   -8532    -8634    -8808    -8958    -9005    -8985    -8974    -8993 
   -8964    -8831    -8626    -8399    -8245    -8252    -8345    -8402 
   -8410    -8421    -8468    -8542    -8623    -8689    -8704    -8646 
   -8583    -8638    -8758    -8749    -8607    -8510    -8534    -8630 
   -8722    -8749    -8752    -8795    -8845    -8839    -8742    -8559 
   -8419    -8430    -8523    -8604    -8618    -8584    -8611    -8752 
   -8907    -8942    -8839    -8696    -8623    -8627    -8617    -8544 
   -8478    -8463    -8464    -8461    -8480    -8526    -8606    -8729 
   -8870    -9011    -9107    -9058    -8861    -8634    -8491    -8422 
   -8392    -8445    -8545    -8630    -8738    -8822    -8816    -8810 
   -8834    -8803    -8683    -8537    -8461    -8480    -8527    -8557 
   -8559    -8513    -8473    -8507    -8549    -8580    -8657    -8708 
   -8687    -8696    -8770    -8835    -8853    -8849    -8861    -8872 
   -8850    -8824    -8823    -8799    -8711    -8587    -8505    -8509 
   -8599    -8752    -8915    -9046    -9097    -9011    -8827    -8638 
   -8452    -8324    -8355    -8514    -8696    -8835    -8910    -8945 
   -8977    -9004    -8991    -8910    -8822    -8816    -8889    -8966 
   -9000    -8989    -8942    -8870    -8756    -8596    -8422    -8221 
   -7982    -7832    -7873    -8000    -8110    -8218    -8321    -8401 
   -8457    -8472    -8424    -8291    -8124    -8048    -8086    -8168 
   -8279    -8452    -8661    -8826    -8934    -9003    -9024    -9053 
   -9144    -9251    -9277    -9194    -9072    -8954    -8838    -8695 
   -8519    -8397    -8428    -8598    -8776    -8849    -8784    -8583 
   -8326    -8155    -8070    -7992    -7920    -7905    -7993    -8239 
   -8640    -9082    -9416    -9524    -9405    -9189    -8989    -8816 
   -8633    -8391    -8127    -8027    -8190    -8484    -8762    -8992 
   -9204    -9402    -9466    -9281    -8926    -8561    -8240    -7938 
   -7734    -7797    -8144    -8591    -8950    -9154    -9186    -9035 
   -8683    -8174    -7668    -7303    -7119    -7163    -7415    -7754 
   -8159    -8676    -9252    -9748   -10011   -10014    -9863    -9648 
   -9410    -9192    -9040    -9013    -9112    -9242    -9227    -8928 
   -8422    -7944    -7658    -7550    -7543    -7591    -7711    -8009 
   -8552    -9204    -9732   -10030   -10157   -10210   -10189    -9976 
   -9455    -8652    -7744    -6961    -6435    -6165    -6123    -6339 
   -6897    -7836    -9019   -10130   -10883   -11153   -10970   -10466 
   -9864    -9371    -9027    -8722    -8411    -8189    -8106    -8081 
   -8040    -8032    -8113    -8291    -8576    -8934    -9228    -9367 
   -9423    -9460    -9451    -9398    -9317    -9181    -8985    -8762 
   -8538    -8345    -8202    -8064    -7816    -7461    -7194    -7111 
   -7169    -7406    -7878    -8498    -9109    -9560    -9724    -9598 
   -9317    -9030    -8766    -8495    -8284    -8213    -8199    -8114 
   -7973    -7915    -8070    -8421    -8796    -9018    -9022    -8881 
   -8752    -8706    -8687    -8638    -8573    -8544    -8568    -8596 
   -8623    -8710    -8857    -9019    -9157    -9192    -9088    -9012 
   -9120    -9285    -9297    -9167    -9047    -8964    -8869    -8816 
   -8819    -8721    -8415    -8052    -7835    -7813    -7939    -8144 
   -8360    -8544    -8685    -8830    -9028    -9175    -9107    -8864 
   -8658    -8565    -8594    -8829    -9202    -9396    -9224    -8872 
   -8583    -8391    -8279    -8303    -8482    -8746    -8988    -9166 
   -9329    -9464    -9418    -9058    -8451    -7850    -7523    -7547 
   -7782    -8059    -8325    -8560    -8719    -8735    -8557    -8289 
   -8122    -8154    -8383    -8680    -8823    -8748    -8607    -8522 
   -8480    -8473    -8540    -8671    -8799    -8830    -8741    -8634 
   -8579    -8538    -8525    -8607    -8800    -9080    -9375    -9547 
   -9467    -9185    -8924    -8765    -8557    -8218    -7870    -7708 
   -7800    -8066    -8446    -8880    -9220    -9409    -9526    -9582 
   -9498    -9290    -9077    -8939    -8870    -8769    -8586    -8391 
   -8251    -8182    -8202    -8283    -8344    -8356    -8397    -8529 
   -8706    -8820    -8810    -8665    -8442    -8249    -8202    -8309 
   -8446    -8495    -8467    -8469    -8576    -8703    -8688    -8527 
   -8399    -8418    -8541    -8653    -8685    -8695    -8784    -8958 
   -9144    -9238    -9139    -8861    -8553    -8340    -8210    -8128 
   -8141    -8268    -8425    -8540    -8627    -8738    -8846    -8872 
   -8822    -8729    -8575    -8409    -8287    -8209    -8226    -8391 
   -8650    -8950    -9275    -9558    -9705    -9724    -9671    -9589 
   -9517    -9460    -9382    -9254    -9047    -8711    -8249    -7805 
   -7507    -7358    -7357    -7495    -7692    -7871    -8025    -8120 
   -8105    -8055    -8137    -8445    -8937    -9444    -9738    -9706 
   -9436    -9077    -8699    -8349    -8100    -8008    -8077    -8272 
   -8542    -8770    -8865    -8888    -8968    -9136    -9309    -9350 
   -9227    -9067    -9015    -9051    -9019    -8812    -8482    -8213 
   -8125    -8097    -7982    -7813    -7701    -7703    -7803    -7943 
   -8086    -8221    -8352    -8476    -8592    -8716    -8807    -8791 
   -8681    -8608    -8696    -8937    -9213    -9421    -9467    -9336 
   -9167    -9105    -9138    -9119    -9012    -8962    -9013    -9049 
   -9018    -8945    -8806    -8618    -8459    -8338    -8222    -8077 
   -7919    -7877    -8024    -8303    -8700    -9196    -9657    -9944 
   -9981    -9832    -9628    -9391    -9062    -8667    -8303    -8016 
   -7803    -7732    -7879    -8166    -8457    -8704    -8901    -9020 
   -9022    -8920    -8818    -8804    -8849    -8824    -8635    -8336 
   -8070    -7921    -7886    -7920    -7978    -8060    -8174    -8291 
   -8432    -8650    -8911    -9089    -9144    -9165    -9196    -9159 
   -8992    -8733    -8433    -8172    -8079    -8136    -8194    -8226 
   -8272    -8313    -8298    -8230    -8182    -8203    -8294    -8465 
   -8726    -9008    -9212    -9297    -9310    -9273    -9190    -9124 
   -9063    -8939    -8761    -8611    -8596    -8730    -8907    -9027 
   -9055    -9016    -8946    -8865    -8791    -8677    -8455    -8160 
   -7901    -7727    -7642    -7672    -7846    -8121    -8421    -8739 
   -9066    -9315    -9448    -9482    -9390    -9173    -8919    -8692 
   -8498    -8376    -8407    -8611    -8937    -9286    -9524    -9555 
   -9393    -9109    -8765    -8433    -8162    -7923    -7690    -7500 
   -7393    -7403    -7527    -7747    -8056    -8415    -8734    -8954 
   -9088    -9154    -9186    -9227    -9255    -9244    -9242    -9288 
   -9358    -9427    -9444    -9364    -9192    -8958    -8743    -8584 
   -8430    -8299    -8275    -8351    -8446    -8490    -8483    -8476 
   -8494    -8552    -8629    -8649    -8537    -8297    -8041    -7852 
   -7719    -7641    -7649    -7769    -7978    -8201    -8406    -8633 
   -8892    -9143    -9359    -9541    -9671    -9744    -9761    -9695 
   -9562    -9423    -9289    -9167    -9055    -8903    -8660    -8360 
   -8125    -8029    -8039    -8117    -8241    -8364    -8476    -8563 
   -8579    -8514    -8402    -8307    -8262    -8251    -8301    -8438 
   -8600    -8708    -8742    -8738    -8758    -8822    -8877    -8862 
   -8766    -8611    -8415    -8209    -8056    -8004    -8048    -8193 
   -8437    -8756    -9100    -9377    -9516    -9536    -9486    -9370 
   -9142    -8811    -8463    -8185    -8039    -8059    -8224    -8461 
   -8710    -8920    -9067    -9142    -9151    -9128    -9096    -9035 
   -8934    -8824    -8723    -8638    -8610    -8610    -8534    -8359 
   -8149    -8008    -7992    -8081    -8233    -8438    -8669    -8865 
   -8984    -9015    -8945    -8785    -8618    -8500    -8429    -8401 
   -8418    -8480    -8537    -8572    -8633    -8735    -8857    -9004 
   -9165    -9277    -9335    -9356    -9342    -9298    -9204    -9032 
   -8833    -8656    -8494    -8340    -8210    -8149    -8141    -8141 
   -8145    -8137    -8124    -8162    -8232    -8284    -8333    -8417 
   -8548    -8692    -8799    -8843    -8872    -8942    -8991    -8923 
