Origin Time       2025/03/28 03:50:00
Lat.              35.403
Long.             140.360
Depth. (km)       54
Mag.              4.4
Station Code      IBRH20
Station Lat.      35.8284
Station Long.     140.7323
Station Height(m) 5.7
Record Time       2025/03/28 03:51:01
Sampling Freq(Hz) 100Hz
Duration Time(s)  120
Dir.              5
Scale Factor      7845(gal)/8223790
Max. Acc. (gal)   1.879
Last Correction   2025/03/28 03:51:02
Memo.             
[...]
   -1073    -1074    -1077    -1080    -1081    -1080    -1082    -1082 
   -1080    -1085    -1088    -1082    -1080    -1080    -1084    -1084 
   -1080    -1082    -1078    -1074    -1080    -1081    -1080    -1086 
   -1089    -1085    -1085    -1088    -1082    -1077    -1078    -1080 
   -1078    -1074    -1067    -1074    -1089    -1088    -1077    -1077 
   -1082    -1081    -1080    -1082    -1080    -1078    -1085    -1085 
   -1081    -1080    -1081    -1086    -1086    -1082    -1081    -1075 
   -1071    -1073    -1075    -1081    -1081    -1074    -1074    -1080 
   -1080    -1077    -1084    -1081    -1070    -1075    -1081    -1075 
   -1078    -1080    -1073    -1081    -1089    -1080    -1077    -1090 
   -1090    -1082    -1084    -1085    -1085    -1089    -1089    -1081 
   -1074    -1080    -1085    -1077    -1073    -1082    -1085    -1078 
   -1073    -1074    -1077    -1075    -1081    -1085    -1078    -1077 
   -1080    -1077    -1082    -1089    -1085    -1086    -1089    -1084 
   -1085    -1090    -1085    -1080    -1085    -1092    -1089    -1086 
   -1089    -1085    -1082    -1090    -1089    -1077    -1075    -1081 
   -1077    -1075    -1077    -1073    -1067    -1073    -1078    -1077 
   -1075    -1081    -1086    -1084    -1081    -1089    -1101    -1101 
   -1098    -1093    -1088    -1092    -1092    -1084    -1081    -1082 
   -1077    -1075    -1071    -1067    -1074    -1075    -1070    -1073 
   -1080    -1082    -1078    -1073    -1073    -1080    -1086    -1086 
   -1081    -1084    -1090    -1086    -1085    -1090    -1092    -1097 
   -1098    -1090    -1090    -1093    -1086    -1085    -1088    -1078 
   -1069    -1070    -1074    -1075    -1075    -1085    -1084    -1071 
   -1080    -1084    -1073    -1075    -1078    -1071    -1078    -1086 
   -1089    -1086    -1080    -1084    -1093    -1096    -1097    -1092 
   -1084    -1078    -1082    -1088    -1088    -1093    -1097    -1085 
   -1077    -1084    -1084    -1075    -1075    -1080    -1074    -1075 
   -1081    -1071    -1069    -1074    -1074    -1084    -1096    -1088 
   -1078    -1084    -1088    -1088    -1088    -1084    -1081    -1080 
   -1080    -1084    -1080    -1082    -1098    -1101    -1089    -1082 
   -1085    -1085    -1084    -1082    -1077    -1071    -1075    -1075 
   -1074    -1077    -1077    -1078    -1081    -1071    -1071    -1080 
   -1078    -1078    -1082    -1074    -1073    -1082    -1086    -1088 
   -1088    -1081    -1080    -1090    -1090    -1084    -1089    -1086 
   -1081    -1085    -1086    -1089    -1093    -1094    -1096    -1088 
   -1074    -1077    -1086    -1082    -1075    -1075    -1074    -1071 
   -1080    -1084    -1080    -1081    -1088    -1089    -1086    -1082 
   -1082    -1088    -1082    -1071    -1075    -1085    -1081    -1075 
   -1071    -1073    -1081    -1086    -1086    -1084    -1075    -1077 
   -1090    -1089    -1080    -1085    -1089    -1081    -1077    -1082 
   -1086    -1086    -1089    -1088    -1084    -1084    -1082    -1082 
   -1085    -1082    -1081    -1082    -1078    -1080    -1086    -1082 
   -1073    -1073    -1080    -1077    -1071    -1077    -1082    -1081 
   -1088    -1092    -1086    -1086    -1094    -1096    -1090    -1089 
   -1088    -1078    -1082    -1096    -1092    -1086    -1088    -1086 
   -1084    -1081    -1084    -1092    -1090    -1085    -1084    -1075 
   -1071    -1074    -1071    -1082    -1098    -1097    -1094    -1089 
   -1078    -1084    -1094    -1092    -1084    -1077    -1078    -1084 
   -1077    -1077    -1082    -1080    -1081    -1081    -1080    -1089 
   -1089    -1084    -1089    -1090    -1088    -1092    -1093    -1088 
   -1084    -1085    -1085    -1081    -1074    -1070    -1075    -1075 
   -1075    -1082    -1084    -1075    -1075    -1085    -1082    -1081 
   -1086    -1081    -1075    -1084    -1085    -1080    -1081    -1077 
   -1074    -1088    -1096    -1088    -1084    -1086    -1090    -1096 
   -1092    -1082    -1080    -1080    -1081    -1082    -1077    -1074 
   -1075    -1074    -1069    -1071    -1081    -1089    -1094    -1093 
   -1088    -1088    -1088    -1089    -1092    -1090    -1088    -1094 
   -1098    -1092    -1086    -1092    -1090    -1085    -1089    -1094 
   -1092    -1085    -1084    -1081    -1078    -1078    -1073    -1071 
   -1078    -1077    -1069    -1070    -1078    -1080    -1075    -1070 
   -1065    -1063    -1071    -1077    -1066    -1065    -1084    -1100 
   -1097    -1090    -1093    -1092    -1088    -1093    -1092    -1074 
   -1063    -1074    -1089    -1094    -1086    -1081    -1090    -1101 
   -1096    -1080    -1061    -1047    -1054    -1071    -1073    -1057 
   -1050    -1059    -1078    -1096    -1098    -1075    -1057    -1062 
   -1065    -1062    -1071    -1071    -1070    -1104    -1132    -1127 
   -1127    -1127    -1109    -1102    -1098    -1070    -1055    -1073 
   -1075    -1078    -1112    -1129    -1113    -1098    -1080    -1062 
   -1051    -1031    -1009    -1003    -1003    -1026    -1078    -1109 
   -1104    -1105    -1119    -1117    -1104    -1098    -1086    -1059 
   -1048    -1080    -1117    -1129    -1140    -1161    -1163    -1139 
   -1101    -1066    -1030    -1003    -1009    -1038    -1048    -1040 
   -1057    -1096    -1111    -1121    -1144    -1125    -1080    -1048 
   -1013    -1001    -1046    -1089    -1094    -1089    -1084    -1089 
   -1102    -1093    -1084    -1105    -1094    -1038    -1020    -1047 
   -1093    -1163    -1185    -1136    -1123    -1135    -1088    -1043 
   -1040    -1007     -961     -962     -969     -978    -1027    -1080 
   -1120    -1151    -1135    -1084    -1055    -1040    -1019    -1027 
   -1042    -1027    -1053    -1150    -1217    -1216    -1212    -1213 
   -1182    -1108    -1020     -999    -1050    -1055     -977     -932 
    -976    -1057    -1123    -1140    -1102    -1069    -1070    -1063 
   -1070    -1089    -1038     -989    -1023    -1063    -1117    -1209 
   -1239    -1210    -1223    -1262    -1242    -1159    -1086    -1059 
   -1063    -1050     -989     -923     -909     -939     -974    -1024 
   -1097    -1124    -1070    -1021    -1058    -1129    -1165    -1151 
   -1113    -1112    -1165    -1212    -1220    -1174    -1092    -1066 
   -1128    -1192    -1185    -1127    -1108    -1131    -1080     -939 
    -865     -936    -1016    -1009     -988     -978     -969     -993 
   -1043    -1124    -1262    -1337    -1244    -1135    -1142    -1156 
   -1132    -1113    -1048     -951     -931    -1003    -1132    -1252 
   -1266    -1181    -1101    -1055    -1001     -947     -922     -918 
    -915     -928     -990    -1142    -1309    -1323    -1204    -1112 
   -1042     -939     -876     -911    -1046    -1212    -1281    -1220 
   -1128    -1036     -930     -896     -994    -1121    -1162    -1116 
   -1055    -1070    -1146    -1129    -1016     -990    -1084    -1163 
   -1190    -1159    -1036     -926     -973    -1119    -1200    -1178 
   -1136    -1123    -1101    -1081    -1117    -1159    -1109    -1001 
    -953    -1017    -1121    -1144    -1077    -1026    -1088    -1194 
   -1173    -1021     -924     -936     -997    -1069    -1112    -1111 
   -1144    -1229    -1262    -1213    -1185    -1190    -1148    -1089 
   -1081    -1089    -1098    -1080     -994     -938     -982    -1020 
   -1004    -1015    -1069    -1113    -1124    -1120    -1139    -1158 
   -1117    -1042     -996     -988    -1027    -1120    -1201    -1255 
   -1289    -1227    -1104    -1013     -919     -845     -930    -1129 
   -1239    -1215    -1177    -1167    -1131    -1011     -845     -781 
    -815     -834     -876     -981    -1092    -1200    -1273    -1264 
   -1198    -1094    -1013    -1011    -1021    -1009    -1071    -1237 
   -1364    -1341    -1231    -1120    -1043    -1013    -1023    -1082 
   -1162    -1131    -1011     -974    -1030    -1050    -1061    -1129 
   -1152    -1073    -1031    -1063    -1111    -1209    -1304    -1215 
    -976     -808     -791     -803     -784     -814     -904     -993 
   -1039    -1015     -972    -1024    -1162    -1267    -1302    -1289 
   -1233    -1174    -1139    -1124    -1119    -1092    -1034    -1013 
   -1058    -1097    -1134    -1188    -1194    -1170    -1202    -1242 
   -1205    -1123    -1015     -870     -778     -808     -905     -980 
   -1000    -1035    -1161    -1293    -1329    -1278    -1148     -999 
    -973    -1092    -1163    -1098    -1017    -1003    -1080    -1182 
   -1136    -1020    -1047    -1174    -1266    -1297    -1227    -1086 
   -1005     -981     -912     -846     -907    -1084    -1205    -1167 
   -1081    -1107    -1213    -1279    -1274    -1217    -1093     -950 
    -931    -1007     -982     -884     -862     -891     -970    -1163 
   -1314    -1281    -1178    -1109    -1062    -1026     -972     -924 
    -958    -1030    -1048    -1050    -1112    -1225    -1313    -1318 
   -1289    -1296    -1263    -1109     -966     -949     -974     -984 
    -994     -972     -911     -881     -900     -928     -989    -1044 
   -1021    -1001    -1048    -1094    -1142    -1216    -1283    -1340 
   -1340    -1255    -1162    -1097     -997     -904     -942    -1066 
   -1171    -1262    -1305    -1236    -1093     -969     -874     -815 
    -859     -977    -1050    -1077    -1108    -1155    -1236    -1278 
   -1171    -1019     -965     -958     -928     -934    -1032    -1215 
   -1394    -1482    -1471    -1408    -1345    -1336    -1351    -1285 
   -1151    -1119    -1173    -1116     -945     -795     -681     -595 
    -565     -594     -619     -580     -544     -662     -928    -1182 
   -1320    -1405    -1493    -1486    -1360    -1283    -1290    -1274 
   -1244    -1247    -1232    -1131     -999     -974    -1069    -1169 
   -1206    -1202    -1204    -1194    -1147    -1102    -1100    -1089 
   -1007     -897     -882     -961     -986     -943     -976    -1070 
   -1113    -1111    -1097    -1082    -1104    -1171    -1227    -1220 
   -1169    -1115    -1093    -1093    -1046     -970     -954     -974 
    -949     -851     -766     -816     -965    -1024     -992    -1050 
   -1181    -1225    -1217    -1223    -1196    -1178    -1243    -1337 
   -1374    -1317    -1216    -1109     -969     -816     -716     -691 
    -710     -769     -927    -1128    -1271    -1390    -1452    -1385 
   -1293    -1231    -1117    -1024    -1040    -1069    -1059    -1082 
   -1090    -1032    -1015    -1093    -1154    -1127    -1035     -922 
    -864     -935    -1096    -1213    -1208    -1104     -986     -969 
   -1069    -1154    -1135    -1121    -1182    -1198    -1080     -903 
    -799     -831     -955    -1116    -1294    -1428    -1414    -1246 
   -1081    -1058    -1113    -1108    -1035     -988     -966     -945 
    -985    -1089    -1152    -1117    -1017     -932     -900     -920 
    -996    -1101    -1181    -1219    -1258    -1294    -1236    -1073 
    -928     -893     -920     -911     -838     -750     -680     -684 
    -814    -1024    -1242    -1410    -1498    -1541    -1526    -1431 
   -1301    -1162    -1003     -854     -764     -760     -824     -907 
   -1008    -1174    -1364    -1478    -1499    -1482    -1429    -1283 
   -1074     -940     -939     -984     -970     -900     -874     -943 
   -1026    -1040     -997     -901     -776     -745     -886    -1069 
   -1138    -1152    -1219    -1273    -1251    -1220    -1235    -1271 
   -1275    -1229    -1174    -1155    -1151    -1108    -1013     -918 
    -901     -977    -1101    -1248    -1348    -1327    -1223    -1112 
   -1051    -1080    -1154    -1208    -1221    -1154     -984     -795 
    -729     -788     -818     -795     -874    -1075    -1233    -1277 
   -1279    -1291    -1281    -1204    -1101    -1065    -1069    -1032 
    -972     -904     -853     -854     -880     -908     -969    -1046 
   -1116    -1181    -1215    -1196    -1158    -1131    -1089    -1026 
    -977     -970    -1012    -1077    -1124    -1142    -1100     -970 
    -834     -814     -907    -1028    -1139    -1248    -1351    -1413 
   -1394    -1327    -1283    -1274    -1264    -1210    -1093     -980 
    -982    -1078    -1105    -1016     -920     -889     -936    -1055 
   -1197    -1335    -1440    -1433    -1279    -1070     -930     -864 
    -815     -799     -839     -905     -980    -1035    -1047    -1028 
   -1000    -1011    -1113    -1233    -1237    -1128    -1003     -886 
    -781     -735     -765     -866    -1016    -1112    -1105    -1058 
    -993     -892     -807     -765     -726     -691     -706     -787 
    -885     -949    -1020    -1136    -1262    -1366    -1432    -1451 
   -1445    -1451    -1462    -1397    -1198     -928     -653     -373 
    -145      -98     -259     -522     -803    -1086    -1325    -1479 
   -1557    -1528    -1378    -1166     -966     -861     -865     -945 
   -1105    -1329    -1594    -1929    -2277    -2520    -2620    -2592 
   -2462    -2303    -2164    -2012    -1772    -1413    -1024     -741 
    -587     -535     -602     -793    -1089    -1439    -1728    -1836 
   -1757    -1563    -1298    -1040     -858     -720     -575     -410 
    -252     -118      -21      -12     -137     -359     -598     -835 
   -1081    -1283    -1327    -1175     -946     -706     -429     -203 
    -163     -328     -635    -1021    -1483    -2046    -2593    -2943 
   -3052    -2976    -2781    -2528    -2232    -1876    -1471    -1020 
    -561     -202        4      143      315      527      712      804 
     797      696      511      297      135       63       17     -128 
    -426     -827    -1244    -1626    -1971    -2285    -2488    -2454 
   -2187    -1827    -1543    -1428    -1435    -1421    -1331    -1217 
   -1140    -1127    -1151    -1143    -1104    -1121    -1227    -1395 
   -1613    -1802    -1881    -1869    -1826    -1760    -1659    -1548 
   -1436    -1269    -1016     -681     -311      -13      155      179 
      14     -314     -627     -746     -666     -527     -432     -351 
    -243     -160     -198     -409     -735    -1044    -1273    -1489 
   -1742    -1998    -2228    -2462    -2652    -2709    -2717    -2808 
   -2867    -2706    -2326    -1800    -1202     -641     -216       21 
      64      -54     -302     -652    -1031    -1318    -1412    -1285 
   -1020     -784     -693     -712     -731     -739     -846    -1085 
   -1300    -1306    -1104     -845     -714     -791     -977    -1125 
   -1193    -1244    -1343    -1529    -1833    -2195    -2405    -2303 
   -1942    -1510    -1205    -1098    -1073     -980     -835     -783 
    -881     -992     -923     -685     -449     -261      -41      210 
     372      341      130     -211     -619     -978    -1231    -1368 
   -1364    -1243    -1116    -1102    -1205    -1296    -1301    -1267 
   -1225    -1166    -1111    -1107    -1177    -1274    -1347    -1359 
   -1236     -966     -695     -603     -784    -1197    -1591    -1717 
   -1584    -1348    -1105     -892     -731     -618     -540     -538 
    -680     -958    -1264    -1487    -1563    -1502    -1395    -1320 
   -1269    -1229    -1219    -1219    -1248    -1375    -1564    -1659 
   -1590    -1395    -1108     -777     -535     -490     -626     -862 
   -1105    -1278    -1368    -1393    -1372    -1324    -1259    -1229 
   -1278    -1378    -1479    -1503    -1352    -1021     -610     -234 
      45      199      145     -122     -473     -812    -1139    -1408 
   -1526    -1485    -1402    -1441    -1595    -1668    -1524    -1239 
    -976     -801     -687     -589     -506     -504     -692    -1059 
   -1401    -1489    -1270     -891     -604     -573     -780    -1165 
   -1641    -2023    -2165    -2053    -1827    -1680    -1614    -1494 
   -1293    -1090     -934     -814     -683     -491     -284     -190 
    -251     -395     -507     -558     -639     -768     -885    -1013 
   -1197    -1426    -1656    -1804    -1818    -1703    -1507    -1309 
   -1185    -1161    -1188    -1248    -1363    -1489    -1574    -1629 
   -1684    -1787    -1945    -2037    -1912    -1570    -1108     -649 
    -275       43      326      508      518      338       36     -333 
    -768    -1248    -1692    -2015    -2205    -2309    -2365    -2369 
   -2246    -1937    -1528    -1163     -897     -697     -519     -368 
    -272     -236     -259     -317     -342     -325     -314     -372 
    -576     -911    -1259    -1553    -1784    -1972    -2138    -2196 
   -2030    -1695    -1329    -1004     -745     -577     -552     -665 
    -816     -950    -1117    -1325    -1428    -1310    -1054     -814 
    -654     -558     -480     -419     -437     -550     -697     -823 
    -923    -1038    -1212    -1402    -1490    -1441    -1333    -1254 
   -1217    -1174    -1078     -953     -862     -872     -970    -1086 
   -1213    -1366    -1505    -1563    -1522    -1448    -1399    -1313 
   -1151    -1019     -988    -1005    -1012    -1005    -1034    -1115 
   -1175    -1163    -1088     -976     -862     -807     -832     -897 
    -943     -947     -922     -868     -799     -764     -769     -803 
    -869     -966    -1107    -1278    -1408    -1451    -1447    -1449 
   -1458    -1436    -1374    -1309    -1277    -1282    -1301    -1321 
   -1362    -1405    -1390    -1294    -1161    -1053    -1038    -1135 
   -1267    -1335    -1318    -1256    -1174    -1089    -1035    -1054 
   -1142    -1224    -1232    -1182    -1112    -1031     -961     -949 
   -1008    -1080    -1094    -1047     -990     -966     -966     -967 
    -945     -862     -710     -541     -422     -379     -433     -610 
    -882    -1198    -1512    -1723    -1771    -1659    -1414    -1105 
    -832     -648     -530     -453     -414     -463     -666    -1016 
   -1393    -1667    -1790    -1733    -1478    -1140     -888     -766 
    -731     -727     -722     -733     -803     -928    -1054    -1129 
   -1171    -1224    -1304    -1371    -1364    -1294    -1221    -1150 
   -1057     -982    -1001    -1101    -1193    -1255    -1327    -1414 
   -1472    -1443    -1345    -1246    -1167    -1116    -1101    -1117 
   -1161    -1198    -1159    -1009     -788     -565     -407     -369 
    -422     -514     -639     -781     -880     -919     -967    -1111 
   -1355    -1640    -1894    -2065    -2135    -2099    -1945    -1665 
   -1316     -994     -742     -548     -437     -407     -410     -448 
    -535     -634     -691     -693     -654     -610     -602     -648 
    -768     -955    -1152    -1305    -1391    -1408    -1371    -1323 
   -1291    -1297    -1344    -1408    -1456    -1468    -1433    -1354 
   -1279    -1258    -1267    -1264    -1235    -1179    -1108    -1065 
   -1073    -1127    -1228    -1354    -1443    -1449    -1363    -1183 
    -958     -760     -627     -588     -656     -799     -958    -1071 
   -1109    -1124    -1181    -1251    -1300    -1377    -1497    -1613 
   -1678    -1668    -1594    -1464    -1264    -1004     -726     -481 
    -342     -359     -508     -699     -854     -961    -1001     -945 
    -818     -684     -598     -575     -602     -649     -668     -645 
    -619     -634     -730     -912    -1148    -1413    -1687    -1906 
