Origin Time       2025/03/28 03:50:00
Lat.              35.403
Long.             140.360
Depth. (km)       54
Mag.              4.4
Station Code      IBRH08
Station Lat.      36.1188
Station Long.     140.5621
Station Height(m) 40
Record Time       2025/03/28 03:51:04
Sampling Freq(Hz) 100Hz
Duration Time(s)  120
Dir.              6
Scale Factor      7845(gal)/8223790
Max. Acc. (gal)   0.691
Last Correction   2025/03/28 03:51:04
Memo.             
[...]
   -4839    -4838    -4838    -4835    -4841    -4845    -4841    -4838 
   -4841    -4837    -4833    -4831    -4833    -4837    -4835    -4834 
   -4839    -4839    -4833    -4831    -4831    -4835    -4843    -4843 
   -4837    -4834    -4837    -4838    -4834    -4831    -4835    -4841 
   -4839    -4837    -4835    -4837    -4835    -4838    -4838    -4834 
   -4838    -4842    -4839    -4838    -4835    -4831    -4834    -4839 
   -4841    -4839    -4835    -4835    -4839    -4842    -4838    -4835 
   -4838    -4841    -4837    -4835    -4838    -4838    -4837    -4837 
   -4839    -4843    -4846    -4845    -4845    -4846    -4847    -4851 
   -4853    -4851    -4857    -4864    -4864    -4865    -4868    -4870 
   -4870    -4870    -4872    -4873    -4876    -4878    -4884    -4891 
   -4896    -4899    -4897    -4884    -4869    -4853    -4835    -4815 
   -4788    -4749    -4714    -4693    -4687    -4689    -4703    -4727 
   -4754    -4769    -4770    -4781    -4800    -4815    -4834    -4842 
   -4822    -4801    -4816    -4876    -4955    -4988    -4950    -4885 
   -4843    -4858    -4915    -4966    -4958    -4888    -4841    -4857 
   -4851    -4797    -4750    -4707    -4635    -4576    -4607    -4727 
   -4849    -4922    -4980    -5039    -5065    -5054    -5009    -4915 
   -4810    -4718    -4642    -4618    -4675    -4799    -4908    -4899 
   -4839    -4901    -5047    -5111    -5035    -4865    -4692    -4623 
   -4657    -4680    -4638    -4642    -4734    -4816    -4831    -4828 
   -4918    -5076    -5127    -5043    -4965    -4939    -4922    -4912 
   -4865    -4741    -4677    -4738    -4838    -4942    -4957    -4845 
   -4785    -4878    -4961    -4881    -4757    -4729    -4714    -4662 
   -4685    -4792    -4822    -4810    -4901    -4954    -4857    -4808 
   -4882    -4889    -4760    -4664    -4683    -4704    -4704    -4780 
   -4942    -5055    -5061    -5055    -5044    -4951    -4866    -4882 
   -4868    -4718    -4598    -4608    -4642    -4668    -4723    -4783 
   -4839    -4897    -5007    -5178    -5202    -5011    -4874    -4920 
   -4896    -4708    -4625    -4730    -4800    -4741    -4662    -4666 
   -4750    -4843    -4895    -4907    -4861    -4787    -4816    -4954 
   -4982    -4850    -4776    -4780    -4716    -4666    -4726    -4774 
   -4742    -4715    -4754    -4814    -4820    -4796    -4843    -5015 
   -5179    -5124    -4918    -4865    -4974    -4977    -4841    -4769 
   -4830    -4851    -4762    -4764    -4892    -4909    -4797    -4745 
   -4754    -4780    -4915    -5053    -4989    -4834    -4799    -4908 
   -5017    -4954    -4772    -4689    -4723    -4725    -4629    -4568 
   -4695    -4850    -4853    -4850    -4905    -4936    -5042    -5208 
   -5161    -4943    -4874    -4901    -4747    -4510    -4477    -4630 
   -4699    -4638    -4649    -4768    -4922    -5086    -5104    -4934 
   -4853    -4930    -4939    -4814    -4708    -4726    -4789    -4784 
   -4723    -4704    -4801    -4949    -4997    -4926    -4877    -4965 
   -5107    -5119    -4984    -4838    -4770    -4757    -4711    -4619 
   -4561    -4577    -4672    -4779    -4804    -4818    -4876    -4876 
   -4843    -4862    -4887    -4926    -4989    -4912    -4652    -4498 
   -4660    -4928    -5003    -4904    -4887    -5026    -5125    -5059 
   -4928    -4877    -4935    -4973    -4831    -4581    -4500    -4665 
   -4843    -4893    -4911    -4953    -4976    -4993    -4977    -4793 
   -4569    -4617    -4811    -4807    -4692    -4722    -4855    -4927 
   -4938    -5003    -5058    -4930    -4710    -4610    -4580    -4523 
   -4537    -4656    -4746    -4769    -4889    -5134    -5269    -5196 
   -5039    -4911    -4927    -5078    -5071    -4857    -4776    -4855 
   -4835    -4718    -4637    -4588    -4587    -4715    -4887    -4920 
   -4861    -4851    -4860    -4845    -4887    -5050    -5188    -5051 
   -4725    -4579    -4684    -4772    -4720    -4683    -4741    -4783 
   -4796    -4919    -5078    -5062    -4931    -4896    -4927    -4853 
   -4722    -4718    -4749    -4666    -4637    -4712    -4691    -4615 
   -4695    -4869    -4920    -4878    -4885    -4828    -4718    -4834 
   -5097    -5103    -4833    -4617    -4619    -4796    -4993    -5004 
   -4869    -4857    -5036    -5139    -4990    -4819    -4850    -4888 
   -4669    -4376    -4392    -4695    -4869    -4757    -4644    -4741 
   -4957    -5093    -5058    -4973    -5015    -5131    -5089    -4831 
   -4627    -4722    -4966    -4959    -4715    -4676    -4900    -5159 
   -5340    -5279    -5008    -4818    -4792    -4729    -4511    -4315 
   -4349    -4604    -4833    -4791    -4646    -4737    -5044    -5232 
   -5086    -4789    -4703    -4907    -5039    -4824    -4581    -4626 
   -4766    -4845    -4968    -5094    -5071    -4939    -4806    -4698 
   -4625    -4629    -4642    -4513    -4386    -4517    -4846    -5184 
   -5336    -5240    -5113    -5112    -5181    -5123    -4807    -4580 
   -4716    -4858    -4793    -4765    -4878    -4943    -4893    -4911 
   -5011    -4982    -4814    -4665    -4592    -4530    -4492    -4602 
   -4761    -4742    -4623    -4638    -4792    -4905    -4804    -4642 
   -4784    -5127    -5258    -5167    -5113    -5071    -4868    -4687 
   -4769    -4868    -4799    -4796    -4915    -4932    -4716    -4426 
   -4438    -4774    -5012    -4968    -4784    -4631    -4698    -4969 
   -5140    -5038    -4831    -4716    -4710    -4750    -4777    -4837 
   -4984    -5076    -4999    -4873    -4868    -4947    -4990    -5022 
   -5062    -5003    -4818    -4693    -4754    -4784    -4695    -4708 
   -4826    -4823    -4739    -4757    -4811    -4787    -4787    -4826 
   -4812    -4815    -4881    -4881    -4757    -4627    -4519    -4383 
   -4380    -4668    -5049    -5235    -5250    -5175    -5005    -4881 
   -4938    -5062    -5059    -4920    -4769    -4577    -4359    -4405 
   -4719    -4896    -4880    -4982    -5157    -5100    -4868    -4769 
   -4881    -4997    -4978    -4880    -4787    -4756    -4789    -4797 
   -4754    -4764    -4839    -4824    -4687    -4638    -4803    -5026 
   -5047    -4801    -4581    -4657    -4881    -4980    -4939    -4936 
   -4961    -4854    -4739    -4833    -5062    -5178    -5127    -5107 
   -5121    -5013    -4847    -4708    -4519    -4328    -4345    -4519 
   -4583    -4558    -4634    -4826    -5042    -5166    -5066    -4811 
   -4695    -4888    -5161    -5162    -4924    -4823    -4901    -4851 
   -4658    -4576    -4581    -4492    -4446    -4608    -4747    -4703 
   -4692    -4849    -5040    -5112    -5089    -5135    -5235    -5200 
   -5044    -4904    -4822    -4797    -4781    -4735    -4711    -4784 
   -4955    -5134    -5173    -4978    -4714    -4687    -4857    -4903 
   -4757    -4587    -4475    -4415    -4483    -4793    -5123    -5034 
   -4756    -4849    -5078    -4958    -4747    -4803    -4881    -4796 
   -4756    -4797    -4788    -4787    -4920    -5107    -5098    -4908 
   -4850    -4928    -4826    -4554    -4452    -4565    -4657    -4699 
   -4788    -4880    -4923    -4974    -5047    -5062    -5000    -4915 
   -4853    -4866    -4968    -5047    -4997    -4820    -4630    -4612 
   -4758    -4797    -4711    -4722    -4814    -4878    -4911    -4923 
   -5015    -5163    -5175    -5065    -4936    -4799    -4719    -4684 
   -4587    -4475    -4437    -4446    -4472    -4579    -4797    -4955 
   -4963    -4981    -5069    -5116    -5071    -5011    -5039    -5063 
   -4947    -4796    -4675    -4575    -4557    -4572    -4572    -4630 
   -4796    -5077    -5325    -5352    -5181    -4999    -4873    -4664 
   -4425    -4433    -4633    -4723    -4733    -4916    -5170    -5178 
   -5030    -4980    -4949    -4784    -4561    -4419    -4360    -4329 
   -4425    -4719    -5055    -5262    -5354    -5412    -5356    -5101 
   -4826    -4787    -4882    -4757    -4399    -4244    -4434    -4646 
   -4758    -4972    -5255    -5343    -5263    -5285    -5364    -5213 
   -4862    -4598    -4464    -4405    -4518    -4729    -4716    -4488 
   -4455    -4700    -4880    -4851    -4810    -4895    -4989    -4959 
   -4893    -4866    -4873    -5000    -5157    -5092    -4872    -4741 
   -4635    -4418    -4271    -4337    -4473    -4588    -4692    -4776 
   -4865    -5007    -5178    -5252    -5166    -5080    -5155    -5236 
   -5088    -4858    -4808    -4806    -4688    -4633    -4762    -4919 
   -4974    -4972    -4926    -4812    -4684    -4581    -4540    -4591 
   -4711    -4847    -4877    -4792    -4791    -4946    -5135    -5216 
   -5112    -4934    -4885    -4962    -4954    -4810    -4698    -4681 
   -4685    -4642    -4561    -4591    -4785    -4945    -4950    -4941 
   -4973    -4965    -4953    -4936    -4816    -4696    -4720    -4727 
   -4546    -4376    -4479    -4731    -4837    -4822    -4920    -5144 
   -5248    -5117    -4993    -5051    -5152    -5169    -5086    -4918 
   -4752    -4689    -4741    -4769    -4641    -4473    -4510    -4708 
   -4784    -4729    -4774    -4835    -4753    -4746    -4923    -5049 
   -5044    -5051    -5096    -5067    -4934    -4780    -4676    -4699 
   -4891    -5071    -5017    -4814    -4734    -4811    -4827    -4660 
   -4465    -4488    -4675    -4770    -4733    -4703    -4734    -4781 
   -4880    -5049    -5117    -5027    -5032    -5165    -5098    -4793 
   -4548    -4475    -4473    -4533    -4695    -4849    -4934    -5070 
   -5227    -5200    -4999    -4896    -5023    -5119    -4977    -4768 
   -4722    -4810    -4839    -4750    -4623    -4550    -4604    -4702 
   -4743    -4828    -5004    -5121    -5094    -5015    -4966    -4950 
   -4893    -4685    -4401    -4261    -4342    -4488    -4576    -4704 
   -4942    -5128    -5165    -5186    -5269    -5252    -5070    -4889 
   -4760    -4638    -4576    -4573    -4595    -4672    -4756    -4766 
   -4738    -4741    -4842    -5040    -5213    -5259    -5162    -5008 
   -4938    -4880    -4685    -4509    -4487    -4490    -4452    -4492 
   -4689    -4932    -5078    -5123    -5104    -5093    -5138    -5151 
   -5043    -4839    -4656    -4575    -4584    -4649    -4739    -4847 
   -4973    -5032    -5019    -5036    -5046    -4938    -4774    -4650 
   -4575    -4534    -4548    -4617    -4712    -4801    -4887    -5030 
   -5215    -5310    -5258    -5130    -5017    -4920    -4773    -4612 
   -4521    -4488    -4482    -4514    -4594    -4695    -4818    -4945 
   -5023    -5040    -5077    -5190    -5192    -4939    -4706    -4680 
   -4646    -4526    -4523    -4671    -4785    -4801    -4835    -4953 
   -5121    -5287    -5332    -5150    -4824    -4607    -4633    -4716 
   -4664    -4579    -4635    -4785    -4831    -4742    -4699    -4727 
   -4737    -4791    -4904    -4941    -4911    -5003    -5221    -5304 
   -5142    -4930    -4796    -4738    -4715    -4638    -4511    -4448 
   -4507    -4629    -4734    -4862    -5050    -5169    -5081    -4869 
   -4719    -4696    -4733    -4727    -4680    -4714    -4881    -5046 
   -5088    -5123    -5246    -5304    -5147    -4866    -4666    -4576 
   -4469    -4414    -4513    -4644    -4684    -4696    -4774    -4877 
   -4911    -4934    -4978    -4924    -4799    -4803    -4920    -4968 
   -4978    -5086    -5223    -5202    -5005    -4822    -4799    -4847 
   -4835    -4795    -4814    -4835    -4769    -4706    -4762    -4862 
   -4851    -4737    -4652    -4642    -4627    -4568    -4517    -4561 
   -4698    -4834    -4934    -5008    -5081    -5152    -5151    -5070 
   -4999    -4951    -4866    -4719    -4531    -4398    -4463    -4688 
   -4861    -4897    -4843    -4792    -4822    -4880    -4872    -4865 
   -4955    -5050    -5049    -5016    -4966    -4907    -4918    -4939 
   -4854    -4731    -4696    -4743    -4796    -4795    -4743    -4729 
   -4770    -4768    -4693    -4696    -4851    -4982    -4990    -5030 
   -5117    -5058    -4814    -4572    -4467    -4476    -4581    -4747 
   -4893    -4990    -5109    -5265    -5282    -5081    -4869    -4795 
   -4770    -4716    -4653    -4618    -4644    -4746    -4838    -4808 
   -4700    -4693    -4857    -5009    -4990    -4891    -4850    -4860 
   -4869    -4900    -4922    -4866    -4815    -4855    -4911    -4905 
   -4911    -4999    -5063    -4997    -4892    -4841    -4826    -4822 
   -4810    -4818    -4865    -4896    -4846    -4715    -4564    -4449 
   -4402    -4437    -4584    -4842    -5073    -5152    -5131    -5069 
   -4968    -4862    -4808    -4793    -4819    -4932    -5078    -5092 
   -4936    -4761    -4688    -4689    -4685    -4672    -4664    -4650 
   -4662    -4757    -4899    -4955    -4881    -4784    -4770    -4837 
   -4860    -4804    -4789    -4833    -4865    -4882    -4884    -4873 
   -4850    -4819    -4845    -4950    -5054    -5071    -4942    -4703 
   -4560    -4677    -4888    -4932    -4838    -4753    -4735    -4783 
   -4845    -4874    -4895    -4945    -4986    -4961    -4915    -4943 
   -5012    -4993    -4864    -4735    -4669    -4603    -4488    -4371 
   -4328    -4384    -4558    -4774    -4882    -4908    -4996    -5155 
   -5256    -5279    -5308    -5271    -5051    -4757    -4577    -4560 
   -4630    -4704    -4765    -4793    -4803    -4892    -5097    -5312 
   -5395    -5296    -5116    -4955    -4758    -4522    -4374    -4328 
   -4287    -4272    -4347    -4468    -4634    -4896    -5184    -5387 
   -5512    -5562    -5451    -5163    -4920    -4868    -4799    -4544 
   -4286    -4221    -4270    -4352    -4514    -4708    -4838    -4958 
   -5135    -5244    -5152    -4992    -4942    -4915    -4752    -4590 
   -4675    -4887    -4923    -4855    -4897    -4999    -4995    -4841 
   -4646    -4561    -4630    -4746    -4774    -4795    -4982    -5232 
   -5273    -5088    -4891    -4818    -4804    -4722    -4572    -4486 
   -4529    -4668    -4851    -5015    -5120    -5182    -5181    -5070 
   -4873    -4696    -4630    -4662    -4764    -4872    -4874    -4758 
   -4645    -4661    -4800    -4924    -4936    -4837    -4696    -4615 
   -4603    -4627    -4712    -4868    -5035    -5116    -5103    -5108 
   -5189    -5215    -5047    -4814    -4687    -4581    -4434    -4383 
   -4500    -4712    -4928    -5131    -5271    -5267    -5181    -5131 
   -5074    -4895    -4623    -4387    -4216    -4164    -4367    -4733 
   -4966    -4995    -4981    -5015    -5089    -5127    -5062    -4978 
   -4949    -4919    -4835    -4730    -4698    -4726    -4704    -4622 
   -4558    -4588    -4673    -4688    -4660    -4750    -4978    -5155 
   -5148    -5065    -5059    -5121    -5113    -4995    -4850    -4729 
   -4658    -4653    -4633    -4565    -4579    -4758    -4974    -5086 
   -5104    -5067    -5012    -4947    -4868    -4835    -4818    -4714 
   -4602    -4565    -4522    -4442    -4460    -4644    -4880    -5005 
   -4963    -4831    -4774    -4882    -5057    -5188    -5255    -5254 
   -5190    -5103    -5032    -4976    -4882    -4768    -4716    -4737 
   -4762    -4723    -4619    -4568    -4642    -4745    -4824    -4884 
   -4860    -4792    -4799    -4807    -4719    -4646    -4672    -4677 
   -4598    -4502    -4468    -4557    -4749    -4968    -5152    -5282 
   -5381    -5425    -5368    -5246    -5070    -4795    -4487    -4264 
   -4168    -4183    -4290    -4482    -4699    -4893    -5109    -5348 
   -5489    -5448    -5308    -5159    -4977    -4773    -4619    -4530 
   -4502    -4545    -4608    -4646    -4664    -4693    -4804    -4996 
   -5117    -5089    -4990    -4896    -4830    -4765    -4707    -4749 
   -4874    -4951    -4943    -4907    -4877    -4861    -4868    -4912 
   -4965    -4981    -4981    -4969    -4887    -4799    -4823    -4858 
   -4766    -4622    -4580    -4653    -4741    -4758    -4704    -4662 
   -4699    -4783    -4838    -4862    -4903    -4926    -4877    -4799 
   -4808    -4916    -4931    -4765    -4595    -4576    -4695    -4841 
   -4965    -5113    -5244    -5252    -5196    -5150    -5071    -4941 
   -4785    -4665    -4625    -4573    -4465    -4429    -4542    -4747 
   -4934    -5053    -5144    -5179    -5092    -4922    -4735    -4572 
   -4479    -4461    -4530    -4722    -4957    -5123    -5224    -5263 
   -5197    -5100    -5067    -5042    -4957    -4826    -4672    -4515 
   -4388    -4345    -4391    -4457    -4510    -4611    -4797    -5008 
   -5131    -5116    -5035    -5000    -4972    -4837    -4639    -4565 
   -4711    -4957    -5124    -5158    -5100    -5044    -5051    -5086 
   -5074    -4973    -4812    -4641    -4498    -4398    -4361    -4419 
   -4579    -4773    -4918    -4977    -4978    -4985    -5004    -4995 
   -4959    -4947    -4936    -4862    -4752    -4672    -4631    -4639 
   -4718    -4822    -4878    -4870    -4824    -4797    -4850    -4935 
   -4972    -4972    -5020    -5144    -5198    -5054    -4841    -4715 
   -4668    -4646    -4619    -4592    -4623    -4730    -4882    -5034 
   -5113    -5082    -4974    -4822    -4652    -4525    -4476    -4477 
   -4538    -4680    -4862    -5007    -5089    -5136    -5190    -5202 
   -5113    -5019    -4984    -4893    -4730    -4619    -4596    -4592 
   -4561    -4529    -4509    -4517    -4612    -4808    -5026    -5182 
   -5225    -5147    -5013    -4888    -4796    -4753    -4754    -4756 
   -4747    -4784    -4841    -4823    -4772    -4803    -4885    -4896 
   -4869    -4939    -5016    -4977    -4926    -4946    -5000    -5017 
   -4924    -4781    -4676    -4599    -4595    -4688    -4785    -4842 
   -4896    -4922    -4885    -4861    -4938    -5058    -5074    -4943 
   -4796    -4743    -4739    -4718    -4718    -4785    -4900    -4986 
   -4997    -4970    -4930    -4851    -4756    -4649    -4533    -4464 
   -4442    -4442    -4467    -4494    -4561    -4723    -4926    -5124 
   -5310    -5405    -5367    -5282    -5177    -5015    -4870    -4783 
   -4689    -4615    -4645    -4746    -4801    -4788    -4811    -4880 
   -4874    -4806    -4784    -4835    -4896    -4897    -4853    -4857 
   -4926    -4963    -4873    -4680    -4522    -4483    -4529    -4639 
   -4806    -4947    -5031    -5082    -5089    -5057    -4999    -4915 
   -4887    -4966    -5027    -4951    -4816    -4720    -4695    -4716 
   -4733    -4737    -4749    -4747    -4704    -4594    -4467    -4440 
   -4530    -4661    -4776    -4862    -4958    -5061    -5116    -5144 
   -5166    -5162    -5189    -5225    -5152    -4984    -4828    -4753 
   -4752    -4745    -4699    -4685    -4731    -4757    -4725    -4685 
   -4666    -4631    -4561    -4500    -4503    -4604    -4779    -4951 
   -5046    -5058    -5082    -5162    -5179    -5078    -4932    -4818 
   -4760    -4727    -4692    -4715    -4820    -4905    -4930    -4943 
   -4915    -4811    -4742    -4768    -4804    -4866    -4997    -5069 
   -5009    -4927    -4897    -4881    -4824    -4726    -4610    -4514 
   -4507    -4560    -4598    -4677    -4849    -5040    -5190    -5260 
   -5238    -5142    -4992    -4816    -4658    -4561    -4542    -4588 
   -4692    -4792    -4801    -4742    -4702    -4710    -4718    -4680 
   -4669    -4739    -4839    -4934    -5022    -5070    -5071    -5116 
   -5217    -5235    -5151    -5046    -4918    -4819    -4793    -4768 
