Origin Time       2025/03/28 03:50:00
Lat.              35.403
Long.             140.360
Depth. (km)       54
Mag.              4.4
Station Code      IBRH08
Station Lat.      36.1188
Station Long.     140.5621
Station Height(m) 40
Record Time       2025/03/28 03:51:04
Sampling Freq(Hz) 100Hz
Duration Time(s)  120
Dir.              4
Scale Factor      7845(gal)/8223790
Max. Acc. (gal)   1.197
Last Correction   2025/03/28 03:51:04
Memo.             
[...]
   -4131    -4112    -4085    -4114    -4098    -4043    -4086    -4159 
   -4121    -4071    -4140    -4232    -4222    -4183    -4195    -4179 
   -4102    -4047    -4060    -4108    -4104    -4040    -4048    -4117 
   -4120    -4140    -4244    -4272    -4191    -4174    -4222    -4174 
   -4056    -4016    -4028    -4039    -4095    -4203    -4275    -4259 
   -4186    -4141    -4171    -4159    -4017    -3959    -4104    -4206 
   -4151    -4113    -4166    -4221    -4212    -4145    -4097    -4118 
   -4145    -4093    -4035    -4077    -4159    -4168    -4132    -4145 
   -4185    -4162    -4108    -4129    -4205    -4214    -4172    -4149 
   -4105    -4070    -4133    -4179    -4102    -4064    -4143    -4163 
   -4086    -4060    -4141    -4224    -4226    -4189    -4153    -4129 
   -4139    -4137    -4105    -4152    -4243    -4195    -4097    -4083 
   -4058    -4006    -4047    -4109    -4082    -4055    -4155    -4299 
   -4297    -4175    -4141    -4179    -4139    -4077    -4044    -3998 
   -4033    -4148    -4155    -4098    -4149    -4228    -4201    -4095 
   -4017    -4041    -4125    -4162    -4132    -4131    -4206    -4275 
   -4226    -4095    -4051    -4133    -4182    -4135    -4106    -4153 
   -4206    -4189    -4137    -4124    -4125    -4090    -4047    -4056 
   -4128    -4203    -4214    -4194    -4190    -4137    -4024    -3991 
   -4086    -4147    -4095    -4097    -4240    -4342    -4255    -4110 
   -4099    -4163    -4158    -4105    -4089    -4122    -4202    -4257 
   -4198    -4114    -4129    -4152    -4077    -4013    -4033    -4043 
   -4058    -4140    -4170    -4126    -4202    -4340    -4278    -4070 
   -3974    -4025    -4104    -4144    -4172    -4232    -4260    -4228 
   -4232    -4245    -4131    -3996    -4008    -4031    -3944    -3920 
   -4041    -4167    -4251    -4326    -4333    -4284    -4291    -4295 
   -4187    -4098    -4129    -4135    -4070    -4068    -4097    -4062 
   -4054    -4110    -4113    -4055    -4091    -4229    -4253    -4106 
   -4029    -4129    -4187    -4086    -4001    -4036    -4105    -4164 
   -4267    -4367    -4341    -4206    -4091    -4051    -4060    -4051 
   -4020    -4063    -4160    -4201    -4232    -4286    -4236    -4098 
   -4067    -4118    -4094    -4070    -4136    -4131    -4035    -4079 
   -4203    -4167    -4074    -4116    -4199    -4267    -4356    -4340 
   -4147    -4005    -4072    -4171    -4153    -4148    -4222    -4187 
   -4004    -3959    -4126    -4224    -4108    -3942    -3951    -4172 
   -4345    -4257    -4087    -4066    -4153    -4198    -4143    -4055 
   -4051    -4137    -4170    -4091    -4097    -4260    -4287    -4098 
   -4018    -4117    -4152    -4108    -4072    -4054    -4124    -4243 
   -4293    -4282    -4198    -4068    -4045    -4101    -4074    -3990 
   -3991    -4120    -4282    -4325    -4182    -4005    -4023    -4168 
   -4132    -3940    -3931    -4089    -4120    -4063    -4131    -4279 
   -4347    -4320    -4260    -4183    -4116    -4120    -4125    -4035 
   -3921    -3925    -4062    -4197    -4195    -4110    -4087    -4186 
   -4317    -4314    -4202    -4194    -4264    -4212    -4126    -4206 
   -4301    -4162    -3929    -3875    -3902    -3890    -3990    -4221 
   -4342    -4276    -4248    -4317    -4256    -4028    -3821    -3813 
   -4043    -4260    -4247    -4178    -4245    -4301    -4216    -4137 
   -4156    -4156    -4097    -4117    -4253    -4332    -4218    -4018 
   -3882    -3862    -3939    -4047    -4083    -4059    -4098    -4205 
   -4249    -4241    -4282    -4301    -4217    -4174    -4293    -4437 
   -4376    -4093    -3863    -3893    -4052    -4156    -4158    -4136 
   -4228    -4337    -4264    -4126    -4075    -4028    -3962    -3978 
   -4064    -4086    -4052    -4089    -4143    -4108    -4090    -4143 
   -4124    -4062    -4099    -4168    -4189    -4237    -4286    -4201 
   -4060    -4039    -4056    -4004    -4004    -4109    -4186    -4232 
   -4286    -4233    -4068    -3983    -4067    -4189    -4203    -4191 
   -4267    -4291    -4217    -4236    -4275    -4153    -4027    -4032 
   -4045    -4004    -3962    -3939    -3944    -4054    -4270    -4392 
   -4311    -4212    -4178    -4067    -3936    -4029    -4275    -4325 
   -4098    -3916    -4050    -4322    -4355    -4099    -3890    -3969 
   -4190    -4283    -4272    -4363    -4467    -4333    -4081    -3998 
   -4014    -3933    -3878    -3983    -4121    -4186    -4172    -4095 
   -4074    -4168    -4245    -4226    -4171    -4141    -4110    -4062 
   -4120    -4334    -4483    -4368    -4126    -4005    -3982    -3925 
   -3935    -4129    -4283    -4217    -4160    -4274    -4359    -4283 
   -4131    -3982    -3936    -4052    -4166    -4095    -3951    -3946 
   -4066    -4133    -4114    -4114    -4168    -4228    -4274    -4326 
   -4371    -4317    -4136    -4024    -4117    -4197    -4048    -3850 
   -3855    -4029    -4210    -4298    -4322    -4371    -4321    -4054 
   -3842    -3901    -3996    -3966    -4001    -4144    -4198    -4163 
   -4214    -4307    -4305    -4272    -4257    -4131    -3931    -3956 
   -4243    -4421    -4398    -4434    -4463    -4218    -3858    -3743 
   -3896    -4054    -4063    -3989    -3928    -3889    -3908    -4027 
   -4163    -4222    -4222    -4212    -4239    -4324    -4409    -4423 
   -4348    -4205    -4093    -4094    -4151    -4183    -4180    -4149 
   -4118    -4087    -4008    -3921    -3892    -3878    -3897    -3981 
   -4041    -4068    -4187    -4363    -4433    -4402    -4337    -4233 
   -4132    -4093    -4104    -4132    -4151    -4153    -4176    -4210 
   -4203    -4140    -4018    -3897    -3875    -3993    -4217    -4465 
   -4611    -4552    -4261    -3870    -3592    -3585    -3800    -4028 
   -4179    -4344    -4464    -4372    -4180    -4090    -4027    -3908 
   -3933    -4174    -4329    -4253    -4180    -4197    -4148    -4044 
   -4024    -4087    -4094    -4035    -4090    -4263    -4355    -4345 
   -4328    -4255    -4055    -3828    -3763    -3913    -4145    -4309 
   -4396    -4477    -4469    -4233    -3898    -3735    -3782    -3939 
   -4213    -4506    -4592    -4513    -4453    -4337    -4037    -3763 
   -3796    -4013    -4117    -4095    -4118    -4178    -4126    -4010 
   -3993    -4012    -3942    -3881    -3920    -4023    -4191    -4372 
   -4394    -4298    -4295    -4337    -4264    -4149    -4141    -4240 
   -4355    -4394    -4306    -4090    -3816    -3651    -3693    -3805 
   -3910    -4121    -4380    -4459    -4318    -4163    -4106    -4044 
   -3970    -4037    -4203    -4299    -4321    -4271    -4124    -4020 
   -4101    -4271    -4360    -4317    -4198    -4072    -3987    -3948 
   -3927    -3986    -4183    -4367    -4411    -4409    -4382    -4216 
   -3943    -3781    -3832    -3946    -3990    -4025    -4110    -4186 
   -4218    -4263    -4276    -4159    -3993    -3933    -3971    -3966 
   -3898    -3960    -4171    -4267    -4186    -4175    -4313    -4374 
   -4230    -4051    -4008    -4071    -4152    -4229    -4283    -4307 
   -4329    -4324    -4263    -4240    -4288    -4290    -4228    -4145 
   -3993    -3840    -3829    -3892    -3933    -4060    -4259    -4330 
   -4259    -4158    -4014    -3892    -3987    -4253    -4399    -4371 
   -4359    -4352    -4209    -4045    -4040    -4104    -4063    -3967 
   -3956    -4000    -4006    -3987    -4012    -4121    -4241    -4278 
   -4267    -4232    -4145    -4056    -4010    -4014    -4064    -4139 
   -4203    -4172    -4051    -4045    -4194    -4260    -4156    -4043 
   -4018    -4017    -4014    -4106    -4249    -4266    -4198    -4256 
   -4430    -4523    -4448    -4268    -4101    -4001    -3982    -4048 
   -4158    -4267    -4290    -4137    -3943    -3917    -4025    -4094 
   -4036    -3946    -3969    -4098    -4228    -4310    -4361    -4398 
   -4391    -4275    -4062    -3905    -3874    -3836    -3816    -3970 
   -4199    -4340    -4441    -4502    -4430    -4272    -4137    -4043 
   -3963    -3924    -3954    -3991    -3985    -4000    -4059    -4126 
   -4210    -4233    -4102    -3977    -4018    -4112    -4147    -4190 
   -4279    -4347    -4324    -4239    -4187    -4197    -4172    -4045 
   -3894    -3843    -3919    -4050    -4172    -4288    -4406    -4486 
   -4450    -4297    -4125    -4014    -3969    -3970    -4013    -4085 
   -4139    -4148    -4172    -4286    -4445    -4529    -4460    -4252 
   -4001    -3834    -3785    -3847    -3996    -4147    -4216    -4186 
   -4117    -4109    -4145    -4101    -3977    -3928    -4013    -4140 
   -4241    -4333    -4399    -4352    -4171    -4050    -4166    -4375 
   -4398    -4213    -4029    -3946    -3933    -4043    -4297    -4526 
   -4617    -4617    -4526    -4333    -4166    -4102    -4017    -3859 
   -3784    -3866    -3946    -3892    -3743    -3616    -3622    -3727 
   -3763    -3748    -3823    -3923    -3955    -3989    -4090    -4257 
   -4433    -4537    -4546    -4504    -4459    -4395    -4329    -4347 
   -4473    -4644    -4783    -4850    -4766    -4405    -3835    -3387 
   -3294    -3478    -3713    -3900    -4099    -4324    -4480    -4467 
   -4301    -4113    -3927    -3703    -3597    -3730    -3956    -4110 
   -4160    -4128    -4014    -3851    -3730    -3709    -3765    -3848 
   -3946    -4072    -4205    -4298    -4423    -4599    -4630    -4452 
   -4264    -4172    -4114    -4108    -4271    -4623    -4957    -5027 
   -4823    -4557    -4383    -4248    -4093    -3971    -3906    -3817 
   -3642    -3474    -3429    -3478    -3564    -3666    -3763    -3862 
   -3993    -4148    -4253    -4257    -4247    -4297    -4386    -4518 
   -4693    -4789    -4680    -4428    -4185    -4068    -4118    -4193 
   -4151    -4079    -4071    -4058    -4031    -4072    -4201    -4330 
   -4318    -4124    -3928    -3885    -3935    -3970    -3990    -3994 
   -3956    -3935    -3971    -3971    -3832    -3624    -3550    -3742 
   -4099    -4426    -4718    -4973    -4990    -4706    -4360    -4166 
   -4068    -3962    -3919    -4068    -4324    -4452    -4374    -4180 
   -3933    -3711    -3685    -3892    -4164    -4383    -4526    -4502 
   -4297    -4118    -4055    -4001    -3975    -4033    -4153    -4363 
   -4607    -4691    -4548    -4243    -3942    -3882    -4024    -4036 
   -3815    -3514    -3254    -3132    -3213    -3470    -3835    -4209 
   -4507    -4664    -4688    -4714    -4819    -4876    -4772    -4561 
   -4320    -4051    -3758    -3484    -3326    -3349    -3572    -3983 
   -4445    -4757    -4869    -4839    -4699    -4448    -4156    -3958 
   -3927    -4045    -4179    -4183    -4133    -4140    -4164    -4199 
   -4252    -4291    -4317    -4267    -4166    -4189    -4275    -4216 
   -4012    -3767    -3580    -3554    -3700    -3963    -4270    -4492 
   -4522    -4344    -4108    -3978    -3909    -3798    -3717    -3746 
   -3808    -3829    -3912    -4121    -4328    -4440    -4480    -4460 
   -4460    -4513    -4480    -4326    -4260    -4375    -4433    -4237 
   -3935    -3743    -3676    -3688    -3816    -4101    -4459    -4722 
   -4770    -4577    -4226    -3862    -3626    -3584    -3709    -3943 
   -4198    -4351    -4342    -4201    -4016    -3881    -3809    -3792 
   -3856    -4009    -4251    -4530    -4691    -4666    -4504    -4224 
   -3901    -3724    -3771    -3973    -4225    -4415    -4491    -4463 
   -4353    -4240    -4225    -4286    -4298    -4220    -4120    -3991 
   -3770    -3562    -3527    -3638    -3805    -4029    -4266    -4395 
   -4378    -4278    -4147    -4006    -3924    -3923    -3910    -3910 
   -4066    -4267    -4317    -4293    -4303    -4247    -4090    -3996 
   -4094    -4310    -4491    -4612    -4685    -4631    -4429    -4194 
   -4014    -3847    -3707    -3696    -3789    -3905    -3989    -3969 
   -3931    -4050    -4301    -4504    -4554    -4531    -4527    -4433 
   -4186    -3969    -3915    -3927    -3877    -3788    -3800    -3996 
   -4253    -4422    -4461    -4376    -4243    -4163    -4098    -4039 
   -4108    -4275    -4349    -4266    -4109    -3967    -3893    -3913 
   -4032    -4189    -4305    -4365    -4342    -4206    -4020    -3812 
   -3595    -3531    -3719    -3994    -4202    -4365    -4530    -4672 
   -4747    -4722    -4614    -4517    -4526    -4583    -4537    -4442 
   -4345    -4120    -3777    -3526    -3464    -3489    -3535    -3564 
   -3469    -3370    -3516    -3923    -4419    -4801    -4947    -4868 
   -4610    -4305    -4131    -4098    -4109    -4128    -4152    -4189 
   -4239    -4237    -4133    -3973    -3850    -3784    -3754    -3842 
   -4075    -4307    -4391    -4324    -4252    -4283    -4357    -4383 
   -4341    -4298    -4295    -4263    -4159    -3990    -3750    -3526 
   -3411    -3402    -3495    -3747    -4167    -4621    -4896    -4945 
   -4831    -4573    -4249    -4002    -3896    -3951    -4087    -4144 
   -4087    -4005    -3969    -3913    -3780    -3716    -3815    -3951 
   -4067    -4236    -4429    -4523    -4464    -4255    -3983    -3774 
   -3609    -3483    -3523    -3730    -3994    -4284    -4542    -4702 
   -4787    -4779    -4660    -4510    -4338    -4067    -3746    -3543 
   -3591    -3840    -4137    -4391    -4603    -4762    -4831    -4787 
   -4650    -4460    -4216    -3901    -3608    -3478    -3554    -3770 
   -4048    -4328    -4565    -4758    -4908    -4977    -4892    -4611 
   -4178    -3680    -3246    -2979    -2882    -2941    -3106    -3269 
   -3419    -3624    -3913    -4295    -4681    -4909    -4968    -4866 
   -4634    -4450    -4363    -4218    -3974    -3762    -3705    -3788 
   -3923    -4109    -4330    -4482    -4540    -4577    -4577    -4461 
   -4207    -3890    -3649    -3568    -3649    -3847    -4048    -4202 
   -4330    -4402    -4465    -4596    -4733    -4803    -4818    -4745 
   -4519    -4212    -3987    -3852    -3730    -3692    -3836    -4064 
   -4210    -4217    -4079    -3894    -3827    -3873    -3915    -3960 
   -4017    -3960    -3753    -3553    -3561    -3792    -4025    -4148 
   -4282    -4491    -4700    -4835    -4897    -4861    -4653    -4306 
   -3935    -3626    -3460    -3478    -3666    -3973    -4336    -4649 
   -4773    -4719    -4638    -4538    -4367    -4153    -3947    -3804 
   -3757    -3735    -3701    -3663    -3647    -3720    -3859    -3994 
   -4193    -4472    -4679    -4679    -4554    -4498    -4441    -4228 
   -3921    -3618    -3400    -3364    -3510    -3770    -4025    -4163 
   -4174    -4136    -4143    -4226    -4361    -4527    -4698    -4810 
   -4768    -4518    -4136    -3827    -3769    -3948    -4256    -4572 
   -4808    -4924    -4857    -4630    -4417    -4322    -4267    -4120 
   -3877    -3674    -3586    -3559    -3512    -3443    -3412    -3446 
   -3518    -3646    -3835    -4031    -4220    -4403    -4587    -4731 
   -4714    -4519    -4294    -4166    -4151    -4203    -4317    -4459 
   -4533    -4514    -4437    -4328    -4213    -4075    -3936    -3873 
   -3842    -3800    -3766    -3700    -3631    -3655    -3763    -3874 
   -3939    -3929    -3843    -3786    -3921    -4260    -4610    -4799 
   -4858    -4907    -4949    -4884    -4702    -4498    -4334    -4189 
   -4066    -4012    -3983    -3890    -3789    -3763    -3767    -3766 
   -3757    -3735    -3809    -4082    -4449    -4684    -4679    -4496 
   -4213    -3908    -3726    -3731    -3823    -3900    -3928    -3877 
   -3765    -3688    -3684    -3730    -3878    -4139    -4347    -4390 
   -4349    -4330    -4303    -4232    -4163    -4137    -4126    -4133 
   -4198    -4322    -4429    -4444    -4395    -4309    -4191    -4129 
   -4162    -4178    -4105    -4020    -4064    -4252    -4456    -4610 
   -4769    -4888    -4830    -4639    -4401    -4094    -3821    -3693 
   -3681    -3771    -3951    -4097    -4102    -4024    -3998    -3994 
   -3917    -3852    -3856    -3878    -3955    -4122    -4271    -4342 
   -4372    -4303    -4077    -3792    -3557    -3443    -3566    -3881 
   -4194    -4392    -4450    -4357    -4147    -3932    -3842    -3896 
   -4028    -4193    -4399    -4599    -4675    -4595    -4430    -4234 
   -4066    -3987    -3970    -3975    -4048    -4172    -4237    -4214 
   -4144    -4067    -4043    -4093    -4159    -4178    -4175    -4179 
   -4149    -4093    -4013    -3856    -3678    -3608    -3686    -3861 
   -4081    -4299    -4430    -4457    -4421    -4329    -4270    -4305 
   -4380    -4464    -4552    -4644    -4689    -4614    -4490    -4406 
   -4307    -4194    -4129    -4101    -4066    -4008    -3966    -3955 
   -3902    -3780    -3631    -3515    -3487    -3558    -3723    -3947 
   -4145    -4303    -4460    -4612    -4719    -4704    -4572    -4398 
   -4232    -4148    -4197    -4237    -4117    -3906    -3763    -3739 
   -3859    -4093    -4321    -4479    -4521    -4374    -4112    -3888 
   -3746    -3646    -3611    -3731    -3954    -4180    -4413    -4612 
   -4768    -4893    -4888    -4668    -4274    -3869    -3586    -3442 
   -3501    -3774    -4058    -4256    -4426    -4519    -4469    -4303 
   -4089    -3916    -3817    -3801    -3898    -4036    -4091    -4033 
   -3908    -3804    -3793    -3861    -3951    -4035    -4104    -4156 
   -4226    -4317    -4388    -4476    -4619    -4714    -4648    -4459 
   -4222    -3964    -3735    -3601    -3595    -3682    -3817    -3996 
   -4156    -4251    -4340    -4401    -4376    -4357    -4334    -4236 
   -4162    -4178    -4216    -4222    -4178    -4110    -4104    -4175 
   -4263    -4315    -4290    -4213    -4135    -4037    -3955    -3935 
   -3925    -3910    -3946    -4048    -4163    -4237    -4253    -4185 
   -4067    -3982    -3937    -3908    -3937    -4079    -4255    -4379 
   -4472    -4480    -4351    -4203    -4110    -4002    -3910    -3937 
   -3977    -3925    -3906    -3942    -3931    -3942    -4023    -4063 
   -4054    -4098    -4216    -4364    -4517    -4630    -4638    -4498 
   -4239    -3956    -3731    -3609    -3593    -3651    -3778    -3944 
   -4087    -4170    -4172    -4160    -4236    -4355    -4426    -4494 
   -4583    -4603    -4522    -4418    -4353    -4326    -4306    -4307 
   -4363    -4395    -4326    -4186    -4036    -3932    -3863    -3773 
   -3657    -3580    -3616    -3755    -3908    -4077    -4307    -4518 
   -4618    -4623    -4553    -4432    -4336    -4283    -4213    -4117 
   -4040    -3954    -3807    -3638    -3526    -3524    -3657    -3867 
   -4099    -4320    -4475    -4558    -4585    -4533    -4433    -4355 
   -4313    -4279    -4237    -4224    -4260    -4305    -4326    -4330 
   -4287    -4162    -3983    -3809    -3685    -3653    -3694    -3739 
   -3792    -3892    -3964    -3959    -3954    -4039    -4202    -4405 
   -4642    -4831    -4885    -4792    -4557    -4275    -4051    -3890 
   -3786    -3740    -3766    -3902    -4108    -4259    -4280    -4214 
   -4140    -4068    -3971    -3902    -3921    -3979    -4010    -4045 
   -4128    -4213    -4244    -4252    -4275    -4283    -4256    -4221 
   -4180    -4116    -4047    -4005    -4035    -4167    -4322    -4363 
   -4282    -4179    -4086    -3977    -3878    -3835    -3848    -3932 
   -4077    -4167    -4162    -4178    -4257    -4336    -4411    -4488 
