Origin Time       2025/03/28 03:50:00
Lat.              35.403
Long.             140.360
Depth. (km)       54
Mag.              4.4
Station Code      IBRH08
Station Lat.      36.1188
Station Long.     140.5621
Station Height(m) -1160
Record Time       2025/03/28 03:51:04
Sampling Freq(Hz) 100Hz
Duration Time(s)  120
Dir.              2
Scale Factor      7845(gal)/8223790
Max. Acc. (gal)   0.166
Last Correction   2025/03/28 03:51:04
Memo.             
[...]
  -12240   -12240   -12240   -12240   -12240   -12240   -12240   -12241 
  -12243   -12243   -12240   -12241   -12241   -12240   -12240   -12243 
  -12244   -12243   -12241   -12240   -12241   -12243   -12243   -12243 
  -12241   -12240   -12244   -12245   -12240   -12240   -12245   -12243 
  -12243   -12245   -12241   -12240   -12245   -12245   -12241   -12243 
  -12245   -12243   -12243   -12244   -12241   -12239   -12240   -12240 
  -12236   -12236   -12239   -12237   -12233   -12235   -12237   -12236 
  -12236   -12237   -12236   -12237   -12241   -12243   -12243   -12243 
  -12243   -12241   -12241   -12244   -12245   -12248   -12249   -12247 
  -12245   -12244   -12243   -12243   -12245   -12244   -12239   -12237 
  -12237   -12237   -12239   -12240   -12240   -12236   -12235   -12237 
  -12241   -12243   -12245   -12248   -12249   -12245   -12240   -12239 
  -12240   -12239   -12240   -12248   -12251   -12245   -12241   -12244 
  -12245   -12245   -12245   -12240   -12237   -12235   -12229   -12226 
  -12232   -12237   -12243   -12245   -12247   -12244   -12239   -12239 
  -12244   -12244   -12241   -12239   -12239   -12243   -12244   -12243 
  -12243   -12245   -12248   -12243   -12236   -12240   -12244   -12243 
  -12247   -12253   -12253   -12253   -12253   -12249   -12247   -12245 
  -12237   -12236   -12241   -12240   -12237   -12241   -12243   -12240 
  -12236   -12232   -12232   -12236   -12243   -12241   -12235   -12236 
  -12241   -12241   -12237   -12233   -12228   -12229   -12235   -12240 
  -12244   -12247   -12247   -12243   -12237   -12235   -12240   -12247 
  -12248   -12249   -12252   -12251   -12244   -12239   -12236   -12235 
  -12235   -12233   -12231   -12231   -12239   -12245   -12239   -12239 
  -12251   -12249   -12241   -12240   -12237   -12232   -12232   -12233 
  -12233   -12236   -12239   -12237   -12236   -12239   -12241   -12239 
  -12231   -12231   -12237   -12243   -12243   -12237   -12232   -12231 
  -12237   -12248   -12255   -12252   -12243   -12235   -12233   -12241 
  -12244   -12241   -12244   -12244   -12239   -12243   -12249   -12253 
  -12252   -12248   -12252   -12258   -12253   -12249   -12247   -12244 
  -12248   -12249   -12240   -12236   -12237   -12236   -12236   -12232 
  -12225   -12228   -12235   -12236   -12239   -12243   -12245   -12249 
  -12245   -12237   -12237   -12237   -12235   -12235   -12232   -12233 
  -12241   -12244   -12243   -12248   -12253   -12249   -12235   -12217 
  -12214   -12231   -12248   -12256   -12258   -12252   -12244   -12237 
  -12237   -12236   -12236   -12240   -12243   -12247   -12249   -12241 
  -12243   -12256   -12259   -12248   -12241   -12248   -12255   -12248 
  -12241   -12240   -12239   -12237   -12233   -12226   -12228   -12237 
  -12241   -12237   -12232   -12237   -12241   -12233   -12225   -12229 
  -12236   -12235   -12232   -12233   -12236   -12237   -12244   -12256 
  -12260   -12252   -12239   -12229   -12235   -12247   -12244   -12233 
  -12228   -12232   -12251   -12264   -12268   -12268   -12260   -12251 
  -12249   -12245   -12239   -12240   -12239   -12229   -12222   -12217 
  -12220   -12236   -12249   -12249   -12241   -12235   -12231   -12232 
  -12241   -12248   -12255   -12259   -12262   -12260   -12251   -12235 
  -12228   -12232   -12239   -12248   -12258   -12252   -12245   -12253 
  -12262   -12258   -12247   -12233   -12214   -12205   -12210   -12220 
  -12228   -12232   -12233   -12237   -12240   -12236   -12231   -12235 
  -12247   -12253   -12249   -12240   -12236   -12237   -12235   -12237 
  -12252   -12260   -12255   -12258   -12259   -12249   -12245   -12248 
  -12241   -12226   -12224   -12236   -12244   -12239   -12225   -12221 
  -12233   -12241   -12229   -12222   -12237   -12256   -12262   -12256 
  -12258   -12270   -12270   -12251   -12240   -12243   -12245   -12241 
  -12231   -12222   -12229   -12240   -12236   -12226   -12229   -12237 
  -12241   -12244   -12243   -12249   -12262   -12263   -12247   -12232 
  -12232   -12240   -12248   -12249   -12245   -12244   -12226   -12201 
  -12197   -12210   -12216   -12218   -12237   -12262   -12268   -12263 
  -12258   -12248   -12240   -12239   -12247   -12260   -12264   -12259 
  -12258   -12244   -12225   -12228   -12241   -12247   -12247   -12248 
  -12248   -12249   -12259   -12256   -12232   -12222   -12236   -12244 
  -12240   -12233   -12229   -12233   -12244   -12245   -12229   -12218 
  -12222   -12224   -12220   -12225   -12243   -12263   -12264   -12248 
  -12245   -12247   -12226   -12214   -12239   -12274   -12287   -12276 
  -12263   -12253   -12243   -12232   -12218   -12205   -12204   -12213 
  -12229   -12240   -12233   -12220   -12221   -12237   -12244   -12237 
  -12241   -12262   -12274   -12263   -12247   -12240   -12233   -12228 
  -12233   -12235   -12240   -12262   -12270   -12258   -12251   -12256 
  -12268   -12264   -12231   -12198   -12185   -12195   -12222   -12248 
  -12255   -12248   -12240   -12229   -12217   -12214   -12225   -12226 
  -12216   -12212   -12226   -12247   -12258   -12256   -12259   -12271 
  -12286   -12287   -12275   -12253   -12233   -12235   -12253   -12264 
  -12264   -12259   -12243   -12224   -12216   -12217   -12224   -12226 
  -12231   -12247   -12252   -12244   -12252   -12260   -12256   -12259 
  -12260   -12253   -12249   -12244   -12237   -12221   -12198   -12206 
  -12232   -12235   -12228   -12233   -12235   -12228   -12225   -12225 
  -12232   -12247   -12243   -12220   -12221   -12255   -12283   -12278 
  -12251   -12233   -12235   -12239   -12233   -12232   -12236   -12245 
  -12248   -12237   -12235   -12247   -12255   -12260   -12260   -12249 
  -12245   -12247   -12247   -12248   -12245   -12231   -12218   -12226 
  -12244   -12255   -12256   -12248   -12240   -12249   -12268   -12272 
  -12255   -12240   -12236   -12226   -12212   -12197   -12187   -12193 
  -12205   -12214   -12228   -12241   -12245   -12248   -12248   -12241 
  -12235   -12240   -12243   -12232   -12218   -12221   -12236   -12247 
  -12259   -12274   -12276   -12271   -12279   -12278   -12248   -12221 
  -12212   -12198   -12194   -12221   -12252   -12260   -12260   -12263 
  -12255   -12249   -12249   -12237   -12218   -12210   -12221   -12244 
  -12260   -12256   -12245   -12240   -12249   -12264   -12268   -12264 
  -12255   -12251   -12255   -12253   -12243   -12243   -12248   -12245 
  -12239   -12232   -12221   -12210   -12204   -12205   -12212   -12229 
  -12258   -12270   -12258   -12236   -12225   -12232   -12229   -12208 
  -12202   -12213   -12217   -12225   -12245   -12271   -12295   -12306 
  -12302   -12287   -12268   -12247   -12233   -12229   -12220   -12204 
  -12204   -12218   -12224   -12217   -12217   -12226   -12236   -12240 
  -12235   -12231   -12253   -12279   -12290   -12298   -12298   -12283 
  -12274   -12276   -12275   -12274   -12283   -12286   -12263   -12233 
  -12204   -12167   -12144   -12150   -12179   -12206   -12216   -12222 
  -12228   -12222   -12224   -12243   -12249   -12235   -12225   -12214 
  -12209   -12226   -12249   -12259   -12264   -12263   -12252   -12255 
  -12271   -12276   -12263   -12249   -12236   -12224   -12222   -12236 
  -12255   -12275   -12279   -12268   -12263   -12259   -12259   -12262 
  -12249   -12239   -12247   -12258   -12253   -12243   -12247   -12256 
  -12256   -12252   -12247   -12243   -12237   -12221   -12204   -12204 
  -12209   -12212   -12210   -12204   -12198   -12194   -12183   -12185 
  -12206   -12220   -12221   -12235   -12253   -12256   -12236   -12225 
  -12243   -12268   -12283   -12280   -12270   -12267   -12263   -12253 
  -12251   -12251   -12245   -12253   -12280   -12302   -12302   -12295 
  -12274   -12240   -12222   -12216   -12213   -12216   -12209   -12202 
  -12209   -12226   -12255   -12280   -12282   -12267   -12249   -12226 
  -12205   -12190   -12182   -12189   -12204   -12209   -12221   -12247 
  -12274   -12298   -12301   -12264   -12209   -12177   -12177   -12193 
  -12217   -12243   -12263   -12270   -12270   -12268   -12260   -12247 
  -12249   -12264   -12263   -12243   -12232   -12237   -12241   -12229 
  -12220   -12225   -12239   -12252   -12258   -12256   -12256   -12247 
  -12232   -12232   -12237   -12241   -12249   -12253   -12249   -12239 
  -12237   -12247   -12253   -12251   -12241   -12236   -12235   -12236 
  -12232   -12225   -12235   -12244   -12245   -12253   -12263   -12253 
  -12241   -12243   -12241   -12226   -12208   -12186   -12182   -12202 
  -12209   -12186   -12175   -12199   -12237   -12267   -12298   -12332 
  -12344   -12337   -12333   -12317   -12285   -12256   -12239   -12226 
  -12221   -12216   -12210   -12216   -12229   -12241   -12241   -12226 
  -12206   -12189   -12186   -12208   -12236   -12252   -12253   -12248 
  -12245   -12255   -12268   -12278   -12275   -12266   -12260   -12259 
  -12253   -12236   -12214   -12202   -12199   -12193   -12185   -12186 
  -12194   -12199   -12212   -12233   -12249   -12262   -12285   -12302 
  -12303   -12298   -12294   -12278   -12258   -12248   -12248   -12243 
  -12225   -12205   -12201   -12202   -12194   -12197   -12217   -12240 
  -12255   -12258   -12253   -12255   -12248   -12225   -12208   -12216 
  -12239   -12262   -12282   -12297   -12289   -12264   -12239   -12224 
  -12233   -12253   -12236   -12198   -12185   -12193   -12208   -12221 
  -12216   -12193   -12186   -12206   -12225   -12221   -12218   -12228 
  -12236   -12241   -12247   -12241   -12228   -12229   -12248   -12271 
  -12278   -12278   -12290   -12302   -12297   -12295   -12293   -12283 
  -12283   -12276   -12253   -12237   -12226   -12213   -12208   -12209 
  -12221   -12241   -12249   -12247   -12241   -12224   -12194   -12168 
  -12162   -12172   -12179   -12179   -12189   -12204   -12210   -12228 
  -12256   -12268   -12258   -12252   -12258   -12251   -12239   -12236 
  -12235   -12251   -12290   -12309   -12298   -12279   -12252   -12224 
  -12213   -12240   -12287   -12317   -12305   -12264   -12222   -12195 
  -12193   -12209   -12213   -12213   -12233   -12268   -12294   -12303 
  -12297   -12286   -12282   -12295   -12309   -12295   -12283   -12301 
  -12320   -12313   -12298   -12275   -12228   -12177   -12143   -12128 
  -12132   -12143   -12137   -12116   -12108   -12127   -12152   -12174 
  -12205   -12228   -12225   -12209   -12194   -12204   -12260   -12341 
  -12382   -12364   -12314   -12271   -12251   -12244   -12240   -12235 
  -12228   -12217   -12199   -12181   -12185   -12224   -12291   -12351 
  -12372   -12367   -12352   -12313   -12248   -12204   -12193   -12174 
  -12143   -12151   -12193   -12217   -12249   -12302   -12313   -12283 
  -12270   -12259   -12228   -12206   -12206   -12201   -12172   -12162 
  -12204   -12270   -12314   -12322   -12321   -12326   -12334   -12329 
  -12302   -12267   -12224   -12170   -12127   -12102   -12101   -12137 
  -12201   -12260   -12290   -12279   -12252   -12244   -12255   -12271 
  -12286   -12295   -12286   -12235   -12183   -12178   -12204   -12226 
  -12240   -12249   -12270   -12298   -12306   -12291   -12283   -12282 
  -12268   -12270   -12290   -12295   -12289   -12282   -12263   -12226 
  -12182   -12158   -12177   -12206   -12216   -12214   -12204   -12194 
  -12202   -12213   -12218   -12217   -12212   -12213   -12225   -12249 
  -12289   -12307   -12285   -12256   -12251   -12249   -12233   -12214 
  -12206   -12189   -12158   -12152   -12177   -12195   -12201   -12209 
  -12218   -12233   -12248   -12259   -12267   -12262   -12233   -12194 
  -12163   -12159   -12183   -12228   -12283   -12318   -12318   -12307 
  -12298   -12283   -12278   -12286   -12279   -12253   -12232   -12222 
  -12222   -12233   -12248   -12264   -12279   -12285   -12276   -12262 
  -12249   -12237   -12218   -12216   -12237   -12251   -12262   -12290 
  -12318   -12320   -12299   -12286   -12283   -12263   -12199   -12121 
  -12078   -12078   -12110   -12162   -12221   -12287   -12343   -12374 
  -12387   -12372   -12329   -12276   -12220   -12178   -12167   -12174 
  -12172   -12151   -12117   -12104   -12137   -12204   -12267   -12301 
  -12302   -12293   -12290   -12294   -12289   -12272   -12258   -12235 
  -12217   -12243   -12302   -12339   -12333   -12325   -12328   -12325 
  -12314   -12294   -12267   -12245   -12235   -12222   -12216   -12218 
  -12210   -12191   -12177   -12172   -12178   -12195   -12228   -12260 
  -12286   -12294   -12283   -12248   -12182   -12106   -12069   -12094 
  -12154   -12198   -12212   -12221   -12244   -12271   -12293   -12309 
  -12306   -12290   -12275   -12256   -12252   -12282   -12298   -12275 
  -12239   -12217   -12220   -12248   -12283   -12299   -12287   -12262 
  -12251   -12256   -12262   -12276   -12301   -12325   -12329   -12305 
  -12270   -12235   -12189   -12148   -12140   -12155   -12162   -12133 
  -12091   -12073   -12086   -12128   -12182   -12222   -12224   -12225 
  -12264   -12320   -12355   -12371   -12363   -12325   -12286   -12267 
  -12268   -12291   -12317   -12314   -12279   -12216   -12151   -12120 
  -12128   -12148   -12167   -12187   -12216   -12233   -12224   -12214 
  -12213   -12214   -12225   -12235   -12248   -12280   -12309   -12313 
  -12301   -12271   -12228   -12191   -12181   -12197   -12228   -12268 
  -12318   -12361   -12376   -12361   -12341   -12336   -12334   -12316 
  -12280   -12235   -12179   -12145   -12145   -12160   -12185   -12213 
  -12224   -12226   -12243   -12270   -12286   -12283   -12260   -12202 
  -12120   -12067   -12073   -12101   -12124   -12144   -12163   -12198 
  -12252   -12293   -12305   -12299   -12285   -12271   -12267   -12258 
  -12243   -12253   -12279   -12287   -12276   -12264   -12255   -12245 
  -12243   -12240   -12232   -12210   -12171   -12137   -12156   -12225 
  -12278   -12279   -12266   -12271   -12289   -12314   -12337   -12344 
  -12336   -12314   -12271   -12224   -12189   -12162   -12158   -12193 
  -12241   -12274   -12290   -12307   -12322   -12328   -12336   -12340 
  -12317   -12283   -12271   -12270   -12262   -12262   -12262   -12245 
  -12232   -12239   -12243   -12222   -12198   -12190   -12186   -12172 
  -12162   -12164   -12172   -12186   -12212   -12239   -12241   -12233 
  -12235   -12232   -12218   -12221   -12245   -12271   -12285   -12287 
  -12275   -12248   -12226   -12225   -12235   -12241   -12239   -12237 
  -12244   -12253   -12266   -12286   -12310   -12310   -12278   -12241 
  -12217   -12195   -12168   -12135   -12105   -12101   -12121   -12144 
  -12178   -12224   -12262   -12297   -12321   -12322   -12320   -12306 
  -12264   -12221   -12199   -12199   -12206   -12218   -12240   -12263 
  -12276   -12289   -12297   -12294   -12271   -12239   -12213   -12195 
  -12197   -12224   -12231   -12212   -12210   -12247   -12286   -12302 
  -12302   -12295   -12285   -12274   -12256   -12244   -12256   -12278 
  -12278   -12266   -12258   -12247   -12247   -12262   -12258   -12237 
  -12229   -12231   -12228   -12217   -12194   -12175   -12174   -12186 
  -12209   -12237   -12251   -12247   -12233   -12210   -12179   -12156 
  -12154   -12155   -12143   -12129   -12133   -12160   -12201   -12243 
  -12285   -12325   -12336   -12320   -12302   -12287   -12272   -12262 
  -12251   -12236   -12225   -12228   -12241   -12263   -12298   -12333 
  -12349   -12347   -12340   -12324   -12294   -12267   -12245   -12222 
  -12202   -12193   -12202   -12218   -12220   -12221   -12244   -12279 
  -12297   -12275   -12220   -12162   -12121   -12110   -12131   -12162 
  -12179   -12187   -12206   -12239   -12275   -12305   -12307   -12282 
  -12252   -12245   -12248   -12237   -12225   -12229   -12244   -12262 
  -12274   -12275   -12267   -12247   -12214   -12191   -12206   -12248 
  -12283   -12294   -12290   -12275   -12259   -12248   -12220   -12183 
  -12171   -12177   -12175   -12182   -12213   -12252   -12279   -12299 
  -12316   -12322   -12309   -12283   -12264   -12263   -12267   -12263 
  -12244   -12224   -12220   -12232   -12236   -12218   -12198   -12187 
  -12190   -12204   -12231   -12263   -12282   -12276   -12255   -12255 
  -12282   -12306   -12310   -12302   -12287   -12279   -12282   -12276 
  -12259   -12245   -12232   -12220   -12217   -12210   -12197   -12201 
  -12210   -12216   -12229   -12244   -12248   -12256   -12266   -12268 
  -12275   -12289   -12290   -12275   -12259   -12248   -12245   -12249 
  -12249   -12251   -12260   -12271   -12263   -12233   -12199   -12187 
  -12199   -12214   -12229   -12241   -12239   -12229   -12225   -12212 
  -12181   -12154   -12141   -12141   -12147   -12156   -12168   -12187 
  -12204   -12198   -12186   -12185   -12198   -12233   -12260   -12255 
  -12237   -12231   -12232   -12243   -12258   -12270   -12291   -12318 
  -12339   -12345   -12333   -12309   -12283   -12268   -12274   -12291 
  -12305   -12303   -12297   -12291   -12286   -12287   -12285   -12268 
  -12252   -12243   -12233   -12220   -12210   -12206   -12208   -12217 
  -12231   -12239   -12232   -12216   -12204   -12204   -12199   -12193 
  -12189   -12189   -12199   -12214   -12216   -12214   -12220   -12225 
  -12229   -12241   -12262   -12286   -12291   -12275   -12256   -12240 
  -12222   -12212   -12212   -12221   -12231   -12236   -12245   -12259 
  -12264   -12256   -12244   -12249   -12270   -12280   -12280   -12280 
  -12279   -12274   -12270   -12263   -12251   -12241   -12239   -12241 
  -12245   -12249   -12248   -12231   -12216   -12213   -12210   -12214 
  -12224   -12220   -12206   -12199   -12205   -12218   -12228   -12220 
  -12199   -12187   -12186   -12195   -12213   -12231   -12241   -12247 
  -12249   -12249   -12245   -12255   -12274   -12285   -12287   -12294 
  -12306   -12321   -12325   -12309   -12278   -12244   -12210   -12178 
  -12154   -12152   -12168   -12178   -12177   -12172   -12174   -12185 
  -12202   -12226   -12251   -12270   -12279   -12275   -12264   -12259 
  -12256   -12251   -12243   -12239   -12247   -12253   -12247   -12239 
  -12239   -12249   -12264   -12266   -12256   -12248   -12240   -12241 
  -12255   -12259   -12251   -12245   -12249   -12255   -12264   -12271 
  -12271   -12266   -12247   -12233   -12237   -12253   -12268   -12276 
  -12271   -12253   -12229   -12208   -12193   -12198   -12228   -12253 
  -12253   -12245   -12245   -12253   -12267   -12286   -12305   -12312 
  -12312   -12317   -12322   -12318   -12303   -12286   -12263   -12233 
  -12201   -12171   -12162   -12178   -12194   -12204   -12216   -12229 
  -12233   -12231   -12229   -12237   -12245   -12252   -12256   -12253 
  -12239   -12217   -12206   -12213   -12221   -12225   -12217   -12201 
  -12190   -12191   -12191   -12186   -12186   -12190   -12199   -12218 
  -12243   -12270   -12287   -12290   -12289   -12289   -12278   -12256 
  -12245   -12252   -12264   -12275   -12272   -12262   -12249   -12243 
  -12235   -12229   -12235   -12240   -12232   -12221   -12212   -12195 
  -12187   -12198   -12216   -12221   -12220   -12221   -12224   -12221 
  -12222   -12221   -12205   -12198   -12209   -12228   -12245   -12251 
  -12249   -12255   -12259   -12263   -12271   -12274   -12267   -12260 
  -12255   -12249   -12244   -12241   -12245   -12255   -12266   -12280 
  -12297   -12307   -12310   -12310   -12312   -12305   -12285   -12260 
  -12240   -12228   -12222   -12216   -12208   -12212   -12217   -12218 
