Origin Time       2025/03/28 03:50:00
Lat.              35.403
Long.             140.360
Depth. (km)       54
Mag.              4.4
Station Code      IBRH20
Station Lat.      35.8284
Station Long.     140.7323
Station Height(m) -916.83
Record Time       2025/03/28 03:51:01
Sampling Freq(Hz) 100Hz
Duration Time(s)  120
Dir.              1
Scale Factor      2942(gal)/8224139
Max. Acc. (gal)   0.456
Last Correction   2025/03/28 03:51:02
Memo.             
 -152740  -152733  -152730  -152734  -152734  -152732  -152734  -152733 
 -152729  -152732  -152736  -152734  -152732  -152730  -152732  -152736 
 -152736  -152736  -152736  -152733  -152733  -152739  -152739  -152736 
 -152734  -152734  -152734  -152733  -152736  -152741  -152739  -152739 
 -152745  -152741  -152734  -152737  -152737  -152734  -152734  -152736 
 -152737  -152737  -152736  -152732  -152734  -152739  -152736  -152734 
 -152736  -152734  -152736  -152739  -152739  -152734  -152736  -152740 
 -152737  -152733  -152734  -152739  -152741  -152737  -152732  -152736 
 -152737  -152733  -152734  -152737  -152734  -152733  -152733  -152736 
 -152743  -152741  -152736  -152737  -152737  -152732  -152734  -152740 
 -152737  -152737  -152740  -152737  -152736  -152739  -152740  -152741 
 -152737  -152737  -152741  -152740  -152737  -152739  -152739  -152736 
 -152734  -152734  -152734  -152734  -152737  -152739  -152737  -152737 
 -152739  -152739  -152734  -152736  -152740  -152736  -152734  -152739 
 -152740  -152737  -152736  -152737  -152736  -152734  -152736  -152736 
 -152736  -152736  -152736  -152733  -152733  -152736  -152739  -152737 
 -152733  -152733  -152737  -152739  -152736  -152734  -152736  -152737 
 -152739  -152734  -152734  -152743  -152743  -152733  -152732  -152736 
 -152736  -152737  -152736  -152732  -152736  -152740  -152737  -152736 
 -152734  -152734  -152737  -152736  -152736  -152739  -152737  -152736 
 -152734  -152736  -152739  -152737  -152734  -152737  -152736  -152733 
 -152736  -152737  -152734  -152732  -152734  -152737  -152734  -152734 
 -152739  -152737  -152737  -152736  -152733  -152733  -152739  -152741 
 -152736  -152730  -152733  -152734  -152733  -152734  -152737  -152736 
 -152733  -152733  -152736  -152734  -152736  -152741  -152745  -152743 
 -152734  -152732  -152737  -152739  -152740  -152736  -152732  -152737 
 -152739  -152733  -152733  -152739  -152740  -152737  -152737  -152739 
 -152736  -152736  -152737  -152740  -152740  -152737  -152737  -152739 
 -152737  -152736  -152733  -152734  -152736  -152737  -152740  -152737 
 -152736  -152740  -152739  -152734  -152736  -152740  -152741  -152740 
 -152737  -152737  -152739  -152737  -152739  -152741  -152734  -152729 
 -152736  -152737  -152733  -152737  -152740  -152734  -152736  -152739 
 -152732  -152730  -152736  -152737  -152736  -152737  -152737  -152736 
 -152734  -152737  -152739  -152736  -152734  -152737  -152737  -152734 
 -152736  -152739  -152736  -152734  -152737  -152737  -152736  -152734 
 -152733  -152736  -152739  -152736  -152732  -152736  -152739  -152734 
 -152734  -152737  -152739  -152736  -152734  -152736  -152734  -152736 
 -152737  -152734  -152736  -152736  -152733  -152734  -152734  -152733 
 -152732  -152733  -152734  -152736  -152734  -152733  -152734  -152736 
 -152740  -152739  -152736  -152741  -152741  -152733  -152736  -152737 
 -152734  -152740  -152740  -152733  -152732  -152732  -152732  -152736 
 -152740  -152741  -152736  -152729  -152732  -152733  -152729  -152729 
 -152733  -152733  -152729  -152729  -152734  -152736  -152734  -152733 
 -152737  -152747  -152741  -152732  -152734  -152734  -152733  -152737 
 -152737  -152732  -152730  -152733  -152734  -152733  -152736  -152740 
 -152737  -152726  -152728  -152736  -152734  -152730  -152730  -152730 
 -152729  -152729  -152733  -152734  -152733  -152734  -152736  -152737 
 -152737  -152733  -152732  -152734  -152734  -152737  -152739  -152733 
 -152728  -152729  -152733  -152730  -152729  -152733  -152739  -152741 
 -152740  -152732  -152732  -152736  -152736  -152733  -152733  -152732 
 -152732  -152733  -152736  -152737  -152732  -152732  -152737  -152734 
 -152730  -152732  -152734  -152737  -152736  -152734  -152737  -152734 
 -152732  -152736  -152739  -152734  -152737  -152737  -152733  -152733 
 -152736  -152737  -152736  -152733  -152732  -152734  -152736  -152733 
 -152732  -152734  -152736  -152732  -152732  -152734  -152734  -152733 
 -152732  -152734  -152733  -152729  -152730  -152736  -152737  -152733 
 -152734  -152737  -152734  -152734  -152739  -152736  -152734  -152736 
 -152733  -152733  -152736  -152733  -152734  -152739  -152733  -152729 
 -152732  -152734  -152736  -152733  -152733  -152737  -152739  -152737 
 -152736  -152736  -152736  -152736  -152736  -152736  -152732  -152732 
 -152736  -152736  -152733  -152734  -152733  -152733  -152734  -152730 
 -152729  -152734  -152740  -152737  -152733  -152736  -152737  -152732 
 -152734  -152737  -152733  -152736  -152739  -152732  -152732  -152737 
 -152734  -152730  -152732  -152734  -152734  -152732  -152732  -152737 
 -152736  -152736  -152739  -152736  -152734  -152739  -152736  -152736 
 -152737  -152733  -152730  -152732  -152732  -152736  -152736  -152730 
 -152734  -152737  -152733  -152736  -152739  -152744  -152752  -152749 
 -152752  -152763  -152764  -152759  -152760  -152761  -152755  -152751 
 -152753  -152752  -152751  -152755  -152757  -152760  -152763  -152764 
 -152764  -152749  -152724  -152701  -152687  -152686  -152690  -152682 
 -152678  -152699  -152720  -152721  -152717  -152710  -152709  -152713 
 -152716  -152713  -152695  -152674  -152680  -152713  -152743  -152767 
 -152778  -152763  -152743  -152728  -152697  -152670  -152687  -152728 
 -152774  -152805  -152782  -152745  -152753  -152775  -152799  -152841 
 -152805  -152664  -152572  -152582  -152624  -152682  -152747  -152775 
 -152799  -152851  -152874  -152860  -152833  -152774  -152712  -152668 
 -152612  -152590  -152678  -152805  -152849  -152806  -152770  -152790 
 -152797  -152729  -152635  -152579  -152560  -152574  -152640  -152701 
 -152686  -152667  -152717  -152747  -152685  -152649  -152716  -152756 
 -152706  -152666  -152680  -152734  -152775  -152766  -152780  -152829 
 -152837  -152838  -152845  -152817  -152817  -152859  -152826  -152718 
 -152652  -152656  -152666  -152720  -152863  -152949  -152894  -152851 
 -152872  -152844  -152747  -152639  -152554  -152540  -152591  -152651 
 -152706  -152764  -152821  -152884  -152880  -152760  -152674  -152698 
 -152686  -152578  -152481  -152481  -152555  -152602  -152579  -152624 
 -152798  -152940  -152942  -152857  -152798  -152833  -152890  -152852 
 -152717  -152639  -152701  -152733  -152741  -152894  -152994  -152857 
 -152703  -152631  -152583  -152583  -152595  -152601  -152645  -152703 
 -152728  -152747  -152832  -152975  -153057  -153004  -152867  -152794 
 -152817  -152805  -152720  -152625  -152572  -152582  -152589  -152577 
 -152633  -152712  -152709  -152664  -152612  -152575  -152595  -152605 
 -152556  -152572  -152736  -152911  -152911  -152784  -152732  -152766 
 -152748  -152659  -152609  -152697  -152848  -152918  -152910  -152842 
 -152736  -152714  -152753  -152680  -152575  -152590  -152626  -152659 
 -152751  -152840  -152892  -152932  -152934  -152887  -152859  -152882 
 -152786  -152610  -152626  -152721  -152701  -152680  -152689  -152656 
 -152632  -152686  -152803  -152853  -152834  -152852  -152829  -152766 
 -152756  -152729  -152660  -152649  -152666  -152605  -152539  -152608 
 -152743  -152783  -152695  -152581  -152570  -152651  -152699  -152678 
 -152695  -152803  -152841  -152736  -152728  -152925  -153072  -153022 
 -152914  -152820  -152686  -152579  -152609  -152728  -152794  -152756 
 -152686  -152659  -152676  -152682  -152683  -152730  -152763  -152724 
 -152660  -152599  -152617  -152791  -152914  -152820  -152714  -152724 
 -152713  -152660  -152690  -152764  -152797  -152852  -152887  -152778 
 -152648  -152652  -152734  -152801  -152811  -152799  -152790  -152729 
 -152624  -152566  -152577  -152672  -152852  -152982  -152964  -152856 
 -152732  -152662  -152644  -152613  -152622  -152701  -152662  -152485 
 -152410  -152463  -152517  -152617  -152763  -152880  -152917  -152828 
 -152725  -152760  -152838  -152828  -152770  -152718  -152682  -152694 
 -152755  -152798  -152790  -152790  -152824  -152842  -152805  -152736 
 -152740  -152801  -152793  -152797  -152867  -152832  -152722  -152699 
 -152679  -152582  -152535  -152595  -152659  -152649  -152628  -152648 
 -152690  -152730  -152774  -152810  -152778  -152670  -152629  -152759 
 -152892  -152825  -152641  -152543  -152608  -152751  -152801  -152757 
 -152780  -152825  -152768  -152705  -152714  -152734  -152799  -152871 
 -152801  -152703  -152766  -152844  -152774  -152647  -152641  -152745 
 -152806  -152783  -152775  -152845  -152887  -152828  -152763  -152622 
 -152413  -152416  -152595  -152728  -152855  -152959  -152913  -152794 
 -152721  -152664  -152632  -152689  -152772  -152783  -152732  -152676 
 -152670  -152702  -152709  -152683  -152714  -152830  -152898  -152894 
 -152878  -152783  -152629  -152547  -152568  -152651  -152726  -152714 
 -152631  -152624  -152767  -152925  -152948  -152844  -152729  -152674 
 -152697  -152725  -152699  -152726  -152811  -152787  -152663  -152644 
 -152756  -152801  -152724  -152699  -152744  -152710  -152644  -152685 
 -152772  -152814  -152815  -152767  -152678  -152628  -152645  -152636 
 -152566  -152583  -152705  -152751  -152716  -152724  -152761  -152778 
 -152815  -152849  -152764  -152608  -152568  -152693  -152832  -152883 
 -152895  -152932  -152982  -152995  -152936  -152840  -152784  -152766 
 -152732  -152702  -152724  -152725  -152625  -152524  -152533  -152574 
 -152572  -152575  -152577  -152516  -152460  -152552  -152734  -152788 
 -152712  -152660  -152672  -152736  -152807  -152822  -152779  -152726 
 -152760  -152863  -152883  -152842  -152913  -153072  -153064  -152872 
 -152778  -152784  -152732  -152694  -152713  -152699  -152624  -152541 
 -152629  -152847  -152888  -152817  -152791  -152680  -152589  -152680 
 -152776  -152766  -152710  -152626  -152567  -152602  -152699  -152776 
 -152788  -152776  -152778  -152790  -152797  -152797  -152833  -152852 
 -152757  -152674  -152737  -152845  -152886  -152865  -152759  -152575 
 -152462  -152446  -152456  -152582  -152759  -152748  -152647  -152648 
 -152703  -152761  -152797  -152767  -152764  -152801  -152764  -152691 
 -152689  -152734  -152810  -152859  -152788  -152730  -152810  -152851 
 -152788  -152797  -152834  -152771  -152689  -152678  -152770  -152898 
 -152933  -152879  -152818  -152787  -152790  -152753  -152604  -152415 
 -152386  -152524  -152616  -152606  -152593  -152624  -152726  -152824 
 -152805  -152741  -152734  -152751  -152726  -152652  -152644  -152759 
 -152853  -152906  -152982  -153003  -152919  -152756  -152598  -152575 
 -152675  -152759  -152759  -152724  -152712  -152656  -152540  -152505 
 -152610  -152770  -152917  -153021  -153019  -152899  -152741  -152639 
 -152590  -152523  -152473  -152568  -152795  -152961  -152965  -152875 
 -152790  -152744  -152701  -152682  -152755  -152815  -152767  -152740 
 -152730  -152598  -152491  -152586  -152732  -152778  -152782  -152829 
 -152874  -152817  -152718  -152710  -152712  -152597  -152471  -152474 
 -152500  -152493  -152558  -152706  -152855  -152909  -152865  -152836 
 -152840  -152842  -152875  -152937  -152965  -152957  -152972  -152961 
 -152857  -152748  -152682  -152622  -152613  -152617  -152593  -152593 
 -152582  -152577  -152690  -152817  -152817  -152799  -152824  -152763 
 -152641  -152662  -152776  -152788  -152707  -152629  -152586  -152609 
 -152674  -152721  -152753  -152791  -152829  -152842  -152815  -152822 
 -152910  -152925  -152776  -152660  -152680  -152732  -152766  -152755 
 -152705  -152722  -152786  -152768  -152674  -152599  -152610  -152683 
 -152739  -152752  -152786  -152840  -152798  -152664  -152610  -152659 
 -152687  -152643  -152608  -152671  -152764  -152760  -152702  -152685 
 -152695  -152733  -152821  -152849  -152759  -152702  -152776  -152884 
 -152946  -152918  -152799  -152724  -152722  -152672  -152572  -152514 
 -152559  -152672  -152748  -152714  -152616  -152577  -152641  -152718 
 -152751  -152774  -152828  -152880  -152845  -152740  -152691  -152724 
 -152747  -152717  -152649  -152577  -152548  -152608  -152730  -152824 
 -152856  -152822  -152699  -152610  -152674  -152797  -152894  -152959 
 -152955  -152883  -152784  -152668  -152622  -152721  -152825  -152820 
 -152786  -152767  -152768  -152806  -152809  -152766  -152790  -152856 
 -152803  -152664  -152609  -152636  -152598  -152508  -152497  -152577 
 -152693  -152847  -152992  -153065  -153096  -153064  -152896  -152699 
 -152597  -152541  -152529  -152613  -152718  -152770  -152806  -152857 
 -152953  -153099  -153188  -153146  -153061  -153003  -152932  -152841 
 -152780  -152767  -152768  -152747  -152674  -152594  -152582  -152601 
 -152574  -152563  -152606  -152626  -152601  -152577  -152537  -152440 
 -152323  -152274  -152320  -152389  -152404  -152382  -152343  -152292 
 -152274  -152328  -152478  -152717  -152918  -152999  -153038  -153084 
 -153108  -153126  -153148  -153154  -153122  -153003  -152825  -152690 
 -152628  -152631  -152693  -152751  -152784  -152848  -152894  -152876 
 -152856  -152814  -152725  -152664  -152610  -152501  -152425  -152473 
 -152585  -152720  -152899  -153079  -153192  -153191  -153033  -152774 
 -152512  -152230  -151923  -151745  -151808  -152057  -152404  -152821 
 -153268  -153652  -153901  -154009  -153966  -153709  -153272  -152841 
 -152563  -152413  -152312  -152261  -152294  -152427  -152635  -152782 
 -152701  -152446  -152230  -152101  -151992  -151934  -152027  -152277 
 -152547  -152703  -152806  -152964  -153099  -153111  -153048  -152976 
 -152915  -152837  -152732  -152675  -152743  -152876  -152942  -152861 
 -152655  -152398  -152180  -152073  -152085  -152151  -152244  -152375 
 -152512  -152640  -152820  -153049  -153289  -153558  -153829  -154003 
 -153994  -153758  -153328  -152832  -152363  -151983  -151727  -151584 
 -151586  -151815  -152219  -152652  -153060  -153419  -153620  -153574 
 -153319  -153004  -152820  -152811  -152861  -152910  -152984  -153002 
 -152895  -152721  -152527  -152366  -152298  -152261  -152277  -152454 
 -152691  -152833  -152917  -152984  -152964  -152815  -152620  -152475 
 -152440  -152562  -152784  -152923  -152911  -152853  -152824  -152790 
 -152725  -152695  -152772  -152895  -152950  -152867  -152685  -152579 
 -152675  -152838  -152853  -152694  -152516  -152452  -152456  -152400 
 -152292  -152221  -152227  -152320  -152482  -152651  -152737  -152631 
 -152396  -152270  -152284  -152298  -152302  -152334  -152439  -152670 
 -152986  -153355  -153731  -153960  -154001  -153918  -153752  -153588 
 -153496  -153445  -153362  -153148  -152795  -152471  -152278  -152178 
 -152128  -152134  -152193  -152223  -152224  -152323  -152483  -152608 
 -152747  -152933  -153092  -153199  -153258  -153222  -153068  -152884 
 -152706  -152497  -152363  -152397  -152437  -152392  -152424  -152612 
 -152798  -152856  -152892  -153004  -153085  -153087  -153131  -153239 
 -153318  -153327  -153242  -153050  -152810  -152583  -152381  -152231 
 -152193  -152292  -152479  -152671  -152793  -152779  -152606  -152350 
 -152111  -151983  -152047  -152285  -152562  -152768  -152914  -153002 
 -152948  -152743  -152535  -152501  -152647  -152822  -152960  -153076 
 -153122  -153014  -152755  -152452  -152246  -152207  -152298  -152417 
 -152513  -152613  -152672  -152572  -152385  -152340  -152482  -152648 
 -152737  -152782  -152830  -152914  -153071  -153262  -153408  -153486 
 -153508  -153435  -153231  -152913  -152581  -152393  -152370  -152386 
 -152402  -152493  -152674  -152852  -152952  -152986  -152980  -152957 
 -152932  -152863  -152749  -152695  -152705  -152679  -152640  -152674 
 -152745  -152770  -152759  -152764  -152798  -152845  -152898  -152940 
 -152944  -152887  -152768  -152621  -152459  -152301  -152220  -152244 
 -152342  -152478  -152608  -152701  -152744  -152706  -152581  -152424 
 -152324  -152359  -152448  -152427  -152312  -152239  -152257  -152340 
 -152464  -152610  -152772  -152909  -152917  -152810  -152799  -152977 
 -153187  -153295  -153289  -153172  -152963  -152736  -152625  -152675 
 -152782  -152914  -153117  -153292  -153347  -153357  -153365  -153342 
 -153274  -153131  -152934  -152801  -152721  -152597  -152479  -152463 
 -152444  -152329  -152253  -152327  -152444  -152512  -152570  -152663 
 -152760  -152810  -152825  -152861  -152930  -153003  -153053  -153014 
 -152871  -152683  -152497  -152362  -152323  -152362  -152423  -152448 
 -152452  -152443  -152379  -152325  -152397  -152574  -152768  -152938 
 -153080  -153211  -153314  -153304  -153179  -153076  -153029  -152938 
 -152815  -152736  -152674  -152590  -152539  -152579  -152687  -152767 
 -152761  -152721  -152702  -152722  -152828  -152963  -152965  -152825 
 -152649  -152500  -152385  -152278  -152207  -152263  -152420  -152529 
 -152529  -152498  -152509  -152516  -152440  -152323  -152257  -152230 
 -152182  -152100  -152043  -152122  -152348  -152632  -152949  -153285 
 -153539  -153666  -153711  -153700  -153643  -153590  -153574  -153520 
 -153362  -153179  -153046  -152952  -152909  -152977  -153153  -153341 
 -153457  -153447  -153314  -153130  -152952  -152749  -152510  -152292 
 -152161  -152089  -152026  -152014  -152051  -152047  -152028  -152086 
 -152199  -152317  -152428  -152517  -152594  -152680  -152755  -152830 
 -152922  -152961  -152894  -152761  -152598  -152428  -152348  -152439 
 -152620  -152756  -152822  -152833  -152797  -152748  -152703  -152651 
 -152616  -152645  -152724  -152770  -152776  -152813  -152872  -152887 
 -152851  -152803  -152778  -152807  -152894  -152998  -153080  -153129 
 -153135  -153080  -152968  -152865  -152801  -152716  -152601  -152559 
 -152609  -152663  -152702  -152767  -152863  -152971  -153049  -153060 
 -153021  -152960  -152857  -152697  -152517  -152381  -152290  -152167 
 -152000  -151895  -151907  -152004  -152158  -152354  -152587  -152824 
 -152980  -153025  -153017  -153018  -153027  -153046  -153084  -153112 
 -153092  -153014  -152874  -152717  -152612  -152560  -152539  -152550 
 -152560  -152527  -152473  -152467  -152531  -152606  -152658  -152716 
 -152797  -152880  -152979  -153077  -153115  -153091  -153052  -152988 
 -152887  -152766  -152660  -152583  -152528  -152520  -152587  -152709 
 -152852  -152977  -153048  -153068  -153063  -153000  -152849  -152680 
 -152568  -152483  -152405  -152371  -152379  -152381  -152365  -152366 
 -152425  -152517  -152589  -152635  -152676  -152724  -152766  -152794 
 -152814  -152840  -152884  -152944  -152999  -153004  -152926  -152791 
 -152674  -152614  -152598  -152599  -152606  -152622  -152664  -152730 
 -152794  -152822  -152829  -152837  -152811  -152749  -152728  -152772 
 -152841  -152902  -152917  -152890  -152879  -152868  -152810  -152740 
 -152691  -152636  -152564  -152508  -152478  -152477  -152513  -152601 
 -152721  -152856  -153003  -153138  -153214  -153214  -153183  -153148 
 -153075  -152965  -152842  -152666  -152442  -152246  -152120  -152078 
 -152091  -152130  -152208  -152329  -152473  -152616  -152734  -152840 
 -152942  -153007  -152995  -152938  -152922  -152946  -152930  -152859 
 -152775  -152707  -152660  -152625  -152624  -152666  -152733  -152815 
 -152907  -152984  -153022  -153014  -152967  -152922  -152876  -152788 
 -152694  -152649  -152629  -152583  -152525  -152504  -152551  -152659 
 -152794  -152928  -153030  -153080  -153077  -153071  -153081  -153094 
