Origin Time       2025/03/28 03:50:00
Lat.              35.403
Long.             140.360
Depth. (km)       54
Mag.              4.4
Station Code      IBRH19
Station Lat.      36.2137
Station Long.     140.0893
Station Height(m) 175
Record Time       2025/03/28 03:51:08
Sampling Freq(Hz) 100Hz
Duration Time(s)  120
Dir.              6
Scale Factor      7845(gal)/8223790
Max. Acc. (gal)   0.290
Last Correction   2025/03/28 03:51:09
Memo.             
     414      418      398      390      414      423      406      394 
     398      414      423      409      391      395      413      421 
     409      403      406      403      398      402      419      410 
     390      409      415      396      410      417      402      405 
     409      396      405      425      411      387      403      421 
     413      399      395      407      417      411      398      387 
     405      421      418      418      394      375      413      434 
     405      394      413      407      392      409      421      405 
     396      413      409      384      400      437      419      373 
     394      438      418      383      390      419      426      406 
     413      403      364      415      463      396      365      403 
     423      419      390      395      427      407      386      403 
     417      414      405      405      411      394      390      425 
     434      387      373      413      421      406      406      406 
     418      417      383      382      413      427      421      402 
     395      399      407      407      402      410      418      406 
     400      406      400      405      419      417      395      388 
     411      422      407      407      409      390      399      429 
     426      396      387      413      421      394      405      430 
     407      387      405      419      413      395      392      417 
     427      409      402      400      399      418      411      395 
     417      415      396      415      413      388      413      433 
     399      380      410      430      410      387      399      425 
     419      403      400      398      414      421      394      396 
     418      406      405      422      407      391      403      414 
     419      406      384      409      426      392      394      425 
     417      395      394      409      413      405      410      410 
     388      387      413      417      388      388      419      410 
     387      415      434      402      388      410      418      411 
     405      405      406      400      399      409      411      421 
     421      379      360      394      411      422      436      402 
     375      390      388      399      432      417      368      357 
     394      432      427      396      386      400      398      390 
     427      464      427      375      352      365      414      429 
     400      391      411      437      442      426      417      438 
     457      422      369      373      400      402      410      425 
     418      415      433      436      430      464      495      454 
     384      333      319      373      453      450      396      425 
     477      418      336      357      422      423      407      452 
     465      391      351      398      436      392      342      387 
     472      507      476      414      380      375      387      406 
     390      342      338      378      382      344      363      422 
     386      328      387      450      421      406      442      450 
     383      317      340      384      382      411      483      500 
     442      376      360      398      419      378      352      399 
     422      368      353      427      508      515      423      328 
     353      429      395      330      383      468      475      413 
     355      433      599      591      400      302      360      418 
     414      396      400      391      333      291      353      488 
     562      502      388      319      341      465      540      422 
     283      325      441      452      409      427      452      396 
     373      445      461      387      345      349      368      379 
     310      236      295      422      461      383      344      436 
     491      436      433      500      537      546      468      255 
     152      324      538      549      433      410      467      422 
     346      419      527      500      452      452      392      321 
     318      282      241      338      480      475      353      298 
     394      544      561      418      329      367      373      359 
     376      384      456      518      433      405      506      475 
     299      256      433      595      541      375      288      318 
     361      325      306      440      577      511      357      326 
     410      440      361      378      557      588      345      167 
     256      400      454      491      480      425      481      557 
     464      368      406      441      422      346      253      329 
     469      390      241      264      352      411      471      473 
     453      527      581      460      307      309      400      429 
     375      313      317      394      452      399      348      379 
     386      417      554      584      434      367      414      407 
     411      465      413      317      336      391      407      384 
     336      341      426      504      469      322      251      353 
     475      514      502      441      361      340      372      395 
     414      457      481      456      418      418      452      488 
     479      380      303      356      394      353      368      396 
     365      391      450      417      363      367      382      368 
     352      391      422      395      403      438      480      568 
     562      445      410      422      371      349      371      363 
     371      400      392      376      332      338      537      710 
     608      365      224      297      445      448      338      228 
     182      287      434      476      484      475      403      375 
     417      432      440      430      352      360      480      484 
     388      326      282      337      496      554      463      340 
     274      272      317      418      506      530      531      473 
     364      349      437      499      490      414      295      274 
     414      529      514      499      525      465      305      229 
     321      411      425      475      527      480      421      453 
     502      480      427      411      432      349      163      164 
     353      337      160      199      382      384      294      429 
     660      585      325      244      364      518      531      421 
     399      436      376      356      467      550      522      360 
     182      287      552      599      504      456      403      369 
     405      442      448      391      278      282      398      386 
     317      344      361      372      419      471      549      579 
     499      418      414      446      432      378      353      346 
     344      360      371      387      472      568      540      426 
     344      303      332      454      525      426      291      244 
     280      363      445      531      565      438      259      232 
     378      546      541      373      302      372      398      351 
     388      548      569      363      265      360      417      457 
     477      398      413      518      475      405      437      407 
     338      355      373      315      232      232      368      479 
     413      307      341      436      467      507      521      402 
     357      465      486      409      394      444      481      471 
     436      398      371      386      378      299      329      508 
     522      301      211      391      584      572      367      249 
     399      531      450      379      410      441      471      446 
     359      361      399      338      348      456      423      319 
     357      436      384      302      359      479      475      375 
     342      395      432      440      472      452      363      394 
     488      415      324      395      448      409      414      452 
     467      441      382      390      476      502      429      392 
     423      380      333      391      364      260      345      467 
     392      334      369      338      299      351      425      479 
     486      415      369      421      469      471      436      336 
     268      342      460      517      529      496      436      411 
     409      376      372      434      454      359      274      333 
     449      476      454      457      436      379      348      383 
     446      471      471      477      426      290      201      299 
     454      461      411      403      360      307      338      421 
     459      481      560      577      454      338      330      383 
     414      407      409      409      392      384      392      426 
     464      454      403      329      279      342      465      434 
     270      283      483      554      463      379      380      464 
     490      372      330      456      481      299      195      330 
     477      465      418      441      475      441      383      403 
     440      400      427      521      449      297      309      386 
     379      379      415      411      402      386      295      264 
     438      598      480      314      413      534      434      380 
     467      456      367      338      314      297      382      502 
     554      541      477      442      483      486      407      356 
     353      325      315      380      422      400      378      368 
     368      373      380      392      426      504      494      353 
     340      452      436      328      292      372      486      473 
     376      367      383      338      330      391      449      476 
     465      402      355      386      427      407      356      384 
     521      571      415      264      344      534      522      352 
     346      427      353      322      483      553      467      405 
     364      345      378      395      413      473      487      427 
     376      356      349      357      387      444      415      309 
     332      475      525      446      365      378      438      442 
     415      407      384      351      367      422      433      356 
     299      356      419      396      391      448      457      394 
     360      382      387      399      448      450      386      324 
     317      372      442      467      437      425      480      506 
     415      324      315      375      480      530      479      438 
     461      469      414      395      480      506      399      324 
     353      421      436      360      292      321      379      411 
     422      413      414      406      360      353      364      321 
     317      402      454      450      442      430      437      444 
     411      409      425      376      351      457      552      492 
     410      382      337      352      457      484      432      433 
     430      355      330      441      504      402      305      299 
     307      344      414      442      442      446      394      326 
     349      417      459      477      460      417      380      355 
     357      406      459      461      441      423      387      337 
     325      409      527      500      368      356      421      427 
     453      486      436      415      441      372      310      388 
     436      365      330      353      383      410      383      363 
     432      452      371      349      411      432      392      365 
     380      396      410      477      523      461      403      429 
     436      390      411      507      488      321      237      306 
     364      383      440      492      480      422      394      419 
     426      391      400      454      450      396      402      434 
     406      387      403      388      364      360      364      376 
     410      445      414      360      365      375      369      388 
     387      383      434      495      492      436      386      344 
     307      356      434      396      330      337      361      403 
     437      419      460      537      495      421      456      495 
     432      363      383      427      400      342      359      421 
     409      383      446      491      448      430      468      457 
     379      356      395      373      345      382      372      325 
     330      328      303      349      448      492      448      413 
     444      460      440      436      432      402      351      302 
     306      364      430      473      480      450      444      483 
     476      394      364      429      471      425      384      415 
     427      388      386      415      415      403      414      411 
     368      352      413      475      468      414      380      409 
     452      453      445      463      463      432      398      372 
     334      274      244      298      394      473      480      387 
     301      326      415      484      473      417      426      448 
     409      400      454      492      481      422      342      299 
     303      294      244      240      334      422      429      419 
     440      464      469      469      488      533      541      457 
     348      309      345      394      369      322      352      411 
     434      445      468      511      538      495      440      434 
     437      399      373      438      522      503      426      372 
     338      321      344      387      386      363      382      399 
     368      310      295      376      465      441      383      396 
     433      415      334      294      406      567      560      396 
     299      340      382      382      418      467      465      449 
     423      399      414      415      372      352      391      453 
     465      418      410      456      468      452      446      442 
     432      411      398      395      372      352      363      403 
     449      453      427      433      438      396      361      379 
     391      338      271      274      318      336      365      415 
     418      368      346      367      352      301      302      369 
     432      463      448      382      357      422      486      496 
     519      577      591      515      422      386      405      422 
     386      353      406      436      371      365      449      490 
     483      486      469      414      357      340      337      326 
     315      291      278      319      376      398      402      418 
     459      504      518      494      419      319      294      387 
     518      550      465      410      433      414      348      310 
     328      384      396      355      369      444      473      433 
     369      364      433      472      456      459      475      452 
     394      363      400      433      399      367      394      433 
     437      433      453      480      444      359      355      433 
     459      394      322      322      359      359      340      330 
     322      305      283      318      429      504      508      529 
     534      440      351      365      419      449      467      465 
     434      400      423      496      521      475      449      432 
     379      344      325      292      337      430      438      396 
     391      382      363      413      499      507      423      338 
     321      345      340      319      337      355      345      349 
     371      392      400      403      459      523      479      392 
     392      423      427      426      395      311      240      240 
     298      363      413      452      471      486      519      558 
     561      517      468      452      446      411      368      384 
     460      544      594      552      433      363      368      373 
     349      344      394      434      417      415      452      457 
     394      321      336      387      345      274      270      291 
     326      402      430      340      276      356      457      486 
     496      471      403      369      359      348      340      321 
     322      363      399      442      521      568      518      425 
     395      417      414      392      376      356      342      365 
     419      472      492      496      517      521      486      460 
     441      402      372      353      319      305      336      380 
     425      456      438      386      334      292      271      274 
     253      240      334      508      619      595      511      498 
     556      564      481      380      340      351      368      413 
     476      488      453      403      333      317      383      388 
     321      313      364      414      425      364      301      329 
     394      433      459      448      386      353      419      500 
     481      427      425      399      322      294      322      355 
     391      407      382      368      394      417      418      417 
     411      391      388      410      437      480      529      558 
     594      607      538      436      390      378      349      355 
     361      297      268      338      372      345      361      419 
     468      511      537      487      383      364      427      446 
     436      444      425      375      325      313      363      405 
     360      288      307      388      386      315      314      386 
     445      471      468      454      467      483      457      426 
     441      480      480      405      336      356      417      437 
     394      338      341      402      477      503      453      395 
     390      400      382      372      405      414      383      398 
     446      440      417      422      423      444      491      480 
     392      321      330      375      382      338      295      318 
     364      353      337      357      341      315      361      417 
     415      383      344      310      342      444      495      467 
     479      545      562      523      498      521      538      483 
     421      429      426      373      356      384      394      392 
     409      414      395      386      386      396      411      378 
     317      321      345      319      332      419      464      454 
     471      480      448      419      422      433      417      398 
     407      409      378      352      365      387      380      367 
     365      361      371      398      411      391      375      394 
     405      395      415      452      452      409      398      460 
     477      396      346      380      415      429      437      440 
     448      438      410      421      441      399      356      368 
     378      337      284      265      270      311      411      465 
     441      468      531      531      483      421      383      379 
     341      319      414      511      507      463      423      396 
     405      448      500      519      486      434      402      390 
     369      344      378      427      392      330      336      364 
     360      345      353      386      432      441      395      352 
     363      419      476      518      538      511      465      460 
     473      456      430      413      367      328      363      433 
     459      438      396      348      326      344      348      328 
