Origin Time       2025/03/28 03:50:00
Lat.              35.403
Long.             140.360
Depth. (km)       54
Mag.              4.4
Station Code      IBRH07
Station Lat.      35.9521
Station Long.     140.3301
Station Height(m) 3
Record Time       2025/03/28 03:50:52
Sampling Freq(Hz) 100Hz
Duration Time(s)  120
Dir.              6
Scale Factor      7845(gal)/8223790
Max. Acc. (gal)   3.370
Last Correction   2025/03/28 03:50:52
Memo.             
[...]
   16551    16560    16575    16569    16567    16572    16579    16582 
   16571    16563    16560    16553    16559    16567    16564    16560 
   16560    16567    16576    16571    16556    16555    16559    16559 
   16563    16568    16561    16555    16555    16555    16555    16567 
   16576    16573    16571    16571    16572    16573    16578    16579 
   16569    16555    16556    16564    16568    16573    16576    16567 
   16559    16559    16553    16546    16548    16553    16564    16569 
   16567    16564    16564    16564    16561    16561    16568    16573 
   16573    16569    16567    16569    16575    16580    16578    16564 
   16559    16569    16576    16564    16559    16561    16557    16549 
   16549    16560    16572    16576    16573    16568    16560    16559 
   16563    16567    16569    16572    16575    16575    16572    16572 
   16568    16556    16555    16557    16557    16569    16573    16563 
   16565    16567    16556    16560    16563    16552    16551    16560 
   16572    16579    16569    16569    16579    16573    16567    16571 
   16579    16578    16565    16553    16552    16556    16560    16553 
   16553    16565    16567    16563    16563    16561    16569    16573 
   16565    16565    16571    16567    16565    16568    16576    16578 
   16559    16548    16565    16571    16561    16567    16568    16557 
   16561    16576    16573    16565    16572    16579    16575    16568 
   16561    16556    16552    16546    16556    16569    16564    16561 
   16573    16576    16571    16567    16567    16567    16559    16542 
   16546    16560    16564    16565    16569    16568    16565    16565 
   16569    16573    16575    16575    16576    16578    16571    16563 
   16564    16564    16556    16551    16552    16553    16553    16548 
   16551    16559    16559    16549    16536    16518    16505    16483 
   16455    16428    16399    16386    16395    16421    16460    16497 
   16517    16536    16560    16634    16850    17157    17381    17443 
   17280    16831    16281    15866    15635    15655    15959    16317 
   16536    16650    16688    16671    16777    17064    17258    17219 
   17135    17062    16788    16322    16001    15885    15780    15857 
   16282    16698    16860    16953    17012    16880    16656    16602 
   16600    16341    16046    16016    16166    16468    16868    17236 
   17408    17146    16582    16105    15900    15957    16231    16587 
   16711    16580    16557    16657    16749    16993    17215    17050 
   16580    16197    16294    16673    16780    16549    16194    15943 
   15996    16356    16723    16704    16507    16521    16515    16476 
   16703    16893    16783    16715    16784    16834    16973    17078 
   16891    16613    16267    15876    15934    16293    16494    16548 
   16394    16228    16241    16256    16595    17286    17666    17685 
   17617    17410    17041    16510    15998    15840    15955    16114 
   16360    16559    16494    16249    15994    15874    15936    16309 
   16974    17213    16737    16171    15866    15788    15869    16093 
   16339    16452    16555    16700    16914    17238    17494    17577 
   17440    17027    16509    16256    16356    16475    16525    16679 
   16734    16583    16731    17170    17178    16833    16634    16340 
   15907    15913    16259    16237    15934    15946    16132    16171 
   16374    16819    17042    16934    16730    16467    16249    16295 
   16479    16605    16727    16876    17030    17213    17446    17616 
   17261    16363    15641    15295    15271    15639    16016    16295 
   16815    17392    17509    17262    17042    16727    16413    16393 
   16398    16248    16106    16001    15855    15811    16178    16884 
   17470    17563    17294    17086    17057    17143    16949    16274 
   15835    15782    15734    15978    16565    17065    17296    17444 
   17574    17298    16665    16155    15792    15618    15959    16580 
   16860    16788    16457    15753    15261    15649    16648    17579 
   17950    17621    16938    16376    16012    15786    15664    15649 
   16155    17207    18146    18577    18114    16811    15678    15334 
   15603    16217    16910    17371    17270    16594    15745    15157 
   15095    15329    15753    16771    17995    18657    18625    17832 
   16544    15534    15323    15992    17037    17620    17323    16440 
   15722    15489    15576    16027    16551    16657    16343    15738 
   15407    15689    16079    16509    17131    17809    18570    19078 
   18729    17643    16372    15245    14669    14910    15597    16224 
   16322    15915    15807    16256    16914    17674    18071    17579 
   16810    16703    17247    17788    17622    16618    15543    15237 
   15763    16518    16741    16214    15448    15071    15427    16232 
   16787    16947    16830    16576    16731    17452    18226    18430 
   17834    16744    15615    15125    15552    16264    16641    16514 
   16123    15714    15645    16310    17070    17288    17261    16999 
   16715    17057    17598    17582    17089    16360    15812    15813 
   15998    16073    16183    16235    16204    16283    16336    16352 
   16393    16225    16177    16596    17082    17324    17146    16571 
   16058    15769    15855    16648    17578    17756    17294    16823 
   16575    16540    16605    16509    16255    15884    15534    15905 
   16964    17707    17928    17775    17146    16572    16426    16432 
   16502    16356    15797    15253    14949    14953    15489    16320 
   16722    16549    16636    17298    17761    17722    17543    17235 
   16773    16325    16067    16181    16465    16675    17014    17378 
   17343    16893    16160    15377    15210    15923    16889    17456 
   17413    16794    16148    16125    16386    16482    16513    16328 
   16179    16368    16518    16869    17564    17794    17270    16633 
   16378    16390    16638    16897    16660    16143    15670    15403 
   15749    16368    16675    16854    16904    16664    16414    16205 
   16048    16116    16190    16328    16858    17321    17312    17181 
   17037    16906    17100    17410    17389    16984    16382    15986 
   15955    16038    16119    16033    15762    15745    16170    16799 
   17343    17485    17104    16692    16773    17123    17460    17551 
   16950    15997    15226    14755    14940    15502    15751    15938 
   16289    16559    16779    17081    17401    17636    17814    17794 
   17342    16714    16256    16035    16013    16121    16349    16595 
   16544    16251    16244    16644    17049    17173    16937    16353 
   15773    15751    16221    16636    16839    16895    16760    16521 
   16475    16632    16645    16511    16410    16464    16825    17174 
   17162    16988    16653    16158    15935    16191    16664    16875 
   16690    16463    16344    16453    16853    17076    16939    16729 
   16325    15669    15392    15809    16460    17059    17529    17458 
   16869    16542    16650    16698    16684    16714    16680    16669 
   16815    17043    17026    16633    16129    15634    15203    15248 
   15934    16704    17055    16919    16501    16259    16390    16665 
   16923    17180    17316    17116    16776    16675    16776    16929 
   17116    17068    16499    15908    15843    16028    16225    16471 
   16451    16136    16032    16205    16375    16538    16726    16669 
   16337    16200    16452    16857    17220    17386    17186    16626 
   15955    15556    15695    16212    16779    17234    17366    17150 
   16879    16679    16598    16684    16711    16586    16536    16452 
   16243    16193    16198    16178    16372    16633    16872    17092 
   17016    16733    16497    16335    16343    16475    16529    16511 
   16393    16060    15778    15812    16058    16411    16846    17274 
   17497    17405    17213    17058    16864    16708    16599    16418 
   16283    16363    16532    16629    16706    16723    16526    16240 
   16066    15944    15850    15967    16254    16517    16883    17234 
   17173    16795    16499    16583    16934    17134    17163    17005 
   16591    16364    16443    16424    16237    15959    15699    15782 
   16259    16729    16908    16903    16880    16884    16922    16883 
   16679    16345    16036    16052    16410    16823    17169    17243 
   16829    16156    15654    15587    15951    16546    17019    16970 
   16706    16865    17162    17211    17081    16691    16182    15936 
   16050    16399    16773    16939    16787    16425    16177    16278 
   16560    16796    17049    17107    16811    16656    16823    17053 
   17180    17005    16587    16152    15758    15421    15240    15354 
   15664    15967    16206    16306    16290    16382    16725    17178 
   17540    17707    17649    17464    17257    17124    17153    17176 
   16953    16518    16155    16048    16069    16077    16112    16181 
   16240    16258    16212    16106    16008    16039    16090    16063 
   16208    16582    17011    17405    17676    17788    17629    17269 
   17065    16942    16698    16486    16227    15828    15622    15727 
   15954    16185    16190    15876    15627    15768    16345    17182 
   17771    17775    17300    16636    16195    16272    16748    17263 
   17497    17280    16850    16625    16587    16580    16546    16343 
   16050    15858    15778    15836    16059    16268    16258    16182 
   16248    16359    16607    17123    17648    17982    17988    17593 
   17166    16961    16887    16947    17026    16880    16526    16006 
   15385    15078    15202    15342    15468    15657    15786    15962 
   16189    16470    16838    17020    17014    17035    16953    16722 
   16654    16804    17050    17415    17776    17986    17987    17668 
   17127    16559    16097    15959    16035    15992    15863    15807 
   15736    15628    15669    15804    15923    16208    16556    16707 
   16735    16731    16694    16528    16290    16335    16691    17073 
   17344    17377    17178    17223    17763    18139    17813    17074 
   16240    15452    15103    15446    16092    16507    16490    16008 
   15358    15098    15333    15986    17047    18053    18480    18293 
   17756    17042    16229    15680    15635    15759    15863    15998 
   16046    16085    16347    16803    17255    17455    17261    16919 
   16904    17301    17693    17578    16869    16040    15549    15541 
   16136    17122    17882    18022    17498    16492    15468    14845 
   14729    14944    15217    15487    15674    15665    15616    15496 
   15331    15646    16642    17887    18875    19560    20016    19867 
   19010    18030    17397    17151    17074    16792    16117    15268 
   14565    14245    14354    14655    15059    15549    15795    15708 
   15695    16001    16582    17242    17628    17624    17412    17162 
   16942    16777    16811    17146    17587    17824    17599    16919 
   16102    15597    15666    16067    16401    16470    16233    15951 
   15869    15989    16339    16748    16976    17023    16864    16607 
   16632    17032    17486    17702    17626    17289    16735    16104 
   15591    15313    15306    15534    15828    15978    15927    15865 
   15979    16302    16740    17019    17059    17119    17359    17798 
   18233    18256    17761    16977    16152    15588    15516    15793 
   16031    16108    16133    16147    16267    16576    16943    17204 
   17155    16850    16677    16733    16756    16660    16603    16565 
   16417    16291    16351    16537    16680    16668    16536    16278 
   15971    15842    15896    16015    16221    16368    16212    15942 
   15912    16231    16876    17631    18146    18289    18156    17934 
   17834    17909    17906    17587    16926    16055    15414    15354 
   15627    15823    15782    15480    15029    14621    14435    14565 
   14985    15624    16333    16906    17244    17381    17377    17288 
   17189    17247    17644    18320    18874    19013    18855    18535 
   18125    17786    17464    16915    16191    15557    15071    14731 
   14450    13977    13470    13340    13674    14341    15125    15826 
   16505    17223    17828    18225    18424    18296    17821    17404 
   17346    17514    17770    18010    18021    17690    17167    16779 
   16665    16615    16475    16185    15542    14644    13919    13490 
   13360    13648    14180    14837    15797    16891    17836    18689 
   19313    19473    19336    19078    18670    18148    17626    17153 
   16640    16110    15757    15672    15824    16194    16694    17189 
   17660    17942    17717    17047    16198    15369    14847    14717 
   14773    14878    14924    14935    15228    15901    16684    17289 
   17581    17599    17459    17346    17385    17497    17559    17425 
   17039    16644    16441    16336    16152    15893    15666    15483 
   15407    15516    15750    16194    16812    17265    17513    17679 
   17752    17813    17929    18003    17884    17481    16872    16212 
   15651    15291    15136    15190    15493    15970    16237    16016 
   15662    15492    15392    15496    15961    16501    16850    17027 
   17119    17215    17397    17662    17923    18189    18461    18597 
   18508    18246    17859    17311    16627    15958    15506    15385 
   15426    15373    15024    14299    13563    13185    13171    13608 
   14422    15207    15946    16868    17869    18854    19699    20098 
   20063    19715    19062    18366    17832    17355    16848    16231 
   15502    14871    14482    14323    14451    14885    15423    15863 
   16151    16308    16363    16463    16784    17166    17354    17412 
   17431    17435    17559    17780    17929    17979    17878    17577 
   17257    17020    16772    16468    16089    15577    15026    14616 
   14501    14810    15385    15958    16445    16830    17147    17365 
   17385    17320    17292    17259    17284    17432    17541    17401 
   16956    16245    15433    14763    14364    14253    14409    14791 
   15325    15924    16545    17074    17463    17859    18300    18643 
   18813    18810    18596    18161    17614    17122    16727    16291 
   15796    15427    15207    15191    15500    15851    15988    15947 
   15707    15422    15321    15375    15569    15924    16353    16746 
   17014    17091    17030    17080    17398    17817    18193    18470 
   18507    18262    17782    17173    16619    16175    15844    15668 
   15574    15499    15448    15438    15468    15496    15452    15352 
   15371    15657    16206    16934    17609    17959    17973    17756 
   17373    17051    16922    16785    16549    16351    16263    16285 
   16390    16549    16710    16830    16956    17127    17292    17356 
   17246    16957    16582    16260    16093    16039    16013    16023 
   16066    16155    16344    16573    16773    16938    17042    17070 
   16923    16528    16071    15707    15437    15321    15346    15412 
   15462    15527    15735    16160    16748    17379    17887    18148 
   18231    18184    17976    17695    17335    16823    16341    16070 
   15981    16011    16170    16395    16568    16746    16997    17176 
   17153    16907    16505    16067    15649    15315    15209    15342 
   15573    15851    16200    16575    16931    17200    17309    17308 
   17253    17188    17126    17069    17091    17143    17140    17120 
   17042    16852    16627    16461    16317    16055    15728    15506 
   15327    15136    15020    14983    15018    15196    15580    16155 
   16810    17479    18126    18609    18875    18945    18694    18121 
   17462    16907    16579    16480    16438    16386    16332    16256 
   16256    16413    16713    17103    17424    17483    17220    16683 
   15939    15164    14543    14130    13975    14022    14162    14470 
   14947    15506    16154    16785    17271    17618    17847    17983 
   18090    18218    18330    18331    18193    17941    17668    17483 
   17410    17390    17316    17165    16919    16507    15986    15484 
   15071    14790    14662    14671    14758    14909    15148    15464 
   15882    16378    16852    17247    17514    17698    17932    18212 
   18408    18408    18125    17583    17065    16826    16814    16826 
   16696    16362    15863    15333    14967    14887    15111    15580 
   16141    16653    17081    17435    17710    17898    17956    17799 
   17412    16946    16530    16155    15846    15622    15430    15294 
   15265    15360    15620    16004    16383    16656    16746    16663 
   16478    16329    16341    16474    16636    16807    16939    17028 
   17213    17496    17686    17752    17741    17572    17289    17058 
   16870    16629    16299    15863    15334    14829    14492    14427 
   14689    15207    15768    16224    16675    17248    17811    18133 
   18152    17879    17482    17196    17047    16949    16846    16679 
   16445    16235    16163    16221    16267    16254    16239    16237 
   16248    16321    16483    16652    16750    16794    16808    16768 
   16706    16686    16671    16676    16791    16904    16825    16555 
   16200    15865    15646    15585    15712    15996    16367    16787 
   17134    17324    17412    17374    17180    16970    16893    16942 
   17092    17244    17185    16865    16421    16044    15905    15940 
   15985    15992    15928    15799    15709    15757    15934    16136 
   16276    16352    16407    16560    16853    17131    17286    17381 
   17433    17406    17281    17032    16684    16337    16141    16183 
   16341    16455    16444    16359    16383    16530    16652    16779 
   16953    17039    16933    16710    16518    16402    16372    16463 
   16630    16795    16880    16837    16726    16623    16536    16474 
   16420    16353    16247    16074    15903    15828    15878    16033 
   16274    16602    16954    17213    17344    17344    17267    17215 
   17153    17003    16754    16449    16193    16020    15923    15947 
   16056    16155    16240    16375    16571    16794    16993    17097 
   17072    16950    16765    16537    16326    16162    16011    15863 
   15732    15650    15715    15973    16351    16748    17046    17200 
   17304    17417    17541    17622    17525    17285    17016    16748 
   16576    16537    16546    16530    16491    16478    16491    16521 
   16545    16482    16259    15916    15615    15473    15531    15715 
   15835    15871    15969    16213    16609    17049    17401    17606 
   17655    17567    17367    17134    16935    16730    16509    16324 
   16151    16002    15912    15838    15778    15800    15957    16206 
   16492    16788    17012    17142    17275    17392    17398    17338 
   17246    17088    16947    16850    16684    16467    16271    16104 
   15984    15893    15876    15975    16131    16329    16582    16789 
   16887    16896    16866    16897    17001    17057    17043    17001 
   16902    16754    16607    16478    16382    16320    16245    16117 
   15992    15970    16038    16152    16310    16430    16440    16424 
   16448    16490    16573    16677    16727    16738    16756    16815 
   16919    16980    16934    16783    16560    16333    16163    16067 
