Origin Time       2025/03/28 03:50:00
Lat.              35.403
Long.             140.360
Depth. (km)       54
Mag.              4.4
Station Code      IBRH11
Station Lat.      36.3701
Station Long.     140.1401
Station Height(m) 67
Record Time       2025/03/28 03:51:10
Sampling Freq(Hz) 100Hz
Duration Time(s)  120
Dir.              5
Scale Factor      7845(gal)/8223790
Max. Acc. (gal)   1.926
Last Correction   2025/03/28 03:51:10
Memo.             
[...]
   18546    18512    18554    18667    18800    18894    18887    18820 
   18735    18570    18345    18265    18382    18492    18528    18524 
   18445    18314    18250    18326    18472    18567    18617    18682 
   18729    18724    18715    18742    18769    18694    18576    18571 
   18613    18612    18642    18671    18638    18592    18486    18331 
   18296    18366    18450    18538    18585    18665    18804    18823 
   18702    18569    18492    18530    18586    18590    18644    18671 
   18570    18513    18635    18733    18616    18566    18738    18663 
   18335    18320    18443    18395    18485    18632    18667    18771 
   18727    18531    18459    18361    18330    18490    18530    18495 
   18574    18574    18585    18758    18770    18605    18605    18644 
   18492    18380    18465    18589    18728    18825    18774    18708 
   18671    18620    18562    18535    18612    18655    18584    18522 
   18515    18607    18682    18590    18508    18542    18620    18694 
   18651    18484    18392    18414    18450    18507    18515    18373 
   18254    18307    18350    18405    18658    18860    18816    18723 
   18657    18617    18675    18792    18951    19037    18885    18686 
   18605    18543    18490    18473    18422    18324    18283    18292 
   18262    18284    18445    18594    18585    18522    18559    18625 
   18603    18590    18639    18677    18713    18661    18447    18365 
   18508    18570    18578    18729    18871    18846    18800    18905 
   18987    18881    18798    18813    18723    18558    18488    18500 
   18435    18222    18052    18067    18134    18192    18283    18391 
   18454    18389    18391    18630    18760    18744    18883    18964 
   18836    18684    18611    18694    18693    18434    18306    18428 
   18512    18569    18715    18796    18769    18866    19048    19026 
   18797    18565    18396    18274    18246    18256    18288    18405 
   18493    18588    18670    18484    18250    18264    18312    18312 
   18466    18778    18999    19006    18937    18914    18816    18604 
   18512    18528    18500    18524    18586    18635    18765    18874 
   18867    18825    18733    18555    18357    18222    18123    18042 
   18134    18373    18482    18424    18418    18540    18623    18540 
   18466    18515    18565    18650    18848    18971    18921    18829 
   18798    18806    18725    18594    18604    18600    18422    18327 
   18441    18600    18690    18754    18862    18805    18499    18297 
   18339    18436    18490    18546    18642    18661    18574    18477 
   18382    18339    18330    18364    18513    18652    18692    18688 
   18607    18472    18436    18538    18590    18536    18555    18648 
   18688    18701    18740    18855    18967    18843    18650    18682 
   18747    18647    18504    18424    18362    18289    18338    18478 
   18505    18495    18508    18463    18445    18463    18569    18805 
   18856    18702    18677    18639    18438    18343    18412    18470 
   18418    18300    18276    18378    18590    18891    19105    19182 
   19179    19047    18887    18774    18582    18414    18414    18481 
   18462    18337    18257    18218    18146    18226    18414    18473 
   18450    18484    18585    18607    18557    18654    18816    18881 
   18886    18789    18584    18387    18262    18210    18208    18316 
   18597    18895    19039    19066    19056    19064    19060    18937 
   18797    18706    18553    18409    18388    18384    18283    18125 
   18069    18119    18077    18025    18183    18369    18414    18497 
   18679    18801    18760    18674    18746    18883    18898    18879 
   18918    18971    19001    18974    18918    18866    18725    18522 
   18427    18412    18372    18388    18438    18388    18246    18103 
   18096    18196    18193    18188    18285    18346    18453    18634 
   18732    18824    18928    18987    19122    19172    19025    18983 
   18929    18619    18434    18517    18540    18497    18482    18469 
   18482    18432    18346    18377    18408    18361    18365    18473 
   18607    18634    18604    18666    18669    18563    18580    18600 
   18507    18547    18643    18600    18553    18531    18515    18551 
   18563    18547    18549    18527    18509    18540    18609    18697 
   18738    18728    18775    18841    18775    18659    18666    18716 
   18675    18603    18542    18423    18291    18237    18214    18152 
   18176    18370    18462    18396    18503    18727    18812    18814 
   18839    18891    18891    18752    18671    18736    18732    18709 
   18790    18877    18895    18712    18422    18326    18323    18293 
   18339    18415    18451    18434    18439    18559    18569    18400 
   18423    18563    18505    18419    18409    18411    18451    18461 
   18524    18696    18716    18638    18692    18724    18697    18778 
   18877    18898    18928    18964    18897    18752    18671    18615 
   18508    18428    18393    18414    18488    18466    18412    18512 
   18592    18454    18315    18370    18422    18334    18315    18432 
   18496    18441    18445    18546    18511    18399    18493    18682 
   18725    18677    18697    18828    18906    18816    18779    18854 
   18774    18607    18620    18705    18613    18466    18531    18673 
   18644    18608    18719    18751    18546    18303    18253    18353 
   18450    18539    18701    18794    18657    18497    18445    18370 
   18328    18408    18501    18482    18395    18414    18473    18432 
   18426    18481    18517    18590    18663    18735    18868    18928 
   18850    18770    18771    18785    18708    18667    18769    18789 
   18698    18720    18800    18777    18682    18594    18492    18333 
   18230    18299    18387    18360    18320    18281    18230    18265 
   18350    18474    18609    18558    18403    18358    18320    18277 
   18372    18588    18816    18941    18982    19082    19133    19048 
   18998    18927    18733    18561    18427    18315    18293    18415 
   18666    18843    18817    18719    18640    18539    18422    18396 
   18473    18558    18636    18671    18596    18476    18343    18208 
   18198    18269    18235    18177    18253    18343    18354    18466 
   18693    18814    18877    18987    18983    18821    18651    18576 
   18657    18767    18787    18832    18873    18786    18642    18544 
   18543    18635    18743    18794    18727    18563    18397    18318 
   18357    18324    18142    18046    18042    18011    18058    18202 
   18412    18651    18808    18893    18886    18802    18867    19047 
   19145    19207    19232    19121    18902    18686    18565    18455 
   18285    18222    18301    18405    18495    18544    18601    18586 
   18355    18161    18210    18243    18135    18153    18319    18333 
   18219    18268    18420    18480    18527    18620    18713    18821 
   18955    19175    19391    19367    19219    19133    18974    18719 
   18576    18578    18573    18474    18392    18414    18453    18493 
   18554    18578    18527    18453    18470    18534    18470    18341 
   18265    18222    18171    18102    18106    18127    17969    17887 
   18168    18562    18809    18887    18890    18901    18875    18856 
   18985    19167    19156    18990    18943    19009    18920    18763 
   18812    18887    18814    18693    18546    18445    18397    18360 
   18449    18520    18432    18373    18264    18038    17964    18054 
   18220    18443    18561    18590    18570    18391    18281    18451 
   18608    18632    18711    18769    18651    18489    18481    18605 
   18709    18739    18770    18823    18798    18671    18617    18760 
   18949    19012    18995    18929    18766    18577    18470    18424 
   18334    18204    18172    18219    18191    18216    18442    18643 
   18713    18837    18966    18878    18631    18481    18512    18577 
   18513    18431    18565    18700    18553    18403    18389    18337 
   18349    18441    18454    18480    18535    18543    18620    18758 
   18837    18844    18759    18684    18673    18566    18517    18667 
   18673    18516    18478    18490    18474    18490    18547    18662 
   18785    18832    18789    18735    18770    18739    18576    18577 
   18740    18804    18777    18697    18555    18424    18291    18222 
   18314    18322    18184    18146    18126    18022    18018    18168 
   18403    18623    18748    18804    18783    18721    18765    18871 
   18900    18871    18819    18796    18801    18708    18608    18608 
   18638    18675    18640    18570    18673    18833    18904    18999 
   19071    18986    18835    18659    18426    18199    18027    17995 
   18117    18172    18149    18199    18227    18185    18179    18223 
   18319    18407    18438    18531    18665    18705    18751    18894 
   19014    19025    18995    18993    18951    18864    18781    18630 
   18482    18472    18543    18636    18693    18763    18883    18895 
   18819    18760    18712    18712    18682    18573    18547    18532 
   18370    18191    18058    17896    17702    17577    17636    17795 
   17914    18075    18418    18859    19134    19256    19396    19375 
   19138    18982    18912    18794    18682    18628    18671    18689 
   18530    18409    18424    18384    18414    18607    18716    18754 
   18879    19056    19210    19194    18898    18573    18360    18094 
   17856    17793    17801    17841    17994    18258    18482    18571 
   18650    18812    18994    19086    19125    19225    19244    19097 
   18949    18814    18617    18461    18441    18501    18509    18423 
   18365    18337    18183    18025    18040    18075    18044    18048 
   18142    18292    18411    18530    18634    18612    18577    18601 
   18623    18697    18800    18935    19206    19444    19537    19645 
   19701    19545    19317    19199    19095    18824    18519    18401 
   18324    18060    17698    17477    17424    17350    17307    17518 
   17861    18152    18454    18782    19017    19145    19263    19290 
   19071    18700    18423    18331    18269    18150    18118    18214 
   18342    18463    18621    18851    19056    19121    19147    19202 
   19184    19118    19003    18743    18438    18246    18180    18112 
   18027    18098    18264    18342    18401    18596    18947    19249 
   19353    19379    19380    19255    19001    18738    18517    18235 
   17902    17617    17338    17119    17139    17358    17614    17905 
   18230    18571    18920    19167    19330    19550    19776    19862 
   19815    19718    19542    19294    19071    18851    18605    18362 
   18142    18023    17957    17834    17775    17898    18157    18434 
   18631    18802    18947    19002    19082    19114    18954    18787 
   18675    18470    18172    17842    17645    17599    17466    17348 
   17475    17764    18067    18397    18873    19375    19678    19888 
   20035    19998    19873    19646    19244    18769    18269    17884 
   17695    17525    17479    17693    17907    18022    18195    18538 
   18972    19248    19388    19558    19633    19550    19372    19102 
   18846    18517    18013    17597    17375    17238    17255    17432 
   17714    18056    18292    18516    18932    19342    19575    19684 
   19656    19546    19496    19433    19163    18781    18512    18311 
   18069    17863    17798    17830    17882    18068    18391    18590 
   18570    18446    18424    18640    18858    18854    18873    18974 
   18864    18708    18821    18972    18887    18654    18407    18185 
   18030    18063    18293    18476    18492    18450    18322    18099 
   18022    18152    18354    18596    18851    19122    19380    19403 
   19201    19010    18778    18474    18323    18361    18416    18446 
   18542    18750    18929    18914    18792    18693    18565    18404 
   18311    18301    18289    18184    18061    18085    18225    18354 
   18522    18783    18997    18978    18836    18846    18936    18971 
   19068    19107    18939    18777    18655    18493    18407    18316 
   18172    18122    18072    17990    18033    18088    18122    18250 
   18337    18341    18353    18388    18522    18661    18620    18574 
   18651    18636    18570    18659    18798    18914    19076    19246 
   19396    19537    19622    19634    19538    19311    19013    18642 
   18262    18064    18030    18026    17963    17764    17590    17620 
   17745    17940    18207    18391    18527    18720    18828    18754 
   18597    18422    18334    18446    18544    18501    18553    18609 
   18381    18088    18114    18345    18404    18331    18354    18442 
   18616    18958    19388    19851    20183    20239    20166    19992 
   19670    19384    19172    18981    18873    18751    18523    18231 
   17830    17397    17223    17320    17437    17552    17737    17948 
   18262    18635    18831    18932    18940    18603    18135    17855 
   17632    17423    17284    17228    17491    18006    18376    18702 
   19140    19435    19622    19830    19938    20008    20073    19959 
   19761    19619    19275    18663    18141    17752    17336    17035 
   16916    16989    17451    18243    19062    19746    20144    20258 
   20335    20270    19849    19311    18831    18366    17910    17362 
   16843    16618    16567    16611    16943    17370    17574    17833 
   18422    19049    19568    20148    20595    20568    20142    19557 
   18972    18517    18212    18063    18110    18203    18233    18334 
   18544    18829    19215    19531    19580    19413    19144    18863 
   18619    18353    18068    17825    17589    17338    17089    16923 
   17011    17352    17799    18289    18820    19371    19877    20281 
   20515    20466    20156    19770    19284    18675    18162    17794 
   17462    17186    17092    17331    17760    18058    18304    18598 
   18758    18829    18947    19044    19246    19627    19861    19676 
   19165    18632    18227    17825    17467    17379    17551    17793 
   18002    18242    18581    18877    18989    19040    19161    19248 
   19182    19068    19030    18947    18786    18785    18835    18593 
   18171    17918    17874    17884    17992    18260    18484    18563 
   18685    18956    19271    19425    19349    19152    18816    18399 
   18168    18137    18133    18153    18234    18327    18370    18414 
   18612    18941    19132    19121    19125    19140    18986    18731 
   18608    18577    18412    18092    17706    17311    17039    17011 
   17217    17514    17766    18046    18399    18712    19037    19506 
   20059    20467    20505    20320    20137    19791    19345    19072 
   18796    18415    18112    17867    17703    17724    17892    18200 
   18501    18604    18640    18732    18821    18843    18779    18657 
   18465    18158    17736    17362    17201    17118    17084    17261 
   17524    17799    18164    18497    18874    19408    19912    20286 
   20437    20244    20007    19953    19847    19588    19321    18990 
   18442    17824    17469    17389    17402    17564    17909    18312 
   18659    18835    18925    18993    18874    18715    18701    18621 
   18415    18169    17921    17790    17698    17583    17679    17914 
   18122    18447    18796    19013    19261    19587    19854    19927 
   19769    19579    19376    19017    18686    18505    18345    18242 
   18211    18198    18233    18195    18063    18095    18333    18532 
   18544    18443    18349    18297    18339    18432    18431    18392 
   18395    18381    18346    18254    18117    18075    18164    18401 
   18827    19218    19356    19425    19527    19444    19230    19134 
   19080    18943    18721    18409    18211    18266    18284    18214 
   18335    18461    18337    18195    18208    18246    18225    18253 
   18416    18561    18489    18241    18045    18013    18052    18173 
   18477    18841    19114    19298    19381    19338    19210    19113 
   19103    19070    18971    18913    18856    18663    18350    18040 
   17803    17656    17629    17756    17926    18017    18130    18346 
   18634    18960    19171    19195    19225    19245    19111    18945 
   18801    18624    18511    18473    18450    18416    18369    18396 
   18378    18258    18355    18655    18879    19079    19253    19307 
   19280    19186    19080    18929    18577    18193    17987    17834 
   17698    17694    17833    18038    18204    18391    18625    18719 
   18690    18692    18675    18640    18593    18515    18482    18411 
   18200    18091    18203    18279    18227    18246    18372    18538 
   18836    19313    19796    20024    19967    19854    19722    19410 
   18991    18658    18365    18013    17790    17782    17736    17637 
   17649    17707    17820    18004    18125    18265    18477    18598 
   18698    18889    19026    19018    18906    18759    18651    18604 
   18644    18729    18686    18532    18501    18648    18839    18990 
   19111    19187    19195    19211    19222    19053    18762    18563 
   18349    18014    17797    17767    17749    17694    17683    17817 
   18046    18157    18172    18368    18654    18739    18762    18887 
   18974    19001    19063    19106    19049    18925    18866    18952 
   19062    19083    19121    19203    19168    19006    18863    18785 
   18663    18408    18183    18133    18084    17965    17949    18076 
   18225    18192    17937    17725    17606    17531    17709    18063 
   18326    18547    18762    18939    19125    19280    19408    19549 
   19591    19475    19306    19151    19033    19016    19060    19022 
   18895    18727    18423    18003    17678    17524    17477    17532 
   17714    17936    18037    18072    18256    18566    18801    18955 
   19124    19203    19130    19063    19035    19033    19066    18964 
   18783    18746    18621    18295    18135    18226    18382    18559 
   18673    18704    18617    18347    18234    18451    18580    18532 
   18523    18493    18515    18679    18797    18797    18719    18555 
   18423    18382    18358    18395    18507    18567    18571    18625 
   18756    18860    18843    18812    18851    18809    18671    18624 
   18717    18839    18863    18837    18867    18763    18432    18146 
   18029    17982    17953    17972    18054    18106    18161    18377 
   18623    18733    18773    18739    18669    18589    18435    18401 
   18570    18650    18625    18716    18856    18868    18796    18802 
   18860    18840    18773    18769    18762    18623    18472    18465 
   18458    18393    18469    18619    18619    18558    18567    18628 
   18682    18655    18627    18684    18698    18620    18547    18488 
   18366    18216    18211    18314    18343    18384    18516    18631 
   18658    18594    18512    18519    18550    18547    18588    18644 
   18652    18724    18905    19003    18944    18906    18933    18886 
   18731    18604    18590    18631    18661    18711    18779    18728 
   18553    18424    18334    18191    18075    18004    17944    17956 
   18030    18134    18285    18395    18459    18585    18729    18819 
   18850    18840    18813    18767    18744    18786    18843    18877 
