Origin Time       2025/03/28 03:50:00
Lat.              35.403
Long.             140.360
Depth. (km)       54
Mag.              4.4
Station Code      IBRH19
Station Lat.      36.2137
Station Long.     140.0893
Station Height(m) 175
Record Time       2025/03/28 03:51:08
Sampling Freq(Hz) 100Hz
Duration Time(s)  120
Dir.              4
Scale Factor      7845(gal)/8223790
Max. Acc. (gal)   0.432
Last Correction   2025/03/28 03:51:09
Memo.             
[...]
   15083    15087    15088    15083    15082    15091    15101    15103 
   15101    15103    15118    15115    15099    15101    15097    15074 
   15070    15082    15087    15094    15102    15097    15099    15120 
   15136    15144    15141    15107    15059    15049    15078    15084 
   15080    15103    15118    15095    15071    15080    15098    15091 
   15103    15133    15128    15091    15061    15055    15070    15078 
   15076    15080    15102    15136    15152    15147    15137    15126 
   15105    15079    15060    15043    15030    15028    15022    15030 
   15066    15090    15083    15079    15090    15083    15064    15078 
   15099    15090    15074    15064    15066    15071    15068    15072 
   15094    15117    15120    15105    15094    15091    15098    15095 
   15082    15080    15070    15039    15032    15059    15105    15152 
   15160    15129    15118    15130    15103    15055    15045    15057 
   15063    15064    15049    15052    15105    15152    15157    15159 
   15165    15149    15129    15128    15121    15095    15067    15030 
   14994    15009    15055    15078    15098    15111    15107    15132 
   15168    15155    15106    15071    15057    15059    15079    15107 
   15102    15070    15091    15142    15144    15122    15094    15045 
   15036    15045    15003    14959    14971    14997    15002    15009 
   15052    15124    15159    15148    15151    15165    15175    15198 
   15184    15086    14998    15021    15080    15102    15115    15130 
   15117    15091    15079    15095    15136    15167    15176    15159 
   15105    15045    15017    14997    14980    15029    15106    15126 
   15099    15055    15016    15051    15126    15142    15125    15088 
   15024    14995    15012    15056    15132    15167    15161    15194 
   15232    15192    15099    15057    15084    15105    15105    15091 
   15029    14964    14964    14987    15029    15122    15194    15187 
   15141    15111    15111    15091    15041    15036    15088    15101 
   15025    14948    14931    14952    15026    15147    15222    15241 
   15246    15215    15141    15088    15083    15093    15094    15075 
   15049    15056    15084    15064    15006    15005    15040    15056 
   15097    15136    15132    15159    15199    15175    15121    15094 
   15079    15080    15114    15134    15107    15088    15091    15061 
   15024    15012    15003    15043    15122    15141    15084    15040 
   15048    15074    15128    15198    15179    15111    15102    15095 
   15061    15055    15037    14987    14983    15034    15056    15040 
   15028    15037    15088    15155    15186    15182    15160    15161 
   15175    15140    15095    15086    15067    15034    15030    15026 
   15017    15059    15129    15157    15159    15153    15120    15068 
   15049    15055    15070    15107    15125    15071    15007    14999 
   15032    15063    15084    15091    15068    15070    15113    15130 
   15137    15168    15179    15164    15155    15145    15120    15101 
   15118    15113    15061    15043    15047    15007    14945    14935 
   15021    15174    15261    15209    15120    15093    15094    15090 
   15075    15021    14959    14955    14983    15012    15059    15121 
   15163    15180    15175    15156    15132    15099    15074    15083 
   15113    15103    15063    15040    15030    15053    15136    15217 
   15221    15159    15063    14958    14908    14947    15022    15083 
   15105    15106    15093    15064    15076    15161    15275    15314 
   15226    15101    15030    15018    15026    15034    15059    15063 
   15040    15059    15120    15164    15190    15211    15213    15176 
   15111    15064    15040    15043    15082    15110    15120    15102 
   15020    14976    15020    15010    14953    14978    15044    15020 
   14955    14976    15055    15120    15136    15095    15083    15114 
   15084    15074    15199    15232    15082    15063    15195    15217 
   15141    15078    15097    15240    15236    15021    14999    15149 
   15128    14997    14937    14993    15120    15179    15142    15091 
   15079    15083    15029    14999    15018    14976    14968    14971 
   14949    15099    15275    15253    15184    15172    15167    15188 
   15237    15178    15086    15088    15043    15012    15082    15114 
   15128    15121    15055    15041    15102    15140    15121    15109 
   15107    15082    15030    14966    14983    15057    15088    15153 
   15152    15012    15010    15105    15078    15061    15083    15067 
   15059    15009    14979    15090    15147    15130    15213    15195 
   15088    15098    15074    15005    15059    15160    15178    15142 
   15151    15141    15049    15045    15167    15157    15013    14953 
   14963    14976    14985    14932    14956    15066    15082    15074 
   15109    15188    15302    15314    15210    15098    15047    15084 
   15113    15109    15138    15126    15072    15059    15045    15026 
   15059    15137    15182    15132    15064    15064    15087    15087 
   15088    15098    15102    15094    15078    15071    15063    15033 
   15032    15072    15094    15088    15060    15032    15099    15180 
   15125    15088    15207    15237    15080    14985    14980    14980 
   15029    15061    15036    15049    15121    15179    15194    15188 
   15171    15134    15082    15010    15012    15111    15147    15124 
   15125    15079    14995    14972    14993    15009    15051    15098 
   15094    15115    15183    15175    15148    15179    15169    15145 
   15160    15098    14990    15003    15070    15039    14978    14974 
   15001    15057    15126    15157    15138    15080    15043    15082 
   15140    15118    15068    15090    15144    15153    15163    15179 
   15149    15140    15163    15134    15093    15088    15057    15006 
   14983    14978    14994    15013    15010    15049    15125    15156 
   15156    15160    15169    15182    15136    15033    14987    14987 
   14991    15020    15036    15064    15130    15164    15156    15148 
   15132    15084    15052    15103    15171    15155    15103    15071 
   15045    15036    15049    15079    15132    15176    15192    15202 
   15145    15033    14993    15039    15082    15040    14970    14997 
   15070    15074    15053    15088    15140    15145    15155    15176 
   15156    15115    15087    15022    14949    14976    15040    15036 
   15022    15053    15080    15105    15144    15174    15196    15190 
   15137    15115    15094    15018    15013    15097    15142    15114 
   15047    15006    15039    15111    15156    15136    15122    15136 
   15059    14937    14953    15063    15097    15083    15117    15137 
   15114    15138    15182    15168    15159    15165    15117    15039 
   14974    14949    14991    15070    15145    15165    15147    15169 
   15182    15134    15076    15034    15022    15020    14999    14999 
   15048    15121    15164    15159    15114    15063    15059    15105 
   15153    15184    15182    15128    15044    14948    14881    14908 
   15013    15125    15187    15194    15195    15176    15110    15080 
   15098    15099    15072    14976    14874    14906    15024    15130 
   15203    15215    15201    15195    15137    15045    15036    15103 
   15163    15201    15221    15159    15043    15006    15034    15047 
   15059    15095    15099    15055    15043    15064    15057    15075 
   15114    15099    15067    15087    15118    15105    15103    15137 
   15138    15102    15056    14993    14956    14999    15072    15107 
   15136    15179    15182    15142    15122    15120    15113    15124 
   15130    15095    15061    15063    15063    15045    15020    15013 
   15021    15009    15001    15040    15109    15187    15240    15201 
   15113    15057    15047    15060    15093    15105    15022    14943 
   14986    15071    15160    15230    15196    15130    15097    15098 
   15145    15184    15190    15164    15098    15056    15066    15064 
   15036    15002    14980    14987    15010    15036    15068    15110 
   15151    15152    15124    15132    15157    15141    15106    15094 
   15102    15090    15056    15030    15003    14974    14978    15009 
   15030    15044    15059    15105    15165    15169    15148    15182 
   15237    15249    15221    15145    15056    15028    15076    15130 
   15099    15033    15001    14937    14918    15016    15075    15086 
   15121    15115    15076    15093    15140    15145    15122    15102 
   15088    15086    15066    15032    15041    15079    15099    15102 
   15095    15093    15098    15128    15171    15168    15124    15098 
   15088    15066    15029    15043    15115    15136    15093    15075 
   15051    15018    15057    15121    15125    15141    15201    15191 
   15118    15080    15068    15064    15072    15040    14980    14972 
   15005    15032    15075    15114    15117    15132    15161    15157 
   15109    15072    15091    15129    15151    15138    15098    15076 
   15083    15066    15024    15005    15028    15053    15030    15016 
   15061    15080    15052    15064    15124    15171    15199    15213 
   15194    15160    15142    15118    15098    15106    15113    15093 
   15074    15061    15022    15003    15055    15111    15159    15211 
   15179    15088    15079    15102    15067    15026    14999    14955 
   14931    14951    15013    15082    15134    15160    15134    15106 
   15121    15128    15106    15103    15114    15102    15053    15013 
   15010    15010    14997    15009    15060    15132    15182    15195 
   15202    15194    15144    15097    15068    15048    15088    15178 
   15229    15229    15183    15101    15044    15030    15022    15034 
   15079    15079    15022    15017    15059    15072    15094    15122 
   15105    15076    15082    15102    15114    15115    15087    15043 
   15028    15018    15003    15036    15083    15099    15133    15209 
   15246    15203    15148    15161    15199    15174    15086    14991 
   14925    14889    14897    14935    14966    15005    15051    15099 
   15169    15226    15233    15233    15246    15218    15169    15155 
   15126    15064    15009    14968    14945    14948    15007    15111 
   15169    15195    15238    15234    15148    15055    15017    15033 
   15064    15087    15084    15066    15056    15045    15037    15064 
   15115    15137    15124    15103    15097    15099    15102    15091 
   15056    15005    14953    14925    14964    15066    15174    15261 
   15299    15263    15206    15168    15140    15114    15080    15021 
   14975    14990    15017    15003    14976    14972    14998    15056 
   15109    15099    15032    14963    14951    14999    15086    15172 
   15206    15201    15174    15098    15016    14985    14997    15043 
   15118    15206    15280    15284    15236    15206    15168    15111 
   15088    15093    15102    15110    15109    15101    15064    14999 
   14972    15002    15039    15071    15111    15140    15138    15098 
   15020    14962    14948    14945    14959    15013    15076    15079 
   15009    14982    15068    15176    15214    15201    15201    15232 
   15264    15241    15141    15057    15060    15086    15093    15126 
   15174    15156    15093    15041    14989    14962    15009    15083 
   15113    15132    15178    15194    15130    15045    15029    15078 
   15107    15068    15005    14986    15032    15111    15161    15161 
   15152    15134    15082    15033    15049    15103    15101    15013 
   14917    14871    14891    14966    15063    15165    15246    15261 
   15233    15228    15265    15314    15299    15242    15219    15157 
   15017    14920    14909    14902    14847    14789    14791    14859 
   14959    15040    15097    15186    15268    15261    15217    15210 
   15219    15206    15165    15109    15048    15006    15022    15051 
   15040    15087    15202    15245    15217    15188    15167    15175 
   15183    15142    15064    14956    14860    14864    14952    15044 
   15083    15056    15021    15032    15037    15018    15030    15087 
   15156    15202    15213    15198    15163    15111    15041    15014 
   15051    15057    15075    15184    15283    15284    15229    15153 
   15109    15114    15106    15063    15029    15016    15013    15030 
   15041    15002    14959    14982    15022    15017    14995    14993 
   14993    15036    15113    15149    15167    15195    15195    15141 
   15018    14924    14971    15071    15110    15136    15172    15171 
   15140    15102    15074    15079    15106    15110    15049    14968 
   14975    15057    15140    15195    15210    15205    15225    15250 
   15249    15229    15188    15140    15118    15093    15052    15032 
   15009    14964    14945    14976    15025    15059    15060    15084 
   15175    15241    15206    15132    15102    15126    15152    15156 
   15161    15137    15048    14936    14859    14816    14806    14875 
   15017    15138    15211    15267    15264    15195    15133    15111 
   15142    15217    15242    15195    15147    15088    15020    14997 
   14971    14899    14823    14746    14692    14728    14872    15090 
   15338    15514    15523    15407    15252    15129    15105    15117 
   15052    14962    14936    14939    14917    14933    15028    15103 
   15097    15064    15064    15117    15196    15273    15367    15488 
   15542    15457    15310    15191    15103    15018    14945    14887 
   14820    14739    14671    14643    14658    14702    14760    14837 
   14929    15022    15144    15327    15480    15492    15434    15387 
   15331    15304    15306    15280    15229    15141    15020    14949 
   14948    14975    15017    15048    15026    14967    14953    15033 
   15136    15174    15153    15164    15230    15288    15325    15340 
   15264    15088    14951    14928    14931    14904    14875    14874 
   14918    14976    15001    15003    15001    14989    15012    15070 
   15102    15115    15160    15234    15294    15333    15384    15390 
   15299    15188    15109    15051    15044    15055    15022    15010 
   15041    15039    15002    14982    14932    14833    14806    14885 
   14967    15033    15107    15172    15217    15252    15296    15336 
   15338    15294    15215    15152    15113    15045    14955    14908 
   14893    14874    14909    15014    15105    15160    15192    15172 
   15138    15106    15040    15010    15067    15133    15182    15210 
   15171    15107    15103    15126    15105    15052    15018    14972 
   14885    14843    14905    15010    15093    15142    15183    15221 
   15253    15263    15206    15130    15103    15068    15012    15010 
   15064    15099    15101    15099    15109    15121    15120    15079 
   15022    15037    15106    15113    15053    14999    14972    14970 
   15005    15071    15137    15190    15215    15240    15300    15334 
   15269    15164    15095    15066    15030    14972    14918    14893 
   14905    14949    15003    15070    15164    15259    15299    15280 
   15255    15230    15159    15051    14955    14908    14914    14944 
   14986    15025    15018    15016    15080    15126    15097    15087 
   15137    15172    15176    15164    15109    15059    15063    15053 
   15005    14989    15020    15080    15169    15238    15250    15226 
   15160    15070    15017    14999    14968    14944    14948    14951 
   14970    15029    15095    15129    15128    15113    15095    15076 
   15090    15157    15250    15318    15325    15269    15169    15061 
   14993    14987    15034    15079    15098    15105    15076    15029 
   15018    15012    15002    15055    15132    15151    15145    15155 
   15157    15138    15091    15032    14993    14990    15030    15074 
   15080    15088    15106    15117    15126    15102    15076    15124 
   15180    15165    15118    15093    15068    15024    14985    14979 
   15028    15117    15201    15242    15234    15192    15130    15060 
   14999    14953    14959    15056    15171    15225    15259    15287 
   15282    15237    15148    15047    14974    14902    14863    14891 
   14886    14820    14816    14887    14976    15068    15138    15201 
   15276    15307    15279    15223    15141    15039    14971    14987 
   15064    15128    15149    15147    15111    15066    15064    15110 
   15167    15203    15214    15214    15203    15160    15087    15016 
   14986    14999    15021    15047    15060    15026    14970    14949 
   14978    14989    14951    14945    15013    15097    15179    15263 
   15311    15321    15304    15264    15209    15134    15063    15024 
   14993    14970    14985    15013    15033    15056    15087    15122 
   15137    15120    15093    15093    15115    15103    15052    15010 
   14979    14979    15033    15106    15175    15217    15202    15176 
   15187    15218    15202    15098    14983    14924    14924    14994 
   15056    15057    15074    15113    15126    15145    15172    15155 
   15107    15084    15078    15087    15136    15157    15120    15088 
   15074    15044    15034    15052    15063    15066    15080    15072 
   15029    15007    15021    15041    15079    15120    15136    15111 
   15071    15053    15072    15109    15126    15144    15174    15172 
   15161    15172    15188    15183    15138    15070    15006    14985 
   15007    15029    15048    15049    14987    14947    14995    15063 
   15114    15148    15106    15036    15048    15124    15183    15191 
   15141    15078    15072    15117    15141    15126    15088    15012 
   14958    15005    15101    15159    15148    15094    15076    15095 
   15091    15087    15117    15151    15157    15129    15093    15084 
   15078    15056    15044    15066    15118    15141    15103    15076 
   15083    15090    15109    15130    15121    15097    15075    15057 
   15074    15110    15120    15106    15090    15080    15111    15144 
   15129    15111    15094    15064    15066    15087    15095    15099 
   15106    15121    15115    15071    15020    14995    14991    14997 
   15016    15057    15105    15121    15117    15103    15063    15047 
   15109    15159    15134    15106    15110    15107    15091    15068 
   15026    14998    15012    15029    15030    15025    15022    15047 
   15111    15187    15233    15237    15232    15234    15210    15159 
   15118    15109    15113    15107    15102    15098    15067    15029 
   15039    15061    15063    15055    15007    14952    14970    15017 
   15032    15045    15063    15061    15056    15091    15167    15218 
   15217    15190    15151    15105    15056    15006    14949    14912 
   14928    14993    15088    15171    15178    15129    15118    15167 
   15184    15133    15094    15124    15184    15209    15205    15198 
   15140    15052    15021    15025    15013    15007    15030    15033 
   15016    15052    15109    15109    15090    15111    15159    15187 
   15184    15165    15142    15090    15018    14989    14993    14979 
   14975    14991    14998    15024    15066    15097    15142    15183 
   15172    15128    15072    15034    15061    15117    15130    15137 
   15141    15097    15045    15026    15034    15045    15028    15033 
