Origin Time       2025/03/28 03:50:00
Lat.              35.403
Long.             140.360
Depth. (km)       54
Mag.              4.4
Station Code      IBRH08
Station Lat.      36.1188
Station Long.     140.5621
Station Height(m) 40
Record Time       2025/03/28 03:51:04
Sampling Freq(Hz) 100Hz
Duration Time(s)  120
Dir.              5
Scale Factor      7845(gal)/8223790
Max. Acc. (gal)   1.231
Last Correction   2025/03/28 03:51:04
Memo.             
[...]
   -2029    -2025    -2023    -2022    -2019    -2023    -2031    -2033 
   -2031    -2035    -2031    -2023    -2018    -2018    -2020    -2022 
   -2023    -2027    -2029    -2027    -2027    -2027    -2026    -2023 
   -2026    -2027    -2026    -2027    -2026    -2027    -2033    -2035 
   -2030    -2026    -2027    -2027    -2022    -2023    -2029    -2031 
   -2029    -2023    -2025    -2030    -2023    -2015    -2014    -2019 
   -2026    -2026    -2026    -2033    -2033    -2029    -2025    -2025 
   -2027    -2027    -2026    -2023    -2023    -2031    -2033    -2027 
   -2027    -2025    -2022    -2025    -2025    -2022    -2022    -2023 
   -2025    -2025    -2022    -2022    -2025    -2029    -2031    -2027 
   -2025    -2023    -2020    -2020    -2027    -2030    -2031    -2033 
   -2029    -2020    -2020    -2020    -2020    -2019    -2022    -2029 
   -2031    -2031    -2030    -2025    -2019    -2018    -2019    -2018 
   -2015    -2019    -2026    -2027    -2025    -2025    -2027    -2029 
   -2027    -2026    -2025    -2018    -2018    -2027    -2029    -2027 
   -2031    -2031    -2029    -2026    -2023    -2020    -2016    -2022 
   -2029    -2029    -2033    -2037    -2033    -2027    -2027    -2023 
   -2019    -2019    -2018    -2018    -2023    -2027    -2026    -2026 
   -2025    -2025    -2026    -2023    -2019    -2023    -2029    -2025 
   -2018    -2019    -2016    -2019    -2029    -2031    -2031    -2033 
   -2027    -2025    -2020    -2015    -2015    -2018    -2020    -2025 
   -2031    -2034    -2030    -2026    -2023    -2020    -2018    -2014 
   -2018    -2029    -2031    -2029    -2027    -2023    -2020    -2020 
   -2019    -2022    -2026    -2027    -2030    -2034    -2034    -2027 
   -2020    -2016    -2016    -2020    -2023    -2027    -2026    -2022 
   -2020    -2023    -2025    -2022    -2020    -2023    -2025    -2019 
   -2018    -2022    -2025    -2023    -2026    -2029    -2025    -2019 
   -2020    -2018    -2012    -2016    -2023    -2022    -2022    -2026 
   -2029    -2029    -2025    -2023    -2023    -2022    -2025    -2027 
   -2025    -2030    -2034    -2023    -2019    -2023    -2020    -2018 
   -2025    -2027    -2027    -2029    -2022    -2018    -2019    -2018 
   -2020    -2030    -2030    -2029    -2033    -2031    -2027    -2025 
   -2020    -2019    -2023    -2025    -2026    -2029    -2029    -2027 
   -2022    -2020    -2026    -2025    -2020    -2025    -2027    -2023 
   -2020    -2022    -2025    -2027    -2025    -2023    -2020    -2018 
   -2019    -2020    -2020    -2023    -2027    -2029    -2029    -2025 
   -2025    -2027    -2018    -2011    -2023    -2030    -2025    -2025 
   -2027    -2027    -2030    -2027    -2020    -2020    -2026    -2029 
   -2027    -2029    -2031    -2033    -2030    -2029    -2029    -2029 
   -2026    -2025    -2020    -2019    -2023    -2020    -2018    -2019 
   -2019    -2015    -2012    -2018    -2023    -2018    -2015    -2020 
   -2027    -2031    -2035    -2030    -2023    -2026    -2027    -2020 
   -2020    -2026    -2026    -2025    -2027    -2035    -2041    -2041 
   -2039    -2033    -2025    -2012    -2000    -2008    -2033    -2038 
   -2031    -2027    -2010    -1996    -2004    -2015    -2014    -2015 
   -2025    -2041    -2053    -2065    -2081    -2076    -2045    -2008 
   -1987    -1988    -1992    -1988    -2011    -2068    -2099    -2089 
   -2062    -2018    -1991    -1995    -1983    -1971    -1992    -2000 
   -1988    -1993    -2004    -2030    -2079    -2091    -2039    -2006 
   -2018    -2012    -2004    -2037    -2057    -2057    -2072    -2046 
   -1991    -1988    -2007    -2023    -2062    -2085    -2089    -2107 
   -2080    -2022    -2006    -2007    -2010    -2000    -1952    -1934 
   -1966    -1993    -2058    -2142    -2131    -2074    -2033    -1958 
   -1908    -1930    -1961    -2006    -2050    -2029    -2010    -2042 
   -2052    -2066    -2111    -2096    -2041    -2037    -2037    -1975 
   -1939    -1981    -2029    -2064    -2089    -2052    -1996    -2006 
   -2016    -2025    -2085    -2084    -2004    -1988    -1985    -1942 
   -1985    -2076    -2072    -2016    -1983    -1968    -1981    -2026 
   -2080    -2138    -2162    -2089    -1980    -1961    -1993    -1972 
   -1971    -2042    -2070    -2012    -1972    -2010    -2066    -2081 
   -2068    -2053    -2038    -1993    -1942    -1944    -1961    -1960 
   -1999    -2070    -2084    -2054    -2069    -2099    -2069    -2035 
   -2049    -2042    -2008    -2008    -2016    -2027    -2047    -2034 
   -2019    -2030    -2000    -1958    -1957    -1968    -2020    -2103 
   -2106    -2073    -2073    -2052    -2010    -1953    -1902    -1944 
   -2003    -1998    -2031    -2068    -2016    -2018    -2076    -2065 
   -2052    -2068    -2070    -2069    -2022    -1939    -1915    -1938 
   -1975    -2015    -1999    -1972    -2011    -2033    -2000    -2014 
   -2076    -2120    -2114    -2010    -1900    -1930    -2031    -2053 
   -2012    -2007    -2062    -2092    -2054    -2037    -2087    -2133 
   -2103    -2003    -1933    -1946    -1964    -1942    -1929    -1942 
   -1992    -2066    -2095    -2074    -2073    -2091    -2083    -2047 
   -2010    -1981    -1987    -1985    -1964    -2014    -2080    -2064 
   -2068    -2112    -2092    -2053    -2066    -2099    -2118    -2080 
   -1983    -1934    -1954    -1929    -1848    -1836    -1926    -2018 
   -2056    -2041    -2022    -2119    -2299    -2340    -2207    -2076 
   -1987    -1864    -1763    -1757    -1830    -1961    -2088    -2100 
   -2087    -2185    -2288    -2262    -2154    -2018    -1910    -1884 
   -1884    -1868    -1895    -1977    -2052    -2053    -2007    -2016 
   -2087    -2143    -2155    -2092    -2018    -2018    -2020    -2006 
   -2023    -1981    -1906    -1950    -2042    -2045    -1996    -1971 
   -2000    -2057    -2074    -2039    -1993    -1954    -1917    -1903 
   -1961    -2097    -2231    -2246    -2120    -2010    -2052    -2127 
   -2083    -1985    -1938    -1934    -1945    -1962    -1983    -1992 
   -1999    -2006    -1991    -2015    -2079    -2087    -2069    -2111 
   -2165    -2164    -2106    -2016    -1918    -1856    -1879    -1925 
   -1917    -1944    -2049    -2149    -2238    -2327    -2332    -2181 
   -1964    -1877    -1949    -1975    -1883    -1834    -1906    -2012 
   -2037    -1992    -2019    -2100    -2093    -2027    -2015    -2060 
   -2087    -2064    -2020    -2008    -2068    -2145    -2079    -1887 
   -1827    -1929    -1961    -1912    -1941    -2053    -2184    -2263 
   -2197    -2074    -2029    -1980    -1908    -1918    -1944    -1964 
   -2052    -2101    -2073    -2083    -2069    -1949    -1888    -1965 
   -2039    -2069    -2114    -2141    -2081    -1954    -1853    -1867 
   -1998    -2114    -2115    -2100    -2151    -2181    -2096    -1935 
   -1834    -1873    -1941    -1918    -1918    -2037    -2141    -2137 
   -2083    -2093    -2188    -2227    -2099    -1895    -1811    -1846 
   -1841    -1846    -1931    -1989    -2022    -2076    -2111    -2135 
   -2131    -2108    -2168    -2209    -2088    -1944    -1900    -1883 
   -1875    -1933    -2089    -2235    -2193    -1995    -1879    -1964 
   -2072    -2046    -2000    -2027    -2081    -2149    -2193    -2126 
   -1950    -1771    -1713    -1806    -1956    -2083    -2161    -2185 
   -2143    -2093    -2103    -2070    -1919    -1831    -1884    -1973 
   -2089    -2192    -2222    -2208    -2070    -1854    -1800    -1885 
   -1946    -2034    -2180    -2292    -2312    -2196    -1965    -1784 
   -1748    -1813    -1952    -2110    -2187    -2168    -2107    -1953 
   -1740    -1711    -1896    -2073    -2187    -2239    -2182    -2069 
   -1968    -1907    -1923    -1966    -1979    -1993    -1998    -1998 
   -2046    -2085    -2077    -2046    -1991    -1962    -2018    -2133 
   -2228    -2228    -2127    -2022    -1946    -1875    -1868    -1939 
   -2035    -2147    -2196    -2095    -1953    -1877    -1838    -1837 
   -1887    -1954    -2041    -2111    -2134    -2166    -2164    -2079 
   -2016    -2035    -2104    -2181    -2177    -2068    -1915    -1753 
   -1641    -1703    -1964    -2281    -2500    -2527    -2370    -2177 
   -2030    -1877    -1772    -1802    -1898    -1969    -2006    -2020 
   -2076    -2185    -2197    -2042    -1896    -1833    -1763    -1776 
   -1972    -2205    -2316    -2270    -2095    -1906    -1796    -1757 
   -1849    -2092    -2270    -2219    -2065    -1966    -1941    -1960 
   -1977    -1980    -2045    -2165    -2226    -2172    -2072    -2030 
   -2052    -2046    -1950    -1853    -1883    -1952    -1958    -2035 
   -2207    -2257    -2114    -1938    -1922    -2087    -2196    -2127 
   -2016    -1903    -1777    -1728    -1744    -1829    -2026    -2188 
   -2211    -2191    -2123    -1953    -1815    -1790    -1834    -1980 
   -2166    -2235    -2258    -2303    -2232    -2120    -2151    -2195 
   -2092    -1900    -1741    -1725    -1827    -1884    -1894    -1984 
   -2100    -2139    -2114    -1996    -1826    -1776    -1904    -2137 
   -2338    -2365    -2234    -2089    -1991    -1950    -2014    -2124 
   -2149    -2089    -2056    -2043    -1966    -1873    -1876    -1931 
   -1961    -1980    -2015    -2069    -2150    -2201    -2164    -2085 
   -1989    -1867    -1810    -1819    -1831    -1950    -2135    -2187 
   -2128    -2062    -2041    -2122    -2204    -2212    -2187    -2062 
   -1865    -1749    -1746    -1822    -1921    -1984    -2047    -2128 
   -2182    -2193    -2173    -2154    -2124    -2069    -2052    -2062 
   -2053    -2047    -1983    -1858    -1794    -1768    -1742    -1780 
   -1894    -2042    -2192    -2319    -2408    -2423    -2343    -2195 
   -1971    -1718    -1590    -1624    -1711    -1802    -1934    -2097 
   -2192    -2211    -2226    -2205    -2074    -1903    -1819    -1848 
   -1922    -2022    -2138    -2216    -2246    -2243    -2173    -2058 
   -1966    -1877    -1809    -1861    -2004    -2110    -2133    -2119 
   -2092    -2023    -1931    -1911    -1984    -2099    -2191    -2174 
   -2087    -2049    -1999    -1868    -1782    -1826    -1945    -2056 
   -2099    -2142    -2290    -2405    -2340    -2220    -2128    -2008 
   -1903    -1826    -1753    -1775    -1853    -1853    -1863    -1971 
   -2053    -2045    -2023    -2014    -2011    -2050    -2104    -2096 
   -2050    -2053    -2104    -2170    -2236    -2261    -2214    -2081 
   -1863    -1668    -1634    -1759    -1965    -2133    -2158    -2077 
   -1975    -1884    -1834    -1848    -1938    -2110    -2241    -2188 
   -2066    -2053    -2088    -2074    -2011    -1890    -1790    -1853 
   -2015    -2127    -2191    -2203    -2120    -2029    -2020    -2031 
   -2003    -1999    -2038    -2061    -2056    -2043    -2081    -2166 
   -2182    -2133    -2112    -2068    -1961    -1888    -1868    -1848 
   -1837    -1856    -1894    -1925    -1952    -1972    -1983    -2029 
   -2122    -2205    -2236    -2178    -2093    -2092    -2114    -2089 
   -2100    -2139    -2128    -2111    -2097    -2011    -1869    -1771 
   -1769    -1841    -1926    -2064    -2258    -2336    -2211    -2074 
   -2023    -1945    -1869    -1904    -1980    -2011    -1987    -1895 
   -1810    -1834    -1962    -2130    -2228    -2205    -2149    -2141 
   -2182    -2205    -2160    -2087    -1942    -1706    -1601    -1740 
   -1972    -2209    -2424    -2524    -2431    -2116    -1723    -1520 
   -1541    -1664    -1853    -2106    -2312    -2312    -2126    -1927 
   -1798    -1767    -1864    -1996    -2074    -2134    -2182    -2160 
   -2120    -2146    -2211    -2197    -2037    -1871    -1865    -1954 
   -2023    -2114    -2261    -2381    -2367    -2185    -1961    -1815 
   -1675    -1524    -1503    -1638    -1867    -2151    -2365    -2377 
   -2258    -2188    -2173    -2097    -1969    -1895    -1911    -1942 
   -1953    -2022    -2143    -2205    -2188    -2104    -1991    -1983 
   -2057    -2061    -2018    -1996    -1966    -1965    -1983    -1949 
   -1910    -1900    -1864    -1807    -1815    -1929    -2077    -2197 
   -2317    -2419    -2435    -2363    -2231    -2100    -2012    -1966 
   -1960    -1934    -1871    -1848    -1875    -1896    -1887    -1869 
   -1918    -2042    -2166    -2276    -2328    -2265    -2133    -1976 
   -1834    -1815    -1908    -1995    -2053    -2092    -2037    -1838 
   -1606    -1505    -1532    -1590    -1671    -1790    -1919    -2033 
   -2104    -2150    -2209    -2253    -2246    -2212    -2165    -2096 
   -2022    -1935    -1880    -1954    -2131    -2278    -2349    -2351 
   -2326    -2304    -2276    -2262    -2272    -2227    -2141    -2027 
   -1857    -1744    -1788    -1888    -1971    -2035    -2022    -1899 
   -1741    -1603    -1543    -1618    -1782    -1904    -1931    -1875 
   -1798    -1783    -1852    -2003    -2230    -2439    -2544    -2520 
   -2374    -2141    -1894    -1703    -1598    -1605    -1773    -2039 
   -2274    -2423    -2458    -2392    -2299    -2230    -2215    -2224 
   -2154    -2033    -1984    -1985    -1922    -1799    -1776    -1977 
   -2276    -2444    -2497    -2556    -2574    -2451    -2272    -2178 
   -2126    -1992    -1786    -1621    -1598    -1675    -1755    -1864 
   -2019    -2130    -2147    -2061    -1906    -1759    -1586    -1355 
   -1197    -1175    -1246    -1367    -1476    -1568    -1729    -1991 
   -2334    -2743    -3121    -3316    -3281    -3006    -2515    -2004 
   -1676    -1534    -1516    -1556    -1610    -1672    -1734    -1803 
   -1945    -2211    -2508    -2713    -2836    -2862    -2675    -2316 
   -1934    -1622    -1498    -1567    -1656    -1725    -1879    -2077 
   -2154    -2050    -1895    -1821    -1840    -1929    -2066    -2205 
   -2239    -2096    -1867    -1691    -1665    -1798    -1973    -2085 
   -2162    -2262    -2412    -2600    -2695    -2583    -2327    -1981 
   -1601    -1371    -1337    -1367    -1439    -1570    -1772    -2095 
   -2458    -2691    -2762    -2697    -2521    -2319    -2143    -2007 
   -1887    -1682    -1406    -1271    -1371    -1624    -1979    -2376 
   -2691    -2832    -2783    -2646    -2485    -2242    -1906    -1606 
   -1512    -1655    -1926    -2207    -2369    -2301    -2029    -1660 
   -1370    -1316    -1471    -1753    -2161    -2585    -2762    -2556 
   -2106    -1659    -1390    -1394    -1721    -2247    -2687    -2809 
   -2559    -2108    -1695    -1409    -1285    -1332    -1449    -1603 
   -1821    -1991    -2050    -2097    -2139    -2165    -2228    -2292 
   -2292    -2234    -2147    -2085    -2046    -1969    -1857    -1729 
   -1606    -1615    -1837    -2150    -2461    -2717    -2801    -2701 
   -2525    -2350    -2197    -2050    -1898    -1765    -1659    -1568 
   -1556    -1648    -1723    -1728    -1809    -2033    -2270    -2451 
   -2555    -2493    -2247    -1949    -1753    -1756    -1911    -2079 
   -2215    -2340    -2386    -2340    -2315    -2309    -2249    -2153 
   -2023    -1844    -1719    -1764    -1935    -2079    -2087    -1975 
   -1696    -1244     -897     -922    -1290    -1806    -2232    -2428 
   -2436    -2374    -2305    -2268    -2305    -2403    -2478    -2457 
   -2357    -2257    -2165    -2069    -2029    -2066    -2161    -2261 
   -2266    -2174    -2050    -1863    -1656    -1595    -1652    -1686 
   -1682    -1664    -1652    -1711    -1885    -2141    -2382    -2525 
   -2565    -2474    -2232    -1957    -1773    -1674    -1651    -1753 
   -1962    -2174    -2284    -2259    -2164    -2034    -1823    -1607 
   -1539    -1593    -1683    -1827    -2038    -2284    -2496    -2617 
   -2636    -2513    -2265    -1980    -1734    -1626    -1691    -1830 
   -1946    -2011    -2057    -2162    -2358    -2602    -2825    -2899 
   -2695    -2238    -1745    -1397    -1215    -1185    -1248    -1301 
   -1335    -1389    -1464    -1576    -1780    -2093    -2407    -2589 
   -2670    -2691    -2581    -2389    -2317    -2412    -2532    -2567 
   -2512    -2284    -1791    -1259    -1023    -1116    -1364    -1614 
   -1796    -1876    -1827    -1765    -1834    -1939    -1953    -1931 
   -1891    -1830    -1881    -2065    -2301    -2574    -2741    -2666 
   -2447    -2181    -1869    -1632    -1582    -1676    -1872    -2131 
   -2351    -2494    -2616    -2678    -2598    -2416    -2192    -1999 
   -1952    -2042    -2211    -2435    -2544    -2377    -2008    -1611 
   -1305    -1121    -1066    -1165    -1390    -1620    -1783    -1914 
   -2073    -2297    -2488    -2529    -2454    -2295    -2100    -1935 
   -1849    -1944    -2208    -2450    -2513    -2323    -1968    -1721 
   -1676    -1736    -1879    -2035    -2054    -1944    -1840    -1811 
   -1848    -1977    -2197    -2401    -2500    -2508    -2439    -2265 
   -2008    -1742    -1525    -1379    -1324    -1417    -1705    -2076 
   -2346    -2462    -2479    -2401    -2263    -2201    -2223    -2238 
   -2273    -2369    -2455    -2448    -2324    -2126    -1931    -1807 
   -1786    -1827    -1850    -1817    -1752    -1741    -1841    -2010 
   -2232    -2454    -2527    -2400    -2126    -1831    -1691    -1699 
   -1729    -1765    -1782    -1717    -1633    -1630    -1750    -1972 
   -2195    -2346    -2421    -2404    -2342    -2324    -2334    -2324 
   -2331    -2353    -2270    -2070    -1890    -1814    -1830    -1868 
   -1875    -1848    -1791    -1780    -1895    -2072    -2227    -2296 
   -2199    -1921    -1578    -1333    -1278    -1410    -1651    -1856 
   -1958    -2039    -2191    -2396    -2597    -2745    -2741    -2555 
   -2280    -1977    -1649    -1308    -1021     -895     -990    -1309 
   -1783    -2323    -2809    -3078    -3114    -3034    -2848    -2565 
   -2308    -2126    -1991    -1933    -1914    -1829    -1736    -1733 
   -1729    -1695    -1729    -1845    -1945    -1917    -1773    -1652 
   -1603    -1656    -1903    -2263    -2540    -2679    -2710    -2666 
   -2605    -2569    -2529    -2376    -2092    -1809    -1587    -1480 
   -1541    -1674    -1791    -1900    -1969    -1976    -1950    -1891 
   -1807    -1776    -1769    -1775    -1910    -2119    -2285    -2405 
   -2385    -2150    -1815    -1537    -1394    -1375    -1460    -1664 
   -1946    -2201    -2342    -2359    -2327    -2336    -2446    -2606 
   -2756    -2839    -2758    -2511    -2199    -1887    -1683    -1644 
   -1695    -1783    -1837    -1783    -1690    -1651    -1672    -1780 
   -1965    -2135    -2212    -2176    -2049    -1896    -1737    -1571 
   -1497    -1578    -1723    -1868    -2011    -2131    -2219    -2263 
   -2284    -2327    -2343    -2242    -2012    -1734    -1528    -1470 
   -1595    -1858    -2146    -2417    -2631    -2722    -2731    -2716 
   -2673    -2542    -2253    -1829    -1399    -1062     -857     -859 
   -1112    -1476    -1852    -2249    -2544    -2609    -2532    -2424 
   -2322    -2274    -2289    -2296    -2236    -2165    -2128    -2141 
   -2268    -2479    -2659    -2708    -2519    -2135    -1769    -1514 
   -1340    -1287    -1382    -1541    -1732    -1965    -2192    -2319 
   -2289    -2096    -1830    -1633    -1548    -1572    -1741    -1976 
   -2181    -2403    -2601    -2601    -2411    -2184    -1960    -1772 
