Origin Time       2025/03/28 03:50:00
Lat.              35.403
Long.             140.360
Depth. (km)       54
Mag.              4.4
Station Code      IBRH11
Station Lat.      36.3701
Station Long.     140.1401
Station Height(m) -36
Record Time       2025/03/28 03:51:10
Sampling Freq(Hz) 100Hz
Duration Time(s)  120
Dir.              3
Scale Factor      2942(gal)/8224139
Max. Acc. (gal)   0.151
Last Correction   2025/03/28 03:51:10
Memo.             
[...]
   10500    10478    10451    10439    10520    10536    10478    10430 
   10443    10528    10528    10474    10554    10670    10693    10677 
   10613    10579    10646    10658    10606    10596    10592    10606 
   10670    10679    10574    10496    10505    10492    10463    10470 
   10457    10478    10542    10521    10486    10546    10593    10559 
   10565    10616    10613    10596    10616    10600    10524    10492 
   10530    10527    10501    10538    10575    10565    10579    10632 
   10612    10539    10543    10579    10573    10577    10594    10582 
   10546    10519    10505    10467    10438    10463    10444    10363 
   10368    10467    10577    10678    10740    10743    10731    10700 
   10632    10596    10617    10594    10565    10578    10538    10517 
   10575    10577    10554    10538    10497    10523    10570    10558 
   10578    10647    10656    10625    10638    10624    10531    10482 
   10521    10551    10531    10459    10401    10463    10531    10458 
   10374    10388    10438    10467    10494    10527    10515    10496 
   10534    10557    10562    10615    10673    10720    10733    10698 
   10644    10569    10532    10569    10570    10521    10494    10508 
   10543    10559    10562    10550    10496    10481    10542    10575 
   10582    10623    10671    10689    10678    10627    10546    10521 
   10543    10548    10592    10625    10584    10561    10579    10573 
   10520    10478    10486    10478    10432    10423    10461    10459 
   10405    10386    10413    10440    10451    10496    10621    10729 
   10693    10602    10574    10574    10586    10609    10646    10698 
   10683    10606    10573    10573    10543    10482    10465    10492 
   10482    10458    10494    10563    10567    10527    10548    10608 
   10631    10638    10654    10682    10693    10673    10663    10615 
   10492    10435    10465    10503    10548    10569    10578    10621 
   10636    10571    10485    10463    10484    10492    10466    10457 
   10513    10555    10554    10596    10640    10638    10628    10594 
   10559    10604    10663    10642    10597    10577    10520    10440 
   10424    10457    10458    10431    10454    10516    10519    10517 
   10584    10624    10627    10670    10704    10675    10629    10594 
   10550    10505    10481    10467    10453    10434    10404    10390 
   10442    10498    10505    10528    10600    10674    10706    10702 
   10683    10659    10660    10633    10544    10498    10524    10557 
   10540    10496    10513    10555    10513    10450    10462    10480 
   10473    10508    10565    10593    10567    10498    10494    10551 
   10552    10519    10521    10552    10592    10632    10659    10663 
   10646    10627    10633    10655    10633    10566    10527    10507 
   10466    10454    10440    10403    10405    10461    10561    10666 
   10696    10675    10679    10705    10700    10654    10625    10620 
   10563    10498    10524    10567    10501    10395    10393    10443 
   10434    10416    10417    10413    10443    10496    10527    10548 
   10584    10631    10669    10690    10714    10704    10636    10608 
   10639    10658    10638    10584    10550    10566    10554    10527 
   10527    10531    10569    10584    10509    10485    10543    10516 
   10422    10411    10471    10504    10494    10507    10557    10598 
   10619    10609    10590    10619    10651    10632    10598    10592 
   10596    10569    10525    10528    10551    10515    10484    10532 
   10563    10540    10543    10550    10500    10484    10551    10579 
   10574    10635    10690    10666    10604    10579    10574    10525 
   10461    10440    10442    10422    10424    10454    10470    10492 
   10521    10546    10597    10669    10713    10714    10704    10682 
   10625    10590    10609    10606    10530    10459    10477    10505 
   10484    10489    10540    10590    10623    10609    10612    10666 
   10636    10528    10505    10547    10528    10455    10420    10444 
   10473    10482    10473    10450    10454    10494    10539    10565 
   10581    10627    10666    10631    10592    10601    10588    10554 
   10579    10631    10638    10615    10600    10592    10566    10546 
   10569    10563    10497    10504    10592    10596    10517    10480 
   10486    10507    10521    10527    10566    10594    10531    10478 
   10511    10528    10507    10523    10573    10602    10606    10631 
   10658    10639    10602    10593    10590    10563    10531    10547 
   10579    10571    10565    10581    10582    10588    10584    10530 
   10508    10538    10498    10443    10484    10523    10492    10490 
   10528    10503    10477    10547    10588    10520    10490    10536 
   10577    10612    10633    10632    10656    10665    10619    10596 
   10588    10539    10507    10511    10517    10531    10540    10534 
   10555    10589    10586    10615    10677    10659    10562    10505 
   10550    10597    10567    10546    10540    10493    10478    10504 
   10478    10461    10517    10573    10589    10586    10566    10561 
   10582    10578    10532    10516    10582    10609    10501    10408 
   10432    10457    10438    10459    10546    10592    10579    10588 
   10620    10662    10679    10651    10647    10670    10635    10559 
   10519    10501    10471    10494    10569    10569    10524    10557 
   10606    10594    10574    10586    10598    10601    10619    10625 
   10579    10543    10571    10588    10567    10546    10520    10513 
   10544    10593    10632    10660    10651    10566    10497    10498 
   10463    10416    10428    10434    10404    10405    10450    10461 
   10423    10416    10449    10501    10567    10606    10619    10629 
   10643    10679    10692    10650    10617    10605    10611    10638 
   10627    10596    10600    10601    10569    10547    10552    10566 
   10561    10543    10577    10625    10592    10540    10534    10515 
   10497    10501    10490    10471    10474    10511    10548    10536 
   10498    10504    10521    10516    10527    10554    10539    10485 
   10469    10516    10554    10555    10562    10559    10532    10524 
   10570    10628    10632    10597    10573    10575    10578    10544 
   10521    10559    10619    10639    10615    10609    10638    10617 
   10534    10500    10575    10635    10590    10559    10575    10535 
   10482    10490    10511    10492    10453    10457    10504    10525 
   10519    10525    10535    10540    10557    10562    10557    10547 
   10524    10532    10589    10639    10659    10656    10659    10659 
   10627    10604    10635    10632    10551    10517    10566    10584 
   10561    10569    10590    10589    10596    10574    10500    10482 
   10554    10579    10515    10474    10477    10444    10408    10426 
   10461    10469    10470    10498    10534    10573    10616    10609 
   10563    10551    10581    10602    10615    10659    10687    10644 
   10609    10627    10638    10586    10523    10551    10617    10609 
   10578    10577    10569    10531    10494    10503    10492    10423 
   10399    10415    10423    10476    10525    10517    10509    10490 
   10492    10566    10608    10561    10531    10574    10639    10655 
   10650    10670    10679    10667    10646    10608    10588    10581 
   10557    10552    10557    10536    10543    10561    10515    10455 
   10463    10507    10517    10497    10484    10481    10496    10544 
   10584    10562    10524    10527    10530    10498    10480    10501 
   10507    10453    10409    10439    10489    10525    10589    10665 
   10706    10725    10737    10723    10689    10662    10621    10589 
   10604    10629    10606    10575    10585    10592    10563    10540 
   10548    10575    10570    10530    10500    10489    10490    10498 
   10507    10535    10566    10567    10554    10543    10534    10509 
   10457    10415    10424    10469    10489    10480    10498    10540 
   10531    10503    10531    10561    10551    10555    10593    10615 
   10620    10651    10674    10658    10647    10663    10663    10598 
   10528    10521    10539    10531    10503    10496    10544    10593 
   10627    10670    10690    10714    10744    10698    10633    10620 
   10598    10555    10544    10561    10540    10481    10453    10446 
   10411    10407    10462    10519    10551    10563    10575    10609 
   10600    10543    10530    10550    10547    10548    10554    10535 
   10524    10535    10530    10520    10531    10503    10462    10481 
   10484    10447    10450    10455    10443    10488    10544    10540 
   10539    10567    10578    10567    10547    10521    10528    10538 
   10497    10470    10509    10574    10632    10696    10755    10781 
   10778    10746    10685    10629    10573    10500    10419    10347 
   10311    10289    10292    10327    10351    10374    10415    10453 
   10535    10632    10658    10682    10774    10862    10898    10893 
   10868    10840    10810    10768    10696    10602    10527    10478 
   10444    10422    10413    10426    10439    10457    10507    10544 
   10531    10543    10625    10683    10644    10567    10498    10432 
   10400    10382    10338    10311    10346    10413    10467    10508 
   10555    10593    10592    10586    10633    10724    10800    10810 
   10781    10760    10720    10656    10605    10554    10525    10548 
   10565    10547    10540    10559    10557    10513    10477    10467 
   10462    10484    10523    10523    10523    10552    10550    10509 
   10470    10451    10478    10513    10516    10532    10566    10581 
   10601    10643    10643    10593    10562    10542    10492    10459 
   10486    10516    10477    10413    10428    10497    10525    10542 
   10575    10578    10566    10605    10647    10584    10490    10490 
   10521    10501    10480    10513    10567    10593    10609    10632 
   10628    10620    10655    10685    10678    10666    10647    10631 
   10619    10569    10512    10482    10420    10350    10373    10439 
   10470    10503    10552    10586    10596    10577    10524    10485 
   10516    10565    10557    10536    10557    10596    10648    10724 
   10755    10698    10648    10678    10689    10648    10646    10639 
   10571    10539    10570    10578    10520    10461    10435    10415 
   10427    10485    10513    10513    10534    10544    10562    10594 
   10571    10543    10590    10620    10555    10498    10515    10524 
   10461    10380    10368    10422    10497    10586    10667    10696 
   10690    10694    10712    10692    10606    10530    10517    10513 
   10444    10376    10415    10496    10500    10463    10459    10489 
   10508    10489    10486    10513    10523    10530    10543    10546 
   10585    10681    10766    10786    10764    10736    10697    10654 
   10620    10606    10615    10589    10528    10492    10451    10386 
   10368    10385    10380    10376    10396    10401    10423    10503 
   10592    10671    10748    10766    10739    10729    10720    10692 
   10671    10674    10681    10669    10642    10613    10574    10543 
   10515    10457    10401    10390    10395    10395    10440    10515 
   10558    10562    10532    10500    10524    10590    10616    10555 
   10474    10473    10523    10544    10535    10527    10552    10594 
   10598    10558    10525    10552    10605    10620    10608    10570 
   10528    10559    10593    10534    10477    10511    10558    10547 
   10532    10565    10581    10557    10561    10594    10600    10543 
   10471    10469    10489    10465    10438    10440    10478    10540 
   10578    10601    10638    10648    10606    10547    10538    10608 
   10690    10716    10698    10660    10621    10627    10665    10663 
   10590    10504    10473    10485    10515    10563    10577    10532 
   10519    10546    10584    10638    10639    10578    10566    10611 
   10629    10619    10590    10532    10497    10516    10520    10485 
   10439    10380    10334    10342    10373    10412    10449    10470 
   10511    10567    10566    10500    10474    10524    10593    10660 
   10719    10717    10673    10670    10701    10679    10589    10493 
   10451    10438    10413    10422    10503    10611    10675    10665 
   10638    10635    10617    10579    10581    10639    10677    10640 
   10606    10619    10597    10546    10531    10532    10525    10507 
   10461    10439    10473    10498    10513    10527    10507    10508 
   10584    10660    10665    10625    10611    10611    10579    10516 
   10469    10465    10478    10465    10423    10407    10423    10407 
   10345    10304    10335    10407    10467    10530    10600    10651 
   10689    10733    10775    10783    10781    10825    10859    10802 
   10735    10696    10625    10561    10540    10508    10465    10480 
   10540    10573    10539    10476    10470    10525    10557    10532 
   10474    10419    10390    10372    10373    10399    10416    10444 
   10496    10543    10600    10654    10685    10689    10651    10625 
   10644    10613    10504    10416    10381    10363    10353    10336 
   10330    10382    10494    10605    10690    10778    10872    10918 
   10899    10891    10928    10924    10868    10837    10805    10714 
   10608    10548    10500    10395    10307    10296    10257    10172 
   10133    10139    10197    10308    10392    10443    10497    10534 
   10539    10527    10523    10528    10555    10608    10639    10643 
   10652    10662    10675    10662    10613    10616    10658    10652 
   10655    10698    10694    10651    10639    10640    10615    10566 
   10534    10521    10527    10551    10554    10490    10405    10365 
   10386    10443    10482    10474    10465    10503    10561    10575 
   10585    10616    10602    10598    10670    10708    10694    10693 
   10686    10673    10650    10579    10485    10416    10404    10439 
   10482    10521    10548    10567    10616    10655    10632    10627 
   10655    10636    10573    10528    10515    10488    10430    10412 
   10455    10492    10473    10430    10435    10494    10563    10590 
   10563    10574    10648    10693    10696    10689    10660    10633 
   10606    10554    10507    10466    10400    10362    10412    10480 
   10465    10419    10442    10512    10555    10575    10596    10588 
   10584    10631    10667    10663    10665    10673    10683    10701 
   10692    10659    10650    10643    10605    10567    10524    10446 
   10374    10349    10382    10453    10489    10478    10474    10496 
   10531    10548    10554    10598    10619    10561    10540    10588 
   10602    10555    10494    10459    10453    10463    10459    10455 
   10523    10629    10683    10689    10700    10705    10689    10679 
   10709    10750    10740    10686    10648    10655    10673    10635 
   10548    10490    10470    10453    10436    10435    10444    10434 
   10422    10432    10450    10469    10482    10498    10544    10573 
   10557    10546    10570    10611    10616    10593    10593    10585 
   10519    10469    10465    10427    10397    10443    10482    10484 
   10486    10489    10493    10509    10540    10566    10565    10561 
   10582    10616    10655    10666    10646    10667    10731    10766 
   10764    10741    10681    10582    10501    10492    10516    10500 
   10469    10482    10492    10444    10408    10443    10505    10519 
   10490    10509    10566    10575    10550    10531    10519    10520 
   10509    10501    10566    10651    10656    10617    10621    10655 
   10667    10655    10648    10636    10575    10489    10447    10470 
   10517    10511    10471    10521    10612    10644    10667    10678 
   10627    10585    10581    10555    10520    10516    10521    10505 
   10496    10520    10546    10561    10557    10525    10527    10577 
   10605    10579    10546    10555    10571    10561    10566    10581 
   10548    10496    10478    10504    10540    10548    10528    10543 
   10608    10654    10642    10608    10565    10500    10444    10411 
   10382    10362    10350    10358    10408    10453    10484    10535 
   10562    10562    10606    10679    10700    10678    10677    10686 
   10663    10651    10677    10665    10602    10551    10519    10498 
   10462    10412    10420    10482    10525    10524    10520    10542 
   10558    10551    10547    10542    10551    10611    10674    10708 
   10723    10702    10633    10569    10557    10558    10524    10494 
   10498    10527    10592    10656    10652    10613    10612    10623 
   10613    10628    10640    10608    10602    10612    10563    10531 
   10535    10485    10439    10447    10444    10431    10449    10481 
   10500    10512    10515    10503    10498    10531    10557    10555 
   10569    10613    10652    10654    10604    10536    10501    10477 
   10444    10435    10453    10470    10462    10458    10503    10562 
   10581    10566    10555    10592    10639    10612    10571    10631 
   10701    10660    10613    10632    10638    10620    10646    10690 
   10662    10596    10552    10492    10419    10385    10390    10407 
   10424    10467    10516    10530    10547    10582    10593    10584 
   10559    10544    10565    10590    10602    10615    10617    10624 
   10667    10716    10701    10656    10665    10658    10585    10527 
   10500    10467    10430    10401    10409    10439    10450    10440 
   10442    10476    10492    10474    10509    10586    10627    10628 
   10609    10598    10602    10588    10566    10555    10521    10469 
   10457    10494    10546    10584    10588    10567    10574    10612 
   10633    10612    10569    10565    10578    10546    10505    10519 
   10559    10565    10528    10501    10517    10563    10600    10615 
   10611    10588    10574    10579    10561    10530    10539    10563 
   10550    10509    10477    10482    10513    10528    10542    10561 
   10582    10621    10640    10635    10643    10646    10627    10619 
   10604    10557    10538    10552    10548    10535    10504    10443 
   10417    10435    10426    10396    10403    10449    10509    10565 
   10608    10660    10710    10716    10710    10731    10746    10739 
   10717    10658    10608    10616    10594    10521    10490    10484 
   10461    10447    10442    10453    10492    10505    10489    10512 
   10551    10550    10544    10538    10524    10555    10606    10592 
   10538    10532    10571    10578    10527    10496    10531    10567 
   10569    10567    10577    10571    10552    10544    10542    10527 
   10523    10530    10531    10544    10569    10586    10612    10625 
   10582    10523    10524    10552    10528    10484    10484    10513 
   10530    10519    10498    10509    10520    10498    10489    10528 
   10577    10569    10534    10532    10528    10524    10561    10579 
   10551    10544    10569    10598    10608    10585    10585    10601 
   10578    10557    10574    10606    10617    10597    10571    10562 
   10566    10569    10552    10525    10521    10552    10598    10621 
   10632    10665    10700    10696    10662    10655    10689    10693 
