Origin Time       2025/03/28 03:50:00
Lat.              35.403
Long.             140.360
Depth. (km)       54
Mag.              4.4
Station Code      IBRH11
Station Lat.      36.3701
Station Long.     140.1401
Station Height(m) 67
Record Time       2025/03/28 03:51:10
Sampling Freq(Hz) 100Hz
Duration Time(s)  120
Dir.              6
Scale Factor      7845(gal)/8223790
Max. Acc. (gal)   0.698
Last Correction   2025/03/28 03:51:10
Memo.             
[...]
   -6569    -6443    -6342    -6358    -6407    -6405    -6389    -6436 
   -6555    -6606    -6498    -6400    -6457    -6550    -6581    -6609 
   -6590    -6385    -6141    -6108    -6212    -6293    -6459    -6774 
   -6943    -6762    -6509    -6386    -6296    -6266    -6345    -6480 
   -6662    -6737    -6620    -6529    -6524    -6386    -6211    -6297 
   -6500    -6524    -6497    -6547    -6508    -6377    -6339    -6384 
   -6413    -6467    -6548    -6625    -6659    -6569    -6485    -6535 
   -6544    -6496    -6496    -6508    -6463    -6349    -6293    -6330 
   -6331    -6345    -6439    -6513    -6525    -6566    -6693    -6783 
   -6716    -6619    -6610    -6532    -6296    -6168    -6247    -6301 
   -6340    -6473    -6489    -6336    -6276    -6359    -6480    -6600 
   -6625    -6613    -6671    -6615    -6494    -6551    -6594    -6500 
   -6469    -6455    -6347    -6291    -6328    -6388    -6465    -6504 
   -6525    -6598    -6588    -6462    -6377    -6373    -6382    -6359 
   -6424    -6597    -6644    -6559    -6536    -6575    -6548    -6517 
   -6667    -6786    -6586    -6324    -6245    -6214    -6126    -6085 
   -6284    -6650    -6822    -6727    -6633    -6555    -6346    -6220 
   -6349    -6551    -6700    -6747    -6693    -6596    -6372    -6100 
   -6118    -6332    -6396    -6457    -6652    -6686    -6504    -6367 
   -6330    -6320    -6338    -6397    -6538    -6633    -6561    -6542 
   -6659    -6696    -6643    -6563    -6466    -6378    -6324    -6376 
   -6484    -6516    -6519    -6546    -6455    -6272    -6269    -6434 
   -6492    -6412    -6411    -6538    -6555    -6446    -6480    -6606 
   -6609    -6551    -6566    -6589    -6470    -6272    -6292    -6443 
   -6390    -6389    -6662    -6826    -6729    -6559    -6423    -6378 
   -6374    -6355    -6404    -6494    -6493    -6393    -6304    -6273 
   -6280    -6384    -6608    -6747    -6663    -6559    -6540    -6424 
   -6201    -6130    -6370    -6667    -6713    -6735    -6777    -6500 
   -6262    -6431    -6567    -6509    -6465    -6411    -6318    -6223 
   -6220    -6376    -6554    -6643    -6666    -6666    -6659    -6621 
   -6554    -6454    -6330    -6342    -6534    -6648    -6623    -6629 
   -6570    -6316    -6111    -6068    -6122    -6400    -6689    -6682 
   -6625    -6555    -6340    -6342    -6551    -6512    -6381    -6469 
   -6555    -6540    -6596    -6633    -6575    -6562    -6519    -6386 
   -6384    -6477    -6438    -6355    -6373    -6363    -6300    -6389 
   -6589    -6606    -6455    -6432    -6517    -6467    -6338    -6369 
   -6588    -6762    -6694    -6536    -6504    -6474    -6342    -6307 
   -6421    -6489    -6502    -6581    -6589    -6454    -6390    -6458 
   -6531    -6529    -6498    -6571    -6682    -6625    -6443    -6277 
   -6166    -6080    -6043    -6212    -6546    -6771    -6828    -6802 
   -6675    -6480    -6316    -6259    -6286    -6304    -6394    -6594 
   -6700    -6693    -6690    -6620    -6482    -6324    -6196    -6224 
   -6308    -6326    -6440    -6623    -6663    -6612    -6642    -6709 
   -6623    -6451    -6378    -6338    -6326    -6475    -6682    -6727 
   -6593    -6469    -6467    -6436    -6292    -6272    -6369    -6291 
   -6215    -6355    -6465    -6488    -6535    -6631    -6762    -6737 
   -6577    -6559    -6605    -6465    -6313    -6431    -6561    -6436 
   -6330    -6416    -6459    -6389    -6381    -6431    -6412    -6335 
   -6285    -6328    -6419    -6461    -6496    -6567    -6620    -6621 
   -6601    -6592    -6527    -6389    -6376    -6527    -6615    -6604 
   -6666    -6767    -6664    -6394    -6277    -6320    -6358    -6492 
   -6704    -6716    -6471    -6192    -6079    -6174    -6311    -6400 
   -6596    -6755    -6627    -6440    -6385    -6353    -6346    -6436 
   -6608    -6691    -6617    -6585    -6666    -6682    -6536    -6367 
   -6288    -6237    -6268    -6389    -6465    -6480    -6389    -6259 
   -6318    -6461    -6498    -6529    -6608    -6608    -6535    -6548 
   -6597    -6555    -6527    -6531    -6430    -6291    -6316    -6521 
   -6691    -6689    -6604    -6527    -6427    -6303    -6247    -6247 
   -6183    -6200    -6457    -6702    -6760    -6737    -6652    -6520 
   -6428    -6347    -6342    -6500    -6615    -6613    -6650    -6636 
   -6525    -6454    -6409    -6374    -6285    -6130    -6168    -6323 
   -6312    -6336    -6547    -6664    -6669    -6775    -6882    -6808 
   -6602    -6407    -6322    -6334    -6370    -6440    -6546    -6563 
   -6475    -6394    -6313    -6222    -6219    -6372    -6577    -6628 
   -6570    -6593    -6617    -6532    -6424    -6384    -6403    -6451 
   -6536    -6620    -6605    -6548    -6555    -6551    -6457    -6351 
   -6323    -6378    -6453    -6447    -6453    -6546    -6538    -6453 
   -6507    -6544    -6378    -6224    -6232    -6303    -6385    -6498 
   -6666    -6816    -6797    -6694    -6702    -6693    -6485    -6323 
   -6407    -6443    -6274    -6124    -6119    -6187    -6269    -6403 
   -6594    -6686    -6608    -6531    -6539    -6527    -6466    -6420 
   -6428    -6493    -6559    -6609    -6693    -6763    -6751    -6698 
   -6589    -6405    -6265    -6241    -6261    -6274    -6323    -6397 
   -6427    -6428    -6436    -6453    -6475    -6423    -6345    -6397 
   -6534    -6647    -6718    -6717    -6597    -6446    -6424    -6428 
   -6353    -6359    -6427    -6459    -6527    -6578    -6598    -6648 
   -6552    -6336    -6339    -6459    -6394    -6369    -6504    -6523 
   -6424    -6394    -6440    -6475    -6465    -6498    -6594    -6585 
   -6458    -6427    -6563    -6632    -6508    -6434    -6508    -6500 
   -6416    -6446    -6465    -6338    -6249    -6292    -6369    -6428 
   -6500    -6609    -6678    -6629    -6585    -6664    -6717    -6583 
   -6438    -6435    -6427    -6318    -6228    -6289    -6438    -6454 
   -6390    -6455    -6482    -6328    -6305    -6536    -6646    -6480 
   -6424    -6616    -6708    -6662    -6664    -6648    -6536    -6384 
   -6296    -6303    -6304    -6253    -6266    -6394    -6511    -6600 
   -6718    -6754    -6632    -6500    -6477    -6444    -6342    -6358 
   -6515    -6583    -6505    -6401    -6338    -6296    -6253    -6320 
   -6516    -6600    -6573    -6675    -6762    -6583    -6384    -6427 
   -6508    -6436    -6417    -6592    -6696    -6523    -6327    -6380 
   -6427    -6277    -6230    -6378    -6482    -6492    -6527    -6590 
   -6550    -6378    -6311    -6496    -6654    -6562    -6504    -6639 
   -6650    -6440    -6353    -6467    -6442    -6285    -6308    -6426 
   -6428    -6393    -6432    -6544    -6608    -6556    -6567    -6651 
   -6554    -6393    -6432    -6523    -6523    -6500    -6492    -6523 
   -6498    -6392    -6397    -6494    -6486    -6435    -6498    -6497 
   -6296    -6234    -6424    -6536    -6528    -6562    -6601    -6575 
   -6496    -6420    -6401    -6359    -6272    -6330    -6547    -6635 
   -6605    -6697    -6748    -6571    -6385    -6322    -6319    -6355 
   -6384    -6416    -6488    -6490    -6432    -6470    -6529    -6478 
   -6440    -6471    -6486    -6509    -6562    -6624    -6619    -6475 
   -6339    -6301    -6293    -6377    -6554    -6639    -6617    -6604 
   -6582    -6504    -6417    -6448    -6606    -6713    -6662    -6524 
   -6400    -6289    -6135    -6050    -6183    -6381    -6458    -6492 
   -6582    -6571    -6385    -6353    -6566    -6704    -6762    -6867 
   -6809    -6512    -6232    -6122    -6133    -6223    -6366    -6520 
   -6648    -6690    -6589    -6442    -6369    -6392    -6481    -6594 
   -6679    -6669    -6520    -6362    -6332    -6319    -6286    -6377 
   -6490    -6480    -6477    -6508    -6488    -6505    -6570    -6556 
   -6488    -6450    -6426    -6442    -6542    -6623    -6660    -6741 
   -6732    -6592    -6517    -6426    -6235    -6176    -6272    -6312 
   -6286    -6365    -6546    -6602    -6469    -6355    -6389    -6453 
   -6443    -6450    -6573    -6691    -6652    -6569    -6552    -6469 
   -6326    -6308    -6361    -6366    -6420    -6540    -6632    -6679 
   -6617    -6488    -6435    -6361    -6245    -6328    -6566    -6659 
   -6631    -6628    -6593    -6507    -6454    -6451    -6430    -6378 
   -6386    -6448    -6474    -6475    -6524    -6588    -6600    -6539 
   -6431    -6372    -6382    -6351    -6334    -6480    -6590    -6477 
   -6404    -6490    -6454    -6265    -6239    -6405    -6481    -6469 
   -6561    -6681    -6652    -6551    -6538    -6606    -6629    -6571 
   -6531    -6480    -6372    -6336    -6419    -6507    -6498    -6428 
   -6403    -6386    -6359    -6411    -6508    -6581    -6609    -6528 
   -6367    -6259    -6222    -6311    -6521    -6627    -6631    -6700 
   -6723    -6598    -6447    -6353    -6300    -6243    -6231    -6363 
   -6501    -6431    -6363    -6509    -6604    -6535    -6577    -6745 
   -6760    -6628    -6604    -6679    -6617    -6435    -6408    -6527 
   -6461    -6216    -6092    -6122    -6170    -6216    -6353    -6539 
   -6608    -6606    -6640    -6646    -6582    -6470    -6431    -6548 
   -6604    -6562    -6646    -6696    -6544    -6432    -6416    -6315 
   -6223    -6262    -6336    -6416    -6493    -6516    -6594    -6704 
   -6644    -6520    -6501    -6502    -6493    -6535    -6555    -6475 
   -6377    -6359    -6345    -6241    -6187    -6286    -6372    -6380 
   -6465    -6633    -6783    -6837    -6782    -6731    -6635    -6416 
   -6289    -6332    -6374    -6372    -6428    -6550    -6534    -6334 
   -6259    -6384    -6393    -6281    -6331    -6528    -6628    -6621 
   -6677    -6733    -6687    -6673    -6732    -6683    -6523    -6419 
   -6397    -6399    -6301    -6142    -6135    -6215    -6169    -6138 
   -6336    -6556    -6590    -6623    -6736    -6728    -6613    -6621 
   -6697    -6596    -6435    -6411    -6407    -6347    -6274    -6282 
   -6405    -6461    -6426    -6481    -6562    -6497    -6439    -6535 
   -6608    -6605    -6632    -6652    -6604    -6480    -6358    -6343 
   -6385    -6411    -6469    -6555    -6586    -6532    -6450    -6404 
   -6381    -6365    -6407    -6496    -6517    -6473    -6469    -6492 
   -6470    -6450    -6486    -6521    -6515    -6505    -6544    -6600 
   -6548    -6423    -6350    -6297    -6241    -6246    -6339    -6431 
   -6380    -6313    -6451    -6596    -6559    -6592    -6736    -6666 
   -6411    -6318    -6419    -6517    -6555    -6590    -6669    -6681 
   -6490    -6326    -6407    -6481    -6386    -6355    -6450    -6434 
   -6322    -6376    -6566    -6620    -6554    -6602    -6702    -6610 
   -6431    -6415    -6484    -6454    -6376    -6419    -6573    -6613 
   -6508    -6485    -6519    -6463    -6471    -6579    -6593    -6523 
   -6475    -6439    -6385    -6345    -6369    -6424    -6419    -6350 
   -6307    -6303    -6293    -6353    -6492    -6578    -6593    -6605 
   -6632    -6637    -6600    -6615    -6713    -6736    -6616    -6528 
   -6547    -6493    -6335    -6270    -6308    -6278    -6169    -6192 
   -6338    -6343    -6285    -6407    -6613    -6714    -6754    -6840 
   -6868    -6660    -6318    -6108    -6084    -6057    -6019    -6173 
   -6403    -6459    -6484    -6635    -6770    -6793    -6799    -6843 
   -6839    -6731    -6597    -6567    -6577    -6466    -6334    -6339 
   -6328    -6211    -6197    -6328    -6388    -6307    -6246    -6357 
   -6523    -6574    -6574    -6610    -6582    -6430    -6373    -6521 
   -6600    -6528    -6528    -6525    -6363    -6250    -6300    -6347 
   -6355    -6389    -6477    -6597    -6700    -6791    -6879    -6879 
   -6690    -6431    -6330    -6304    -6249    -6291    -6385    -6413 
   -6400    -6403    -6442    -6451    -6442    -6490    -6536    -6544 
   -6586    -6671    -6698    -6637    -6575    -6521    -6415    -6262 
   -6193    -6262    -6336    -6372    -6442    -6511    -6532    -6574 
   -6639    -6633    -6563    -6513    -6529    -6644    -6723    -6631 
   -6535    -6496    -6358    -6170    -6116    -6189    -6192    -6129 
   -6228    -6416    -6469    -6501    -6640    -6732    -6723    -6740 
   -6805    -6817    -6714    -6573    -6532    -6540    -6423    -6286 
   -6323    -6365    -6277    -6249    -6324    -6349    -6326    -6346 
   -6400    -6428    -6405    -6393    -6428    -6423    -6423    -6547 
   -6720    -6809    -6789    -6698    -6604    -6494    -6436    -6474 
   -6454    -6377    -6388    -6408    -6376    -6370    -6388    -6407 
   -6434    -6447    -6497    -6600    -6609    -6529    -6500    -6474 
   -6361    -6234    -6227    -6320    -6354    -6351    -6474    -6652 
   -6729    -6779    -6883    -6887    -6698    -6488    -6428    -6432 
   -6365    -6349    -6436    -6444    -6359    -6323    -6351    -6389 
   -6390    -6372    -6431    -6521    -6473    -6404    -6512    -6633 
   -6631    -6639    -6674    -6608    -6467    -6380    -6372    -6362 
   -6309    -6266    -6289    -6381    -6454    -6442    -6427    -6405 
   -6318    -6326    -6494    -6682    -6864    -6976    -6912    -6756 
   -6582    -6430    -6386    -6367    -6315    -6309    -6230    -6014 
   -5937    -6093    -6284    -6444    -6643    -6791    -6783    -6716 
   -6725    -6758    -6739    -6735    -6778    -6758    -6610    -6413 
   -6270    -6230    -6166    -5976    -5825    -5787    -5775    -5917 
   -6269    -6643    -6922    -7060    -7126    -7207    -7191    -7090 
   -7048    -6940    -6705    -6497    -6293    -6042    -5864    -5826 
   -5863    -5883    -5884    -5979    -6188    -6389    -6578    -6822 
   -7033    -7036    -6879    -6831    -6833    -6659    -6525    -6582 
   -6563    -6404    -6299    -6300    -6301    -6205    -6149    -6336 
   -6542    -6524    -6536    -6669    -6647    -6486    -6427    -6480 
   -6481    -6421    -6474    -6639    -6652    -6415    -6195    -6176 
   -6181    -6141    -6238    -6373    -6339    -6282    -6447    -6709 
   -6778    -6786    -6899    -6880    -6723    -6633    -6562    -6444 
   -6312    -6245    -6309    -6372    -6345    -6363    -6421    -6374 
   -6277    -6307    -6454    -6575    -6621    -6670    -6745    -6733 
   -6660    -6679    -6685    -6488    -6281    -6289    -6328    -6296 
   -6370    -6512    -6566    -6529    -6454    -6399    -6335    -6220 
   -6214    -6396    -6550    -6585    -6708    -6921    -6959    -6812 
   -6673    -6525    -6286    -6049    -5973    -6076    -6134    -6083 
   -6204    -6469    -6552    -6546    -6644    -6701    -6615    -6517 
   -6543    -6639    -6625    -6570    -6682    -6770    -6597    -6401 
   -6362    -6338    -6277    -6304    -6435    -6536    -6528    -6493 
   -6547    -6596    -6512    -6431    -6430    -6400    -6392    -6521 
   -6677    -6691    -6589    -6459    -6359    -6318    -6330    -6421 
   -6523    -6497    -6401    -6363    -6404    -6461    -6454    -6451 
   -6493    -6416    -6289    -6367    -6525    -6504    -6430    -6467 
   -6480    -6438    -6515    -6642    -6637    -6571    -6555    -6566 
   -6566    -6552    -6552    -6565    -6486    -6372    -6370    -6386 
   -6347    -6403    -6551    -6621    -6559    -6442    -6400    -6426 
   -6386    -6381    -6525    -6589    -6454    -6415    -6573    -6624 
   -6485    -6427    -6539    -6598    -6471    -6381    -6459    -6447 
   -6291    -6227    -6268    -6262    -6231    -6301    -6461    -6581 
   -6644    -6754    -6897    -6890    -6717    -6608    -6575    -6403 
   -6142    -6018    -6025    -6089    -6219    -6396    -6588    -6704 
   -6702    -6679    -6677    -6682    -6718    -6772    -6817    -6824 
   -6759    -6670    -6540    -6303    -6134    -6170    -6212    -6146 
   -6133    -6219    -6251    -6224    -6297    -6412    -6412    -6438 
   -6566    -6606    -6578    -6628    -6724    -6750    -6656    -6569 
   -6585    -6552    -6415    -6376    -6485    -6562    -6523    -6513 
   -6621    -6669    -6551    -6430    -6377    -6301    -6172    -6146 
   -6265    -6300    -6278    -6394    -6529    -6562    -6555    -6561 
   -6570    -6493    -6353    -6381    -6592    -6696    -6666    -6708 
   -6775    -6694    -6528    -6436    -6388    -6284    -6220    -6304 
   -6345    -6222    -6181    -6316    -6393    -6397    -6477    -6605 
   -6710    -6789    -6851    -6889    -6835    -6691    -6575    -6507 
   -6419    -6308    -6241    -6253    -6247    -6168    -6172    -6288 
   -6339    -6367    -6482    -6571    -6563    -6542    -6544    -6520 
   -6446    -6417    -6531    -6670    -6716    -6755    -6799    -6744 
   -6598    -6485    -6450    -6363    -6222    -6207    -6243    -6169 
   -6146    -6291    -6419    -6461    -6573    -6747    -6793    -6702 
   -6616    -6570    -6474    -6318    -6232    -6261    -6285    -6291 
   -6382    -6550    -6651    -6651    -6705    -6832    -6799    -6597 
   -6513    -6512    -6346    -6205    -6277    -6380    -6397    -6370 
   -6354    -6363    -6340    -6300    -6350    -6486    -6521    -6436 
   -6475    -6612    -6629    -6612    -6647    -6662    -6612    -6509 
   -6407    -6340    -6291    -6308    -6458    -6596    -6604    -6601 
   -6615    -6534    -6409    -6351    -6328    -6316    -6316    -6305 
   -6339    -6469    -6602    -6675    -6727    -6758    -6739    -6706 
   -6674    -6597    -6500    -6465    -6424    -6332    -6346    -6438 
   -6386    -6245    -6219    -6258    -6259    -6305    -6440    -6547 
   -6544    -6484    -6465    -6462    -6366    -6258    -6318    -6534 
   -6724    -6806    -6887    -6933    -6772    -6550    -6471    -6439 
   -6403    -6380    -6372    -6405    -6359    -6218    -6183    -6254 
   -6345    -6481    -6639    -6718    -6620    -6435    -6404    -6459 
   -6377    -6299    -6380    -6451    -6467    -6571    -6729    -6766 
   -6648    -6574    -6619    -6566    -6389    -6303    -6292    -6226 
   -6172    -6238    -6346    -6357    -6335    -6462    -6681    -6779 
   -6770    -6799    -6777    -6596    -6407    -6338    -6340    -6326 
   -6300    -6316    -6351    -6377    -6434    -6512    -6528    -6473 
   -6478    -6575    -6624    -6585    -6544    -6524    -6457    -6374 
   -6420    -6581    -6648    -6561    -6500    -6496    -6453    -6469 
   -6569    -6573    -6490    -6461    -6494    -6508    -6435    -6370 
   -6365    -6291    -6192    -6247    -6372    -6404    -6446    -6586 
   -6758    -6845    -6771    -6674    -6652    -6542    -6363    -6300 
   -6313    -6261    -6168    -6223    -6424    -6489    -6417    -6527 
   -6758    -6770    -6651    -6687    -6751    -6620    -6454    -6443 
   -6458    -6347    -6201    -6142    -6118    -6087    -6166    -6388 
   -6605    -6687    -6670    -6682    -6693    -6577    -6475    -6502 
   -6455    -6319    -6295    -6351    -6394    -6440    -6492    -6567 
   -6585    -6494    -6477    -6554    -6561    -6531    -6558    -6586 
   -6556    -6542    -6583    -6577    -6489    -6401    -6323    -6232 
   -6215    -6346    -6481    -6480    -6439    -6467    -6525    -6512 
   -6442    -6492    -6654    -6669    -6562    -6639    -6787    -6693 
   -6508    -6482    -6435    -6254    -6176    -6262    -6316    -6297 
   -6318    -6427    -6540    -6536    -6504    -6586    -6629    -6507 
