Origin Time       2025/03/28 03:50:00
Lat.              35.403
Long.             140.360
Depth. (km)       54
Mag.              4.4
Station Code      IBRH20
Station Lat.      35.8284
Station Long.     140.7323
Station Height(m) -916.83
Record Time       2025/03/28 03:51:01
Sampling Freq(Hz) 100Hz
Duration Time(s)  120
Dir.              3
Scale Factor      2942(gal)/8224139
Max. Acc. (gal)   0.246
Last Correction   2025/03/28 03:51:02
Memo.             
[...]
 -277155  -277156  -277156  -277152  -277153  -277155  -277153  -277155 
 -277156  -277156  -277155  -277155  -277156  -277156  -277152  -277155 
 -277157  -277157  -277157  -277156  -277157  -277157  -277150  -277150 
 -277156  -277152  -277150  -277157  -277160  -277159  -277157  -277159 
 -277157  -277155  -277153  -277153  -277155  -277156  -277156  -277155 
 -277155  -277156  -277157  -277155  -277155  -277153  -277153  -277155 
 -277155  -277152  -277152  -277157  -277156  -277153  -277156  -277155 
 -277150  -277153  -277159  -277159  -277155  -277153  -277155  -277153 
 -277153  -277157  -277161  -277157  -277155  -277157  -277157  -277155 
 -277153  -277155  -277155  -277155  -277156  -277156  -277157  -277157 
 -277153  -277156  -277159  -277156  -277155  -277155  -277153  -277153 
 -277150  -277150  -277155  -277159  -277157  -277157  -277156  -277155 
 -277155  -277156  -277157  -277156  -277152  -277150  -277149  -277150 
 -277156  -277159  -277153  -277149  -277153  -277153  -277152  -277157 
 -277159  -277152  -277152  -277156  -277155  -277150  -277153  -277156 
 -277155  -277159  -277157  -277152  -277153  -277157  -277156  -277155 
 -277156  -277156  -277152  -277152  -277157  -277159  -277153  -277152 
 -277153  -277155  -277153  -277155  -277157  -277157  -277157  -277156 
 -277153  -277155  -277156  -277155  -277155  -277155  -277155  -277156 
 -277152  -277149  -277156  -277156  -277149  -277152  -277156  -277152 
 -277152  -277153  -277149  -277153  -277156  -277155  -277155  -277152 
 -277153  -277157  -277155  -277155  -277156  -277152  -277152  -277155 
 -277153  -277156  -277156  -277155  -277159  -277157  -277153  -277156 
 -277156  -277155  -277153  -277155  -277160  -277160  -277156  -277155 
 -277156  -277157  -277157  -277156  -277156  -277152  -277148  -277155 
 -277159  -277153  -277155  -277156  -277152  -277156  -277156  -277152 
 -277155  -277159  -277155  -277155  -277157  -277156  -277156  -277159 
 -277155  -277155  -277160  -277159  -277152  -277153  -277155  -277152 
 -277152  -277153  -277156  -277156  -277155  -277156  -277161  -277161 
 -277156  -277156  -277156  -277155  -277153  -277152  -277153  -277159 
 -277160  -277156  -277152  -277155  -277159  -277157  -277156  -277153 
 -277153  -277155  -277152  -277153  -277157  -277157  -277153  -277153 
 -277155  -277159  -277163  -277167  -277175  -277188  -277200  -277211 
 -277222  -277230  -277236  -277233  -277218  -277198  -277183  -277163 
 -277148  -277149  -277152  -277149  -277148  -277160  -277187  -277209 
 -277199  -277148  -277078  -277030  -277020  -277024  -277022  -277017 
 -277033  -277096  -277173  -277210  -277198  -277179  -277183  -277214 
 -277234  -277196  -277105  -277037  -277079  -277184  -277238  -277217 
 -277171  -277145  -277165  -277153  -277034  -276925  -276932  -277051 
 -277246  -277364  -277277  -277163  -277182  -277253  -277329  -277361 
 -277195  -276920  -276798  -276777  -276740  -276824  -277021  -277207 
 -277410  -277599  -277678  -277662  -277549  -277366  -277218  -277075 
 -276898  -276845  -276998  -277175  -277165  -277086  -277203  -277391 
 -277334  -277034  -276694  -276477  -276498  -276736  -277006  -277121 
 -277148  -277361  -277696  -277771  -277531  -277261  -277161  -277190 
 -277145  -277042  -277130  -277338  -277373  -277302  -277335  -277331 
 -277113  -276870  -276778  -276791  -276872  -277006  -277140  -277167 
 -277113  -277169  -277272  -277330  -277483  -277539  -277295  -277130 
 -277248  -277333  -277231  -277061  -276957  -276968  -277003  -277013 
 -276998  -276975  -277087  -277288  -277290  -277110  -277006  -277063 
 -277186  -277184  -277069  -277082  -277217  -277256  -277192  -277175 
 -277173  -277051  -276832  -276721  -276837  -277022  -277186  -277423 
 -277631  -277636  -277457  -277257  -277317  -277611  -277668  -277389 
 -277111  -276909  -276782  -276821  -276944  -277087  -277271  -277395 
 -277333  -277110  -276948  -276987  -277078  -276997  -276766  -276646 
 -276774  -276986  -277160  -277356  -277516  -277487  -277350  -277249 
 -277103  -276956  -276934  -276939  -276956  -277086  -277236  -277338 
 -277388  -277314  -277252  -277321  -277310  -277138  -276997  -276966 
 -277002  -277072  -277198  -277369  -277453  -277447  -277419  -277295 
 -277199  -277277  -277265  -277048  -276867  -276759  -276677  -276828 
 -277234  -277504  -277438  -277271  -277204  -277231  -277284  -277198 
 -276984  -276984  -277152  -277176  -277160  -277233  -277300  -277299 
 -277156  -276967  -276971  -277145  -277304  -277311  -277192  -277187 
 -277261  -277101  -276893  -276976  -277164  -277244  -277326  -277477 
 -277528  -277285  -276890  -276643  -276605  -276729  -276901  -276974 
 -277109  -277392  -277538  -277493  -277447  -277352  -277163  -276998 
 -276910  -276878  -276933  -277152  -277335  -277196  -276976  -276960 
 -276941  -276878  -276953  -277040  -277071  -277165  -277260  -277271 
 -277273  -277325  -277400  -277406  -277319  -277210  -277132  -277175 
 -277339  -277416  -277303  -277161  -277169  -277311  -277453  -277473 
 -277334  -277130  -276941  -276723  -276556  -276705  -277148  -277489 
 -277460  -277145  -276836  -276814  -277034  -277195  -277184  -277119 
 -277086  -277082  -277049  -277028  -277148  -277369  -277479  -277326 
 -277003  -276789  -276831  -277029  -277290  -277523  -277528  -277242 
 -276979  -277037  -277241  -277373  -277516  -277546  -277296  -276995 
 -276883  -276936  -276987  -277002  -277160  -277365  -277248  -276986 
 -277010  -277103  -277055  -277132  -277269  -277199  -277080  -277105 
 -277103  -276966  -276953  -277198  -277346  -277207  -277010  -276925 
 -277052  -277312  -277322  -277115  -277030  -277009  -277047  -277281 
 -277439  -277264  -277003  -277028  -277345  -277520  -277303  -277153 
 -277379  -277537  -277385  -277242  -277253  -277337  -277479  -277519 
 -277229  -276855  -276866  -277138  -277192  -276995  -276853  -276779 
 -276652  -276642  -276879  -277148  -277254  -277315  -277350  -277156 
 -276858  -276840  -277040  -277126  -277082  -277067  -277134  -277226 
 -277292  -277311  -277256  -277129  -277017  -277060  -277265  -277402 
 -277404  -277458  -277476  -277310  -277196  -277206  -277176  -277238 
 -277348  -277190  -276905  -276829  -276980  -277195  -277294  -277207 
 -277088  -277096  -277150  -277105  -277022  -276986  -276937  -276951 
 -277126  -277233  -277159  -277114  -277084  -276967  -276936  -277053 
 -277210  -277338  -277353  -277334  -277398  -277331  -277128  -277080 
 -277114  -277129  -277238  -277254  -277084  -277072  -277254  -277317 
 -277260  -277210  -277132  -277059  -277076  -277180  -277323  -277393 
 -277358  -277329  -277307  -277196  -276990  -276818  -276805  -276878 
 -276925  -276970  -277014  -277022  -277021  -277052  -277088  -277082 
 -277090  -277233  -277442  -277481  -277268  -276994  -276847  -276797 
 -276802  -276902  -276990  -276986  -277087  -277364  -277585  -277665 
 -277674  -277599  -277530  -277522  -277457  -277357  -277284  -277294 
 -277418  -277426  -277211  -276982  -276912  -276986  -276980  -276845 
 -276849  -277001  -277022  -276999  -277115  -277122  -276847  -276620 
 -276702  -276855  -276868  -277015  -277310  -277341  -277276  -277452 
 -277520  -277250  -277009  -276994  -276999  -276982  -277107  -277323 
 -277399  -277257  -277078  -277057  -277129  -277163  -277179  -277172 
 -277083  -277014  -277133  -277376  -277612  -277749  -277574  -277180 
 -276945  -276909  -276978  -277132  -277153  -276984  -276870  -276837 
 -276856  -277036  -277182  -277145  -277172  -277334  -277431  -277387 
 -277311  -277375  -277510  -277453  -277221  -277071  -276998  -276895 
 -276852  -276899  -276956  -277057  -277264  -277433  -277354  -277163 
 -277172  -277300  -277342  -277399  -277500  -277488  -277373  -277218 
 -277028  -276844  -276690  -276640  -276755  -276945  -277167  -277306 
 -277221  -277133  -277207  -277280  -277296  -277214  -276984  -276872 
 -276991  -277018  -276899  -276909  -277030  -277084  -277177  -277365 
 -277458  -277419  -277361  -277337  -277341  -277284  -277155  -277079 
 -277045  -276939  -276868  -276983  -277172  -277231  -277144  -277091 
 -277121  -277111  -277099  -277169  -277284  -277350  -277275  -277132 
 -277128  -277304  -277476  -277470  -277257  -276936  -276704  -276683 
 -276794  -276955  -277203  -277441  -277422  -277213  -277094  -277086 
 -277079  -277106  -277179  -277227  -277253  -277322  -277377  -277350 
 -277322  -277356  -277333  -277204  -277133  -277132  -277021  -276860 
 -276856  -276955  -276970  -276945  -277010  -277146  -277333  -277435 
 -277337  -277264  -277335  -277362  -277295  -277184  -277006  -276849 
 -276849  -276988  -277132  -277230  -277323  -277341  -277196  -276980 
 -276835  -276851  -277024  -277253  -277439  -277515  -277462  -277314 
 -277132  -277017  -277003  -277044  -277099  -277106  -277022  -276991 
 -277105  -277188  -277155  -277155  -277236  -277296  -277246  -277122 
 -277061  -277092  -277160  -277213  -277202  -277190  -277250  -277325 
 -277350  -277330  -277271  -277190  -277103  -277015  -277007  -277068 
 -277002  -276853  -276913  -277103  -277123  -277022  -277037  -277171 
 -277236  -277184  -277148  -277167  -277186  -277229  -277291  -277323 
 -277353  -277311  -277194  -277148  -277110  -277015  -276968  -276968 
 -276979  -277029  -277140  -277311  -277489  -277585  -277514  -277338 
 -277207  -277164  -277207  -277227  -277064  -276840  -276775  -276812 
 -276883  -277021  -277141  -277171  -277150  -277117  -277086  -277113 
 -277271  -277483  -277568  -277484  -277295  -277114  -277041  -277045 
 -277091  -277198  -277244  -277159  -277088  -277110  -277123  -277109 
 -277137  -277164  -277168  -277229  -277253  -277179  -277165  -277187 
 -277086  -276980  -277006  -277044  -277079  -277179  -277229  -277191 
 -277246  -277358  -277319  -277183  -277096  -277021  -276960  -276987 
 -277042  -277092  -277155  -277145  -277057  -277026  -277092  -277118 
 -277037  -276966  -276972  -277021  -277126  -277290  -277411  -277454 
 -277414  -277240  -277042  -276983  -276991  -277021  -277121  -277207 
 -277207  -277203  -277264  -277338  -277372  -277425  -277530  -277564 
 -277466  -277373  -277326  -277254  -277186  -277110  -276972  -276858 
 -276816  -276779  -276801  -276930  -277053  -277102  -277065  -276951 
 -276902  -276980  -277099  -277217  -277298  -277294  -277257  -277194 
 -277065  -276952  -276902  -276828  -276694  -276598  -276640  -276801 
 -276990  -277133  -277222  -277365  -277584  -277666  -277564  -277487 
 -277430  -277276  -277101  -277041  -277132  -277204  -277117  -277045 
 -277102  -277132  -277095  -277067  -277048  -277047  -277092  -277191 
 -277306  -277380  -277427  -277466  -277450  -277334  -277187  -277171 
 -277283  -277323  -277258  -277223  -277230  -277233  -277229  -277252 
 -277317  -277402  -277508  -277565  -277477  -277393  -277427  -277426 
 -277314  -277190  -277092  -276988  -276856  -276725  -276666  -276725 
 -276886  -277051  -277098  -277033  -276987  -277029  -277123  -277204 
 -277244  -277242  -277203  -277165  -277155  -277150  -277173  -277221 
 -277241  -277236  -277172  -277032  -276926  -276883  -276829  -276828 
 -276944  -277067  -277121  -277156  -277207  -277271  -277298  -277265 
 -277268  -277323  -277345  -277368  -277381  -277227  -276932  -276717 
 -276698  -276798  -276890  -276934  -277003  -277134  -277260  -277341 
 -277388  -277375  -277344  -277379  -277427  -277399  -277300  -277156 
 -276988  -276862  -276793  -276762  -276805  -276972  -277199  -277329 
 -277321  -277307  -277381  -277454  -277460  -277423  -277350  -277242 
 -277114  -277002  -276949  -276929  -276899  -276880  -276920  -277040 
 -277214  -277381  -277535  -277680  -277728  -277634  -277492  -277368 
 -277233  -277071  -276890  -276751  -276743  -276867  -277048  -277157 
 -277083  -276862  -276659  -276613  -276724  -276914  -277152  -277379 
 -277439  -277307  -277146  -277071  -277051  -277047  -277051  -277074 
 -277113  -277140  -277182  -277287  -277407  -277461  -277487  -277524 
 -277503  -277418  -277330  -277238  -277182  -277196  -277202  -277148 
 -277098  -277094  -277079  -276995  -276876  -276786  -276754  -276797 
 -276893  -276979  -277047  -277117  -277173  -277215  -277215  -277119 
 -276991  -276953  -276999  -277105  -277230  -277276  -277245  -277175 
 -277080  -277082  -277246  -277485  -277697  -277796  -277746  -277618 
 -277442  -277237  -277091  -277071  -277146  -277230  -277245  -277209 
 -277171  -277140  -277076  -276971  -276844  -276720  -276656  -276686 
 -276751  -276798  -276825  -276833  -276852  -276928  -277032  -277092 
 -277125  -277191  -277325  -277512  -277658  -277704  -277689  -277605 
 -277442  -277271  -277149  -277102  -277172  -277322  -277393  -277329 
 -277221  -277196  -277265  -277281  -277223  -277218  -277209  -277113 
 -277044  -277044  -277026  -276987  -276945  -276901  -276889  -276957 
 -277072  -277148  -277203  -277288  -277353  -277348  -277292  -277211 
 -277094  -276991  -276955  -276948  -276940  -276922  -276886  -276866 
 -276937  -277132  -277372  -277527  -277555  -277507  -277402  -277275 
 -277186  -277111  -277009  -276899  -276836  -276876  -277006  -277144 
 -277234  -277252  -277195  -277105  -277045  -277069  -277161  -277260 
 -277303  -277267  -277175  -277048  -276901  -276785  -276727  -276718 
 -276709  -276689  -276713  -276783  -276880  -277044  -277292  -277516 
 -277620  -277665  -277722  -277781  -277840  -277842  -277705  -277461 
 -277226  -277068  -276975  -276934  -276953  -277005  -277087  -277195 
 -277283  -277346  -277392  -277361  -277236  -277072  -276930  -276843 
 -276812  -276858  -276983  -277080  -277055  -276978  -276966  -277015 
 -277052  -277049  -277057  -277129  -277238  -277329  -277381  -277420 
 -277470  -277469  -277362  -277219  -277106  -277034  -276984  -276924 
 -276862  -276844  -276906  -277075  -277304  -277489  -277573  -277547 
 -277452  -277365  -277311  -277229  -277114  -277060  -277117  -277192 
 -277199  -277156  -277102  -277049  -277056  -277159  -277268  -277341 
 -277383  -277357  -277291  -277223  -277115  -277003  -276930  -276831 
 -276740  -276752  -276817  -276902  -277061  -277234  -277323  -277344 
 -277330  -277290  -277256  -277231  -277175  -277103  -277069  -277065 
 -277044  -277021  -277042  -277080  -277133  -277218  -277250  -277199 
 -277140  -277110  -277130  -277207  -277260  -277227  -277148  -277096 
 -277101  -277106  -277063  -277036  -277109  -277264  -277434  -277561 
 -277592  -277542  -277447  -277288  -277111  -277009  -276975  -276972 
 -276993  -277018  -277044  -277072  -277084  -277092  -277126  -277169 
 -277199  -277242  -277322  -277418  -277468  -277392  -277226  -277095 
 -277020  -276964  -276930  -276913  -276901  -276867  -276783  -276720 
 -276752  -276849  -276966  -277087  -277177  -277217  -277227  -277202 
 -277150  -277141  -277175  -277190  -277192  -277200  -277182  -277155 
 -277188  -277277  -277381  -277496  -277588  -277612  -277561  -277439 
 -277260  -277082  -276982  -276967  -276951  -276906  -276907  -276964 
 -277014  -277045  -277076  -277098  -277109  -277136  -277176  -277198 
 -277213  -277244  -277267  -277273  -277288  -277298  -277241  -277137 
 -277083  -277084  -277105  -277155  -277214  -277260  -277267  -277196 
 -277122  -277152  -277234  -277263  -277248  -277233  -277223  -277238 
 -277298  -277352  -277349  -277275  -277157  -277075  -277047  -277048 
 -277071  -277092  -277099  -277110  -277105  -277074  -277060  -277113 
 -277217  -277331  -277438  -277526  -277585  -277593  -277499  -277295 
 -277044  -276826  -276682  -276613  -276605  -276639  -276675  -276671 
 -276629  -276604  -276628  -276679  -276751  -276863  -276991  -277106 
 -277200  -277258  -277296  -277334  -277358  -277380  -277400  -277419 
 -277442  -277430  -277362  -277298  -277276  -277283  -277317  -277384 
 -277447  -277479  -277480  -277464  -277453  -277464  -277449  -277362 
 -277257  -277209  -277192  -277149  -277080  -277030  -277011  -276997 
 -276956  -276893  -276879  -276983  -277129  -277194  -277171  -277133 
 -277098  -277030  -276949  -276902  -276895  -276913  -276937  -276978 
 -277069  -277183  -277269  -277341  -277407  -277412  -277339  -277264 
 -277225  -277188  -277132  -277067  -277005  -276955  -276940  -276966 
 -276995  -277018  -277074  -277183  -277295  -277360  -277383  -277389 
 -277362  -277273  -277161  -277075  -276997  -276932  -276918  -276937 
 -276947  -276964  -277017  -277082  -277133  -277173  -277199  -277229 
 -277306  -277415  -277526  -277642  -277728  -277722  -277627  -277504 
 -277392  -277300  -277219  -277140  -277049  -276953  -276886  -276875 
 -276917  -277014  -277141  -277222  -277237  -277209  -277149  -277082 
 -277036  -277006  -277006  -277047  -277094  -277125  -277169  -277223 
 -277245  -277222  -277196  -277186  -277179  -277169  -277138  -277087 
 -277038  -276995  -276959  -276947  -276949  -276948  -276943  -276952 
 -277005  -277109  -277250  -277385  -277500  -277614  -277703  -277728 
 -277685  -277554  -277364  -277199  -277060  -276925  -276833  -276802 
 -276802  -276821  -276843  -276841  -276840  -276867  -276925  -277006 
 -277095  -277176  -277223  -277209  -277146  -277088  -277079  -277129 
 -277214  -277306  -277373  -277389  -277376  -277364  -277358  -277368 
 -277393  -277402  -277387  -277369  -277326  -277248  -277169  -277130 
 -277145  -277175  -277161  -277117  -277061  -276995  -276956  -276979 
 -277041  -277096  -277140  -277175  -277199  -277211  -277203  -277183 
 -277150  -277105  -277064  -277044  -277033  -277036  -277045  -277044 
 -277036  -277021  -277010  -277024  -277042  -277036  -277025  -277026 
 -277020  -277009  -277030  -277080  -277133  -277183  -277226  -277244 
 -277252  -277281  -277318  -277307  -277263  -277230  -277211  -277206 
 -277215  -277225  -277233  -277248  -277261  -277249  -277198  -277126 
 -277075  -277040  -276976  -276893  -276835  -276821  -276849  -276912 
 -276993  -277061  -277115  -277183  -277254  -277295  -277322  -277329 
 -277279  -277195  -277114  -277040  -276994  -277021  -277136  -277290 
 -277416  -277487  -277510  -277501  -277473  -277429  -277380  -277338 
 -277317  -277310  -277285  -277234  -277175  -277111  -277047  -276997 
 -276968  -276970  -276990  -277001  -276990  -276960  -276937  -276945 
 -276971  -277014  -277065  -277096  -277110  -277121  -277126  -277122 
 -277101  -277086  -277121  -277191  -277249  -277290  -277304  -277295 
 -277298  -277310  -277306  -277308  -277312  -277298  -277267  -277240 
 -277238  -277257  -277269  -277268  -277258  -277244  -277229  -277225 
 -277231  -277229  -277195  -277132  -277064  -277015  -276972  -276932 
 -276925  -276957  -277009  -277061  -277087  -277088  -277113  -277171 
 -277206  -277210  -277217  -277218  -277188  -277142  -277107  -277091 
 -277078  -277049  -277022  -277006  -276999  -277006  -277005  -276983 
 -276980  -277001  -277041  -277119  -277210  -277284  -277353  -277407 
 -277437  -277449  -277423  -277371  -277338  -277338  -277356  -277393 
 -277422  -277412  -277354  -277254  -277142  -277026  -276913  -276845 
 -276831  -276843  -276874  -276909  -276939  -276967  -276994  -277024 
 -277055  -277076  -277102  -277134  -277164  -277187  -277200  -277210 
