Origin Time       2025/03/28 03:50:00
Lat.              35.403
Long.             140.360
Depth. (km)       54
Mag.              4.4
Station Code      KNGH20
Station Lat.      35.3663
Station Long.     139.1260
Station Height(m) 465
Record Time       2025/03/28 03:51:10
Sampling Freq(Hz) 100Hz
Duration Time(s)  120
Dir.              4
Scale Factor      7845(gal)/8223790
Max. Acc. (gal)   1.436
Last Correction   2025/03/28 03:51:10
Memo.             
[...]
   -2523    -2521    -2512    -2515    -2524    -2524    -2521    -2517 
   -2506    -2505    -2515    -2519    -2516    -2520    -2527    -2520 
   -2508    -2512    -2517    -2515    -2516    -2513    -2506    -2511 
   -2516    -2525    -2536    -2525    -2516    -2519    -2512    -2501 
   -2505    -2511    -2516    -2524    -2520    -2516    -2524    -2525 
   -2517    -2515    -2517    -2520    -2515    -2511    -2519    -2515 
   -2511    -2519    -2515    -2509    -2527    -2533    -2524    -2521 
   -2511    -2497    -2504    -2520    -2524    -2520    -2521    -2519 
   -2504    -2504    -2519    -2524    -2528    -2527    -2512    -2506 
   -2511    -2509    -2520    -2531    -2527    -2515    -2501    -2502 
   -2516    -2519    -2521    -2531    -2524    -2517    -2523    -2523 
   -2523    -2525    -2532    -2543    -2539    -2531    -2527    -2520 
   -2519    -2517    -2506    -2508    -2512    -2498    -2490    -2488 
   -2473    -2467    -2490    -2509    -2513    -2511    -2485    -2461 
   -2474    -2502    -2524    -2556    -2587    -2581    -2533    -2488 
   -2461    -2443    -2461    -2513    -2548    -2538    -2494    -2457 
   -2469    -2550    -2659    -2736    -2724    -2631    -2532    -2508 
   -2558    -2608    -2597    -2505    -2343    -2215    -2215    -2334 
   -2493    -2583    -2548    -2450    -2381    -2401    -2508    -2641 
   -2736    -2722    -2589    -2430    -2371    -2431    -2506    -2521 
   -2485    -2463    -2511    -2624    -2749    -2763    -2592    -2366 
   -2281    -2393    -2605    -2771    -2817    -2733    -2587    -2517 
   -2590    -2693    -2644    -2425    -2211    -2139    -2235    -2417 
   -2544    -2529    -2400    -2268    -2296    -2516    -2772    -2914 
   -2857    -2635    -2431    -2382    -2447    -2486    -2403    -2249 
   -2158    -2251    -2548    -2884    -3036    -2894    -2571    -2343 
   -2359    -2548    -2727    -2689    -2425    -2147    -2058    -2214 
   -2508    -2729    -2717    -2508    -2285    -2254    -2473    -2772 
   -2970    -2983    -2781    -2474    -2307    -2378    -2560    -2694 
   -2693    -2520    -2290    -2235    -2403    -2616    -2674    -2533 
   -2335    -2243    -2277    -2378    -2470    -2479    -2463    -2542 
   -2712    -2849    -2825    -2624    -2374    -2223    -2250    -2419 
   -2581    -2613    -2511    -2362    -2303    -2405    -2617    -2801 
   -2825    -2673    -2478    -2408    -2536    -2779    -2921    -2828 
   -2586    -2355    -2215    -2204    -2327    -2461    -2452    -2326 
   -2263    -2382    -2598    -2791    -2884    -2795    -2563    -2398 
   -2419    -2538    -2633    -2658    -2606    -2500    -2400    -2401 
   -2506    -2593    -2560    -2442    -2367    -2461    -2660    -2745 
   -2613    -2363    -2115    -2010    -2181    -2517    -2743    -2717 
   -2527    -2374    -2381    -2509    -2662    -2755    -2728    -2594 
   -2462    -2413    -2438    -2494    -2558    -2597    -2609    -2621 
   -2644    -2671    -2662    -2608    -2567    -2546    -2489    -2404 
   -2331    -2316    -2409    -2543    -2556    -2465    -2404    -2390 
   -2394    -2452    -2566    -2668    -2704    -2686    -2655    -2567 
   -2394    -2236    -2196    -2249    -2316    -2392    -2497    -2628 
   -2774    -2895    -2918    -2833    -2714    -2620    -2551    -2478 
   -2413    -2378    -2374    -2378    -2371    -2346    -2286    -2239 
   -2326    -2562    -2802    -2928    -2882    -2687    -2477    -2380 
   -2415    -2490    -2498    -2408    -2276    -2191    -2243    -2435 
   -2675    -2847    -2859    -2740    -2583    -2462    -2430    -2488 
   -2551    -2547    -2458    -2362    -2346    -2388    -2444    -2493 
   -2509    -2535    -2620    -2725    -2767    -2704    -2575    -2475 
   -2407    -2342    -2342    -2436    -2543    -2575    -2571    -2619 
   -2691    -2708    -2668    -2604    -2474    -2261    -2103    -2172 
   -2413    -2640    -2744    -2708    -2567    -2438    -2431    -2538 
   -2628    -2609    -2513    -2423    -2396    -2471    -2627    -2729 
   -2678    -2521    -2367    -2293    -2347    -2508    -2660    -2708 
   -2667    -2590    -2527    -2505    -2501    -2488    -2458    -2404 
   -2349    -2326    -2359    -2457    -2566    -2628    -2641    -2633 
   -2600    -2546    -2502    -2486    -2478    -2465    -2467    -2477 
   -2470    -2467    -2509    -2567    -2597    -2602    -2600    -2577 
   -2560    -2585    -2623    -2601    -2474    -2307    -2216    -2220 
   -2273    -2376    -2525    -2675    -2785    -2841    -2837    -2779 
   -2667    -2515    -2363    -2270    -2243    -2278    -2389    -2519 
   -2575    -2585    -2593    -2590    -2593    -2636    -2682    -2639 
   -2517    -2448    -2490    -2567    -2586    -2531    -2443    -2323 
   -2178    -2137    -2277    -2497    -2695    -2825    -2859    -2797 
   -2677    -2570    -2515    -2451    -2342    -2249    -2204    -2184 
   -2216    -2323    -2465    -2605    -2732    -2789    -2764    -2718 
   -2695    -2722    -2789    -2783    -2655    -2496    -2362    -2281 
   -2292    -2378    -2470    -2533    -2566    -2554    -2525    -2511 
   -2494    -2486    -2504    -2506    -2470    -2423    -2401    -2435 
   -2540    -2673    -2767    -2787    -2712    -2569    -2436    -2343 
   -2290    -2285    -2301    -2336    -2419    -2525    -2605    -2623 
   -2586    -2532    -2505    -2516    -2532    -2512    -2496    -2560 
   -2678    -2743    -2718    -2636    -2506    -2359    -2274    -2280 
   -2328    -2388    -2470    -2593    -2717    -2776    -2741    -2640 
   -2542    -2498    -2490    -2477    -2431    -2369    -2340    -2376 
   -2448    -2524    -2578    -2608    -2620    -2624    -2660    -2721 
   -2729    -2666    -2565    -2436    -2304    -2224    -2222    -2281 
   -2401    -2559    -2656    -2654    -2602    -2552    -2528    -2536 
   -2542    -2506    -2448    -2396    -2366    -2359    -2366    -2386 
   -2404    -2415    -2465    -2577    -2701    -2789    -2843    -2860 
   -2820    -2732    -2633    -2524    -2393    -2282    -2268    -2351 
   -2454    -2506    -2506    -2455    -2388    -2377    -2465    -2620 
   -2745    -2767    -2701    -2586    -2477    -2430    -2436    -2462 
   -2475    -2450    -2421    -2447    -2502    -2527    -2515    -2519 
   -2543    -2544    -2540    -2560    -2569    -2554    -2546    -2555 
   -2559    -2535    -2462    -2380    -2358    -2407    -2479    -2536 
   -2539    -2470    -2396    -2428    -2567    -2718    -2810    -2798 
   -2685    -2528    -2388    -2304    -2313    -2394    -2465    -2478 
   -2455    -2434    -2435    -2479    -2560    -2633    -2666    -2646 
   -2614    -2632    -2686    -2720    -2686    -2560    -2382    -2226 
   -2123    -2116    -2246    -2450    -2610    -2668    -2663    -2646 
   -2625    -2609    -2604    -2600    -2585    -2550    -2500    -2462 
   -2459    -2501    -2574    -2633    -2625    -2538    -2417    -2327 
   -2307    -2369    -2477    -2538    -2516    -2461    -2421    -2413 
   -2436    -2498    -2577    -2627    -2636    -2614    -2597    -2620 
   -2651    -2648    -2628    -2586    -2506    -2452    -2473    -2531 
   -2573    -2567    -2521    -2463    -2419    -2408    -2439    -2486 
   -2498    -2447    -2377    -2357    -2408    -2498    -2556    -2533 
   -2467    -2435    -2478    -2578    -2670    -2701    -2646    -2538 
   -2447    -2413    -2447    -2559    -2694    -2758    -2733    -2677 
   -2651    -2667    -2693    -2705    -2668    -2543    -2358    -2174 
   -2060    -2069    -2182    -2339    -2506    -2662    -2770    -2802 
   -2776    -2697    -2543    -2361    -2235    -2219    -2300    -2385 
   -2443    -2535    -2673    -2806    -2867    -2821    -2691    -2519 
   -2376    -2346    -2408    -2488    -2524    -2488    -2400    -2312 
   -2285    -2335    -2393    -2415    -2404    -2374    -2370    -2421 
   -2532    -2674    -2754    -2714    -2616    -2525    -2512    -2627 
   -2783    -2855    -2798    -2650    -2497    -2394    -2332    -2303 
   -2285    -2277    -2315    -2403    -2511    -2617    -2694    -2743 
   -2782    -2795    -2752    -2624    -2415    -2214    -2172    -2316 
   -2521    -2662    -2670    -2544    -2384    -2334    -2452    -2675 
   -2878    -2949    -2856    -2659    -2471    -2397    -2425    -2470 
   -2466    -2363    -2201    -2122    -2214    -2443    -2671    -2751 
   -2650    -2446    -2288    -2293    -2457    -2648    -2724    -2660 
   -2547    -2479    -2494    -2542    -2552    -2525    -2481    -2442 
   -2444    -2479    -2505    -2523    -2548    -2587    -2612    -2596 
   -2548    -2494    -2477    -2516    -2554    -2529    -2467    -2416 
   -2386    -2382    -2409    -2473    -2566    -2671    -2789    -2905 
   -2955    -2887    -2716    -2488    -2251    -2100    -2111    -2215 
   -2308    -2350    -2336    -2309    -2324    -2407    -2583    -2786 
   -2855    -2724    -2492    -2339    -2347    -2473    -2637    -2732 
   -2673    -2539    -2513    -2675    -2899    -2994    -2897    -2678 
   -2439    -2282    -2255    -2311    -2346    -2316    -2305    -2388 
   -2511    -2594    -2617    -2560    -2425    -2307    -2309    -2397 
   -2434    -2401    -2392    -2450    -2554    -2674    -2759    -2756 
   -2656    -2527    -2490    -2540    -2594    -2644    -2693    -2706 
   -2685    -2656    -2654    -2663    -2628    -2519    -2365    -2230 
   -2170    -2199    -2295    -2382    -2384    -2343    -2347    -2407 
   -2490    -2575    -2651    -2694    -2689    -2677    -2682    -2679 
   -2664    -2627    -2539    -2411    -2322    -2322    -2390    -2500 
   -2617    -2678    -2663    -2617    -2579    -2567    -2570    -2555 
   -2506    -2424    -2336    -2293    -2300    -2344    -2419    -2471 
   -2466    -2459    -2502    -2558    -2560    -2520    -2512    -2555 
   -2617    -2675    -2702    -2690    -2662    -2648    -2662    -2685 
   -2640    -2505    -2384    -2373    -2431    -2488    -2538    -2543 
   -2443    -2313    -2273    -2323    -2393    -2434    -2432    -2403 
   -2420    -2529    -2650    -2705    -2689    -2627    -2571    -2560 
   -2592    -2621    -2589    -2525    -2502    -2506    -2521    -2542 
   -2525    -2504    -2546    -2610    -2629    -2587    -2493    -2394 
   -2355    -2385    -2443    -2484    -2484    -2444    -2417    -2473 
   -2594    -2721    -2794    -2743    -2582    -2417    -2316    -2297 
   -2350    -2407    -2419    -2400    -2401    -2443    -2521    -2628 
   -2713    -2713    -2624    -2512    -2443    -2434    -2466    -2511 
   -2527    -2524    -2531    -2528    -2523    -2538    -2544    -2551 
   -2589    -2628    -2643    -2658    -2655    -2605    -2538    -2484 
   -2425    -2361    -2320    -2330    -2400    -2523    -2612    -2605 
   -2575    -2581    -2612    -2667    -2732    -2756    -2716    -2617 
   -2486    -2362    -2277    -2227    -2209    -2249    -2354    -2494 
   -2608    -2678    -2710    -2689    -2612    -2509    -2397    -2289 
   -2249    -2338    -2494    -2609    -2651    -2633    -2586    -2548 
   -2524    -2501    -2470    -2442    -2455    -2509    -2552    -2552 
   -2523    -2493    -2457    -2431    -2455    -2482    -2477    -2492 
   -2544    -2629    -2721    -2736    -2658    -2571    -2550    -2592 
   -2640    -2623    -2498    -2323    -2218    -2216    -2259    -2330 
   -2420    -2501    -2575    -2668    -2755    -2774    -2701    -2569 
   -2440    -2370    -2373    -2411    -2461    -2504    -2481    -2400 
   -2358    -2396    -2481    -2578    -2667    -2728    -2763    -2806 
   -2841    -2825    -2762    -2666    -2542    -2423    -2366    -2367 
   -2365    -2328    -2269    -2208    -2199    -2257    -2343    -2459 
   -2601    -2697    -2704    -2662    -2620    -2597    -2565    -2506 
   -2455    -2421    -2404    -2425    -2497    -2597    -2655    -2658 
   -2683    -2693    -2605    -2511    -2482    -2475    -2493    -2509 
   -2463    -2408    -2397    -2407    -2447    -2532    -2583    -2532 
   -2443    -2421    -2506    -2681    -2839    -2857    -2747    -2597 
   -2442    -2270    -2080    -1906    -1798    -1794    -1931    -2208 
   -2540    -2836    -3041    -3154    -3202    -3195    -3144    -3032 
   -2847    -2660    -2536    -2474    -2477    -2521    -2533    -2463 
   -2330    -2209    -2157    -2189    -2289    -2443    -2654    -2897 
   -3106    -3237    -3234    -3003    -2560    -2077    -1719    -1543 
   -1536    -1660    -1885    -2189    -2523    -2790    -2917    -2916 
   -2836    -2747    -2691    -2646    -2612    -2612    -2624    -2655 
   -2733    -2764    -2619    -2311    -1969    -1690    -1560    -1672 
   -2014    -2471    -2924    -3254    -3389    -3356    -3187    -2890 
   -2546    -2277    -2173    -2261    -2524    -2878    -3144    -3194 
   -3083    -2917    -2759    -2608    -2421    -2205    -1984    -1810 
   -1750    -1807    -1929    -2031    -2050    -2035    -2057    -2126 
   -2268    -2492    -2725    -2922    -3071    -3127    -3049    -2841 
   -2597    -2436    -2397    -2461    -2600    -2783    -2955    -3044 
   -3025    -2943    -2818    -2650    -2467    -2320    -2219    -2143 
   -2108    -2149    -2236    -2349    -2497    -2662    -2806    -2905 
   -2936    -2886    -2774    -2640    -2498    -2330    -2130    -1965 
   -1939    -2054    -2187    -2274    -2366    -2488    -2663    -2921 
   -3183    -3327    -3289    -3091    -2835    -2613    -2465    -2384 
   -2309    -2119    -1744    -1290    -1012    -1081    -1485    -2095 
   -2720    -3188    -3442    -3542    -3584    -3564    -3404    -3129 
   -2851    -2639    -2451    -2245    -2054    -1904    -1795    -1819 
   -2020    -2280    -2512    -2725    -2934    -3121    -3245    -3280 
   -3214    -3025    -2724    -2377    -2079    -1877    -1756    -1725 
   -1850    -2134    -2479    -2764    -2894    -2845    -2659    -2400 
   -2157    -2014    -1989    -2069    -2277    -2594    -2879    -3024 
   -3048    -2988    -2855    -2690    -2528    -2397    -2315    -2277 
   -2296    -2358    -2401    -2421    -2465    -2550    -2690    -2886 
   -3065    -3149    -3138    -3080    -2980    -2825    -2635    -2474 
   -2407    -2392    -2307    -2100    -1795    -1482    -1310    -1371 
   -1629    -1942    -2176    -2342    -2524    -2759    -3067    -3411 
   -3636    -3634    -3414    -3034    -2597    -2231    -2062    -2111 
   -2268    -2420    -2498    -2481    -2442    -2466    -2543    -2619 
   -2670    -2686    -2648    -2581    -2552    -2616    -2724    -2743 
   -2605    -2371    -2126    -1952    -1937    -2108    -2396    -2677 
   -2860    -2948    -2971    -2924    -2826    -2740    -2670    -2597 
   -2527    -2446    -2354    -2282    -2268    -2303    -2344    -2367 
   -2409    -2504    -2614    -2631    -2486    -2254    -2066    -2039 
   -2216    -2490    -2689    -2716    -2616    -2508    -2454    -2451 
   -2478    -2477    -2431    -2427    -2571    -2898    -3284    -3535 
   -3555    -3341    -2944    -2473    -2056    -1792    -1718    -1784 
   -1911    -2034    -2128    -2208    -2282    -2331    -2380    -2497 
   -2712    -2953    -3129    -3164    -3032    -2816    -2666    -2648 
   -2694    -2667    -2496    -2235    -2011    -1937    -2043    -2261 
   -2469    -2551    -2490    -2378    -2327    -2389    -2527    -2624 
   -2643    -2644    -2683    -2767    -2878    -2956    -2941    -2803 
   -2583    -2401    -2332    -2380    -2488    -2578    -2619    -2614 
   -2555    -2471    -2436    -2450    -2461    -2427    -2358    -2289 
   -2216    -2147    -2122    -2134    -2142    -2170    -2296    -2509 
   -2702    -2812    -2843    -2812    -2725    -2604    -2532    -2552 
   -2601    -2608    -2562    -2513    -2544    -2658    -2794    -2897 
   -2914    -2841    -2766    -2737    -2729    -2710    -2656    -2521 
   -2284    -2003    -1786    -1692    -1717    -1827    -1989    -2205 
   -2484    -2799    -3091    -3268    -3280    -3156    -2975    -2810 
   -2679    -2582    -2527    -2490    -2447    -2428    -2415    -2342 
   -2207    -2072    -2006    -2039    -2123    -2203    -2292    -2411 
   -2548    -2673    -2743    -2739    -2660    -2543    -2465    -2490 
   -2652    -2897    -3105    -3198    -3180    -3071    -2878    -2654 
   -2473    -2315    -2114    -1895    -1738    -1722    -1860    -2087 
   -2328    -2527    -2637    -2701    -2770    -2853    -2938    -3010 
   -3055    -3045    -2941    -2774    -2596    -2400    -2193    -2047 
   -1989    -1998    -2066    -2173    -2300    -2443    -2596    -2736 
   -2828    -2835    -2767    -2646    -2500    -2397    -2411    -2543 
   -2709    -2805    -2786    -2664    -2482    -2274    -2097    -1988 
   -1945    -1979    -2110    -2323    -2617    -2955    -3211    -3306 
   -3246    -3069    -2835    -2597    -2416    -2311    -2238    -2207 
   -2247    -2299    -2328    -2393    -2509    -2636    -2733    -2763 
   -2698    -2531    -2311    -2142    -2073    -2047    -2035    -2070 
   -2146    -2245    -2423    -2709    -3026    -3269    -3362    -3279 
   -3040    -2731    -2479    -2332    -2242    -2173    -2118    -2103 
   -2164    -2274    -2416    -2570    -2670    -2668    -2586    -2481 
   -2421    -2440    -2520    -2633    -2763    -2891    -2979    -3006 
   -2980    -2880    -2679    -2413    -2162    -1985    -1907    -1939 
   -2069    -2247    -2467    -2714    -2925    -3049    -3051    -2911 
   -2685    -2450    -2258    -2165    -2200    -2322    -2463    -2596 
   -2689    -2701    -2625    -2505    -2398    -2322    -2266    -2257 
   -2331    -2466    -2621    -2756    -2813    -2767    -2641    -2467 
   -2295    -2174    -2112    -2097    -2162    -2330    -2544    -2749 
   -2902    -2937    -2820    -2623    -2443    -2342    -2344    -2447 
   -2581    -2690    -2799    -2926    -3013    -2999    -2890    -2724 
   -2535    -2358    -2245    -2203    -2196    -2205    -2232    -2242 
   -2185    -2096    -2045    -2054    -2124    -2228    -2317    -2390 
   -2455    -2504    -2555    -2633    -2754    -2911    -3061    -3144 
   -3159    -3123    -3045    -2910    -2698    -2459    -2307    -2281 
   -2336    -2446    -2573    -2660    -2706    -2724    -2674    -2529 
   -2304    -2070    -1941    -1977    -2145    -2362    -2567    -2713 
   -2745    -2660    -2554    -2479    -2415    -2354    -2297    -2261 
   -2277    -2380    -2562    -2739    -2776    -2679    -2582    -2570 
   -2627    -2691    -2693    -2613    -2511    -2465    -2502    -2585 
   -2656    -2681    -2647    -2546    -2393    -2269    -2253    -2311 
   -2363    -2389    -2397    -2416    -2492    -2633    -2813    -2983 
   -3096    -3110    -3002    -2809    -2578    -2342    -2150    -2035 
   -2002    -2049    -2153    -2258    -2315    -2320    -2315    -2362 
   -2494    -2652    -2725    -2662    -2506    -2343    -2276    -2378 
   -2621    -2889    -3038    -3014    -2887    -2762    -2701    -2708 
   -2740    -2709    -2539    -2270    -2022    -1860    -1817    -1922 
   -2135    -2370    -2574    -2736    -2859    -2911    -2890    -2857 
   -2841    -2818    -2779    -2724    -2651    -2570    -2481    -2371 
   -2242    -2114    -2025    -2002    -2069    -2241    -2494    -2745 
   -2880    -2856    -2700    -2451    -2212    -2103    -2149    -2317 
