Origin Time       2025/03/28 03:50:00
Lat.              35.403
Long.             140.360
Depth. (km)       54
Mag.              4.4
Station Code      KNGH20
Station Lat.      35.3663
Station Long.     139.1260
Station Height(m) 465
Record Time       2025/03/28 03:51:10
Sampling Freq(Hz) 100Hz
Duration Time(s)  120
Dir.              6
Scale Factor      7845(gal)/8223790
Max. Acc. (gal)   1.162
Last Correction   2025/03/28 03:51:10
Memo.             
[...]
   18338    18338    18353    18369    18358    18334    18330    18342 
   18353    18351    18346    18346    18349    18345    18349    18357 
   18351    18341    18347    18351    18341    18341    18347    18346 
   18346    18354    18358    18347    18334    18345    18365    18365 
   18350    18345    18346    18335    18323    18342    18366    18364 
   18354    18353    18347    18339    18341    18346    18343    18345 
   18354    18353    18343    18339    18351    18368    18355    18330 
   18335    18353    18350    18345    18346    18350    18354    18354 
   18347    18345    18346    18345    18350    18358    18355    18345 
   18345    18349    18343    18341    18351    18355    18346    18343 
   18350    18349    18349    18355    18354    18345    18345    18345 
   18341    18343    18350    18355    18360    18358    18349    18345 
   18339    18331    18342    18360    18355    18343    18342    18347 
   18355    18357    18350    18346    18345    18341    18339    18342 
   18347    18354    18354    18350    18353    18350    18345    18342 
   18342    18349    18354    18345    18338    18342    18347    18355 
   18360    18349    18342    18355    18361    18349    18334    18333 
   18343    18347    18343    18346    18353    18365    18366    18351 
   18342    18339    18338    18339    18343    18360    18368    18354 
   18345    18346    18350    18368    18388    18395    18389    18381 
   18376    18380    18393    18416    18449    18472    18461    18404 
   18327    18273    18256    18268    18308    18349    18353    18295 
   18188    18096    18065    18107    18211    18337    18411    18396 
   18331    18274    18257    18326    18496    18686    18779    18693 
   18436    18145    17990    18044    18241    18434    18492    18397 
   18269    18249    18357    18501    18549    18432    18218    18038 
   18029    18257    18589    18789    18720    18424    18114    18026 
   18214    18523    18736    18720    18478    18148    17926    17952 
   18193    18454    18527    18360    18149    18166    18420    18666 
   18684    18443    18115    17937    18009    18249    18497    18623 
   18604    18507    18439    18445    18442    18314    18076    17910 
   18017    18414    18827    18913    18594    18060    17659    17716 
   18210    18794    19111    18966    18509    18156    18099    18192 
   18226    18092    17922    18000    18370    18786    19001    18871 
   18396    17820    17574    17864    18455    18928    18983    18573 
   17996    17783    18157    18740    19032    18841    18288    17717 
   17508    17820    18461    18982    19013    18544    17938    17632 
   17793    18291    18793    18983    18816    18484    18199    18084 
   18144    18300    18441    18495    18445    18322    18241    18258 
   18268    18229    18234    18334    18458    18472    18380    18314 
   18299    18322    18422    18524    18472    18258    18126    18279 
   18559    18693    18612    18364    18030    17803    17883    18253 
   18648    18816    18715    18384    17936    17695    17917    18427 
   18843    18918    18628    18229    18080    18277    18570    18635 
   18404    18081    17874    17938    18315    18721    18868    18740 
   18432    18126    18063    18234    18380    18343    18195    18121 
   18279    18609    18841    18756    18389    17988    17790    17882 
   18208    18586    18744    18593    18365    18284    18292    18268 
   18199    18157    18233    18423    18611    18671    18534    18249 
   17996    17930    18095    18426    18755    18910    18841    18598 
   18254    17898    17670    17701    18030    18544    18972    19051 
   18752    18287    17930    17878    18137    18527    18782    18713 
   18376    18029    17887    17975    18192    18427    18578    18557 
   18396    18274    18314    18439    18512    18495    18453    18405 
   18304    18142    17996    18030    18365    18841    19083    18867 
   18307    17744    17508    17712    18203    18704    18979    18901 
   18512    18069    17863    18048    18484    18782    18713    18396 
   18094    18004    18122    18258    18326    18370    18415    18445 
   18445    18411    18349    18261    18189    18189    18268    18407 
   18550    18613    18553    18400    18281    18281    18346    18395 
   18409    18393    18337    18219    18106    18123    18276    18449 
   18547    18526    18382    18243    18276    18450    18563    18504 
   18308    18099    18058    18257    18530    18630    18489    18257 
   18115    18157    18374    18581    18526    18207    17909    17894 
   18216    18709    19043    18955    18470    17906    17682    17949 
   18451    18813    18801    18453    18064    17932    18122    18465 
   18705    18667    18366    18027    17886    17995    18269    18577 
   18785    18814    18679    18480    18287    18114    18046    18142 
   18277    18335    18334    18307    18279    18299    18365    18411 
   18395    18323    18231    18211    18350    18569    18675    18590 
   18395    18219    18154    18191    18238    18265    18351    18504 
   18581    18517    18418    18350    18268    18145    18037    18056 
   18235    18431    18490    18442    18411    18451    18546    18620 
   18547    18287    18018    17961    18102    18311    18550    18720 
   18655    18411    18203    18141    18215    18355    18453    18449 
   18370    18272    18200    18184    18245    18370    18504    18573 
   18512    18311    18108    18068    18181    18366    18576    18713 
   18643    18369    18076    17965    18104    18384    18597    18577 
   18331    18072    18029    18230    18520    18711    18679    18458 
   18230    18179    18326    18524    18603    18496    18258    18014 
   17907    18019    18295    18569    18711    18674    18484    18233 
   18048    18040    18200    18364    18400    18343    18301    18361 
   18526    18688    18712    18581    18385    18220    18141    18156 
   18229    18291    18293    18268    18261    18303    18431    18588 
   18608    18423    18154    17992    18054    18331    18694    18909 
   18783    18366    17923    17724    17857    18180    18463    18590 
   18565    18442    18330    18338    18466    18586    18555    18347 
   18118    18075    18254    18513    18666    18600    18358    18094 
   17922    17913    18104    18409    18652    18700    18558    18366 
   18265    18283    18333    18339    18324    18347    18432    18561 
   18666    18647    18446    18126    17852    17786    17971    18307 
   18594    18661    18520    18346    18229    18139    18104    18184 
   18314    18389    18428    18515    18644    18702    18597    18370 
   18177    18171    18326    18447    18408    18247    18092    18098 
   18293    18520    18630    18593    18442    18234    18071    18065 
   18227    18416    18499    18477    18411    18334    18288    18319 
   18422    18540    18580    18488    18307    18142    18098    18215 
   18438    18627    18643    18468    18215    18034    18044    18258 
   18539    18677    18563    18300    18079    18003    18080    18257 
   18450    18557    18500    18324    18192    18215    18372    18547 
   18604    18476    18214    17988    17968    18161    18446    18692 
   18770    18640    18408    18225    18171    18233    18326    18384 
   18387    18338    18285    18274    18322    18408    18488    18497 
   18387    18187    18056    18112    18303    18499    18607    18576 
   18405    18188    18085    18177    18391    18590    18661    18555 
   18347    18175    18133    18193    18270    18304    18266    18199 
   18208    18334    18508    18603    18515    18265    18004    17942 
   18145    18442    18642    18669    18507    18265    18149    18229 
   18415    18598    18685    18584    18295    17964    17833    18004 
   18345    18638    18733    18624    18445    18334    18328    18397 
   18484    18507    18388    18166    18027    18122    18423    18717 
   18785    18603    18318    18095    18038    18161    18373    18516 
   18482    18301    18102    18048    18207    18457    18619    18607 
   18463    18345    18343    18404    18453    18449    18365    18222 
   18076    18011    18090    18316    18593    18758    18733    18511 
   18126    17775    17674    17857    18212    18588    18829    18801 
   18513    18198    18075    18160    18373    18596    18644    18445 
   18145    17965    18017    18253    18507    18608    18528    18360 
   18208    18156    18261    18495    18715    18755    18590    18361 
   18215    18196    18273    18387    18492    18528    18409    18154 
   17933    17923    18160    18495    18702    18627    18303    17944 
   17809    18027    18477    18873    18962    18662    18162    17815 
   17849    18242    18739    18982    18790    18322    17911    17803 
   18048    18473    18804    18828    18526    18117    17906    18046 
   18461    18846    18887    18584    18199    17996    18091    18357 
   18540    18520    18341    18138    18080    18200    18369    18462 
   18415    18238    18057    18003    18112    18339    18543    18581 
   18455    18287    18199    18280    18511    18740    18786    18577 
   18243    17998    17941    18050    18245    18416    18517    18551 
   18495    18377    18322    18381    18465    18434    18265    18098 
   18069    18199    18400    18539    18543    18450    18338    18284 
   18366    18553    18636    18484    18179    17891    17810    18060 
   18512    18817    18732    18349    17992    17940    18258    18748 
   19025    18859    18409    18067    18044    18238    18457    18531 
   18384    18137    18019    18144    18415    18604    18528    18261 
   18053    18046    18196    18407    18570    18598    18520    18430 
   18354    18269    18227    18276    18376    18455    18446    18341 
   18195    18060    18011    18134    18422    18746    18908    18756 
   18364    17972    17797    17910    18215    18527    18677    18609 
   18409    18223    18171    18284    18462    18561    18495    18324 
   18238    18311    18445    18535    18522    18396    18250    18161 
   18148    18210    18322    18422    18449    18400    18326    18295 
   18349    18439    18463    18393    18269    18134    18081    18172 
   18342    18486    18542    18503    18409    18322    18279    18306 
   18399    18493    18495    18385    18243    18168    18184    18261 
   18346    18396    18396    18346    18262    18203    18239    18385 
   18550    18592    18476    18301    18171    18166    18315    18511 
   18596    18526    18358    18183    18099    18148    18258    18370 
   18468    18504    18457    18387    18353    18350    18374    18428 
   18446    18378    18281    18207    18181    18242    18353    18407 
   18373    18334    18339    18347    18360    18427    18470    18388 
   18237    18145    18214    18422    18571    18519    18331    18175 
   18184    18365    18573    18644    18523    18274    18048    17980 
   18131    18442    18744    18846    18659    18299    17980    17860 
   17996    18289    18531    18593    18490    18297    18103    17994 
   18052    18296    18590    18743    18706    18597    18478    18311 
   18138    18083    18141    18199    18256    18369    18503    18589 
   18593    18481    18270    18075    18018    18142    18382    18604 
   18684    18608    18461    18331    18254    18239    18261    18274 
   18276    18276    18265    18297    18432    18613    18700    18594 
   18323    18003    17791    17838    18141    18495    18713    18739 
   18574    18301    18081    18031    18133    18295    18439    18496 
   18419    18299    18288    18378    18459    18486    18451    18370 
   18326    18372    18473    18549    18562    18505    18358    18169 
   18084    18181    18401    18570    18528    18314    18133    18121 
   18207    18257    18256    18246    18238    18247    18306    18404 
   18497    18496    18364    18193    18126    18230    18459    18665 
   18712    18594    18419    18304    18301    18366    18397    18360 
   18301    18285    18316    18355    18345    18270    18180    18129 
   18134    18188    18291    18409    18470    18422    18320    18272 
   18341    18472    18536    18501    18415    18299    18203    18199 
   18277    18365    18399    18353    18243    18168    18245    18450 
   18646    18727    18651    18447    18199    17999    17941    18087 
   18414    18762    18882    18686    18372    18181    18196    18318 
   18389    18342    18247    18192    18225    18377    18577    18647 
   18535    18346    18183    18091    18087    18123    18131    18103 
   18111    18235    18480    18756    18963    19017    18873    18557 
   18176    17861    17714    17805    18118    18512    18805    18858 
   18643    18311    18075    18033    18166    18353    18424    18291 
   18046    17915    18030    18299    18561    18678    18566    18307 
   18126    18162    18361    18565    18650    18594    18478    18401 
   18431    18540    18598    18492    18222    17910    17705    17694 
   17898    18284    18720    18986    18947    18667    18300    17996 
   17922    18144    18496    18715    18669    18411    18106    17959 
   18080    18350    18519    18405    18036    17670    17595    17905 
   18470    18999    19187    18913    18339    17856    17771    18076 
   18617    19213    19566    19449    18940    18353    17977    17917 
   18084    18280    18339    18216    17946    17691    17648    17837 
   18131    18382    18473    18450    18478    18634    18877    19078 
   19024    18642    18149    17874    17959    18270    18535    18516 
   18153    17639    17298    17373    17896    18677    19346    19526 
   19072    18245    17571    17487    18054    18870    19336    19167 
   18578    17996    17733    17860    18273    18790    19170    19153 
   18694    18031    17477    17223    17336    17760    18338    18848 
   19086    18985    18661    18291    18033    17956    18040    18254 
   18574    18924    19147    19093    18779    18376    17994    17679 
   17512    17582    17909    18345    18611    18546    18256    18006 
   17994    18222    18553    18769    18723    18477    18223    18127 
   18252    18532    18810    18898    18729    18426    18135    17938 
   17878    17936    18068    18241    18436    18671    18908    18995 
   18832    18486    18118    17844    17755    17952    18432    18962 
   19211    19044    18577    18029    17617    17482    17594    17832 
   18117    18377    18512    18504    18461    18536    18752    18902 
   18814    18611    18481    18454    18459    18430    18327    18152 
   17936    17787    17775    17868    18058    18337    18559    18557 
   18350    18158    18177    18434    18794    19048    19060    18863 
   18611    18405    18243    18161    18223    18347    18353    18172 
   17919    17803    17921    18162    18368    18463    18470    18441 
   18384    18327    18347    18447    18524    18472    18334    18307 
   18445    18567    18490    18195    17842    17707    17913    18320 
   18708    18935    18913    18650    18307    18096    18138    18387 
   18638    18700    18553    18264    17937    17739    17824    18156 
   18495    18625    18546    18395    18280    18225    18196    18181 
   18223    18334    18441    18495    18538    18632    18766    18804 
   18615    18254    17949    17899    18099    18382    18586    18612 
   18449    18180    17965    17983    18253    18585    18716    18503 
   18048    17631    17498    17734    18260    18843    19205    19176 
   18854    18509    18337    18319    18330    18268    18146    18091 
   18188    18423    18678    18759    18538    18119    17784    17766 
   18096    18631    19064    19063    18593    18002    17659    17685 
   18007    18465    18828    18912    18728    18446    18250    18219 
   18261    18231    18098    17982    18017    18215    18499    18754 
   18866    18800    18621    18418    18241    18119    18072    18068 
   18087    18169    18323    18454    18478    18414    18297    18156 
   18065    18135    18387    18711    18937    18943    18719    18368 
   18019    17805    17829    18090    18434    18654    18638    18454 
   18291    18289    18423    18522    18450    18256    18052    17914 
   17913    18052    18222    18324    18346    18326    18292    18274 
   18314    18411    18527    18604    18615    18577    18540    18550 
   18585    18538    18335    18063    17915    17980    18164    18354 
   18516    18627    18658    18609    18503    18399    18378    18405 
   18362    18246    18189    18273    18427    18544    18573    18489 
   18310    18107    17950    17888    17992    18258    18551    18727 
   18732    18582    18355    18183    18130    18157    18184    18176 
   18171    18214    18311    18449    18578    18631    18563    18376 
   18154    18036    18068    18176    18281    18354    18391    18446 
   18566    18666    18617    18436    18262    18148    18083    18122 
   18338    18675    18944    18964    18736    18423    18179    18069 
   18084    18181    18311    18382    18330    18192    18071    18060 
   18191    18368    18441    18353    18203    18123    18166    18339 
   18609    18848    18908    18708    18331    17998    17879    18004 
   18293    18588    18725    18612    18270    17867    17609    17648 
   18019    18534    18873    18910    18762    18551    18382    18355 
   18438    18493    18428    18269    18162    18268    18581    18887 
   18913    18566    18027    17608    17510    17757    18204    18608 
   18773    18678    18470    18343    18411    18578    18638    18495 
   18246    18076    18095    18268    18466    18550    18450    18231 
   18046    18004    18108    18279    18403    18418    18326    18203 
   18153    18211    18343    18500    18620    18702    18743    18679 
   18513    18324    18168    18033    17906    17861    17980    18203 
   18432    18603    18658    18605    18496    18376    18296    18277 
   18283    18284    18274    18262    18292    18384    18507    18623 
   18706    18731    18639    18404    18127    17946    17918    18030 
   18247    18546    18846    18974    18800    18397    17979    17720 
   17706    17913    18210    18463    18594    18576    18484    18446 
   18526    18632    18609    18408    18118    17860    17747    17840 
   18099    18426    18708    18812    18681    18404    18173    18135 
   18277    18469    18593    18607    18542    18447    18346    18266 
   18243    18279    18316    18319    18314    18320    18308    18238 
   18134    18065    18069    18166    18364    18604    18777    18786 
   18616    18342    18087    17957    17996    18181    18463    18738 
   18882    18856    18674    18388    18123    18014    18077    18198 
   18250    18200    18131    18193    18419    18673    18777    18646 
   18361    18103    18004    18083    18252    18393    18442    18384 
   18265    18192    18261    18443    18601    18650    18605    18501 
   18355    18193    18041    17946    17983    18183    18482    18701 
   18689    18465    18184    18010    18053    18304    18621    18823 
