Origin Time       2025/03/28 03:50:00
Lat.              35.403
Long.             140.360
Depth. (km)       54
Mag.              4.4
Station Code      KNGH21
Station Lat.      35.4628
Station Long.     139.2146
Station Height(m) 245
Record Time       2025/03/28 03:51:10
Sampling Freq(Hz) 100Hz
Duration Time(s)  120
Dir.              2
Scale Factor      2942(gal)/8224139
Max. Acc. (gal)   0.144
Last Correction   2025/03/28 03:51:10
Memo.             
   93312    93313    93314    93310    93309    93314    93313    93309 
   93310    93312    93312    93312    93310    93312    93313    93312 
   93312    93314    93317    93312    93307    93310    93312    93309 
   93312    93313    93310    93309    93312    93313    93310    93313 
   93316    93312    93310    93312    93310    93309    93310    93312 
   93310    93309    93310    93312    93312    93313    93313    93314 
   93314    93312    93310    93310    93310    93309    93309    93310 
   93313    93313    93310    93309    93310    93310    93310    93312 
   93312    93312    93313    93312    93312    93312    93312    93310 
   93310    93312    93313    93313    93312    93312    93312    93312 
   93313    93312    93310    93310    93312    93312    93310    93312 
   93313    93312    93312    93310    93312    93314    93310    93309 
   93313    93313    93309    93312    93316    93310    93309    93312 
   93310    93309    93312    93312    93310    93312    93312    93310 
   93312    93312    93309    93309    93312    93313    93312    93312 
   93312    93310    93310    93313    93310    93309    93309    93305 
   93305    93307    93305    93303    93302    93299    93301    93306 
   93309    93310    93307    93305    93307    93310    93310    93310 
   93313    93314    93309    93302    93298    93297    93298    93306 
   93314    93316    93316    93314    93312    93309    93313    93324 
   93336    93344    93348    93348    93340    93333    93328    93316 
   93299    93283    93264    93251    93247    93251    93272    93295 
   93297    93293    93310    93339    93345    93339    93348    93366 
   93364    93344    93330    93321    93299    93279    93274    93278 
   93286    93293    93290    93290    93305    93330    93364    93386 
   93363    93332    93344    93351    93316    93297    93313    93312 
   93290    93276    93280    93285    93280    93294    93326    93340 
   93328    93325    93344    93352    93343    93347    93347    93316 
   93303    93332    93330    93286    93278    93295    93290    93310 
   93337    93291    93247    93297    93344    93332    93317    93293 
   93262    93270    93282    93266    93252    93274    93329    93352 
   93320    93295    93290    93303    93343    93357    93351    93363 
   93378    93383    93376    93339    93299    93268    93236    93240 
   93278    93282    93272    93298    93309    93291    93293    93287 
   93276    93314    93361    93363    93333    93301    93293    93298 
   93278    93287    93336    93336    93320    93355    93367    93326 
   93305    93333    93384    93397    93360    93336    93324    93303 
   93303    93305    93298    93314    93324    93316    93310    93302 
   93307    93309    93293    93312    93347    93326    93271    93251 
   93268    93258    93201    93178    93233    93320    93379    93380 
   93352    93370    93406    93391    93382    93394    93372    93321 
   93280    93260    93241    93205    93185    93217    93283    93322 
   93302    93294    93334    93357    93349    93371    93376    93301 
   93231    93239    93263    93263    93279    93307    93293    93268 
   93282    93301    93326    93376    93425    93455    93451    93399 
   93337    93293    93275    93272    93268    93278    93287    93270 
   93271    93290    93267    93260    93312    93340    93321    93305 
   93299    93305    93307    93280    93270    93313    93343    93324 
   93291    93270    93271    93302    93325    93336    93375    93413 
   93380    93337    93349    93355    93309    93280    93322    93345 
   93275    93222    93266    93320    93345    93363    93361    93349 
   93359    93361    93333    93328    93345    93329    93299    93280 
   93247    93221    93233    93266    93310    93344    93351    93343 
   93324    93314    93322    93326    93322    93321    93322    93305 
   93262    93247    93271    93278    93290    93347    93397    93418 
   93407    93336    93259    93253    93289    93283    93253    93259 
   93258    93228    93247    93301    93318    93320    93334    93349 
   93366    93355    93312    93291    93312    93329    93314    93291 
   93309    93343    93361    93379    93370    93337    93301    93275 
   93301    93336    93345    93372    93384    93322    93237    93193 
   93183    93214    93275    93301    93302    93320    93321    93307 
   93309    93309    93330    93378    93372    93328    93307    93299 
   93303    93330    93368    93368    93318    93285    93285    93271 
   93272    93333    93378    93367    93356    93339    93293    93262 
   93267    93283    93298    93313    93325    93318    93307    93306 
   93312    93337    93361    93340    93314    93307    93298    93297 
   93302    93306    93314    93318    93313    93302    93322    93368 
   93375    93333    93294    93274    93263    93266    93280    93290 
   93291    93294    93298    93314    93333    93326    93326    93356 
   93370    93347    93334    93360    93379    93353    93328    93310 
   93271    93237    93220    93218    93241    93248    93262    93293 
   93267    93251    93318    93383    93414    93436    93409    93333 
   93275    93259    93251    93221    93209    93256    93290    93264 
   93289    93355    93355    93320    93320    93343    93360    93366 
   93364    93363    93344    93306    93278    93272    93278    93285 
   93295    93313    93322    93329    93356    93387    93383    93357 
   93347    93332    93310    93301    93270    93239    93243    93244 
   93231    93243    93280    93320    93341    93347    93366    93380 
   93370    93361    93357    93334    93317    93321    93316    93309 
   93321    93330    93333    93328    93298    93283    93299    93298 
   93301    93324    93333    93333    93329    93316    93303    93309 
   93313    93309    93312    93307    93294    93282    93262    93266 
   93307    93325    93313    93317    93332    93322    93291    93279 
   93312    93336    93314    93287    93282    93291    93309    93330 
   93337    93334    93334    93306    93271    93290    93324    93317 
   93293    93268    93248    93259    93297    93334    93349    93325 
   93313    93352    93374    93353    93334    93310    93274    93255 
   93251    93256    93280    93309    93320    93303    93303    93332 
   93333    93305    93295    93294    93285    93285    93305    93330 
   93341    93339    93310    93262    93239    93253    93272    93295 
   93336    93375    93398    93395    93372    93360    93349    93341 
   93349    93344    93324    93312    93299    93293    93309    93317 
   93294    93267    93272    93293    93302    93317    93329    93321 
   93318    93330    93339    93326    93313    93322    93337    93325 
   93289    93279    93312    93312    93263    93231    93245    93289 
   93330    93372    93413    93421    93393    93353    93312    93282 
   93278    93290    93310    93322    93328    93336    93329    93310 
   93314    93305    93268    93262    93262    93243    93268    93325 
   93347    93336    93325    93324    93333    93351    93344    93307 
   93287    93274    93253    93272    93312    93307    93293    93312 
   93305    93267    93255    93253    93256    93283    93291    93266 
   93260    93291    93324    93337    93334    93329    93340    93344 
   93326    93332    93345    93328    93325    93337    93330    93321 
   93313    93310    93309    93294    93291    93314    93336    93341 
   93345    93368    93393    93386    93357    93334    93316    93286 
   93239    93208    93221    93249    93279    93303    93305    93305 
   93301    93278    93279    93318    93359    93374    93352    93316 
   93303    93316    93332    93332    93330    93339    93344    93334 
   93317    93283    93252    93255    93283    93312    93341    93380 
   93414    93430    93430    93405    93356    93314    93299    93305 
   93306    93290    93282    93280    93272    93260    93235    93237 
   93286    93317    93320    93336    93344    93316    93280    93270 
   93260    93251    93274    93302    93297    93285    93283    93286 
   93290    93290    93298    93314    93318    93309    93317    93356 
   93379    93353    93317    93293    93285    93306    93329    93317 
   93299    93286    93256    93270    93356    93394    93363    93372 
   93399    93376    93357    93359    93343    93312    93279    93262 
   93259    93255    93266    93299    93317    93320    93333    93356 
   93371    93366    93341    93302    93270    93290    93326    93313 
   93293    93307    93316    93303    93316    93359    93374    93340 
   93317    93312    93276    93262    93294    93298    93283    93314 
   93340    93312    93286    93303    93321    93328    93359    93397 
   93394    93374    93378    93390    93375    93339    93302    93260 
   93220    93214    93241    93251    93241    93256    93290    93320 
   93337    93336    93321    93318    93317    93272    93201    93186 
   93222    93248    93275    93313    93320    93298    93286    93287 
   93297    93316    93321    93314    93328    93348    93337    93314 
   93326    93363    93370    93334    93302    93303    93314    93326 
   93332    93312    93283    93271    93271    93282    93307    93341 
   93372    93388    93382    93352    93317    93297    93283    93266 
   93264    93295    93312    93279    93248    93259    93282    93295 
   93321    93351    93359    93359    93366    93384    93409    93405 
   93356    93299    93278    93297    93330    93337    93303    93271 
   93264    93278    93313    93359    93386    93380    93363    93352 
   93309    93253    93278    93351    93382    93374    93356    93318 
   93253    93212    93221    93241    93262    93303    93340    93334 
   93309    93301    93293    93270    93276    93309    93301    93264 
   93262    93263    93237    93243    93275    93299    93333    93352 
   93325    93306    93324    93345    93349    93328    93298    93299 
   93307    93302    93314    93341    93344    93341    93345    93337 
   93329    93344    93352    93336    93309    93283    93282    93301 
   93299    93282    93295    93334    93356    93348    93325    93313 
   93316    93320    93324    93328    93312    93289    93279    93280 
   93278    93275    93294    93309    93317    93347    93370    93360 
   93340    93333    93351    93356    93317    93278    93270    93251 
   93228    93236    93253    93260    93286    93326    93370    93405 
   93403    93382    93370    93341    93312    93320    93343    93349 
   93340    93325    93321    93329    93302    93241    93208    93217 
   93249    93286    93320    93347    93357    93371    93394    93410 
   93407    93374    93337    93347    93343    93291    93264    93247 
   93194    93162    93175    93191    93218    93272    93318    93343 
   93355    93353    93356    93361    93349    93344    93355    93349 
   93344    93351    93340    93320    93306    93271    93236    93243 
   93262    93263    93251    93237    93259    93307    93351    93368 
   93371    93383    93387    93359    93343    93349    93332    93310 
   93305    93279    93243    93241    93259    93272    93301    93329 
   93307    93271    93295    93355    93386    93382    93343    93297 
   93290    93301    93287    93274    93282    93303    93330    93341 
   93334    93328    93328    93322    93318    93316    93316    93332 
   93359    93374    93374    93345    93324    93343    93345    93316 
   93286    93272    93286    93295    93291    93291    93268    93226 
   93217    93228    93233    93270    93334    93356    93337    93345 
   93361    93351    93330    93314    93334    93371    93357    93306 
   93263    93243    93256    93272    93280    93316    93352    93353 
   93363    93372    93341    93307    93305    93320    93324    93286 
   93263    93291    93299    93267    93249    93245    93225    93206 
   93231    93290    93341    93378    93397    93395    93384    93380 
   93407    93447    93447    93409    93348    93280    93220    93163 
   93116    93091    93082    93089    93143    93251    93360    93452 
   93523    93546    93523    93486    93467    93492    93542    93563 
   93526    93449    93363    93276    93205    93177    93160    93159 
   93195    93212    93179    93139    93117    93143    93240    93368 
   93453    93487    93501    93515    93553    93598    93602    93556 
   93465    93332    93202    93127    93105    93102    93113    93145 
   93174    93181    93171    93147    93148    93220    93318    93395 
   93460    93496    93487    93442    93353    93241    93147    93067 
   93027    93085    93201    93270    93286    93302    93341    93383 
   93432    93507    93573    93575    93514    93459    93490    93580 
   93613    93533    93363    93163    93000    92908    92921    93019 
   93101    93155    93271    93406    93437    93366    93294    93272 
   93298    93349    93417    93488    93533    93536    93509    93474 
   93418    93307    93155    93036    93029    93123    93259    93375 
   93382    93267    93133    93094    93167    93251    93259    93260 
   93326    93403    93428    93406    93341    93245    93186    93177 
   93158    93124    93150    93233    93294    93316    93351    93421 
   93495    93518    93456    93348    93274    93245    93247    93295 
   93351    93351    93341    93368    93379    93352    93349    93403 
   93451    93415    93325    93249    93216    93226    93291    93372 
   93409    93395    93366    93334    93309    93302    93312    93325 
   93351    93402    93447    93445    93455    93491    93460    93351 
   93270    93259    93290    93318    93313    93266    93182    93101 
   93104    93170    93193    93179    93195    93222    93256    93294 
   93298    93262    93201    93163    93212    93326    93459    93590 
   93668    93665    93603    93511    93420    93332    93251    93186 
   93137    93123    93147    93168    93194    93244    93293    93351 
   93426    93449    93380    93290    93225    93172    93162    93205 
   93239    93233    93213    93210    93241    93263    93263    93248 
   93222    93260    93387    93517    93598    93594    93486    93363 
   93305    93316    93386    93436    93403    93334    93287    93275 
   93299    93325    93334    93324    93278    93228    93218    93247 
   93270    93262    93262    93289    93301    93301    93314    93298 
   93232    93167    93155    93204    93294    93395    93469    93486 
   93449    93397    93367    93376    93402    93421    93424    93403 
   93399    93440    93465    93428    93347    93259    93187    93172 
   93222    93279    93306    93325    93332    93329    93336    93334 
   93313    93268    93206    93152    93116    93096    93120    93208 
   93328    93415    93421    93383    93356    93307    93226    93209 
   93274    93317    93313    93340    93391    93401    93352    93270 
   93175    93091    93047    93056    93121    93237    93378    93468 
   93474    93460    93491    93534    93553    93550    93557    93577 
   93550    93464    93371    93279    93174    93090    93059    93073 
   93096    93114    93141    93201    93298    93359    93328    93267 
   93248    93264    93286    93297    93307    93321    93298    93266 
   93278    93307    93337    93391    93448    93475    93465    93429 
   93386    93352    93336    93332    93336    93375    93429    93422 
   93370    93316    93240    93190    93236    93303    93289    93228 
   93209    93236    93271    93306    93325    93290    93218    93212 
   93303    93376    93382    93374    93372    93344    93289    93253 
   93267    93294    93299    93290    93307    93376    93444    93449 
   93395    93297    93204    93172    93190    93216    93241    93276 
   93310    93343    93386    93411    93394    93382    93380    93325 
   93233    93179    93167    93175    93217    93274    93302    93321 
   93364    93406    93401    93360    93345    93371    93378    93351 
   93330    93329    93318    93313    93345    93374    93374    93380 
   93380    93368    93344    93258    93170    93168    93183    93174 
   93178    93181    93177    93210    93290    93340    93333    93347 
   93372    93355    93326    93328    93355    93375    93375    93399 
   93457    93483    93455    93418    93390    93347    93299    93262 
   93217    93179    93201    93268    93309    93303    93302    93314 
   93303    93251    93181    93139    93164    93256    93344    93386 
   93398    93403    93410    93401    93361    93336    93349    93393 
   93441    93433    93337    93232    93185    93181    93174    93148 
   93127    93152    93232    93320    93370    93383    93393    93397 
   93384    93348    93320    93301    93256    93225    93267    93326 
   93328    93286    93275    93313    93344    93341    93333    93333 
   93368    93453    93517    93514    93484    93453    93406    93347 
   93302    93279    93271    93287    93306    93305    93299    93297 
   93279    93251    93247    93282    93322    93333    93355    93395 
   93394    93360    93345    93334    93283    93193    93117    93114 
   93177    93259    93322    93344    93336    93326    93320    93302 
   93252    93208    93210    93216    93214    93263    93332    93340 
   93307    93282    93264    93263    93283    93309    93336    93351 
   93334    93289    93255    93283    93351    93374    93361    93349 
   93314    93266    93253    93286    93326    93347    93360    93380 
   93364    93302    93256    93229    93186    93183    93258    93340 
   93388    93410    93395    93390    93436    93495    93513    93459 
   93344    93243    93208    93209    93198    93187    93220    93282 
   93334    93360    93345    93314    93312    93317    93306    93297 
   93290    93283    93307    93355    93370    93329    93263    93216 
   93199    93187    93181    93201    93237    93278    93328    93371 
   93395    93403    93410    93433    93456    93475    93491    93496 
   93487    93448    93355    93256    93226    93243    93233    93208 
   93202    93228    93283    93328    93344    93347    93334    93328 
   93344    93366    93395    93418    93403    93356    93295    93237 
   93237    93307    93357    93336    93275    93218    93190    93186 
   93206    93258    93309    93332    93347    93372    93379    93355 
   93310    93263    93252    93283    93293    93285    93322    93353 
   93314    93270    93267    93297    93344    93356    93306    93266 
   93294    93359    93394    93390    93382    93357    93320    93322 
   93349    93341    93303    93270    93232    93155    93081    93079 
   93124    93168    93217    93263    93279    93270    93271    93333 
   93442    93509    93498    93467    93460    93475    93496    93496 
   93422    93291    93182    93152    93175    93202    93253    93322 
   93351    93357    93375    93379    93376    93379    93378    93347 
   93267    93199    93210    93267    93317    93324    93278    93237 
   93249    93283    93301    93316    93329    93317    93278    93243 
   93237    93255    93266    93262    93249    93232    93218    93228 
