Origin Time       2025/03/28 03:50:00
Lat.              35.403
Long.             140.360
Depth. (km)       54
Mag.              4.4
Station Code      KNGH11
Station Lat.      35.4040
Station Long.     139.3539
Station Height(m) 12
Record Time       2025/03/28 03:51:06
Sampling Freq(Hz) 100Hz
Duration Time(s)  120
Dir.              5
Scale Factor      3920(gal)/6170801
Max. Acc. (gal)   1.062
Last Correction   2025/03/28 03:50:51
Memo.             
[...]
   -4026    -4010    -3997    -3968    -3973    -4000    -3999    -3976 
   -3944    -3934    -3975    -4009    -4017    -4043    -4042    -4029 
   -4089    -4170    -4182    -4129    -4072    -4058    -4066    -4065 
   -4113    -4240    -4326    -4337    -4347    -4307    -4214    -4179 
   -4208    -4266    -4328    -4321    -4268    -4237    -4182    -4124 
   -4155    -4203    -4156    -4070    -4033    -4032    -4007    -3944 
   -3906    -3916    -3930    -3936    -3971    -4028    -4065    -4056 
   -4006    -3976    -4014    -4048    -4001    -3943    -3957    -3999 
   -4008    -4011    -4069    -4191    -4269    -4229    -4169    -4161 
   -4149    -4112    -4071    -4055    -4116    -4204    -4205    -4130 
   -4078    -4082    -4104    -4123    -4149    -4179    -4178    -4157 
   -4186    -4250    -4262    -4224    -4179    -4168    -4204    -4215 
   -4173    -4135    -4132    -4169    -4186    -4113    -4036    -4016 
   -3985    -3945    -3929    -3941    -3995    -4069    -4088    -4029 
   -3982    -4033    -4129    -4198    -4216    -4188    -4179    -4208 
   -4206    -4169    -4126    -4095    -4094    -4086    -4076    -4087 
   -4026    -3918    -3894    -3926    -3962    -3992    -3987    -4016 
   -4104    -4123    -4085    -4087    -4108    -4140    -4164    -4160 
   -4182    -4189    -4124    -4098    -4157    -4185    -4145    -4086 
   -4041    -4062    -4138    -4218    -4282    -4267    -4185    -4159 
   -4178    -4202    -4258    -4253    -4174    -4147    -4135    -4101 
   -4108    -4111    -4079    -4059    -4018    -3981    -3993    -3979 
   -3938    -3947    -3991    -4025    -4013    -3953    -3948    -4019 
   -4053    -4063    -4103    -4121    -4118    -4129    -4152    -4200 
   -4205    -4154    -4156    -4219    -4256    -4226    -4145    -4092 
   -4109    -4122    -4093    -4078    -4085    -4095    -4129    -4176 
   -4195    -4175    -4108    -4024    -4011    -4074    -4138    -4146 
   -4078    -3983    -3957    -4020    -4103    -4142    -4155    -4206 
   -4254    -4241    -4214    -4212    -4217    -4199    -4144    -4092 
   -4059    -4048    -4078    -4100    -4076    -4021    -3954    -3939 
   -4000    -4064    -4071    -4020    -3965    -3958    -3965    -3964 
   -4000    -4061    -4096    -4101    -4085    -4114    -4206    -4225 
   -4148    -4096    -4085    -4136    -4245    -4283    -4220    -4144 
   -4142    -4213    -4218    -4155    -4135    -4128    -4099    -4069 
   -4046    -4054    -4074    -4085    -4101    -4097    -4078    -4103 
   -4153    -4144    -4087    -4057    -4073    -4098    -4077    -4043 
   -4086    -4148    -4129    -4070    -4037    -4077    -4160    -4196 
   -4172    -4126    -4110    -4153    -4207    -4233    -4212    -4142 
   -4122    -4189    -4260    -4287    -4284    -4293    -4315    -4275 
   -4187    -4140    -4138    -4133    -4076    -3964    -3905    -3926 
   -3910    -3832    -3766    -3760    -3823    -3887    -3879    -3857 
   -3887    -3943    -3995    -4001    -3976    -4002    -4069    -4123 
   -4159    -4181    -4210    -4253    -4260    -4225    -4173    -4134 
   -4156    -4207    -4238    -4243    -4214    -4183    -4175    -4170 
   -4174    -4173    -4136    -4095    -4056    -4037    -4071    -4104 
   -4090    -4022    -3968    -4064    -4201    -4172    -4035    -3918 
   -3872    -3912    -3967    -4012    -4065    -4091    -4120    -4158 
   -4154    -4166    -4198    -4179    -4144    -4125    -4127    -4162 
   -4182    -4167    -4165    -4169    -4170    -4189    -4194    -4193 
   -4203    -4183    -4129    -4054    -3958    -3934    -4031    -4136 
   -4167    -4165    -4173    -4168    -4156    -4206    -4265    -4263 
   -4253    -4226    -4205    -4244    -4264    -4261    -4255    -4195 
   -4158    -4161    -4142    -4169    -4196    -4138    -4088    -4065 
   -4071    -4142    -4176    -4116    -4049    -3999    -3956    -3937 
   -3915    -3872    -3828    -3794    -3816    -3899    -3973    -4010 
   -4002    -3965    -3972    -4001    -3998    -4022    -4096    -4156 
   -4183    -4200    -4229    -4242    -4210    -4176    -4155    -4151 
   -4161    -4129    -4080    -4077    -4066    -4021    -4001    -3995 
   -3996    -4043    -4088    -4104    -4109    -4070    -4042    -4080 
   -4102    -4082    -4085    -4111    -4129    -4160    -4204    -4225 
   -4216    -4184    -4167    -4212    -4260    -4210    -4100    -4045 
   -4074    -4123    -4137    -4106    -4049    -3991    -3957    -3945 
   -3970    -4057    -4127    -4098    -4046    -4042    -4067    -4105 
   -4135    -4120    -4080    -4084    -4159    -4250    -4275    -4202 
   -4108    -4099    -4159    -4204    -4226    -4234    -4211    -4182 
   -4198    -4230    -4203    -4135    -4104    -4156    -4249    -4269 
   -4209    -4130    -4036    -3968    -3958    -3950    -3918    -3882 
   -3870    -3909    -3947    -3924    -3892    -3886    -3907    -4006 
   -4126    -4130    -4060    -4030    -4059    -4154    -4242    -4222 
   -4167    -4162    -4194    -4222    -4206    -4173    -4164    -4177 
   -4238    -4339    -4414    -4416    -4346    -4264    -4223    -4223 
   -4217    -4165    -4119    -4095    -4045    -4040    -4146    -4249 
   -4233    -4119    -3991    -3949    -4007    -4051    -4006    -3939 
   -3951    -4025    -4061    -4019    -3950    -3906    -3919    -4008 
   -4120    -4190    -4187    -4112    -4028    -3977    -3946    -3946 
   -3973    -3995    -4024    -4066    -4109    -4171    -4207    -4109 
   -3936    -3850    -3886    -4016    -4174    -4241    -4210    -4153 
   -4089    -4067    -4114    -4131    -4104    -4144    -4245    -4326 
   -4329    -4278    -4278    -4304    -4251    -4196    -4227    -4260 
   -4250    -4231    -4171    -4082    -3997    -3901    -3871    -3946 
   -4021    -4058    -4073    -4039    -3989    -3967    -3938    -3907 
   -3925    -3965    -3980    -3995    -4037    -4124    -4238    -4287 
   -4256    -4228    -4243    -4314    -4432    -4527    -4550    -4480 
   -4322    -4200    -4181    -4125    -4013    -3955    -3907    -3853 
   -3867    -3884    -3846    -3811    -3791    -3803    -3871    -3925 
   -3953    -4017    -4075    -4080    -4058    -4043    -4093    -4178 
   -4174    -4099    -4052    -4037    -4071    -4158    -4202    -4191 
   -4199    -4211    -4211    -4238    -4276    -4287    -4303    -4351 
   -4382    -4347    -4260    -4199    -4226    -4303    -4356    -4377 
   -4341    -4215    -4067    -4028    -4109    -4158    -4092    -4001 
   -3991    -4036    -4024    -3962    -3940    -3954    -3982    -4001 
   -3979    -3990    -4061    -4073    -3997    -3905    -3819    -3750 
   -3725    -3731    -3742    -3764    -3799    -3837    -3868    -3877 
   -3897    -3956    -4006    -4023    -4068    -4156    -4232    -4281 
   -4334    -4376    -4400    -4428    -4425    -4401    -4427    -4476 
   -4487    -4482    -4457    -4404    -4390    -4421    -4413    -4345 
   -4268    -4206    -4151    -4097    -4046    -4021    -3990    -3889 
   -3786    -3773    -3784    -3779    -3794    -3800    -3799    -3842 
   -3909    -3949    -3978    -4010    -4019    -4029    -4047    -4061 
   -4100    -4137    -4148    -4181    -4220    -4202    -4165    -4189 
   -4250    -4276    -4264    -4260    -4288    -4290    -4189    -4045 
   -3986    -4024    -4073    -4088    -4079    -4076    -4089    -4094 
   -4093    -4130    -4165    -4122    -4056    -4067    -4123    -4146 
   -4143    -4162    -4209    -4253    -4277    -4286    -4288    -4265 
   -4204    -4123    -4050    -4016    -4037    -4087    -4121    -4097 
   -4040    -3994    -3975    -3995    -4036    -4055    -4061    -4065 
   -4050    -4028    -4018    -4027    -4073    -4142    -4168    -4160 
   -4180    -4213    -4243    -4300    -4370    -4392    -4360    -4367 
   -4450    -4532    -4542    -4486    -4421    -4399    -4404    -4389 
   -4333    -4264    -4206    -4147    -4081    -4015    -3988    -4034 
   -4093    -4101    -4090    -4091    -4060    -3979    -3904    -3865 
   -3824    -3751    -3661    -3599    -3611    -3672    -3687    -3648 
   -3612    -3581    -3562    -3588    -3632    -3650    -3662    -3667 
   -3644    -3649    -3730    -3826    -3870    -3857    -3809    -3778 
   -3782    -3736    -3599    -3442    -3356    -3344    -3347    -3363 
   -3420    -3513    -3619    -3712    -3815    -3965    -4123    -4232 
   -4353    -4545    -4702    -4759    -4830    -4962    -5069    -5128 
   -5179    -5215    -5257    -5334    -5400    -5444    -5489    -5481 
   -5416    -5371    -5347    -5323    -5305    -5261    -5139    -4976 
   -4864    -4761    -4577    -4382    -4260    -4177    -4098    -4011 
   -3887    -3694    -3472    -3286    -3152    -3065    -2972    -2842 
   -2772    -2808    -2858    -2861    -2847    -2880    -2956    -3015 
   -3088    -3221    -3389    -3544    -3653    -3766    -3957    -4179 
   -4354    -4501    -4658    -4816    -4950    -5046    -5100    -5109 
   -5091    -5053    -4986    -4921    -4849    -4714    -4518    -4301 
   -4098    -3887    -3613    -3331    -3154    -3079    -3072    -3106 
   -3151    -3256    -3434    -3608    -3774    -3954    -4115    -4238 
   -4343    -4439    -4516    -4576    -4600    -4581    -4549    -4509 
   -4465    -4425    -4369    -4328    -4309    -4243    -4156    -4113 
   -4047    -3943    -3881    -3841    -3788    -3743    -3725    -3742 
   -3776    -3842    -3953    -4047    -4094    -4156    -4263    -4371 
   -4417    -4392    -4338    -4285    -4263    -4299    -4391    -4474 
   -4490    -4485    -4514    -4539    -4511    -4429    -4347    -4310 
   -4269    -4192    -4125    -4068    -3985    -3860    -3668    -3437 
   -3277    -3210    -3148    -3053    -2964    -2924    -2956    -3014 
   -3076    -3193    -3357    -3542    -3787    -4085    -4397    -4678 
   -4887    -5049    -5194    -5301    -5347    -5330    -5280    -5224 
   -5141    -4999    -4827    -4692    -4600    -4511    -4428    -4361 
   -4300    -4256    -4223    -4170    -4094    -4017    -3949    -3886 
   -3827    -3747    -3634    -3519    -3447    -3437    -3468    -3502 
   -3526    -3540    -3538    -3579    -3713    -3877    -4081    -4335 
   -4536    -4683    -4813    -4873    -4881    -4867    -4793    -4690 
   -4617    -4564    -4500    -4395    -4237    -4063    -3897    -3732 
   -3567    -3406    -3293    -3270    -3294    -3315    -3364    -3452 
   -3577    -3758    -3941    -4058    -4146    -4241    -4324    -4402 
   -4454    -4467    -4487    -4477    -4396    -4347    -4363    -4357 
   -4300    -4200    -4073    -3958    -3852    -3771    -3767    -3820 
   -3872    -3922    -4000    -4110    -4261    -4411    -4493    -4542 
   -4602    -4656    -4680    -4629    -4511    -4372    -4196    -4000 
   -3848    -3746    -3657    -3526    -3341    -3184    -3129    -3149 
   -3194    -3265    -3362    -3451    -3538    -3678    -3885    -4108 
   -4302    -4481    -4656    -4812    -4956    -5084    -5179    -5218 
   -5194    -5127    -5029    -4921    -4808    -4650    -4445    -4221 
   -3990    -3781    -3619    -3486    -3374    -3289    -3225    -3197 
   -3210    -3260    -3354    -3469    -3568    -3641    -3697    -3747 
   -3779    -3815    -3912    -4051    -4163    -4254    -4363    -4500 
   -4662    -4798    -4854    -4821    -4745    -4694    -4693    -4697 
   -4657    -4596    -4537    -4468    -4388    -4303    -4250    -4262 
   -4311    -4349    -4355    -4357    -4377    -4362    -4283    -4195 
   -4127    -4050    -3947    -3852    -3794    -3725    -3600    -3472 
   -3438    -3486    -3545    -3625    -3753    -3910    -4083    -4251 
   -4388    -4500    -4595    -4632    -4588    -4494    -4391    -4288 
   -4141    -3925    -3700    -3517    -3400    -3360    -3382    -3443 
   -3523    -3623    -3764    -3942    -4125    -4292    -4443    -4563 
   -4638    -4684    -4693    -4648    -4559    -4431    -4290    -4144 
   -3994    -3865    -3744    -3619    -3518    -3445    -3415    -3457 
   -3546    -3659    -3794    -3929    -4042    -4124    -4169    -4211 
   -4253    -4275    -4297    -4339    -4393    -4458    -4521    -4574 
   -4619    -4655    -4693    -4757    -4812    -4824    -4830    -4828 
   -4808    -4776    -4682    -4530    -4367    -4175    -3977    -3801 
   -3635    -3493    -3347    -3163    -3005    -2917    -2885    -2903 
   -2956    -3048    -3189    -3336    -3474    -3622    -3793    -3987 
   -4171    -4322    -4434    -4526    -4619    -4709    -4788    -4849 
   -4885    -4920    -4963    -4978    -4951    -4907    -4842    -4739 
   -4608    -4460    -4317    -4190    -4057    -3910    -3740    -3564 
   -3433    -3363    -3338    -3356    -3425    -3550    -3676    -3774 
   -3881    -3980    -4040    -4066    -4037    -3996    -4023    -4079 
   -4105    -4114    -4131    -4153    -4166    -4181    -4198    -4214 
   -4227    -4222    -4214    -4223    -4240    -4264    -4262    -4225 
   -4198    -4167    -4116    -4101    -4121    -4141    -4152    -4131 
   -4114    -4167    -4289    -4453    -4630    -4775    -4898    -5008 
   -5086    -5144    -5173    -5128    -5007    -4868    -4743    -4601 
   -4415    -4179    -3911    -3662    -3455    -3289    -3185    -3104 
   -3004    -2918    -2860    -2812    -2783    -2796    -2854    -2934 
   -3022    -3132    -3268    -3402    -3535    -3684    -3813    -3889 
   -3946    -4010    -4077    -4155    -4247    -4364    -4516    -4696 
   -4895    -5094    -5294    -5493    -5642    -5727    -5776    -5774 
   -5698    -5544    -5324    -5063    -4778    -4482    -4203    -3962 
   -3761    -3585    -3437    -3337    -3277    -3232    -3211    -3226 
   -3271    -3347    -3449    -3545    -3614    -3675    -3728    -3758 
   -3769    -3753    -3723    -3724    -3759    -3798    -3823    -3836 
   -3846    -3863    -3899    -3945    -3971    -3977    -3986    -3991 
   -3977    -3962    -3974    -4011    -4048    -4073    -4093    -4128 
   -4195    -4281    -4365    -4473    -4604    -4732    -4850    -4945 
   -5012    -5050    -5040    -5000    -4951    -4893    -4819    -4712 
   -4580    -4436    -4264    -4078    -3899    -3741    -3617    -3504 
   -3399    -3334    -3322    -3339    -3323    -3280    -3291    -3369 
   -3483    -3609    -3706    -3794    -3915    -4044    -4180    -4328 
   -4451    -4564    -4713    -4880    -5016    -5114    -5173    -5188 
   -5177    -5147    -5104    -5045    -4938    -4783    -4597    -4382 
   -4136    -3879    -3647    -3447    -3258    -3089    -2966    -2900 
   -2876    -2866    -2871    -2891    -2924    -2986    -3098    -3245 
   -3413    -3585    -3734    -3886    -4058    -4205    -4333    -4452 
   -4550    -4633    -4710    -4778    -4831    -4867    -4899    -4927 
   -4913    -4848    -4771    -4703    -4636    -4564    -4475    -4368 
   -4275    -4180    -4056    -3937    -3817    -3693    -3592    -3504 
   -3455    -3466    -3495    -3544    -3609    -3679    -3765    -3851 
   -3948    -4067    -4175    -4251    -4286    -4299    -4300    -4288 
   -4271    -4246    -4230    -4234    -4246    -4273    -4303    -4306 
   -4298    -4297    -4304    -4318    -4323    -4344    -4404    -4452 
   -4469    -4483    -4479    -4441    -4385    -4321    -4259    -4217 
   -4185    -4142    -4067    -3960    -3865    -3807    -3768    -3739 
   -3721    -3700    -3670    -3676    -3713    -3729    -3748    -3796 
   -3842    -3888    -3950    -4022    -4098    -4150    -4172    -4211 
   -4265    -4312    -4359    -4424    -4482    -4494    -4473    -4452 
   -4444    -4458    -4446    -4398    -4347    -4288    -4248    -4215 
   -4160    -4139    -4158    -4151    -4125    -4107    -4090    -4084 
   -4082    -4057    -4028    -4024    -4028    -4022    -3993    -3941 
   -3872    -3790    -3716    -3669    -3656    -3658    -3651    -3649 
   -3667    -3703    -3762    -3828    -3877    -3926    -3986    -4033 
   -4055    -4050    -4038    -4033    -4027    -4018    -3982    -3925 
   -3892    -3885    -3903    -3951    -4002    -4049    -4106    -4150 
   -4184    -4232    -4290    -4356    -4426    -4479    -4520    -4550 
   -4549    -4530    -4505    -4462    -4410    -4347    -4284    -4240 
   -4217    -4194    -4160    -4130    -4124    -4140    -4165    -4182 
   -4209    -4248    -4243    -4189    -4127    -4087    -4075    -4073 
   -4083    -4124    -4162    -4162    -4172    -4226    -4288    -4321 
   -4328    -4339    -4383    -4441    -4459    -4440    -4425    -4413 
   -4376    -4315    -4245    -4159    -4058    -3969    -3901    -3856 
   -3832    -3798    -3765    -3760    -3755    -3732    -3704    -3676 
   -3659    -3641    -3606    -3581    -3600    -3648    -3674    -3664 
   -3662    -3682    -3715    -3770    -3829    -3887    -3950    -4015 
   -4091    -4164    -4202    -4237    -4280    -4297    -4320    -4367 
   -4402    -4447    -4518    -4567    -4576    -4566    -4544    -4530 
   -4541    -4531    -4490    -4460    -4433    -4404    -4354    -4264 
   -4196    -4142    -4040    -3916    -3802    -3710    -3659    -3625 
   -3593    -3564    -3552    -3557    -3561    -3578    -3635    -3715 
   -3788    -3860    -3954    -4065    -4166    -4234    -4284    -4360 
   -4450    -4500    -4505    -4509    -4515    -4497    -4458    -4427 
   -4438    -4474    -4482    -4482    -4532    -4616    -4678    -4711 
   -4728    -4721    -4678    -4613    -4549    -4472    -4352    -4197 
   -4051    -3927    -3827    -3745    -3641    -3523    -3454    -3425 
   -3407    -3418    -3444    -3461    -3491    -3532    -3581    -3643 
   -3707    -3779    -3865    -3940    -3998    -4042    -4082    -4113 
   -4134    -4157    -4162    -4146    -4153    -4170    -4186    -4218 
   -4244    -4261    -4280    -4275    -4277    -4307    -4316    -4311 
   -4321    -4320    -4292    -4251    -4197    -4148    -4126    -4114 
   -4110    -4127    -4155    -4192    -4254    -4312    -4346    -4378 
   -4408    -4417    -4410    -4409    -4415    -4395    -4343    -4277 
   -4192    -4112    -4055    -3997    -3933    -3847    -3741    -3662 
   -3610    -3561    -3527    -3512    -3504    -3497    -3506    -3561 
   -3631    -3695    -3772    -3825    -3852    -3909    -3990    -4092 
   -4200    -4280    -4375    -4491    -4584    -4671    -4758    -4817 
   -4847    -4855    -4847    -4835    -4811    -4746    -4653    -4565 
   -4466    -4337    -4204    -4088    -3975    -3847    -3716    -3605 
   -3527    -3477    -3434    -3396    -3378    -3389    -3426    -3480 
   -3544    -3632    -3741    -3840    -3932    -4046    -4158    -4260 
   -4370    -4467    -4552    -4620    -4647    -4656    -4653    -4625 
   -4585    -4524    -4458    -4419    -4369    -4305    -4258    -4197 
   -4128    -4077    -4017    -3968    -3925    -3862    -3826    -3831 
   -3836    -3855    -3906    -3970    -4049    -4119    -4153    -4199 
   -4279    -4356    -4404    -4409    -4382    -4348    -4314    -4301 
   -4293    -4238    -4152    -4072    -3988    -3912    -3847    -3785 
   -3754    -3740    -3713    -3697    -3692    -3677    -3662    -3656 
   -3656    -3668    -3684    -3689    -3675    -3659    -3664    -3704 
   -3797    -3911    -4033    -4183    -4340    -4483    -4625    -4754 
   -4850    -4924    -5008    -5107    -5168    -5156    -5096    -5004 
