Origin Time       2025/03/28 03:50:00
Lat.              35.403
Long.             140.360
Depth. (km)       54
Mag.              4.4
Station Code      KNGH20
Station Lat.      35.3663
Station Long.     139.1260
Station Height(m) 359.5
Record Time       2025/03/28 03:51:10
Sampling Freq(Hz) 100Hz
Duration Time(s)  120
Dir.              1
Scale Factor      2942(gal)/8224139
Max. Acc. (gal)   0.154
Last Correction   2025/03/28 03:51:10
Memo.             
  332500   332500   332500   332502   332502   332503   332502   332500 
  332502   332505   332503   332503   332503   332503   332503   332503 
  332502   332500   332500   332500   332506   332507   332503   332500 
  332502   332499   332499   332502   332502   332503   332505   332503 
  332502   332503   332503   332502   332503   332505   332500   332500 
  332503   332503   332503   332506   332506   332505   332505   332505 
  332503   332500   332503   332506   332503   332503   332505   332505 
  332503   332506   332505   332502   332503   332505   332503   332505 
  332507   332505   332502   332503   332506   332506   332503   332505 
  332507   332506   332505   332506   332505   332505   332505   332503 
  332503   332505   332502   332500   332503   332506   332506   332506 
  332506   332503   332502   332506   332506   332503   332503   332502 
  332503   332507   332507   332505   332505   332505   332506   332500 
  332499   332505   332506   332503   332506   332506   332505   332506 
  332505   332500   332502   332505   332500   332499   332502   332505 
  332505   332505   332503   332503   332502   332502   332505   332505 
  332503   332503   332502   332503   332505   332505   332506   332503 
  332500   332502   332503   332505   332505   332506   332507   332506 
  332502   332503   332505   332505   332502   332502   332505   332506 
  332505   332502   332500   332500   332503   332505   332503   332505 
  332503   332502   332503   332503   332506   332509   332506   332503 
  332503   332505   332505   332502   332502   332502   332502   332503 
  332505   332506   332505   332502   332503   332505   332503   332505 
  332506   332505   332505   332505   332503   332505   332506   332503 
  332505   332506   332505   332505   332506   332505   332503   332500 
  332502   332506   332503   332502   332503   332503   332502   332500 
  332503   332506   332505   332503   332505   332503   332503   332503 
  332506   332507   332505   332503   332505   332503   332503   332505 
  332502   332505   332506   332500   332502   332505   332502   332503 
  332505   332502   332502   332503   332502   332503   332502   332498 
  332496   332496   332492   332488   332484   332482   332482   332482 
  332482   332484   332484   332486   332490   332494   332499   332505 
  332510   332515   332519   332522   332532   332545   332554   332560 
  332560   332552   332544   332537   332529   332526   332532   332538 
  332541   332532   332507   332487   332487   332498   332510   332514 
  332496   332463   332430   332421   332446   332488   332518   332525 
  332515   332491   332460   332433   332424   332430   332455   332494 
  332526   332549   332573   332595   332602   332595   332575   332545 
  332506   332465   332448   332461   332500   332540   332554   332556 
  332554   332545   332526   332514   332518   332527   332523   332483 
  332409   332349   332341   332378   332426   332468   332509   332532 
  332529   332509   332484   332490   332517   332495   332426   332409 
  332471   332538   332550   332514   332479   332471   332457   332430 
  332434   332484   332544   332573   332575   332587   332608   332579 
  332522   332494   332483   332498   332544   332549   332514   332488 
  332460   332444   332484   332557   332614   332618   332577   332537 
  332523   332523   332507   332479   332464   332456   332434   332421 
  332446   332509   332571   332591   332554   332478   332407   332375 
  332375   332399   332441   332482   332533   332573   332581   332580 
  332584   332577   332545   332518   332526   332513   332465   332456 
  332487   332511   332519   332494   332441   332440   332505   332575 
  332614   332610   332571   332538   332511   332486   332498   332536 
  332554   332557   332530   332487   332476   332480   332482   332517 
  332561   332557   332499   332446   332451   332464   332461   332480 
  332491   332459   332426   332414   332407   332430   332484   332513 
  332488   332448   332438   332438   332433   332451   332457   332417 
  332407   332479   332552   332565   332544   332537   332572   332603 
  332592   332576   332571   332546   332502   332436   332391   332433 
  332517   332565   332587   332600   332600   332595   332580   332550 
  332517   332496   332514   332542   332526   332486   332453   332440 
  332465   332519   332553   332560   332559   332563   332565   332541 
  332483   332409   332355   332357   332395   332429   332464   332482 
  332456   332440   332476   332527   332556   332568   332571   332560 
  332561   332581   332561   332506   332484   332495   332484   332460 
  332456   332488   332530   332550   332561   332577   332581   332554 
  332498   332438   332417   332440   332473   332488   332486   332468 
  332422   332370   332372   332440   332525   332599   332640   332619 
  332554   332506   332484   332471   332471   332490   332498   332499 
  332522   332561   332596   332603   332577   332537   332505   332513 
  332545   332542   332502   332467   332457   332476   332495   332505 
  332511   332495   332471   332479   332503   332537   332565   332549 
  332506   332475   332463   332459   332452   332441   332459   332496 
  332510   332505   332498   332484   332483   332513   332545   332541 
  332510   332490   332496   332513   332514   332488   332453   332436 
  332448   332490   332536   332549   332529   332498   332472   332473 
  332492   332498   332479   332457   332467   332496   332500   332487 
  332484   332503   332540   332553   332519   332486   332488   332509 
  332530   332550   332553   332521   332479   332468   332491   332514 
  332530   332557   332586   332586   332552   332513   332496   332496 
  332483   332468   332472   332499   332530   332540   332527   332506 
  332488   332490   332495   332484   332469   332478   332507   332526 
  332521   332502   332483   332494   332527   332538   332519   332496 
  332478   332463   332463   332471   332461   332459   332494   332529 
  332537   332545   332553   332540   332517   332503   332483   332455 
  332460   332488   332486   332456   332436   332432   332453   332509 
  332552   332556   332554   332563   332563   332560   332561   332563 
  332567   332569   332549   332515   332496   332490   332487   332487 
  332480   332476   332479   332464   332452   332479   332526   332564 
  332579   332553   332496   332459   332460   332465   332449   332438 
  332446   332456   332453   332452   332472   332502   332514   332502 
  332488   332488   332483   332459   332440   332455   332490   332506 
  332487   332463   332471   332513   332556   332577   332577   332567 
  332557   332553   332545   332526   332510   332503   332490   332461 
  332445   332455   332471   332491   332526   332556   332561   332550 
  332542   332538   332538   332544   332550   332538   332498   332452 
  332432   332432   332440   332457   332476   332495   332521   332541 
  332553   332564   332559   332542   332529   332502   332456   332419 
  332409   332430   332472   332502   332496   332465   332440   332438 
  332471   332519   332544   332548   332548   332544   332540   332532 
  332507   332490   332495   332507   332518   332525   332517   332513 
  332525   332517   332488   332478   332482   332487   332500   332521 
  332541   332560   332572   332564   332542   332525   332513   332503 
  332509   332527   332540   332538   332527   332506   332480   332460 
  332440   332415   332415   332440   332459   332468   332472   332484 
  332509   332509   332495   332495   332499   332495   332498   332498 
  332490   332490   332496   332500   332511   332533   332542   332519 
  332484   332467   332469   332483   332499   332507   332506   332507 
  332530   332569   332581   332553   332523   332500   332475   332463 
  332467   332475   332490   332502   332500   332498   332494   332479 
  332465   332473   332502   332517   332511   332518   332541   332565 
  332595   332608   332588   332550   332519   332503   332502   332514 
  332530   332530   332502   332463   332448   332465   332492   332503 
  332498   332488   332478   332468   332456   332444   332433   332428 
  332437   332464   332492   332496   332500   332530   332557   332552 
  332532   332523   332521   332515   332526   332561   332598   332617 
  332607   332575   332545   332522   332490   332445   332413   332406 
  332422   332444   332463   332494   332530   332556   332568   332559 
  332529   332495   332476   332484   332506   332515   332505   332488 
  332499   332538   332559   332540   332509   332482   332469   332476 
  332496   332519   332523   332506   332503   332523   332536   332529 
  332513   332499   332507   332529   332540   332527   332505   332488 
  332483   332472   332448   332424   332429   332464   332490   332480 
  332457   332453   332460   332459   332461   332475   332482   332472 
  332453   332426   332405   332399   332397   332394   332406   332441 
  332491   332525   332529   332534   332542   332534   332530   332538 
  332538   332542   332546   332537   332526   332519   332519   332519 
  332503   332488   332513   332571   332629   332660   332652   332623 
  332583   332534   332507   332519   332554   332587   332603   332604 
  332600   332595   332588   332572   332546   332526   332526   332526 
  332510   332499   332510   332511   332490   332469   332461   332457 
  332445   332438   332448   332464   332475   332482   332478   332479 
  332487   332460   332414   332409   332437   332461   332465   332438 
  332410   332428   332475   332507   332513   332496   332463   332436 
  332438   332456   332471   332480   332468   332448   332446   332444 
  332437   332452   332488   332530   332545   332522   332491   332476 
  332471   332484   332530   332573   332577   332560   332560   332576 
  332580   332569   332561   332557   332559   332567   332567   332557 
  332560   332569   332567   332556   332536   332511   332499   332506 
  332514   332506   332492   332487   332482   332471   332465   332465 
  332467   332460   332448   332452   332472   332476   332456   332440 
  332459   332494   332509   332511   332526   332544   332553   332561 
  332569   332581   332603   332623   332606   332549   332496   332471 
  332476   332505   332526   332525   332498   332465   332460   332460 
  332438   332426   332422   332409   332406   332433   332468   332492 
  332506   332507   332507   332522   332546   332556   332534   332495 
  332468   332457   332455   332445   332417   332398   332405   332434 
  332482   332527   332560   332581   332595   332604   332598   332579 
  332565   332556   332553   332565   332564   332542   332518   332480 
  332437   332417   332410   332409   332425   332442   332449   332453 
  332463   332468   332459   332449   332472   332530   332567   332542 
  332499   332473   332460   332472   332517   332554   332572   332586 
  332594   332588   332583   332584   332564   332525   332505   332509 
  332515   332511   332503   332492   332476   332469   332478   332492 
  332506   332506   332490   332472   332475   332496   332514   332518 
  332509   332498   332495   332503   332515   332521   332525   332534 
  332534   332518   332503   332498   332496   332491   332487   332492 
  332503   332513   332507   332476   332446   332451   332476   332514 
  332544   332544   332529   332533   332540   332530   332519   332517 
  332511   332507   332509   332510   332496   332469   332456   332468 
  332486   332496   332498   332490   332480   332491   332519   332537 
  332540   332542   332532   332502   332478   332461   332436   332406 
  332391   332384   332394   332424   332456   332486   332519   332533 
  332534   332550   332575   332591   332603   332608   332598   332561 
  332523   332517   332532   332548   332541   332510   332484   332492 
  332521   332538   332534   332525   332517   332514   332506   332488 
  332473   332478   332487   332505   332526   332526   332506   332490 
  332484   332494   332514   332522   332509   332492   332487   332487 
  332484   332478   332457   332434   332428   332445   332469   332486 
  332483   332464   332433   332413   332403   332398   332405   332426 
  332446   332471   332494   332498   332491   332499   332519   332527 
  332519   332502   332492   332503   332521   332537   332550   332557 
  332544   332521   332525   332554   332587   332613   332633   332638 
  332629   332608   332583   332553   332519   332500   332510   332537 
  332561   332563   332538   332515   332514   332511   332491   332457 
  332428   332419   332437   332478   332513   332513   332488   332472 
  332472   332491   332513   332519   332509   332499   332503   332526 
  332546   332548   332534   332518   332506   332507   332518   332526 
  332530   332533   332538   332553   332561   332546   332522   332499 
  332469   332444   332432   332428   332440   332459   332451   332426 
  332418   332432   332461   332507   332548   332552   332536   332533 
  332552   332567   332556   332527   332506   332490   332475   332471 
  332488   332521   332549   332568   332567   332544   332514   332499 
  332506   332514   332511   332494   332459   332424   332422   332451 
  332476   332491   332505   332518   332514   332482   332451   332463 
  332503   332517   332494   332456   332421   332397   332392   332406 
  332441   332499   332576   332683   332811   332910   332935   332893 
  332803   332704   332626   332557   332484   332407   332340   332295 
  332286   332318   332359   332374   332378   332387   332399   332402 
  332392   332380   332380   332395   332419   332457   332502   332525 
  332498   332429   332355   332320   332330   332353   332360   332364 
  332380   332395   332399   332401   332397   332397   332426   332465 
  332491   332530   332598   332675   332762   332846   332880   332850 
  332761   332626   332487   332407   332410   332459   332514   332556 
  332567   332549   332517   332499   332523   332584   332657   332739 
  332812   332831   332770   332627   332463   332367   332357   332383 
  332398   332371   332318   332297   332320   332360   332426   332503 
  332523   332502   332472   332411   332328   332276   332260   332268 
  332326   332429   332536   332623   332692   332734   332749   332741 
  332731   332735   332769   332822   332842   332772   332615   332429 
  332276   332205   332216   332260   332299   332340   332407   332509 
  332634   332737   332766   332729   332645   332507   332348   332251 
  332259   332340   332429   332469   332460   332451   332463   332459 
  332413   332343   332280   332263   332309   332397   332483   332538 
  332560   332548   332523   332496   332449   332383   332314   332259 
  332268   332380   332538   332653   332698   332683   332627   332572 
  332568   332592   332583   332548   332537   332549   332577   332625 
  332645   332603   332527   332465   332448   332494   332592   332680 
  332707   332685   332654   332631   332623   332623   332592   332517 
  332432   332367   332326   332313   332330   332384   332444   332480 
  332484   332445   332364   332279   332247   332307   332433   332540 
  332608   332673   332719   332718   332680   332627   332586   332564 
  332554   332545   332525   332486   332451   332436   332433   332445 
  332464   332487   332523   332549   332537   332500   332467   332451 
  332468   332523   332577   332606   332611   332571   332478   332395 
  332371   332394   332451   332525   332586   332596   332550   332473 
  332401   332359   332374   332432   332473   332478   332488   332517 
  332533   332546   332590   332654   332708   332739   332748   332715 
  332649   332590   332542   332487   332445   332473   332540   332557 
  332511   332442   332384   332361   332371   332380   332388   332414 
  332452   332496   332541   332567   332557   332519   332478   332449 
  332426   332399   332364   332328   332322   332357   332388   332376 
  332334   332325   332372   332432   332475   332525   332579   332604 
  332581   332536   332506   332509   332548   332614   332683   332739 
  332780   332804   332793   332743   332654   332532   332407   332347 
  332376   332464   332545   332590   332588   332540   332463   332405 
  332368   332325   332287   332301   332352   332382   332370   332345 
  332348   332398   332486   332580   332657   332741   332834   332854 
  332764   332631   332517   332448   332433   332433   332421   332415 
  332414   332403   332378   332343   332330   332356   332402   332467 
  332550   332633   332692   332721   332708   332664   332630   332631 
  332633   332613   332568   332494   332418   332378   332376   332413 
  332463   332500   332536   332552   332510   332438   332380   332347 
  332343   332341   332313   332289   332302   332337   332394   332475 
  332563   332641   332695   332719   332708   332661   332615   332587 
  332553   332518   332513   332538   332573   332595   332592   332581 
  332590   332621   332661   332677   332645   332588   332522   332445 
  332386   332372   332383   332391   332398   332407   332413   332417 
  332441   332500   332550   332563   332568   332572   332548   332500 
  332442   332376   332324   332306   332332   332384   332433   332467 
  332479   332472   332457   332455   332467   332480   332498   332519 
  332534   332530   332518   332525   332553   332595   332637   332658 
  332653   332626   332588   332559   332536   332502   332471   332472 
  332519   332587   332619   332603   332567   332523   332484   332452 
  332428   332414   332422   332445   332459   332441   332401   332359 
  332338   332353   332387   332419   332438   332453   332480   332506 
  332505   332486   332469   332459   332455   332465   332495   332532 
  332561   332573   332581   332591   332598   332610   332627   332630 
  332602   332550   332507   332490   332480   332463   332455   332461 
  332468   332468   332465   332453   332453   332488   332534   332568 
  332592   332602   332595   332576   332550   332519   332480   332444 
  332421   332415   332433   332464   332471   332461   332460   332457 
  332463   332484   332494   332483   332464   332444   332424   332410 
  332415   332438   332468   332488   332490   332480   332484   332503 
  332523   332563   332630   332684   332698   332694   332695   332702 
  332711   332700   332653   332602   332569   332545   332527   332527 
  332540   332563   332577   332559   332502   332430   332367   332325 
  332306   332298   332293   332290   332295   332325   332378   332425 
  332456   332483   332503   332517   332550   332598   332619   332621 
  332604   332564   332506   332441   332378   332324   332291   332293 
  332329   332376   332410   332456   332533   332613   332646   332627 
  332588   332559   332537   332529   332542   332565   332586   332591 
  332565   332518   332476   332448   332433   332451   332503   332552 
  332568   332579   332611   332649   332665   332648   332602   332546 
  332519   332518   332525   332532   332529   332509   332496   332514 
  332546   332557   332523   332469   332419   332367   332311   332284 
  332305   332349   332382   332406   332438   332472   332502   332529 
  332544   332545   332542   332546   332567   332604   332642   332661 
