Origin Time       2025/03/28 03:50:00
Lat.              35.403
Long.             140.360
Depth. (km)       54
Mag.              4.4
Station Code      KNGH21
Station Lat.      35.4628
Station Long.     139.2146
Station Height(m) 245
Record Time       2025/03/28 03:51:10
Sampling Freq(Hz) 100Hz
Duration Time(s)  120
Dir.              1
Scale Factor      2942(gal)/8224139
Max. Acc. (gal)   0.156
Last Correction   2025/03/28 03:51:10
Memo.             
[...]
  207341   207339   207341   207343   207343   207342   207342   207343 
  207343   207341   207342   207341   207341   207346   207343   207338 
  207343   207346   207341   207342   207345   207341   207338   207341 
  207341   207341   207343   207339   207338   207341   207341   207341 
  207341   207341   207342   207341   207339   207343   207345   207341 
  207339   207342   207342   207339   207338   207342   207342   207341 
  207342   207342   207345   207345   207342   207342   207345   207342 
  207341   207343   207343   207342   207345   207343   207342   207341 
  207339   207338   207338   207339   207341   207339   207338   207339 
  207339   207337   207339   207342   207343   207343   207342   207341 
  207337   207337   207341   207343   207343   207342   207342   207342 
  207338   207334   207334   207334   207331   207327   207327   207330 
  207335   207345   207353   207354   207350   207346   207341   207338 
  207339   207342   207339   207334   207337   207343   207339   207328 
  207320   207320   207331   207351   207364   207357   207346   207343 
  207341   207342   207351   207358   207351   207333   207303   207297 
  207334   207366   207374   207389   207409   207400   207370   207350 
  207341   207330   207324   207339   207349   207324   207299   207300 
  207314   207315   207312   207326   207343   207347   207357   207370 
  207361   207353   207370   207389   207384   207365   207345   207331 
  207331   207338   207333   207314   207316   207331   207318   207322 
  207372   207387   207366   207354   207324   207291   207303   207350 
  207368   207339   207316   207320   207335   207349   207351   207341 
  207343   207357   207338   207304   207307   207337   207349   207342 
  207349   207370   207388   207391   207373   207334   207310   207327 
  207355   207357   207337   207331   207349   207345   207322   207322 
  207328   207319   207315   207330   207345   207338   207326   207366 
  207409   207373   207314   207327   207388   207416   207399   207366 
  207343   207337   207347   207360   207353   207324   207306   207314 
  207327   207312   207276   207257   207272   207296   207315   207353 
  207384   207373   207355   207355   207361   207355   207337   207318 
  207311   207310   207312   207316   207333   207357   207362   207355 
  207360   207357   207350   207364   207384   207384   207381   207385 
  207374   207354   207342   207341   207331   207307   207304   207306 
  207281   207291   207326   207331   207353   207392   207376   207328 
  207316   207342   207360   207361   207360   207350   207334   207335 
  207342   207349   207382   207408   207381   207349   207343   207330 
  207303   207279   207273   207292   207319   207324   207299   207269 
  207264   207277   207287   207299   207334   207362   207376   207395 
  207409   207414   207407   207382   207376   207389   207365   207315 
  207307   207322   207312   207319   207351   207361   207364   207392 
  207419   207424   207414   207405   207400   207365   207315   207291 
  207291   207289   207288   207293   207284   207274   207304   207339 
  207337   207326   207331   207346   207376   207401   207377   207322 
  207312   207338   207354   207374   207382   207362   207346   207339 
  207331   207341   207355   207361   207358   207355   207373   207381 
  207342   207318   207337   207322   207288   207296   207311   207304 
  207316   207342   207341   207330   207339   207361   207365   207354 
  207347   207355   207366   207353   207337   207334   207318   207312 
  207338   207346   207334   207347   207370   207378   207373   207345 
  207318   207308   207307   207330   207364   207361   207328   207312 
  207320   207328   207322   207304   207301   207322   207334   207330 
  207337   207351   207349   207338   207350   207389   207401   207372 
  207364   207362   207330   207320   207347   207369   207387   207384 
  207343   207306   207306   207326   207334   207319   207306   207304 
  207311   207326   207330   207319   207311   207314   207335   207360 
  207364   207369   207385   207396   207393   207370   207342   207333 
  207319   207314   207341   207349   207318   207311   207335   207351 
  207351   207346   207347   207366   207374   207369   207368   207349 
  207331   207349   207368   207360   207341   207333   207328   207310 
  207301   207328   207350   207357   207362   207351   207346   207364 
  207365   207338   207322   207324   207327   207339   207365   207374 
  207368   207358   207350   207353   207362   207349   207319   207318 
  207334   207324   207314   207346   207388   207385   207366   207368 
  207366   207327   207281   207265   207256   207256   207287   207316 
  207314   207314   207334   207357   207384   207393   207362   207337 
  207350   207369   207362   207342   207328   207315   207306   207307 
  207316   207331   207334   207324   207341   207378   207393   207385 
  207384   207377   207360   207345   207334   207315   207281   207268 
  207293   207323   207338   207342   207346   207349   207345   207355 
  207381   207396   207395   207388   207365   207350   207364   207366 
  207346   207337   207333   207318   207307   207308   207316   207347 
  207382   207381   207355   207343   207351   207364   207368   207365 
  207342   207315   207316   207328   207311   207287   207293   207318 
  207343   207373   207374   207349   207339   207341   207327   207311 
  207315   207331   207333   207318   207315   207322   207327   207335 
  207347   207349   207335   207335   207342   207338   207330   207311 
  207293   207291   207291   207322   207380   207396   207366   207346 
  207355   207388   207422   207426   207403   207395   207393   207365 
  207333   207310   207289   207306   207331   207318   207303   207300 
  207300   207326   207351   207335   207318   207320   207319   207324 
  207337   207346   207364   207381   207382   207382   207377   207358 
  207337   207316   207311   207323   207328   207333   207353   207365 
  207355   207338   207326   207326   207342   207369   207385   207373 
  207355   207353   207346   207339   207354   207377   207384   207362 
  207335   207328   207328   207326   207328   207342   207346   207334 
  207333   207343   207334   207318   207318   207330   207349   207369 
  207380   207380   207361   207322   207293   207296   207304   207310 
  207316   207342   207377   207377   207364   207366   207369   207357 
  207338   207334   207346   207342   207315   207292   207283   207272 
  207273   207301   207320   207319   207322   207345   207387   207414 
  207415   207407   207381   207334   207303   207303   207318   207327 
  207322   207316   207311   207312   207327   207343   207353   207355 
  207351   207339   207324   207323   207342   207365   207377   207388 
  207401   207408   207389   207343   207310   207307   207308   207295 
  207280   207272   207283   207314   207341   207360   207368   207345 
  207314   207320   207341   207333   207319   207330   207351   207364 
  207372   207404   207450   207454   207416   207388   207382   207376 
  207361   207338   207319   207301   207292   207295   207299   207301 
  207310   207322   207337   207358   207382   207401   207388   207350 
  207339   207350   207333   207301   207289   207281   207280   207303 
  207341   207365   207357   207319   207295   207311   207361   207403 
  207408   207407   207411   207384   207339   207319   207312   207296 
  207289   207307   207330   207334   207330   207331   207333   207331 
  207330   207327   207338   207341   207331   207347   207382   207414 
  207423   207391   207341   207315   207306   207314   207345   207364 
  207368   207389   207407   207380   207322   207279   207262   207256 
  207246   207243   207261   207295   207334   207385   207436   207454 
  207422   207368   207324   207307   207292   207260   207245   207274 
  207315   207350   207393   207411   207382   207358   207354   207347 
  207342   207337   207334   207343   207351   207351   207361   207376 
  207391   207407   207405   207377   207343   207331   207335   207326 
  207315   207319   207335   207362   207391   207393   207377   207368 
  207368   207370   207370   207357   207335   207319   207312   207312 
  207327   207350   207346   207331   207346   207355   207320   207276 
  207266   207288   207301   207292   207291   207312   207342   207361 
  207365   207376   207401   207389   207343   207318   207297   207295 
  207326   207343   207339   207355   207377   207368   207341   207316 
  207303   207301   207310   207323   207341   207343   207334   207330 
  207326   207314   207315   207333   207334   207320   207316   207315 
  207315   207335   207358   207353   207333   207330   207346   207373 
  207392   207372   207338   207339   207369   207396   207396   207380 
  207366   207349   207324   207303   207287   207281   207295   207331 
  207374   207397   207397   207389   207370   207358   207368   207377 
  207382   207399   207397   207365   207334   207318   207318   207334 
  207351   207365   207365   207327   207260   207225   207258   207304 
  207296   207266   207283   207342   207389   207408   207419   207418 
  207380   207338   207354   207396   207380   207331   207327   207326 
  207288   207280   207296   207293   207310   207354   207374   207374 
  207378   207381   207370   207350   207350   207377   207389   207369 
  207338   207312   207301   207299   207297   207299   207291   207268 
  207276   207320   207351   207364   207378   207389   207382   207358 
  207328   207311   207312   207328   207345   207341   207320   207320 
  207346   207354   207328   207316   207327   207331   207326   207330 
  207335   207338   207350   207360   207353   207343   207338   207345 
  207370   207388   207380   207376   207380   207364   207342   207338 
  207345   207365   207389   207395   207374   207364   207377   207358 
  207301   207272   207274   207274   207285   207308   207323   207335 
  207334   207316   207322   207335   207339   207358   207369   207358 
  207377   207412   207400   207355   207319   207297   207287   207299 
  207326   207355   207368   207350   207327   207316   207299   207280 
  207287   207312   207341   207369   207399   207405   207384   207364 
  207357   207347   207331   207324   207339   207360   207355   207341 
  207335   207334   207328   207327   207324   207323   207330   207328 
  207315   207299   207292   207306   207323   207324   207335   207345 
  207315   207297   207328   207350   207341   207341   207345   207347 
  207368   207387   207377   207369   207377   207389   207405   207427 
  207427   207399   207373   207353   207324   207312   207328   207343 
  207334   207323   207326   207319   207299   207303   207333   207358 
  207368   207361   207343   207330   207347   207385   207418   207434 
  207412   207360   207341   207338   207296   207265   207289   207310 
  207296   207300   207334   207349   207341   207351   207368   207369 
  207388   207412   207409   207401   207389   207355   207327   207318 
  207320   207341   207351   207331   207304   207277   207260   207281 
  207327   207357   207372   207387   207393   207376   207346   207337 
  207341   207339   207355   207389   207401   207391   207381   207355 
  207333   207360   207409   207431   207427   207409   207401   207407 
  207395   207349   207296   207258   207235   207227   207229   207229 
  207231   207239   207269   207324   207366   207372   207357   207323 
  207283   207287   207339   207373   207355   207337   207351   207362 
  207349   207345   207341   207301   207265   207260   207266   207258 
  207220   207211   207257   207296   207307   207316   207330   207350 
  207384   207424   207445   207428   207392   207372   207391   207449 
  207519   207582   207623   207592   207473   207320   207192   207115 
  207092   207111   207150   207173   207175   207157   207131   207156 
  207277   207445   207547   207551   207544   207553   207538   207516 
  207489   207415   207301   207215   207172   207153   207146   207154 
  207185   207226   207253   207283   207320   207353   207382   207414 
  207436   207453   207450   207408   207357   207331   207319   207300 
  207289   207300   207314   207330   207368   207411   207446   207489 
  207505   207434   207324   207272   207266   207270   207303   207334 
  207291   207208   207216   207319   207405   207432   207442   207458 
  207495   207536   207534   207465   207353   207243   207160   207100 
  207063   207052   207077   207144   207253   207361   207401   207373 
  207372   207455   207565   207623   207609   207542   207465   207414 
  207397   207404   207409   207384   207333   207287   207274   207283 
  207276   207261   207250   207235   207230   207231   207231   207268 
  207353   207446   207507   207515   207482   207457   207459   207480 
  207504   207490   207420   207326   207235   207164   207135   207156 
  207212   207246   207231   207242   207299   207331   207326   207324 
  207349   207397   207439   207424   207349   207247   207177   207199 
  207266   207272   207238   207262   207343   207409   207443   207488 
  207555   207573   207503   207412   207350   207291   207206   207127 
  207092   207091   207119   207171   207231   207295   207350   207384 
  207381   207334   207296   207324   207392   207481   207598   207701 
  207747   207748   207723   207671   207597   207513   207414   207272 
  207107   206971   206906   206906   206925   206971   207075   207204 
  207301   207342   207370   207423   207447   207418   207372   207338 
  207354   207416   207472   207519   207578   207615   207588   207486 
  207357   207257   207223   207277   207388   207458   207423   207351 
  207342   207357   207316   207250   207214   207212   207231   207269 
  207330   207403   207445   207423   207353   207274   207191   207135 
  207153   207200   207223   207245   207269   207283   207295   207326 
  207377   207422   207457   207511   207577   207615   207620   207590 
  207503   207385   207310   207303   207343   207389   207400   207385 
  207366   207353   207361   207362   207314   207272   207291   207304 
  207304   207355   207431   207468   207472   207461   207420   207341 
  207230   207119   207063   207058   207096   207169   207229   207266 
  207308   207345   207372   207382   207351   207310   207323   207387 
  207419   207401   207381   207366   207355   207362   207353   207292 
  207219   207172   207153   207179   207243   207291   207301   207316 
  207343   207350   207334   207343   207368   207351   207331   207357 
  207377   207368   207372   207420   207505   207571   207576   207550 
  207517   207476   207441   207416   207401   207403   207392   207337 
  207274   207231   207158   207060   207018   207050   207103   207166 
  207241   207307   207361   207420   207482   207515   207490   207431 
  207368   207307   207247   207198   207176   207216   207314   207399 
  207414   207376   207349   207351   207337   207281   207247   207291 
  207391   207507   207605   207652   207646   207590   207505   207443 
  207434   207432   207397   207328   207245   207193   207212   207266 
  207281   207239   207173   207111   207081   207094   207134   207215 
  207333   207431   207484   207508   207532   207561   207561   207517 
  207458   207397   207350   207358   207414   207465   207486   207468 
  207409   207357   207323   207280   207231   207202   207176   207153 
  207173   207239   207285   207262   207211   207216   207291   207358 
  207358   207310   207250   207215   207243   207335   207445   207515 
  207524   207493   207447   207404   207384   207385   207407   207447 
  207474   207439   207354   207296   207291   207295   207277   207247 
  207237   207252   207231   207164   207129   207148   207180   207216 
  207243   207249   207266   207292   207311   207345   207385   207399 
  207408   207443   207485   207530   207577   207574   207511   207436 
  207395   207384   207380   207353   207319   207297   207266   207234 
  207230   207245   207266   207285   207277   207247   207231   207230 
  207242   207295   207373   207424   207438   207434   207388   207307 
  207262   207269   207277   207269   207261   207274   207316   207364 
  207412   207470   207509   207516   207503   207465   207423   207399 
  207395   207400   207404   207407   207419   207435   207455   207455 
  207420   207396   207397   207376   207333   207322   207339   207330 
  207289   207269   207276   207289   207299   207272   207193   207118 
  207122   207212   207323   207408   207458   207481   207500   207516 
  207515   207505   207482   207434   207369   207310   207284   207300 
  207311   207293   207276   207274   207266   207246   207231   207223 
  207218   207222   207234   207241   207246   207274   207322   207351 
  207360   207376   207399   207405   207396   207370   207335   207328 
  207358   207391   207409   207404   207369   207339   207341   207338 
  207304   207272   207264   207261   207249   207239   207238   207245 
  207258   207270   207284   207318   207369   207401   207409   207414 
  207400   207381   207373   207360   207346   207346   207350   207347 
  207350   207376   207416   207441   207415   207357   207335   207361 
  207370   207338   207323   207353   207370   207347   207334   207361 
  207403   207424   207412   207378   207357   207347   207343   207349 
  207349   207334   207327   207347   207360   207338   207308   207284 
  207283   207322   207365   207381   207392   207407   207407   207369 
  207308   207280   207287   207289   207281   207274   207261   207235 
  207204   207185   207176   207173   207195   207234   207247   207264 
  207334   207414   207457   207477   207481   207474   207473   207481 
  207492   207504   207497   207443   207374   207337   207306   207258 
  207231   207233   207243   207260   207270   207287   207320   207355 
  207373   207373   207360   207345   207361   207408   207449   207462 
  207453   207430   207393   207349   207303   207245   207177   207144 
  207154   207177   207203   207245   207310   207377   207397   207364 
  207333   207335   207355   207377   207408   207458   207511   207555 
  207589   207582   207517   207422   207330   207268   207237   207227 
  207239   207269   207292   207292   207288   207287   207270   207264 
  207297   207342   207360   207353   207331   207316   207333   207369 
  207382   207362   207353   207392   207459   207509   207523   207492 
  207428   207366   207326   207293   207254   207212   207185   207177 
  207187   207225   207273   207303   207311   207296   207273   207285 
  207326   207349   207354   207373   207418   207470   207497   207480 
  207438   207392   207351   207353   207397   207414   207382   207358 
  207351   207330   207296   207287   207297   207299   207277   207239 
  207226   207264   207316   207347   207364   207388   207415   207411 
  207378   207342   207306   207279   207281   207299   207301   207293 
  207291   207310   207342   207346   207323   207295   207258   207229 
  207245   207299   207355   207378   207378   207392   207408   207403 
  207393   207382   207366   207373   207408   207426   207403   207365 
  207335   207343   207364   207349   207319   207318   207347   207396 
