Origin Time       2025/03/28 03:50:00
Lat.              35.403
Long.             140.360
Depth. (km)       54
Mag.              4.4
Station Code      KNGH21
Station Lat.      35.4628
Station Long.     139.2146
Station Height(m) 455
Record Time       2025/03/28 03:51:10
Sampling Freq(Hz) 100Hz
Duration Time(s)  120
Dir.              6
Scale Factor      7845(gal)/8223790
Max. Acc. (gal)   0.466
Last Correction   2025/03/28 03:51:10
Memo.             
[...]
     193      189      195      203      205      194      189      197 
     205      199      190      189      193      198      202      197 
     190      197      201      191      187      194      194      197 
     205      201      197      198      198      198      198      197 
     207      218      221      217      205      199      199      190 
     187      197      207      218      213      191      174      170 
     179      201      224      238      232      203      168      139 
     133      164      203      226      225      189      136       89 
      63       72      125      194      238      253      257      253 
     259      275      282      272      243      198      170      174 
     180      183      182      160      153      187      211      184 
     140      151      224      261      221      162      117      108 
     140      168      182      162       75       27      102      213 
     313      367      310      226      209      220      220      184 
     141      178      276      345      314      203      103       58 
     113      244      297      248      217      221      178       78 
      36       85      163      255      287      216      163      170 
     172      186      179      140      184      272      305      345 
     368      317      211       82       40       95      162      259 
     322      287      207       94        2       44      163      248 
     305      305      236      214      252      226      129       56 
      31       68      180      257      257      245      202      167 
     187      186      172      182      206      292      361      305 
     187       63       -1       81      199      288      392      387 
     253      118      -37      -83      133      371      449      387 
     207       62       12       -1       39      128      274      429 
     419      294      176       25      -89      -49      141      446 
     677      626      360       49     -178     -261     -175      112 
     440      548      450      294      120        5       31      144 
     309      450      415      257      101      -25      -51       25 
     151      267      276      198      148      183      260      278 
     245      203      182      232      243      194      229      233 
     155      105       18      -21      108      247      340      438 
     438      340      198       24      -68      -16      112      263 
     375      400      359      248       78      -74      -89       75 
     305      464      468      305       68     -118     -145       21 
     268      442      483      386      182       44       52       91 
     160      263      317      353      352      271      209      175 
      98       67      116      176      275      333      237       82 
       8       76      217      272      264      259      218      163 
     135      110      114      143      153      194      264      301 
     278      182       86      102      193      243      257      307 
     371      340      189       17      -55       27      203      317 
     330      286      230      238      280      279      230      143 
      67       56       94      116       98      137      265      368 
     355      206        9      -47       66      217      365      469 
     400      209       37      -40      -12       76      230      394 
     419      313      179       85       90      159      214      264 
     268      195      160      175      162      175      232      232 
     198      178      145      148      183      176      189      205 
     170      179      205      167      162      226      292      317 
     232       97       58      106      175      252      278      222 
     162      147      160      213      305      336      288      238 
     156       76      120      197      207      220      226      220 
     236      193      116      137      211      224      170      125 
     149      182      167      179      244      295      307      263 
     180      159      178      162      180      229      226      236 
     247      172       98       74       85      139      198      256 
     313      317      283      189       47        6       62      118 
     220      334      371      332      221       99       76      155 
     257      311      301      274      252      193       63      -66 
     -66       89      272      330      270      191      124      109 
     199      322      396      387      276      136       39       27 
     116      201      229      259      260      237      216      152 
     116      166      217      259      332      346      217       66 
      43      101      160      217      211      159      143      137 
     130      170      249      329      355      301      175       32 
       4      102      222      311      310      249      217      160 
      83       68      130      255      365      392      368      283 
     137       10      -39       16      172      329      394      345 
     191        9      -60       52      236      329      326      265 
     180      144      164      199      233      225      191      203 
     211      140       52       48      136      268      386      417 
     346      209       22     -118      -95       83      318      502 
     531      409      221       17     -122      -93       70      275 
     452      481      395      271       94      -37      -39       41 
     211      398      442      344      178       43       21       62 
     126      232      321      351      341      314      255      168 
      98       74       85      120      145      160      222      302 
     324      302      228       95       22       62      122      170 
     201      167      133      172      201      174      157      172 
     217      264      263      226      205      211      197      145 
     126      172      278      383      392      291      109      -74 
    -126      -28      164      378      508      511      373      113 
    -120     -190     -129       29      257      441      508      465 
     306      110       18       49      129      224      313      326 
     272      201      135      156      272      365      383      315 
     180       75       79      171      267      309      283      233 
     213      209      186      176      187      175      151      130 
     121      120       98       93      141      171      156      186 
     234      225      187      170      164      180      241      324 
     348      278      164       75       54      126      241      288 
     267      243      207      170      153      170      247      302 
     230      102        9       -1       89      222      309      317 
     283      211       78      -52      -67       70      278      417 
     421      334      224      110       25       37      155      326 
     490      503      333      141      -18     -122      -49      126 
     259      344      359      294      211      129       48       21 
      62      155      298      415      405      271      126       45 
       0       16      141      283      378      427      390      271 
     156      113      126      153      175      183      211      252 
     248      207      171      151      157      191      251      297 
     306      297      229      102       16      -12       17      170 
     361      423      371      245       48      -83      -82       -4 
     144      283      330      342      310      183       54       40 
     118      222      341      403      313      137        5       -2 
     168      405      491      415      270       79      -35       13 
     116      224      341      371      287      153       55       89 
     225      336      351      267      155       78       35       43 
     108      214      321      369      352      280      174       66 
     -25      -16      153      363      430      341      202       86 
      37       85      176      256      307      291      197       95 
      18        2      126      294      386      414      333      180 
      90       47       27       76      175      291      395      406 
     292      172      137      137      140      178      238      267 
     225      124       36       70      199      318      380      329 
     163       27        2       59      155      203      187      170 
     182      229      280      276      222      141       86      144 
     271      344      336      284      202      103       27       18 
      90      182      234      252      248      234      238      222 
     167      139      137      156      232      310      322      287 
     220      144      122      145      152      178      240      275 
     280      252      163       63       21       54      159      326 
     456      432      274       62      -98      -91       60      270 
     491      591      452      170      -72     -175      -90      145 
     382      477      396      207       55        6       54      175 
     305      372      342      230       95       -1        0      108 
     270      411      434      302      117        0        9      137 
     298      399      432      379      199       -8      -86      -32 
      79      182      249      305      310      244      149       83 
     112      217      315      351      297      216      151       89 
      64       91      160      272      324      259      180      140 
     136      191      278      318      315      283      180       72 
      68      126      199      264      249      190      148       95 
      66       83      110      145      194      259      313      282 
     182      126      153      228      290      302      259      167 
     109      156      222      224      167       74       54      151 
     232      284      356      356      264      155       55       28 
     101      206      294      333      295      224      168      153 
     197      240      225      178      133      124      151      174 
     187      230      287      291      252      203      128       71 
      91      156      240      292      279      270      274      233 
     155       72       17       27      105      224      310      338 
     359      332      224      106       33       28      130      283 
     371      349      225       86       49       85      148      217 
     228      259      328      314      234      130        1      -29 
      83      230      367      444      364      213      135      110 
      99       79       27       32      184      392      508      453 
     264       59      -75      -95       21      198      329      411 
     395      236       63       -9       22      155      279      322 
     349      318      202       83        1       13      137      292 
     429      487      391      197       31      -55      -36      105 
     271      361      355      256      143       52      -17        8 
     128      255      338      329      218      106       93      171 
     260      319      346      325      251      145       55       36 
     129      280      382      405      376      288      139      -21 
     -66       36      160      222      216      186      197      206 
     190      187      194      232      298      322      328      351 
     342      271      145       40       20       52      105      176 
     221      214      186      167      172      176      189      238 
     294      294      230      162      110       82      106      168 
     268      378      369      233       68      -20       40      170 
     256      257      183      132      112       87      149      261 
     305      283      191       52       14      113      241      315 
     284      172       99      113      168      230      263      263 
     238      207      236      329      405      419      319      112 
     -36      -14      151      361      490      479      326       79 
    -102     -108       21      186      302      340      305      206 
      70      -10       52      233      395      445      361      180 
      51       74      159      189      143       67       37       82 
     135      122       75       76      155      234      265      257 
     229      238      317      400      422      329      171       79 
      58       20      -43      -22      175      413      491      406 
     240      121      180      313      321      220      105       18 
      24       98      156      195      210      189      189      218 
     274      353      373      272      130       75      129      217 
     263      224      180      189      163      116      112      136 
     189      245      288      341      333      205       62       56 
     207      372      391      257       89      -21      -45        6 
      97      170      218      257      274      234      151      113 
     167      259      349      413      433      387      237       75 
      31       99      248      386      379      286      211      135 
      36      -75     -178     -198     -118       -2      113      222 
     294      382      542      623      540      372      167       24 
      17       87      211      305      256      102      -62     -105 
      24      214      386      464      400      278      153       32 
     -47      -14      178      471      683      641      345       -5 
    -202     -166       62      368      598      623      463      221 
      -1     -136     -159      -67      120      278      319      274 
     163       43      -12       10       74      118      153      214 
     247      232      214      225      270      324      361      330 
     224      139      147      244      357      391      322      195 
      70      -14      -33       33      132      217      306      352 
     311      248      148       -4      -72       -9      141      328 
     390      292      216      220      217      194      213      265 
     333      410      418      326      166      -37     -176     -113 
     112      311      346      260      157       83       58       79 
     122      201      332      417      375      263      136       76 
     156      249      241      206      198      206      249      329 
     365      306      194       90       29       39       81       98 
     148      253      317      306      240      117       29       37 
      94      168      253      310      328      321      270      143 
      -2      -28       87      228      322      355      340      305 
     210       67        8       71      183      302      356      275 
     170      147      170      236      325      382      391      315 
     179       62      -14      -12      108      284      395      357 
     184      -40     -198     -167       25      236      384      464 
     469      363      176       35       20      106      209      251 
     251      190       41      -81      -63      101      346      538 
     567      394      102     -124     -202     -105      139      383 
     531      561      461      286      109        2       37      205 
     399      464      376      207        6     -103      -43      141 
     334      398      303      149       47       48       81      102 
     171      270      355      380      288      164      118      139 
     198      251      288      332      303      201       95       41 
      85      229      413      495      382      166      -33     -126 
     -40      139      276      336      288      157       64       67 
     133      243      344      367      311      221      105      -10 
     -41        9       58      128      220      252      252      255 
     237      217      189      143      140      183      213      240 
     264      270      256      193       98       58      114      255 
     387      402      317      220      120       31       24       89 
     144      166      168      155      137      124      136      213 
     324      395      409      379      341      294      217      156 
     117       83      105      170      230      256      205      129 
     101      103      125      152      176      209      228      217 
     164       74       55      151      280      379      394      306 
     183       99       91      135      187      238      286      288 
     234      167      136      151      187      220      267      336 
     367      332      229       81       12       63      130      176 
     225      257      271      248      180      121      103      128 
     179      228      249      244      237      222      182      140 
     156      225      272      229      105       -6      -31       48 
     184      311      391      353      202       78       48      105 
     217      297      298      257      187       86       12       45 
     178      322      423      449      378      263      155       76 
     108      267      413      422      270       21     -168     -172 
     -10      206      364      394      303      145       -5      -52 
      27      147      241      298      303      261      205      143 
     113      125      157      232      313      317      248      137 
      55       81      171      253      325      353      288      149 
      33       43      149      282      390      411      357      257 
     118       17       27      108      209      299      342      318 
     225       99       -4      -18       87      243      353      380 
     306      193      112       44       24       99      241      394 
     444      344      179       58       64      203      359      436 
     378      225      109       37      -18       -2       74      184 
     294      309      238      157       87       47       76      180 
     278      286      240      175      101       82      120      143 
     172      240      314      373      367      279      211      201 
     205      221      228      201      167      153      193      275 
     290      218      140       94      117      202      259      247 
     213      184      159      167      187      178      157      113 
      52       60      118      164      210      213      166      151 
     175      191      198      211      218      206      218      271 
     305      244      126       85      153      274      368      334 
     194      101      106      186      286      318      283      220 
     149      114      113      118      144      198      257      283 
     244      145       74       85      106      125      186      234 
     252      251      201      153      133       99       97      163 
     270      355      360      301      205      109       81      141 
     243      319      330      276      189      135      160      236 
     280      240      162      124      136      171      195      191 
     186      172      144      130      120      137      214      267 
     251      184       89       59      106      149      202      252 
     245      240      278      299      270      210      174      202 
     245      263      260      218      163      132       97       78 
