Origin Time       2025/03/28 03:50:00
Lat.              35.403
Long.             140.360
Depth. (km)       54
Mag.              4.4
Station Code      KNGH20
Station Lat.      35.3663
Station Long.     139.1260
Station Height(m) 359.5
Record Time       2025/03/28 03:51:10
Sampling Freq(Hz) 100Hz
Duration Time(s)  120
Dir.              3
Scale Factor      2942(gal)/8224139
Max. Acc. (gal)   0.112
Last Correction   2025/03/28 03:51:10
Memo.             
[...]
  179687   179690   179687   179686   179690   179687   179685   179687 
  179687   179686   179687   179687   179686   179687   179687   179686 
  179686   179686   179687   179685   179685   179685   179686   179686 
  179686   179689   179690   179685   179685   179687   179685   179686 
  179687   179685   179683   179685   179686   179686   179686   179687 
  179686   179683   179683   179687   179685   179683   179686   179687 
  179687   179687   179687   179687   179686   179686   179685   179685 
  179682   179679   179679   179683   179683   179682   179683   179683 
  179680   179679   179683   179686   179683   179679   179679   179680 
  179679   179676   179676   179679   179679   179679   179678   179676 
  179679   179680   179679   179679   179679   179679   179682   179682 
  179680   179682   179680   179680   179685   179685   179685   179686 
  179685   179689   179694   179690   179685   179686   179685   179682 
  179683   179686   179685   179683   179682   179683   179683   179680 
  179679   179679   179680   179682   179683   179686   179686   179683 
  179682   179683   179682   179678   179679   179685   179685   179682 
  179680   179679   179675   179672   179671   179674   179675   179676 
  179675   179675   179674   179674   179675   179675   179672   179671 
  179672   179675   179678   179678   179676   179674   179676   179679 
  179680   179683   179689   179691   179694   179698   179702   179707 
  179713   179721   179734   179752   179767   179775   179776   179770 
  179757   179745   179736   179730   179732   179730   179718   179690 
  179652   179614   179583   179567   179562   179560   179558   179550 
  179536   179516   179501   179521   179577   179632   179662   179659 
  179629   179599   179591   179601   179614   179633   179659   179698 
  179756   179806   179825   179810   179783   179760   179722   179670 
  179659   179698   179721   179702   179672   179659   179671   179705 
  179745   179779   179798   179784   179747   179730   179732   179698 
  179633   179579   179541   179540   179635   179757   179771   179685 
  179604   179598   179653   179682   179649   179624   179635   179640 
  179644   179676   179702   179702   179682   179645   179647   179698 
  179747   179775   179753   179691   179658   179653   179648   179666 
  179699   179712   179702   179709   179768   179821   179776   179680 
  179597   179547   179604   179748   179817   179772   179724   179675 
  179609   179610   179668   179685   179667   179651   179628   179621 
  179663   179749   179820   179820   179770   179705   179641   179594 
  179574   179595   179644   179670   179660   179656   179671   179676 
  179651   179610   179602   179668   179760   179790   179761   179697 
  179617   179574   179583   179629   179703   179768   179787   179748 
  179706   179722   179757   179772   179771   179730   179660   179609 
  179606   179663   179710   179663   179589   179591   179670   179783 
  179849   179824   179766   179717   179680   179663   179631   179579 
  179554   179574   179631   179674   179679   179710   179751   179702 
  179626   179610   179601   179622   179691   179698   179626   179581 
  179622   179721   179766   179736   179706   179705   179732   179779 
  179790   179764   179753   179722   179641   179595   179637   179713 
  179764   179766   179728   179701   179685   179672   179701   179748 
  179749   179714   179690   179699   179726   179697   179568   179444 
  179462   179593   179695   179720   179695   179653   179631   179639 
  179647   179635   179624   179656   179730   179779   179768   179721 
  179656   179598   179599   179656   179695   179703   179743   179814 
  179840   179794   179734   179703   179679   179647   179635   179662 
  179695   179676   179620   179617   179651   179678   179712   179699 
  179645   179647   179670   179633   179586   179601   179667   179710 
  179670   179594   179586   179668   179763   179817   179834   179818 
  179772   179721   179667   179614   179594   179635   179695   179706 
  179674   179648   179647   179693   179759   179770   179729   179687 
  179660   179640   179598   179541   179521   179566   179649   179706 
  179710   179699   179697   179691   179683   179671   179662   179653 
  179632   179618   179639   179675   179706   179718   179714   179740 
  179779   179761   179682   179633   179663   179707   179721   179744 
  179788   179806   179756   179699   179697   179686   179626   179575 
  179568   179605   179678   179737   179730   179701   179712   179753 
  179783   179755   179671   179587   179532   179520   179570   179624 
  179645   179676   179725   179739   179706   179683   179702   179722 
  179710   179685   179664   179656   179672   179686   179667   179660 
  179698   179725   179709   179699   179706   179686   179649   179641 
  179670   179710   179732   179729   179701   179655   179631   179633 
  179625   179617   179651   179691   179680   179651   179653   179678 
  179698   179690   179667   179672   179695   179685   179643   179620 
  179635   179655   179670   179694   179728   179756   179778   179775 
  179753   179743   179736   179697   179640   179610   179616   179636 
  179647   179633   179626   179637   179622   179605   179651   179736 
  179771   179737   179706   179712   179697   179666   179670   179685 
  179683   179682   179689   179716   179745   179740   179720   179729 
  179739   179706   179656   179616   179601   179629   179670   179689 
  179698   179697   179671   179639   179625   179639   179680   179706 
  179675   179632   179636   179667   179682   179670   179647   179644 
  179671   179691   179675   179649   179655   179705   179757   179760 
  179726   179720   179732   179724   179705   179686   179685   179705 
  179697   179658   179643   179658   179682   179699   179702   179687 
  179667   179651   179629   179594   179583   179622   179676   179717 
  179724   179690   179671   179707   179757   179771   179740   179703 
  179699   179701   179686   179678   179680   179689   179716   179745 
  179737   179701   179667   179648   179644   179667   179697   179698 
  179662   179633   179644   179668   179667   179643   179635   179655 
  179675   179671   179656   179660   179683   179691   179671   179645 
  179644   179664   179690   179714   179733   179752   179763   179734 
  179680   179647   179651   179671   179680   179676   179671   179680 
  179693   179691   179668   179645   179655   179697   179749   179798 
  179825   179794   179722   179672   179659   179647   179636   179645 
  179659   179668   179687   179703   179676   179608   179548   179533 
  179552   179579   179595   179624   179659   179656   179648   179685 
  179739   179783   179795   179755   179705   179691   179691   179701 
  179729   179751   179753   179756   179763   179756   179720   179663 
  179626   179631   179658   179695   179725   179716   179685   179682 
  179701   179701   179690   179701   179716   179717   179718   179716 
  179721   179744   179748   179718   179695   179687   179691   179717 
  179721   179690   179679   179687   179675   179658   179666   179686 
  179699   179710   179697   179647   179587   179550   179547   179568 
  179594   179613   179624   179639   179651   179637   179616   179643 
  179705   179749   179766   179760   179739   179705   179675   179680 
  179701   179702   179698   179716   179755   179788   179788   179766 
  179741   179714   179685   179653   179629   179628   179656   179686 
  179682   179668   179676   179687   179683   179679   179690   179712 
  179710   179682   179651   179620   179608   179625   179644   179659 
  179671   179659   179644   179648   179629   179572   179537   179566 
  179622   179645   179626   179602   179597   179609   179626   179644 
  179682   179747   179793   179787   179748   179699   179670   179671 
  179682   179697   179709   179716   179730   179748   179744   179730 
  179725   179725   179718   179713   179729   179763   179782   179774 
  179757   179753   179751   179734   179702   179680   179703   179733 
  179725   179716   179732   179744   179722   179679   179660   179678 
  179703   179726   179730   179705   179675   179676   179707   179748 
  179753   179710   179671   179686   179709   179695   179670   179622 
  179537   179474   179463   179486   179541   179616   179655   179660 
  179667   179671   179632   179572   179568   179618   179641   179621 
  179610   179629   179645   179647   179649   179658   179664   179672 
  179683   179691   179701   179714   179728   179743   179770   179801 
  179795   179734   179676   179683   179728   179757   179756   179740 
  179728   179732   179748   179763   179756   179706   179622   179568 
  179574   179597   179604   179606   179601   179577   179566   179591 
  179621   179664   179736   179771   179761   179763   179741   179664 
  179622   179647   179682   179713   179747   179774   179790   179783 
  179756   179726   179702   179706   179760   179834   179868   179825 
  179745   179709   179716   179716   179693   179656   179625   179617 
  179621   179614   179613   179602   179564   179537   179537   179545 
  179555   179544   179528   179558   179620   179651   179641   179637 
  179668   179701   179699   179678   179668   179682   179713   179748 
  179761   179760   179787   179822   179799   179716   179636   179612 
  179648   179707   179737   179730   179712   179693   179695   179717 
  179724   179714   179695   179675   179659   179633   179595   179586 
  179614   179613   179577   179599   179685   179747   179756   179728 
  179701   179718   179778   179820   179795   179722   179674   179690 
  179743   179767   179753   179755   179761   179741   179721   179721 
  179721   179705   179666   179610   179570   179559   179583   179626 
  179635   179601   179581   179598   179633   179658   179662   179653 
  179647   179632   179617   179640   179694   179736   179748   179736 
  179705   179680   179678   179664   179644   179653   179676   179674 
  179652   179647   179672   179705   179706   179693   179710   179743 
  179751   179724   179679   179643   179632   179647   179668   179685 
  179705   179717   179706   179698   179707   179720   179724   179722 
  179717   179693   179649   179612   179597   179606   179628   179644 
  179652   179666   179699   179739   179733   179691   179668   179668 
  179664   179652   179644   179656   179670   179662   179645   179656 
  179691   179707   179693   179683   179687   179674   179655   179660 
  179658   179633   179636   179655   179670   179703   179733   179714 
  179689   179703   179716   179683   179652   179640   179616   179614 
  179674   179728   179720   179685   179660   179655   179685   179720 
  179716   179689   179674   179680   179712   179740   179734   179714 
  179712   179726   179734   179728   179720   179698   179653   179621 
  179621   179658   179717   179740   179706   179670   179659   179666 
  179680   179690   179695   179699   179705   179717   179722   179705 
  179687   179699   179730   179756   179771   179764   179721   179663 
  179624   179618   179653   179695   179694   179652   179609   179582 
  179571   179583   179614   179662   179716   179751   179744   179703 
  179668   179653   179624   179594   179606   179636   179668   179710 
  179729   179718   179712   179710   179713   179729   179749   179752 
  179752   179763   179753   179720   179695   179693   179702   179712 
  179718   179718   179717   179724   179747   179776   179784   179751 
  179705   179668   179635   179625   179639   179629   179618   179636 
  179648   179636   179614   179593   179574   179583   179629   179664 
  179652   179620   179609   179612   179610   179613   179640   179683 
  179720   179755   179790   179803   179801   179791   179757   179739 
  179774   179820   179825   179795   179766   179761   179757   179722 
  179676   179652   179652   179658   179655   179629   179583   179547 
  179531   179517   179509   179535   179594   179662   179691   179676 
  179660   179659   179664   179685   179718   179755   179779   179798 
  179828   179833   179787   179714   179662   179664   179698   179702 
  179687   179693   179695   179670   179620   179579   179572   179581 
  179599   179633   179658   179653   179617   179571   179540   179531 
  179540   179571   179636   179698   179728   179753   179776   179753 
  179703   179689   179706   179717   179697   179649   179635   179680 
  179749   179813   179863   179902   179926   179925   179890   179832 
  179774   179730   179706   179697   179689   179666   179632   179618 
  179635   179671   179703   179720   179736   179748   179721   179668 
  179626   179602   179581   179567   179575   179609   179666   179714 
  179722   179710   179712   179733   179763   179793   179826   179847 
  179829   179782   179737   179702   179645   179571   179520   179490 
  179475   179505   179548   179550   179537   179564   179610   179656 
  179703   179721   179713   179725   179764   179807   179832   179818 
  179784   179770   179776   179786   179782   179753   179691   179610 
  179556   179562   179604   179617   179614   179644   179686   179686 
  179645   179606   179593   179581   179560   179548   179543   179541 
  179558   179578   179594   179586   179510   179427   179431   179478 
  179517   179581   179666   179736   179794   179822   179805   179801 
  179852   179915   179967   179995   179990   179976   179967   179937 
  179913   179921   179933   179914   179859   179782   179712   179685 
  179674   179626   179554   179518   179535   179560   179572   179558 
  179514   179483   179505   179563   179636   179720   179786   179797 
  179774   179745   179666   179531   179446   179459   179521   179582 
  179602   179581   179563   179562   179558   179582   179648   179721 
  179759   179744   179699   179687   179747   179851   179934   179969 
  179980   179982   179936   179817   179685   179621   179617   179610 
  179594   179616   179674   179717   179713   179664   179606   179585 
  179639   179749   179826   179821   179787   179745   179663   179568 
  179520   179521   179562   179614   179622   179595   179571   179541 
  179513   179506   179502   179473   179474   179536   179595   179618 
  179628   179631   179625   179625   179666   179739   179801   179820 
  179799   179779   179794   179811   179790   179768   179794   179834 
  179869   179906   179921   179878   179793   179724   179702   179710 
  179703   179679   179653   179631   179608   179585   179574   179590 
  179645   179686   179663   179622   179602   179601   179629   179653 
  179649   179670   179730   179778   179778   179748   179721   179712 
  179717   179733   179734   179699   179667   179653   179612   179536 
  179491   179510   179563   179614   179645   179674   179713   179749 
  179766   179751   179712   179706   179761   179842   179898   179913 
  179895   179863   179805   179694   179571   179520   179558   179617 
  179643   179651   179670   179676   179648   179610   179593   179601 
  179608   179608   179625   179645   179644   179656   179697   179729 
  179741   179743   179733   179718   179705   179695   179685   179685 
  179697   179702   179691   179668   179645   179635   179617   179589 
  179567   179560   179581   179621   179639   179633   179628   179621 
  179635   179674   179694   179675   179651   179645   179656   179671 
  179706   179761   179805   179818   179818   179826   179840   179820 
  179756   179691   179641   179595   179564   179563   179581   179581 
  179567   179572   179590   179613   179643   179674   179689   179682 
  179660   179639   179632   179647   179655   179635   179614   179637 
  179707   179799   179876   179894   179845   179775   179741   179747 
  179748   179745   179749   179725   179679   179666   179672   179671 
  179682   179716   179741   179736   179710   179676   179653   179667 
  179675   179641   179609   179616   179644   179674   179703   179736 
  179753   179744   179739   179760   179775   179753   179722   179714 
  179725   179726   179694   179668   179674   179660   179604   179563 
  179575   179614   179651   179683   179710   179722   179713   179685 
  179648   179635   179674   179740   179770   179756   179734   179716 
  179695   179666   179644   179645   179658   179652   179612   179558 
  179536   179535   179513   179481   179479   179523   179587   179628 
  179624   179606   179597   179589   179587   179605   179651   179709 
  179741   179757   179795   179847   179868   179825   179752   179718 
  179720   179733   179757   179776   179797   179834   179865   179853 
  179817   179784   179753   179725   179714   179718   179714   179709 
  179721   179737   179737   179707   179667   179658   179655   179624 
  179591   179589   179617   179667   179706   179706   179680   179659 
  179653   179648   179621   179587   179575   179583   179582   179559 
  179541   179558   179595   179605   179586   179564   179550   179552 
  179570   179586   179614   179670   179737   179801   179840   179856 
  179878   179899   179890   179864   179849   179842   179830   179803 
  179784   179786   179794   179779   179726   179671   179658   179663 
  179643   179618   179616   179618   179612   179605   179617   179651 
  179676   179679   179667   179631   179586   179571   179568   179563 
  179589   179649   179698   179710   179694   179667   179653   179676 
  179716   179716   179672   179664   179703   179717   179701   179712 
  179717   179672   179618   179599   179625   179674   179710   179734 
  179764   179787   179797   179791   179776   179772   179788   179786 
  179764   179753   179743   179713   179685   179690   179714   179728 
  179741   179771   179779   179730   179644   179581   179568   179585 
  179598   179612   179624   179628   179617   179602   179587   179578 
  179577   179582   179598   179616   179633   179664   179685   179682 
  179683   179697   179707   179706   179707   179717   179720   179705 
  179682   179655   179624   179589   179548   179523   179544   179595 
  179632   179667   179713   179741   179737   179709   179686   179699 
  179739   179784   179825   179864   179887   179860   179784   179721 
  179712   179734   179753   179751   179745   179737   179717   179706 
  179737   179772   179768   179741   179709   179668   179628   179612 
  179618   179617   179601   179590   179579   179559   179547   179551 
  179575   179621   179663   179668   179652   179656   179682   179694 
  179678   179671   179697   179707   179671   179636   179636   179651 
  179667   179698   179734   179753   179749   179736   179712   179679 
  179655   179641   179622   179608   179595   179578   179594   179656 
  179709   179716   179695   179687   179701   179726   179757   179782 
  179797   179801   179795   179795   179806   179810   179793   179770 
  179743   179706   179702   179739   179756   179734   179712   179691 
  179655   179617   179595   179585   179583   179587   179587   179589 
  179590   179586   179593   179626   179675   179713   179730   179730 
  179718   179695   179647   179593   179581   179606   179648   179698 
  179747   179763   179736   179693   179662   179643   179628   179624 
