Origin Time       2025/03/28 03:50:00
Lat.              35.403
Long.             140.360
Depth. (km)       54
Mag.              4.4
Station Code      KNGH11
Station Lat.      35.4040
Station Long.     139.3539
Station Height(m) 12
Record Time       2025/03/28 03:51:06
Sampling Freq(Hz) 100Hz
Duration Time(s)  120
Dir.              6
Scale Factor      3920(gal)/6170801
Max. Acc. (gal)   0.448
Last Correction   2025/03/28 03:50:51
Memo.             
[...]
  -14961   -14969   -14982   -14995   -14999   -15005   -15003   -14994 
  -15003   -15011   -15019   -15036   -15045   -15050   -15055   -15054 
  -15044   -15030   -15016   -15008   -15000   -14993   -14997   -14996 
  -14986   -14986   -14985   -14973   -14979   -14992   -14985   -14977 
  -14974   -14964   -14968   -14982   -14986   -15003   -15016   -15012 
  -15014   -15023   -15040   -15061   -15075   -15080   -15065   -15041 
  -15024   -15006   -14987   -14975   -14963   -14955   -14954   -14950 
  -14951   -14958   -14971   -14984   -14985   -14992   -15007   -15015 
  -15021   -15032   -15035   -15030   -15036   -15040   -15037   -15036 
  -15028   -15011   -14994   -14986   -14982   -14989   -15002   -14997 
  -14980   -14975   -14975   -14974   -14986   -15001   -15003   -15007 
  -15016   -15023   -15027   -15035   -15050   -15056   -15051   -15046 
  -15037   -15024   -15014   -15004   -14988   -14966   -14947   -14941 
  -14943   -14954   -14966   -14975   -14984   -14990   -14993   -15003 
  -15017   -15021   -15015   -15012   -15019   -15022   -15024   -15037 
  -15050   -15050   -15041   -15034   -15019   -15002   -15001   -14998 
  -14988   -14984   -14977   -14970   -14972   -14976   -14986   -14992 
  -14983   -14974   -14960   -14945   -14944   -14950   -14948   -14945 
  -14942   -14939   -14946   -14961   -14974   -14985   -14991   -14996 
  -14994   -14987   -14991   -15011   -15029   -15035   -15017   -14977 
  -14936   -14911   -14905   -14928   -14987   -15055   -15098   -15117 
  -15120   -15111   -15109   -15133   -15186   -15246   -15274   -15262 
  -15232   -15202   -15161   -15082   -14955   -14837   -14808   -14902 
  -15085   -15283   -15379   -15310   -15134   -14942   -14813   -14784 
  -14823   -14868   -14908   -14945   -14949   -14896   -14799   -14699 
  -14658   -14724   -14899   -15126   -15297   -15328   -15255   -15154 
  -15013   -14818   -14638   -14557   -14592   -14733   -14950   -15134 
  -15190   -15154   -15117   -15102   -15079   -15012   -14898   -14803 
  -14825   -14990   -15212   -15361   -15361   -15237   -15079   -14955 
  -14893   -14899   -14934   -14957   -14944   -14915   -14947   -15053 
  -15161   -15168   -15012   -14772   -14643   -14736   -14944   -15151 
  -15308   -15308   -15123   -14917   -14857   -14971   -15139   -15210 
  -15109   -14882   -14729   -14840   -15128   -15296   -15192   -14945 
  -14753   -14673   -14692   -14828   -15003   -15090   -15137   -15245 
  -15370   -15371   -15194   -14938   -14708   -14589   -14620   -14706 
  -14779   -14864   -14964   -15113   -15312   -15468   -15518   -15391 
  -15063   -14736   -14656   -14845   -15146   -15329   -15243   -14984 
  -14781   -14748   -14851   -15026   -15180   -15196   -15082   -14996 
  -15030   -15116   -15132   -15029   -14854   -14708   -14662   -14714 
  -14812   -14921   -15072   -15277   -15438   -15448   -15321   -15135 
  -14954   -14849   -14818   -14782   -14742   -14748   -14808   -14927 
  -15082   -15179   -15154   -15038   -14945   -14977   -15112   -15225 
  -15221   -15116   -14980   -14871   -14806   -14794   -14869   -15033 
  -15209   -15311   -15327   -15270   -15129   -14909   -14684   -14547 
  -14515   -14567   -14707   -14920   -15137   -15266   -15281   -15207 
  -15086   -15017   -15059   -15104   -15070   -15014   -14953   -14863 
  -14822   -14877   -14980   -15080   -15113   -15090   -15130   -15213 
  -15206   -15105   -14992   -14934   -14954   -15008   -15053   -15069 
  -15003   -14857   -14774   -14852   -15027   -15156   -15137   -15023 
  -14984   -15012   -14961   -14886   -14917   -15000   -15072   -15095 
  -15020   -14951   -14976   -15020   -15040   -15025   -14973   -14952 
  -14980   -14993   -14947   -14897   -14925   -15000   -15048   -15046 
  -14987   -14922   -14932   -15011   -15098   -15141   -15119   -15066 
  -15033   -15050   -15101   -15129   -15094   -15037   -15047   -15131 
  -15161   -15021   -14767   -14562   -14493   -14562   -14765   -15040 
  -15258   -15357   -15337   -15184   -14956   -14792   -14776   -14909 
  -15097   -15194   -15167   -15083   -14978   -14916   -14977   -15109 
  -15183   -15181   -15177   -15193   -15169   -15069   -14945   -14863 
  -14840   -14869   -14920   -14960   -14984   -14976   -14924   -14904 
  -14971   -15046   -15048   -14970   -14847   -14764   -14759   -14791 
  -14872   -15033   -15178   -15206   -15172   -15131   -15063   -14995 
  -14957   -14967   -15085   -15281   -15387   -15293   -15081   -14905 
  -14833   -14812   -14771   -14724   -14711   -14760   -14912   -15126 
  -15273   -15285   -15204   -15109   -15055   -15020   -14943   -14854 
  -14854   -14968   -15105   -15153   -15101   -15012   -14938   -14898 
  -14870   -14830   -14838   -14940   -15035   -15036   -15011   -15039 
  -15123   -15217   -15220   -15097   -14974   -14927   -14915   -14936 
  -15017   -15121   -15191   -15185   -15100   -14980   -14836   -14674 
  -14594   -14661   -14825   -15011   -15128   -15173   -15211   -15201 
  -15130   -15078   -15064   -15099   -15183   -15228   -15200   -15127 
  -15003   -14912   -14917   -14900   -14816   -14738   -14708   -14818 
  -15068   -15284   -15358   -15274   -15063   -14860   -14789   -14851 
  -14969   -15046   -15056   -15039   -15011   -14976   -14964   -14964 
  -14954   -14945   -14919   -14894   -14907   -14914   -14905   -14938 
  -15013   -15070   -15054   -14948   -14852   -14870   -14952   -15023 
  -15077   -15101   -15094   -15074   -15064   -15056   -15019   -15001 
  -15040   -15101   -15156   -15142   -15022   -14904   -14863   -14858 
  -14870   -14893   -14904   -14948   -15060   -15184   -15246   -15188 
  -15024   -14875   -14853   -14985   -15176   -15266   -15190   -15012 
  -14851   -14829   -14933   -15023   -15060   -15102   -15125   -15105 
  -15084   -15086   -15109   -15100   -15027   -14941   -14874   -14857 
  -14912   -14946   -14923   -14907   -14878   -14854   -14907   -14985 
  -15003   -14941   -14828   -14771   -14803   -14863   -14938   -15000 
  -15015   -15025   -15036   -15052   -15098   -15082   -14995   -14959 
  -15005   -15124   -15280   -15343   -15264   -15124   -15040   -15086 
  -15191   -15234   -15191   -15088   -14960   -14847   -14768   -14739 
  -14758   -14812   -14907   -15005   -15077   -15151   -15182   -15122 
  -15012   -14905   -14867   -14915   -14956   -14962   -14993   -15039 
  -15055   -15029   -14977   -14955   -14994   -15041   -15042   -14992 
  -14955   -14979   -15004   -14999   -14961   -14871   -14829   -14922 
  -15058   -15160   -15207   -15189   -15141   -15077   -15022   -15011 
  -15009   -15030   -15078   -15078   -15082   -15140   -15145   -15070 
  -14941   -14790   -14747   -14807   -14850   -14884   -14946   -15027 
  -15134   -15219   -15227   -15161   -15055   -14977   -14962   -14978 
  -15019   -15045   -15034   -15004   -14952   -14890   -14843   -14818 
  -14829   -14849   -14817   -14754   -14720   -14755   -14857   -14969 
  -15044   -15053   -14994   -14953   -14984   -15042   -15072   -15054 
  -15059   -15184   -15360   -15418   -15299   -15042   -14777   -14671 
  -14717   -14825   -14948   -15038   -15100   -15169   -15204   -15178 
  -15098   -14983   -14894   -14887   -14972   -15073   -15083   -15018 
  -14964   -14962   -15006   -15039   -15035   -15040   -15072   -15127 
  -15170   -15103   -14951   -14881   -14970   -15127   -15216   -15176 
  -15037   -14878   -14802   -14863   -14991   -15073   -15084   -15044 
  -14981   -14967   -14980   -14918   -14835   -14828   -14878   -14944 
  -14972   -14948   -14935   -14928   -14903   -14915   -14990   -15092 
  -15180   -15205   -15185   -15159   -15103   -14989   -14840   -14715 
  -14702   -14838   -15061   -15281   -15429   -15475   -15402   -15233 
  -15040   -14864   -14739   -14721   -14800   -14907   -14985   -15006 
  -15004   -15011   -14990   -14943   -14934   -14968   -15021   -15064 
  -15053   -15008   -14974   -14969   -15006   -15078   -15169   -15260 
  -15271   -15161   -15016   -14918   -14870   -14865   -14825   -14706 
  -14633   -14689   -14809   -14950   -15083   -15154   -15164   -15128 
  -15069   -15064   -15083   -15008   -14862   -14790   -14894   -15142 
  -15350   -15358   -15207   -15029   -14916   -14879   -14894   -14972 
  -15105   -15220   -15280   -15244   -15071   -14863   -14730   -14664 
  -14638   -14669   -14790   -14976   -15126   -15164   -15123   -15068 
  -15043   -15036   -15018   -15007   -15022   -15035   -15053   -15075 
  -15023   -14885   -14776   -14773   -14871   -14973   -14967   -14885 
  -14824   -14834   -14961   -15160   -15307   -15361   -15331   -15203 
  -15003   -14783   -14592   -14519   -14611   -14848   -15136   -15306 
  -15311   -15267   -15251   -15299   -15366   -15309   -15156   -15089 
  -15094   -15061   -14948   -14719   -14465   -14368   -14478   -14736 
  -15015   -15165   -15195   -15221   -15263   -15273   -15168   -14936 
  -14758   -14728   -14751   -14853   -15108   -15407   -15606   -15625 
  -15435   -15178   -15026   -14952   -14875   -14784   -14735   -14798 
  -14885   -14848   -14703   -14572   -14582   -14792   -15100   -15342 
  -15432   -15362   -15181   -14972   -14803   -14694   -14659   -14706 
  -14825   -15016   -15270   -15507   -15575   -15366   -14959   -14595 
  -14485   -14664   -14963   -15187   -15250   -15165   -15027   -14959 
  -14988   -15006   -14914   -14813   -14824   -14871   -14876   -14901 
  -14991   -15120   -15240   -15292   -15260   -15173   -15054   -14937 
  -14848   -14790   -14789   -14887   -15062   -15258   -15411   -15411 
  -15237   -15019   -14855   -14796   -14847   -14952   -15097   -15259 
  -15311   -15195   -15011   -14827   -14684   -14621   -14572   -14554 
  -14692   -14961   -15220   -15382   -15377   -15174   -14922   -14824 
  -14904   -15036   -15126   -15157   -15160   -15154   -15147   -15113 
  -14991   -14803   -14668   -14676   -14817   -15004   -15129   -15161 
  -15183   -15186   -15101   -15028   -15040   -15027   -14933   -14802 
  -14684   -14694   -14897   -15160   -15318   -15337   -15262   -15158 
  -15049   -14907   -14772   -14747   -14842   -15005   -15160   -15151 
  -14927   -14696   -14661   -14806   -15016   -15176   -15167   -15004 
  -14832   -14786   -14945   -15173   -15213   -15089   -15023   -15061 
  -15092   -15049   -14963   -14936   -15021   -15113   -15108   -15085 
  -15126   -15171   -15164   -15090   -14964   -14884   -14903   -14929 
  -14893   -14855   -14876   -14947   -15031   -15061   -15037   -15042 
  -15089   -15125   -15145   -15152   -15143   -15119   -15064   -15002 
  -14985   -14972   -14904   -14823   -14804   -14854   -14933   -14979 
  -14934   -14865   -14913   -15036   -15075   -14998   -14890   -14851 
  -14903   -14970   -15001   -15024   -15055   -15087   -15138   -15169 
  -15128   -15073   -15029   -14968   -14937   -14966   -15006   -15046 
  -15093   -15139   -15138   -15048   -14906   -14785   -14744   -14785 
  -14861   -14936   -14978   -14969   -14981   -15076   -15202   -15272 
  -15258   -15226   -15213   -15167   -14999   -14727   -14552   -14628 
  -14863   -15052   -15074   -14983   -14930   -14994   -15130   -15247 
  -15275   -15189   -15050   -14978   -14974   -14918   -14814   -14765 
  -14829   -14985   -15142   -15206   -15173   -15112   -15052   -14953 
  -14835   -14779   -14824   -14969   -15136   -15188   -15070   -14848 
  -14671   -14684   -14875   -15095   -15226   -15254   -15220   -15153 
  -15081   -15032   -15000   -14975   -14946   -14923   -14936   -14963 
  -14995   -15058   -15123   -15131   -15096   -15074   -15077   -15057 
  -14985   -14883   -14783   -14749   -14817   -14918   -14963   -14937 
  -14867   -14764   -14646   -14567   -14610   -14825   -15118   -15333 
  -15435   -15454   -15386   -15279   -15173   -15043   -14920   -14864 
  -14880   -14967   -15122   -15272   -15315   -15246   -15137   -15045 
  -15006   -15007   -14982   -14930   -14913   -14918   -14903   -14877 
  -14893   -14998   -15151   -15241   -15240   -15223   -15249   -15254 
  -15145   -14944   -14754   -14641   -14601   -14613   -14682   -14789 
  -14871   -14866   -14825   -14847   -14907   -14920   -14920   -14977 
  -15057   -15135   -15255   -15402   -15485   -15459   -15340   -15186 
  -15080   -15051   -15044   -15009   -14960   -14921   -14909   -14933 
  -14957   -14930   -14860   -14785   -14701   -14635   -14636   -14666 
  -14647   -14640   -14746   -14954   -15196   -15385   -15424   -15312 
  -15162   -15083   -15094   -15139   -15145   -15093   -15061   -15128 
  -15212   -15188   -15089   -15003   -14953   -14922   -14875   -14830 
  -14824   -14818   -14796   -14822   -14934   -15071   -15160   -15205 
  -15249   -15302   -15322   -15260   -15131   -15003   -14928   -14905 
  -14904   -14926   -14992   -15072   -15128   -15160   -15163   -15135 
  -15061   -14944   -14855   -14851   -14884   -14879   -14821   -14773 
  -14799   -14875   -14946   -14997   -15038   -15097   -15184   -15260 
  -15276   -15229   -15154   -15062   -14960   -14887   -14842   -14795 
  -14737   -14699   -14699   -14714   -14740   -14769   -14756   -14714 
  -14725   -14790   -14845   -14904   -14983   -15049   -15117   -15221 
  -15311   -15326   -15281   -15243   -15295   -15439   -15546   -15483 
  -15238   -14927   -14697   -14608   -14625   -14658   -14621   -14574 
  -14666   -14876   -15054   -15128   -15111   -15044   -14969   -14909 
  -14841   -14775   -14776   -14839   -14910   -15001   -15167   -15411 
  -15629   -15711   -15660   -15554   -15452   -15339   -15177   -14992 
  -14851   -14795   -14832   -14920   -14997   -15033   -15010   -14944 
  -14896   -14895   -14911   -14918   -14927   -14956   -14987   -14991 
  -14964   -14900   -14815   -14752   -14707   -14665   -14644   -14686 
  -14798   -14949   -15126   -15287   -15370   -15394   -15385   -15293 
  -15116   -14923   -14758   -14651   -14633   -14686   -14732   -14739 
  -14746   -14799   -14922   -15083   -15209   -15262   -15248   -15202 
  -15184   -15216   -15271   -15320   -15299   -15192   -15108   -15108 
  -15113   -15063   -14975   -14887   -14849   -14888   -14931   -14900 
  -14852   -14863   -14898   -14912   -14923   -14975   -15103   -15287 
  -15437   -15468   -15374   -15236   -15133   -15065   -14990   -14890 
  -14787   -14686   -14586   -14551   -14634   -14770   -14871   -14894 
  -14835   -14743   -14684   -14688   -14761   -14901   -15077   -15218 
  -15285   -15299   -15312   -15329   -15284   -15175   -15089   -15089 
  -15167   -15246   -15256   -15193   -15079   -14937   -14820   -14784 
  -14785   -14737   -14638   -14556   -14579   -14748   -14984   -15179 
  -15285   -15292   -15226   -15152   -15112   -15104   -15112   -15137 
  -15184   -15217   -15200   -15161   -15105   -15003   -14855   -14710 
  -14632   -14654   -14746   -14842   -14885   -14873   -14840   -14828 
  -14858   -14913   -14969   -15021   -15078   -15135   -15169   -15170 
  -15156   -15132   -15122   -15132   -15111   -15049   -14996   -15006 
  -15120   -15303   -15451   -15478   -15409   -15346   -15341   -15356 
  -15293   -15097   -14844   -14651   -14552   -14513   -14468   -14383 
  -14307   -14333   -14447   -14561   -14667   -14784   -14883   -14943 
  -14970   -15003   -15060   -15121   -15176   -15230   -15318   -15443 
  -15531   -15555   -15539   -15470   -15317   -15103   -14937   -14901 
  -14955   -15033   -15082   -15079   -15065   -15049   -14982   -14879 
  -14795   -14723   -14672   -14683   -14739   -14802   -14857   -14876 
  -14853   -14849   -14903   -14994   -15096   -15167   -15171   -15133 
  -15092   -15071   -15095   -15134   -15144   -15135   -15143   -15183 
  -15243   -15299   -15313   -15258   -15151   -15054   -15016   -15020 
  -15040   -15053   -15026   -14969   -14922   -14899   -14856   -14751 
  -14618   -14503   -14432   -14423   -14465   -14548   -14669   -14801 
  -14914   -15017   -15094   -15109   -15079   -15035   -14985   -14955 
  -14971   -15020   -15075   -15109   -15142   -15208   -15303   -15385 
  -15398   -15325   -15218   -15131   -15069   -15044   -15078   -15150 
  -15223   -15254   -15223   -15155   -15089   -15029   -14977   -14953 
  -14954   -14951   -14929   -14892   -14875   -14909   -14961   -14974 
  -14944   -14915   -14932   -15008   -15098   -15150   -15150   -15124 
  -15109   -15100   -15063   -14997   -14924   -14853   -14786   -14734 
  -14724   -14790   -14920   -15041   -15095   -15078   -15015   -14941 
  -14854   -14761   -14686   -14625   -14598   -14625   -14694   -14803 
  -14950   -15091   -15188   -15271   -15361   -15433   -15445   -15375 
  -15263   -15158   -15068   -14990   -14927   -14885   -14875   -14902 
  -14951   -15027   -15156   -15317   -15428   -15449   -15407   -15333 
  -15250   -15178   -15110   -15016   -14882   -14714   -14552   -14482 
  -14543   -14679   -14805   -14862   -14857   -14856   -14907   -14999 
  -15080   -15106   -15080   -15060   -15087   -15129   -15117   -15010 
  -14845   -14709   -14664   -14716   -14834   -14958   -15032   -15069 
  -15102   -15114   -15088   -15059   -15057   -15087   -15130   -15159 
  -15176   -15187   -15204   -15237   -15253   -15213   -15120   -15004 
  -14881   -14760   -14672   -14638   -14667   -14756   -14879   -15000 
  -15102   -15170   -15195   -15187   -15169   -15154   -15133   -15093 
  -15030   -14981   -14973   -14988   -15015   -15047   -15060   -15053 
  -15042   -15024   -15010   -15009   -15001   -14971   -14907   -14826 
  -14763   -14728   -14734   -14794   -14876   -14952   -15011   -15020 
  -14962   -14902   -14897   -14915   -14927   -14939   -14947   -14964 
  -15012   -15078   -15132   -15166   -15193   -15210   -15202   -15181 
  -15183   -15237   -15318   -15365   -15361   -15330   -15262   -15156 
  -15058   -14992   -14969   -14979   -14985   -14964   -14918   -14851 
  -14764   -14666   -14592   -14591   -14677   -14822   -14981   -15096 
  -15117   -15044   -14927   -14823   -14767   -14760   -14789   -14864 
  -14990   -15107   -15143   -15095   -15033   -15038   -15139   -15280 
  -15361   -15361   -15342   -15336   -15340   -15326   -15248   -15134 
  -15060   -15032   -15013   -14973   -14890   -14784   -14697   -14649 
  -14647   -14683   -14714   -14708   -14692   -14690   -14698   -14722 
  -14763   -14804   -14822   -14818   -14819   -14857   -14931   -15009 
  -15071   -15109   -15116   -15101   -15091   -15103   -15141   -15172 
  -15172   -15177   -15228   -15301   -15353   -15350   -15281   -15179 
  -15096   -15048   -15022   -15018   -15067   -15170   -15252   -15238 
  -15135   -14991   -14846   -14737   -14678   -14661   -14694   -14789 
  -14906   -14996   -15059   -15090   -15088   -15068   -15051   -15063 
  -15089   -15093   -15076   -15060   -15048   -15027   -15013   -15016 
  -15025   -15029   -15023   -15011   -14997   -14976   -14937   -14888 
  -14843   -14811   -14806   -14833   -14865   -14862   -14838   -14841 
  -14885   -14948   -15003   -15042   -15075   -15108   -15138   -15166 
  -15192   -15200   -15181   -15156   -15147   -15145   -15147   -15129 
  -15052   -14944   -14885   -14907   -14982   -15056   -15098   -15108 
  -15117   -15140   -15156   -15126   -15052   -14989   -14954   -14918 
  -14874   -14825   -14790   -14779   -14778   -14798   -14847   -14901 
  -14969   -15047   -15093   -15059   -14944   -14815   -14743   -14757 
