Origin Time       2025/03/28 03:50:00
Lat.              35.403
Long.             140.360
Depth. (km)       54
Mag.              4.4
Station Code      KNGH21
Station Lat.      35.4628
Station Long.     139.2146
Station Height(m) 245
Record Time       2025/03/28 03:51:10
Sampling Freq(Hz) 100Hz
Duration Time(s)  120
Dir.              3
Scale Factor      2942(gal)/8224139
Max. Acc. (gal)   0.089
Last Correction   2025/03/28 03:51:10
Memo.             
  156739   156736   156735   156733   156735   156737   156737   156735 
  156736   156737   156736   156735   156736   156737   156736   156735 
  156735   156732   156735   156739   156737   156735   156736   156735 
  156733   156736   156737   156733   156733   156733   156735   156735 
  156733   156732   156733   156735   156735   156735   156736   156737 
  156736   156735   156736   156736   156735   156733   156735   156735 
  156733   156735   156735   156732   156732   156735   156733   156733 
  156735   156736   156735   156735   156735   156735   156736   156733 
  156732   156735   156733   156733   156737   156737   156735   156736 
  156736   156735   156735   156736   156735   156735   156735   156733 
  156732   156732   156735   156735   156733   156735   156733   156733 
  156736   156737   156733   156732   156735   156735   156733   156733 
  156735   156736   156737   156736   156735   156736   156737   156735 
  156733   156735   156736   156735   156735   156735   156735   156735 
  156736   156737   156736   156735   156737   156739   156736   156733 
  156737   156739   156736   156739   156741   156739   156739   156743 
  156744   156748   156752   156755   156756   156757   156756   156752 
  156749   156748   156749   156753   156757   156757   156755   156747 
  156739   156741   156749   156757   156767   156767   156755   156741 
  156730   156722   156718   156722   156732   156733   156718   156698 
  156679   156666   156656   156656   156658   156660   156682   156716 
  156744   156768   156795   156811   156806   156772   156721   156699 
  156736   156756   156713   156689   156730   156775   156768   156733 
  156721   156745   156776   156782   156757   156730   156726   156720 
  156689   156686   156713   156710   156670   156616   156583   156651 
  156766   156778   156717   156701   156728   156749   156747   156721 
  156691   156685   156709   156739   156756   156749   156735   156770 
  156820   156813   156779   156770   156762   156756   156782   156767 
  156670   156658   156760   156776   156709   156725   156760   156739 
  156753   156782   156736   156697   156703   156681   156660   156733 
  156826   156811   156763   156778   156779   156755   156745   156718 
  156712   156772   156813   156775   156736   156771   156809   156783 
  156713   156654   156689   156774   156768   156743   156776   156760 
  156698   156670   156651   156662   156695   156681   156694   156766 
  156803   156793   156744   156686   156663   156674   156739   156813 
  156772   156682   156698   156740   156721   156716   156740   156772 
  156802   156783   156729   156722   156770   156803   156783   156748 
  156730   156736   156740   156693   156644   156682   156739   156701 
  156660   156748   156828   156770   156683   156647   156663   156743 
  156798   156786   156813   156874   156805   156641   156593   156664 
  156681   156640   156667   156752   156824   156848   156807   156767 
  156803   156847   156797   156714   156686   156689   156693   156698 
  156687   156699   156743   156733   156693   156697   156772   156867 
  156845   156753   156726   156686   156632   156645   156671   156716 
  156783   156766   156695   156687   156705   156687   156706   156798 
  156876   156874   156821   156779   156745   156703   156681   156659 
  156631   156668   156752   156770   156730   156729   156732   156698 
  156710   156747   156710   156670   156695   156668   156587   156616 
  156720   156755   156747   156764   156825   156861   156830   156818 
  156814   156733   156689   156749   156760   156702   156730   156816 
  156834   156787   156737   156740   156775   156766   156741   156767 
  156789   156753   156703   156716   156756   156716   156658   156681 
  156709   156733   156760   156714   156644   156617   156637   156693 
  156736   156748   156741   156726   156733   156732   156705   156705 
  156753   156822   156840   156759   156716   156764   156768   156740 
  156721   156686   156695   156747   156810   156876   156856   156766 
  156735   156737   156718   156690   156635   156604   156674   156787 
  156830   156787   156739   156735   156725   156698   156675   156681 
  156739   156794   156756   156662   156632   156687   156712   156686 
  156705   156749   156735   156702   156733   156774   156787   156779 
  156717   156682   156730   156756   156751   156768   156786   156807 
  156817   156747   156671   156679   156703   156712   156708   156695 
  156695   156681   156671   156713   156759   156783   156838   156883 
  156832   156749   156706   156685   156701   156718   156670   156608 
  156614   156679   156744   156784   156787   156801   156848   156807 
  156698   156716   156801   156775   156722   156722   156729   156764 
  156803   156762   156703   156726   156772   156755   156718   156739 
  156747   156695   156698   156756   156757   156744   156764   156762 
  156759   156762   156737   156756   156766   156698   156672   156712 
  156739   156757   156752   156713   156691   156678   156655   156652 
  156706   156798   156821   156755   156736   156752   156710   156681 
  156699   156708   156730   156774   156756   156710   156728   156775 
  156775   156732   156703   156725   156770   156791   156748   156670 
  156671   156735   156741   156737   156748   156710   156690   156718 
  156709   156706   156775   156816   156766   156706   156709   156722 
  156705   156705   156718   156708   156721   156759   156755   156762 
  156807   156772   156709   156778   156856   156797   156744   156772 
  156751   156697   156722   156762   156752   156756   156745   156691 
  156683   156709   156681   156675   156767   156806   156724   156671 
  156672   156648   156633   156667   156714   156767   156806   156791 
  156763   156774   156786   156752   156720   156744   156771   156748 
  156714   156710   156718   156706   156699   156739   156795   156806 
  156768   156741   156779   156807   156774   156760   156755   156687 
  156639   156658   156694   156733   156737   156675   156662   156732 
  156739   156701   156718   156703   156670   156701   156726   156741 
  156797   156832   156806   156752   156689   156648   156662   156708 
  156760   156794   156784   156782   156805   156762   156683   156676 
  156713   156732   156721   156725   156794   156841   156799   156762 
  156779   156797   156766   156713   156697   156705   156703   156717 
  156743   156736   156710   156740   156822   156861   156824   156783 
  156766   156741   156722   156694   156639   156628   156668   156703 
  156768   156838   156817   156763   156744   156718   156721   156757 
  156724   156645   156627   156627   156625   156659   156683   156683 
  156702   156720   156712   156722   156753   156737   156702   156695 
  156676   156654   156676   156732   156789   156825   156840   156821 
  156748   156678   156660   156662   156676   156720   156762   156789 
  156791   156740   156679   156668   156663   156644   156654   156685 
  156730   156790   156840   156845   156810   156763   156694   156643 
  156667   156703   156716   156751   156807   156856   156875   156852 
  156829   156806   156767   156774   156820   156816   156807   156841 
  156859   156848   156813   156763   156771   156825   156826   156779 
  156739   156701   156690   156710   156687   156649   156674   156693 
  156676   156703   156736   156713   156689   156682   156670   156690 
  156755   156776   156725   156676   156682   156699   156691   156693 
  156714   156721   156712   156705   156720   156755   156775   156770 
  156748   156710   156674   156683   156741   156778   156768   156779 
  156809   156799   156722   156632   156617   156654   156660   156667 
  156698   156703   156703   156743   156748   156705   156702   156728 
  156712   156710   156771   156802   156776   156780   156779   156724 
  156694   156701   156682   156694   156755   156780   156767   156743 
  156691   156649   156640   156612   156608   156694   156780   156791 
  156780   156770   156725   156701   156753   156790   156760   156768 
  156825   156834   156809   156795   156766   156717   156702   156726 
  156733   156733   156759   156782   156791   156813   156824   156821 
  156825   156817   156802   156787   156733   156674   156682   156695 
  156689   156732   156771   156751   156757   156776   156728   156687 
  156681   156629   156575   156587   156614   156639   156691   156728 
  156733   156747   156743   156713   156698   156672   156629   156648 
  156718   156767   156810   156834   156783   156755   156802   156798 
  156729   156702   156732   156766   156779   156789   156810   156829 
  156859   156876   156821   156756   156757   156763   156709   156656 
  156664   156705   156730   156744   156760   156780   156790   156768 
  156720   156694   156701   156703   156708   156708   156689   156690 
  156706   156687   156694   156768   156813   156780   156759   156743 
  156685   156633   156604   156604   156668   156741   156764   156784 
  156813   156820   156801   156741   156667   156686   156751   156744 
  156744   156797   156824   156837   156853   156830   156790   156780 
  156755   156667   156618   156664   156712   156732   156772   156797 
  156762   156736   156749   156725   156660   156639   156662   156664 
  156648   156660   156705   156749   156760   156733   156695   156668 
  156652   156667   156714   156741   156739   156744   156745   156718 
  156689   156693   156708   156713   156733   156767   156789   156810 
  156838   156840   156797   156729   156668   156656   156698   156717 
  156698   156728   156778   156760   156745   156764   156748   156749 
  156797   156799   156771   156752   156697   156635   156664   156747 
  156803   156843   156851   156810   156757   156691   156640   156643 
  156675   156718   156775   156793   156751   156710   156690   156691 
  156729   156762   156767   156776   156780   156763   156737   156732 
  156755   156774   156748   156701   156706   156753   156747   156706 
  156726   156775   156783   156749   156689   156655   156691   156724 
  156717   156752   156833   156852   156801   156764   156748   156710 
  156676   156662   156624   156598   156683   156790   156786   156753 
  156771   156764   156717   156685   156681   156682   156689   156702 
  156687   156674   156735   156803   156797   156776   156776   156762 
  156748   156760   156764   156772   156791   156776   156739   156710 
  156697   156732   156776   156778   156789   156798   156759   156714 
  156698   156701   156698   156671   156656   156668   156671   156664 
  156675   156713   156732   156716   156722   156730   156682   156647 
  156689   156739   156772   156795   156744   156678   156697   156713 
  156706   156747   156794   156806   156813   156791   156736   156714 
  156732   156718   156699   156736   156776   156755   156733   156786 
  156845   156840   156806   156774   156740   156714   156686   156648 
  156655   156722   156774   156797   156826   156825   156771   156729 
  156729   156720   156689   156681   156689   156691   156729   156797 
  156805   156741   156683   156668   156676   156685   156693   156717 
  156751   156786   156824   156836   156783   156721   156702   156687 
  156689   156718   156708   156663   156674   156751   156783   156751 
  156751   156764   156759   156794   156829   156801   156782   156767 
  156672   156620   156701   156770   156771   156774   156770   156762 
  156764   156736   156679   156640   156633   156659   156721   156784 
  156795   156782   156787   156760   156675   156624   156667   156712 
  156710   156724   156740   156724   156713   156705   156702   156713 
  156710   156717   156740   156747   156735   156702   156685   156736 
  156793   156784   156766   156776   156757   156730   156740   156753 
  156766   156756   156713   156697   156709   156744   156760   156691 
  156631   156648   156674   156675   156685   156712   156725   156717 
  156724   156749   156779   156818   156824   156775   156730   156757 
  156809   156793   156772   156824   156840   156783   156744   156705 
  156635   156632   156676   156649   156610   156671   156760   156789 
  156809   156875   156925   156895   156830   156768   156703   156687 
  156716   156743   156801   156833   156783   156751   156763   156743 
  156678   156609   156579   156591   156625   156686   156751   156797 
  156847   156876   156847   156805   156818   156861   156845   156783 
  156763   156732   156648   156605   156609   156582   156585   156675 
  156732   156705   156697   156695   156666   156666   156682   156694 
  156736   156762   156735   156695   156667   156663   156690   156679 
  156598   156547   156586   156672   156759   156829   156868   156871 
  156857   156828   156760   156709   156720   156744   156786   156865 
  156917   156918   156891   156841   156816   156802   156729   156649 
  156617   156608   156660   156764   156837   156861   156852   156805 
  156744   156729   156766   156797   156825   156849   156818   156780 
  156794   156791   156745   156693   156613   156540   156558   156610 
  156610   156577   156555   156535   156487   156494   156585   156628 
  156593   156587   156643   156745   156857   156871   156795   156789 
  156879   156909   156840   156790   156774   156732   156685   156656 
  156668   156749   156836   156857   156851   156817   156721   156676 
  156739   156759   156710   156702   156747   156789   156817   156859 
  156891   156865   156807   156776   156768   156772   156801   156787 
  156706   156678   156690   156641   156612   156645   156691   156745 
  156801   156837   156834   156783   156728   156708   156703   156701 
  156679   156649   156656   156676   156662   156633   156647   156697 
  156747   156795   156834   156841   156813   156767   156749   156763 
  156768   156739   156697   156690   156725   156767   156787   156784 
  156778   156813   156880   156903   156852   156780   156718   156658 
  156608   156578   156563   156566   156591   156639   156676   156687 
  156752   156849   156847   156755   156668   156617   156589   156546 
  156520   156571   156641   156714   156783   156810   156830   156837 
  156833   156865   156895   156902   156929   156937   156863   156743 
  156654   156604   156590   156628   156670   156683   156714   156783 
  156841   156830   156797   156814   156843   156843   156836   156824 
  156802   156783   156768   156737   156694   156686   156726   156737 
  156687   156655   156656   156625   156590   156625   156679   156654 
  156598   156600   156633   156656   156675   156717   156756   156763 
  156771   156774   156755   156760   156762   156733   156730   156774 
  156822   156840   156826   156809   156793   156784   156768   156720 
  156674   156647   156620   156600   156594   156636   156743   156795 
  156732   156682   156724   156787   156833   156871   156863   156852 
  156883   156871   156811   156789   156768   156682   156593   156605 
  156668   156668   156668   156740   156789   156810   156867   156868 
  156764   156674   156643   156618   156608   156614   156622   156662 
  156693   156681   156706   156776   156791   156759   156755   156782 
  156816   156830   156803   156779   156820   156851   156779   156691 
  156697   156745   156736   156689   156697   156749   156749   156699 
  156691   156725   156728   156697   156714   156763   156747   156703 
  156705   156706   156682   156682   156703   156725   156757   156783 
  156780   156757   156733   156726   156739   156756   156775   156798 
  156820   156843   156856   156809   156702   156631   156637   156686 
  156745   156813   156853   156833   156798   156771   156748   156752 
  156759   156739   156748   156791   156803   156797   156811   156794 
  156720   156651   156617   156591   156564   156541   156523   156516 
  156508   156502   156543   156604   156637   156666   156717   156766 
  156755   156706   156660   156627   156647   156729   156794   156811 
  156836   156886   156915   156910   156907   156898   156851   156802 
  156791   156799   156790   156775   156779   156772   156770   156799 
  156817   156803   156757   156662   156595   156621   156643   156625 
  156667   156770   156809   156795   156797   156771   156728   156739 
  156774   156790   156793   156770   156735   156722   156733   156741 
  156767   156828   156870   156875   156880   156878   156829   156757 
  156698   156652   156647   156664   156644   156625   156654   156697 
  156733   156747   156753   156787   156795   156728   156664   156683 
  156698   156664   156702   156783   156778   156752   156748   156706 
  156672   156675   156647   156574   156524   156536   156575   156590 
  156608   156654   156687   156706   156726   156752   156799   156853 
  156878   156868   156861   156856   156821   156778   156737   156671 
  156625   156636   156641   156635   156652   156689   156744   156816 
  156876   156906   156887   156836   156776   156708   156667   156682 
  156702   156714   156744   156780   156802   156820   156818   156797 
  156805   156817   156780   156735   156702   156660   156620   156602 
  156613   156651   156691   156718   156749   156794   156803   156755 
  156718   156744   156778   156755   156709   156697   156699   156699 
  156698   156706   156756   156806   156794   156776   156816   156852 
  156859   156861   156840   156795   156751   156708   156694   156717 
  156735   156752   156782   156790   156778   156766   156741   156717 
  156717   156724   156714   156709   156730   156748   156724   156701 
  156708   156708   156699   156702   156691   156676   156697   156721 
  156733   156763   156789   156786   156775   156760   156726   156683 
  156645   156617   156621   156656   156666   156660   156681   156701 
  156703   156724   156752   156759   156805   156884   156886   156830 
  156803   156795   156810   156855   156870   156817   156745   156730 
  156753   156743   156735   156770   156768   156714   156699   156717 
  156686   156622   156598   156598   156583   156579   156593   156605 
  156628   156662   156679   156668   156649   156659   156687   156702 
  156714   156748   156763   156757   156783   156811   156803   156794 
  156784   156757   156735   156710   156691   156717   156757   156768 
  156771   156790   156794   156760   156725   156733   156766   156760 
  156733   156744   156783   156813   156832   156861   156887   156887 
  156853   156797   156755   156753   156744   156708   156686   156682 
  156697   156728   156735   156718   156708   156713   156737   156745 
  156744   156774   156797   156798   156799   156768   156716   156694 
  156686   156676   156695   156744   156768   156744   156735   156732 
  156685   156651   156651   156625   156597   156614   156648   156679 
  156721   156752   156774   156821   156864   156848   156787   156724 
  156676   156670   156695   156705   156705   156730   156780   156818 
  156845   156872   156857   156801   156766   156756   156766   156798 
  156814   156786   156763   156759   156751   156753   156768   156756 
  156710   156671   156656   156663   156672   156652   156617   156600 
  156581   156582   156627   156652   156659   156693   156721   156726 
