Origin Time       2025/03/28 03:50:00
Lat.              35.403
Long.             140.360
Depth. (km)       54
Mag.              4.4
Station Code      KNGH20
Station Lat.      35.3663
Station Long.     139.1260
Station Height(m) 359.5
Record Time       2025/03/28 03:51:10
Sampling Freq(Hz) 100Hz
Duration Time(s)  120
Dir.              2
Scale Factor      2942(gal)/8224139
Max. Acc. (gal)   0.145
Last Correction   2025/03/28 03:51:10
Memo.             
[...]
   32104    32105    32105    32104    32105    32107    32105    32103 
   32103    32104    32103    32103    32105    32104    32103    32104 
   32103    32101    32103    32103    32103    32104    32107    32107 
   32107    32105    32104    32103    32104    32103    32101    32104 
   32104    32101    32107    32108    32104    32104    32104    32104 
   32105    32105    32105    32105    32105    32103    32101    32107 
   32107    32103    32103    32105    32104    32105    32105    32104 
   32105    32105    32103    32104    32107    32107    32105    32103 
   32104    32105    32103    32103    32108    32107    32103    32104 
   32107    32104    32103    32105    32105    32101    32101    32105 
   32104    32103    32105    32105    32103    32100    32100    32098 
   32098    32097    32094    32093    32090    32085    32081    32078 
   32080    32081    32085    32089    32093    32098    32103    32107 
   32113    32121    32132    32144    32152    32157    32161    32159 
   32154    32146    32138    32131    32116    32094    32076    32055 
   32031    32017    32020    32031    32043    32053    32059    32070 
   32084    32088    32086    32094    32121    32148    32167    32174 
   32169    32150    32128    32121    32132    32142    32119    32067 
   32030    32044    32104    32167    32205    32209    32182    32132 
   32097    32093    32104    32119    32134    32128    32101    32088 
   32100    32131    32169    32185    32163    32123    32077    32031 
   32016    32046    32092    32120    32109    32074    32057    32062 
   32062    32032    32001    32022    32061    32069    32074    32109 
   32151    32173    32165    32132    32084    32027    31984    32003 
   32086    32158    32185    32177    32134    32107    32131    32154 
   32142    32130    32146    32158    32131    32096    32104    32130 
   32147    32181    32206    32175    32098    32024    32005    32028 
   32027    32013    32059    32128    32147    32127    32096    32078 
   32109    32182    32215    32162    32058    31984    31996    32058 
   32107    32123    32107    32080    32081    32112    32124    32093 
   32069    32077    32076    32071    32105    32169    32215    32200 
   32143    32115    32105    32059    32026    32059    32094    32077 
   32026    31997    32042    32134    32185    32182    32174    32148 
   32104    32093    32097    32089    32108    32143    32155    32162 
   32182    32186    32146    32098    32101    32131    32132    32094 
   32051    32051    32093    32108    32089    32098    32123    32101 
   32061    32057    32066    32054    32051    32070    32080    32051 
   32024    32039    32073    32100    32103    32080    32081    32117 
   32151    32179    32194    32162    32085    32019    32027    32098 
   32173    32204    32175    32131    32117    32113    32112    32131 
   32148    32154    32152    32130    32092    32058    32042    32058 
   32093    32112    32120    32139    32155    32143    32116    32111 
   32131    32150    32159    32165    32146    32096    32053    32040 
   32054    32094    32124    32123    32121    32113    32084    32070 
   32098    32123    32098    32073    32086    32108    32100    32059 
   32012    31996    32030    32082    32113    32109    32084    32070 
   32071    32073    32090    32132    32146    32116    32111    32135 
   32130    32104    32109    32128    32127    32124    32135    32138 
   32119    32088    32065    32069    32097    32125    32128    32113 
   32109    32119    32124    32116    32108    32108    32115    32142 
   32185    32204    32179    32140    32104    32073    32059    32055 
   32034    32005    32011    32055    32109    32151    32178    32177 
   32147    32103    32061    32050    32073    32073    32039    32020 
   32035    32061    32094    32144    32197    32223    32217    32184 
   32134    32104    32117    32150    32154    32125    32093    32077 
   32090    32120    32128    32112    32088    32069    32067    32062 
   32047    32050    32065    32069    32070    32057    32031    32036 
   32066    32085    32097    32101    32097    32108    32152    32202 
   32213    32182    32138    32111    32107    32103    32092    32092 
   32101    32096    32077    32071    32080    32101    32143    32182 
   32184    32150    32109    32093    32086    32071    32063    32070 
   32082    32089    32085    32086    32104    32116    32115    32108 
   32092    32063    32050    32074    32112    32120    32109    32107 
   32107    32097    32092    32105    32116    32120    32134    32148 
   32152    32142    32121    32111    32105    32078    32063    32088 
   32111    32101    32101    32116    32120    32119    32134    32159 
   32152    32105    32069    32077    32119    32154    32148    32125 
   32120    32120    32112    32109    32119    32116    32082    32034 
   31990    31980    32007    32054    32097    32113    32107    32104 
   32109    32104    32104    32125    32142    32138    32121    32097 
   32078    32073    32082    32100    32113    32108    32096    32096 
   32112    32136    32161    32166    32147    32120    32104    32088 
   32067    32071    32098    32123    32142    32144    32124    32101 
   32080    32062    32065    32073    32067    32074    32084    32085 
   32093    32105    32115    32123    32123    32111    32085    32071 
   32096    32136    32163    32177    32184    32175    32147    32108 
   32080    32073    32082    32104    32123    32121    32112    32111 
   32109    32116    32140    32148    32134    32117    32096    32071 
   32069    32085    32097    32096    32088    32085    32088    32097 
   32111    32124    32128    32117    32105    32108    32111    32094 
   32078    32080    32086    32086    32096    32104    32089    32073 
   32063    32043    32028    32034    32047    32070    32111    32151 
   32170    32173    32166    32151    32151    32175    32188    32175 
   32155    32131    32120    32125    32124    32104    32084    32062 
   32038    32024    32034    32066    32104    32125    32140    32155 
   32154    32125    32086    32053    32031    32031    32042    32047 
   32051    32077    32117    32140    32146    32148    32144    32131 
   32124    32124    32109    32078    32066    32082    32101    32121 
   32138    32125    32089    32067    32057    32036    32028    32040 
   32053    32082    32139    32179    32181    32169    32159    32143 
   32117    32104    32115    32128    32134    32139    32143    32132 
   32104    32080    32071    32074    32081    32086    32094    32116 
   32135    32131    32109    32084    32065    32065    32070    32065 
   32058    32061    32071    32090    32119    32125    32107    32097 
   32111    32123    32124    32125    32142    32161    32151    32123 
   32097    32073    32066    32092    32124    32140    32142    32123 
   32078    32042    32047    32089    32116    32098    32077    32089 
   32119    32130    32112    32097    32113    32142    32161    32174 
   32161    32113    32063    32046    32058    32069    32076    32084 
   32096    32124    32143    32115    32082    32093    32117    32127 
   32139    32148    32134    32116    32136    32170    32194    32205 
   32192    32159    32113    32070    32059    32082    32111    32123 
   32115    32096    32071    32057    32063    32077    32076    32055 
   32039    32047    32066    32078    32077    32065    32058    32063 
   32059    32032    32000    31988    32000    32028    32058    32092 
   32120    32124    32130    32148    32143    32103    32073    32074 
   32094    32117    32142    32157    32148    32135    32136    32146 
   32146    32135    32125    32124    32125    32131    32123    32098 
   32104    32124    32119    32109    32125    32152    32170    32158 
   32119    32090    32100    32132    32162    32173    32161    32138 
   32109    32081    32067    32065    32049    32020    32015    32035 
   32067    32108    32140    32147    32146    32151    32155    32163 
   32184    32185    32161    32143    32128    32096    32051    32016 
   32012    32028    32038    32053    32076    32084    32074    32074 
   32090    32112    32124    32117    32090    32054    32027    32024 
   32043    32073    32103    32125    32136    32135    32130    32131 
   32144    32173    32193    32169    32121    32092    32086    32104 
   32127    32139    32128    32104    32107    32147    32171    32159 
   32147    32131    32101    32077    32058    32027    32001    32012 
   32047    32076    32093    32103    32112    32108    32080    32063 
   32082    32103    32105    32113    32130    32135    32128    32135 
   32155    32161    32144    32116    32086    32082    32098    32101 
   32101    32117    32147    32173    32165    32130    32107    32093 
   32085    32097    32130    32161    32171    32171    32167    32140 
   32117    32112    32084    32031    32007    32023    32050    32076 
   32092    32080    32059    32062    32055    32020    32004    32022 
   32040    32054    32076    32113    32135    32135    32143    32159 
   32158    32132    32096    32074    32066    32057    32067    32089 
   32085    32074    32092    32123    32134    32113    32096    32094 
   32093    32092    32094    32094    32100    32107    32098    32086 
   32081    32082    32093    32096    32086    32097    32116    32120 
   32125    32134    32138    32155    32186    32208    32197    32166 
   32142    32128    32124    32135    32152    32167    32177    32177 
   32171    32165    32151    32130    32101    32076    32059    32051 
   32053    32054    32051    32051    32062    32081    32090    32088 
   32077    32063    32061    32073    32093    32097    32076    32054 
   32046    32049    32086    32139    32151    32116    32080    32085 
   32115    32139    32140    32117    32104    32119    32139    32155 
   32165    32171    32177    32170    32155    32151    32150    32142 
   32135    32123    32092    32050    32028    32027    32031    32023 
   32007    32005    32024    32053    32089    32119    32109    32059 
   32015    32001    32012    32036    32074    32108    32109    32092 
   32096    32120    32140    32154    32155    32143    32134    32132 
   32125    32119    32123    32128    32131    32138    32152    32165 
   32162    32161    32167    32158    32136    32107    32074    32082 
   32135    32177    32174    32147    32120    32098    32090    32103 
   32121    32130    32128    32120    32111    32100    32093    32103 
   32117    32130    32134    32117    32088    32065    32059    32073 
   32086    32092    32092    32092    32097    32112    32124    32113 
   32084    32062    32054    32047    32038    32030    32030    32032 
   32042    32065    32097    32117    32121    32113    32097    32084 
   32076    32077    32094    32120    32143    32151    32139    32120 
   32103    32081    32084    32125    32169    32184    32170    32139 
   32113    32111    32135    32158    32143    32107    32081    32076 
   32082    32094    32103    32104    32101    32089    32069    32067 
   32089    32116    32124    32107    32089    32090    32082    32057 
   32046    32069    32109    32139    32158    32163    32144    32119 
   32112    32112    32101    32089    32093    32104    32105    32098 
   32092    32094    32100    32103    32111    32101    32062    32030 
   32034    32063    32107    32154    32190    32212    32209    32179 
   32154    32157    32171    32169    32146    32127    32123    32120 
   32117    32127    32135    32117    32082    32038    31996    31989 
   32020    32055    32080    32082    32054    32022    32011    32009 
   31992    31955    31916    31905    31932    31989    32053    32098 
   32115    32108    32100    32119    32161    32194    32215    32233 
   32247    32239    32216    32201    32208    32223    32212    32175 
   32144    32115    32090    32089    32112    32146    32175    32201 
   32232    32262    32270    32262    32240    32211    32171    32127 
   32092    32089    32109    32127    32116    32077    32032    31990 
   31941    31889    31864    31874    31912    31970    32051    32134 
   32179    32189    32194    32200    32182    32125    32038    31945 
   31872    31843    31877    31962    32053    32113    32143    32159 
   32162    32150    32151    32186    32225    32246    32254    32251 
   32242    32231    32206    32154    32089    32050    32036    32020 
   32017    32073    32177    32270    32305    32282    32220    32120 
   31997    31888    31828    31827    31869    31941    32022    32084 
   32103    32078    32043    32031    32031    32016    32003    32009 
   32040    32088    32120    32139    32174    32196    32162    32111 
   32097    32127    32173    32205    32206    32190    32185    32200 
   32206    32189    32154    32107    32073    32073    32109    32184 
   32262    32312    32309    32244    32147    32066    32016    31996 
   32008    32051    32108    32152    32181    32219    32282    32350 
   32393    32413    32408    32347    32221    32069    31932    31831 
   31770    31743    31741    31762    31804    31857    31924    31999 
   32061    32124    32194    32232    32228    32196    32123    32016 
   31922    31888    31924    31976    32009    32051    32086    32082 
   32065    32073    32100    32157    32271    32414    32509    32510 
   32432    32301    32163    32092    32112    32162    32179    32152 
   32093    32043    32047    32070    32065    32047    32044    32044 
   32034    32016    32005    32004    32017    32051    32084    32097 
   32097    32089    32058    32016    31997    32017    32058    32096 
   32120    32136    32144    32142    32136    32131    32112    32100 
   32107    32096    32053    31988    31914    31881    31938    32067 
   32209    32292    32305    32304    32305    32274    32206    32157 
   32161    32194    32206    32197    32181    32131    32046    31976 
   31932    31918    31942    31984    32017    32059    32112    32169 
   32206    32194    32148    32111    32084    32077    32107    32150 
   32171    32179    32181    32166    32125    32073    32030    31992 
   31950    31941    31976    31996    31985    31999    32034    32036 
   32011    32012    32044    32074    32084    32076    32078    32123 
   32194    32258    32313    32344    32319    32256    32202    32152 
   32096    32057    32063    32113    32151    32144    32120    32097 
   32073    32053    32043    32042    32061    32103    32135    32143 
   32147    32159    32171    32171    32161    32147    32144    32159 
   32186    32212    32198    32142    32070    32003    31949    31931 
   31976    32059    32125    32150    32150    32150    32146    32121 
   32101    32098    32071    31986    31889    31860    31895    31942 
   32005    32098    32186    32232    32235    32228    32223    32188 
   32121    32061    32043    32073    32101    32096    32094    32132 
   32182    32204    32193    32175    32163    32128    32085    32074 
   32076    32066    32066    32076    32078    32088    32108    32121 
   32120    32090    32038    32007    32049    32157    32248    32252 
   32192    32112    32053    32032    32035    32039    32046    32078 
   32147    32196    32182    32157    32146    32125    32093    32069 
   32058    32047    32027    31989    31950    31924    31934    31989 
   32074    32144    32175    32181    32192    32211    32223    32215 
   32185    32154    32144    32150    32143    32121    32109    32107 
   32094    32069    32043    32034    32042    32067    32111    32157 
   32205    32240    32225    32155    32069    31999    31969    31982 
   32026    32100    32182    32220    32209    32178    32136    32093 
   32050    32016    32022    32057    32103    32155    32212    32252 
   32263    32258    32235    32184    32119    32063    32015    31968 
   31935    31946    32004    32070    32120    32155    32163    32140 
   32120    32121    32123    32107    32061    31999    31976    31996 
   32032    32077    32117    32134    32128    32103    32065    32042 
   32062    32105    32132    32140    32135    32113    32088    32089 
   32103    32115    32138    32170    32197    32202    32184    32165 
   32147    32105    32055    32032    32031    32053    32103    32158 
   32193    32217    32233    32228    32190    32139    32093    32051 
   32020    32008    32009    32012    32031    32077    32125    32148 
   32147    32128    32105    32097    32090    32078    32090    32123 
   32148    32163    32161    32121    32063    32026    31999    31953 
   31907    31900    31928    31969    32016    32070    32119    32169 
   32229    32279    32302    32302    32281    32223    32131    32044 
   32011    32022    32043    32042    32003    31950    31927    31935 
   31962    32015    32093    32174    32229    32254    32255    32252 
   32248    32238    32227    32205    32166    32135    32112    32065 
   32007    31972    31961    31950    31928    31941    32013    32108 
   32188    32239    32247    32219    32201    32201    32200    32200 
   32198    32169    32105    32024    31959    31932    31930    31935 
   31961    31997    32036    32088    32155    32217    32239    32202 
   32142    32088    32050    32040    32061    32088    32116    32150 
   32185    32223    32259    32278    32277    32252    32220    32206 
   32213    32204    32175    32161    32165    32161    32128    32076 
   32030    32009    32004    32011    32022    32031    32034    32034 
   32036    32053    32073    32078    32078    32086    32093    32111 
   32138    32136    32096    32055    32040    32051    32059    32046 
   32023    32017    32046    32097    32148    32190    32211    32194 
   32143    32088    32062    32058    32053    32055    32076    32104 
   32140    32174    32189    32182    32146    32084    32031    32015 
   32030    32059    32085    32085    32062    32054    32081    32120 
   32138    32125    32108    32111    32115    32104    32098    32112 
   32131    32146    32157    32161    32161    32152    32136    32115 
   32085    32050    32030    32042    32054    32044    32034    32050 
   32103    32170    32209    32200    32154    32093    32049    32058 
   32089    32089    32076    32078    32086    32089    32100    32123 
   32150    32186    32232    32267    32275    32263    32240    32202 
   32152    32120    32119    32131    32135    32112    32051    31969 
   31916    31918    31965    32031    32092    32131    32155    32155 
   32116    32061    32028    32032    32053    32059    32059    32084 
   32124    32142    32116    32057    31982    31932    31924    31946 
   31973    32003    32040    32089    32143    32178    32186    32186 
   32178    32158    32140    32140    32152    32166    32181    32200 
   32221    32242    32247    32227    32192    32155    32131    32127 
   32143    32165    32179    32178    32162    32147    32147    32162 
   32171    32142    32077    32011    31976    31965    31961    31962 
   31985    32023    32062    32094    32108    32107    32097    32088 
