Origin Time       2025/03/28 03:50:00
Lat.              35.403
Long.             140.360
Depth. (km)       54
Mag.              4.4
Station Code      KNGH21
Station Lat.      35.4628
Station Long.     139.2146
Station Height(m) 455
Record Time       2025/03/28 03:51:10
Sampling Freq(Hz) 100Hz
Duration Time(s)  120
Dir.              4
Scale Factor      7845(gal)/8223790
Max. Acc. (gal)   0.703
Last Correction   2025/03/28 03:51:10
Memo.             
    1360     1360     1358     1351     1355     1362     1355     1350 
    1358     1359     1355     1352     1354     1356     1358     1355 
    1354     1352     1352     1355     1355     1354     1356     1359 
    1355     1351     1359     1363     1358     1355     1354     1350 
    1351     1351     1351     1355     1356     1355     1356     1358 
    1358     1354     1350     1355     1356     1352     1358     1359 
    1351     1355     1358     1350     1348     1352     1355     1358 
    1355     1354     1355     1354     1358     1360     1352     1350 
    1358     1359     1360     1359     1352     1352     1354     1348 
    1350     1358     1358     1352     1354     1354     1355     1360 
    1360     1356     1356     1352     1350     1352     1359     1360 
    1355     1350     1352     1356     1358     1359     1355     1350 
    1354     1355     1354     1356     1355     1356     1364     1360 
    1352     1347     1350     1356     1358     1352     1352     1356 
    1355     1355     1358     1359     1355     1351     1352     1352 
    1352     1356     1355     1352     1360     1362     1356     1356 
    1358     1356     1355     1352     1356     1359     1358     1358 
    1355     1351     1355     1359     1362     1363     1363     1356 
    1352     1355     1355     1355     1355     1352     1358     1359 
    1350     1348     1352     1351     1354     1358     1358     1359 
    1358     1356     1354     1352     1350     1344     1341     1354 
    1367     1371     1371     1362     1340     1331     1335     1335 
    1350     1381     1399     1401     1386     1363     1350     1324 
    1297     1316     1359     1352     1304     1296     1345     1387 
    1406     1414     1387     1324     1294     1321     1339     1328 
    1321     1341     1387     1433     1444     1425     1402     1367 
    1351     1397     1424     1363     1297     1289     1304     1339 
    1398     1410     1316     1200     1209     1331     1414     1391 
    1351     1386     1425     1395     1371     1358     1305     1291 
    1350     1371     1310     1277     1325     1383     1422     1458 
    1453     1447     1474     1445     1367     1328     1293     1274 
    1351     1413     1367     1304     1293     1300     1286     1259 
    1252     1260     1289     1329     1337     1359     1436     1476 
    1456     1422     1356     1294     1305     1347     1390     1445 
    1448     1382     1350     1375     1393     1414     1428     1378 
    1320     1286     1275     1318     1345     1301     1271     1282 
    1285     1264     1248     1304     1402     1437     1429     1443 
    1452     1463     1463     1398     1339     1345     1354     1366 
    1350     1258     1233     1344     1452     1478     1447     1381 
    1282     1228     1301     1398     1412     1397     1359     1286 
    1258     1263     1274     1337     1381     1332     1301     1337 
    1343     1293     1278     1345     1433     1462     1466     1489 
    1489     1448     1367     1281     1301     1383     1367     1296 
    1258     1247     1275     1341     1399     1425     1466     1513 
    1480     1371     1252     1196     1237     1305     1359     1382 
    1347     1328     1300     1231     1309     1483     1513     1482 
    1483     1425     1367     1372     1362     1321     1283     1237 
    1196     1175     1198     1291     1405     1490     1540     1539 
    1478     1390     1325     1298     1287     1286     1282     1279 
    1277     1267     1282     1331     1358     1360     1404     1476 
    1517     1510     1435     1317     1278     1336     1404     1445 
    1444     1391     1302     1183     1112     1178     1309     1387 
    1416     1432     1418     1414     1495     1570     1507     1379 
    1321     1310     1271     1228     1210     1224     1274     1321 
    1367     1428     1417     1362     1372     1401     1398     1398 
    1368     1320     1310     1316     1293     1247     1239     1286 
    1354     1441     1483     1424     1387     1460     1563     1601 
    1522     1368     1259     1217     1201     1188     1174     1186 
    1255     1371     1498     1576     1547     1418     1302     1291 
    1297     1227     1196     1254     1325     1417     1487     1451 
    1359     1298     1286     1320     1362     1371     1371     1391 
    1412     1393     1389     1428     1418     1352     1327     1287 
    1192     1177     1277     1371     1447     1512     1520     1485 
    1412     1323     1275     1228     1190     1236     1300     1350 
    1413     1444     1476     1517     1458     1350     1285     1231 
    1206     1231     1275     1381     1533     1584     1503     1391 
    1277     1161     1128     1197     1262     1301     1367     1409 
    1422     1490     1557     1549     1495     1394     1258     1196 
    1221     1242     1252     1318     1431     1487     1468     1444 
    1443     1445     1428     1367     1314     1310     1279     1215 
    1224     1282     1329     1387     1408     1364     1333     1333 
    1341     1344     1339     1362     1412     1440     1433     1379 
    1331     1343     1327     1282     1317     1372     1378     1401 
    1456     1478     1441     1372     1310     1255     1232     1255 
    1278     1283     1308     1359     1433     1501     1478     1382 
    1336     1323     1260     1228     1271     1310     1335     1382 
    1447     1486     1455     1383     1306     1229     1206     1248 
    1323     1418     1448     1382     1377     1449     1449     1410 
    1429     1409     1300     1252     1304     1327     1306     1313 
    1345     1397     1428     1381     1332     1360     1385     1355 
    1341     1370     1366     1321     1287     1255     1231     1250 
    1316     1437     1572     1610     1525     1421     1368     1323 
    1273     1278     1320     1302     1236     1196     1217     1312 
    1421     1460     1449     1440     1399     1345     1352     1401 
    1404     1372     1394     1437     1425     1366     1273     1190 
    1183     1233     1309     1381     1383     1306     1264     1317 
    1389     1436     1460     1441     1395     1339     1277     1258 
    1287     1331     1387     1451     1485     1476     1433     1368 
    1321     1287     1255     1273     1333     1389     1426     1420 
    1379     1358     1339     1308     1300     1314     1323     1308 
    1310     1372     1431     1433     1439     1475     1478     1397 
    1286     1219     1197     1206     1251     1323     1397     1444 
    1451     1466     1495     1464     1381     1316     1254     1212 
    1252     1301     1298     1312     1354     1395     1453     1479 
    1417     1332     1275     1273     1348     1429     1437     1397 
    1375     1377     1345     1290     1269     1289     1341     1413 
    1474     1498     1464     1404     1345     1266     1182     1155 
    1227     1359     1440     1433     1399     1364     1332     1329 
    1332     1313     1313     1354     1386     1397     1412     1409 
    1372     1360     1389     1397     1379     1340     1309     1350 
    1409     1405     1363     1306     1248     1233     1250     1266 
    1304     1372     1441     1490     1485     1399     1296     1263 
    1286     1300     1304     1331     1393     1451     1452     1444 
    1456     1418     1375     1399     1385     1282     1204     1196 
    1232     1325     1449     1501     1462     1412     1375     1314 
    1250     1225     1223     1246     1329     1417     1440     1413 
    1359     1332     1345     1331     1308     1344     1397     1406 
    1406     1439     1475     1480     1451     1393     1304     1213 
    1185     1227     1291     1359     1435     1514     1540     1462 
    1329     1223     1181     1236     1323     1348     1363     1406 
    1406     1383     1389     1377     1343     1328     1305     1255 
    1223     1236     1318     1458     1547     1543     1510     1445 
    1325     1233     1242     1263     1248     1291     1398     1460 
    1462     1441     1402     1364     1340     1308     1273     1267 
    1282     1314     1377     1424     1420     1399     1397     1401 
    1378     1340     1312     1298     1327     1368     1352     1321 
    1333     1337     1331     1374     1418     1413     1417     1421 
    1367     1278     1188     1148     1197     1264     1339     1475 
    1564     1512     1417     1359     1306     1283     1304     1294 
    1250     1246     1287     1383     1518     1570     1505     1456 
    1428     1317     1198     1166     1169     1228     1360     1459 
    1493     1494     1471     1433     1386     1345     1318     1300 
    1301     1308     1305     1294     1278     1309     1432     1563 
    1579     1479     1363     1289     1254     1277     1350     1375 
    1320     1285     1309     1329     1343     1360     1366     1387 
    1437     1449     1402     1343     1279     1244     1263     1279 
    1301     1371     1422     1412     1368     1310     1294     1333 
    1337     1316     1354     1390     1355     1325     1355     1387 
    1383     1383     1420     1432     1387     1325     1302     1350 
    1385     1324     1251     1250     1291     1339     1372     1406 
    1428     1402     1383     1421     1449     1394     1279     1190 
    1183     1243     1348     1463     1506     1460     1397     1366 
    1344     1312     1296     1282     1258     1260     1314     1404 
    1497     1556     1543     1452     1348     1286     1260     1269 
    1277     1239     1232     1306     1387     1436     1468     1468 
    1435     1408     1378     1337     1333     1355     1350     1324 
    1309     1305     1309     1337     1368     1374     1366     1355 
    1355     1360     1331     1304     1343     1383     1352     1314 
    1317     1325     1318     1305     1314     1375     1452     1509 
    1505     1402     1263     1190     1221     1329     1425     1444 
    1401     1372     1405     1444     1467     1489     1462     1375 
    1275     1177     1119     1139     1225     1354     1499     1582 
    1544     1432     1310     1188     1094     1085     1177     1298 
    1375     1416     1445     1479     1530     1563     1536     1444 
    1318     1236     1200     1181     1204     1281     1408     1530 
    1545     1483     1444     1402     1324     1277     1287     1309 
    1350     1408     1405     1347     1313     1306     1310     1312 
    1328     1386     1410     1344     1255     1217     1256     1332 
    1412     1507     1566     1516     1416     1363     1348     1313 
    1256     1231     1255     1293     1328     1355     1340     1321 
    1340     1375     1414     1417     1355     1332     1375     1378 
    1345     1335     1317     1298     1312     1355     1413     1466 
    1505     1528     1489     1385     1271     1178     1138     1169 
    1254     1356     1413     1401     1393     1437     1471     1441 
    1395     1359     1306     1267     1266     1279     1290     1302 
    1345     1409     1428     1386     1333     1302     1290     1290 
    1316     1360     1409     1485     1560     1539     1432     1332 
    1269     1252     1287     1297     1260     1278     1379     1483 
    1521     1487     1429     1341     1262     1270     1305     1285 
    1271     1289     1324     1429     1533     1525     1458     1389 
    1306     1263     1275     1289     1282     1260     1269     1359 
    1472     1507     1440     1329     1271     1259     1248     1282 
    1371     1426     1435     1455     1462     1426     1387     1341 
    1277     1224     1198     1250     1370     1436     1425     1412 
    1422     1452     1453     1421     1420     1422     1367     1310 
    1283     1244     1228     1267     1306     1345     1387     1413 
    1417     1359     1281     1282     1329     1372     1397     1389 
    1385     1405     1420     1417     1402     1393     1381     1341 
    1310     1333     1374     1382     1406     1471     1512     1486 
    1387     1227     1063      990     1039     1147     1271     1397 
    1495     1575     1629     1595     1482     1350     1228     1151 
    1119     1111     1146     1240     1356     1424     1453     1540 
    1618     1543     1375     1235     1146     1119     1147     1223 
    1321     1418     1510     1568     1567     1518     1453     1398 
    1347     1287     1247     1269     1368     1474     1521     1555 
    1610     1659     1637     1489     1255     1021      872      849 
     878      935     1065     1183     1264     1395     1574     1768 
    1922     1902     1714     1533     1444     1397     1314     1146 
     909      697      618      739     1024     1368     1674     1844 
    1885     1863     1753     1588     1482     1432     1364     1271 
    1177     1125     1132     1188     1274     1335     1329     1285 
    1264     1328     1435     1489     1505     1563     1645     1634 
    1501     1347     1239     1167     1144     1150     1143     1194 
    1362     1570     1710     1701     1491     1201     1046     1113 
    1289     1383     1331     1243     1229     1254     1202     1077 
    1017     1117     1371     1664     1802     1745     1652     1660 
    1730     1695     1468     1158      959      999     1150     1190 
    1159     1232     1356     1422     1478     1539     1544     1518 
    1501     1480     1447     1399     1352     1308     1237     1163 
    1206     1381     1524     1512     1337     1116     1043     1117 
    1200     1267     1320     1374     1456     1521     1557     1557 
    1431     1221     1128     1190     1278     1313     1335     1404 
    1475     1440     1294     1150     1108     1213     1428     1629 
    1698     1626     1547     1540     1505     1393     1296     1260 
    1260     1252     1232     1274     1370     1409     1367     1250 
    1094     1016     1040     1101     1177     1285     1424     1576 
    1687     1695     1628     1574     1556     1567     1576     1539 
    1460     1354     1240     1182     1163     1142     1111     1036 
     955      953     1075     1310     1555     1746     1884     1941 
    1921     1822     1583     1215      861      684      729      919 
    1159     1366     1516     1632     1676     1588     1424     1269 
    1155     1111     1139     1208     1316     1478     1672     1838 
    1871     1711     1437     1178      976      847      897     1154 
    1441     1599     1657     1644     1502     1264     1058      986 
    1074     1251     1424     1545     1609     1611     1568     1490 
    1368     1247     1220     1294     1406     1541     1682     1742 
    1637     1412     1201     1040      936      936     1003     1134 
    1352     1529     1588     1571     1471     1345     1273     1200 
    1159     1279     1506     1686     1745     1632     1350     1050 
     850      766      834     1054     1339     1586     1748     1861 
    1903     1760     1428     1046      796      777      911     1078 
    1263     1448     1593     1733     1836     1759     1552     1428 
    1395     1363     1328     1274     1193     1185     1278     1366 
    1394     1372     1298     1247     1296     1370     1389     1358 
    1318     1358     1493     1568     1478     1348     1324     1358 
    1325     1239     1174     1138     1173     1310     1439     1486 
    1476     1406     1289     1159     1043     1017     1107     1271 
    1497     1728     1863     1876     1784     1593     1332     1094 
     949      912      980     1144     1359     1533     1602     1574 
    1520     1475     1379     1229     1128     1144     1301     1561 
    1768     1826     1803     1748     1617     1381     1058      764 
     638      697      877     1147     1466     1694     1742     1688 
    1603     1491     1377     1273     1162     1067     1077     1227 
    1421     1574     1655     1675     1653     1578     1431     1217 
    1005      927     1047     1309     1578     1728     1730     1594 
    1375     1208     1142     1131     1143     1186     1264     1317 
    1306     1290     1302     1345     1412     1448     1432     1374 
    1320     1323     1352     1375     1401     1428     1468     1467 
    1364     1242     1188     1193     1248     1360     1476     1513 
    1485     1458     1445     1429     1399     1318     1215     1170 
    1155     1115     1127     1242     1377     1467     1513     1521 
    1502     1460     1375     1283     1239     1198     1189     1323 
    1520     1625     1636     1575     1448     1309     1206     1147 
    1142     1169     1198     1258     1370     1487     1521     1463 
    1364     1255     1216     1302     1417     1485     1524     1532 
    1505     1471     1420     1327     1242     1224     1246     1278 
    1335     1363     1333     1332     1390     1444     1468     1482 
    1468     1393     1281     1190     1151     1178     1250     1335 
    1418     1468     1487     1517     1541     1524     1459     1371 
    1308     1285     1293     1314     1343     1402     1479     1533 
    1553     1513     1391     1236     1098     1019     1011     1050 
    1116     1225     1377     1529     1628     1663     1653     1574 
    1399     1213     1104     1066     1094     1205     1324     1390 
    1453     1514     1521     1495     1447     1368     1305     1285 
    1313     1381     1439     1441     1390     1329     1306     1314 
    1308     1270     1224     1235     1321     1413     1451     1439 
    1417     1412     1383     1314     1240     1186     1155     1146 
    1181     1264     1344     1394     1445     1479     1460     1435 
    1437     1439     1420     1390     1366     1372     1417     1455 
    1441     1406     1363     1298     1283     1360     1443     1498 
    1512     1445     1363     1325     1327     1345     1329     1289 
    1281     1304     1327     1312     1248     1193     1216     1314 
    1406     1429     1386     1308     1260     1289     1379     1471 
    1502     1470     1394     1281     1171     1127     1162     1258 
    1375     1463     1509     1551     1595     1607     1568     1482 
    1368     1274     1221     1193     1178     1185     1201     1200 
    1181     1190     1254     1321     1362     1422     1526     1651 
    1729     1690     1549     1377     1224     1120     1066     1084 
    1192     1331     1463     1571     1584     1506     1401     1318 
    1305     1305     1256     1212     1197     1235     1320     1355 
    1332     1310     1300     1356     1464     1516     1518     1514 
    1476     1428     1409     1381     1282     1165     1132     1161 
    1186     1252     1374     1509     1632     1702     1676     1557 
    1364     1173     1102     1162     1258     1364     1490     1587 
    1609     1543     1397     1213     1047      972     1000     1081 
    1210     1370     1498     1580     1602     1526     1413     1347 
    1294     1193     1080     1046     1162     1374     1516     1505 
