Origin Time       2025/03/28 03:50:00
Lat.              35.403
Long.             140.360
Depth. (km)       54
Mag.              4.4
Station Code      KNGH11
Station Lat.      35.4040
Station Long.     139.3539
Station Height(m) -1788
Record Time       2025/03/28 03:51:06
Sampling Freq(Hz) 100Hz
Duration Time(s)  120
Dir.              1
Scale Factor      2940(gal)/6170270
Max. Acc. (gal)   0.229
Last Correction   2025/03/28 03:50:51
Memo.             
[...]
    7394     7393     7393     7393     7392     7392     7392     7392 
    7392     7390     7390     7392     7393     7394     7394     7393 
    7391     7392     7394     7393     7393     7394     7393     7393 
    7393     7392     7392     7392     7392     7392     7392     7393 
    7393     7392     7391     7392     7393     7393     7391     7391 
    7392     7392     7393     7393     7392     7392     7392     7394 
    7393     7391     7391     7392     7394     7394     7392     7390 
    7392     7394     7395     7394     7393     7394     7393     7392 
    7393     7393     7392     7393     7394     7394     7393     7394 
    7393     7391     7392     7395     7394     7392     7394     7393 
    7392     7394     7394     7393     7392     7392     7392     7392 
    7393     7393     7392     7392     7393     7392     7394     7394 
    7392     7392     7391     7392     7394     7393     7391     7393 
    7392     7391     7392     7394     7393     7391     7393     7393 
    7393     7393     7393     7393     7392     7392     7394     7392 
    7391     7394     7393     7392     7393     7393     7392     7392 
    7393     7392     7392     7392     7393     7392     7392     7392 
    7392     7393     7392     7391     7392     7392     7392     7393 
    7392     7392     7394     7394     7394     7395     7394     7392 
    7393     7394     7393     7392     7392     7392     7392     7393 
    7393     7394     7394     7394     7393     7390     7391     7393 
    7393     7393     7391     7391     7393     7393     7392     7392 
    7392     7391     7391     7391     7393     7395     7393     7391 
    7391     7391     7392     7392     7394     7395     7393     7392 
    7394     7392     7393     7395     7393     7390     7392     7393 
    7394     7394     7393     7392     7393     7394     7393     7393 
    7393     7393     7393     7393     7392     7393     7392     7392 
    7394     7395     7393     7393     7394     7394     7393     7392 
    7393     7394     7394     7392     7392     7393     7395     7394 
    7391     7391     7391     7391     7393     7392     7391     7393 
    7393     7391     7392     7392     7392     7393     7393     7392 
    7392     7392     7392     7394     7393     7391     7394     7395 
    7393     7392     7393     7392     7392     7393     7393     7393 
    7392     7391     7392     7394     7392     7393     7393     7391 
    7392     7394     7393     7393     7394     7393     7393     7394 
    7393     7392     7392     7393     7394     7393     7391     7393 
    7394     7392     7392     7392     7393     7392     7391     7392 
    7393     7393     7393     7393     7394     7392     7390     7392 
    7393     7392     7392     7393     7392     7392     7392     7392 
    7393     7393     7392     7391     7392     7391     7391     7392 
    7393     7392     7392     7393     7392     7391     7392     7393 
    7393     7392     7392     7391     7392     7393     7392     7392 
    7394     7393     7392     7394     7396     7398     7398     7397 
    7395     7394     7392     7392     7393     7393     7391     7388 
    7385     7383     7382     7384     7388     7393     7395     7391 
    7383     7375     7370     7371     7378     7384     7391     7394 
    7390     7384     7377     7378     7391     7407     7411     7399 
    7378     7369     7383     7402     7415     7429     7438     7437 
    7431     7422     7415     7413     7412     7401     7384     7378 
    7383     7385     7376     7364     7369     7389     7399     7399 
    7403     7402     7391     7396     7421     7431     7414     7393 
    7387     7385     7368     7355     7368     7379     7376     7386 
    7398     7390     7392     7403     7387     7355     7351     7389 
    7433     7429     7376     7350     7372     7400     7423     7432 
    7411     7391     7383     7355     7335     7371     7420     7428 
    7411     7399     7391     7375     7363     7377     7411     7429 
    7419     7410     7425     7426     7394     7399     7457     7474 
    7425     7369     7324     7291     7296     7335     7384     7419 
    7412     7362     7316     7314     7344     7385     7410     7411 
    7415     7425     7401     7361     7378     7417     7393     7360 
    7376     7386     7377     7376     7368     7363     7383     7422 
    7442     7409     7367     7375     7418     7470     7519     7516 
    7450     7393     7373     7359     7359     7377     7387     7401 
    7433     7442     7427     7420     7407     7393     7403     7395 
    7353     7353     7400     7415     7401     7398     7395     7383 
    7368     7364     7376     7380     7377     7379     7360     7326 
    7331     7373     7392     7394     7410     7409     7387     7388 
    7404     7414     7428     7432     7411     7375     7357     7374 
    7395     7406     7413     7401     7375     7364     7370     7376 
    7377     7384     7385     7374     7380     7398     7409     7413 
    7407     7399     7406     7425     7421     7394     7394     7410 
    7401     7377     7364     7376     7395     7377     7358     7387 
    7422     7416     7388     7385     7409     7403     7363     7351 
    7390     7426     7418     7391     7374     7361     7357     7370 
    7396     7405     7367     7330     7353     7398     7414     7413 
    7420     7422     7424     7444     7435     7378     7349     7375 
    7404     7408     7402     7411     7431     7426     7398     7381 
    7382     7378     7364     7358     7368     7380     7387     7394 
    7398     7389     7385     7403     7418     7417     7422     7412 
    7383     7387     7412     7410     7396     7390     7383     7387 
    7388     7357     7335     7362     7400     7421     7435     7436 
    7419     7393     7368     7352     7356     7381     7405     7409 
    7411     7416     7403     7382     7375     7376     7378     7389 
    7422     7456     7445     7402     7369     7356     7366     7392 
    7401     7383     7372     7387     7406     7417     7403     7353 
    7320     7333     7350     7358     7356     7347     7363     7409 
    7445     7457     7475     7495     7463     7394     7348     7342 
    7351     7360     7369     7368     7370     7386     7400     7427 
    7460     7455     7433     7420     7393     7365     7354     7360 
    7381     7398     7394     7392     7390     7384     7380     7369 
    7363     7388     7437     7466     7458     7437     7405     7366 
    7364     7382     7362     7345     7379     7398     7381     7379 
    7390     7404     7435     7451     7422     7387     7369     7352 
    7333     7332     7357     7393     7412     7408     7407     7420 
    7408     7368     7370     7404     7387     7353     7387     7443 
    7436     7386     7358     7364     7377     7379     7384     7391 
    7382     7366     7359     7380     7443     7490     7470     7423 
    7389     7367     7369     7391     7394     7385     7394     7412 
    7430     7447     7442     7411     7375     7370     7397     7413 
    7412     7410     7394     7346     7297     7302     7354     7373 
    7362     7387     7432     7427     7379     7359     7375     7377 
    7375     7390     7390     7370     7353     7367     7411     7438 
    7428     7419     7431     7430     7393     7362     7363     7374 
    7395     7425     7434     7425     7420     7423     7427     7422 
    7411     7397     7367     7344     7360     7378     7379     7396 
    7427     7441     7428     7399     7370     7348     7339     7334 
    7322     7326     7360     7398     7420     7421     7415     7411 
    7401     7393     7403     7411     7399     7391     7403     7413 
    7402     7383     7377     7383     7377     7367     7385     7408 
    7405     7398     7412     7431     7428     7404     7375     7354 
    7349     7363     7381     7391     7397     7402     7407     7411 
    7394     7367     7379     7417     7429     7417     7421     7435 
    7423     7399     7380     7355     7342     7356     7370     7371 
    7373     7371     7361     7368     7397     7406     7397     7411 
    7428     7418     7409     7423     7440     7426     7384     7354 
    7352     7360     7375     7402     7426     7422     7403     7396 
    7399     7401     7408     7411     7402     7397     7394     7385 
    7384     7402     7423     7424     7408     7391     7372     7354 
    7342     7339     7359     7383     7387     7379     7378     7393 
    7406     7391     7382     7413     7437     7425     7408     7393 
    7379     7386     7410     7418     7402     7394     7404     7401 
    7394     7392     7370     7342     7340     7346     7328     7313 
    7345     7389     7398     7404     7418     7407     7388     7397 
    7406     7388     7388     7430     7449     7428     7405     7377 
    7358     7372     7385     7387     7393     7383     7367     7383 
    7409     7410     7409     7425     7418     7383     7379     7397 
    7397     7408     7433     7430     7419     7424     7408     7374 
    7372     7400     7420     7416     7383     7339     7328     7356 
    7374     7371     7379     7399     7402     7382     7366     7370 
    7384     7402     7433     7463     7476     7470     7444     7410 
    7393     7389     7376     7363     7368     7378     7369     7357 
    7373     7397     7401     7401     7421     7456     7467     7439 
    7405     7385     7358     7331     7333     7352     7360     7373 
    7397     7400     7386     7405     7429     7404     7383     7393 
    7385     7370     7382     7397     7404     7419     7418     7382 
    7355     7359     7366     7376     7387     7374     7352     7345 
    7362     7411     7455     7453     7431     7430     7429     7402 
    7353     7307     7300     7337     7384     7426     7456     7431 
    7362     7344     7384     7405     7398     7397     7389     7377 
    7390     7399     7374     7355     7368     7383     7392     7402 
    7399     7393     7409     7452     7486     7483     7470     7453 
    7406     7360     7356     7377     7400     7418     7418     7406 
    7402     7399     7393     7399     7393     7366     7367     7409 
    7438     7428     7398     7374     7360     7354     7349     7342 
    7334     7328     7327     7333     7335     7336     7368     7436 
    7497     7508     7482     7448     7423     7412     7393     7358 
    7337     7342     7360     7387     7418     7432     7408     7371 
    7358     7374     7396     7400     7393     7401     7428     7447 
    7447     7432     7407     7382     7362     7345     7350     7374 
    7381     7359     7330     7315     7324     7348     7373     7395 
    7408     7417     7436     7444     7429     7431     7448     7442 
    7429     7432     7440     7451     7451     7424     7394     7379 
    7359     7340     7349     7380     7399     7409     7425     7423 
    7389     7350     7323     7321     7356     7399     7416     7421 
    7429     7420     7386     7357     7353     7366     7387     7397 
    7373     7341     7345     7367     7380     7400     7427     7428 
    7410     7420     7440     7427     7402     7390     7377     7371 
    7391     7437     7486     7506     7478     7410     7334     7304 
    7329     7361     7377     7388     7391     7387     7382     7368 
    7332     7304     7328     7379     7413     7423     7417     7401 
    7384     7371     7367     7370     7388     7425     7438     7417 
    7395     7377     7368     7372     7375     7385     7399     7399 
    7402     7424     7433     7405     7363     7339     7350     7385 
    7408     7407     7406     7407     7399     7397     7420     7440 
    7428     7414     7414     7407     7396     7397     7397     7380 
    7369     7385     7405     7416     7426     7414     7398     7423 
    7456     7448     7417     7389     7380     7394     7405     7394 
    7364     7346     7351     7343     7315     7324     7365     7381 
    7368     7355     7356     7374     7394     7389     7384     7414 
    7449     7453     7434     7414     7412     7415     7389     7356 
    7360     7392     7419     7447     7489     7494     7420     7322 
    7276     7284     7310     7339     7380     7418     7426     7425 
    7445     7463     7454     7451     7482     7522     7537     7517 
    7459     7394     7356     7341     7344     7355     7353     7355 
    7370     7365     7344     7341     7358     7377     7404     7435 
    7453     7458     7477     7502     7507     7492     7458     7410 
    7395     7403     7368     7309     7286     7286     7270     7239 
    7224     7245     7280     7323     7392     7460     7495     7503 
    7498     7487     7479     7454     7408     7376     7384     7406 
    7421     7428     7398     7314     7232     7193     7187     7209 
    7249     7304     7371     7423     7448     7443     7409     7377 
    7379     7395     7401     7413     7439     7438     7390     7344 
    7331     7324     7304     7288     7316     7406     7491     7500 
    7453     7390     7324     7283     7289     7340     7426     7521 
    7598     7648     7678     7677     7637     7593     7562     7512 
    7450     7415     7405     7414     7433     7418     7336     7217 
    7104     7019     6978     6969     6960     6934     6912     6935 
    7020     7137     7257     7380     7487     7565     7633     7708 
    7778     7825     7851     7858     7829     7747     7622     7511 
    7447     7413     7405     7420     7436     7437     7420     7377 
    7302     7217     7176     7198     7270     7385     7500     7538 
    7489     7378     7240     7166     7224     7370     7500     7544 
    7510     7444     7374     7313     7264     7213     7182     7218 
    7314     7438     7551     7594     7544     7442     7325     7218 
    7167     7205     7313     7433     7534     7627     7694     7679 
    7592     7520     7510     7512     7476     7409     7325     7254 
    7245     7306     7372     7405     7454     7529     7535     7429 
    7274     7154     7110     7133     7195     7275     7342     7382 
    7406     7422     7432     7421     7381     7363     7416     7500 
    7543     7524     7457     7375     7298     7224     7186     7220 
    7297     7375     7423     7437     7440     7426     7403     7428 
    7484     7504     7489     7471     7443     7394     7346     7314 
    7297     7320     7421     7557     7639     7657     7638     7586 
    7520     7484     7483     7485     7439     7320     7168     7060 
    7037     7093     7171     7202     7198     7221     7287     7378 
    7498     7618     7657     7614     7545     7463     7387     7351 
    7347     7345     7322     7278     7237     7228     7258     7297 
    7334     7392     7477     7544     7571     7586     7608     7622 
    7595     7510     7408     7336     7298     7281     7257     7220 
    7213     7244     7270     7298     7359     7406     7400     7373 
    7366     7391     7437     7500     7559     7558     7504     7480 
    7474     7449     7441     7438     7387     7317     7278     7278 
    7319     7369     7385     7388     7395     7385     7363     7351 
    7341     7344     7368     7377     7343     7301     7303     7356 
    7419     7443     7431     7420     7412     7399     7419     7471 
    7501     7485     7446     7419     7424     7441     7442     7419 
    7373     7315     7250     7188     7178     7243     7326     7357 
    7349     7368     7404     7410     7410     7446     7495     7523 
    7517     7485     7449     7429     7410     7363     7274     7171 
    7121     7172     7302     7445     7540     7568     7548     7509 
    7477     7468     7474     7482     7480     7473     7479     7493 
    7490     7484     7496     7485     7416     7325     7279     7306 
    7377     7431     7437     7408     7364     7314     7257     7213 
    7217     7275     7338     7364     7392     7448     7489     7490 
    7458     7403     7366     7386     7431     7428     7371     7316 
    7295     7297     7318     7359     7385     7357     7298     7264 
    7289     7358     7431     7486     7519     7522     7498     7462 
    7448     7473     7497     7504     7511     7491     7448     7422 
    7415     7428     7477     7528     7522     7456     7377     7322 
    7308     7317     7317     7313     7322     7334     7343     7351 
    7360     7368     7363     7346     7322     7303     7323     7371 
    7400     7404     7414     7444     7472     7479     7476     7462 
    7430     7411     7423     7445     7448     7439     7424     7401 
    7373     7354     7340     7309     7278     7293     7327     7330 
    7306     7278     7256     7250     7265     7302     7350     7408 
    7483     7560     7608     7623     7610     7555     7458     7349 
    7253     7182     7155     7168     7210     7282     7359     7415 
    7461     7483     7455     7412     7381     7360     7369     7402 
    7425     7432     7424     7416     7425     7425     7391     7349 
    7330     7340     7373     7428     7485     7521     7537     7532 
    7497     7456     7417     7363     7334     7371     7449     7507 
    7504     7455     7401     7355     7335     7353     7362     7353 
    7361     7373     7353     7308     7269     7248     7240     7243 
    7274     7338     7402     7425     7420     7434     7474     7508 
    7508     7475     7414     7338     7275     7255     7290     7365 
    7442     7490     7512     7531     7557     7573     7564     7537 
    7491     7428     7363     7302     7249     7224     7223     7226 
    7248     7305     7373     7420     7437     7439     7455     7490 
    7503     7478     7448     7435     7424     7406     7401     7416 
    7413     7388     7368     7357     7357     7366     7376     7389 
    7396     7382     7356     7337     7322     7298     7258     7233 
    7258     7315     7364     7396     7426     7466     7515     7537 
    7500     7428     7382     7384     7419     7466     7526     7595 
    7633     7617     7578     7536     7479     7407     7321     7224 
    7134     7079     7064     7093     7166     7246     7292     7325 
    7375     7430     7477     7519     7539     7535     7516     7476 
    7430     7394     7361     7344     7362     7387     7392     7382 
    7371     7372     7387     7399     7404     7418     7443     7454 
    7444     7420     7379     7333     7294     7261     7253     7281 
    7307     7316     7330     7360     7405     7447     7468     7476 
    7494     7534     7566     7574     7589     7597     7561     7512 
    7479     7442     7394     7326     7226     7148     7129     7145 
    7177     7222     7272     7314     7350     7383     7401     7415 
    7437     7440     7427     7421     7424     7434     7449     7465 
    7487     7507     7513     7500     7481     7449     7384     7301 
    7250     7257     7320     7389     7412     7414     7427     7433 
    7414     7382     7362     7376     7403     7419     7424     7393 
