Origin Time       2025/03/28 03:50:00
Lat.              35.403
Long.             140.360
Depth. (km)       54
Mag.              4.4
Station Code      KNGH11
Station Lat.      35.4040
Station Long.     139.3539
Station Height(m) -1788
Record Time       2025/03/28 03:51:06
Sampling Freq(Hz) 100Hz
Duration Time(s)  120
Dir.              2
Scale Factor      2940(gal)/6170270
Max. Acc. (gal)   0.217
Last Correction   2025/03/28 03:50:51
Memo.             
[...]
 -137555  -137558  -137559  -137557  -137556  -137557  -137559  -137558 
 -137556  -137556  -137556  -137556  -137557  -137558  -137558  -137558 
 -137559  -137558  -137556  -137557  -137558  -137558  -137557  -137556 
 -137557  -137558  -137556  -137556  -137558  -137557  -137557  -137557 
 -137555  -137556  -137559  -137560  -137557  -137556  -137557  -137557 
 -137557  -137557  -137558  -137558  -137558  -137557  -137556  -137556 
 -137557  -137558  -137558  -137557  -137558  -137558  -137558  -137557 
 -137558  -137560  -137559  -137557  -137558  -137558  -137557  -137558 
 -137558  -137557  -137558  -137558  -137558  -137559  -137559  -137559 
 -137558  -137557  -137558  -137558  -137557  -137556  -137557  -137558 
 -137559  -137558  -137558  -137559  -137558  -137556  -137557  -137559 
 -137560  -137559  -137559  -137559  -137557  -137557  -137558  -137559 
 -137559  -137558  -137557  -137557  -137557  -137557  -137556  -137557 
 -137560  -137560  -137557  -137557  -137558  -137559  -137557  -137558 
 -137560  -137558  -137557  -137558  -137558  -137558  -137560  -137558 
 -137557  -137559  -137560  -137557  -137556  -137559  -137558  -137557 
 -137559  -137559  -137558  -137557  -137558  -137557  -137557  -137559 
 -137559  -137556  -137557  -137558  -137555  -137554  -137557  -137560 
 -137559  -137557  -137558  -137558  -137557  -137558  -137559  -137559 
 -137558  -137558  -137557  -137557  -137559  -137559  -137557  -137557 
 -137559  -137559  -137556  -137556  -137558  -137557  -137556  -137557 
 -137557  -137556  -137558  -137558  -137556  -137556  -137558  -137558 
 -137556  -137556  -137557  -137558  -137558  -137558  -137557  -137558 
 -137559  -137559  -137559  -137560  -137559  -137558  -137557  -137557 
 -137558  -137558  -137557  -137557  -137558  -137557  -137557  -137558 
 -137559  -137560  -137559  -137557  -137558  -137557  -137556  -137557 
 -137559  -137559  -137557  -137558  -137559  -137558  -137557  -137556 
 -137557  -137558  -137558  -137557  -137556  -137558  -137559  -137558 
 -137557  -137559  -137560  -137558  -137558  -137560  -137558  -137557 
 -137559  -137559  -137558  -137559  -137559  -137558  -137558  -137556 
 -137557  -137559  -137558  -137558  -137558  -137557  -137557  -137559 
 -137559  -137558  -137559  -137558  -137557  -137557  -137558  -137559 
 -137558  -137557  -137558  -137558  -137556  -137559  -137559  -137557 
 -137557  -137557  -137558  -137558  -137558  -137559  -137558  -137557 
 -137559  -137558  -137557  -137558  -137558  -137558  -137560  -137558 
 -137557  -137558  -137558  -137558  -137559  -137558  -137557  -137559 
 -137560  -137558  -137556  -137557  -137558  -137557  -137556  -137556 
 -137557  -137559  -137559  -137558  -137558  -137558  -137558  -137558 
 -137557  -137557  -137559  -137559  -137558  -137558  -137559  -137560 
 -137558  -137556  -137556  -137557  -137558  -137558  -137559  -137559 
 -137560  -137560  -137561  -137562  -137563  -137564  -137566  -137567 
 -137568  -137571  -137575  -137576  -137578  -137578  -137575  -137570 
 -137567  -137567  -137568  -137567  -137562  -137554  -137544  -137531 
 -137527  -137541  -137568  -137600  -137624  -137628  -137624  -137617 
 -137602  -137582  -137564  -137542  -137515  -137492  -137482  -137494 
 -137525  -137553  -137546  -137501  -137450  -137421  -137427  -137469 
 -137519  -137553  -137572  -137563  -137526  -137503  -137528  -137579 
 -137597  -137559  -137505  -137484  -137533  -137640  -137719  -137719 
 -137671  -137599  -137523  -137494  -137532  -137606  -137656  -137652 
 -137617  -137582  -137544  -137516  -137511  -137519  -137547  -137572 
 -137553  -137520  -137519  -137547  -137615  -137701  -137688  -137565 
 -137493  -137537  -137587  -137580  -137532  -137477  -137467  -137498 
 -137522  -137536  -137533  -137535  -137598  -137658  -137640  -137606 
 -137591  -137554  -137525  -137537  -137547  -137566  -137621  -137606 
 -137481  -137407  -137424  -137456  -137545  -137659  -137677  -137625 
 -137580  -137560  -137552  -137533  -137517  -137525  -137543  -137570 
 -137602  -137594  -137554  -137563  -137614  -137603  -137543  -137525 
 -137543  -137544  -137531  -137514  -137506  -137535  -137584  -137602 
 -137606  -137607  -137569  -137520  -137501  -137516  -137550  -137535 
 -137505  -137569  -137636  -137599  -137551  -137553  -137564  -137588 
 -137623  -137620  -137564  -137493  -137457  -137494  -137575  -137620 
 -137605  -137563  -137529  -137509  -137496  -137518  -137560  -137563 
 -137545  -137573  -137631  -137628  -137539  -137482  -137524  -137577 
 -137572  -137545  -137565  -137623  -137632  -137577  -137539  -137549 
 -137555  -137533  -137525  -137546  -137568  -137576  -137583  -137571 
 -137531  -137515  -137550  -137577  -137573  -137561  -137527  -137497 
 -137520  -137548  -137533  -137540  -137598  -137625  -137596  -137576 
 -137570  -137550  -137552  -137567  -137542  -137523  -137553  -137584 
 -137615  -137645  -137613  -137534  -137472  -137465  -137513  -137557 
 -137551  -137541  -137572  -137619  -137634  -137605  -137561  -137540 
 -137560  -137587  -137571  -137545  -137545  -137529  -137499  -137495 
 -137502  -137505  -137522  -137557  -137594  -137622  -137632  -137605 
 -137542  -137504  -137526  -137560  -137588  -137608  -137585  -137555 
 -137565  -137582  -137582  -137555  -137501  -137475  -137516  -137582 
 -137628  -137639  -137600  -137537  -137509  -137512  -137530  -137586 
 -137641  -137624  -137562  -137535  -137558  -137562  -137519  -137485 
 -137487  -137490  -137487  -137503  -137544  -137582  -137582  -137555 
 -137551  -137579  -137592  -137572  -137560  -137587  -137628  -137622 
 -137579  -137584  -137625  -137627  -137599  -137580  -137588  -137601 
 -137571  -137514  -137463  -137427  -137445  -137503  -137528  -137524 
 -137525  -137530  -137546  -137575  -137608  -137627  -137606  -137569 
 -137550  -137549  -137564  -137577  -137563  -137547  -137543  -137546 
 -137573  -137578  -137534  -137525  -137567  -137577  -137547  -137531 
 -137534  -137541  -137572  -137637  -137691  -137684  -137639  -137588 
 -137530  -137508  -137536  -137552  -137543  -137545  -137559  -137561 
 -137538  -137494  -137465  -137480  -137513  -137528  -137534  -137540 
 -137529  -137516  -137526  -137544  -137568  -137609  -137620  -137572 
 -137540  -137567  -137597  -137606  -137620  -137625  -137599  -137577 
 -137573  -137545  -137505  -137494  -137512  -137545  -137563  -137536 
 -137498  -137487  -137494  -137533  -137586  -137608  -137629  -137649 
 -137623  -137591  -137589  -137576  -137549  -137548  -137565  -137564 
 -137540  -137533  -137561  -137580  -137557  -137523  -137522  -137538 
 -137539  -137538  -137544  -137536  -137527  -137549  -137579  -137584 
 -137565  -137530  -137507  -137505  -137506  -137521  -137564  -137604 
 -137605  -137583  -137573  -137573  -137570  -137569  -137574  -137574 
 -137553  -137542  -137553  -137544  -137536  -137545  -137543  -137545 
 -137558  -137549  -137536  -137555  -137589  -137613  -137621  -137615 
 -137602  -137578  -137537  -137500  -137497  -137515  -137534  -137570 
 -137606  -137604  -137588  -137590  -137568  -137524  -137513  -137497 
 -137439  -137436  -137535  -137636  -137658  -137619  -137580  -137567 
 -137568  -137584  -137600  -137579  -137541  -137539  -137571  -137601 
 -137594  -137547  -137501  -137483  -137485  -137497  -137526  -137561 
 -137584  -137596  -137597  -137581  -137561  -137551  -137562  -137585 
 -137586  -137543  -137500  -137503  -137534  -137551  -137548  -137545 
 -137554  -137577  -137592  -137575  -137546  -137529  -137532  -137574 
 -137633  -137652  -137630  -137590  -137568  -137583  -137589  -137567 
 -137548  -137526  -137509  -137524  -137548  -137561  -137571  -137578 
 -137579  -137577  -137568  -137563  -137568  -137560  -137538  -137527 
 -137524  -137527  -137545  -137568  -137577  -137562  -137532  -137505 
 -137485  -137482  -137493  -137509  -137534  -137551  -137544  -137543 
 -137540  -137522  -137531  -137563  -137584  -137597  -137590  -137565 
 -137564  -137580  -137580  -137562  -137555  -137582  -137622  -137622 
 -137598  -137605  -137630  -137622  -137588  -137561  -137543  -137524 
 -137510  -137515  -137536  -137553  -137561  -137572  -137583  -137588 
 -137596  -137602  -137576  -137521  -137481  -137466  -137461  -137470 
 -137494  -137489  -137461  -137466  -137494  -137509  -137536  -137579 
 -137610  -137632  -137634  -137587  -137561  -137601  -137615  -137576 
 -137560  -137560  -137539  -137518  -137506  -137486  -137491  -137543 
 -137581  -137573  -137583  -137619  -137638  -137664  -137695  -137677 
 -137625  -137588  -137577  -137582  -137597  -137619  -137628  -137621 
 -137623  -137628  -137612  -137594  -137588  -137576  -137553  -137523 
 -137483  -137454  -137448  -137455  -137475  -137495  -137513  -137550 
 -137580  -137573  -137568  -137596  -137611  -137591  -137565  -137555 
 -137555  -137546  -137520  -137475  -137421  -137401  -137438  -137483 
 -137498  -137511  -137529  -137544  -137562  -137562  -137553  -137573 
 -137614  -137658  -137668  -137626  -137586  -137584  -137596  -137597 
 -137580  -137554  -137540  -137556  -137578  -137570  -137566  -137604 
 -137640  -137646  -137628  -137571  -137496  -137443  -137399  -137363 
 -137382  -137460  -137541  -137585  -137599  -137606  -137621  -137635 
 -137626  -137601  -137596  -137604  -137582  -137540  -137507  -137489 
 -137496  -137531  -137566  -137570  -137539  -137494  -137470  -137496 
 -137576  -137673  -137723  -137704  -137643  -137576  -137536  -137532 
 -137545  -137547  -137527  -137503  -137491  -137487  -137505  -137551 
 -137581  -137567  -137546  -137541  -137525  -137507  -137512  -137519 
 -137547  -137627  -137684  -137666  -137641  -137636  -137615  -137586 
 -137556  -137526  -137526  -137554  -137571  -137571  -137575  -137576 
 -137559  -137536  -137506  -137484  -137500  -137522  -137520  -137528 
 -137540  -137516  -137476  -137467  -137486  -137517  -137545  -137554 
 -137548  -137552  -137595  -137665  -137690  -137646  -137601  -137603 
 -137624  -137637  -137623  -137571  -137506  -137459  -137431  -137425 
 -137465  -137552  -137630  -137652  -137648  -137655  -137651  -137638 
 -137652  -137648  -137572  -137500  -137491  -137499  -137507  -137530 
 -137541  -137521  -137502  -137499  -137500  -137508  -137523  -137531 
 -137533  -137553  -137595  -137625  -137627  -137604  -137563  -137528 
 -137511  -137505  -137532  -137577  -137569  -137533  -137532  -137531 
 -137516  -137541  -137581  -137579  -137570  -137598  -137623  -137609 
 -137589  -137590  -137594  -137593  -137595  -137576  -137538  -137512 
 -137507  -137519  -137533  -137538  -137549  -137559  -137546  -137527 
 -137510  -137501  -137515  -137535  -137539  -137551  -137575  -137578 
 -137574  -137597  -137625  -137612  -137560  -137519  -137510  -137507 
 -137511  -137533  -137554  -137568  -137580  -137572  -137564  -137578 
 -137579  -137562  -137569  -137594  -137607  -137613  -137624  -137638 
 -137634  -137602  -137568  -137550  -137531  -137526  -137543  -137537 
 -137517  -137523  -137516  -137489  -137501  -137541  -137562  -137564 
 -137565  -137570  -137572  -137550  -137515  -137495  -137498  -137538 
 -137598  -137618  -137607  -137612  -137603  -137541  -137477  -137457 
 -137463  -137482  -137528  -137579  -137597  -137606  -137624  -137608 
 -137560  -137551  -137576  -137578  -137575  -137586  -137562  -137519 
 -137530  -137571  -137584  -137591  -137598  -137584  -137552  -137511 
 -137490  -137518  -137550  -137544  -137526  -137519  -137520  -137546 
 -137594  -137626  -137620  -137603  -137598  -137583  -137563  -137579 
 -137597  -137575  -137566  -137585  -137575  -137551  -137557  -137577 
 -137585  -137566  -137527  -137496  -137482  -137491  -137521  -137555 
 -137582  -137602  -137600  -137570  -137546  -137558  -137588  -137608 
 -137601  -137546  -137462  -137426  -137461  -137509  -137541  -137562 
 -137563  -137537  -137525  -137547  -137573  -137598  -137615  -137614 
 -137627  -137654  -137657  -137635  -137590  -137534  -137512  -137534 
 -137555  -137558  -137551  -137531  -137525  -137537  -137517  -137476 
 -137466  -137484  -137521  -137552  -137549  -137542  -137555  -137571 
 -137572  -137565  -137562  -137575  -137608  -137621  -137565  -137496 
 -137502  -137543  -137558  -137560  -137568  -137587  -137612  -137641 
 -137651  -137625  -137599  -137602  -137612  -137620  -137617  -137591 
 -137559  -137546  -137569  -137594  -137567  -137518  -137505  -137523 
 -137543  -137551  -137547  -137534  -137511  -137494  -137516  -137562 
 -137585  -137571  -137553  -137569  -137603  -137616  -137616  -137622 
 -137615  -137587  -137551  -137517  -137512  -137538  -137533  -137492 
 -137467  -137469  -137484  -137489  -137480  -137487  -137517  -137554 
 -137608  -137657  -137652  -137606  -137568  -137544  -137500  -137443 
 -137422  -137440  -137453  -137449  -137457  -137474  -137474  -137451 
 -137422  -137430  -137489  -137531  -137527  -137524  -137538  -137560 
 -137591  -137606  -137581  -137558  -137573  -137589  -137587  -137598 
 -137626  -137637  -137627  -137627  -137640  -137667  -137707  -137731 
 -137731  -137724  -137686  -137613  -137538  -137480  -137457  -137464 
 -137468  -137474  -137499  -137524  -137549  -137601  -137677  -137752 
 -137797  -137806  -137800  -137803  -137805  -137794  -137757  -137689 
 -137619  -137586  -137565  -137513  -137428  -137326  -137222  -137136 
 -137103  -137164  -137306  -137475  -137637  -137763  -137827  -137826 
 -137775  -137679  -137541  -137377  -137224  -137130  -137118  -137175 
 -137303  -137507  -137713  -137829  -137865  -137884  -137895  -137873 
 -137821  -137750  -137639  -137508  -137419  -137370  -137335  -137307 
 -137273  -137266  -137352  -137499  -137610  -137661  -137659  -137598 
 -137534  -137523  -137543  -137590  -137678  -137788  -137875  -137866 
 -137727  -137563  -137466  -137390  -137304  -137257  -137272  -137348 
 -137464  -137569  -137637  -137670  -137655  -137587  -137500  -137444 
 -137451  -137528  -137652  -137784  -137884  -137918  -137875  -137763 
 -137614  -137481  -137404  -137380  -137380  -137406  -137471  -137549 
 -137605  -137613  -137581  -137570  -137607  -137662  -137696  -137687 
 -137644  -137595  -137557  -137530  -137509  -137481  -137445  -137427 
 -137449  -137483  -137510  -137552  -137586  -137577  -137550  -137540 
 -137545  -137557  -137556  -137530  -137502  -137508  -137552  -137612 
 -137667  -137674  -137632  -137590  -137558  -137508  -137450  -137426 
 -137463  -137532  -137577  -137584  -137556  -137519  -137526  -137572 
 -137588  -137534  -137439  -137374  -137375  -137395  -137395  -137432 
 -137545  -137690  -137806  -137843  -137795  -137715  -137636  -137539 
 -137428  -137351  -137335  -137368  -137451  -137569  -137673  -137745 
 -137795  -137823  -137836  -137840  -137804  -137723  -137650  -137604 
 -137548  -137495  -137502  -137532  -137495  -137383  -137251  -137158 
 -137171  -137298  -137468  -137607  -137702  -137797  -137901  -137951 
 -137910  -137821  -137705  -137549  -137389  -137303  -137302  -137317 
 -137318  -137320  -137313  -137303  -137320  -137367  -137432  -137513 
 -137606  -137698  -137756  -137766  -137729  -137659  -137595  -137567 
 -137573  -137591  -137595  -137579  -137549  -137513  -137496  -137512 
 -137541  -137552  -137556  -137573  -137586  -137582  -137586  -137618 
 -137654  -137652  -137611  -137554  -137496  -137466  -137486  -137526 
 -137549  -137548  -137533  -137508  -137475  -137462  -137490  -137524 
 -137541  -137583  -137667  -137735  -137728  -137643  -137544  -137504 
 -137525  -137586  -137684  -137766  -137787  -137787  -137788  -137747 
 -137659  -137573  -137508  -137458  -137440  -137457  -137468  -137462 
 -137462  -137460  -137453  -137446  -137437  -137461  -137542  -137616 
 -137617  -137573  -137540  -137543  -137570  -137574  -137545  -137541 
 -137554  -137531  -137505  -137528  -137572  -137593  -137587  -137575 
 -137591  -137633  -137660  -137657  -137631  -137588  -137540  -137498 
 -137476  -137486  -137522  -137569  -137605  -137628  -137641  -137637 
 -137610  -137564  -137517  -137478  -137426  -137363  -137310  -137297 
 -137348  -137440  -137502  -137501  -137499  -137537  -137557  -137543 
 -137550  -137595  -137644  -137667  -137666  -137663  -137659  -137656 
 -137667  -137677  -137653  -137606  -137568  -137545  -137524  -137499 
 -137478  -137491  -137521  -137532  -137568  -137655  -137722  -137727 
 -137691  -137650  -137650  -137688  -137695  -137641  -137582  -137553 
 -137514  -137455  -137421  -137415  -137409  -137398  -137389  -137399 
 -137422  -137441  -137474  -137535  -137596  -137617  -137599  -137587 
 -137594  -137589  -137580  -137595  -137628  -137655  -137679  -137689 
 -137644  -137556  -137489  -137465  -137470  -137507  -137569  -137619 
 -137630  -137625  -137635  -137645  -137637  -137619  -137579  -137527 
 -137501  -137506  -137524  -137558  -137587  -137585  -137561  -137517 
 -137444  -137382  -137379  -137430  -137484  -137510  -137524  -137525 
 -137504  -137493  -137526  -137581  -137634  -137682  -137686  -137604 
 -137476  -137392  -137390  -137451  -137537  -137607  -137654  -137689 
 -137702  -137692  -137671  -137627  -137576  -137568  -137594  -137600 
 -137585  -137586  -137596  -137588  -137580  -137594  -137609  -137608 
 -137589  -137540  -137478  -137467  -137522  -137577  -137587  -137570 
 -137541  -137506  -137478  -137469  -137482  -137487  -137463  -137443 
 -137457  -137497  -137556  -137625  -137660  -137626  -137550  -137496 
 -137509  -137588  -137671  -137699  -137663  -137600  -137555  -137529 
 -137498  -137476  -137485  -137509  -137530  -137539  -137529  -137502 
 -137487  -137502  -137534  -137565  -137597  -137629  -137637  -137620 
 -137603  -137588  -137567  -137574  -137625  -137674  -137677  -137632 
 -137578  -137557  -137549  -137529  -137521  -137529  -137540  -137543 
 -137524  -137505  -137514  -137519  -137521  -137549  -137580  -137589 
 -137593  -137593  -137586  -137592  -137603  -137595  -137589  -137608 
 -137619  -137606  -137598  -137583  -137538  -137478  -137423  -137393 
 -137397  -137425  -137456  -137483  -137504  -137512  -137516  -137532 
 -137575  -137632  -137666  -137682  -137704  -137721  -137724  -137723 
 -137683  -137596  -137522  -137498  -137510  -137537  -137554  -137541 
 -137509  -137483  -137473  -137462  -137443  -137405  -137356  -137355 
 -137421  -137496  -137556  -137626  -137685  -137698  -137668  -137626 
 -137621  -137660  -137701  -137734  -137759  -137750  -137705  -137656 
 -137635  -137631  -137608  -137564  -137506  -137439  -137402  -137405 
 -137405  -137399  -137422  -137479  -137536  -137571  -137594  -137610 
 -137610  -137584  -137543  -137505  -137490  -137508  -137540  -137553 
 -137552  -137548  -137525  -137492  -137492  -137515  -137516  -137503 
 -137495  -137494  -137503  -137525  -137542  -137543  -137542  -137563 
 -137607  -137651  -137670  -137658  -137648  -137671  -137698  -137703 
 -137697  -137694  -137688  -137648  -137571  -137503  -137469  -137451 
 -137440  -137436  -137443  -137470  -137507  -137547  -137584  -137596 
 -137573  -137550  -137548  -137554  -137553  -137555  -137573  -137596 
 -137609  -137604  -137568  -137511  -137477  -137474  -137478  -137479 
