Origin Time       2025/03/28 03:50:00
Lat.              35.403
Long.             140.360
Depth. (km)       54
Mag.              4.4
Station Code      KNGH21
Station Lat.      35.4628
Station Long.     139.2146
Station Height(m) 455
Record Time       2025/03/28 03:51:10
Sampling Freq(Hz) 100Hz
Duration Time(s)  120
Dir.              5
Scale Factor      7845(gal)/8223790
Max. Acc. (gal)   0.674
Last Correction   2025/03/28 03:51:10
Memo.             
    -710     -711     -706     -708     -715     -712     -708     -702 
    -696     -710     -716     -706     -707     -712     -711     -710 
    -703     -702     -711     -711     -706     -706     -707     -710 
    -708     -706     -707     -714     -714     -706     -703     -706 
    -706     -708     -712     -710     -706     -710     -711     -708 
    -704     -702     -706     -714     -715     -704     -699     -707 
    -708     -708     -711     -704     -700     -710     -714     -710 
    -707     -708     -707     -704     -708     -710     -707     -708 
    -711     -710     -708     -707     -710     -710     -707     -707 
    -707     -707     -710     -711     -708     -708     -707     -702 
    -706     -712     -714     -711     -704     -702     -711     -715 
    -707     -704     -707     -708     -710     -712     -711     -710 
    -708     -704     -702     -704     -712     -715     -708     -704 
    -710     -710     -706     -704     -707     -711     -710     -708 
    -711     -707     -704     -711     -711     -704     -702     -704 
    -710     -711     -706     -703     -711     -716     -710     -706 
    -707     -708     -710     -708     -708     -716     -714     -711 
    -712     -706     -704     -714     -716     -718     -718     -710 
    -706     -706     -710     -714     -712     -710     -708     -704 
    -699     -702     -708     -718     -723     -719     -714     -707 
    -699     -696     -697     -702     -704     -702     -693     -685 
    -683     -687     -693     -691     -687     -692     -702     -707 
    -719     -746     -770     -781     -777     -756     -722     -700 
    -683     -668     -665     -669     -670     -673     -688     -718 
    -750     -757     -727     -691     -692     -724     -742     -719 
    -685     -681     -702     -712     -702     -673     -639     -630 
    -654     -685     -710     -741     -764     -742     -707     -724 
    -764     -761     -702     -637     -648     -714     -747     -737 
    -697     -656     -654     -689     -716     -708     -688     -710 
    -757     -756     -731     -749     -789     -789     -714     -634 
    -631     -652     -657     -677     -683     -657     -670     -737 
    -783     -783     -781     -801     -803     -774     -731     -689 
    -677     -673     -637     -603     -599     -618     -645     -666 
    -695     -727     -737     -746     -796     -861     -877     -828 
    -760     -687     -607     -573     -606     -662     -691     -666 
    -635     -662     -715     -735     -749     -783     -804     -774 
    -718     -692     -685     -650     -614     -627     -677     -720 
    -716     -681     -664     -646     -631     -676     -768     -839 
    -876     -870     -805     -722     -672     -642     -598     -549 
    -534     -583     -688     -764     -751     -729     -765     -793 
    -777     -793     -849     -842     -750     -656     -631     -670 
    -702     -673     -621     -592     -583     -589     -637     -730 
    -823     -870     -872     -839     -792     -745     -687     -631 
    -612     -623     -621     -598     -614     -696     -764     -766 
    -756     -757     -729     -688     -702     -768     -842     -886 
    -837     -700     -572     -499     -492     -541     -603     -676 
    -756     -789     -780     -781     -785     -764     -727     -708 
    -734     -773     -774     -751     -724     -692     -656     -621 
    -612     -641     -699     -745     -739     -712     -719     -760 
    -807     -864     -889     -826     -702     -576     -499     -508 
    -573     -641     -672     -631     -561     -565     -657     -776 
    -870     -907     -892     -845     -769     -720     -715     -700 
    -668     -614     -527     -492     -554     -650     -730     -773 
    -803     -838     -861     -880     -872     -784     -679     -635 
    -638     -630     -607     -604     -612     -621     -669     -742 
    -780     -774     -772     -792     -792     -735     -670     -645 
    -676     -730     -708     -630     -618     -681     -764     -807 
    -772     -720     -712     -730     -738     -708     -670     -672 
    -692     -731     -795     -800     -722     -635     -585     -579 
    -592     -583     -596     -672     -747     -787     -808     -843 
    -864     -814     -723     -648     -610     -643     -699     -692 
    -668     -689     -710     -718     -747     -774     -783     -772 
    -741     -737     -747     -714     -673     -666     -661     -638 
    -614     -627     -687     -739     -777     -815     -808     -739 
    -675     -662     -652     -602     -568     -611     -680     -718 
    -729     -720     -714     -738     -774     -796     -789     -765 
    -754     -746     -707     -669     -661     -681     -712     -688 
    -626     -615     -656     -693     -697     -681     -691     -734 
    -772     -781     -761     -726     -702     -687     -685     -707 
    -714     -687     -669     -684     -706     -739     -768     -766 
    -749     -708     -665     -666     -665     -634     -634     -676 
    -727     -757     -774     -819     -850     -824     -787     -762 
    -727     -672     -608     -572     -592     -657     -715     -735 
    -746     -774     -788     -762     -704     -633     -595     -630 
    -685     -707     -734     -781     -807     -773     -683     -604 
    -599     -643     -697     -743     -747     -707     -670     -664 
    -675     -699     -730     -751     -742     -702     -664     -675 
    -742     -808     -805     -760     -750     -765     -751     -707 
    -638     -584     -588     -637     -707     -754     -737     -696 
    -657     -622     -629     -681     -733     -757     -754     -743 
    -723     -696     -691     -730     -776     -768     -715     -675 
    -656     -660     -697     -735     -747     -730     -681     -625 
    -604     -641     -711     -770     -781     -758     -746     -757 
    -774     -773     -750     -716     -685     -672     -679     -687 
    -666     -634     -652     -702     -719     -716     -704     -684 
    -681     -707     -745     -773     -758     -715     -704     -735 
    -760     -769     -757     -719     -680     -652     -645     -658 
    -669     -692     -720     -726     -742     -789     -799     -739 
    -660     -610     -606     -648     -712     -764     -793     -807 
    -800     -766     -707     -646     -607     -581     -576     -616 
    -684     -746     -780     -776     -753     -738     -731     -718 
    -703     -696     -702     -722     -737     -716     -676     -643 
    -631     -649     -695     -747     -780     -766     -729     -719 
    -733     -738     -708     -641     -581     -587     -666     -780 
    -834     -791     -723     -699     -704     -691     -654     -623 
    -607     -615     -661     -743     -814     -839     -828     -778 
    -722     -702     -700     -688     -657     -621     -611     -623 
    -648     -695     -756     -799     -792     -745     -716     -712 
    -710     -708     -706     -699     -707     -710     -700     -697 
    -681     -668     -679     -673     -650     -662     -727     -807 
    -850     -847     -801     -734     -695     -696     -708     -708 
    -702     -706     -735     -772     -781     -746     -683     -626 
    -592     -584     -606     -657     -737     -810     -823     -757 
    -648     -580     -602     -653     -693     -737     -757     -751 
    -754     -760     -749     -710     -638     -588     -607     -646 
    -668     -702     -753     -788     -808     -837     -846     -801 
    -737     -699     -673     -643     -648     -695     -735     -747 
    -742     -720     -683     -645     -630     -625     -608     -608 
    -650     -702     -729     -741     -753     -770     -789     -773 
    -715     -660     -646     -666     -683     -676     -669     -704 
    -749     -749     -727     -706     -658     -611     -622     -672 
    -716     -761     -812     -832     -807     -788     -780     -733 
    -666     -626     -615     -622     -642     -692     -774     -818 
    -785     -743     -734     -718     -676     -645     -646     -664 
    -700     -757     -776     -741     -700     -672     -676     -731 
    -787     -808     -799     -734     -631     -569     -585     -649 
    -723     -781     -791     -756     -707     -646     -606     -626 
    -661     -660     -664     -707     -750     -751     -741     -749 
    -743     -699     -672     -699     -729     -722     -704     -677 
    -631     -607     -656     -742     -792     -795     -769     -735 
    -714     -699     -683     -658     -642     -670     -731     -773 
    -772     -731     -703     -716     -715     -683     -661     -672 
    -715     -747     -720     -662     -626     -614     -616     -649 
    -707     -758     -765     -723     -666     -648     -696     -764 
    -764     -729     -747     -810     -850     -831     -770     -702 
    -657     -645     -638     -637     -685     -733     -716     -697 
    -743     -828     -888     -881     -824     -756     -664     -581 
    -565     -598     -633     -649     -657     -692     -737     -737 
    -693     -656     -645     -630     -612     -643     -729     -823 
    -865     -822     -750     -711     -693     -679     -680     -695 
    -697     -684     -679     -704     -739     -724     -669     -625 
    -607     -627     -702     -808     -865     -832     -766     -700 
    -639     -627     -649     -645     -641     -675     -723     -766 
    -795     -791     -751     -668     -577     -569     -648     -720 
    -738     -722     -706     -706     -724     -756     -783     -760 
    -676     -619     -630     -660     -699     -742     -766     -765 
    -756     -760     -773     -760     -708     -669     -672     -680 
    -688     -719     -742     -742     -724     -695     -675     -685 
    -720     -747     -733     -700     -680     -656     -658     -738 
    -814     -807     -754     -697     -637     -587     -581     -616 
    -665     -715     -776     -830     -850     -827     -774     -702 
    -619     -583     -604     -645     -685     -715     -735     -770 
    -803     -800     -765     -697     -622     -576     -589     -650 
    -716     -754     -750     -741     -757     -758     -711     -661 
    -669     -719     -739     -722     -695     -653     -621     -619 
    -637     -692     -783     -854     -872     -839     -787     -731 
    -673     -633     -621     -615     -616     -626     -649     -683 
    -733     -796     -830     -796     -716     -648     -616     -615 
    -641     -691     -722     -724     -735     -756     -758     -730 
    -684     -642     -641     -695     -761     -789     -762     -714 
    -683     -675     -699     -739     -749     -743     -743     -733 
    -719     -714     -693     -664     -661     -688     -710     -718 
    -739     -769     -778     -774     -770     -739     -668     -585 
    -538     -557     -611     -665     -729     -800     -846     -839 
    -795     -754     -726     -704     -683     -666     -662     -666 
    -688     -735     -768     -760     -733     -693     -657     -643 
    -649     -661     -681     -730     -801     -823     -766     -704 
    -675     -645     -614     -596     -595     -631     -693     -745 
    -787     -810     -799     -760     -723     -720     -714     -673 
    -660     -695     -726     -729     -712     -683     -648     -614 
    -602     -639     -710     -770     -789     -749     -697     -703 
    -747     -795     -816     -793     -737     -675     -646     -654 
    -664     -656     -642     -658     -716     -778     -823     -839 
    -814     -747     -672     -657     -697     -714     -697     -685 
    -664     -618     -575     -584     -626     -669     -734     -811 
    -850     -827     -769     -708     -652     -611     -612     -661 
    -722     -743     -734     -734     -746     -749     -729     -716 
    -735     -770     -805     -814     -800     -793     -758     -696 
    -639     -588     -537     -495     -481     -498     -535     -626 
    -742     -834     -913     -980    -1019    -1031     -992     -920 
    -861     -765     -588     -395     -260     -197     -218     -328 
    -495     -675     -835     -951     -980     -911     -819     -762 
    -724     -689     -669     -670     -700     -749     -785     -808 
    -819     -820     -818     -774     -662     -537     -479     -479 
    -476     -469     -494     -560     -675     -815     -912     -930 
    -901     -880     -869     -846     -797     -733     -692     -719 
    -788     -854     -888     -854     -746     -598     -481     -438 
    -449     -496     -584     -706     -855    -1021    -1156    -1194 
   -1101     -927     -754     -622     -508     -410     -341     -306 
    -306     -340     -392     -448     -480     -494     -538     -661 
    -858    -1069    -1240    -1360    -1404    -1339    -1156     -859 
    -495     -170       -1      -52     -264     -508     -696     -785 
    -770     -715     -714     -787     -874     -901     -888     -920 
   -1030    -1127    -1086     -874     -565     -305     -226     -367 
    -594     -726     -776     -859     -970    -1034    -1000     -857 
    -664     -499     -446     -526     -625     -627     -556     -517 
    -572     -691     -784     -792     -726     -642     -614     -670 
    -760     -827     -855     -837     -793     -738     -670     -608 
    -537     -465     -459     -537     -645     -722     -791     -900 
   -1032    -1140    -1179    -1084     -827     -519     -317     -271 
    -307     -371     -472     -621     -780     -896     -920     -846 
    -746     -676     -638     -649     -726     -819     -847     -800 
    -729     -657     -583     -560     -612     -670     -697     -746 
    -853     -958    -1000     -985     -903     -756     -623     -568 
    -552     -498     -387     -295     -298     -386     -517     -645 
    -765     -911    -1075    -1209    -1271    -1227    -1067     -835 
    -592     -405     -319     -332     -378     -437     -550     -731 
    -949    -1136    -1219    -1155     -972     -765     -630     -556 
    -479     -387     -365     -473     -635     -768     -828     -793 
    -693     -577     -495     -502     -568     -612     -626     -658 
    -720     -811     -920    -1004    -1011     -934     -822     -756 
    -723     -646     -533     -423     -352     -368     -488     -657 
    -823     -954     -999     -957     -903     -907     -949     -936 
    -823     -661     -514     -402     -348     -394     -526     -661 
    -743     -799     -839     -827     -772     -697     -638     -618 
    -621     -643     -687     -695     -664     -637     -633     -658 
    -702     -724     -729     -738     -780     -862     -951    -1013 
   -1047    -1038     -984     -896     -761     -581     -440     -382 
    -360     -361     -446     -629     -827     -926     -908     -839 
    -733     -607     -549     -615     -733     -793     -805     -838 
    -839     -723     -542     -407     -378     -472     -653     -805 
    -855     -838     -807     -784     -751     -684     -629     -629 
    -680     -784     -918    -1004    -1007     -923     -800     -710 
    -630     -519     -426     -419     -499     -599     -665     -700 
    -716     -715     -711     -697     -684     -702     -729     -737 
    -758     -797     -787     -700     -626     -646     -714     -749 
    -756     -762     -746     -689     -654     -704     -778     -804 
    -797     -766     -699     -627     -591     -607     -645     -652 
    -641     -665     -719     -789     -868     -900     -857     -824 
    -869     -930     -908     -797     -669     -549     -442     -378 
    -367     -392     -429     -486     -623     -839    -1012    -1061 
    -978     -807     -652     -577     -557     -552     -530     -503 
    -527     -629     -781     -935    -1040    -1085    -1086    -1043 
    -940     -795     -645     -537     -506     -519     -538     -572 
    -639     -697     -699     -691     -715     -727     -697     -638 
    -572     -522     -496     -521     -619     -760     -868     -924 
    -978    -1017     -969     -847     -711     -585     -502     -479 
    -518     -602     -699     -805     -897     -911     -846     -745 
    -637     -553     -514     -541     -584     -565     -523     -552 
    -662     -780     -842     -897    -1003    -1051     -934     -710 
    -506     -413     -460     -607     -792     -974    -1102    -1129 
   -1042     -854     -612     -386     -233     -193     -276     -450 
    -675     -903    -1040    -1035     -922     -751     -591     -531 
    -581     -652     -687     -733     -816     -900     -913     -826 
    -692     -598     -583     -623     -661     -660     -653     -687 
    -747     -812     -850     -807     -700     -608     -560     -549 
    -587     -658     -727     -770     -789     -789     -750     -673 
    -619     -585     -558     -580     -641     -712     -805     -893 
    -919     -877     -805     -749     -707     -657     -607     -588 
    -589     -583     -571     -548     -523     -544     -615     -696 
    -783     -888    -1007    -1092    -1084     -977     -818     -669 
    -591     -595     -635     -677     -718     -761     -800     -805 
    -750     -666     -603     -572     -583     -638     -688     -703 
    -710     -706     -675     -635     -604     -594     -600     -625 
    -691     -769     -808     -824     -841     -873     -918     -924 
    -854     -741     -642     -580     -531     -508     -542     -606 
    -688     -805     -908     -913     -815     -676     -579     -535 
    -515     -523     -556     -604     -689     -783     -838     -857 
    -858     -842     -808     -734     -631     -565     -581     -650 
    -739     -843     -922     -938     -904     -816     -681     -522 
    -352     -243     -283     -448     -645     -803     -912    -1009 
   -1075    -1053     -954     -831     -710     -599     -518     -480 
    -488     -538     -585     -594     -608     -666     -749     -855 
    -938     -958     -938     -870     -768     -693     -643     -567 
    -472     -414     -413     -459     -529     -602     -677     -747 
    -784     -800     -837     -880     -897     -885     -842     -797 
    -807     -874     -904     -838     -733     -662     -626     -591 
    -537     -469     -417     -432     -564     -784     -977    -1055 
   -1005     -876     -760     -680     -588     -521     -541     -614 
    -684     -742     -780     -799     -787     -734     -669     -633 
    -637     -662     -684     -704     -719     -715     -714     -730 
    -734     -714     -697     -710     -726     -730     -730     -734 
    -742     -760     -781     -769     -685     -581     -527     -508 
    -491     -483     -511     -583     -664     -760     -909    -1044 
   -1081    -1057    -1008     -918     -796     -681     -591     -515 
    -456     -444     -504     -612     -715     -783     -807     -803 
    -764     -679     -621     -658     -745     -807     -804     -743 
