Origin Time       2025/03/28 03:50:00
Lat.              35.403
Long.             140.360
Depth. (km)       54
Mag.              4.4
Station Code      KNGH11
Station Lat.      35.4040
Station Long.     139.3539
Station Height(m) 12
Record Time       2025/03/28 03:51:06
Sampling Freq(Hz) 100Hz
Duration Time(s)  120
Dir.              4
Scale Factor      3920(gal)/6170801
Max. Acc. (gal)   1.145
Last Correction   2025/03/28 03:50:51
Memo.             
[...]
    5661     5685     5631     5578     5557     5541     5561     5605 
    5616     5638     5665     5635     5606     5621     5649     5686 
    5685     5618     5585     5629     5676     5718     5733     5681 
    5640     5648     5683     5719     5687     5640     5672     5699 
    5699     5733     5757     5758     5773     5779     5766     5760 
    5747     5729     5723     5707     5681     5680     5681     5655 
    5623     5580     5547     5572     5613     5623     5589     5520 
    5501     5537     5539     5517     5494     5457     5451     5446 
    5409     5450     5557     5599     5602     5626     5648     5683 
    5706     5646     5596     5639     5670     5644     5629     5627 
    5643     5679     5689     5696     5727     5721     5689     5698 
    5715     5705     5695     5690     5685     5688     5700     5686 
    5648     5671     5725     5722     5722     5732     5688     5652 
    5640     5622     5662     5719     5713     5720     5731     5668 
    5632     5655     5637     5624     5644     5630     5604     5575 
    5526     5523     5557     5557     5568     5604     5598     5596 
    5625     5624     5617     5623     5604     5588     5586     5579 
    5596     5614     5570     5504     5500     5571     5652     5658 
    5626     5641     5688     5734     5756     5740     5719     5698 
    5683     5694     5696     5657     5610     5592     5615     5653 
    5644     5606     5619     5681     5717     5689     5656     5670 
    5696     5705     5695     5656     5635     5664     5674     5640 
    5614     5598     5578     5584     5599     5585     5561     5545 
    5547     5605     5672     5679     5665     5661     5673     5726 
    5770     5762     5757     5750     5705     5681     5702     5696 
    5659     5643     5641     5646     5667     5662     5630     5600 
    5569     5576     5625     5627     5614     5636     5626     5604 
    5618     5600     5551     5535     5553     5615     5684     5664 
    5615     5616     5620     5632     5642     5600     5560     5564 
    5567     5561     5578     5601     5614     5638     5660     5662 
    5669     5689     5719     5739     5740     5734     5735     5754 
    5766     5728     5668     5646     5661     5679     5683     5650 
    5602     5614     5660     5633     5577     5572     5560     5552 
    5586     5599     5594     5599     5586     5613     5683     5681 
    5648     5682     5719     5725     5696     5637     5632     5652 
    5608     5552     5528     5548     5610     5616     5555     5559 
    5630     5703     5762     5746     5665     5622     5637     5659 
    5670     5628     5553     5555     5609     5622     5606     5582 
    5574     5598     5624     5643     5644     5633     5652     5685 
    5711     5749     5763     5743     5741     5755     5758     5758 
    5746     5723     5712     5686     5651     5647     5641     5600 
    5568     5572     5588     5591     5569     5548     5541     5549 
    5573     5597     5599     5583     5554     5532     5539     5554 
    5565     5588     5609     5626     5655     5677     5696     5741 
    5793     5836     5883     5899     5878     5854     5838     5834 
    5815     5750     5689     5660     5623     5582     5557     5527 
    5500     5494     5494     5494     5496     5495     5503     5540 
    5586     5608     5616     5636     5656     5691     5752     5769 
    5711     5642     5597     5572     5604     5655     5631     5568 
    5536     5550     5608     5627     5571     5531     5524     5543 
    5606     5622     5572     5572     5591     5557     5531     5535 
    5578     5663     5693     5661     5672     5720     5756     5764 
    5748     5775     5826     5819     5813     5839     5837     5828 
    5835     5820     5771     5719     5698     5720     5713     5633 
    5563     5539     5540     5566     5539     5462     5442     5444 
    5435     5441     5438     5460     5532     5595     5619     5619 
    5638     5686     5702     5669     5650     5662     5682     5701 
    5683     5666     5707     5746     5756     5750     5721     5742 
    5814     5837     5804     5737     5671     5662     5667     5631 
    5585     5586     5627     5629     5585     5546     5517     5531 
    5571     5536     5492     5520     5552     5562     5571     5590 
    5659     5735     5722     5673     5702     5776     5813     5808 
    5768     5725     5727     5770     5789     5730     5653     5636 
    5644     5640     5612     5535     5461     5441     5435     5413 
    5384     5395     5458     5502     5499     5492     5518     5573 
    5606     5611     5656     5721     5722     5689     5688     5739 
    5821     5848     5806     5769     5764     5800     5843     5808 
    5721     5671     5694     5774     5822     5792     5747     5717 
    5702     5692     5639     5565     5550     5582     5595     5590 
    5591     5596     5596     5597     5625     5667     5681     5667 
    5634     5611     5616     5592     5523     5452     5434     5500 
    5591     5620     5577     5543     5601     5684     5693     5669 
    5642     5610     5625     5649     5641     5632     5601     5568 
    5584     5604     5598     5602     5620     5659     5708     5743 
    5779     5796     5777     5797     5847     5846     5812     5775 
    5726     5690     5696     5720     5696     5631     5596     5614 
    5626     5591     5543     5498     5465     5478     5499     5493 
    5489     5487     5478     5466     5480     5527     5561     5568 
    5571     5582     5638     5713     5715     5686     5713     5770 
    5841     5878     5833     5808     5833     5830     5815     5783 
    5674     5567     5544     5548     5536     5510     5444     5382 
    5387     5403     5411     5437     5473     5536     5597     5623 
    5657     5707     5755     5779     5746     5722     5788     5863 
    5867     5850     5836     5849     5889     5875     5822     5799 
    5799     5832     5868     5833     5763     5728     5716     5713 
    5680     5589     5526     5527     5544     5545     5496     5428 
    5402     5381     5372     5395     5387     5377     5449     5544 
    5583     5582     5581     5605     5643     5657     5653     5643 
    5640     5660     5668     5666     5694     5710     5715     5736 
    5718     5707     5752     5744     5699     5728     5772     5745 
    5702     5670     5650     5668     5654     5584     5541     5519 
    5535     5626     5696     5697     5671     5623     5597     5620 
    5630     5618     5600     5573     5567     5581     5603     5647 
    5653     5619     5633     5663     5665     5697     5742     5736 
    5702     5680     5684     5712     5712     5671     5647     5657 
    5697     5733     5704     5619     5534     5474     5449     5449 
    5443     5437     5463     5500     5552     5631     5682     5690 
    5642     5551     5549     5695     5845     5881     5853     5816 
    5775     5785     5845     5859     5798     5732     5746     5824 
    5855     5768     5626     5538     5516     5493     5441     5390 
    5343     5300     5303     5329     5333     5364     5429     5466 
    5482     5525     5589     5687     5799     5819     5772     5793 
    5868     5927     5950     5910     5814     5735     5713     5719 
    5708     5669     5642     5656     5672     5659     5636     5599 
    5556     5579     5667     5706     5661     5592     5539     5554 
    5621     5678     5731     5771     5767     5756     5765     5778 
    5790     5779     5740     5685     5628     5634     5730     5827 
    5847     5814     5741     5650     5617     5624     5606     5559 
    5494     5494     5575     5609     5575     5521     5457     5442 
    5510     5550     5491     5407     5379     5449     5566     5602 
    5570     5559     5549     5536     5543     5522     5499     5518 
    5543     5578     5636     5660     5639     5662     5712     5697 
    5673     5676     5666     5702     5768     5776     5753     5737 
    5722     5748     5803     5776     5702     5690     5690     5698 
    5746     5727     5657     5660     5713     5745     5773     5816 
    5828     5802     5799     5803     5783     5777     5745     5664 
    5605     5559     5497     5472     5488     5508     5489     5415 
    5353     5365     5411     5449     5513     5546     5489     5480 
    5572     5634     5641     5630     5596     5591     5658     5721 
    5718     5681     5650     5670     5739     5744     5660     5619 
    5630     5616     5626     5665     5668     5659     5677     5723 
    5801     5861     5848     5799     5789     5820     5849     5820 
    5722     5648     5653     5677     5667     5620     5545     5502 
    5545     5600     5572     5508     5473     5472     5522     5596 
    5627     5610     5604     5644     5690     5712     5697     5662 
    5665     5694     5701     5711     5748     5766     5768     5813 
    5862     5845     5804     5792     5818     5857     5870     5866 
    5860     5842     5805     5767     5727     5657     5585     5550 
    5535     5542     5567     5567     5543     5539     5567     5608 
    5653     5687     5689     5691     5732     5757     5744     5763 
    5784     5718     5615     5546     5477     5400     5349     5315 
    5284     5263     5248     5216     5190     5209     5246     5295 
    5358     5415     5507     5634     5726     5784     5841     5863 
    5810     5752     5749     5739     5694     5646     5584     5543 
    5552     5535     5450     5384     5379     5351     5288     5274 
    5288     5278     5282     5307     5343     5408     5475     5537 
    5657     5800     5894     5974     6061     6134     6177     6207 
    6245     6246     6179     6060     5917     5825     5780     5679 
    5514     5364     5277     5254     5301     5385     5402     5384 
    5465     5612     5734     5832     5885     5873     5876     5934 
    5946     5874     5786     5694     5600     5553     5531     5485 
    5422     5358     5310     5348     5481     5582     5602     5662 
    5799     5940     6046     6067     5978     5870     5823     5792 
    5729     5645     5543     5426     5323     5268     5257     5217 
    5149     5153     5257     5445     5682     5871     5998     6148 
    6306     6376     6392     6415     6377     6293     6263     6247 
    6203     6162     6099     6008     5925     5872     5817     5695 
    5534     5391     5242     5108     5041     4979     4856     4754 
    4746     4771     4826     4904     4921     4928     5003     5106 
    5222     5384     5570     5714     5824     5975     6164     6307 
    6402     6515     6616     6690     6807     6911     6907     6846 
    6766     6614     6431     6277     6058     5725     5387     5114 
    4876     4628     4400     4220     4052     3945     3946     3977 
    4007     4094     4256     4484     4810     5184     5487     5715 
    5938     6135     6299     6453     6557     6579     6572     6587 
    6591     6563     6560     6559     6453     6286     6167     6067 
    5948     5846     5721     5560     5438     5370     5321     5255 
    5173     5102     5049     5020     5030     5072     5111     5142 
    5184     5251     5381     5569     5731     5856     5993     6137 
    6271     6386     6453     6474     6449     6363     6249     6126 
    5976     5787     5547     5302     5094     4941     4871     4844 
    4844     4920     5049     5211     5440     5687     5839     5895 
    5952     6004     5980     5905     5828     5733     5609     5504 
    5438     5396     5367     5324     5255     5218     5257     5354 
    5483     5618     5734     5855     5990     6103     6179     6192 
    6137     6083     6057     6027     5972     5881     5785     5717 
    5650     5582     5543     5514     5516     5573     5610     5619 
    5671     5737     5780     5818     5836     5846     5851     5817 
    5773     5735     5659     5566     5490     5404     5318     5246 
    5175     5142     5161     5193     5241     5308     5372     5438 
    5518     5619     5735     5825     5903     6006     6096     6131 
    6149     6137     6047     5913     5776     5650     5558     5471 
    5376     5316     5286     5270     5260     5253     5275     5329 
    5365     5394     5486     5621     5750     5881     5993     6046 
    6038     6001     5981     5964     5906     5811     5708     5612 
    5555     5539     5514     5465     5417     5380     5370     5381 
    5382     5376     5376     5381     5385     5389     5390     5416 
    5486     5549     5575     5595     5635     5690     5746     5822 
    5947     6080     6184     6310     6481     6623     6692     6702 
    6654     6556     6451     6328     6130     5881     5671     5503 
    5304     5094     4939     4811     4681     4575     4522     4523 
    4540     4582     4682     4783     4852     4909     4964     5029 
    5119     5244     5396     5543     5697     5893     6110     6280 
    6402     6535     6661     6753     6849     6958     7037     7067 
    7079     7061     6953     6773     6601     6423     6175     5905 
    5689     5472     5220     4976     4746     4499     4231     4023 
    3932     3884     3838     3869     3989     4123     4278     4509 
    4791     5077     5339     5578     5832     6073     6258     6428 
    6566     6624     6656     6691     6684     6623     6521     6415 
    6316     6179     6035     5951     5891     5837     5831     5851 
    5863     5867     5858     5831     5767     5652     5562     5535 
    5490     5422     5402     5422     5434     5402     5336     5279 
    5230     5181     5156     5161     5186     5242     5340     5429 
    5492     5557     5615     5662     5710     5766     5833     5883 
    5902     5904     5903     5913     5913     5857     5778     5726 
    5648     5541     5485     5467     5443     5433     5452     5501 
    5539     5532     5536     5583     5613     5616     5649     5720 
    5796     5874     5960     6041     6106     6142     6156     6156 
    6132     6071     5985     5892     5796     5718     5669     5625 
    5572     5510     5449     5393     5338     5277     5209     5150 
    5105     5063     5044     5079     5166     5256     5324     5394 
    5479     5548     5582     5622     5688     5733     5758     5817 
    5918     6026     6095     6131     6166     6183     6165     6130 
    6099     6062     5990     5906     5869     5878     5858     5771 
    5671     5577     5469     5379     5313     5259     5230     5230 
    5248     5289     5353     5421     5483     5546     5620     5701 
    5745     5746     5766     5784     5745     5679     5615     5562 
    5517     5450     5393     5390     5404     5411     5433     5486 
    5556     5621     5693     5770     5825     5878     5938     5975 
    5974     5926     5835     5733     5637     5540     5434     5335 
    5261     5217     5198     5182     5178     5212     5254     5303 
    5377     5456     5536     5619     5701     5784     5863     5934 
    5995     6038     6068     6086     6093     6093     6073     6024 
    5954     5874     5782     5682     5585     5497     5412     5343 
    5291     5237     5217     5249     5287     5324     5389     5467 
    5525     5570     5611     5647     5679     5697     5713     5761 
    5812     5839     5881     5928     5941     5936     5923     5895 
    5859     5808     5738     5673     5639     5628     5616     5606 
    5621     5675     5744     5776     5765     5772     5803     5814 
    5801     5785     5785     5808     5834     5838     5829     5815 
    5788     5758     5740     5726     5698     5648     5581     5523 
    5470     5388     5306     5259     5236     5230     5242     5268 
    5304     5340     5368     5406     5455     5513     5593     5690 
    5789     5885     5969     6026     6054     6077     6088     6055 
    5991     5931     5874     5817     5763     5697     5631     5583 
    5519     5446     5419     5424     5427     5462     5539     5636 
    5734     5797     5851     5927     5975     6002     6015     5984 
    5940     5891     5797     5677     5561     5444     5336     5240 
    5156     5106     5078     5039     5002     4984     4968     4954 
    4961     4993     5028     5076     5171     5290     5374     5430 
    5482     5519     5552     5606     5684     5773     5864     5953 
    6021     6066     6097     6105     6089     6058     6026     6001 
    5973     5958     5956     5949     5954     5977     5986     5967 
    5950     5934     5924     5932     5931     5947     5995     6000 
    5981     5982     5950     5892     5847     5791     5731     5674 
    5599     5527     5475     5421     5379     5358     5328     5309 
    5318     5340     5385     5442     5486     5527     5573     5618 
    5656     5672     5645     5590     5544     5476     5372     5263 
    5126     4984     4894     4811     4731     4708     4728     4755 
    4807     4900     5029     5205     5400     5570     5747     5938 
    6096     6219     6324     6421     6496     6519     6516     6510 
    6480     6426     6361     6273     6153     6027     5913     5802 
    5716     5671     5654     5682     5727     5751     5769     5786 
    5786     5755     5703     5642     5545     5441     5373     5304 
    5231     5184     5164     5173     5203     5248     5327     5440 
    5566     5686     5798     5909     6016     6100     6152     6177 
    6170     6106     5997     5885     5767     5631     5486     5350 
    5241     5150     5075     5033     5025     5053     5106     5151 
    5199     5266     5322     5368     5443     5531     5597     5660 
    5744     5820     5870     5920     5970     6023     6104     6191 
    6265     6336     6401     6472     6546     6580     6571     6522 
    6443     6350     6207     6030     5845     5627     5403     5204 
    5018     4855     4706     4593     4554     4550     4554     4581 
    4622     4675     4732     4783     4844     4932     5049     5173 
    5288     5435     5614     5788     5956     6096     6211     6329 
    6422     6487     6555     6600     6608     6589     6539     6463 
    6359     6218     6063     5922     5779     5618     5473     5375 
    5305     5267     5279     5306     5336     5381     5432     5488 
    5531     5554     5590     5622     5628     5624     5609     5593 
    5589     5582     5565     5535     5477     5398     5336     5319 
    5293     5223     5174     5168     5154     5140     5152     5179 
    5211     5235     5250     5262     5279     5307     5354     5433 
    5527     5610     5726     5891     6037     6165     6302     6416 
    6513     6615     6698     6756     6783     6794     6797     6745 
    6650     6545     6405     6242     6075     5890     5690     5493 
    5308     5123     4930     4772     4675     4595     4536     4524 
    4548     4605     4681     4792     4964     5139     5309     5496 
