Origin Time       2025/03/28 03:50:00
Lat.              35.403
Long.             140.360
Depth. (km)       54
Mag.              4.4
Station Code      KNGH20
Station Lat.      35.3663
Station Long.     139.1260
Station Height(m) 465
Record Time       2025/03/28 03:51:10
Sampling Freq(Hz) 100Hz
Duration Time(s)  120
Dir.              5
Scale Factor      7845(gal)/8223790
Max. Acc. (gal)   1.590
Last Correction   2025/03/28 03:51:10
Memo.             
[...]
    7848     7861     7879     7873     7865     7869     7865     7871 
    7874     7855     7857     7877     7875     7865     7862     7865 
    7873     7874     7871     7863     7857     7867     7884     7885 
    7873     7861     7863     7862     7851     7865     7879     7873 
    7863     7866     7875     7879     7874     7867     7859     7858 
    7862     7871     7879     7877     7873     7867     7859     7862 
    7871     7874     7866     7854     7851     7865     7871     7867 
    7867     7869     7877     7889     7882     7870     7871     7862 
    7851     7852     7854     7855     7865     7879     7885     7884 
    7881     7878     7871     7873     7870     7854     7854     7861 
    7857     7863     7866     7861     7869     7879     7884     7888 
    7885     7877     7869     7861     7851     7848     7858     7874 
    7875     7871     7875     7878     7869     7858     7855     7858 
    7857     7858     7865     7866     7865     7871     7874     7863 
    7851     7847     7844     7834     7827     7827     7843     7873 
    7879     7879     7901     7912     7904     7908     7911     7901 
    7904     7927     7935     7917     7905     7896     7881     7858 
    7825     7797     7785     7774     7753     7724     7712     7726 
    7765     7831     7896     7943     7994     8051     8102     8121 
    8058     7939     7861     7838     7832     7820     7785     7769 
    7821     7873     7869     7858     7854     7839     7836     7861 
    7906     7951     7973     7956     7915     7882     7852     7808 
    7777     7754     7750     7809     7862     7832     7803     7851 
    7933     7960     7896     7823     7858     7931     7885     7769 
    7700     7658     7651     7727     7824     7898     7962     8025 
    8095     8118     8047     7950     7855     7781     7844     8004 
    8082     8047     7963     7875     7786     7681     7650     7739 
    7808     7784     7738     7723     7804     8008     8195     8189 
    7997     7801     7753     7836     7906     7855     7707     7547 
    7493     7641     7921     8098     8074     7977     7896     7854 
    7916     8027     8013     7846     7704     7708     7796     7900 
    8027     8168     8233     8120     7902     7700     7538     7477 
    7514     7550     7604     7750     7963     8155     8241     8226 
    8167     8077     7990     7936     7861     7700     7476     7329 
    7389     7632     7939     8160     8220     8203     8186     8133 
    8037     7919     7776     7630     7512     7493     7645     7874 
    8055     8141     8081     7940     7921     7959     7817     7595 
    7537     7628     7769     7908     8016     8078     8101     8122 
    8110     7933     7682     7616     7717     7774     7728     7661 
    7651     7728     7847     7958     8052     8101     8051     7966 
    7970     7982     7834     7612     7541     7690     7954     8155 
    8208     8124     7940     7753     7673     7723     7878     8041 
    8050     7878     7695     7715     7938     8118     8081     7904 
    7747     7685     7704     7770     7827     7780     7659     7622 
    7744     7973     8164     8179     8073     7985     7906     7782 
    7682     7695     7782     7858     7904     7954     8051     8121 
    8024     7838     7726     7658     7627     7663     7704     7778 
    7928     8052     8059     8000     7977     7960     7834     7643 
    7558     7649     7808     7886     7889     7892     7927     8019 
    8106     8081     7975     7912     7936     7954     7857     7716 
    7645     7641     7723     7879     7979     7985     7965     7938 
    7889     7834     7834     7913     7993     7996     7920     7846 
    7854     7901     7927     7913     7815     7700     7684     7705 
    7712     7742     7781     7821     7882     7955     8010     7996 
    7859     7705     7713     7862     7997     8083     8145     8148 
    8073     7955     7866     7843     7789     7672     7639     7726 
    7809     7865     7901     7911     7927     7950     7958     7920 
    7817     7738     7766     7803     7766     7716     7686     7672 
    7711     7836     7959     7979     7960     8014     8131     8205 
    8175     8075     7905     7682     7524     7501     7580     7717 
    7844     7932     8024     8110     8147     8139     8095     8027 
    7938     7827     7727     7650     7577     7524     7537     7635 
    7788     7952     8093     8160     8181     8205     8167     7998 
    7769     7600     7538     7516     7479     7526     7746     8014 
    8160     8178     8135     8070     8013     7966     7865     7711 
    7618     7635     7722     7859     8002     8052     7979     7839 
    7730     7735     7797     7825     7865     7979     8128     8221 
    8225     8159     8009     7765     7520     7420     7464     7547 
    7645     7776     7920     8036     8085     8093     8110     8078 
    7962     7862     7824     7805     7819     7836     7800     7750 
    7736     7751     7778     7800     7823     7874     7929     7940 
    7915     7904     7917     7923     7924     7948     7990     8009 
    7975     7904     7827     7753     7693     7661     7638     7631 
    7692     7828     7986     8094     8125     8110     8068     7981 
    7870     7781     7738     7715     7690     7700     7746     7823 
    7940     8051     8083     8050     7997     7927     7832     7743 
    7703     7734     7811     7865     7867     7859     7877     7931 
    7971     7952     7932     7932     7901     7862     7851     7850 
    7847     7836     7848     7894     7921     7915     7893     7859 
    7850     7865     7839     7776     7761     7827     7884     7839 
    7735     7709     7804     7920     7977     7985     7989     8002 
    8016     8009     7958     7859     7751     7673     7620     7616 
    7700     7838     7951     8010     8043     8060     8031     7944 
    7844     7782     7777     7803     7816     7811     7807     7792 
    7767     7763     7811     7890     7943     7971     8052     8175 
    8233     8185     8063     7909     7794     7739     7690     7623 
    7549     7535     7631     7746     7801     7867     7975     8037 
    8025     7979     7906     7839     7803     7766     7742     7770 
    7827     7890     7935     7921     7892     7901     7935     7986 
    8016     7973     7921     7933     7974     8008     8029     7973 
    7816     7663     7592     7577     7596     7632     7697     7824 
    7958     8009     7985     7950     7924     7900     7897     7924 
    7970     8041     8100     8068     7989     7928     7847     7732 
    7627     7534     7476     7492     7611     7827     8058     8230 
    8328     8336     8262     8116     7923     7743     7600     7489 
    7446     7477     7576     7715     7825     7902     7989     8062 
    8097     8112     8122     8108     8024     7897     7817     7808 
    7842     7875     7881     7881     7889     7875     7823     7724 
    7628     7614     7666     7728     7792     7885     7978     7997 
    7970     7958     7951     7933     7900     7831     7750     7689 
    7688     7796     7973     8125     8214     8249     8240     8140 
    7923     7678     7537     7515     7535     7553     7624     7796 
    8000     8147     8197     8144     8055     7978     7894     7807 
    7726     7672     7686     7753     7846     7962     8055     8070 
    7994     7858     7749     7719     7716     7689     7668     7703 
    7765     7800     7825     7867     7929     8010     8040     7979 
    7875     7774     7677     7581     7561     7670     7827     7965 
    8075     8118     8104     8081     8066     8060     8037     7985 
    7912     7843     7792     7722     7668     7723     7831     7902 
    7936     7952     7969     7965     7921     7847     7761     7707 
    7717     7778     7879     8008     8125     8176     8120     7978 
    7834     7697     7585     7589     7704     7805     7870     7963 
    8100     8209     8197     8073     7909     7739     7592     7499 
    7460     7503     7631     7771     7867     7939     8010     8059 
    8054     8013     7994     8001     7996     7962     7890     7790 
    7695     7654     7732     7877     7952     7969     7965     7897 
    7817     7828     7865     7850     7835     7803     7747     7792 
    7939     8048     8044     7927     7758     7645     7623     7674 
    7782     7902     7998     8100     8218     8262     8175     8025 
    7893     7780     7662     7580     7576     7650     7793     7938 
    8019     8047     8024     7952     7897     7861     7800     7742 
    7712     7708     7743     7781     7776     7755     7751     7774 
    7807     7808     7850     7989     8109     8143     8141     8135 
    8124     8102     8051     7967     7885     7842     7815     7771 
    7720     7682     7684     7711     7731     7776     7843     7881 
    7893     7904     7874     7807     7734     7670     7677     7784 
    7893     7977     8112     8244     8256     8179     8081     7960 
    7808     7604     7383     7267     7339     7580     7874     8062 
    8085     8044     8050     8089     8063     7966     7857     7753 
    7681     7701     7794     7874     7871     7834     7858     7931 
    8001     8073     8104     8033     7912     7836     7825     7807 
    7722     7628     7626     7699     7798     7939     8062     8043 
    7906     7789     7747     7749     7777     7797     7782     7765 
    7805     7960     8172     8309     8341     8303     8164     7928 
    7722     7632     7626     7663     7750     7844     7913     7977 
    8031     8039     7996     7909     7800     7681     7565     7501 
    7499     7510     7550     7672     7854     8025     8140     8187 
    8186     8164     8108     7997     7871     7813     7817     7800 
    7747     7732     7780     7863     7939     7977     7990     7989 
    7939     7842     7763     7727     7692     7678     7739     7848 
    7962     8050     8051     7954     7846     7811     7817     7813 
    7828     7862     7850     7858     7947     8017     8028     7996 
    7898     7784     7697     7611     7528     7504     7565     7699 
    7871     8023     8116     8159     8137     8078     8023     7919 
    7753     7630     7615     7717     7878     7973     8009     8082 
    8168     8209     8178     8060     7917     7819     7744     7666 
    7615     7609     7641     7720     7832     7898     7917     7933 
    7946     7956     7928     7858     7811     7798     7825     7923 
    8032     8079     8050     7935     7794     7728     7728     7740 
    7746     7754     7792     7865     7948     7993     7965     7902 
    7848     7805     7786     7786     7778     7767     7804     7908 
    8020     8086     8097     8055     7978     7884     7781     7704 
    7638     7560     7511     7534     7627     7758     7870     7958 
    8059     8176     8256     8230     8118     7983     7865     7800 
    7793     7780     7761     7784     7830     7869     7897     7909 
    7904     7900     7919     7974     8016     7993     7901     7782 
    7719     7716     7699     7657     7635     7682     7800     7911 
    7965     7975     7971     7974     7952     7893     7874     7911 
    7940     7942     7916     7888     7877     7839     7755     7699 
    7736     7834     7901     7939     7969     7966     7971     8004 
    8002     7960     7909     7844     7770     7704     7638     7609 
    7678     7811     7927     8017     8050     8004     7975     7989 
    7962     7902     7889     7960     8062     8039     7889     7781 
    7753     7749     7742     7722     7731     7758     7755     7769 
    7819     7851     7858     7850     7828     7798     7774     7770 
    7762     7753     7757     7753     7769     7805     7781     7771 
    7882     7987     8008     8037     8089     8116     8132     8110 
    8035     7997     8032     8064     8070     8054     7983     7898 
    7867     7846     7778     7700     7673     7722     7805     7875 
    7904     7875     7834     7847     7892     7892     7821     7731 
    7686     7680     7681     7713     7777     7843     7916     8008 
    8102     8160     8139     8036     7882     7697     7495     7304 
    7179     7177     7356     7712     8186     8661     8970     9004 
    8807     8472     8087     7739     7453     7165     6874     6683 
    6710     6986     7400     7785     8054     8224     8340     8436 
    8522     8621     8752     8889     8947     8818     8464     7981 
    7515     7125     6814     6655     6697     6895     7203     7601 
    8058     8463     8673     8672     8509     8174     7715     7269 
    6945     6831     6907     7042     7248     7582     7944     8286 
    8658     8985     9173     9242     9167     8919     8576     8181 
    7684     7152     6706     6405     6339     6532     6894     7400 
    8016     8576     8920     9009     8922     8758     8584     8448 
    8328     8152     7917     7672     7442     7233     7051     6945 
    6952     7048     7199     7379     7616     7975     8388     8694 
    8770     8573     8221     7938     7819     7828     7924     8073 
    8266     8468     8521     8276     7790     7234     6741     6384 
    6201     6254     6619     7287     8108     8847     9309     9452 
    9356     9057     8598     8116     7723     7443     7277     7236 
    7327     7484     7588     7614     7636     7695     7753     7785 
    7830     7923     8121     8505     8978     9273     9239     8895 
    8302     7619     7079     6818     6805     6913     7022     7142 
    7346     7588     7793     7974     8060     7962     7816     7789 
    7865     7963     8025     8000     7909     7816     7758     7744 
    7766     7819     7916     8046     8228     8488     8714     8743 
    8540     8159     7743     7469     7404     7484     7570     7593 
    7632     7740     7807     7769     7754     7861     8012     8060 
    7924     7701     7578     7581     7654     7747     7800     7842 
    7943     8054     8108     8095     8064     8082     8139     8163 
    8120     8035     7987     8012     8046     7983     7803     7573 
    7349     7123     6936     6905     7103     7465     7863     8205 
    8438     8563     8614     8576     8424     8214     8005     7800 
    7639     7580     7642     7801     7983     8079     8005     7809 
    7655     7619     7651     7723     7821     7925     7983     7925 
    7790     7697     7643     7572     7534     7639     7858     8054 
    8164     8230     8294     8368     8398     8329     8182     7981 
    7746     7510     7315     7271     7425     7622     7728     7792 
    7875     7981     8021     7939     7870     7956     8147     8325 
    8403     8322     8085     7794     7538     7298     7142     7237 
    7566     7924     8131     8155     8117     8089     8010     7865 
    7711     7568     7412     7295     7345     7569     7827     8019 
    8149     8303     8518     8707     8776     8685     8446     8122 
    7777     7460     7260     7217     7254     7284     7312     7396 
    7542     7717     7900     8020     8054     8052     8058     8106 
    8229     8363     8424     8379     8228     8004     7762     7546 
    7400     7344     7346     7415     7591     7840     8055     8145 
    8118     8056     8029     8036     8023     7966     7879     7797 
    7781     7850     7935     7952     7893     7821     7770     7699 
    7612     7570     7580     7601     7599     7604     7696     7850 
    8000     8120     8198     8241     8266     8275     8256     8171 
    8064     8009     7947     7847     7781     7784     7832     7879 
    7865     7798     7731     7682     7632     7553     7472     7416 
    7410     7499     7688     7892     8021     8051     8027     8029 
    8113     8232     8278     8229     8187     8176     8109     7967 
    7817     7720     7676     7635     7616     7688     7873     8106 
    8271     8290     8186     8010     7777     7499     7222     7006 
    6878     6867     7044     7422     7897     8343     8677     8860 
    8884     8766     8503     8139     7785     7501     7338     7391 
    7631     7905     8086     8118     8033     7892     7717     7561 
    7462     7438     7526     7713     7929     8136     8307     8413 
    8415     8248     7948     7676     7506     7408     7379     7435 
    7581     7797     8032     8205     8286     8299     8266     8178 
    8023     7832     7695     7638     7605     7588     7627     7709 
    7778     7812     7839     7863     7863     7857     7842     7819 
    7859     7982     8143     8310     8411     8391     8267     8050 
    7778     7537     7333     7169     7111     7176     7315     7512 
    7763     8002     8163     8241     8253     8236     8249     8332 
    8446     8496     8426     8244     7935     7547     7222     7009 
    6886     6895     7076     7372     7701     8050     8429     8779 
    8955     8885     8654     8364     8041     7726     7446     7211 
    7079     7103     7280     7550     7824     8020     8114     8131 
    8104     8063     8000     7904     7844     7871     7946     8023 
    8100     8160     8163     8118     8056     7947     7770     7543 
    7333     7204     7163     7192     7311     7527     7803     8074 
    8291     8438     8527     8568     8529     8326     7974     7607 
    7334     7209     7273     7518     7892     8284     8544     8637 
    8640     8545     8301     7935     7582     7384     7365     7477 
    7632     7732     7766     7749     7651     7504     7398     7377 
    7479     7678     7905     8143     8352     8449     8444     8376 
    8225     8001     7763     7580     7481     7465     7514     7595 
    7661     7705     7753     7786     7785     7800     7896     8073 
    8286     8490     8652     8733     8672     8434     8041     7577 
    7168     6932     6887     6988     7202     7487     7789     8083 
    8336     8480     8440     8206     7896     7643     7477     7402 
    7454     7634     7854     8044     8220     8394     8510     8488 
    8318     8050     7735     7453     7284     7219     7221     7285 
    7393     7547     7753     8023     8353     8642     8741     8606 
    8318     8019     7784     7616     7547     7604     7740     7886 
    8008     8112     8170     8097     7889     7650     7458     7380 
    7446     7591     7708     7755     7767     7809     7884     7944 
    7969     7978     8004     8036     8082     8185     8318     8401 
    8379     8249     8055     7855     7680     7519     7362     7227 
    7132     7099     7194     7438     7780     8125     8363     8426 
    8330     8135     7925     7765     7680     7653     7670     7754 
    7905     8046     8098     8052     7935     7801     7693     7628 
    7665     7821     8058     8330     8544     8596     8488     8239 
    7858     7452     7192     7183     7362     7605     7861     8125 
    8361     8490     8432     8171     7805     7474     7258     7214 
