Origin Time       2025/03/28 03:50:00
Lat.              35.403
Long.             140.360
Depth. (km)       54
Mag.              4.4
Station Code      KNGH11
Station Lat.      35.4040
Station Long.     139.3539
Station Height(m) -1788
Record Time       2025/03/28 03:51:06
Sampling Freq(Hz) 100Hz
Duration Time(s)  120
Dir.              3
Scale Factor      2940(gal)/6170270
Max. Acc. (gal)   0.195
Last Correction   2025/03/28 03:50:51
Memo.             
[...]
  123488   123487   123485   123484   123486   123488   123488   123488 
  123487   123487   123488   123487   123486   123487   123488   123487 
  123485   123486   123487   123487   123488   123487   123485   123486 
  123489   123488   123485   123487   123489   123487   123484   123485 
  123487   123488   123487   123486   123485   123485   123486   123485 
  123486   123489   123489   123486   123486   123486   123486   123486 
  123486   123487   123487   123487   123487   123485   123486   123486 
  123487   123488   123487   123487   123489   123487   123485   123487 
  123489   123490   123487   123485   123487   123488   123486   123484 
  123484   123487   123488   123486   123486   123487   123488   123487 
  123485   123485   123486   123487   123487   123487   123487   123487 
  123487   123486   123483   123485   123488   123488   123489   123488 
  123487   123487   123487   123486   123485   123486   123488   123487 
  123484   123487   123489   123489   123489   123487   123486   123489 
  123487   123485   123490   123490   123486   123486   123487   123487 
  123490   123489   123487   123488   123489   123488   123487   123489 
  123490   123488   123486   123488   123488   123488   123487   123484 
  123484   123489   123488   123484   123485   123488   123489   123487 
  123485   123487   123489   123487   123485   123485   123485   123487 
  123488   123487   123486   123487   123488   123487   123485   123485 
  123487   123488   123487   123485   123484   123485   123485   123485 
  123487   123488   123487   123487   123486   123487   123487   123486 
  123488   123489   123488   123489   123487   123485   123486   123488 
  123486   123485   123487   123490   123491   123487   123485   123486 
  123487   123486   123485   123486   123489   123489   123486   123487 
  123488   123488   123488   123485   123485   123488   123488   123487 
  123486   123487   123488   123487   123486   123486   123488   123489 
  123488   123486   123486   123488   123488   123485   123483   123486 
  123489   123487   123485   123486   123488   123489   123487   123485 
  123486   123488   123488   123486   123485   123488   123488   123487 
  123487   123488   123487   123486   123486   123486   123488   123489 
  123488   123486   123485   123487   123489   123487   123485   123485 
  123486   123486   123487   123487   123487   123488   123489   123487 
  123486   123487   123487   123486   123486   123487   123488   123487 
  123487   123488   123490   123487   123485   123486   123488   123487 
  123486   123486   123487   123487   123487   123486   123486   123487 
  123486   123485   123487   123487   123486   123486   123486   123486 
  123486   123486   123486   123485   123484   123486   123487   123486 
  123484   123484   123485   123488   123487   123486   123488   123489 
  123486   123484   123485   123487   123487   123486   123487   123487 
  123485   123486   123486   123485   123487   123487   123484   123484 
  123488   123490   123492   123495   123496   123498   123499   123499 
  123501   123509   123518   123521   123521   123521   123516   123506 
  123497   123492   123489   123486   123482   123470   123451   123438 
  123436   123450   123485   123531   123563   123573   123565   123546 
  123518   123489   123472   123466   123457   123441   123429   123432 
  123458   123491   123491   123449   123408   123398   123415   123437 
  123439   123434   123435   123427   123408   123398   123424   123497 
  123541   123495   123430   123423   123479   123567   123628   123644 
  123614   123537   123466   123453   123493   123551   123555   123501 
  123469   123461   123450   123467   123489   123477   123491   123518 
  123477   123420   123435   123489   123539   123587   123574   123477 
  123419   123482   123581   123615   123537   123415   123380   123413 
  123423   123426   123426   123442   123552   123681   123660   123531 
  123448   123431   123422   123421   123477   123585   123642   123552 
  123414   123383   123394   123405   123490   123559   123557   123559 
  123512   123439   123462   123497   123485   123529   123588   123589 
  123595   123566   123449   123384   123441   123490   123476   123460 
  123438   123377   123340   123375   123441   123504   123540   123529 
  123541   123582   123498   123331   123315   123433   123495   123475 
  123458   123476   123501   123483   123431   123381   123383   123489 
  123587   123549   123482   123461   123420   123445   123571   123611 
  123540   123512   123528   123496   123430   123425   123486   123531 
  123536   123553   123596   123584   123472   123403   123474   123517 
  123461   123453   123494   123499   123485   123448   123431   123506 
  123560   123527   123519   123530   123505   123498   123471   123389 
  123367   123423   123461   123486   123517   123502   123438   123420 
  123482   123534   123509   123487   123523   123551   123565   123583 
  123547   123512   123524   123485   123432   123451   123459   123440 
  123495   123566   123538   123465   123441   123463   123491   123482 
  123432   123428   123473   123463   123453   123529   123580   123552 
  123545   123563   123536   123494   123464   123421   123394   123392 
  123390   123404   123420   123435   123501   123567   123551   123510 
  123486   123458   123461   123516   123546   123501   123445   123435 
  123469   123514   123525   123497   123461   123461   123524   123586 
  123573   123516   123448   123399   123415   123451   123480   123554 
  123615   123558   123447   123408   123467   123538   123516   123470 
  123491   123482   123415   123394   123437   123497   123538   123521 
  123459   123432   123477   123532   123541   123538   123545   123493 
  123402   123414   123515   123565   123560   123554   123520   123476 
  123458   123403   123328   123359   123454   123475   123453   123452 
  123463   123506   123579   123607   123569   123532   123531   123500 
  123433   123429   123478   123484   123464   123461   123433   123407 
  123470   123556   123565   123525   123503   123511   123508   123511 
  123518   123472   123460   123531   123550   123516   123509   123475 
  123420   123430   123456   123432   123409   123426   123474   123530 
  123542   123495   123473   123513   123540   123523   123510   123502 
  123466   123422   123405   123413   123439   123491   123553   123577 
  123541   123492   123489   123530   123543   123511   123491   123495 
  123504   123489   123445   123430   123458   123495   123532   123521 
  123440   123373   123399   123479   123498   123467   123496   123564 
  123569   123520   123488   123500   123524   123510   123475   123467 
  123472   123497   123543   123538   123505   123525   123544   123506 
  123459   123436   123413   123375   123374   123434   123492   123526 
  123524   123447   123378   123419   123464   123456   123474   123503 
  123500   123512   123543   123553   123523   123484   123472   123469 
  123463   123455   123456   123487   123522   123523   123499   123496 
  123510   123493   123479   123510   123536   123525   123497   123476 
  123490   123504   123472   123435   123446   123503   123557   123552 
  123540   123584   123598   123520   123433   123403   123404   123384 
  123351   123378   123474   123555   123570   123531   123467   123420 
  123439   123500   123538   123544   123511   123463   123495   123567 
  123557   123514   123502   123481   123451   123433   123416   123424 
  123466   123485   123472   123488   123520   123511   123485   123474 
  123457   123453   123467   123462   123468   123500   123491   123452 
  123452   123503   123564   123579   123530   123465   123452   123513 
  123556   123514   123466   123461   123468   123496   123534   123533 
  123513   123515   123523   123511   123493   123498   123514   123511 
  123486   123455   123436   123434   123442   123453   123452   123429 
  123413   123435   123459   123470   123506   123531   123508   123505 
  123526   123519   123499   123479   123457   123467   123499   123500 
  123459   123437   123481   123558   123574   123513   123467   123470 
  123472   123463   123454   123435   123427   123464   123507   123511 
  123527   123556   123525   123465   123438   123429   123435   123460 
  123463   123443   123447   123482   123517   123553   123581   123565 
  123540   123564   123596   123573   123516   123477   123461   123436 
  123406   123391   123363   123330   123339   123385   123441   123490 
  123500   123485   123476   123464   123487   123565   123592   123535 
  123500   123502   123472   123418   123378   123378   123430   123509 
  123578   123589   123546   123527   123543   123554   123578   123587 
  123531   123489   123502   123476   123420   123453   123556   123620 
  123626   123602   123560   123525   123512   123489   123437   123405 
  123425   123432   123405   123414   123445   123443   123444   123477 
  123494   123492   123516   123539   123517   123489   123485   123494 
  123530   123563   123519   123442   123411   123404   123403   123419 
  123434   123434   123427   123422   123418   123421   123447   123489 
  123564   123651   123644   123540   123486   123507   123498   123458 
  123447   123435   123423   123446   123458   123444   123478   123546 
  123556   123522   123522   123526   123458   123386   123394   123424 
  123422   123438   123484   123512   123504   123513   123584   123642 
  123595   123512   123477   123463   123448   123448   123455   123454 
  123434   123422   123447   123464   123445   123422   123406   123411 
  123476   123600   123688   123662   123564   123484   123473   123516 
  123539   123520   123507   123501   123454   123398   123429   123506 
  123524   123508   123502   123509   123536   123541   123488   123432 
  123435   123464   123467   123489   123536   123549   123548   123530 
  123452   123383   123396   123437   123456   123458   123479   123522 
  123544   123540   123525   123486   123461   123500   123537   123516 
  123486   123459   123387   123323   123371   123474   123496   123433 
  123377   123380   123444   123566   123654   123602   123501   123495 
  123544   123560   123555   123556   123525   123451   123402   123421 
  123481   123539   123539   123485   123462   123488   123512   123550 
  123601   123585   123488   123394   123366   123399   123455   123483 
  123476   123475   123476   123450   123428   123443   123475   123494 
  123494   123505   123540   123550   123525   123479   123414   123379 
  123410   123459   123505   123554   123565   123542   123516   123478 
  123477   123543   123570   123527   123519   123548   123546   123506 
  123461   123456   123484   123485   123432   123379   123384   123397 
  123364   123364   123433   123476   123447   123419   123449   123489 
  123510   123555   123597   123577   123502   123438   123443   123490 
  123529   123579   123645   123673   123622   123516   123427   123380 
  123362   123360   123387   123492   123604   123592   123513   123477 
  123459   123428   123425   123457   123478   123486   123518   123566 
  123586   123563   123519   123501   123524   123539   123493   123429 
  123438   123487   123470   123400   123385   123470   123579   123614 
  123580   123520   123438   123376   123361   123357   123401   123518 
  123615   123630   123576   123480   123402   123376   123367   123374 
  123436   123520   123573   123593   123565   123497   123459   123460 
  123454   123472   123513   123528   123537   123561   123572   123552 
  123508   123485   123491   123468   123443   123458   123479   123487 
  123466   123438   123464   123507   123488   123446   123431   123435 
  123444   123429   123402   123422   123477   123515   123530   123520 
  123484   123427   123376   123400   123480   123518   123538   123590 
  123601   123550   123490   123423   123400   123468   123546   123565 
  123538   123511   123525   123536   123523   123546   123586   123571 
  123509   123443   123422   123463   123499   123474   123445   123449 
  123464   123488   123495   123461   123433   123419   123411   123437 
  123495   123542   123550   123505   123420   123362   123391   123463 
  123509   123502   123472   123485   123524   123524   123496   123457 
  123428   123465   123514   123491   123473   123514   123526   123502 
  123496   123476   123456   123501   123575   123602   123586   123558 
  123516   123469   123445   123454   123502   123566   123559   123472 
  123412   123414   123420   123422   123430   123425   123426   123443 
  123463   123499   123528   123541   123542   123500   123449   123472 
  123538   123554   123522   123502   123498   123486   123471   123462 
  123481   123514   123464   123347   123364   123488   123497   123439 
  123453   123475   123474   123507   123539   123541   123551   123581 
  123592   123556   123519   123522   123525   123490   123449   123442 
  123467   123498   123504   123476   123441   123410   123405   123441 
  123456   123433   123433   123461   123491   123518   123521   123507 
  123517   123568   123627   123641   123616   123577   123542   123561 
  123601   123585   123560   123582   123602   123563   123488   123440 
  123395   123343   123325   123298   123270   123315   123368   123365 
  123376   123410   123440   123509   123595   123638   123681   123747 
  123748   123671   123596   123536   123475   123404   123325   123275 
  123252   123233   123219   123211   123229   123255   123233   123231 
  123305   123389   123483   123613   123725   123796   123856   123897 
  123886   123838   123757   123589   123385   123245   123151   123102 
  123144   123255   123380   123476   123557   123636   123654   123635 
  123662   123698   123690   123635   123526   123413   123370   123374 
  123373   123396   123471   123522   123495   123474   123505   123533 
  123547   123566   123593   123617   123630   123624   123583   123505 
  123422   123393   123406   123388   123380   123424   123440   123407 
  123405   123461   123535   123582   123577   123545   123537   123544 
  123543   123569   123631   123646   123566   123459   123378   123371 
  123449   123484   123431   123397   123389   123390   123428   123460 
  123474   123523   123582   123568   123497   123440   123421   123453 
  123512   123509   123429   123364   123364   123381   123400   123439 
  123485   123556   123649   123698   123679   123608   123493   123378 
  123332   123351   123368   123371   123390   123409   123430   123499 
  123587   123615   123571   123505   123470   123475   123495   123492 
  123467   123455   123455   123443   123445   123466   123474   123470 
  123466   123459   123469   123488   123501   123506   123485   123457 
  123475   123521   123525   123486   123478   123524   123570   123590 
  123609   123616   123577   123517   123477   123444   123427   123466 
  123513   123502   123494   123524   123520   123494   123513   123532 
  123494   123420   123320   123236   123225   123287   123377   123449 
  123499   123554   123592   123592   123589   123601   123605   123604 
  123615   123624   123590   123495   123415   123423   123398   123270 
  123203   123255   123334   123436   123524   123546   123609   123750 
  123831   123801   123730   123660   123592   123518   123429   123322 
  123256   123299   123393   123453   123473   123471   123480   123499 
  123505   123525   123540   123529   123564   123634   123630   123551 
  123451   123377   123381   123459   123535   123539   123450   123343 
  123314   123356   123412   123440   123429   123419   123461   123506 
  123478   123461   123517   123534   123502   123529   123578   123547 
  123471   123452   123485   123497   123486   123468   123443   123432 
  123420   123388   123371   123396   123447   123494   123530   123572 
  123620   123631   123578   123516   123489   123484   123492   123512 
  123540   123574   123593   123585   123583   123570   123523   123503 
  123510   123462   123394   123372   123358   123345   123385   123455 
  123470   123419   123395   123424   123445   123472   123542   123590 
  123559   123502   123479   123494   123537   123574   123567   123517 
  123472   123473   123490   123488   123492   123506   123523   123549 
  123569   123551   123505   123487   123502   123501   123487   123490 
  123488   123485   123504   123503   123456   123415   123416   123442 
  123452   123422   123386   123370   123356   123353   123358   123350 
  123368   123408   123403   123369   123357   123373   123437   123527 
  123580   123610   123638   123640   123587   123495   123432   123423 
  123430   123441   123487   123560   123609   123631   123660   123698 
  123739   123740   123662   123568   123521   123501   123480   123464 
  123474   123491   123494   123502   123493   123438   123374   123346 
  123365   123417   123468   123499   123520   123559   123577   123521 
  123460   123462   123468   123444   123436   123452   123447   123395 
  123357   123370   123390   123413   123453   123479   123474   123447 
  123429   123462   123516   123539   123547   123567   123577   123552 
  123539   123570   123582   123539   123507   123525   123550   123549 
  123535   123518   123508   123511   123508   123497   123501   123509 
  123513   123531   123533   123487   123438   123418   123408   123409 
  123413   123390   123357   123362   123403   123432   123437   123432 
  123404   123358   123327   123314   123317   123363   123456   123537 
  123591   123640   123649   123620   123616   123632   123613   123558 
  123541   123577   123609   123618   123606   123572   123538   123494 
  123429   123382   123369   123375   123378   123384   123435   123510 
  123553   123581   123591   123568   123529   123461   123395   123393 
  123426   123466   123531   123594   123608   123573   123547   123537 
  123487   123412   123389   123418   123437   123432   123433   123448 
  123455   123445   123451   123480   123485   123477   123486   123486 
  123482   123486   123491   123501   123518   123543   123588   123634 
  123657   123650   123602   123531   123459   123383   123322   123295 
  123288   123289   123317   123369   123400   123400   123406   123409 
  123402   123398   123388   123395   123436   123476   123539   123666 
  123763   123752   123721   123724   123705   123651   123618   123609 
  123572   123504   123438   123395   123375   123371   123374   123382 
  123397   123442   123498   123526   123541   123534   123476   123408 
  123382   123388   123412   123437   123445   123478   123544   123567 
  123551   123570   123604   123598   123554   123480   123401   123361 
  123364   123398   123451   123467   123431   123424   123466   123497 
  123512   123520   123523   123545   123566   123539   123486   123463 
  123478   123488   123491   123505   123503   123479   123455   123423 
  123391   123379   123385   123431   123517   123575   123579   123589 
  123608   123602   123594   123593   123557   123502   123458   123412 
  123380   123390   123428   123465   123483   123482   123484   123494 
  123506   123512   123488   123442   123413   123408   123416   123427 
  123439   123472   123506   123498   123480   123504   123535   123534 
  123514   123494   123461   123425   123429   123462   123477   123484 
  123491   123480   123473   123494   123505   123489   123485   123498 
