Origin Time       2025/03/28 03:50:00
Lat.              35.403
Long.             140.360
Depth. (km)       54
Mag.              4.4
Station Code      SZOH54
Station Lat.      35.0417
Station Long.     139.1685
Station Height(m) 20
Record Time       2025/03/28 03:51:11
Sampling Freq(Hz) 100Hz
Duration Time(s)  120
Dir.              6
Scale Factor      3920(gal)/6170801
Max. Acc. (gal)   0.281
Last Correction   2025/03/28 03:50:56
Memo.             
[...]
  -20284   -20281   -20282   -20285   -20278   -20269   -20268   -20270 
  -20273   -20273   -20275   -20292   -20309   -20305   -20285   -20265 
  -20251   -20247   -20245   -20236   -20219   -20199   -20195   -20220 
  -20258   -20279   -20290   -20317   -20351   -20351   -20314   -20271 
  -20239   -20220   -20207   -20200   -20223   -20283   -20336   -20359 
  -20363   -20352   -20328   -20295   -20261   -20255   -20298   -20351 
  -20347   -20273   -20202   -20206   -20291   -20379   -20372   -20258 
  -20138   -20079   -20034   -20011   -20101   -20256   -20306   -20240 
  -20213   -20313   -20414   -20353   -20225   -20249   -20344   -20272 
  -20114   -20110   -20219   -20256   -20226   -20257   -20367   -20420 
  -20346   -20313   -20415   -20464   -20369   -20290   -20277   -20217 
  -20144   -20222   -20398   -20356   -20074   -19997   -20258   -20419 
  -20254   -20027   -20067   -20386   -20606   -20496   -20314   -20247 
  -20191   -20188   -20289   -20310   -20184   -20124   -20254   -20344 
  -20168   -19972   -20118   -20460   -20576   -20377   -20153   -20174 
  -20324   -20277   -20048   -19973   -20152   -20353   -20380   -20311 
  -20335   -20431   -20383   -20199   -20118   -20199   -20291   -20325 
  -20377   -20453   -20419   -20244   -20124   -20204   -20345   -20298 
  -20073   -20013   -20292   -20559   -20453   -20132   -19998   -20206 
  -20492   -20475   -20170   -19988   -20207   -20598   -20680   -20337 
  -19969   -19939   -20112   -20208   -20254   -20343   -20360   -20282 
  -20231   -20181   -20095   -20140   -20371   -20569   -20504   -20205 
  -19966   -20016   -20218   -20344   -20344   -20240   -20136   -20181 
  -20345   -20435   -20340   -20213   -20283   -20452   -20463   -20337 
  -20223   -20188   -20256   -20317   -20267   -20207   -20226   -20271 
  -20298   -20314   -20332   -20324   -20301   -20362   -20418   -20220 
  -19891   -19865   -20214   -20530   -20514   -20310   -20155   -20078 
  -20121   -20294   -20379   -20269   -20213   -20339   -20357   -20093 
  -19958   -20297   -20650   -20446   -20009   -19999   -20322   -20436 
  -20291   -20227   -20287   -20287   -20248   -20290   -20324   -20223 
  -20133   -20276   -20516   -20475   -20153   -20038   -20324   -20560 
  -20428   -20183   -20106   -20192   -20316   -20342   -20257   -20182 
  -20174   -20213   -20254   -20231   -20187   -20215   -20287   -20334 
  -20311   -20203   -20091   -20076   -20188   -20375   -20447   -20282 
  -20109   -20191   -20397   -20473   -20419   -20368   -20326   -20235 
  -20194   -20289   -20307   -20139   -20073   -20267   -20500   -20529 
  -20321   -20086   -20066   -20214   -20318   -20303   -20220   -20174 
  -20244   -20344   -20347   -20262   -20194   -20196   -20223   -20230 
  -20248   -20279   -20309   -20369   -20383   -20239   -20105   -20196 
  -20330   -20270   -20166   -20216   -20318   -20340   -20331   -20341 
  -20317   -20224   -20154   -20197   -20269   -20240   -20174   -20221 
  -20352   -20413   -20380   -20347   -20353   -20351   -20265   -20095 
  -20006   -20174   -20430   -20417   -20196   -20147   -20352   -20527 
  -20435   -20162   -20007   -20098   -20274   -20366   -20345   -20271 
  -20222   -20222   -20245   -20258   -20247   -20238   -20213   -20141 
  -20120   -20227   -20370   -20436   -20406   -20345   -20265   -20121 
  -20045   -20210   -20438   -20442   -20238   -20090   -20221   -20473 
  -20472   -20259   -20178   -20262   -20296   -20203   -20127   -20217 
  -20375   -20424   -20382   -20282   -20146   -20147   -20299   -20341 
  -20210   -20146   -20260   -20359   -20284   -20191   -20276   -20408 
  -20340   -20119   -20060   -20289   -20485   -20346   -20137   -20228 
  -20411   -20292   -20021   -19994   -20220   -20416   -20401   -20264 
  -20217   -20280   -20301   -20249   -20219   -20257   -20313   -20314 
  -20276   -20257   -20249   -20251   -20287   -20297   -20229   -20172 
  -20228   -20344   -20359   -20254   -20212   -20286   -20306   -20237 
  -20202   -20239   -20298   -20307   -20255   -20242   -20313   -20401 
  -20419   -20324   -20174   -20101   -20142   -20235   -20315   -20330 
  -20262   -20183   -20194   -20292   -20351   -20298   -20219   -20218 
  -20267   -20294   -20302   -20292   -20254   -20295   -20434   -20414 
  -20153   -20013   -20219   -20479   -20440   -20184   -20038   -20142 
  -20329   -20380   -20286   -20188   -20139   -20121   -20178   -20304 
  -20369   -20330   -20293   -20291   -20264   -20220   -20209   -20233 
  -20299   -20386   -20393   -20284   -20202   -20250   -20337   -20322 
  -20212   -20152   -20235   -20349   -20355   -20288   -20259   -20279 
  -20289   -20268   -20257   -20280   -20293   -20264   -20207   -20142 
  -20163   -20330   -20455   -20340   -20144   -20130   -20252   -20286 
  -20218   -20220   -20310   -20320   -20213   -20158   -20217   -20259 
  -20244   -20270   -20352   -20378   -20303   -20220   -20202   -20211 
  -20237   -20304   -20316   -20235   -20218   -20312   -20325   -20194 
  -20133   -20275   -20433   -20391   -20238   -20199   -20271   -20295 
  -20263   -20262   -20282   -20280   -20268   -20274   -20274   -20248 
  -20268   -20363   -20415   -20364   -20276   -20178   -20101   -20121 
  -20223   -20314   -20321   -20262   -20256   -20333   -20350   -20253 
  -20156   -20147   -20203   -20251   -20260   -20271   -20309   -20347 
  -20333   -20260   -20208   -20241   -20321   -20345   -20269   -20192 
  -20204   -20245   -20264   -20291   -20320   -20307   -20225   -20129 
  -20151   -20281   -20345   -20301   -20284   -20341   -20376   -20319 
  -20220   -20178   -20237   -20330   -20345   -20249   -20138   -20147 
  -20269   -20340   -20274   -20188   -20196   -20258   -20302   -20333 
  -20363   -20363   -20330   -20291   -20251   -20210   -20197   -20239 
  -20304   -20318   -20265   -20232   -20256   -20281   -20293   -20304 
  -20282   -20230   -20188   -20179   -20220   -20290   -20310   -20263 
  -20246   -20319   -20379   -20299   -20141   -20092   -20221   -20364 
  -20327   -20182   -20171   -20314   -20379   -20244   -20082   -20116 
  -20307   -20442   -20389   -20216   -20128   -20239   -20378   -20338 
  -20202   -20181   -20284   -20357   -20318   -20259   -20301   -20389 
  -20374   -20264   -20208   -20248   -20272   -20225   -20225   -20334 
  -20410   -20353   -20267   -20263   -20303   -20295   -20230   -20199 
  -20262   -20313   -20254   -20176   -20182   -20239   -20278   -20259 
  -20191   -20144   -20181   -20251   -20255   -20213   -20249   -20356 
  -20356   -20227   -20147   -20180   -20244   -20288   -20300   -20299 
  -20303   -20290   -20276   -20297   -20309   -20286   -20267   -20287 
  -20348   -20388   -20314   -20190   -20184   -20305   -20375   -20285 
  -20174   -20186   -20242   -20236   -20216   -20194   -20150   -20181 
  -20302   -20321   -20195   -20147   -20282   -20422   -20415   -20342 
  -20331   -20355   -20336   -20278   -20237   -20237   -20243   -20213 
  -20159   -20132   -20174   -20284   -20386   -20378   -20272   -20198 
  -20224   -20261   -20238   -20206   -20221   -20259   -20269   -20237 
  -20231   -20320   -20424   -20384   -20211   -20111   -20203   -20368 
  -20417   -20326   -20238   -20240   -20270   -20261   -20234   -20258 
  -20330   -20345   -20279   -20227   -20231   -20253   -20268   -20272 
  -20252   -20203   -20173   -20204   -20266   -20307   -20311   -20293 
  -20269   -20218   -20185   -20260   -20349   -20280   -20135   -20118 
  -20229   -20309   -20303   -20300   -20334   -20337   -20283   -20214 
  -20175   -20226   -20351   -20419   -20346   -20206   -20148   -20221 
  -20294   -20268   -20227   -20250   -20268   -20215   -20161   -20206 
  -20309   -20350   -20320   -20305   -20341   -20384   -20376   -20319 
  -20255   -20216   -20213   -20230   -20239   -20234   -20232   -20269 
  -20332   -20319   -20233   -20219   -20297   -20325   -20237   -20131 
  -20120   -20213   -20337   -20412   -20368   -20226   -20139   -20193 
  -20289   -20318   -20316   -20370   -20446   -20383   -20172   -20047 
  -20135   -20281   -20323   -20275   -20226   -20213   -20215   -20220 
  -20235   -20262   -20303   -20331   -20300   -20225   -20174   -20203 
  -20281   -20311   -20285   -20276   -20297   -20312   -20305   -20288 
  -20286   -20324   -20381   -20380   -20306   -20267   -20295   -20266 
  -20157   -20109   -20179   -20264   -20250   -20171   -20156   -20227 
  -20286   -20332   -20438   -20513   -20386   -20161   -20100   -20186 
  -20222   -20200   -20207   -20227   -20219   -20200   -20226   -20314 
  -20395   -20387   -20300   -20201   -20151   -20200   -20319   -20375 
  -20296   -20208   -20265   -20407   -20434   -20311   -20181   -20151 
  -20206   -20255   -20260   -20297   -20380   -20385   -20263   -20140 
  -20140   -20230   -20308   -20304   -20225   -20175   -20234   -20319 
  -20321   -20302   -20358   -20387   -20234   -19984   -19903   -20085 
  -20320   -20383   -20300   -20256   -20335   -20420   -20379   -20258 
  -20208   -20266   -20319   -20282   -20227   -20250   -20300   -20287 
  -20229   -20186   -20184   -20221   -20259   -20278   -20309   -20339 
  -20337   -20301   -20220   -20161   -20232   -20343   -20322   -20221 
  -20220   -20339   -20422   -20370   -20275   -20262   -20320   -20343 
  -20263   -20152   -20149   -20262   -20354   -20340   -20249   -20163 
  -20162   -20256   -20318   -20220   -20098   -20174   -20328   -20333 
  -20243   -20189   -20193   -20269   -20367   -20366   -20243   -20132 
  -20174   -20312   -20346   -20241   -20194   -20303   -20431   -20446 
  -20362   -20268   -20254   -20308   -20317   -20227   -20109   -20084 
  -20208   -20370   -20418   -20338   -20219   -20153   -20182   -20247 
  -20237   -20141   -20082   -20169   -20314   -20362   -20349   -20388 
  -20441   -20413   -20297   -20180   -20132   -20151   -20220   -20301 
  -20327   -20305   -20315   -20359   -20371   -20301   -20187   -20138 
  -20224   -20368   -20403   -20263   -20089   -20070   -20217   -20369 
  -20387   -20302   -20254   -20268   -20223   -20122   -20150   -20326 
  -20448   -20417   -20303   -20207   -20203   -20271   -20339   -20378 
  -20342   -20195   -20055   -20053   -20167   -20299   -20388   -20422 
  -20385   -20265   -20138   -20126   -20238   -20314   -20241   -20168 
  -20266   -20402   -20369   -20220   -20144   -20221   -20355   -20406 
  -20360   -20294   -20232   -20176   -20182   -20250   -20276   -20220 
  -20184   -20253   -20342   -20294   -20140   -20113   -20304   -20494 
  -20442   -20200   -20055   -20156   -20314   -20303   -20175   -20140 
  -20309   -20531   -20501   -20208   -20009   -20104   -20307   -20403 
  -20407   -20387   -20316   -20180   -20071   -20104   -20257   -20371 
  -20352   -20295   -20292   -20284   -20214   -20163   -20216   -20315 
  -20347   -20285   -20204   -20180   -20211   -20231   -20221   -20238 
  -20281   -20275   -20241   -20268   -20326   -20338   -20330   -20353 
  -20368   -20306   -20223   -20236   -20317   -20327   -20258   -20227 
  -20279   -20320   -20254   -20140   -20098   -20145   -20229   -20316 
  -20370   -20360   -20324   -20314   -20274   -20139   -20006   -20060 
  -20295   -20476   -20456   -20338   -20276   -20310   -20353   -20306 
  -20215   -20182   -20190   -20197   -20212   -20218   -20208   -20251 
  -20351   -20375   -20265   -20181   -20258   -20361   -20344   -20287 
  -20308   -20359   -20319   -20215   -20202   -20265   -20250   -20167 
  -20113   -20117   -20162   -20221   -20299   -20378   -20363   -20304 
  -20361   -20439   -20332   -20110   -20001   -20124   -20379   -20511 
  -20413   -20224   -20102   -20113   -20187   -20216   -20256   -20368 
  -20415   -20297   -20151   -20155   -20296   -20409   -20394   -20291 
  -20183   -20138   -20213   -20348   -20369   -20264   -20244   -20342 
  -20330   -20160   -20067   -20157   -20264   -20240   -20171   -20232 
  -20397   -20462   -20369   -20268   -20275   -20328   -20297   -20193 
  -20183   -20288   -20336   -20294   -20259   -20237   -20235   -20302 
  -20377   -20389   -20367   -20309   -20193   -20110   -20152   -20225 
  -20216   -20208   -20278   -20326   -20301   -20291   -20320   -20326 
  -20297   -20277   -20277   -20240   -20123   -20041   -20129   -20263 
  -20264   -20213   -20242   -20297   -20302   -20283   -20252   -20176 
  -20134   -20282   -20528   -20556   -20322   -20146   -20201   -20283 
  -20198   -20088   -20145   -20227   -20153   -20088   -20228   -20449 
  -20558   -20512   -20384   -20273   -20180   -20088   -20130   -20376 
  -20557   -20407   -20092   -19970   -20109   -20288   -20363   -20372 
  -20365   -20324   -20211   -20067   -20075   -20317   -20547   -20493 
  -20254   -20118   -20146   -20208   -20272   -20366   -20413   -20371 
  -20328   -20344   -20343   -20234   -20110   -20153   -20306   -20347 
  -20256   -20180   -20161   -20137   -20105   -20117   -20185   -20259 
  -20320   -20383   -20392   -20282   -20160   -20230   -20493   -20675 
  -20549   -20252   -20111   -20219   -20365   -20349   -20238   -20216 
  -20277   -20263   -20114   -19948   -19957   -20196   -20440   -20417 
  -20190   -20058   -20137   -20260   -20277   -20269   -20366   -20513 
  -20549   -20419   -20226   -20116   -20134   -20222   -20322   -20372 
  -20338   -20262   -20201   -20152   -20084   -20015   -20032   -20158 
  -20259   -20250   -20239   -20341   -20518   -20612   -20508   -20309 
  -20205   -20213   -20210   -20144   -20095   -20204   -20465   -20634 
  -20527   -20321   -20263   -20332   -20345   -20182   -19913   -19822 
  -20038   -20271   -20263   -20168   -20212   -20323   -20310   -20172 
  -20094   -20186   -20342   -20382   -20301   -20265   -20361   -20487 
  -20531   -20476   -20341   -20160   -20037   -20078   -20233   -20300 
  -20191   -20085   -20170   -20325   -20331   -20273   -20342   -20437 
  -20393   -20274   -20173   -20117   -20180   -20369   -20505   -20437 
  -20265   -20203   -20234   -20177   -20069   -20116   -20314   -20427 
  -20330   -20184   -20192   -20325   -20445   -20473   -20346   -20150 
  -20122   -20274   -20328   -20199   -20130   -20247   -20333   -20221 
  -20096   -20170   -20315   -20305   -20181   -20131   -20197   -20273 
  -20303   -20333   -20357   -20319   -20269   -20298   -20369   -20413 
  -20441   -20447   -20373   -20229   -20099   -20068   -20166   -20296 
  -20306   -20204   -20151   -20200   -20246   -20233   -20236   -20289 
  -20333   -20348   -20362   -20357   -20283   -20138   -20046   -20140 
  -20309   -20320   -20201   -20189   -20301   -20307   -20180   -20153 
  -20306   -20480   -20504   -20358   -20195   -20135   -20135   -20180 
  -20315   -20490   -20572   -20472   -20260   -20142   -20197   -20283 
  -20294   -20280   -20307   -20357   -20357   -20285   -20237   -20260 
  -20248   -20171   -20131   -20166   -20214   -20234   -20252   -20267 
  -20202   -20080   -20071   -20248   -20430   -20391   -20187   -20092 
  -20175   -20250   -20219   -20185   -20249   -20318   -20246   -20145 
  -20207   -20341   -20375   -20353   -20374   -20396   -20335   -20275 
  -20349   -20405   -20241   -20058   -20138   -20326   -20328   -20214 
  -20239   -20395   -20450   -20339   -20238   -20249   -20286   -20265 
  -20171   -20073   -20111   -20280   -20395   -20381   -20324   -20279 
  -20241   -20215   -20203   -20192   -20189   -20206   -20236   -20283 
  -20348   -20383   -20339   -20237   -20161   -20154   -20172   -20181 
  -20206   -20259   -20299   -20279   -20220   -20209   -20241   -20231 
  -20203   -20245   -20363   -20451   -20403   -20274   -20202   -20207 
  -20239   -20265   -20269   -20310   -20432   -20502   -20405   -20242 
  -20147   -20160   -20247   -20311   -20296   -20244   -20217   -20237 
  -20282   -20311   -20300   -20262   -20274   -20398   -20512   -20418 
  -20192   -20131   -20293   -20396   -20245   -20034   -20044   -20236 
  -20316   -20141   -19955   -20047   -20301   -20394   -20272   -20162 
  -20242   -20418   -20490   -20432   -20334   -20223   -20164   -20265 
  -20441   -20457   -20301   -20201   -20244   -20267   -20187   -20157 
  -20267   -20360   -20297   -20223   -20306   -20421   -20410   -20327 
  -20252   -20178   -20116   -20088   -20081   -20070   -20056   -20077 
  -20168   -20289   -20331   -20260   -20198   -20256   -20362   -20396 
  -20371   -20343   -20301   -20225   -20137   -20126   -20267   -20452 
  -20506   -20412   -20287   -20215   -20183   -20139   -20090   -20131 
  -20310   -20513   -20535   -20350   -20178   -20173   -20221   -20215 
  -20216   -20264   -20288   -20222   -20170   -20282   -20437   -20428 
  -20340   -20318   -20293   -20203   -20147   -20228   -20399   -20479 
  -20389   -20275   -20275   -20329   -20316   -20224   -20142   -20149 
  -20209   -20206   -20142   -20141   -20235   -20297   -20259   -20224 
  -20279   -20361   -20377   -20346   -20346   -20397   -20419   -20326 
  -20162   -20087   -20152   -20219   -20191   -20148   -20155   -20166 
  -20160   -20186   -20230   -20227   -20180   -20144   -20155   -20221 
  -20335   -20431   -20429   -20349   -20285   -20270   -20270   -20241 
  -20206   -20230   -20267   -20214   -20167   -20272   -20409   -20388 
  -20271   -20224   -20260   -20278   -20249   -20251   -20310   -20346 
  -20316   -20274   -20290   -20366   -20403   -20321   -20195   -20157 
  -20218   -20271   -20216   -20111   -20113   -20208   -20230   -20166 
  -20173   -20278   -20349   -20329   -20286   -20284   -20332   -20386 
  -20394   -20353   -20317   -20308   -20294   -20266   -20259   -20300 
  -20360   -20362   -20272   -20196   -20226   -20290   -20307   -20311 
  -20304   -20224   -20089   -20014   -20059   -20159   -20229   -20252 
  -20252   -20275   -20348   -20417   -20429   -20413   -20399   -20371 
  -20310   -20206   -20127   -20154   -20231   -20257   -20239   -20225 
  -20209   -20155   -20096   -20137   -20254   -20299   -20272   -20334 
  -20508   -20598   -20469   -20247   -20149   -20197   -20241   -20202 
  -20159   -20182   -20229   -20250   -20261   -20286   -20330   -20358 
  -20319   -20255   -20248   -20265   -20228   -20192   -20262   -20380 
  -20391   -20290   -20206   -20185   -20187   -20226   -20305   -20347 
  -20302   -20241   -20253   -20301   -20305   -20282   -20282   -20313 
  -20356   -20315   -20143   -20019   -20107   -20277   -20296   -20177 
  -20135   -20259   -20383   -20346   -20244   -20262   -20346   -20304 
  -20174   -20157   -20276   -20359   -20294   -20165   -20141   -20263 
  -20391   -20373   -20228   -20134   -20187   -20253   -20213   -20150 
  -20186   -20302   -20368   -20306   -20199   -20163   -20177   -20162 
  -20148   -20209   -20295   -20301   -20274   -20335   -20443   -20461 
  -20398   -20381   -20397   -20326   -20183   -20133   -20257   -20431 
  -20469   -20361   -20267   -20279   -20320   -20297   -20251   -20281 
  -20372   -20375   -20221   -20088   -20150   -20317   -20378   -20283 
  -20165   -20145   -20190   -20202   -20165   -20154   -20205   -20249 
  -20214   -20137   -20125   -20236   -20386   -20409   -20278   -20157 
  -20159   -20221   -20246   -20226   -20229   -20291   -20345   -20335 
  -20300   -20303   -20351   -20384   -20351   -20275   -20210   -20199 
  -20268   -20358   -20367   -20282   -20192   -20173   -20234   -20314 
  -20341   -20312   -20282   -20284   -20295   -20280   -20240   -20225 
