Origin Time       2025/03/28 03:50:00
Lat.              35.403
Long.             140.360
Depth. (km)       54
Mag.              4.4
Station Code      SZOH54
Station Lat.      35.0417
Station Long.     139.1685
Station Height(m) 20
Record Time       2025/03/28 03:51:11
Sampling Freq(Hz) 100Hz
Duration Time(s)  120
Dir.              5
Scale Factor      3920(gal)/6170801
Max. Acc. (gal)   0.316
Last Correction   2025/03/28 03:50:56
Memo.             
[...]
   -4482    -4353    -4290    -4399    -4547    -4531    -4350    -4194 
   -4223    -4382    -4497    -4499    -4398    -4236    -4177    -4335 
   -4549    -4599    -4472    -4295    -4206    -4279    -4444    -4527 
   -4464    -4367    -4323    -4318    -4355    -4425    -4446    -4416 
   -4371    -4297    -4277    -4381    -4440    -4359    -4319    -4400 
   -4475    -4512    -4538    -4486    -4360    -4262    -4223    -4215 
   -4289    -4452    -4549    -4442    -4210    -4123    -4340    -4624 
   -4689    -4566    -4336    -4108    -4153    -4411    -4520    -4462 
   -4383    -4298    -4305    -4455    -4566    -4479    -4313    -4277 
   -4330    -4343    -4403    -4509    -4472    -4334    -4298    -4352 
   -4386    -4400    -4396    -4366    -4381    -4459    -4485    -4392 
   -4284    -4270    -4335    -4406    -4430    -4417    -4419    -4428 
   -4396    -4343    -4345    -4423    -4476    -4417    -4293    -4221 
   -4256    -4329    -4368    -4419    -4466    -4420    -4339    -4305 
   -4319    -4397    -4519    -4572    -4493    -4385    -4359    -4365 
   -4350    -4389    -4466    -4454    -4359    -4271    -4248    -4322 
   -4426    -4451    -4410    -4364    -4342    -4371    -4410    -4379 
   -4341    -4378    -4438    -4479    -4486    -4390    -4234    -4214 
   -4367    -4477    -4435    -4357    -4322    -4318    -4348    -4402 
   -4450    -4462    -4431    -4374    -4307    -4277    -4343    -4454 
   -4500    -4472    -4414    -4347    -4319    -4355    -4398    -4401 
   -4383    -4371    -4355    -4351    -4365    -4383    -4452    -4555 
   -4522    -4334    -4214    -4278    -4423    -4539    -4531    -4362 
   -4199    -4215    -4325    -4400    -4443    -4430    -4323    -4239 
   -4290    -4415    -4504    -4496    -4401    -4325    -4354    -4447 
   -4493    -4414    -4283    -4273    -4391    -4455    -4419    -4368 
   -4309    -4270    -4330    -4429    -4461    -4448    -4438    -4412 
   -4362    -4323    -4324    -4345    -4371    -4425    -4487    -4471 
   -4369    -4285    -4308    -4391    -4419    -4368    -4338    -4395 
   -4475    -4477    -4399    -4327    -4310    -4345    -4410    -4463 
   -4451    -4402    -4381    -4398    -4423    -4445    -4432    -4354 
   -4273    -4287    -4369    -4410    -4382    -4356    -4386    -4431 
   -4426    -4374    -4315    -4297    -4342    -4401    -4431    -4446 
   -4419    -4342    -4279    -4276    -4355    -4476    -4505    -4416 
   -4335    -4332    -4364    -4414    -4450    -4402    -4310    -4299 
   -4365    -4425    -4458    -4469    -4441    -4393    -4374    -4404 
   -4449    -4440    -4361    -4288    -4254    -4256    -4343    -4471 
   -4528    -4522    -4479    -4369    -4272    -4279    -4348    -4406 
   -4425    -4410    -4381    -4336    -4289    -4285    -4340    -4425 
   -4490    -4478    -4392    -4302    -4268    -4287    -4346    -4436 
   -4493    -4451    -4356    -4313    -4369    -4477    -4520    -4434 
   -4305    -4259    -4320    -4421    -4463    -4413    -4347    -4331 
   -4361    -4426    -4490    -4477    -4408    -4380    -4388    -4378 
   -4370    -4360    -4319    -4335    -4450    -4527    -4487    -4414 
   -4350    -4298    -4302    -4351    -4376    -4386    -4424    -4437 
   -4343    -4208    -4181    -4288    -4438    -4566    -4585    -4445 
   -4288    -4261    -4321    -4403    -4477    -4456    -4340    -4286 
   -4333    -4381    -4419    -4470    -4465    -4402    -4375    -4390 
   -4370    -4332    -4333    -4352    -4380    -4432    -4465    -4429 
   -4350    -4302    -4336    -4443    -4541    -4519    -4363    -4196 
   -4158    -4271    -4411    -4467    -4467    -4435    -4358    -4317 
   -4380    -4450    -4451    -4425    -4406    -4382    -4358    -4347 
   -4311    -4233    -4255    -4445    -4565    -4470    -4348    -4327 
   -4343    -4384    -4447    -4445    -4372    -4324    -4327    -4314 
   -4305    -4389    -4513    -4538    -4472    -4404    -4344    -4298 
   -4327    -4422    -4483    -4474    -4433    -4362    -4289    -4290 
   -4354    -4434    -4495    -4480    -4400    -4341    -4306    -4277 
   -4310    -4399    -4456    -4456    -4407    -4297    -4196    -4227 
   -4376    -4492    -4476    -4375    -4295    -4297    -4385    -4500 
   -4551    -4502    -4412    -4350    -4328    -4340    -4378    -4381 
   -4315    -4262    -4312    -4427    -4493    -4460    -4386    -4355 
   -4380    -4413    -4418    -4397    -4366    -4352    -4378    -4408 
   -4394    -4362    -4341    -4327    -4349    -4429    -4478    -4414 
   -4306    -4287    -4351    -4406    -4431    -4429    -4397    -4374 
   -4384    -4398    -4378    -4329    -4312    -4358    -4419    -4458 
   -4464    -4428    -4373    -4349    -4366    -4379    -4355    -4343 
   -4391    -4435    -4412    -4367    -4348    -4343    -4374    -4454 
   -4497    -4439    -4354    -4332    -4337    -4324    -4351    -4419 
   -4421    -4371    -4382    -4427    -4436    -4428    -4413    -4388 
   -4391    -4399    -4339    -4256    -4258    -4349    -4450    -4506 
   -4504    -4443    -4349    -4262    -4224    -4284    -4423    -4519 
   -4496    -4407    -4336    -4318    -4327    -4331    -4365    -4464 
   -4542    -4480    -4318    -4228    -4288    -4413    -4480    -4450 
   -4394    -4363    -4323    -4278    -4296    -4384    -4479    -4531 
   -4495    -4367    -4242    -4229    -4304    -4384    -4437    -4447 
   -4413    -4376    -4353    -4340    -4365    -4419    -4436    -4434 
   -4475    -4493    -4403    -4292    -4271    -4317    -4391    -4469 
   -4475    -4373    -4272    -4276    -4349    -4433    -4523    -4560 
   -4468    -4305    -4193    -4206    -4348    -4520    -4583    -4499 
   -4318    -4163    -4197    -4394    -4548    -4549    -4448    -4321 
   -4249    -4301    -4402    -4413    -4376    -4394    -4410    -4379 
   -4370    -4383    -4350    -4312    -4334    -4406    -4496    -4547 
   -4483    -4344    -4245    -4226    -4289    -4402    -4470    -4447 
   -4388    -4341    -4320    -4355    -4417    -4448    -4451    -4447 
   -4417    -4347    -4273    -4267    -4337    -4423    -4463    -4426 
   -4347    -4296    -4317    -4417    -4505    -4485    -4400    -4338 
   -4296    -4293    -4382    -4494    -4490    -4396    -4345    -4335 
   -4334    -4391    -4432    -4389    -4396    -4474    -4444    -4323 
   -4268    -4280    -4331    -4457    -4564    -4508    -4357    -4280 
   -4323    -4418    -4477    -4449    -4345    -4232    -4218    -4344 
   -4476    -4487    -4436    -4387    -4335    -4348    -4449    -4494 
   -4428    -4353    -4311    -4311    -4351    -4358    -4324    -4316 
   -4353    -4443    -4529    -4482    -4342    -4262    -4252    -4292 
   -4406    -4505    -4487    -4410    -4353    -4347    -4395    -4417 
   -4370    -4354    -4400    -4406    -4388    -4400    -4382    -4356 
   -4406    -4431    -4372    -4383    -4466    -4463    -4411    -4399 
   -4391    -4383    -4382    -4337    -4306    -4350    -4369    -4328 
   -4332    -4384    -4408    -4401    -4404    -4434    -4469    -4472 
   -4436    -4367    -4279    -4243    -4332    -4472    -4532    -4533 
   -4501    -4359    -4215    -4285    -4467    -4509    -4413    -4263 
   -4125    -4158    -4380    -4550    -4546    -4460    -4380    -4339 
   -4332    -4312    -4295    -4345    -4433    -4492    -4500    -4420 
   -4284    -4227    -4276    -4344    -4406    -4426    -4347    -4267 
   -4315    -4433    -4531    -4586    -4537    -4407    -4332    -4317 
   -4288    -4268    -4281    -4334    -4456    -4542    -4436    -4271 
   -4287    -4436    -4533    -4512    -4382    -4248    -4256    -4359 
   -4413    -4420    -4423    -4393    -4340    -4303    -4304    -4365 
   -4446    -4449    -4349    -4266    -4343    -4508    -4565    -4482 
   -4364    -4297    -4328    -4415    -4474    -4455    -4374    -4300 
   -4269    -4292    -4397    -4512    -4532    -4496    -4454    -4372 
   -4276    -4251    -4321    -4401    -4413    -4391    -4379    -4376 
   -4392    -4422    -4430    -4422    -4442    -4498    -4528    -4453 
   -4321    -4252    -4267    -4322    -4398    -4431    -4373    -4303 
   -4343    -4491    -4588    -4538    -4454    -4440    -4445    -4422 
   -4368    -4268    -4201    -4271    -4403    -4447    -4437    -4452 
   -4439    -4372    -4331    -4309    -4269    -4294    -4392    -4426 
   -4376    -4334    -4307    -4299    -4342    -4386    -4373    -4318 
   -4257    -4236    -4304    -4428    -4497    -4460    -4375    -4328 
   -4350    -4382    -4357    -4334    -4376    -4418    -4401    -4370 
   -4351    -4326    -4315    -4331    -4334    -4310    -4286    -4292 
   -4335    -4378    -4416    -4480    -4509    -4463    -4422    -4384 
   -4310    -4305    -4402    -4505    -4590    -4603    -4420    -4124 
   -3991    -4152    -4480    -4738    -4731    -4437    -4098    -4055 
   -4362    -4673    -4682    -4490    -4300    -4160    -4151    -4321 
   -4462    -4444    -4406    -4413    -4409    -4421    -4444    -4395 
   -4309    -4337    -4532    -4742    -4771    -4602    -4405    -4341 
   -4442    -4568    -4507    -4280    -4153    -4190    -4226    -4234 
   -4264    -4271    -4275    -4350    -4442    -4511    -4597    -4633 
   -4547    -4476    -4527    -4599    -4585    -4457    -4240    -4099 
   -4157    -4262    -4253    -4187    -4142    -4153    -4267    -4403 
   -4405    -4302    -4238    -4284    -4458    -4657    -4696    -4569 
   -4407    -4274    -4228    -4288    -4321    -4289    -4349    -4459 
   -4403    -4273    -4283    -4359    -4418    -4565    -4722    -4661 
   -4426    -4209    -4076    -4113    -4383    -4646    -4613    -4341 
   -4076    -3981    -4132    -4469    -4746    -4728    -4434    -4096 
   -3960    -4091    -4360    -4623    -4773    -4712    -4494    -4301 
   -4205    -4207    -4358    -4595    -4705    -4590    -4360    -4191 
   -4196    -4354    -4527    -4575    -4447    -4252    -4167    -4217 
   -4291    -4334    -4362    -4390    -4422    -4432    -4362    -4201 
   -4070    -4151    -4424    -4631    -4623    -4514    -4426    -4399 
   -4456    -4513    -4492    -4484    -4532    -4511    -4393    -4303 
   -4299    -4337    -4382    -4428    -4446    -4415    -4380    -4373 
   -4404    -4520    -4676    -4732    -4627    -4417    -4221    -4147 
   -4193    -4297    -4414    -4480    -4430    -4309    -4214    -4172 
   -4181    -4266    -4381    -4452    -4478    -4443    -4306    -4147 
   -4098    -4157    -4236    -4290    -4359    -4450    -4495    -4506 
   -4533    -4530    -4471    -4379    -4227    -4088    -4124    -4288 
   -4408    -4474    -4527    -4512    -4455    -4425    -4369    -4285 
   -4262    -4255    -4201    -4191    -4257    -4328    -4415    -4533 
   -4615    -4638    -4604    -4525    -4510    -4614    -4674    -4557 
   -4357    -4192    -4085    -4076    -4192    -4343    -4449    -4497 
   -4440    -4308    -4287    -4423    -4527    -4478    -4348    -4259 
   -4322    -4514    -4620    -4553    -4491    -4501    -4489    -4438 
   -4315    -4113    -4018    -4134    -4321    -4460    -4521    -4453 
   -4320    -4311    -4472    -4638    -4645    -4498    -4328    -4273 
   -4359    -4470    -4506    -4470    -4421    -4433    -4499    -4498 
   -4395    -4292    -4222    -4142    -4117    -4243    -4423    -4514 
   -4519    -4463    -4355    -4270    -4268    -4308    -4335    -4391 
   -4525    -4622    -4568    -4427    -4290    -4206    -4244    -4358 
   -4350    -4200    -4120    -4204    -4341    -4413    -4385    -4310 
   -4293    -4363    -4414    -4377    -4356    -4448    -4575    -4633 
   -4623    -4530    -4362    -4240    -4232    -4304    -4427    -4505 
   -4404    -4198    -4116    -4269    -4575    -4803    -4764    -4575 
   -4468    -4446    -4414    -4352    -4267    -4244    -4374    -4493 
   -4412    -4279    -4264    -4296    -4335    -4406    -4413    -4313 
   -4221    -4207    -4266    -4379    -4437    -4341    -4178    -4119 
   -4230    -4405    -4493    -4505    -4535    -4590    -4666    -4742 
   -4692    -4475    -4285    -4242    -4242    -4254    -4336    -4429 
   -4444    -4400    -4374    -4378    -4370    -4384    -4444    -4442 
   -4369    -4359    -4378    -4340    -4351    -4458    -4501    -4421 
   -4353    -4334    -4292    -4266    -4312    -4376    -4424    -4459 
   -4433    -4314    -4170    -4097    -4154    -4345    -4593    -4719 
   -4601    -4363    -4198    -4154    -4206    -4279    -4296    -4315 
   -4392    -4448    -4466    -4498    -4497    -4431    -4404    -4468 
   -4532    -4510    -4439    -4401    -4425    -4471    -4471    -4396 
   -4304    -4267    -4288    -4325    -4350    -4401    -4513    -4611 
   -4616    -4541    -4367    -4126    -4005    -4062    -4159    -4236 
   -4306    -4324    -4330    -4426    -4550    -4551    -4428    -4299 
   -4248    -4289    -4368    -4390    -4349    -4354    -4468    -4599 
   -4611    -4491    -4337    -4235    -4227    -4319    -4421    -4437 
   -4397    -4388    -4440    -4511    -4513    -4432    -4389    -4460 
   -4566    -4629    -4611    -4480    -4313    -4266    -4354    -4430 
   -4399    -4292    -4221    -4302    -4511    -4653    -4578    -4355 
   -4175    -4134    -4214    -4352    -4447    -4380    -4193    -4113 
   -4250    -4460    -4577    -4534    -4359    -4221    -4247    -4324 
   -4345    -4358    -4369    -4383    -4462    -4539    -4464    -4236 
   -3993    -3886    -4021    -4338    -4602    -4658    -4595    -4530 
   -4483    -4498    -4592    -4683    -4689    -4571    -4394    -4314 
   -4358    -4407    -4423    -4450    -4476    -4463    -4404    -4262 
   -4048    -3936    -4058    -4302    -4486    -4531    -4421    -4257 
   -4239    -4404    -4584    -4624    -4487    -4271    -4130    -4094 
   -4134    -4298    -4540    -4672    -4651    -4582    -4472    -4326 
   -4276    -4366    -4483    -4529    -4472    -4318    -4157    -4111 
   -4207    -4358    -4464    -4503    -4512    -4505    -4493    -4528 
   -4600    -4611    -4526    -4412    -4328    -4276    -4238    -4211 
   -4228    -4319    -4441    -4507    -4471    -4352    -4241    -4214 
   -4251    -4315    -4393    -4448    -4465    -4448    -4422    -4407 
   -4374    -4317    -4299    -4350    -4438    -4506    -4482    -4369 
   -4295    -4337    -4430    -4494    -4504    -4449    -4344    -4243 
   -4191    -4195    -4241    -4299    -4322    -4335    -4414    -4512 
   -4535    -4495    -4427    -4371    -4397    -4476    -4504    -4500 
   -4509    -4465    -4354    -4267    -4237    -4245    -4287    -4307 
   -4265    -4265    -4365    -4444    -4446    -4431    -4387    -4318 
   -4324    -4406    -4465    -4468    -4441    -4413    -4432    -4478 
   -4459    -4379    -4320    -4316    -4364    -4405    -4369    -4315 
   -4336    -4413    -4474    -4472    -4419    -4392    -4436    -4525 
   -4606    -4609    -4486    -4280    -4094    -4036    -4149    -4313 
   -4377    -4358    -4337    -4358    -4448    -4550    -4562    -4519 
   -4503    -4504    -4500    -4477    -4386    -4237    -4117    -4081 
   -4131    -4226    -4275    -4261    -4310    -4454    -4559    -4577 
   -4547    -4475    -4399    -4371    -4331    -4226    -4139    -4149 
   -4230    -4359    -4521    -4634    -4629    -4544    -4443    -4363 
   -4315    -4304    -4359    -4489    -4598    -4583    -4439    -4253 
   -4153    -4205    -4335    -4446    -4488    -4425    -4327    -4335 
   -4416    -4457    -4454    -4429    -4380    -4341    -4305    -4227 
   -4166    -4220    -4365    -4485    -4499    -4411    -4300    -4282 
   -4392    -4537    -4604    -4556    -4461    -4425    -4446    -4438 
   -4364    -4278    -4275    -4394    -4544    -4604    -4537    -4400 
   -4283    -4220    -4207    -4261    -4379    -4504    -4567    -4538 
   -4435    -4334    -4263    -4193    -4166    -4240    -4345    -4378 
   -4323    -4245    -4246    -4358    -4501    -4575    -4536    -4414 
   -4307    -4307    -4425    -4573    -4625    -4535    -4371    -4239 
   -4215    -4305    -4425    -4483    -4461    -4399    -4316    -4243 
   -4259    -4359    -4437    -4438    -4387    -4311    -4263    -4275 
   -4314    -4351    -4382    -4369    -4277    -4155    -4101    -4160 
   -4315    -4508    -4664    -4719    -4652    -4514    -4423    -4449 
   -4528    -4560    -4510    -4421    -4355    -4324    -4309    -4303 
   -4314    -4351    -4418    -4493    -4509    -4458    -4414    -4405 
   -4413    -4438    -4470    -4465    -4393    -4281    -4215    -4249 
   -4332    -4357    -4292    -4232    -4267    -4364    -4446    -4481 
   -4461    -4405    -4385    -4439    -4511    -4515    -4426    -4276 
   -4161    -4172    -4260    -4321    -4351    -4382    -4390    -4354 
   -4311    -4318    -4384    -4466    -4512    -4494    -4442    -4430 
   -4465    -4481    -4439    -4348    -4254    -4227    -4284    -4378 
   -4462    -4472    -4375    -4266    -4260    -4332    -4384    -4375 
   -4333    -4314    -4351    -4437    -4525    -4572    -4564    -4510 
   -4430    -4355    -4300    -4261    -4261    -4317    -4390    -4454 
   -4502    -4484    -4397    -4319    -4276    -4241    -4239    -4294 
   -4365    -4401    -4389    -4352    -4326    -4355    -4424    -4469 
   -4467    -4427    -4360    -4312    -4328    -4386    -4450    -4510 
   -4513    -4451    -4409    -4419    -4444    -4465    -4448    -4370 
   -4307    -4340    -4421    -4461    -4446    -4396    -4343    -4339 
   -4397    -4459    -4472    -4430    -4350    -4290    -4306    -4369 
   -4394    -4357    -4297    -4275    -4322    -4404    -4466    -4477 
   -4440    -4388    -4361    -4364    -4389    -4427    -4454    -4468 
   -4495    -4515    -4451    -4297    -4162    -4140    -4242    -4416 
   -4547    -4525    -4381    -4263    -4240    -4278    -4334    -4359 
   -4316    -4243    -4215    -4255    -4331    -4415    -4475    -4464 
   -4385    -4307    -4285    -4305    -4346    -4391    -4405    -4381 
   -4353    -4339    -4354    -4409    -4480    -4535    -4559    -4560 
   -4549    -4512    -4452    -4402    -4376    -4368    -4383    -4410 
   -4416    -4405    -4412    -4451    -4500    -4524    -4499    -4434 
   -4380    -4375    -4423    -4489    -4504    -4442    -4358    -4283 
   -4209    -4184    -4232    -4278    -4285    -4299    -4336    -4384 
   -4442    -4492    -4493    -4459    -4436    -4407    -4359    -4320 
   -4288    -4254    -4264    -4341    -4433    -4469    -4423    -4330 
   -4245    -4219    -4269    -4366    -4445    -4454    -4414    -4378 
   -4359    -4367    -4390    -4384    -4370    -4389    -4407    -4397 
   -4368    -4338    -4359    -4434    -4476    -4447    -4385    -4315 
   -4304    -4412    -4542    -4569    -4487    -4351    -4227    -4205 
   -4292    -4396    -4451    -4460    -4431    -4391    -4375    -4377 
   -4389    -4421    -4431    -4390    -4332    -4268    -4214    -4232 
   -4312    -4385    -4423    -4412    -4353    -4304    -4321    -4380 
   -4449    -4516    -4517    -4420    -4312    -4270    -4291    -4364 
   -4452    -4493    -4490    -4479    -4459    -4422    -4408    -4446 
   -4492    -4473    -4401    -4335    -4314    -4341    -4375    -4371 
   -4337    -4291    -4254    -4254    -4289    -4342    -4414    -4505 
