Origin Time       2025/03/28 03:50:00
Lat.              35.403
Long.             140.360
Depth. (km)       54
Mag.              4.4
Station Code      SZOH54
Station Lat.      35.0417
Station Long.     139.1685
Station Height(m) -90
Record Time       2025/03/28 03:51:11
Sampling Freq(Hz) 100Hz
Duration Time(s)  120
Dir.              1
Scale Factor      2940(gal)/6170270
Max. Acc. (gal)   0.132
Last Correction   2025/03/28 03:50:56
Memo.             
[...]
  -31116   -31117   -31116   -31114   -31115   -31115   -31114   -31115 
  -31113   -31112   -31115   -31115   -31116   -31119   -31119   -31116 
  -31114   -31114   -31116   -31119   -31117   -31117   -31118   -31117 
  -31117   -31116   -31114   -31114   -31115   -31115   -31116   -31117 
  -31117   -31117   -31115   -31116   -31119   -31117   -31114   -31116 
  -31118   -31116   -31117   -31117   -31116   -31116   -31115   -31114 
  -31116   -31116   -31115   -31118   -31115   -31116   -31123   -31122 
  -31121   -31122   -31118   -31115   -31112   -31108   -31107   -31108 
  -31110   -31114   -31118   -31120   -31122   -31124   -31124   -31122 
  -31119   -31111   -31105   -31109   -31114   -31115   -31117   -31119 
  -31123   -31126   -31127   -31124   -31117   -31112   -31109   -31109 
  -31110   -31105   -31104   -31112   -31120   -31124   -31124   -31123 
  -31121   -31119   -31111   -31102   -31096   -31098   -31108   -31119 
  -31123   -31124   -31121   -31109   -31103   -31112   -31122   -31123 
  -31123   -31130   -31135   -31124   -31109   -31103   -31101   -31099 
  -31104   -31112   -31111   -31105   -31116   -31141   -31153   -31138 
  -31108   -31091   -31104   -31123   -31109   -31086   -31083   -31091 
  -31110   -31138   -31152   -31139   -31116   -31107   -31119   -31122 
  -31105   -31107   -31131   -31140   -31133   -31120   -31108   -31130 
  -31151   -31128   -31107   -31101   -31084   -31086   -31121   -31148 
  -31133   -31092   -31071   -31087   -31108   -31121   -31135   -31140 
  -31130   -31118   -31113   -31108   -31090   -31070   -31073   -31109 
  -31147   -31151   -31136   -31129   -31126   -31126   -31116   -31100 
  -31111   -31134   -31131   -31118   -31115   -31110   -31099   -31106 
  -31133   -31145   -31130   -31108   -31096   -31106   -31128   -31123 
  -31089   -31069   -31094   -31143   -31165   -31147   -31115   -31080 
  -31059   -31073   -31098   -31108   -31098   -31090   -31126   -31175 
  -31195   -31200   -31195   -31172   -31140   -31104   -31077   -31069 
  -31071   -31069   -31060   -31057   -31073   -31102   -31145   -31179 
  -31173   -31146   -31116   -31084   -31061   -31051   -31059   -31083 
  -31110   -31142   -31165   -31160   -31141   -31134   -31140   -31136 
  -31118   -31113   -31112   -31100   -31095   -31090   -31086   -31113 
  -31148   -31164   -31173   -31163   -31129   -31095   -31073   -31066 
  -31065   -31081   -31114   -31120   -31101   -31105   -31129   -31155 
  -31162   -31147   -31131   -31113   -31093   -31092   -31099   -31093 
  -31096   -31122   -31155   -31162   -31124   -31072   -31057   -31077 
  -31095   -31114   -31140   -31132   -31100   -31103   -31140   -31173 
  -31170   -31136   -31109   -31104   -31103   -31105   -31106   -31100 
  -31094   -31094   -31101   -31113   -31124   -31140   -31166   -31177 
  -31157   -31122   -31096   -31086   -31074   -31051   -31054   -31094 
  -31116   -31110   -31117   -31133   -31141   -31167   -31199   -31180 
  -31118   -31082   -31079   -31069   -31060   -31072   -31091   -31106 
  -31130   -31152   -31161   -31156   -31136   -31130   -31159   -31165 
  -31123   -31085   -31078   -31091   -31104   -31086   -31062   -31073 
  -31108   -31138   -31150   -31127   -31099   -31102   -31109   -31105 
  -31113   -31127   -31132   -31142   -31148   -31123   -31096   -31101 
  -31121   -31132   -31127   -31116   -31106   -31092   -31089   -31115 
  -31141   -31139   -31117   -31098   -31090   -31093   -31115   -31141 
  -31152   -31145   -31131   -31115   -31103   -31105   -31116   -31109 
  -31087   -31079   -31089   -31114   -31135   -31139   -31148   -31170 
  -31170   -31128   -31088   -31088   -31101   -31096   -31092   -31103 
  -31104   -31094   -31100   -31125   -31138   -31123   -31104   -31110 
  -31131   -31151   -31153   -31137   -31128   -31128   -31113   -31091 
  -31088   -31097   -31108   -31128   -31127   -31100   -31093   -31104 
  -31107   -31113   -31121   -31116   -31104   -31099   -31109   -31116 
  -31104   -31104   -31136   -31166   -31163   -31135   -31113   -31102 
  -31088   -31086   -31113   -31121   -31094   -31092   -31127   -31163 
  -31172   -31140   -31097   -31081   -31082   -31078   -31078   -31090 
  -31104   -31109   -31114   -31127   -31137   -31142   -31139   -31127 
  -31118   -31120   -31124   -31127   -31136   -31149   -31140   -31102 
  -31084   -31114   -31151   -31160   -31149   -31126   -31088   -31063 
  -31074   -31087   -31086   -31087   -31100   -31127   -31146   -31143 
  -31127   -31108   -31096   -31105   -31119   -31125   -31125   -31119 
  -31111   -31112   -31121   -31130   -31131   -31121   -31115   -31128 
  -31132   -31115   -31109   -31116   -31103   -31089   -31097   -31108 
  -31114   -31111   -31100   -31105   -31122   -31119   -31106   -31099 
  -31093   -31101   -31119   -31129   -31129   -31128   -31132   -31144 
  -31154   -31151   -31140   -31119   -31097   -31093   -31099   -31096 
  -31089   -31085   -31082   -31086   -31099   -31112   -31120   -31124 
  -31137   -31156   -31158   -31142   -31138   -31145   -31140   -31136 
  -31138   -31112   -31068   -31056   -31071   -31076   -31077   -31093 
  -31112   -31120   -31126   -31141   -31150   -31142   -31126   -31115 
  -31121   -31136   -31134   -31119   -31112   -31110   -31106   -31111 
  -31120   -31119   -31110   -31101   -31099   -31107   -31118   -31122 
  -31121   -31126   -31136   -31126   -31097   -31081   -31086   -31097 
  -31108   -31118   -31127   -31134   -31141   -31149   -31149   -31133 
  -31107   -31081   -31066   -31072   -31103   -31142   -31163   -31160 
  -31139   -31114   -31104   -31111   -31116   -31119   -31124   -31131 
  -31147   -31164   -31155   -31127   -31106   -31101   -31096   -31079 
  -31070   -31081   -31090   -31089   -31092   -31105   -31117   -31120 
  -31130   -31146   -31138   -31107   -31091   -31099   -31119   -31141 
  -31155   -31153   -31133   -31110   -31107   -31116   -31114   -31104 
  -31101   -31111   -31120   -31120   -31118   -31122   -31126   -31116 
  -31103   -31107   -31113   -31104   -31099   -31109   -31126   -31134 
  -31131   -31128   -31126   -31115   -31098   -31091   -31106   -31133 
  -31151   -31152   -31137   -31112   -31085   -31072   -31082   -31099 
  -31106   -31105   -31103   -31097   -31097   -31108   -31120   -31125 
  -31130   -31149   -31171   -31167   -31143   -31119   -31099   -31084 
  -31079   -31092   -31117   -31133   -31134   -31129   -31117   -31105 
  -31099   -31101   -31116   -31123   -31107   -31092   -31096   -31094 
  -31083   -31091   -31117   -31139   -31149   -31150   -31141   -31123 
  -31111   -31109   -31104   -31103   -31115   -31117   -31109   -31114 
  -31123   -31126   -31127   -31130   -31135   -31140   -31136   -31118 
  -31093   -31080   -31091   -31112   -31119   -31116   -31111   -31101 
  -31093   -31094   -31091   -31095   -31108   -31115   -31120   -31125 
  -31118   -31108   -31108   -31115   -31123   -31122   -31115   -31108 
  -31108   -31120   -31129   -31129   -31127   -31133   -31147   -31148 
  -31126   -31101   -31085   -31079   -31084   -31100   -31128   -31146 
  -31135   -31120   -31119   -31118   -31107   -31107   -31127   -31136 
  -31127   -31121   -31123   -31122   -31114   -31107   -31105   -31103 
  -31100   -31098   -31100   -31108   -31119   -31126   -31125   -31121 
  -31123   -31127   -31121   -31112   -31104   -31095   -31089   -31096 
  -31115   -31131   -31133   -31129   -31126   -31124   -31120   -31114 
  -31114   -31124   -31129   -31129   -31136   -31139   -31126   -31111 
  -31102   -31087   -31064   -31055   -31064   -31083   -31113   -31143 
  -31149   -31137   -31123   -31116   -31114   -31108   -31102   -31112 
  -31134   -31149   -31154   -31156   -31151   -31130   -31110   -31105 
  -31105   -31099   -31095   -31102   -31113   -31118   -31123   -31129 
  -31133   -31133   -31128   -31120   -31118   -31113   -31091   -31078 
  -31088   -31095   -31092   -31100   -31117   -31130   -31129   -31121 
  -31115   -31111   -31109   -31118   -31126   -31111   -31087   -31082 
  -31094   -31112   -31127   -31136   -31138   -31129   -31121   -31129 
  -31136   -31131   -31120   -31107   -31094   -31088   -31100   -31119 
  -31124   -31121   -31122   -31117   -31109   -31117   -31133   -31133 
  -31124   -31129   -31140   -31139   -31131   -31131   -31140   -31142 
  -31125   -31105   -31092   -31086   -31090   -31102   -31118   -31133 
  -31128   -31110   -31093   -31083   -31082   -31081   -31075   -31076 
  -31094   -31121   -31140   -31151   -31165   -31156   -31128   -31113 
  -31104   -31097   -31105   -31109   -31105   -31107   -31113   -31129 
  -31144   -31139   -31123   -31113   -31113   -31114   -31107   -31096 
  -31086   -31078   -31084   -31099   -31120   -31144   -31160   -31168 
  -31169   -31156   -31130   -31103   -31093   -31098   -31097   -31101 
  -31117   -31122   -31123   -31130   -31118   -31087   -31074   -31089 
  -31119   -31141   -31141   -31133   -31124   -31107   -31101   -31111 
  -31120   -31117   -31102   -31094   -31099   -31101   -31106   -31125 
  -31141   -31131   -31115   -31117   -31127   -31139   -31151   -31132 
  -31089   -31072   -31082   -31097   -31112   -31120   -31121   -31127 
  -31126   -31113   -31099   -31093   -31105   -31120   -31114   -31113 
  -31113   -31097   -31088   -31096   -31108   -31119   -31127   -31141 
  -31156   -31158   -31142   -31126   -31111   -31084   -31070   -31089 
  -31120   -31132   -31138   -31149   -31139   -31112   -31099   -31100 
  -31096   -31086   -31084   -31095   -31115   -31148   -31176   -31169 
  -31132   -31109   -31113   -31121   -31121   -31114   -31095   -31074 
  -31066   -31075   -31103   -31141   -31154   -31139   -31129   -31135 
  -31134   -31116   -31109   -31115   -31107   -31082   -31073   -31082 
  -31092   -31113   -31140   -31152   -31148   -31137   -31129   -31121 
  -31097   -31087   -31101   -31093   -31068   -31072   -31102   -31123 
  -31131   -31134   -31140   -31148   -31145   -31134   -31124   -31120 
  -31121   -31122   -31116   -31115   -31126   -31142   -31139   -31112 
  -31090   -31093   -31097   -31092   -31095   -31103   -31103   -31103 
  -31115   -31133   -31139   -31146   -31177   -31197   -31169   -31119 
  -31079   -31052   -31046   -31071   -31114   -31144   -31148   -31143 
  -31134   -31121   -31105   -31093   -31081   -31067   -31068   -31084 
  -31095   -31104   -31122   -31137   -31132   -31111   -31090   -31084 
  -31089   -31092   -31094   -31109   -31121   -31101   -31075   -31082 
  -31106   -31130   -31166   -31196   -31205   -31201   -31178   -31137 
  -31098   -31076   -31067   -31070   -31083   -31103   -31126   -31138 
  -31128   -31101   -31077   -31060   -31056   -31082   -31117   -31136 
  -31146   -31158   -31166   -31161   -31144   -31124   -31096   -31072 
  -31079   -31105   -31128   -31155   -31178   -31178   -31155   -31120 
  -31097   -31100   -31111   -31109   -31114   -31134   -31151   -31147 
  -31122   -31088   -31065   -31065   -31085   -31117   -31152   -31181 
  -31182   -31148   -31103   -31063   -31046   -31074   -31122   -31149 
  -31142   -31116   -31096   -31093   -31099   -31105   -31113   -31111 
  -31092   -31081   -31092   -31102   -31101   -31099   -31093   -31063 
  -31026   -31035   -31084   -31125   -31146   -31166   -31193   -31204 
  -31180   -31138   -31108   -31093   -31094   -31104   -31101   -31084 
  -31062   -31050   -31063   -31085   -31092   -31102   -31125   -31129 
  -31124   -31143   -31151   -31119   -31086   -31074   -31066   -31057 
  -31053   -31054   -31067   -31097   -31135   -31155   -31150   -31149 
  -31159   -31156   -31131   -31097   -31078   -31088   -31097   -31095 
  -31103   -31114   -31119   -31134   -31151   -31149   -31135   -31126 
  -31128   -31138   -31144   -31151   -31159   -31154   -31143   -31143 
  -31139   -31121   -31090   -31072   -31087   -31117   -31137   -31149 
  -31153   -31144   -31126   -31120   -31131   -31133   -31134   -31147 
  -31153   -31154   -31166   -31160   -31132   -31110   -31091   -31086 
  -31104   -31120   -31118   -31103   -31093   -31107   -31124   -31128 
  -31137   -31136   -31122   -31131   -31153   -31163   -31172   -31189 
  -31214   -31234   -31235   -31218   -31169   -31091   -31039   -31040 
  -31058   -31073   -31085   -31096   -31121   -31152   -31164   -31162 
  -31155   -31139   -31117   -31101   -31082   -31042   -30995   -30968 
  -30969   -30988   -31000   -31004   -31022   -31047   -31068   -31106 
  -31169   -31240   -31301   -31336   -31327   -31285   -31243   -31212 
  -31171   -31124   -31084   -31063   -31057   -31035   -30982   -30933 
  -30927   -30961   -31002   -31044   -31096   -31137   -31166   -31200 
  -31215   -31200   -31179   -31157   -31123   -31081   -31047   -31032 
  -31024   -31013   -31022   -31063   -31107   -31143   -31188   -31229 
  -31230   -31196   -31162   -31149   -31158   -31177   -31195   -31198 
  -31176   -31137   -31087   -31036   -31002   -31000   -31010   -31026 
  -31054   -31066   -31054   -31045   -31052   -31067   -31077   -31091 
  -31125   -31172   -31224   -31269   -31271   -31228   -31176   -31149 
  -31144   -31139   -31143   -31159   -31159   -31142   -31132   -31109 
  -31061   -31030   -31019   -30994   -30951   -30910   -30900   -30935 
  -30994   -31063   -31125   -31149   -31147   -31166   -31190   -31189 
  -31195   -31235   -31290   -31340   -31377   -31378   -31337   -31273 
  -31204   -31134   -31077   -31040   -31011   -30975   -30925   -30870 
  -30838   -30862   -30941   -31037   -31122   -31192   -31241   -31256 
  -31232   -31181   -31151   -31172   -31205   -31201   -31144   -31049 
  -30951   -30900   -30927   -31008   -31079   -31106   -31104   -31113 
  -31152   -31181   -31179   -31177   -31187   -31179   -31150   -31140 
  -31163   -31183   -31179   -31166   -31150   -31123   -31103   -31099 
  -31097   -31090   -31113   -31172   -31213   -31212   -31193   -31152 
  -31091   -31037   -30996   -30958   -30931   -30940   -30987   -31034 
  -31068   -31112   -31170   -31230   -31277   -31297   -31282   -31253 
  -31227   -31207   -31197   -31177   -31141   -31109   -31070   -31021 
  -30979   -30940   -30912   -30926   -30977   -31044   -31122   -31186 
  -31190   -31152   -31129   -31144   -31150   -31115   -31092   -31123 
  -31169   -31208   -31249   -31260   -31223   -31190   -31179   -31158 
  -31127   -31105   -31087   -31073   -31070   -31084   -31121   -31171 
  -31210   -31217   -31192   -31151   -31101   -31052   -31019   -30998 
  -30976   -30973   -30997   -31023   -31062   -31114   -31144   -31146 
  -31153   -31182   -31197   -31171   -31154   -31181   -31209   -31206 
  -31187   -31162   -31134   -31117   -31132   -31161   -31140   -31066 
  -30993   -30951   -30939   -30953   -30977   -30985   -30979   -31007 
  -31081   -31147   -31177   -31182   -31158   -31112   -31080   -31096 
  -31145   -31176   -31164   -31139   -31125   -31117   -31095   -31044 
  -30990   -30969   -30988   -31036   -31094   -31136   -31143   -31125 
  -31121   -31151   -31184   -31197   -31204   -31207   -31196   -31171 
  -31139   -31105   -31082   -31082   -31107   -31144   -31185   -31211 
  -31200   -31172   -31151   -31121   -31079   -31053   -31070   -31124 
  -31178   -31191   -31167   -31135   -31104   -31082   -31088   -31124 
  -31167   -31190   -31186   -31163   -31133   -31108   -31099   -31101 
  -31095   -31068   -31042   -31049   -31081   -31108   -31109   -31079 
  -31052   -31057   -31085   -31116   -31138   -31147   -31144   -31121 
  -31102   -31119   -31154   -31185   -31219   -31234   -31202   -31154 
  -31134   -31127   -31108   -31081   -31065   -31065   -31065   -31063 
  -31085   -31122   -31142   -31147   -31138   -31102   -31040   -30980 
  -30946   -30944   -30974   -31035   -31112   -31176   -31198   -31182 
  -31163   -31141   -31097   -31051   -31029   -31037   -31088   -31177 
  -31251   -31268   -31246   -31214   -31178   -31144   -31112   -31070 
  -31026   -31020   -31065   -31118   -31142   -31144   -31123   -31077 
  -31027   -31007   -31031   -31064   -31067   -31053   -31073   -31132 
  -31193   -31225   -31227   -31209   -31177   -31159   -31169   -31176 
  -31155   -31105   -31042   -30995   -30986   -31010   -31062   -31114 
  -31135   -31134   -31128   -31115   -31089   -31075   -31104   -31158 
  -31206   -31246   -31264   -31247   -31209   -31171   -31154   -31153 
  -31130   -31095   -31084   -31069   -31033   -31006   -30996   -30989 
  -30984   -30991   -31025   -31091   -31160   -31200   -31202   -31172 
  -31126   -31092   -31093   -31119   -31149   -31169   -31187   -31225 
  -31280   -31315   -31308   -31271   -31223   -31164   -31103   -31058 
  -31023   -30979   -30933   -30920   -30954   -31007   -31055   -31093 
  -31113   -31108   -31098   -31102   -31119   -31139   -31163   -31172 
  -31148   -31121   -31128   -31158   -31170   -31152   -31132   -31120 
  -31095   -31074   -31077   -31086   -31095   -31098   -31095   -31093 
  -31082   -31069   -31062   -31064   -31084   -31110   -31124   -31129 
  -31126   -31120   -31126   -31133   -31136   -31151   -31182   -31205 
  -31208   -31197   -31162   -31086   -30990   -30920   -30909   -30956 
  -31036   -31112   -31165   -31199   -31220   -31214   -31168   -31093 
  -31029   -31002   -31016   -31070   -31142   -31191   -31210   -31210 
  -31193   -31176   -31178   -31209   -31255   -31270   -31236   -31178 
  -31127   -31099   -31091   -31091   -31092   -31101   -31114   -31114 
  -31102   -31094   -31083   -31050   -31005   -30984   -31000   -31030 
  -31062   -31093   -31125   -31155   -31173   -31176   -31158   -31123 
  -31109   -31134   -31172   -31193   -31191   -31174   -31150   -31132 
  -31131   -31138   -31129   -31100   -31062   -31035   -31032   -31048 
  -31076   -31099   -31101   -31092   -31090   -31084   -31072   -31065 
  -31070   -31082   -31095   -31107   -31116   -31124   -31151   -31199 
  -31241   -31254   -31247   -31230   -31201   -31159   -31106   -31048 
  -31000   -30979   -30987   -31016   -31063   -31116   -31149   -31149 
  -31130   -31107   -31095   -31103   -31121   -31141   -31158   -31166 
  -31181   -31203   -31203   -31193   -31205   -31229   -31240   -31218 
  -31159   -31089   -31039   -31014   -30998   -30979   -30964   -30962 
  -30974   -31000   -31048   -31113   -31180   -31240   -31274   -31273 
  -31242   -31196   -31150   -31117   -31113   -31126   -31128   -31127 
  -31134   -31124   -31099   -31096   -31105   -31093   -31074   -31070 
  -31078   -31079   -31071   -31072   -31080   -31085   -31098   -31121 
  -31135   -31131   -31130   -31130   -31119   -31104   -31100   -31111 
  -31131   -31144   -31148   -31139   -31101   -31046   -31016   -31016 
  -31019   -31017   -31020   -31038   -31069   -31097   -31114   -31117 
  -31110   -31111   -31128   -31150   -31158   -31157   -31168   -31185 
  -31195   -31199   -31202   -31200   -31183   -31157   -31127   -31097 
  -31086   -31106   -31141   -31173   -31185   -31168   -31143   -31133 
  -31128   -31117   -31102   -31085   -31069   -31063   -31055   -31044 
  -31044   -31054   -31065   -31078   -31102   -31121   -31117   -31104 
  -31103   -31109   -31117   -31117   -31099   -31086   -31086   -31083 
  -31087   -31125   -31178   -31212   -31211   -31190   -31170   -31159 
  -31150   -31139   -31126   -31097   -31055   -31029   -31023   -31033 
