Origin Time       2025/03/28 03:50:00
Lat.              35.403
Long.             140.360
Depth. (km)       54
Mag.              4.4
Station Code      SZOH54
Station Lat.      35.0417
Station Long.     139.1685
Station Height(m) -90
Record Time       2025/03/28 03:51:11
Sampling Freq(Hz) 100Hz
Duration Time(s)  120
Dir.              2
Scale Factor      2940(gal)/6170270
Max. Acc. (gal)   0.090
Last Correction   2025/03/28 03:50:56
Memo.             
[...]
  -19216   -19222   -19229   -19238   -19253   -19275   -19287   -19274 
  -19274   -19294   -19312   -19321   -19304   -19257   -19232   -19242 
  -19252   -19248   -19251   -19261   -19248   -19227   -19232   -19250 
  -19264   -19267   -19260   -19263   -19267   -19261   -19268   -19291 
  -19308   -19298   -19264   -19235   -19227   -19229   -19236   -19243 
  -19254   -19289   -19315   -19300   -19282   -19282   -19265   -19242 
  -19259   -19286   -19276   -19259   -19264   -19269   -19250   -19218 
  -19211   -19234   -19238   -19232   -19259   -19288   -19294   -19293 
  -19273   -19251   -19260   -19274   -19265   -19251   -19233   -19212 
  -19229   -19279   -19300   -19291   -19285   -19284   -19285   -19292 
  -19292   -19281   -19269   -19257   -19241   -19238   -19247   -19251 
  -19262   -19277   -19277   -19276   -19278   -19266   -19242   -19227 
  -19230   -19242   -19265   -19288   -19287   -19274   -19263   -19252 
  -19245   -19236   -19229   -19237   -19246   -19248   -19247   -19248 
  -19255   -19272   -19289   -19293   -19285   -19281   -19276   -19261 
  -19251   -19259   -19273   -19277   -19277   -19281   -19273   -19253 
  -19244   -19248   -19246   -19241   -19244   -19267   -19289   -19284 
  -19269   -19270   -19272   -19265   -19251   -19245   -19258   -19273 
  -19281   -19291   -19291   -19273   -19264   -19271   -19265   -19230 
  -19203   -19220   -19252   -19252   -19249   -19266   -19270   -19264 
  -19273   -19276   -19260   -19235   -19225   -19247   -19278   -19284 
  -19282   -19283   -19273   -19265   -19275   -19281   -19268   -19254 
  -19253   -19263   -19270   -19269   -19272   -19275   -19274   -19267 
  -19255   -19253   -19261   -19260   -19265   -19280   -19282   -19282 
  -19292   -19283   -19249   -19212   -19195   -19205   -19223   -19238 
  -19250   -19254   -19267   -19289   -19299   -19308   -19317   -19304 
  -19279   -19264   -19250   -19242   -19249   -19256   -19255   -19250 
  -19246   -19251   -19266   -19282   -19289   -19279   -19263   -19247 
  -19231   -19233   -19246   -19259   -19276   -19282   -19275   -19282 
  -19298   -19307   -19305   -19298   -19281   -19251   -19222   -19209 
  -19212   -19221   -19226   -19237   -19261   -19274   -19267   -19259 
  -19268   -19286   -19294   -19295   -19297   -19285   -19265   -19253 
  -19245   -19236   -19234   -19240   -19250   -19265   -19274   -19267 
  -19267   -19285   -19292   -19288   -19288   -19283   -19270   -19255 
  -19242   -19232   -19223   -19224   -19245   -19270   -19285   -19283 
  -19268   -19256   -19252   -19254   -19259   -19258   -19265   -19273 
  -19267   -19261   -19268   -19278   -19282   -19280   -19280   -19277 
  -19266   -19256   -19253   -19247   -19233   -19216   -19210   -19225 
  -19243   -19257   -19281   -19303   -19300   -19291   -19290   -19281 
  -19273   -19276   -19271   -19253   -19240   -19251   -19275   -19280 
  -19267   -19261   -19258   -19247   -19241   -19250   -19256   -19254 
  -19248   -19238   -19234   -19241   -19252   -19269   -19282   -19273 
  -19260   -19259   -19260   -19249   -19236   -19243   -19268   -19284 
  -19283   -19275   -19263   -19257   -19261   -19270   -19284   -19298 
  -19299   -19282   -19260   -19245   -19243   -19259   -19273   -19269 
  -19265   -19271   -19281   -19294   -19294   -19278   -19262   -19263 
  -19275   -19276   -19256   -19233   -19218   -19212   -19220   -19242 
  -19264   -19273   -19268   -19260   -19253   -19245   -19249   -19268 
  -19276   -19272   -19270   -19271   -19264   -19252   -19246   -19256 
  -19271   -19274   -19272   -19272   -19272   -19272   -19268   -19258 
  -19262   -19284   -19297   -19295   -19287   -19274   -19264   -19263 
  -19270   -19273   -19261   -19238   -19218   -19212   -19217   -19232 
  -19257   -19282   -19298   -19299   -19286   -19267   -19247   -19236 
  -19243   -19254   -19250   -19244   -19250   -19264   -19273   -19278 
  -19281   -19281   -19277   -19266   -19257   -19257   -19255   -19253 
  -19261   -19267   -19262   -19260   -19271   -19280   -19280   -19287 
  -19294   -19277   -19258   -19258   -19256   -19259   -19275   -19273 
  -19255   -19250   -19254   -19268   -19282   -19278   -19266   -19261 
  -19255   -19246   -19233   -19223   -19229   -19244   -19252   -19261 
  -19274   -19285   -19287   -19283   -19283   -19284   -19275   -19263 
  -19254   -19244   -19239   -19250   -19269   -19288   -19298   -19293 
  -19283   -19278   -19273   -19263   -19258   -19266   -19267   -19249 
  -19237   -19234   -19228   -19228   -19236   -19251   -19268   -19275 
  -19273   -19270   -19269   -19269   -19266   -19267   -19279   -19281 
  -19264   -19246   -19239   -19237   -19247   -19262   -19274   -19283 
  -19278   -19258   -19241   -19235   -19240   -19254   -19258   -19256 
  -19266   -19278   -19272   -19261   -19265   -19279   -19278   -19262 
  -19258   -19269   -19268   -19253   -19252   -19255   -19246   -19246 
  -19259   -19262   -19258   -19266   -19279   -19281   -19271   -19264 
  -19266   -19269   -19265   -19255   -19257   -19273   -19275   -19255 
  -19244   -19250   -19261   -19273   -19282   -19277   -19271   -19275 
  -19278   -19268   -19257   -19253   -19243   -19233   -19233   -19242 
  -19264   -19284   -19292   -19294   -19281   -19264   -19258   -19243 
  -19231   -19243   -19256   -19263   -19274   -19280   -19273   -19261 
  -19250   -19240   -19237   -19238   -19242   -19255   -19274   -19287 
  -19287   -19280   -19269   -19258   -19255   -19260   -19270   -19277 
  -19275   -19264   -19255   -19246   -19240   -19245   -19255   -19263 
  -19269   -19274   -19278   -19279   -19278   -19279   -19280   -19276 
  -19268   -19262   -19261   -19258   -19248   -19235   -19237   -19252 
  -19256   -19256   -19267   -19271   -19260   -19256   -19265   -19268 
  -19259   -19254   -19259   -19254   -19247   -19251   -19252   -19248 
  -19251   -19255   -19257   -19259   -19261   -19268   -19284   -19299 
  -19305   -19302   -19297   -19292   -19291   -19279   -19251   -19236 
  -19243   -19250   -19252   -19251   -19251   -19260   -19270   -19275 
  -19277   -19276   -19269   -19264   -19261   -19253   -19241   -19236 
  -19247   -19260   -19269   -19271   -19266   -19262   -19262   -19259 
  -19252   -19250   -19259   -19268   -19265   -19272   -19292   -19297 
  -19286   -19278   -19269   -19258   -19247   -19235   -19235   -19249 
  -19264   -19270   -19267   -19259   -19248   -19243   -19247   -19254 
  -19259   -19260   -19251   -19239   -19229   -19221   -19224   -19247 
  -19286   -19320   -19333   -19327   -19316   -19308   -19294   -19267 
  -19242   -19233   -19230   -19228   -19238   -19262   -19289   -19301 
  -19289   -19269   -19253   -19235   -19214   -19211   -19231   -19250 
  -19264   -19273   -19267   -19254   -19246   -19247   -19262   -19279 
  -19285   -19281   -19268   -19249   -19243   -19258   -19276   -19291 
  -19298   -19295   -19291   -19275   -19243   -19227   -19233   -19236 
  -19241   -19262   -19284   -19289   -19279   -19266   -19266   -19273 
  -19269   -19260   -19259   -19265   -19257   -19243   -19243   -19242 
  -19242   -19251   -19246   -19228   -19224   -19239   -19271   -19302 
  -19310   -19306   -19287   -19260   -19254   -19264   -19271   -19272 
  -19267   -19251   -19234   -19223   -19230   -19258   -19285   -19295 
  -19296   -19288   -19264   -19242   -19236   -19239   -19251   -19275 
  -19294   -19300   -19293   -19269   -19242   -19227   -19219   -19226 
  -19249   -19274   -19286   -19275   -19263   -19265   -19259   -19245 
  -19246   -19264   -19279   -19282   -19284   -19286   -19273   -19254 
  -19256   -19261   -19254   -19256   -19252   -19231   -19219   -19228 
  -19259   -19288   -19293   -19294   -19284   -19243   -19215   -19230 
  -19259   -19278   -19285   -19291   -19288   -19259   -19238   -19247 
  -19258   -19258   -19265   -19272   -19264   -19253   -19262   -19283 
  -19295   -19300   -19296   -19279   -19259   -19249   -19249   -19256 
  -19267   -19277   -19290   -19291   -19271   -19252   -19248   -19250 
  -19248   -19244   -19240   -19241   -19242   -19245   -19259   -19272 
  -19269   -19262   -19263   -19267   -19274   -19280   -19281   -19280 
  -19275   -19266   -19266   -19278   -19297   -19311   -19298   -19262 
  -19225   -19198   -19194   -19218   -19249   -19264   -19264   -19262 
  -19267   -19278   -19287   -19300   -19312   -19304   -19289   -19267 
  -19236   -19226   -19231   -19224   -19219   -19227   -19248   -19271 
  -19282   -19282   -19283   -19286   -19282   -19285   -19297   -19290 
  -19257   -19226   -19214   -19217   -19224   -19230   -19231   -19226 
  -19232   -19240   -19236   -19240   -19263   -19283   -19285   -19271 
  -19259   -19264   -19276   -19279   -19279   -19278   -19273   -19262 
  -19247   -19242   -19245   -19243   -19247   -19266   -19283   -19294 
  -19300   -19294   -19282   -19265   -19259   -19273   -19270   -19244 
  -19244   -19268   -19270   -19262   -19269   -19268   -19245   -19222 
  -19214   -19210   -19212   -19236   -19273   -19301   -19305   -19301 
  -19306   -19314   -19308   -19295   -19294   -19308   -19311   -19291 
  -19265   -19249   -19236   -19238   -19267   -19285   -19282   -19283 
  -19279   -19273   -19286   -19301   -19300   -19293   -19291   -19290 
  -19278   -19262   -19261   -19266   -19260   -19259   -19262   -19259 
  -19266   -19275   -19264   -19245   -19228   -19214   -19223   -19243 
  -19242   -19233   -19229   -19224   -19230   -19246   -19264   -19279 
  -19274   -19261   -19269   -19280   -19276   -19270   -19273   -19280 
  -19283   -19287   -19292   -19288   -19268   -19240   -19222   -19220 
  -19220   -19211   -19186   -19154   -19147   -19179   -19218   -19237 
  -19244   -19243   -19243   -19257   -19260   -19239   -19228   -19239 
  -19252   -19258   -19252   -19250   -19266   -19274   -19272   -19268 
  -19252   -19241   -19254   -19265   -19257   -19257   -19274   -19289 
  -19289   -19292   -19305   -19308   -19296   -19268   -19225   -19193 
  -19174   -19157   -19161   -19189   -19232   -19281   -19308   -19310 
  -19312   -19331   -19376   -19428   -19441   -19426   -19407   -19375 
  -19332   -19284   -19230   -19190   -19167   -19155   -19168   -19206 
  -19248   -19277   -19288   -19300   -19318   -19326   -19325   -19320 
  -19305   -19297   -19307   -19309   -19290   -19271   -19256   -19249 
  -19248   -19246   -19247   -19247   -19242   -19248   -19258   -19255 
  -19246   -19235   -19215   -19202   -19224   -19263   -19272   -19241 
  -19202   -19205   -19237   -19251   -19270   -19304   -19310   -19296 
  -19302   -19318   -19325   -19318   -19302   -19285   -19261   -19221 
  -19177   -19138   -19116   -19124   -19153   -19200   -19262   -19308 
  -19320   -19321   -19326   -19330   -19335   -19344   -19345   -19319 
  -19270   -19209   -19149   -19120   -19137   -19179   -19224   -19250 
  -19244   -19226   -19209   -19195   -19197   -19226   -19274   -19325 
  -19358   -19362   -19345   -19316   -19296   -19291   -19260   -19205 
  -19170   -19150   -19138   -19162   -19198   -19206   -19201   -19207 
  -19237   -19304   -19381   -19424   -19427   -19416   -19416   -19413 
  -19394   -19374   -19336   -19267   -19201   -19158   -19144   -19177 
  -19236   -19273   -19282   -19292   -19312   -19327   -19334   -19345 
  -19366   -19388   -19391   -19355   -19282   -19202   -19151   -19135 
  -19138   -19159   -19213   -19279   -19318   -19331   -19328   -19293 
  -19221   -19160   -19146   -19160   -19177   -19194   -19200   -19207 
  -19234   -19267   -19281   -19271   -19265   -19287   -19314   -19324 
  -19330   -19338   -19348   -19372   -19393   -19379   -19327   -19260 
  -19207   -19177   -19173   -19199   -19217   -19186   -19137   -19112 
  -19110   -19129   -19161   -19178   -19191   -19224   -19266   -19290 
  -19283   -19246   -19204   -19182   -19187   -19210   -19241   -19258 
  -19253   -19248   -19261   -19285   -19317   -19352   -19369   -19354 
  -19327   -19321   -19332   -19342   -19356   -19377   -19382   -19371 
  -19341   -19282   -19209   -19156   -19133   -19138   -19179   -19240 
  -19282   -19298   -19296   -19284   -19267   -19244   -19234   -19238 
  -19245   -19265   -19294   -19312   -19322   -19319   -19301   -19300 
  -19319   -19321   -19310   -19308   -19297   -19270   -19240   -19218 
  -19207   -19195   -19195   -19241   -19311   -19361   -19372   -19349 
  -19314   -19277   -19251   -19259   -19271   -19265   -19256   -19248 
  -19240   -19229   -19214   -19218   -19246   -19281   -19305   -19303 
  -19280   -19260   -19242   -19223   -19214   -19210   -19199   -19186 
  -19188   -19208   -19243   -19290   -19321   -19310   -19285   -19271 
  -19262   -19262   -19266   -19258   -19249   -19251   -19259   -19261 
  -19254   -19249   -19253   -19267   -19283   -19287   -19271   -19240 
  -19205   -19183   -19189   -19210   -19232   -19272   -19304   -19292 
  -19275   -19285   -19291   -19295   -19317   -19343   -19358   -19356 
  -19338   -19316   -19294   -19261   -19223   -19196   -19181   -19181 
  -19210   -19264   -19299   -19281   -19238   -19215   -19219   -19232 
  -19254   -19284   -19286   -19267   -19267   -19287   -19310   -19338 
  -19358   -19353   -19308   -19232   -19172   -19156   -19165   -19197 
  -19246   -19283   -19313   -19346   -19366   -19375   -19384   -19378 
  -19346   -19309   -19292   -19291   -19274   -19230   -19197   -19201 
  -19219   -19216   -19195   -19168   -19148   -19145   -19175   -19250 
  -19330   -19367   -19351   -19294   -19211   -19123   -19074   -19094 
  -19156   -19219   -19279   -19330   -19362   -19373   -19363   -19345 
  -19347   -19359   -19348   -19312   -19269   -19234   -19207   -19188 
  -19177   -19170   -19169   -19188   -19232   -19288   -19336   -19368 
  -19383   -19363   -19310   -19253   -19219   -19209   -19215   -19219 
  -19211   -19199   -19180   -19162   -19162   -19179   -19211   -19263 
  -19323   -19368   -19375   -19349   -19315   -19281   -19248   -19235 
  -19242   -19260   -19284   -19289   -19266   -19233   -19200   -19180 
  -19183   -19199   -19216   -19224   -19237   -19274   -19324   -19348 
  -19345   -19330   -19299   -19251   -19214   -19209   -19240   -19284 
  -19317   -19351   -19404   -19442   -19437   -19405   -19346   -19256 
  -19190   -19185   -19200   -19204   -19203   -19196   -19193   -19189 
  -19180   -19179   -19187   -19193   -19200   -19223   -19266   -19301 
  -19326   -19355   -19372   -19363   -19346   -19331   -19308   -19269 
  -19220   -19168   -19122   -19106   -19148   -19219   -19269   -19295 
  -19311   -19303   -19271   -19244   -19238   -19238   -19240   -19262 
  -19305   -19344   -19362   -19353   -19324   -19303   -19293   -19280 
  -19261   -19237   -19206   -19177   -19163   -19167   -19169   -19165 
  -19178   -19220   -19284   -19355   -19407   -19431   -19436   -19418 
  -19385   -19345   -19284   -19220   -19183   -19156   -19131   -19127 
  -19145   -19168   -19192   -19225   -19256   -19278   -19288   -19260 
  -19203   -19154   -19135   -19158   -19210   -19264   -19317   -19358 
  -19381   -19388   -19376   -19352   -19330   -19316   -19306   -19299 
  -19300   -19303   -19302   -19306   -19315   -19318   -19317   -19318 
  -19307   -19268   -19208   -19159   -19129   -19117   -19130   -19170 
  -19221   -19263   -19296   -19319   -19328   -19327   -19325   -19329 
  -19323   -19291   -19252   -19235   -19238   -19241   -19241   -19242 
  -19247   -19250   -19242   -19224   -19206   -19193   -19195   -19213 
  -19237   -19263   -19288   -19314   -19335   -19345   -19339   -19303 
  -19243   -19191   -19167   -19167   -19182   -19204   -19235   -19274 
  -19316   -19353   -19372   -19382   -19396   -19379   -19321   -19255 
  -19201   -19167   -19163   -19186   -19207   -19207   -19197   -19200 
  -19233   -19282   -19318   -19334   -19326   -19297   -19281   -19300 
  -19324   -19340   -19351   -19348   -19325   -19284   -19236   -19202 
  -19186   -19177   -19174   -19179   -19191   -19200   -19192   -19180 
  -19189   -19219   -19263   -19313   -19343   -19343   -19326   -19308 
  -19305   -19313   -19319   -19315   -19292   -19272   -19276   -19289 
  -19298   -19308   -19312   -19297   -19269   -19241   -19220   -19206 
  -19196   -19197   -19217   -19241   -19255   -19264   -19266   -19262 
  -19259   -19247   -19227   -19225   -19238   -19248   -19248   -19238 
  -19226   -19229   -19245   -19263   -19275   -19281   -19286   -19284 
  -19277   -19271   -19266   -19255   -19240   -19230   -19222   -19205 
  -19199   -19216   -19238   -19256   -19272   -19275   -19270   -19267 
  -19262   -19257   -19270   -19303   -19337   -19354   -19363   -19362 
  -19345   -19320   -19306   -19300   -19286   -19269   -19260   -19248 
  -19217   -19184   -19172   -19177   -19191   -19208   -19216   -19222 
  -19236   -19249   -19270   -19304   -19319   -19309   -19299   -19291 
  -19273   -19248   -19222   -19200   -19189   -19193   -19221   -19267 
  -19315   -19347   -19344   -19312   -19291   -19307   -19346   -19376 
  -19376   -19357   -19333   -19308   -19284   -19262   -19229   -19185 
  -19150   -19135   -19150   -19200   -19252   -19280   -19301   -19321 
  -19320   -19300   -19263   -19218   -19187   -19176   -19174   -19171 
  -19168   -19177   -19197   -19215   -19234   -19262   -19279   -19281 
  -19290   -19306   -19312   -19307   -19288   -19261   -19244   -19247 
  -19271   -19306   -19321   -19312   -19300   -19292   -19293   -19298 
  -19300   -19303   -19310   -19309   -19297   -19284   -19274   -19261 
  -19247   -19231   -19216   -19218   -19240   -19267   -19301   -19330 
  -19332   -19312   -19281   -19253   -19228   -19208   -19203   -19200 
  -19194   -19199   -19216   -19240   -19268   -19280   -19273   -19270 
  -19279   -19287   -19293   -19298   -19295   -19276   -19253   -19242 
  -19243   -19247   -19255   -19271   -19276   -19263   -19245   -19235 
  -19238   -19255   -19288   -19316   -19322   -19312   -19299   -19282 
  -19261   -19238   -19219   -19207   -19203   -19206   -19218   -19240 
  -19255   -19257   -19261   -19273   -19284   -19295   -19304   -19300 
  -19292   -19289   -19288   -19278   -19258   -19240   -19226   -19214 
  -19215   -19230   -19253   -19270   -19261   -19240   -19230   -19223 
  -19205   -19187   -19180   -19180   -19186   -19209   -19245   -19279 
  -19301   -19318   -19337   -19357   -19375   -19374   -19355   -19340 
  -19329   -19306   -19281   -19265   -19250   -19224   -19201   -19195 
  -19200   -19203   -19204   -19208   -19214   -19223   -19251   -19292 
  -19316   -19320   -19328   -19332   -19319   -19303   -19297   -19297 
  -19301   -19306   -19303   -19291   -19285   -19288   -19285   -19278 
  -19275   -19271   -19273   -19285   -19290   -19290   -19289   -19279 
  -19269   -19262   -19257   -19256   -19249   -19225   -19202   -19187 
  -19175   -19174   -19185   -19196   -19208   -19229   -19242   -19245 
  -19249   -19252   -19253   -19252   -19245   -19239   -19234   -19232 
  -19235   -19237   -19241   -19260   -19281   -19300   -19317   -19316 
  -19310   -19314   -19313   -19297   -19270   -19245   -19226   -19216 
  -19225   -19248   -19275   -19304   -19329   -19342   -19331   -19296 
  -19263   -19244   -19236   -19238   -19248   -19253   -19259   -19264 
  -19258   -19247   -19243   -19248   -19259   -19278   -19302   -19319 
