Origin Time       2025/03/28 03:50:00
Lat.              35.403
Long.             140.360
Depth. (km)       54
Mag.              4.4
Station Code      SZOH54
Station Lat.      35.0417
Station Long.     139.1685
Station Height(m) -90
Record Time       2025/03/28 03:51:11
Sampling Freq(Hz) 100Hz
Duration Time(s)  120
Dir.              3
Scale Factor      2940(gal)/6170270
Max. Acc. (gal)   0.076
Last Correction   2025/03/28 03:50:56
Memo.             
[...]
  -27455   -27482   -27547   -27521   -27422   -27394   -27460   -27536 
  -27551   -27502   -27432   -27390   -27401   -27454   -27503   -27525 
  -27542   -27553   -27529   -27461   -27393   -27385   -27418   -27441 
  -27470   -27488   -27463   -27423   -27418   -27457   -27475   -27441 
  -27432   -27477   -27531   -27557   -27506   -27427   -27441   -27527 
  -27578   -27558   -27502   -27480   -27505   -27514   -27492   -27477 
  -27480   -27485   -27501   -27523   -27529   -27552   -27615   -27629 
  -27552   -27468   -27415   -27384   -27392   -27441   -27505   -27517 
  -27453   -27423   -27463   -27470   -27441   -27457   -27510   -27528 
  -27472   -27402   -27408   -27475   -27501   -27443   -27402   -27447 
  -27510   -27535   -27524   -27482   -27444   -27457   -27506   -27511 
  -27463   -27439   -27474   -27530   -27560   -27541   -27509   -27514 
  -27544   -27541   -27506   -27478   -27454   -27449   -27482   -27505 
  -27504   -27504   -27511   -27520   -27514   -27489   -27471   -27456 
  -27427   -27419   -27447   -27454   -27417   -27389   -27411   -27454 
  -27472   -27466   -27469   -27490   -27499   -27480   -27466   -27488 
  -27503   -27489   -27504   -27538   -27522   -27490   -27493   -27514 
  -27552   -27585   -27556   -27478   -27433   -27457   -27498   -27502 
  -27488   -27480   -27480   -27495   -27519   -27508   -27447   -27405 
  -27425   -27450   -27452   -27459   -27465   -27471   -27482   -27478 
  -27470   -27479   -27488   -27489   -27493   -27488   -27473   -27478 
  -27490   -27467   -27447   -27472   -27501   -27497   -27484   -27482 
  -27483   -27492   -27498   -27486   -27478   -27497   -27516   -27517 
  -27505   -27474   -27448   -27476   -27524   -27513   -27475   -27478 
  -27506   -27522   -27527   -27508   -27465   -27453   -27492   -27522 
  -27515   -27486   -27454   -27441   -27441   -27432   -27423   -27429 
  -27446   -27457   -27465   -27466   -27471   -27493   -27503   -27495 
  -27482   -27448   -27435   -27479   -27521   -27517   -27487   -27476 
  -27498   -27509   -27497   -27493   -27499   -27515   -27530   -27519 
  -27490   -27466   -27467   -27483   -27489   -27485   -27480   -27478 
  -27490   -27504   -27498   -27498   -27510   -27494   -27469   -27480 
  -27492   -27473   -27447   -27444   -27468   -27494   -27494   -27475 
  -27472   -27504   -27526   -27497   -27453   -27427   -27422   -27453 
  -27492   -27509   -27506   -27479   -27444   -27422   -27423   -27456 
  -27495   -27518   -27527   -27515   -27498   -27495   -27492   -27473 
  -27457   -27470   -27485   -27481   -27486   -27492   -27481   -27467 
  -27471   -27494   -27496   -27472   -27474   -27501   -27511   -27499 
  -27495   -27510   -27525   -27515   -27481   -27448   -27449   -27469 
  -27475   -27475   -27486   -27497   -27502   -27498   -27491   -27489 
  -27485   -27473   -27457   -27449   -27466   -27487   -27491   -27506 
  -27530   -27519   -27475   -27450   -27475   -27516   -27524   -27505 
  -27478   -27456   -27467   -27498   -27500   -27467   -27443   -27449 
  -27468   -27485   -27484   -27465   -27458   -27472   -27482   -27466 
  -27443   -27427   -27430   -27466   -27503   -27504   -27503   -27517 
  -27515   -27500   -27497   -27507   -27523   -27542   -27540   -27509 
  -27481   -27478   -27491   -27502   -27500   -27486   -27480   -27473 
  -27445   -27423   -27447   -27507   -27537   -27514   -27485   -27478 
  -27477   -27473   -27464   -27454   -27453   -27459   -27469   -27467 
  -27435   -27411   -27433   -27472   -27496   -27507   -27503   -27485 
  -27465   -27460   -27481   -27500   -27486   -27473   -27488   -27490 
  -27477   -27479   -27483   -27478   -27484   -27497   -27507   -27502 
  -27470   -27451   -27472   -27487   -27490   -27503   -27511   -27506 
  -27497   -27483   -27476   -27485   -27516   -27547   -27538   -27501 
  -27480   -27482   -27487   -27485   -27480   -27484   -27498   -27499 
  -27480   -27458   -27440   -27433   -27441   -27458   -27482   -27504 
  -27501   -27478   -27456   -27447   -27453   -27468   -27488   -27507 
  -27503   -27483   -27477   -27486   -27498   -27504   -27489   -27468 
  -27465   -27467   -27475   -27491   -27492   -27484   -27488   -27502 
  -27500   -27482   -27466   -27458   -27463   -27488   -27507   -27489 
  -27459   -27461   -27487   -27503   -27491   -27468   -27463   -27477 
  -27495   -27508   -27508   -27501   -27501   -27503   -27496   -27482 
  -27474   -27481   -27497   -27509   -27511   -27496   -27481   -27478 
  -27481   -27490   -27497   -27490   -27481   -27480   -27481   -27479 
  -27465   -27450   -27460   -27489   -27500   -27484   -27466   -27457 
  -27455   -27467   -27475   -27467   -27472   -27499   -27500   -27457 
  -27414   -27415   -27452   -27487   -27493   -27477   -27459   -27459 
  -27474   -27478   -27476   -27496   -27513   -27510   -27507   -27510 
  -27506   -27501   -27507   -27512   -27508   -27509   -27510   -27504 
  -27504   -27522   -27538   -27536   -27528   -27522   -27517   -27510 
  -27495   -27483   -27486   -27496   -27494   -27481   -27473   -27475 
  -27469   -27447   -27438   -27451   -27456   -27441   -27430   -27430 
  -27434   -27441   -27451   -27457   -27447   -27418   -27414   -27449 
  -27477   -27482   -27490   -27497   -27491   -27496   -27501   -27480 
  -27465   -27493   -27533   -27543   -27520   -27500   -27499   -27512 
  -27526   -27517   -27485   -27469   -27483   -27501   -27499   -27470 
  -27442   -27445   -27474   -27481   -27459   -27453   -27458   -27454 
  -27461   -27470   -27470   -27482   -27502   -27512   -27513   -27510 
  -27511   -27510   -27490   -27468   -27469   -27478   -27472   -27469 
  -27477   -27483   -27489   -27494   -27482   -27461   -27457   -27469 
  -27473   -27457   -27439   -27452   -27491   -27510   -27495   -27480 
  -27491   -27511   -27511   -27491   -27477   -27484   -27505   -27520 
  -27514   -27506   -27509   -27514   -27512   -27502   -27487   -27470 
  -27461   -27465   -27470   -27475   -27477   -27473   -27476   -27486 
  -27489   -27481   -27465   -27456   -27460   -27467   -27463   -27450 
  -27440   -27432   -27428   -27442   -27470   -27489   -27496   -27505 
  -27516   -27504   -27475   -27466   -27477   -27491   -27506   -27508 
  -27491   -27469   -27456   -27461   -27481   -27492   -27484   -27474 
  -27465   -27461   -27475   -27490   -27489   -27493   -27510   -27518 
  -27515   -27510   -27500   -27486   -27480   -27488   -27498   -27499 
  -27504   -27519   -27535   -27530   -27498   -27473   -27471   -27471 
  -27456   -27433   -27418   -27430   -27475   -27515   -27508   -27477 
  -27477   -27488   -27467   -27447   -27471   -27515   -27542   -27534 
  -27500   -27473   -27468   -27480   -27491   -27484   -27475   -27483 
  -27485   -27469   -27448   -27443   -27458   -27477   -27485   -27479 
  -27466   -27459   -27450   -27440   -27454   -27488   -27508   -27503 
  -27490   -27488   -27493   -27512   -27539   -27548   -27545   -27548 
  -27532   -27494   -27462   -27460   -27482   -27499   -27489   -27467 
  -27454   -27445   -27453   -27483   -27509   -27520   -27506   -27479 
  -27470   -27464   -27453   -27457   -27458   -27449   -27456   -27473 
  -27480   -27474   -27461   -27456   -27458   -27459   -27465   -27477 
  -27492   -27504   -27501   -27499   -27519   -27526   -27512   -27503 
  -27492   -27471   -27460   -27475   -27509   -27531   -27529   -27504 
  -27472   -27464   -27479   -27497   -27505   -27498   -27491   -27494 
  -27481   -27452   -27430   -27435   -27472   -27503   -27479   -27428 
  -27411   -27427   -27452   -27466   -27464   -27468   -27489   -27501 
  -27484   -27456   -27436   -27441   -27476   -27510   -27528   -27528 
  -27503   -27476   -27466   -27465   -27472   -27475   -27471   -27496 
  -27540   -27542   -27490   -27447   -27441   -27450   -27457   -27468 
  -27474   -27474   -27488   -27514   -27523   -27515   -27517   -27533 
  -27534   -27527   -27537   -27526   -27482   -27472   -27503   -27503 
  -27476   -27480   -27493   -27483   -27472   -27459   -27435   -27428 
  -27443   -27453   -27450   -27431   -27427   -27460   -27489   -27488 
  -27482   -27472   -27456   -27443   -27435   -27444   -27476   -27512 
  -27534   -27548   -27548   -27526   -27506   -27506   -27504   -27491 
  -27489   -27496   -27496   -27501   -27513   -27512   -27482   -27447 
  -27447   -27470   -27472   -27448   -27438   -27458   -27472   -27463 
  -27459   -27473   -27490   -27501   -27498   -27471   -27442   -27435 
  -27457   -27493   -27518   -27530   -27549   -27554   -27526   -27502 
  -27490   -27477   -27495   -27545   -27558   -27510   -27444   -27401 
  -27401   -27446   -27488   -27492   -27486   -27490   -27483   -27468 
  -27463   -27466   -27476   -27500   -27520   -27518   -27509   -27512 
  -27528   -27543   -27523   -27465   -27426   -27425   -27432   -27447 
  -27481   -27504   -27510   -27513   -27507   -27490   -27465   -27436 
  -27430   -27459   -27502   -27530   -27518   -27466   -27427   -27428 
  -27455   -27493   -27525   -27532   -27509   -27483   -27492   -27515 
  -27500   -27462   -27456   -27483   -27492   -27475   -27455   -27441 
  -27455   -27503   -27521   -27469   -27413   -27418   -27456   -27477 
  -27474   -27474   -27501   -27540   -27543   -27494   -27444   -27436 
  -27455   -27488   -27531   -27551   -27532   -27494   -27451   -27419 
  -27427   -27460   -27483   -27500   -27514   -27512   -27487   -27452 
  -27439   -27469   -27515   -27527   -27505   -27476   -27467   -27479 
  -27469   -27431   -27425   -27453   -27479   -27495   -27481   -27451 
  -27465   -27504   -27519   -27506   -27488   -27500   -27527   -27528 
  -27519   -27515   -27499   -27495   -27502   -27477   -27444   -27445 
  -27461   -27488   -27519   -27525   -27518   -27507   -27462   -27399 
  -27375   -27405   -27452   -27484   -27505   -27516   -27499   -27479 
  -27491   -27505   -27482   -27458   -27465   -27480   -27494   -27499 
  -27486   -27488   -27515   -27534   -27532   -27520   -27511   -27506 
  -27509   -27509   -27492   -27477   -27474   -27469   -27477   -27495 
  -27494   -27473   -27446   -27423   -27425   -27440   -27434   -27423 
  -27446   -27506   -27555   -27554   -27523   -27483   -27440   -27446 
  -27511   -27544   -27512   -27474   -27463   -27458   -27444   -27436 
  -27452   -27493   -27543   -27565   -27531   -27469   -27435   -27437 
  -27435   -27415   -27407   -27428   -27463   -27491   -27496   -27498 
  -27535   -27567   -27542   -27487   -27463   -27487   -27516   -27516 
  -27504   -27505   -27508   -27500   -27491   -27480   -27462   -27470 
  -27493   -27477   -27453   -27467   -27486   -27483   -27476   -27480 
  -27491   -27496   -27505   -27527   -27535   -27512   -27469   -27425 
  -27420   -27455   -27483   -27502   -27533   -27554   -27554   -27541 
  -27502   -27456   -27457   -27488   -27483   -27444   -27419   -27429 
  -27440   -27426   -27429   -27460   -27472   -27460   -27458   -27464 
  -27454   -27432   -27424   -27440   -27468   -27489   -27479   -27440 
  -27431   -27484   -27546   -27562   -27543   -27507   -27458   -27436 
  -27461   -27496   -27514   -27524   -27535   -27524   -27484   -27453 
  -27441   -27441   -27466   -27496   -27496   -27478   -27478   -27504 
  -27530   -27529   -27507   -27485   -27456   -27420   -27416   -27461 
  -27507   -27525   -27533   -27531   -27495   -27447   -27426   -27418 
  -27418   -27475   -27569   -27611   -27582   -27521   -27460   -27444 
  -27483   -27535   -27561   -27546   -27491   -27439   -27424   -27433 
  -27451   -27483   -27513   -27526   -27507   -27448   -27403   -27426 
  -27478   -27510   -27516   -27509   -27493   -27475   -27491   -27534 
  -27558   -27568   -27578   -27568   -27530   -27475   -27420   -27403 
  -27426   -27449   -27443   -27421   -27403   -27392   -27389   -27390 
  -27408   -27453   -27500   -27514   -27495   -27460   -27441   -27466 
  -27517   -27545   -27537   -27523   -27519   -27492   -27436   -27410 
  -27442   -27479   -27481   -27478   -27488   -27493   -27491   -27481 
  -27456   -27439   -27467   -27526   -27566   -27573   -27557   -27536 
  -27541   -27556   -27536   -27496   -27468   -27463   -27479   -27489 
  -27477   -27469   -27470   -27454   -27432   -27418   -27410   -27410 
  -27396   -27355   -27344   -27402   -27484   -27528   -27511   -27480 
  -27484   -27477   -27454   -27475   -27511   -27508   -27502   -27530 
  -27574   -27616   -27624   -27568   -27487   -27433   -27404   -27393 
  -27404   -27422   -27447   -27471   -27466   -27449   -27481   -27542 
  -27561   -27542   -27527   -27512   -27491   -27492   -27511   -27519 
  -27522   -27530   -27513   -27457   -27401   -27406   -27466   -27505 
  -27499   -27495   -27514   -27536   -27528   -27481   -27426   -27392 
  -27394   -27426   -27449   -27454   -27470   -27503   -27525   -27522 
  -27511   -27496   -27474   -27461   -27468   -27475   -27483   -27495 
  -27496   -27497   -27518   -27535   -27522   -27496   -27470   -27445 
  -27447   -27487   -27510   -27494   -27486   -27508   -27530   -27531 
  -27515   -27495   -27468   -27450   -27462   -27464   -27432   -27405 
  -27400   -27406   -27432   -27464   -27481   -27507   -27532   -27523 
  -27501   -27483   -27468   -27474   -27471   -27443   -27446   -27479 
  -27489   -27484   -27492   -27510   -27533   -27556   -27570   -27579 
  -27589   -27588   -27569   -27537   -27520   -27523   -27533   -27540 
  -27531   -27508   -27491   -27476   -27463   -27440   -27404   -27394 
  -27401   -27378   -27337   -27322   -27360   -27440   -27499   -27498 
  -27477   -27469   -27460   -27438   -27438   -27475   -27506   -27500 
  -27491   -27508   -27506   -27454   -27414   -27416   -27411   -27398 
  -27428   -27483   -27499   -27471   -27446   -27451   -27478   -27529 
  -27581   -27590   -27568   -27559   -27565   -27566   -27554   -27540 
  -27528   -27522   -27500   -27449   -27421   -27449   -27487   -27498 
  -27484   -27457   -27440   -27456   -27479   -27478   -27467   -27457 
  -27447   -27451   -27463   -27456   -27442   -27433   -27442   -27484 
  -27519   -27512   -27490   -27467   -27436   -27410   -27395   -27376 
  -27376   -27413   -27451   -27463   -27478   -27512   -27547   -27562 
  -27556   -27529   -27492   -27471   -27468   -27480   -27529   -27598 
  -27621   -27566   -27482   -27438   -27438   -27455   -27474   -27487 
  -27498   -27514   -27541   -27558   -27528   -27477   -27475   -27536 
  -27603   -27623   -27597   -27560   -27531   -27500   -27463   -27424 
  -27407   -27418   -27432   -27434   -27427   -27415   -27409   -27414 
  -27427   -27448   -27475   -27510   -27547   -27562   -27535   -27487 
  -27472   -27497   -27516   -27515   -27513   -27510   -27490   -27460 
  -27438   -27430   -27438   -27466   -27498   -27504   -27482   -27455 
  -27438   -27443   -27463   -27477   -27492   -27505   -27496   -27478 
  -27475   -27479   -27486   -27494   -27486   -27465   -27449   -27442 
  -27433   -27421   -27413   -27399   -27385   -27383   -27385   -27389 
  -27422   -27472   -27523   -27571   -27590   -27589   -27585   -27546 
  -27488   -27465   -27488   -27525   -27537   -27528   -27505   -27467 
  -27454   -27486   -27513   -27511   -27496   -27474   -27461   -27467 
  -27472   -27480   -27496   -27494   -27475   -27466   -27466   -27481 
  -27536   -27603   -27630   -27623   -27612   -27583   -27529   -27476 
  -27430   -27389   -27374   -27394   -27428   -27467   -27494   -27501 
  -27500   -27505   -27516   -27520   -27512   -27516   -27541   -27565 
  -27566   -27536   -27479   -27421   -27391   -27398   -27415   -27425 
  -27441   -27461   -27467   -27458   -27449   -27436   -27409   -27395 
  -27412   -27443   -27461   -27449   -27414   -27385   -27386   -27419 
  -27452   -27467   -27478   -27497   -27509   -27493   -27468   -27469 
  -27485   -27490   -27482   -27460   -27431   -27419   -27432   -27464 
  -27505   -27547   -27593   -27624   -27631   -27636   -27632   -27593 
  -27541   -27500   -27462   -27425   -27394   -27371   -27369   -27385 
  -27405   -27433   -27461   -27478   -27499   -27539   -27567   -27555 
  -27522   -27494   -27469   -27449   -27445   -27439   -27429   -27449 
  -27499   -27551   -27591   -27608   -27599   -27579   -27552   -27528 
  -27534   -27554   -27547   -27507   -27453   -27398   -27363   -27363 
  -27390   -27421   -27449   -27478   -27499   -27495   -27468   -27443 
  -27449   -27484   -27509   -27506   -27508   -27525   -27516   -27483 
  -27475   -27492   -27486   -27458   -27442   -27452   -27471   -27473 
  -27470   -27486   -27508   -27513   -27505   -27487   -27450   -27417 
  -27418   -27433   -27441   -27462   -27495   -27516   -27533   -27548 
  -27544   -27525   -27517   -27532   -27543   -27525   -27499   -27483 
  -27480   -27487   -27490   -27479   -27458   -27440   -27434   -27436 
  -27451   -27478   -27500   -27507   -27502   -27497   -27510   -27532 
  -27541   -27547   -27565   -27571   -27539   -27490   -27459   -27435 
  -27400   -27377   -27380   -27406   -27448   -27482   -27482   -27459 
  -27441   -27433   -27428   -27434   -27455   -27470   -27462   -27454 
  -27456   -27465   -27482   -27496   -27492   -27489   -27495   -27490 
  -27466   -27438   -27421   -27421   -27426   -27433   -27454   -27478 
  -27475   -27448   -27421   -27405   -27396   -27396   -27414   -27454 
  -27501   -27529   -27545   -27572   -27591   -27587   -27576   -27563 
  -27561   -27584   -27600   -27575   -27525   -27488   -27470   -27456 
  -27465   -27514   -27572   -27592   -27569   -27537   -27519   -27516 
  -27519   -27512   -27490   -27467   -27464   -27458   -27433   -27420 
  -27427   -27428   -27422   -27421   -27421   -27430   -27450   -27454 
  -27435   -27415   -27400   -27393   -27399   -27409   -27423   -27445 
  -27468   -27488   -27505   -27516   -27519   -27513   -27501   -27491 
  -27494   -27519   -27554   -27582   -27592   -27580   -27557   -27535 
  -27510   -27489   -27476   -27461   -27462   -27488   -27507   -27494 
  -27469   -27462   -27466   -27466   -27470   -27480   -27489   -27496 
  -27501   -27503   -27496   -27482   -27469   -27467   -27481   -27501 
  -27506   -27503   -27498   -27485   -27466   -27445   -27426   -27431 
  -27460   -27483   -27481   -27463   -27456   -27463   -27467   -27480 
  -27511   -27532   -27532   -27522   -27505   -27481   -27454   -27437 
  -27448   -27483   -27522   -27548   -27554   -27556   -27562   -27551 
  -27513   -27465   -27433   -27427   -27434   -27438   -27440   -27442 
  -27443   -27443   -27443   -27449   -27457   -27458   -27451   -27443 
  -27447   -27452   -27445   -27434   -27431   -27442   -27461   -27477 
  -27476   -27460   -27450   -27454   -27463   -27480   -27499   -27521 
  -27547   -27558   -27547   -27518   -27492   -27497   -27529   -27550 
  -27553   -27553   -27549   -27530   -27511   -27500   -27492   -27494 
  -27507   -27513   -27500   -27471   -27450   -27450   -27462   -27483 
  -27503   -27508   -27501   -27494   -27484   -27473   -27471   -27477 
  -27481   -27472   -27450   -27426   -27407   -27409   -27431   -27443 
  -27440   -27453   -27485   -27515   -27535   -27540   -27527   -27510 
  -27503   -27499   -27489   -27470   -27452   -27447   -27454   -27457 
  -27447   -27431   -27425   -27443   -27464   -27463   -27457   -27463 
  -27464   -27453   -27441   -27440   -27451   -27459   -27457   -27454 
