Origin Time       2025/03/28 03:50:00
Lat.              35.403
Long.             140.360
Depth. (km)       54
Mag.              4.4
Station Code      SZOH54
Station Lat.      35.0417
Station Long.     139.1685
Station Height(m) 20
Record Time       2025/03/28 03:51:11
Sampling Freq(Hz) 100Hz
Duration Time(s)  120
Dir.              4
Scale Factor      3920(gal)/6170801
Max. Acc. (gal)   0.373
Last Correction   2025/03/28 03:50:56
Memo.             
[...]
   -2546    -2697    -2624    -2489    -2496    -2600    -2618    -2493 
   -2364    -2384    -2523    -2617    -2559    -2410    -2309    -2337 
   -2474    -2631    -2696    -2625    -2490    -2429    -2503    -2595 
   -2571    -2463    -2398    -2425    -2497    -2547    -2533    -2494 
   -2536    -2664    -2740    -2660    -2474    -2329    -2343    -2478 
   -2571    -2541    -2462    -2429    -2482    -2574    -2577    -2479 
   -2446    -2560    -2678    -2639    -2466    -2300    -2274    -2436 
   -2655    -2718    -2591    -2440    -2397    -2468    -2598    -2675 
   -2624    -2518    -2464    -2454    -2438    -2416    -2428    -2484 
   -2541    -2572    -2564    -2503    -2437    -2448    -2530    -2612 
   -2651    -2628    -2525    -2380    -2302    -2385    -2578    -2704 
   -2639    -2456    -2345    -2390    -2486    -2516    -2522    -2571 
   -2622    -2601    -2519    -2452    -2466    -2565    -2646    -2581 
   -2412    -2329    -2421    -2572    -2648    -2610    -2507    -2457 
   -2512    -2583    -2571    -2466    -2377    -2422    -2555    -2640 
   -2623    -2523    -2428    -2427    -2476    -2481    -2469    -2519 
   -2592    -2553    -2389    -2293    -2414    -2641    -2739    -2607 
   -2386    -2311    -2434    -2583    -2639    -2666    -2702    -2664 
   -2512    -2326    -2224    -2274    -2447    -2633    -2720    -2700 
   -2661    -2615    -2500    -2365    -2333    -2403    -2481    -2519 
   -2527    -2551    -2593    -2592    -2536    -2485    -2477    -2484 
   -2470    -2487    -2575    -2640    -2606    -2520    -2449    -2419 
   -2431    -2481    -2544    -2570    -2546    -2514    -2486    -2459 
   -2447    -2457    -2487    -2522    -2537    -2524    -2498    -2493 
   -2505    -2490    -2466    -2509    -2621    -2685    -2605    -2444 
   -2345    -2357    -2434    -2542    -2633    -2635    -2575    -2541 
   -2512    -2446    -2416    -2479    -2579    -2624    -2564    -2435 
   -2366    -2441    -2571    -2591    -2495    -2432    -2494    -2619 
   -2689    -2635    -2526    -2490    -2532    -2528    -2434    -2367 
   -2411    -2504    -2567    -2560    -2491    -2451    -2508    -2581 
   -2565    -2471    -2375    -2341    -2429    -2613    -2741    -2709 
   -2581    -2474    -2434    -2431    -2420    -2396    -2423    -2543 
   -2673    -2677    -2546    -2401    -2343    -2381    -2467    -2547 
   -2584    -2577    -2565    -2568    -2540    -2484    -2470    -2498 
   -2510    -2509    -2525    -2548    -2557    -2577    -2624    -2645 
   -2583    -2458    -2351    -2334    -2415    -2538    -2617    -2610 
   -2552    -2502    -2480    -2477    -2483    -2481    -2478    -2508 
   -2561    -2564    -2495    -2429    -2442    -2526    -2607    -2602 
   -2480    -2348    -2350    -2480    -2616    -2667    -2628    -2563 
   -2515    -2464    -2411    -2409    -2485    -2582    -2624    -2599 
   -2540    -2474    -2448    -2497    -2563    -2576    -2537    -2472 
   -2418    -2420    -2458    -2490    -2513    -2539    -2563    -2582 
   -2584    -2554    -2531    -2557    -2569    -2485    -2364    -2336 
   -2432    -2565    -2622    -2568    -2484    -2448    -2461    -2496 
   -2546    -2591    -2603    -2565    -2502    -2474    -2488    -2498 
   -2505    -2513    -2498    -2458    -2423    -2426    -2490    -2591 
   -2661    -2639    -2542    -2449    -2430    -2471    -2518    -2538 
   -2539    -2545    -2541    -2485    -2401    -2368    -2424    -2528 
   -2612    -2635    -2596    -2532    -2499    -2522    -2541    -2497 
   -2426    -2406    -2453    -2524    -2563    -2554    -2543    -2564 
   -2589    -2585    -2542    -2491    -2477    -2501    -2521    -2500 
   -2443    -2415    -2484    -2594    -2624    -2549    -2467    -2462 
   -2506    -2506    -2444    -2395    -2424    -2532    -2621    -2605 
   -2542    -2531    -2547    -2536    -2495    -2456    -2447    -2470 
   -2498    -2504    -2519    -2579    -2614    -2537    -2407    -2358 
   -2421    -2533    -2625    -2641    -2575    -2488    -2432    -2404 
   -2412    -2479    -2559    -2587    -2572    -2557    -2529    -2482 
   -2469    -2508    -2545    -2531    -2499    -2507    -2536    -2544 
   -2543    -2543    -2530    -2522    -2516    -2466    -2399    -2407 
   -2495    -2574    -2578    -2531    -2504    -2518    -2555    -2585 
   -2576    -2552    -2552    -2545    -2498    -2456    -2455    -2467 
   -2492    -2543    -2582    -2554    -2488    -2455    -2462    -2462 
   -2455    -2473    -2504    -2531    -2553    -2534    -2457    -2402 
   -2432    -2510    -2550    -2514    -2463    -2492    -2583    -2636 
   -2619    -2562    -2506    -2483    -2494    -2506    -2509    -2527 
   -2566    -2595    -2593    -2583    -2573    -2528    -2454    -2418 
   -2437    -2477    -2510    -2505    -2457    -2433    -2498    -2590 
   -2603    -2545    -2499    -2499    -2523    -2537    -2512    -2458 
   -2432    -2459    -2499    -2520    -2547    -2590    -2603    -2544 
   -2436    -2362    -2385    -2472    -2536    -2556    -2545    -2518 
   -2496    -2492    -2511    -2541    -2565    -2562    -2531    -2482 
   -2457    -2491    -2558    -2603    -2602    -2558    -2481    -2412 
   -2412    -2480    -2538    -2542    -2517    -2505    -2535    -2580 
   -2584    -2544    -2499    -2487    -2525    -2569    -2573    -2558 
   -2547    -2515    -2447    -2370    -2342    -2399    -2512    -2614 
   -2632    -2569    -2500    -2471    -2484    -2531    -2577    -2587 
   -2561    -2522    -2498    -2496    -2500    -2491    -2447    -2381 
   -2378    -2473    -2587    -2639    -2630    -2603    -2578    -2532 
   -2450    -2367    -2348    -2422    -2526    -2556    -2514    -2482 
   -2519    -2601    -2632    -2564    -2483    -2479    -2540    -2573 
   -2530    -2486    -2495    -2508    -2485    -2455    -2458    -2512 
   -2581    -2594    -2527    -2443    -2409    -2440    -2511    -2580 
   -2602    -2578    -2542    -2499    -2454    -2458    -2519    -2572 
   -2578    -2554    -2520    -2483    -2458    -2449    -2453    -2495 
   -2564    -2591    -2551    -2507    -2496    -2499    -2503    -2517 
   -2525    -2510    -2499    -2502    -2493    -2492    -2523    -2553 
   -2555    -2529    -2474    -2427    -2458    -2560    -2628    -2596 
   -2510    -2453    -2460    -2486    -2483    -2467    -2475    -2520 
   -2592    -2625    -2568    -2475    -2431    -2421    -2390    -2376 
   -2439    -2543    -2610    -2594    -2506    -2439    -2482    -2573 
   -2592    -2539    -2502    -2511    -2538    -2559    -2578    -2580 
   -2543    -2474    -2412    -2408    -2478    -2559    -2586    -2578 
   -2578    -2596    -2594    -2533    -2443    -2414    -2474    -2546 
   -2533    -2450    -2407    -2451    -2518    -2542    -2522    -2514 
   -2525    -2535    -2545    -2539    -2518    -2514    -2503    -2437 
   -2372    -2386    -2454    -2525    -2601    -2672    -2684    -2604 
   -2458    -2336    -2330    -2437    -2540    -2544    -2518    -2561 
   -2621    -2605    -2535    -2475    -2465    -2524    -2587    -2555 
   -2467    -2457    -2539    -2576    -2507    -2410    -2379    -2459 
   -2580    -2607    -2538    -2498    -2549    -2623    -2610    -2494 
   -2386    -2402    -2540    -2675    -2677    -2556    -2446    -2442 
   -2500    -2494    -2408    -2371    -2443    -2554    -2609    -2569 
   -2484    -2431    -2426    -2457    -2512    -2557    -2581    -2609 
   -2628    -2573    -2462    -2394    -2430    -2537    -2617    -2568 
   -2416    -2315    -2361    -2493    -2599    -2633    -2617    -2599 
   -2595    -2557    -2471    -2414    -2437    -2473    -2456    -2413 
   -2406    -2461    -2547    -2602    -2594    -2558    -2551    -2566 
   -2537    -2473    -2459    -2532    -2625    -2637    -2529    -2373 
   -2287    -2332    -2469    -2610    -2695    -2710    -2669    -2591 
   -2496    -2434    -2417    -2411    -2431    -2489    -2510    -2473 
   -2471    -2534    -2596    -2613    -2592    -2539    -2480    -2443 
   -2430    -2468    -2571    -2648    -2621    -2548    -2513    -2514 
   -2503    -2458    -2413    -2430    -2515    -2596    -2599    -2514 
   -2401    -2382    -2512    -2671    -2708    -2609    -2472    -2404 
   -2434    -2486    -2471    -2413    -2432    -2556    -2627    -2525 
   -2355    -2300    -2423    -2626    -2750    -2717    -2569    -2421 
   -2359    -2356    -2382    -2459    -2571    -2635    -2596    -2466 
   -2326    -2294    -2416    -2603    -2729    -2725    -2617    -2481 
   -2395    -2404    -2471    -2521    -2531    -2513    -2460    -2412 
   -2435    -2518    -2593    -2626    -2639    -2635    -2576    -2466 
   -2388    -2403    -2497    -2583    -2591    -2542    -2470    -2396 
   -2382    -2465    -2569    -2597    -2560    -2520    -2489    -2448 
   -2383    -2324    -2356    -2506    -2676    -2755    -2721    -2620 
   -2529    -2505    -2510    -2452    -2362    -2377    -2524    -2648 
   -2636    -2551    -2515    -2561    -2616    -2603    -2526    -2442 
   -2418    -2476    -2556    -2595    -2593    -2586    -2588    -2561 
   -2497    -2462    -2495    -2548    -2566    -2557    -2553    -2549 
   -2528    -2526    -2561    -2586    -2565    -2489    -2373    -2281 
   -2283    -2387    -2529    -2593    -2533    -2448    -2439    -2507 
   -2592    -2605    -2541    -2508    -2556    -2593    -2536    -2438 
   -2418    -2518    -2669    -2758    -2711    -2562    -2444    -2451 
   -2546    -2631    -2637    -2565    -2486    -2460    -2485    -2503 
   -2469    -2415    -2382    -2372    -2401    -2460    -2465    -2395 
   -2342    -2360    -2394    -2403    -2414    -2455    -2512    -2583 
   -2671    -2706    -2644    -2580    -2602    -2664    -2691    -2680 
   -2638    -2563    -2488    -2444    -2402    -2367    -2372    -2382 
   -2378    -2403    -2461    -2533    -2606    -2636    -2606    -2583 
   -2602    -2610    -2591    -2588    -2593    -2563    -2492    -2395 
   -2324    -2302    -2298    -2324    -2428    -2590    -2719    -2725 
   -2603    -2449    -2375    -2371    -2349    -2323    -2406    -2608 
   -2797    -2849    -2722    -2486    -2302    -2257    -2260    -2228 
   -2217    -2273    -2366    -2486    -2637    -2759    -2801    -2790 
   -2772    -2760    -2738    -2703    -2669    -2617    -2540    -2476 
   -2437    -2436    -2510    -2602    -2600    -2507    -2410    -2334 
   -2275    -2284    -2380    -2472    -2493    -2469    -2434    -2405 
   -2424    -2519    -2619    -2622    -2541    -2498    -2592    -2785 
   -2920    -2859    -2630    -2400    -2281    -2237    -2164    -2070 
   -2087    -2290    -2573    -2742    -2708    -2545    -2412    -2407 
   -2492    -2563    -2587    -2657    -2821    -2922    -2771    -2445 
   -2206    -2235    -2508    -2807    -2928    -2859    -2691    -2493 
   -2309    -2190    -2219    -2406    -2590    -2594    -2431    -2288 
   -2310    -2480    -2674    -2759    -2696    -2582    -2507    -2453 
   -2441    -2526    -2650    -2672    -2522    -2253    -2010    -1964 
   -2184    -2547    -2856    -3007    -2987    -2845    -2664    -2486 
   -2315    -2214    -2236    -2302    -2277    -2180    -2180    -2356 
   -2590    -2720    -2716    -2700    -2800    -2941    -2930    -2753 
   -2589    -2554    -2589    -2549    -2368    -2181    -2196    -2408 
   -2579    -2564    -2464    -2420    -2441    -2439    -2374    -2342 
   -2434    -2570    -2622    -2572    -2477    -2432    -2512    -2654 
   -2714    -2692    -2709    -2775    -2763    -2594    -2354    -2247 
   -2374    -2605    -2756    -2782    -2708    -2569    -2434    -2340 
   -2272    -2264    -2373    -2555    -2683    -2695    -2634    -2563 
   -2502    -2437    -2364    -2307    -2283    -2288    -2337    -2448 
   -2585    -2675    -2679    -2599    -2475    -2400    -2429    -2515 
   -2578    -2555    -2443    -2341    -2344    -2402    -2434    -2454 
   -2462    -2400    -2280    -2210    -2259    -2369    -2477    -2575 
   -2638    -2654    -2683    -2769    -2883    -2962    -2927    -2728 
   -2431    -2190    -2133    -2275    -2522    -2731    -2756    -2576 
   -2366    -2292    -2349    -2492    -2683    -2824    -2820    -2677 
   -2485    -2343    -2297    -2350    -2468    -2578    -2606    -2534 
   -2415    -2378    -2517    -2759    -2927    -2925    -2787    -2580 
   -2343    -2128    -2016    -2020    -2083    -2218    -2430    -2610 
   -2685    -2696    -2695    -2695    -2702    -2710    -2685    -2620 
   -2577    -2606    -2654    -2654    -2599    -2513    -2438    -2443 
   -2531    -2578    -2499    -2366    -2284    -2295    -2394    -2510 
   -2588    -2672    -2721    -2605    -2380    -2245    -2255    -2325 
   -2392    -2451    -2489    -2491    -2497    -2547    -2596    -2589 
   -2553    -2504    -2405    -2303    -2317    -2457    -2626    -2733 
   -2746    -2691    -2627    -2574    -2476    -2316    -2232    -2349 
   -2549    -2656    -2664    -2644    -2626    -2611    -2571    -2488 
   -2392    -2345    -2392    -2512    -2629    -2662    -2580    -2448 
   -2371    -2373    -2392    -2422    -2505    -2610    -2677    -2694 
   -2657    -2572    -2485    -2419    -2368    -2364    -2426    -2512 
   -2571    -2586    -2544    -2465    -2406    -2411    -2502    -2680 
   -2867    -2899    -2676    -2334    -2127    -2175    -2376    -2517 
   -2467    -2323    -2252    -2273    -2322    -2395    -2508    -2624 
   -2701    -2721    -2663    -2529    -2433    -2546    -2854    -3099 
   -3065    -2794    -2508    -2387    -2434    -2508    -2506    -2503 
   -2597    -2688    -2598    -2346    -2137    -2117    -2231    -2338 
   -2358    -2328    -2352    -2470    -2617    -2720    -2764    -2770 
   -2746    -2659    -2499    -2349    -2339    -2510    -2744    -2853 
   -2764    -2587    -2470    -2442    -2432    -2419    -2441    -2464 
   -2414    -2321    -2265    -2243    -2245    -2306    -2420    -2529 
   -2611    -2651    -2610    -2523    -2482    -2511    -2579    -2659 
   -2707    -2695    -2669    -2649    -2572    -2423    -2281    -2216 
   -2243    -2318    -2390    -2462    -2555    -2657    -2725    -2695 
   -2560    -2416    -2348    -2357    -2440    -2604    -2785    -2864 
   -2760    -2528    -2337    -2287    -2364    -2515    -2661    -2720 
   -2665    -2533    -2392    -2286    -2230    -2236    -2324    -2491 
   -2667    -2727    -2631    -2497    -2463    -2518    -2580    -2617 
   -2631    -2614    -2555    -2486    -2445    -2432    -2440    -2487 
   -2574    -2660    -2697    -2679    -2627    -2577    -2565    -2585 
   -2564    -2466    -2364    -2332    -2365    -2429    -2490    -2517 
   -2494    -2426    -2355    -2341    -2407    -2521    -2634    -2709 
   -2694    -2549    -2350    -2263    -2365    -2591    -2801    -2880 
   -2813    -2671    -2513    -2366    -2269    -2275    -2404    -2604 
   -2764    -2796    -2704    -2539    -2324    -2113    -2012    -2081 
   -2256    -2427    -2560    -2685    -2794    -2827    -2743    -2580 
   -2421    -2321    -2271    -2257    -2307    -2429    -2571    -2685 
   -2743    -2747    -2726    -2691    -2636    -2570    -2496    -2411 
   -2322    -2260    -2262    -2341    -2458    -2554    -2601    -2626 
   -2669    -2715    -2738    -2751    -2756    -2728    -2655    -2558 
   -2482    -2442    -2429    -2473    -2581    -2688    -2717    -2625 
   -2434    -2237    -2140    -2174    -2281    -2387    -2460    -2521 
   -2590    -2636    -2621    -2554    -2473    -2409    -2389    -2424 
   -2492    -2546    -2574    -2597    -2617    -2599    -2515    -2402 
   -2345    -2382    -2461    -2518    -2534    -2511    -2462    -2411 
   -2378    -2385    -2456    -2576    -2667    -2642    -2533    -2461 
   -2481    -2550    -2631    -2692    -2679    -2589    -2504    -2489 
   -2535    -2601    -2631    -2586    -2471    -2315    -2176    -2124 
   -2193    -2379    -2640    -2858    -2920    -2803    -2562    -2319 
   -2184    -2182    -2269    -2386    -2497    -2612    -2755    -2879 
   -2912    -2853    -2739    -2581    -2398    -2266    -2251    -2346 
   -2485    -2599    -2664    -2702    -2713    -2660    -2532    -2404 
   -2368    -2419    -2487    -2543    -2593    -2635    -2640    -2568 
   -2428    -2299    -2253    -2286    -2344    -2387    -2420    -2472 
   -2531    -2560    -2556    -2543    -2535    -2523    -2490    -2435 
   -2381    -2362    -2402    -2473    -2507    -2490    -2480    -2516 
   -2583    -2645    -2669    -2652    -2627    -2610    -2559    -2433 
   -2306    -2300    -2400    -2510    -2597    -2678    -2746    -2794 
   -2820    -2805    -2721    -2564    -2366    -2189    -2112    -2184 
   -2345    -2493    -2580    -2603    -2572    -2510    -2470    -2498 
   -2572    -2647    -2689    -2662    -2558    -2430    -2348    -2344 
   -2395    -2460    -2506    -2524    -2527    -2537    -2541    -2508 
   -2449    -2416    -2426    -2466    -2531    -2602    -2656    -2689 
   -2672    -2555    -2387    -2297    -2343    -2473    -2596    -2655 
   -2668    -2689    -2739    -2771    -2731    -2645    -2567    -2497 
   -2430    -2386    -2375    -2368    -2342    -2301    -2241    -2173 
   -2162    -2268    -2476    -2713    -2882    -2915    -2818    -2674 
   -2570    -2508    -2455    -2415    -2413    -2451    -2507    -2555 
   -2586    -2600    -2591    -2571    -2543    -2494    -2437    -2415 
   -2444    -2489    -2500    -2477    -2460    -2468    -2498    -2531 
   -2545    -2540    -2507    -2452    -2420    -2407    -2369    -2329 
   -2342    -2424    -2542    -2641    -2676    -2634    -2539    -2439 
   -2392    -2408    -2458    -2538    -2656    -2774    -2818    -2753 
   -2631    -2531    -2497    -2512    -2529    -2526    -2523    -2528 
   -2536    -2536    -2504    -2444    -2413    -2449    -2521    -2564 
   -2572    -2578    -2589    -2579    -2523    -2448    -2415    -2434 
   -2450    -2419    -2374    -2376    -2431    -2492    -2514    -2488 
   -2466    -2500    -2564    -2594    -2568    -2517    -2484    -2494 
   -2535    -2571    -2577    -2559    -2516    -2447    -2396    -2416 
   -2519    -2662    -2763    -2743    -2612    -2464    -2376    -2343 
   -2334    -2360    -2435    -2543    -2655    -2714    -2675    -2593 
   -2549    -2549    -2534    -2480    -2413    -2374    -2393    -2450 
   -2471    -2436    -2407    -2435    -2487    -2497    -2467    -2439 
   -2430    -2449    -2500    -2564    -2624    -2665    -2667    -2620 
   -2562    -2548    -2582    -2618    -2627    -2592    -2505    -2406 
   -2340    -2305    -2308    -2373    -2474    -2557    -2617    -2689 
   -2745    -2717    -2594    -2441    -2310    -2244    -2282    -2395 
   -2505    -2571    -2587    -2552    -2479    -2411    -2387    -2413 
   -2475    -2547    -2604    -2629    -2624    -2601    -2566    -2535 
   -2517    -2517    -2539    -2567    -2565    -2518    -2459    -2457 
   -2533    -2625    -2678    -2687    -2654    -2598    -2540    -2491 
   -2449    -2424    -2433    -2472    -2502    -2494    -2452    -2405 
   -2362    -2321    -2311    -2365    -2463    -2567    -2642    -2665 
   -2645    -2603    -2541    -2469    -2400    -2356    -2359    -2397 
   -2451    -2508    -2553    -2582    -2592    -2568    -2515    -2461 
