Origin Time       2025/03/28 03:50:00
Lat.              35.403
Long.             140.360
Depth. (km)       54
Mag.              4.4
Station Code      TCGH12
Station Lat.      36.6959
Station Long.     139.9842
Station Height(m) 42
Record Time       2025/03/28 03:51:20
Sampling Freq(Hz) 100Hz
Duration Time(s)  120
Dir.              3
Scale Factor      2942(gal)/8224139
Max. Acc. (gal)   0.094
Last Correction   2025/03/28 03:51:20
Memo.             
[...]
   -2524    -2524    -2519    -2493    -2465    -2470    -2501    -2521 
   -2505    -2470    -2448    -2446    -2452    -2469    -2505    -2525 
   -2505    -2493    -2515    -2515    -2496    -2512    -2516    -2475 
   -2444    -2446    -2458    -2474    -2488    -2492    -2492    -2477 
   -2470    -2493    -2504    -2484    -2505    -2548    -2540    -2513 
   -2517    -2508    -2463    -2434    -2444    -2457    -2454    -2440 
   -2432    -2465    -2524    -2555    -2558    -2555    -2531    -2486 
   -2458    -2458    -2475    -2512    -2540    -2538    -2539    -2538 
   -2504    -2478    -2467    -2447    -2457    -2517    -2574    -2585 
   -2566    -2542    -2509    -2471    -2439    -2430    -2439    -2435 
   -2423    -2436    -2481    -2538    -2577    -2573    -2523    -2455 
   -2417    -2432    -2463    -2466    -2451    -2452    -2457    -2446 
   -2452    -2466    -2462    -2481    -2513    -2498    -2459    -2440 
   -2454    -2493    -2504    -2496    -2531    -2558    -2538    -2533 
   -2535    -2494    -2466    -2470    -2454    -2442    -2470    -2506 
   -2533    -2558    -2577    -2587    -2567    -2520    -2498    -2506 
   -2505    -2509    -2528    -2508    -2454    -2450    -2489    -2492 
   -2458    -2439    -2457    -2494    -2519    -2525    -2535    -2535 
   -2535    -2547    -2528    -2459    -2405    -2408    -2428    -2424 
   -2409    -2413    -2435    -2463    -2508    -2544    -2528    -2504 
   -2540    -2585    -2554    -2493    -2473    -2462    -2434    -2419 
   -2436    -2477    -2515    -2529    -2536    -2542    -2528    -2489 
   -2461    -2469    -2474    -2457    -2461    -2509    -2536    -2513 
   -2496    -2502    -2505    -2496    -2489    -2504    -2505    -2478 
   -2478    -2506    -2515    -2509    -2508    -2519    -2538    -2524 
   -2494    -2513    -2558    -2566    -2531    -2466    -2413    -2405 
   -2425    -2455    -2478    -2470    -2463    -2497    -2532    -2528 
   -2505    -2471    -2425    -2409    -2443    -2477    -2471    -2452 
   -2448    -2455    -2466    -2481    -2502    -2527    -2520    -2488 
   -2481    -2485    -2455    -2430    -2434    -2444    -2466    -2496 
   -2532    -2579    -2587    -2528    -2475    -2469    -2473    -2462 
   -2446    -2439    -2463    -2505    -2516    -2506    -2525    -2542 
   -2539    -2547    -2548    -2535    -2546    -2559    -2558    -2556 
   -2551    -2535    -2524    -2506    -2474    -2459    -2473    -2493 
   -2509    -2513    -2520    -2536    -2536    -2529    -2547    -2573 
   -2581    -2555    -2496    -2439    -2424    -2442    -2442    -2408 
   -2396    -2436    -2490    -2527    -2548    -2552    -2547    -2560 
   -2577    -2542    -2465    -2427    -2446    -2477    -2490    -2478 
   -2469    -2474    -2488    -2513    -2535    -2513    -2482    -2488 
   -2490    -2462    -2440    -2442    -2458    -2471    -2457    -2439 
   -2451    -2461    -2466    -2477    -2462    -2440    -2457    -2482 
   -2489    -2493    -2500    -2493    -2484    -2505    -2533    -2519 
   -2482    -2465    -2455    -2450    -2459    -2493    -2529    -2512 
   -2470    -2471    -2492    -2485    -2463    -2459    -2481    -2513 
   -2555    -2605    -2624    -2609    -2590    -2559    -2504    -2461 
   -2448    -2436    -2419    -2432    -2484    -2525    -2535    -2548 
   -2567    -2544    -2504    -2509    -2535    -2519    -2478    -2459 
   -2467    -2478    -2489    -2505    -2517    -2511    -2500    -2515 
   -2556    -2577    -2542    -2475    -2409    -2381    -2411    -2446 
   -2446    -2434    -2428    -2423    -2424    -2444    -2477    -2494 
   -2477    -2463    -2485    -2501    -2479    -2442    -2421    -2438 
   -2470    -2500    -2547    -2606    -2605    -2546    -2525    -2555 
   -2565    -2543    -2525    -2524    -2521    -2517    -2529    -2550 
   -2544    -2512    -2467    -2423    -2409    -2430    -2458    -2469 
   -2466    -2459    -2451    -2474    -2519    -2520    -2488    -2485 
   -2502    -2494    -2461    -2424    -2411    -2436    -2486    -2515 
   -2497    -2485    -2511    -2533    -2540    -2552    -2548    -2511 
   -2486    -2517    -2546    -2527    -2513    -2528    -2532    -2519 
   -2513    -2509    -2474    -2427    -2431    -2474    -2509    -2538 
   -2551    -2551    -2565    -2573    -2550    -2515    -2482    -2466 
   -2473    -2461    -2438    -2458    -2488    -2474    -2440    -2396 
   -2357    -2361    -2376    -2384    -2428    -2457    -2412    -2385 
   -2439    -2498    -2508    -2488    -2474    -2478    -2488    -2508 
   -2533    -2527    -2481    -2452    -2492    -2581    -2644    -2633 
   -2589    -2570    -2565    -2538    -2501    -2481    -2479    -2485 
   -2504    -2547    -2581    -2582    -2554    -2493    -2412    -2351 
   -2327    -2317    -2340    -2420    -2496    -2524    -2552    -2597 
   -2600    -2552    -2509    -2504    -2502    -2466    -2427    -2438 
   -2494    -2543    -2533    -2484    -2457    -2469    -2498    -2542 
   -2577    -2574    -2546    -2527    -2508    -2488    -2490    -2490 
   -2466    -2465    -2485    -2488    -2517    -2571    -2579    -2554 
   -2547    -2548    -2538    -2521    -2520    -2539    -2540    -2512 
   -2479    -2458    -2446    -2458    -2475    -2455    -2425    -2425 
   -2447    -2463    -2473    -2497    -2539    -2565    -2554    -2515 
   -2467    -2446    -2459    -2474    -2473    -2471    -2463    -2444 
   -2455    -2493    -2508    -2497    -2505    -2521    -2498    -2446 
   -2419    -2413    -2403    -2378    -2362    -2388    -2436    -2463 
   -2481    -2517    -2544    -2516    -2454    -2444    -2482    -2478 
   -2459    -2508    -2559    -2536    -2501    -2508    -2506    -2463 
   -2435    -2463    -2520    -2562    -2589    -2610    -2614    -2612 
   -2616    -2601    -2585    -2606    -2616    -2581    -2551    -2548 
   -2552    -2558    -2571    -2578    -2560    -2543    -2543    -2546 
   -2546    -2542    -2511    -2467    -2443    -2421    -2397    -2393 
   -2421    -2455    -2465    -2436    -2408    -2427    -2463    -2477 
   -2458    -2415    -2409    -2473    -2516    -2498    -2467    -2443 
   -2412    -2409    -2469    -2531    -2509    -2457    -2478    -2538 
   -2527    -2452    -2412    -2424    -2438    -2434    -2434    -2451 
   -2458    -2435    -2413    -2408    -2411    -2405    -2396    -2400 
   -2423    -2474    -2523    -2529    -2521    -2532    -2544    -2538 
   -2533    -2554    -2573    -2569    -2571    -2592    -2593    -2570 
   -2547    -2532    -2532    -2532    -2520    -2504    -2496    -2488 
   -2496    -2506    -2493    -2458    -2427    -2420    -2443    -2455 
   -2435    -2421    -2435    -2450    -2465    -2492    -2508    -2513 
   -2540    -2566    -2551    -2531    -2535    -2540    -2540    -2552 
   -2583    -2604    -2593    -2582    -2582    -2550    -2484    -2439 
   -2434    -2440    -2443    -2455    -2482    -2502    -2500    -2488 
   -2471    -2477    -2500    -2494    -2462    -2448    -2451    -2451 
   -2451    -2436    -2411    -2401    -2417    -2474    -2539    -2536 
   -2498    -2516    -2563    -2570    -2559    -2566    -2560    -2520 
   -2489    -2490    -2490    -2486    -2500    -2516    -2513    -2498 
   -2501    -2523    -2523    -2485    -2447    -2425    -2417    -2425 
   -2448    -2471    -2484    -2489    -2494    -2489    -2474    -2496 
   -2551    -2563    -2527    -2509    -2524    -2531    -2506    -2463 
   -2431    -2408    -2396    -2401    -2424    -2469    -2517    -2540 
   -2548    -2546    -2509    -2452    -2413    -2409    -2420    -2424 
   -2431    -2451    -2481    -2493    -2490    -2497    -2498    -2473 
   -2443    -2451    -2488    -2492    -2475    -2494    -2524    -2531 
   -2535    -2543    -2546    -2538    -2524    -2519    -2511    -2490 
   -2482    -2506    -2542    -2569    -2577    -2592    -2623    -2623 
   -2592    -2581    -2579    -2555    -2531    -2525    -2508    -2466 
   -2436    -2440    -2455    -2455    -2447    -2455    -2454    -2438 
   -2444    -2455    -2423    -2374    -2354    -2353    -2353    -2350 
   -2365    -2424    -2478    -2475    -2459    -2469    -2475    -2489 
   -2523    -2547    -2555    -2555    -2552    -2543    -2519    -2506 
   -2502    -2471    -2455    -2490    -2512    -2492    -2498    -2536 
   -2544    -2521    -2504    -2508    -2523    -2524    -2527    -2555 
   -2582    -2590    -2604    -2612    -2583    -2548    -2550    -2579 
   -2592    -2563    -2520    -2500    -2501    -2500    -2494    -2497 
   -2497    -2497    -2515    -2520    -2489    -2451    -2431    -2409 
   -2389    -2403    -2431    -2446    -2462    -2492    -2517    -2517 
   -2496    -2471    -2428    -2376    -2366    -2394    -2417    -2439 
   -2482    -2512    -2488    -2478    -2532    -2554    -2492    -2430 
   -2431    -2461    -2465    -2477    -2524    -2533    -2488    -2479 
   -2524    -2532    -2506    -2512    -2543    -2544    -2508    -2496 
   -2520    -2505    -2447    -2415    -2428    -2450    -2457    -2478 
   -2533    -2567    -2563    -2562    -2560    -2547    -2531    -2500 
   -2474    -2459    -2434    -2427    -2457    -2473    -2474    -2486 
   -2504    -2525    -2554    -2569    -2547    -2513    -2500    -2490 
   -2471    -2461    -2469    -2489    -2500    -2493    -2489    -2513 
   -2544    -2538    -2496    -2477    -2494    -2521    -2546    -2559 
   -2547    -2512    -2490    -2494    -2485    -2446    -2420    -2419 
   -2423    -2431    -2450    -2462    -2473    -2489    -2488    -2440 
   -2376    -2336    -2330    -2339    -2367    -2412    -2455    -2494 
   -2532    -2542    -2506    -2448    -2401    -2389    -2423    -2465 
   -2475    -2477    -2501    -2547    -2573    -2566    -2566    -2590 
   -2614    -2619    -2598    -2585    -2602    -2620    -2610    -2596 
   -2597    -2601    -2578    -2571    -2598    -2600    -2571    -2562 
   -2547    -2496    -2435    -2400    -2397    -2405    -2404    -2403 
   -2411    -2403    -2370    -2365    -2403    -2439    -2455    -2455 
   -2451    -2475    -2517    -2533    -2511    -2486    -2489    -2505 
   -2511    -2525    -2569    -2594    -2577    -2570    -2594    -2594 
   -2547    -2523    -2539    -2523    -2471    -2448    -2454    -2443 
   -2425    -2431    -2462    -2489    -2488    -2474    -2475    -2486 
   -2497    -2502    -2497    -2488    -2477    -2473    -2475    -2467 
   -2467    -2494    -2515    -2516    -2512    -2504    -2486    -2463 
   -2451    -2448    -2434    -2409    -2409    -2428    -2434    -2442 
   -2474    -2496    -2492    -2488    -2488    -2471    -2454    -2459 
   -2477    -2489    -2488    -2489    -2505    -2525    -2546    -2555 
   -2550    -2539    -2523    -2504    -2501    -2520    -2529    -2512 
   -2493    -2501    -2520    -2525    -2519    -2513    -2501    -2478 
   -2465    -2467    -2463    -2458    -2471    -2504    -2542    -2560 
   -2539    -2489    -2444    -2428    -2424    -2428    -2457    -2505 
   -2548    -2578    -2602    -2598    -2538    -2478    -2473    -2474 
   -2444    -2432    -2462    -2494    -2512    -2533    -2560    -2559 
   -2519    -2482    -2478    -2474    -2458    -2448    -2454    -2484 
   -2505    -2481    -2461    -2505    -2560    -2559    -2538    -2546 
   -2554    -2523    -2484    -2475    -2471    -2444    -2440    -2477 
   -2477    -2421    -2390    -2421    -2448    -2419    -2361    -2350 
   -2376    -2385    -2396    -2436    -2485    -2520    -2533    -2543 
   -2555    -2552    -2548    -2570    -2570    -2529    -2508    -2517 
   -2513    -2490    -2489    -2527    -2573    -2593    -2606    -2620 
   -2619    -2608    -2583    -2532    -2471    -2448    -2477    -2512 
   -2511    -2500    -2504    -2489    -2452    -2436    -2434    -2413 
   -2389    -2400    -2450    -2509    -2532    -2520    -2511    -2498 
   -2471    -2457    -2454    -2435    -2419    -2427    -2454    -2484 
   -2490    -2490    -2502    -2501    -2471    -2462    -2498    -2529 
   -2525    -2515    -2523    -2532    -2524    -2520    -2531    -2528 
   -2502    -2494    -2517    -2517    -2497    -2506    -2536    -2552 
   -2570    -2585    -2579    -2563    -2540    -2500    -2469    -2461 
   -2454    -2452    -2452    -2452    -2473    -2492    -2481    -2454 
   -2400    -2330    -2311    -2340    -2358    -2374    -2420    -2473 
   -2513    -2536    -2531    -2501    -2466    -2435    -2415    -2389 
   -2373    -2407    -2465    -2501    -2519    -2539    -2558    -2566 
   -2562    -2546    -2539    -2556    -2585    -2610    -2628    -2632 
   -2635    -2629    -2598    -2558    -2521    -2497    -2501    -2513 
   -2511    -2493    -2471    -2461    -2466    -2455    -2411    -2377 
   -2400    -2436    -2430    -2404    -2393    -2390    -2390    -2396 
   -2403    -2412    -2442    -2493    -2529    -2540    -2556    -2567 
   -2544    -2515    -2515    -2527    -2506    -2489    -2502    -2486 
   -2415    -2371    -2384    -2397    -2384    -2361    -2366    -2407 
   -2444    -2470    -2506    -2524    -2501    -2471    -2474    -2494 
   -2496    -2496    -2532    -2579    -2593    -2593    -2629    -2678 
   -2693    -2674    -2664    -2675    -2655    -2590    -2544    -2540 
   -2513    -2455    -2409    -2382    -2374    -2385    -2396    -2400 
   -2400    -2400    -2434    -2500    -2547    -2566    -2596    -2604 
   -2552    -2485    -2438    -2408    -2396    -2425    -2511    -2613 
   -2675    -2704    -2739    -2756    -2710    -2641    -2577    -2481 
   -2394    -2386    -2420    -2432    -2425    -2428    -2440    -2439 
   -2419    -2412    -2435    -2465    -2485    -2500    -2482    -2430 
   -2401    -2416    -2439    -2459    -2486    -2497    -2477    -2446 
   -2423    -2400    -2376    -2405    -2488    -2544    -2542    -2478 
   -2388    -2366    -2412    -2420    -2385    -2361    -2369    -2423 
   -2492    -2520    -2523    -2546    -2585    -2598    -2579    -2550 
   -2519    -2500    -2496    -2485    -2474    -2478    -2508    -2555 
   -2578    -2569    -2565    -2571    -2556    -2517    -2470    -2446 
   -2466    -2500    -2512    -2505    -2492    -2477    -2475    -2482 
   -2481    -2478    -2470    -2451    -2436    -2444    -2466    -2471 
   -2461    -2459    -2479    -2493    -2478    -2462    -2452    -2421 
   -2400    -2439    -2512    -2558    -2559    -2544    -2529    -2496 
   -2451    -2440    -2474    -2517    -2548    -2570    -2600    -2628 
   -2617    -2562    -2506    -2486    -2489    -2481    -2474    -2494 
   -2531    -2563    -2581    -2574    -2559    -2558    -2565    -2566 
   -2556    -2540    -2532    -2538    -2532    -2496    -2448    -2416 
   -2419    -2443    -2477    -2525    -2565    -2574    -2559    -2502 
   -2405    -2334    -2331    -2363    -2389    -2407    -2435    -2481 
   -2513    -2527    -2532    -2517    -2485    -2461    -2451    -2457 
   -2489    -2519    -2550    -2600    -2612    -2554    -2492    -2482 
   -2512    -2538    -2539    -2536    -2536    -2512    -2484    -2486 
   -2485    -2458    -2446    -2471    -2509    -2542    -2567    -2578 
   -2571    -2543    -2493    -2457    -2458    -2469    -2471    -2484 
   -2496    -2494    -2493    -2509    -2535    -2547    -2520    -2481 
   -2462    -2452    -2444    -2447    -2448    -2419    -2376    -2363 
   -2394    -2427    -2439    -2458    -2494    -2532    -2556    -2570 
   -2566    -2527    -2461    -2412    -2401    -2423    -2454    -2462 
   -2454    -2467    -2508    -2539    -2515    -2457    -2417    -2407 
   -2420    -2459    -2504    -2531    -2528    -2494    -2475    -2489 
   -2496    -2496    -2529    -2570    -2574    -2550    -2532    -2529 
   -2513    -2470    -2439    -2431    -2412    -2371    -2351    -2396 
   -2470    -2494    -2475    -2448    -2427    -2428    -2432    -2423 
   -2436    -2461    -2462    -2469    -2488    -2493    -2477    -2457 
   -2465    -2504    -2533    -2556    -2598    -2637    -2641    -2612 
   -2574    -2540    -2513    -2489    -2482    -2508    -2547    -2585 
   -2604    -2596    -2586    -2577    -2563    -2565    -2569    -2536 
   -2477    -2431    -2424    -2450    -2485    -2513    -2533    -2540 
   -2538    -2539    -2543    -2533    -2516    -2512    -2508    -2466 
   -2407    -2385    -2397    -2401    -2403    -2430    -2446    -2424 
   -2413    -2442    -2461    -2438    -2396    -2381    -2419    -2481 
   -2516    -2513    -2519    -2556    -2594    -2590    -2551    -2513 
   -2473    -2423    -2405    -2424    -2458    -2505    -2542    -2552 
   -2552    -2552    -2559    -2563    -2533    -2473    -2434    -2452 
   -2492    -2504    -2504    -2523    -2540    -2505    -2448    -2435 
   -2458    -2496    -2536    -2563    -2570    -2571    -2592    -2624 
   -2624    -2600    -2594    -2605    -2598    -2569    -2524    -2486 
   -2471    -2459    -2446    -2443    -2444    -2450    -2461    -2457 
   -2427    -2392    -2363    -2344    -2332    -2339    -2381    -2423 
   -2436    -2444    -2452    -2454    -2444    -2419    -2392    -2370 
   -2346    -2357    -2419    -2470    -2488    -2502    -2509    -2500 
   -2504    -2532    -2556    -2570    -2566    -2538    -2517    -2517 
   -2524    -2540    -2559    -2558    -2536    -2521    -2529    -2543 
   -2555    -2560    -2546    -2529    -2529    -2536    -2548    -2562 
   -2565    -2552    -2535    -2502    -2462    -2452    -2471    -2504 
   -2539    -2565    -2582    -2592    -2559    -2493    -2438    -2411 
   -2398    -2394    -2419    -2465    -2490    -2488    -2479    -2473 
   -2467    -2475    -2479    -2463    -2448    -2450    -2461    -2488 
   -2512    -2496    -2450    -2431    -2455    -2493    -2523    -2554 
   -2587    -2597    -2560    -2498    -2458    -2442    -2444    -2469 
   -2492    -2501    -2504    -2490    -2474    -2489    -2515    -2528 
   -2536    -2536    -2540    -2555    -2563    -2558    -2531    -2494 
   -2466    -2440    -2425    -2439    -2452    -2463    -2500    -2527 
   -2519    -2502    -2486    -2471    -2459    -2434    -2412    -2417 
   -2423    -2425    -2438    -2451    -2452    -2443    -2432    -2416 
   -2384    -2362    -2388    -2443    -2494    -2536    -2569    -2583 
   -2581    -2573    -2571    -2556    -2519    -2492    -2493    -2504 
   -2516    -2511    -2485    -2471    -2478    -2485    -2467    -2424 
   -2388    -2384    -2404    -2432    -2455    -2461    -2446    -2431 
   -2440    -2469    -2501    -2524    -2525    -2516    -2508    -2502 
   -2519    -2565    -2600    -2602    -2583    -2552    -2523    -2513 
   -2515    -2517    -2532    -2556    -2567    -2574    -2593    -2596 
   -2577    -2558    -2520    -2454    -2407    -2411    -2442    -2466 
   -2486    -2515    -2532    -2527    -2525    -2528    -2493    -2430 
   -2398    -2405    -2396    -2363    -2349    -2376    -2423    -2466 
   -2504    -2531    -2533    -2527    -2546    -2566    -2542    -2500 
   -2481    -2477    -2481    -2497    -2528    -2571    -2612    -2640 
   -2633    -2574    -2515    -2497    -2490    -2485    -2479    -2465 
   -2459    -2479    -2500    -2506    -2512    -2502    -2470    -2447 
   -2447    -2450    -2439    -2446    -2500    -2571    -2602    -2573 
   -2517    -2475    -2444    -2411    -2371    -2347    -2363    -2408 
