Origin Time       2025/03/28 03:50:00
Lat.              35.403
Long.             140.360
Depth. (km)       54
Mag.              4.4
Station Code      TCGH06
Station Lat.      36.4458
Station Long.     139.9509
Station Height(m) 70
Record Time       2025/03/28 03:51:12
Sampling Freq(Hz) 100Hz
Duration Time(s)  120
Dir.              4
Scale Factor      3920(gal)/6170801
Max. Acc. (gal)   0.563
Last Correction   2025/03/28 03:50:57
Memo.             
[...]
    7101     7140     7149     7143     7128     7113     7096     7062 
    7038     7058     7095     7109     7106     7117     7132     7122 
    7116     7144     7175     7172     7157     7166     7166     7129 
    7100     7110     7128     7132     7117     7095     7081     7034 
    6964     6971     7033     7078     7125     7186     7229     7233 
    7200     7158     7123     7091     7045     6995     7009     7066 
    7079     7072     7112     7150     7126     7095     7099     7115 
    7136     7142     7137     7170     7194     7157     7138     7165 
    7181     7174     7142     7100     7092     7099     7069     7029 
    7019     7034     7035     7030     7051     7064     7052     7088 
    7164     7191     7173     7170     7171     7142     7101     7083 
    7081     7076     7087     7115     7110     7094     7109     7131 
    7149     7150     7115     7101     7112     7092     7083     7109 
    7135     7174     7201     7202     7216     7216     7186     7175 
    7153     7070     6983     6922     6881     6900     6972     7064 
    7165     7241     7288     7331     7337     7297     7252     7190 
    7104     7021     6960     6958     7007     7035     7017     7002 
    7031     7085     7102     7121     7197     7248     7219     7158 
    7097     7055     7026     7004     7031     7077     7067     7063 
    7108     7137     7141     7149     7161     7170     7157     7126 
    7097     7051     7003     6979     6965     7008     7134     7251 
    7311     7340     7305     7203     7104     7038     6999     6990 
    7003     7016     7048     7096     7106     7086     7080     7087 
    7111     7155     7167     7147     7158     7178     7185     7212 
    7191     7073     6973     6979     7029     7047     7045     7070 
    7123     7169     7192     7215     7257     7282     7239     7160 
    7119     7076     6984     6940     6999     7091     7148     7157 
    7155     7149     7106     7050     7025     7063     7137     7161 
    7169     7203     7174     7081     7020     7002     7013     7051 
    7104     7155     7177     7193     7214     7185     7138     7113 
    7058     7018     7046     7084     7112     7118     7111     7145 
    7157     7101     7079     7113     7119     7086     7067     7085 
    7093     7061     7050     7066     7068     7078     7096     7122 
    7173     7187     7183     7228     7239     7179     7141     7119 
    7093     7074     7027     6994     7027     7059     7081     7147 
    7216     7225     7179     7130     7122     7116     7083     7090 
    7148     7176     7158     7124     7088     7076     7081     7075 
    7069     7070     7084     7123     7147     7147     7148     7123 
    7093     7091     7081     7088     7111     7079     7067     7115 
    7115     7087     7105     7131     7162     7196     7179     7145 
    7129     7099     7072     7058     7042     7052     7082     7102 
    7112     7112     7122     7141     7139     7142     7143     7113 
    7090     7065     7012     6989     7002     7002     7019     7077 
    7143     7203     7244     7262     7270     7249     7219     7216 
    7200     7153     7101     7027     6963     6960     6983     7011 
    7059     7106     7131     7144     7157     7167     7174     7176 
    7168     7153     7139     7133     7116     7074     7039     7033 
    7036     7046     7088     7143     7157     7138     7146     7144 
    7080     7014     7007     7029     7071     7120     7137     7166 
    7237     7262     7219     7164     7106     7052     7006     6971 
    6959     6957     6961     7011     7120     7224     7252     7251 
    7281     7285     7227     7148     7084     7056     7047     7053 
    7106     7180     7213     7203     7188     7184     7140     7047 
    6973     6923     6880     6889     6937     7002     7101     7183 
    7218     7237     7219     7169     7142     7113     7055     7029 
    7046     7055     7072     7124     7156     7148     7135     7123 
    7132     7165     7190     7219     7248     7227     7169     7128 
    7102     7048     6996     7015     7049     7031     7023     7057 
    7090     7110     7113     7120     7164     7201     7180     7141 
    7122     7112     7081     7039     7023     7035     7070     7141 
    7202     7208     7192     7187     7178     7156     7138     7141 
    7165     7162     7112     7066     7056     7032     6984     6989 
    7056     7092     7087     7109     7153     7171     7150     7116 
    7091     7056     7006     6966     6947     6950     6978     7013 
    7060     7128     7188     7245     7308     7331     7294     7245 
    7218     7184     7101     6995     6916     6873     6872     6920 
    7020     7157     7283     7342     7328     7276     7191     7076 
    6991     6985     7028     7061     7067     7080     7115     7155 
    7188     7190     7180     7181     7179     7168     7130     7066 
    7018     6969     6929     6956     7019     7095     7213     7324 
    7365     7340     7283     7226     7170     7134     7119     7084 
    7051     7041     7029     7031     7029     7018     7046     7065 
    7055     7076     7094     7084     7095     7107     7093     7082 
    7101     7145     7169     7138     7096     7069     7027     6991 
    7002     7027     7060     7137     7226     7298     7353     7327 
    7228     7140     7057     6996     7005     7054     7113     7173 
    7207     7207     7172     7115     7069     7037     7006     6988 
    7007     7078     7167     7205     7182     7152     7129     7101 
    7063     7019     7022     7076     7108     7119     7131     7111 
    7077     7065     7063     7093     7159     7225     7284     7315 
    7276     7217     7184     7130     7046     6976     6925     6906 
    6929     6971     7034     7099     7134     7188     7261     7272 
    7230     7191     7164     7131     7080     7036     7027     7033 
    7034     7054     7102     7115     7071     7060     7135     7205 
    7206     7187     7167     7130     7114     7121     7127     7154 
    7184     7174     7147     7097     7007     6931     6892     6888 
    6939     7017     7116     7256     7342     7310     7245     7202 
    7150     7090     7059     7072     7093     7088     7065     7050 
    7057     7078     7096     7110     7140     7167     7154     7123 
    7119     7129     7105     7057     7041     7070     7094     7085 
    7073     7075     7085     7095     7089     7083     7102     7150 
    7204     7188     7112     7064     7053     7061     7108     7194 
    7270     7279     7233     7192     7158     7127     7107     7080 
    7073     7101     7107     7076     7053     7070     7130     7190 
    7227     7235     7179     7071     6972     6885     6832     6861 
    6947     7037     7123     7193     7247     7293     7299     7230 
    7110     7035     7053     7075     7047     7055     7128     7178 
    7180     7182     7170     7109     7041     7010     7005     7023 
    7079     7139     7156     7170     7199     7181     7138     7142 
    7155     7137     7114     7079     7016     6949     6928     6969 
    7024     7071     7141     7215     7264     7281     7263     7250 
    7240     7179     7107     7062     7024     7011     7017     7031 
    7085     7145     7146     7102     7049     7000     6962     6948 
    6975     7021     7064     7119     7173     7181     7182     7207 
    7214     7208     7216     7228     7244     7242     7190     7112 
    7043     6984     6943     6926     6946     7022     7120     7187 
    7214     7216     7206     7175     7108     7045     7033     7048 
    7056     7064     7087     7094     7059     7018     7012     7042 
    7090     7126     7160     7214     7240     7238     7261     7267 
    7220     7176     7136     7075     7022     6978     6933     6917 
    6934     6971     7039     7129     7215     7274     7279     7233 
    7174     7127     7091     7061     7054     7091     7149     7203 
    7242     7234     7191     7147     7097     7056     7035     7027 
    7058     7113     7147     7176     7196     7177     7147     7127 
    7128     7158     7165     7145     7151     7153     7092     7008 
    6952     6914     6878     6859     6880     6914     6916     6943 
    7050     7164     7228     7280     7328     7344     7310     7234 
    7186     7190     7184     7168     7175     7154     7093     7029 
    6959     6924     6956     7000     7042     7105     7154     7185 
    7213     7221     7199     7148     7089     7061     7035     6987 
    6966     6990     7037     7109     7181     7229     7288     7337 
    7312     7257     7231     7196     7125     7056     7018     7019 
    7044     7055     7049     7058     7080     7091     7096     7097 
    7088     7092     7112     7109     7083     7057     7024     7008 
    7040     7091     7139     7181     7203     7217     7232     7235 
    7254     7285     7265     7206     7146     7076     7009     6969 
    6943     6932     6949     6986     7023     7057     7080     7090 
    7104     7111     7089     7083     7130     7190     7212     7195 
    7161     7107     7029     6971     6960     6993     7061     7131 
    7198     7274     7311     7279     7216     7147     7088     7051 
    7027     7026     7071     7133     7152     7125     7123     7158 
    7176     7187     7214     7225     7208     7182     7170     7182 
    7186     7168     7133     7073     6978     6865     6792     6797 
    6846     6909     7007     7139     7266     7349     7382     7406 
    7421     7367     7258     7163     7089     7013     6961     6960 
    6991     7023     7043     7034     6999     6973     6964     6960 
    6972     7016     7082     7148     7194     7214     7209     7182 
    7172     7198     7198     7145     7105     7094     7084     7081 
    7080     7077     7090     7114     7142     7171     7194     7232 
    7305     7375     7392     7353     7279     7159     6992     6831 
    6740     6729     6764     6829     6913     6992     7062     7120 
    7169     7223     7264     7272     7285     7320     7333     7285 
    7202     7117     7050     7018     7013     7026     7063     7116 
    7165     7178     7137     7095     7085     7072     7049     7051 
    7066     7070     7065     7029     6969     6936     6935     6953 
    6993     7051     7131     7181     7146     7096     7079     7045 
    7022     7068     7155     7236     7309     7367     7377     7344 
    7309     7258     7173     7081     6982     6900     6870     6846 
    6826     6855     6908     6983     7099     7215     7326     7419 
    7446     7428     7384     7282     7157     7070     7035     7025 
    7011     7033     7098     7108     7061     7043     7044     7018 
    6987     7001     7084     7187     7237     7268     7303     7271 
    7185     7099     7020     6968     6952     6957     6980     7015 
    7062     7121     7165     7177     7151     7111     7126     7174 
    7197     7222     7269     7304     7286     7195     7095     7030 
    6957     6888     6879     6925     7009     7117     7195     7231 
    7249     7243     7221     7211     7210     7212     7198     7148 
    7081     6998     6904     6842     6828     6857     6937     7042 
    7119     7159     7193     7223     7224     7197     7161     7126 
    7091     7050     7003     6940     6867     6831     6875     6955 
    7001     7036     7086     7105     7093     7094     7106     7122 
    7147     7169     7200     7252     7300     7337     7365     7384 
    7367     7268     7127     7033     6999     7005     7070     7180 
    7291     7372     7408     7388     7309     7198     7100     7032 
    6978     6941     6940     6984     7036     7058     7066     7090 
    7107     7100     7102     7153     7225     7257     7235     7208 
    7180     7105     7015     6978     6975     6983     7028     7092 
    7133     7129     7084     7057     7078     7109     7135     7158 
    7164     7155     7112     7024     6951     6912     6868     6847 
    6859     6838     6779     6766     6843     6964     7088     7228 
    7386     7512     7588     7638     7675     7704     7726     7740 
    7761     7749     7641     7466     7297     7138     6969     6833 
    6776     6750     6707     6687     6704     6705     6675     6650 
    6642     6622     6587     6576     6587     6611     6669     6748 
    6820     6900     6991     7105     7272     7466     7641     7792 
    7899     7922     7850     7704     7515     7333     7177     7051 
    6988     6967     6925     6879     6856     6803     6729     6715 
    6756     6817     6904     7007     7117     7226     7305     7365 
    7410     7402     7333     7245     7171     7129     7120     7135 
    7159     7166     7133     7088     7080     7089     7108     7178 
    7286     7383     7426     7398     7356     7334     7268     7123 
    6969     6870     6830     6830     6854     6895     6928     6918 
    6879     6859     6865     6900     6974     7068     7154     7200 
    7202     7223     7273     7303     7331     7380     7404     7349 
    7207     7043     6921     6812     6708     6683     6738     6804 
    6837     6835     6831     6834     6842     6934     7144     7390 
    7633     7866     7997     7960     7802     7594     7364     7137 
    6968     6871     6814     6775     6743     6734     6808     6951 
    7087     7209     7321     7377     7364     7309     7248     7215 
    7183     7129     7111     7130     7126     7096     7053     7002 
    6958     6916     6870     6839     6830     6842     6869     6903 
    6960     7064     7185     7283     7368     7431     7425     7366 
    7284     7140     6940     6779     6708     6706     6753     6834 
    6944     7074     7176     7210     7203     7208     7240     7291 
    7360     7403     7370     7274     7132     6948     6788     6704 
    6702     6802     6973     7118     7229     7343     7420     7434 
    7416     7359     7273     7201     7137     7081     7076     7111 
    7143     7159     7136     7060     6998     6991     6997     7009 
    7063     7164     7304     7456     7580     7668     7686     7589 
    7416     7242     7110     7021     6954     6897     6860     6818 
    6749     6679     6626     6578     6544     6546     6595     6700 
    6876     7093     7285     7423     7504     7503     7439     7382 
    7357     7351     7362     7357     7285     7133     6936     6779 
    6717     6739     6853     7066     7323     7580     7781     7836 
    7738     7521     7190     6815     6498     6298     6234     6274 
    6402     6646     6953     7221     7416     7553     7646     7658 
    7571     7473     7410     7354     7329     7333     7286     7157 
    6985     6830     6750     6739     6778     6883     7010     7076 
    7083     7091     7138     7204     7239     7244     7255     7257 
    7225     7186     7152     7114     7072     7014     6948     6907 
    6931     7049     7220     7368     7505     7646     7715     7679 
    7578     7443     7288     7101     6888     6708     6584     6528 
    6544     6567     6570     6634     6768     6905     7026     7146 
    7268     7392     7467     7456     7411     7345     7230     7111 
    7019     6938     6885     6874     6912     7022     7143     7181 
    7143     7107     7101     7083     7035     6998     6981     6990 
    7039     7098     7163     7250     7321     7365     7395     7376 
    7322     7278     7251     7204     7086     6921     6788     6715 
    6708     6790     6932     7102     7266     7344     7342     7341 
    7307     7205     7124     7083     7050     7046     7070     7107 
    7129     7083     7005     6948     6896     6860     6863     6893 
    6945     7012     7113     7254     7386     7528     7720     7870 
    7909     7866     7707     7430     7151     6939     6794     6723 
    6696     6704     6754     6817     6881     6953     7025     7104 
    7191     7246     7243     7176     7093     7049     7010     6962 
    6964     7002     7021     7027     7030     7043     7102     7189 
    7264     7346     7428     7475     7513     7518     7413     7221 
    7017     6847     6727     6648     6634     6688     6747     6777 
    6784     6772     6769     6802     6888     7015     7138     7223 
    7279     7307     7312     7303     7272     7195     7093     7036 
    7037     7052     7051     7050     7094     7184     7269     7322 
    7353     7332     7230     7082     6954     6873     6821     6788 
    6803     6845     6859     6880     6978     7142     7314     7470 
    7615     7746     7824     7838     7812     7738     7596     7417 
    7227     7034     6846     6672     6540     6511     6620     6822 
    7047     7261     7451     7580     7598     7499     7331     7126 
    6905     6740     6709     6818     7000     7173     7304     7371 
    7326     7182     7014     6873     6770     6703     6673     6701 
    6790     6902     7017     7131     7193     7155     7047     6939 
    6870     6857     6923     7050     7194     7304     7350     7359 
    7351     7306     7253     7248     7272     7303     7378     7480 
    7534     7484     7322     7102     6875     6687     6632     6771 
    7022     7256     7428     7541     7577     7542     7461     7319 
    7122     6947     6829     6735     6681     6706     6777     6841 
    6880     6891     6889     6928     7037     7184     7349     7496 
    7532     7419     7232     7063     6930     6798     6687     6651 
    6691     6810     7013     7241     7426     7535     7568     7547 
    7459     7285     7089     6930     6797     6687     6616     6616 
    6726     6911     7109     7299     7446     7502     7469     7393 
    7341     7303     7228     7151     7107     7064     7042     7076 
    7131     7145     7087     6987     6896     6844     6872     7005 
    7193     7347     7425     7426     7361     7234     7065     6900 
    6789     6745     6736     6746     6801     6899     7009     7106 
    7178     7228     7252     7260     7290     7342     7375     7362 
    7320     7296     7298     7287     7258     7240     7239     7228 
    7180     7094     6998     6917     6851     6810     6808     6855 
    6929     6990     7026     7048     7042     7024     7039     7086 
    7152     7222     7253     7243     7236     7236     7228     7199 
    7150     7123     7120     7091     7064     7097     7176     7278 
    7388     7455     7449     7392     7276     7102     6932     6831 
    6816     6857     6920     7019     7160     7298     7396     7436 
    7416     7367     7310     7267     7253     7222     7161     7100 
    7020     6901     6764     6624     6511     6468     6507     6635 
    6848     7097     7330     7536     7690     7752     7703     7573 
    7423     7285     7157     7054     6976     6893     6793     6692 
    6589     6491     6444     6496     6641     6814     6962     7081 
    7166     7205     7213     7205     7175     7103     7008     6967 
