Origin Time       2025/03/28 03:50:00
Lat.              35.403
Long.             140.360
Depth. (km)       54
Mag.              4.4
Station Code      TCGH12
Station Lat.      36.6959
Station Long.     139.9842
Station Height(m) 162
Record Time       2025/03/28 03:51:20
Sampling Freq(Hz) 100Hz
Duration Time(s)  120
Dir.              6
Scale Factor      7845(gal)/8223790
Max. Acc. (gal)   0.255
Last Correction   2025/03/28 03:51:20
Memo.             
  -21438   -21362   -21266   -21188   -21155   -21177   -21243   -21307 
  -21321   -21269   -21178   -21123   -21165   -21293   -21379   -21309 
  -21186   -21189   -21290   -21331   -21289   -21244   -21240   -21265 
  -21267   -21222   -21200   -21259   -21334   -21351   -21327   -21297 
  -21274   -21254   -21257   -21274   -21262   -21243   -21255   -21265 
  -21240   -21212   -21196   -21204   -21230   -21239   -21273   -21344 
  -21348   -21265   -21192   -21172   -21211   -21296   -21352   -21343 
  -21304   -21242   -21180   -21178   -21217   -21251   -21267   -21258 
  -21244   -21242   -21274   -21336   -21327   -21266   -21257   -21257 
  -21242   -21267   -21296   -21282   -21249   -21235   -21261   -21298 
  -21304   -21281   -21281   -21312   -21307   -21253   -21199   -21176 
  -21207   -21263   -21293   -21288   -21234   -21165   -21177   -21278 
  -21362   -21367   -21308   -21211   -21162   -21228   -21342   -21400 
  -21359   -21232   -21103   -21076   -21163   -21297   -21393   -21401 
  -21309   -21174   -21115   -21157   -21232   -21342   -21466   -21473 
  -21311   -21093   -20993   -21111   -21352   -21496   -21423   -21209 
  -21038   -21046   -21185   -21311   -21386   -21431   -21411   -21308 
  -21199   -21155   -21161   -21207   -21280   -21316   -21296   -21228 
  -21182   -21222   -21267   -21263   -21274   -21328   -21371   -21319 
  -21204   -21184   -21281   -21379   -21390   -21311   -21228   -21192 
  -21181   -21208   -21234   -21212   -21224   -21321   -21384   -21328 
  -21254   -21242   -21220   -21169   -21185   -21276   -21316   -21262 
  -21208   -21184   -21181   -21267   -21400   -21415   -21276   -21126 
  -21103   -21205   -21335   -21413   -21394   -21258   -21109   -21089 
  -21163   -21244   -21328   -21369   -21325   -21246   -21151   -21092 
  -21205   -21413   -21448   -21343   -21297   -21277   -21234   -21247 
  -21308   -21336   -21311   -21243   -21157   -21104   -21147   -21267 
  -21355   -21357   -21313   -21281   -21262   -21250   -21271   -21317 
  -21335   -21330   -21300   -21228   -21180   -21193   -21215   -21220 
  -21208   -21174   -21172   -21232   -21315   -21362   -21354   -21316 
  -21280   -21242   -21228   -21266   -21319   -21300   -21192   -21118 
  -21163   -21239   -21242   -21220   -21249   -21319   -21362   -21330 
  -21282   -21297   -21342   -21335   -21271   -21203   -21163   -21165 
  -21205   -21278   -21344   -21335   -21246   -21178   -21174   -21192 
  -21219   -21266   -21328   -21362   -21334   -21297   -21300   -21301 
  -21258   -21213   -21247   -21327   -21334   -21244   -21166   -21203 
  -21297   -21305   -21228   -21182   -21196   -21236   -21284   -21325 
  -21357   -21358   -21323   -21284   -21239   -21177   -21153   -21196 
  -21255   -21297   -21292   -21234   -21170   -21126   -21143   -21284 
  -21433   -21378   -21168   -21061   -21161   -21334   -21443   -21415 
  -21282   -21195   -21213   -21270   -21316   -21334   -21297   -21234 
  -21192   -21151   -21123   -21173   -21270   -21317   -21280   -21205 
  -21192   -21297   -21421   -21420   -21321   -21236   -21188   -21173 
  -21230   -21344   -21413   -21342   -21184   -21109   -21180   -21297 
  -21362   -21344   -21269   -21220   -21263   -21343   -21379   -21359 
  -21290   -21236   -21259   -21266   -21203   -21180   -21208   -21222 
  -21234   -21251   -21267   -21294   -21294   -21246   -21262   -21401 
  -21485   -21385   -21217   -21112   -21080   -21124   -21223   -21290 
  -21298   -21257   -21168   -21130   -21223   -21334   -21378   -21409 
  -21385   -21273   -21199   -21238   -21335   -21397   -21388   -21254 
  -21066   -21055   -21199   -21301   -21338   -21288   -21138   -21045 
  -21122   -21288   -21420   -21393   -21201   -21072   -21154   -21340 
  -21471   -21446   -21267   -21123   -21159   -21300   -21354   -21281 
  -21199   -21151   -21157   -21239   -21317   -21335   -21305   -21251 
  -21203   -21172   -21173   -21235   -21348   -21423   -21386   -21292 
  -21224   -21195   -21215   -21293   -21340   -21282   -21197   -21207 
  -21312   -21401   -21379   -21257   -21150   -21177   -21284   -21334 
  -21292   -21199   -21153   -21226   -21325   -21331   -21288   -21257 
  -21247   -21280   -21321   -21312   -21253   -21211   -21239   -21297 
  -21288   -21196   -21157   -21242   -21344   -21361   -21281   -21169 
  -21158   -21281   -21350   -21258   -21153   -21139   -21190   -21274 
  -21303   -21255   -21203   -21146   -21124   -21226   -21369   -21419 
  -21385   -21296   -21188   -21177   -21263   -21334   -21352   -21308 
  -21228   -21212   -21271   -21336   -21324   -21228   -21166   -21217 
  -21336   -21408   -21378   -21289   -21208   -21185   -21215   -21269 
  -21340   -21362   -21259   -21107   -21039   -21093   -21240   -21354 
  -21324   -21226   -21168   -21173   -21223   -21311   -21405   -21420 
  -21332   -21239   -21203   -21207   -21231   -21278   -21340   -21365 
  -21311   -21227   -21173   -21174   -21231   -21297   -21315   -21274 
  -21205   -21176   -21223   -21327   -21429   -21425   -21308   -21216 
  -21209   -21246   -21282   -21265   -21212   -21193   -21242   -21335 
  -21371   -21307   -21228   -21184   -21163   -21188   -21249   -21296 
  -21304   -21267   -21220   -21213   -21238   -21255   -21222   -21128 
  -21068   -21115   -21217   -21293   -21319   -21303   -21235   -21163 
  -21185   -21311   -21440   -21473   -21401   -21289   -21211   -21238 
  -21359   -21420   -21325   -21184   -21150   -21253   -21370   -21382 
  -21280   -21120   -21038   -21104   -21207   -21265   -21315   -21350 
  -21351   -21331   -21307   -21317   -21328   -21249   -21119   -21065 
  -21120   -21228   -21331   -21365   -21317   -21253   -21216   -21213 
  -21246   -21296   -21343   -21373   -21385   -21350   -21239   -21143 
  -21170   -21282   -21373   -21336   -21172   -21061   -21122   -21266 
  -21402   -21463   -21375   -21190   -21060   -21101   -21300   -21482 
  -21494   -21344   -21165   -21103   -21195   -21328   -21378   -21347 
  -21292   -21223   -21150   -21162   -21285   -21375   -21351   -21263 
  -21146   -21064   -21101   -21228   -21343   -21362   -21293   -21223 
  -21201   -21226   -21294   -21386   -21446   -21431   -21332   -21193 
  -21109   -21142   -21240   -21311   -21316   -21258   -21147   -21047 
  -21043   -21161   -21324   -21427   -21419   -21312   -21173   -21091 
  -21112   -21213   -21311   -21344   -21319   -21266   -21232   -21242 
  -21265   -21276   -21262   -21220   -21200   -21235   -21296   -21336 
  -21336   -21300   -21257   -21239   -21265   -21305   -21320   -21305 
  -21261   -21228   -21269   -21344   -21386   -21388   -21351   -21286 
  -21227   -21207   -21246   -21323   -21392   -21398   -21319   -21203 
  -21145   -21174   -21255   -21315   -21317   -21281   -21226   -21181 
  -21193   -21254   -21308   -21304   -21249   -21190   -21154   -21173 
  -21235   -21276   -21257   -21197   -21147   -21158   -21235   -21325 
  -21343   -21278   -21224   -21232   -21277   -21324   -21330   -21281 
  -21223   -21205   -21263   -21352   -21367   -21296   -21203   -21155 
  -21176   -21205   -21203   -21190   -21196   -21205   -21217   -21227 
  -21220   -21203   -21186   -21193   -21251   -21331   -21359   -21328 
  -21292   -21288   -21327   -21371   -21363   -21320   -21307   -21309 
  -21300   -21297   -21298   -21286   -21269   -21240   -21223   -21231 
  -21230   -21203   -21182   -21196   -21222   -21238   -21231   -21209 
  -21226   -21280   -21304   -21286   -21255   -21244   -21277   -21317 
  -21336   -21328   -21276   -21219   -21222   -21274   -21324   -21342 
  -21308   -21227   -21154   -21162   -21232   -21301   -21347   -21363 
  -21338   -21289   -21257   -21244   -21249   -21263   -21266   -21239 
  -21209   -21199   -21196   -21203   -21222   -21235   -21247   -21255 
  -21263   -21296   -21332   -21331   -21289   -21234   -21204   -21227 
  -21259   -21259   -21231   -21195   -21192   -21255   -21338   -21375 
  -21351   -21297   -21273   -21300   -21348   -21371   -21335   -21253 
  -21184   -21169   -21199   -21232   -21249   -21227   -21190   -21192 
  -21226   -21263   -21286   -21271   -21235   -21222   -21242   -21285 
  -21317   -21315   -21290   -21255   -21212   -21193   -21223   -21294 
  -21355   -21357   -21300   -21217   -21174   -21215   -21273   -21281 
  -21253   -21215   -21174   -21151   -21180   -21258   -21332   -21342 
  -21288   -21212   -21168   -21180   -21226   -21289   -21352   -21377 
  -21331   -21240   -21168   -21161   -21216   -21290   -21315   -21271 
  -21220   -21209   -21230   -21273   -21328   -21357   -21332   -21290 
  -21266   -21262   -21293   -21343   -21351   -21312   -21274   -21263 
  -21274   -21280   -21280   -21288   -21309   -21350   -21358   -21308 
  -21250   -21207   -21170   -21165   -21200   -21243   -21240   -21186 
  -21122   -21080   -21116   -21238   -21339   -21352   -21303   -21231 
  -21185   -21192   -21235   -21286   -21308   -21277   -21222   -21190 
  -21220   -21300   -21351   -21328   -21253   -21178   -21177   -21262 
  -21354   -21385   -21346   -21267   -21195   -21168   -21213   -21296 
  -21324   -21278   -21215   -21192   -21222   -21285   -21338   -21338 
  -21304   -21271   -21246   -21261   -21324   -21374   -21371   -21338 
  -21304   -21297   -21325   -21354   -21332   -21274   -21243   -21249 
  -21259   -21253   -21219   -21172   -21145   -21161   -21219   -21282 
  -21293   -21262   -21228   -21209   -21219   -21232   -21231   -21217 
  -21207   -21224   -21259   -21284   -21296   -21297   -21293   -21294 
  -21285   -21247   -21192   -21154   -21166   -21220   -21289   -21335 
  -21315   -21242   -21186   -21211   -21309   -21393   -21377   -21280 
  -21181   -21150   -21207   -21308   -21374   -21347   -21246   -21162 
  -21159   -21238   -21348   -21404   -21359   -21265   -21192   -21189 
  -21249   -21301   -21274   -21174   -21084   -21068   -21130   -21251 
  -21363   -21389   -21347   -21286   -21246   -21274   -21350   -21394 
  -21361   -21281   -21205   -21168   -21195   -21261   -21307   -21316 
  -21304   -21273   -21258   -21271   -21278   -21258   -21230   -21217 
  -21228   -21250   -21265   -21253   -21219   -21199   -21212   -21266 
  -21339   -21367   -21332   -21276   -21247   -21285   -21358   -21382 
  -21342   -21267   -21184   -21139   -21146   -21168   -21186   -21201 
  -21205   -21211   -21223   -21232   -21246   -21251   -21232   -21208 
  -21196   -21190   -21203   -21238   -21284   -21323   -21335   -21321 
  -21294   -21258   -21215   -21190   -21196   -21217   -21262   -21320 
  -21342   -21313   -21288   -21298   -21332   -21370   -21394   -21389 
  -21382   -21369   -21320   -21282   -21301   -21332   -21313   -21257 
  -21203   -21166   -21161   -21200   -21238   -21242   -21228   -21195 
  -21138   -21112   -21147   -21212   -21269   -21296   -21274   -21239 
  -21230   -21228   -21239   -21300   -21388   -21431   -21411   -21340 
  -21255   -21224   -21267   -21319   -21317   -21276   -21230   -21184 
  -21159   -21189   -21259   -21319   -21332   -21290   -21232   -21208 
  -21232   -21277   -21300   -21303   -21294   -21261   -21213   -21188 
  -21199   -21239   -21285   -21296   -21269   -21236   -21226   -21249 
  -21285   -21301   -21281   -21240   -21216   -21232   -21266   -21285 
  -21285   -21282   -21282   -21267   -21249   -21236   -21226   -21219 
  -21222   -21232   -21257   -21273   -21255   -21222   -21204   -21227 
  -21277   -21303   -21286   -21251   -21222   -21216   -21236   -21270 
  -21303   -21319   -21315   -21292   -21263   -21271   -21308   -21324 
  -21316   -21292   -21250   -21220   -21224   -21246   -21266   -21273 
  -21263   -21251   -21259   -21277   -21277   -21244   -21181   -21134 
  -21149   -21215   -21300   -21367   -21381   -21352   -21316   -21293 
  -21281   -21265   -21249   -21239   -21236   -21261   -21297   -21311 
  -21304   -21290   -21273   -21251   -21228   -21223   -21230   -21232 
  -21228   -21203   -21168   -21169   -21215   -21282   -21335   -21357 
  -21351   -21321   -21274   -21253   -21266   -21284   -21301   -21317 
  -21311   -21271   -21234   -21234   -21258   -21277   -21277   -21251 
  -21226   -21220   -21217   -21201   -21182   -21199   -21243   -21265 
  -21238   -21192   -21159   -21163   -21201   -21247   -21271   -21270 
  -21249   -21220   -21217   -21261   -21321   -21362   -21362   -21335 
  -21325   -21338   -21354   -21363   -21336   -21280   -21247   -21249 
  -21254   -21262   -21288   -21304   -21284   -21255   -21238   -21226 
  -21238   -21261   -21257   -21243   -21238   -21235   -21253   -21277 
  -21277   -21261   -21238   -21211   -21203   -21224   -21255   -21258 
  -21222   -21192   -21222   -21309   -21388   -21384   -21303   -21211 
  -21169   -21200   -21269   -21312   -21300   -21242   -21178   -21165 
  -21207   -21270   -21307   -21282   -21226   -21196   -21216   -21267 
  -21312   -21332   -21328   -21307   -21293   -21300   -21312   -21320 
  -21312   -21288   -21262   -21235   -21217   -21228   -21254   -21289 
  -21321   -21312   -21261   -21204   -21165   -21165   -21213   -21269 
  -21285   -21273   -21261   -21259   -21270   -21285   -21284   -21257 
  -21215   -21177   -21168   -21190   -21226   -21253   -21257   -21246 
  -21231   -21220   -21226   -21240   -21244   -21243   -21234   -21203 
  -21197   -21243   -21313   -21369   -21378   -21343   -21304   -21307 
  -21343   -21378   -21408   -21423   -21396   -21342   -21293   -21258 
  -21239   -21228   -21219   -21211   -21204   -21203   -21212   -21208 
  -21190   -21177   -21165   -21165   -21186   -21207   -21196   -21176 
  -21193   -21240   -21285   -21309   -21293   -21250   -21227   -21231 
  -21251   -21289   -21325   -21336   -21315   -21289   -21285   -21288 
  -21274   -21255   -21262   -21289   -21311   -21308   -21277   -21217 
  -21151   -21115   -21126   -21176   -21230   -21244   -21224   -21224 
  -21269   -21330   -21374   -21385   -21352   -21298   -21273   -21288 
  -21316   -21347   -21355   -21309   -21238   -21203   -21235   -21293 
  -21313   -21294   -21266   -21247   -21246   -21262   -21285   -21297 
  -21273   -21205   -21126   -21085   -21123   -21219   -21307   -21335 
  -21311   -21274   -21253   -21262   -21297   -21336   -21365   -21355 
  -21290   -21243   -21267   -21313   -21343   -21350   -21324   -21289 
  -21257   -21236   -21239   -21277   -21347   -21390   -21340   -21219 
  -21095   -21034   -21060   -21138   -21236   -21317   -21331   -21292 
  -21250   -21234   -21240   -21240   -21224   -21211   -21212   -21253 
  -21321   -21382   -21411   -21365   -21230   -21085   -21024   -21076 
  -21188   -21271   -21280   -21235   -21208   -21243   -21294   -21300 
  -21285   -21315   -21354   -21334   -21253   -21151   -21088   -21109 
  -21196   -21300   -21398   -21447   -21417   -21342   -21289   -21280 
  -21286   -21289   -21273   -21246   -21239   -21262   -21284   -21286 
  -21281   -21261   -21230   -21201   -21192   -21208   -21222   -21219 
  -21238   -21296   -21362   -21394   -21352   -21259   -21180   -21153 
  -21174   -21215   -21235   -21224   -21208   -21227   -21276   -21304 
  -21284   -21226   -21174   -21178   -21231   -21301   -21365   -21382 
  -21362   -21342   -21334   -21332   -21324   -21282   -21207   -21132 
  -21105   -21147   -21236   -21315   -21323   -21263   -21201   -21184 
  -21217   -21280   -21328   -21357   -21369   -21361   -21344   -21335 
  -21328   -21327   -21316   -21276   -21227   -21196   -21193   -21223 
  -21273   -21315   -21311   -21258   -21186   -21150   -21193   -21280 
  -21321   -21304   -21265   -21226   -21190   -21177   -21188   -21212 
  -21244   -21285   -21308   -21296   -21270   -21243   -21227   -21239 
  -21286   -21335   -21347   -21313   -21269   -21236   -21227   -21261 
  -21316   -21342   -21334   -21311   -21271   -21227   -21212   -21246 
  -21300   -21339   -21335   -21270   -21176   -21115   -21135   -21213 
  -21284   -21321   -21311   -21261   -21234   -21255   -21296   -21313 
  -21284   -21223   -21170   -21162   -21205   -21271   -21327   -21347 
  -21313   -21255   -21223   -21217   -21238   -21266   -21270   -21266 
  -21261   -21253   -21266   -21293   -21282   -21223   -21154   -21130 
  -21172   -21251   -21323   -21340   -21304   -21242   -21203   -21222 
  -21285   -21320   -21296   -21240   -21200   -21223   -21297   -21340 
  -21290   -21197   -21165   -21228   -21323   -21382   -21382   -21338 
  -21285   -21266   -21293   -21327   -21303   -21220   -21142   -21130 
  -21199   -21288   -21316   -21262   -21176   -21119   -21111   -21146 
  -21222   -21305   -21352   -21348   -21290   -21209   -21177   -21236 
  -21335   -21382   -21339   -21234   -21138   -21131   -21217   -21325 
  -21398   -21398   -21307   -21176   -21104   -21151   -21266   -21350 
  -21339   -21257   -21196   -21215   -21274   -21332   -21370   -21365 
  -21320   -21285   -21296   -21339   -21374   -21347   -21259   -21195 
  -21203   -21242   -21270   -21286   -21292   -21282   -21266   -21255 
  -21258   -21271   -21285   -21290   -21284   -21267   -21255   -21238 
  -21211   -21197   -21204   -21212   -21215   -21209   -21196   -21188 
  -21209   -21242   -21255   -21258   -21269   -21276   -21259   -21224 
  -21212   -21250   -21308   -21334   -21308   -21261   -21242   -21254 
  -21257   -21249   -21255   -21281   -21312   -21320   -21307   -21292 
  -21271   -21247   -21226   -21219   -21247   -21293   -21303   -21271 
  -21243   -21242   -21259   -21273   -21277   -21261   -21226   -21188 
  -21165   -21193   -21277   -21366   -21404   -21361   -21267   -21197 
  -21195   -21253   -21327   -21365   -21348   -21300   -21267   -21276 
  -21304   -21327   -21334   -21292   -21201   -21127   -21119   -21188 
  -21298   -21381   -21381   -21300   -21195   -21123   -21101   -21149 
  -21230   -21267   -21257   -21213   -21154   -21146   -21212   -21294 
  -21343   -21334   -21278   -21209   -21162   -21168   -21222   -21273 
  -21274   -21236   -21215   -21234   -21304   -21402   -21451   -21405 
  -21323   -21258   -21239   -21273   -21327   -21336   -21277   -21201 
  -21172   -21197   -21258   -21303   -21280   -21213   -21159   -21168 
  -21262   -21367   -21398   -21362   -21298   -21255   -21270   -21309 
  -21313   -21270   -21222   -21192   -21196   -21255   -21317   -21313 
  -21261   -21209   -21190   -21213   -21244   -21263   -21266   -21258 
  -21259   -21270   -21282   -21304   -21319   -21296   -21240   -21184 
  -21181   -21235   -21292   -21307   -21271   -21220   -21193   -21203 
  -21236   -21269   -21277   -21265   -21244   -21242   -21277   -21328 
  -21359   -21342   -21262   -21186   -21186   -21242   -21316   -21371 
  -21357   -21281   -21203   -21182   -21230   -21311   -21378   -21388 
  -21319   -21220   -21169   -21195   -21267   -21339   -21366   -21315 
  -21213   -21130   -21093   -21128   -21217   -21290   -21301   -21254 
  -21199   -21195   -21234   -21255   -21232   -21188   -21169   -21200 
  -21246   -21271   -21270   -21255   -21262   -21304   -21352   -21369 
  -21335   -21273   -21227   -21235   -21298   -21358   -21354   -21303 
  -21257   -21246   -21265   -21273   -21230   -21169   -21158   -21215 
  -21286   -21308   -21254   -21169   -21108   -21104   -21145   -21192 
  -21215   -21216   -21234   -21273   -21323   -21367   -21369   -21311 
