Origin Time       2025/03/28 03:50:00
Lat.              35.403
Long.             140.360
Depth. (km)       54
Mag.              4.4
Station Code      TCGH15
Station Lat.      36.5595
Station Long.     139.8637
Station Height(m) 125
Record Time       2025/03/28 03:51:17
Sampling Freq(Hz) 100Hz
Duration Time(s)  120
Dir.              6
Scale Factor      7845(gal)/8223790
Max. Acc. (gal)   0.372
Last Correction   2025/03/28 03:51:18
Memo.             
    2887     2837     2690     2558     2521     2575     2720     2884 
    2944     2899     2795     2671     2590     2570     2614     2709 
    2799     2882     2945     2924     2825     2718     2628     2542 
    2470     2500     2682     2899     3005     2965     2845     2727 
    2640     2604     2648     2735     2809     2874     2909     2841 
    2682     2535     2477     2515     2648     2841     2967     2965 
    2897     2770     2613     2539     2571     2685     2863     2995 
    3003     2907     2733     2570     2504     2536     2651     2781 
    2824     2760     2667     2641     2709     2808     2856     2810 
    2724     2694     2739     2814     2875     2870     2805     2727 
    2667     2647     2639     2629     2670     2752     2820     2860 
    2855     2805     2732     2659     2655     2737     2816     2837 
    2789     2712     2685     2675     2639     2601     2593     2644 
    2755     2874     2934     2883     2766     2677     2644     2682 
    2775     2828     2795     2717     2636     2617     2679     2789 
    2895     2909     2814     2716     2648     2601     2614     2702 
    2824     2899     2884     2814     2706     2594     2575     2631 
    2690     2774     2862     2868     2789     2694     2646     2628 
    2632     2685     2751     2806     2848     2833     2771     2683 
    2585     2575     2686     2802     2871     2895     2857     2763 
    2654     2609     2662     2759     2867     2940     2921     2810 
    2659     2569     2594     2671     2760     2866     2903     2813 
    2668     2563     2531     2570     2681     2813     2893     2913 
    2875     2770     2650     2596     2614     2666     2739     2840 
    2914     2884     2801     2733     2675     2643     2674     2749 
    2839     2872     2805     2697     2600     2540     2554     2655 
    2808     2926     2961     2926     2822     2693     2625     2623 
    2664     2728     2760     2766     2781     2782     2755     2709 
    2662     2651     2668     2706     2786     2841     2816     2755 
    2683     2612     2590     2646     2762     2874     2909     2862 
    2748     2620     2559     2597     2712     2832     2883     2855 
    2756     2644     2610     2663     2760     2867     2913     2868 
    2759     2637     2577     2590     2654     2740     2803     2835 
    2843     2810     2745     2685     2651     2679     2758     2843 
    2897     2863     2747     2658     2647     2677     2706     2739 
    2782     2825     2853     2830     2728     2608     2542     2531 
    2614     2785     2894     2889     2833     2748     2677     2685 
    2749     2798     2787     2736     2710     2737     2794     2822 
    2786     2708     2637     2633     2720     2837     2918     2925 
    2852     2739     2633     2562     2552     2612     2706     2781 
    2764     2702     2687     2698     2720     2772     2799     2768 
    2722     2702     2708     2708     2727     2778     2805     2799 
    2797     2794     2791     2756     2681     2625     2612     2662 
    2799     2940     3001     2961     2839     2709     2628     2589 
    2606     2670     2744     2810     2843     2813     2709     2579 
    2538     2614     2739     2866     2936     2887     2754     2608 
    2547     2608     2712     2794     2840     2832     2772     2678 
    2602     2602     2660     2767     2882     2901     2826     2748 
    2698     2687     2705     2729     2775     2821     2835     2816 
    2737     2628     2577     2610     2710     2829     2902     2899 
    2812     2677     2575     2542     2589     2705     2812     2863 
    2862     2836     2822     2797     2749     2717     2686     2654 
    2660     2693     2717     2743     2779     2812     2801     2744 
    2670     2598     2573     2612     2668     2721     2774     2798 
    2786     2779     2793     2791     2772     2766     2766     2759 
    2778     2828     2857     2848     2797     2732     2704     2691 
    2677     2677     2701     2768     2841     2828     2749     2673 
    2629     2647     2706     2759     2803     2824     2798     2754 
    2713     2695     2694     2693     2708     2722     2740     2790 
    2829     2790     2695     2625     2608     2612     2637     2705 
    2779     2845     2913     2930     2880     2809     2721     2636 
    2582     2565     2614     2718     2830     2909     2894     2798 
    2714     2666     2654     2689     2732     2756     2771     2782 
    2794     2785     2743     2689     2644     2637     2664     2704 
    2774     2849     2874     2855     2812     2759     2736     2717 
    2674     2660     2704     2766     2825     2855     2818     2710 
    2594     2548     2575     2648     2748     2841     2870     2816 
    2718     2625     2575     2628     2760     2857     2889     2871 
    2791     2674     2593     2575     2612     2668     2728     2785 
    2799     2779     2768     2760     2775     2832     2884     2905 
    2872     2791     2698     2597     2528     2575     2709     2845 
    2929     2920     2829     2701     2593     2560     2581     2639 
    2740     2844     2902     2903     2840     2756     2706     2695 
    2716     2768     2825     2839     2787     2712     2648     2616 
    2647     2710     2731     2710     2674     2641     2650     2690 
    2741     2786     2799     2782     2729     2662     2641     2682 
    2760     2849     2906     2918     2866     2741     2620     2575 
    2620     2751     2914     3017     3003     2857     2631     2446 
    2385     2479     2685     2867     2940     2916     2849     2791 
    2740     2690     2641     2596     2598     2689     2821     2914 
    2924     2841     2704     2556     2471     2525     2674     2801 
    2852     2832     2790     2770     2770     2781     2754     2687 
    2660     2691     2760     2837     2857     2814     2737     2648 
    2606     2631     2685     2741     2768     2776     2781     2739 
    2682     2671     2693     2735     2790     2830     2862     2868 
    2828     2776     2724     2668     2640     2652     2720     2813 
    2868     2863     2808     2747     2722     2701     2682     2700 
    2716     2709     2704     2718     2760     2795     2806     2801 
    2752     2700     2721     2782     2818     2793     2698     2604 
    2554     2548     2613     2733     2843     2897     2890     2830 
    2722     2612     2601     2701     2836     2940     2945     2835 
    2655     2482     2435     2546     2701     2822     2895     2907 
    2886     2821     2721     2648     2627     2663     2760     2875 
    2967     2975     2866     2677     2470     2350     2405     2596 
    2814     2968     3001     2945     2843     2700     2566     2494 
    2523     2662     2820     2920     2945     2871     2737     2654 
    2658     2720     2798     2836     2799     2713     2647     2644 
    2691     2768     2830     2843     2825     2789     2712     2625 
    2589     2609     2663     2718     2771     2817     2832     2806 
    2748     2694     2690     2741     2833     2916     2914     2829 
    2690     2556     2531     2621     2728     2810     2836     2794 
    2744     2717     2725     2766     2779     2759     2749     2749 
    2751     2752     2733     2693     2647     2636     2682     2752 
    2825     2864     2835     2764     2663     2562     2547     2610 
    2682     2745     2812     2880     2916     2894     2840     2752 
    2673     2658     2668     2694     2763     2829     2851     2839 
    2798     2735     2664     2640     2678     2713     2709     2673 
    2624     2632     2725     2841     2905     2862     2741     2647 
    2614     2652     2768     2872     2889     2829     2725     2625 
    2583     2606     2651     2682     2724     2799     2874     2913 
    2901     2832     2745     2686     2671     2714     2772     2783 
    2752     2710     2674     2646     2623     2635     2694     2781 
    2879     2934     2895     2801     2710     2662     2666     2695 
    2747     2814     2857     2857     2790     2685     2613     2598 
    2637     2700     2727     2720     2716     2718     2737     2752 
    2760     2764     2731     2685     2695     2725     2732     2736 
    2744     2779     2828     2828     2781     2718     2666     2663 
    2708     2741     2739     2732     2740     2725     2714     2749 
    2766     2732     2710     2694     2706     2782     2845     2824 
    2733     2636     2608     2678     2798     2887     2882     2794 
    2705     2691     2759     2816     2802     2760     2717     2678 
    2670     2698     2741     2762     2764     2787     2794     2748 
    2716     2702     2673     2668     2695     2705     2686     2664 
    2670     2708     2759     2818     2871     2876     2847     2805 
    2767     2748     2722     2698     2710     2708     2666     2627 
    2609     2627     2686     2787     2902     2955     2926     2833 
    2685     2556     2531     2598     2714     2814     2859     2868 
    2837     2754     2647     2554     2542     2637     2789     2934 
    2997     2921     2758     2589     2492     2505     2610     2763 
    2895     2933     2902     2847     2782     2731     2702     2694 
    2701     2720     2764     2802     2803     2782     2731     2663 
    2646     2685     2764     2878     2955     2926     2816     2693 
    2608     2570     2593     2686     2775     2794     2764     2720 
    2691     2682     2668     2670     2702     2749     2779     2772 
    2768     2787     2782     2767     2767     2739     2695     2691 
    2717     2745     2744     2702     2659     2641     2667     2727 
    2764     2749     2704     2663     2671     2722     2791     2859 
    2880     2845     2787     2718     2673     2682     2718     2767 
    2821     2849     2828     2754     2659     2581     2543     2596 
    2727     2841     2897     2876     2779     2678     2627     2627 
    2671     2727     2785     2856     2894     2875     2806     2709 
    2647     2655     2725     2813     2860     2841     2758     2662 
    2650     2701     2741     2774     2783     2749     2700     2656 
    2648     2670     2691     2724     2767     2795     2821     2821 
    2781     2731     2678     2651     2670     2697     2739     2789 
    2778     2713     2667     2685     2774     2863     2893     2867 
    2791     2679     2598     2606     2674     2722     2748     2791 
    2825     2825     2803     2766     2735     2718     2714     2752 
    2802     2809     2774     2687     2586     2565     2616     2701 
    2797     2851     2845     2808     2747     2706     2714     2743 
    2748     2722     2716     2733     2725     2709     2713     2729 
    2763     2790     2799     2802     2782     2772     2805     2826 
    2824     2818     2791     2745     2701     2668     2654     2636 
    2641     2689     2739     2795     2847     2852     2816     2758 
    2698     2644     2583     2547     2556     2581     2629     2713 
    2794     2830     2793     2708     2623     2566     2601     2717 
    2803     2848     2878     2859     2797     2739     2700     2706 
    2760     2826     2874     2876     2841     2785     2708     2644 
    2625     2651     2728     2816     2841     2809     2764     2754 
    2764     2745     2724     2729     2724     2712     2712     2718 
    2724     2728     2751     2762     2725     2698     2697     2689 
    2694     2712     2733     2782     2843     2867     2830     2732 
    2652     2625     2625     2678     2762     2791     2782     2774 
    2770     2778     2782     2787     2799     2789     2768     2749 
    2709     2673     2647     2633     2664     2728     2798     2860 
    2867     2812     2740     2689     2683     2710     2754     2801 
    2806     2763     2725     2697     2668     2667     2721     2802 
    2848     2849     2822     2766     2705     2675     2681     2709 
    2727     2720     2709     2698     2693     2709     2700     2670 
    2683     2718     2740     2778     2825     2828     2781     2728 
    2686     2652     2670     2733     2787     2825     2840     2822 
    2787     2743     2704     2681     2655     2635     2651     2677 
    2687     2689     2685     2695     2729     2760     2787     2805 
    2798     2776     2745     2693     2623     2575     2610     2704 
    2778     2825     2839     2821     2795     2770     2764     2791 
    2818     2806     2739     2677     2690     2747     2797     2830 
    2822     2785     2737     2685     2679     2732     2797     2845 
    2851     2776     2673     2632     2678     2755     2797     2794 
    2772     2755     2751     2741     2721     2714     2710     2704 
    2708     2724     2768     2826     2857     2852     2802     2718 
    2655     2633     2627     2621     2614     2616     2627     2640 
    2674     2717     2741     2754     2760     2770     2770     2747 
    2743     2775     2803     2813     2797     2774     2771     2760 
    2721     2694     2701     2737     2782     2817     2822     2783 
    2733     2718     2717     2729     2772     2791     2797     2843 
    2856     2794     2702     2637     2619     2631     2677     2756 
    2799     2801     2794     2770     2755     2760     2759     2770 
    2785     2767     2728     2694     2681     2683     2677     2659 
    2658     2705     2805     2899     2949     2941     2843     2702 
    2609     2575     2585     2629     2689     2741     2748     2710 
    2697     2724     2754     2774     2791     2810     2824     2826 
    2825     2794     2736     2683     2624     2565     2546     2593 
    2697     2813     2897     2921     2875     2806     2758     2701 
    2655     2683     2758     2835     2882     2849     2760     2664 
    2587     2567     2598     2663     2782     2903     2955     2932 
    2843     2724     2620     2567     2590     2650     2698     2735 
    2740     2724     2714     2720     2768     2818     2817     2795 
    2760     2698     2643     2612     2604     2633     2674     2705 
    2739     2768     2789     2805     2822     2847     2847     2813 
    2779     2754     2727     2693     2650     2627     2635     2655 
    2689     2725     2755     2771     2775     2794     2832     2853 
    2874     2884     2836     2754     2679     2629     2624     2662 
    2727     2797     2825     2782     2701     2641     2639     2693 
    2783     2872     2899     2864     2783     2677     2606     2601 
    2632     2685     2741     2781     2790     2764     2748     2760 
    2748     2709     2698     2718     2749     2775     2786     2790 
    2782     2776     2798     2810     2793     2772     2767     2781 
    2774     2727     2694     2708     2755     2808     2839     2841 
    2809     2762     2743     2733     2706     2679     2636     2579 
    2554     2550     2551     2569     2604     2674     2771     2866 
    2948     2974     2917     2833     2736     2627     2562     2575 
    2656     2758     2826     2860     2837     2764     2709     2700 
    2731     2803     2887     2945     2913     2782     2637     2542 
    2513     2566     2677     2802     2876     2841     2740     2643 
    2592     2631     2725     2802     2853     2866     2835     2794 
    2741     2682     2639     2625     2637     2641     2648     2701 
    2759     2795     2828     2830     2816     2833     2857     2848 
    2825     2798     2751     2690     2647     2617     2573     2546 
    2554     2582     2648     2741     2829     2897     2902     2867 
    2857     2866     2867     2852     2793     2714     2639     2575 
    2567     2616     2694     2767     2767     2695     2647     2674 
    2762     2859     2925     2965     2970     2922     2852     2785 
    2721     2668     2623     2587     2569     2565     2585     2641 
    2708     2747     2749     2745     2744     2717     2681     2675 
    2717     2821     2929     2940     2841     2693     2578     2551 
    2590     2693     2824     2910     2951     2953     2893     2813 
    2760     2724     2695     2677     2659     2623     2577     2567 
    2585     2594     2623     2689     2786     2883     2932     2932 
    2899     2830     2771     2762     2775     2767     2709     2632 
    2604     2643     2717     2795     2836     2822     2771     2718 
    2710     2736     2748     2751     2754     2743     2728     2727 
    2732     2722     2691     2666     2662     2702     2772     2801 
    2787     2770     2754     2766     2798     2790     2737     2686 
    2677     2713     2762     2806     2837     2825     2779     2718 
    2646     2594     2598     2644     2728     2818     2867     2864 
    2821     2786     2768     2732     2695     2671     2652     2671 
    2695     2694     2712     2758     2814     2870     2884     2849 
    2783     2718     2686     2663     2654     2682     2713     2721 
    2709     2658     2610     2635     2712     2782     2820     2829 
    2828     2817     2786     2724     2623     2554     2559     2597 
    2647     2706     2752     2772     2770     2771     2768     2728 
    2704     2740     2790     2837     2882     2894     2870     2814 
    2774     2791     2839     2872     2875     2826     2744     2667 
    2606     2558     2542     2585     2693     2813     2898     2933 
    2894     2806     2718     2655     2648     2679     2708     2733 
    2733     2710     2681     2633     2602     2616     2652     2710 
    2778     2825     2857     2843     2782     2733     2706     2700 
    2717     2754     2808     2832     2785     2713     2670     2667 
    2687     2708     2731     2749     2772     2824     2874     2882 
    2852     2789     2708     2636     2601     2621     2687     2752 
    2783     2766     2718     2668     2629     2640     2714     2790 
    2837     2864     2862     2820     2745     2671     2641     2644 
    2677     2739     2766     2735     2702     2700     2743     2805 
    2835     2824     2781     2736     2729     2735     2731     2728 
    2722     2720     2702     2660     2637     2648     2686     2764 
    2851     2899     2916     2884     2799     2718     2700     2731 
    2755     2752     2741     2717     2693     2691     2704     2710 
    2691     2640     2604     2613     2674     2774     2847     2830 
    2743     2643     2605     2650     2729     2803     2845     2843 
    2822     2793     2768     2762     2747     2740     2767     2806 
    2845     2874     2870     2825     2749     2681     2659     2677 
    2716     2759     2774     2767     2731     2664     2629     2640 
    2663     2697     2725     2752     2776     2774     2756     2755 
    2772     2808     2824     2776     2685     2596     2560     2597 
    2671     2756     2812     2803     2760     2721     2714     2755 
    2808     2848     2859     2812     2749     2732     2743     2762 
    2785     2795     2789     2749     2710     2706     2720     2748 
