Origin Time       2025/03/28 03:50:00
Lat.              35.403
Long.             140.360
Depth. (km)       54
Mag.              4.4
Station Code      TCGH06
Station Lat.      36.4458
Station Long.     139.9509
Station Height(m) 70
Record Time       2025/03/28 03:51:12
Sampling Freq(Hz) 100Hz
Duration Time(s)  120
Dir.              6
Scale Factor      3920(gal)/6170801
Max. Acc. (gal)   0.207
Last Correction   2025/03/28 03:50:57
Memo.             
  -40558   -40576   -40559   -40537   -40560   -40582   -40552   -40535 
  -40560   -40565   -40545   -40545   -40559   -40567   -40558   -40547 
  -40560   -40567   -40545   -40544   -40577   -40588   -40560   -40548 
  -40575   -40588   -40565   -40560   -40570   -40559   -40552   -40562 
  -40565   -40565   -40564   -40550   -40554   -40572   -40551   -40542 
  -40562   -40539   -40537   -40583   -40567   -40538   -40559   -40564 
  -40549   -40549   -40563   -40569   -40552   -40552   -40573   -40563 
  -40553   -40566   -40562   -40558   -40572   -40560   -40549   -40574 
  -40573   -40552   -40565   -40568   -40553   -40568   -40582   -40560 
  -40545   -40566   -40572   -40546   -40548   -40572   -40565   -40546 
  -40554   -40565   -40546   -40544   -40575   -40562   -40533   -40562 
  -40571   -40543   -40560   -40580   -40555   -40553   -40574   -40565 
  -40552   -40565   -40569   -40561   -40562   -40563   -40560   -40571 
  -40577   -40547   -40545   -40589   -40572   -40529   -40561   -40573 
  -40547   -40568   -40572   -40544   -40560   -40573   -40545   -40537 
  -40569   -40581   -40540   -40524   -40573   -40585   -40540   -40543 
  -40588   -40579   -40536   -40547   -40579   -40572   -40559   -40558 
  -40565   -40573   -40558   -40558   -40576   -40563   -40561   -40584 
  -40566   -40543   -40570   -40584   -40548   -40532   -40563   -40580 
  -40558   -40549   -40552   -40546   -40564   -40577   -40540   -40533 
  -40572   -40568   -40543   -40561   -40578   -40561   -40555   -40573 
  -40580   -40564   -40549   -40571   -40591   -40562   -40539   -40564 
  -40579   -40559   -40554   -40572   -40563   -40544   -40559   -40571 
  -40557   -40553   -40559   -40557   -40561   -40564   -40550   -40550 
  -40566   -40557   -40558   -40578   -40563   -40546   -40556   -40555 
  -40561   -40570   -40557   -40555   -40566   -40571   -40571   -40562 
  -40559   -40565   -40547   -40506   -40489   -40488   -40463   -40453 
  -40487   -40517   -40552   -40606   -40630   -40621   -40600   -40578 
  -40605   -40662   -40703   -40741   -40749   -40708   -40641   -40561 
  -40507   -40478   -40442   -40434   -40458   -40467   -40463   -40466 
  -40503   -40580   -40655   -40694   -40726   -40758   -40731   -40661 
  -40622   -40571   -40447   -40304   -40251   -40302   -40369   -40450 
  -40585   -40684   -40676   -40620   -40585   -40593   -40613   -40621 
  -40647   -40701   -40737   -40720   -40660   -40613   -40590   -40554 
  -40535   -40569   -40588   -40538   -40465   -40431   -40474   -40534 
  -40504   -40436   -40423   -40440   -40444   -40436   -40455   -40497 
  -40513   -40540   -40596   -40585   -40528   -40567   -40654   -40611 
  -40496   -40459   -40443   -40392   -40369   -40393   -40464   -40565 
  -40625   -40644   -40681   -40700   -40672   -40682   -40736   -40748 
  -40710   -40636   -40553   -40531   -40507   -40408   -40392   -40516 
  -40571   -40493   -40445   -40521   -40649   -40706   -40713   -40758 
  -40766   -40654   -40533   -40548   -40657   -40716   -40705   -40699 
  -40702   -40673   -40596   -40483   -40418   -40454   -40460   -40373 
  -40365   -40473   -40505   -40498   -40614   -40711   -40627   -40538 
  -40601   -40662   -40565   -40453   -40481   -40521   -40488   -40516 
  -40554   -40462   -40394   -40449   -40471   -40449   -40493   -40576 
  -40643   -40671   -40649   -40637   -40671   -40681   -40648   -40623 
  -40590   -40548   -40574   -40631   -40593   -40518   -40523   -40545 
  -40528   -40491   -40462   -40521   -40604   -40586   -40574   -40602 
  -40547   -40525   -40638   -40701   -40667   -40649   -40593   -40448 
  -40365   -40451   -40585   -40585   -40529   -40619   -40701   -40576 
  -40468   -40509   -40520   -40521   -40609   -40636   -40532   -40443 
  -40448   -40486   -40456   -40403   -40453   -40542   -40571   -40587 
  -40588   -40557   -40542   -40541   -40552   -40591   -40635   -40633 
  -40598   -40631   -40700   -40678   -40621   -40601   -40595   -40619 
  -40622   -40577   -40559   -40528   -40461   -40462   -40516   -40529 
  -40506   -40501   -40526   -40545   -40526   -40509   -40533   -40576 
  -40620   -40636   -40576   -40510   -40526   -40535   -40478   -40505 
  -40590   -40527   -40449   -40563   -40703   -40733   -40741   -40756 
  -40790   -40831   -40742   -40570   -40543   -40598   -40548   -40445 
  -40363   -40320   -40336   -40305   -40246   -40330   -40478   -40553 
  -40605   -40665   -40686   -40663   -40656   -40707   -40749   -40695 
  -40597   -40545   -40516   -40491   -40462   -40370   -40304   -40374 
  -40487   -40565   -40612   -40616   -40609   -40633   -40654   -40625 
  -40585   -40567   -40538   -40549   -40590   -40542   -40495   -40569 
  -40648   -40625   -40549   -40550   -40625   -40623   -40602   -40634 
  -40602   -40574   -40607   -40571   -40565   -40659   -40669   -40635 
  -40642   -40531   -40356   -40330   -40431   -40514   -40501   -40463 
  -40537   -40635   -40597   -40486   -40426   -40451   -40508   -40559 
  -40612   -40614   -40576   -40611   -40667   -40659   -40633   -40597 
  -40567   -40593   -40635   -40626   -40559   -40511   -40546   -40604 
  -40630   -40647   -40658   -40657   -40663   -40615   -40488   -40430 
  -40479   -40507   -40510   -40525   -40503   -40467   -40450   -40441 
  -40461   -40473   -40442   -40475   -40586   -40642   -40621   -40584 
  -40567   -40563   -40541   -40555   -40637   -40675   -40663   -40665 
  -40621   -40571   -40605   -40643   -40655   -40648   -40552   -40487 
  -40570   -40591   -40491   -40472   -40491   -40444   -40467   -40578 
  -40614   -40589   -40628   -40685   -40660   -40613   -40590   -40550 
  -40555   -40610   -40605   -40596   -40646   -40631   -40518   -40423 
  -40397   -40422   -40451   -40456   -40477   -40543   -40603   -40579 
  -40448   -40353   -40405   -40445   -40397   -40406   -40467   -40518 
  -40606   -40694   -40730   -40750   -40718   -40608   -40552   -40581 
  -40571   -40546   -40568   -40580   -40581   -40594   -40585   -40541 
  -40499   -40501   -40514   -40484   -40455   -40485   -40565   -40641 
  -40692   -40713   -40659   -40599   -40674   -40778   -40735   -40605 
  -40536   -40538   -40528   -40477   -40453   -40488   -40515   -40524 
  -40585   -40687   -40732   -40709   -40695   -40676   -40588   -40493 
  -40477   -40510   -40554   -40565   -40512   -40474   -40495   -40506 
  -40503   -40524   -40561   -40557   -40479   -40406   -40399   -40437 
  -40496   -40520   -40512   -40560   -40601   -40541   -40533   -40641 
  -40696   -40683   -40683   -40680   -40683   -40674   -40571   -40452 
  -40463   -40506   -40456   -40438   -40516   -40562   -40533   -40491 
  -40508   -40586   -40571   -40452   -40439   -40534   -40565   -40561 
  -40607   -40606   -40520   -40509   -40588   -40611   -40602   -40631 
  -40652   -40664   -40630   -40525   -40513   -40670   -40808   -40792 
  -40688   -40573   -40477   -40462   -40534   -40550   -40472   -40454 
  -40524   -40554   -40534   -40543   -40561   -40533   -40504   -40509 
  -40508   -40530   -40581   -40566   -40505   -40501   -40509   -40501 
  -40581   -40724   -40751   -40660   -40605   -40589   -40516   -40434 
  -40435   -40474   -40491   -40499   -40474   -40418   -40431   -40525 
  -40592   -40603   -40610   -40622   -40632   -40648   -40635   -40555 
  -40510   -40581   -40626   -40569   -40542   -40572   -40606   -40679 
  -40748   -40708   -40610   -40608   -40670   -40638   -40551   -40508 
  -40444   -40361   -40390   -40515   -40585   -40572   -40566   -40588 
  -40596   -40594   -40606   -40610   -40602   -40600   -40566   -40518 
  -40543   -40589   -40570   -40529   -40506   -40537   -40640   -40691 
  -40636   -40600   -40603   -40550   -40459   -40462   -40523   -40475 
  -40389   -40416   -40470   -40479   -40501   -40538   -40538   -40489 
  -40458   -40482   -40482   -40506   -40644   -40717   -40647   -40632 
  -40670   -40667   -40669   -40631   -40529   -40490   -40519   -40529 
  -40547   -40568   -40558   -40573   -40580   -40499   -40436   -40459 
  -40464   -40470   -40562   -40686   -40723   -40623   -40536   -40599 
  -40659   -40647   -40704   -40765   -40737   -40748   -40795   -40736 
  -40610   -40539   -40539   -40565   -40562   -40525   -40495   -40490 
  -40470   -40407   -40363   -40378   -40381   -40379   -40444   -40521 
  -40543   -40564   -40588   -40547   -40448   -40403   -40506   -40638 
  -40593   -40438   -40384   -40405   -40401   -40387   -40360   -40339 
  -40406   -40537   -40691   -40836   -40867   -40817   -40837   -40887 
  -40872   -40805   -40735   -40724   -40750   -40705   -40646   -40677 
  -40681   -40608   -40589   -40582   -40471   -40366   -40369   -40404 
  -40441   -40488   -40488   -40489   -40593   -40622   -40452   -40328 
  -40360   -40380   -40387   -40430   -40449   -40488   -40596   -40659 
  -40607   -40512   -40472   -40526   -40633   -40725   -40751   -40706 
  -40679   -40670   -40539   -40341   -40271   -40320   -40401   -40516 
  -40620   -40641   -40618   -40624   -40646   -40648   -40623   -40573 
  -40581   -40704   -40786   -40667   -40502   -40531   -40678   -40702 
  -40623   -40587   -40597   -40609   -40604   -40561   -40480   -40418 
  -40435   -40471   -40467   -40503   -40608   -40688   -40687   -40632 
  -40587   -40544   -40458   -40385   -40399   -40484   -40576   -40621 
  -40620   -40611   -40609   -40594   -40553   -40551   -40609   -40617 
  -40545   -40483   -40466   -40495   -40540   -40538   -40543   -40576 
  -40521   -40428   -40464   -40557   -40583   -40621   -40694   -40712 
  -40690   -40648   -40583   -40567   -40583   -40529   -40459   -40479 
  -40521   -40509   -40503   -40555   -40581   -40502   -40410   -40426 
  -40520   -40611   -40667   -40691   -40704   -40715   -40733   -40721 
  -40637   -40561   -40545   -40527   -40511   -40527   -40525   -40499 
  -40500   -40527   -40523   -40498   -40543   -40618   -40603   -40570 
  -40603   -40580   -40486   -40470   -40542   -40599   -40574   -40507 
  -40519   -40595   -40604   -40529   -40470   -40489   -40523   -40511 
  -40516   -40573   -40628   -40667   -40690   -40673   -40638   -40641 
  -40679   -40682   -40609   -40518   -40460   -40405   -40408   -40510 
  -40521   -40383   -40362   -40509   -40545   -40467   -40504   -40597 
  -40585   -40545   -40559   -40605   -40653   -40665   -40659   -40656 
  -40617   -40587   -40625   -40637   -40584   -40539   -40498   -40464 
  -40498   -40522   -40459   -40432   -40476   -40501   -40545   -40605 
  -40607   -40616   -40658   -40635   -40588   -40607   -40638   -40630 
  -40629   -40629   -40562   -40469   -40463   -40516   -40511   -40459 
  -40467   -40561   -40658   -40676   -40641   -40651   -40709   -40723 
  -40678   -40623   -40559   -40473   -40412   -40434   -40470   -40444 
  -40442   -40497   -40527   -40558   -40606   -40621   -40617   -40597 
  -40565   -40596   -40643   -40610   -40557   -40534   -40482   -40439 
  -40493   -40574   -40597   -40559   -40495   -40492   -40541   -40528 
  -40494   -40530   -40588   -40605   -40615   -40680   -40739   -40694 
  -40662   -40748   -40798   -40722   -40638   -40589   -40550   -40524 
  -40455   -40386   -40418   -40459   -40459   -40468   -40426   -40397 
  -40449   -40433   -40381   -40437   -40479   -40459   -40511   -40552 
  -40489   -40483   -40580   -40645   -40656   -40616   -40556   -40594 
  -40678   -40686   -40684   -40696   -40679   -40664   -40630   -40574 
  -40568   -40554   -40467   -40408   -40432   -40504   -40600   -40645 
  -40631   -40661   -40717   -40727   -40731   -40718   -40635   -40558 
  -40564   -40571   -40507   -40415   -40377   -40425   -40457   -40397 
  -40375   -40467   -40569   -40624   -40635   -40623   -40654   -40702 
  -40690   -40637   -40594   -40585   -40601   -40595   -40575   -40594 
  -40653   -40699   -40696   -40629   -40521   -40481   -40560   -40616 
  -40533   -40416   -40401   -40455   -40447   -40394   -40423   -40507 
  -40541   -40544   -40558   -40556   -40524   -40481   -40468   -40508 
  -40527   -40488   -40472   -40537   -40643   -40688   -40631   -40599 
  -40666   -40690   -40600   -40564   -40633   -40610   -40489   -40469 
  -40524   -40545   -40570   -40613   -40609   -40558   -40507   -40463 
  -40457   -40525   -40595   -40593   -40566   -40562   -40565   -40544 
  -40506   -40492   -40527   -40565   -40534   -40507   -40577   -40600 
  -40519   -40534   -40645   -40656   -40607   -40628   -40629   -40565 
  -40559   -40592   -40571   -40579   -40646   -40662   -40633   -40638 
  -40650   -40606   -40531   -40493   -40491   -40479   -40480   -40494 
  -40439   -40374   -40422   -40505   -40554   -40632   -40689   -40659 
  -40620   -40619   -40579   -40485   -40471   -40568   -40612   -40567 
  -40576   -40656   -40680   -40632   -40623   -40663   -40650   -40591 
  -40578   -40616   -40626   -40568   -40510   -40511   -40523   -40524 
  -40544   -40577   -40625   -40685   -40668   -40571   -40528   -40528 
  -40493   -40498   -40553   -40542   -40488   -40499   -40546   -40538 
  -40501   -40510   -40535   -40526   -40513   -40540   -40583   -40583 
  -40523   -40455   -40443   -40504   -40570   -40579   -40558   -40550 
  -40581   -40641   -40669   -40679   -40721   -40741   -40719   -40722 
  -40694   -40578   -40542   -40634   -40609   -40440   -40364   -40377 
  -40346   -40325   -40361   -40383   -40393   -40428   -40485   -40518 
  -40480   -40479   -40582   -40624   -40545   -40472   -40478   -40546 
  -40569   -40527   -40536   -40584   -40603   -40634   -40678   -40722 
  -40754   -40720   -40687   -40744   -40781   -40729   -40715   -40763 
  -40773   -40704   -40576   -40476   -40464   -40472   -40448   -40420 
  -40412   -40417   -40440   -40497   -40554   -40586   -40621   -40610 
  -40558   -40577   -40612   -40597   -40629   -40678   -40630   -40554 
  -40561   -40585   -40505   -40406   -40425   -40465   -40446   -40457 
  -40462   -40407   -40425   -40501   -40455   -40392   -40478   -40577 
  -40588   -40626   -40722   -40777   -40759   -40722   -40687   -40649 
  -40609   -40562   -40544   -40574   -40600   -40604   -40611   -40621 
  -40623   -40587   -40537   -40537   -40537   -40495   -40503   -40560 
  -40551   -40504   -40472   -40411   -40393   -40468   -40477   -40414 
  -40433   -40473   -40444   -40446   -40514   -40564   -40594   -40662 
  -40725   -40712   -40682   -40715   -40771   -40796   -40786   -40736 
  -40680   -40649   -40614   -40595   -40625   -40625   -40570   -40567 
  -40599   -40561   -40507   -40485   -40429   -40383   -40410   -40441 
  -40458   -40474   -40427   -40358   -40393   -40466   -40438   -40383 
  -40423   -40519   -40608   -40664   -40688   -40728   -40740   -40652 
  -40594   -40665   -40690   -40607   -40607   -40679   -40653   -40579 
  -40600   -40661   -40628   -40537   -40535   -40599   -40606   -40580 
  -40554   -40471   -40384   -40381   -40422   -40454   -40473   -40480 
  -40492   -40524   -40586   -40681   -40756   -40732   -40658   -40640 
  -40667   -40648   -40568   -40513   -40513   -40498   -40449   -40399 
  -40348   -40342   -40399   -40431   -40437   -40501   -40579   -40601 
  -40624   -40674   -40651   -40537   -40450   -40459   -40495   -40461 
  -40421   -40493   -40586   -40611   -40670   -40741   -40700   -40647 
  -40696   -40752   -40759   -40755   -40711   -40620   -40535   -40474 
  -40464   -40494   -40500   -40512   -40567   -40609   -40644   -40702 
  -40721   -40689   -40663   -40646   -40646   -40656   -40611   -40533 
  -40487   -40453   -40440   -40471   -40493   -40489   -40474   -40455 
  -40478   -40543   -40568   -40569   -40602   -40598   -40550   -40550 
  -40557   -40548   -40590   -40601   -40519   -40483   -40570   -40660 
  -40625   -40523   -40517   -40597   -40596   -40531   -40566   -40646 
  -40654   -40650   -40678   -40703   -40720   -40701   -40643   -40559 
  -40460   -40422   -40452   -40427   -40363   -40374   -40445   -40498 
  -40511   -40521   -40574   -40633   -40650   -40674   -40717   -40717 
  -40657   -40567   -40504   -40491   -40479   -40458   -40477   -40518 
  -40524   -40479   -40417   -40402   -40436   -40446   -40438   -40465 
  -40471   -40410   -40400   -40484   -40498   -40445   -40501   -40598 
  -40604   -40639   -40731   -40722   -40652   -40639   -40632   -40628 
  -40710   -40814   -40829   -40784   -40758   -40740   -40660   -40534 
  -40476   -40504   -40522   -40505   -40497   -40518   -40544   -40525 
  -40473   -40443   -40428   -40404   -40389   -40394   -40396   -40412 
  -40496   -40623   -40724   -40770   -40764   -40739   -40721   -40693 
  -40643   -40594   -40577   -40595   -40593   -40553   -40526   -40526 
  -40510   -40456   -40392   -40376   -40409   -40461   -40549   -40603 
  -40537   -40475   -40503   -40470   -40354   -40320   -40388   -40482 
  -40571   -40617   -40650   -40737   -40812   -40811   -40792   -40773 
  -40751   -40758   -40755   -40705   -40653   -40605   -40556   -40537 
  -40520   -40505   -40543   -40555   -40498   -40489   -40532   -40544 
  -40551   -40545   -40498   -40478   -40479   -40437   -40416   -40465 
  -40504   -40515   -40564   -40623   -40622   -40586   -40582   -40585 
  -40530   -40448   -40415   -40431   -40462   -40476   -40482   -40498 
  -40501   -40500   -40540   -40578   -40570   -40567   -40590   -40585 
  -40553   -40553   -40576   -40564   -40516   -40513   -40596   -40667 
  -40677   -40703   -40746   -40737   -40672   -40632   -40690   -40738 
  -40651   -40551   -40556   -40594   -40623   -40627   -40581   -40538 
  -40516   -40495   -40468   -40413   -40356   -40334   -40321   -40329 
  -40378   -40421   -40444   -40505   -40590   -40615   -40610   -40623 
  -40608   -40601   -40660   -40700   -40692   -40708   -40720   -40680 
  -40634   -40600   -40538   -40471   -40457   -40466   -40467   -40536 
  -40643   -40649   -40609   -40624   -40615   -40561   -40565   -40611 
  -40590   -40528   -40536   -40565   -40525   -40498   -40514   -40522 
  -40580   -40670   -40696   -40705   -40732   -40728   -40709   -40675 
  -40592   -40519   -40513   -40530   -40542   -40551   -40530   -40511 
  -40521   -40520   -40536   -40561   -40501   -40433   -40475   -40542 
  -40534   -40481   -40457   -40495   -40569   -40616   -40601   -40590 
  -40631   -40630   -40587   -40629   -40674   -40608   -40531   -40522 
  -40522   -40491   -40474   -40515   -40548   -40535   -40555   -40578 
  -40536   -40498   -40500   -40484   -40459   -40456   -40475   -40508 
  -40505   -40492   -40560   -40624   -40594   -40591   -40657   -40677 
  -40643   -40631   -40641   -40633   -40604   -40591   -40586   -40551 
  -40529   -40528   -40512   -40516   -40553   -40574   -40578   -40569 
  -40550   -40526   -40465   -40427   -40496   -40559   -40543   -40568 
  -40652   -40681   -40661   -40634   -40593   -40579   -40588   -40568 
  -40572   -40622   -40617   -40556   -40530   -40537   -40512   -40480 
  -40500   -40527   -40518   -40525   -40546   -40544   -40546   -40554 
  -40541   -40540   -40534   -40465   -40421   -40485   -40532   -40501 
  -40498   -40556   -40606   -40607   -40586   -40585   -40579   -40566 
  -40610   -40698   -40748   -40760   -40773   -40756   -40680   -40584 
  -40502   -40426   -40356   -40316   -40331   -40375   -40403   -40435 
  -40495   -40535   -40515   -40470   -40465   -40513   -40568   -40602 
