Origin Time       2025/03/28 03:50:00
Lat.              35.403
Long.             140.360
Depth. (km)       54
Mag.              4.4
Station Code      TCGH12
Station Lat.      36.6959
Station Long.     139.9842
Station Height(m) 162
Record Time       2025/03/28 03:51:20
Sampling Freq(Hz) 100Hz
Duration Time(s)  120
Dir.              4
Scale Factor      7845(gal)/8223790
Max. Acc. (gal)   0.509
Last Correction   2025/03/28 03:51:20
Memo.             
[...]
   16671    16676    16654    16669    16694    16673    16637    16649 
   16671    16680    16680    16629    16627    16707    16703    16642 
   16634    16630    16650    16707    16653    16578    16675    16746 
   16688    16667    16642    16591    16613    16661    16648    16630 
   16679    16721    16679    16638    16679    16714    16681    16626 
   16586    16605    16656    16676    16711    16748    16703    16632 
   16596    16565    16565    16633    16711    16744    16733    16680 
   16618    16598    16591    16594    16652    16706    16707    16699 
   16700    16707    16699    16663    16625    16603    16598    16618 
   16653    16664    16661    16694    16737    16711    16617    16580 
   16673    16726    16694    16737    16761    16700    16665    16588 
   16507    16532    16538    16557    16679    16776    16803    16785 
   16730    16672    16605    16541    16549    16621    16690    16725 
   16710    16688    16688    16657    16623    16638    16641    16625 
   16668    16737    16749    16726    16680    16626    16607    16592 
   16588    16636    16680    16698    16713    16703    16644    16572 
   16548    16575    16625    16660    16665    16687    16735    16757 
   16715    16638    16603    16615    16615    16630    16711    16761 
   16707    16653    16649    16637    16622    16605    16575    16594 
   16676    16749    16773    16741    16654    16592    16610    16649 
   16646    16638    16715    16823    16812    16687    16569    16519 
   16534    16567    16583    16618    16688    16761    16776    16730 
   16691    16653    16611    16610    16625    16638    16675    16707 
   16692    16659    16621    16594    16610    16610    16576    16629 
   16746    16773    16725    16675    16621    16602    16640    16664 
   16677    16729    16760    16715    16652    16614    16607    16652 
   16680    16622    16553    16557    16614    16644    16630    16641 
   16703    16769    16771    16726    16703    16700    16661    16576 
   16552    16632    16668    16667    16710    16663    16580    16629 
   16625    16572    16675    16771    16775    16758    16677    16650 
   16690    16622    16555    16592    16590    16582    16656    16721 
   16754    16762    16711    16629    16557    16569    16634    16633 
   16648    16731    16745    16680    16642    16663    16679    16664 
   16668    16675    16663    16652    16648    16654    16646    16627 
   16634    16676    16700    16646    16618    16686    16717    16676 
   16663    16657    16623    16622    16664    16700    16704    16677 
   16661    16659    16646    16606    16576    16618    16676    16714 
   16754    16738    16668    16638    16630    16619    16613    16569 
   16568    16680    16758    16696    16614    16599    16582    16595 
   16699    16750    16690    16646    16694    16760    16719    16603 
   16571    16633    16653    16626    16669    16717    16675    16677 
   16737    16706    16625    16610    16653    16684    16638    16571 
   16619    16692    16657    16632    16640    16623    16665    16729 
   16725    16680    16636    16623    16615    16591    16621    16654 
   16642    16660    16694    16706    16726    16721    16669    16641 
   16630    16632    16681    16727    16717    16668    16613    16610 
   16656    16660    16632    16636    16663    16706    16713    16657 
   16641    16673    16656    16607    16591    16615    16650    16652 
   16659    16717    16731    16663    16622    16633    16652    16671 
   16679    16665    16632    16617    16641    16654    16653    16660 
   16664    16669    16675    16686    16710    16713    16694    16687 
   16663    16621    16621    16638    16632    16630    16640    16641 
   16659    16703    16727    16696    16661    16657    16638    16614 
   16625    16659    16676    16672    16668    16683    16715    16691 
   16575    16525    16614    16690    16690    16686    16676    16675 
   16683    16633    16568    16596    16653    16704    16757    16740 
   16707    16733    16688    16556    16487    16514    16575    16642 
   16706    16768    16818    16823    16768    16669    16611    16599 
   16584    16637    16711    16661    16621    16680    16681    16646 
   16645    16595    16586    16675    16723    16719    16713    16661 
   16613    16602    16606    16661    16740    16740    16667    16602 
   16573    16571    16605    16659    16657    16615    16602    16618 
   16677    16761    16772    16711    16664    16634    16591    16587 
   16634    16691    16735    16734    16703    16688    16679    16671 
   16688    16700    16680    16653    16648    16671    16686    16653 
   16602    16578    16578    16598    16641    16704    16764    16783 
   16753    16691    16617    16578    16591    16619    16617    16587 
   16568    16569    16586    16622    16672    16710    16721    16713 
   16698    16684    16680    16679    16660    16638    16640    16646 
   16659    16698    16752    16783    16764    16707    16638    16592 
   16588    16613    16646    16683    16710    16719    16708    16686 
   16653    16609    16564    16542    16551    16586    16634    16676 
   16692    16683    16648    16610    16595    16610    16646    16686 
   16702    16715    16742    16760    16756    16742    16688    16598 
   16540    16540    16592    16686    16776    16815    16794    16725 
   16640    16578    16569    16594    16609    16625    16646    16669 
   16694    16713    16706    16664    16609    16569    16561    16588 
   16636    16686    16725    16734    16710    16667    16613    16573 
   16587    16646    16713    16760    16787    16768    16707    16657 
   16611    16557    16555    16613    16671    16723    16772    16761 
   16694    16636    16603    16579    16578    16600    16626    16659 
   16698    16718    16702    16672    16640    16607    16588    16595 
   16622    16659    16690    16702    16694    16660    16610    16578 
   16594    16642    16699    16756    16796    16794    16760    16711 
   16650    16603    16588    16595    16611    16619    16615    16611 
   16614    16625    16649    16673    16683    16687    16711    16749 
   16768    16760    16727    16669    16609    16560    16532    16532 
   16568    16632    16694    16742    16771    16765    16726    16657 
   16591    16564    16569    16605    16680    16748    16767    16750 
   16711    16644    16575    16530    16501    16498    16552    16629 
   16687    16719    16717    16672    16627    16621    16636    16672 
   16721    16745    16735    16708    16676    16638    16606    16590 
   16587    16596    16621    16653    16688    16719    16730    16711 
   16684    16668    16669    16677    16673    16668    16663    16649 
   16649    16664    16673    16676    16664    16644    16656    16692 
   16721    16740    16738    16692    16622    16567    16537    16542 
   16603    16684    16729    16745    16746    16719    16694    16699 
   16711    16695    16660    16626    16592    16555    16537    16544 
   16559    16580    16621    16681    16744    16784    16802    16781 
   16715    16633    16571    16549    16569    16613    16649    16663 
   16656    16638    16621    16618    16636    16667    16707    16744 
   16753    16721    16656    16584    16532    16517    16567    16665 
   16758    16804    16802    16761    16695    16629    16586    16567 
   16565    16580    16615    16659    16702    16740    16752    16727 
   16677    16625    16591    16591    16619    16652    16673    16679 
   16672    16672    16683    16707    16738    16750    16746    16738 
   16710    16660    16602    16546    16502    16488    16522    16590 
   16669    16738    16773    16775    16754    16726    16699    16669 
   16640    16619    16619    16657    16708    16735    16737    16710 
   16650    16586    16541    16537    16576    16625    16661    16686 
   16677    16646    16633    16640    16652    16680    16703    16695 
   16692    16699    16688    16676    16673    16664    16661    16669 
   16677    16700    16733    16746    16725    16700    16676    16637 
   16605    16598    16596    16587    16583    16600    16636    16663 
   16669    16653    16626    16607    16621    16663    16702    16715 
   16704    16672    16641    16644    16676    16713    16733    16723 
   16683    16645    16627    16617    16619    16638    16637    16619 
   16625    16642    16648    16660    16680    16687    16679    16686 
   16706    16704    16683    16659    16618    16584    16592    16619 
   16653    16706    16738    16733    16719    16700    16661    16623 
   16605    16592    16590    16621    16663    16695    16707    16694 
   16671    16652    16630    16622    16640    16659    16680    16718 
   16741    16730    16707    16667    16607    16553    16528    16537 
   16575    16621    16663    16699    16719    16718    16713    16713 
   16702    16686    16688    16704    16721    16737    16744    16745 
   16729    16681    16623    16575    16538    16521    16540    16591 
   16645    16673    16667    16641    16614    16602    16615    16650 
   16688    16695    16661    16605    16545    16503    16503    16565 
   16664    16748    16811    16849    16831    16785    16742    16690 
   16641    16621    16619    16632    16664    16714    16746    16748 
   16727    16672    16586    16521    16499    16517    16578    16663 
   16719    16726    16699    16657    16627    16627    16646    16668 
   16692    16708    16703    16687    16677    16672    16672    16679 
   16672    16642    16613    16592    16580    16586    16600    16621 
   16660    16702    16721    16726    16725    16713    16704    16699 
   16694    16691    16673    16644    16614    16596    16609    16652 
   16708    16757    16762    16713    16630    16533    16449    16430 
   16487    16587    16702    16803    16848    16831    16781    16717 
   16646    16602    16594    16602    16621    16648    16657    16642 
   16618    16605    16607    16627    16659    16692    16735    16789 
   16818    16811    16781    16723    16660    16617    16594    16594 
   16618    16636    16642    16648    16650    16654    16659    16653 
   16634    16609    16591    16587    16602    16638    16671    16686 
   16691    16672    16640    16622    16613    16600    16598    16600 
   16598    16598    16610    16627    16654    16702    16757    16803 
   16833    16823    16764    16681    16598    16530    16503    16525 
   16571    16622    16675    16699    16691    16673    16656    16644 
   16652    16677    16700    16713    16717    16727    16746    16744 
   16718    16690    16653    16611    16588    16588    16603    16636 
   16683    16708    16699    16679    16663    16652    16654    16669 
   16681    16672    16642    16613    16599    16607    16636    16672 
   16704    16727    16731    16719    16694    16665    16640    16617 
   16605    16607    16619    16630    16642    16648    16625    16582 
   16552    16540    16538    16569    16630    16691    16735    16764 
   16768    16726    16654    16587    16546    16549    16606    16696 
   16773    16816    16814    16768    16710    16663    16640    16641 
   16660    16691    16731    16762    16780    16784    16748    16672 
   16603    16569    16572    16611    16669    16708    16713    16691 
   16654    16619    16606    16607    16611    16619    16625    16623 
   16623    16638    16654    16659    16649    16634    16615    16605 
   16611    16629    16649    16657    16645    16633    16638    16661 
   16710    16772    16806    16794    16752    16696    16637    16603 
   16614    16649    16688    16738    16772    16758    16714    16653 
   16571    16498    16459    16460    16505    16580    16663    16710 
   16706    16680    16649    16614    16611    16653    16706    16745 
   16768    16775    16769    16761    16749    16730    16713    16692 
   16663    16642    16640    16633    16623    16626    16640    16669 
   16715    16760    16789    16783    16740    16679    16605    16529 
   16467    16428    16421    16440    16479    16537    16599    16664 
   16731    16785    16812    16804    16773    16730    16679    16632 
   16602    16583    16567    16556    16575    16622    16679    16749 
   16815    16837    16818    16779    16718    16650    16596    16548 
   16503    16491    16502    16495    16480    16483    16501    16532 
   16598    16687    16765    16812    16806    16752    16681    16625 
   16603    16618    16665    16735    16794    16818    16829    16839 
   16837    16807    16761    16704    16641    16598    16605    16656 
   16711    16738    16717    16638    16541    16456    16398    16407 
   16487    16584    16671    16750    16803    16810    16788    16752 
   16677    16564    16444    16353    16347    16443    16605    16783 
   16934    17003    16972    16885    16785    16699    16654    16650 
   16657    16659    16645    16611    16572    16537    16511    16499 
   16506    16552    16650    16779    16911    17001    17011    16924 
   16760    16586    16459    16391    16402    16484    16580    16652 
   16676    16641    16586    16569    16602    16667    16733    16771 
   16765    16713    16629    16548    16510    16538    16610    16703 
   16812    16900    16911    16841    16707    16533    16366    16278 
   16316    16480    16730    16988    17162    17193    17050    16781 
   16490    16272    16208    16324    16563    16822    16988    17004 
   16872    16625    16360    16195    16185    16333    16600    16893 
   17101    17170    17095    16896    16654    16451    16313    16272 
   16326    16421    16526    16622    16669    16676    16657    16611 
   16573    16591    16659    16749    16835    16880    16850    16752 
   16640    16567    16564    16637    16758    16876    16938    16903 
   16788    16659    16565    16521    16514    16542    16598    16657 
   16707    16748    16767    16748    16706    16644    16556    16495 
   16497    16546    16636    16735    16799    16796    16734    16638 
   16551    16502    16525    16630    16779    16903    16937    16858 
   16711    16548    16425    16395    16453    16559    16679    16784 
   16843    16852    16821    16748    16649    16569    16513    16474 
   16478    16524    16575    16606    16611    16603    16591    16596 
   16637    16714    16796    16854    16869    16834    16757    16649 
   16540    16471    16452    16490    16583    16704    16839    16969 
   17031    16988    16868    16703    16542    16463    16463    16503 
   16582    16671    16737    16776    16789    16780    16758    16738 
   16725    16696    16653    16614    16569    16505    16447    16417 
   16424    16486    16599    16714    16788    16810    16777    16704 
   16634    16599    16592    16603    16649    16715    16764    16788 
   16785    16744    16677    16618    16571    16541    16532    16546 
   16583    16627    16676    16738    16788    16789    16748    16665 
   16552    16460    16429    16455    16525    16629    16734    16807 
   16845    16857    16833    16767    16665    16540    16424    16374 
   16410    16509    16641    16771    16846    16848    16806    16748 
   16687    16638    16613    16603    16598    16599    16602    16606 
   16611    16618    16638    16704    16796    16864    16877    16822 
   16706    16571    16470    16430    16460    16534    16634    16727 
   16783    16811    16827    16823    16792    16744    16668    16557 
   16432    16314    16227    16208    16283    16448    16669    16892 
   17062    17136    17088    16933    16735    16563    16452    16421 
   16471    16573    16679    16758    16789    16760    16699    16654 
   16644    16661    16686    16690    16665    16626    16588    16561 
   16571    16626    16711    16796    16856    16861    16792    16663 
   16524    16416    16374    16425    16552    16711    16853    16922 
   16899    16796    16650    16526    16459    16447    16494    16575 
   16646    16704    16742    16740    16711    16677    16649    16644 
   16686    16754    16815    16860    16880    16841    16730    16590 
   16470    16409    16443    16542    16652    16753    16830    16843 
   16795    16723    16646    16561    16499    16502    16555    16634 
   16741    16837    16870    16848    16783    16681    16573    16499 
   16472    16470    16478    16525    16623    16731    16823    16906 
   16943    16888    16764    16621    16494    16411    16397    16445 
   16526    16619    16695    16738    16748    16722    16681    16652 
   16645    16681    16758    16835    16879    16879    16830    16741 
   16657    16607    16579    16579    16625    16672    16675    16653 
   16615    16536    16447    16394    16383    16436    16552    16688 
   16789    16815    16765    16672    16587    16556    16591    16673 
   16769    16842    16866    16843    16785    16714    16653    16623 
   16629    16650    16671    16687    16681    16656    16644    16656 
   16687    16737    16779    16775    16726    16652    16569    16514 
   16501    16497    16492    16491    16480    16486    16542    16617 
   16675    16713    16699    16640    16596    16595    16632    16708 
   16791    16835    16829    16771    16679    16599    16572    16588 
   16617    16645    16657    16650    16644    16660    16691    16726 
   16775    16803    16762    16675    16571    16474    16433    16480 
   16590    16714    16808    16843    16807    16719    16610    16494 
   16407    16376    16399    16488    16630    16773    16888    16957 
   16960    16902    16812    16721    16660    16667    16727    16802 
   16854    16849    16773    16648    16524    16452    16468    16545 
   16641    16733    16798    16808    16769    16710    16629    16522 
   16426    16378    16395    16472    16582    16677    16727    16730 
   16694    16640    16606    16618    16664    16708    16711    16669 
   16600    16526    16486    16518    16611    16725    16818    16869 
   16865    16798    16688    16586    16536    16560    16640    16733 
   16802    16826    16807    16756    16677    16602    16565    16544 
   16518    16514    16534    16563    16615    16703    16788    16823 
   16812    16773    16731    16726    16738    16730    16691    16627 
   16551    16492    16488    16532    16596    16657    16687    16671 
   16615    16556    16532    16553    16609    16677    16726    16730 
   16696    16659    16645    16665    16706    16753    16777    16752 
   16694    16640    16622    16654    16711    16764    16780    16740 
   16672    16634    16634    16668    16726    16771    16756    16677 
   16551    16414    16317    16299    16349    16447    16592    16758 
   16893    16969    16977    16911    16788    16646    16536    16463 
   16425    16426    16453    16501    16565    16636    16708    16760 
   16764    16733    16692    16668    16661    16686    16726    16735 
   16714    16694    16671    16653    16664    16692    16721    16742 
   16734    16688    16634    16591    16559    16553    16588    16649 
   16723    16803    16846    16827    16771    16684    16575    16495 
