Origin Time       2025/03/28 03:50:00
Lat.              35.403
Long.             140.360
Depth. (km)       54
Mag.              4.4
Station Code      TCGH15
Station Lat.      36.5595
Station Long.     139.8637
Station Height(m) 125
Record Time       2025/03/28 03:51:17
Sampling Freq(Hz) 100Hz
Duration Time(s)  120
Dir.              5
Scale Factor      7845(gal)/8223790
Max. Acc. (gal)   0.795
Last Correction   2025/03/28 03:51:18
Memo.             
[...]
    8036     8077     8116     8139     8117     8046     7967     7927 
    7936     7978     8027     8068     8091     8089     8077     8070 
    8067     8059     8055     8075     8106     8116     8093     8027 
    7946     7927     7983     8064     8132     8174     8178     8141 
    8077     8021     7987     7971     7975     8002     8037     8059 
    8058     8054     8054     8060     8105     8163     8178     8159 
    8122     8056     7998     7975     7978     7997     8009     8014 
    8019     8021     8024     8021     8027     8068     8125     8172 
    8194     8152     8071     8001     7943     7904     7916     7977 
    8058     8117     8145     8156     8143     8109     8083     8058 
    8028     8008     8002     8019     8041     8054     8054     8036 
    8028     8058     8095     8105     8086     8052     8014     7989 
    7981     7983     7993     8024     8079     8131     8162     8162 
    8125     8068     8027     8028     8060     8074     8051     8009 
    7966     7951     7982     8027     8060     8100     8133     8139 
    8106     8046     7977     7920     7917     7987     8087     8158 
    8178     8160     8143     8137     8140     8135     8105     8074 
    8059     8029     7982     7940     7894     7871     7911     7998 
    8089     8141     8135     8102     8091     8113     8137     8137 
    8117     8094     8075     8070     8062     8027     7969     7920 
    7919     7952     7992     8025     8036     8054     8108     8170 
    8214     8226     8175     8109     8079     8059     8032     7997 
    7947     7912     7920     7969     8027     8059     8081     8106 
    8128     8168     8210     8202     8141     8058     7998     7977 
    7962     7940     7913     7888     7902     7966     8036     8097 
    8148     8183     8193     8164     8105     8047     8006     8000 
    8020     8047     8081     8122     8154     8144     8085     8025 
    8002     8005     8029     8055     8041     8006     7989     7994 
    8010     8028     8055     8098     8133     8143     8116     8050 
    7992     7987     8028     8086     8116     8085     8019     7950 
    7913     7938     8004     8089     8168     8212     8218     8189 
    8121     8039     7973     7956     8002     8055     8081     8074 
    8043     8010     7992     7985     7996     8014     8033     8062 
    8087     8104     8109     8091     8063     8060     8079     8090 
    8082     8068     8066     8064     8081     8121     8152     8151 
    8114     8048     7983     7946     7931     7929     7942     7987 
    8056     8109     8141     8145     8117     8082     8054     8032 
    8021     8014     8019     8037     8047     8046     8046     8035 
    8035     8043     8047     8062     8087     8102     8104     8087 
    8071     8055     8032     8014     8014     8031     8055     8067 
    8063     8074     8101     8128     8139     8124     8089     8052 
    8032     8021     7996     7965     7958     7974     8005     8048 
    8074     8070     8064     8071     8079     8068     8043     8023 
    8020     8039     8066     8073     8067     8071     8070     8060 
    8050     8041     8050     8074     8094     8097     8082     8062 
    8039     8024     8033     8055     8055     8035     8006     7985 
    7981     7994     8012     8035     8067     8110     8147     8167 
    8168     8144     8110     8089     8079     8068     8041     7992 
    7942     7920     7946     8009     8077     8128     8147     8113 
    8070     8046     8028     8037     8075     8106     8117     8104 
    8075     8050     8019     7998     8009     8041     8087     8110 
    8079     8032     7989     7958     7963     7994     8039     8089 
    8113     8109     8090     8052     8028     8046     8098     8156 
    8174     8140     8082     8012     7948     7919     7921     7955 
    8016     8082     8125     8132     8120     8102     8093     8104 
    8106     8077     8040     8010     7982     7962     7962     7989 
    8047     8109     8154     8155     8091     8009     7956     7952 
    8012     8100     8154     8156     8118     8066     8021     7994 
    7989     7994     7996     8005     8019     8019     8013     8014 
    8044     8116     8202     8257     8241     8151     8039     7956 
    7920     7921     7951     8005     8068     8116     8148     8156 
    8132     8093     8059     8035     8028     8036     8064     8095 
    8108     8098     8087     8085     8082     8063     8043     8031 
    8010     7990     7993     8004     8010     8004     7975     7950 
    7948     7970     8013     8056     8083     8101     8104     8100 
    8104     8108     8112     8124     8140     8155     8152     8124 
    8087     8051     8012     7987     7982     7987     7990     7986 
    7989     8000     8006     8019     8029     8044     8087     8132 
    8140     8116     8078     8056     8070     8109     8143     8137 
    8106     8082     8055     8020     7985     7943     7909     7911 
    7950     8017     8093     8154     8187     8189     8160     8122 
    8082     8044     8017     8014     8041     8054     8028     7992 
    7962     7951     7981     8023     8060     8095     8116     8106 
    8082     8075     8098     8116     8116     8113     8091     8040 
    7967     7893     7857     7882     7967     8094     8206     8260 
    8259     8210     8147     8082     8004     7938     7920     7951 
    8006     8035     8016     7982     7958     7959     8009     8089 
    8156     8201     8228     8233     8209     8152     8071     7992 
    7933     7904     7900     7925     7955     7960     7969     8017 
    8104     8194     8248     8244     8185     8087     7996     7955 
    7970     8016     8063     8098     8124     8133     8127     8100 
    8048     7997     7954     7916     7893     7886     7888     7901 
    7935     8006     8127     8264     8376     8419     8363     8247 
    8124     8016     7938     7885     7854     7857     7900     7977 
    8047     8079     8090     8093     8105     8144     8185     8186 
    8147     8089     8037     8012     8001     7993     7971     7956 
    7987     8032     8059     8087     8104     8098     8086     8066 
    8040     8024     8025     8051     8086     8114     8124     8086 
    8019     7973     7962     7963     7971     7997     8048     8095 
    8133     8179     8217     8221     8174     8085     8002     7954 
    7927     7917     7908     7904     7931     7959     7969     7990 
    8032     8086     8149     8214     8264     8276     8248     8199 
    8141     8083     8023     7956     7921     7933     7963     7990 
    7997     7979     7973     7987     8024     8090     8155     8186 
    8181     8154     8133     8118     8098     8071     8021     7960 
    7929     7913     7908     7917     7923     7939     8006     8120 
    8235     8290     8267     8199     8128     8071     8027     7974 
    7931     7940     7983     8020     8036     8043     8068     8109 
    8152     8187     8195     8166     8098     8017     7969     7954 
    7960     7983     7997     8005     8032     8050     8055     8070 
    8087     8095     8089     8070     8047     8008     7977     7978 
    8002     8062     8155     8232     8259     8226     8140     8023 
    7908     7835     7823     7859     7935     8024     8093     8139 
    8159     8145     8132     8122     8114     8118     8101     8036 
    7970     7935     7939     7973     8016     8075     8148     8214 
    8240     8202     8129     8070     8023     7990     7977     7973 
    7979     7994     8010     8029     8058     8094     8113     8095 
    8075     8081     8085     8081     8054     7998     7946     7916 
    7913     7947     8010     8093     8178     8239     8270     8257 
    8193     8087     7965     7878     7869     7912     7974     8029 
    8055     8062     8066     8070     8059     8031     8014     8025 
    8048     8071     8089     8086     8090     8117     8154     8186 
    8190     8148     8073     7997     7950     7931     7929     7944 
    7974     8016     8063     8078     8058     8044     8039     8040 
    8051     8055     8050     8062     8097     8127     8127     8106 
    8090     8082     8089     8102     8081     8032     7986     7956 
    7956     7986     8027     8064     8090     8109     8128     8136 
    8127     8102     8071     8054     8044     8028     8009     7987 
    7971     7969     7967     7971     7985     7997     8013     8036 
    8055     8077     8104     8141     8195     8239     8259     8248 
    8187     8097     7994     7881     7798     7792     7852     7947 
    8044     8128     8183     8194     8170     8120     8067     8059 
    8086     8108     8120     8117     8100     8083     8075     8070 
    8073     8079     8086     8081     8050     8001     7954     7927 
    7931     7958     8004     8047     8074     8101     8125     8136 
    8143     8141     8106     8051     8000     7971     7960     7948 
    7950     7971     8020     8100     8160     8170     8147     8113 
    8086     8070     8058     8051     8046     8025     7983     7921 
    7862     7838     7873     7974     8101     8208     8268     8263 
    8212     8159     8108     8062     8040     8036     8058     8098 
    8104     8058     7996     7947     7923     7932     7975     8037 
    8089     8100     8074     8040     8020     8013     8023     8064 
    8121     8145     8129     8078     8014     7971     7963     7982 
    8014     8041     8062     8077     8083     8086     8082     8079 
    8098     8125     8127     8085     8020     7981     7986     8014 
    8047     8085     8137     8197     8221     8205     8156     8085 
    8023     7997     8000     8020     8021     7997     7977     7977 
    8002     8033     8028     8002     7996     8008     8040     8079 
    8094     8075     8039     8014     8014     8020     8021     8017 
    8019     8046     8095     8139     8166     8162     8139     8121 
    8106     8090     8074     8050     8016     7979     7950     7951 
    7979     8027     8077     8110     8131     8140     8135     8135 
    8122     8077     8017     7965     7928     7917     7928     7977 
    8050     8118     8183     8230     8233     8209     8160     8082 
    8004     7947     7916     7920     7946     7966     7971     7967 
    7973     8000     8037     8075     8102     8105     8087     8055 
    8024     8005     8001     8017     8058     8122     8194     8236 
    8226     8168     8082     8006     7950     7916     7906     7913 
    7939     7986     8033     8073     8093     8086     8071     8070 
    8078     8086     8085     8086     8105     8122     8121     8109 
    8085     8054     8017     7978     7955     7960     7985     8008 
    8014     8017     8036     8077     8129     8166     8176     8179 
    8168     8137     8100     8064     8041     8033     8029     8027 
    8029     8040     8055     8059     8048     8048     8067     8091 
    8102     8077     8023     7977     7954     7959     7983     8017 
    8046     8059     8073     8101     8124     8118     8090     8068 
    8086     8129     8168     8194     8191     8159     8121     8087 
    8044     7989     7919     7850     7819     7854     7946     8039 
    8087     8093     8074     8056     8055     8043     7990     7900 
    7817     7800     7855     7956     8089     8228     8363     8478 
    8540     8525     8418     8232     8031     7866     7766     7740 
    7763     7817     7892     7955     7989     7997     7993     7992 
    7998     8013     8046     8100     8171     8241     8274     8274 
    8259     8230     8198     8159     8121     8101     8085     8063 
    8046     8035     8051     8091     8110     8087     8035     7986 
    7959     7942     7944     7971     7990     8000     8019     8029 
    8035     8058     8094     8143     8198     8232     8222     8170 
    8108     8051     7982     7932     7938     7973     8020     8062 
    8066     8006     7881     7728     7626     7631     7759     7970 
    8194     8398     8559     8638     8619     8494     8287     8059 
    7847     7692     7620     7620     7669     7762     7888     8024 
    8156     8266     8329     8326     8266     8175     8073     7979 
    7912     7863     7835     7842     7897     8002     8151     8314 
    8442     8495     8468     8360     8193     7996     7782     7599 
    7518     7554     7693     7908     8114     8244     8272     8213 
    8117     8021     7925     7848     7807     7820     7902     8029 
    8190     8378     8538     8630     8640     8556     8380     8120 
    7819     7570     7434     7423     7522     7685     7885     8089 
    8256     8367     8405     8375     8314     8253     8206     8170 
    8121     8051     7973     7894     7824     7786     7808     7892 
    8005     8117     8220     8309     8371     8383     8325     8193 
    8006     7812     7657     7570     7568     7645     7784     7981 
    8197     8374     8467     8457     8386     8325     8295     8282 
    8267     8241     8214     8172     8089     7932     7708     7473 
    7311     7257     7300     7403     7538     7713     7932     8181 
    8438     8658     8785     8820     8800     8769     8726     8618 
    8433     8199     7956     7749     7574     7406     7268     7221 
    7304     7518     7800     8094     8365     8588     8737     8776 
    8700     8548     8349     8143     7960     7815     7728     7723 
    7789     7901     8006     8066     8091     8100     8120     8164 
    8209     8225     8201     8132     8055     8012     7997     7977 
    7925     7861     7827     7830     7859     7909     7963     8021 
    8081     8113     8133     8159     8176     8168     8136     8108 
    8110     8118     8087     7983     7823     7666     7582     7614 
    7771     8029     8338     8626     8810     8843     8733     8525 
    8272     8005     7773     7639     7604     7626     7677     7732 
    7788     7859     7947     8033     8101     8162     8240     8301 
    8317     8322     8333     8341     8320     8229     8082     7940 
    7839     7778     7739     7719     7738     7808     7939     8109 
    8276     8415     8500     8521     8494     8415     8279     8094 
    7874     7668     7523     7474     7539     7670     7813     7955 
    8078     8164     8210     8186     8089     7981     7933     7982 
    8091     8197     8262     8263     8202     8102     7975     7851 
    7776     7763     7819     7950     8135     8329     8476     8521 
    8463     8355     8263     8198     8110     7989     7897     7881 
    7923     7948     7900     7797     7699     7654     7680     7754 
    7869     8021     8185     8330     8406     8367     8225     8039 
    7902     7890     7992     8154     8317     8419     8440     8387 
    8271     8097     7867     7627     7460     7431     7561     7809 
    8094     8356     8568     8725     8818     8795     8611     8305 
    7960     7668     7468     7366     7372     7485     7682     7921 
    8151     8337     8459     8472     8376     8224     8059     7892 
    7732     7608     7558     7589     7688     7847     8044     8244 
    8413     8519     8550     8507     8387     8197     7979     7816 
    7761     7792     7882     8025     8209     8405     8557     8603 
    8545     8424     8290     8178     8070     7942     7800     7657 
    7546     7500     7527     7619     7750     7905     8106     8334 
    8530     8673     8733     8684     8545     8341     8101     7867 
    7662     7489     7369     7353     7464     7651     7861     8048 
    8166     8220     8251     8272     8289     8289     8239     8147 
    8054     7998     7998     8020     8037     8048     8055     8070 
    8086     8056     7966     7874     7848     7912     8031     8160 
    8264     8333     8392     8438     8429     8326     8132     7905 
    7734     7666     7701     7773     7819     7863     7971     8140 
    8311     8422     8441     8391     8307     8209     8085     7936 
    7815     7765     7788     7877     7993     8075     8106     8090 
    8029     7936     7827     7736     7709     7786     7983     8235 
    8442     8569     8608     8591     8536     8413     8216     8000 
    7815     7689     7611     7565     7558     7589     7668     7798 
    7962     8139     8294     8386     8402     8340     8213     8052 
    7898     7805     7794     7835     7916     8050     8222     8391 
    8478     8437     8295     8105     7924     7780     7672     7615 
    7631     7717     7873     8085     8302     8467     8536     8515 
    8433     8311     8193     8094     7994     7913     7874     7869 
    7884     7915     7951     7990     8020     8044     8071     8086 
    8075     8033     7973     7917     7875     7865     7911     7986 
    8071     8166     8235     8255     8257     8267     8283     8317 
    8368     8398     8337     8171     7932     7680     7489     7391 
    7369     7425     7576     7809     8086     8351     8552     8662 
    8677     8621     8510     8356     8193     8052     7958     7915 
    7904     7900     7902     7919     7946     7977     8000     8028 
    8071     8110     8135     8140     8118     8068     7983     7878 
    7796     7780     7851     7981     8125     8266     8378     8424 
    8384     8263     8090     7908     7747     7642     7604     7628 
    7711     7825     7954     8105     8264     8394     8455     8418 
    8303     8144     7974     7834     7742     7715     7780     7919 
    8091     8263     8386     8438     8429     8364     8289     8244 
    8221     8190     8112     7993     7882     7798     7754     7746 
    7749     7776     7821     7858     7886     7923     7982     8085 
    8224     8383     8530     8617     8623     8554     8437     8311 
    8195     8091     7987     7889     7838     7821     7793     7765 
    7771     7815     7886     7969     8041     8097     8121     8110 
    8073     8036     8020     7982     7896     7800     7751     7774 
    7850     7925     7981     8035     8105     8194     8267     8284 
    8257     8218     8182     8160     8149     8147     8139     8101 
    8036     7955     7862     7807     7823     7877     7944     8019 
    8105     8217     8340     8437     8465     8414     8326     8222 
    8113     8024     7936     7831     7743     7707     7731     7794 
    7857     7915     7987     8085     8205     8306     8343     8305 
    8209     8101     8013     7947     7892     7831     7774     7778 
    7858     7966     8052     8086     8087     8109     8174     8260 
    8322     8337     8324     8290     8240     8168     8044     7884 
    7757     7712     7749     7827     7890     7938     7986     8059 
    8185     8329     8425     8429     8343     8208     8073     7958 
    7863     7762     7646     7577     7624     7784     7981     8133 
    8235     8325     8428     8534     8590     8540     8378     8149 
    7944     7827     7774     7736     7709     7720     7798     7929 
