Origin Time       2025/03/28 03:50:00
Lat.              35.403
Long.             140.360
Depth. (km)       54
Mag.              4.4
Station Code      TCGH06
Station Lat.      36.4458
Station Long.     139.9509
Station Height(m) -1577.98
Record Time       2025/03/28 03:51:12
Sampling Freq(Hz) 100Hz
Duration Time(s)  120
Dir.              2
Scale Factor      7845(gal)/6170801
Max. Acc. (gal)   0.142
Last Correction   2025/03/28 03:50:57
Memo.             
[...]
    5824     5817     5818     5818     5809     5816     5828     5819 
    5808     5807     5825     5837     5825     5826     5832     5816 
    5810     5819     5819     5815     5820     5829     5832     5828 
    5822     5819     5823     5830     5826     5821     5823     5826 
    5830     5832     5830     5818     5815     5838     5842     5816 
    5814     5824     5811     5814     5825     5814     5817     5830 
    5826     5820     5816     5810     5803     5796     5808     5821 
    5819     5827     5836     5835     5832     5832     5831     5827 
    5835     5836     5809     5796     5814     5819     5813     5823 
    5829     5823     5827     5836     5833     5824     5821     5825 
    5821     5819     5826     5826     5822     5817     5805     5801 
    5808     5808     5800     5804     5821     5823     5809     5803 
    5808     5814     5821     5833     5842     5846     5844     5824 
    5810     5821     5824     5821     5825     5820     5813     5808 
    5808     5819     5823     5822     5827     5825     5828     5835 
    5819     5808     5815     5816     5815     5817     5820     5823 
    5824     5831     5830     5814     5806     5812     5818     5818 
    5818     5824     5828     5834     5840     5831     5817     5817 
    5822     5820     5821     5828     5829     5828     5820     5804 
    5804     5817     5816     5808     5817     5829     5820     5810 
    5810     5815     5826     5830     5824     5816     5815     5821 
    5827     5828     5827     5832     5846     5843     5827     5815 
    5815     5825     5831     5826     5821     5818     5810     5799 
    5793     5799     5809     5820     5828     5831     5830     5831 
    5828     5814     5797     5792     5803     5807     5801     5807 
    5826     5828     5822     5828     5832     5825     5819     5823 
    5834     5845     5843     5829     5824     5832     5828     5818 
    5823     5825     5815     5806     5805     5807     5805     5809 
    5822     5839     5848     5836     5825     5825     5812     5797 
    5797     5794     5796     5812     5822     5823     5823     5824 
    5829     5829     5827     5835     5833     5821     5815     5816 
    5826     5829     5832     5846     5846     5834     5838     5834 
    5816     5804     5796     5793     5793     5792     5801     5814 
    5811     5810     5826     5838     5842     5849     5851     5848 
    5839     5829     5826     5816     5804     5806     5812     5815 
    5814     5813     5817     5820     5820     5820     5821     5823 
    5824     5826     5819     5811     5812     5819     5829     5829 
    5819     5811     5810     5815     5822     5823     5824     5825 
    5826     5825     5818     5812     5814     5815     5823     5836 
    5831     5824     5823     5825     5830     5834     5835     5833 
    5831     5830     5831     5826     5815     5811     5814     5812 
    5814     5820     5811     5800     5808     5816     5814     5814 
    5810     5799     5799     5804     5800     5798     5804     5813 
    5820     5821     5823     5825     5826     5825     5819     5813 
    5813     5817     5823     5819     5816     5822     5825     5823 
    5825     5832     5835     5836     5838     5840     5841     5835 
    5827     5827     5826     5820     5812     5811     5819     5820 
    5811     5812     5821     5823     5823     5829     5833     5831 
    5825     5820     5822     5822     5823     5837     5841     5827 
    5820     5819     5811     5803     5802     5804     5811     5825 
    5829     5822     5821     5822     5823     5819     5807     5798 
    5799     5808     5822     5828     5824     5823     5823     5821 
    5813     5800     5804     5821     5825     5821     5824     5826 
    5825     5824     5829     5841     5844     5835     5824     5817 
    5817     5815     5808     5806     5812     5818     5821     5818 
    5819     5822     5815     5817     5829     5827     5820     5816 
    5807     5796     5791     5799     5814     5822     5818     5818 
    5826     5834     5836     5835     5839     5844     5840     5831 
    5822     5811     5809     5823     5834     5829     5826     5828 
    5819     5812     5819     5826     5821     5814     5808     5809 
    5816     5827     5840     5849     5839     5825     5822     5817 
    5813     5818     5818     5818     5823     5819     5809     5810 
    5818     5825     5830     5831     5825     5821     5816     5810 
    5813     5819     5823     5827     5831     5834     5831     5826 
    5823     5815     5807     5803     5800     5800     5806     5805 
    5795     5792     5794     5796     5802     5807     5812     5817 
    5818     5825     5844     5855     5857     5858     5855     5853 
    5858     5858     5846     5829     5811     5792     5789     5802 
    5808     5806     5815     5825     5822     5817     5817     5826 
    5838     5836     5828     5825     5818     5807     5806     5811 
    5815     5817     5822     5834     5843     5842     5836     5833 
    5832     5821     5805     5804     5810     5808     5807     5814 
    5818     5817     5814     5810     5811     5823     5834     5842 
    5845     5838     5825     5820     5814     5803     5801     5816 
    5828     5819     5814     5819     5814     5806     5805     5802 
    5798     5805     5820     5827     5824     5823     5828     5829 
    5827     5828     5826     5822     5818     5820     5826     5829 
    5832     5842     5842     5828     5824     5828     5819     5800 
    5790     5790     5795     5809     5825     5832     5825     5814 
    5812     5818     5817     5816     5817     5817     5825     5833 
    5838     5848     5847     5831     5824     5824     5818     5820 
    5831     5836     5837     5840     5838     5825     5810     5806 
    5804     5796     5794     5806     5816     5823     5832     5833 
    5833     5836     5824     5805     5798     5795     5798     5809 
    5821     5829     5831     5828     5818     5810     5808     5807 
    5806     5807     5808     5810     5815     5823     5838     5848 
    5844     5837     5836     5840     5840     5836     5834     5833 
    5828     5821     5812     5811     5814     5812     5809     5812 
    5819     5817     5812     5811     5814     5818     5810     5804 
    5810     5812     5812     5818     5823     5829     5838     5838 
    5835     5839     5835     5821     5816     5818     5816     5816 
    5819     5816     5813     5822     5827     5817     5805     5804 
    5808     5814     5816     5820     5825     5823     5818     5820 
    5823     5818     5812     5815     5836     5852     5850     5845 
    5844     5841     5841     5837     5828     5817     5806     5804 
    5810     5815     5822     5828     5817     5799     5799     5800 
    5791     5794     5813     5824     5823     5824     5829     5824 
    5814     5818     5821     5808     5800     5810     5820     5818 
    5816     5825     5831     5834     5838     5840     5845     5848 
    5836     5820     5812     5808     5803     5796     5792     5801 
    5814     5814     5810     5811     5815     5824     5834     5836 
    5829     5822     5819     5820     5822     5823     5825     5829 
    5830     5828     5827     5825     5817     5803     5798     5805 
    5815     5827     5846     5859     5851     5842     5844     5843 
    5832     5827     5829     5826     5809     5792     5785     5780 
    5780     5790     5798     5799     5799     5802     5807     5814 
    5829     5842     5837     5827     5827     5833     5835     5822 
    5810     5820     5827     5819     5817     5824     5831     5835 
    5830     5823     5825     5830     5834     5841     5841     5832 
    5829     5826     5814     5809     5808     5802     5803     5811 
    5812     5811     5810     5805     5804     5805     5800     5801 
    5805     5809     5822     5833     5837     5843     5847     5847 
    5844     5845     5849     5844     5837     5840     5842     5832 
    5819     5810     5805     5807     5811     5810     5812     5817 
    5814     5810     5812     5817     5817     5813     5813     5820 
    5828     5839     5847     5844     5839     5834     5824     5815 
    5805     5793     5797     5810     5811     5808     5806     5807 
    5812     5810     5809     5816     5813     5807     5811     5814 
    5814     5816     5822     5829     5834     5832     5822     5809 
    5800     5792     5791     5799     5803     5809     5824     5830 
    5827     5833     5838     5831     5827     5831     5835     5834 
    5836     5843     5838     5822     5811     5813     5824     5836 
    5845     5846     5840     5838     5835     5830     5826     5826 
    5825     5825     5834     5834     5819     5811     5813     5817 
    5811     5806     5814     5823     5821     5817     5807     5799 
    5806     5816     5824     5830     5826     5819     5810     5794 
    5791     5805     5813     5817     5822     5821     5821     5821 
    5822     5832     5844     5845     5835     5828     5830     5829 
    5816     5813     5828     5837     5831     5822     5815     5813 
    5812     5808     5804     5803     5801     5802     5805     5809 
    5811     5808     5812     5819     5815     5811     5812     5806 
    5800     5802     5802     5808     5822     5827     5824     5821 
    5817     5820     5833     5840     5843     5852     5854     5844 
    5841     5840     5834     5835     5834     5826     5824     5827 
    5828     5828     5824     5816     5807     5792     5778     5772 
    5775     5784     5794     5802     5810     5807     5797     5792 
    5785     5777     5782     5798     5812     5818     5824     5836 
    5843     5844     5845     5840     5837     5844     5852     5855 
    5855     5851     5845     5846     5852     5847     5843     5857 
    5862     5853     5850     5850     5847     5839     5823     5808 
    5797     5793     5799     5805     5804     5806     5825     5848 
    5859     5864     5870     5868     5855     5831     5805     5787 
    5768     5753     5752     5753     5750     5754     5763     5783 
    5814     5833     5836     5837     5849     5870     5879     5867 
    5860     5858     5843     5819     5800     5793     5791     5779 
    5767     5773     5781     5781     5783     5787     5786     5784 
    5796     5817     5836     5852     5861     5865     5870     5864 
    5842     5823     5808     5794     5794     5808     5817     5816 
    5814     5818     5830     5835     5829     5828     5824     5812 
    5807     5807     5806     5822     5852     5871     5872     5863 
    5856     5849     5841     5838     5845     5851     5853     5861 
    5869     5855     5830     5820     5819     5820     5834     5849 
    5849     5851     5857     5847     5826     5809     5799     5795 
    5795     5796     5792     5790     5789     5777     5767     5765 
    5757     5753     5758     5766     5787     5805     5813     5827 
    5841     5835     5816     5803     5803     5807     5805     5814 
    5829     5830     5833     5848     5855     5849     5834     5824 
    5829     5835     5828     5819     5822     5834     5848     5857 
    5857     5845     5824     5805     5791     5779     5772     5774 
    5779     5789     5808     5817     5808     5800     5810     5825 
    5847     5887     5912     5895     5863     5835     5811     5800 
    5802     5809     5822     5834     5833     5831     5841     5852 
    5852     5846     5838     5830     5824     5814     5804     5795 
    5778     5762     5758     5768     5785     5802     5818     5829 
    5841     5854     5853     5841     5827     5814     5808     5803 
    5793     5786     5784     5778     5779     5792     5807     5818 
    5824     5821     5811     5803     5804     5809     5826     5852 
    5862     5859     5858     5853     5838     5824     5825     5833 
    5836     5836     5834     5827     5826     5839     5852     5851 
    5837     5824     5822     5820     5809     5799     5799     5807 
    5821     5829     5831     5833     5828     5817     5805     5790 
    5775     5768     5776     5791     5797     5792     5794     5804 
    5810     5811     5812     5816     5820     5828     5843     5851 
    5844     5832     5817     5805     5803     5803     5801     5802 
    5808     5816     5828     5833     5834     5843     5847     5839 
    5835     5837     5838     5837     5840     5847     5858     5861 
    5842     5822     5824     5829     5817     5809     5820     5838 
    5852     5859     5851     5846     5857     5867     5867     5862 
    5853     5853     5844     5804     5774     5783     5802     5821 
    5840     5847     5851     5859     5845     5810     5791     5795 
    5800     5799     5800     5805     5807     5811     5824     5832 
    5821     5808     5813     5826     5827     5820     5818     5825 
    5828     5826     5818     5806     5791     5780     5786     5803 
    5821     5827     5811     5788     5784     5787     5771     5748 
    5742     5752     5767     5783     5801     5815     5822     5823 
    5816     5802     5796     5798     5803     5810     5827     5863 
    5907     5932     5925     5897     5875     5867     5849     5827 
    5823     5841     5870     5892     5893     5882     5863     5843 
    5836     5822     5792     5776     5782     5795     5809     5827 
    5846     5854     5847     5832     5820     5814     5803     5783 
    5770     5777     5788     5785     5780     5783     5780     5779 
    5796     5809     5808     5809     5820     5834     5848     5855 
    5855     5855     5839     5809     5793     5795     5799     5803 
    5802     5799     5811     5828     5822     5804     5804     5814 
    5821     5832     5840     5837     5828     5814     5796     5779 
    5776     5780     5784     5799     5815     5822     5833     5835 
    5817     5799     5787     5774     5769     5773     5776     5783 
    5800     5819     5838     5851     5847     5834     5840     5863 
    5878     5892     5900     5882     5855     5837     5829     5829 
    5825     5828     5843     5851     5848     5841     5828     5816 
    5810     5810     5819     5826     5822     5818     5818     5813 
    5806     5800     5798     5806     5811     5805     5797     5788 
    5794     5819     5831     5829     5835     5842     5842     5843 
    5854     5867     5869     5856     5836     5820     5809     5805 
    5806     5807     5809     5812     5808     5791     5781     5794 
    5814     5830     5844     5846     5838     5837     5830     5808 
    5802     5824     5844     5849     5849     5842     5828     5822 
    5820     5799     5777     5783     5801     5813     5815     5818 
    5834     5843     5835     5824     5810     5802     5808     5818 
    5830     5846     5850     5842     5834     5827     5828     5842 
    5851     5852     5856     5853     5827     5795     5774     5758 
    5754     5780     5808     5812     5807     5807     5814     5830 
    5841     5837     5830     5829     5829     5833     5834     5820 
    5800     5794     5803     5818     5822     5820     5828     5831 
    5816     5790     5776     5789     5814     5822     5815     5818 
    5827     5821     5811     5823     5845     5848     5834     5825 
    5829     5836     5837     5824     5808     5805     5804     5801 
    5812     5828     5830     5830     5831     5824     5820     5821 
    5816     5813     5829     5848     5840     5814     5807     5827 
    5853     5868     5861     5841     5829     5818     5808     5815 
    5820     5801     5779     5779     5792     5797     5794     5794 
    5796     5798     5802     5810     5816     5815     5815     5824 
    5832     5835     5841     5854     5872     5888     5893     5882 
    5863     5853     5853     5855     5851     5831     5806     5804 
    5809     5799     5799     5811     5812     5823     5829     5807 
    5791     5794     5794     5789     5779     5767     5766     5772 
    5779     5790     5800     5806     5819     5834     5829     5813 
    5808     5817     5818     5806     5802     5804     5807     5817 
    5832     5845     5842     5826     5815     5808     5810     5830 
    5845     5845     5837     5828     5844     5880     5896     5883 
    5870     5858     5838     5828     5827     5826     5832     5832 
    5809     5791     5792     5796     5799     5805     5810     5819 
    5825     5823     5819     5807     5801     5820     5836     5838 
    5849     5850     5826     5807     5795     5779     5784     5807 
    5814     5811     5820     5817     5807     5818     5831     5827 
    5831     5842     5836     5831     5844     5854     5847     5834 
    5823     5814     5810     5812     5803     5788     5783     5780 
    5783     5809     5844     5857     5853     5860     5869     5854 
    5838     5845     5853     5849     5842     5832     5828     5832 
    5840     5851     5859     5860     5859     5847     5831     5823 
    5813     5801     5799     5792     5773     5761     5764     5783 
    5804     5813     5814     5810     5801     5792     5791     5797 
    5796     5797     5820     5845     5845     5833     5833     5840 
    5845     5845     5843     5839     5829     5821     5822     5820 
    5821     5827     5824     5817     5827     5843     5836     5810 
    5791     5782     5773     5773     5779     5782     5790     5802 
    5806     5817     5829     5815     5794     5794     5799     5791 
    5787     5790     5791     5802     5823     5830     5836     5856 
    5871     5880     5897     5904     5900     5902     5893     5872 
    5857     5841     5815     5795     5786     5779     5784     5799 
    5810     5817     5828     5835     5829     5829     5849     5860 
    5845     5838     5846     5843     5831     5815     5793     5782 
    5779     5758     5739     5737     5736     5737     5750     5776 
    5801     5813     5811     5809     5814     5830     5845     5855 
    5865     5867     5867     5876     5877     5864     5850     5837 
    5833     5832     5821     5807     5803     5808     5810     5814 
    5820     5815     5806     5808     5814     5821     5833     5848 
    5864     5871     5859     5849     5848     5842     5838     5838 
    5828     5813     5806     5791     5777     5793     5813     5803 
    5791     5791     5786     5784     5790     5794     5813     5849 
    5868     5863     5857     5844     5827     5826     5836     5847 
    5864     5868     5847     5826     5819     5813     5808     5807 
    5798     5782     5773     5777     5786     5788     5795     5818 
    5836     5836     5826     5819     5810     5802     5805     5812 
    5808     5799     5797     5800     5807     5821     5835     5835 
    5821     5813     5825     5827     5808     5798     5808     5825 
    5836     5832     5834     5843     5847     5855     5865     5865 
