Origin Time       2025/03/28 03:50:00
Lat.              35.403
Long.             140.360
Depth. (km)       54
Mag.              4.4
Station Code      TCGH15
Station Lat.      36.5595
Station Long.     139.8637
Station Height(m) -175
Record Time       2025/03/28 03:51:17
Sampling Freq(Hz) 100Hz
Duration Time(s)  120
Dir.              1
Scale Factor      3923(gal)/8224838
Max. Acc. (gal)   0.106
Last Correction   2025/03/28 03:51:18
Memo.             
[...]
   -2377    -2359    -2343    -2353    -2350    -2355    -2385    -2400 
   -2394    -2382    -2353    -2336    -2338    -2340    -2361    -2381 
   -2381    -2384    -2382    -2366    -2361    -2370    -2380    -2392 
   -2396    -2377    -2370    -2382    -2369    -2354    -2371    -2382 
   -2370    -2373    -2386    -2390    -2380    -2369    -2367    -2366 
   -2358    -2354    -2354    -2358    -2359    -2353    -2358    -2376 
   -2371    -2346    -2347    -2376    -2376    -2354    -2355    -2353 
   -2339    -2365    -2398    -2394    -2389    -2394    -2389    -2378 
   -2362    -2361    -2377    -2376    -2358    -2353    -2355    -2362 
   -2361    -2351    -2369    -2397    -2393    -2381    -2385    -2378 
   -2371    -2374    -2365    -2361    -2378    -2381    -2361    -2358 
   -2370    -2365    -2347    -2346    -2355    -2350    -2350    -2369 
   -2381    -2381    -2389    -2397    -2397    -2401    -2398    -2385 
   -2384    -2374    -2354    -2358    -2362    -2351    -2354    -2349 
   -2338    -2355    -2369    -2374    -2404    -2408    -2374    -2363 
   -2357    -2334    -2334    -2346    -2351    -2370    -2398    -2413 
   -2407    -2385    -2369    -2361    -2362    -2374    -2374    -2373 
   -2380    -2366    -2358    -2374    -2382    -2388    -2394    -2378 
   -2366    -2370    -2359    -2351    -2355    -2354    -2347    -2332 
   -2330    -2358    -2376    -2367    -2369    -2371    -2366    -2365 
   -2362    -2367    -2385    -2385    -2381    -2382    -2378    -2385 
   -2405    -2409    -2392    -2367    -2365    -2381    -2390    -2397 
   -2401    -2386    -2366    -2355    -2351    -2365    -2380    -2369 
   -2362    -2365    -2354    -2346    -2340    -2335    -2349    -2359 
   -2355    -2361    -2380    -2397    -2394    -2370    -2361    -2363 
   -2358    -2362    -2361    -2340    -2342    -2361    -2374    -2389 
   -2386    -2373    -2371    -2374    -2381    -2384    -2365    -2355 
   -2385    -2417    -2420    -2404    -2385    -2374    -2380    -2386 
   -2374    -2350    -2343    -2353    -2353    -2344    -2335    -2323 
   -2335    -2355    -2353    -2351    -2350    -2342    -2343    -2351 
   -2355    -2367    -2382    -2392    -2394    -2393    -2396    -2392 
   -2373    -2361    -2369    -2378    -2376    -2363    -2347    -2340 
   -2353    -2361    -2366    -2374    -2380    -2382    -2380    -2373 
   -2377    -2390    -2400    -2400    -2390    -2377    -2376    -2376 
   -2370    -2369    -2371    -2366    -2366    -2374    -2367    -2358 
   -2361    -2358    -2355    -2367    -2376    -2367    -2363    -2361 
   -2351    -2358    -2371    -2366    -2351    -2344    -2338    -2328 
   -2323    -2323    -2336    -2353    -2370    -2397    -2403    -2388 
   -2380    -2376    -2386    -2413    -2415    -2394    -2390    -2394 
   -2392    -2381    -2365    -2369    -2388    -2398    -2398    -2396 
   -2389    -2370    -2335    -2326    -2350    -2357    -2355    -2373 
   -2392    -2400    -2407    -2407    -2390    -2373    -2366    -2362 
   -2340    -2312    -2311    -2324    -2323    -2317    -2330    -2351 
   -2366    -2369    -2362    -2357    -2361    -2369    -2374    -2376 
   -2381    -2401    -2424    -2417    -2384    -2369    -2377    -2370 
   -2354    -2362    -2385    -2400    -2403    -2394    -2380    -2371 
   -2371    -2363    -2349    -2338    -2344    -2359    -2362    -2362 
   -2376    -2384    -2380    -2378    -2385    -2381    -2357    -2350 
   -2367    -2371    -2363    -2365    -2367    -2370    -2376    -2377 
   -2382    -2385    -2381    -2386    -2397    -2393    -2378    -2365 
   -2350    -2336    -2344    -2363    -2373    -2377    -2367    -2347 
   -2344    -2346    -2343    -2351    -2369    -2373    -2363    -2362 
   -2380    -2385    -2385    -2398    -2388    -2370    -2385    -2382 
   -2359    -2359    -2362    -2354    -2357    -2365    -2385    -2401 
   -2397    -2394    -2405    -2407    -2411    -2415    -2390    -2362 
   -2358    -2358    -2353    -2347    -2343    -2350    -2362    -2369 
   -2369    -2357    -2349    -2354    -2358    -2358    -2363    -2374 
   -2384    -2386    -2377    -2363    -2363    -2373    -2376    -2374 
   -2378    -2381    -2377    -2376    -2376    -2367    -2354    -2331 
   -2304    -2301    -2324    -2342    -2346    -2357    -2380    -2409 
   -2431    -2427    -2403    -2389    -2388    -2392    -2390    -2380 
   -2376    -2384    -2384    -2377    -2362    -2343    -2342    -2347 
   -2358    -2386    -2401    -2386    -2380    -2385    -2381    -2385 
   -2396    -2384    -2370    -2359    -2336    -2328    -2340    -2347 
   -2349    -2343    -2332    -2324    -2319    -2328    -2357    -2367 
   -2367    -2393    -2419    -2419    -2430    -2440    -2419    -2389 
   -2374    -2373    -2385    -2398    -2393    -2369    -2347    -2346 
   -2358    -2361    -2361    -2363    -2365    -2358    -2350    -2344 
   -2338    -2331    -2336    -2343    -2346    -2358    -2376    -2390 
   -2403    -2411    -2409    -2397    -2380    -2378    -2392    -2396 
   -2388    -2385    -2384    -2376    -2365    -2351    -2344    -2349 
   -2359    -2377    -2390    -2394    -2385    -2369    -2363    -2357 
   -2338    -2323    -2322    -2323    -2328    -2334    -2338    -2355 
   -2377    -2378    -2358    -2342    -2338    -2340    -2350    -2349 
   -2343    -2358    -2390    -2413    -2412    -2404    -2401    -2390 
   -2378    -2396    -2431    -2450    -2432    -2405    -2401    -2403 
   -2381    -2350    -2323    -2305    -2307    -2330    -2358    -2384 
   -2405    -2428    -2434    -2407    -2371    -2346    -2331    -2339 
   -2349    -2328    -2311    -2320    -2330    -2334    -2349    -2366 
   -2381    -2398    -2407    -2409    -2415    -2420    -2417    -2404 
   -2384    -2366    -2362    -2358    -2339    -2327    -2343    -2367 
   -2378    -2376    -2358    -2350    -2367    -2373    -2354    -2344 
   -2350    -2357    -2361    -2361    -2359    -2376    -2398    -2401 
   -2385    -2367    -2355    -2349    -2354    -2369    -2392    -2408 
   -2412    -2417    -2416    -2405    -2398    -2386    -2367    -2374 
   -2393    -2398    -2396    -2378    -2361    -2371    -2381    -2367 
   -2355    -2347    -2336    -2331    -2334    -2347    -2373    -2381 
   -2370    -2369    -2366    -2347    -2326    -2317    -2328    -2354 
   -2373    -2380    -2373    -2367    -2377    -2382    -2373    -2370 
   -2362    -2340    -2336    -2349    -2362    -2394    -2428    -2425 
   -2392    -2363    -2354    -2351    -2357    -2380    -2408    -2423 
   -2421    -2403    -2371    -2354    -2358    -2354    -2334    -2327 
   -2342    -2347    -2346    -2357    -2376    -2390    -2386    -2366 
   -2369    -2384    -2370    -2351    -2355    -2363    -2358    -2344 
   -2328    -2324    -2342    -2370    -2394    -2401    -2401    -2405 
   -2403    -2397    -2400    -2405    -2407    -2400    -2390    -2390 
   -2393    -2384    -2361    -2338    -2338    -2355    -2355    -2342 
   -2336    -2327    -2311    -2326    -2373    -2403    -2404    -2405 
   -2405    -2409    -2411    -2382    -2350    -2351    -2362    -2377 
   -2408    -2415    -2388    -2366    -2353    -2349    -2361    -2366 
   -2373    -2389    -2377    -2340    -2317    -2317    -2332    -2344 
   -2350    -2366    -2373    -2362    -2366    -2381    -2371    -2351 
   -2342    -2334    -2327    -2342    -2362    -2361    -2351    -2358 
   -2381    -2401    -2419    -2436    -2432    -2413    -2403    -2390 
   -2388    -2398    -2397    -2388    -2382    -2367    -2357    -2362 
   -2355    -2347    -2361    -2374    -2376    -2374    -2370    -2366 
   -2357    -2342    -2349    -2380    -2407    -2400    -2376    -2378 
   -2394    -2385    -2374    -2370    -2350    -2344    -2358    -2363 
   -2370    -2378    -2373    -2362    -2358    -2355    -2350    -2342 
   -2346    -2363    -2381    -2392    -2389    -2378    -2365    -2351 
   -2343    -2351    -2378    -2392    -2373    -2358    -2363    -2349 
   -2324    -2326    -2335    -2343    -2359    -2363    -2362    -2367 
   -2361    -2362    -2382    -2392    -2389    -2394    -2397    -2396 
   -2397    -2390    -2380    -2378    -2393    -2408    -2394    -2374 
   -2369    -2353    -2347    -2361    -2355    -2358    -2386    -2393 
   -2373    -2353    -2334    -2322    -2320    -2319    -2320    -2334 
   -2357    -2376    -2382    -2389    -2394    -2394    -2393    -2389 
   -2385    -2385    -2385    -2374    -2358    -2349    -2350    -2363 
   -2384    -2388    -2388    -2389    -2373    -2353    -2351    -2365 
   -2378    -2374    -2359    -2357    -2363    -2381    -2398    -2392 
   -2389    -2403    -2388    -2365    -2369    -2369    -2366    -2385 
   -2400    -2392    -2382    -2384    -2389    -2390    -2382    -2371 
   -2367    -2362    -2355    -2355    -2351    -2350    -2355    -2350 
   -2330    -2316    -2320    -2331    -2349    -2367    -2384    -2393 
   -2376    -2336    -2323    -2328    -2324    -2326    -2357    -2386 
   -2388    -2389    -2411    -2415    -2398    -2385    -2381    -2390 
   -2388    -2376    -2386    -2393    -2386    -2398    -2408    -2397 
   -2396    -2393    -2374    -2357    -2336    -2319    -2323    -2320 
   -2311    -2311    -2317    -2332    -2351    -2370    -2397    -2415 
   -2419    -2434    -2452    -2462    -2457    -2438    -2428    -2419 
   -2382    -2361    -2371    -2366    -2357    -2369    -2373    -2366 
   -2351    -2319    -2299    -2311    -2334    -2342    -2328    -2312 
   -2309    -2308    -2299    -2295    -2303    -2317    -2326    -2339 
   -2358    -2359    -2350    -2351    -2357    -2359    -2361    -2369 
   -2401    -2430    -2444    -2461    -2462    -2447    -2434    -2423 
   -2411    -2398    -2382    -2381    -2393    -2388    -2374    -2370 
   -2370    -2374    -2370    -2355    -2347    -2343    -2335    -2338 
   -2349    -2351    -2347    -2347    -2358    -2373    -2380    -2384 
   -2385    -2380    -2374    -2367    -2353    -2347    -2358    -2359 
   -2355    -2350    -2343    -2347    -2357    -2359    -2374    -2397 
   -2403    -2400    -2398    -2389    -2381    -2386    -2392    -2397 
   -2420    -2438    -2420    -2385    -2373    -2381    -2384    -2377 
   -2369    -2359    -2350    -2349    -2370    -2392    -2382    -2365 
   -2362    -2366    -2369    -2367    -2367    -2370    -2358    -2338 
   -2328    -2331    -2355    -2386    -2403    -2412    -2423    -2430 
   -2416    -2380    -2349    -2339    -2322    -2301    -2305    -2317 
   -2317    -2328    -2347    -2359    -2361    -2358    -2361    -2377 
   -2397    -2408    -2413    -2417    -2424    -2428    -2421    -2419 
   -2428    -2442    -2439    -2417    -2390    -2371    -2339    -2293 
   -2278    -2296    -2316    -2344    -2367    -2366    -2362    -2369 
   -2365    -2354    -2339    -2313    -2315    -2340    -2338    -2324 
   -2344    -2362    -2349    -2334    -2332    -2332    -2332    -2330 
   -2320    -2317    -2336    -2376    -2417    -2439    -2459    -2485 
   -2485    -2474    -2477    -2463    -2425    -2412    -2417    -2405 
   -2382    -2365    -2363    -2370    -2361    -2347    -2343    -2332 
   -2316    -2315    -2320    -2322    -2317    -2313    -2319    -2336 
   -2358    -2380    -2393    -2401    -2417    -2421    -2398    -2376 
   -2363    -2359    -2362    -2355    -2346    -2351    -2357    -2354 
   -2359    -2353    -2335    -2335    -2344    -2361    -2390    -2411 
   -2411    -2405    -2408    -2413    -2400    -2365    -2340    -2327 
   -2308    -2301    -2312    -2316    -2320    -2340    -2371    -2397 
   -2407    -2405    -2409    -2417    -2420    -2434    -2452    -2463 
   -2463    -2442    -2404    -2384    -2367    -2331    -2301    -2281 
   -2262    -2247    -2246    -2249    -2254    -2269    -2299    -2342 
   -2401    -2479    -2551    -2573    -2546    -2494    -2438    -2396 
   -2378    -2378    -2384    -2390    -2389    -2365    -2316    -2274 
   -2251    -2239    -2243    -2268    -2300    -2339    -2377    -2403 
   -2415    -2425    -2447    -2469    -2467    -2462    -2474    -2477 
   -2473    -2474    -2454    -2408    -2362    -2312    -2262    -2230 
   -2207    -2193    -2204    -2241    -2301    -2376    -2427    -2440 
   -2431    -2421    -2416    -2412    -2421    -2438    -2440    -2427 
   -2409    -2371    -2328    -2304    -2289    -2292    -2327    -2344 
   -2317    -2282    -2261    -2265    -2296    -2332    -2359    -2376 
   -2393    -2421    -2447    -2466    -2492    -2511    -2505    -2469 
   -2407    -2359    -2344    -2326    -2313    -2328    -2340    -2336 
   -2331    -2308    -2282    -2281    -2299    -2324    -2338    -2324 
   -2319    -2349    -2394    -2434    -2452    -2440    -2405    -2377 
   -2378    -2404    -2436    -2454    -2442    -2420    -2407    -2394 
   -2384    -2380    -2373    -2359    -2350    -2344    -2343    -2365 
   -2417    -2469    -2486    -2462    -2417    -2377    -2340    -2316 
   -2326    -2373    -2420    -2436    -2417    -2363    -2297    -2245 
   -2201    -2161    -2158    -2203    -2253    -2278    -2299    -2342 
   -2397    -2434    -2436    -2413    -2385    -2370    -2351    -2312 
   -2289    -2295    -2311    -2358    -2435    -2488    -2506    -2521 
   -2540    -2555    -2558    -2548    -2528    -2504    -2470    -2423 
   -2393    -2401    -2415    -2423    -2447    -2459    -2421    -2357 
   -2305    -2272    -2253    -2249    -2231    -2188    -2147    -2157 
   -2227    -2312    -2384    -2447    -2482    -2470    -2421    -2359 
   -2324    -2344    -2388    -2403    -2381    -2346    -2327    -2319 
   -2288    -2261    -2277    -2317    -2346    -2367    -2398    -2417 
   -2409    -2392    -2389    -2404    -2416    -2415    -2407    -2403 
   -2397    -2361    -2304    -2280    -2290    -2296    -2308    -2335 
   -2351    -2374    -2412    -2415    -2405    -2424    -2444    -2463 
   -2485    -2479    -2458    -2440    -2409    -2371    -2350    -2336 
   -2324    -2312    -2307    -2317    -2315    -2286    -2280    -2305 
   -2344    -2384    -2404    -2425    -2467    -2492    -2471    -2413 
   -2338    -2299    -2309    -2331    -2339    -2330    -2322    -2340 
   -2367    -2373    -2385    -2420    -2444    -2446    -2434    -2419 
   -2407    -2396    -2389    -2388    -2382    -2369    -2347    -2331 
   -2346    -2376    -2382    -2369    -2363    -2354    -2322    -2285 
   -2251    -2227    -2227    -2245    -2266    -2304    -2361    -2423 
   -2463    -2465    -2421    -2371    -2355    -2366    -2376    -2385 
   -2380    -2351    -2339    -2351    -2350    -2344    -2347    -2357 
   -2380    -2403    -2407    -2409    -2438    -2502    -2565    -2586 
   -2570    -2521    -2455    -2417    -2400    -2370    -2358    -2377 
   -2403    -2436    -2462    -2452    -2420    -2376    -2324    -2296 
   -2278    -2242    -2207    -2181    -2162    -2164    -2177    -2196 
   -2258    -2342    -2392    -2412    -2427    -2458    -2496    -2485 
   -2428    -2381    -2361    -2346    -2327    -2286    -2246    -2247 
   -2280    -2307    -2347    -2390    -2405    -2401    -2380    -2349 
   -2338    -2339    -2342    -2388    -2465    -2515    -2525    -2498 
   -2463    -2447    -2436    -2408    -2373    -2361    -2380    -2409 
   -2434    -2440    -2424    -2380    -2316    -2276    -2288    -2346 
   -2427    -2481    -2479    -2452    -2421    -2397    -2374    -2327 
   -2266    -2227    -2214    -2222    -2242    -2270    -2317    -2354 
   -2357    -2366    -2385    -2381    -2366    -2340    -2305    -2305 
   -2335    -2343    -2340    -2331    -2313    -2324    -2361    -2401 
   -2446    -2477    -2490    -2500    -2474    -2412    -2358    -2315 
   -2282    -2289    -2330    -2374    -2412    -2423    -2413    -2417 
   -2438    -2448    -2452    -2458    -2470    -2492    -2506    -2475 
   -2394    -2300    -2230    -2201    -2200    -2214    -2251    -2289 
   -2300    -2296    -2317    -2359    -2393    -2408    -2407    -2421 
   -2461    -2486    -2477    -2458    -2443    -2420    -2389    -2342 
   -2284    -2242    -2218    -2200    -2212    -2257    -2286    -2280 
   -2270    -2285    -2301    -2305    -2340    -2409    -2474    -2536 
   -2579    -2567    -2523    -2479    -2431    -2378    -2336    -2326 
   -2330    -2323    -2331    -2358    -2381    -2420    -2470    -2475 
   -2448    -2428    -2413    -2390    -2358    -2336    -2338    -2347 
   -2351    -2340    -2316    -2300    -2289    -2273    -2278    -2317 
   -2370    -2416    -2440    -2442    -2420    -2389    -2370    -2354 
   -2327    -2307    -2295    -2293    -2332    -2389    -2427    -2454 
   -2481    -2493    -2488    -2458    -2416    -2384    -2346    -2311 
   -2308    -2319    -2322    -2334    -2347    -2330    -2301    -2293 
   -2300    -2313    -2353    -2415    -2466    -2496    -2516    -2531 
   -2521    -2490    -2457    -2412    -2366    -2344    -2322    -2273 
   -2230    -2214    -2228    -2265    -2292    -2300    -2293    -2274 
   -2259    -2262    -2282    -2316    -2358    -2396    -2425    -2446 
   -2439    -2415    -2404    -2421    -2462    -2486    -2478    -2469 
   -2462    -2427    -2378    -2335    -2303    -2305    -2339    -2366 
   -2388    -2428    -2467    -2470    -2440    -2407    -2390    -2388 
   -2384    -2388    -2386    -2363    -2338    -2316    -2299    -2316 
   -2369    -2416    -2431    -2409    -2396    -2411    -2403    -2363 
   -2330    -2315    -2317    -2330    -2334    -2338    -2357    -2377 
   -2374    -2343    -2309    -2284    -2268    -2265    -2278    -2300 
   -2324    -2334    -2320    -2315    -2336    -2370    -2389    -2401 
   -2421    -2432    -2423    -2408    -2405    -2411    -2417    -2417 
   -2407    -2396    -2401    -2416    -2423    -2411    -2388    -2359 
   -2326    -2297    -2278    -2288    -2330    -2377    -2407    -2404 
   -2373    -2342    -2326    -2317    -2317    -2323    -2334    -2367 
   -2419    -2444    -2438    -2419    -2382    -2327    -2276    -2242 
   -2241    -2292    -2359    -2396    -2400    -2381    -2359    -2354 
   -2363    -2385    -2408    -2424    -2428    -2401    -2349    -2315 
   -2313    -2328    -2344    -2353    -2349    -2339    -2328    -2336 
   -2388    -2454    -2484    -2469    -2443    -2430    -2431    -2451 
   -2475    -2462    -2424    -2394    -2374    -2361    -2354    -2336 
   -2315    -2297    -2281    -2273    -2278    -2285    -2308    -2349 
   -2385    -2394    -2380    -2373    -2376    -2362    -2338    -2327 
   -2335    -2350    -2357    -2359    -2357    -2342    -2346    -2374 
   -2398    -2442    -2505    -2525    -2515    -2521    -2511    -2446 
   -2371    -2316    -2284    -2278    -2301    -2346    -2404    -2448 
   -2455    -2438    -2419    -2405    -2382    -2350    -2317    -2292 
   -2270    -2250    -2226    -2219    -2242    -2261    -2268    -2307 
   -2366    -2403    -2416    -2438    -2478    -2519    -2529    -2512 
   -2485    -2447    -2396    -2357    -2342    -2340    -2351    -2361 
   -2369    -2382    -2378    -2353    -2336    -2319    -2286    -2263 
   -2251    -2247    -2262    -2280    -2297    -2324    -2355    -2392 
   -2423    -2424    -2404    -2385    -2381    -2392    -2404    -2417 
