Origin Time       2025/03/28 03:50:00
Lat.              35.403
Long.             140.360
Depth. (km)       54
Mag.              4.4
Station Code      TCGH06
Station Lat.      36.4458
Station Long.     139.9509
Station Height(m) -1577.98
Record Time       2025/03/28 03:51:12
Sampling Freq(Hz) 100Hz
Duration Time(s)  120
Dir.              1
Scale Factor      7845(gal)/6170801
Max. Acc. (gal)   0.125
Last Correction   2025/03/28 03:50:57
Memo.             
[...]
   -6128    -6127    -6127    -6128    -6126    -6125    -6127    -6127 
   -6126    -6125    -6124    -6124    -6127    -6128    -6126    -6126 
   -6126    -6127    -6127    -6127    -6129    -6128    -6129    -6128 
   -6126    -6127    -6127    -6127    -6126    -6126    -6128    -6127 
   -6127    -6128    -6126    -6125    -6127    -6128    -6126    -6125 
   -6127    -6125    -6126    -6129    -6128    -6127    -6125    -6124 
   -6126    -6127    -6126    -6125    -6124    -6125    -6127    -6128 
   -6128    -6127    -6126    -6127    -6129    -6127    -6126    -6127 
   -6126    -6128    -6130    -6126    -6123    -6127    -6128    -6126 
   -6128    -6128    -6127    -6127    -6125    -6126    -6128    -6126 
   -6127    -6130    -6128    -6124    -6126    -6127    -6126    -6125 
   -6125    -6126    -6127    -6126    -6126    -6127    -6127    -6128 
   -6128    -6126    -6127    -6129    -6127    -6126    -6127    -6127 
   -6125    -6127    -6129    -6125    -6123    -6123    -6121    -6121 
   -6121    -6118    -6120    -6124    -6126    -6128    -6132    -6131 
   -6128    -6126    -6127    -6129    -6137    -6142    -6136    -6131 
   -6126    -6119    -6119    -6121    -6120    -6122    -6122    -6113 
   -6109    -6117    -6127    -6136    -6142    -6144    -6146    -6147 
   -6142    -6135    -6130    -6127    -6118    -6104    -6100    -6103 
   -6108    -6120    -6132    -6139    -6140    -6132    -6128    -6132 
   -6137    -6142    -6138    -6127    -6121    -6121    -6122    -6125 
   -6133    -6137    -6132    -6126    -6126    -6121    -6117    -6119 
   -6122    -6123    -6125    -6123    -6115    -6119    -6126    -6127 
   -6132    -6133    -6120    -6117    -6132    -6137    -6128    -6125 
   -6125    -6121    -6118    -6110    -6104    -6110    -6115    -6107 
   -6111    -6128    -6138    -6142    -6145    -6137    -6125    -6121 
   -6129    -6137    -6139    -6131    -6118    -6112    -6111    -6108 
   -6114    -6129    -6135    -6124    -6122    -6134    -6133    -6131 
   -6148    -6149    -6134    -6129    -6117    -6106    -6116    -6125 
   -6130    -6147    -6160    -6140    -6123    -6141    -6140    -6113 
   -6125    -6145    -6115    -6098    -6123    -6131    -6122    -6118 
   -6122    -6131    -6118    -6112    -6127    -6119    -6111    -6116 
   -6127    -6159    -6168    -6138    -6121    -6134    -6127    -6091 
   -6103    -6131    -6114    -6116    -6127    -6112    -6111    -6132 
   -6151    -6134    -6108    -6128    -6145    -6139    -6133    -6127 
   -6139    -6133    -6104    -6115    -6131    -6116    -6111    -6120 
   -6117    -6112    -6125    -6126    -6121    -6140    -6147    -6125 
   -6129    -6144    -6133    -6130    -6142    -6140    -6143    -6152 
   -6140    -6123    -6125    -6127    -6120    -6124    -6124    -6105 
   -6106    -6128    -6126    -6119    -6126    -6118    -6122    -6143 
   -6140    -6135    -6139    -6139    -6151    -6152    -6135    -6129 
   -6118    -6104    -6107    -6101    -6094    -6114    -6133    -6141 
   -6151    -6155    -6143    -6133    -6137    -6125    -6110    -6124 
   -6124    -6114    -6120    -6110    -6102    -6110    -6103    -6103 
   -6124    -6134    -6123    -6112    -6114    -6115    -6113    -6115 
   -6123    -6128    -6123    -6122    -6134    -6146    -6153    -6161 
   -6166    -6147    -6125    -6122    -6123    -6122    -6121    -6110 
   -6097    -6101    -6116    -6126    -6133    -6133    -6128    -6133 
   -6136    -6133    -6144    -6156    -6147    -6136    -6132    -6127 
   -6123    -6120    -6119    -6117    -6107    -6106    -6122    -6127 
   -6123    -6134    -6139    -6132    -6136    -6141    -6141    -6137 
   -6128    -6129    -6128    -6112    -6109    -6110    -6101    -6116 
   -6127    -6112    -6119    -6131    -6123    -6119    -6129    -6141 
   -6139    -6127    -6132    -6142    -6138    -6139    -6141    -6131 
   -6126    -6133    -6137    -6126    -6113    -6118    -6124    -6125 
   -6137    -6132    -6112    -6123    -6144    -6137    -6125    -6118 
   -6117    -6122    -6126    -6134    -6128    -6110    -6114    -6123 
   -6115    -6109    -6108    -6110    -6123    -6133    -6123    -6113 
   -6113    -6114    -6121    -6134    -6142    -6145    -6141    -6134 
   -6139    -6144    -6143    -6141    -6131    -6121    -6123    -6124 
   -6114    -6106    -6116    -6134    -6136    -6133    -6137    -6136 
   -6131    -6128    -6119    -6114    -6112    -6100    -6097    -6110 
   -6120    -6133    -6147    -6138    -6128    -6136    -6137    -6130 
   -6132    -6138    -6143    -6150    -6151    -6141    -6136    -6129 
   -6119    -6121    -6117    -6107    -6116    -6124    -6121    -6128 
   -6132    -6126    -6125    -6123    -6125    -6136    -6128    -6107 
   -6102    -6107    -6113    -6123    -6131    -6122    -6111    -6121 
   -6140    -6146    -6142    -6133    -6123    -6119    -6119    -6113 
   -6109    -6117    -6127    -6132    -6138    -6136    -6125    -6121 
   -6123    -6124    -6122    -6124    -6126    -6113    -6108    -6116 
   -6121    -6122    -6118    -6117    -6125    -6129    -6124    -6128 
   -6131    -6129    -6137    -6142    -6130    -6124    -6134    -6145 
   -6146    -6134    -6119    -6120    -6121    -6111    -6117    -6132 
   -6136    -6139    -6141    -6140    -6143    -6140    -6128    -6125 
   -6127    -6129    -6136    -6137    -6126    -6119    -6118    -6106 
   -6100    -6107    -6116    -6125    -6132    -6127    -6122    -6127 
   -6135    -6134    -6133    -6144    -6148    -6136    -6132    -6137 
   -6133    -6130    -6132    -6136    -6138    -6138    -6138    -6127 
   -6109    -6102    -6104    -6105    -6107    -6108    -6119    -6132 
   -6128    -6122    -6128    -6135    -6135    -6137    -6135    -6127 
   -6121    -6117    -6115    -6110    -6099    -6092    -6099    -6111 
   -6118    -6120    -6128    -6136    -6139    -6141    -6142    -6148 
   -6162    -6162    -6140    -6126    -6131    -6130    -6125    -6131 
   -6135    -6129    -6128    -6131    -6125    -6118    -6124    -6128 
   -6124    -6126    -6124    -6116    -6118    -6122    -6120    -6125 
   -6132    -6125    -6118    -6127    -6143    -6153    -6151    -6145 
   -6138    -6134    -6130    -6119    -6112    -6114    -6111    -6104 
   -6103    -6105    -6113    -6118    -6113    -6114    -6121    -6119 
   -6114    -6116    -6118    -6117    -6113    -6104    -6106    -6118 
   -6126    -6138    -6149    -6151    -6147    -6140    -6130    -6122 
   -6114    -6115    -6125    -6129    -6119    -6114    -6123    -6131 
   -6136    -6141    -6143    -6150    -6158    -6149    -6134    -6129 
   -6130    -6133    -6126    -6115    -6113    -6115    -6116    -6125 
   -6134    -6133    -6132    -6134    -6133    -6130    -6134    -6141 
   -6136    -6127    -6124    -6122    -6124    -6135    -6135    -6131 
   -6136    -6136    -6129    -6123    -6117    -6116    -6119    -6119 
   -6119    -6126    -6135    -6137    -6130    -6120    -6111    -6104 
   -6094    -6088    -6099    -6110    -6116    -6121    -6124    -6127 
   -6129    -6122    -6122    -6139    -6149    -6147    -6149    -6146 
   -6136    -6131    -6128    -6130    -6142    -6144    -6131    -6126 
   -6129    -6127    -6125    -6128    -6134    -6137    -6133    -6130 
   -6127    -6115    -6108    -6118    -6125    -6128    -6139    -6140 
   -6121    -6103    -6098    -6098    -6103    -6113    -6110    -6102 
   -6119    -6145    -6152    -6148    -6144    -6139    -6130    -6117 
   -6106    -6099    -6094    -6101    -6111    -6120    -6136    -6146 
   -6143    -6141    -6138    -6131    -6132    -6136    -6137    -6134 
   -6128    -6131    -6144    -6148    -6140    -6137    -6138    -6137 
   -6138    -6131    -6121    -6121    -6125    -6124    -6116    -6108 
   -6111    -6115    -6112    -6115    -6113    -6109    -6121    -6136 
   -6138    -6148    -6164    -6160    -6132    -6110    -6112    -6120 
   -6119    -6114    -6112    -6113    -6110    -6110    -6116    -6112 
   -6106    -6114    -6126    -6132    -6133    -6130    -6127    -6127 
   -6126    -6122    -6117    -6116    -6121    -6128    -6128    -6133 
   -6147    -6152    -6150    -6147    -6138    -6133    -6135    -6131 
   -6120    -6113    -6120    -6126    -6116    -6108    -6110    -6112 
   -6117    -6119    -6122    -6131    -6132    -6120    -6115    -6118 
   -6117    -6119    -6127    -6134    -6138    -6137    -6140    -6152 
   -6151    -6139    -6134    -6128    -6120    -6125    -6137    -6141 
   -6142    -6142    -6136    -6129    -6131    -6136    -6139    -6142 
   -6143    -6139    -6134    -6131    -6129    -6129    -6126    -6124 
   -6125    -6124    -6120    -6112    -6095    -6081    -6079    -6082 
   -6088    -6096    -6100    -6107    -6107    -6099    -6106    -6123 
   -6130    -6137    -6146    -6146    -6144    -6146    -6144    -6142 
   -6142    -6145    -6157    -6167    -6166    -6166    -6160    -6139 
   -6119    -6113    -6115    -6115    -6109    -6104    -6104    -6103 
   -6112    -6128    -6130    -6121    -6119    -6123    -6124    -6121 
   -6126    -6138    -6142    -6141    -6137    -6133    -6130    -6127 
   -6124    -6117    -6106    -6101    -6104    -6111    -6117    -6117 
   -6119    -6128    -6133    -6135    -6137    -6131    -6131    -6144 
   -6157    -6158    -6149    -6136    -6123    -6113    -6110    -6119 
   -6126    -6124    -6126    -6126    -6122    -6121    -6114    -6104 
   -6108    -6122    -6135    -6139    -6134    -6136    -6143    -6140 
   -6128    -6128    -6134    -6131    -6131    -6130    -6121    -6117 
   -6115    -6116    -6120    -6118    -6116    -6121    -6121    -6119 
   -6121    -6125    -6136    -6147    -6145    -6134    -6130    -6135 
   -6136    -6127    -6117    -6113    -6112    -6112    -6115    -6123 
   -6134    -6145    -6145    -6133    -6124    -6126    -6130    -6141 
   -6150    -6142    -6130    -6127    -6125    -6113    -6105    -6113 
   -6114    -6105    -6106    -6114    -6114    -6114    -6124    -6139 
   -6141    -6137    -6139    -6138    -6133    -6136    -6141    -6139 
   -6132    -6133    -6143    -6150    -6150    -6148    -6151    -6152 
   -6139    -6126    -6124    -6119    -6114    -6117    -6120    -6121 
   -6113    -6105    -6112    -6122    -6125    -6130    -6129    -6112 
   -6100    -6105    -6105    -6096    -6101    -6116    -6121    -6115 
   -6112    -6120    -6129    -6132    -6125    -6116    -6122    -6132 
   -6131    -6131    -6138    -6138    -6129    -6123    -6127    -6134 
   -6137    -6133    -6132    -6146    -6157    -6150    -6141    -6133 
   -6118    -6109    -6114    -6119    -6121    -6127    -6128    -6114 
   -6097    -6089    -6092    -6104    -6116    -6126    -6136    -6148 
   -6162    -6169    -6169    -6169    -6159    -6140    -6135    -6142 
   -6140    -6132    -6132    -6138    -6138    -6136    -6131    -6118 
   -6105    -6107    -6113    -6114    -6111    -6107    -6107    -6109 
   -6109    -6111    -6110    -6106    -6113    -6131    -6147    -6150 
   -6139    -6132    -6127    -6115    -6104    -6103    -6113    -6127 
   -6135    -6138    -6142    -6141    -6132    -6130    -6134    -6139 
   -6146    -6148    -6141    -6133    -6125    -6113    -6107    -6111 
   -6114    -6110    -6106    -6102    -6097    -6101    -6116    -6128 
   -6131    -6134    -6141    -6149    -6152    -6145    -6134    -6132 
   -6138    -6140    -6138    -6137    -6139    -6144    -6149    -6148 
   -6140    -6136    -6134    -6131    -6130    -6133    -6131    -6117 
   -6114    -6124    -6122    -6113    -6119    -6129    -6132    -6140 
   -6146    -6137    -6125    -6116    -6103    -6096    -6099    -6103 
   -6103    -6101    -6109    -6122    -6126    -6123    -6124    -6128 
   -6132    -6127    -6120    -6119    -6110    -6107    -6123    -6133 
   -6130    -6133    -6138    -6137    -6138    -6140    -6135    -6128 
   -6124    -6115    -6101    -6101    -6113    -6122    -6127    -6137 
   -6145    -6147    -6149    -6146    -6140    -6139    -6138    -6127 
   -6119    -6123    -6120    -6112    -6113    -6113    -6115    -6126 
   -6140    -6149    -6145    -6132    -6125    -6114    -6103    -6110 
   -6126    -6136    -6145    -6148    -6143    -6137    -6131    -6123 
   -6116    -6121    -6132    -6134    -6140    -6152    -6147    -6130 
   -6123    -6124    -6120    -6111    -6105    -6099    -6096    -6104 
   -6112    -6121    -6130    -6133    -6138    -6146    -6145    -6143 
   -6148    -6149    -6146    -6146    -6142    -6133    -6124    -6116 
   -6111    -6114    -6126    -6137    -6138    -6137    -6133    -6120 
   -6107    -6101    -6098    -6105    -6116    -6124    -6122    -6111 
   -6105    -6110    -6111    -6106    -6111    -6126    -6135    -6140 
   -6144    -6138    -6127    -6126    -6134    -6151    -6166    -6173 
   -6169    -6153    -6133    -6119    -6110    -6105    -6103    -6104 
   -6109    -6108    -6102    -6102    -6107    -6108    -6109    -6121 
   -6137    -6140    -6138    -6149    -6160    -6155    -6149    -6146 
   -6137    -6134    -6138    -6136    -6130    -6129    -6129    -6128 
   -6129    -6135    -6145    -6156    -6165    -6162    -6149    -6141 
   -6131    -6109    -6094    -6092    -6086    -6081    -6081    -6075 
   -6060    -6044    -6031    -6033    -6053    -6072    -6082    -6090 
   -6098    -6107    -6120    -6138    -6161    -6186    -6206    -6219 
   -6224    -6224    -6225    -6222    -6206    -6189    -6186    -6193 
   -6190    -6177    -6168    -6166    -6164    -6154    -6139    -6122 
   -6104    -6087    -6071    -6054    -6038    -6031    -6046    -6069 
   -6075    -6073    -6081    -6093    -6110    -6135    -6143    -6137 
   -6142    -6148    -6138    -6126    -6125    -6129    -6136    -6141 
   -6136    -6131    -6131    -6130    -6128    -6130    -6125    -6118 
   -6117    -6116    -6114    -6110    -6097    -6092    -6099    -6095 
   -6088    -6094    -6096    -6095    -6103    -6122    -6144    -6154 
   -6151    -6151    -6154    -6156    -6161    -6168    -6168    -6157 
   -6141    -6128    -6114    -6108    -6117    -6128    -6130    -6137 
   -6148    -6152    -6157    -6168    -6173    -6164    -6156    -6150 
   -6143    -6135    -6124    -6113    -6099    -6088    -6096    -6116 
   -6130    -6143    -6155    -6152    -6139    -6127    -6116    -6103 
   -6086    -6069    -6065    -6072    -6083    -6099    -6115    -6120 
   -6121    -6121    -6119    -6125    -6141    -6145    -6133    -6122 
   -6124    -6125    -6120    -6122    -6131    -6138    -6142    -6132 
   -6125    -6136    -6144    -6140    -6126    -6106    -6098    -6109 
   -6119    -6114    -6108    -6116    -6137    -6159    -6180    -6189 
   -6186    -6175    -6156    -6127    -6096    -6089    -6103    -6106 
   -6101    -6109    -6126    -6133    -6119    -6101    -6099    -6110 
   -6136    -6165    -6169    -6158    -6152    -6139    -6119    -6106 
   -6102    -6111    -6121    -6119    -6129    -6154    -6171    -6179 
   -6186    -6188    -6182    -6172    -6160    -6145    -6121    -6104 
   -6098    -6088    -6076    -6077    -6083    -6080    -6079    -6086 
   -6090    -6093    -6104    -6117    -6133    -6149    -6154    -6155 
   -6168    -6188    -6196    -6180    -6154    -6129    -6107    -6093 
   -6094    -6103    -6108    -6109    -6112    -6118    -6122    -6119 
   -6108    -6099    -6094    -6089    -6088    -6097    -6118    -6141 
   -6147    -6140    -6139    -6147    -6154    -6153    -6145    -6130 
   -6118    -6118    -6119    -6118    -6130    -6147    -6150    -6143 
   -6140    -6142    -6142    -6145    -6145    -6136    -6117    -6097 
   -6085    -6085    -6092    -6101    -6106    -6105    -6103    -6104 
   -6116    -6138    -6158    -6157    -6150    -6158    -6166    -6157 
   -6148    -6144    -6134    -6129    -6139    -6145    -6136    -6134 
   -6135    -6124    -6111    -6103    -6094    -6094    -6108    -6113 
   -6107    -6112    -6125    -6125    -6108    -6087    -6075    -6073 
   -6075    -6081    -6104    -6127    -6128    -6119    -6124    -6136 
   -6147    -6154    -6158    -6166    -6182    -6205    -6217    -6203 
   -6189    -6190    -6179    -6160    -6156    -6156    -6148    -6137 
   -6129    -6126    -6121    -6109    -6101    -6096    -6093    -6097 
   -6100    -6096    -6089    -6081    -6073    -6068    -6075    -6089 
   -6091    -6081    -6077    -6092    -6112    -6116    -6120    -6131 
   -6135    -6143    -6171    -6199    -6212    -6210    -6197    -6187 
   -6188    -6182    -6152    -6120    -6112    -6104    -6073    -6050 
   -6045    -6041    -6048    -6066    -6075    -6078    -6087    -6096 
   -6104    -6122    -6142    -6160    -6177    -6185    -6180    -6168 
   -6166    -6167    -6149    -6122    -6116    -6116    -6108    -6115 
   -6143    -6168    -6185    -6195    -6185    -6158    -6138    -6127 
   -6119    -6121    -6128    -6124    -6111    -6107    -6115    -6119 
   -6118    -6121    -6126    -6126    -6131    -6140    -6131    -6121 
   -6130    -6137    -6118    -6095    -6079    -6064    -6061    -6082 
   -6105    -6112    -6116    -6126    -6126    -6120    -6124    -6126 
   -6115    -6101    -6088    -6083    -6087    -6099    -6116    -6130 
   -6138    -6147    -6167    -6185    -6178    -6164    -6167    -6168 
   -6161    -6162    -6155    -6130    -6113    -6104    -6096    -6109 
   -6123    -6103    -6080    -6099    -6132    -6135    -6132    -6147 
   -6160    -6167    -6174    -6170    -6155    -6146    -6147    -6155 
   -6172    -6188    -6188    -6178    -6167    -6158    -6153    -6145 
   -6136    -6117    -6087    -6076    -6088    -6088    -6078    -6074 
   -6077    -6092    -6108    -6107    -6103    -6107    -6122    -6139 
   -6142    -6135    -6128    -6110    -6097    -6101    -6108    -6106 
   -6102    -6108    -6116    -6107    -6092    -6095    -6110    -6122 
   -6142    -6167    -6175    -6164    -6154    -6147    -6137    -6129 
   -6136    -6133    -6108    -6092    -6095    -6095    -6093    -6107 
   -6131    -6140    -6137    -6139    -6142    -6139    -6145    -6167 
   -6186    -6187    -6184    -6181    -6158    -6127    -6116    -6119 
   -6121    -6126    -6130    -6121    -6106    -6101    -6100    -6086 
   -6079    -6085    -6072    -6059    -6078    -6109    -6139    -6165 
   -6159    -6131    -6102    -6077    -6073    -6094    -6115    -6132 
   -6141    -6142    -6143    -6135    -6119    -6122    -6138    -6146 
   -6142    -6124    -6111    -6126    -6150    -6162    -6159    -6149 
   -6137    -6125    -6124    -6132    -6142    -6144    -6136    -6134 
   -6142    -6139    -6134    -6153    -6183    -6192    -6175    -6149 
   -6132    -6126    -6120    -6112    -6113    -6111    -6109    -6121 
   -6131    -6119    -6107    -6103    -6091    -6082    -6092    -6100 
   -6101    -6111    -6120    -6113    -6101    -6097    -6096    -6101 
   -6114    -6128    -6128    -6126    -6136    -6144    -6143    -6148 
   -6153    -6145    -6144    -6150    -6133    -6109    -6104    -6107 
   -6110    -6118    -6128    -6130    -6131    -6134    -6141    -6155 
   -6162    -6162    -6162    -6163    -6165    -6158    -6140    -6133 
   -6130    -6119    -6122    -6127    -6111    -6101    -6112    -6116 
