Origin Time       2025/03/28 03:50:00
Lat.              35.403
Long.             140.360
Depth. (km)       54
Mag.              4.4
Station Code      TCGH06
Station Lat.      36.4458
Station Long.     139.9509
Station Height(m) -1577.98
Record Time       2025/03/28 03:51:12
Sampling Freq(Hz) 100Hz
Duration Time(s)  120
Dir.              3
Scale Factor      7845(gal)/6170801
Max. Acc. (gal)   0.128
Last Correction   2025/03/28 03:50:57
Memo.             
[...]
   -9835    -9822    -9827    -9847    -9871    -9884    -9878    -9852 
   -9831    -9833    -9849    -9857    -9846    -9828    -9817    -9810 
   -9799    -9794    -9810    -9837    -9853    -9857    -9850    -9839 
   -9835    -9835    -9836    -9833    -9834    -9839    -9830    -9825 
   -9835    -9844    -9850    -9855    -9860    -9870    -9874    -9867 
   -9851    -9826    -9812    -9815    -9814    -9815    -9822    -9820 
   -9808    -9799    -9811    -9827    -9816    -9797    -9796    -9808 
   -9830    -9844    -9848    -9852    -9846    -9828    -9812    -9800 
   -9802    -9819    -9846    -9876    -9891    -9892    -9889    -9876 
   -9856    -9855    -9869    -9877    -9884    -9883    -9863    -9841 
   -9840    -9854    -9852    -9824    -9808    -9813    -9812    -9808 
   -9814    -9822    -9829    -9826    -9811    -9811    -9818    -9808 
   -9799    -9800    -9794    -9794    -9812    -9831    -9845    -9858 
   -9866    -9868    -9865    -9854    -9837    -9835    -9847    -9841 
   -9822    -9825    -9833    -9821    -9804    -9799    -9811    -9822 
   -9829    -9857    -9883    -9877    -9868    -9866    -9849    -9831 
   -9831    -9847    -9857    -9845    -9823    -9803    -9800    -9820 
   -9832    -9821    -9810    -9822    -9844    -9849    -9844    -9849 
   -9849    -9843    -9844    -9849    -9849    -9846    -9858    -9879 
   -9877    -9858    -9843    -9834    -9823    -9819    -9823    -9829 
   -9842    -9848    -9838    -9832    -9827    -9816    -9809    -9803 
   -9797    -9802    -9816    -9834    -9844    -9843    -9850    -9860 
   -9843    -9815    -9808    -9816    -9828    -9841    -9846    -9833 
   -9820    -9819    -9826    -9838    -9839    -9828    -9827    -9842 
   -9859    -9868    -9867    -9862    -9854    -9855    -9868    -9865 
   -9843    -9839    -9851    -9857    -9866    -9874    -9869    -9849 
   -9821    -9808    -9813    -9820    -9827    -9832    -9828    -9828 
   -9823    -9807    -9801    -9799    -9791    -9794    -9802    -9796 
   -9800    -9828    -9846    -9839    -9838    -9855    -9867    -9865 
   -9857    -9853    -9847    -9842    -9844    -9842    -9828    -9821 
   -9828    -9834    -9832    -9830    -9837    -9850    -9853    -9849 
   -9849    -9853    -9857    -9858    -9852    -9839    -9830    -9831 
   -9835    -9831    -9829    -9837    -9836    -9826    -9823    -9823 
   -9821    -9823    -9829    -9829    -9832    -9843    -9855    -9867 
   -9871    -9866    -9856    -9840    -9826    -9813    -9800    -9796 
   -9797    -9804    -9813    -9810    -9815    -9835    -9850    -9850 
   -9856    -9874    -9884    -9874    -9852    -9832    -9826    -9829 
   -9839    -9850    -9839    -9818    -9810    -9805    -9802    -9815 
   -9833    -9851    -9865    -9864    -9856    -9852    -9848    -9842 
   -9843    -9842    -9833    -9834    -9839    -9836    -9820    -9797 
   -9783    -9788    -9796    -9808    -9828    -9845    -9853    -9856 
   -9855    -9858    -9866    -9863    -9847    -9833    -9829    -9830 
   -9828    -9824    -9820    -9826    -9835    -9837    -9844    -9856 
   -9859    -9850    -9836    -9831    -9838    -9846    -9846    -9841 
   -9833    -9826    -9833    -9859    -9871    -9861    -9857    -9854 
   -9846    -9843    -9839    -9824    -9811    -9815    -9817    -9817 
   -9826    -9830    -9834    -9844    -9836    -9820    -9819    -9819 
   -9815    -9809    -9801    -9798    -9802    -9813    -9822    -9827 
   -9841    -9859    -9869    -9861    -9839    -9831    -9835    -9829 
   -9830    -9841    -9846    -9847    -9846    -9848    -9862    -9871 
   -9864    -9855    -9841    -9826    -9825    -9834    -9836    -9830 
   -9829    -9840    -9857    -9866    -9864    -9857    -9846    -9836 
   -9827    -9814    -9815    -9828    -9828    -9818    -9812    -9819 
   -9824    -9822    -9827    -9828    -9823    -9829    -9843    -9855 
   -9859    -9859    -9859    -9852    -9842    -9844    -9849    -9854 
   -9860    -9846    -9817    -9808    -9816    -9823    -9829    -9832 
   -9828    -9819    -9825    -9844    -9850    -9848    -9847    -9836 
   -9819    -9811    -9815    -9818    -9813    -9815    -9826    -9834 
   -9837    -9838    -9846    -9856    -9858    -9851    -9839    -9836 
   -9843    -9835    -9822    -9834    -9851    -9851    -9850    -9852 
   -9852    -9854    -9855    -9855    -9853    -9841    -9838    -9849 
   -9841    -9820    -9814    -9821    -9828    -9827    -9808    -9782 
   -9778    -9790    -9798    -9805    -9824    -9847    -9858    -9851 
   -9842    -9854    -9868    -9861    -9842    -9830    -9830    -9840 
   -9853    -9862    -9859    -9842    -9835    -9842    -9839    -9831 
   -9835    -9834    -9824    -9826    -9828    -9816    -9805    -9809 
   -9832    -9862    -9877    -9878    -9867    -9840    -9822    -9825 
   -9834    -9844    -9841    -9830    -9836    -9850    -9853    -9849 
   -9839    -9827    -9830    -9839    -9845    -9850    -9846    -9836 
   -9827    -9820    -9809    -9804    -9821    -9845    -9852    -9847 
   -9839    -9834    -9833    -9831    -9832    -9840    -9842    -9840 
   -9836    -9826    -9817    -9820    -9835    -9839    -9830    -9831 
   -9843    -9845    -9833    -9819    -9824    -9833    -9831    -9839 
   -9844    -9842    -9848    -9862    -9876    -9882    -9871    -9861 
   -9853    -9835    -9817    -9812    -9815    -9814    -9803    -9804 
   -9826    -9846    -9844    -9833    -9832    -9839    -9834    -9827 
   -9828    -9826    -9813    -9801    -9793    -9789    -9793    -9797 
   -9802    -9810    -9815    -9826    -9841    -9841    -9835    -9837 
   -9847    -9867    -9878    -9871    -9869    -9875    -9875    -9871 
   -9865    -9855    -9851    -9846    -9838    -9835    -9836    -9824 
   -9815    -9833    -9847    -9841    -9835    -9832    -9840    -9854 
   -9853    -9849    -9857    -9860    -9862    -9863    -9846    -9829 
   -9829    -9828    -9829    -9839    -9840    -9829    -9824    -9834 
   -9844    -9840    -9829    -9828    -9831    -9825    -9823    -9823 
   -9810    -9796    -9802    -9819    -9834    -9838    -9832    -9831 
   -9834    -9831    -9836    -9854    -9863    -9861    -9849    -9833 
   -9829    -9835    -9829    -9819    -9818    -9812    -9808    -9820 
   -9831    -9824    -9818    -9828    -9834    -9828    -9835    -9849 
   -9853    -9857    -9865    -9869    -9870    -9864    -9856    -9852 
   -9846    -9843    -9847    -9851    -9848    -9838    -9822    -9817 
   -9834    -9848    -9836    -9814    -9801    -9797    -9789    -9784 
   -9796    -9806    -9807    -9808    -9807    -9810    -9824    -9840 
   -9849    -9855    -9859    -9856    -9850    -9847    -9843    -9839 
   -9841    -9848    -9848    -9837    -9833    -9842    -9845    -9847 
   -9864    -9873    -9861    -9850    -9848    -9851    -9855    -9850 
   -9836    -9839    -9853    -9842    -9826    -9832    -9824    -9799 
   -9802    -9829    -9843    -9848    -9859    -9867    -9856    -9843 
   -9843    -9836    -9822    -9822    -9824    -9821    -9827    -9833 
   -9837    -9847    -9850    -9834    -9815    -9803    -9796    -9790 
   -9789    -9804    -9820    -9821    -9818    -9818    -9825    -9830 
   -9829    -9833    -9848    -9860    -9850    -9839    -9853    -9863 
   -9847    -9837    -9844    -9850    -9853    -9868    -9878    -9858 
   -9827    -9813    -9806    -9806    -9814    -9816    -9815    -9827 
   -9838    -9838    -9829    -9813    -9799    -9797    -9805    -9816 
   -9833    -9850    -9856    -9863    -9878    -9888    -9882    -9869 
   -9865    -9862    -9857    -9858    -9857    -9853    -9859    -9864 
   -9853    -9832    -9821    -9829    -9840    -9844    -9844    -9834 
   -9818    -9811    -9816    -9824    -9817    -9808    -9812    -9815 
   -9815    -9826    -9842    -9851    -9854    -9848    -9833    -9820 
   -9819    -9818    -9807    -9805    -9824    -9833    -9827    -9832 
   -9834    -9829    -9835    -9845    -9848    -9860    -9882    -9895 
   -9894    -9892    -9881    -9853    -9828    -9810    -9786    -9767 
   -9769    -9776    -9780    -9791    -9804    -9810    -9812    -9821 
   -9839    -9864    -9884    -9886    -9879    -9874    -9871    -9861 
   -9844    -9827    -9809    -9791    -9789    -9796    -9807    -9819 
   -9821    -9822    -9831    -9835    -9839    -9847    -9851    -9845 
   -9833    -9816    -9812    -9827    -9837    -9833    -9837    -9850 
   -9854    -9847    -9855    -9867    -9862    -9860    -9861    -9847 
   -9837    -9840    -9835    -9834    -9837    -9818    -9802    -9809 
   -9814    -9816    -9818    -9825    -9845    -9860    -9862    -9865 
   -9866    -9854    -9834    -9820    -9816    -9815    -9822    -9835 
   -9847    -9865    -9875    -9867    -9860    -9859    -9852    -9841 
   -9834    -9834    -9827    -9804    -9793    -9800    -9802    -9808 
   -9822    -9827    -9831    -9836    -9836    -9843    -9854    -9858 
   -9862    -9868    -9872    -9869    -9857    -9835    -9815    -9810 
   -9811    -9802    -9792    -9789    -9793    -9799    -9810    -9825 
   -9834    -9829    -9819    -9816    -9824    -9829    -9829    -9839 
   -9852    -9848    -9843    -9851    -9854    -9850    -9853    -9858 
   -9861    -9866    -9862    -9850    -9840    -9840    -9843    -9834 
   -9821    -9827    -9846    -9853    -9842    -9821    -9808    -9811 
   -9810    -9801    -9804    -9808    -9801    -9801    -9808    -9812 
   -9829    -9864    -9882    -9887    -9898    -9893    -9875    -9862 
   -9851    -9848    -9845    -9828    -9810    -9805    -9813    -9820 
   -9819    -9826    -9836    -9847    -9860    -9861    -9858    -9858 
   -9861    -9871    -9872    -9853    -9844    -9842    -9825    -9810 
   -9808    -9799    -9786    -9795    -9820    -9834    -9830    -9818 
   -9815    -9826    -9832    -9821    -9807    -9805    -9812    -9812 
   -9808    -9810    -9814    -9820    -9830    -9832    -9832    -9837 
   -9847    -9857    -9864    -9861    -9868    -9894    -9902    -9887 
   -9882    -9888    -9880    -9869    -9866    -9861    -9852    -9842 
   -9822    -9811    -9823    -9837    -9840    -9841    -9840    -9829 
   -9811    -9801    -9804    -9809    -9823    -9845    -9851    -9844 
   -9843    -9844    -9845    -9850    -9850    -9843    -9839    -9838 
   -9837    -9836    -9830    -9826    -9831    -9836    -9840    -9844 
   -9836    -9824    -9814    -9807    -9802    -9793    -9785    -9789 
   -9795    -9809    -9844    -9874    -9885    -9880    -9861    -9843 
   -9846    -9856    -9855    -9848    -9850    -9856    -9850    -9827 
   -9802    -9788    -9786    -9790    -9799    -9813    -9817    -9812 
   -9823    -9844    -9860    -9868    -9860    -9850    -9846    -9830 
   -9813    -9819    -9836    -9848    -9853    -9848    -9834    -9824 
   -9830    -9844    -9854    -9854    -9845    -9842    -9850    -9857 
   -9857    -9849    -9839    -9837    -9838    -9836    -9832    -9828 
   -9830    -9839    -9838    -9830    -9835    -9850    -9865    -9871 
   -9859    -9845    -9838    -9827    -9815    -9805    -9797    -9796 
   -9797    -9796    -9809    -9833    -9849    -9859    -9860    -9844 
   -9832    -9835    -9831    -9817    -9824    -9847    -9853    -9844 
   -9842    -9840    -9832    -9831    -9834    -9828    -9825    -9844 
   -9865    -9867    -9866    -9876    -9883    -9873    -9848    -9828 
   -9822    -9828    -9849    -9869    -9863    -9851    -9860    -9870 
   -9863    -9857    -9855    -9841    -9818    -9794    -9779    -9779 
   -9778    -9776    -9777    -9770    -9765    -9780    -9799    -9813 
   -9829    -9842    -9848    -9851    -9850    -9839    -9832    -9826 
   -9815    -9813    -9815    -9801    -9792    -9804    -9824    -9844 
   -9866    -9887    -9893    -9889    -9892    -9886    -9870    -9867 
   -9871    -9874    -9884    -9891    -9881    -9869    -9861    -9853 
   -9844    -9831    -9821    -9828    -9845    -9855    -9849    -9835 
   -9827    -9820    -9810    -9801    -9797    -9807    -9830    -9837 
   -9831    -9833    -9830    -9818    -9815    -9813    -9815    -9830 
   -9831    -9805    -9783    -9781    -9787    -9793    -9808    -9827 
   -9833    -9835    -9844    -9854    -9857    -9858    -9857    -9846 
   -9832    -9823    -9820    -9819    -9822    -9827    -9830    -9835 
   -9847    -9862    -9864    -9853    -9851    -9866    -9871    -9856 
   -9843    -9842    -9844    -9850    -9853    -9845    -9841    -9842 
   -9832    -9812    -9807    -9816    -9816    -9813    -9819    -9830 
   -9840    -9841    -9842    -9856    -9865    -9862    -9857    -9853 
   -9859    -9862    -9851    -9838    -9830    -9820    -9811    -9810 
   -9807    -9795    -9796    -9809    -9820    -9824    -9826    -9827 
   -9828    -9829    -9826    -9825    -9839    -9867    -9887    -9883 
   -9872    -9863    -9852    -9852    -9864    -9871    -9871    -9868 
   -9854    -9834    -9823    -9823    -9825    -9819    -9811    -9800 
   -9784    -9787    -9804    -9810    -9812    -9811    -9807    -9815 
   -9824    -9829    -9841    -9850    -9843    -9844    -9863    -9870 
   -9859    -9845    -9833    -9827    -9835    -9841    -9846    -9855 
   -9854    -9839    -9825    -9822    -9840    -9863    -9875    -9874 
   -9850    -9821    -9816    -9826    -9828    -9826    -9833    -9849 
   -9865    -9875    -9874    -9867    -9866    -9865    -9850    -9834 
   -9819    -9800    -9775    -9749    -9735    -9745    -9759    -9773 
   -9791    -9796    -9801    -9817    -9830    -9843    -9856    -9861 
   -9864    -9870    -9870    -9860    -9855    -9857    -9861    -9860 
   -9851    -9846    -9851    -9849    -9845    -9851    -9862    -9866 
   -9856    -9836    -9836    -9854    -9855    -9841    -9839    -9845 
   -9844    -9836    -9829    -9824    -9817    -9815    -9824    -9827 
   -9821    -9814    -9813    -9837    -9864    -9854    -9832    -9831 
   -9833    -9833    -9834    -9834    -9836    -9832    -9818    -9814 
   -9822    -9823    -9808    -9796    -9806    -9814    -9805    -9802 
   -9812    -9821    -9828    -9841    -9853    -9860    -9869    -9880 
   -9886    -9886    -9886    -9889    -9882    -9869    -9865    -9860 
   -9849    -9848    -9846    -9831    -9830    -9841    -9839    -9828 
   -9822    -9816    -9807    -9800    -9795    -9786    -9778    -9777 
   -9786    -9792    -9787    -9785    -9796    -9804    -9797    -9791 
   -9803    -9822    -9829    -9828    -9838    -9863    -9880    -9884 
   -9891    -9898    -9898    -9906    -9912    -9889    -9860    -9847 
   -9837    -9830    -9839    -9849    -9842    -9831    -9825    -9826 
   -9828    -9827    -9820    -9813    -9813    -9820    -9825    -9832 
   -9839    -9834    -9830    -9833    -9835    -9841    -9849    -9848 
   -9837    -9830    -9833    -9836    -9827    -9808    -9799    -9815 
   -9840    -9854    -9865    -9880    -9885    -9875    -9858    -9851 
   -9861    -9869    -9850    -9832    -9836    -9837    -9823    -9809 
   -9798    -9794    -9800    -9810    -9822    -9834    -9840    -9841 
   -9840    -9836    -9842    -9859    -9868    -9856    -9837    -9828 
   -9826    -9824    -9822    -9819    -9812    -9801    -9796    -9798 
   -9798    -9806    -9816    -9819    -9821    -9813    -9802    -9815 
   -9839    -9850    -9854    -9863    -9874    -9876    -9863    -9850 
   -9848    -9847    -9837    -9824    -9817    -9824    -9833    -9831 
   -9829    -9834    -9841    -9846    -9852    -9857    -9856    -9849 
   -9848    -9851    -9854    -9862    -9868    -9869    -9864    -9851 
   -9842    -9838    -9832    -9827    -9825    -9824    -9827    -9821 
   -9812    -9811    -9805    -9794    -9789    -9789    -9791    -9795 
   -9804    -9819    -9838    -9849    -9855    -9859    -9855    -9845 
   -9838    -9837    -9839    -9834    -9824    -9825    -9834    -9838 
   -9844    -9856    -9870    -9874    -9862    -9851    -9853    -9849 
   -9834    -9831    -9835    -9834    -9834    -9843    -9846    -9840 
   -9840    -9837    -9825    -9827    -9836    -9830    -9824    -9832 
   -9841    -9841    -9829    -9813    -9802    -9807    -9824    -9840 
   -9853    -9857    -9850    -9837    -9829    -9831    -9834    -9831 
   -9830    -9831    -9829    -9828    -9826    -9820    -9816    -9825 
   -9836    -9830    -9821    -9825    -9835    -9844    -9848    -9849 
   -9860    -9870    -9868    -9868    -9871    -9868    -9872    -9878 
   -9872    -9866    -9866    -9867    -9864    -9857    -9842    -9824 
   -9817    -9812    -9798    -9787    -9794    -9800    -9799    -9807 
   -9826    -9840    -9839    -9829    -9824    -9837    -9847    -9838 
   -9831    -9831    -9823    -9815    -9809    -9804    -9808    -9813 
   -9814    -9819    -9823    -9820    -9825    -9837    -9834    -9824 
   -9819    -9816    -9823    -9836    -9840    -9846    -9857    -9861 
   -9862    -9870    -9873    -9865    -9853    -9844    -9842    -9846 
   -9840    -9824    -9811    -9805    -9797    -9797    -9815    -9823 
   -9815    -9814    -9818    -9817    -9824    -9841    -9858    -9862 
   -9856    -9851    -9843    -9835    -9836    -9842    -9846    -9846 
   -9849    -9853    -9861    -9868    -9863    -9857    -9859    -9857 
   -9855    -9857    -9842    -9821    -9816    -9818    -9811    -9804 
   -9807    -9811    -9811    -9813    -9817    -9822    -9831    -9839 
   -9848    -9864    -9876    -9872    -9864    -9861    -9857    -9844 
   -9826    -9808    -9797    -9798    -9805    -9810    -9814    -9816 
   -9819    -9828    -9829    -9827    -9839    -9847    -9839    -9835 
   -9843    -9851    -9852    -9853    -9858    -9854    -9843    -9841 
   -9851    -9856    -9854    -9851    -9848    -9838    -9820    -9809 
   -9816    -9831    -9839    -9836    -9833    -9830    -9825    -9829 
   -9838    -9838    -9835    -9836    -9834    -9828    -9826    -9827 
   -9827    -9833    -9837    -9831    -9826    -9823    -9814    -9801 
   -9794    -9803    -9826    -9849    -9855    -9846    -9847    -9856 
   -9856    -9859    -9874    -9881    -9876    -9868    -9858    -9843 
   -9837    -9841    -9843    -9841    -9835    -9828    -9824    -9822 
   -9824    -9828    -9827    -9824    -9828    -9831    -9825    -9813 
   -9812    -9825    -9837    -9837    -9830    -9829    -9833    -9831 
   -9829    -9834    -9836    -9833    -9836    -9843    -9840    -9834 
   -9831    -9831    -9834    -9837    -9844    -9850    -9843    -9832 
   -9832    -9836    -9838    -9841    -9838    -9829    -9820    -9815 
   -9822    -9834    -9841    -9835    -9828    -9836    -9851    -9862 
   -9869    -9863    -9852    -9860    -9875    -9881    -9877    -9865 
   -9850    -9836    -9828    -9824    -9816    -9812    -9818    -9819 
   -9817    -9825    -9832    -9830    -9826    -9823    -9823    -9832 
   -9841    -9838    -9829    -9833    -9839    -9832    -9821    -9819 
   -9823    -9830    -9835    -9828    -9816    -9811    -9811    -9815 
   -9815    -9811    -9813    -9816    -9820    -9832    -9840    -9838 
   -9839    -9848    -9850    -9846    -9843    -9841    -9847    -9859 
   -9863    -9861    -9864    -9865    -9856    -9850    -9850    -9849 
   -9845    -9840    -9838    -9841    -9844    -9841    -9842    -9846 
