Origin Time       2025/03/28 03:50:00
Lat.              35.403
Long.             140.360
Depth. (km)       54
Mag.              4.4
Station Code      TCGH12
Station Lat.      36.6959
Station Long.     139.9842
Station Height(m) 42
Record Time       2025/03/28 03:51:20
Sampling Freq(Hz) 100Hz
Duration Time(s)  120
Dir.              1
Scale Factor      2942(gal)/8224139
Max. Acc. (gal)   0.130
Last Correction   2025/03/28 03:51:20
Memo.             
[...]
  176801   176794   176777   176750   176731   176727   176719   176697 
  176665   176628   176600   176578   176553   176528   176520   176540 
  176571   176596   176613   176621   176627   176640   176658   176673 
  176677   176665   176644   176628   176617   176617   176640   176677 
  176709   176732   176746   176748   176746   176743   176752   176766 
  176766   176755   176746   176721   176685   176656   176655   176673 
  176694   176698   176675   176642   176608   176573   176558   176569 
  176594   176628   176661   176685   176701   176710   176715   176727 
  176750   176763   176750   176710   176661   176621   176608   176602 
  176594   176597   176619   176640   176654   176675   176704   176727 
  176747   176775   176801   176813   176816   176798   176755   176709 
  176688   176673   176661   176663   176669   176667   176667   176667 
  176656   176638   176621   176607   176593   176590   176600   176616 
  176636   176661   176692   176704   176692   176683   176675   176651 
  176621   176594   176575   176571   176580   176601   176639   176675 
  176696   176713   176737   176764   176787   176790   176754   176709 
  176688   176686   176689   176704   176732   176750   176740   176719 
  176700   176682   176666   176654   176650   176656   176669   176663 
  176632   176609   176608   176609   176608   176612   176623   176635 
  176640   176631   176628   176648   176679   176700   176706   176705 
  176700   176705   176712   176731   176773   176802   176793   176766 
  176736   176698   176663   176634   176607   176589   176590   176590 
  176586   176592   176604   176608   176608   176620   176642   176661 
  176670   176669   176669   176677   176690   176709   176735   176746 
  176736   176709   176681   176673   176682   176693   176701   176719 
  176737   176733   176717   176713   176705   176688   176673   176665 
  176665   176670   176682   176702   176723   176742   176743   176727 
  176712   176710   176710   176706   176689   176651   176628   176631 
  176636   176636   176635   176627   176615   176597   176569   176547 
  176551   176582   176620   176639   176648   176652   176648   176642 
  176636   176642   176655   176669   176689   176719   176748   176774 
  176791   176797   176790   176782   176783   176796   176808   176812 
  176806   176789   176774   176785   176798   176783   176744   176685 
  176620   176574   176550   176536   176542   176562   176575   176589 
  176615   176636   176642   176643   176652   176678   176705   176712 
  176708   176710   176716   176720   176720   176713   176705   176690 
  176652   176605   176578   176570   176565   176574   176604   176655 
  176728   176790   176814   176818   176809   176781   176743   176713 
  176694   176679   176652   176615   176590   176590   176608   176634 
  176650   176661   176683   176706   176709   176692   176661   176611 
  176562   176536   176535   176550   176588   176647   176716   176779 
  176823   176840   176839   176823   176800   176775   176742   176700 
  176666   176643   176616   176575   176538   176523   176531   176559 
  176608   176658   176688   176690   176659   176611   176567   176539 
  176520   176511   176521   176543   176573   176617   176675   176748 
  176836   176908   176936   176926   176883   176836   176806   176783 
  176766   176744   176708   176670   176632   176604   176596   176593 
  176585   176589   176605   176615   176629   176659   176662   176627 
  176570   176489   176407   176368   176386   176451   176542   176632 
  176708   176783   176860   176913   176925   176904   176868   176825 
  176787   176767   176747   176729   176733   176735   176706   176675 
  176669   176681   176698   176719   176748   176773   176770   176735 
  176686   176640   176604   176588   176598   176602   176571   176538 
  176528   176542   176581   176642   176697   176735   176750   176735 
  176701   176650   176578   176520   176513   176553   176620   176715 
  176809   176871   176879   176843   176794   176742   176679   176632 
  176623   176634   176654   176686   176717   176736   176733   176715 
  176710   176740   176783   176806   176805   176782   176744   176697 
  176636   176565   176497   176449   176435   176466   176532   176602 
  176667   176731   176781   176797   176783   176748   176689   176620 
  176566   176544   176550   176569   176594   176608   176588   176546 
  176531   176557   176600   176648   176709   176767   176801   176816 
  176829   176847   176878   176914   176922   176905   176867   176800 
  176728   176689   176666   176639   176602   176548   176500   176480 
  176474   176469   176486   176554   176671   176793   176855   176850 
  176820   176796   176777   176746   176692   176624   176553   176488 
  176457   176478   176524   176582   176666   176743   176762   176733 
  176690   176656   176642   176648   176661   176685   176735   176798 
  176854   176904   176929   176894   176808   176712   176629   176580 
  176559   176553   176551   176539   176523   176540   176604   176678 
  176735   176756   176742   176728   176735   176746   176740   176715 
  176669   176608   176558   176550   176581   176634   176709   176796 
  176836   176812   176760   176716   176682   176652   176613   176565 
  176535   176548   176615   176716   176808   176867   176909   176931 
  176920   176879   176813   176729   176659   176598   176532   176473 
  176442   176447   176477   176515   176559   176608   176650   176683 
  176713   176737   176740   176728   176736   176756   176758   176756 
  176775   176789   176783   176775   176759   176731   176719   176712 
  176685   176650   176629   176617   176601   176594   176592   176574 
  176570   176602   176639   176659   176693   176746   176787   176806 
  176813   176806   176770   176710   176636   176554   176485   176446 
  176440   176480   176539   176589   176629   176665   176689   176710 
  176728   176732   176731   176736   176737   176731   176724   176720 
  176723   176725   176720   176717   176709   176675   176627   176597 
  176574   176546   176527   176513   176505   176517   176553   176605 
  176669   176729   176778   176816   176827   176809   176774   176716 
  176625   176517   176424   176377   176388   176453   176551   176661 
  176767   176843   176878   176898   176910   176901   176862   176794 
  176706   176625   176567   176550   176584   176636   176669   176690 
  176706   176702   176681   176636   176567   176519   176521   176548 
  176581   176629   176689   176742   176783   176790   176742   176669 
  176615   176590   176598   176636   176666   176674   176689   176715 
  176737   176751   176735   176696   176647   176604   176604   176650 
  176701   176737   176756   176756   176736   176712   176701   176694 
  176670   176636   176619   176624   176646   176678   176710   176717 
  176698   176685   176688   176686   176679   176686   176709   176716 
  176697   176686   176694   176701   176706   176716   176721   176723 
  176719   176709   176694   176689   176694   176694   176683   176663 
  176634   176601   176592   176627   176696   176773   176829   176848 
  176828   176790   176750   176705   176648   176594   176573   176581 
  176598   176605   176585   176550   176540   176565   176617   176686 
  176743   176779   176808   176818   176805   176796   176801   176809 
  176812   176797   176758   176709   176669   176646   176648   176667 
  176671   176656   176625   176578   176544   176540   176538   176535 
  176551   176575   176605   176663   176732   176777   176797   176796 
  176773   176751   176723   176681   176662   176681   176705   176713 
  176702   176673   176640   176628   176635   176658   176704   176763 
  176812   176845   176867   176855   176816   176782   176755   176713 
  176648   176578   176527   176494   176485   176507   176543   176570 
  176584   176607   176627   176623   176609   176596   176569   176546 
  176548   176578   176617   176650   176679   176716   176756   176790 
  176787   176748   176694   176648   176628   176646   176693   176756 
  176804   176790   176727   176670   176642   176628   176629   176655 
  176698   176729   176731   176709   176675   176644   176609   176557 
  176492   176434   176403   176401   176431   176499   176600   176690 
  176759   176813   176847   176871   176894   176902   176890   176858 
  176810   176755   176704   176661   176620   176596   176617   176669 
  176705   176720   176737   176764   176790   176798   176779   176747 
  176720   176704   176683   176636   176575   176534   176523   176538 
  176569   176601   176625   176632   176616   176590   176563   176528 
  176504   176503   176508   176523   176561   176620   176700   176777 
  176818   176835   176855   176881   176904   176913   176898   176848 
  176786   176743   176727   176719   176698   176671   176662   176658 
  176628   176598   176601   176621   176646   176674   176688   176669 
  176644   176638   176643   176661   176688   176693   176659   176615 
  176586   176584   176612   176656   176700   176735   176744   176710 
  176655   176615   176594   176575   176555   176528   176513   176535 
  176570   176607   176654   176705   176759   176813   176824   176782 
  176731   176688   176658   176674   176742   176814   176850   176843 
  176812   176771   176731   176690   176670   176677   176689   176665 
  176611   176562   176539   176551   176590   176623   176635   176650 
  176683   176717   176736   176736   176716   176683   176650   176609 
  176553   176484   176426   176404   176426   176485   176582   176681 
  176740   176767   176785   176798   176808   176820   176827   176806 
  176756   176701   176661   176634   176638   176685   176740   176755 
  176719   176650   176573   176511   176489   176503   176530   176573 
  176636   176696   176732   176739   176736   176739   176744   176747 
  176752   176748   176732   176728   176739   176729   176694   176670 
  176677   176694   176698   176690   176665   176612   176554   176524 
  176521   176524   176535   176573   176639   176717   176796   176848 
  176845   176793   176727   176665   176615   176596   176594   176586 
  176578   176589   176628   176696   176783   176871   176932   176944 
  176906   176828   176732   176654   176619   176620   176635   176656 
  176682   176693   176681   176669   176683   176735   176785   176801 
  176783   176731   176651   176581   176547   176550   176582   176624 
  176661   176693   176719   176712   176671   176636   176621   176607 
  176582   176565   176580   176621   176658   176679   176701   176720 
  176723   176702   176666   176636   176631   176644   176663   176678 
  176678   176666   176656   176650   176642   176661   176708   176762 
  176812   176860   176897   176910   176901   176881   176870   176874 
  176875   176837   176763   176682   176616   176570   176543   176517 
  176490   176472   176473   176496   176530   176570   176620   176673 
  176715   176751   176796   176827   176812   176747   176640   176526 
  176449   176431   176455   176494   176534   176593   176666   176728 
  176778   176820   176825   176798   176770   176744   176720   176716 
  176733   176742   176724   176685   176636   176598   176586   176604 
  176639   176669   176690   176705   176696   176669   176638   176605 
  176578   176569   176575   176593   176624   176651   176643   176600 
  176553   176521   176509   176515   176538   176577   176624   176655 
  176670   176685   176702   176721   176748   176786   176841   176909 
  176952   176941   176887   176818   176751   176697   176661   176631 
  176597   176569   176559   176569   176584   176608   176647   176702 
  176775   176855   176912   176941   176935   176887   176821   176767 
  176727   176682   176621   176554   176500   176467   176463   176490 
  176540   176600   176655   176689   176705   176720   176731   176723 
  176697   176666   176635   176609   176601   176634   176709   176794 
  176864   176908   176906   176856   176790   176742   176706   176681 
  176654   176620   176593   176581   176582   176590   176615   176648 
  176679   176704   176717   176693   176628   176543   176455   176392 
  176382   176418   176470   176536   176605   176663   176708   176735 
  176752   176771   176783   176782   176778   176791   176820   176841 
  176841   176818   176782   176751   176731   176709   176692   176689 
  176677   176631   176569   176512   176470   176443   176427   176423 
  176428   176435   176443   176457   176477   176504   176538   176573 
  176594   176612   176640   176661   176681   176728   176793   176854 
  176898   176925   176937   176936   176914   176882   176856   176843 
  176835   176824   176793   176743   176698   176681   176677   176656 
  176615   176581   176559   176536   176532   176567   176607   176624 
  176627   176616   176601   176596   176608   176634   176670   176705 
  176733   176752   176733   176683   176646   176651   176682   176725 
  176764   176779   176770   176755   176736   176706   176677   176659 
  176639   176613   176598   176609   176652   176700   176717   176715 
  176720   176737   176751   176742   176720   176719   176733   176737 
  176737   176740   176725   176697   176674   176652   176631   176609 
  176585   176566   176565   176563   176558   176581   176647   176732 
  176814   176885   176926   176925   176883   176818   176742   176667 
  176613   176555   176474   176388   176327   176311   176338   176397 
  176474   176561   176652   176748   176839   176901   176920   176910 
  176885   176843   176804   176785   176786   176794   176797   176806 
  176829   176837   176816   176778   176733   176688   176656   176635 
  176617   176607   176600   176594   176581   176565   176566   176597 
  176642   176685   176716   176725   176702   176658   176619   176594 
  176586   176596   176608   176605   176586   176570   176573   176592 
  176623   176658   176690   176712   176710   176689   176669   176663 
  176675   176701   176733   176763   176774   176769   176758   176751 
  176747   176746   176746   176739   176720   176696   176677   176667 
  176663   176654   176638   176625   176616   176602   176589   176582 
  176585   176593   176601   176611   176632   176663   176683   176679 
  176663   176654   176661   176669   176667   176659   176647   176621 
  176593   176585   176602   176629   176647   176643   176613   176574 
  176543   176536   176562   176616   176674   176724   176775   176828 
  176867   176897   176925   176935   176910   176867   176833   176827 
  176839   176840   176827   176817   176808   176800   176804   176808 
  176798   176778   176740   176693   176656   176636   176623   176607 
  176581   176547   176516   176494   176480   176472   176486   176515 
  176544   176562   176557   176546   176554   176562   176558   176562 
  176573   176580   176594   176625   176670   176723   176771   176785 
  176756   176715   176674   176644   176636   176647   176665   176688 
  176713   176739   176760   176781   176801   176814   176825   176839 
  176845   176833   176797   176744   176692   176648   176602   176557 
  176527   176504   176473   176443   176424   176415   176423   176459 
  176520   176584   176627   176650   176663   176669   176666   176663 
  176670   176686   176705   176723   176737   176754   176781   176801 
  176797   176779   176748   176708   176677   176658   176652   176665 
  176681   176683   176674   176667   176667   176670   176673   176666 
  176651   176646   176644   176640   176638   176646   176667   176689 
  176708   176733   176769   176802   176835   176851   176839   176798 
  176737   176667   176597   176536   176492   176461   176440   176443 
  176476   176523   176573   176625   176656   176659   176652   176652 
  176654   176655   176658   176655   176656   176690   176746   176790 
  176813   176832   176858   176870   176867   176867   176870   176863 
  176845   176817   176785   176759   176742   176729   176724   176725 
  176727   176712   176685   176650   176623   176612   176607   176594 
  176590   176597   176600   176594   176593   176593   176592   176597 
  176613   176629   176643   176650   176654   176656   176654   176656 
  176670   176681   176682   176673   176646   176615   176601   176608 
  176628   176661   176694   176715   176712   176694   176674   176654 
  176632   176613   176600   176585   176567   176553   176551   176569 
  176607   176640   176669   176705   176744   176763   176770   176770 
  176764   176767   176785   176808   176818   176804   176769   176737 
  176715   176715   176755   176801   176810   176801   176791   176777 
  176758   176740   176736   176748   176763   176777   176783   176778 
  176764   176733   176694   176662   176624   176571   176516   176484 
  176476   176480   176493   176515   176534   176558   176592   176623 
  176648   176667   176671   176665   176669   176694   176715   176716 
  176709   176693   176662   176629   176620   176631   176642   176644 
  176650   176678   176728   176775   176805   176828   176845   176844 
  176817   176782   176752   176735   176736   176739   176723   176698 
  176677   176656   176647   176646   176643   176644   176654   176665 
  176677   176686   176689   176693   176708   176733   176758   176770 
  176766   176740   176702   176666   176636   176608   176575   176553 
  176543   176527   176497   176472   176469   176493   176538   176596 
  176665   176735   176793   176837   176864   176878   176889   176897 
  176885   176854   176828   176806   176771   176727   176681   176628 
  176575   176544   176530   176508   176477   176445   176427   176428 
  176443   176467   176511   176561   176600   176628   176656   176685 
  176705   176715   176723   176727   176716   176701   176690   176682 
  176679   176678   176671   176673   176683   176698   176715   176733 
  176751   176764   176770   176752   176725   176706   176686   176650 
  176611   176585   176565   176554   176562   176578   176596   176613 
  176635   176663   176697   176724   176736   176737   176732   176723 
  176712   176706   176712   176725   176747   176769   176775   176756 
  176729   176708   176681   176650   176629   176616   176589   176566 
  176570   176593   176625   176663   176688   176693   176685   176675 
  176669   176670   176681   176690   176688   176683   176692   176710 
  176733   176754   176766   176762   176736   176693   176643   176594 
  176547   176512   176499   176501   176519   176555   176596   176634 
  176671   176700   176716   176731   176732   176717   176704   176701 
  176701   176697   176694   176696   176698   176712   176735   176762 
  176783   176801   176816   176813   176789   176750   176706   176669 
  176640   176624   176624   176643   176675   176702   176719   176732 
  176747   176750   176735   176713   176697   176689   176685   176690 
  176708   176732   176759   176778   176785   176778   176759   176735 
  176712   176682   176644   176611   176586   176565   176550   176539 
  176532   176532   176536   176540   176539   176530   176509   176488 
  176477   176478   176492   176519   176559   176612   176671   176728 
  176777   176813   176833   176848   176860   176867   176867   176858 
