Origin Time       2025/03/28 03:50:00
Lat.              35.403
Long.             140.360
Depth. (km)       54
Mag.              4.4
Station Code      TCGH15
Station Lat.      36.5595
Station Long.     139.8637
Station Height(m) -175
Record Time       2025/03/28 03:51:17
Sampling Freq(Hz) 100Hz
Duration Time(s)  120
Dir.              3
Scale Factor      3923(gal)/8224838
Max. Acc. (gal)   0.073
Last Correction   2025/03/28 03:51:18
Memo.             
[...]
    1806     1776     1765     1772     1775     1773     1769     1787 
    1834     1871     1869     1857     1857     1854     1833     1823 
    1834     1837     1846     1871     1869     1846     1821     1790 
    1782     1794     1794     1776     1769     1777     1779     1776 
    1794     1813     1818     1825     1830     1838     1867     1888 
    1879     1864     1860     1867     1865     1842     1813     1802 
    1798     1779     1757     1748     1745     1744     1755     1782 
    1794     1790     1795     1802     1809     1823     1833     1834 
    1830     1814     1803     1827     1873     1892     1875     1841 
    1818     1829     1857     1867     1850     1829     1811     1792 
    1784     1796     1796     1777     1780     1814     1842     1846 
    1849     1844     1831     1819     1794     1771     1777     1794 
    1807     1825     1831     1838     1863     1885     1887     1877 
    1868     1868     1864     1833     1799     1787     1786     1788 
    1791     1773     1760     1791     1834     1852     1852     1838 
    1800     1753     1736     1750     1776     1804     1825     1837 
    1849     1858     1850     1818     1794     1807     1841     1853 
    1844     1836     1823     1817     1829     1836     1825     1810 
    1810     1815     1814     1829     1849     1841     1833     1842 
    1840     1830     1831     1830     1817     1817     1833     1830 
    1807     1802     1819     1849     1872     1867     1854     1854 
    1844     1807     1777     1779     1796     1803     1796     1806 
    1831     1837     1823     1829     1850     1857     1836     1810 
    1817     1846     1863     1864     1867     1869     1861     1845 
    1817     1787     1765     1748     1736     1733     1750     1782 
    1791     1779     1769     1764     1768     1792     1823     1850 
    1864     1857     1850     1849     1850     1864     1875     1876 
    1879     1864     1844     1829     1794     1744     1726     1757 
    1788     1777     1753     1753     1765     1765     1768     1783 
    1802     1819     1846     1890     1910     1892     1868     1860 
    1856     1857     1868     1872     1857     1830     1799     1783 
    1796     1811     1800     1787     1786     1783     1784     1795 
    1807     1817     1819     1806     1790     1804     1848     1875 
    1877     1876     1879     1880     1875     1861     1845     1842 
    1837     1798     1760     1767     1799     1827     1836     1821 
    1807     1807     1810     1813     1811     1799     1787     1790 
    1803     1819     1838     1846     1831     1811     1817     1844 
    1846     1818     1798     1787     1772     1771     1776     1783 
    1799     1821     1844     1861     1861     1857     1864     1860 
    1829     1809     1821     1830     1821     1821     1836     1841 
    1834     1833     1838     1842     1842     1841     1834     1822 
    1817     1827     1842     1846     1833     1821     1813     1800 
    1800     1826     1848     1846     1840     1834     1822     1806 
    1804     1813     1803     1767     1744     1752     1767     1786 
    1818     1846     1856     1845     1821     1802     1798     1794 
    1783     1776     1784     1799     1815     1831     1842     1853 
    1877     1892     1879     1864     1848     1809     1769     1744 
    1722     1721     1752     1783     1786     1784     1803     1834 
    1854     1852     1841     1830     1811     1798     1807     1818 
    1827     1853     1875     1865     1852     1844     1829     1814 
    1802     1790     1795     1815     1845     1868     1865     1853 
    1846     1840     1838     1829     1814     1809     1804     1803 
    1821     1830     1815     1809     1814     1819     1833     1838 
    1821     1803     1791     1779     1787     1811     1840     1867 
    1880     1872     1846     1822     1810     1800     1794     1802 
    1810     1804     1802     1815     1825     1826     1845     1873 
    1891     1902     1914     1906     1879     1868     1865     1848 
    1807     1771     1769     1783     1787     1777     1757     1742 
    1737     1730     1730     1750     1787     1825     1853     1857 
    1842     1848     1865     1868     1867     1871     1868     1854 
    1850     1858     1854     1830     1794     1750     1722     1732 
    1753     1746     1725     1723     1746     1783     1819     1846 
    1873     1910     1931     1911     1872     1845     1823     1807 
    1790     1760     1741     1745     1763     1787     1810     1826 
    1830     1804     1776     1765     1761     1773     1807     1825 
    1827     1848     1860     1852     1861     1890     1899     1881 
    1861     1849     1833     1811     1803     1811     1804     1783 
    1783     1811     1840     1854     1850     1840     1842     1853 
    1846     1829     1829     1852     1880     1898     1898     1884 
    1881     1881     1856     1814     1769     1737     1740     1769 
    1779     1771     1761     1742     1734     1757     1782     1795 
    1822     1858     1885     1902     1898     1883     1879     1883 
    1864     1825     1798     1792     1786     1767     1744     1729 
    1723     1726     1741     1757     1763     1776     1810     1849 
    1875     1876     1860     1852     1853     1852     1853     1854 
    1865     1887     1894     1875     1852     1836     1831     1831 
    1836     1837     1818     1804     1823     1850     1860     1844 
    1807     1784     1796     1829     1856     1867     1861     1845 
    1821     1792     1771     1764     1771     1776     1777     1786 
    1800     1806     1806     1822     1856     1887     1898     1898 
    1902     1902     1879     1840     1786     1742     1734     1757 
    1792     1821     1842     1860     1871     1873     1864     1840 
    1822     1811     1804     1819     1831     1813     1779     1764 
    1771     1787     1807     1815     1803     1792     1796     1794 
    1779     1771     1771     1772     1780     1795     1811     1841 
    1871     1875     1868     1875     1875     1853     1836     1838 
    1848     1856     1865     1867     1853     1830     1809     1800 
    1806     1802     1786     1777     1771     1773     1788     1790 
    1768     1756     1764     1775     1786     1806     1826     1826 
    1814     1809     1796     1773     1765     1764     1764     1794 
    1849     1881     1875     1863     1868     1875     1871     1863 
    1858     1869     1884     1881     1850     1815     1794     1786 
    1796     1810     1813     1814     1821     1833     1857     1894 
    1915     1902     1872     1848     1823     1790     1765     1760 
    1757     1756     1764     1771     1777     1798     1826     1857 
    1885     1898     1887     1863     1845     1834     1829     1831 
    1823     1809     1799     1795     1798     1803     1795     1786 
    1794     1809     1829     1840     1825     1814     1827     1836 
    1836     1846     1864     1875     1875     1867     1858     1850 
    1837     1813     1780     1765     1783     1807     1822     1853 
    1884     1898     1904     1898     1873     1844     1809     1782 
    1765     1757     1768     1784     1792     1796     1788     1771 
    1767     1788     1809     1813     1822     1840     1830     1803 
    1792     1802     1815     1827     1831     1819     1798     1790 
    1802     1818     1821     1815     1813     1807     1806     1821 
    1825     1817     1830     1863     1883     1884     1880     1879 
    1873     1860     1853     1854     1833     1783     1737     1713 
    1701     1691     1692     1699     1710     1745     1795     1830 
    1858     1890     1915     1929     1922     1904     1890     1883 
    1884     1884     1876     1850     1810     1777     1759     1745 
    1749     1760     1771     1790     1817     1842     1865     1880 
    1877     1865     1863     1871     1871     1848     1815     1796 
    1791     1786     1776     1756     1730     1723     1753     1795 
    1836     1883     1933     1950     1915     1861     1834     1830 
    1814     1794     1787     1790     1792     1783     1765     1761 
    1782     1800     1813     1826     1837     1850     1867     1869 
    1861     1849     1834     1833     1849     1853     1827     1776 
    1717     1676     1675     1711     1746     1757     1764     1780 
    1807     1846     1873     1894     1926     1944     1944     1933 
    1910     1887     1861     1826     1802     1803     1833     1868 
    1891     1896     1887     1871     1852     1829     1807     1779 
    1749     1730     1726     1744     1788     1823     1829     1823 
    1811     1799     1802     1803     1795     1800     1817     1819 
    1817     1821     1825     1819     1810     1806     1802     1804 
    1834     1850     1831     1821     1817     1792     1782     1804 
    1825     1822     1826     1861     1906     1927     1922     1895 
    1868     1867     1871     1861     1848     1825     1796     1796 
    1818     1810     1772     1755     1752     1744     1753     1776 
    1782     1767     1753     1750     1746     1738     1738     1752 
    1769     1791     1834     1883     1899     1892     1879     1857 
    1840     1836     1822     1796     1792     1807     1830     1860 
    1880     1883     1884     1885     1884     1883     1868     1831 
    1796     1769     1744     1734     1744     1760     1779     1809 
    1833     1840     1833     1825     1818     1803     1796     1821 
    1865     1881     1868     1861     1869     1876     1871     1853 
    1841     1838     1819     1783     1748     1723     1714     1729 
    1764     1804     1842     1869     1876     1860     1831     1810 
    1811     1819     1807     1791     1803     1837     1857     1854 
    1856     1868     1864     1838     1817     1804     1796     1798 
    1804     1811     1823     1837     1840     1833     1817     1794 
    1776     1772     1780     1790     1798     1806     1811     1818 
    1837     1860     1863     1850     1846     1852     1849     1838 
    1823     1811     1803     1803     1802     1807     1818     1815 
    1795     1775     1763     1760     1765     1776     1806     1842 
    1864     1888     1923     1939     1917     1880     1868     1885 
    1904     1894     1848     1810     1806     1802     1779     1760 
    1755     1749     1746     1749     1744     1740     1755     1772 
    1780     1799     1819     1814     1806     1817     1836     1856 
    1871     1871     1867     1856     1834     1823     1837     1856 
    1865     1864     1860     1844     1819     1814     1822     1813 
    1782     1753     1742     1736     1730     1744     1773     1796 
    1806     1821     1849     1884     1908     1918     1918     1910 
    1895     1896     1910     1899     1869     1854     1845     1826 
    1803     1780     1755     1738     1745     1777     1802     1792 
    1768     1764     1779     1798     1815     1837     1864     1877 
    1863     1848     1860     1868     1861     1863     1860     1840 
    1814     1811     1829     1831     1817     1809     1819     1836 
    1854     1871     1869     1846     1811     1779     1746     1721 
    1719     1732     1721     1707     1725     1760     1784     1804 
    1823     1833     1826     1823     1834     1842     1852     1864 
    1849     1819     1818     1849     1875     1876     1864     1840 
    1804     1790     1800     1818     1837     1834     1814     1804 
    1817     1844     1867     1865     1869     1879     1868     1841 
    1807     1775     1764     1763     1748     1728     1719     1723 
    1730     1748     1779     1809     1822     1818     1814     1823 
    1833     1844     1858     1868     1877     1892     1906     1904 
    1896     1895     1899     1892     1872     1852     1834     1819 
    1811     1819     1836     1829     1798     1790     1810     1822 
    1833     1848     1844     1822     1798     1779     1776     1792 
    1814     1834     1848     1846     1834     1830     1837     1827 
    1811     1803     1802     1804     1795     1757     1730     1752 
    1794     1809     1800     1810     1829     1822     1806     1815 
    1827     1827     1830     1833     1834     1844     1857     1863 
    1863     1856     1846     1852     1856     1834     1810     1806 
    1821     1836     1834     1826     1821     1811     1794     1775 
    1765     1767     1777     1800     1822     1825     1818     1819 
    1822     1822     1826     1827     1822     1830     1853     1875 
    1872     1850     1837     1837     1837     1825     1806     1794 
    1792     1786     1767     1748     1749     1773     1795     1804 
    1825     1844     1834     1815     1817     1836     1852     1846 
    1818     1792     1787     1790     1784     1791     1815     1827 
    1823     1825     1827     1821     1802     1775     1757     1763 
    1784     1819     1857     1875     1876     1881     1895     1906 
    1900     1890     1885     1872     1856     1857     1854     1844 
    1837     1834     1834     1833     1826     1836     1853     1852 
    1841     1837     1825     1796     1767     1740     1709     1679 
    1668     1678     1701     1718     1721     1721     1728     1744 
    1788     1846     1880     1888     1884     1883     1898     1921 
    1922     1908     1896     1877     1861     1853     1833     1804 
    1784     1767     1752     1764     1795     1815     1827     1846 
    1864     1872     1879     1876     1863     1853     1836     1806 
    1792     1804     1813     1803     1796     1786     1767     1755 
    1753     1760     1777     1787     1792     1807     1827     1841 
    1854     1868     1864     1858     1877     1900     1908     1910 
    1910     1904     1891     1868     1849     1829     1798     1775 
    1776     1786     1783     1768     1756     1780     1821     1823 
    1794     1786     1810     1831     1836     1831     1848     1869 
    1867     1845     1834     1840     1850     1848     1822     1810 
    1827     1850     1860     1863     1857     1838     1818     1814 
    1819     1819     1821     1822     1819     1819     1826     1821 
    1800     1787     1791     1795     1787     1773     1772     1777 
    1771     1742     1717     1711     1725     1744     1761     1779 
    1792     1819     1863     1898     1917     1930     1938     1937 
    1922     1892     1864     1854     1852     1846     1842     1840 
    1829     1818     1809     1795     1786     1786     1784     1769 
    1740     1722     1728     1736     1737     1744     1760     1786 
    1809     1814     1813     1818     1833     1841     1838     1837 
    1838     1840     1831     1826     1833     1842     1848     1861 
    1877     1875     1863     1858     1864     1871     1876     1863 
    1826     1791     1768     1759     1764     1775     1787     1799 
    1807     1813     1814     1822     1838     1844     1841     1842 
    1848     1853     1850     1841     1841     1840     1822     1810 
    1819     1829     1834     1850     1863     1848     1825     1815 
    1803     1795     1810     1822     1810     1802     1818     1834 
    1827     1811     1802     1792     1787     1795     1806     1795 
    1780     1777     1771     1760     1765     1779     1790     1803 
    1825     1845     1850     1849     1854     1849     1833     1829 
    1837     1844     1845     1846     1850     1845     1829     1813 
    1810     1823     1848     1861     1854     1844     1830     1806 
    1784     1771     1759     1755     1775     1817     1853     1868 
    1869     1871     1884     1895     1891     1877     1856     1830 
    1817     1822     1829     1822     1803     1786     1780     1777 
    1767     1755     1746     1745     1744     1744     1756     1773 
    1788     1802     1825     1856     1880     1895     1906     1911 
    1908     1894     1871     1844     1819     1803     1795     1794 
    1809     1827     1827     1822     1817     1813     1817     1834 
    1857     1868     1869     1875     1868     1844     1831     1833 
    1829     1821     1819     1823     1822     1819     1822     1813 
    1788     1767     1763     1767     1768     1768     1773     1784 
    1790     1783     1771     1769     1783     1804     1825     1831 
    1838     1857     1871     1872     1867     1854     1845     1842 
    1837     1825     1818     1815     1803     1782     1769     1775 
    1790     1803     1814     1825     1837     1850     1865     1876 
    1879     1875     1865     1856     1850     1841     1827     1813 
    1799     1788     1777     1769     1767     1771     1787     1800 
    1817     1833     1830     1825     1831     1841     1844     1833 
    1811     1798     1798     1791     1786     1795     1809     1811 
    1807     1814     1826     1833     1831     1827     1822     1817 
    1813     1813     1818     1822     1819     1818     1831     1846 
    1852     1842     1827     1825     1833     1833     1827     1821 
    1811     1804     1804     1813     1819     1825     1837     1846 
    1852     1867     1892     1903     1895     1880     1863     1834 
    1802     1784     1773     1757     1741     1729     1728     1744 
    1767     1790     1813     1831     1845     1853     1867     1880 
    1885     1895     1910     1908     1890     1875     1868     1856 
    1831     1800     1779     1764     1741     1723     1722     1730 
    1741     1756     1772     1787     1802     1819     1829     1833 
    1846     1848     1841     1842     1844     1836     1823     1811 
    1810     1815     1819     1825     1836     1841     1841     1838 
    1838     1842     1842     1831     1821     1815     1804     1794 
    1792     1807     1830     1844     1846     1849     1853     1858 
    1865     1864     1840     1807     1787     1775     1757     1746 
    1740     1726     1725     1738     1744     1744     1764     1796 
    1823     1849     1879     1902     1904     1904     1914     1911 
    1899     1896     1898     1891     1875     1857     1844     1840 
    1844     1842     1829     1806     1790     1780     1769     1756 
    1755     1765     1784     1807     1815     1813     1811     1809 
    1815     1833     1831     1821     1826     1826     1814     1813 
    1807     1786     1773     1777     1782     1788     1802     1813 
    1814     1821     1831     1834     1836     1842     1850     1857 
    1858     1849     1834     1827     1831     1840     1845     1837 
    1825     1818     1807     1792     1787     1799     1818     1825 
    1814     1804     1806     1809     1807     1809     1813     1806 
    1791     1776     1771     1771     1771     1775     1786     1792 
    1796     1811     1831     1849     1869     1881     1876     1873 
    1885     1891     1879     1860     1848     1845     1844     1838 
    1838     1842     1838     1830     1822     1810     1813     1825 
