Origin Time       2025/03/28 03:50:00
Lat.              35.403
Long.             140.360
Depth. (km)       54
Mag.              4.4
Station Code      TCGH12
Station Lat.      36.6959
Station Long.     139.9842
Station Height(m) 162
Record Time       2025/03/28 03:51:20
Sampling Freq(Hz) 100Hz
Duration Time(s)  120
Dir.              5
Scale Factor      7845(gal)/8223790
Max. Acc. (gal)   0.557
Last Correction   2025/03/28 03:51:20
Memo.             
[...]
   23571    23533    23502    23488    23514    23542    23544    23538 
   23534    23534    23526    23507    23504    23525    23556    23581 
   23575    23542    23525    23535    23539    23507    23494    23572 
   23631    23546    23507    23580    23533    23480    23533    23506 
   23502    23598    23615    23571    23550    23539    23525    23515 
   23504    23502    23573    23604    23477    23437    23556    23549 
   23469    23593    23718    23568    23485    23610    23515    23353 
   23495    23600    23521    23565    23649    23579    23498    23491 
   23484    23518    23587    23591    23592    23642    23598    23476 
   23467    23502    23461    23487    23589    23593    23539    23535 
   23545    23519    23512    23560    23566    23530    23542    23588 
   23564    23460    23429    23525    23564    23518    23544    23588 
   23562    23548    23553    23546    23538    23515    23508    23531 
   23542    23568    23618    23614    23549    23491    23452    23464 
   23500    23490    23500    23575    23606    23589    23596    23589 
   23548    23506    23468    23463    23511    23553    23569    23583 
   23560    23500    23471    23487    23531    23585    23616    23622 
   23600    23550    23523    23503    23468    23475    23529    23568 
   23568    23557    23545    23502    23475    23506    23529    23553 
   23615    23631    23580    23580    23588    23506    23440    23450 
   23476    23515    23541    23545    23561    23554    23529    23517 
   23515    23523    23535    23557    23602    23622    23592    23572 
   23556    23500    23440    23429    23457    23495    23530    23568 
   23593    23602    23608    23573    23485    23480    23564    23566 
   23522    23556    23581    23538    23518    23546    23562    23558 
   23561    23565    23553    23533    23518    23506    23481    23480 
   23517    23548    23576    23595    23562    23515    23521    23535 
   23507    23500    23542    23566    23573    23573    23531    23491 
   23500    23512    23514    23544    23571    23564    23564    23585 
   23576    23521    23487    23517    23552    23541    23535    23568 
   23583    23553    23537    23575    23612    23583    23512    23481 
   23487    23467    23469    23534    23573    23568    23576    23571 
   23541    23539    23538    23506    23495    23510    23514    23537 
   23580    23565    23511    23503    23526    23564    23608    23619 
   23585    23552    23537    23531    23531    23511    23464    23453 
   23499    23561    23607    23587    23534    23535    23541    23517 
   23517    23552    23572    23565    23557    23522    23471    23464 
   23463    23452    23492    23575    23647    23665    23629    23600 
   23552    23460    23453    23531    23546    23537    23572    23625 
   23647    23566    23487    23473    23434    23498    23642    23573 
   23431    23461    23519    23553    23642    23684    23593    23480 
   23472    23553    23571    23496    23476    23500    23500    23523 
   23553    23552    23529    23500    23542    23639    23669    23630 
   23596    23553    23492    23452    23410    23409    23514    23618 
   23622    23579    23535    23515    23545    23593    23596    23541 
   23504    23525    23548    23544    23522    23495    23485    23508 
   23565    23614    23603    23550    23499    23500    23539    23539 
   23503    23517    23576    23585    23538    23511    23533    23568 
   23588    23562    23499    23490    23515    23515    23526    23491 
   23433    23511    23619    23595    23573    23629    23627    23557 
   23512    23492    23463    23441    23431    23458    23510    23537 
   23581    23627    23584    23510    23527    23607    23595    23487 
   23483    23588    23591    23507    23523    23569    23523    23488 
   23510    23523    23554    23603    23615    23606    23566    23517 
   23545    23589    23534    23454    23442    23479    23510    23519 
   23554    23571    23554    23584    23585    23552    23562    23542 
   23494    23499    23514    23525    23535    23517    23512    23504 
   23453    23477    23588    23637    23619    23600    23595    23585 
   23541    23512    23515    23499    23506    23546    23562    23548 
   23529    23527    23518    23490    23504    23539    23538    23545 
   23561    23550    23556    23553    23504    23510    23576    23595 
   23576    23564    23548    23518    23494    23495    23498    23504 
   23544    23575    23571    23557    23549    23562    23569    23523 
   23477    23502    23561    23564    23522    23523    23538    23511 
   23492    23487    23490    23517    23526    23523    23568    23627 
   23672    23677    23588    23490    23475    23506    23538    23539 
   23526    23560    23618    23627    23573    23504    23468    23475 
   23503    23545    23588    23596    23581    23561    23484    23410 
   23415    23452    23522    23571    23530    23539    23633    23653 
   23600    23542    23500    23521    23575    23572    23522    23506 
   23535    23580    23610    23583    23538    23535    23534    23510 
   23481    23452    23452    23502    23553    23573    23588    23592 
   23546    23485    23450    23446    23484    23538    23562    23565 
   23561    23556    23562    23560    23549    23564    23585    23596 
   23612    23616    23588    23548    23515    23498    23496    23518 
   23549    23575    23600    23596    23545    23487    23457    23442 
   23440    23468    23510    23542    23568    23575    23561    23542 
   23521    23518    23531    23535    23542    23537    23512    23518 
   23550    23562    23572    23592    23602    23602    23612    23625 
   23606    23545    23487    23461    23454    23479    23538    23589 
   23608    23606    23583    23538    23494    23468    23453    23456 
   23477    23508    23548    23587    23596    23576    23554    23544 
   23537    23537    23554    23556    23523    23484    23454    23446 
   23472    23526    23595    23641    23657    23666    23652    23596 
   23538    23499    23475    23475    23500    23527    23546    23568 
   23572    23548    23522    23502    23496    23512    23530    23554 
   23580    23573    23544    23544    23566    23557    23523    23499 
   23494    23506    23529    23554    23571    23558    23522    23495 
   23488    23484    23468    23456    23472    23508    23568    23635 
   23670    23646    23583    23521    23471    23450    23483    23526 
   23565    23616    23650    23653    23635    23585    23531    23508 
   23511    23522    23538    23553    23534    23495    23484    23475 
   23460    23476    23508    23538    23576    23593    23576    23550 
   23534    23521    23517    23526    23539    23549    23556    23560 
   23556    23553    23553    23550    23558    23585    23600    23593 
   23580    23557    23539    23526    23496    23471    23465    23468 
   23485    23529    23572    23593    23591    23560    23514    23480 
   23465    23467    23495    23544    23585    23599    23591    23571 
   23533    23487    23472    23484    23506    23546    23589    23610 
   23603    23568    23530    23502    23477    23472    23506    23553 
   23583    23598    23607    23606    23589    23561    23522    23484 
   23472    23496    23531    23564    23583    23571    23542    23526 
   23531    23549    23558    23566    23587    23589    23572    23557 
   23538    23518    23508    23500    23500    23523    23535    23525 
   23519    23519    23522    23538    23545    23542    23542    23518 
   23483    23484    23512    23542    23564    23564    23548    23542 
   23544    23545    23564    23581    23573    23556    23548    23538 
   23521    23506    23504    23522    23554    23585    23606    23618 
   23622    23600    23552    23492    23434    23396    23383    23403 
   23463    23530    23588    23630    23639    23615    23576    23535 
   23510    23499    23502    23504    23495    23483    23477    23473 
   23490    23530    23565    23599    23626    23625    23612    23598 
   23575    23566    23575    23571    23546    23530    23531    23538 
   23549    23562    23560    23554    23541    23510    23495    23515 
   23548    23585    23607    23589    23550    23511    23469    23436 
   23437    23458    23480    23511    23538    23554    23553    23535 
   23525    23526    23534    23564    23603    23612    23593    23565 
   23546    23550    23576    23607    23626    23610    23571    23526 
   23492    23483    23498    23526    23552    23562    23566    23558 
   23531    23491    23448    23431    23456    23499    23542    23571 
   23561    23530    23521    23535    23558    23580    23593    23589 
   23571    23549    23534    23510    23477    23463    23468    23472 
   23484    23512    23535    23541    23554    23595    23619    23608 
   23598    23576    23535    23504    23491    23499    23521    23522 
   23525    23558    23587    23588    23589    23584    23571    23575 
   23591    23612    23625    23604    23564    23530    23510    23499 
   23472    23442    23429    23421    23437    23495    23562    23607 
   23622    23608    23575    23538    23514    23500    23490    23490 
   23496    23512    23550    23603    23646    23660    23638    23607 
   23587    23569    23554    23545    23534    23515    23494    23480 
   23490    23517    23541    23550    23561    23576    23583    23587 
   23584    23562    23525    23495    23495    23515    23546    23571 
   23561    23529    23491    23454    23438    23436    23437    23449 
   23472    23503    23535    23572    23599    23596    23589    23585 
   23561    23548    23556    23560    23565    23571    23568    23568 
   23565    23548    23531    23525    23531    23549    23571    23592 
   23600    23583    23554    23504    23448    23430    23438    23456 
   23499    23550    23584    23604    23607    23585    23548    23526 
   23529    23535    23553    23573    23571    23558    23542    23511 
   23492    23511    23549    23595    23641    23665    23654    23626 
   23584    23517    23448    23418    23410    23400    23418    23467 
   23500    23510    23527    23542    23531    23514    23511    23527 
   23552    23562    23560    23550    23534    23517    23526    23562 
   23592    23604    23600    23576    23537    23490    23456    23448 
   23456    23481    23523    23564    23593    23614    23610    23595 
   23584    23572    23562    23546    23521    23512    23518    23515 
   23525    23553    23581    23599    23608    23599    23565    23515 
   23480    23469    23480    23506    23535    23568    23593    23600 
   23595    23577    23553    23538    23539    23556    23561    23546 
   23523    23487    23434    23399    23404    23444    23508    23583 
   23646    23685    23692    23656    23593    23535    23487    23454 
   23454    23469    23502    23549    23569    23561    23560    23557 
   23539    23522    23503    23477    23468    23490    23534    23591 
   23650    23683    23665    23599    23522    23465    23427    23427 
   23457    23481    23490    23490    23477    23463    23469    23517 
   23599    23680    23728    23737    23696    23606    23500    23410 
   23361    23379    23434    23491    23565    23626    23627    23610 
   23608    23596    23581    23583    23592    23602    23592    23558 
   23517    23487    23467    23450    23452    23480    23506    23523 
   23546    23550    23533    23522    23519    23514    23511    23525 
   23549    23571    23593    23611    23614    23593    23548    23507 
   23494    23484    23472    23480    23498    23499    23495    23503 
   23508    23508    23515    23537    23577    23614    23631    23634 
   23606    23542    23473    23418    23394    23406    23456    23537 
   23611    23641    23634    23611    23595    23592    23593    23611 
   23637    23642    23623    23583    23521    23456    23417    23414 
   23448    23508    23568    23593    23577    23537    23494    23473 
   23476    23492    23519    23558    23607    23647    23668    23658 
   23618    23560    23504    23458    23434    23433    23442    23463 
   23499    23549    23612    23666    23679    23646    23598    23557 
   23530    23530    23553    23569    23562    23549    23539    23531 
   23526    23533    23537    23525    23521    23526    23507    23473 
   23456    23456    23475    23512    23535    23521    23485    23461 
   23452    23463    23503    23550    23584    23606    23608    23584 
   23548    23510    23477    23463    23479    23504    23530    23565 
   23603    23646    23693    23714    23711    23697    23660    23606 
   23554    23515    23500    23517    23554    23592    23608    23581 
   23510    23431    23367    23321    23342    23434    23539    23622 
   23664    23638    23564    23484    23422    23400    23437    23523 
   23619    23670    23665    23622    23554    23496    23490    23539 
   23625    23703    23745    23738    23696    23610    23488    23398 
   23363    23357    23403    23496    23580    23623    23630    23596 
   23546    23499    23444    23404    23403    23419    23449    23492 
   23521    23534    23541    23542    23557    23588    23615    23638 
   23656    23649    23623    23595    23566    23538    23515    23499 
   23494    23502    23515    23514    23480    23419    23360    23315 
   23279    23276    23345    23494    23693    23895    24048    24123 
   24079    23909    23656    23380    23163    23056    23071    23199 
   23394    23587    23735    23796    23757    23656    23545    23480 
   23464    23465    23477    23480    23444    23375    23321    23313 
   23375    23512    23679    23799    23827    23751    23568    23329 
   23164    23147    23269    23512    23784    23967    24024    23940 
   23751    23558    23448    23446    23531    23634    23674    23615 
   23472    23313    23213    23225    23345    23525    23699    23819 
   23846    23772    23623    23440    23283    23209    23224    23298 
   23404    23517    23614    23708    23801    23865    23877    23820 
   23679    23485    23322    23248    23280    23409    23592    23749 
   23826    23804    23672    23468    23267    23132    23102    23184 
   23340    23496    23606    23670    23688    23670    23656    23654 
   23643    23627    23604    23572    23525    23448    23361    23317 
   23345    23441    23593    23757    23851    23847    23760    23620 
   23479    23383    23356    23403    23508    23633    23727    23755 
   23723    23656    23569    23485    23442    23448    23479    23521 
   23549    23549    23529    23504    23477    23437    23390    23371 
   23394    23469    23580    23676    23731    23728    23656    23546 
   23421    23319    23311    23411    23577    23738    23812    23776 
   23653    23480    23317    23217    23199    23257    23361    23458 
   23542    23610    23639    23665    23730    23816    23890    23927 
   23890    23773    23606    23419    23278    23236    23284    23392 
   23526    23611    23627    23588    23498    23409    23363    23345 
   23376    23464    23560    23649    23737    23799    23795    23724 
   23622    23504    23414    23394    23419    23456    23475    23442 
   23364    23283    23240    23267    23382    23550    23728    23884 
   23976    23971    23873    23706    23502    23325    23226    23210 
   23276    23394    23492    23569    23653    23738    23814    23868 
   23869    23797    23665    23495    23326    23226    23229    23313 
   23458    23638    23792    23868    23836    23701    23503    23325 
   23241    23267    23367    23490    23565    23560    23503    23430 
   23375    23376    23441    23564    23722    23834    23838    23750 
   23606    23446    23326    23279    23332    23458    23588    23668 
   23676    23637    23599    23569    23539    23535    23552    23560 
   23560    23561    23556    23531    23487    23426    23372    23341 
   23325    23349    23421    23522    23650    23766    23826    23822 
   23746    23616    23488    23400    23373    23407    23480    23558 
   23608    23618    23604    23604    23634    23673    23697    23703 
   23672    23583    23464    23361    23292    23288    23361    23467 
   23572    23656    23695    23687    23643    23580    23517    23469 
   23433    23402    23404    23442    23494    23548    23596    23633 
   23645    23608    23539    23464    23390    23337    23321    23341 
   23409    23498    23571    23630    23689    23747    23792    23801 
   23773    23715    23630    23529    23441    23372    23321    23310 
   23352    23431    23531    23619    23676    23706    23701    23666 
   23626    23596    23564    23526    23494    23467    23468    23519 
   23593    23670    23734    23743    23680    23576    23465    23375 
   23328    23345    23414    23511    23616    23674    23643    23553 
   23448    23344    23279    23296    23369    23449    23514    23527 
   23479    23407    23367    23383    23460    23575    23687    23757 
   23761    23695    23589    23484    23395    23357    23384    23436 
   23499    23587    23669    23719    23745    23742    23711    23677 
   23645    23608    23577    23554    23530    23507    23484    23473 
   23491    23521    23526    23504    23461    23400    23359    23363 
   23403    23467    23552    23646    23735    23814    23876    23882 
   23805    23658    23485    23341    23275    23296    23391    23537 
   23695    23797    23824    23795    23708    23580    23468    23406 
   23383    23377    23365    23330    23294    23294    23341    23429 
   23556    23683    23739    23723    23676    23608    23541    23490 
   23449    23415    23382    23368    23409    23492    23592    23688 
   23758    23778    23734    23631    23507    23398    23350    23390 
   23480    23576    23641    23647    23599    23525    23465    23434 
   23453    23514    23569    23584    23556    23485    23413    23399 
   23465    23585    23728    23842    23870    23801    23658    23491 
   23349    23260    23245    23311    23418    23533    23641    23719 
   23746    23719    23657    23591    23530    23472    23417    23363 
   23325    23326    23387    23496    23599    23664    23683    23647 
   23592    23552    23531    23533    23546    23561    23565    23560 
   23565    23575    23577    23591    23634    23710    23796    23838 
   23803    23708    23573    23430    23313    23228    23184    23199 
   23265    23361    23454    23529    23580    23596    23572    23523 
   23472    23440    23438    23472    23517    23566    23620    23633 
   23591    23515    23436    23404    23433    23521    23666    23800 
   23865    23865    23799    23687    23577    23499    23475    23521 
   23607    23680    23710    23692    23619    23511    23411    23353 
   23341    23382    23464    23549    23588    23580    23537    23468 
   23413    23399    23421    23472    23548    23627    23697    23739 
   23723    23654    23561    23467    23403    23398    23441    23512 
   23576    23610    23625    23618    23583    23542    23511    23496 
   23499    23506    23512    23510    23502    23510    23533    23553 
