Origin Time       2025/03/28 03:50:00
Lat.              35.403
Long.             140.360
Depth. (km)       54
Mag.              4.4
Station Code      TCGH06
Station Lat.      36.4458
Station Long.     139.9509
Station Height(m) 70
Record Time       2025/03/28 03:51:12
Sampling Freq(Hz) 100Hz
Duration Time(s)  120
Dir.              5
Scale Factor      3920(gal)/6170801
Max. Acc. (gal)   0.536
Last Correction   2025/03/28 03:50:57
Memo.             
[...]
    1485     1472     1482     1497     1488     1479     1495     1497 
    1482     1491     1497     1483     1483     1486     1482     1486 
    1483     1475     1485     1498     1494     1481     1482     1495 
    1496     1496     1504     1512     1516     1511     1503     1501 
    1494     1489     1488     1483     1486     1488     1488     1500 
    1507     1498     1490     1491     1480     1455     1462     1489 
    1481     1469     1487     1499     1485     1478     1491     1498 
    1491     1493     1506     1520     1525     1514     1501     1486 
    1472     1475     1490     1513     1536     1518     1481     1468 
    1462     1447     1446     1477     1524     1556     1552     1521 
    1499     1481     1439     1416     1443     1464     1455     1465 
    1496     1509     1515     1525     1526     1529     1537     1534 
    1523     1508     1494     1488     1481     1470     1462     1461 
    1475     1480     1467     1460     1467     1481     1491     1498 
    1519     1549     1568     1563     1528     1488     1450     1409 
    1406     1452     1491     1501     1524     1560     1553     1515 
    1486     1482     1493     1475     1445     1449     1459     1463 
    1486     1508     1523     1547     1548     1524     1534     1559 
    1513     1437     1440     1463     1415     1379     1430     1482 
    1490     1511     1526     1494     1485     1524     1561     1581 
    1589     1584     1548     1466     1387     1365     1370     1373 
    1422     1507     1513     1469     1493     1545     1558     1566 
    1577     1564     1532     1517     1501     1436     1385     1411 
    1441     1449     1467     1468     1472     1501     1528     1571 
    1609     1598     1580     1568     1511     1405     1337     1384 
    1478     1498     1462     1452     1475     1509     1547     1590 
    1611     1574     1521     1484     1421     1376     1406     1445 
    1455     1475     1486     1491     1546     1616     1641     1621 
    1541     1447     1415     1389     1359     1389     1448     1538 
    1655     1666     1568     1476     1412     1386     1399     1410 
    1434     1475     1527     1595     1612     1563     1530     1504 
    1452     1413     1397     1395     1412     1471     1574     1619 
    1555     1498     1494     1457     1397     1399     1444     1430 
    1397     1462     1546     1563     1607     1674     1675     1649 
    1594     1453     1318     1279     1295     1350     1429     1477 
    1513     1571     1613     1620     1596     1535     1466     1455 
    1483     1475     1462     1484     1461     1399     1363     1345 
    1365     1433     1500     1564     1615     1630     1636     1643 
    1614     1545     1481     1449     1439     1437     1458     1484 
    1457     1431     1471     1478     1445     1478     1527     1533 
    1532     1518     1504     1501     1493     1504     1516     1501 
    1468     1435     1420     1398     1375     1422     1499     1524 
    1546     1574     1558     1537     1554     1572     1556     1552 
    1602     1621     1559     1505     1450     1352     1303     1309 
    1313     1374     1464     1510     1558     1596     1570     1528 
    1514     1523     1554     1590     1600     1558     1494     1433 
    1345     1257     1251     1307     1384     1486     1588     1655 
    1668     1632     1582     1535     1486     1472     1512     1551 
    1535     1480     1435     1429     1436     1417     1391     1413 
    1498     1556     1517     1463     1459     1445     1447     1524 
    1581     1567     1553     1546     1508     1471     1461     1461 
    1462     1468     1479     1482     1485     1493     1477     1455 
    1476     1498     1488     1524     1580     1567     1562     1584 
    1564     1567     1600     1556     1485     1460     1432     1382 
    1341     1330     1347     1396     1477     1543     1571     1592 
    1592     1558     1543     1530     1465     1400     1387     1416 
    1474     1526     1535     1526     1521     1498     1438     1411 
    1476     1536     1528     1541     1564     1521     1471     1476 
    1467     1424     1409     1421     1431     1452     1494     1551 
    1582     1576     1594     1610     1559     1482     1433     1404 
    1372     1356     1405     1496     1556     1564     1548     1531 
    1503     1459     1441     1455     1457     1450     1434     1403 
    1416     1484     1535     1559     1585     1582     1542     1513 
    1504     1478     1458     1495     1540     1532     1527     1535 
    1516     1502     1483     1435     1426     1462     1499     1545 
    1582     1560     1521     1523     1528     1487     1421     1355 
    1297     1296     1352     1383     1402     1479     1563     1613 
    1661     1667     1616     1568     1525     1464     1416     1411 
    1428     1451     1474     1472     1472     1501     1513     1521 
    1565     1573     1522     1496     1509     1501     1479     1459 
    1410     1369     1393     1410     1407     1464     1535     1554 
    1571     1559     1473     1408     1421     1434     1431     1474 
    1540     1585     1629     1633     1551     1465     1444     1464 
    1528     1589     1571     1524     1502     1468     1434     1443 
    1472     1495     1533     1571     1571     1561     1569     1552 
    1494     1427     1373     1348     1381     1450     1511     1549 
    1525     1457     1432     1440     1461     1521     1581     1624 
    1657     1623     1527     1440     1385     1356     1347     1368 
    1427     1488     1541     1591     1613     1585     1503     1416 
    1401     1420     1412     1429     1507     1570     1565     1516 
    1472     1461     1466     1478     1514     1535     1512     1488 
    1473     1445     1445     1508     1559     1525     1467     1446 
    1406     1362     1406     1500     1556     1572     1559     1528 
    1485     1446     1442     1482     1552     1616     1628     1599 
    1555     1497     1449     1396     1342     1360     1433     1506 
    1586     1621     1585     1524     1464     1439     1453     1455 
    1457     1482     1503     1514     1514     1499     1487     1469 
    1420     1365     1360     1405     1475     1564     1636     1649 
    1604     1553     1560     1591     1571     1546     1553     1519 
    1449     1400     1364     1369     1438     1495     1506     1501 
    1470     1425     1416     1431     1442     1465     1500     1502 
    1471     1461     1464     1467     1513     1565     1554     1528 
    1543     1553     1524     1480     1436     1398     1382     1391 
    1403     1418     1464     1532     1568     1556     1534     1502 
    1459     1451     1483     1489     1452     1443     1496     1560 
    1583     1581     1587     1561     1481     1413     1379     1356 
    1384     1448     1476     1490     1530     1574     1609     1615 
    1571     1504     1457     1439     1420     1404     1434     1508 
    1594     1667     1666     1588     1507     1443     1393     1414 
    1474     1496     1528     1603     1639     1590     1518     1473 
    1437     1425     1471     1525     1545     1568     1583     1539 
    1443     1355     1333     1377     1419     1436     1463     1477 
    1455     1436     1403     1345     1357     1445     1519     1567 
    1591     1579     1552     1537     1539     1532     1493     1448 
    1423     1412     1391     1354     1345     1387     1470     1575 
    1655     1686     1688     1677     1661     1602     1502     1461 
    1501     1519     1467     1389     1313     1257     1274     1360 
    1438     1498     1564     1608     1602     1559     1501     1444 
    1415     1453     1518     1547     1565     1600     1623     1603 
    1540     1469     1416     1393     1440     1545     1623     1642 
    1620     1555     1464     1392     1373     1409     1469     1528 
    1542     1471     1391     1390     1423     1431     1434     1447 
    1470     1489     1468     1440     1467     1515     1529     1521 
    1514     1516     1524     1528     1502     1469     1484     1519 
    1546     1588     1607     1572     1521     1445     1347     1315 
    1364     1422     1454     1473     1491     1507     1489     1430 
    1378     1368     1380     1419     1498     1557     1562     1593 
    1658     1658     1594     1536     1483     1422     1376     1360 
    1387     1476     1575     1618     1608     1573     1533     1529 
    1566     1617     1663     1659     1588     1488     1381     1279 
    1202     1202     1315     1463     1557     1603     1635     1651 
    1607     1518     1464     1454     1456     1479     1503     1504 
    1505     1501     1466     1427     1402     1352     1288     1272 
    1305     1353     1427     1538     1619     1619     1589     1548 
    1479     1454     1498     1565     1665     1758     1763     1707 
    1623     1498     1357     1252     1214     1245     1339     1467 
    1563     1615     1635     1609     1546     1495     1487     1527 
    1587     1621     1616     1596     1558     1494     1430     1370 
    1324     1342     1395     1429     1457     1496     1526     1555 
    1597     1617     1596     1571     1537     1475     1416     1403 
    1441     1467     1440     1414     1418     1443     1474     1497 
    1553     1628     1642     1621     1578     1466     1364     1338 
    1327     1315     1338     1369     1408     1470     1501     1496 
    1516     1544     1552     1573     1580     1554     1551     1561 
    1525     1481     1497     1526     1511     1524     1594     1615 
    1558     1499     1442     1370     1306     1242     1197     1236 
    1340     1436     1505     1564     1625     1686     1718     1702 
    1667     1634     1575     1500     1442     1363     1276     1266 
    1315     1355     1376     1406     1489     1598     1651     1643 
    1623     1603     1572     1535     1522     1524     1503     1470 
    1466     1486     1494     1464     1435     1445     1447     1412 
    1406     1460     1537     1606     1660     1678     1627     1529 
    1459     1428     1385     1325     1306     1368     1469     1538 
    1573     1599     1599     1576     1540     1470     1406     1438 
    1523     1568     1584     1588     1558     1505     1450     1412 
    1398     1391     1403     1462     1520     1512     1475     1492 
    1526     1500     1460     1448     1404     1349     1385     1479 
    1541     1602     1659     1633     1556     1481     1374     1283 
    1308     1410     1502     1564     1579     1546     1515     1504 
    1479     1444     1448     1504     1580     1624     1614     1602 
    1596     1530     1453     1454     1455     1405     1372     1344 
    1307     1336     1429     1516     1559     1559     1561     1584 
    1593     1585     1596     1607     1552     1442     1349     1284 
    1240     1251     1308     1375     1461     1524     1517     1508 
    1533     1519     1465     1439     1448     1479     1572     1720 
    1821     1842     1824     1745     1623     1511     1400     1313 
    1266     1228     1219     1259     1310     1383     1500     1616 
    1676     1694     1683     1624     1557     1529     1501     1462 
    1492     1569     1591     1573     1559     1523     1476     1470 
    1511     1545     1542     1521     1497     1447     1355     1261 
    1236     1275     1325     1382     1449     1500     1533     1584 
    1635     1633     1611     1613     1605     1596     1577     1493 
    1403     1354     1307     1279     1297     1338     1394     1450 
    1493     1554     1610     1615     1596     1583     1565     1536 
    1491     1455     1426     1366     1304     1267     1247     1295 
    1378     1436     1550     1691     1734     1719     1716     1682 
    1612     1579     1594     1588     1576     1591     1575     1534 
    1511     1439     1322     1256     1244     1246     1272     1316 
    1364     1438     1530     1590     1617     1618     1592     1576 
    1568     1531     1488     1483     1512     1539     1550     1539 
    1498     1463     1459     1461     1455     1463     1502     1541 
    1541     1537     1563     1574     1550     1529     1519     1494 
    1474     1482     1478     1449     1438     1453     1450     1428 
    1436     1470     1495     1520     1527     1486     1438     1405 
    1368     1349     1350     1327     1306     1362     1477     1569 
    1609     1616     1585     1518     1456     1422     1421     1443 
    1467     1503     1548     1549     1507     1489     1508     1555 
    1638     1687     1658     1631     1624     1580     1526     1501 
    1457     1371     1317     1311     1273     1227     1251     1268 
    1216     1196     1253     1325     1389     1442     1484     1524 
    1537     1515     1495     1477     1429     1383     1405     1498 
    1611     1711     1811     1911     1964     1948     1905     1871 
    1835     1778     1717     1659     1560     1417     1282     1197 
    1166     1178     1215     1266     1346     1455     1558     1656 
    1765     1848     1905     1975     1996     1896     1723     1535 
    1324     1108      932      799      715      726      862     1080 
    1338     1619     1875     2082     2254     2334     2258     2077 
    1861     1622     1367     1131      946      811      728      725 
     785      861      955     1108     1316     1536     1726     1850 
    1883     1862     1852     1845     1804     1738     1669     1595 
    1512     1423     1334     1270     1256     1292     1347     1395 
    1447     1506     1561     1616     1679     1732     1735     1695 
    1667     1639     1580     1547     1584     1639     1657     1649 
    1639     1587     1468     1354     1303     1285     1307     1417 
    1600     1792     1933     1982     1956     1881     1766     1669 
    1623     1590     1582     1598     1570     1491     1402     1323 
    1279     1269     1267     1277     1295     1300     1287     1255 
    1219     1198     1167     1107     1075     1111     1174     1244 
    1363     1524     1621     1606     1555     1477     1331     1216 
    1214     1275     1411     1627     1825     1968     2058     2045 
    1931     1788     1650     1511     1392     1334     1346     1392 
    1442     1482     1494     1456     1358     1241     1178     1173 
    1202     1299     1430     1522     1570     1568     1518     1489 
    1528     1634     1772     1881     1930     1903     1800     1640 
    1451     1284     1187     1144     1150     1232     1380     1583 
    1839     2046     2067     1922     1713     1475     1248     1108 
    1059     1059     1091     1139     1176     1203     1232     1275 
    1337     1418     1515     1609     1688     1758     1806     1810 
    1791     1762     1709     1621     1502     1378     1277     1214 
    1195     1240     1350     1452     1467     1413     1341     1289 
    1332     1496     1709     1910     2064     2122     2053     1878 
    1658     1431     1219     1080     1059     1142     1271     1387 
    1461     1504     1531     1533     1523     1549     1612     1664 
    1692     1701     1692     1644     1527     1352     1156      986 
     882      850      889     1000     1169     1369     1581     1783 
    1945     2036     2048     2007     1931     1835     1746     1658 
    1532     1379     1260     1184     1132     1122     1168     1280 
    1460     1661     1818     1895     1902     1871     1795     1676 
    1577     1540     1561     1587     1571     1542     1509     1436 
    1349     1298     1310     1398     1512     1600     1680     1747 
    1748     1676     1576     1478     1387     1312     1229     1132 
    1092     1122     1148     1177     1231     1250     1221     1209 
    1236     1296     1406     1557     1689     1771     1803     1773 
    1727     1749     1771     1711     1637     1573     1467     1343 
    1268     1256     1274     1320     1432     1600     1772     1899 
    1951     1921     1799     1592     1368     1201     1103     1079 
    1147     1257     1327     1352     1355     1345     1347     1388 
    1492     1662     1808     1864     1845     1753     1588     1391 
    1235     1174     1165     1177     1232     1312     1439     1637 
    1822     1961     2031     1944     1748     1557     1395     1329 
    1408     1530     1628     1728     1768     1681     1542     1430 
    1322     1201     1113     1095     1137     1248     1410     1550 
    1662     1755     1786     1779     1769     1712     1627     1536 
    1386     1233     1138     1037      954      964     1017     1068 
    1153     1287     1443     1594     1739     1878     1993     2072 
    2094     2035     1942     1837     1650     1403     1194     1011 
     863      825      873     1002     1224     1445     1618     1775 
    1882     1902     1863     1802     1730     1668     1645     1638 
    1602     1564     1540     1486     1407     1345     1274     1176 
    1097     1059     1097     1248     1438     1608     1774     1882 
    1881     1814     1708     1579     1481     1426     1359     1266 
    1197     1178     1200     1273     1370     1438     1491     1527 
    1498     1414     1357     1379     1470     1598     1734     1835 
    1873     1848     1783     1721     1668     1601     1543     1533 
    1554     1552     1491     1379     1259     1185     1214     1382 
    1647     1886     2020     2045     1980     1860     1728     1597 
    1489     1428     1374     1268     1151     1090     1075     1096 
    1151     1207     1265     1360     1493     1643     1794     1907 
    1945     1926     1849     1682     1478     1317     1205     1146 
    1153     1219     1316     1426     1556     1713     1833     1849 
    1787     1685     1527     1339     1216     1206     1264     1339 
    1420     1485     1475     1366     1213     1112     1119     1210 
    1313     1356     1327     1295     1335     1450     1595     1732 
    1834     1869     1804     1662     1517     1373     1218     1109 
    1079     1104     1187     1329     1511     1726     1924     2019 
    2007     1957     1905     1840     1772     1717     1673     1624 
    1537     1430     1376     1387     1412     1403     1365     1331 
    1271     1149     1030      959      933     1013     1226     1472 
    1678     1838     1940     1983     1955     1843     1690     1536 
    1376     1248     1221     1282     1359     1432     1509     1582 
    1634     1653     1622     1567     1531     1513     1496     1485 
    1449     1375     1336     1354     1361     1334     1331     1411 
    1537     1605     1596     1565     1531     1483     1432     1419 
    1457     1500     1506     1474     1427     1398     1416     1495 
    1618     1751     1869     1973     2049     2063     2009     1912 
    1781     1608     1413     1241     1128     1089     1104     1151 
    1254     1386     1480     1548     1598     1581     1514     1454 
