Origin Time       2025/03/28 03:50:00
Lat.              35.403
Long.             140.360
Depth. (km)       54
Mag.              4.4
Station Code      TCGH15
Station Lat.      36.5595
Station Long.     139.8637
Station Height(m) -175
Record Time       2025/03/28 03:51:17
Sampling Freq(Hz) 100Hz
Duration Time(s)  120
Dir.              2
Scale Factor      3923(gal)/8224838
Max. Acc. (gal)   0.147
Last Correction   2025/03/28 03:51:18
Memo.             
[...]
   -3680    -3696    -3676    -3669    -3659    -3640    -3649    -3666 
   -3674    -3692    -3697    -3690    -3689    -3684    -3674    -3678 
   -3688    -3673    -3649    -3657    -3672    -3657    -3639    -3631 
   -3639    -3647    -3639    -3650    -3676    -3678    -3684    -3694 
   -3684    -3680    -3677    -3665    -3680    -3708    -3713    -3705 
   -3693    -3685    -3673    -3663    -3667    -3673    -3667    -3669 
   -3686    -3694    -3673    -3651    -3645    -3647    -3659    -3677 
   -3690    -3696    -3692    -3673    -3655    -3654    -3651    -3647 
   -3655    -3655    -3647    -3659    -3677    -3672    -3666    -3672 
   -3678    -3690    -3693    -3674    -3667    -3684    -3689    -3680 
   -3682    -3703    -3723    -3719    -3694    -3684    -3681    -3665 
   -3645    -3634    -3635    -3658    -3684    -3692    -3689    -3682 
   -3674    -3661    -3645    -3646    -3669    -3693    -3700    -3703 
   -3715    -3715    -3690    -3667    -3659    -3645    -3632    -3646 
   -3657    -3642    -3636    -3666    -3707    -3723    -3723    -3720 
   -3704    -3678    -3661    -3662    -3669    -3672    -3677    -3681 
   -3674    -3670    -3669    -3677    -3684    -3669    -3655    -3658 
   -3658    -3658    -3659    -3661    -3673    -3678    -3672    -3688 
   -3713    -3707    -3693    -3704    -3708    -3703    -3696    -3673 
   -3642    -3635    -3649    -3663    -3667    -3654    -3634    -3630 
   -3654    -3686    -3703    -3709    -3709    -3689    -3667    -3650 
   -3631    -3630    -3643    -3653    -3663    -3674    -3674    -3678 
   -3680    -3667    -3680    -3704    -3703    -3692    -3690    -3701 
   -3713    -3703    -3686    -3686    -3676    -3659    -3661    -3670 
   -3673    -3659    -3632    -3623    -3640    -3666    -3677    -3670 
   -3666    -3676    -3682    -3673    -3658    -3653    -3654    -3642 
   -3635    -3651    -3658    -3663    -3685    -3701    -3712    -3713 
   -3697    -3680    -3678    -3685    -3690    -3692    -3680    -3665 
   -3672    -3688    -3692    -3697    -3724    -3744    -3728    -3697 
   -3674    -3650    -3634    -3640    -3654    -3659    -3653    -3647 
   -3653    -3662    -3673    -3673    -3662    -3655    -3659    -3659 
   -3651    -3647    -3650    -3662    -3682    -3692    -3682    -3676 
   -3681    -3686    -3684    -3694    -3715    -3715    -3703    -3708 
   -3715    -3707    -3693    -3682    -3665    -3667    -3692    -3697 
   -3685    -3677    -3663    -3647    -3640    -3640    -3646    -3653 
   -3655    -3655    -3645    -3635    -3639    -3646    -3661    -3681 
   -3684    -3681    -3684    -3680    -3672    -3663    -3655    -3661 
   -3676    -3669    -3650    -3657    -3685    -3704    -3697    -3689 
   -3708    -3720    -3707    -3689    -3670    -3654    -3655    -3666 
   -3674    -3688    -3692    -3676    -3662    -3658    -3659    -3655 
   -3653    -3653    -3650    -3654    -3673    -3700    -3712    -3701 
   -3701    -3708    -3696    -3686    -3678    -3674    -3681    -3685 
   -3685    -3681    -3670    -3653    -3646    -3649    -3655    -3659 
   -3653    -3646    -3653    -3661    -3658    -3651    -3649    -3655 
   -3665    -3681    -3700    -3701    -3684    -3672    -3676    -3677 
   -3672    -3680    -3697    -3707    -3703    -3701    -3703    -3694 
   -3692    -3684    -3665    -3662    -3674    -3682    -3684    -3686 
   -3701    -3719    -3720    -3703    -3667    -3630    -3618    -3620 
   -3622    -3638    -3651    -3647    -3658    -3684    -3700    -3696 
   -3680    -3662    -3658    -3657    -3659    -3684    -3708    -3716 
   -3708    -3690    -3686    -3689    -3676    -3667    -3674    -3678 
   -3666    -3650    -3650    -3659    -3663    -3676    -3696    -3701 
   -3692    -3682    -3673    -3666    -3659    -3646    -3639    -3647 
   -3654    -3651    -3655    -3662    -3665    -3678    -3699    -3701 
   -3704    -3709    -3699    -3689    -3681    -3667    -3672    -3682 
   -3680    -3676    -3680    -3678    -3661    -3639    -3643    -3669 
   -3680    -3676    -3677    -3684    -3685    -3676    -3663    -3665 
   -3669    -3659    -3653    -3661    -3669    -3678    -3684    -3672 
   -3657    -3650    -3645    -3649    -3649    -3643    -3654    -3661 
   -3649    -3650    -3676    -3700    -3709    -3701    -3685    -3681 
   -3688    -3686    -3690    -3708    -3708    -3692    -3678    -3667 
   -3667    -3680    -3690    -3700    -3713    -3721    -3719    -3708 
   -3688    -3670    -3669    -3669    -3665    -3672    -3681    -3688 
   -3693    -3677    -3646    -3632    -3627    -3611    -3601    -3623 
   -3659    -3686    -3699    -3694    -3686    -3680    -3662    -3658 
   -3673    -3676    -3663    -3667    -3685    -3692    -3686    -3680 
   -3672    -3658    -3647    -3647    -3651    -3658    -3678    -3703 
   -3713    -3705    -3686    -3674    -3681    -3696    -3709    -3715 
   -3703    -3681    -3681    -3692    -3693    -3692    -3681    -3653 
   -3628    -3612    -3613    -3632    -3647    -3654    -3658    -3665 
   -3665    -3643    -3619    -3615    -3615    -3626    -3649    -3661 
   -3672    -3697    -3707    -3703    -3704    -3689    -3676    -3684 
   -3699    -3723    -3743    -3740    -3740    -3738    -3723    -3705 
   -3682    -3672    -3674    -3672    -3669    -3670    -3672    -3673 
   -3670    -3661    -3646    -3643    -3653    -3649    -3642    -3647 
   -3654    -3658    -3659    -3654    -3653    -3658    -3670    -3674 
   -3673    -3688    -3709    -3716    -3720    -3723    -3721    -3715 
   -3709    -3711    -3701    -3676    -3647    -3618    -3607    -3623 
   -3645    -3658    -3672    -3677    -3673    -3669    -3665    -3658 
   -3654    -3653    -3651    -3662    -3676    -3673    -3666    -3665 
   -3669    -3676    -3676    -3667    -3661    -3665    -3672    -3677 
   -3688    -3700    -3703    -3699    -3697    -3699    -3697    -3694 
   -3699    -3719    -3736    -3736    -3727    -3712    -3690    -3666 
   -3636    -3607    -3595    -3597    -3603    -3616    -3643    -3673 
   -3690    -3703    -3700    -3677    -3665    -3667    -3670    -3680 
   -3690    -3693    -3690    -3684    -3667    -3655    -3661    -3678 
   -3692    -3700    -3697    -3678    -3669    -3672    -3663    -3657 
   -3655    -3643    -3630    -3624    -3622    -3635    -3666    -3693 
   -3703    -3701    -3696    -3694    -3696    -3697    -3677    -3636 
   -3616    -3634    -3650    -3662    -3686    -3708    -3716    -3721 
   -3717    -3701    -3709    -3736    -3738    -3716    -3699    -3697 
   -3703    -3704    -3704    -3697    -3682    -3669    -3655    -3635 
   -3603    -3576    -3577    -3586    -3592    -3618    -3659    -3684 
   -3684    -3685    -3694    -3697    -3680    -3662    -3661    -3674 
   -3689    -3693    -3693    -3697    -3694    -3673    -3645    -3632 
   -3654    -3696    -3720    -3720    -3716    -3715    -3715    -3719 
   -3720    -3713    -3705    -3690    -3661    -3639    -3635    -3636 
   -3645    -3653    -3654    -3659    -3662    -3649    -3627    -3626 
   -3651    -3665    -3655    -3647    -3651    -3661    -3680    -3697 
   -3707    -3711    -3711    -3711    -3713    -3715    -3713    -3711 
   -3701    -3685    -3674    -3670    -3662    -3645    -3630    -3630 
   -3636    -3642    -3651    -3667    -3676    -3667    -3665    -3677 
   -3682    -3659    -3622    -3618    -3657    -3685    -3697    -3713 
   -3713    -3704    -3708    -3715    -3716    -3709    -3696    -3685 
   -3676    -3670    -3665    -3654    -3654    -3676    -3703    -3723 
   -3720    -3700    -3682    -3669    -3649    -3636    -3645    -3650 
   -3645    -3645    -3650    -3657    -3663    -3665    -3658    -3643 
   -3638    -3658    -3676    -3667    -3666    -3673    -3672    -3672 
   -3672    -3666    -3682    -3711    -3709    -3690    -3682    -3673 
   -3651    -3638    -3635    -3643    -3663    -3678    -3678    -3678 
   -3682    -3689    -3694    -3688    -3684    -3704    -3721    -3726 
   -3731    -3720    -3700    -3686    -3677    -3667    -3659    -3654 
   -3651    -3634    -3612    -3615    -3634    -3649    -3655    -3661 
   -3680    -3709    -3711    -3686    -3688    -3704    -3704    -3690 
   -3681    -3674    -3659    -3647    -3650    -3650    -3646    -3655 
   -3676    -3689    -3686    -3680    -3678    -3682    -3692    -3701 
   -3708    -3712    -3696    -3665    -3653    -3672    -3692    -3693 
   -3686    -3685    -3676    -3657    -3646    -3649    -3657    -3667 
   -3672    -3677    -3694    -3708    -3711    -3705    -3701    -3711 
   -3720    -3713    -3703    -3701    -3697    -3678    -3657    -3649 
   -3639    -3630    -3635    -3643    -3643    -3653    -3676    -3694 
   -3704    -3704    -3697    -3688    -3670    -3646    -3632    -3634 
   -3647    -3676    -3707    -3713    -3692    -3650    -3618    -3611 
   -3595    -3586    -3619    -3657    -3674    -3689    -3689    -3676 
   -3677    -3685    -3696    -3709    -3709    -3701    -3696    -3690 
   -3677    -3661    -3662    -3654    -3622    -3607    -3620    -3638 
   -3653    -3657    -3672    -3701    -3726    -3736    -3736    -3735 
   -3739    -3732    -3711    -3684    -3659    -3657    -3666    -3673 
   -3666    -3654    -3647    -3646    -3662    -3690    -3704    -3697 
   -3686    -3673    -3665    -3673    -3681    -3680    -3674    -3657 
   -3636    -3624    -3616    -3619    -3636    -3658    -3682    -3697 
   -3690    -3685    -3690    -3685    -3670    -3659    -3646    -3639 
   -3650    -3670    -3693    -3711    -3724    -3744    -3746    -3726 
   -3712    -3699    -3677    -3658    -3651    -3655    -3657    -3657 
   -3674    -3680    -3667    -3661    -3645    -3618    -3609    -3623 
   -3632    -3649    -3673    -3681    -3684    -3701    -3711    -3703 
   -3693    -3692    -3709    -3724    -3716    -3704    -3703    -3704 
   -3701    -3694    -3684    -3680    -3686    -3697    -3701    -3699 
   -3703    -3693    -3662    -3638    -3626    -3626    -3638    -3653 
   -3667    -3680    -3685    -3685    -3684    -3676    -3662    -3653 
   -3646    -3632    -3622    -3630    -3646    -3646    -3630    -3613 
   -3616    -3651    -3692    -3703    -3705    -3719    -3727    -3719 
   -3712    -3724    -3747    -3763    -3765    -3748    -3727    -3707 
   -3680    -3649    -3631    -3630    -3635    -3639    -3631    -3620 
   -3616    -3601    -3578    -3578    -3592    -3601    -3624    -3653 
   -3659    -3654    -3661    -3672    -3676    -3694    -3716    -3728 
   -3742    -3747    -3734    -3711    -3690    -3685    -3696    -3707 
   -3704    -3694    -3692    -3690    -3692    -3701    -3712    -3716 
   -3717    -3736    -3758    -3765    -3746    -3712    -3682    -3657 
   -3645    -3657    -3662    -3651    -3642    -3631    -3620    -3622 
   -3639    -3659    -3677    -3682    -3666    -3654    -3657    -3653 
   -3650    -3665    -3684    -3688    -3684    -3686    -3699    -3715 
   -3716    -3696    -3666    -3645    -3636    -3630    -3616    -3608 
   -3612    -3628    -3649    -3663    -3676    -3690    -3704    -3713 
   -3717    -3717    -3711    -3693    -3678    -3681    -3693    -3701 
   -3699    -3681    -3661    -3645    -3634    -3635    -3638    -3645 
   -3665    -3678    -3688    -3690    -3684    -3686    -3693    -3677 
   -3657    -3653    -3659    -3665    -3659    -3653    -3653    -3653 
   -3654    -3665    -3676    -3677    -3684    -3701    -3728    -3765 
   -3800    -3823    -3839    -3838    -3804    -3757    -3708    -3661 
   -3619    -3588    -3568    -3558    -3558    -3562    -3573    -3581 
   -3584    -3586    -3591    -3595    -3607    -3634    -3667    -3699 
   -3730    -3763    -3785    -3778    -3751    -3717    -3682    -3655 
   -3649    -3650    -3658    -3669    -3673    -3680    -3689    -3689 
   -3680    -3649    -3593    -3549    -3511    -3480    -3491    -3516 
   -3535    -3585    -3657    -3709    -3726    -3721    -3712    -3700 
   -3694    -3701    -3708    -3711    -3717    -3730    -3726    -3712 
   -3701    -3680    -3654    -3658    -3678    -3677    -3673    -3688 
   -3699    -3692    -3676    -3674    -3707    -3758    -3796    -3798 
   -3769    -3730    -3686    -3635    -3585    -3555    -3566    -3609 
   -3666    -3712    -3736    -3755    -3774    -3769    -3740    -3712 
   -3693    -3684    -3678    -3661    -3642    -3631    -3627    -3626 
   -3616    -3600    -3586    -3577    -3576    -3588    -3616    -3642 
   -3647    -3636    -3609    -3569    -3538    -3543    -3593    -3670 
   -3743    -3792    -3804    -3789    -3762    -3720    -3681    -3673 
   -3689    -3719    -3755    -3782    -3790    -3770    -3739    -3716 
   -3713    -3720    -3701    -3651    -3613    -3601    -3601    -3607 
   -3607    -3603    -3616    -3653    -3686    -3701    -3709    -3738 
   -3790    -3825    -3819    -3786    -3762    -3740    -3704    -3663 
   -3630    -3607    -3607    -3619    -3619    -3613    -3620    -3647 
   -3680    -3690    -3680    -3662    -3640    -3627    -3643    -3669 
   -3680    -3673    -3642    -3603    -3585    -3584    -3589    -3631 
   -3707    -3774    -3815    -3829    -3817    -3790    -3767    -3732 
   -3666    -3607    -3593    -3609    -3627    -3647    -3688    -3744 
   -3800    -3838    -3843    -3824    -3809    -3809    -3809    -3788 
   -3753    -3730    -3697    -3628    -3551    -3500    -3474    -3457 
   -3431    -3395    -3366    -3369    -3408    -3468    -3543    -3658 
   -3792    -3896    -3947    -3950    -3912    -3847    -3775    -3705 
   -3654    -3645    -3666    -3696    -3707    -3670    -3600    -3550 
   -3532    -3539    -3574    -3634    -3676    -3680    -3680    -3693 
   -3693    -3684    -3676    -3642    -3593    -3595    -3619    -3601 
   -3559    -3537    -3549    -3593    -3646    -3694    -3747    -3793 
   -3808    -3790    -3769    -3773    -3798    -3820    -3844    -3892 
   -3939    -3947    -3920    -3878    -3821    -3750    -3677    -3611 
   -3557    -3543    -3564    -3566    -3551    -3535    -3514    -3493 
   -3483    -3473    -3468    -3480    -3516    -3562    -3591    -3612 
   -3654    -3712    -3773    -3836    -3881    -3885    -3846    -3771 
   -3685    -3627    -3600    -3585    -3576    -3557    -3537    -3549 
   -3595    -3657    -3709    -3716    -3676    -3636    -3630    -3647 
   -3670    -3678    -3669    -3654    -3631    -3593    -3553    -3526 
   -3528    -3555    -3593    -3642    -3708    -3800    -3883    -3909 
   -3889    -3847    -3796    -3766    -3784    -3836    -3861    -3825 
   -3785    -3766    -3755    -3750    -3743    -3734    -3736    -3734 
   -3709    -3680    -3643    -3592    -3545    -3501    -3470    -3472 
   -3489    -3516    -3547    -3558    -3564    -3576    -3582    -3601 
   -3666    -3743    -3778    -3773    -3755    -3755    -3781    -3780 
   -3739    -3709    -3696    -3674    -3665    -3680    -3705    -3739 
   -3765    -3771    -3773    -3766    -3721    -3632    -3549    -3505 
   -3501    -3530    -3568    -3597    -3647    -3716    -3765    -3763 
   -3738    -3720    -3712    -3694    -3677    -3676    -3681    -3676 
   -3659    -3634    -3623    -3646    -3685    -3716    -3740    -3755 
   -3743    -3720    -3716    -3724    -3738    -3762    -3778    -3765 
   -3740    -3720    -3704    -3684    -3647    -3615    -3597    -3582 
   -3577    -3585    -3597    -3616    -3645    -3677    -3705    -3721 
   -3728    -3757    -3807    -3838    -3812    -3742    -3680    -3650 
   -3616    -3553    -3484    -3441    -3427    -3439    -3473    -3524 
   -3588    -3657    -3716    -3751    -3743    -3711    -3700    -3699 
   -3678    -3657    -3649    -3655    -3661    -3634    -3597    -3592 
   -3613    -3636    -3647    -3659    -3688    -3709    -3699    -3697 
   -3735    -3766    -3766    -3765    -3778    -3802    -3842    -3886 
   -3910    -3916    -3916    -3908    -3882    -3812    -3703    -3591 
   -3501    -3466    -3485    -3516    -3559    -3612    -3650    -3673 
   -3674    -3650    -3624    -3613    -3591    -3546    -3503    -3480 
   -3488    -3519    -3539    -3547    -3569    -3597    -3622    -3663 
   -3720    -3750    -3740    -3719    -3708    -3697    -3674    -3654 
   -3654    -3677    -3699    -3689    -3657    -3646    -3672    -3703 
   -3700    -3684    -3694    -3708    -3703    -3690    -3673    -3663 
   -3672    -3678    -3694    -3726    -3738    -3720    -3703    -3705 
   -3716    -3704    -3690    -3688    -3680    -3672    -3670    -3678 
   -3705    -3744    -3774    -3774    -3755    -3739    -3728    -3701 
   -3684    -3708    -3736    -3720    -3684    -3650    -3616    -3588 
   -3578    -3576    -3574    -3586    -3607    -3640    -3686    -3724 
   -3740    -3744    -3750    -3773    -3800    -3788    -3738    -3672 
   -3599    -3545    -3532    -3558    -3613    -3666    -3672    -3645 
   -3631    -3616    -3592    -3595    -3618    -3647    -3690    -3735 
   -3757    -3762    -3771    -3778    -3777    -3781    -3786    -3765 
   -3705    -3636    -3589    -3577    -3592    -3612    -3613    -3595 
   -3595    -3620    -3630    -3628    -3649    -3688    -3740    -3800 
   -3850    -3883    -3906    -3888    -3815    -3728    -3670    -3643 
   -3622    -3582    -3538    -3512    -3507    -3508    -3523    -3562 
   -3618    -3681    -3734    -3748    -3732    -3705    -3674    -3653 
   -3667    -3724    -3777    -3778    -3739    -3688    -3638    -3592 
   -3558    -3555    -3582    -3611    -3626    -3635    -3647    -3662 
   -3677    -3680    -3680    -3692    -3723    -3770    -3812    -3835 
   -3832    -3797    -3747    -3703    -3670    -3647    -3623    -3611 
   -3608    -3592    -3573    -3593    -3646    -3709    -3781    -3824 
   -3827    -3813    -3784    -3730    -3680    -3643    -3616    -3597 
   -3573    -3542    -3510    -3493    -3501    -3530    -3572    -3613 
   -3642    -3669    -3699    -3723    -3750    -3770    -3770    -3766 
   -3778    -3786    -3771    -3727    -3662    -3604    -3569    -3555 
   -3549    -3543    -3545    -3545    -3547    -3574    -3618    -3651 
   -3669    -3680    -3678    -3658    -3646    -3672    -3703    -3696 
   -3673    -3674    -3700    -3738    -3761    -3762    -3766    -3789 
   -3824    -3850    -3856    -3843    -3812    -3770    -3740    -3728 
   -3719    -3688    -3640    -3600    -3573    -3557    -3547    -3549 
   -3573    -3618    -3651    -3646    -3627    -3642    -3684    -3726 
   -3757    -3761    -3732    -3699    -3676    -3670    -3667    -3632 
   -3576    -3532    -3520    -3555    -3608    -3631    -3638    -3634 
   -3609    -3591    -3589    -3595    -3609    -3627    -3638    -3636 
   -3626    -3638    -3678    -3711    -3728    -3738    -3739    -3724 
   -3711    -3727    -3751    -3747    -3728    -3728    -3758    -3793 
   -3817    -3832    -3831    -3794    -3735    -3685    -3666    -3654 
   -3647    -3662    -3689    -3730    -3770    -3766    -3732    -3711 
   -3681    -3639    -3624    -3631    -3630    -3619    -3620    -3643 
   -3674    -3690    -3689    -3674    -3645    -3611    -3600    -3616 
   -3626    -3628    -3650    -3667    -3650    -3623    -3605    -3589 
   -3593    -3623    -3659    -3690    -3708    -3712    -3709    -3700 
