Origin Time       2025/03/28 03:50:00
Lat.              35.403
Long.             140.360
Depth. (km)       54
Mag.              4.4
Station Code      TCGH15
Station Lat.      36.5595
Station Long.     139.8637
Station Height(m) 125
Record Time       2025/03/28 03:51:17
Sampling Freq(Hz) 100Hz
Duration Time(s)  120
Dir.              4
Scale Factor      7845(gal)/8223790
Max. Acc. (gal)   0.902
Last Correction   2025/03/28 03:51:18
Memo.             
[...]
    1390     1383     1374     1377     1382     1377     1354     1316 
    1267     1229     1215     1225     1259     1312     1372     1429 
    1472     1491     1468     1402     1323     1263     1233     1237 
    1264     1293     1327     1362     1371     1354     1331     1312 
    1314     1344     1370     1371     1364     1356     1351     1352 
    1359     1367     1377     1391     1405     1398     1363     1314 
    1275     1259     1259     1281     1321     1356     1371     1367 
    1344     1318     1316     1325     1329     1331     1332     1329 
    1331     1339     1356     1381     1394     1399     1398     1393 
    1379     1354     1324     1306     1309     1327     1344     1355 
    1350     1329     1301     1281     1264     1246     1240     1260 
    1296     1337     1382     1424     1452     1471     1470     1440 
    1394     1352     1327     1323     1332     1336     1328     1312 
    1285     1258     1243     1251     1291     1348     1387     1401 
    1395     1377     1351     1323     1301     1297     1309     1328 
    1347     1362     1372     1381     1383     1371     1343     1312 
    1301     1306     1308     1306     1317     1328     1328     1328 
    1332     1329     1335     1363     1386     1395     1401     1387 
    1360     1345     1328     1290     1263     1274     1309     1344 
    1364     1372     1377     1386     1398     1401     1383     1350 
    1327     1321     1321     1317     1304     1278     1254     1242 
    1243     1254     1278     1310     1359     1420     1472     1502 
    1503     1480     1447     1402     1344     1296     1264     1228 
    1188     1179     1219     1269     1312     1356     1389     1404 
    1418     1425     1409     1389     1374     1356     1332     1305 
    1283     1275     1283     1304     1306     1290     1294     1331 
    1368     1385     1393     1397     1391     1386     1375     1354 
    1331     1321     1337     1363     1378     1370     1340     1306 
    1293     1298     1308     1318     1336     1355     1358     1337 
    1308     1291     1289     1296     1318     1363     1413     1448 
    1445     1413     1381     1367     1370     1371     1355     1317 
    1271     1240     1223     1212     1208     1219     1255     1323 
    1390     1428     1447     1459     1467     1466     1445     1402 
    1350     1305     1263     1228     1219     1240     1278     1329 
    1378     1401     1408     1418     1428     1421     1405     1385 
    1362     1343     1324     1294     1259     1240     1251     1290 
    1340     1387     1428     1445     1428     1389     1343     1293 
    1248     1210     1188     1193     1221     1262     1301     1327 
    1347     1377     1402     1421     1436     1452     1460     1443 
    1395     1337     1296     1296     1331     1366     1382     1374 
    1339     1291     1262     1263     1286     1329     1391     1445 
    1456     1422     1360     1283     1215     1175     1179     1235 
    1324     1406     1449     1440     1389     1324     1278     1274 
    1308     1360     1413     1444     1458     1455     1420     1360 
    1305     1275     1275     1304     1350     1394     1416     1416 
    1390     1328     1250     1196     1182     1224     1306     1379 
    1422     1433     1408     1364     1314     1262     1227     1231 
    1271     1335     1395     1425     1425     1409     1382     1354 
    1340     1341     1350     1367     1383     1372     1332     1285 
    1247     1233     1258     1309     1359     1383     1382     1370 
    1360     1366     1379     1394     1409     1417     1404     1364 
    1309     1259     1227     1217     1246     1305     1363     1401 
    1406     1383     1348     1310     1289     1305     1344     1378 
    1397     1399     1393     1391     1385     1363     1345     1354 
    1375     1386     1368     1317     1250     1204     1193     1202 
    1227     1269     1320     1368     1406     1428     1431     1428 
    1448     1482     1495     1455     1356     1237     1142     1094 
    1097     1142     1229     1356     1478     1552     1583     1579 
    1521     1420     1321     1263     1247     1256     1270     1273 
    1263     1252     1256     1281     1312     1347     1391     1432 
    1460     1476     1470     1441     1394     1328     1248     1178 
    1139     1152     1210     1281     1340     1377     1395     1414 
    1435     1443     1437     1416     1393     1386     1377     1347 
    1309     1267     1235     1240     1267     1286     1301     1318 
    1344     1377     1412     1439     1447     1431     1395     1340 
    1278     1231     1212     1228     1287     1363     1408     1405 
    1383     1364     1347     1314     1278     1270     1297     1341 
    1370     1374     1368     1366     1374     1394     1413     1406 
    1374     1339     1321     1320     1323     1323     1324     1327 
    1323     1314     1316     1329     1347     1348     1333     1317 
    1305     1296     1286     1286     1302     1335     1375     1417 
    1441     1445     1447     1445     1432     1406     1354     1279 
    1219     1181     1152     1136     1156     1227     1336     1447 
    1521     1539     1517     1482     1449     1414     1371     1317 
    1279     1275     1286     1283     1256     1223     1209     1229 
    1264     1297     1318     1333     1347     1385     1456     1512 
    1512     1479     1445     1410     1372     1337     1300     1262 
    1223     1179     1158     1186     1237     1291     1355     1410 
    1447     1475     1491     1468     1414     1358     1300     1243 
    1217     1220     1215     1209     1235     1281     1344     1429 
    1510     1564     1582     1553     1468     1344     1228     1155 
    1124     1144     1206     1278     1347     1408     1445     1466 
    1478     1483     1476     1456     1420     1358     1282     1221 
    1171     1127     1115     1152     1221     1310     1405     1464 
    1479     1479     1474     1456     1431     1394     1337     1269 
    1212     1182     1188     1235     1304     1360     1383     1370 
    1344     1328     1332     1371     1443     1516     1552     1528 
    1444     1333     1227     1154     1132     1171     1251     1331 
    1382     1405     1406     1399     1405     1421     1422     1404 
    1381     1352     1316     1285     1244     1196     1179     1210 
    1273     1350     1417     1451     1441     1406     1368     1348 
    1356     1395     1437     1452     1439     1390     1297     1194 
    1125     1112     1159     1252     1350     1412     1435     1431 
    1410     1395     1397     1406     1414     1412     1386     1345 
    1304     1264     1247     1259     1282     1313     1364     1417 
    1437     1428     1417     1410     1394     1375     1356     1336 
    1327     1306     1258     1204     1171     1152     1154     1190 
    1252     1331     1413     1495     1559     1583     1559     1491 
    1408     1341     1290     1235     1192     1171     1167     1175 
    1216     1282     1354     1422     1478     1506     1507     1479 
    1426     1374     1331     1287     1235     1166     1111     1102 
    1147     1239     1347     1432     1494     1534     1540     1517 
    1479     1443     1416     1390     1355     1310     1259     1200 
    1151     1138     1171     1256     1371     1475     1551     1595 
    1594     1551     1498     1449     1391     1313     1231     1169 
    1138     1120     1117     1147     1215     1306     1393     1455 
    1497     1505     1463     1387     1323     1282     1259     1259 
    1279     1302     1308     1301     1304     1344     1426     1502 
    1536     1532     1495     1426     1327     1220     1148     1124 
    1128     1151     1193     1237     1277     1323     1393     1478 
    1540     1560     1544     1509     1471     1422     1351     1270 
    1209     1178     1169     1186     1223     1262     1313     1377 
    1439     1486     1507     1503     1480     1428     1345     1264 
    1202     1174     1192     1235     1274     1305     1333     1343 
    1332     1324     1327     1348     1389     1436     1475     1501 
    1516     1512     1468     1387     1293     1206     1146     1115 
    1116     1148     1210     1298     1385     1437     1456     1464 
    1470     1466     1448     1422     1379     1327     1283     1250 
    1221     1202     1190     1198     1239     1298     1360     1409 
    1447     1486     1510     1485     1410     1314     1231     1197 
    1225     1294     1367     1416     1425     1398     1343     1283 
    1254     1263     1298     1341     1372     1382     1372     1362 
    1350     1337     1339     1375     1425     1449     1431     1370 
    1294     1251     1254     1283     1323     1351     1348     1314 
    1260     1201     1161     1167     1223     1323     1448     1560 
    1625     1629     1578     1491     1395     1324     1291     1279 
    1262     1224     1177     1155     1181     1235     1294     1374 
    1466     1514     1497     1422     1301     1165     1065     1024 
    1050     1140     1285     1444     1586     1695     1741     1713 
    1640     1537     1402     1259     1140     1066     1057     1115 
    1205     1296     1375     1452     1521     1567     1572     1540 
    1489     1443     1399     1343     1278     1233     1215     1201 
    1183     1156     1123     1101     1107     1150     1232     1340 
    1449     1530     1580     1587     1534     1458     1399     1360 
    1344     1348     1341     1314     1281     1244     1217     1216 
    1240     1281     1343     1413     1470     1486     1448     1364 
    1266     1201     1190     1221     1294     1409     1528     1597 
    1601     1556     1478     1377     1262     1156     1089     1084 
    1139     1228     1320     1378     1377     1337     1304     1282 
    1275     1300     1355     1424     1474     1474     1441     1414 
    1402     1390     1371     1358     1348     1339     1341     1354 
    1354     1351     1350     1329     1289     1242     1183     1140 
    1154     1223     1337     1476     1593     1668     1703     1691 
    1620     1486     1327     1189     1090     1034     1000      966 
     945      953      997     1085     1205     1324     1440     1564 
    1675     1746     1753     1690     1595     1525     1466     1378 
    1264     1155     1081     1067     1105     1174     1270     1382 
    1486     1568     1595     1539     1420     1294     1198     1150 
    1147     1177     1236     1328     1418     1458     1439     1393 
    1350     1337     1362     1397     1428     1445     1451     1422 
    1328     1194     1084     1040     1071     1152     1248     1336 
    1412     1467     1512     1545     1567     1582     1591     1564 
    1468     1325     1189     1109     1102     1146     1202     1263 
    1339     1421     1495     1543     1553     1525     1466     1394 
    1314     1215     1116     1063     1074     1125     1200     1273 
    1344     1422     1490     1525     1518     1491     1468     1451 
    1428     1382     1291     1166     1061     1020     1047     1131 
    1250     1370     1464     1521     1539     1533     1514     1471 
    1405     1333     1254     1147     1024      930      918     1021 
    1220     1444     1648     1804     1884     1880     1803     1640 
    1408     1163      969      885      934     1077     1255     1417 
    1520     1540     1494     1429     1381     1360     1377     1431 
    1495     1536     1537     1483     1371     1242     1143     1096 
    1104     1162     1243     1312     1336     1297     1204     1093 
    1013      990     1054     1228     1470     1698     1837     1844 
    1714     1503     1282     1102     1004     1028     1174     1385 
    1591     1733     1771     1718     1609     1451     1273     1132 
    1074     1088     1124     1159     1200     1246     1278     1274 
    1243     1213     1225     1302     1426     1560     1659     1686 
    1641     1534     1389     1246     1135     1071     1070     1120 
    1210     1323     1399     1401     1343     1270     1232     1255 
    1332     1460     1632     1788     1877     1857     1699     1445 
    1173      947      810      774      826      945     1117     1328 
    1543     1707     1792     1796     1723     1603     1478     1344 
    1194     1059      972      949      989     1069     1146     1202 
    1254     1297     1318     1333     1374     1455     1568     1674 
    1722     1696     1617     1507     1368     1205     1071     1017 
    1051     1123     1181     1235     1323     1447     1570     1644 
    1649     1606     1540     1444     1305     1125      928      764 
     685      733      916     1210     1549     1867     2100     2201 
    2143     1948     1679     1413     1194     1020      896      851 
     886      965     1040     1088     1124     1185     1281     1418 
    1591     1769     1917     1980     1907     1702     1416     1123 
     885      734      657      649      723      886     1112     1375 
    1644     1861     1998     2038     1971     1810     1572     1293 
    1036      846      719      646      635      711      893     1173 
    1510     1834     2085     2241     2286     2222     2058     1818 
    1540     1252      977      742      575      499      533      661 
     874     1161     1483     1791     2034     2154     2118     1957 
    1741     1533     1350     1174      997      831      704      641 
     645      722      892     1152     1443     1671     1800     1853 
    1849     1804     1725     1610     1472     1327     1193     1094 
    1035     1024     1080     1198     1364     1530     1613     1590 
    1503     1406     1331     1291     1286     1306     1354     1406 
    1418     1374     1300     1228     1185     1177     1190     1219 
    1264     1321     1378     1425     1459     1475     1479     1487 
    1494     1475     1431     1382     1337     1279     1200     1092 
     981      936      997     1138     1312     1486     1622     1695 
    1698     1636     1522     1390     1278     1205     1156     1135 
    1146     1177     1221     1277     1332     1378     1425     1485 
    1544     1578     1571     1525     1444     1328     1213     1148 
    1140     1177     1229     1269     1282     1263     1208     1135 
    1077     1082     1181     1362     1579     1777     1904     1925 
    1845     1701     1529     1370     1251     1166     1112     1089 
    1081     1071     1062     1066     1112     1213     1339     1451 
    1524     1552     1559     1548     1509     1452     1389     1313 
    1217     1112     1032     1027     1101     1217     1316     1366 
    1381     1377     1371     1406     1506     1636     1740     1767 
    1692     1529     1304     1063      868      766      796      940 
    1142     1336     1475     1548     1584     1615     1663     1734 
    1791     1780     1682     1510     1293     1061      842      685 
     627      670      787      931     1081     1242     1413     1587 
    1756     1877     1918     1871     1745     1564     1378     1228 
    1125     1065     1042     1048     1063     1077     1108     1185 
    1316     1480     1642     1760     1804     1767     1655     1497 
    1341     1233     1209     1279     1405     1520     1578     1559 
    1470     1345     1232     1151     1108     1104     1134     1167 
    1173     1143     1096     1073     1109     1210     1351     1495 
    1605     1649     1615     1526     1424     1325     1260     1258 
    1300     1355     1418     1479     1520     1514     1448     1333 
    1216     1142     1113     1096     1084     1098     1156     1250 
    1358     1452     1514     1545     1568     1579     1563     1509 
    1397     1232     1070      973      973     1070     1229     1401 
    1566     1711     1814     1856     1827     1723     1566     1385 
    1201     1039      931      886      874      874      889      922 
     988     1101     1250     1422     1617     1804     1937     1980 
    1926     1795     1637     1494     1366     1235     1111     1009 
     953      970     1067     1205     1356     1510     1644     1723 
    1729     1647     1485     1296     1132     1020      957      919 
     913      980     1112     1266     1420     1559     1660     1710 
    1711     1690     1663     1618     1532     1404     1250     1098 
     977      901      893      962     1100     1271     1437     1570 
    1634     1621     1557     1475     1399     1336     1270     1209 
    1167     1146     1156     1196     1231     1256     1296     1345 
    1408     1503     1605     1663     1663     1607     1513     1416 
    1336     1248     1128      989      869      808      853      994 
    1167     1339     1499     1637     1744     1817     1822     1748 
    1622     1478     1323     1159     1003      877      828      877 
     989     1125     1254     1350     1425     1514     1613     1690 
    1722     1701     1630     1526     1382     1196     1012      892 
     858      912     1031     1179     1354     1555     1765     1946 
    2050     2056     1984     1852     1651     1404     1154      940 
     773      658      610      641      761      967     1220     1463 
    1653     1775     1833     1830     1763     1647     1513     1389 
    1290     1210     1131     1050     1000     1009     1090     1232 
    1420     1618     1782     1876     1875     1784     1615     1399 
    1197     1054      970      918      874      847      873      980 
    1148     1336     1502     1624     1703     1740     1702     1597 
    1464     1332     1210     1098      988      892      843      865 
     957     1119     1343     1591     1815     1969     2012     1933 
    1755     1525     1309     1150     1047      997     1009     1082 
    1193     1323     1462     1598     1715     1798     1815     1745 
    1588     1371     1136      928      773      683      672      753 
     919     1127     1329     1513     1675     1806     1887     1894 
    1822     1686     1516     1360     1248     1167     1098     1051 
    1039     1066     1127     1205     1290     1378     1466     1551 
    1617     1634     1597     1503     1378     1259     1175     1120 
    1074     1034     1004      993     1021     1119     1286     1491 
    1680     1788     1783     1694     1568     1429     1300     1205 
    1158     1165     1205     1235     1221     1179     1151     1166 
    1220     1281     1323     1355     1393     1424     1429     1421 
    1424     1452     1503     1549     1553     1521     1464     1386 
    1310     1263     1254     1289     1356     1412     1422     1385 
    1317     1244     1192     1177     1192     1220     1251     1283 
    1316     1352     1387     1426     1482     1545     1597     1620 
    1599     1525     1424     1318     1201     1080      982      913 
     882      901      943      990     1069     1204     1383     1574 
