Origin Time       2025/03/28 03:50:00
Lat.              35.403
Long.             140.360
Depth. (km)       54
Mag.              4.4
Station Code      TCGH12
Station Lat.      36.6959
Station Long.     139.9842
Station Height(m) 42
Record Time       2025/03/28 03:51:20
Sampling Freq(Hz) 100Hz
Duration Time(s)  120
Dir.              2
Scale Factor      2942(gal)/8224139
Max. Acc. (gal)   0.158
Last Correction   2025/03/28 03:51:20
Memo.             
[...]
   40957    40957    40954    40948    40946    40952    40956    40973 
   40999    41022    41052    41083    41095    41091    41081    41071 
   41064    41057    41057    41073    41100    41125    41133    41129 
   41127    41126    41121    41116    41107    41088    41062    41046 
   41048    41053    41052    41048    41044    41040    41041    41045 
   41042    41025    41008    41011    41017    41003    40983    40975 
   40968    40949    40937    40945    40953    40961    40984    41011 
   41042    41079    41110    41146    41183    41193    41187    41175 
   41154    41125    41091    41064    41052    41042    41030    41021 
   41022    41031    41040    41044    41049    41050    41046    41037 
   41023    41010    40990    40961    40944    40945    40949    40961 
   40999    41038    41053    41053    41060    41075    41089    41087 
   41075    41068    41071    41080    41100    41123    41138    41134 
   41108    41071    41040    41033    41041    41048    41053    41060 
   41060    41054    41049    41048    41046    41035    41017    40996 
   40979    40968    40964    40973    41003    41033    41056    41081 
   41103    41110    41103    41089    41072    41062    41060    41044 
   41008    40967    40937    40930    40941    40968    41011    41056 
   41091    41122    41148    41153    41145    41141    41127    41096 
   41081    41092    41100    41106    41116    41121    41111    41092 
   41060    41014    40973    40956    40954    40964    40998    41050 
   41095    41126    41135    41114    41080    41050    41021    40998 
   40990    40980    40960    40933    40921    40942    40987    41040 
   41092    41130    41137    41123    41111    41107    41095    41075 
   41049    41019    41003    41007    41015    41029    41046    41056 
   41060    41067    41075    41077    41077    41088    41103    41094 
   41068    41050    41044    41045    41050    41049    41044    41048 
   41060    41054    41033    41014    40990    40959    40941    40952 
   40977    41004    41029    41067    41108    41127    41130    41127 
   41115    41103    41089    41067    41044    41023    40994    40971 
   40973    40986    41003    41034    41071    41102    41125    41139 
   41148    41142    41121    41081    41033    40994    40968    40954 
   40948    40944    40940    40946    40972    41021    41075    41115 
   41134    41141    41135    41123    41108    41095    41088    41089 
   41087    41073    41054    41034    41015    40999    40996    41002 
   40996    40995    40999    40998    41013    41049    41075    41087 
   41089    41071    41042    41008    40979    40975    40999    41018 
   41026    41037    41057    41083    41103    41115    41121    41125 
   41122    41123    41139    41160    41169    41169    41154    41123 
   41095    41080    41054    40999    40945    40926    40932    40944 
   40967    41002    41026    41030    41023    41015    41015    41031 
   41058    41076    41080    41079    41079    41076    41072    41068 
   41064    41053    41034    41008    40991    40990    40992    41006 
   41038    41087    41133    41161    41168    41161    41146    41133 
   41121    41103    41088    41081    41079    41085    41094    41087 
   41053    41002    40956    40927    40927    40956    40986    40999 
   41002    40991    40971    40952    40949    40967    40984    40988 
   40996    41023    41053    41071    41080    41085    41099    41133 
   41164    41175    41183    41196    41210    41216    41208    41183 
   41152    41125    41108    41107    41121    41137    41131    41094 
   41045    40999    40954    40917    40903    40914    40941    40968 
   40986    40987    40981    40983    40995    41010    41013    40994 
   40971    40972    41015    41088    41165    41220    41237    41212 
   41168    41133    41108    41084    41057    41038    41025    40992 
   40932    40875    40865    40926    41041    41179    41301    41388 
   41420    41382    41281    41143    40991    40840    40720    40659 
   40674    40760    40886    40998    41067    41099    41102    41079 
   41037    40983    40933    40917    40937    40980    41035    41099 
   41161    41216    41246    41231    41161    41046    40914    40807 
   40759    40782    40869    40998    41112    41179    41196    41180 
   41156    41160    41215    41299    41353    41324    41235    41129 
   41030    40968    40954    40956    40946    40915    40867    40845 
   40873    40934    41000    41044    41044    41013    40988    40975 
   40965    40960    40969    41004    41049    41085    41129    41176 
   41188    41156    41092    41017    40952    40921    40946    41025 
   41111    41177    41227    41246    41210    41129    41045    40986 
   40960    40968    40998    41041    41083    41115    41134    41134 
   41115    41098    41087    41072    41034    40964    40892    40865 
   40888    40933    40984    41022    41025    41000    40980    40996 
   41049    41104    41141    41166    41177    41176    41175    41176 
   41175    41166    41150    41122    41067    41014    41003    41008 
   40998    40990    40984    40965    40932    40892    40860    40852 
   40891    40965    41050    41134    41200    41229    41222    41195 
   41152    41106    41083    41085    41089    41073    41025    40968 
   40952    40983    41011    40998    40942    40875    40834    40836 
   40863    40913    41003    41112    41195    41254    41315    41369 
   41382    41349    41281    41196    41118    41049    40987    40940 
   40914    40914    40930    40940    40937    40934    40933    40940 
   40956    40990    41044    41096    41130    41157    41172    41157 
   41133    41121    41122    41127    41107    41038    40946    40859 
   40787    40751    40756    40795    40868    40950    41027    41104 
   41175    41229    41272    41297    41291    41258    41219    41185 
   41149    41104    41062    41018    40979    40968    40984    41017 
   41056    41089    41104    41092    41057    41015    40992    41007 
   41054    41116    41160    41169    41150    41104    41040    40980 
   40936    40902    40883    40869    40855    40860    40891    40919 
   40944    40983    41041    41102    41153    41184    41203    41206 
   41185    41154    41133    41116    41085    41035    40995    40983 
   40998    41029    41071    41129    41185    41215    41196    41143 
   41098    41064    41037    41018    40976    40905    40851    40845 
   40865    40902    40960    41021    41061    41096    41133    41162 
   41175    41150    41087    41027    41006    41022    41058    41077 
   41069    41075    41123    41191    41243    41250    41199    41111 
   41026    40976    40965    40971    40980    40979    40960    40950 
   40971    41007    41044    41073    41083    41056    41003    40972 
   40988    41029    41057    41053    41027    41000    40995    41000 
   40999    41002    41006    40987    40964    40965    40988    41014 
   41025    41013    41004    41037    41116    41218    41303    41341 
   41318    41264    41216    41170    41118    41053    40979    40913 
   40887    40905    40940    40968    40979    40981    40992    41013 
   41045    41094    41139    41162    41158    41131    41099    41088 
   41102    41127    41141    41121    41067    41006    40979    40986 
   40988    40977    40981    41000    41013    41019    41026    41027 
   41019    41015    41026    41061    41106    41126    41106    41065 
   41030    41014    41013    41026    41034    41019    40986    40952 
   40936    40944    40967    40983    40975    40942    40900    40888 
   40927    41010    41112    41196    41212    41173    41133    41115 
   41116    41131    41153    41168    41153    41110    41068    41031 
   40994    40968    40957    40940    40913    40895    40878    40860 
   40861    40872    40890    40933    40995    41060    41123    41175 
   41195    41181    41146    41110    41083    41068    41075    41115 
   41179    41227    41251    41262    41250    41204    41139    41080 
   41038    41010    40987    40968    40961    40965    40983    41021 
   41057    41072    41089    41112    41103    41062    41025    40996 
   40952    40894    40855    40856    40902    40981    41069    41148 
   41212    41257    41278    41274    41237    41183    41142    41125 
   41116    41091    41048    41013    41004    41025    41071    41127 
   41166    41157    41100    41031    40967    40906    40860    40836 
   40840    40872    40907    40942    40994    41044    41062    41054 
   41030    40999    40984    41002    41038    41077    41114    41126 
   41110    41088    41087    41104    41126    41130    41102    41056 
   41022    41015    41034    41067    41094    41100    41095    41080 
   41048    41011    40988    40977    40961    40925    40883    40884 
   40936    41010    41103    41202    41266    41291    41285    41254 
   41204    41150    41102    41056    41007    40945    40869    40809 
   40791    40815    40871    40959    41062    41161    41227    41247 
   41222    41169    41121    41089    41069    41052    41049    41052 
   41045    41038    41045    41057    41057    41031    40992    40977 
   40992    41004    41008    41014    41018    41026    41054    41104 
   41164    41215    41251    41278    41288    41261    41191    41103 
   41029    40973    40922    40879    40849    40824    40810    40826 
   40865    40923    40992    41050    41096    41138    41170    41197 
   41204    41164    41094    41034    41004    40996    41007    41038 
   41069    41091    41129    41185    41229    41245    41245    41224 
   41177    41115    41058    41017    40991    40996    41027    41057 
   41068    41068    41069    41072    41061    41018    40949    40894 
   40888    40913    40923    40915    40900    40887    40894    40925 
   40971    41017    41058    41091    41119    41143    41165    41181 
   41172    41138    41111    41111    41123    41118    41069    40992 
   40927    40913    40952    41010    41056    41079    41080    41081 
   41091    41091    41096    41123    41133    41102    41050    40979 
   40907    40871    40855    40833    40814    40803    40805    40819 
   40844    40878    40922    40980    41054    41116    41135    41134 
   41134    41138    41152    41180    41218    41242    41222    41153 
   41067    40988    40948    40968    41029    41084    41129    41176 
   41210    41220    41220    41204    41168    41129    41089    41044 
   41003    40988    40992    41000    41007    40991    40950    40917 
   40921    40959    40995    40995    40964    40932    40926    40938 
   40954    40995    41045    41061    41045    41022    41008    41003 
   40992    40979    40977    40975    40952    40929    40941    40999 
   41085    41179    41265    41335    41385    41408    41389    41330 
   41264    41203    41145    41110    41106    41096    41065    41019 
   40979    40971    41004    41052    41098    41131    41135    41123 
   41123    41135    41137    41118    41080    41025    40949    40876 
   40844    40849    40872    40905    40936    40938    40923    40934 
   40979    41033    41075    41102    41122    41145    41172    41180 
   41161    41137    41115    41089    41068    41067    41068    41061 
   41054    41049    41023    40984    40954    40942    40938    40938 
   40948    40975    41021    41085    41150    41181    41177    41148 
   41102    41054    41023    40999    40976    40964    40979    41021 
   41079    41127    41152    41150    41126    41068    40988    40917 
   40861    40819    40803    40824    40869    40911    40934    40954 
   40984    41026    41079    41126    41150    41160    41164    41158 
   41133    41089    41046    41014    40996    41003    41030    41046 
   41026    40990    40975    40979    40968    40961    40988    41027 
   41048    41064    41091    41119    41141    41158    41173    41196 
   41237    41284    41316    41320    41280    41197    41092    40981 
   40879    40801    40767    40775    40797    40837    40915    40998 
   41058    41111    41166    41208    41235    41260    41270    41266 
   41254    41227    41187    41153    41141    41150    41161    41161 
   41148    41118    41073    41018    40957    40910    40892    40896 
   40899    40895    40900    40934    40996    41073    41154    41216 
   41241    41224    41164    41084    41014    40942    40871    40819 
   40787    40771    40792    40859    40954    41053    41131    41176 
   41195    41210    41230    41247    41256    41256    41256    41241 
   41196    41134    41081    41060    41069    41089    41103    41108 
   41104    41076    41014    40932    40852    40799    40780    40799 
   40849    40906    40944    40959    40952    40923    40890    40876 
   40892    40919    40954    41003    41048    41072    41089    41110 
   41119    41118    41116    41111    41081    41050    41053    41083 
   41119    41169    41227    41274    41312    41341    41339    41311 
   41274    41247    41233    41215    41175    41111    41031    40941 
   40853    40792    40763    40740    40722    40736    40776    40825 
   40872    40915    40952    40983    40995    40986    40976    40980 
   41003    41045    41085    41098    41085    41069    41057    41050 
   41045    41041    41044    41054    41075    41104    41148    41206 
   41283    41361    41418    41461    41492    41478    41404    41289 
   41165    41053    40964    40895    40840    40799    40790    40810 
   40841    40864    40879    40890    40892    40902    40930    40954 
   40952    40925    40888    40861    40848    40851    40883    40941 
   41004    41052    41069    41073    41091    41108    41122    41149 
   41172    41166    41148    41138    41145    41160    41175    41185 
   41197    41193    41165    41137    41116    41087    41057    41037 
   41014    40996    41003    41015    41017    41019    41021    41008 
   40981    40944    40899    40859    40836    40845    40894    40967 
   41031    41067    41081    41087    41087    41081    41083    41091 
   41088    41065    41037    41015    41022    41054    41089    41103 
   41092    41072    41061    41073    41104    41142    41183    41210 
   41204    41184    41180    41189    41196    41189    41160    41110 
   41056    41019    40994    40954    40919    40921    40945    40964 
   40976    40984    40983    40976    40981    41002    41029    41044 
   41034    41007    40979    40961    40961    40987    41038    41077 
   41077    41057    41038    41044    41079    41123    41154    41179 
   41193    41189    41191    41203    41191    41152    41103    41046 
   40994    40963    40944    40913    40864    40806    40767    40770 
   40818    40894    40971    41031    41079    41115    41135    41142 
   41138    41116    41077    41044    41026    41031    41068    41125 
   41176    41200    41192    41165    41142    41131    41118    41099 
   41083    41071    41071    41095    41121    41134    41141    41138 
   41126    41118    41118    41115    41108    41102    41089    41073 
   41067    41071    41083    41089    41079    41056    41046    41060 
   41077    41094    41115    41129    41111    41062    41004    40960 
   40942    40949    40972    41006    41041    41062    41072    41061 
   41026    40992    40971    40954    40945    40953    40971    41002 
   41053    41118    41188    41247    41283    41291    41274    41242 
   41200    41158    41125    41092    41054    41022    41003    40995 
   40983    40964    40952    40940    40915    40880    40849    40821 
   40799    40798    40825    40867    40910    40950    40977    40987 
   40995    41011    41035    41049    41048    41050    41064    41083 
   41104    41110    41106    41103    41099    41103    41129    41158 
   41168    41158    41141    41118    41084    41037    40981    40914 
   40855    40833    40849    40879    40915    40940    40938    40919 
   40903    40895    40900    40925    40963    40995    41017    41049 
   41098    41145    41180    41183    41146    41099    41065    41054 
   41067    41092    41116    41122    41111    41103    41098    41083 
   41060    41029    40992    40963    40960    40998    41057    41106 
   41131    41131    41115    41089    41061    41040    41019    40995 
   40984    40999    41035    41075    41114    41160    41196    41219 
   41243    41278    41318    41347    41347    41315    41266    41208 
   41150    41098    41048    40992    40934    40888    40863    40848 
   40832    40822    40806    40783    40784    40817    40867    40926 
   40987    41026    41045    41067    41094    41123    41165    41203 
   41207    41187    41158    41121    41087    41083    41098    41108 
   41104    41084    41056    41033    41025    41030    41038    41030 
   41010    40994    40992    41007    41022    41027    41027    41014 
   40988    40969    40956    40941    40944    40969    40999    41030 
   41064    41088    41100    41112    41143    41188    41227    41250 
   41250    41229    41185    41125    41060    41013    40995    40992 
   40984    40967    40948    40934    40933    40945    40957    40969 
   40979    40977    40965    40950    40946    40949    40949    40941 
   40934    40949    40986    41027    41064    41095    41121    41141 
   41158    41183    41206    41222    41229    41224    41211    41197 
   41181    41162    41137    41103    41073    41052    41026    40998 
   40973    40950    40936    40941    40954    40964    40975    40986 
   40991    41002    41021    41031    41025    41010    41011    41034 
   41061    41085    41108    41125    41143    41170    41191    41200 
   41202    41191    41176    41166    41150    41118    41069    41017 
   40975    40956    40954    40967    40976    40975    40972    40979 
   40990    41003    41023    41057    41102    41141    41158    41160 
   41148    41118    41085    41068    41071    41088    41104    41102 
   41085    41067    41050    41042    41045    41057    41075    41080 
   41081    41084    41079    41065    41056    41049    41048    41042 
   41027    41002    40979    40964    40960    40973    40995    41010 
   41021    41034    41050    41064    41071    41079    41077    41057 
   41022    40984    40942    40914    40909    40900    40882    40868 
   40869    40894    40933    40981    41034    41071    41079    41071 
   41067    41065    41057    41042    41025    40998    40972    40972 
   40992    41014    41033    41046    41057    41076    41110    41149 
   41170    41177    41181    41183    41181    41184    41192    41195 
   41184    41161    41135    41112    41088    41053    41011    40971 
   40929    40896    40899    40930    40969    41008    41041    41060 
   41061    41050    41045    41045    41035    41025    41023    41027 
   41030    41041    41058    41080    41108    41148    41195    41237 
   41265    41283    41283    41264    41229    41195    41170    41148 
   41131    41122    41103    41077    41067    41077    41083    41057 
   41003    40952    40918    40884    40846    40819    40805    40803 
   40815    40841    40873    40905    40944    40987    41026    41054 
