Origin Time       2025/03/28 03:50:00
Lat.              35.403
Long.             140.360
Depth. (km)       54
Mag.              4.4
Station Code      TKYH12
Station Lat.      35.6701
Station Long.     139.2650
Station Height(m) 210
Record Time       2025/03/28 03:51:07
Sampling Freq(Hz) 100Hz
Duration Time(s)  120
Dir.              4
Scale Factor      7845(gal)/8223790
Max. Acc. (gal)   1.734
Last Correction   2025/03/28 03:51:07
Memo.             
[...]
   -1117    -1125    -1125    -1120    -1102    -1075    -1069    -1086 
   -1105    -1121    -1139    -1140    -1124    -1124    -1150    -1167 
   -1151    -1121    -1109    -1111    -1113    -1121    -1123    -1113 
   -1105    -1108    -1131    -1139    -1089    -1040    -1063    -1102 
   -1097    -1075    -1061    -1027    -1003    -1034    -1100    -1139 
   -1148    -1163    -1169    -1158    -1177    -1243    -1287    -1255 
   -1181    -1139    -1159    -1186    -1143    -1043     -947     -908 
    -970    -1070    -1077    -1027    -1020    -1043    -1078    -1121 
   -1136    -1142    -1186    -1232    -1223    -1200    -1194    -1143 
   -1040     -996    -1039    -1109    -1212    -1306    -1271    -1136 
   -1019     -958     -961     -999    -1012    -1012    -1046    -1096 
   -1108    -1096    -1100    -1112    -1159    -1289    -1398    -1385 
   -1324    -1279    -1202    -1092    -1004     -954     -961    -1032 
   -1073    -1005     -923     -934     -996    -1055    -1119    -1175 
   -1190    -1169    -1129    -1074     -984     -911     -965    -1128 
   -1266    -1304    -1252    -1163    -1101    -1100    -1148    -1233 
   -1290    -1254    -1161    -1107    -1115    -1131    -1123    -1097 
   -1063    -1066    -1112    -1105    -1027     -974     -967     -985 
   -1057    -1162    -1227    -1243    -1247    -1188    -1036     -908 
    -893     -966    -1070    -1142    -1173    -1192    -1189    -1165 
   -1121    -1073    -1090    -1174    -1277    -1366    -1347    -1194 
   -1059    -1035    -1067    -1081    -1059    -1026     -993     -953 
    -935     -962    -1017    -1088    -1170    -1260    -1305    -1252 
   -1152    -1084    -1034     -994    -1013    -1093    -1178    -1208 
   -1166    -1119    -1131    -1169    -1190    -1188    -1173    -1161 
   -1155    -1179    -1223    -1201    -1098    -1009     -981     -992 
   -1009    -1016    -1012     -993     -958     -946     -984    -1050 
   -1158    -1286    -1343    -1298    -1196    -1058     -955     -973 
   -1047    -1092    -1144    -1210    -1223    -1183    -1147    -1124 
   -1125    -1174    -1233    -1236    -1181    -1107    -1034    -1016 
   -1092    -1182    -1208    -1183    -1134    -1071    -1039    -1059 
   -1066    -1020     -996    -1053    -1125    -1155    -1158    -1136 
   -1080    -1048    -1058    -1046    -1028    -1034    -1031    -1084 
   -1231    -1336    -1316    -1248    -1213    -1212    -1216    -1206 
   -1167    -1101    -1059    -1053    -1043    -1040    -1057    -1050 
   -1024    -1005     -980     -957     -988    -1063    -1120    -1155 
   -1204    -1221    -1173    -1094    -1024     -981     -992    -1044 
   -1082    -1088    -1082    -1089    -1124    -1188    -1243    -1236 
   -1178    -1116    -1067    -1065    -1115    -1170    -1227    -1278 
   -1269    -1206    -1167    -1173    -1188    -1186    -1171    -1174 
   -1201    -1210    -1196    -1169    -1115    -1032     -954     -901 
    -866     -832     -837     -889     -966    -1062    -1139    -1139 
   -1104    -1116    -1174    -1219    -1208    -1173    -1173    -1204 
   -1212    -1181    -1127    -1102    -1107    -1074    -1028    -1024 
   -1023     -996     -982    -1012    -1092    -1186    -1263    -1337 
   -1374    -1321    -1206    -1108    -1078    -1092    -1115    -1186 
   -1308    -1374    -1335    -1248    -1143    -1038     -997    -1040 
   -1094    -1090    -1040     -974     -870     -757     -741     -831 
    -940    -1028    -1061    -1020     -990    -1030    -1092    -1152 
   -1198    -1225    -1256    -1266    -1233    -1198    -1144    -1073 
   -1065    -1142    -1235    -1271    -1232    -1182    -1179    -1185 
   -1182    -1198    -1219    -1227    -1235    -1231    -1205    -1175 
   -1142    -1092    -1021     -965     -961     -963     -913     -864 
    -874     -908     -949    -1016    -1104    -1178    -1231    -1260 
   -1250    -1201    -1181    -1192    -1188    -1183    -1181    -1148 
   -1093    -1046    -1017    -1003     -986     -985    -1042    -1150 
   -1246    -1252    -1198    -1182    -1192    -1165    -1131    -1115 
   -1085    -1058    -1062    -1084    -1080    -1030     -981     -980 
   -1019    -1090    -1190    -1283    -1321    -1286    -1194    -1119 
   -1119    -1159    -1204    -1233    -1213    -1150    -1094    -1048 
    -969     -869     -824     -851     -905     -965    -1009    -1031 
   -1069    -1135    -1193    -1248    -1313    -1340    -1302    -1236 
   -1194    -1182    -1142    -1055     -986     -970    -1004    -1092 
   -1205    -1290    -1308    -1247    -1177    -1148    -1107    -1046 
   -1054    -1124    -1177    -1190    -1152    -1042     -912     -832 
    -814     -834     -873     -928     -999    -1054    -1071    -1070 
   -1089    -1124    -1148    -1205    -1321    -1433    -1485    -1486 
   -1452    -1398    -1348    -1301    -1233    -1139    -1051     -986 
    -940     -919     -918     -928     -938     -945     -966    -1021 
   -1107    -1173    -1171    -1128    -1107    -1134    -1173    -1166 
   -1104    -1030     -992    -1001    -1028    -1063    -1097    -1112 
   -1121    -1143    -1166    -1178    -1179    -1183    -1190    -1181 
   -1148    -1112    -1077    -1051    -1062    -1138    -1229    -1236 
   -1135    -1026     -978     -980    -1000    -1042    -1098    -1146 
   -1139    -1044     -938     -915     -982    -1109    -1240    -1331 
   -1379    -1390    -1350    -1243    -1102    -1027    -1057    -1123 
   -1170    -1183    -1158    -1096    -1013     -957     -957     -977 
   -1015    -1102    -1202    -1275    -1312    -1309    -1286    -1233 
   -1135    -1053    -1019     -981     -904     -820     -793     -841 
    -920    -1015    -1131    -1248    -1333    -1351    -1291    -1205 
   -1134    -1059     -989     -981    -1032    -1092    -1123    -1102 
   -1058    -1066    -1143    -1220    -1225    -1179    -1163    -1204 
   -1246    -1233    -1175    -1117    -1081    -1058    -1061    -1102 
   -1167    -1242    -1308    -1343    -1318    -1219    -1066     -913 
    -808     -764     -772     -839     -954    -1066    -1143    -1193 
   -1215    -1171    -1093    -1066    -1051     -972     -897     -932 
   -1062    -1225    -1381    -1490    -1522    -1485    -1409    -1310 
   -1181    -1059    -1005    -1021    -1059    -1077    -1046     -970 
    -869     -765     -700     -715     -814     -974    -1150    -1278 
   -1345    -1386    -1418    -1436    -1416    -1359    -1310    -1282 
   -1247    -1186    -1112    -1058    -1038    -1039    -1053    -1047 
   -1000     -945     -923     -926     -946    -1008    -1061    -1036 
    -985     -962     -970    -1038    -1144    -1221    -1256    -1260 
   -1224    -1159    -1098    -1077    -1108    -1169    -1251    -1337 
   -1348    -1260    -1152    -1067    -1008     -980     -962     -946 
    -950     -982    -1023    -1047    -1058    -1077    -1089    -1080 
   -1058    -1054    -1117    -1233    -1305    -1325    -1356    -1378 
   -1350    -1278    -1178    -1074    -1004     -977     -989    -1035 
   -1089    -1108    -1063     -976     -901     -892     -946    -1036 
   -1134    -1206    -1244    -1259    -1251    -1235    -1223    -1197 
   -1151    -1112    -1093    -1080    -1047    -1003    -1007    -1101 
   -1236    -1309    -1281    -1202    -1128    -1050     -949     -827 
    -697     -619     -668     -828     -999    -1128    -1229    -1318 
   -1385    -1418    -1448    -1474    -1458    -1421    -1409    -1370 
   -1252    -1102     -984     -907     -847     -826     -885     -996 
   -1074    -1092    -1089    -1093    -1086    -1078    -1093    -1108 
   -1109    -1120    -1128    -1121    -1131    -1155    -1142    -1093 
   -1077    -1117    -1155    -1142    -1113    -1104    -1097    -1088 
   -1073    -1020     -945     -924     -953     -959     -946     -965 
   -1040    -1148    -1233    -1282    -1345    -1408    -1394    -1337 
   -1332    -1385    -1429    -1394    -1283    -1173    -1098    -1042 
    -973     -888     -841     -854     -861     -855     -892     -951 
    -984     -985     -969     -965     -985    -1016    -1082    -1167 
   -1219    -1260    -1323    -1371    -1381    -1354    -1328    -1332 
   -1339    -1314    -1263    -1177    -1058     -938     -846     -804 
    -818     -884    -1003    -1121    -1169    -1166    -1167    -1171 
   -1175    -1178    -1142    -1062     -973     -913     -908     -961 
   -1054    -1156    -1243    -1298    -1312    -1305    -1318    -1320 
   -1275    -1220    -1156    -1063     -978     -904     -815     -761 
    -795     -891     -989    -1062    -1116    -1166    -1204    -1227 
   -1235    -1232    -1236    -1267    -1331    -1397    -1420    -1363 
   -1244    -1125    -1027     -951     -930     -947     -953     -946 
    -972    -1051    -1140    -1174    -1140    -1066     -988     -962 
   -1000    -1050    -1092    -1121    -1134    -1158    -1188    -1186 
   -1174    -1174    -1162    -1142    -1148    -1155    -1136    -1102 
   -1057    -1027    -1053    -1088    -1071    -1036    -1043    -1085 
   -1125    -1174    -1236    -1240    -1132     -997     -954    -1016 
   -1121    -1215    -1260    -1258    -1229    -1173    -1112    -1078 
   -1080    -1136    -1231    -1290    -1263    -1155    -1024     -949 
    -957    -1021    -1078    -1066    -1021    -1015    -1027    -1019 
   -1031    -1092    -1156    -1202    -1237    -1254    -1247    -1224 
   -1190    -1146    -1080    -1013     -978     -977    -1004    -1067 
   -1166    -1269    -1306    -1269    -1221    -1212    -1232    -1252 
   -1198    -1032     -828     -688     -643     -679     -762     -880 
   -1035    -1197    -1331    -1437    -1507    -1537    -1534    -1499 
   -1414    -1264    -1067     -874     -715     -627     -654     -783 
    -950    -1104    -1216    -1277    -1310    -1316    -1279    -1213 
   -1159    -1128    -1092    -1031     -985     -980    -1005    -1057 
   -1135    -1205    -1246    -1251    -1223    -1182    -1132    -1077 
   -1058    -1073    -1090    -1111    -1136    -1144    -1113    -1055 
   -1026    -1057    -1115    -1161    -1183    -1156    -1104    -1104 
   -1151    -1166    -1120    -1050    -1001    -1012    -1077    -1139 
   -1135    -1050     -943     -866     -835     -846     -886     -943 
   -1020    -1111    -1162    -1159    -1142    -1136    -1163    -1246 
   -1356    -1449    -1486    -1448    -1393    -1397    -1452    -1498 
   -1494    -1453    -1382    -1243    -1074     -955     -891     -864 
    -873     -853     -758     -627     -496     -414     -472     -666 
    -895    -1094    -1270    -1405    -1460    -1463    -1476    -1499 
   -1507    -1506    -1489    -1453    -1422    -1371    -1290    -1215 
   -1156    -1098    -1031     -942     -816     -661     -526     -464 
    -456     -446     -418     -395     -415     -479     -568     -696 
    -882    -1128    -1412    -1706    -1976    -2157    -2226    -2197 
   -2054    -1811    -1552    -1331    -1161    -1085    -1163    -1385 
   -1647    -1826    -1848    -1705    -1476    -1233     -997     -777 
    -569     -360     -162      -16       35        1      -58     -112 
    -203     -406     -734    -1113    -1429    -1618    -1695    -1699 
   -1649    -1553    -1410    -1229    -1073    -1017    -1089    -1240 
   -1385    -1480    -1561    -1671    -1811    -1965    -2073    -2057 
   -1868    -1518    -1093     -685     -330      -41      152      224 
     139     -113     -526    -1071    -1629    -2025    -2172    -2099 
   -1883    -1598    -1291    -1019     -838     -762     -772     -838 
    -893     -891     -872     -870     -878     -889     -889     -897 
    -972    -1119    -1287    -1406    -1418    -1325    -1181    -1026 
    -862     -691     -561     -589     -850    -1267    -1665    -1890 
   -1891    -1714    -1426    -1121     -909     -827     -859    -1000 
   -1175    -1270    -1252    -1146    -1012     -935     -935     -957 
    -945     -878     -805     -796     -876    -1044    -1273    -1490 
   -1680    -1861    -2022    -2126    -2112    -1921    -1578    -1175 
    -751     -319       40      251      322      272       81     -230 
    -595     -938    -1208    -1389    -1499    -1548    -1506    -1364 
   -1201    -1150    -1281    -1543    -1826    -2087    -2327    -2482 
   -2465    -2239    -1827    -1309     -815     -426     -148       58 
     214      256      102     -232     -630     -970    -1197    -1340 
   -1432    -1502    -1591    -1699    -1748    -1660    -1451    -1215 
   -1044     -967     -969    -1005    -1026    -1027    -1096    -1267 
   -1483    -1669    -1779    -1804    -1736    -1539    -1224     -837 
    -403       -4      222      178     -114     -526     -900    -1167 
   -1344    -1458    -1518    -1534    -1521    -1497    -1464    -1424 
   -1378    -1306    -1200    -1074     -939     -839     -851     -988 
   -1198    -1432    -1594    -1587    -1420    -1167     -897     -658 
    -487     -382     -292     -201     -171     -271     -523     -930 
   -1447    -1968    -2363    -2548    -2509    -2268    -1844    -1306 
    -810     -513     -438     -499     -635     -849    -1117    -1394 
   -1637    -1798    -1825    -1726    -1566    -1394    -1242    -1112 
    -962     -789     -608     -400     -190      -41       35       31 
     -75     -290     -623    -1067    -1574    -2093    -2566    -2883 
   -2930    -2663    -2155    -1536     -897     -301      190      523 
     664      596      361       16     -429     -951    -1489    -1988 
   -2408    -2720    -2902    -2883    -2612    -2149    -1622    -1169 
    -877     -738     -691     -689     -708     -745     -805     -854 
    -847     -797     -750     -758     -820     -888     -938     -974 
    -969     -924     -893     -881     -845     -785     -738     -773 
    -959    -1279    -1625    -1858    -1948    -1956    -1880    -1690 
   -1404    -1036     -649     -384     -334     -461     -660     -816 
    -908    -1013    -1177    -1372    -1543    -1621    -1572    -1405 
   -1210    -1104    -1094    -1113    -1132    -1197    -1348    -1552 
   -1694    -1657    -1404    -1011     -611     -287      -58       81 
     106      -45     -399     -900    -1429    -1846    -2101    -2223 
   -2230    -2149    -2002    -1779    -1491    -1189     -928     -745 
    -643     -641     -768    -1011    -1279    -1426    -1329    -1021 
    -641     -319     -136     -101     -166     -303     -515     -793 
   -1090    -1344    -1513    -1593    -1626    -1680    -1768    -1861 
   -1903    -1836    -1683    -1514    -1377    -1289    -1243    -1223 
   -1209    -1171    -1093     -966     -824     -737     -738     -823 
    -966    -1113    -1208    -1223    -1165    -1051     -908     -761 
    -650     -592     -561     -569     -668     -854    -1067    -1250 
   -1371    -1431    -1421    -1368    -1331    -1327    -1350    -1397 
   -1436    -1436    -1420    -1410    -1393    -1358    -1260    -1035 
    -724     -450     -280     -203     -210     -326     -565     -889 
   -1237    -1518    -1667    -1732    -1772    -1796    -1829    -1867 
   -1846    -1732    -1521    -1236     -942     -708     -567     -518 
    -548     -618     -695     -754     -800     -859     -940    -1024 
   -1089    -1148    -1225    -1316    -1406    -1498    -1583    -1656 
   -1702    -1684    -1547    -1291     -984     -665     -378     -182 
    -103     -126     -232     -402     -616     -849    -1073    -1287 
   -1467    -1567    -1605    -1634    -1669    -1719    -1786    -1860 
   -1957    -2037    -1980    -1755    -1464    -1202     -982     -805 
    -676     -558     -415     -268     -175     -151     -183     -282 
    -463     -704     -955    -1170    -1328    -1435    -1490    -1494 
   -1479    -1489    -1536    -1598    -1628    -1607    -1572    -1566 
   -1599    -1645    -1648    -1574    -1418    -1201     -945     -658 
    -363     -110       40       52      -93     -373     -729    -1080 
   -1348    -1509    -1610    -1678    -1711    -1714    -1675    -1576 
   -1413    -1185     -938     -739     -618     -611     -747     -977 
   -1215    -1405    -1526    -1597    -1626    -1591    -1495    -1387 
   -1298    -1213    -1096     -930     -743     -589     -531     -583 
    -696     -818     -916     -997    -1067    -1096    -1069    -1016 
    -950     -895     -901     -982    -1107    -1244    -1348    -1390 
   -1399    -1421    -1451    -1452    -1398    -1298    -1210    -1167 
   -1177    -1247    -1345    -1409    -1406    -1351    -1260    -1140 
    -994     -854     -768     -756     -800     -876     -940     -951 
    -919     -885     -865     -839     -824     -861     -938    -1028 
   -1121    -1185    -1188    -1142    -1086    -1057    -1073    -1120 
   -1178    -1247    -1320    -1397    -1468    -1530    -1598    -1656 
   -1660    -1605    -1503    -1371    -1231    -1075     -896     -723 
    -587     -446     -283     -153     -110     -167     -313     -506 
    -714     -943    -1197    -1453    -1691    -1896    -2049    -2119 
   -2099    -2016    -1910    -1804    -1688    -1539    -1360    -1167 
    -974     -812     -697     -646     -672     -741     -791     -807 
    -795     -774     -751     -722     -711     -735     -770     -819 
    -908    -1038    -1167    -1264    -1359    -1490    -1633    -1719 
   -1721    -1653    -1525    -1341    -1158    -1027     -938     -854 
    -781     -737     -715     -711     -720     -730     -754     -820 
    -920    -1023    -1112    -1175    -1216    -1274    -1368    -1478 
   -1552    -1576    -1567    -1537    -1485    -1401    -1291    -1181 
   -1077     -996     -978    -1030    -1098    -1147    -1139    -1053 
    -918     -777     -668     -618     -637     -710     -795     -877 
    -969    -1065    -1147    -1223    -1298    -1377    -1444    -1494 
   -1540    -1559    -1513    -1408    -1271    -1127    -1021     -958 
    -907     -855     -791     -700     -610     -550     -556     -634 
    -757     -919    -1138    -1368    -1560    -1710    -1819    -1881 
   -1879    -1803    -1679    -1524    -1344    -1192    -1120    -1111 
   -1128    -1147    -1123    -1035     -913     -796     -693     -604 
    -526     -448     -368     -324     -378     -546     -776    -1015 
   -1227    -1386    -1486    -1539    -1559    -1556    -1540    -1526 
   -1521    -1499    -1459    -1426    -1412    -1402    -1381    -1327 
   -1231    -1115     -994     -876     -758     -634     -529     -491 
    -523     -607     -727     -849     -927     -958     -994    -1080 
   -1197    -1312    -1408    -1495    -1594    -1701    -1783    -1794 
   -1711    -1543    -1321    -1104     -936     -804     -687     -592 
    -544     -552     -616     -727     -858     -961    -1005    -1019 
   -1040    -1080    -1134    -1202    -1304    -1435    -1561    -1653 
   -1691    -1674    -1618    -1551    -1482    -1404    -1309    -1196 
   -1080     -967     -854     -760     -684     -618     -571     -556 
    -603     -727     -882    -1027    -1162    -1267    -1325    -1337 
   -1291    -1213    -1155    -1107    -1063    -1047    -1042    -1021 
    -992     -962     -947     -958    -1005    -1100    -1235    -1374 
