Origin Time       2025/03/28 03:50:00
Lat.              35.403
Long.             140.360
Depth. (km)       54
Mag.              4.4
Station Code      TKYH12
Station Lat.      35.6701
Station Long.     139.2650
Station Height(m) 63
Record Time       2025/03/28 03:51:07
Sampling Freq(Hz) 100Hz
Duration Time(s)  120
Dir.              3
Scale Factor      2942(gal)/8224139
Max. Acc. (gal)   0.183
Last Correction   2025/03/28 03:51:07
Memo.             
[...]
   -8626    -8623    -8625    -8626    -8627    -8627    -8627    -8623 
   -8623    -8626    -8626    -8623    -8625    -8625    -8623    -8622 
   -8622    -8625    -8625    -8625    -8626    -8626    -8625    -8625 
   -8625    -8625    -8625    -8625    -8626    -8625    -8623    -8625 
   -8626    -8625    -8622    -8626    -8626    -8625    -8625    -8627 
   -8626    -8625    -8623    -8622    -8623    -8626    -8625    -8625 
   -8626    -8626    -8625    -8625    -8625    -8626    -8627    -8626 
   -8623    -8625    -8625    -8625    -8626    -8627    -8629    -8630 
   -8629    -8626    -8627    -8626    -8622    -8625    -8627    -8625 
   -8623    -8626    -8625    -8625    -8626    -8626    -8626    -8626 
   -8623    -8623    -8627    -8625    -8622    -8625    -8625    -8623 
   -8625    -8626    -8625    -8623    -8622    -8625    -8626    -8626 
   -8626    -8625    -8626    -8626    -8625    -8627    -8627    -8623 
   -8623    -8626    -8627    -8626    -8623    -8623    -8625    -8625 
   -8623    -8623    -8626    -8625    -8623    -8625    -8626    -8625 
   -8626    -8625    -8622    -8623    -8622    -8622    -8626    -8625 
   -8622    -8625    -8627    -8623    -8622    -8625    -8626    -8626 
   -8625    -8625    -8623    -8625    -8625    -8625    -8627    -8629 
   -8625    -8625    -8626    -8623    -8625    -8627    -8625    -8623 
   -8626    -8625    -8626    -8629    -8626    -8623    -8623    -8623 
   -8625    -8626    -8627    -8630    -8631    -8630    -8627    -8626 
   -8625    -8623    -8623    -8617    -8608    -8602    -8591    -8575 
   -8564    -8565    -8571    -8569    -8557    -8542    -8522    -8511 
   -8523    -8573    -8653    -8715    -8730    -8695    -8641    -8649 
   -8716    -8766    -8780    -8756    -8661    -8530    -8511    -8681 
   -8872    -8877    -8707    -8513    -8428    -8513    -8700    -8800 
   -8687    -8459    -8352    -8465    -8658    -8719    -8613    -8494 
   -8446    -8465    -8626    -8837    -8849    -8688    -8552    -8530 
   -8622    -8776    -8880    -8812    -8598    -8472    -8576    -8726 
   -8727    -8622    -8503    -8440    -8545    -8785    -8915    -8803 
   -8607    -8552    -8679    -8806    -8783    -8642    -8468    -8375 
   -8473    -8634    -8676    -8669    -8648    -8550    -8544    -8738 
   -8861    -8729    -8534    -8451    -8407    -8436    -8641    -8810 
   -8735    -8614    -8617    -8679    -8727    -8694    -8588    -8517 
   -8490    -8522    -8627    -8692    -8646    -8559    -8538    -8575 
   -8573    -8575    -8584    -8522    -8476    -8500    -8544    -8646 
   -8784    -8811    -8700    -8587    -8590    -8653    -8667    -8657 
   -8650    -8588    -8513    -8559    -8703    -8773    -8685    -8575 
   -8534    -8496    -8523    -8677    -8761    -8695    -8638    -8638 
   -8675    -8737    -8737    -8625    -8514    -8513    -8546    -8580 
   -8615    -8560    -8530    -8664    -8783    -8783    -8741    -8671 
   -8595    -8581    -8611    -8541    -8398    -8419    -8583    -8669 
   -8695    -8712    -8667    -8627    -8671    -8748    -8770    -8691 
   -8610    -8603    -8590    -8598    -8634    -8645    -8715    -8752 
   -8622    -8549    -8626    -8671    -8645    -8595    -8537    -8532 
   -8590    -8694    -8795    -8746    -8544    -8442    -8550    -8661 
   -8627    -8522    -8451    -8475    -8615    -8787    -8856    -8791 
   -8656    -8564    -8595    -8662    -8657    -8573    -8445    -8392 
   -8494    -8627    -8699    -8733    -8708    -8638    -8584    -8559 
   -8548    -8549    -8588    -8677    -8738    -8733    -8680    -8594 
   -8560    -8656    -8769    -8760    -8683    -8676    -8683    -8598 
   -8564    -8637    -8633    -8559    -8557    -8569    -8584    -8672 
   -8741    -8730    -8716    -8726    -8689    -8599    -8507    -8453 
   -8456    -8460    -8430    -8492    -8634    -8680    -8641    -8650 
   -8742    -8792    -8676    -8533    -8557    -8646    -8637    -8604 
   -8621    -8627    -8644    -8688    -8703    -8714    -8710    -8596 
   -8502    -8603    -8719    -8680    -8615    -8607    -8619    -8631 
   -8634    -8640    -8638    -8626    -8630    -8629    -8611    -8623 
   -8653    -8695    -8754    -8746    -8646    -8577    -8596    -8613 
   -8573    -8579    -8634    -8634    -8611    -8603    -8575    -8548 
   -8513    -8475    -8495    -8537    -8549    -8567    -8598    -8630 
   -8685    -8703    -8618    -8564    -8650    -8749    -8750    -8712 
   -8696    -8649    -8590    -8633    -8714    -8707    -8675    -8660 
   -8623    -8598    -8610    -8604    -8573    -8572    -8599    -8595 
   -8546    -8490    -8482    -8505    -8488    -8498    -8602    -8692 
   -8667    -8617    -8669    -8746    -8737    -8694    -8668    -8653 
   -8618    -8559    -8560    -8614    -8677    -8748    -8727    -8641 
   -8619    -8617    -8621    -8675    -8703    -8665    -8576    -8513 
   -8583    -8654    -8603    -8576    -8649    -8711    -8699    -8667 
   -8695    -8721    -8642    -8592    -8638    -8625    -8557    -8583 
   -8661    -8672    -8619    -8580    -8588    -8600    -8580    -8573 
   -8588    -8590    -8623    -8711    -8748    -8723    -8723    -8733 
   -8706    -8673    -8656    -8625    -8537    -8453    -8483    -8552 
   -8532    -8492    -8533    -8598    -8627    -8660    -8698    -8691 
   -8637    -8594    -8633    -8702    -8675    -8596    -8552    -8532 
   -8542    -8568    -8592    -8617    -8587    -8548    -8606    -8723 
   -8812    -8797    -8669    -8599    -8641    -8664    -8662    -8676 
   -8673    -8637    -8573    -8561    -8633    -8648    -8580    -8573 
   -8635    -8673    -8656    -8614    -8590    -8561    -8544    -8573 
   -8641    -8733    -8729    -8565    -8478    -8564    -8606    -8572 
   -8553    -8511    -8495    -8575    -8660    -8691    -8716    -8729 
   -8696    -8640    -8614    -8654    -8707    -8749    -8783    -8754 
   -8667    -8613    -8622    -8649    -8649    -8591    -8498    -8464 
   -8511    -8567    -8611    -8654    -8654    -8626    -8629    -8660 
   -8653    -8608    -8583    -8557    -8496    -8496    -8591    -8652 
   -8644    -8658    -8700    -8698    -8648    -8606    -8640    -8688 
   -8644    -8575    -8586    -8645    -8702    -8730    -8712    -8671 
   -8642    -8675    -8729    -8710    -8673    -8668    -8614    -8557 
   -8588    -8652    -8668    -8613    -8548    -8536    -8526    -8503 
   -8518    -8560    -8557    -8534    -8588    -8676    -8694    -8650 
   -8611    -8606    -8614    -8622    -8648    -8672    -8694    -8715 
   -8708    -8695    -8737    -8808    -8799    -8699    -8623    -8615 
   -8633    -8637    -8604    -8559    -8510    -8471    -8500    -8571 
   -8603    -8644    -8673    -8595    -8506    -8517    -8576    -8622 
   -8631    -8641    -8667    -8679    -8702    -8730    -8735    -8730 
   -8685    -8623    -8619    -8640    -8614    -8596    -8634    -8638 
   -8565    -8482    -8469    -8536    -8561    -8522    -8544    -8602 
   -8630    -8673    -8706    -8656    -8581    -8560    -8598    -8700 
   -8800    -8804    -8742    -8688    -8648    -8592    -8556    -8579 
   -8584    -8556    -8607    -8746    -8834    -8800    -8745    -8734 
   -8671    -8529    -8405    -8336    -8325    -8326    -8317    -8411 
   -8598    -8727    -8806    -8849    -8808    -8749    -8703    -8649 
   -8611    -8583    -8550    -8556    -8584    -8611    -8669    -8749 
   -8789    -8776    -8712    -8599    -8483    -8426    -8459    -8545 
   -8584    -8564    -8571    -8615    -8681    -8743    -8741    -8694 
   -8653    -8618    -8621    -8683    -8753    -8764    -8742    -8765 
   -8806    -8772    -8707    -8694    -8703    -8707    -8677    -8579 
   -8503    -8518    -8526    -8487    -8455    -8425    -8380    -8351 
   -8405    -8557    -8652    -8594    -8549    -8602    -8623    -8598 
   -8621    -8654    -8652    -8661    -8703    -8737    -8714    -8669 
   -8654    -8644    -8649    -8676    -8667    -8642    -8644    -8657 
   -8661    -8660    -8656    -8646    -8630    -8617    -8627    -8652 
   -8654    -8642    -8637    -8644    -8669    -8669    -8634    -8644 
   -8685    -8684    -8673    -8694    -8696    -8653    -8614    -8617 
   -8623    -8569    -8506    -8518    -8545    -8521    -8522    -8571 
   -8592    -8595    -8569    -8511    -8529    -8618    -8669    -8685 
   -8725    -8754    -8702    -8618    -8623    -8683    -8688    -8652 
   -8629    -8592    -8560    -8613    -8722    -8789    -8802    -8787 
   -8719    -8621    -8603    -8648    -8614    -8529    -8498    -8511 
   -8537    -8590    -8665    -8718    -8688    -8600    -8541    -8523 
   -8515    -8557    -8656    -8699    -8622    -8506    -8478    -8563 
   -8669    -8677    -8598    -8548    -8584    -8669    -8741    -8749 
   -8653    -8513    -8463    -8537    -8653    -8716    -8671    -8588 
   -8571    -8588    -8610    -8660    -8706    -8699    -8657    -8626 
   -8629    -8646    -8657    -8640    -8606    -8610    -8646    -8673 
   -8691    -8689    -8669    -8667    -8650    -8569    -8499    -8529 
   -8600    -8613    -8584    -8586    -8561    -8456    -8409    -8498 
   -8587    -8587    -8563    -8581    -8646    -8723    -8789    -8807 
   -8748    -8680    -8684    -8737    -8768    -8716    -8641    -8638 
   -8656    -8653    -8710    -8780    -8761    -8698    -8656    -8625 
   -8568    -8518    -8514    -8492    -8451    -8491    -8590    -8634 
   -8626    -8635    -8638    -8584    -8542    -8595    -8679    -8691 
   -8660    -8650    -8668    -8707    -8734    -8730    -8725    -8695 
   -8617    -8552    -8557    -8606    -8629    -8592    -8554    -8568 
   -8606    -8646    -8680    -8672    -8640    -8583    -8509    -8517 
   -8572    -8565    -8536    -8548    -8575    -8602    -8648    -8743 
   -8843    -8831    -8722    -8634    -8580    -8549    -8550    -8561 
   -8586    -8623    -8648    -8683    -8750    -8780    -8722    -8641 
   -8598    -8563    -8536    -8548    -8537    -8480    -8492    -8596 
   -8665    -8662    -8646    -8611    -8572    -8591    -8671    -8737 
   -8710    -8613    -8557    -8568    -8586    -8557    -8514    -8548 
   -8607    -8614    -8625    -8641    -8626    -8650    -8696    -8684 
   -8661    -8665    -8652    -8631    -8646    -8680    -8706    -8702 
   -8688    -8715    -8742    -8700    -8635    -8588    -8565    -8608 
   -8677    -8696    -8667    -8607    -8549    -8540    -8577    -8599 
   -8550    -8483    -8476    -8519    -8590    -8679    -8719    -8681 
   -8642    -8668    -8725    -8722    -8661    -8629    -8644    -8656 
   -8646    -8660    -8671    -8613    -8561    -8598    -8644    -8654 
   -8672    -8654    -8598    -8596    -8617    -8572    -8521    -8529 
   -8537    -8505    -8527    -8656    -8757    -8727    -8649    -8592 
   -8530    -8482    -8506    -8565    -8594    -8623    -8691    -8783 
   -8838    -8814    -8766    -8727    -8660    -8584    -8534    -8505 
   -8482    -8503    -8586    -8657    -8658    -8629    -8650    -8694 
   -8702    -8710    -8710    -8658    -8592    -8552    -8529    -8515 
   -8530    -8556    -8573    -8614    -8676    -8734    -8753    -8687 
   -8576    -8541    -8563    -8550    -8529    -8525    -8496    -8457 
   -8484    -8588    -8691    -8727    -8731    -8727    -8704    -8689 
   -8712    -8745    -8708    -8614    -8568    -8602    -8656    -8702 
   -8746    -8758    -8711    -8677    -8711    -8723    -8654    -8583 
   -8559    -8533    -8515    -8560    -8606    -8611    -8630    -8652 
   -8614    -8568    -8580    -8607    -8608    -8614    -8626    -8607 
   -8595    -8638    -8679    -8679    -8656    -8626    -8619    -8607 
   -8572    -8584    -8653    -8689    -8671    -8656    -8669    -8676 
   -8654    -8607    -8563    -8553    -8568    -8598    -8611    -8568 
   -8515    -8515    -8549    -8625    -8723    -8775    -8783    -8769 
   -8719    -8650    -8590    -8559    -8542    -8526    -8560    -8661 
   -8743    -8745    -8725    -8714    -8684    -8648    -8621    -8584 
   -8540    -8515    -8526    -8546    -8545    -8548    -8573    -8606 
   -8595    -8521    -8440    -8424    -8488    -8608    -8726    -8789 
   -8799    -8800    -8791    -8729    -8650    -8576    -8492    -8494 
   -8575    -8602    -8583    -8610    -8649    -8641    -8641    -8677 
   -8653    -8545    -8453    -8426    -8464    -8550    -8638    -8716 
   -8811    -8897    -8922    -8911    -8880    -8795    -8692    -8618 
   -8564    -8554    -8614    -8677    -8681    -8646    -8621    -8635 
   -8676    -8680    -8626    -8561    -8537    -8546    -8577    -8642 
   -8716    -8735    -8676    -8584    -8510    -8471    -8478    -8552 
   -8626    -8615    -8576    -8576    -8587    -8594    -8598    -8577 
   -8521    -8456    -8436    -8487    -8560    -8600    -8607    -8615 
   -8694    -8834    -8935    -8959    -8915    -8773    -8580    -8472 
   -8480    -8515    -8537    -8577    -8641    -8687    -8722    -8781 
   -8851    -8868    -8787    -8641    -8514    -8446    -8436    -8478 
   -8544    -8587    -8606    -8629    -8634    -8575    -8472    -8414 
   -8459    -8564    -8660    -8711    -8689    -8622    -8564    -8505 
   -8425    -8365    -8348    -8363    -8430    -8581    -8749    -8846 
   -8893    -8937    -8949    -8915    -8833    -8723    -8675    -8721 
   -8766    -8758    -8735    -8730    -8764    -8810    -8776    -8627 
   -8410    -8208    -8113    -8189    -8375    -8552    -8689    -8797 
   -8833    -8795    -8692    -8559    -8483    -8469    -8500    -8625 
   -8823    -8959    -8958    -8869    -8766    -8646    -8487    -8347 
   -8291    -8282    -8303    -8414    -8571    -8665    -8706    -8722 
   -8688    -8623    -8596    -8648    -8743    -8806    -8804    -8758 
   -8700    -8645    -8598    -8583    -8608    -8625    -8621    -8653 
   -8696    -8685    -8648    -8613    -8548    -8476    -8468    -8532 
   -8598    -8622    -8652    -8753    -8874    -8934    -8932    -8880 
   -8768    -8623    -8482    -8409    -8472    -8604    -8681    -8683 
   -8667    -8649    -8599    -8556    -8588    -8625    -8584    -8529 
   -8490    -8410    -8313    -8268    -8264    -8276    -8336    -8463 
   -8634    -8784    -8865    -8896    -8924    -8938    -8904    -8841 
   -8770    -8706    -8696    -8758    -8811    -8769    -8661    -8561 
   -8486    -8445    -8490    -8626    -8765    -8834    -8815    -8753 
   -8688    -8595    -8476    -8395    -8375    -8395    -8433    -8472 
   -8509    -8496    -8417    -8361    -8370    -8371    -8382    -8442 
   -8509    -8583    -8700    -8802    -8818    -8797    -8818    -8858 
   -8841    -8784    -8758    -8753    -8730    -8741    -8820    -8901 
   -8914    -8877    -8862    -8877    -8858    -8808    -8741    -8641 
   -8527    -8429    -8349    -8283    -8237    -8279    -8417    -8541 
   -8590    -8586    -8560    -8540    -8518    -8506    -8550    -8648 
   -8727    -8715    -8629    -8557    -8530    -8534    -8530    -8469 
   -8386    -8363    -8426    -8526    -8630    -8752    -8866    -8915 
   -8908    -8889    -8857    -8787    -8687    -8599    -8564    -8595 
   -8679    -8791    -8904    -8957    -8934    -8911    -8881    -8789 
   -8685    -8607    -8503    -8395    -8365    -8422    -8503    -8532 
   -8494    -8440    -8374    -8278    -8218    -8256    -8328    -8378 
   -8459    -8599    -8743    -8829    -8841    -8834    -8824    -8800 
   -8795    -8802    -8788    -8775    -8741    -8689    -8716    -8815 
   -8849    -8776    -8677    -8592    -8496    -8419    -8401    -8376 
   -8305    -8274    -8330    -8417    -8500    -8573    -8610    -8619 
   -8622    -8630    -8673    -8714    -8719    -8739    -8792    -8812 
   -8770    -8729    -8739    -8776    -8776    -8743    -8733    -8715 
   -8658    -8634    -8652    -8638    -8607    -8588    -8546    -8484 
   -8461    -8492    -8542    -8599    -8677    -8777    -8866    -8892 
   -8872    -8851    -8806    -8718    -8607    -8513    -8465    -8418 
   -8370    -8375    -8409    -8440    -8492    -8560    -8591    -8590 
   -8608    -8642    -8646    -8610    -8560    -8536    -8549    -8599 
   -8675    -8729    -8749    -8764    -8787    -8810    -8822    -8816 
   -8787    -8721    -8630    -8549    -8491    -8437    -8397    -8383 
   -8378    -8406    -8486    -8554    -8599    -8644    -8673    -8704 
   -8748    -8765    -8745    -8712    -8698    -8729    -8804    -8889 
   -8938    -8945    -8922    -8864    -8796    -8772    -8764    -8706 
   -8619    -8556    -8505    -8438    -8386    -8371    -8352    -8318 
   -8325    -8326    -8278    -8289    -8391    -8483    -8530    -8556 
   -8552    -8513    -8467    -8442    -8461    -8537    -8621    -8671 
   -8734    -8811    -8860    -8881    -8873    -8835    -8785    -8745 
   -8733    -8735    -8727    -8702    -8660    -8617    -8577    -8527 
   -8495    -8496    -8515    -8529    -8530    -8564    -8625    -8652 
   -8644    -8635    -8664    -8737    -8802    -8820    -8812    -8808 
   -8803    -8772    -8734    -8715    -8694    -8650    -8602    -8572 
   -8590    -8638    -8681    -8712    -8734    -8743    -8741    -8726 
   -8702    -8652    -8556    -8479    -8487    -8526    -8554    -8572 
   -8533    -8469    -8490    -8557    -8572    -8573    -8579    -8542 
   -8491    -8455    -8452    -8499    -8548    -8607    -8684    -8715 
   -8725    -8742    -8710    -8658    -8629    -8579    -8541    -8581 
   -8662    -8706    -8718    -8738    -8754    -8734    -8689    -8662 
   -8661    -8634    -8567    -8511    -8483    -8480    -8505    -8541 
   -8575    -8564    -8519    -8526    -8590    -8642    -8645    -8658 
   -8739    -8811    -8819    -8812    -8806    -8792    -8775    -8741 
   -8712    -8698    -8650    -8586    -8561    -8559    -8550    -8553 
   -8554    -8571    -8619    -8665    -8675    -8638    -8575    -8505 
   -8437    -8418    -8460    -8500    -8500    -8507    -8553    -8602 
   -8619    -8602    -8557    -8526    -8541    -8571    -8584    -8581 
   -8579    -8569    -8557    -8583    -8638    -8672    -8677    -8691 
   -8725    -8756    -8775    -8785    -8772    -8727    -8676    -8649 
   -8652    -8681    -8739    -8792    -8807    -8819    -8833    -8807 
   -8757    -8715    -8688    -8664    -8629    -8607    -8615    -8640 
   -8662    -8684    -8704    -8707    -8657    -8575    -8511    -8461 
   -8410    -8382    -8395    -8442    -8496    -8529    -8537    -8525 
   -8505    -8498    -8515    -8553    -8583    -8588    -8594    -8619 
   -8661    -8716    -8761    -8765    -8749    -8742    -8737    -8731 
   -8729    -8712    -8646    -8565    -8542    -8575    -8615    -8653 
   -8676    -8672    -8646    -8611    -8581    -8569    -8579    -8594 
   -8591    -8591    -8603    -8584    -8538    -8521    -8544    -8581 
   -8608    -8640    -8703    -8743    -8727    -8708    -8700    -8684 
   -8645    -8603    -8591    -8587    -8561    -8557    -8608    -8658 
   -8675    -8689    -8716    -8742    -8745    -8727    -8710    -8669 
   -8608    -8560    -8522    -8487    -8445    -8410    -8440    -8526 
   -8596    -8654    -8730    -8775    -8775    -8762    -8721    -8638 
   -8572    -8546    -8545    -8556    -8567    -8568    -8563    -8569 
