Origin Time       2025/03/28 03:50:00
Lat.              35.403
Long.             140.360
Depth. (km)       54
Mag.              4.4
Station Code      TKYH12
Station Lat.      35.6701
Station Long.     139.2650
Station Height(m) 210
Record Time       2025/03/28 03:51:07
Sampling Freq(Hz) 100Hz
Duration Time(s)  120
Dir.              5
Scale Factor      7845(gal)/8223790
Max. Acc. (gal)   1.192
Last Correction   2025/03/28 03:51:07
Memo.             
[...]
   -3036    -3034    -3034    -3034    -3032    -3033    -3034    -3032 
   -3030    -3032    -3033    -3036    -3036    -3033    -3034    -3034 
   -3033    -3036    -3034    -3030    -3033    -3036    -3034    -3034 
   -3034    -3036    -3036    -3036    -3033    -3029    -3030    -3034 
   -3034    -3034    -3034    -3033    -3030    -3032    -3034    -3037 
   -3037    -3037    -3034    -3033    -3033    -3033    -3033    -3033 
   -3033    -3032    -3032    -3032    -3033    -3034    -3033    -3033 
   -3033    -3033    -3033    -3033    -3033    -3033    -3034    -3036 
   -3036    -3037    -3036    -3033    -3034    -3033    -3032    -3034 
   -3034    -3033    -3034    -3034    -3034    -3036    -3036    -3033 
   -3030    -3036    -3037    -3034    -3034    -3032    -3029    -3034 
   -3034    -3033    -3037    -3037    -3037    -3041    -3041    -3041 
   -3044    -3042    -3044    -3048    -3048    -3055    -3065    -3069 
   -3073    -3067    -3046    -3033    -3030    -3040    -3060    -3075 
   -3064    -3034    -3001    -2980    -2975    -2982    -2997    -3006 
   -2987    -2957    -2956    -2991    -3029    -3040    -3036    -3048 
   -3075    -3088    -3082    -3061    -3042    -3037    -3036    -3028 
   -3014    -3011    -3030    -3032    -2980    -2938    -2992    -3121 
   -3213    -3181    -3053    -2940    -2921    -2995    -3096    -3156 
   -3146    -3084    -2987    -2868    -2786    -2818    -2952    -3102 
   -3186    -3173    -3099    -3013    -2953    -2952    -2979    -3011 
   -3065    -3114    -3117    -3064    -2956    -2847    -2837    -2943 
   -3071    -3156    -3202    -3203    -3150    -3076    -3022    -2991 
   -2999    -3064    -3127    -3106    -3014    -2949    -2952    -2972 
   -2968    -2975    -3018    -3063    -3094    -3114    -3091    -3024 
   -3005    -3069    -3125    -3106    -3051    -2963    -2893    -2933 
   -3005    -2994    -2963    -2999    -3073    -3129    -3160    -3164 
   -3121    -3069    -3060    -3088    -3111    -3069    -2972    -2917 
   -2914    -2905    -2921    -2999    -3038    -2998    -2970    -2994 
   -3025    -3067    -3122    -3156    -3144    -3083    -3002    -2988 
   -3051    -3061    -2987    -2913    -2870    -2898    -3045    -3210 
   -3280    -3276    -3231    -3140    -3037    -2959    -2868    -2764 
   -2764    -2876    -2959    -2984    -3033    -3110    -3169    -3150 
   -3071    -3048    -3118    -3203    -3225    -3177    -3113    -3029 
   -2948    -2921    -2907    -2871    -2876    -2944    -3014    -3019 
   -2938    -2871    -2944    -3098    -3199    -3237    -3238    -3171 
   -3069    -3007    -2971    -2936    -2933    -2987    -3056    -3048 
   -2960    -2898    -2943    -3056    -3132    -3140    -3157    -3204 
   -3213    -3140    -3017    -2905    -2867    -2932    -3037    -3086 
   -3037    -2905    -2793    -2844    -2991    -3073    -3107    -3150 
   -3186    -3203    -3180    -3105    -3030    -2984    -2943    -2889 
   -2829    -2799    -2849    -2988    -3152    -3206    -3134    -3084 
   -3119    -3173    -3200    -3192    -3153    -3105    -3042    -2964 
   -2925    -2959    -3011    -3036    -3015    -2934    -2852    -2871 
   -2992    -3123    -3169    -3113    -3048    -3015    -2967    -2901 
   -2890    -2957    -3025    -3024    -2988    -2974    -2987    -3028 
   -3126    -3272    -3362    -3326    -3225    -3115    -3009    -2936 
   -2937    -2986    -2983    -2922    -2909    -2967    -3003    -2972 
   -2914    -2886    -2898    -2941    -3017    -3092    -3121    -3126 
   -3165    -3210    -3184    -3086    -2999    -2988    -2988    -2944 
   -2905    -2932    -3017    -3096    -3095    -3022    -2975    -3029 
   -3156    -3245    -3233    -3157    -3076    -3032    -3040    -3082 
   -3102    -3053    -2952    -2879    -2879    -2913    -2953    -3010 
   -3096    -3200    -3246    -3169    -3021    -2891    -2836    -2874 
   -2961    -3032    -3057    -3030    -2953    -2883    -2878    -2932 
   -2987    -3010    -3006    -3024    -3092    -3165    -3176    -3149 
   -3133    -3118    -3088    -3071    -3065    -3056    -3040    -3026 
   -3017    -3011    -3052    -3146    -3188    -3121    -3021    -2963 
   -2955    -2941    -2883    -2830    -2812    -2829    -2926    -3076 
   -3176    -3190    -3177    -3198    -3241    -3249    -3195    -3090 
   -2974    -2914    -2930    -2979    -3022    -2997    -2868    -2747 
   -2758    -2883    -3033    -3137    -3176    -3179    -3171    -3127 
   -3065    -3063    -3103    -3099    -3037    -2974    -2944    -2932 
   -2902    -2886    -2928    -3005    -3082    -3137    -3167    -3181 
   -3217    -3273    -3288    -3226    -3123    -3021    -2925    -2872 
   -2884    -2901    -2875    -2860    -2876    -2884    -2899    -2959 
   -3049    -3127    -3159    -3150    -3115    -3042    -2980    -2978 
   -3002    -3018    -3037    -3076    -3137    -3163    -3107    -3028 
   -2998    -3025    -3083    -3122    -3129    -3129    -3123    -3084 
   -3017    -2941    -2855    -2783    -2810    -2949    -3092    -3163 
   -3154    -3086    -3002    -2943    -2921    -2953    -3022    -3096 
   -3153    -3149    -3069    -2976    -2929    -2928    -2964    -3041 
   -3138    -3211    -3234    -3213    -3169    -3144    -3146    -3152 
   -3134    -3073    -2961    -2820    -2729    -2756    -2868    -2974 
   -2999    -2940    -2884    -2928    -3041    -3144    -3204    -3211 
   -3156    -3073    -3046    -3083    -3096    -3045    -2984    -2972 
   -3006    -3048    -3056    -3037    -3022    -3003    -2972    -2970 
   -3024    -3069    -3075    -3067    -3046    -2994    -2930    -2910 
   -2948    -3005    -3059    -3117    -3150    -3137    -3075    -2999 
   -2953    -2940    -2972    -3068    -3156    -3149    -3067    -2999 
   -2994    -3029    -3067    -3080    -3067    -3030    -3010    -3052 
   -3110    -3102    -3049    -3011    -2991    -2963    -2940    -2933 
   -2929    -2922    -2925    -2941    -2944    -2920    -2911    -2952 
   -3021    -3098    -3171    -3207    -3195    -3133    -3037    -2940 
   -2880    -2914    -3046    -3200    -3304    -3327    -3272    -3203 
   -3152    -3099    -3056    -3015    -2956    -2910    -2922    -2959 
   -2953    -2937    -2965    -2998    -2953    -2845    -2798    -2884 
   -3028    -3114    -3095    -3022    -3007    -3069    -3145    -3196 
   -3196    -3152    -3121    -3113    -3087    -3052    -3056    -3078 
   -3051    -2979    -2944    -2965    -2995    -3018    -3053    -3099 
   -3133    -3123    -3087    -3045    -3002    -2979    -3005    -3048 
   -3033    -2938    -2824    -2749    -2752    -2839    -2976    -3127 
   -3246    -3269    -3194    -3099    -3037    -3005    -2998    -3009 
   -3036    -3083    -3107    -3072    -3025    -3017    -3032    -3051 
   -3064    -3052    -3030    -3038    -3088    -3149    -3149    -3076 
   -2997    -2938    -2891    -2856    -2847    -2879    -2928    -2959 
   -3007    -3067    -3087    -3072    -3079    -3123    -3171    -3179 
   -3133    -3048    -2965    -2928    -2963    -3049    -3130    -3167 
   -3140    -3029    -2886    -2840    -2974    -3203    -3326    -3252 
   -3084    -2934    -2845    -2870    -3003    -3117    -3110    -3011 
   -2901    -2852    -2920    -3071    -3199    -3240    -3218    -3180 
   -3123    -3034    -2940    -2886    -2897    -2949    -2983    -2974 
   -2944    -2922    -2930    -2955    -2957    -2932    -2903    -2918 
   -2992    -3082    -3140    -3146    -3115    -3107    -3156    -3219 
   -3252    -3248    -3215    -3133    -2972    -2813    -2785    -2891 
   -3025    -3111    -3154    -3173    -3172    -3137    -3056    -2961 
   -2901    -2876    -2867    -2867    -2876    -2905    -2945    -2983 
   -3026    -3061    -3071    -3073    -3079    -3096    -3136    -3177 
   -3192    -3173    -3130    -3083    -3030    -2984    -2994    -3052 
   -3079    -3034    -2968    -2934    -2947    -2994    -3040    -3051 
   -3036    -3010    -2988    -3022    -3148    -3294    -3315    -3154 
   -2928    -2791    -2793    -2857    -2886    -2852    -2848    -2944 
   -3075    -3165    -3226    -3257    -3215    -3092    -2965    -2933 
   -3001    -3090    -3148    -3157    -3088    -2964    -2867    -2867 
   -2961    -3072    -3146    -3192    -3210    -3177    -3078    -2929 
   -2825    -2848    -2933    -2980    -2997    -3014    -3030    -3053 
   -3055    -3028    -3053    -3156    -3238    -3229    -3140    -3036 
   -2978    -2983    -3029    -3069    -3083    -3090    -3100    -3080 
   -3013    -2944    -2910    -2899    -2891    -2889    -2891    -2911 
   -2976    -3091    -3187    -3165    -3040    -2936    -2949    -3059 
   -3154    -3157    -3092    -3044    -3037    -3024    -2974    -2949 
   -3007    -3100    -3145    -3113    -3052    -3024    -3037    -3055 
   -3075    -3098    -3092    -3064    -3051    -3048    -3045    -3028 
   -2979    -2933    -2937    -2974    -2972    -2905    -2830    -2817 
   -2857    -2921    -3007    -3118    -3219    -3256    -3234    -3214 
   -3200    -3153    -3073    -2987    -2918    -2893    -2916    -2941 
   -2928    -2922    -2995    -3105    -3157    -3152    -3137    -3115 
   -3083    -3079    -3111    -3133    -3105    -3037    -2975    -2944 
   -2934    -2959    -3034    -3121    -3150    -3109    -3046    -3002 
   -2965    -2926    -2901    -2890    -2893    -2916    -2952    -2988 
   -3032    -3078    -3092    -3042    -2972    -2965    -3038    -3138 
   -3195    -3181    -3142    -3121    -3123    -3134    -3121    -3083 
   -3072    -3082    -3059    -3021    -3005    -2994    -2963    -2903 
   -2839    -2809    -2847    -2951    -3069    -3148    -3179    -3177 
   -3138    -3071    -3019    -3013    -3037    -3056    -3055    -3040 
   -3022    -3001    -2967    -2924    -2889    -2884    -2918    -2959 
   -2987    -3013    -3022    -3033    -3095    -3181    -3199    -3129 
   -3060    -3060    -3106    -3110    -3064    -3041    -3057    -3068 
   -3045    -3002    -2984    -3007    -3041    -3087    -3144    -3157 
   -3087    -2979    -2922    -2937    -2970    -2994    -3025    -3051 
   -3049    -3024    -2999    -2999    -3006    -3019    -3075    -3156 
   -3194    -3148    -3059    -3001    -2988    -2991    -2995    -2997 
   -2984    -2953    -2936    -2976    -3032    -3032    -2988    -2947 
   -2929    -2951    -3007    -3072    -3133    -3171    -3159    -3098 
   -3026    -2970    -2943    -2972    -3044    -3091    -3080    -3056 
   -3078    -3126    -3144    -3121    -3096    -3083    -3063    -3040 
   -3051    -3110    -3184    -3192    -3098    -2947    -2817    -2758 
   -2797    -2920    -3053    -3125    -3138    -3110    -3029    -2929 
   -2880    -2906    -2976    -3036    -3037    -3007    -2990    -2995 
   -3018    -3067    -3125    -3141    -3105    -3061    -3030    -3017 
   -3045    -3095    -3099    -3036    -2953    -2899    -2890    -2914 
   -2947    -2991    -3038    -3055    -3064    -3106    -3148    -3163 
   -3163    -3144    -3082    -2998    -2944    -2930    -2937    -2964 
   -3019    -3073    -3098    -3105    -3107    -3114    -3123    -3113 
   -3060    -2991    -2941    -2943    -2999    -3059    -3065    -3061 
   -3087    -3103    -3094    -3099    -3111    -3071    -2999    -2968 
   -2980    -2984    -2961    -2948    -2925    -2844    -2736    -2685 
   -2713    -2809    -2960    -3138    -3276    -3325    -3294    -3223 
   -3167    -3172    -3235    -3318    -3381    -3387    -3312    -3179 
   -3015    -2840    -2640    -2439    -2320    -2332    -2465    -2698 
   -2983    -3238    -3451    -3655    -3819    -3871    -3771    -3551 
   -3291    -3055    -2874    -2766    -2710    -2654    -2575    -2523 
   -2556    -2683    -2864    -3040    -3177    -3273    -3304    -3260 
   -3179    -3094    -3011    -2925    -2852    -2826    -2826    -2820 
   -2840    -2898    -2961    -3010    -3033    -3024    -3028    -3088 
   -3186    -3271    -3350    -3470    -3604    -3655    -3577    -3434 
   -3289    -3137    -2984    -2875    -2798    -2702    -2574    -2478 
   -2477    -2521    -2523    -2458    -2394    -2439    -2629    -2920 
   -3237    -3508    -3689    -3790    -3816    -3743    -3530    -3176 
   -2790    -2513    -2404    -2466    -2689    -2995    -3248    -3395 
   -3478    -3550    -3608    -3595    -3469    -3288    -3136    -3018 
   -2878    -2693    -2500    -2342    -2253    -2273    -2398    -2621 
   -2940    -3285    -3511    -3522    -3373    -3188    -3025    -2891 
   -2835    -2901    -3056    -3238    -3411    -3562    -3696    -3785 
   -3747    -3519    -3115    -2651    -2311    -2231    -2435    -2818 
   -3164    -3304    -3257    -3140    -3028    -2926    -2836    -2793 
   -2836    -2959    -3119    -3249    -3312    -3343    -3357    -3308 
   -3144    -2863    -2550    -2343    -2319    -2425    -2544    -2629 
   -2710    -2803    -2894    -2957    -2982    -2984    -3001    -3064 
   -3187    -3345    -3512    -3635    -3618    -3451    -3256    -3150 
   -3177    -3285    -3402    -3499    -3553    -3493    -3315    -3095 
   -2909    -2764    -2639    -2532    -2473    -2516    -2705    -2990 
   -3230    -3326    -3262    -3075    -2853    -2720    -2713    -2798 
   -2947    -3117    -3240    -3276    -3227    -3090    -2875    -2644 
   -2479    -2397    -2370    -2420    -2589    -2857    -3192    -3543 
   -3817    -3927    -3875    -3753    -3672    -3661    -3662    -3616 
   -3514    -3349    -3073    -2675    -2250    -1927    -1784    -1827 
   -2016    -2305    -2690    -3156    -3578    -3778    -3707    -3487 
   -3285    -3202    -3264    -3423    -3557    -3532    -3339    -3084 
   -2879    -2768    -2745    -2801    -2955    -3156    -3269    -3199 
   -2955    -2648    -2427    -2400    -2594    -2925    -3226    -3356 
   -3272    -3076    -2934    -2926    -3006    -3076    -3061    -2955 
   -2824    -2733    -2689    -2662    -2643    -2625    -2589    -2554 
   -2613    -2843    -3198    -3555    -3820    -3951    -3925    -3739 
   -3438    -3118    -2903    -2899    -3102    -3334    -3410    -3311 
   -3154    -3052    -3028    -3051    -3105    -3173    -3219    -3226 
   -3202    -3132    -2991    -2808    -2648    -2548    -2497    -2493 
   -2571    -2722    -2841    -2841    -2747    -2613    -2494    -2450 
   -2539    -2798    -3179    -3543    -3774    -3851    -3804    -3670 
   -3472    -3237    -3024    -2932    -2997    -3129    -3217    -3199 
   -3099    -3018    -2997    -2983    -2953    -2933    -2941    -2995 
   -3090    -3186    -3257    -3312    -3316    -3192    -2938    -2654 
   -2477    -2493    -2632    -2754    -2808    -2789    -2720    -2682 
   -2752    -2921    -3125    -3295    -3366    -3318    -3218    -3136 
   -3084    -3088    -3194    -3361    -3485    -3524    -3505    -3434 
   -3311    -3171    -3029    -2884    -2712    -2493    -2282    -2176 
   -2243    -2479    -2802    -3096    -3311    -3484    -3640    -3747 
   -3765    -3647    -3384    -3068    -2820    -2655    -2511    -2350 
   -2204    -2137    -2205    -2443    -2790    -3136    -3419    -3632 
   -3755    -3770    -3686    -3550    -3414    -3315    -3271    -3283 
   -3310    -3280    -3159    -2967    -2781    -2670    -2637    -2673 
   -2749    -2798    -2810    -2875    -3024    -3164    -3204    -3126 
   -2947    -2712    -2505    -2442    -2585    -2862    -3157    -3400 
   -3553    -3611    -3615    -3609    -3581    -3491    -3330    -3164 
   -3060    -3014    -2986    -2953    -2903    -2849    -2835    -2855 
   -2843    -2762    -2651    -2563    -2505    -2485    -2536    -2652 
   -2806    -2987    -3153    -3268    -3352    -3433    -3505    -3520 
   -3445    -3304    -3180    -3113    -3059    -2957    -2829    -2751 
   -2770    -2841    -2874    -2864    -2889    -2974    -3068    -3129 
   -3137    -3091    -2987    -2871    -2844    -2960    -3156    -3307 
   -3343    -3291    -3227    -3195    -3184    -3184    -3177    -3126 
   -3028    -2930    -2899    -2928    -2956    -2974    -3007    -3030 
   -3018    -2998    -2968    -2903    -2818    -2737    -2679    -2679 
   -2760    -2901    -3073    -3233    -3337    -3407    -3453    -3418 
   -3295    -3161    -3063    -2970    -2862    -2772    -2748    -2794 
   -2889    -2995    -3090    -3186    -3325    -3500    -3630    -3632 
   -3484    -3248    -3021    -2848    -2712    -2620    -2592    -2639 
   -2745    -2844    -2890    -2922    -2957    -2945    -2889    -2853 
   -2864    -2889    -2886    -2884    -2945    -3048    -3119    -3150 
   -3180    -3222    -3268    -3299    -3302    -3250    -3121    -2941 
   -2802    -2739    -2724    -2759    -2878    -3055    -3215    -3318 
   -3395    -3477    -3554    -3607    -3605    -3520    -3377    -3235 
   -3125    -3009    -2840    -2656    -2531    -2463    -2428    -2444 
   -2556    -2763    -3021    -3267    -3430    -3470    -3408    -3284 
   -3146    -3011    -2860    -2714    -2623    -2593    -2616    -2690 
   -2797    -2901    -2986    -3048    -3080    -3082    -3055    -3014 
   -2984    -2976    -2992    -3030    -3088    -3161    -3233    -3284 
   -3312    -3345    -3375    -3364    -3311    -3246    -3183    -3122 
   -3068    -3025    -2982    -2926    -2889    -2924    -3011    -3057 
   -3019    -2929    -2829    -2762    -2754    -2798    -2890    -3033 
   -3196    -3319    -3352    -3296    -3208    -3145    -3114    -3079 
   -2994    -2874    -2781    -2739    -2729    -2770    -2878    -3017 
   -3134    -3233    -3331    -3387    -3326    -3146    -2930    -2766 
   -2693    -2721    -2818    -2928    -3019    -3080    -3095    -3078 
   -3068    -3073    -3052    -3001    -2960    -2959    -2978    -2982 
   -2960    -2951    -2986    -3034    -3044    -3013    -2999    -3041 
   -3111    -3169    -3214    -3254    -3279    -3267    -3211    -3119 
   -3029    -2998    -3033    -3107    -3190    -3250    -3276    -3268 
   -3231    -3176    -3105    -3022    -2951    -2887    -2805    -2718 
   -2679    -2700    -2758    -2829    -2890    -2920    -2956    -3025 
   -3073    -3055    -3002    -2963    -2951    -2968    -3019    -3142 
   -3353    -3576    -3694    -3666    -3535    -3364    -3195    -3030 
   -2875    -2731    -2581    -2432    -2326    -2293    -2354    -2505 
   -2710    -2918    -3098    -3245    -3341    -3356    -3306    -3253 
   -3252    -3295    -3330    -3318    -3267    -3211    -3164    -3107 
   -3053    -3010    -2965    -2934    -2926    -2903    -2853    -2813 
   -2809    -2845    -2905    -2957    -2956    -2879    -2785    -2756 
   -2793    -2837    -2879    -2947    -3033    -3122    -3240    -3412 
   -3595    -3721    -3765    -3730    -3628    -3473    -3294    -3110 
   -2929    -2771    -2656    -2597    -2610    -2701    -2840    -2964 
   -3029    -3040    -3024    -2999    -2978    -2938    -2852    -2751 
   -2687    -2679    -2710    -2764    -2853    -2982    -3123    -3267 
   -3404    -3477    -3460    -3388    -3299    -3202    -3103    -2994 
   -2876    -2795    -2782    -2820    -2866    -2886    -2878    -2868 
   -2866    -2876    -2917    -2992    -3114    -3275    -3420    -3512 
   -3551    -3535    -3450    -3304    -3136    -2982    -2863    -2781 
   -2739    -2745    -2771    -2774    -2752    -2733    -2758    -2853 
