Origin Time       2025/03/28 03:50:00
Lat.              35.403
Long.             140.360
Depth. (km)       54
Mag.              4.4
Station Code      TKYH12
Station Lat.      35.6701
Station Long.     139.2650
Station Height(m) 210
Record Time       2025/03/28 03:51:07
Sampling Freq(Hz) 100Hz
Duration Time(s)  120
Dir.              6
Scale Factor      7845(gal)/8223790
Max. Acc. (gal)   0.850
Last Correction   2025/03/28 03:51:07
Memo.             
[...]
   16615    16668    16825    16958    16968    16837    16688    16657 
   16696    16663    16559    16555    16754    16983    16985    16803 
   16642    16514    16402    16467    16741    16989    17053    16939 
   16675    16411    16395    16622    16850    16916    16888    16927 
   16984    16881    16667    16475    16322    16320    16572    16875 
   16937    16791    16675    16667    16707    16787    16889    16945 
   16969    17026    17003    16821    16634    16514    16386    16379 
   16633    16914    16993    16947    16799    16497    16274    16387 
   16703    16920    16978    16999    17004    16906    16718    16596 
   16613    16681    16749    16829    16870    16800    16708    16741 
   16823    16854    16865    16812    16671    16542    16472    16438 
   16492    16680    16884    16923    16807    16710    16703    16711 
   16737    16845    16942    16919    16830    16779    16783    16783 
   16765    16722    16614    16526    16565    16618    16584    16546 
   16542    16605    16810    17015    16997    16889    16873    16873 
   16853    16771    16590    16515    16642    16754    16775    16792 
   16773    16699    16730    16889    16903    16713    16595    16621 
   16640    16619    16618    16679    16764    16789    16744    16617 
   16468    16506    16767    17003    17057    16957    16800    16727 
   16762    16787    16819    16908    16947    16877    16699    16445 
   16306    16370    16559    16827    17010    16910    16702    16644 
   16715    16806    16850    16783    16656    16599    16607    16644 
   16752    16893    16984    16985    16892    16752    16622    16530 
   16546    16687    16814    16829    16794    16779    16783    16783 
   16771    16718    16591    16467    16486    16661    16906    17074 
   16996    16714    16509    16505    16560    16637    16842    17041 
   17016    16876    16744    16578    16486    16551    16625    16690 
   16835    16918    16768    16546    16542    16757    16956    17028 
   17061    17042    16860    16609    16505    16580    16688    16681 
   16602    16645    16772    16737    16576    16546    16673    16804 
   16870    16845    16744    16703    16741    16730    16738    16842 
   16866    16761    16694    16706    16714    16710    16744    16802 
   16802    16734    16661    16649    16708    16738    16686    16632 
   16596    16559    16588    16717    16870    16970    16983    16919 
   16808    16676    16572    16565    16710    16965    17135    17082 
   16881    16654    16491    16478    16610    16767    16810    16715 
   16603    16603    16636    16552    16483    16640    16887    16961 
   16877    16818    16788    16749    16756    16754    16700    16702 
   16771    16819    16845    16827    16745    16680    16676    16707 
   16791    16870    16880    16887    16877    16711    16483    16440 
   16553    16626    16656    16715    16775    16808    16818    16811 
   16831    16846    16799    16721    16642    16618    16665    16667 
   16630    16649    16692    16711    16713    16737    16780    16775 
   16771    16876    16968    16889    16749    16687    16688    16684 
   16665    16699    16776    16784    16723    16691    16679    16640 
   16621    16680    16780    16829    16792    16754    16777    16810 
   16835    16821    16696    16599    16659    16702    16640    16627 
   16723    16811    16803    16771    16781    16762    16696    16734 
   16880    16938    16860    16762    16671    16602    16619    16699 
   16748    16714    16652    16660    16715    16760    16822    16877 
   16853    16787    16748    16742    16734    16687    16632    16615 
   16645    16706    16741    16714    16704    16781    16857    16818 
   16706    16657    16675    16687    16746    16860    16846    16694 
   16598    16632    16733    16838    16919    16973    16931    16727 
   16471    16402    16592    16837    16946    16957    16929    16843 
   16713    16575    16471    16495    16664    16804    16795    16730 
   16749    16825    16823    16700    16565    16538    16629    16780 
   16919    16956    16888    16806    16765    16761    16741    16683 
   16671    16729    16754    16714    16654    16607    16605    16683 
   16791    16838    16845    16866    16857    16771    16669    16668 
   16741    16738    16679    16687    16718    16691    16675    16730 
   16795    16798    16760    16715    16659    16649    16749    16858 
   16827    16699    16641    16637    16563    16529    16675    16854 
   16902    16853    16807    16802    16822    16854    16885    16884 
   16819    16737    16672    16582    16507    16592    16781    16884 
   16858    16761    16627    16514    16486    16552    16675    16816 
   16911    16877    16711    16548    16545    16706    16904    17008 
   16988    16912    16825    16723    16640    16600    16636    16733 
   16773    16726    16742    16816    16804    16713    16627    16587 
   16621    16711    16753    16744    16800    16877    16827    16696 
   16634    16661    16696    16726    16758    16749    16746    16812 
   16892    16914    16849    16772    16767    16749    16679    16654 
   16686    16721    16771    16798    16735    16615    16495    16405 
   16411    16522    16668    16830    16989    17065    17024    16934 
   16833    16673    16478    16420    16611    16872    16947    16883 
   16883    16958    16988    16927    16822    16731    16667    16578 
   16468    16428    16499    16625    16695    16675    16661    16715 
   16779    16794    16796    16858    16939    16903    16745    16605 
   16596    16740    16945    17059    17019    16856    16617    16410 
   16375    16491    16637    16742    16804    16834    16804    16719 
   16659    16657    16668    16663    16668    16703    16683    16611 
   16665    16868    17008    16945    16756    16617    16638    16723 
   16769    16856    17008    17081    17000    16849    16725    16654 
   16642    16735    16902    16930    16731    16514    16428    16407 
   16414    16492    16607    16686    16757    16877    16947    16891 
   16827    16802    16731    16672    16727    16826    16830    16775 
   16765    16764    16696    16627    16649    16711    16741    16767 
   16780    16745    16691    16644    16638    16715    16807    16815 
   16737    16622    16541    16551    16663    16798    16850    16833 
   16849    16887    16841    16761    16798    16887    16885    16835 
   16796    16765    16776    16776    16646    16497    16486    16524 
   16509    16537    16686    16854    16911    16852    16744    16652 
   16673    16810    16889    16823    16722    16649    16567    16533 
   16659    16866    16968    16937    16875    16803    16715    16690 
   16753    16798    16767    16733    16754    16788    16799    16804 
   16771    16638    16495    16514    16700    16873    16907    16833 
   16754    16714    16637    16478    16359    16432    16679    16958 
   17136    17134    16985    16791    16617    16548    16656    16858 
   17003    17018    16899    16695    16483    16335    16313    16452 
   16684    16889    16985    16953    16825    16650    16491    16452 
   16580    16765    16885    16942    16988    17004    16897    16715 
   16645    16757    16906    16985    17055    17086    16942    16668 
   16445    16326    16279    16320    16436    16546    16625    16696 
   16715    16625    16519    16580    16845    17107    17145    17026 
   16937    16833    16665    16583    16649    16765    16876    16927 
   16854    16738    16723    16757    16692    16568    16575    16741 
   16857    16803    16723    16735    16726    16599    16483    16487 
   16580    16723    16861    16880    16780    16688    16690    16772 
   16864    16919    16929    16876    16769    16675    16646    16659 
   16652    16659    16721    16771    16784    16834    16869    16806 
   16729    16719    16713    16681    16671    16667    16618    16551 
   16565    16698    16826    16857    16868    16915    16919    16838 
   16748    16703    16676    16633    16596    16591    16619    16669 
   16715    16733    16725    16744    16834    16911    16877    16807 
   16810    16833    16803    16764    16744    16677    16563    16522 
   16595    16676    16729    16826    16980    17070    16962    16722 
   16580    16584    16646    16723    16737    16654    16588    16573 
   16560    16584    16691    16827    16912    16904    16818    16722 
   16644    16615    16717    16895    16988    16953    16816    16607 
   16457    16479    16634    16831    16949    16910    16804    16754 
   16735    16691    16665    16703    16725    16667    16648    16738 
   16802    16760    16713    16735    16757    16695    16596    16573 
   16653    16776    16889    16945    16903    16795    16659    16526 
   16518    16692    16897    16992    16991    16927    16789    16642 
   16614    16675    16681    16622    16611    16696    16815    16907 
   16946    16881    16719    16572    16497    16453    16456    16575 
   16779    16920    16918    16834    16761    16730    16742    16818 
   16903    16873    16764    16733    16756    16721    16653    16632 
   16629    16600    16599    16676    16771    16834    16906    16965 
   16937    16815    16668    16542    16474    16534    16741    16947 
   16985    16866    16744    16698    16713    16775    16854    16881 
   16841    16758    16644    16503    16389    16378    16478    16606 
   16691    16769    16879    16945    16908    16864    16883    16881 
   16804    16723    16676    16636    16637    16706    16733    16672 
   16623    16640    16675    16727    16808    16858    16869    16899 
   16924    16876    16754    16618    16551    16578    16660    16735 
   16756    16726    16717    16756    16791    16779    16771    16788 
   16756    16653    16590    16622    16684    16714    16730    16771 
   16838    16883    16852    16752    16669    16696    16822    16923 
   16906    16812    16706    16591    16511    16514    16572    16627 
   16687    16775    16856    16885    16838    16711    16584    16556 
   16627    16748    16860    16922    16916    16850    16788    16791 
   16837    16852    16827    16834    16837    16731    16557    16467 
   16544    16719    16849    16846    16733    16595    16521    16541 
   16603    16673    16791    16922    16960    16887    16753    16636 
   16645    16792    16924    16946    16933    16912    16808    16679 
   16646    16721    16837    16887    16783    16559    16328    16175 
   16156    16298    16541    16773    16933    16995    16957    16904 
   16887    16833    16734    16690    16733    16802    16843    16827 
   16779    16800    16881    16864    16710    16588    16594    16668 
   16762    16848    16881    16843    16758    16644    16505    16420 
   16492    16661    16769    16808    16854    16920    16964    16938 
   16866    16811    16779    16727    16650    16555    16471    16456 
   16529    16661    16834    16988    17053    17047    17011    16947 
   16868    16791    16699    16596    16537    16560    16610    16603 
   16534    16461    16448    16515    16636    16757    16856    16926 
   16943    16887    16789    16725    16745    16808    16821    16769 
   16725    16741    16833    16951    17011    17007    17012    17045 
   17050    16970    16785    16537    16318    16224    16241    16276 
   16313    16421    16588    16738    16830    16854    16822    16796 
   16831    16872    16818    16671    16553    16599    16787    16962 
   17022    16974    16866    16749    16675    16629    16575    16569 
   16680    16883    17132    17319    17298    17089    16837    16588 
   16366    16264    16291    16370    16505    16684    16780    16754 
   16722    16752    16748    16627    16445    16329    16383    16610 
   16933    17258    17486    17517    17356    17109    16864    16677 
   16548    16418    16252    16090    16016    16065    16177    16340 
   16622    16958    17201    17374    17544    17618    17494    17234 
   16976    16767    16551    16340    16225    16232    16316    16417 
   16499    16599    16710    16731    16638    16515    16432    16420 
   16506    16690    16941    17155    17190    17041    16857    16780 
   16883    17116    17275    17217    17032    16861    16715    16602 
   16596    16691    16735    16613    16401    16268    16279    16387 
   16510    16559    16515    16490    16613    16850    17024    17042 
   16965    16833    16622    16420    16371    16511    16785    17118 
   17404    17533    17444    17167    16833    16584    16484    16511 
   16609    16708    16722    16641    16613    16718    16857    16934 
   16893    16684    16410    16272    16266    16252    16285    16501 
   16802    16954    16924    16872    16860    16800    16663    16549 
   16560    16675    16819    16958    17066    17126    17151    17104 
   16895    16596    16407    16368    16347    16287    16305    16536 
   16916    17247    17421    17469    17421    17267    16997    16667 
   16406    16326    16390    16480    16538    16564    16576    16592 
   16609    16638    16704    16784    16803    16730    16656    16657 
   16707    16768    16806    16775    16675    16538    16398    16287 
   16245    16305    16472    16698    16897    17062    17259    17474 
   17610    17628    17541    17351    17073    16740    16447    16320 
   16332    16322    16268    16252    16278    16363    16549    16740 
   16819    16804    16735    16645    16591    16594    16636    16696 
   16792    16929    17030    17038    17018    17014    16957    16850 
   16798    16783    16718    16665    16698    16745    16757    16762 
   16744    16675    16637    16696    16749    16688    16560    16440 
   16387    16447    16607    16804    16935    16919    16843    16868 
   16935    16918    16835    16750    16696    16673    16656    16650 
   16652    16602    16575    16681    16821    16854    16796    16665 
   16488    16371    16387    16494    16602    16680    16792    16980 
   17194    17356    17392    17285    17091    16831    16557    16394 
   16393    16492    16636    16780    16862    16885    16888    16833 
   16715    16603    16530    16488    16478    16511    16579    16625 
   16623    16610    16599    16614    16676    16765    16823    16846 
   16889    16980    17068    17065    16988    16934    16935    16950 
   16938    16870    16767    16665    16569    16484    16416    16356 
   16322    16343    16407    16478    16511    16522    16568    16649 
   16704    16737    16814    16954    17061    17072    17078    17150 
   17200    17169    17138    17143    17118    17016    16846    16610 
   16390    16309    16329    16332    16328    16391    16490    16559 
   16634    16758    16893    16970    16934    16791    16665    16684 
   16814    16943    17019    17030    16965    16845    16723    16648 
   16633    16668    16695    16672    16609    16506    16414    16428 
   16561    16737    16885    16969    16960    16864    16740    16673 
   16721    16802    16819    16791    16742    16654    16563    16528 
   16560    16642    16730    16744    16654    16571    16582    16646 
   16700    16777    16897    16954    16885    16783    16738    16761 
   16854    16997    17086    17043    16880    16673    16532    16540 
   16648    16719    16718    16723    16731    16695    16654    16642 
   16630    16630    16636    16590    16505    16467    16542    16691 
   16837    16970    17093    17147    17118    17039    16926    16816 
   16792    16826    16827    16762    16656    16556    16498    16460 
   16451    16511    16634    16750    16810    16811    16775    16706 
   16636    16613    16623    16650    16725    16841    16908    16862 
   16757    16714    16777    16880    16930    16915    16875    16807 
   16684    16537    16425    16383    16438    16557    16641    16692 
   16788    16891    16926    16953    17004    17023    17005    16992 
   16960    16880    16769    16656    16590    16592    16610    16627 
   16667    16699    16698    16660    16603    16591    16638    16683 
   16718    16791    16856    16842    16799    16788    16779    16757 
   16752    16748    16710    16657    16622    16627    16683    16753 
   16776    16715    16605    16528    16511    16526    16580    16694 
   16822    16877    16841    16781    16752    16733    16725    16748 
   16802    16830    16794    16762    16816    16902    16943    16961 
   16962    16910    16787    16632    16530    16540    16630    16727 
   16777    16783    16772    16761    16733    16688    16668    16664 
   16652    16636    16641    16680    16718    16725    16698    16648 
   16615    16657    16760    16854    16912    16933    16895    16814 
   16769    16807    16902    16983    16984    16899    16791    16713 
   16649    16586    16560    16582    16579    16502    16390    16332 
   16368    16457    16576    16740    16908    17005    17032    17035 
   17019    16978    16937    16931    16941    16904    16816    16719 
   16630    16545    16472    16453    16517    16622    16730    16819 
   16860    16850    16837    16838    16798    16661    16501    16464 
   16557    16657    16718    16761    16768    16746    16750    16771 
   16784    16815    16862    16892    16895    16891    16906    16938 
   16946    16911    16852    16794    16744    16694    16634    16573 
   16542    16544    16536    16505    16488    16498    16522    16596 
   16715    16816    16870    16899    16900    16850    16757    16669 
   16617    16603    16625    16679    16758    16837    16919    17030 
   17103    17072    16962    16821    16679    16606    16613    16618 
   16578    16533    16532    16560    16572    16541    16506    16532 
   16619    16721    16803    16864    16939    17032    17078    17034 
   16942    16841    16733    16649    16610    16561    16499    16486 
   16540    16634    16746    16868    16976    17014    16961    16883 
   16812    16734    16691    16710    16722    16667    16595    16591 
   16641    16688    16745    16821    16868    16880    16860    16798 
   16760    16775    16773    16738    16714    16704    16692    16679 
   16671    16700    16746    16700    16564    16455    16441    16540 
   16706    16848    16919    16930    16912    16911    16922    16912 
   16902    16896    16864    16818    16777    16727    16669    16626 
   16590    16548    16537    16564    16572    16556    16565    16595 
   16594    16586    16625    16691    16730    16765    16837    16910 
   16941    16937    16911    16868    16810    16760    16744    16754 
   16773    16794    16798    16767    16721    16688    16657    16637 
   16665    16711    16718    16690    16657    16641    16650    16691 
   16740    16771    16806    16854    16895    16924    16945    16934 
   16896    16842    16750    16630    16546    16532    16563    16617 
   16691    16752    16775    16792    16816    16811    16773    16740 
   16745    16789    16825    16800    16725    16644    16598    16588 
   16576    16551    16542    16564    16625    16723    16812    16861 
