Origin Time       2025/03/28 03:50:00
Lat.              35.403
Long.             140.360
Depth. (km)       54
Mag.              4.4
Station Code      TKYH12
Station Lat.      35.6701
Station Long.     139.2650
Station Height(m) 63
Record Time       2025/03/28 03:51:07
Sampling Freq(Hz) 100Hz
Duration Time(s)  120
Dir.              1
Scale Factor      2942(gal)/8224139
Max. Acc. (gal)   0.302
Last Correction   2025/03/28 03:51:07
Memo.             
[...]
  181128   181129   181132   181124   181122   181129   181136   181140 
  181136   181126   181128   181138   181138   181125   181132   181143 
  181118   181121   181155   181138   181116   181133   181138   181124 
  181128   181136   181124   181132   181157   181137   181117   181140 
  181140   181129   181138   181132   181128   181133   181121   181116 
  181121   181125   181125   181120   181120   181129   181129   181129 
  181134   181130   181132   181134   181133   181134   181134   181133 
  181134   181132   181120   181122   181136   181140   181141   181121 
  181101   181126   181141   181117   181111   181122   181126   181128 
  181114   181120   181129   181109   181118   181152   181140   181113 
  181122   181130   181114   181107   181122   181126   181122   181124 
  181122   181120   181118   181117   181120   181124   181121   181113 
  181122   181145   181133   181110   181126   181138   181116   181106 
  181125   181132   181124   181110   181106   181118   181124   181122 
  181129   181133   181130   181122   181116   181126   181140   181134 
  181121   181118   181129   181141   181143   181125   181124   181151 
  181144   181128   181137   181122   181111   181137   181145   181137 
  181132   181128   181126   181125   181138   181148   181137   181136 
  181141   181141   181140   181138   181147   181148   181134   181138 
  181145   181140   181124   181109   181107   181113   181121   181122 
  181106   181099   181102   181106   181128   181160   181164   181145 
  181125   181093   181099   181159   181182   181148   181107   181080 
  181079   181117   181179   181203   181161   181113   181111   181133 
  181167   181202   181178   181091   181009   180993   181076   181203 
  181248   181152   181024   181016   181117   181202   181201   181137 
  181086   181110   181187   181232   181188   181111   181080   181066 
  181047   181091   181172   181188   181157   181133   181102   181105 
  181163   181188   181134   181056   181083   181214   181249   181144 
  181032   180966   181005   181136   181221   181221   181168   181101 
  181080   181116   181174   181195   181153   181113   181093   181084 
  181105   181114   181117   181134   181122   181102   181134   181184 
  181194   181160   181126   181097   181078   181087   181099   181126 
  181145   181120   181109   181136   181153   181148   181138   181125 
  181105   181143   181228   181253   181198   181129   181086   181075 
  181105   181147   181153   181103   181033   181030   181093   181111 
  181078   181063   181102   181186   181240   181217   181156   181093 
  181079   181153   181217   181221   181224   181183   181106   181064 
  181044   181074   181143   181170   181159   181136   181117   181137 
  181183   181171   181113   181098   181113   181113   181126   181128 
  181095   181074   181067   181057   181095   181188   181237   181205 
  181160   181129   181130   181160   181155   181145   181170   181180 
  181167   181133   181089   181084   181099   181091   181122   181165 
  181155   181151   181161   181132   181094   181097   181116   181089 
  181056   181103   181176   181190   181126   181059   181090   181130 
  181094   181098   181149   181160   181170   181176   181140   181126 
  181164   181167   181153   181187   181191   181160   181147   181102 
  181072   181102   181105   181080   181074   181083   181128   181164 
  181165   181186   181164   181095   181114   181164   181153   181133 
  181097   181074   181130   181180   181174   181152   181105   181075 
  181136   181197   181191   181192   181171   181090   181040   181055 
  181105   181151   181129   181109   181159   181160   181080   181063 
  181120   181155   181153   181136   181110   181087   181076   181102 
  181136   181133   181102   181045   181039   181136   181194   181159 
  181130   181106   181090   181125   181167   181165   181140   181124 
  181117   181113   181156   181213   181197   181159   181143   181098 
  181099   181167   181188   181168   181165   181186   181214   181191 
  181132   181117   181140   181141   181110   181075   181084   181133 
  181134   181080   181044   181055   181099   181128   181117   181121 
  181156   181165   181129   181110   181141   181145   181116   181138 
  181190   181186   181138   181101   181091   181128   181179   181164 
  181117   181122   181136   181114   181114   181132   181140   181113 
  181070   181103   181174   181183   181149   181111   181132   181213 
  181242   181217   181203   181149   181052   181017   181048   181084 
  181125   181124   181082   181078   181070   181039   181059   181114 
  181176   181219   181191   181141   181118   181086   181080   181144 
  181191   181178   181128   181074   181080   181118   181107   181118 
  181198   181236   181221   181192   181124   181083   181117   181148 
  181161   181195   181214   181159   181082   181091   181141   181141 
  181133   181141   181122   181089   181095   181122   181122   181082 
  181056   181089   181140   181155   181122   181087   181083   181078 
  181078   181109   181129   181117   181130   181209   181288   181294 
  181230   181163   181165   181229   181279   181271   181218   181161 
  181118   181102   181111   181111   181076   181025   180993   180998 
  181005   180991   180994   181026   181055   181084   181136   181183 
  181210   181226   181213   181165   181136   181144   181157   181180 
  181209   181210   181176   181148   181163   181165   181087   181026 
  181051   181097   181124   181145   181182   181206   181161   181101 
  181074   181075   181118   181164   181163   181145   181128   181099 
  181078   181071   181070   181094   181117   181101   181087   181118 
  181178   181225   181201   181098   181041   181093   181167   181213 
  181241   181230   181201   181197   181174   181116   181090   181091 
  181098   181136   181170   181122   181040   181016   181025   181024 
  181057   181143   181207   181211   181194   181168   181144   181133 
  181114   181099   181118   181126   181130   181182   181210   181184 
  181161   181125   181094   181122   181164   181172   181172   181160 
  181124   181121   181152   181149   181152   181160   181117   181084 
  181093   181064   181040   181078   181105   181113   181137   181145 
  181133   181110   181083   181060   181055   181099   181159   181206 
  181248   181230   181180   181151   181111   181079   181113   181179 
  181195   181171   181137   181062   180994   180991   181003   181032 
  181093   181138   181167   181163   181116   181107   181153   181191 
  181205   181197   181176   181153   181132   181126   181147   181170 
  181159   181151   181170   181138   181087   181140   181217   181203 
  181176   181175   181133   181082   181080   181084   181079   181083 
  181080   181097   181137   181145   181113   181090   181094   181106 
  181116   181133   181156   181157   181136   181126   181149   181160 
  181140   181117   181089   181043   181048   181126   181186   181191 
  181194   181191   181140   181087   181098   181105   181068   181057 
  181063   181040   181028   181044   181082   181147   181217   181268 
  181303   181299   181268   181253   181229   181163   181110   181101 
  181080   181074   181126   181164   181140   181117   181071   181005 
  181021   181053   181052   181116   181172   181143   181102   181109 
  181159   181198   181197   181191   181192   181199   181194   181159 
  181134   181138   181132   181129   181141   181109   181047   181026 
  181048   181074   181097   181143   181171   181141   181089   181057 
  181072   181099   181116   181156   181184   181180   181191   181174 
  181110   181093   181132   181152   181147   181167   181222   181249 
  181206   181129   181078   181090   181143   181179   181157   181087 
  181035   181028   181044   181064   181075   181080   181074   181051 
  181045   181071   181102   181133   181152   181149   181160   181190 
  181186   181133   181079   181072   181101   181130   181165   181190 
  181178   181164   181178   181186   181161   181105   181066   181078 
  181105   181093   181080   181140   181206   181183   181121   181094 
  181117   181168   181205   181192   181159   181136   181117   181105 
  181098   181107   181141   181167   181157   181143   181153   181171 
  181174   181147   181118   181114   181090   181060   181091   181126 
  181109   181098   181121   181130   181134   181149   181157   181151 
  181134   181118   181098   181060   181047   181084   181130   181145 
  181145   181164   181176   181170   181165   181160   181140   181111 
  181113   181147   181156   181095   181020   181010   181049   181093 
  181136   181151   181152   181190   181245   181260   181210   181137 
  181090   181086   181116   181149   181148   181132   181134   181130 
  181082   181047   181094   181172   181210   181183   181103   181062 
  181099   181132   181129   181138   181144   181137   181134   181097 
  181053   181070   181097   181107   181130   181163   181197   181205 
  181160   181101   181074   181083   181103   181124   181137   181124 
  181118   181141   181170   181199   181199   181191   181199   181170 
  181137   181137   181110   181075   181080   181060   181010   181009 
  181047   181090   181129   181133   181125   181149   181172   181147 
  181128   181161   181186   181163   181124   181105   181130   181156 
  181130   181113   181134   181122   181064   181056   181137   181217 
  181203   181153   181160   181172   181141   181102   181052   181001 
  180983   180982   180995   181025   181060   181075   181063   181090 
  181153   181179   181184   181213   181257   181272   181230   181163 
  181102   181062   181057   181084   181122   181145   181163   181171 
  181128   181101   181144   181165   181133   181095   181068   181068 
  181101   181144   181179   181176   181140   181105   181086   181097 
  181106   181076   181067   181111   181136   181125   181122   181134 
  181161   181157   181102   181098   181170   181190   181118   181076 
  181109   181148   181151   181138   181130   181129   181114   181102 
  181107   181122   181153   181178   181164   181143   181133   181133 
  181140   181136   181113   181087   181076   181064   181053   181062 
  181114   181191   181206   181152   181111   181111   181091   181048 
  181055   181111   181163   181176   181143   181121   181140   181148 
  181140   181136   181145   181171   181184   181167   181137   181105 
  181090   181137   181207   181207   181168   181125   181072   181074 
  181122   181144   181148   181153   181152   181141   181102   181030 
  180974   180986   181052   181114   181143   181137   181118   181109 
  181136   181190   181213   181195   181176   181148   181125   181130 
  181107   181070   181071   181063   181045   181072   181103   181122 
  181157   181174   181136   181076   181030   181028   181049   181072 
  181118   181163   181159   181122   181098   181140   181224   181242 
  181202   181217   181249   181197   181124   181095   181060   181013 
  181010   181029   181025   181048   181101   181103   181091   181126 
  181167   181180   181194   181209   181203   181183   181144   181109 
  181113   181140   181147   181138   181165   181215   181228   181187 
  181156   181143   181122   181118   181128   181128   181098   181045 
  181047   181071   181064   181091   181143   181144   181133   181161 
  181174   181125   181093   181136   181186   181164   181117   181078 
  181060   181094   181149   181160   181134   181116   181132   181186 
  181251   181264   181241   181203   181120   181064   181087   181107 
  181128   181192   181222   181207   181209   181182   181114   181079 
  181093   181128   181174   181201   181157   181057   180986   180975 
  180987   181005   181016   180986   180955   180949   180939   180968 
  181056   181163   181269   181342   181388   181426   181425   181421 
  181445   181449   181387   181232   181022   180851   180758   180728 
  180740   180790   180868   180933   180964   180983   180989   181002 
  181044   181064   181084   181171   181269   181310   181332   181371 
  181375   181346   181323   181267   181191   181157   181167   181237 
  181336   181391   181380   181305   181215   181175   181184   181187 
  181151   181090   181047   181049   181079   181072   181032   181020 
  180997   180925   180848   180767   180659   180577   180569   180654 
  180836   181067   181265   181363   181413   181504   181584   181612 
  181619   181595   181556   181511   181465   181444   181403   181291 
  181122   180914   180729   180639   180638   180692   180798   180928 
  181021   181076   181093   181056   181005   180962   180944   180940 
  180891   180825   180794   180763   180770   180858   180994   181178 
  181377   181494   181512   181554   181672   181773   181785   181711 
  181548   181345   181164   181009   180924   180933   180935   180900 
  180894   180894   180881   180902   180955   180999   180990   180945 
  180910   180890   180943   181055   181113   181113   181095   181075 
  181107   181190   181261   181291   181288   181282   181287   181326 
  181368   181282   181089   180921   180843   180900   181080   181309 
  181507   181591   181557   181495   181452   181442   181484   181519 
  181429   181253   181130   181051   180974   180922   180839   180679 
  180495   180365   180335   180389   180516   180705   180894   181047 
  181203   181376   181556   181753   181916   181973   181894   181687 
  181421   181195   181037   180947   180929   180963   181029   181094 
  181138   181160   181121   181024   180954   180913   180856   180805 
  180783   180812   180906   181033   181171   181299   181372   181392 
  181356   181251   181138   181074   181079   181183   181317   181372 
  181311   181140   180937   180805   180744   180743   180809   180909 
  181012   181121   181213   181286   181381   181457   181452   181377 
  181238   181105   181047   181002   180920   180835   180810   180870 
  180945   180994   181003   180998   181044   181125   181180   181190 
  181159   181124   181120   181144   181197   181267   181279   181184 
  181033   180920   180897   180951   181040   181136   181237   181323 
  181356   181323   181264   181221   181230   181240   181192   181152 
  181175   181232   181283   181315   181359   181415   181425   181375 
  181296   181186   181067   180963   180855   180747   180648   180578 
  180586   180705   180902   181145   181391   181537   181518   181418 
  181342   181278   181192   181143   181122   181074   181014   181013 
  181080   181155   181180   181153   181113   181109   181118   181101 
  181094   181121   181144   181122   181057   180985   180959   180979 
  180989   180985   180993   181025   181071   181106   181156   181203 
  181214   181228   181241   181237   181263   181322   181330   181269 
  181238   181256   181256   181232   181219   181229   181224   181147 
  181043   180991   180986   180986   181009   181052   181080   181091 
  181094   181063   180999   180963   181005   181098   181229   181375 
  181411   181303   181170   181079   181009   180952   180941   180963 
  180983   181029   181094   181134   181165   181184   181138   181063 
  181032   181037   181056   181090   181137   181211   181305   181404 
  181475   181456   181346   181184   181025   180920   180893   180920 
  180943   180972   181071   181217   181334   181390   181390   181348 
  181295   181248   181191   181101   180990   180913   180928   181044 
  181219   181363   181396   181345   181287   181221   181124   181005 
  180862   180716   180670   180747   180852   180971   181109   181202 
  181234   181242   181244   181245   181240   181214   181182   181145 
  181075   180987   180949   180960   181002   181087   181195   181290 
  181346   181332   181259   181198   181171   181148   181147   181198 
  181252   181252   181207   181129   181056   181025   181017   181044 
  181087   181083   181045   181016   180982   180940   180916   180932 
  180989   181044   181066   181080   181101   181148   181234   181267 
  181234   181238   181241   181178   181114   181098   181091   181078 
  181084   181097   181089   181070   181039   180989   180948   180983 
  181082   181145   181156   181157   181157   181190   181255   181292 
  181265   181198   181125   181062   181040   181080   181147   181191 
  181206   181199   181178   181152   181136   181138   181151   181163 
  181206   181257   181244   181172   181082   181008   181001   181028 
  181047   181106   181184   181192   181151   181138   181172   181213 
  181229   181213   181155   181078   181026   180979   180928   180929 
  180986   181047   181114   181172   181164   181136   181159   181199 
  181229   181244   181226   181199   181194   181192   181178   181179 
  181201   181209   181195   181153   181076   181022   181041   181075 
  181064   181057   181075   181072   181063   181063   181053   181087 
  181183   181278   181325   181309   181255   181206   181182   181179 
  181156   181094   181035   180999   180976   180956   180949   180952 
  180985   181040   181079   181137   181214   181256   181276   181261 
  181203   181171   181160   181133   181113   181101   181093   181101 
  181118   181155   181205   181245   181264   181245   181202   181157 
  181121   181078   181003   180929   180932   180991   181048   181099 
  181147   181183   181182   181143   181094   181064   181083   181147 
  181179   181155   181122   181078   181025   181018   181057   181102 
  181116   181094   181068   181045   181018   180998   180998   181047 
  181144   181242   181290   181279   181260   181264   181263   181240 
  181217   181195   181171   181157   181137   181107   181111   181136 
  181122   181066   181014   180995   180994   181012   181066   181140 
  181198   181230   181256   181269   181238   181176   181122   181080 
  181033   180993   180999   181021   181022   181040   181063   181043 
  181035   181086   181113   181106   181144   181199   181228   181269 
  181321   181346   181346   181310   181259   181214   181155   181114 
  181118   181118   181093   181051   180994   180959   180954   180966 
  181013   181072   181094   181083   181072   181070   181083   181125 
  181195   181272   181345   181390   181407   181415   181413   181386 
  181341   181276   181175   181071   181025   181021   181010   180974 
  180927   180909   180908   180910   180939   180985   181043   181091 
  181107   181128   181170   181194   181206   181209   181183   181153 
  181137   181114   181076   181049   181063   181098   181134   181183 
  181241   181284   181287   181252   181209   181160   181097   181055 
  181057   181056   181010   180943   180887   180844   180836   180897 
  180978   181025   181078   181141   181171   181197   181237   181261 
  181286   181310   181311   181311   181327   181330   181283   181219 
  181171   181141   181141   181133   181099   181066   181049   181068 
  181113   181152   181180   181198   181205   181198   181188   181170 
  181116   181055   181017   180999   181020   181076   181137   181190 
  181190   181130   181075   181026   180981   180966   180966   180959 
  180968   181006   181063   181132   181195   181213   181197   181214 
