Origin Time       2025/03/28 03:50:00
Lat.              35.403
Long.             140.360
Depth. (km)       54
Mag.              4.4
Station Code      TKYH12
Station Lat.      35.6701
Station Long.     139.2650
Station Height(m) 63
Record Time       2025/03/28 03:51:07
Sampling Freq(Hz) 100Hz
Duration Time(s)  120
Dir.              2
Scale Factor      2942(gal)/8224139
Max. Acc. (gal)   0.231
Last Correction   2025/03/28 03:51:07
Memo.             
[...]
  164080   164080   164081   164077   164074   164073   164076   164079 
  164081   164079   164074   164079   164083   164077   164074   164083 
  164081   164077   164081   164077   164070   164074   164074   164070 
  164073   164077   164076   164076   164080   164079   164074   164077 
  164083   164079   164070   164076   164083   164077   164074   164077 
  164076   164076   164079   164074   164077   164079   164077   164077 
  164074   164073   164076   164076   164079   164080   164073   164077 
  164081   164074   164073   164077   164080   164076   164076   164083 
  164081   164074   164077   164080   164079   164077   164079   164081 
  164079   164072   164072   164077   164077   164072   164074   164081 
  164077   164076   164084   164080   164074   164077   164073   164073 
  164077   164079   164080   164077   164076   164080   164080   164077 
  164079   164079   164079   164079   164076   164079   164081   164076 
  164076   164076   164074   164076   164077   164076   164079   164079 
  164080   164083   164080   164079   164079   164077   164077   164077 
  164076   164077   164073   164073   164081   164081   164076   164077 
  164081   164081   164076   164076   164079   164076   164079   164084 
  164079   164074   164079   164077   164077   164083   164080   164074 
  164077   164080   164079   164079   164079   164077   164076   164079 
  164079   164076   164080   164083   164076   164077   164083   164077 
  164074   164081   164084   164080   164080   164080   164079   164080 
  164083   164081   164079   164080   164083   164081   164077   164077 
  164084   164085   164081   164079   164077   164076   164081   164087 
  164080   164074   164079   164080   164083   164083   164074   164073 
  164081   164080   164077   164077   164076   164074   164080   164083 
  164081   164080   164079   164079   164079   164080   164079   164079 
  164080   164080   164079   164077   164077   164076   164079   164084 
  164079   164068   164073   164079   164077   164077   164077   164076 
  164081   164079   164073   164079   164073   164060   164056   164049 
  164042   164045   164049   164043   164031   164026   164025   164015 
  164016   164050   164106   164157   164166   164128   164096   164107 
  164143   164170   164184   164182   164128   164019   163964   164027 
  164112   164112   164029   163937   163926   163983   164034   164065 
  164064   164043   164072   164122   164141   164114   164074   164111 
  164176   164154   164142   164189   164169   164061   163962   163950 
  164039   164172   164222   164131   164015   164003   164074   164122 
  164073   164038   164095   164141   164168   164191   164142   164069 
  164020   164014   164087   164130   164104   164084   164029   163954 
  163930   163942   163995   164092   164150   164126   164123   164199 
  164218   164137   164088   164100   164099   164138   164238   164224 
  164131   164103   164041   163972   164003   164022   164012   164026 
  164027   164010   163980   163993   164022   163991   164035   164157 
  164189   164174   164120   164012   163979   164010   164046   164131 
  164208   164164   164033   163964   164031   164122   164127   164103 
  164103   164103   164110   164112   164097   164089   164074   164043 
  164023   164007   164030   164087   164068   163989   163999   164066 
  164079   164104   164160   164153   164107   164068   164049   164049 
  164042   164035   164077   164164   164169   164074   164037   164047 
  164035   164065   164123   164115   164045   164025   164097   164119 
  164060   164057   164096   164122   164101   164065   164095   164106 
  164089   164093   164056   164057   164069   164033   164114   164168 
  164034   163976   164057   164083   164054   164057   164064   164079 
  164103   164081   164085   164114   164064   164066   164151   164155 
  164133   164138   164096   164061   164062   164058   164045   164031 
  164053   164076   164049   164058   164093   164069   164030   164034 
  164087   164119   164107   164145   164187   164141   164064   163995 
  163965   164011   164084   164135   164147   164130   164104   164054 
  164027   164079   164143   164153   164115   164062   164035   164025 
  164016   164038   164049   164037   164061   164087   164111   164161 
  164143   164057   164064   164158   164180   164122   164006   163894 
  163954   164066   164054   164081   164178   164184   164101   164030 
  164093   164216   164141   163968   163968   164057   164079   164062 
  164039   164033   164069   164085   164077   164123   164185   164150 
  164081   164085   164052   163980   164002   164050   164104   164203 
  164189   164072   164041   164081   164110   164093   164062   164093 
  164130   164099   164065   164047   164030   164060   164091   164041 
  164004   164056   164076   164050   164068   164043   163966   163993 
  164081   164118   164126   164101   164065   164065   164057   164031 
  164080   164162   164135   164074   164110   164141   164080   164007 
  164022   164088   164104   164085   164101   164123   164114   164069 
  164012   164025   164096   164097   164061   164058   164056   164064 
  164053   163995   163989   164046   164049   164006   164033   164110 
  164114   164076   164097   164154   164169   164131   164141   164227 
  164236   164135   164057   164042   164083   164154   164146   164092 
  164110   164092   164022   164019   164004   163962   163961   163946 
  163983   164060   164066   164074   164108   164077   164023   164038 
  164115   164160   164115   164089   164161   164209   164176   164158 
  164141   164077   164080   164146   164157   164141   164115   164003 
  163904   163942   164027   164072   164065   164053   164112   164145 
  164072   164012   163981   163957   163988   164027   164062   164089 
  164087   164101   164118   164104   164116   164138   164118   164100 
  164118   164115   164088   164088   164100   164103   164080   164039 
  164049   164089   164100   164131   164161   164130   164101   164107 
  164091   164035   163984   163976   163999   164012   164039   164060 
  164047   164042   164026   164018   164099   164177   164168   164145 
  164149   164141   164093   164031   163996   163995   163993   164003 
  164089   164207   164204   164110   164070   164092   164106   164093 
  164080   164099   164143   164141   164072   164011   164029   164069 
  164019   163950   163985   164068   164118   164120   164077   164023 
  163995   164015   164050   164077   164115   164096   164027   164035 
  164100   164110   164089   164093   164106   164112   164137   164145 
  164101   164050   164012   163991   163996   164006   164008   164022 
  164033   164049   164093   164141   164161   164146   164114   164122 
  164142   164103   164062   164077   164122   164155   164149   164092 
  164019   163995   164014   164033   164091   164154   164154   164128 
  164092   164045   164033   164029   164019   164057   164106   164106 
  164092   164072   164026   163988   163996   164031   164073   164130 
  164193   164209   164176   164160   164164   164146   164135   164145 
  164096   164020   164043   164118   164123   164092   164066   164026 
  163983   163992   164043   164097   164128   164138   164160   164146 
  164065   164037   164062   164042   164019   164047   164091   164110 
  164104   164066   164029   164050   164085   164077   164088   164124 
  164116   164096   164106   164110   164091   164068   164097   164153 
  164133   164081   164054   164000   163935   163888   163881   163937 
  164035   164120   164114   164043   164031   164073   164115   164146 
  164161   164160   164143   164138   164108   164035   164022   164074 
  164093   164083   164101   164139   164146   164093   164033   164027 
  164041   164027   163998   163952   163941   163954   163911   163911 
  164054   164209   164282   164288   164238   164177   164107   164038 
  164035   164070   164066   164037   163995   163989   164076   164158 
  164174   164178   164142   164068   164049   164079   164104   164110 
  164066   164033   164056   164062   164061   164092   164072   164037 
  164064   164047   164022   164091   164181   164223   164193   164151 
  164170   164133   164039   164046   164106   164119   164101   164053 
  164022   164042   164000   163894   163877   163957   164018   164056 
  164087   164095   164077   164022   163998   164065   164161   164201 
  164168   164126   164137   164130   164091   164085   164124   164184 
  164189   164114   164053   164038   164034   164029   164011   164000 
  164023   164056   164066   164077   164091   164054   164007   164022 
  164047   164065   164106   164130   164124   164072   164020   164074 
  164138   164158   164228   164263   164189   164106   164069   164058 
  164047   163998   163946   163993   164079   164072   164049   164093 
  164128   164130   164107   164037   164023   164107   164141   164099 
  164104   164138   164120   164080   164060   164066   164076   164091 
  164103   164070   164045   164073   164058   164010   164022   164064 
  164084   164088   164084   164074   164046   164020   164026   164064 
  164128   164178   164172   164124   164096   164116   164118   164080 
  164066   164077   164077   164046   163995   163960   163957   163973 
  163995   164019   164069   164126   164158   164172   164182   164188 
  164142   164058   164049   164084   164080   164070   164069   164060 
  164064   164062   164045   164042   164073   164116   164118   164088 
  164095   164127   164103   164026   163987   164015   164073   164110 
  164085   164027   164006   164029   164034   164011   164015   164058 
  164095   164103   164108   164099   164069   164070   164095   164119 
  164137   164133   164126   164120   164101   164101   164096   164049 
  164007   164016   164072   164118   164108   164074   164058   164064 
  164054   164023   164031   164089   164123   164081   164008   163961 
  163960   164020   164092   164104   164104   164128   164131   164112 
  164124   164165   164165   164130   164083   164022   164011   164060 
  164080   164058   164062   164087   164093   164133   164200   164197 
  164107   164026   164039   164114   164120   164066   164046   164043 
  164029   164052   164110   164119   164066   164000   163954   163957 
  163995   164039   164077   164104   164145   164182   164192   164199 
  164205   164180   164110   164049   164033   164038   164035   164016 
  164026   164070   164073   164037   164039   164079   164119   164141 
  164133   164104   164084   164053   163998   163983   164020   164037 
  164023   164043   164096   164107   164073   164034   164026   164065 
  164095   164104   164119   164112   164091   164049   164008   164056 
  164126   164099   164065   164095   164111   164128   164133   164070 
  164050   164095   164107   164103   164095   164069   164076   164091 
  164066   164061   164091   164085   164062   164038   163995   164000 
  164069   164122   164127   164107   164092   164084   164081   164065 
  164030   164027   164038   164045   164099   164147   164141   164112 
  164084   164089   164128   164149   164133   164108   164116   164138 
  164120   164096   164095   164061   164008   164020   164069   164092 
  164077   164030   164007   164046   164058   164011   163987   164002 
  164014   164027   164065   164111   164111   164054   163996   163996 
  164050   164112   164154   164165   164138   164123   164146   164166 
  164161   164122   164080   164091   164103   164054   163998   163993 
  164022   164069   164112   164093   164034   164022   164061   164093 
  164116   164143   164137   164080   164020   164006   164030   164049 
  164066   164112   164135   164118   164118   164139   164124   164064 
  164014   164015   164037   164037   164039   164069   164083   164093 
  164114   164088   164035   164031   164081   164124   164114   164080 
  164062   164056   164046   164020   163992   164002   164060   164122 
  164135   164138   164153   164130   164091   164076   164061   164062 
  164088   164100   164108   164126   164135   164134   164130   164103 
  164087   164130   164166   164149   164122   164084   164034   164006 
  164011   164033   164039   164052   164074   164077   164068   164070 
  164107   164146   164142   164114   164073   164042   164054   164077 
  164069   164042   164014   164000   164012   164026   164014   164008 
  164042   164070   164070   164087   164114   164116   164124   164145 
  164153   164146   164145   164196   164255   164273   164277   164208 
  164072   164007   164003   163984   163962   163944   163918   163902 
  163891   163867   163850   163868   163904   163973   164087   164215 
  164335   164431   164485   164508   164465   164311   164107   163917 
  163776   163736   163750   163771   163836   163915   163988   164118 
  164241   164235   164158   164084   163985   163885   163852   163887 
  163946   164015   164107   164203   164282   164347   164394   164404 
  164359   164295   164234   164149   164070   164029   163976   163908 
  163850   163802   163765   163742   163737   163768   163836   163911 
  163972   164010   164034   164108   164251   164374   164452   164482 
  164415   164299   164214   164191   164234   164257   164214   164168 
  164150   164146   164166   164150   164052   163960   163884   163790 
  163765   163840   163922   163975   164041   164143   164234   164234 
  164127   163942   163721   163552   163536   163669   163895   164137 
  164327   164501   164663   164725   164697   164627   164517   164354 
  164138   163939   163815   163779   163864   164015   164108   164126 
  164111   164077   164033   164004   163999   163983   163987   164035 
  164050   163989   163867   163723   163634   163620   163652   163741 
  163919   164151   164355   164467   164451   164324   164193   164128 
  164119   164111   164060   164022   164030   164019   163996   164007 
  164015   164025   164065   164088   164064   164034   164011   164037 
  164124   164172   164166   164170   164184   164209   164228   164226 
  164226   164242   164286   164371   164474   164521   164451   164274 
  164023   163755   163584   163575   163657   163741   163809   163880 
  163960   164000   163975   163954   164000   164079   164153   164215 
  164293   164393   164454   164450   164407   164332   164235   164153 
  164141   164173   164196   164193   164107   163933   163787   163737 
  163740   163761   163784   163798   163826   163840   163802   163811 
  163921   164092   164269   164362   164354   164274   164141   164039 
  164066   164212   164358   164416   164373   164228   164042   163952 
  164015   164147   164243   164246   164143   164008   163912   163854 
  163823   163821   163865   163977   164133   164243   164245   164142 
  163949   163738   163660   163744   163898   164011   164037   164012 
  163979   163961   163960   163953   163965   164022   164153   164373 
  164574   164633   164540   164361   164166   164035   164047   164164 
  164251   164227   164110   163966   163845   163783   163786   163833 
  163934   164065   164195   164309   164369   164346   164273   164215 
  164184   164158   164187   164250   164259   164223   164184   164120 
  164003   163879   163825   163844   163884   163904   163926   164004 
  164116   164203   164249   164236   164164   164062   163968   163906 
  163880   163892   163944   163989   164000   164015   164039   164033 
  164016   164030   164074   164176   164307   164382   164357   164253 
  164124   164000   163929   163950   163998   163998   163956   163914 
  163912   163948   163981   163987   163980   164003   164053   164092 
  164103   164114   164137   164133   164127   164166   164218   164269 
  164324   164343   164303   164214   164126   164099   164076   163998 
  163922   163884   163884   163921   163944   163941   163931   163888 
  163813   163761   163807   163937   164066   164187   164293   164342 
  164344   164332   164293   164245   164222   164208   164178   164138 
  164083   164012   163957   163958   164043   164172   164242   164207 
  164100   163988   163953   163968   163965   163965   163962   163956 
  164008   164101   164166   164197   164211   164235   164266   164278 
  164262   164191   164083   164004   163960   163968   164045   164100 
  164137   164234   164312   164293   164216   164074   163885   163738 
  163669   163679   163765   163885   164003   164108   164188   164246 
  164280   164285   164293   164315   164327   164281   164178   164083 
  163984   163869   163783   163729   163722   163782   163895   164039 
  164141   164153   164099   164003   163914   163891   163906   163908 
  163937   164010   164096   164200   164297   164330   164332   164347 
  164342   164290   164227   164173   164092   163968   163881   163887 
  163969   164087   164157   164158   164160   164153   164114   164087 
  164066   164046   164053   164050   164014   163981   163950   163926 
  163961   164029   164077   164133   164209   164262   164253   164219 
  164222   164253   164258   164243   164246   164254   164241   164211 
  164170   164119   164035   163931   163854   163827   163844   163872 
  163899   163950   164016   164041   164004   163960   163953   164000 
  164077   164128   164168   164211   164235   164241   164234   164205 
  164178   164166   164147   164112   164106   164139   164154   164126 
  164074   164007   163946   163912   163883   163846   163817   163819 
  163860   163904   163956   164015   164077   164141   164200   164259 
  164288   164272   164245   164203   164128   164072   164056   164039 
  164022   164029   164037   164065   164112   164124   164123   164137 
  164155   164166   164133   164045   163958   163914   163911   163944 
  164004   164080   164143   164182   164200   164196   164174   164128 
  164066   164043   164058   164052   164019   164010   164022   164037 
  164054   164064   164053   164065   164100   164096   164062   164061 
  164100   164139   164135   164128   164149   164138   164097   164070 
  164025   163964   163944   163958   163975   163995   164003   163992 
  164012   164056   164068   164062   164058   164061   164091   164120 
  164143   164184   164208   164204   164208   164223   164222   164195 
  164153   164110   164072   164046   164035   164061   164119   164147 
  164142   164150   164149   164122   164077   164011   163958   163952 
  163969   163989   164015   164038   164056   164095   164155   164209 
  164239   164235   164207   164180   164158   164100   164031   164020 
  164035   164047   164065   164045   163987   163944   163918   163910 
  163903   163914   163971   164020   164002   163964   163969   163991 
  163979   163956   163973   164050   164133   164180   164222   164253 
  164245   164224   164212   164218   164231   164234   164245   164259 
  164253   164203   164106   164010   163960   163965   164002   164016 
  164011   164033   164087   164134   164137   164118   164127   164155 
  164173   164166   164131   164091   164058   164018   163980   163961 
  163949   163945   163954   163972   163996   164023   164039   164060 
  164093   164100   164072   164057   164060   164076   164083   164058 
  164049   164066   164085   164093   164077   164053   164045   164058 
  164074   164085   164093   164085   164050   163998   163939   163907 
