Origin Time       2025/03/28 03:50:00
Lat.              35.403
Long.             140.360
Depth. (km)       54
Mag.              4.4
Station Code      YMNH16
Station Lat.      35.7421
Station Long.     138.5653
Station Height(m) 339
Record Time       2025/03/28 03:51:21
Sampling Freq(Hz) 100Hz
Duration Time(s)  120
Dir.              1
Scale Factor      2942(gal)/8224139
Max. Acc. (gal)   0.257
Last Correction   2025/03/28 03:51:21
Memo.             
[...]
-1014454 -1014546 -1014507 -1014448 -1014472 -1014489 -1014431 -1014400 
-1014458 -1014514 -1014507 -1014461 -1014423 -1014454 -1014492 -1014453 
-1014417 -1014449 -1014492 -1014481 -1014439 -1014457 -1014492 -1014454 
-1014441 -1014499 -1014508 -1014449 -1014430 -1014480 -1014514 -1014484 
-1014466 -1014485 -1014473 -1014431 -1014433 -1014464 -1014456 -1014421 
-1014419 -1014421 -1014417 -1014461 -1014500 -1014480 -1014481 -1014502 
-1014461 -1014399 -1014408 -1014460 -1014452 -1014414 -1014434 -1014452 
-1014419 -1014408 -1014429 -1014452 -1014468 -1014483 -1014527 -1014554 
-1014492 -1014421 -1014441 -1014496 -1014502 -1014477 -1014477 -1014489 
-1014462 -1014415 -1014410 -1014435 -1014444 -1014429 -1014404 -1014385 
-1014407 -1014461 -1014488 -1014468 -1014460 -1014487 -1014488 -1014453 
-1014462 -1014511 -1014496 -1014444 -1014480 -1014547 -1014496 -1014390 
-1014392 -1014472 -1014479 -1014414 -1014377 -1014402 -1014446 -1014454 
-1014421 -1014412 -1014442 -1014454 -1014472 -1014510 -1014496 -1014441 
-1014449 -1014502 -1014487 -1014419 -1014421 -1014484 -1014498 -1014458 
-1014466 -1014516 -1014507 -1014453 -1014442 -1014471 -1014487 -1014487 
-1014476 -1014450 -1014438 -1014438 -1014417 -1014429 -1014512 -1014549 
-1014471 -1014411 -1014466 -1014504 -1014434 -1014394 -1014444 -1014465 
-1014437 -1014469 -1014516 -1014480 -1014435 -1014462 -1014495 -1014462 
-1014419 -1014429 -1014437 -1014399 -1014380 -1014429 -1014469 -1014445 
-1014419 -1014464 -1014525 -1014514 -1014461 -1014473 -1014529 -1014504 
-1014410 -1014390 -1014448 -1014449 -1014403 -1014429 -1014488 -1014473 
-1014438 -1014477 -1014519 -1014487 -1014452 -1014472 -1014483 -1014456 
-1014465 -1014499 -1014493 -1014471 -1014469 -1014456 -1014431 -1014430 
-1014450 -1014464 -1014457 -1014437 -1014419 -1014419 -1014433 -1014426 
-1014412 -1014423 -1014429 -1014412 -1014418 -1014452 -1014479 -1014466 
-1014431 -1014431 -1014469 -1014502 -1014508 -1014510 -1014511 -1014479 
-1014449 -1014471 -1014492 -1014481 -1014484 -1014498 -1014481 -1014461 
-1014466 -1014468 -1014452 -1014445 -1014438 -1014419 -1014412 -1014421 
-1014426 -1014427 -1014437 -1014454 -1014456 -1014446 -1014445 -1014461 
-1014489 -1014495 -1014465 -1014457 -1014479 -1014464 -1014454 -1014507 
-1014522 -1014446 -1014407 -1014461 -1014510 -1014481 -1014442 -1014442 
-1014426 -1014399 -1014418 -1014442 -1014421 -1014422 -1014471 -1014495 
-1014483 -1014483 -1014503 -1014485 -1014433 -1014430 -1014483 -1014495 
-1014461 -1014457 -1014475 -1014466 -1014446 -1014423 -1014396 -1014418 
-1014481 -1014499 -1014472 -1014472 -1014488 -1014458 -1014429 -1014465 
-1014487 -1014439 -1014430 -1014500 -1014535 -1014488 -1014446 -1014471 
-1014492 -1014452 -1014429 -1014462 -1014460 -1014404 -1014398 -1014449 
-1014469 -1014444 -1014433 -1014449 -1014442 -1014427 -1014434 -1014429 
-1014415 -1014435 -1014465 -1014458 -1014448 -1014476 -1014506 -1014477 
-1014448 -1014485 -1014512 -1014469 -1014449 -1014498 -1014510 -1014441 
-1014417 -1014466 -1014468 -1014426 -1014444 -1014485 -1014471 -1014437 
-1014452 -1014489 -1014484 -1014441 -1014415 -1014427 -1014434 -1014415 
-1014423 -1014465 -1014475 -1014453 -1014453 -1014468 -1014479 -1014491 
-1014492 -1014479 -1014469 -1014462 -1014464 -1014483 -1014493 -1014472 
-1014448 -1014460 -1014496 -1014516 -1014491 -1014450 -1014445 -1014445 
-1014429 -1014427 -1014434 -1014415 -1014400 -1014417 -1014419 -1014390 
-1014391 -1014454 -1014500 -1014480 -1014464 -1014503 -1014530 -1014496 
-1014465 -1014469 -1014450 -1014425 -1014453 -1014479 -1014445 -1014431 
-1014480 -1014498 -1014456 -1014449 -1014481 -1014461 -1014414 -1014422 
-1014452 -1014439 -1014418 -1014437 -1014466 -1014464 -1014458 -1014485 
-1014495 -1014445 -1014406 -1014434 -1014468 -1014456 -1014458 -1014487 
-1014476 -1014448 -1014461 -1014458 -1014407 -1014391 -1014431 -1014446 
-1014448 -1014493 -1014542 -1014523 -1014468 -1014456 -1014488 -1014491 
-1014465 -1014480 -1014518 -1014492 -1014429 -1014421 -1014458 -1014458 
-1014431 -1014438 -1014458 -1014461 -1014479 -1014506 -1014476 -1014419 
-1014423 -1014458 -1014454 -1014446 -1014476 -1014492 -1014468 -1014456 
-1014471 -1014462 -1014439 -1014439 -1014450 -1014433 -1014414 -1014429 
-1014433 -1014408 -1014431 -1014491 -1014489 -1014457 -1014487 -1014530 
-1014495 -1014433 -1014430 -1014445 -1014417 -1014400 -1014444 -1014477 
-1014453 -1014422 -1014431 -1014456 -1014460 -1014457 -1014466 -1014472 
-1014466 -1014460 -1014473 -1014504 -1014515 -1014493 -1014457 -1014441 
-1014464 -1014475 -1014446 -1014427 -1014444 -1014458 -1014442 -1014418 
-1014449 -1014493 -1014462 -1014421 -1014466 -1014514 -1014483 -1014450 
-1014473 -1014487 -1014464 -1014450 -1014461 -1014465 -1014435 -1014395 
-1014402 -1014462 -1014507 -1014484 -1014448 -1014465 -1014487 -1014457 
-1014426 -1014445 -1014476 -1014492 -1014503 -1014485 -1014433 -1014388 
-1014381 -1014399 -1014422 -1014446 -1014462 -1014479 -1014508 -1014512 
-1014472 -1014445 -1014464 -1014489 -1014485 -1014465 -1014462 -1014480 
-1014485 -1014462 -1014435 -1014415 -1014403 -1014422 -1014457 -1014465 
-1014450 -1014456 -1014479 -1014473 -1014450 -1014453 -1014456 -1014444 
-1014453 -1014469 -1014460 -1014441 -1014444 -1014452 -1014453 -1014469 
-1014493 -1014481 -1014452 -1014456 -1014481 -1014462 -1014431 -1014466 
-1014506 -1014472 -1014435 -1014473 -1014506 -1014465 -1014419 -1014430 
-1014454 -1014446 -1014437 -1014469 -1014511 -1014491 -1014439 -1014457 
-1014511 -1014496 -1014434 -1014414 -1014439 -1014450 -1014444 -1014452 
-1014476 -1014472 -1014429 -1014411 -1014446 -1014471 -1014450 -1014442 
-1014454 -1014434 -1014411 -1014438 -1014469 -1014453 -1014433 -1014464 
-1014506 -1014480 -1014433 -1014439 -1014458 -1014448 -1014457 -1014483 
-1014477 -1014452 -1014444 -1014454 -1014460 -1014457 -1014462 -1014484 
-1014493 -1014473 -1014464 -1014481 -1014471 -1014425 -1014418 -1014457 
-1014476 -1014479 -1014493 -1014487 -1014444 -1014429 -1014466 -1014495 
-1014472 -1014458 -1014493 -1014498 -1014448 -1014435 -1014481 -1014499 
-1014460 -1014433 -1014448 -1014461 -1014446 -1014433 -1014456 -1014479 
-1014461 -1014437 -1014444 -1014454 -1014441 -1014427 -1014442 -1014469 
-1014461 -1014415 -1014398 -1014438 -1014460 -1014423 -1014414 -1014476 
-1014511 -1014465 -1014430 -1014456 -1014466 -1014439 -1014446 -1014498 
-1014511 -1014483 -1014480 -1014492 -1014464 -1014421 -1014429 -1014465 
-1014452 -1014421 -1014441 -1014472 -1014461 -1014448 -1014477 -1014507 
-1014496 -1014473 -1014475 -1014487 -1014498 -1014499 -1014481 -1014462 
-1014466 -1014454 -1014417 -1014414 -1014435 -1014414 -1014380 -1014398 
-1014429 -1014417 -1014417 -1014472 -1014526 -1014523 -1014499 -1014503 
-1014496 -1014452 -1014453 -1014514 -1014522 -1014465 -1014446 -1014472 
-1014466 -1014431 -1014422 -1014430 -1014429 -1014441 -1014466 -1014454 
-1014399 -1014367 -1014391 -1014418 -1014412 -1014433 -1014504 -1014534 
-1014495 -1014476 -1014500 -1014506 -1014473 -1014435 -1014414 -1014427 
-1014477 -1014508 -1014481 -1014456 -1014462 -1014453 -1014423 -1014441 
-1014503 -1014516 -1014477 -1014475 -1014492 -1014472 -1014429 -1014419 
-1014452 -1014473 -1014464 -1014458 -1014468 -1014479 -1014480 -1014460 
-1014441 -1014446 -1014457 -1014453 -1014450 -1014458 -1014469 -1014461 
-1014442 -1014449 -1014464 -1014454 -1014445 -1014462 -1014485 -1014476 
-1014430 -1014419 -1014457 -1014461 -1014430 -1014434 -1014453 -1014431 
-1014414 -1014462 -1014507 -1014458 -1014406 -1014454 -1014498 -1014427 
-1014371 -1014439 -1014526 -1014511 -1014475 -1014506 -1014516 -1014434 
-1014380 -1014431 -1014481 -1014450 -1014404 -1014414 -1014445 -1014457 
-1014466 -1014481 -1014489 -1014489 -1014507 -1014531 -1014514 -1014473 
-1014469 -1014489 -1014487 -1014464 -1014449 -1014448 -1014444 -1014437 
-1014433 -1014438 -1014433 -1014392 -1014371 -1014407 -1014444 -1014450 
-1014485 -1014522 -1014483 -1014426 -1014438 -1014458 -1014430 -1014430 
-1014492 -1014518 -1014457 -1014412 -1014437 -1014444 -1014415 -1014434 
-1014477 -1014473 -1014465 -1014495 -1014495 -1014441 -1014417 -1014450 
-1014491 -1014492 -1014492 -1014520 -1014534 -1014510 -1014475 -1014449 
-1014439 -1014435 -1014446 -1014465 -1014460 -1014445 -1014445 -1014431 
-1014427 -1014475 -1014485 -1014427 -1014422 -1014488 -1014487 -1014431 
-1014456 -1014523 -1014491 -1014399 -1014398 -1014465 -1014473 -1014422 
-1014429 -1014484 -1014477 -1014430 -1014450 -1014485 -1014441 -1014388 
-1014431 -1014506 -1014487 -1014433 -1014462 -1014504 -1014446 -1014398 
-1014449 -1014472 -1014423 -1014438 -1014512 -1014530 -1014488 -1014472 
-1014493 -1014493 -1014460 -1014446 -1014465 -1014477 -1014466 -1014460 
-1014468 -1014453 -1014423 -1014439 -1014464 -1014453 -1014448 -1014456 
-1014450 -1014435 -1014442 -1014465 -1014464 -1014438 -1014439 -1014472 
-1014487 -1014471 -1014462 -1014460 -1014426 -1014384 -1014375 -1014403 
-1014448 -1014453 -1014421 -1014441 -1014495 -1014476 -1014426 -1014446 
-1014495 -1014496 -1014466 -1014464 -1014481 -1014476 -1014466 -1014492 
-1014518 -1014500 -1014466 -1014462 -1014469 -1014453 -1014444 -1014480 
-1014502 -1014461 -1014425 -1014448 -1014480 -1014475 -1014461 -1014465 
-1014465 -1014452 -1014453 -1014460 -1014448 -1014430 -1014418 -1014410 
-1014422 -1014441 -1014446 -1014453 -1014471 -1014487 -1014493 -1014489 
-1014473 -1014462 -1014472 -1014472 -1014444 -1014437 -1014464 -1014469 
-1014438 -1014431 -1014473 -1014493 -1014460 -1014446 -1014492 -1014507 
-1014460 -1014429 -1014452 -1014466 -1014439 -1014404 -1014404 -1014430 
-1014422 -1014395 -1014411 -1014457 -1014483 -1014473 -1014456 -1014477 
-1014508 -1014491 -1014458 -1014469 -1014485 -1014461 -1014439 -1014481 
-1014512 -1014464 -1014414 -1014431 -1014452 -1014417 -1014385 -1014417 
-1014466 -1014476 -1014481 -1014516 -1014525 -1014480 -1014449 -1014480 
-1014518 -1014484 -1014434 -1014458 -1014500 -1014477 -1014434 -1014423 
-1014427 -1014445 -1014476 -1014485 -1014479 -1014477 -1014475 -1014456 
-1014421 -1014415 -1014465 -1014491 -1014454 -1014445 -1014484 -1014485 
-1014427 -1014406 -1014444 -1014469 -1014460 -1014464 -1014489 -1014503 
-1014480 -1014445 -1014426 -1014418 -1014417 -1014439 -1014464 -1014458 
-1014442 -1014446 -1014452 -1014435 -1014423 -1014434 -1014444 -1014433 
-1014429 -1014439 -1014460 -1014483 -1014495 -1014484 -1014461 -1014446 
-1014469 -1014496 -1014473 -1014431 -1014433 -1014460 -1014454 -1014425 
-1014434 -1014476 -1014485 -1014465 -1014477 -1014510 -1014499 -1014472 
-1014489 -1014523 -1014502 -1014454 -1014465 -1014488 -1014445 -1014410 
-1014458 -1014508 -1014471 -1014419 -1014439 -1014471 -1014450 -1014449 
-1014500 -1014507 -1014460 -1014458 -1014479 -1014437 -1014395 -1014423 
-1014446 -1014398 -1014358 -1014400 -1014457 -1014449 -1014419 -1014437 
-1014475 -1014472 -1014448 -1014464 -1014507 -1014493 -1014431 -1014412 
-1014445 -1014460 -1014450 -1014458 -1014489 -1014493 -1014458 -1014439 
-1014460 -1014472 -1014461 -1014477 -1014511 -1014506 -1014475 -1014468 
-1014473 -1014458 -1014434 -1014435 -1014458 -1014468 -1014445 -1014418 
-1014431 -1014462 -1014468 -1014456 -1014466 -1014493 -1014492 -1014462 
-1014449 -1014452 -1014442 -1014439 -1014465 -1014502 -1014499 -1014442 
-1014403 -1014427 -1014449 -1014430 -1014441 -1014492 -1014510 -1014476 
-1014472 -1014511 -1014492 -1014425 -1014426 -1014479 -1014477 -1014445 
-1014456 -1014473 -1014431 -1014398 -1014449 -1014480 -1014422 -1014391 
-1014445 -1014481 -1014442 -1014412 -1014460 -1014488 -1014442 -1014418 
-1014449 -1014456 -1014435 -1014444 -1014477 -1014489 -1014476 -1014475 
-1014476 -1014465 -1014461 -1014461 -1014458 -1014468 -1014485 -1014498 
-1014484 -1014445 -1014419 -1014427 -1014437 -1014438 -1014442 -1014450 
-1014465 -1014477 -1014472 -1014465 -1014480 -1014504 -1014498 -1014457 
-1014439 -1014472 -1014510 -1014496 -1014449 -1014437 -1014473 -1014484 
-1014445 -1014430 -1014468 -1014483 -1014461 -1014471 -1014487 -1014441 
-1014385 -1014410 -1014469 -1014448 -1014377 -1014394 -1014460 -1014457 
-1014431 -1014445 -1014452 -1014456 -1014488 -1014504 -1014475 -1014454 
-1014462 -1014461 -1014442 -1014433 -1014449 -1014475 -1014489 -1014495 
-1014489 -1014472 -1014449 -1014435 -1014435 -1014433 -1014441 -1014469 
-1014473 -1014444 -1014437 -1014458 -1014461 -1014450 -1014445 -1014438 
-1014433 -1014454 -1014510 -1014539 -1014503 -1014473 -1014489 -1014480 
-1014435 -1014429 -1014461 -1014462 -1014421 -1014410 -1014453 -1014453 
-1014388 -1014361 -1014379 -1014364 -1014341 -1014373 -1014418 -1014419 
-1014437 -1014515 -1014573 -1014587 -1014623 -1014668 -1014660 -1014631 
-1014639 -1014641 -1014581 -1014518 -1014496 -1014446 -1014344 -1014291 
-1014322 -1014317 -1014229 -1014167 -1014182 -1014207 -1014223 -1014299 
-1014433 -1014519 -1014526 -1014508 -1014456 -1014357 -1014298 -1014333 
-1014417 -1014510 -1014638 -1014795 -1014901 -1014944 -1014985 -1014997 
-1014869 -1014574 -1014245 -1014021 -1013945 -1014005 -1014180 -1014373 
-1014458 -1014448 -1014433 -1014430 -1014456 -1014584 -1014788 -1014884 
-1014768 -1014554 -1014369 -1014229 -1014152 -1014161 -1014188 -1014164 
-1014175 -1014340 -1014593 -1014747 -1014753 -1014727 -1014734 -1014758 
-1014809 -1014866 -1014850 -1014724 -1014495 -1014198 -1013920 -1013764 
-1013786 -1013932 -1014059 -1014120 -1014196 -1014286 -1014263 -1014176 
-1014256 -1014512 -1014664 -1014611 -1014596 -1014745 -1014878 -1014886 
-1014865 -1014885 -1014881 -1014808 -1014715 -1014639 -1014566 -1014489 
-1014444 -1014466 -1014533 -1014554 -1014522 -1014493 -1014437 -1014277 
-1014060 -1013881 -1013766 -1013739 -1013852 -1014086 -1014346 -1014577 
-1014751 -1014846 -1014855 -1014772 -1014661 -1014661 -1014738 -1014722 
-1014611 -1014534 -1014479 -1014344 -1014179 -1014124 -1014221 -1014395 
-1014541 -1014614 -1014643 -1014669 -1014693 -1014688 -1014572 -1014340 
-1014155 -1014133 -1014179 -1014167 -1014157 -1014279 -1014464 -1014541 
-1014508 -1014516 -1014587 -1014606 -1014516 -1014408 -1014396 -1014479 
-1014531 -1014477 -1014388 -1014371 -1014442 -1014533 -1014574 -1014570 
-1014591 -1014665 -1014681 -1014581 -1014483 -1014442 -1014400 -1014344 
-1014334 -1014391 -1014439 -1014407 -1014318 -1014260 -1014295 -1014403 
-1014508 -1014549 -1014558 -1014641 -1014788 -1014843 -1014730 -1014564 
-1014468 -1014392 -1014272 -1014183 -1014226 -1014349 -1014423 -1014423 
-1014441 -1014519 -1014570 -1014553 -1014518 -1014489 -1014453 -1014466 
-1014560 -1014576 -1014396 -1014199 -1014214 -1014360 -1014427 -1014433 
-1014469 -1014484 -1014437 -1014425 -1014499 -1014581 -1014596 -1014539 
-1014466 -1014450 -1014510 -1014561 -1014500 -1014372 -1014306 -1014309 
-1014306 -1014314 -1014394 -1014512 -1014569 -1014518 -1014445 -1014469 
-1014573 -1014601 -1014471 -1014344 -1014390 -1014503 -1014514 -1014465 
-1014445 -1014396 -1014284 -1014244 -1014338 -1014431 -1014484 -1014589 
-1014684 -1014622 -1014506 -1014530 -1014622 -1014574 -1014462 -1014476 
-1014527 -1014458 -1014358 -1014325 -1014300 -1014267 -1014291 -1014383 
-1014489 -1014568 -1014593 -1014535 -1014417 -1014363 -1014408 -1014430 
-1014408 -1014472 -1014588 -1014591 -1014504 -1014500 -1014588 -1014634 
-1014597 -1014522 -1014426 -1014337 -1014311 -1014358 -1014441 -1014510 
-1014477 -1014341 -1014257 -1014276 -1014272 -1014259 -1014349 -1014442 
-1014399 -1014344 -1014410 -1014475 -1014445 -1014472 -1014601 -1014635 
-1014525 -1014477 -1014550 -1014600 -1014607 -1014658 -1014701 -1014627 
-1014507 -1014464 -1014461 -1014437 -1014430 -1014471 -1014498 -1014476 
-1014441 -1014414 -1014383 -1014380 -1014439 -1014511 -1014507 -1014444 
-1014387 -1014353 -1014352 -1014398 -1014454 -1014472 -1014492 -1014543 
-1014539 -1014434 -1014342 -1014345 -1014358 -1014330 -1014340 -1014408 
-1014460 -1014460 -1014457 -1014504 -1014568 -1014580 -1014545 -1014506 
-1014462 -1014402 -1014345 -1014318 -1014290 -1014218 -1014179 -1014263 
-1014399 -1014488 -1014591 -1014749 -1014842 -1014795 -1014716 -1014700 
-1014655 -1014508 -1014385 -1014376 -1014384 -1014338 -1014302 -1014352 
-1014448 -1014500 -1014515 -1014496 -1014415 -1014341 -1014336 -1014318 
-1014261 -1014261 -1014350 -1014452 -1014533 -1014620 -1014692 -1014712 
-1014707 -1014673 -1014600 -1014523 -1014481 -1014483 -1014499 -1014458 
-1014376 -1014353 -1014417 -1014484 -1014500 -1014496 -1014493 -1014450 
-1014381 -1014387 -1014437 -1014396 -1014314 -1014348 -1014439 -1014414 
-1014315 -1014309 -1014373 -1014398 -1014398 -1014431 -1014476 -1014495 
-1014499 -1014514 -1014545 -1014584 -1014608 -1014596 -1014558 -1014523 
-1014476 -1014406 -1014381 -1014438 -1014502 -1014534 -1014541 -1014515 
-1014469 -1014449 -1014466 -1014491 -1014489 -1014449 -1014376 -1014304 
-1014264 -1014228 -1014183 -1014194 -1014291 -1014396 -1014441 -1014466 
-1014523 -1014568 -1014557 -1014552 -1014608 -1014638 -1014577 -1014518 
-1014519 -1014500 -1014434 -1014400 -1014434 -1014472 -1014493 -1014511 
-1014510 -1014502 -1014522 -1014534 -1014481 -1014399 -1014368 -1014368 
-1014331 -1014303 -1014341 -1014380 -1014380 -1014415 -1014493 -1014512 
-1014456 -1014445 -1014520 -1014577 -1014552 -1014500 -1014466 -1014435 
-1014383 -1014352 -1014394 -1014469 -1014500 -1014488 -1014480 -1014468 
-1014429 -1014398 -1014425 -1014487 -1014516 -1014496 -1014502 -1014569 
-1014577 -1014458 -1014379 -1014439 -1014496 -1014466 -1014464 -1014518 
-1014495 -1014398 -1014383 -1014446 -1014449 -1014411 -1014429 -1014458 
-1014437 -1014425 -1014480 -1014549 -1014546 -1014452 -1014333 -1014302 
-1014368 -1014427 -1014445 -1014479 -1014533 -1014543 -1014508 -1014481 
-1014460 -1014404 -1014364 -1014394 -1014431 -1014410 -1014381 -1014438 
-1014533 -1014568 -1014565 -1014595 -1014622 -1014595 -1014530 -1014472 
-1014453 -1014441 -1014394 -1014376 -1014431 -1014461 -1014407 -1014363 
-1014380 -1014394 -1014381 -1014408 -1014465 -1014480 -1014472 -1014516 
-1014585 -1014570 -1014496 -1014473 -1014487 -1014445 -1014368 -1014346 
-1014364 -1014341 -1014292 -1014296 -1014365 -1014439 -1014483 -1014520 
-1014572 -1014596 -1014568 -1014518 -1014475 -1014442 -1014422 -1014438 
-1014492 -1014531 -1014531 -1014535 -1014568 -1014593 -1014579 -1014530 
-1014472 -1014427 -1014395 -1014372 -1014371 -1014396 -1014414 -1014403 
-1014392 -1014411 -1014453 -1014475 -1014471 -1014462 -1014457 -1014442 
-1014404 -1014372 -1014376 -1014391 -1014387 -1014395 -1014439 -1014472 
-1014465 -1014480 -1014546 -1014592 -1014568 -1014529 -1014531 -1014542 
-1014522 -1014516 -1014552 -1014561 -1014504 -1014431 -1014406 -1014425 
-1014421 -1014369 -1014326 -1014337 -1014387 -1014425 -1014425 -1014414 
-1014427 -1014480 -1014545 -1014565 -1014529 -1014489 -1014499 -1014512 
-1014475 -1014444 -1014485 -1014543 -1014549 -1014518 -1014477 -1014444 
-1014442 -1014456 -1014444 -1014398 -1014363 -1014368 -1014390 -1014415 
-1014444 -1014444 -1014403 -1014376 -1014410 -1014475 -1014495 -1014483 
-1014516 -1014584 -1014588 -1014516 -1014460 -1014469 -1014495 -1014466 
-1014391 -1014352 -1014372 -1014399 -1014407 -1014426 -1014449 -1014458 
-1014468 -1014487 -1014504 -1014507 -1014488 -1014450 -1014412 -1014408 
-1014433 -1014435 -1014404 -1014383 -1014399 -1014427 -1014434 -1014429 
-1014430 -1014423 -1014399 -1014384 -1014396 -1014422 -1014457 -1014502 
-1014526 -1014530 -1014558 -1014600 -1014607 -1014569 -1014496 -1014411 
-1014344 -1014317 -1014346 -1014421 -1014477 -1014476 -1014458 -1014458 
-1014456 -1014452 -1014475 -1014506 -1014519 -1014529 -1014554 -1014569 
