Origin Time       2025/03/28 03:50:00
Lat.              35.403
Long.             140.360
Depth. (km)       54
Mag.              4.4
Station Code      YMNH11
Station Lat.      35.6247
Station Long.     138.9777
Station Height(m) 465
Record Time       2025/03/28 03:51:14
Sampling Freq(Hz) 100Hz
Duration Time(s)  120
Dir.              6
Scale Factor      3920(gal)/6170801
Max. Acc. (gal)   1.157
Last Correction   2025/03/28 03:50:59
Memo.             
[...]
  -27489   -27327   -27263   -27441   -27816   -28038   -27879   -27530 
  -27258   -27202   -27420   -27705   -27730   -27526   -27369   -27331 
  -27330   -27375   -27497   -27609   -27578   -27445   -27422   -27531 
  -27543   -27384   -27216   -27170   -27264   -27472   -27696   -27796 
  -27749   -27683   -27695   -27713   -27638   -27539   -27521   -27605 
  -27735   -27713   -27440   -27175   -27137   -27227   -27323   -27343 
  -27215   -27093   -27218   -27584   -27959   -28095   -27910   -27540 
  -27225   -27198   -27484   -27813   -27952   -27857   -27557   -27262 
  -27257   -27515   -27752   -27784   -27622   -27356   -27082   -26942 
  -27064   -27377   -27637   -27657   -27457   -27271   -27331   -27590 
  -27772   -27726   -27579   -27521   -27574   -27655   -27688   -27614 
  -27511   -27519   -27587   -27542   -27368   -27250   -27305   -27426 
  -27553   -27692   -27703   -27551   -27419   -27357   -27290   -27225 
  -27224   -27344   -27578   -27790   -27794   -27555   -27278   -27203 
  -27335   -27488   -27531   -27484   -27438   -27480   -27602   -27702 
  -27753   -27790   -27780   -27672   -27497   -27347   -27276   -27255 
  -27328   -27549   -27768   -27760   -27532   -27346   -27402   -27589 
  -27677   -27593   -27424   -27303   -27315   -27439   -27553   -27564 
  -27525   -27499   -27468   -27445   -27439   -27439   -27496   -27608 
  -27664   -27610   -27528   -27525   -27601   -27691   -27703   -27553 
  -27288   -27064   -27000   -27165   -27464   -27634   -27602   -27524 
  -27464   -27464   -27573   -27652   -27589   -27509   -27492   -27506 
  -27567   -27658   -27677   -27572   -27396   -27264   -27266   -27403 
  -27587   -27689   -27637   -27507   -27474   -27613   -27749   -27668 
  -27431   -27237   -27174   -27247   -27405   -27556   -27637   -27608 
  -27531   -27517   -27529   -27504   -27479   -27483   -27505   -27514 
  -27475   -27404   -27379   -27472   -27658   -27790   -27735   -27537 
  -27376   -27374   -27503   -27658   -27747   -27711   -27540   -27331 
  -27261   -27384   -27559   -27568   -27353   -27148   -27184   -27414 
  -27671   -27815   -27779   -27658   -27546   -27392   -27199   -27113 
  -27208   -27397   -27552   -27619   -27642   -27675   -27693   -27640 
  -27519   -27412   -27427   -27538   -27611   -27635   -27665   -27652 
  -27553   -27423   -27332   -27324   -27383   -27419   -27404   -27442 
  -27583   -27727   -27744   -27587   -27356   -27241   -27302   -27411 
  -27482   -27582   -27731   -27778   -27598   -27347   -27298   -27450 
  -27603   -27647   -27582   -27455   -27360   -27355   -27424   -27504 
  -27516   -27423   -27300   -27276   -27392   -27559   -27635   -27573 
  -27526   -27659   -27859   -27894   -27706   -27406   -27215   -27275 
  -27457   -27558   -27546   -27496   -27475   -27496   -27501   -27436 
  -27349   -27308   -27323   -27388   -27479   -27580   -27685   -27715 
  -27635   -27512   -27384   -27311   -27410   -27615   -27729   -27698 
  -27583   -27481   -27481   -27552   -27583   -27515   -27381   -27263 
  -27245   -27331   -27445   -27519   -27556   -27590   -27600   -27521 
  -27379   -27308   -27364   -27486   -27630   -27780   -27878   -27843 
  -27644   -27381   -27273   -27442   -27705   -27767   -27594   -27395 
  -27342   -27438   -27558   -27564   -27436   -27296   -27237   -27244 
  -27276   -27310   -27329   -27372   -27517   -27742   -27912   -27929 
  -27810   -27630   -27440   -27272   -27186   -27265   -27449   -27553 
  -27540   -27521   -27522   -27507   -27512   -27570   -27636   -27659 
  -27637   -27595   -27562   -27581   -27613   -27521   -27297   -27121 
  -27129   -27309   -27516   -27553   -27426   -27335   -27397   -27560 
  -27700   -27721   -27667   -27630   -27574   -27460   -27370   -27396 
  -27527   -27645   -27644   -27554   -27468   -27438   -27446   -27445 
  -27448   -27467   -27446   -27412   -27464   -27551   -27587   -27607 
  -27597   -27513   -27458   -27519   -27601   -27607   -27553   -27456 
  -27327   -27212   -27172   -27262   -27467   -27674   -27785   -27782 
  -27728   -27687   -27621   -27473   -27292   -27187   -27215   -27357 
  -27553   -27724   -27778   -27704   -27540   -27304   -27084   -27029 
  -27188   -27468   -27722   -27821   -27756   -27654   -27630   -27634 
  -27567   -27446   -27345   -27317   -27408   -27637   -27898   -27990 
  -27842   -27590   -27394   -27275   -27178   -27090   -27073   -27186 
  -27377   -27502   -27486   -27404   -27407   -27551   -27746   -27888 
  -27937   -27879   -27727   -27557   -27475   -27496   -27523   -27461 
  -27320   -27201   -27166   -27202   -27337   -27576   -27736   -27670 
  -27489   -27393   -27464   -27623   -27680   -27537   -27344   -27298 
  -27416   -27566   -27626   -27557   -27409   -27313   -27358   -27497 
  -27627   -27700   -27718   -27725   -27739   -27715   -27591   -27371 
  -27160   -27041   -27014   -27101   -27331   -27610   -27792   -27810 
  -27694   -27583   -27601   -27704   -27758   -27706   -27559   -27367 
  -27236   -27257   -27412   -27575   -27639   -27615   -27567   -27539 
  -27527   -27470   -27374   -27344   -27409   -27516   -27634   -27693 
  -27631   -27512   -27435   -27393   -27322   -27223   -27190   -27310 
  -27560   -27794   -27858   -27753   -27605   -27482   -27380   -27309 
  -27309   -27415   -27590   -27742   -27826   -27836   -27711   -27436 
  -27169   -27074   -27164   -27352   -27484   -27465   -27403   -27421 
  -27487   -27508   -27464   -27431   -27481   -27565   -27598   -27591 
  -27618   -27699   -27752   -27701   -27553   -27377   -27238   -27175 
  -27205   -27313   -27481   -27717   -27955   -28060   -27973   -27741 
  -27465   -27284   -27266   -27329   -27372   -27382   -27354   -27318 
  -27359   -27465   -27542   -27522   -27395   -27279   -27372   -27677 
  -27945   -27993   -27862   -27657   -27436   -27236   -27082   -27026 
  -27110   -27282   -27437   -27519   -27532   -27490   -27442   -27467 
  -27577   -27726   -27862   -27931   -27914   -27826   -27672   -27496 
  -27355   -27221   -27088   -27048   -27133   -27290   -27467   -27583 
  -27577   -27526   -27553   -27630   -27623   -27510   -27426   -27464 
  -27565   -27659   -27738   -27748   -27610   -27418   -27369   -27497 
  -27663   -27726   -27668   -27595   -27588   -27593   -27521   -27401 
  -27308   -27246   -27191   -27167   -27211   -27321   -27463   -27570 
  -27597   -27579   -27587   -27623   -27633   -27614   -27612   -27637 
  -27646   -27606   -27549   -27556   -27638   -27683   -27607   -27460 
  -27326   -27253   -27284   -27378   -27392   -27296   -27232   -27307 
  -27478   -27613   -27619   -27519   -27408   -27398   -27548   -27761 
  -27862   -27786   -27593   -27374   -27207   -27148   -27200   -27310 
  -27437   -27565   -27656   -27661   -27611   -27585   -27599   -27627 
  -27655   -27663   -27623   -27538   -27423   -27303   -27240   -27286 
  -27412   -27529   -27568   -27534   -27490   -27505   -27575   -27634 
  -27652   -27638   -27595   -27548   -27508   -27437   -27337   -27257 
  -27239   -27290   -27382   -27499   -27627   -27695   -27684   -27668 
  -27655   -27572   -27417   -27277   -27266   -27431   -27679   -27823 
  -27765   -27593   -27458   -27415   -27443   -27480   -27462   -27414 
  -27428   -27512   -27558   -27485   -27330   -27210   -27210   -27323 
  -27499   -27685   -27805   -27759   -27568   -27430   -27455   -27520 
  -27506   -27427   -27343   -27343   -27481   -27657   -27711   -27628 
  -27529   -27500   -27525   -27510   -27380   -27222   -27210   -27394 
  -27641   -27775   -27740   -27620   -27523   -27497   -27516   -27508 
  -27447   -27405   -27486   -27657   -27752   -27688   -27557   -27462 
  -27443   -27498   -27542   -27480   -27370   -27361   -27474   -27596 
  -27612   -27467   -27221   -27080   -27189   -27410   -27513   -27473 
  -27430   -27507   -27679   -27779   -27709   -27554   -27467   -27485 
  -27517   -27506   -27477   -27446   -27420   -27450   -27550   -27625 
  -27589   -27477   -27380   -27350   -27380   -27451   -27560   -27693 
  -27808   -27857   -27802   -27675   -27551   -27459   -27399   -27362 
  -27293   -27182   -27140   -27246   -27434   -27579   -27630   -27627 
  -27612   -27594   -27553   -27451   -27324   -27284   -27335   -27375 
  -27369   -27372   -27407   -27479   -27603   -27741   -27801   -27746 
  -27664   -27683   -27775   -27776   -27599   -27340   -27213   -27322 
  -27510   -27547   -27411   -27275   -27244   -27305   -27417   -27516 
  -27554   -27580   -27630   -27636   -27562   -27488   -27470   -27465 
  -27483   -27571   -27628   -27532   -27379   -27337   -27413   -27482 
  -27459   -27393   -27371   -27415   -27503   -27612   -27715   -27778 
  -27751   -27664   -27624   -27630   -27558   -27396   -27288   -27339 
  -27475   -27551   -27529   -27498   -27507   -27514   -27468   -27368 
  -27281   -27299   -27398   -27472   -27533   -27660   -27805   -27829 
  -27686   -27496   -27405   -27414   -27429   -27396   -27305   -27231 
  -27259   -27364   -27472   -27535   -27562   -27645   -27791   -27846 
  -27713   -27492   -27353   -27323   -27332   -27399   -27557   -27693 
  -27653   -27426   -27210   -27227   -27427   -27562   -27574   -27579 
  -27599   -27602   -27605   -27604   -27578   -27551   -27510   -27400 
  -27267   -27223   -27288   -27381   -27440   -27498   -27582   -27662 
  -27750   -27850   -27868   -27734   -27526   -27403   -27426   -27458 
  -27321   -27058   -26925   -27052   -27319   -27591   -27792   -27828 
  -27697   -27575   -27633   -27824   -27919   -27768   -27461   -27214 
  -27161   -27272   -27421   -27493   -27448   -27341   -27251   -27234 
  -27337   -27551   -27748   -27807   -27781   -27793   -27812   -27733 
  -27563   -27405   -27334   -27344   -27364   -27344   -27297   -27252 
  -27259   -27378   -27560   -27677   -27695   -27682   -27696   -27741 
  -27751   -27667   -27537   -27414   -27275   -27151   -27139   -27242 
  -27359   -27412   -27412   -27431   -27547   -27721   -27809   -27749 
  -27651   -27628   -27662   -27695   -27705   -27656   -27538   -27407 
  -27287   -27197   -27196   -27250   -27256   -27243   -27340   -27536 
  -27652   -27609   -27554   -27605   -27697   -27732   -27704   -27678 
  -27688   -27706   -27705   -27620   -27374   -27083   -27008   -27210 
  -27492   -27656   -27615   -27408   -27245   -27314   -27514   -27601 
  -27551   -27555   -27696   -27853   -27888   -27757   -27494   -27219 
  -27080   -27135   -27311   -27438   -27395   -27274   -27260   -27375 
  -27509   -27611   -27680   -27745   -27875   -28024   -28049   -27913 
  -27715   -27571   -27490   -27369   -27171   -26970   -26858   -26922 
  -27193   -27551   -27823   -27918   -27856   -27787   -27797   -27738 
  -27499   -27216   -27085   -27198   -27507   -27795   -27823   -27564 
  -27214   -26982   -26964   -27161   -27472   -27730   -27812   -27700 
  -27541   -27526   -27617   -27630   -27528   -27389   -27293   -27296 
  -27382   -27489   -27570   -27595   -27543   -27427   -27310   -27272 
  -27368   -27557   -27702   -27714   -27648   -27606   -27628   -27721 
  -27848   -27893   -27768   -27558   -27414   -27418   -27557   -27721 
  -27797   -27737   -27550   -27346   -27243   -27192   -27077   -26975 
  -27056   -27303   -27545   -27653   -27607   -27493   -27405   -27326 
  -27211   -27101   -27080   -27209   -27474   -27761   -27921   -27885 
  -27767   -27753   -27824   -27793   -27606   -27377   -27206   -27149 
  -27248   -27426   -27510   -27511   -27580   -27692   -27697   -27580 
  -27456   -27381   -27339   -27317   -27309   -27280   -27231   -27244 
  -27385   -27632   -27911   -28107   -28159   -28151   -28136   -28038 
  -27823   -27532   -27230   -27014   -26950   -27012   -27094   -27088 
  -26982   -26872   -26876   -27033   -27305   -27619   -27922   -28195 
  -28431   -28536   -28323   -27779   -27214   -26929   -26941   -27111 
  -27317   -27492   -27596   -27619   -27594   -27582   -27613   -27626 
  -27541   -27425   -27420   -27558   -27738   -27802   -27701   -27586 
  -27560   -27497   -27301   -27125   -27162   -27401   -27653   -27764 
  -27768   -27767   -27715   -27538   -27309   -27132   -27014   -26936 
  -26903   -26963   -27165   -27423   -27609   -27774   -28044   -28393 
  -28621   -28536   -28168   -27743   -27412   -27165   -26975   -26834 
  -26705   -26578   -26570   -26871   -27463   -28000   -28184   -28130 
  -28099   -28114   -28013   -27691   -27215   -26788   -26554   -26489 
  -26503   -26575   -26740   -27010   -27362   -27787   -28226   -28500 
  -28493   -28304   -28129   -28104   -28178   -28183   -28092   -27969 
  -27777   -27511   -27281   -27126   -27019   -26955   -26873   -26725 
  -26587   -26484   -26408   -26519   -26929   -27441   -27797   -27985 
  -28134   -28293   -28410   -28377   -28144   -27861   -27714   -27700 
  -27708   -27619   -27310   -26872   -26627   -26717   -26990   -27281 
  -27542   -27786   -28081   -28401   -28553   -28441   -28211   -28008 
  -27827   -27625   -27367   -27056   -26831   -26823   -26955   -27056 
  -27095   -27154   -27281   -27441   -27571   -27677   -27785   -27825 
  -27710   -27478   -27202   -26924   -26684   -26513   -26464   -26601 
  -26900   -27292   -27740   -28155   -28388   -28401   -28314   -28231 
  -28154   -28073   -28054   -28152   -28293   -28327   -28180   -27924 
  -27684   -27481   -27209   -26824   -26412   -26081   -25914   -25942 
  -26083   -26241   -26452   -26782   -27231   -27751   -28295   -28825 
  -29226   -29321   -29031   -28461   -27866   -27494   -27332   -27150 
  -26882   -26725   -26814   -27047   -27284   -27472   -27646   -27867 
  -28063   -28070   -27877   -27650   -27542   -27560   -27578   -27488 
  -27364   -27375   -27575   -27846   -27978   -27869   -27638   -27425 
  -27236   -27055   -26862   -26611   -26404   -26435   -26713   -27109 
  -27510   -27847   -28117   -28313   -28380   -28274   -27985   -27566 
  -27175   -26999   -27076   -27229   -27250   -27158   -27157   -27397 
  -27825   -28173   -28206   -28048   -28002   -28077   -28050   -27840 
  -27565   -27385   -27358   -27350   -27212   -27006   -26886   -26894 
  -26955   -27017   -27100   -27187   -27244   -27320   -27405   -27431 
  -27439   -27489   -27594   -27783   -28039   -28251   -28385   -28447 
  -28353   -28072   -27721   -27440   -27291   -27197   -27040   -26858 
  -26795   -26914   -27158   -27424   -27629   -27722   -27696   -27631 
  -27623   -27676   -27674   -27501   -27215   -27035   -27086   -27230 
  -27276   -27242   -27268   -27421   -27657   -27835   -27819   -27653 
  -27523   -27542   -27662   -27769   -27776   -27671   -27561   -27548 
  -27577   -27535   -27430   -27358   -27367   -27421   -27477   -27526 
  -27570   -27595   -27551   -27418   -27284   -27229   -27207   -27157 
  -27133   -27216   -27417   -27675   -27896   -28037   -28110   -28120 
  -28088   -28022   -27886   -27653   -27314   -26945   -26745   -26836 
  -27076   -27217   -27211   -27196   -27282   -27499   -27770   -27940 
  -27950   -27881   -27826   -27838   -27878   -27870   -27802   -27682 
  -27518   -27332   -27111   -26885   -26759   -26756   -26836   -26990 
  -27153   -27222   -27255   -27379   -27596   -27834   -28029   -28137 
  -28170   -28134   -27999   -27809   -27663   -27579   -27533   -27521 
  -27531   -27524   -27451   -27316   -27204   -27207   -27315   -27400 
  -27383   -27330   -27331   -27402   -27488   -27491   -27406   -27328 
  -27293   -27278   -27279   -27284   -27300   -27385   -27548   -27740 
  -27946   -28146   -28259   -28221   -28055   -27845   -27655   -27502 
  -27352   -27156   -26939   -26787   -26737   -26774   -26911   -27164 
  -27467   -27704   -27808   -27800   -27750   -27696   -27622   -27537 
  -27520   -27615   -27764   -27852   -27814   -27686   -27547   -27473 
  -27519   -27662   -27776   -27730   -27523   -27305   -27189   -27145 
  -27156   -27230   -27277   -27244   -27197   -27177   -27201   -27317 
  -27476   -27537   -27485   -27447   -27527   -27701   -27855   -27930 
  -27974   -28014   -27992   -27890   -27758   -27654   -27598   -27529 
  -27373   -27204   -27116   -27070   -27036   -27054   -27097   -27100 
  -27091   -27152   -27330   -27593   -27841   -27984   -28039   -28067 
  -28038   -27888   -27652   -27427   -27310   -27342   -27458   -27566 
  -27639   -27670   -27684   -27743   -27835   -27851   -27743   -27591 
  -27476   -27413   -27358   -27204   -26934   -26716   -26719   -26938 
  -27252   -27537   -27677   -27614   -27498   -27548   -27741   -27880 
  -27858   -27672   -27391   -27169   -27095   -27098   -27106   -27120 
  -27147   -27234   -27434   -27683   -27867   -27964   -27992   -27928 
  -27801   -27675   -27541   -27379   -27250   -27224   -27302   -27434 
  -27560   -27640   -27687   -27767   -27896   -27987   -27958   -27814 
  -27632   -27538   -27588   -27656   -27585   -27378   -27175   -27104 
  -27167   -27242   -27215   -27106   -27019   -27010   -27076   -27196 
  -27329   -27436   -27524   -27626   -27766   -27958   -28154   -28219 
  -28075   -27824   -27607   -27460   -27371   -27312   -27261   -27279 
  -27434   -27642   -27760   -27751   -27662   -27536   -27363   -27123 
  -26898   -26812   -26902   -27121   -27368   -27532   -27588   -27621 
  -27721   -27895   -28051   -28089   -27988   -27812   -27678   -27661 
  -27671   -27576   -27398   -27231   -27114   -27084   -27145   -27264 
  -27430   -27600   -27696   -27737   -27794   -27829   -27727   -27482 
  -27237   -27113   -27081   -27097   -27182   -27325   -27464   -27533 
  -27480   -27358   -27329   -27470   -27698   -27872   -27886   -27759 
  -27607   -27481   -27367   -27306   -27343   -27430   -27499   -27514 
  -27491   -27514   -27631   -27762   -27802   -27737   -27615   -27504 
  -27439   -27402   -27379   -27374   -27408   -27502   -27590   -27579 
  -27464   -27276   -27043   -26858   -26816   -26937   -27186   -27513 
  -27822   -28027   -28155   -28263   -28266   -28065   -27733   -27401 
  -27148   -27036   -27051   -27084   -27093   -27149   -27291   -27491 
  -27722   -27954   -28108   -28142   -28098   -28032   -27967   -27875 
  -27696   -27436   -27162   -26931   -26797   -26798   -26906   -27076 
  -27306   -27557   -27741   -27855   -27954   -28009   -27975   -27854 
  -27643   -27374   -27129   -26993   -27010   -27116   -27195   -27228 
  -27296   -27459   -27678   -27821   -27813   -27729   -27630   -27506 
  -27375   -27276   -27222   -27258   -27385   -27513   -27586   -27633 
  -27709   -27817   -27887   -27853   -27713   -27537   -27439   -27456 
  -27505   -27507   -27430   -27287   -27159   -27153   -27268   -27352 
  -27271   -27114   -27080   -27218   -27445   -27649   -27709   -27621 
  -27550   -27614   -27762   -27873   -27863   -27749   -27669   -27727 
  -27838   -27836   -27693   -27516   -27396   -27362   -27387   -27413 
  -27407   -27398   -27409   -27409   -27368   -27340   -27378   -27432 
  -27430   -27398   -27395   -27433   -27494   -27574   -27676   -27739 
  -27683   -27539   -27419   -27397   -27462   -27508   -27426   -27232 
  -27078   -27082   -27231   -27440   -27600   -27659   -27694   -27805 
  -27968   -28073   -28043   -27911   -27764   -27634   -27499   -27354 
  -27226   -27151   -27152   -27210   -27280   -27356   -27452   -27527 
  -27523   -27474   -27478   -27565   -27632   -27572   -27462   -27427 
