Origin Time       2025/03/28 03:50:00
Lat.              35.403
Long.             140.360
Depth. (km)       54
Mag.              4.4
Station Code      YMNH16
Station Lat.      35.7421
Station Long.     138.5653
Station Height(m) 595
Record Time       2025/03/28 03:51:21
Sampling Freq(Hz) 100Hz
Duration Time(s)  120
Dir.              5
Scale Factor      7845(gal)/8223790
Max. Acc. (gal)   0.902
Last Correction   2025/03/28 03:51:21
Memo.             
[...]
   -2430    -2523    -2573    -2492    -2365    -2355    -2446    -2493 
   -2467    -2479    -2516    -2511    -2498    -2481    -2465    -2474 
   -2461    -2405    -2380    -2412    -2454    -2474    -2511    -2575 
   -2577    -2490    -2454    -2462    -2427    -2430    -2471    -2448 
   -2419    -2450    -2470    -2428    -2389    -2390    -2421    -2493 
   -2511    -2444    -2432    -2484    -2521    -2559    -2579    -2529 
   -2458    -2435    -2420    -2398    -2448    -2540    -2550    -2486 
   -2447    -2448    -2484    -2515    -2479    -2427    -2413    -2430 
   -2470    -2493    -2461    -2415    -2424    -2498    -2533    -2469 
   -2380    -2361    -2438    -2532    -2521    -2444    -2447    -2490 
   -2471    -2461    -2485    -2446    -2405    -2478    -2517    -2438 
   -2408    -2494    -2548    -2477    -2382    -2382    -2458    -2536 
   -2550    -2482    -2432    -2465    -2504    -2496    -2508    -2511 
   -2447    -2475    -2585    -2506    -2326    -2316    -2434    -2484 
   -2428    -2412    -2484    -2523    -2506    -2490    -2450    -2430 
   -2482    -2502    -2463    -2466    -2493    -2504    -2535    -2544 
   -2489    -2434    -2424    -2416    -2381    -2381    -2435    -2462 
   -2443    -2461    -2519    -2535    -2509    -2478    -2467    -2457 
   -2412    -2378    -2384    -2416    -2471    -2509    -2535    -2550 
   -2492    -2432    -2465    -2481    -2411    -2388    -2451    -2477 
   -2486    -2559    -2639    -2632    -2528    -2401    -2342    -2346 
   -2369    -2393    -2403    -2416    -2515    -2624    -2590    -2477 
   -2425    -2416    -2397    -2398    -2438    -2458    -2430    -2470 
   -2613    -2667    -2571    -2423    -2281    -2280    -2428    -2512 
   -2478    -2461    -2481    -2493    -2498    -2498    -2505    -2517 
   -2466    -2390    -2394    -2431    -2461    -2515    -2525    -2497 
   -2529    -2536    -2434    -2357    -2397    -2493    -2506    -2413 
   -2366    -2412    -2457    -2484    -2531    -2566    -2539    -2463 
   -2401    -2396    -2419    -2416    -2412    -2469    -2579    -2635 
   -2550    -2419    -2400    -2459    -2481    -2465    -2417    -2392 
   -2438    -2482    -2498    -2544    -2560    -2498    -2425    -2407 
   -2415    -2398    -2384    -2405    -2432    -2471    -2540    -2542 
   -2485    -2502    -2551    -2509    -2427    -2376    -2362    -2423 
   -2506    -2525    -2540    -2566    -2515    -2434    -2397    -2398 
   -2413    -2398    -2392    -2496    -2606    -2566    -2497    -2515 
   -2527    -2484    -2424    -2386    -2394    -2388    -2361    -2427 
   -2559    -2600    -2535    -2454    -2425    -2454    -2412    -2308 
   -2332    -2451    -2535    -2609    -2641    -2601    -2538    -2439 
   -2334    -2309    -2361    -2411    -2432    -2467    -2555    -2619 
   -2577    -2528    -2538    -2465    -2336    -2334    -2394    -2388 
   -2396    -2498    -2602    -2624    -2605    -2559    -2443    -2339 
   -2335    -2358    -2340    -2346    -2443    -2539    -2571    -2601 
   -2565    -2452    -2435    -2462    -2363    -2278    -2366    -2489 
   -2540    -2589    -2635    -2600    -2505    -2454    -2481    -2448 
   -2331    -2296    -2366    -2450    -2546    -2612    -2583    -2528 
   -2485    -2405    -2344    -2355    -2384    -2425    -2478    -2502 
   -2523    -2551    -2552    -2532    -2505    -2467    -2411    -2342 
   -2339    -2436    -2513    -2546    -2602    -2608    -2506    -2411 
   -2398    -2405    -2380    -2365    -2377    -2411    -2493    -2600 
   -2651    -2604    -2524    -2462    -2371    -2297    -2328    -2400 
   -2454    -2555    -2650    -2600    -2477    -2394    -2344    -2319 
   -2358    -2431    -2438    -2413    -2459    -2555    -2617    -2589 
   -2529    -2469    -2382    -2342    -2353    -2349    -2374    -2479 
   -2586    -2594    -2560    -2556    -2511    -2421    -2390    -2427 
   -2481    -2500    -2496    -2520    -2529    -2513    -2535    -2542 
   -2451    -2343    -2312    -2346    -2408    -2440    -2420    -2473 
   -2610    -2656    -2559    -2473    -2443    -2400    -2398    -2451 
   -2457    -2438    -2452    -2459    -2479    -2540    -2548    -2473 
   -2394    -2353    -2367    -2424    -2479    -2538    -2569    -2544 
   -2525    -2502    -2413    -2344    -2367    -2384    -2386    -2451 
   -2501    -2486    -2492    -2535    -2544    -2505    -2471    -2421 
   -2338    -2334    -2436    -2520    -2535    -2551    -2574    -2547 
   -2479    -2436    -2423    -2359    -2281    -2349    -2509    -2605 
   -2625    -2594    -2525    -2469    -2417    -2378    -2400    -2420 
   -2380    -2374    -2473    -2583    -2608    -2570    -2542    -2502 
   -2403    -2300    -2273    -2336    -2442    -2497    -2513    -2598 
   -2714    -2702    -2536    -2362    -2286    -2259    -2270    -2359 
   -2465    -2533    -2587    -2632    -2604    -2516    -2467    -2428 
   -2361    -2327    -2362    -2438    -2484    -2505    -2585    -2647 
   -2573    -2416    -2289    -2259    -2334    -2413    -2461    -2538 
   -2612    -2616    -2567    -2517    -2484    -2455    -2415    -2380 
   -2371    -2381    -2405    -2469    -2562    -2624    -2602    -2532 
   -2462    -2358    -2262    -2280    -2384    -2451    -2490    -2565 
   -2613    -2600    -2574    -2539    -2463    -2370    -2339    -2369 
   -2394    -2423    -2485    -2560    -2609    -2587    -2485    -2396 
   -2385    -2369    -2346    -2411    -2506    -2501    -2459    -2520 
   -2605    -2578    -2455    -2350    -2343    -2371    -2385    -2447 
   -2512    -2500    -2474    -2509    -2579    -2581    -2485    -2400 
   -2359    -2335    -2409    -2523    -2508    -2469    -2535    -2562 
   -2469    -2396    -2390    -2396    -2428    -2490    -2504    -2482 
   -2496    -2519    -2533    -2552    -2502    -2396    -2346    -2388 
   -2443    -2452    -2488    -2573    -2592    -2512    -2439    -2450 
   -2473    -2413    -2378    -2457    -2501    -2440    -2415    -2496 
   -2554    -2500    -2439    -2439    -2417    -2384    -2428    -2493 
   -2516    -2547    -2552    -2502    -2465    -2432    -2380    -2389 
   -2467    -2463    -2386    -2401    -2474    -2461    -2428    -2494 
   -2567    -2516    -2413    -2405    -2448    -2434    -2431    -2470 
   -2478    -2485    -2509    -2493    -2471    -2508    -2539    -2497 
   -2463    -2470    -2431    -2378    -2425    -2500    -2504    -2512 
   -2547    -2506    -2412    -2436    -2531    -2497    -2415    -2404 
   -2408    -2440    -2502    -2482    -2440    -2520    -2608    -2533 
   -2394    -2346    -2373    -2361    -2332    -2400    -2533    -2632 
   -2662    -2583    -2432    -2357    -2388    -2411    -2419    -2457 
   -2462    -2431    -2430    -2469    -2505    -2546    -2574    -2516 
   -2407    -2347    -2359    -2416    -2502    -2596    -2628    -2559 
   -2471    -2447    -2446    -2424    -2430    -2471    -2479    -2439 
   -2436    -2498    -2528    -2521    -2550    -2517    -2389    -2331 
   -2376    -2385    -2388    -2451    -2496    -2502    -2501    -2504 
   -2504    -2486    -2482    -2473    -2407    -2343    -2367    -2450 
   -2523    -2587    -2620    -2562    -2450    -2376    -2386    -2403 
   -2378    -2389    -2407    -2401    -2451    -2544    -2602    -2579 
   -2479    -2412    -2446    -2493    -2452    -2382    -2405    -2493 
   -2547    -2555    -2512    -2447    -2432    -2452    -2448    -2408 
   -2394    -2420    -2436    -2498    -2604    -2621    -2556    -2504 
   -2459    -2405    -2378    -2401    -2436    -2435    -2419    -2439 
   -2484    -2508    -2511    -2512    -2509    -2474    -2423    -2409 
   -2424    -2436    -2454    -2475    -2492    -2508    -2502    -2452 
   -2417    -2446    -2473    -2442    -2419    -2463    -2497    -2459 
   -2469    -2547    -2536    -2457    -2458    -2486    -2454    -2440 
   -2448    -2396    -2377    -2465    -2506    -2446    -2467    -2543 
   -2489    -2451    -2531    -2529    -2451    -2457    -2474    -2415 
   -2421    -2533    -2569    -2478    -2419    -2467    -2516    -2494 
   -2465    -2442    -2420    -2469    -2548    -2498    -2357    -2305 
   -2347    -2412    -2467    -2497    -2521    -2508    -2443    -2415 
   -2447    -2473    -2425    -2376    -2465    -2574    -2506    -2401 
   -2451    -2548    -2538    -2482    -2479    -2481    -2448    -2396 
   -2382    -2475    -2571    -2546    -2482    -2459    -2434    -2423 
   -2440    -2451    -2458    -2466    -2484    -2506    -2471    -2444 
   -2509    -2566    -2533    -2443    -2362    -2358    -2397    -2448 
   -2521    -2566    -2555    -2509    -2434    -2401    -2458    -2489 
   -2434    -2403    -2461    -2535    -2525    -2458    -2444    -2473 
   -2469    -2465    -2465    -2434    -2411    -2409    -2405    -2461 
   -2571    -2543    -2394    -2349    -2378    -2397    -2467    -2543 
   -2540    -2485    -2466    -2529    -2558    -2482    -2420    -2405 
   -2369    -2390    -2484    -2479    -2436    -2515    -2587    -2551 
   -2492    -2444    -2403    -2396    -2428    -2471    -2489    -2494 
   -2500    -2467    -2442    -2488    -2505    -2434    -2376    -2382 
   -2397    -2392    -2465    -2624    -2671    -2585    -2559    -2535 
   -2392    -2292    -2344    -2436    -2479    -2471    -2431    -2423 
   -2477    -2516    -2539    -2566    -2509    -2384    -2335    -2384 
   -2463    -2538    -2565    -2542    -2504    -2454    -2421    -2401 
   -2358    -2374    -2479    -2548    -2520    -2408    -2313    -2398 
   -2587    -2640    -2546    -2455    -2394    -2378    -2443    -2520 
   -2524    -2463    -2413    -2440    -2471    -2432    -2420    -2469 
   -2470    -2461    -2501    -2488    -2420    -2407    -2443    -2496 
   -2506    -2434    -2419    -2504    -2513    -2474    -2524    -2562 
   -2520    -2484    -2438    -2389    -2394    -2434    -2490    -2523 
   -2497    -2484    -2505    -2496    -2471    -2467    -2440    -2390 
   -2366    -2382    -2458    -2558    -2596    -2560    -2484    -2394 
   -2369    -2442    -2493    -2451    -2435    -2465    -2463    -2473 
   -2511    -2497    -2412    -2346    -2371    -2447    -2494    -2486 
   -2463    -2470    -2508    -2547    -2538    -2492    -2457    -2385 
   -2346    -2457    -2562    -2504    -2452    -2505    -2498    -2436 
   -2457    -2492    -2454    -2384    -2392    -2473    -2482    -2462 
   -2556    -2609    -2492    -2408    -2438    -2425    -2366    -2401 
   -2516    -2548    -2470    -2439    -2498    -2506    -2424    -2381 
   -2436    -2489    -2501    -2513    -2506    -2481    -2446    -2427 
   -2478    -2533    -2478    -2381    -2363    -2407    -2451    -2509 
   -2578    -2590    -2488    -2355    -2373    -2477    -2494    -2470 
   -2444    -2404    -2435    -2520    -2546    -2528    -2490    -2412 
   -2384    -2435    -2452    -2420    -2404    -2436    -2502    -2548 
   -2548    -2512    -2434    -2359    -2377    -2484    -2542    -2500 
   -2446    -2435    -2459    -2463    -2463    -2508    -2525    -2496 
   -2454    -2394    -2388    -2442    -2465    -2474    -2504    -2496 
   -2470    -2494    -2513    -2489    -2475    -2465    -2455    -2454 
   -2466    -2497    -2490    -2448    -2455    -2481    -2457    -2446 
   -2477    -2455    -2411    -2427    -2466    -2486    -2500    -2529 
   -2551    -2504    -2408    -2361    -2393    -2440    -2440    -2419 
   -2430    -2465    -2489    -2501    -2489    -2467    -2458    -2450 
   -2466    -2501    -2498    -2452    -2417    -2435    -2484    -2524 
   -2528    -2485    -2419    -2377    -2404    -2489    -2535    -2498 
   -2454    -2455    -2473    -2501    -2531    -2494    -2434    -2452 
   -2505    -2484    -2439    -2447    -2463    -2478    -2516    -2509 
   -2444    -2411    -2459    -2523    -2501    -2431    -2417    -2454 
   -2477    -2470    -2423    -2359    -2357    -2427    -2478    -2470 
   -2455    -2450    -2421    -2404    -2454    -2525    -2524    -2459 
   -2398    -2363    -2373    -2438    -2511    -2544    -2515    -2439 
   -2407    -2446    -2516    -2554    -2517    -2478    -2502    -2555 
   -2582    -2583    -2600    -2620    -2631    -2619    -2555    -2494 
   -2489    -2492    -2452    -2371    -2258    -2153    -2104    -2091 
   -2085    -2099    -2141    -2226    -2346    -2477    -2619    -2774 
   -2926    -3049    -3091    -2999    -2824    -2640    -2469    -2320 
   -2205    -2165    -2220    -2295    -2343    -2400    -2448    -2471 
   -2493    -2497    -2461    -2419    -2371    -2324    -2366    -2477 
   -2509    -2448    -2419    -2427    -2353    -2209    -2158    -2245 
   -2361    -2440    -2525    -2644    -2741    -2785    -2840    -2932 
   -2887    -2554    -2106    -1831    -1809    -1931    -2164    -2528 
   -2910    -3140    -3187    -3105    -2899    -2601    -2330    -2176 
   -2147    -2255    -2469    -2659    -2791    -2890    -2870    -2671 
   -2401    -2170    -1927    -1667    -1568    -1713    -1975    -2253 
   -2550    -2847    -3029    -2976    -2728    -2442    -2263    -2273 
   -2428    -2650    -2895    -3007    -2768    -2349    -2185    -2304 
   -2338    -2149    -1992    -2160    -2592    -3002    -3227    -3188 
   -2822    -2303    -1958    -1898    -1953    -2002    -2127    -2378 
   -2593    -2709    -2855    -2947    -2755    -2400    -2150    -2018 
   -1985    -2205    -2675    -3071    -3136    -3022    -2918    -2679 
   -2241    -1822    -1583    -1520    -1638    -1989    -2538    -3036 
   -3262    -3268    -3133    -2829    -2512    -2401    -2355    -2174 
   -2010    -2068    -2320    -2620    -2782    -2658    -2355    -2242 
   -2467    -2704    -2641    -2390    -2118    -1915    -2000    -2396 
   -2767    -2898    -2891    -2825    -2581    -2192    -1981    -2130 
   -2431    -2671    -2839    -2926    -2914    -2776    -2470    -2169 
   -2165    -2370    -2457    -2384    -2317    -2350    -2452    -2539 
   -2581    -2539    -2405    -2385    -2527    -2581    -2466    -2382 
   -2463    -2587    -2598    -2536    -2452    -2308    -2192    -2272 
   -2474    -2516    -2326    -2223    -2343    -2409    -2393    -2563 
   -2791    -2740    -2488    -2340    -2293    -2142    -2053    -2299 
   -2624    -2658    -2539    -2562    -2664    -2652    -2566    -2606 
   -2754    -2714    -2455    -2253    -2220    -2315    -2481    -2539 
   -2420    -2369    -2486    -2533    -2412    -2293    -2277    -2319 
   -2393    -2551    -2778    -2866    -2671    -2423    -2415    -2517 
   -2424    -2227    -2261    -2484    -2602    -2587    -2577    -2632 
   -2705    -2708    -2613    -2481    -2343    -2228    -2197    -2227 
   -2268    -2339    -2413    -2416    -2376    -2397    -2458    -2412 
   -2290    -2295    -2447    -2529    -2481    -2519    -2687    -2710 
   -2511    -2376    -2434    -2523    -2527    -2462    -2430    -2502 
   -2579    -2587    -2608    -2686    -2739    -2643    -2436    -2324 
   -2376    -2486    -2566    -2520    -2330    -2176    -2184    -2288 
   -2434    -2554    -2547    -2417    -2295    -2328    -2482    -2544 
   -2450    -2367    -2403    -2481    -2501    -2409    -2313    -2389 
   -2523    -2520    -2515    -2639    -2708    -2587    -2463    -2542 
   -2706    -2666    -2401    -2184    -2141    -2196    -2332    -2554 
   -2724    -2729    -2627    -2520    -2398    -2253    -2220    -2380 
   -2538    -2489    -2377    -2436    -2546    -2505    -2452    -2582 
   -2720    -2566    -2236    -2130    -2289    -2466    -2573    -2667 
   -2770    -2824    -2744    -2539    -2320    -2197    -2182    -2228 
   -2320    -2463    -2589    -2560    -2408    -2382    -2539    -2647 
   -2594    -2462    -2289    -2139    -2166    -2346    -2484    -2554 
   -2590    -2515    -2365    -2301    -2343    -2373    -2393    -2501 
   -2590    -2573    -2620    -2722    -2679    -2594    -2647    -2705 
   -2612    -2411    -2263    -2278    -2371    -2461    -2578    -2631 
   -2544    -2444    -2388    -2339    -2326    -2359    -2400    -2415 
   -2413    -2404    -2376    -2355    -2398    -2506    -2575    -2529 
   -2452    -2467    -2574    -2637    -2577    -2474    -2434    -2423 
   -2354    -2311    -2421    -2559    -2533    -2473    -2583    -2772 
   -2820    -2660    -2376    -2161    -2116    -2149    -2243    -2421 
   -2539    -2554    -2582    -2624    -2594    -2504    -2423    -2384 
   -2392    -2436    -2497    -2519    -2474    -2473    -2570    -2625 
   -2543    -2409    -2323    -2269    -2227    -2263    -2397    -2538 
   -2608    -2624    -2616    -2587    -2528    -2415    -2320    -2331 
   -2396    -2465    -2528    -2542    -2505    -2471    -2465    -2465 
   -2454    -2408    -2339    -2324    -2401    -2559    -2752    -2859 
   -2821    -2720    -2600    -2430    -2238    -2107    -2134    -2330 
   -2490    -2494    -2446    -2421    -2436    -2467    -2452    -2412 
   -2398    -2382    -2370    -2398    -2435    -2463    -2513    -2562 
   -2569    -2536    -2465    -2361    -2282    -2307    -2436    -2540 
   -2547    -2563    -2667    -2763    -2756    -2674    -2567    -2434 
   -2312    -2259    -2249    -2255    -2296    -2349    -2424    -2532 
   -2578    -2496    -2371    -2320    -2365    -2465    -2536    -2504 
   -2421    -2420    -2513    -2569    -2516    -2432    -2428    -2494 
   -2533    -2535    -2554    -2573    -2538    -2501    -2574    -2679 
   -2654    -2525    -2408    -2312    -2255    -2262    -2286    -2330 
   -2430    -2509    -2482    -2444    -2482    -2490    -2405    -2320 
   -2331    -2432    -2555    -2650    -2695    -2685    -2579    -2384 
   -2250    -2305    -2421    -2432    -2424    -2509    -2583    -2556 
   -2529    -2551    -2508    -2357    -2242    -2299    -2446    -2538 
   -2570    -2581    -2544    -2470    -2458    -2498    -2452    -2339 
   -2304    -2381    -2501    -2594    -2597    -2538    -2519    -2531 
   -2489    -2415    -2389    -2359    -2281    -2286    -2428    -2555 
   -2598    -2633    -2668    -2585    -2367    -2196    -2196    -2301 
   -2435    -2593    -2728    -2740    -2633    -2520    -2447    -2400 
   -2367    -2323    -2289    -2354    -2493    -2579    -2631    -2697 
   -2682    -2521    -2346    -2262    -2231    -2243    -2328    -2440 
   -2538    -2614    -2644    -2605    -2535    -2478    -2435    -2386 
   -2308    -2265    -2339    -2440    -2513    -2620    -2697    -2668 
   -2566    -2435    -2324    -2272    -2293    -2385    -2509    -2616 
   -2651    -2639    -2612    -2525    -2404    -2327    -2316    -2338 
   -2331    -2313    -2370    -2479    -2563    -2567    -2500    -2454 
   -2431    -2373    -2350    -2440    -2539    -2533    -2494    -2531 
   -2563    -2490    -2403    -2428    -2504    -2509    -2479    -2494 
   -2551    -2575    -2547    -2529    -2536    -2516    -2428    -2307 
   -2246    -2239    -2266    -2370    -2479    -2496    -2474    -2494 
   -2536    -2542    -2517    -2521    -2542    -2513    -2457    -2450 
   -2466    -2452    -2454    -2492    -2506    -2471    -2463    -2525 
   -2546    -2458    -2419    -2506    -2536    -2432    -2349    -2362 
   -2439    -2533    -2571    -2542    -2488    -2412    -2317    -2286 
   -2365    -2454    -2481    -2479    -2478    -2511    -2559    -2575 
