Origin Time       2025/03/28 03:50:00
Lat.              35.403
Long.             140.360
Depth. (km)       54
Mag.              4.4
Station Code      YMNH16
Station Lat.      35.7421
Station Long.     138.5653
Station Height(m) 339
Record Time       2025/03/28 03:51:21
Sampling Freq(Hz) 100Hz
Duration Time(s)  120
Dir.              2
Scale Factor      2942(gal)/8224139
Max. Acc. (gal)   0.212
Last Correction   2025/03/28 03:51:21
Memo.             
[...]
   61329    61353    61306    61281    61333    61371    61348    61366 
   61469    61487    61377    61348    61423    61404    61304    61325 
   61411    61373    61294    61330    61412    61416    61362    61342 
   61380    61384    61298    61260    61353    61400    61304    61252 
   61346    61425    61403    61381    61392    61402    61408    61435 
   61466    61418    61314    61303    61371    61358    61277    61287 
   61365    61377    61366    61372    61357    61356    61344    61283 
   61272    61353    61415    61387    61356    61377    61375    61345 
   61368    61406    61371    61318    61348    61402    61403    61392 
   61356    61287    61287    61360    61393    61362    61352    61389 
   61414    61389    61346    61329    61334    61358    61373    61314 
   61238    61280    61366    61350    61294    61344    61438    61441 
   61422    61441    61419    61369    61376    61427    61460    61449 
   61402    61345    61306    61310    61342    61372    61369    61330 
   61322    61341    61325    61334    61403    61415    61334    61288 
   61337    61392    61373    61342    61365    61352    61280    61296 
   61376    61384    61334    61312    61358    61403    61377    61341 
   61376    61427    61403    61344    61356    61410    61392    61321 
   61307    61350    61364    61337    61364    61434    61420    61376 
   61407    61425    61376    61358    61364    61321    61287    61326 
   61372    61377    61392    61396    61357    61361    61431    61427 
   61339    61304    61327    61308    61249    61246    61308    61326 
   61299    61329    61406    61438    61438    61442    61411    61361 
   61364    61400    61406    61357    61312    61345    61366    61290 
   61260    61335    61360    61311    61322    61400    61412    61361 
   61399    61472    61438    61380    61385    61383    61349    61354 
   61388    61362    61290    61291    61360    61360    61318    61348 
   61362    61329    61389    61474    61416    61329    61344    61346 
   61284    61302    61398    61404    61353    61364    61384    61364 
   61362    61383    61379    61377    61420    61431    61354    61308 
   61333    61312    61269    61312    61365    61327    61319    61388 
   61381    61321    61349    61395    61399    61422    61423    61365 
   61345    61384    61392    61350    61345    61387    61384    61326 
   61292    61310    61350    61362    61352    61357    61352    61339 
   61337    61319    61315    61344    61364    61357    61368    61441 
   61484    61442    61429    61443    61414    61395    61416    61412 
   61353    61321    61323    61284    61244    61290    61337    61306 
   61283    61333    61371    61346    61337    61372    61362    61344 
   61423    61495    61431    61353    61371    61377    61325    61327 
   61375    61372    61377    61438    61431    61327    61295    61366 
   61396    61375    61385    61403    61346    61263    61279    61358 
   61360    61327    61346    61369    61364    61349    61342    61350 
   61345    61365    61416    61392    61294    61263    61303    61321 
   61352    61406    61396    61385    61441    61429    61346    61349 
   61419    61411    61342    61357    61422    61379    61299    61337 
   61398    61338    61273    61326    61380    61358    61345    61337 
   61306    61317    61379    61419    61412    61414    61426    61384 
   61325    61331    61383    61381    61345    61345    61353    61345 
   61345    61360    61375    61364    61348    61356    61358    61360 
   61366    61337    61306    61325    61353    61372    61396    61403 
   61402    61410    61414    61383    61350    61380    61411    61365 
   61337    61358    61329    61285    61322    61372    61388    61407 
   61431    61427    61376    61354    61377    61331    61265    61303 
   61350    61317    61302    61369    61419    61379    61353    61392 
   61384    61353    61399    61429    61365    61327    61348    61334 
   61302    61310    61311    61273    61279    61354    61412    61403 
   61388    61395    61380    61362    61371    61358    61338    61364 
   61362    61303    61287    61323    61319    61285    61325    61415 
   61439    61430    61476    61477    61384    61354    61404    61391 
   61327    61323    61356    61353    61354    61395    61416    61391 
   61368    61366    61369    61380    61385    61362    61331    61357 
   61420    61410    61342    61335    61364    61373    61373    61350 
   61311    61295    61326    61373    61371    61357    61362    61331 
   61300    61312    61339    61360    61358    61341    61339    61357 
   61358    61334    61304    61300    61334    61376    61396    61398 
   61373    61323    61308    61356    61402    61414    61418    61398 
   61362    61372    61395    61372    61350    61350    61337    61325 
   61338    61366    61365    61350    61388    61410    61372    61364 
   61385    61393    61391    61379    61371    61365    61354    61361 
   61388    61407    61398    61379    61379    61387    61372    61344 
   61345    61366    61356    61337    61362    61388    61372    61354 
   61329    61285    61285    61330    61334    61299    61329    61385 
   61392    61415    61452    61425    61384    61393    61406    61375 
   61353    61364    61358    61314    61257    61273    61372    61412 
   61365    61334    61315    61290    61300    61338    61354    61345 
   61353    61380    61356    61327    61364    61402    61402    61427 
   61476    61433    61342    61346    61376    61353    61369    61420 
   61381    61299    61323    61393    61369    61322    61366    61416 
   61380    61349    61360    61321    61279    61326    61366    61341 
   61339    61369    61377    61380    61392    61383    61361    61379 
   61400    61361    61327    61356    61360    61321    61329    61387 
   61403    61376    61350    61335    61323    61317    61333    61357 
   61356    61345    61350    61349    61333    61352    61414    61433 
   61392    61360    61346    61339    61337    61321    61321    61337 
   61346    61349    61329    61331    61398    61439    61423    61387 
   61354    61353    61393    61431    61407    61353    61361    61399 
   61385    61381    61423    61414    61338    61326    61373    61362 
   61318    61327    61377    61398    61377    61360    61339    61298 
   61304    61364    61399    61387    61344    61326    61375    61400 
   61358    61326    61333    61350    61352    61333    61319    61322 
   61325    61323    61329    61345    61346    61352    61389    61423 
   61422    61410    61427    61450    61439    61422    61427    61423 
   61385    61331    61312    61314    61265    61226    61258    61287 
   61295    61319    61357    61402    61430    61442    61456    61453 
   61429    61381    61349    61368    61379    61348    61334    61341 
   61330    61321    61334    61360    61388    61393    61368    61349 
   61346    61330    61325    61384    61439    61425    61385    61353 
   61353    61385    61398    61383    61349    61325    61353    61373 
   61360    61354    61339    61310    61317    61369    61418    61422 
   61393    61348    61288    61271    61326    61369    61361    61369 
   61383    61334    61271    61302    61371    61358    61323    61352 
   61360    61322    61352    61433    61442    61400    61396    61398 
   61360    61361    61406    61402    61371    61375    61369    61319 
   61283    61321    61368    61341    61318    61364    61368    61337 
   61392    61479    61456    61356    61323    61353    61339    61315 
   61339    61357    61325    61311    61354    61387    61376    61381 
   61388    61358    61333    61323    61323    61342    61354    61368 
   61400    61398    61368    61364    61373    61395    61403    61391 
   61385    61357    61323    61342    61376    61383    61381    61385 
   61362    61339    61356    61368    61339    61319    61349    61381 
   61373    61365    61383    61402    61414    61399    61361    61335 
   61310    61310    61342    61334    61308    61330    61353    61342 
   61357    61414    61426    61360    61325    61371    61375    61339 
   61389    61441    61384    61319    61330    61341    61317    61330 
   61377    61379    61327    61314    61342    61344    61356    61380 
   61360    61358    61396    61398    61368    61364    61380    61375 
   61360    61337    61288    61275    61330    61391    61392    61338 
   61333    61380    61372    61341    61377    61408    61371    61350 
   61395    61415    61365    61335    61364    61334    61250    61302 
   61445    61426    61321    61352    61399    61356    61353    61395 
   61366    61300    61308    61358    61338    61298    61346    61416 
   61408    61372    61392    61419    61396    61356    61342    61360 
   61380    61366    61329    61310    61330    61353    61352    61360 
   61402    61420    61393    61380    61399    61387    61326    61329 
   61402    61400    61337    61335    61357    61346    61354    61375 
   61361    61362    61391    61368    61325    61330    61360    61365 
   61346    61357    61379    61350    61322    61330    61335    61345 
   61387    61384    61317    61319    61381    61366    61348    61391 
   61385    61356    61364    61338    61281    61273    61319    61360 
   61366    61368    61364    61334    61338    61392    61426    61437 
   61441    61411    61360    61333    61368    61416    61392    61354 
   61362    61358    61342    61362    61385    61380    61356    61323 
   61315    61338    61350    61345    61331    61321    61327    61321 
   61291    61312    61376    61389    61402    61445    61427    61391 
   61422    61425    61387    61395    61410    61400    61406    61380 
   61307    61287    61334    61349    61319    61321    61357    61342 
   61292    61314    61375    61391    61373    61339    61322    61358 
   61396    61381    61352    61364    61350    61285    61300    61357 
   61344    61357    61389    61339    61306    61344    61364    61361 
   61361    61379    61430    61423    61345    61327    61376    61381 
   61356    61361    61368    61356    61380    61443    61464    61391 
   61319    61339    61375    61366    61377    61396    61385    61372 
   61362    61365    61368    61349    61361    61389    61369    61354 
   61371    61369    61358    61346    61329    61334    61361    61364 
   61342    61338    61329    61307    61327    61360    61330    61287 
   61307    61352    61348    61337    61362    61380    61358    61344 
   61366    61392    61408    61426    61406    61342    61330    61388 
   61433    61416    61354    61308    61315    61330    61344    61375 
   61379    61341    61326    61360    61392    61376    61342    61338 
   61352    61356    61371    61399    61387    61348    61372    61427 
   61410    61360    61352    61385    61412    61389    61373    61407 
   61402    61345    61354    61412    61389    61308    61269    61285 
   61304    61296    61314    61368    61373    61329    61321    61369 
   61388    61329    61326    61423    61449    61365    61345    61404 
   61398    61342    61346    61375    61365    61339    61326    61341 
   61364    61350    61331    61339    61349    61364    61387    61380 
   61353    61335    61321    61344    61385    61369    61339    61364 
   61379    61356    61364    61415    61441    61425    61393    61361 
   61344    61362    61368    61342    61365    61427    61415    61357 
   61360    61369    61319    61299    61353    61396    61372    61335 
   61353    61376    61337    61307    61329    61345    61353    61373 
   61393    61388    61375    61406    61425    61368    61329    61354 
   61365    61338    61312    61288    61283    61298    61302    61318 
   61346    61348    61345    61368    61412    61435    61406    61371 
   61372    61369    61339    61338    61372    61368    61349    61380 
   61410    61379    61330    61339    61381    61376    61344    61345 
   61354    61337    61344    61380    61377    61365    61395    61393 
   61368    61395    61426    61404    61371    61371    61384    61360 
   61333    61342    61354    61342    61322    61321    61323    61294 
   61290    61345    61372    61356    61342    61333    61357    61396 
   61377    61331    61326    61350    61341    61318    61357    61399 
   61381    61380    61406    61411    61389    61375    61395    61425 
   61414    61373    61360    61372    61365    61358    61384    61393 
   61361    61356    61385    61395    61392    61395    61389    61377 
   61364    61372    61404    61392    61346    61345    61349    61304 
   61287    61303    61267    61198    61169    61186    61204    61226 
   61260    61291    61338    61414    61469    61503    61562    61632 
   61678    61723    61771    61788    61747    61661    61531    61348 
   61136    60953    60843    60801    60805    60844    60934    61079 
   61222    61330    61434    61543    61607    61584    61510    61454 
   61443    61445    61412    61368    61368    61398    61457    61547 
   61588    61555    61504    61441    61352    61272    61281    61368 
   61445    61500    61582    61638    61573    61439    61283    61067 
   60894    60848    60875    61001    61253    61537    61699    61681 
   61564    61391    61226    61198    61248    61240    61221    61307 
   61430    61443    61352    61211    61041    60945    61021    61187 
   61314    61387    61473    61604    61765    61901    61955    61913 
   61811    61717    61630    61474    61248    61038    60930    60934 
   60968    60951    60891    60901    61057    61307    61537    61676 
   61712    61674    61574    61423    61260    61132    61051    61026 
   61132    61327    61462    61507    61531    61541    61461    61362 
   61426    61538    61484    61354    61295    61303    61358    61438 
   61535    61630    61624    61456    61231    61138    61176    61206 
   61242    61346    61442    61510    61631    61800    61862    61747 
   61550    61337    61177    61152    61168    61091    60959    60914 
   60944    60949    61025    61241    61433    61507    61520    61523 
   61519    61484    61441    61411    61339    61272    61339    61545 
   61740    61794    61754    61705    61593    61403    61234    61133 
   61087    61078    61092    61137    61192    61217    61231    61299 
   61418    61537    61581    61500    61387    61371    61362    61252 
   61155    61198    61250    61190    61169    61241    61233    61236 
   61408    61557    61508    61414    61402    61373    61281    61265 
   61348    61379    61373    61461    61587    61627    61612    61569 
   61454    61331    61302    61325    61315    61302    61352    61415 
   61404    61396    61453    61464    61445    61460    61395    61242 
   61159    61171    61188    61180    61218    61290    61284    61279 
   61399    61528    61568    61587    61596    61515    61392    61389 
   61429    61322    61173    61157    61226    61275    61331    61450 
   61511    61449    61372    61331    61295    61290    61322    61327 
   61269    61180    61119    61145    61223    61304    61383    61430 
   61453    61487    61491    61446    61433    61470    61458    61411 
   61429    61441    61399    61365    61326    61285    61353    61496 
   61524    61450    61433    61396    61222    61088    61145    61234 
   61244    61291    61398    61385    61234    61195    61329    61389 
   61353    61414    61460    61344    61284    61420    61533    61483 
   61425    61476    61503    61439    61437    61501    61457    61337 
   61319    61371    61364    61308    61272    61269    61280    61335 
   61431    61450    61358    61269    61267    61296    61261    61177 
   61150    61203    61269    61288    61295    61369    61442    61441 
   61445    61456    61408    61369    61369    61353    61337    61383 
   61469    61533    61564    61565    61520    61510    61543    61492 
   61388    61373    61419    61407    61317    61213    61159    61163 
   61196    61223    61221    61198    61187    61225    61318    61427 
   61480    61449    61425    61438    61388    61303    61275    61260 
   61231    61234    61310    61414    61470    61508    61518    61449 
   61400    61433    61454    61434    61456    61522    61531    61483 
   61464    61449    61411    61380    61349    61329    61327    61276 
   61156    61114    61175    61209    61233    61319    61388    61366 
   61330    61380    61431    61360    61296    61365    61406    61323 
   61319    61458    61511    61411    61345    61377    61380    61323 
   61330    61376    61349    61329    61360    61349    61337    61408 
   61449    61391    61353    61384    61381    61306    61267    61288 
   61257    61240    61329    61402    61403    61446    61492    61434 
   61377    61418    61445    61389    61322    61302    61331    61388 
   61438    61418    61333    61272    61249    61226    61218    61233 
   61272    61322    61364    61398    61403    61407    61435    61422 
   61366    61357    61396    61416    61389    61337    61298    61290 
   61310    61329    61335    61362    61415    61468    61508    61516 
   61489    61446    61407    61379    61361    61353    61337    61292 
   61227    61192    61200    61223    61272    61344    61384    61365 
   61323    61325    61362    61387    61418    61439    61412    61416 
   61465    61425    61323    61310    61375    61430    61464    61464 
   61406    61310    61242    61254    61283    61294    61344    61391 
   61395    61411    61406    61349    61323    61326    61276    61246 
   61303    61341    61365    61472    61561    61523    61445    61447 
   61492    61469    61423    61411    61360    61331    61418    61474 
   61414    61344    61334    61346    61330    61299    61296    61311 
   61310    61280    61206    61157    61210    61267    61250    61276 
   61365    61392    61387    61452    61507    61476    61461    61518 
   61515    61416    61392    61460    61466    61422    61412    61410 
   61379    61329    61275    61229    61210    61221    61250    61273 
   61306    61385    61435    61383    61315    61299    61258    61199 
   61218    61268    61294    61362    61468    61515    61489    61464 
   61447    61398    61350    61356    61398    61437    61446    61457 
   61454    61414    61403    61410    61372    61314    61273    61269 
   61300    61330    61338    61349    61371    61349    61311    61330 
   61356    61361    61380    61365    61330    61380    61477    61497 
   61422    61357    61345    61308    61265    61290    61337    61334 
   61341    61387    61366    61294    61288    61325    61329    61330 
   61358    61373    61354    61342    61383    61439    61427    61381 
   61389    61402    61371    61346    61349    61362    61365    61354 
   61345    61353    61377    61391    61376    61339    61288    61272 
   61304    61344    61380    61398    61383    61381    61379    61329 
   61298    61323    61331    61306    61319    61361    61369    61371 
   61380    61373    61372    61371    61345    61360    61438    61472 
   61460    61465    61443    61388    61348    61339    61375    61410 
   61403    61391    61379    61366    61364    61334    61272    61277 
