Origin Time       2025/03/28 03:50:00
Lat.              35.403
Long.             140.360
Depth. (km)       54
Mag.              4.4
Station Code      YMNH16
Station Lat.      35.7421
Station Long.     138.5653
Station Height(m) 595
Record Time       2025/03/28 03:51:21
Sampling Freq(Hz) 100Hz
Duration Time(s)  120
Dir.              4
Scale Factor      7845(gal)/8223790
Max. Acc. (gal)   0.664
Last Correction   2025/03/28 03:51:21
Memo.             
[...]
     515      522      523      487      503      580      567      467 
     445      525      525      450      513      621      541      422 
     452      504      483      456      475      526      538      511 
     544      596      545      464      513      596      544      481 
     545      588      534      490      480      457      459      523 
     569      527      463      437      479      556      565      525 
     530      541      529      552      554      469      415      507 
     584      500      425      464      506      518      511      502 
     546      594      571      502      450      465      515      527 
     494      487      553      557      438      444      604      610 
     503      541      589      507      481      579      599      504 
     464      476      453      464      508      508      479      437 
     459      575      591      488      510      607      553      440 
     481      584      573      531      523      481      436      459 
     513      553      530      442      423      519      564      510 
     487      506      515      531      538      511      481      492 
     538      572      584      560      502      494      510      464 
     426      465      508      518      527      540      540      522 
     522      557      560      514      488      513      556      546 
     504      508      523      518      510      465      430      481 
     544      521      473      473      513      552      558      515 
     477      503      553      545      504      491      491      507 
     550      575      550      527      519      491      469      491 
     506      487      496      550      576      549      503      471 
     483      502      492      498      522      525      507      496 
     508      538      558      544      504      486      500      519 
     535      535      502      457      442      477      522      542 
     561      542      477      463      496      510      506      527 
     562      548      496      508      567      573      533      492 
     484      510      514      506      525      526      499      491 
     498      503      523      530      491      476      541      572 
     506      483      531      529      488      484      488      487 
     496      503      514      525      506      484      508      540 
     522      517      557      572      554      538      488      448 
     480      518      519      531      521      476      498      562 
     554      510      499      480      464      502      529      487 
     453      500      558      554      518      476      483      561 
     580      506      491      523      530      558      588      568 
     522      477      475      514      517      475      475      506 
     481      450      513      577      552      540      572      522 
     437      445      502      544      548      495      459      491 
     525      530      525      511      503      504      499      496 
     515      527      523      531      548      540      508      488 
     488      490      488      502      521      513      500      517 
     538      530      506      511      523      517      507      504 
     515      553      585      557      498      495      531      530 
     491      469      499      527      514      510      521      502 
     477      494      518      492      476      519      522      496 
     554      591      533      514      530      506      481      477 
     476      498      534      540      530      556      581      564 
     511      449      449      515      535      479      467      503 
     495      503      579      598      529      494      508      496 
     469      480      513      544      560      534      498      500 
     491      446      454      494      491      494      531      534 
     519      549      541      480      494      535      500      472 
     522      569      533      490      530      572      556      554 
     550      492      438      450      484      486      507      575 
     598      545      517      542      530      468      461      519 
     537      499      483      503      508      490      491      506 
     495      496      544      562      534      513      515      511 
     502      510      522      514      491      467      472      519 
     560      540      496      503      526      544      560      533 
     484      486      502      481      486      554      599      572 
     523      483      483      507      511      503      484      468 
     468      481      514      519      502      546      587      525 
     473      500      495      464      500      565      580      560 
     548      546      544      525      481      452      477      525 
     549      545      499      448      454      498      515      515 
     514      518      523      506      471      494      552      552 
     530      548      540      483      465      499      519      511 
     494      491      531      564      535      503      515      531 
     527      511      483      490      545      544      481      490 
     533      503      469      488      496      490      496      495 
     499      531      550      534      511      515      558      584 
     534      481      491      521      511      479      488      527 
     541      515      476      476      527      567      549      515 
     515      525      519      525      534      507      473      473 
     477      476      518      589      580      473      421      498 
     583      549      479      496      538      521      513      531 
     504      463      490      537      517      471      488      531 
     515      469      494      556      538      483      496      527 
     510      488      480      480      488      507      535      553 
     548      534      531      523      477      449      513      564 
     519      495      544      568      529      494      519      554 
     538      503      504      550      575      517      459      487 
     544      529      488      502      498      448      477      545 
     502      442      494      564      552      488      472      508 
     517      499      514      553      550      510      498      510 
     484      446      461      519      558      527      475      500 
     564      564      544      553      529      472      480      538 
     545      503      487      506      519      514      508      534 
     554      519      488      492      486      479      517      546 
     514      495      519      507      483      506      538      545 
     523      506      533      568      548      515      523      506 
     459      463      495      494      498      534      531      477 
     473      503      487      504      568      557      506      508 
     527      517      498      499      523      556      544      487 
     452      454      471      499      517      515      527      562 
     554      492      494      533      526      538      564      531 
     499      498      511      550      569      538      521      527 
     533      548      534      473      434      449      465      449 
     444      495      557      549      503      519      579      567 
     464      415      479      522      506      513      514      499 
     517      533      540      549      534      522      538      529 
     518      569      591      514      481      541      541      477 
     449      454      476      517      548      545      519      510 
     523      540      522      457      433      498      538      508 
     500      535      540      514      535      569      508      426 
     460      525      507      504      558      567      530      518 
     511      492      500      523      496      452      479      535 
     526      495      503      523      537      537      522      513 
     506      495      492      510      531      542      530      500 
     483      515      561      518      437      467      552      579 
     588      587      529      480      506      535      514      484 
     487      504      499      471      473      519      535      491 
     459      491      523      500      492      492      441      467 
     604      643      531      464      530      588      529      472 
     502      525      498      484      498      492      491      534 
     535      475      479      545      571      531      486      522 
     589      556      496      525      549      490      434      452 
     500      526      544      554      537      533      553      548 
     535      531      472      430      503      554      488      454 
     499      513      522      567      556      498      498      519 
     483      469      549      589      517      452      461      483 
     473      448      479      561      567      514      515      517 
     483      503      533      495      464      483      500      498 
     492      515      568      600      585      554      546      556 
     540      488      460      486      504      490      515      568 
     557      518      526      550      537      500      495      514 
     499      467      472      503      511      510      523      519 
     495      491      504      517      519      503      518      548 
     503      460      487      499      491      492      490      511 
     544      530      502      530      576      581      558      523 
     481      472      499      525      531      503      472      481 
     499      495      503      515      504      494      510      523 
     502      492      518      534      525      515      511      504 
     511      550      587      554      479      457      514      587 
     595      531      488      506      511      491      495      504 
     503      548      576      494      398      423      521      544 
     483      475      527      534      531      575      579      521 
     490      513      541      535      492      453      457      475 
     495      540      550      495      477      541      554      494 
     496      553      561      542      531      517      492      460 
     448      468      490      473      463      508      541      518 
     527      571      549      500      544      592      530      465 
     484      498      484      506      535      523      494      496 
     525      513      459      467      550      591      552      533 
     564      552      488      502      583      568      488      486 
     511      494      483      507      522      504      488      507 
     534      518      486      498      510      479      468      502 
     518      507      508      491      440      442      499      518 
     523      531      508      498      523      538      527      533 
     571      588      548      486      461      502      564      585 
     569      545      534      523      499      484      484      475 
     464      467      476      495      522      549      546      519 
     538      558      506      464      475      481      479      487 
     534      567      521      491      537      546      503      510 
     565      571      521      502      518      513      503      522 
     526      494      473      486      503      506      486      480 
     513      540      522      502      507      515      499      467 
     479      538      564      562      557      514      483      487 
     475      476      504      510      487      473      499      548 
     557      523      492      506      548      569      568      557 
     519      494      507      506      488      499      510      486 
     480      510      533      541      549      558      561      552 
     538      535      523      507      495      450      417      456 
     521      552      546      518      495      486      504      550 
     548      487      460      486      502      494      502      502 
     472      494      548      526      503      545      550      502 
     483      513      540      538      526      529      548      556 
     535      521      526      514      487      492      529      553 
     549      545      542      526      533      552      519      468 
     463      473      453      418      390      384      388      379 
     387      452      523      553      549      554      580      606 
     637      676      706      742      743      669      589      540 
     495      479      503      519      502      490      515      553 
     535      418      243       94        6      -31       21      216 
     498      741      901     1005     1030      973      895      770 
     592      444      356      287      216      163      151      193 
     318      531      765      919      900      754      681      735 
     753      619      406      255      194      160      124      106 
     153      253      330      407      580      838     1040     1057 
     899      734      664      630      580      561      602      670 
     703      629      494      444      452      382      330      387 
     433      392      267      175      310      558      610      438 
     265      217      216      190      168      234      446      729 
     947     1107     1209     1148      886      585      409      322 
     278      361      538      569      407      290      348      473 
     553      576      575      614      695      726      672      560 
     399      260      236      295      422      626      723      560 
     363      422      641      760      719      579      436      402 
     450      445      363      297      305      364      480      687 
     872      861      688      530      434      309      180      190 
     314      392      422      530      665      688      637      643 
     719      760      737      697      594      398      253      279 
     414      481      379      252      268      344      376      419 
     518      646      743      766      718      650      642      687 
     670      538      400      386      456      468      398      426 
     579      626      575      633      716      645      484      375 
     371      422      437      411      437      500      523      533 
     568      584      560      523      511      538      560      519 
     411      336      392      487      504      557      685      692 
     558      483      526      576      513      357      334      517 
     627      525      449      503      525      460      383      351 
     387      460      518      542      544      552      571      565 
     553      602      693      708      657      664      668      552 
     400      353      399      438      461      515      558      540 
     484      459      499      562      603      627      606      557 
     546      530      469      426      415      355      216      164 
     342      585      665      626      635      662      577      463 
     507      650      645      449      310      392      561      650 
     648      606      594      616      564      415      309      342 
     454      522      534      523      465      371      313      334 
     425      503      487      419      398      457      592      766 
     882      892      830      707      538      386      325      384 
     487      553      625      720      760      688      560      492 
     488      426      306      233      241      310      402      457 
     490      572      675      656      526      465      495      488 
     445      448      490      495      415      340      410      576 
     653      607      545      531      560      585      579      553 
     533      477      396      410      508      584      648      708 
     718      685      600      459      356      355      363      292 
     230      311      494      627      611      514      502      573 
     614      599      553      503      472      453      436      449 
     487      550      616      602      518      498      562      612 
     625      668      742      746      639      517      464      405 
     284      221      286      352      326      303      425      648 
     764      691      583      573      596      548      452      396 
     421      498      573      619      626      583      527      522 
     569      610      594      518      425      379      392      418 
     464      548      602      562      460      384      409      508 
     595      603      585      625      649      584      488      395 
     305      260      307      432      553      629      660      639 
     625      675      707      631      530      475      445      440 
     432      399      395      437      492      542      557      542 
     552      569      548      511      523      584      607      579 
     583      568      449      328      299      340      429      514 
     541      556      587      580      535      533      565      523 
     413      378      445      513      546      546      519      511 
     518      527      572      603      560      533      595      672 
     664      576      488      448      423      390      376      396 
     423      457      511      538      521      510      519      530 
     518      457      388      386      441      510      581      633 
     652      645      604      534      486      490      522      565 
     623      643      591      550      581      618      568      448 
     363      351      379      464      575      600      553      519 
     519      553      606      589      468      337      280      292 
     349      438      531      598      630      637      631      604 
     548      471      403      364      357      407      496      546 
     562      587      584      550      513      481      473      517 
     568      567      548      560      562      529      507      522 
     535      537      556      569      541      527      573      622 
     637      633      562      438      368      369      386      425 
     459      445      444      472      486      510      561      576 
     541      496      459      434      440      479      526      538 
     510      491      503      513      515      529      534      542 
     565      558      491      409      396      465      525      548 
     577      600      602      598      584      560      530      510 
     527      552      541      521      513      515      535      545 
     511      471      488      542      565      526      475      496 
     584      612      560      522      503      463      426      407 
     402      427      457      469      503      560      576      546 
     525      533      522      465      440      467      486      502 
     522      535      568      591      571      550      550      529 
     490      479      481      477      486      494      503      538 
     573      579      553      496      449      463      515      534 
     500      464      483      531      518      460      450      473 
