Origin Time       2025/03/28 03:50:00
Lat.              35.403
Long.             140.360
Depth. (km)       54
Mag.              4.4
Station Code      YMNH11
Station Lat.      35.6247
Station Long.     138.9777
Station Height(m) 265
Record Time       2025/03/28 03:51:14
Sampling Freq(Hz) 100Hz
Duration Time(s)  120
Dir.              1
Scale Factor      2940(gal)/6170270
Max. Acc. (gal)   0.249
Last Correction   2025/03/28 03:50:59
Memo.             
[...]
   44907    44925    44953    44961    44964    44977    44989    45002 
   44999    44960    44946    44983    44999    44969    44950    44973 
   45004    44994    44933    44874    44849    44850    44898    44961 
   44957    44940    44978    45009    45013    45001    44961    44930 
   44925    44940    44974    44992    44969    44946    44956    44982 
   45002    45010    44995    44971    44967    44986    45014    45019 
   45002    45001    45001    44964    44913    44913    44965    44983 
   44963    44968    44981    44983    44970    44943    44938    44955 
   44986    45010    44968    44922    44941    44968    44976    44975 
   44960    44948    44956    44976    44978    44974    44969    44931 
   44898    44927    44969    44978    44960    44926    44908    44921 
   44952    44995    45009    44974    44958    44969    44969    44983 
   44993    44974    44973    45000    45019    45022    45009    44992 
   44986    44955    44922    44939    44953    44923    44899    44902 
   44905    44904    44932    44984    44998    44986    45013    45045 
   45036    45022    45023    45007    44978    44960    44954    44953 
   44953    44950    44946    44959    44985    44980    44946    44934 
   44945    44937    44918    44914    44908    44921    44966    44980 
   44954    44950    44963    44977    45002    45037    45054    45022 
   44981    44986    44988    44961    44968    44983    44938    44890 
   44893    44915    44934    44940    44930    44918    44915    44944 
   44992    44997    44957    44930    44937    44957    44971    44973 
   44981    45001    44997    44975    44977    44997    44994    44983 
   45003    45012    44967    44925    44926    44931    44922    44925 
   44940    44943    44943    44966    44992    45001    45005    45016 
   45033    45026    44989    44977    44982    44953    44929    44950 
   44985    45007    45000    44977    44964    44947    44918    44896 
   44890    44900    44922    44956    44979    44966    44943    44946 
   44976    45005    45012    45021    45031    45003    44960    44944 
   44935    44928    44947    44968    44957    44939    44931    44923 
   44930    44952    44961    44962    44966    44975    44993    44988 
   44962    44945    44940    44957    44991    44998    44984    44989 
   44996    44986    44978    44980    44976    44955    44927    44927 
   44959    44978    44967    44967    44979    44985    44989    44980 
   44970    44979    44975    44957    44955    44952    44939    44925 
   44915    44919    44931    44944    44971    45005    45012    44982 
   44960    44961    44949    44940    44964    44984    44974    44953 
   44942    44934    44922    44921    44942    44974    44994    45001 
   45020    45038    45020    44991    44979    44979    44979    44960 
   44922    44900    44908    44935    44960    44975    44981    44968 
   44954    44960    44966    44965    44970    44984    44999    44991 
   44964    44973    45004    44993    44950    44937    44959    44972 
   44966    44974    44986    44983    44985    44990    44975    44960 
   44956    44942    44924    44917    44927    44940    44937    44935 
   44955    44978    44999    45023    45024    45006    45002    44996 
   44976    44962    44965    44978    44968    44934    44924    44940 
   44948    44948    44955    44959    44949    44940    44940    44944 
   44950    44950    44944    44939    44933    44944    44979    44999 
   44986    44971    44977    44978    44956    44926    44915    44931 
   44953    44955    44943    44940    44951    44956    44955    44969 
   44990    45003    45012    45020    45013    44984    44960    44969 
   44992    44993    44966    44943    44963    45003    45012    45008 
   45016    45006    44984    44977    44973    44964    44959    44947 
   44930    44924    44943    44983    45010    44996    44973    44951 
   44912    44895    44909    44908    44905    44918    44921    44921 
   44944    44972    44973    44969    44990    45006    45000    44992 
   44976    44955    44954    44965    44961    44949    44967    44993 
   44989    44968    44952    44939    44937    44948    44964    44983 
   44990    44973    44963    44972    44973    44955    44941    44948 
   44965    44985    44999    44994    44982    44988    45007    45006 
   44983    44971    44958    44935    44925    44928    44932    44955 
   44988    45005    45005    44996    44975    44945    44929    44936 
   44947    44950    44955    44962    44954    44938    44929    44927 
   44936    44961    44986    44991    44983    44981    44992    44999 
   44986    44966    44954    44948    44946    44954    44955    44949 
   44961    44971    44960    44957    44973    44987    44988    44988 
   44992    44984    44959    44941    44936    44941    44959    44968 
   44958    44952    44947    44945    44967    44992    45000    45005 
   45005    44994    44976    44956    44945    44935    44921    44928 
   44934    44935    44964    44996    45000    45002    45012    45007 
   44986    44961    44940    44926    44932    44950    44963    44974 
   44991    45007    45018    45015    44990    44958    44934    44910 
   44885    44879    44887    44901    44933    44974    45008    45042 
   45062    45055    45035    45008    44978    44952    44922    44892 
   44895    44929    44947    44946    44956    44982    45009    45022 
   45010    44983    44961    44940    44916    44903    44916    44943 
   44965    44976    44979    44972    44968    44965    44951    44948 
   44962    44970    44971    44965    44952    44961    44987    44992 
   44971    44947    44928    44917    44927    44951    44967    44969 
   44963    44950    44936    44928    44931    44946    44968    44978 
   44978    44988    44999    44992    44976    44973    44975    44969 
   44970    44985    45000    44997    44983    44989    45000    44993 
   44988    44986    44977    44969    44963    44958    44951    44940 
   44940    44950    44954    44942    44924    44924    44956    44987 
   44993    44990    44982    44954    44930    44936    44951    44960 
   44976    44988    44981    44986    44998    44995    44986    44969 
   44943    44928    44916    44904    44909    44933    44955    44959 
   44973    45004    45015    45015    45029    45036    45020    44994 
   44972    44957    44947    44936    44922    44918    44930    44939 
   44931    44926    44940    44965    44983    44977    44952    44944 
   44954    44959    44961    44965    44954    44940    44954    44988 
   45020    45034    45018    44991    44976    44958    44937    44928 
   44916    44889    44869    44883    44921    44956    44977    44998 
   45019    45031    45037    45036    45023    44997    44964    44946 
   44963    44990    44988    44969    44955    44941    44932    44929 
   44915    44904    44912    44921    44920    44927    44950    44989 
   45016    45016    45018    45029    45026    45014    45001    44981 
   44958    44944    44948    44970    44988    44980    44948    44926 
   44935    44956    44970    44965    44940    44925    44937    44957 
   44965    44967    44977    44995    45008    45012    45009    44998 
   44978    44955    44938    44932    44936    44953    44969    44969 
   44955    44937    44929    44937    44935    44919    44921    44941 
   44961    44984    44994    44974    44949    44951    44967    44972 
   44975    44982    44978    44971    44964    44952    44943    44925 
   44895    44893    44921    44954    44995    45027    45020    45000 
   44995    44998    44995    44982    44962    44944    44935    44943 
   44958    44971    44983    44975    44958    44978    45010    45001 
   44981    44988    44999    44998    44999    44997    44985    44959 
   44925    44915    44928    44933    44935    44949    44954    44954 
   44965    44972    44971    44981    44984    44969    44976    45011 
   45021    44993    44966    44952    44948    44956    44965    44965 
   44968    44968    44951    44937    44939    44941    44944    44951 
   44952    44951    44962    44967    44957    44955    44962    44964 
   44977    44997    44989    44959    44946    44959    44978    44979 
   44950    44918    44914    44930    44932    44916    44913    44931 
   44954    44973    44982    44980    44984    44994    44995    44999 
   45013    45019    45004    44985    44968    44945    44920    44914 
   44924    44928    44923    44916    44924    44959    44995    45005 
   45006    45006    44997    44996    45005    45004    44995    44977 
   44953    44940    44939    44947    44967    44978    44971    44979 
   45006    45006    44970    44933    44912    44909    44920    44927 
   44925    44931    44945    44969    44996    44999    44987    44982 
   44982    44991    44996    44979    44959    44963    44985    45002 
   44995    44973    44957    44940    44924    44915    44911    44920 
   44950    44982    44997    44996    44988    44972    44951    44937 
   44927    44915    44905    44913    44942    44969    44978    44973 
   44971    44985    45000    44993    44980    44976    44971    44968 
   44993    45028    45023    44989    44973    44975    44968    44955 
   44951    44951    44947    44951    44968    44985    44993    44985 
   44967    44969    44972    44942    44931    44960    44973    44967 
   44970    44977    44980    44972    44944    44911    44905    44931 
   44944    44938    44958    45001    45011    44993    44992    44998 
   44980    44954    44941    44958    44998    45011    44994    44986 
   44977    44958    44958    44954    44928    44920    44937    44950 
   44944    44926    44934    44973    45002    45016    45012    44974 
   44943    44951    44954    44932    44925    44933    44925    44915 
   44918    44926    44945    44960    44955    44965    44990    44987 
   44972    44960    44940    44936    44951    44952    44947    44959 
   44983    45003    45020    45035    45021    44987    44986    45007 
   44994    44956    44941    44962    44996    45007    44987    44957 
   44939    44927    44916    44924    44937    44926    44922    44960 
   44991    44978    44942    44917    44918    44940    44954    44961 
   44975    44977    44972    44985    44994    44996    45010    45010 
   44995    45003    45019    45014    45000    44981    44959    44950 
   44943    44932    44935    44943    44952    44976    44990    44997 
   45020    45022    44990    44959    44939    44934    44934    44913 
   44893    44898    44907    44914    44931    44950    44962    44974 
   44986    44990    45006    45041    45044    45009    44992    44997 
   44979    44941    44921    44915    44909    44917    44931    44937 
   44952    44984    44999    44980    44955    44944    44941    44948 
   44966    44973    44976    44987    44992    45006    45027    45013 
   44978    44958    44944    44928    44928    44934    44925    44913 
   44926    44953    44979    45010    45025    45003    44987    45001 
   45005    44984    44968    44963    44952    44951    44960    44932 
   44887    44883    44913    44936    44950    44971    44993    44987 
   44969    44974    44990    45000    45000    44986    44969    44964 
   44967    44971    44983    45008    45028    45028    45030    45041 
   45029    44997    44979    44976    44971    44956    44931    44898 
   44874    44877    44905    44938    44961    44973    44994    45022 
   45020    44983    44948    44922    44906    44903    44915    44952 
   45000    45034    45059    45085    45087    45060    45025    44998 
   44989    44986    44966    44945    44934    44928    44943    44961 
   44935    44864    44791    44745    44732    44744    44772    44816 
   44885    44947    44965    44958    44960    44974    44991    44995 
   44997    45010    45010    44989    44974    44984    44998    44991 
   44964    44920    44836    44759    44746    44758    44765    44788 
   44836    44903    44981    45058    45108    45113    45106    45112 
   45111    45117    45139    45146    45151    45163    45133    45043 
   44948    44884    44855    44851    44844    44820    44810    44838 
   44907    45010    45118    45186    45211    45220    45195    45136 
   45095    45075    45038    45009    45020    45033    45025    45022 
   45012    44961    44895    44873    44888    44897    44907    44929 
   44920    44875    44852    44850    44846    44876    44958    45046 
   45106    45141    45134    45068    44974    44893    44823    44768 
   44748    44775    44831    44867    44862    44849    44849    44859 
   44878    44896    44889    44866    44843    44855    44916    44980 
   45008    45020    45030    45060    45118    45148    45107    45027 
   44957    44922    44935    44967    44980    44972    44951    44919 
   44898    44912    44974    45058    45110    45128    45133    45104 
   45037    44969    44910    44852    44815    44826    44867    44897 
   44914    44929    44934    44929    44934    44969    45020    45063 
   45101    45148    45178    45156    45099    45063    45059    45058 
   45041    45008    44967    44919    44842    44750    44716    44762 
   44821    44877    44964    45079    45171    45203    45171    45104 
   45031    44952    44874    44844    44862    44866    44831    44772 
   44705    44652    44636    44653    44686    44741    44844    45001 
   45166    45293    45383    45450    45486    45467    45396    45315 
   45216    45092    45004    44960    44901    44817    44726    44643 
   44580    44539    44514    44503    44514    44553    44615    44687 
   44755    44824    44913    45031    45172    45292    45339    45324 
   45297    45276    45246    45211    45192    45176    45152    45141 
   45137    45110    45060    45010    44953    44874    44793    44756 
   44766    44786    44802    44831    44889    44963    45020    45021 
   44958    44886    44851    44844    44860    44909    44979    45035 
   45058    45049    45028    45010    45010    45021    45011    44978 
   44981    45029    45067    45063    45028    44984    44945    44907 
   44874    44858    44859    44887    44937    44966    44982    45023 
   45059    45041    44986    44935    44903    44878    44849    44823 
   44812    44793    44756    44741    44791    44879    44949    44994 
   45027    45021    44981    44964    44991    45026    45042    45038 
   45023    45013    45013    45005    45000    45008    44992    44946 
   44900    44866    44852    44859    44871    44888    44917    44957 
   45002    45030    45034    45045    45055    45051    45067    45087 
   45058    45006    44975    44955    44933    44924    44941    44976 
   45004    45021    45049    45072    45073    45057    45012    44943 
   44902    44916    44965    45019    45054    45070    45074    45057 
   45014    44970    44944    44918    44894    44894    44908    44904 
   44880    44869    44894    44933    44936    44909    44906    44946 
   44993    45010    45008    44992    44963    44946    44952    44963 
   44966    44967    44972    44987    45001    45012    45032    45057 
   45056    45028    45000    44979    44954    44925    44908    44915 
   44923    44915    44914    44925    44919    44900    44887    44872 
   44840    44798    44782    44803    44830    44840    44847    44873 
   44928    44998    45058    45096    45099    45063    45022    45013 
   45047    45088    45083    45035    44983    44942    44914    44898 
   44890    44879    44879    44904    44930    44953    44992    45022 
   45017    44998    44985    44988    44970    44913    44883    44902 
   44914    44918    44942    44976    45018    45058    45065    45053 
   45051    45063    45070    45045    44984    44915    44861    44834 
   44843    44869    44878    44881    44908    44951    44978    44995 
   45018    45035    45037    45032    45041    45070    45089    45084 
   45097    45139    45166    45163    45138    45101    45066    45028 
   44969    44901    44839    44793    44789    44828    44884    44936 
   44981    45027    45056    45051    45037    45027    44997    44954 
   44922    44894    44860    44830    44808    44797    44809    44828 
   44826    44822    44858    44924    44985    45021    45034    45031 
   45027    45037    45035    45004    44978    44971    44961    44942 
   44913    44876    44863    44882    44907    44929    44951    44967 
   44970    44962    44962    44985    45016    45040    45032    44987 
   44947    44926    44908    44896    44894    44893    44919    44979 
   45025    45030    45017    45003    44991    44979    44956    44927 
   44931    44964    44998    45041    45095    45123    45121    45100 
   45069    45048    45036    45021    45008    44997    44985    44983 
   44987    45001    45028    45034    45009    45005    45022    45001 
   44945    44910    44896    44882    44887    44907    44928    44955 
   44957    44908    44860    44853    44862    44857    44829    44798 
   44792    44803    44812    44837    44882    44910    44909    44916 
   44937    44961    44991    45019    45026    45020    45023    45037 
   45060    45089    45090    45054    45025    45021    45014    44982 
   44936    44890    44869    44884    44895    44871    44857    44875 
   44890    44906    44942    44979    45000    44999    44979    44972 
   44993    45011    45025    45044    45040    45019    45022    45038 
   45045    45033    45004    44974    44959    44949    44926    44888 
   44859    44853    44872    44907    44937    44960    44990    45019 
   45022    45003    44989    44981    44974    44982    44999    45005 
   44990    44964    44959    44986    45011    45019    45035    45053 
   45045    45020    44994    44971    44965    44963    44950    44953 
   44978    44996    45007    45015    45016    45010    44997    44968 
   44910    44854    44847    44868    44874    44872    44881    44908 
   44936    44955    44977    45003    45000    44957    44908    44883 
   44870    44866    44879    44897    44925    44974    45012    45032 
   45047    45056    45049    45032    45025    45036    45031    44999 
   44980    44989    44999    45003    45009    45000    44967    44916 
   44864    44839    44839    44843    44861    44905    44948    44969 
   44979    44990    45005    45030    45048    45040    45023    45018 
   45025    45033    45039    45046    45055    45056    45032    44984 
   44945    44924    44903    44888    44905    44942    44962    44953 
   44935    44917    44896    44883    44884    44878    44866    44882 
   44912    44923    44928    44941    44954    44979    45013    45033 
   45046    45059    45054    45047    45051    45047    45033    45016 
   44998    44997    45007    44998    44973    44960    44964    44972 
   44978    44977    44975    44983    44993    44992    44986    44976 
   44962    44960    44975    44995    45016    45028    45026    45001 
   44954    44908    44877    44853    44832    44819    44823    44838 
   44854    44887    44937    44975    44997    45024    45045    45037 
   45011    44998    44997    44996    45009    45034    45047    45039 
   45008    44973    44959    44945    44902    44853    44835    44844 
