Origin Time       2025/03/28 03:50:00
Lat.              35.403
Long.             140.360
Depth. (km)       54
Mag.              4.4
Station Code      YMNH11
Station Lat.      35.6247
Station Long.     138.9777
Station Height(m) 265
Record Time       2025/03/28 03:51:14
Sampling Freq(Hz) 100Hz
Duration Time(s)  120
Dir.              3
Scale Factor      2940(gal)/6170270
Max. Acc. (gal)   0.190
Last Correction   2025/03/28 03:50:59
Memo.             
[...]
  -45634   -45648   -45649   -45645   -45624   -45591   -45579   -45597 
  -45578   -45516   -45484   -45488   -45507   -45525   -45516   -45506 
  -45524   -45536   -45545   -45568   -45563   -45546   -45562   -45552 
  -45546   -45586   -45566   -45523   -45554   -45578   -45608   -45648 
  -45615   -45590   -45606   -45593   -45594   -45604   -45591   -45575 
  -45546   -45531   -45563   -45585   -45577   -45591   -45616   -45583 
  -45517   -45527   -45593   -45621   -45599   -45564   -45557   -45559 
  -45540   -45541   -45541   -45500   -45498   -45562   -45591   -45547 
  -45510   -45533   -45572   -45584   -45592   -45622   -45642   -45612 
  -45575   -45581   -45574   -45549   -45555   -45566   -45567   -45582 
  -45583   -45571   -45580   -45586   -45575   -45581   -45578   -45528 
  -45479   -45499   -45564   -45597   -45591   -45581   -45542   -45477 
  -45489   -45570   -45625   -45666   -45686   -45633   -45581   -45587 
  -45594   -45603   -45645   -45672   -45652   -45614   -45573   -45550 
  -45551   -45551   -45564   -45592   -45581   -45543   -45531   -45534 
  -45528   -45535   -45565   -45573   -45540   -45518   -45526   -45543 
  -45572   -45595   -45580   -45553   -45561   -45570   -45551   -45561 
  -45593   -45591   -45579   -45564   -45554   -45566   -45555   -45528 
  -45542   -45583   -45593   -45562   -45535   -45543   -45557   -45539 
  -45504   -45510   -45559   -45560   -45524   -45531   -45561   -45586 
  -45607   -45601   -45593   -45604   -45574   -45525   -45551   -45625 
  -45660   -45654   -45639   -45612   -45577   -45573   -45587   -45583 
  -45558   -45520   -45514   -45550   -45567   -45564   -45597   -45656 
  -45670   -45624   -45567   -45545   -45575   -45614   -45603   -45578 
  -45579   -45573   -45557   -45565   -45595   -45606   -45585   -45568 
  -45539   -45506   -45530   -45554   -45533   -45523   -45514   -45501 
  -45526   -45558   -45541   -45520   -45550   -45585   -45577   -45567 
  -45581   -45595   -45600   -45589   -45564   -45542   -45526   -45509 
  -45521   -45560   -45572   -45583   -45619   -45609   -45569   -45556 
  -45548   -45545   -45554   -45545   -45548   -45579   -45601   -45607 
  -45589   -45566   -45571   -45574   -45576   -45583   -45565   -45542 
  -45546   -45568   -45597   -45622   -45615   -45581   -45571   -45576 
  -45560   -45564   -45600   -45616   -45610   -45593   -45568   -45550 
  -45543   -45554   -45553   -45527   -45542   -45570   -45564   -45578 
  -45612   -45618   -45617   -45603   -45554   -45509   -45504   -45518 
  -45531   -45548   -45573   -45588   -45580   -45560   -45525   -45489 
  -45497   -45543   -45562   -45578   -45620   -45614   -45581   -45590 
  -45587   -45557   -45574   -45588   -45542   -45530   -45587   -45626 
  -45636   -45631   -45589   -45556   -45552   -45540   -45533   -45559 
  -45598   -45620   -45592   -45536   -45531   -45556   -45553   -45555 
  -45564   -45565   -45580   -45585   -45566   -45576   -45612   -45625 
  -45610   -45584   -45551   -45519   -45496   -45488   -45508   -45556 
  -45579   -45565   -45563   -45560   -45551   -45550   -45525   -45507 
  -45533   -45547   -45532   -45530   -45545   -45564   -45579   -45584 
  -45573   -45557   -45553   -45568   -45594   -45620   -45633   -45628 
  -45603   -45574   -45566   -45575   -45572   -45567   -45583   -45597 
  -45594   -45580   -45574   -45587   -45595   -45577   -45556   -45544 
  -45529   -45511   -45521   -45578   -45623   -45580   -45513   -45524 
  -45553   -45532   -45527   -45559   -45588   -45606   -45592   -45559 
  -45559   -45588   -45618   -45631   -45621   -45611   -45584   -45544 
  -45537   -45558   -45582   -45602   -45606   -45603   -45593   -45569 
  -45546   -45549   -45557   -45538   -45534   -45568   -45595   -45594 
  -45575   -45543   -45517   -45511   -45531   -45566   -45590   -45604 
  -45604   -45576   -45561   -45580   -45592   -45587   -45584   -45580 
  -45571   -45550   -45549   -45562   -45531   -45496   -45514   -45550 
  -45566   -45556   -45542   -45547   -45555   -45558   -45556   -45555 
  -45570   -45578   -45563   -45542   -45533   -45549   -45579   -45601 
  -45606   -45605   -45607   -45602   -45590   -45586   -45593   -45611 
  -45615   -45576   -45534   -45534   -45545   -45533   -45530   -45534 
  -45531   -45555   -45595   -45609   -45616   -45619   -45601   -45567 
  -45536   -45523   -45511   -45496   -45521   -45572   -45594   -45617 
  -45650   -45630   -45578   -45540   -45518   -45530   -45569   -45590 
  -45590   -45588   -45591   -45568   -45503   -45463   -45471   -45484 
  -45508   -45563   -45614   -45634   -45635   -45619   -45595   -45588 
  -45598   -45598   -45576   -45556   -45570   -45599   -45590   -45564 
  -45575   -45599   -45590   -45565   -45562   -45585   -45608   -45613 
  -45592   -45548   -45513   -45512   -45529   -45544   -45559   -45576 
  -45586   -45574   -45545   -45524   -45537   -45567   -45579   -45584 
  -45600   -45598   -45567   -45557   -45579   -45585   -45562   -45551 
  -45560   -45574   -45582   -45580   -45567   -45559   -45572   -45591 
  -45587   -45580   -45579   -45562   -45547   -45546   -45536   -45526 
  -45526   -45540   -45579   -45609   -45598   -45589   -45595   -45575 
  -45534   -45512   -45530   -45556   -45568   -45583   -45592   -45581 
  -45570   -45569   -45573   -45581   -45586   -45588   -45580   -45549 
  -45527   -45548   -45585   -45608   -45607   -45593   -45599   -45597 
  -45542   -45507   -45546   -45592   -45620   -45649   -45649   -45621 
  -45599   -45573   -45543   -45528   -45525   -45537   -45570   -45604 
  -45615   -45611   -45609   -45598   -45562   -45522   -45508   -45522 
  -45533   -45528   -45536   -45574   -45608   -45598   -45564   -45551 
  -45564   -45584   -45589   -45578   -45577   -45585   -45583   -45561 
  -45526   -45511   -45511   -45508   -45516   -45514   -45490   -45486 
  -45510   -45542   -45569   -45581   -45589   -45591   -45578   -45564 
  -45551   -45551   -45588   -45639   -45658   -45637   -45608   -45583 
  -45570   -45586   -45601   -45605   -45616   -45619   -45610   -45600 
  -45586   -45581   -45579   -45552   -45519   -45523   -45540   -45546 
  -45578   -45619   -45619   -45591   -45551   -45513   -45515   -45541 
  -45554   -45555   -45545   -45526   -45514   -45509   -45516   -45530 
  -45538   -45563   -45599   -45607   -45597   -45586   -45568   -45549 
  -45532   -45533   -45566   -45593   -45595   -45592   -45598   -45604 
  -45591   -45562   -45548   -45545   -45545   -45554   -45554   -45540 
  -45550   -45577   -45582   -45563   -45553   -45563   -45582   -45602 
  -45619   -45633   -45641   -45638   -45627   -45623   -45612   -45582 
  -45556   -45550   -45567   -45588   -45580   -45557   -45554   -45562 
  -45567   -45566   -45560   -45555   -45562   -45585   -45594   -45569 
  -45543   -45549   -45583   -45615   -45625   -45621   -45607   -45578 
  -45557   -45564   -45571   -45552   -45543   -45556   -45555   -45544 
  -45545   -45550   -45545   -45529   -45517   -45525   -45539   -45542 
  -45545   -45552   -45556   -45562   -45577   -45583   -45579   -45581 
  -45575   -45544   -45517   -45519   -45526   -45530   -45543   -45570 
  -45597   -45599   -45575   -45567   -45571   -45561   -45559   -45585 
  -45598   -45579   -45569   -45584   -45585   -45566   -45555   -45553 
  -45555   -45559   -45568   -45598   -45627   -45612   -45567   -45546 
  -45559   -45574   -45572   -45568   -45575   -45582   -45580   -45565 
  -45536   -45521   -45545   -45581   -45607   -45628   -45630   -45607 
  -45596   -45596   -45584   -45580   -45580   -45570   -45578   -45588 
  -45575   -45576   -45590   -45570   -45530   -45527   -45540   -45534 
  -45536   -45555   -45550   -45532   -45546   -45562   -45539   -45505 
  -45477   -45468   -45498   -45544   -45570   -45584   -45619   -45650 
  -45639   -45609   -45594   -45600   -45619   -45632   -45633   -45620 
  -45591   -45574   -45571   -45548   -45523   -45538   -45567   -45575 
  -45585   -45609   -45620   -45616   -45622   -45634   -45611   -45570 
  -45566   -45570   -45547   -45542   -45566   -45583   -45590   -45587 
  -45556   -45525   -45522   -45527   -45533   -45542   -45547   -45552 
  -45545   -45522   -45525   -45540   -45536   -45537   -45530   -45512 
  -45533   -45577   -45579   -45566   -45594   -45623   -45620   -45623 
  -45634   -45624   -45593   -45555   -45541   -45563   -45601   -45625 
  -45609   -45574   -45561   -45560   -45558   -45562   -45563   -45554 
  -45549   -45561   -45567   -45560   -45559   -45576   -45581   -45559 
  -45539   -45527   -45515   -45529   -45559   -45583   -45605   -45612 
  -45590   -45556   -45530   -45528   -45540   -45548   -45546   -45561 
  -45601   -45619   -45586   -45540   -45532   -45567   -45591   -45580 
  -45574   -45586   -45583   -45547   -45519   -45544   -45586   -45596 
  -45590   -45595   -45604   -45604   -45578   -45555   -45570   -45600 
  -45604   -45581   -45562   -45565   -45568   -45564   -45549   -45535 
  -45548   -45561   -45535   -45504   -45519   -45576   -45611   -45591 
  -45579   -45600   -45586   -45539   -45540   -45581   -45602   -45605 
  -45603   -45608   -45621   -45602   -45574   -45591   -45604   -45582 
  -45573   -45575   -45576   -45583   -45578   -45572   -45569   -45550 
  -45534   -45521   -45508   -45518   -45525   -45522   -45542   -45551 
  -45538   -45549   -45571   -45583   -45604   -45627   -45615   -45585 
  -45581   -45563   -45498   -45480   -45534   -45570   -45582   -45592 
  -45573   -45568   -45582   -45565   -45568   -45617   -45639   -45605 
  -45558   -45529   -45511   -45491   -45494   -45524   -45540   -45527 
  -45545   -45591   -45598   -45581   -45580   -45585   -45598   -45616 
  -45608   -45596   -45609   -45608   -45597   -45602   -45585   -45552 
  -45540   -45540   -45545   -45556   -45564   -45573   -45570   -45547 
  -45535   -45544   -45548   -45548   -45553   -45536   -45503   -45506 
  -45543   -45574   -45586   -45588   -45589   -45585   -45572   -45573 
  -45593   -45601   -45610   -45641   -45658   -45622   -45557   -45512 
  -45515   -45538   -45545   -45536   -45533   -45544   -45560   -45586 
  -45614   -45615   -45604   -45613   -45615   -45591   -45566   -45541 
  -45517   -45519   -45541   -45546   -45535   -45549   -45587   -45593 
  -45564   -45550   -45562   -45578   -45583   -45581   -45567   -45541 
  -45548   -45583   -45606   -45608   -45596   -45588   -45593   -45588 
  -45581   -45599   -45610   -45578   -45553   -45582   -45596   -45552 
  -45522   -45542   -45556   -45536   -45526   -45560   -45608   -45626 
  -45624   -45610   -45562   -45511   -45510   -45545   -45573   -45583 
  -45590   -45598   -45595   -45577   -45564   -45552   -45535   -45543 
  -45576   -45581   -45576   -45584   -45562   -45507   -45469   -45474 
  -45515   -45555   -45571   -45574   -45583   -45591   -45589   -45595 
  -45600   -45591   -45607   -45631   -45624   -45604   -45581   -45566 
  -45587   -45616   -45596   -45556   -45562   -45592   -45590   -45582 
  -45605   -45635   -45635   -45626   -45635   -45615   -45554   -45513 
  -45496   -45489   -45522   -45579   -45615   -45627   -45606   -45542 
  -45483   -45477   -45515   -45557   -45581   -45565   -45515   -45490 
  -45500   -45508   -45531   -45577   -45610   -45601   -45553   -45516 
  -45509   -45497   -45483   -45489   -45513   -45533   -45540   -45565 
  -45611   -45615   -45580   -45582   -45602   -45587   -45589   -45641 
  -45672   -45658   -45640   -45632   -45630   -45630   -45619   -45604 
  -45587   -45570   -45586   -45616   -45583   -45538   -45576   -45647 
  -45669   -45649   -45620   -45591   -45565   -45544   -45515   -45470 
  -45434   -45431   -45443   -45461   -45493   -45501   -45484   -45501 
  -45524   -45508   -45508   -45539   -45554   -45530   -45494   -45491 
  -45510   -45528   -45575   -45626   -45621   -45590   -45580   -45581 
  -45592   -45620   -45642   -45657   -45659   -45641   -45623   -45588 
  -45551   -45558   -45586   -45614   -45643   -45649   -45633   -45611 
  -45586   -45574   -45579   -45596   -45608   -45583   -45527   -45488 
  -45501   -45554   -45589   -45573   -45547   -45549   -45563   -45564 
  -45532   -45476   -45462   -45499   -45515   -45509   -45516   -45528 
  -45537   -45536   -45524   -45544   -45616   -45671   -45671   -45683 
  -45721   -45724   -45711   -45718   -45703   -45659   -45627   -45590 
  -45523   -45483   -45502   -45525   -45505   -45456   -45436   -45491 
  -45587   -45647   -45683   -45748   -45816   -45835   -45812   -45782 
  -45758   -45718   -45640   -45552   -45509   -45515   -45527   -45526 
  -45521   -45511   -45468   -45374   -45268   -45212   -45197   -45188 
  -45211   -45293   -45422   -45546   -45591   -45579   -45592   -45620 
  -45611   -45606   -45653   -45704   -45708   -45689   -45665   -45615 
  -45554   -45513   -45490   -45522   -45630   -45732   -45767   -45764 
  -45739   -45689   -45625   -45561   -45519   -45490   -45444   -45393 
  -45373   -45369   -45365   -45403   -45473   -45502   -45509   -45531 
  -45525   -45507   -45543   -45603   -45639   -45668   -45699   -45707 
  -45684   -45648   -45607   -45573   -45577   -45606   -45606   -45585 
  -45578   -45585   -45582   -45572   -45576   -45578   -45559   -45552 
  -45578   -45611   -45622   -45616   -45608   -45617   -45652   -45686 
  -45683   -45663   -45674   -45698   -45690   -45663   -45646   -45620 
  -45603   -45646   -45704   -45734   -45748   -45729   -45667   -45590 
  -45495   -45378   -45275   -45207   -45169   -45199   -45283   -45317 
  -45318   -45370   -45429   -45438   -45447   -45494   -45541   -45563 
  -45601   -45665   -45702   -45692   -45682   -45690   -45692   -45665 
  -45624   -45613   -45641   -45657   -45641   -45628   -45630   -45614 
  -45603   -45631   -45659   -45653   -45630   -45606   -45598   -45592 
  -45554   -45492   -45440   -45405   -45386   -45393   -45407   -45413 
  -45429   -45428   -45423   -45480   -45567   -45638   -45712   -45763 
  -45766   -45747   -45734   -45749   -45769   -45749   -45721   -45706 
  -45671   -45642   -45642   -45637   -45636   -45658   -45647   -45581 
  -45517   -45486   -45480   -45486   -45471   -45435   -45428   -45441 
  -45433   -45418   -45419   -45414   -45408   -45417   -45434   -45455 
  -45482   -45522   -45571   -45598   -45608   -45638   -45658   -45631 
  -45593   -45582   -45621   -45693   -45726   -45712   -45677   -45637 
  -45627   -45626   -45605   -45606   -45637   -45650   -45622   -45572 
  -45551   -45546   -45498   -45448   -45453   -45464   -45439   -45429 
  -45467   -45513   -45524   -45507   -45528   -45609   -45673   -45691 
  -45714   -45745   -45749   -45713   -45642   -45567   -45535   -45535 
  -45521   -45510   -45522   -45520   -45500   -45486   -45492   -45531 
  -45582   -45597   -45592   -45603   -45620   -45628   -45613   -45584 
  -45556   -45538   -45552   -45586   -45594   -45584   -45571   -45538 
  -45513   -45492   -45439   -45401   -45404   -45412   -45438   -45496 
  -45542   -45568   -45591   -45583   -45558   -45556   -45566   -45584 
  -45596   -45596   -45622   -45651   -45638   -45623   -45633   -45648 
  -45652   -45655   -45650   -45629   -45604   -45594   -45616   -45657 
  -45674   -45671   -45667   -45637   -45586   -45565   -45586   -45610 
  -45612   -45602   -45588   -45569   -45548   -45529   -45510   -45485 
  -45461   -45454   -45457   -45454   -45469   -45505   -45520   -45525 
  -45540   -45540   -45531   -45528   -45522   -45515   -45518   -45533 
  -45550   -45561   -45575   -45599   -45619   -45625   -45635   -45624 
  -45580   -45558   -45567   -45567   -45562   -45574   -45604   -45633 
  -45644   -45655   -45661   -45637   -45614   -45602   -45588   -45582 
  -45568   -45534   -45508   -45487   -45478   -45507   -45546   -45559 
  -45566   -45586   -45605   -45610   -45599   -45575   -45542   -45526 
  -45550   -45566   -45538   -45519   -45537   -45544   -45529   -45532 
  -45556   -45559   -45542   -45537   -45539   -45543   -45555   -45545 
  -45505   -45479   -45484   -45513   -45562   -45593   -45597   -45626 
  -45663   -45660   -45634   -45618   -45609   -45594   -45562   -45530 
  -45533   -45560   -45559   -45536   -45536   -45545   -45542   -45564 
  -45612   -45640   -45637   -45605   -45569   -45567   -45578   -45581 
  -45600   -45615   -45609   -45600   -45587   -45578   -45579   -45570 
  -45564   -45579   -45608   -45638   -45639   -45599   -45543   -45479 
  -45425   -45393   -45380   -45402   -45442   -45473   -45517   -45557 
  -45561   -45574   -45615   -45637   -45632   -45652   -45704   -45736 
  -45732   -45718   -45694   -45668   -45659   -45668   -45669   -45643 
  -45617   -45602   -45588   -45598   -45629   -45640   -45631   -45612 
  -45585   -45561   -45533   -45492   -45462   -45452   -45452   -45459 
  -45478   -45506   -45517   -45504   -45487   -45479   -45455   -45409 
  -45393   -45412   -45425   -45458   -45523   -45570   -45590   -45591 
  -45567   -45540   -45515   -45489   -45505   -45547   -45566   -45579 
  -45589   -45575   -45560   -45575   -45598   -45599   -45601   -45606 
  -45608   -45622   -45641   -45645   -45641   -45640   -45650   -45669 
  -45682   -45683   -45669   -45641   -45613   -45593   -45582   -45591 
  -45611   -45619   -45607   -45581   -45556   -45535   -45531   -45545 
  -45545   -45537   -45547   -45543   -45526   -45549   -45582   -45573 
  -45553   -45548   -45551   -45554   -45536   -45514   -45523   -45539 
  -45545   -45552   -45559   -45569   -45574   -45559   -45545   -45548 
  -45562   -45585   -45617   -45644   -45644   -45614   -45584   -45572 
  -45565   -45535   -45499   -45516   -45554   -45544   -45518   -45528 
  -45556   -45567   -45559   -45548   -45554   -45580   -45606   -45608 
  -45587   -45582   -45604   -45617   -45615   -45605   -45578   -45555 
  -45549   -45540   -45538   -45543   -45542   -45544   -45547   -45533 
  -45527   -45547   -45570   -45584   -45597   -45610   -45614   -45597 
  -45565   -45541   -45539   -45559   -45581   -45583   -45559   -45529 
  -45535   -45563   -45560   -45541   -45550   -45574   -45576   -45557 
  -45529   -45502   -45501   -45511   -45521   -45549   -45563   -45537 
  -45515   -45501   -45487   -45504   -45530   -45532   -45532   -45541 
  -45547   -45563   -45592   -45599   -45579   -45567   -45566   -45566 
  -45580   -45607   -45629   -45633   -45623   -45623   -45637   -45643 
  -45635   -45631   -45636   -45655   -45675   -45676   -45661   -45654 
  -45663   -45673   -45661   -45636   -45628   -45627   -45602   -45571 
  -45537   -45492   -45467   -45473   -45480   -45482   -45490   -45502 
  -45520   -45528   -45516   -45510   -45512   -45514   -45528   -45538 
  -45538   -45537   -45518   -45497   -45510   -45540   -45571   -45596 
  -45597   -45600   -45618   -45622   -45615   -45621   -45624   -45605 
  -45568   -45549   -45563   -45574   -45569   -45561   -45547   -45542 
  -45544   -45530   -45510   -45501   -45514   -45538   -45542   -45526 
  -45513   -45519   -45541   -45546   -45523   -45505   -45502   -45502 
  -45507   -45521   -45542   -45564   -45580   -45601   -45625   -45635 
  -45629   -45629   -45651   -45669   -45662   -45653   -45660   -45667 
  -45671   -45678   -45663   -45617   -45574   -45544   -45524   -45522 
  -45543   -45575   -45582   -45554   -45537   -45542   -45531   -45515 
