Origin Time       2025/03/28 03:50:00
Lat.              35.403
Long.             140.360
Depth. (km)       54
Mag.              4.4
Station Code      YMNH11
Station Lat.      35.6247
Station Long.     138.9777
Station Height(m) 265
Record Time       2025/03/28 03:51:14
Sampling Freq(Hz) 100Hz
Duration Time(s)  120
Dir.              2
Scale Factor      2940(gal)/6170270
Max. Acc. (gal)   0.321
Last Correction   2025/03/28 03:50:59
Memo.             
[...]
 -141699  -141705  -141703  -141682  -141654  -141620  -141590  -141602 
 -141647  -141658  -141626  -141599  -141591  -141605  -141638  -141641 
 -141625  -141658  -141731  -141790  -141800  -141771  -141747  -141727 
 -141694  -141680  -141681  -141651  -141611  -141607  -141620  -141629 
 -141636  -141646  -141682  -141724  -141722  -141686  -141657  -141650 
 -141675  -141713  -141726  -141716  -141692  -141662  -141647  -141632 
 -141592  -141571  -141608  -141650  -141658  -141676  -141709  -141715 
 -141701  -141689  -141680  -141681  -141695  -141711  -141717  -141702 
 -141687  -141700  -141704  -141664  -141623  -141616  -141614  -141594 
 -141573  -141566  -141581  -141604  -141611  -141618  -141644  -141683 
 -141728  -141765  -141787  -141799  -141786  -141750  -141719  -141702 
 -141683  -141657  -141625  -141594  -141580  -141587  -141608  -141628 
 -141640  -141641  -141640  -141645  -141651  -141651  -141667  -141712 
 -141754  -141758  -141728  -141689  -141666  -141680  -141695  -141675 
 -141651  -141635  -141628  -141639  -141635  -141614  -141619  -141640 
 -141656  -141666  -141673  -141676  -141669  -141656  -141657  -141668 
 -141665  -141642  -141627  -141644  -141664  -141657  -141646  -141662 
 -141672  -141660  -141670  -141699  -141693  -141672  -141683  -141717 
 -141743  -141737  -141703  -141676  -141671  -141676  -141688  -141699 
 -141688  -141648  -141623  -141647  -141678  -141690  -141697  -141677 
 -141646  -141663  -141700  -141696  -141675  -141669  -141663  -141653 
 -141655  -141664  -141669  -141659  -141636  -141626  -141616  -141594 
 -141593  -141612  -141617  -141628  -141665  -141698  -141705  -141694 
 -141692  -141709  -141734  -141759  -141743  -141695  -141684  -141699 
 -141681  -141648  -141638  -141639  -141640  -141641  -141630  -141617 
 -141624  -141645  -141671  -141682  -141673  -141666  -141671  -141677 
 -141676  -141676  -141677  -141679  -141680  -141681  -141687  -141700 
 -141689  -141653  -141637  -141648  -141657  -141668  -141686  -141681 
 -141652  -141649  -141673  -141691  -141712  -141718  -141692  -141670 
 -141660  -141650  -141656  -141667  -141664  -141650  -141626  -141604 
 -141600  -141616  -141639  -141651  -141656  -141670  -141687  -141697 
 -141705  -141696  -141667  -141650  -141652  -141659  -141658  -141654 
 -141659  -141663  -141649  -141644  -141658  -141666  -141675  -141691 
 -141696  -141685  -141663  -141644  -141652  -141669  -141677  -141695 
 -141709  -141701  -141705  -141726  -141723  -141706  -141720  -141735 
 -141700  -141650  -141629  -141615  -141599  -141612  -141653  -141684 
 -141691  -141683  -141669  -141659  -141666  -141687  -141694  -141680 
 -141661  -141648  -141641  -141649  -141665  -141665  -141652  -141643 
 -141641  -141646  -141639  -141623  -141638  -141672  -141687  -141690 
 -141692  -141686  -141685  -141691  -141690  -141679  -141674  -141685 
 -141684  -141662  -141660  -141670  -141659  -141642  -141631  -141624 
 -141635  -141664  -141700  -141723  -141727  -141721  -141705  -141693 
 -141680  -141644  -141622  -141640  -141638  -141608  -141615  -141649 
 -141659  -141666  -141681  -141677  -141657  -141638  -141622  -141620 
 -141639  -141671  -141698  -141706  -141703  -141703  -141702  -141691 
 -141671  -141658  -141675  -141705  -141701  -141669  -141660  -141676 
 -141681  -141668  -141656  -141656  -141655  -141648  -141647  -141647 
 -141643  -141638  -141628  -141622  -141621  -141616  -141619  -141645 
 -141675  -141686  -141692  -141698  -141696  -141695  -141693  -141680 
 -141669  -141673  -141681  -141692  -141699  -141704  -141712  -141723 
 -141727  -141726  -141727  -141718  -141696  -141684  -141677  -141665 
 -141663  -141657  -141640  -141641  -141653  -141636  -141610  -141621 
 -141651  -141655  -141650  -141674  -141700  -141693  -141673  -141667 
 -141660  -141641  -141631  -141637  -141628  -141619  -141638  -141660 
 -141668  -141681  -141679  -141657  -141642  -141645  -141653  -141671 
 -141703  -141727  -141717  -141688  -141671  -141666  -141658  -141655 
 -141656  -141640  -141611  -141605  -141637  -141679  -141696  -141692 
 -141689  -141685  -141678  -141679  -141684  -141683  -141680  -141690 
 -141700  -141689  -141670  -141654  -141628  -141597  -141585  -141595 
 -141611  -141632  -141660  -141689  -141709  -141715  -141705  -141689 
 -141685  -141688  -141678  -141658  -141653  -141655  -141655  -141665 
 -141684  -141689  -141673  -141660  -141673  -141702  -141715  -141699 
 -141681  -141686  -141703  -141708  -141697  -141673  -141649  -141643 
 -141639  -141622  -141606  -141594  -141596  -141628  -141668  -141690 
 -141702  -141705  -141692  -141677  -141668  -141660  -141654  -141651 
 -141653  -141675  -141702  -141703  -141697  -141702  -141702  -141691 
 -141674  -141653  -141635  -141631  -141632  -141630  -141633  -141651 
 -141668  -141678  -141703  -141730  -141733  -141721  -141707  -141687 
 -141668  -141651  -141629  -141619  -141635  -141652  -141648  -141639 
 -141641  -141645  -141648  -141663  -141678  -141682  -141689  -141703 
 -141713  -141712  -141697  -141665  -141632  -141617  -141621  -141632 
 -141649  -141673  -141696  -141711  -141715  -141716  -141715  -141704 
 -141691  -141687  -141688  -141685  -141671  -141654  -141642  -141643 
 -141665  -141685  -141682  -141678  -141690  -141689  -141669  -141652 
 -141652  -141658  -141661  -141662  -141650  -141635  -141640  -141650 
 -141650  -141651  -141647  -141639  -141634  -141626  -141627  -141648 
 -141681  -141708  -141714  -141705  -141687  -141663  -141638  -141614 
 -141596  -141596  -141606  -141624  -141661  -141707  -141740  -141748 
 -141732  -141711  -141699  -141696  -141698  -141694  -141677  -141655 
 -141638  -141631  -141639  -141645  -141641  -141638  -141639  -141631 
 -141616  -141619  -141637  -141642  -141640  -141652  -141668  -141686 
 -141716  -141747  -141762  -141755  -141733  -141707  -141689  -141687 
 -141678  -141656  -141638  -141627  -141611  -141594  -141588  -141607 
 -141636  -141653  -141661  -141684  -141717  -141728  -141713  -141698 
 -141693  -141694  -141694  -141683  -141662  -141646  -141648  -141653 
 -141645  -141637  -141642  -141650  -141661  -141677  -141690  -141690 
 -141680  -141678  -141684  -141687  -141684  -141668  -141645  -141645 
 -141666  -141681  -141680  -141673  -141670  -141664  -141659  -141667 
 -141671  -141660  -141657  -141663  -141666  -141663  -141661  -141662 
 -141668  -141677  -141684  -141679  -141668  -141670  -141683  -141700 
 -141707  -141695  -141680  -141673  -141668  -141657  -141639  -141626 
 -141622  -141624  -141627  -141629  -141644  -141670  -141691  -141707 
 -141720  -141719  -141693  -141660  -141656  -141673  -141669  -141658 
 -141669  -141685  -141689  -141685  -141675  -141661  -141653  -141658 
 -141666  -141665  -141669  -141677  -141672  -141666  -141674  -141673 
 -141660  -141659  -141669  -141675  -141678  -141685  -141690  -141679 
 -141663  -141666  -141676  -141682  -141690  -141687  -141670  -141657 
 -141644  -141634  -141650  -141671  -141667  -141655  -141651  -141647 
 -141647  -141662  -141673  -141657  -141638  -141642  -141664  -141690 
 -141697  -141685  -141676  -141681  -141700  -141732  -141746  -141714 
 -141666  -141636  -141613  -141585  -141572  -141579  -141585  -141595 
 -141623  -141648  -141654  -141659  -141672  -141679  -141690  -141703 
 -141692  -141669  -141673  -141684  -141676  -141675  -141685  -141680 
 -141665  -141666  -141683  -141688  -141668  -141648  -141633  -141620 
 -141633  -141663  -141668  -141658  -141663  -141675  -141696  -141722 
 -141734  -141736  -141727  -141697  -141663  -141655  -141669  -141673 
 -141662  -141655  -141650  -141652  -141671  -141686  -141675  -141664 
 -141667  -141666  -141674  -141692  -141686  -141663  -141657  -141667 
 -141682  -141696  -141705  -141692  -141664  -141658  -141680  -141698 
 -141694  -141677  -141654  -141632  -141620  -141616  -141622  -141651 
 -141686  -141689  -141668  -141648  -141626  -141615  -141626  -141642 
 -141648  -141655  -141674  -141694  -141708  -141717  -141709  -141686 
 -141662  -141638  -141616  -141607  -141624  -141655  -141668  -141653 
 -141644  -141657  -141672  -141680  -141683  -141679  -141674  -141675 
 -141690  -141699  -141687  -141677  -141686  -141699  -141708  -141705 
 -141698  -141696  -141694  -141695  -141717  -141742  -141730  -141685 
 -141650  -141640  -141634  -141625  -141632  -141647  -141648  -141647 
 -141662  -141674  -141669  -141654  -141641  -141640  -141648  -141656 
 -141657  -141660  -141671  -141675  -141672  -141672  -141667  -141653 
 -141648  -141662  -141687  -141711  -141723  -141710  -141677  -141642 
 -141622  -141620  -141627  -141637  -141639  -141640  -141662  -141692 
 -141697  -141690  -141694  -141693  -141671  -141655  -141656  -141656 
 -141655  -141649  -141629  -141617  -141632  -141649  -141652  -141651 
 -141663  -141693  -141723  -141733  -141728  -141721  -141708  -141695 
 -141694  -141699  -141691  -141673  -141654  -141642  -141640  -141641 
 -141642  -141643  -141638  -141634  -141640  -141652  -141660  -141668 
 -141688  -141714  -141713  -141683  -141649  -141629  -141625  -141626 
 -141634  -141660  -141688  -141700  -141697  -141685  -141683  -141698 
 -141707  -141693  -141677  -141675  -141674  -141666  -141665  -141671 
 -141670  -141658  -141636  -141623  -141634  -141640  -141627  -141630 
 -141661  -141692  -141699  -141687  -141673  -141670  -141671  -141668 
 -141673  -141694  -141714  -141718  -141714  -141700  -141676  -141658 
 -141646  -141637  -141640  -141649  -141658  -141678  -141701  -141718 
 -141742  -141763  -141751  -141714  -141678  -141652  -141630  -141617 
 -141620  -141636  -141652  -141655  -141648  -141637  -141633  -141637 
 -141634  -141625  -141626  -141625  -141618  -141620  -141642  -141675 
 -141693  -141690  -141688  -141671  -141633  -141624  -141651  -141669 
 -141674  -141685  -141694  -141690  -141689  -141693  -141692  -141689 
 -141687  -141676  -141653  -141629  -141622  -141631  -141647  -141668 
 -141687  -141691  -141688  -141699  -141715  -141708  -141687  -141681 
 -141671  -141633  -141604  -141613  -141632  -141645  -141664  -141684 
 -141700  -141701  -141678  -141655  -141659  -141673  -141682  -141692 
 -141706  -141709  -141700  -141711  -141741  -141747  -141726  -141704 
 -141665  -141616  -141603  -141622  -141634  -141643  -141655  -141667 
 -141670  -141657  -141650  -141661  -141669  -141670  -141671  -141663 
 -141660  -141674  -141685  -141677  -141666  -141670  -141683  -141692 
 -141695  -141702  -141709  -141700  -141688  -141678  -141653  -141621 
 -141607  -141614  -141630  -141641  -141646  -141644  -141643  -141647 
 -141654  -141663  -141665  -141664  -141673  -141682  -141678  -141673 
 -141681  -141691  -141688  -141674  -141658  -141661  -141674  -141671 
 -141664  -141669  -141674  -141676  -141680  -141680  -141681  -141691 
 -141702  -141704  -141696  -141681  -141666  -141650  -141639  -141640 
 -141645  -141644  -141644  -141649  -141652  -141644  -141635  -141633 
 -141629  -141614  -141607  -141610  -141613  -141627  -141667  -141709 
 -141723  -141715  -141704  -141684  -141662  -141660  -141666  -141662 
 -141653  -141652  -141660  -141676  -141699  -141728  -141744  -141744 
 -141740  -141741  -141740  -141727  -141694  -141666  -141672  -141705 
 -141726  -141726  -141722  -141712  -141691  -141668  -141637  -141602 
 -141589  -141600  -141603  -141587  -141565  -141550  -141555  -141582 
 -141622  -141661  -141693  -141719  -141733  -141737  -141743  -141761 
 -141778  -141780  -141771  -141750  -141711  -141665  -141622  -141587 
 -141566  -141543  -141501  -141452  -141425  -141437  -141472  -141511 
 -141557  -141601  -141641  -141693  -141741  -141771  -141801  -141825 
 -141834  -141832  -141808  -141771  -141757  -141758  -141750  -141737 
 -141711  -141652  -141581  -141548  -141558  -141575  -141580  -141587 
 -141617  -141665  -141702  -141730  -141762  -141764  -141722  -141687 
 -141683  -141689  -141692  -141702  -141718  -141734  -141766  -141812 
 -141841  -141829  -141788  -141743  -141690  -141624  -141553  -141483 
 -141429  -141412  -141429  -141460  -141508  -141578  -141664  -141755 
 -141831  -141875  -141894  -141900  -141884  -141844  -141789  -141721 
 -141634  -141539  -141472  -141459  -141495  -141551  -141606  -141650 
 -141678  -141685  -141674  -141637  -141585  -141540  -141511  -141512 
 -141557  -141628  -141700  -141776  -141834  -141829  -141774  -141729 
 -141709  -141691  -141677  -141672  -141657  -141624  -141599  -141588 
 -141590  -141619  -141663  -141699  -141724  -141734  -141732  -141730 
 -141743  -141791  -141853  -141866  -141812  -141726  -141637  -141571 
 -141537  -141524  -141530  -141544  -141554  -141581  -141637  -141702 
 -141757  -141784  -141776  -141763  -141760  -141749  -141723  -141706 
 -141698  -141674  -141635  -141593  -141541  -141476  -141435  -141468 
 -141573  -141711  -141836  -141919  -141973  -142008  -142020  -142012 
 -141970  -141876  -141767  -141678  -141610  -141554  -141517  -141515 
 -141533  -141541  -141536  -141516  -141474  -141427  -141397  -141383 
 -141397  -141452  -141520  -141571  -141599  -141600  -141581  -141563 
 -141557  -141534  -141484  -141451  -141465  -141507  -141552  -141597 
 -141649  -141713  -141787  -141869  -141961  -142059  -142141  -142188 
 -142200  -142196  -142180  -142123  -142002  -141846  -141685  -141509 
 -141330  -141192  -141107  -141063  -141037  -141005  -140993  -141043 
 -141142  -141252  -141371  -141511  -141664  -141781  -141832  -141857 
 -141892  -141942  -142021  -142107  -142155  -142170  -142177  -142179 
 -142184  -142187  -142167  -142131  -142084  -142000  -141903  -141846 
 -141808  -141759  -141714  -141663  -141585  -141491  -141406  -141332 
 -141262  -141208  -141183  -141179  -141184  -141205  -141265  -141362 
 -141482  -141607  -141721  -141799  -141832  -141844  -141846  -141835 
 -141830  -141838  -141824  -141781  -141743  -141721  -141693  -141663 
 -141658  -141664  -141667  -141676  -141680  -141675  -141686  -141709 
 -141718  -141717  -141710  -141689  -141638  -141549  -141454  -141402 
 -141394  -141401  -141406  -141410  -141415  -141418  -141414  -141426 
 -141465  -141499  -141531  -141590  -141668  -141736  -141801  -141890 
 -142011  -142150  -142244  -142229  -142158  -142098  -142001  -141852 
 -141717  -141617  -141535  -141467  -141422  -141410  -141421  -141452 
 -141513  -141578  -141620  -141658  -141703  -141737  -141770  -141816 
 -141853  -141854  -141828  -141809  -141799  -141779  -141754  -141724 
 -141680  -141632  -141602  -141605  -141633  -141648  -141633  -141627 
 -141658  -141702  -141730  -141736  -141720  -141702  -141711  -141727 
 -141710  -141663  -141599  -141541  -141515  -141504  -141490  -141499 
 -141525  -141534  -141530  -141529  -141554  -141602  -141633  -141635 
 -141654  -141697  -141736  -141763  -141777  -141763  -141731  -141713 
 -141735  -141773  -141785  -141778  -141763  -141725  -141697  -141708 
 -141718  -141688  -141633  -141591  -141569  -141543  -141530  -141569 
 -141640  -141684  -141681  -141646  -141605  -141573  -141548  -141537 
 -141549  -141574  -141590  -141580  -141546  -141518  -141519  -141542 
 -141562  -141581  -141620  -141668  -141710  -141754  -141789  -141803 
 -141798  -141771  -141742  -141733  -141730  -141713  -141699  -141701 
 -141695  -141672  -141653  -141654  -141661  -141652  -141635  -141616 
 -141579  -141549  -141565  -141602  -141642  -141699  -141743  -141739 
 -141726  -141733  -141737  -141737  -141760  -141787  -141789  -141780 
 -141791  -141817  -141834  -141832  -141815  -141792  -141780  -141789 
 -141791  -141754  -141709  -141688  -141670  -141644  -141615  -141588 
 -141576  -141593  -141615  -141615  -141613  -141634  -141640  -141608 
 -141579  -141579  -141592  -141609  -141626  -141642  -141659  -141664 
 -141651  -141639  -141655  -141697  -141742  -141764  -141761  -141747 
 -141730  -141721  -141727  -141722  -141687  -141640  -141598  -141562 
 -141529  -141504  -141495  -141498  -141515  -141561  -141617  -141642 
 -141636  -141628  -141628  -141622  -141597  -141558  -141524  -141496 
 -141482  -141511  -141568  -141603  -141612  -141623  -141647  -141679 
 -141722  -141767  -141790  -141789  -141780  -141775  -141798  -141833 
 -141832  -141797  -141758  -141732  -141729  -141748  -141771  -141783 
 -141786  -141794  -141813  -141813  -141763  -141676  -141598  -141549 
 -141520  -141504  -141505  -141529  -141571  -141612  -141641  -141654 
 -141666  -141696  -141734  -141750  -141734  -141715  -141717  -141720 
 -141707  -141696  -141695  -141692  -141686  -141686  -141700  -141726 
 -141745  -141728  -141684  -141646  -141608  -141564  -141558  -141600 
 -141633  -141630  -141612  -141613  -141641  -141676  -141707  -141729 
 -141734  -141719  -141687  -141655  -141642  -141647  -141652  -141654 
 -141659  -141675  -141700  -141722  -141719  -141689  -141663  -141645 
 -141617  -141607  -141642  -141690  -141713  -141704  -141680  -141669 
 -141681  -141695  -141682  -141638  -141594  -141576  -141573  -141576 
 -141600  -141647  -141698  -141733  -141748  -141761  -141777  -141776 
 -141749  -141707  -141668  -141645  -141638  -141643  -141648  -141629 
 -141605  -141608  -141623  -141617  -141585  -141562  -141577  -141607 
 -141626  -141645  -141669  -141687  -141693  -141689  -141665  -141624 
 -141580  -141550  -141548  -141578  -141636  -141704  -141753  -141772 
 -141761  -141735  -141713  -141682  -141629  -141582  -141562  -141574 
 -141598  -141621  -141646  -141667  -141671  -141671  -141687  -141722 
 -141760  -141790  -141813  -141836  -141846  -141822  -141777  -141747 
 -141728  -141693  -141648  -141612  -141598  -141606  -141624  -141645 
 -141657  -141653  -141642  -141632  -141635  -141649  -141653  -141644 
 -141643  -141647  -141645  -141645  -141654  -141657  -141654  -141670 
 -141705  -141724  -141728  -141747  -141773  -141781  -141770  -141752 
 -141730  -141706  -141692  -141693  -141694  -141689  -141678  -141659 
 -141644  -141642  -141629  -141601  -141569  -141531  -141515  -141547 
 -141597  -141640  -141671  -141666  -141648  -141653  -141668  -141673 
 -141673  -141663  -141622  -141574  -141558  -141571  -141589  -141604 
 -141623  -141644  -141658  -141678  -141704  -141701  -141664  -141626 
 -141607  -141623  -141674  -141724  -141745  -141747  -141748  -141757 
 -141773  -141784  -141782  -141769  -141741  -141701  -141662  -141638 
 -141631  -141625  -141589  -141526  -141481  -141487  -141521  -141551 
 -141571  -141599  -141640  -141678  -141713  -141744  -141761  -141773 
 -141787  -141798  -141810  -141823  -141818  -141782  -141736  -141710 
 -141712  -141721  -141734  -141761  -141776  -141763  -141750  -141753 
 -141753  -141748  -141755  -141759  -141739  -141702  -141667  -141639 
 -141622  -141608  -141584  -141560  -141559  -141578  -141603  -141623 
 -141621  -141604  -141589  -141594  -141617  -141626  -141607  -141589 
 -141582  -141577  -141575  -141580  -141594  -141624  -141663  -141676 
 -141652  -141624  -141612  -141602  -141583  -141576  -141593  -141614 
 -141634  -141665  -141690  -141696  -141689  -141675  -141670  -141690 
 -141719  -141717  -141680  -141648  -141635  -141611  -141580  -141572 
