Origin Time       2025/03/28 03:50:00
Lat.              35.403
Long.             140.360
Depth. (km)       54
Mag.              4.4
Station Code      YMNH16
Station Lat.      35.7421
Station Long.     138.5653
Station Height(m) 595
Record Time       2025/03/28 03:51:21
Sampling Freq(Hz) 100Hz
Duration Time(s)  120
Dir.              6
Scale Factor      7845(gal)/8223790
Max. Acc. (gal)   0.359
Last Correction   2025/03/28 03:51:21
Memo.             
[...]
    6826     6685     6682     6763     6741     6732     6821     6885 
    6836     6717     6696     6813     6839     6768     6739     6681 
    6702     6825     6777     6690     6772     6785     6748     6798 
    6790     6778     6794     6781     6837     6817     6667     6694 
    6835     6826     6751     6732     6785     6825     6794     6785 
    6785     6733     6702     6744     6818     6793     6704     6737 
    6816     6821     6781     6708     6725     6821     6839     6841 
    6806     6683     6687     6812     6820     6739     6717     6735 
    6723     6766     6855     6817     6758     6818     6853     6848 
    6835     6750     6709     6733     6700     6673     6716     6766 
    6777     6783     6805     6752     6708     6790     6841     6802 
    6758     6718     6733     6740     6756     6848     6818     6724 
    6759     6782     6766     6797     6844     6875     6790     6686 
    6787     6879     6779     6717     6748     6759     6763     6797 
    6813     6708     6625     6750     6851     6791     6741     6739 
    6771     6805     6778     6745     6744     6763     6798     6829 
    6841     6766     6663     6727     6818     6759     6709     6721 
    6733     6793     6848     6839     6813     6790     6793     6783 
    6712     6705     6754     6721     6748     6851     6818     6760 
    6818     6874     6876     6836     6771     6758     6745     6713 
    6733     6714     6673     6741     6774     6728     6751     6794 
    6817     6813     6737     6710     6736     6747     6797     6816 
    6787     6795     6770     6747     6786     6787     6756     6727 
    6710     6768     6813     6785     6768     6771     6781     6820 
    6818     6762     6756     6806     6856     6862     6797     6708 
    6678     6706     6732     6756     6791     6778     6774     6828 
    6816     6764     6772     6739     6683     6720     6786     6836 
    6852     6758     6700     6789     6852     6849     6810     6745 
    6779     6829     6771     6752     6759     6683     6658     6741 
    6789     6747     6701     6701     6760     6817     6763     6706 
    6751     6777     6778     6809     6799     6801     6849     6836 
    6799     6804     6797     6771     6714     6701     6793     6853 
    6853     6821     6732     6718     6763     6727     6725     6735 
    6662     6696     6798     6782     6762     6824     6840     6799 
    6817     6867     6837     6752     6710     6737     6778     6770 
    6751     6767     6779     6787     6778     6724     6706     6725 
    6731     6781     6824     6777     6766     6801     6783     6767 
    6754     6714     6760     6844     6795     6743     6770     6752 
    6762     6828     6786     6750     6804     6786     6779     6812 
    6739     6698     6740     6745     6778     6809     6781     6754 
    6728     6775     6866     6835     6793     6799     6733     6701 
    6745     6756     6764     6789     6783     6806     6832     6772 
    6743     6783     6755     6723     6770     6787     6766     6783 
    6813     6816     6808     6778     6741     6766     6786     6735 
    6694     6669     6664     6732     6758     6721     6762     6808 
    6809     6853     6836     6759     6787     6791     6706     6733 
    6786     6741     6768     6837     6817     6806     6832     6844 
    6840     6787     6727     6724     6708     6690     6724     6714 
    6694     6772     6810     6748     6781     6848     6801     6793 
    6841     6808     6756     6723     6708     6763     6766     6723 
    6762     6781     6772     6835     6867     6837     6832     6840 
    6809     6737     6700     6700     6698     6748     6806     6779 
    6760     6813     6832     6772     6725     6728     6763     6813 
    6820     6791     6772     6741     6709     6721     6752     6764 
    6772     6806     6840     6814     6744     6710     6729     6731 
    6729     6763     6772     6771     6817     6833     6778     6744 
    6754     6754     6755     6770     6770     6745     6729     6782 
    6853     6804     6713     6752     6825     6782     6732     6770 
    6785     6747     6750     6795     6795     6735     6739     6794 
    6777     6758     6814     6829     6764     6782     6860     6805 
    6737     6813     6829     6741     6720     6739     6777     6794 
    6728     6721     6808     6829     6801     6783     6772     6789 
    6805     6774     6740     6709     6682     6708     6751     6755 
    6756     6764     6750     6731     6743     6783     6786     6743 
    6756     6801     6797     6813     6824     6759     6740     6772 
    6744     6754     6795     6768     6809     6870     6808     6793 
    6808     6752     6750     6743     6691     6725     6748     6693 
    6714     6787     6818     6852     6878     6829     6737     6706 
    6751     6754     6705     6713     6756     6795     6862     6889 
    6847     6820     6806     6782     6759     6739     6717     6678 
    6670     6735     6770     6751     6766     6804     6828     6826 
    6795     6791     6821     6797     6732     6702     6701     6735 
    6786     6779     6775     6810     6789     6759     6797     6802 
    6764     6778     6777     6728     6714     6714     6732     6777 
    6790     6806     6828     6804     6762     6760     6809     6832 
    6778     6741     6770     6777     6754     6740     6731     6754 
    6806     6829     6818     6772     6733     6783     6837     6794 
    6743     6729     6739     6793     6802     6745     6772     6836 
    6797     6750     6766     6777     6744     6710     6720     6752 
    6786     6799     6772     6750     6747     6774     6843     6859 
    6775     6713     6718     6732     6747     6767     6798     6805 
    6763     6762     6822     6814     6745     6750     6775     6760 
    6779     6794     6747     6700     6720     6812     6875     6826 
    6743     6731     6771     6775     6727     6709     6717     6705 
    6750     6810     6790     6767     6789     6821     6837     6793 
    6727     6702     6705     6745     6805     6808     6777     6772 
    6781     6785     6794     6779     6736     6778     6868     6847 
    6795     6767     6744     6824     6863     6794     6812     6809 
    6702     6716     6821     6799     6681     6664     6751     6751 
    6723     6774     6770     6729     6763     6789     6782     6786 
    6786     6793     6793     6798     6814     6783     6759     6781 
    6735     6660     6670     6712     6712     6709     6759     6822 
    6822     6817     6860     6860     6812     6795     6771     6721 
    6732     6779     6783     6799     6833     6833     6848     6864 
    6795     6712     6681     6685     6706     6731     6770     6797 
    6791     6818     6847     6782     6706     6704     6741     6798 
    6852     6847     6763     6659     6659     6745     6770     6770 
    6828     6852     6821     6799     6756     6698     6721     6790 
    6794     6760     6782     6831     6805     6745     6747     6779 
    6778     6750     6725     6706     6714     6754     6785     6783 
    6750     6752     6790     6789     6799     6824     6809     6804 
    6787     6759     6768     6747     6723     6748     6733     6760 
    6858     6844     6813     6843     6793     6763     6808     6770 
    6716     6732     6720     6702     6744     6759     6764     6812 
    6816     6813     6840     6789     6727     6724     6675     6646 
    6737     6793     6736     6710     6777     6820     6805     6816 
    6816     6758     6704     6708     6786     6852     6810     6751 
    6785     6856     6870     6825     6762     6718     6743     6808 
    6821     6767     6714     6728     6801     6821     6794     6826 
    6825     6751     6731     6739     6729     6743     6733     6723 
    6777     6802     6771     6782     6771     6701     6718     6810 
    6793     6705     6737     6817     6770     6732     6808     6822 
    6767     6785     6816     6766     6698     6727     6795     6767 
    6736     6782     6787     6801     6868     6809     6725     6795 
    6836     6781     6747     6725     6728     6768     6786     6783 
    6772     6775     6801     6767     6743     6820     6805     6702 
    6744     6793     6731     6785     6879     6802     6721     6767 
    6816     6793     6718     6709     6801     6839     6825     6832 
    6748     6664     6731     6791     6752     6698     6693     6767 
    6813     6739     6700     6797     6852     6759     6739     6841 
    6802     6693     6718     6764     6770     6760     6747     6786 
    6794     6763     6786     6770     6745     6786     6791     6786 
    6790     6764     6771     6781     6783     6832     6805     6728 
    6739     6759     6802     6870     6814     6758     6770     6737 
    6751     6806     6785     6794     6818     6751     6740     6799 
    6743     6712     6808     6791     6740     6825     6836     6756 
    6752     6766     6779     6789     6732     6713     6750     6748 
    6781     6837     6786     6717     6720     6710     6718     6752 
    6729     6696     6700     6720     6751     6782     6805     6786 
    6767     6825     6862     6820     6789     6767     6741     6758 
    6789     6804     6812     6764     6741     6848     6918     6845 
    6791     6774     6731     6733     6741     6729     6779     6783 
    6727     6751     6789     6760     6751     6793     6829     6816 
    6783     6768     6760     6758     6768     6805     6818     6762 
    6724     6733     6736     6798     6829     6712     6678     6760 
    6737     6744     6825     6801     6786     6809     6741     6702 
    6735     6729     6745     6785     6768     6793     6820     6729 
    6681     6760     6822     6843     6824     6744     6737     6797 
    6774     6747     6750     6702     6744     6889     6887     6782 
    6747     6729     6732     6795     6810     6775     6783     6777 
    6774     6831     6812     6737     6748     6790     6816     6816 
    6772     6759     6764     6762     6791     6798     6744     6721 
    6785     6837     6771     6712     6778     6812     6783     6805 
    6781     6702     6697     6709     6731     6783     6767     6737 
    6744     6741     6767     6782     6748     6731     6709     6732 
    6851     6859     6754     6770     6818     6779     6813     6855 
    6770     6725     6751     6754     6799     6826     6794     6793 
    6781     6739     6747     6787     6782     6724     6694     6752 
    6805     6764     6748     6826     6836     6768     6777     6771 
    6702     6714     6801     6860     6851     6774     6721     6762 
    6785     6748     6779     6828     6771     6736     6799     6821 
    6763     6717     6717     6758     6781     6750     6737     6754 
    6747     6767     6798     6785     6783     6778     6729     6740 
    6786     6785     6793     6787     6778     6813     6804     6806 
    6845     6763     6690     6743     6764     6754     6751     6713 
    6701     6714     6710     6747     6808     6805     6791     6821 
    6833     6843     6859     6779     6701     6735     6737     6779 
    6882     6812     6740     6826     6831     6772     6745     6693 
    6714     6764     6756     6778     6771     6736     6782     6817 
    6781     6720     6698     6782     6862     6831     6789     6772 
    6747     6735     6747     6782     6797     6785     6798     6824 
    6805     6752     6718     6735     6762     6781     6790     6763 
    6751     6768     6768     6756     6723     6701     6752     6826 
    6863     6820     6754     6798     6847     6816     6806     6759 
    6697     6735     6744     6717     6745     6744     6728     6740 
    6739     6772     6817     6779     6744     6756     6763     6778 
    6806     6793     6764     6795     6848     6847     6810     6801 
    6826     6840     6828     6802     6731     6670     6723     6825 
    6831     6754     6729     6774     6790     6781     6779     6723 
    6679     6743     6777     6758     6786     6790     6791     6835 
    6822     6779     6751     6705     6712     6774     6779     6747 
    6754     6772     6733     6724     6781     6782     6766     6787 
    6785     6778     6756     6732     6798     6858     6817     6762 
    6737     6756     6814     6812     6747     6733     6732     6689 
    6693     6704     6678     6729     6801     6789     6782     6805 
    6808     6816     6822     6821     6866     6941     7002     7017 
    6960     6885     6860     6810     6693     6601     6559     6543 
    6548     6535     6552     6633     6704     6743     6748     6747 
    6810     6893     6929     6936     6898     6833     6813     6813 
    6793     6790     6816     6820     6818     6885     6949     6889 
    6795     6754     6713     6677     6636     6573     6534     6573 
    6721     6883     6939     6922     6893     6871     6831     6733 
    6656     6677     6787     6863     6768     6620     6555     6520 
    6528     6620     6748     6886     6997     7052     7084     7091 
    7006     6828     6652     6529     6471     6493     6521     6531 
    6585     6663     6733     6837     6947     7006     7038     7096 
    7148     7071     6880     6766     6731     6677     6615     6521 
    6505     6685     6851     6886     6843     6717     6637     6644 
    6664     6789     6939     6939     6870     6810     6764     6791 
    6816     6720     6623     6606     6623     6760     6913     6826 
    6691     6723     6755     6766     6847     6876     6805     6732 
    6690     6674     6670     6697     6766     6794     6818     6902 
    6948     6993     7078     7060     6974     6870     6666     6531 
    6590     6605     6535     6540     6558     6559     6643     6779 
    6875     6880     6856     6944     7020     6934     6885     6878 
    6720     6620     6737     6818     6813     6856     6853     6752 
    6650     6598     6628     6678     6662     6669     6721     6701 
    6639     6636     6686     6766     6826     6880     6967     6997 
    6922     6832     6845     6971     7013     6925     6858     6782 
    6678     6654     6682     6682     6636     6579     6597     6664 
    6694     6724     6786     6853     6887     6855     6818     6806 
    6752     6705     6735     6781     6813     6849     6839     6755 
    6708     6802     6945     6970     6902     6866     6835     6756 
    6681     6658     6683     6705     6708     6716     6727     6751 
    6782     6764     6741     6747     6763     6824     6866     6799 
    6740     6727     6675     6662     6721     6756     6817     6918 
    6916     6821     6759     6745     6735     6689     6632     6627 
    6663     6718     6770     6754     6720     6772     6825     6829 
    6866     6862     6787     6810     6876     6817     6759     6804 
    6810     6808     6859     6849     6822     6855     6806     6693 
    6690     6754     6731     6652     6663     6739     6768     6795 
    6825     6805     6785     6743     6686     6735     6813     6814 
    6795     6764     6732     6728     6725     6727     6733     6708 
    6687     6768     6893     6916     6875     6841     6804     6824 
    6868     6813     6751     6775     6806     6791     6766     6794 
    6852     6824     6743     6693     6687     6732     6750     6709 
    6670     6651     6685     6733     6702     6643     6632     6659 
    6702     6760     6822     6831     6777     6766     6825     6833 
    6777     6774     6833     6867     6852     6821     6801     6812 
    6831     6841     6894     6951     6921     6867     6829     6778 
    6750     6732     6683     6666     6660     6636     6679     6741 
    6728     6706     6710     6718     6771     6864     6910     6844 
    6735     6728     6774     6745     6702     6678     6659     6696 
    6740     6756     6790     6795     6795     6878     6929     6914 
    6910     6835     6744     6770     6779     6750     6782     6789 
    6779     6824     6841     6818     6760     6648     6590     6604 
    6619     6648     6677     6709     6759     6782     6802     6813 
    6824     6895     6906     6825     6820     6858     6840     6810 
    6781     6764     6789     6790     6770     6789     6824     6829 
    6808     6787     6785     6791     6795     6786     6764     6733 
    6731     6747     6702     6635     6627     6640     6655     6704 
    6758     6801     6860     6878     6836     6821     6816     6791 
    6787     6762     6728     6733     6725     6724     6766     6791 
    6805     6818     6831     6853     6852     6813     6762     6736 
    6759     6787     6808     6801     6745     6744     6785     6760 
    6747     6774     6766     6774     6778     6748     6756     6754 
    6723     6731     6718     6683     6736     6806     6804     6806 
    6824     6817     6818     6806     6772     6739     6691     6664 
    6669     6669     6687     6716     6727     6748     6778     6816 
    6855     6856     6851     6864     6847     6812     6798     6758 
    6716     6752     6789     6764     6756     6763     6740     6725 
    6739     6786     6843     6858     6845     6839     6818     6791 
    6770     6741     6724     6745     6768     6763     6760     6764 
    6760     6777     6785     6736     6689     6710     6741     6756 
    6793     6802     6760     6744     6774     6810     6820     6802 
    6791     6778     6763     6781     6812     6812     6751     6667 
    6643     6681     6701     6710     6758     6795     6789     6801 
    6825     6805     6779     6794     6818     6826     6847     6868 
    6867     6849     6847     6863     6835     6779     6801     6818 
    6752     6717     6706     6656     6669     6733     6729     6716 
    6750     6748     6712     6710     6745     6763     6741     6737 
    6787     6844     6880     6878     6839     6804     6777     6774 
    6781     6751     6718     6718     6723     6710     6701     6709 
    6716     6713     6741     6791     6809     6804     6799     6772 
    6741     6758     6785     6770     6760     6760     6748     6759 
    6791     6804     6813     6845     6868     6883     6898     6868 
    6828     6816     6777     6737     6740     6721     6710     6756 
    6775     6764     6768     6767     6768     6771     6752     6739 
    6755     6793     6797     6748     6725     6743     6732     6714 
    6735     6750     6750     6762     6771     6779     6775     6752 
    6755     6783     6785     6759     6741     6732     6743     6785 
    6806     6806     6835     6841     6814     6804     6762     6689 
    6671     6731     6793     6799     6785     6775     6752     6756 
    6786     6770     6736     6737     6758     6779     6804     6810 
    6794     6787     6798     6812     6826     6818     6799     6808 
    6812     6786     6747     6709     6694     6723     6748     6755 
    6772     6766     6732     6727     6720     6716     6766     6777 
