Origin Time       2025/03/28 03:50:00
Lat.              35.403
Long.             140.360
Depth. (km)       54
Mag.              4.4
Station Code      YMNH11
Station Lat.      35.6247
Station Long.     138.9777
Station Height(m) 465
Record Time       2025/03/28 03:51:14
Sampling Freq(Hz) 100Hz
Duration Time(s)  120
Dir.              4
Scale Factor      3920(gal)/6170801
Max. Acc. (gal)   2.582
Last Correction   2025/03/28 03:50:59
Memo.             
[...]
   -4021    -3926    -3806    -3686    -3649    -3710    -3818    -3922 
   -3958    -3900    -3808    -3761    -3797    -3897    -3992    -4043 
   -4057    -4035    -4010    -4063    -4179    -4242    -4192    -4061 
   -3882    -3673    -3550    -3673    -4019    -4366    -4490    -4336 
   -4024    -3711    -3545    -3626    -3904    -4190    -4332    -4338 
   -4290    -4195    -4040    -3897    -3835    -3874    -4013    -4200 
   -4353    -4388    -4262    -4047    -3884    -3845    -3897    -3967 
   -3978    -3876    -3716    -3658    -3760    -3898    -3987    -4073 
   -4154    -4138    -4003    -3889    -3955    -4144    -4271    -4269 
   -4161    -3979    -3841    -3838    -3910    -3968    -3962    -3896 
   -3847    -3864    -3935    -4025    -4055    -3967    -3856    -3871 
   -4041    -4263    -4384    -4353    -4262    -4149    -4012    -3947 
   -3976    -4032    -4092    -4097    -4001    -3921    -3927    -3919 
   -3811    -3665    -3625    -3745    -3916    -4059    -4176    -4207 
   -4098    -3944    -3894    -3951    -4027    -4104    -4196    -4226 
   -4128    -4006    -3987    -4017    -4010    -3979    -3922    -3838 
   -3804    -3888    -4059    -4183    -4111    -3864    -3652    -3679 
   -3945    -4270    -4453    -4402    -4182    -3975    -3919    -3975 
   -4045    -4099    -4097    -3974    -3806    -3768    -3902    -4094 
   -4198    -4133    -3948    -3793    -3802    -3974    -4157    -4194 
   -4067    -3919    -3915    -4075    -4282    -4381    -4296    -4103 
   -3938    -3851    -3835    -3864    -3910    -3963    -3993    -3963 
   -3917    -3927    -3978    -4011    -4007    -4003    -4028    -4061 
   -4096    -4134    -4120    -4006    -3819    -3634    -3545    -3587 
   -3662    -3655    -3609    -3671    -3881    -4132    -4300    -4358 
   -4325    -4229    -4166    -4234    -4412    -4607    -4719    -4689 
   -4532    -4325    -4154    -4049    -3986    -3923    -3797    -3578 
   -3357    -3286    -3401    -3594    -3750    -3823    -3817    -3762 
   -3711    -3742    -3898    -4133    -4358    -4521    -4584    -4516 
   -4336    -4112    -3954    -3972    -4153    -4326    -4330    -4162 
   -3932    -3737    -3623    -3611    -3680    -3801    -3947    -4048 
   -4025    -3897    -3770    -3760    -3880    -4064    -4270    -4422 
   -4395    -4192    -3960    -3807    -3774    -3886    -4090    -4243 
   -4239    -4119    -4014    -4001    -4051    -4104    -4121    -4087 
   -4032    -4016    -4051    -4075    -4042    -3962    -3851    -3740 
   -3689    -3693    -3690    -3663    -3663    -3742    -3889    -4048 
   -4175    -4226    -4182    -4118    -4106    -4127    -4149    -4213 
   -4328    -4404    -4372    -4267    -4179    -4142    -4118    -4092 
   -4066    -4012    -3914    -3813    -3750    -3743    -3800    -3895 
   -3927    -3828    -3686    -3636    -3689    -3781    -3868    -3949 
   -4032    -4096    -4125    -4137    -4136    -4087    -3997    -3938 
   -3954    -4028    -4147    -4290    -4399    -4419    -4359    -4269 
   -4176    -4083    -4017    -3997    -3980    -3915    -3815    -3749 
   -3737    -3710    -3614    -3526    -3560    -3708    -3881    -4037 
   -4159    -4223    -4216    -4128    -4006    -3967    -4082    -4273 
   -4364    -4294    -4172    -4092    -4035    -3997    -4019    -4079 
   -4109    -4109    -4123    -4176    -4235    -4205    -4040    -3840 
   -3761    -3824    -3904    -3897    -3847    -3862    -3927    -3937 
   -3874    -3826    -3867    -3974    -4061    -4082    -4063    -4035 
   -3986    -3894    -3793    -3771    -3871    -4029    -4148    -4183 
   -4133    -4020    -3911    -3877    -3941    -4075    -4207    -4262 
   -4235    -4167    -4088    -4010    -3945    -3903    -3898    -3930 
   -3966    -3970    -3952    -3979    -4073    -4166    -4180    -4093 
   -3943    -3814    -3770    -3814    -3920    -4076    -4242    -4319 
   -4256    -4118    -3990    -3934    -3962    -4028    -4086    -4128 
   -4118    -4017    -3874    -3798    -3841    -3976    -4136    -4248 
   -4275    -4229    -4149    -4047    -3920    -3800    -3713    -3649 
   -3604    -3584    -3575    -3563    -3580    -3692    -3914    -4161 
   -4330    -4378    -4331    -4238    -4158    -4149    -4233    -4376 
   -4526    -4599    -4511    -4288    -4058    -3937    -3950    -4046 
   -4132    -4088    -3855    -3541    -3325    -3279    -3362    -3506 
   -3652    -3763    -3831    -3885    -3953    -4024    -4103    -4220 
   -4356    -4438    -4444    -4396    -4316    -4231    -4166    -4119 
   -4094    -4097    -4137    -4207    -4269    -4266    -4146    -3932 
   -3754    -3694    -3693    -3689    -3668    -3624    -3586    -3601 
   -3668    -3769    -3911    -4072    -4189    -4226    -4213    -4205 
   -4227    -4253    -4255    -4235    -4189    -4139    -4134    -4140 
   -4095    -4018    -3954    -3907    -3859    -3814    -3805    -3861 
   -3960    -4036    -4037    -3974    -3900    -3850    -3811    -3769 
   -3756    -3825    -4008    -4252    -4440    -4473    -4337    -4109 
   -3916    -3849    -3912    -4034    -4103    -4069    -3988    -3912 
   -3856    -3870    -3990    -4159    -4269    -4258    -4157    -4032 
   -3923    -3841    -3785    -3752    -3767    -3831    -3897    -3929 
   -3947    -3986    -4044    -4098    -4136    -4165    -4158    -4072 
   -3960    -3941    -4027    -4099    -4065    -3949    -3841    -3810 
   -3874    -3997    -4125    -4232    -4290    -4265    -4165    -4040 
   -3934    -3881    -3911    -4001    -4078    -4072    -3991    -3922 
   -3935    -4011    -4093    -4154    -4200    -4212    -4135    -3974 
   -3839    -3823    -3898    -3968    -3945    -3835    -3751    -3787 
   -3927    -4089    -4171    -4134    -4032    -3945    -3904    -3899 
   -3895    -3867    -3835    -3845    -3917    -4003    -4036    -4020 
   -4016    -4058    -4165    -4320    -4441    -4469    -4417    -4298 
   -4116    -3912    -3746    -3662    -3662    -3722    -3819    -3949 
   -4110    -4255    -4302    -4208    -4019    -3845    -3769    -3790 
   -3868    -3975    -4062    -4055    -3943    -3821    -3774    -3811 
   -3899    -3990    -4065    -4125    -4161    -4161    -4128    -4095 
   -4076    -4029    -3939    -3865    -3849    -3873    -3921    -3996 
   -4102    -4219    -4311    -4346    -4313    -4244    -4180    -4131 
   -4080    -4042    -4044    -4052    -3988    -3853    -3735    -3701 
   -3723    -3718    -3656    -3592    -3618    -3772    -3980    -4131 
   -4180    -4159    -4124    -4099    -4076    -4079    -4139    -4235 
   -4311    -4345    -4343    -4321    -4284    -4210    -4086    -3942 
   -3836    -3813    -3835    -3828    -3776    -3722    -3692    -3680 
   -3709    -3812    -3963    -4093    -4172    -4200    -4174    -4110 
   -4045    -3992    -3941    -3887    -3842    -3843    -3926    -4053 
   -4124    -4111    -4075    -4071    -4103    -4162    -4240    -4295 
   -4259    -4135    -4018    -3969    -3964    -3960    -3925    -3863 
   -3814    -3796    -3786    -3788    -3855    -3991    -4099    -4103 
   -4017    -3892    -3782    -3733    -3776    -3929    -4142    -4296 
   -4330    -4285    -4225    -4186    -4163    -4128    -4074    -4044 
   -4072    -4111    -4085    -3996    -3907    -3889    -3968    -4097 
   -4189    -4179    -4084    -3976    -3890    -3840    -3845    -3872 
   -3854    -3787    -3745    -3790    -3904    -4030    -4130    -4179 
   -4175    -4149    -4126    -4090    -4015    -3920    -3834    -3761 
   -3733    -3813    -3979    -4109    -4133    -4095    -4051    -4022 
   -4003    -3977    -3942    -3920    -3936    -3992    -4035    -4020 
   -3984    -3983    -4038    -4131    -4228    -4290    -4304    -4293 
   -4290    -4295    -4278    -4211    -4075    -3873    -3675    -3559 
   -3528    -3530    -3546    -3614    -3752    -3902    -3994    -4028 
   -4031    -4030    -4078    -4192    -4303    -4343    -4329    -4295 
   -4237    -4154    -4079    -4040    -4017    -3976    -3917    -3857 
   -3831    -3860    -3907    -3897    -3814    -3737    -3753    -3851 
   -3964    -4064    -4143    -4182    -4184    -4186    -4198    -4200 
   -4194    -4177    -4127    -4059    -4025    -4041    -4073    -4074 
   -4017    -3911    -3793    -3715    -3705    -3738    -3780    -3849 
   -3975    -4133    -4273    -4331    -4248    -4063    -3909    -3875 
   -3925    -3994    -4081    -4188    -4252    -4220    -4110    -3960 
   -3812    -3718    -3712    -3781    -3892    -4007    -4089    -4118 
   -4104    -4081    -4053    -4016    -3979    -3948    -3917    -3900 
   -3928    -3991    -4011    -3948    -3847    -3765    -3725    -3753 
   -3868    -4051    -4252    -4408    -4463    -4427    -4369    -4341 
   -4352    -4349    -4286    -4209    -4174    -4136    -4032    -3892 
   -3810    -3817    -3840    -3792    -3643    -3438    -3291    -3292 
   -3402    -3525    -3652    -3816    -3968    -4028    -3999    -3967 
   -4027    -4210    -4458    -4675    -4785    -4775    -4675    -4528 
   -4383    -4284    -4220    -4151    -4057    -3957    -3874    -3788 
   -3674    -3584    -3591    -3699    -3811    -3819    -3723    -3637 
   -3659    -3784    -3943    -4059    -4068    -3960    -3825    -3786 
   -3874    -4020    -4156    -4255    -4294    -4263    -4175    -4063 
   -3994    -4048    -4194    -4299    -4282    -4184    -4090    -4039 
   -4018    -4010    -4003    -3986    -3943    -3851    -3756    -3739 
   -3811    -3920    -4032    -4095    -4051    -3920    -3803    -3794 
   -3903    -4053    -4156    -4192    -4187    -4161    -4111    -4033 
   -3984    -4043    -4173    -4225    -4145    -4033    -3979    -3947 
   -3862    -3751    -3698    -3745    -3878    -4041    -4154    -4173 
   -4127    -4068    -4011    -3970    -3987    -4059    -4114    -4083 
   -3972    -3875    -3864    -3898    -3916    -3933    -3998    -4127 
   -4283    -4385    -4358    -4236    -4118    -4035    -3990    -4037 
   -4173    -4283    -4240    -4025    -3772    -3624    -3586    -3596 
   -3632    -3690    -3733    -3711    -3642    -3620    -3700    -3833 
   -3961    -4074    -4176    -4267    -4328    -4322    -4249    -4185 
   -4218    -4350    -4474    -4469    -4329    -4169    -4083    -4079 
   -4101    -4086    -4013    -3883    -3711    -3576    -3590    -3758 
   -3943    -4011    -3962    -3882    -3835    -3850    -3904    -3935 
   -3939    -3963    -4020    -4072    -4100    -4096    -4043    -3956 
   -3880    -3838    -3840    -3902    -4014    -4130    -4191    -4168 
   -4097    -4063    -4121    -4235    -4319    -4321    -4254    -4171 
   -4113    -4068    -4006    -3943    -3923    -3940    -3951    -3933 
   -3897    -3867    -3857    -3872    -3902    -3917    -3908    -3902 
   -3918    -3935    -3929    -3926    -3964    -4036    -4102    -4104 
   -3999    -3836    -3748    -3797    -3875    -3866    -3837    -3914 
   -4057    -4133    -4120    -4086    -4085    -4141    -4250    -4375 
   -4449    -4460    -4466    -4469    -4420    -4341    -4252    -4121 
   -3975    -3907    -3923    -3908    -3782    -3611    -3493    -3457 
   -3519    -3696    -3903    -3995    -3934    -3809    -3713    -3673 
   -3686    -3735    -3799    -3870    -3950    -4037    -4113    -4148 
   -4124    -4050    -3959    -3904    -3941    -4069    -4220    -4317 
   -4335    -4296    -4243    -4215    -4222    -4237    -4212    -4130 
   -4036    -4029    -4174    -4405    -4542    -4472    -4243    -3998 
   -3848    -3802    -3809    -3833    -3852    -3811    -3689    -3563 
   -3529    -3570    -3611    -3649    -3736    -3920    -4168    -4326 
   -4293    -4117    -3872    -3634    -3498    -3534    -3699    -3854 
   -3904    -3885    -3878    -3934    -4086    -4300    -4472    -4553 
   -4595    -4646    -4694    -4727    -4796    -4939    -5081    -5124 
   -5050    -4864    -4572    -4230    -3887    -3547    -3214    -2960 
   -2871    -2939    -3060    -3158    -3217    -3219    -3196    -3258 
   -3468    -3761    -4061    -4357    -4634    -4829    -4900    -4865 
   -4760    -4597    -4366    -4065    -3740    -3487    -3374    -3336 
   -3252    -3106    -2995    -3012    -3143    -3301    -3438    -3581 
   -3759    -3941    -4052    -4070    -4089    -4215    -4480    -4819 
   -5076    -5109    -4961    -4808    -4777    -4869    -4989    -5032 
   -4931    -4697    -4415    -4146    -3900    -3715    -3652    -3724 
   -3856    -3936    -3907    -3770    -3551    -3312    -3149    -3120 
   -3195    -3275    -3272    -3192    -3125    -3158    -3295    -3490 
   -3722    -3983    -4247    -4503    -4768    -5014    -5142    -5107 
   -4965    -4803    -4687    -4639    -4626    -4589    -4505    -4357 
   -4118    -3817    -3564    -3471    -3527    -3616    -3654    -3671 
   -3698    -3653    -3422    -3072    -2867    -3013    -3435    -3911 
   -4288    -4525    -4651    -4733    -4817    -4900    -4931    -4784 
   -4344    -3681    -3025    -2568    -2356    -2383    -2686    -3294 
   -4099    -4863    -5411    -5696    -5698    -5411    -4971    -4641 
   -4597    -4736    -4757    -4450    -3869    -3202    -2606    -2191 
   -2040    -2161    -2470    -2855    -3268    -3695    -4114    -4484 
   -4765    -4978    -5215    -5527    -5882    -6188    -6283    -5969 
   -5197    -4139    -3072    -2230    -1708    -1455    -1389    -1454 
   -1618    -1877    -2221    -2604    -3054    -3711    -4640    -5745 
   -6833    -7672    -8071    -7968    -7449    -6707    -5949    -5307 
   -4779    -4266    -3673    -2996    -2333    -1798    -1453    -1292 
   -1276    -1365    -1545    -1816    -2188    -2637    -3098    -3528 
   -3930    -4329    -4748    -5156    -5450    -5523    -5394    -5211 
   -5113    -5157    -5287    -5357    -5269    -5060    -4860    -4750 
   -4637    -4358    -3887    -3363    -2963    -2786    -2826    -2992 
   -3197    -3393    -3512    -3495    -3402    -3352    -3426    -3661 
   -4030    -4436    -4803    -5095    -5246    -5202    -5009    -4788 
   -4617    -4462    -4223    -3824    -3270    -2685    -2237    -2021 
   -2072    -2375    -2791    -3140    -3381    -3607    -3878    -4161 
   -4399    -4573    -4691    -4758    -4748    -4652    -4521    -4446 
   -4538    -4862    -5338    -5772    -6013    -6017    -5833    -5561 
   -5293    -5076    -4862    -4531    -4022    -3440    -3005    -2827 
   -2797    -2783    -2746    -2635    -2398    -2107    -1905    -1855 
   -1900    -1953    -2025    -2204    -2516    -2902    -3357    -3925 
   -4606    -5382    -6219    -7003    -7567    -7784    -7620    -7156 
   -6516    -5795    -5057    -4320    -3559    -2774    -2043    -1515 
   -1319    -1472    -1884    -2403    -2897    -3302    -3632    -3974 
   -4368    -4711    -4879    -4871    -4810    -4807    -4821    -4726 
   -4486    -4183    -3900    -3684    -3576    -3620    -3797    -3949 
   -3889    -3618    -3307    -3115    -3089    -3183    -3331    -3501 
   -3663    -3760    -3804    -3899    -4123    -4467    -4889    -5352 
   -5790    -6096    -6172    -5999    -5667    -5271    -4829    -4326 
   -3751    -3113    -2492    -2009    -1722    -1614    -1629    -1729 
   -1962    -2391    -2977    -3602    -4160    -4606    -4971    -5334 
   -5728    -6086    -6304    -6336    -6197    -5905    -5487    -5007 
   -4547    -4161    -3860    -3635    -3477    -3403    -3428    -3505 
   -3546    -3519    -3459    -3406    -3365    -3289    -3114    -2837 
   -2516    -2224    -2033    -1983    -2057    -2199    -2370    -2596 
   -2948    -3442    -4046    -4740    -5499    -6249    -6873    -7290 
   -7481    -7483    -7399    -7318    -7191    -6895    -6349    -5575 
   -4689    -3807    -2980    -2233    -1632    -1253    -1068     -937 
    -792     -745     -913    -1236    -1559    -1841    -2169    -2583 
   -3035    -3492    -3965    -4477    -5038    -5597    -6062    -6386 
   -6583    -6692    -6730    -6630    -6324    -5886    -5437    -5015 
   -4606    -4190    -3766    -3373    -3054    -2863    -2838    -2921 
   -3001    -3022    -3016    -3048    -3156    -3319    -3490    -3595 
   -3560    -3409    -3280    -3292    -3460    -3747    -4097    -4439 
   -4677    -4755    -4741    -4740    -4739    -4646    -4449    -4232 
   -4062    -3953    -3913    -3942    -3997    -4024    -4019    -4028 
   -4095    -4221    -4373    -4517    -4614    -4637    -4581    -4444 
   -4244    -4067    -4002    -4050    -4124    -4115    -4000    -3864 
   -3804    -3810    -3778    -3632    -3451    -3373    -3360    -3283 
   -3114    -2908    -2734    -2636    -2624    -2715    -2954    -3373 
   -3933    -4526    -5050    -5468    -5768    -5893    -5810    -5590 
   -5335    -5075    -4814    -4581    -4344    -4014    -3607    -3280 
   -3175    -3261    -3376    -3416    -3376    -3283    -3183    -3124 
   -3102    -3104    -3140    -3216    -3326    -3475    -3687    -3980 
   -4332    -4669    -4924    -5094    -5189    -5186    -5111    -5046 
   -5015    -4959    -4814    -4567    -4277    -4032    -3910    -3971 
   -4185    -4433    -4574    -4528    -4315    -4037    -3821    -3719 
   -3649    -3524    -3380    -3294    -3287    -3295    -3234    -3065 
   -2838    -2684    -2705    -2863    -3058    -3222    -3327    -3405 
   -3533    -3775    -4127    -4495    -4753    -4872    -4948    -5089 
   -5310    -5513    -5563    -5413    -5154    -4913    -4749    -4651 
   -4546    -4330    -3974    -3574    -3284    -3191    -3248    -3353 
   -3450    -3528    -3573    -3567    -3548    -3582    -3659    -3706 
   -3699    -3690    -3707    -3720    -3716    -3733    -3805    -3936 
   -4106    -4251    -4326    -4355    -4386    -4415    -4406    -4383 
   -4422    -4532    -4651    -4712    -4649    -4421    -4074    -3724 
   -3507    -3467    -3480    -3396    -3223    -3077    -3015    -3045 
   -3188    -3422    -3662    -3832    -3947    -4107    -4354    -4592 
   -4744    -4825    -4853    -4846    -4847    -4879    -4919    -4894 
   -4722    -4415    -4087    -3847    -3760    -3809    -3883    -3871 
   -3731    -3507    -3328    -3325    -3533    -3853    -4107    -4179 
   -4118    -4041    -3994    -3959    -3915    -3835    -3696    -3522 
   -3387    -3342    -3358    -3359    -3322    -3300    -3356    -3518 
   -3757    -4006    -4221    -4406    -4581    -4783    -5034    -5317 
   -5569    -5672    -5509    -5108    -4643    -4281    -4108    -4114 
   -4174    -4101    -3813    -3397    -3031    -2873    -2946    -3125 
   -3231    -3154    -2959    -2835    -2923    -3222    -3646    -4070 
   -4387    -4548    -4549    -4427    -4246    -4096    -4067    -4186 
   -4397    -4588    -4666    -4590    -4378    -4125    -3966    -3964 
   -4098    -4305    -4473    -4488    -4318    -4036    -3753    -3550 
   -3488    -3578    -3721    -3780    -3737    -3697    -3766    -3960 
   -4234    -4513    -4718    -4787    -4712    -4529    -4285    -4030 
   -3817    -3649    -3480    -3297    -3143    -3072    -3124    -3302 
   -3532    -3687    -3694    -3613    -3578    -3682    -3935    -4267 
   -4572    -4746    -4762    -4696    -4661    -4714    -4841    -5013 
   -5185    -5264    -5160    -4895    -4594    -4356    -4180    -4019 
   -3838    -3599    -3263    -2867    -2521    -2315    -2269    -2345 
