Origin Time       2025/03/28 03:50:00
Lat.              35.403
Long.             140.360
Depth. (km)       54
Mag.              4.4
Station Code      YMNH16
Station Lat.      35.7421
Station Long.     138.5653
Station Height(m) 339
Record Time       2025/03/28 03:51:21
Sampling Freq(Hz) 100Hz
Duration Time(s)  120
Dir.              3
Scale Factor      2942(gal)/8224139
Max. Acc. (gal)   0.148
Last Correction   2025/03/28 03:51:21
Memo.             
[...]
 -844311  -844302  -844345  -844334  -844314  -844311  -844310  -844327 
 -844330  -844311  -844323  -844341  -844330  -844298  -844269  -844279 
 -844302  -844317  -844311  -844299  -844342  -844357  -844269  -844225 
 -844236  -844229  -844273  -844333  -844327  -844308  -844299  -844317 
 -844358  -844344  -844287  -844267  -844267  -844283  -844321  -844327 
 -844303  -844300  -844308  -844321  -844354  -844352  -844312  -844314 
 -844326  -844311  -844300  -844271  -844230  -844261  -844300  -844268 
 -844248  -844281  -844314  -844308  -844275  -844296  -844357  -844376 
 -844372  -844357  -844337  -844331  -844303  -844273  -844292  -844292 
 -844276  -844303  -844314  -844307  -844341  -844358  -844327  -844300 
 -844304  -844314  -844290  -844263  -844317  -844357  -844287  -844231 
 -844264  -844285  -844265  -844265  -844269  -844253  -844254  -844271 
 -844269  -844283  -844303  -844300  -844303  -844330  -844353  -844352 
 -844337  -844330  -844318  -844304  -844310  -844314  -844315  -844330 
 -844329  -844299  -844273  -844292  -844334  -844333  -844319  -844334 
 -844346  -844346  -844339  -844315  -844294  -844267  -844240  -844256 
 -844285  -844315  -844366  -844362  -844315  -844315  -844326  -844302 
 -844269  -844249  -844227  -844210  -844227  -844267  -844308  -844372 
 -844391  -844330  -844300  -844348  -844356  -844288  -844240  -844236 
 -844250  -844279  -844288  -844272  -844285  -844334  -844364  -844348 
 -844333  -844341  -844329  -844322  -844350  -844352  -844335  -844344 
 -844346  -844326  -844295  -844267  -844256  -844249  -844250  -844269 
 -844294  -844303  -844291  -844304  -844314  -844263  -844248  -844294 
 -844291  -844291  -844356  -844380  -844350  -844344  -844335  -844288 
 -844237  -844227  -844246  -844253  -844280  -844335  -844346  -844333 
 -844346  -844338  -844294  -844281  -844307  -844288  -844238  -844260 
 -844307  -844275  -844248  -844290  -844307  -844288  -844327  -844399 
 -844404  -844345  -844295  -844299  -844354  -844364  -844294  -844279 
 -844317  -844314  -844315  -844341  -844337  -844325  -844338  -844335 
 -844302  -844285  -844296  -844295  -844302  -844323  -844333  -844322 
 -844290  -844238  -844222  -844245  -844246  -844250  -844290  -844329 
 -844348  -844349  -844329  -844287  -844258  -844285  -844306  -844267 
 -844244  -844284  -844317  -844304  -844306  -844345  -844362  -844329 
 -844302  -844325  -844327  -844291  -844292  -844284  -844231  -844246 
 -844312  -844331  -844319  -844292  -844265  -844277  -844292  -844291 
 -844304  -844335  -844384  -844418  -844389  -844352  -844321  -844258 
 -844230  -844272  -844294  -844306  -844344  -844327  -844279  -844290 
 -844315  -844291  -844256  -844273  -844307  -844292  -844267  -844269 
 -844292  -844342  -844357  -844292  -844263  -844279  -844249  -844258 
 -844342  -844346  -844300  -844321  -844341  -844322  -844295  -844254 
 -844264  -844303  -844249  -844202  -844279  -844331  -844300  -844325 
 -844381  -844356  -844290  -844263  -844264  -844276  -844291  -844298 
 -844306  -844331  -844366  -844398  -844412  -844415  -844391  -844326 
 -844268  -844263  -844267  -844258  -844268  -844294  -844330  -844377 
 -844398  -844369  -844325  -844284  -844244  -844219  -844219  -844233 
 -844249  -844254  -844256  -844279  -844311  -844330  -844318  -844302 
 -844319  -844341  -844342  -844345  -844344  -844327  -844303  -844304 
 -844326  -844315  -844277  -844271  -844306  -844342  -844353  -844358 
 -844354  -844315  -844287  -844296  -844271  -844214  -844202  -844225 
 -844246  -844257  -844272  -844321  -844387  -844418  -844388  -844322 
 -844276  -844258  -844240  -844210  -844199  -844240  -844303  -844326 
 -844337  -844362  -844349  -844276  -844236  -844283  -844341  -844345 
 -844344  -844349  -844329  -844295  -844268  -844254  -844264  -844283 
 -844302  -844329  -844353  -844372  -844373  -844329  -844281  -844284 
 -844285  -844277  -844298  -844300  -844276  -844280  -844315  -844350 
 -844360  -844329  -844307  -844335  -844346  -844314  -844298  -844292 
 -844265  -844246  -844269  -844312  -844330  -844319  -844318  -844337 
 -844353  -844341  -844303  -844279  -844277  -844291  -844298  -844271 
 -844242  -844264  -844291  -844281  -844269  -844284  -844299  -844290 
 -844275  -844287  -844307  -844315  -844322  -844296  -844280  -844306 
 -844294  -844253  -844245  -844248  -844277  -844345  -844387  -844392 
 -844366  -844323  -844308  -844317  -844318  -844330  -844337  -844314 
 -844314  -844353  -844349  -844310  -844317  -844310  -844252  -844242 
 -844279  -844302  -844315  -844317  -844321  -844342  -844335  -844292 
 -844272  -844284  -844292  -844279  -844271  -844296  -844337  -844350 
 -844344  -844345  -844335  -844306  -844283  -844257  -844230  -844244 
 -844284  -844314  -844334  -844360  -844380  -844376  -844356  -844300 
 -844206  -844159  -844190  -844225  -844253  -844302  -844335  -844341 
 -844350  -844352  -844333  -844312  -844283  -844267  -844273  -844269 
 -844281  -844319  -844342  -844344  -844327  -844318  -844341  -844361 
 -844354  -844331  -844303  -844283  -844290  -844304  -844310  -844295 
 -844288  -844304  -844298  -844276  -844280  -844284  -844290  -844327 
 -844345  -844311  -844288  -844281  -844260  -844254  -844281  -844287 
 -844269  -844276  -844317  -844350  -844362  -844357  -844346  -844346 
 -844339  -844311  -844268  -844231  -844233  -844268  -844273  -844248 
 -844244  -844267  -844294  -844307  -844292  -844279  -844295  -844299 
 -844280  -844292  -844334  -844350  -844325  -844298  -844312  -844338 
 -844333  -844317  -844302  -844290  -844284  -844275  -844300  -844338 
 -844306  -844271  -844295  -844318  -844322  -844338  -844348  -844344 
 -844335  -844321  -844287  -844258  -844269  -844285  -844264  -844265 
 -844322  -844342  -844311  -844308  -844330  -844353  -844360  -844306 
 -844252  -844273  -844299  -844290  -844304  -844338  -844346  -844341 
 -844335  -844325  -844303  -844281  -844272  -844265  -844269  -844277 
 -844269  -844296  -844353  -844383  -844393  -844387  -844352  -844326 
 -844325  -844314  -844295  -844271  -844241  -844244  -844268  -844261 
 -844252  -844260  -844268  -844285  -844294  -844281  -844283  -844283 
 -844281  -844299  -844306  -844288  -844276  -844291  -844314  -844310 
 -844308  -844326  -844319  -844299  -844287  -844280  -844300  -844314 
 -844299  -844303  -844307  -844281  -844268  -844280  -844298  -844335 
 -844362  -844339  -844322  -844368  -844398  -844361  -844346  -844366 
 -844342  -844287  -844254  -844227  -844221  -844249  -844276  -844308 
 -844360  -844384  -844391  -844399  -844366  -844307  -844265  -844211 
 -844155  -844153  -844177  -844218  -844302  -844368  -844377  -844346 
 -844296  -844277  -844267  -844213  -844184  -844234  -844299  -844333 
 -844361  -844376  -844341  -844299  -844307  -844331  -844346  -844373 
 -844381  -844348  -844295  -844254  -844254  -844275  -844290  -844323 
 -844331  -844295  -844303  -844337  -844318  -844298  -844306  -844300 
 -844284  -844280  -844299  -844335  -844358  -844354  -844339  -844317 
 -844288  -844291  -844317  -844311  -844304  -844334  -844334  -844281 
 -844244  -844264  -844306  -844307  -844303  -844334  -844349  -844329 
 -844308  -844291  -844269  -844230  -844187  -844202  -844261  -844298 
 -844302  -844304  -844330  -844364  -844356  -844331  -844330  -844312 
 -844299  -844307  -844279  -844261  -844298  -844318  -844318  -844354 
 -844375  -844339  -844306  -844310  -844304  -844272  -844265  -844294 
 -844290  -844269  -844298  -844342  -844360  -844362  -844344  -844307 
 -844292  -844279  -844263  -844277  -844295  -844287  -844302  -844321 
 -844288  -844250  -844252  -844279  -844300  -844299  -844298  -844295 
 -844280  -844285  -844298  -844292  -844302  -844329  -844330  -844304 
 -844291  -844302  -844314  -844319  -844306  -844279  -844288  -844338 
 -844358  -844338  -844338  -844333  -844277  -844244  -844263  -844271 
 -844269  -844310  -844348  -844344  -844350  -844393  -844412  -844361 
 -844307  -844321  -844345  -844330  -844311  -844280  -844249  -844277 
 -844302  -844273  -844246  -844241  -844261  -844291  -844284  -844269 
 -844271  -844281  -844290  -844267  -844260  -844294  -844287  -844279 
 -844327  -844345  -844327  -844352  -844341  -844246  -844210  -844283 
 -844325  -844295  -844294  -844327  -844346  -844349  -844333  -844304 
 -844273  -844245  -844267  -844317  -844299  -844271  -844326  -844373 
 -844339  -844303  -844326  -844366  -844349  -844285  -844271  -844294 
 -844299  -844321  -844357  -844361  -844360  -844364  -844345  -844323 
 -844307  -844292  -844277  -844268  -844281  -844295  -844294  -844317 
 -844330  -844312  -844315  -844306  -844277  -844288  -844296  -844285 
 -844303  -844327  -844334  -844315  -844284  -844269  -844256  -844245 
 -844264  -844285  -844300  -844311  -844290  -844261  -844272  -844284 
 -844267  -844272  -844308  -844306  -844285  -844310  -844321  -844285 
 -844281  -844300  -844294  -844292  -844291  -844287  -844312  -844335 
 -844341  -844353  -844337  -844295  -844287  -844292  -844292  -844327 
 -844365  -844357  -844335  -844345  -844387  -844410  -844380  -844334 
 -844322  -844331  -844300  -844253  -844268  -844303  -844306  -844312 
 -844312  -844318  -844352  -844342  -844307  -844321  -844295  -844207 
 -844186  -844218  -844221  -844227  -844261  -844269  -844272  -844302 
 -844315  -844298  -844292  -844312  -844333  -844333  -844317  -844302 
 -844285  -844268  -844277  -844306  -844306  -844291  -844285  -844284 
 -844296  -844308  -844312  -844331  -844318  -844280  -844307  -844346 
 -844342  -844357  -844365  -844317  -844268  -844254  -844257  -844279 
 -844314  -844341  -844361  -844384  -844377  -844345  -844341  -844333 
 -844303  -844335  -844379  -844318  -844240  -844249  -844290  -844300 
 -844298  -844304  -844308  -844303  -844318  -844350  -844327  -844261 
 -844237  -844252  -844273  -844308  -844329  -844321  -844326  -844327 
 -844290  -844253  -844248  -844260  -844290  -844312  -844303  -844296 
 -844317  -844327  -844296  -844260  -844276  -844290  -844254  -844248 
 -844281  -844294  -844287  -844296  -844307  -844296  -844292  -844298 
 -844277  -844256  -844269  -844304  -844341  -844354  -844341  -844339 
 -844353  -844353  -844349  -844353  -844341  -844311  -844295  -844317 
 -844354  -844361  -844322  -844295  -844300  -844284  -844268  -844277 
 -844272  -844264  -844290  -844329  -844341  -844338  -844342  -844331 
 -844291  -844275  -844288  -844285  -844252  -844227  -844263  -844325 
 -844326  -844290  -844306  -844327  -844294  -844261  -844281  -844314 
 -844311  -844306  -844335  -844354  -844341  -844300  -844264  -844283 
 -844311  -844287  -844268  -844284  -844284  -844283  -844303  -844317 
 -844295  -844261  -844284  -844339  -844330  -844306  -844337  -844344 
 -844319  -844321  -844317  -844298  -844311  -844325  -844303  -844299 
 -844315  -844307  -844307  -844319  -844326  -844354  -844369  -844345 
 -844304  -844260  -844267  -844322  -844322  -844279  -844275  -844296 
 -844314  -844322  -844317  -844330  -844342  -844304  -844267  -844273 
 -844271  -844249  -844241  -844250  -844288  -844344  -844379  -844392 
 -844383  -844339  -844295  -844276  -844252  -844222  -844237  -844275 
 -844295  -844304  -844329  -844346  -844317  -844273  -844269  -844283 
 -844294  -844302  -844321  -844354  -844354  -844312  -844292  -844285 
 -844273  -844288  -844310  -844304  -844302  -844321  -844330  -844310 
 -844283  -844277  -844285  -844285  -844288  -844296  -844299  -844303 
 -844303  -844300  -844310  -844333  -844345  -844339  -844345  -844344 
 -844315  -844294  -844279  -844272  -844295  -844302  -844284  -844287 
 -844299  -844315  -844334  -844339  -844345  -844342  -844314  -844294 
 -844292  -844298  -844302  -844277  -844244  -844263  -844306  -844312 
 -844314  -844335  -844344  -844345  -844353  -844334  -844290  -844288 
 -844304  -844276  -844257  -844283  -844292  -844279  -844287  -844307 
 -844280  -844241  -844261  -844287  -844265  -844268  -844300  -844310 
 -844311  -844312  -844298  -844295  -844299  -844268  -844246  -844268 
 -844272  -844241  -844240  -844291  -844334  -844348  -844361  -844372 
 -844362  -844339  -844321  -844325  -844331  -844304  -844267  -844265 
 -844288  -844310  -844331  -844350  -844366  -844366  -844337  -844317 
 -844334  -844368  -844388  -844388  -844396  -844420  -844433  -844429 
 -844420  -844387  -844346  -844308  -844241  -844176  -844145  -844102 
 -844048  -844007  -843993  -844011  -844051  -844107  -844196  -844279 
 -844349  -844445  -844539  -844601  -844636  -844624  -844569  -844523 
 -844477  -844395  -844300  -844223  -844173  -844152  -844145  -844161 
 -844209  -844256  -844272  -844254  -844221  -844191  -844188  -844199 
 -844184  -844171  -844202  -844264  -844334  -844419  -844465  -844425 
 -844354  -844310  -844253  -844172  -844118  -844138  -844248  -844411 
 -844523  -844524  -844461  -844376  -844264  -844165  -844128  -844157 
 -844260  -844391  -844493  -844565  -844603  -844562  -844430  -844263 
 -844140  -844123  -844214  -844357  -844473  -844504  -844474  -844442 
 -844410  -844376  -844333  -844238  -844105  -844001  -843998  -844069 
 -844102  -844079  -844101  -844195  -844298  -844379  -844442  -844487 
 -844537  -844600  -844651  -844665  -844588  -844410  -844218  -844109 
 -844117  -844187  -844254  -844318  -844366  -844400  -844437  -844400 
 -844231  -844025  -843902  -843889  -843951  -844068  -844223  -844338 
 -844356  -844339  -844372  -844407  -844415  -844438  -844457  -844410 
 -844350  -844350  -844356  -844337  -844326  -844302  -844281  -844312 
 -844348  -844352  -844346  -844300  -844183  -844082  -844086  -844146 
 -844209  -844272  -844307  -844337  -844445  -844574  -844605  -844592 
 -844596  -844518  -844350  -844207  -844122  -844063  -844036  -844060 
 -844110  -844159  -844206  -844242  -844267  -844273  -844240  -844207 
 -844248  -844333  -844403  -844429  -844412  -844411  -844447  -844472 
 -844465  -844484  -844533  -844519  -844433  -844379  -844360  -844284 
 -844150  -844063  -844094  -844177  -844184  -844150  -844207  -844295 
 -844307  -844315  -844383  -844464  -844488  -844452  -844434  -844437 
 -844372  -844245  -844150  -844140  -844167  -844198  -844257  -844329 
 -844360  -844333  -844275  -844207  -844122  -844075  -844150  -844308 
 -844415  -844458  -844492  -844469  -844393  -844371  -844366  -844279 
 -844150  -844106  -844159  -844222  -844265  -844302  -844312  -844275 
 -844209  -844198  -844276  -844358  -844383  -844354  -844292  -844256 
 -844277  -844295  -844268  -844227  -844226  -844272  -844315  -844344 
 -844387  -844402  -844366  -844364  -844420  -844460  -844422  -844361 
 -844330  -844285  -844238  -844272  -844327  -844302  -844294  -844375 
 -844425  -844419  -844425  -844403  -844358  -844341  -844335  -844315 
 -844275  -844238  -844229  -844245  -844272  -844279  -844240  -844179 
 -844165  -844225  -844287  -844317  -844339  -844308  -844206  -844163 
 -844218  -844296  -844348  -844379  -844416  -844443  -844420  -844391 
 -844381  -844337  -844256  -844194  -844182  -844223  -844277  -844294 
 -844280  -844287  -844345  -844376  -844317  -844253  -844253  -844264 
 -844271  -844273  -844234  -844200  -844240  -844299  -844339  -844365 
 -844362  -844345  -844338  -844337  -844342  -844354  -844357  -844330 
 -844281  -844244  -844218  -844192  -844176  -844195  -844264  -844338 
 -844371  -844372  -844366  -844368  -844373  -844362  -844362  -844396 
 -844414  -844393  -844389  -844408  -844395  -844365  -844371  -844368 
 -844322  -844314  -844349  -844317  -844237  -844211  -844217  -844210 
 -844206  -844219  -844257  -844295  -844303  -844300  -844296  -844292 
 -844300  -844290  -844263  -844275  -844296  -844273  -844242  -844238 
 -844231  -844214  -844210  -844241  -844290  -844317  -844331  -844373 
 -844433  -844457  -844416  -844350  -844296  -844275  -844287  -844298 
 -844290  -844311  -844348  -844311  -844246  -844242  -844264  -844272 
 -844268  -844245  -844237  -844257  -844260  -844273  -844350  -844437 
 -844465  -844447  -844412  -844361  -844308  -844314  -844356  -844329 
 -844248  -844213  -844244  -844294  -844312  -844298  -844303  -844322 
 -844322  -844331  -844322  -844281  -844295  -844344  -844335  -844281 
 -844230  -844209  -844225  -844238  -844245  -844258  -844263  -844265 
 -844260  -844199  -844148  -844186  -844230  -844245  -844299  -844368 
 -844399  -844408  -844384  -844329  -844298  -844303  -844311  -844314 
 -844315  -844310  -844314  -844329  -844348  -844372  -844395  -844398 
 -844361  -844299  -844285  -844317  -844323  -844319  -844352  -844389 
 -844388  -844368  -844360  -844334  -844268  -844219  -844214  -844221 
 -844218  -844221  -844252  -844268  -844250  -844263  -844306  -844330 
 -844345  -844349  -844319  -844299  -844312  -844317  -844277  -844222 
 -844192  -844165  -844123  -844115  -844156  -844204  -844264  -844342 
 -844415  -844450  -844453  -844454  -844465  -844447  -844402  -844379 
 -844396  -844407  -844369  -844319  -844326  -844366  -844361  -844334 
 -844334  -844319  -844288  -844267  -844219  -844195  -844250  -844308 
 -844337  -844377  -844389  -844342  -844300  -844298  -844299  -844269 
 -844236  -844223  -844214  -844217  -844248  -844280  -844291  -844275 
 -844249  -844236  -844248  -844264  -844279  -844291  -844299  -844300 
 -844288  -844256  -844248  -844283  -844326  -844341  -844337  -844327 
 -844310  -844302  -844311  -844319  -844321  -844334  -844349  -844330 
 -844314  -844361  -844415  -844416  -844416  -844426  -844407  -844389 
 -844381  -844346  -844304  -844294  -844292  -844276  -844249  -844225 
 -844219  -844229  -844246  -844254  -844226  -844182  -844163  -844167 
 -844179  -844202  -844231  -844264  -844310  -844360  -844391  -844389 
 -844361  -844338  -844317  -844292  -844308  -844344  -844341  -844315 
 -844303  -844307  -844311  -844287  -844253  -844238  -844229  -844231 
 -844271  -844321  -844339  -844326  -844323  -844339  -844345  -844325 
 -844304  -844308  -844327  -844349  -844377  -844395  -844380  -844362 
 -844353  -844333  -844311  -844291  -844263  -844253  -844272  -844294 
 -844325  -844375  -844404  -844381  -844346  -844327  -844299  -844271 
 -844290  -844335  -844348  -844330  -844307  -844283  -844249  -844206 
 -844183  -844202  -844231  -844253  -844260  -844267  -844288  -844314 
 -844326  -844303  -844254  -844240  -844250  -844245  -844225  -844207 
 -844219  -844268  -844299  -844295  -844303  -844339  -844365  -844362 
 -844357  -844352  -844338  -844350  -844368  -844365  -844381  -844387 
 -844339  -844312  -844314  -844294  -844271  -844277  -844296  -844315 
 -844325  -844318  -844308  -844303  -844302  -844292  -844276  -844275 
 -844307  -844360  -844380  -844372  -844379  -844380  -844352  -844329 
 -844318  -844281  -844250  -844267  -844284  -844290  -844296  -844280 
 -844260  -844264  -844268  -844271  -844283  -844291  -844311  -844345 
 -844349  -844325  -844317  -844326  -844325  -844319  -844325  -844334 
 -844330  -844319  -844302  -844268  -844233  -844225  -844245  -844275 
 -844296  -844303  -844303  -844308  -844327  -844341  -844329  -844315 
 -844304  -844277  -844263  -844281  -844315  -844345  -844365  -844372 
