Origin Time       2025/03/28 03:50:00
Lat.              35.403
Long.             140.360
Depth. (km)       54
Mag.              4.4
Station Code      YMNH11
Station Lat.      35.6247
Station Long.     138.9777
Station Height(m) 465
Record Time       2025/03/28 03:51:14
Sampling Freq(Hz) 100Hz
Duration Time(s)  120
Dir.              5
Scale Factor      3920(gal)/6170801
Max. Acc. (gal)   3.680
Last Correction   2025/03/28 03:50:59
Memo.             
[...]
   16761    16630    16539    16627    16833    17007    17110    17125 
   17082    17052    17035    17039    17094    17183    17317    17479 
   17544    17460    17298    17106    16936    16867    16851    16827 
   16827    16810    16732    16697    16745    16825    16973    17202 
   17371    17311    17036    16750    16620    16666    16870    17138 
   17292    17266    17092    16843    16745    16953    17269    17416 
   17312    17034    16768    16727    16994    17440    17792    17804 
   17433    16897    16548    16607    16987    17382    17549    17469 
   17266    17056    16919    16874    16846    16797    16789    16816 
   16792    16743    16782    16911    17022    17078    17103    17033 
   16862    16713    16639    16646    16779    17015    17259    17415 
   17413    17291    17169    17160    17297    17462    17487    17361 
   17198    17099    17116    17218    17304    17280    17090    16758 
   16428    16257    16319    16591    16952    17233    17301    17137 
   16887    16775    16911    17198    17435    17471    17296    17032 
   16869    16934    17146    17292    17262    17109    16933    16823 
   16848    16999    17193    17325    17342    17280    17216    17192 
   17184    17145    17030    16830    16624    16536    16598    16726 
   16866    16981    16997    16923    16829    16731    16674    16710 
   16799    16950    17197    17448    17609    17656    17578    17425 
   17302    17256    17270    17290    17249    17142    17030    16948 
   16894    16868    16838    16729    16566    16510    16626    16823 
   17022    17180    17243    17213    17156    17157    17246    17335 
   17333    17237    17073    16899    16815    16853    16956    17054 
   17099    17049    16884    16663    16536    16612    16863    17168 
   17403    17493    17455    17366    17280    17232    17241    17270 
   17232    17105    16995    16992    17058    17126    17134    17004 
   16752    16473    16252    16210    16417    16749    17018    17131 
   17082    16975    16969    17109    17303    17463    17582    17667 
   17650    17505    17349    17286    17303    17355    17360    17237 
   17030    16832    16681    16625    16686    16760    16739    16633 
   16524    16521    16702    16995    17231    17306    17224    17057 
   16892    16834    16963    17217    17397    17398    17279    17124 
   17016    17038    17162    17260    17262    17160    16993    16865 
   16848    16924    17028    17071    16996    16876    16824    16835 
   16843    16848    16914    17076    17254    17315    17240    17121 
   17040    17043    17102    17127    17081    16989    16901    16893 
   16998    17141    17222    17191    17042    16859    16749    16718 
   16777    16950    17122    17184    17220    17315    17419    17469 
   17448    17355    17208    17066    17002    17041    17120    17115 
   16971    16770    16631    16583    16572    16587    16666    16766 
   16843    16938    17057    17160    17254    17337    17397    17462 
   17520    17500    17384    17250    17183    17199    17236    17202 
   17042    16822    16682    16663    16681    16669    16639    16627 
   16647    16706    16787    16852    16890    16951    17073    17215 
   17326    17404    17475    17531    17543    17522    17489    17419 
   17307    17183    17052    16931    16879    16911    16940    16905 
   16828    16708    16530    16402    16456    16668    16916    17100 
   17183    17217    17273    17344    17373    17311    17163    17011 
   16945    16992    17108    17224    17284    17275    17191    17030 
   16839    16719    16732    16827    16899    16914    16876    16793 
   16769    16924    17189    17415    17512    17413    17149    16904 
   16809    16858    17006    17177    17287    17316    17305    17302 
   17340    17374    17305    17112    16889    16732    16673    16688 
   16764    16920    17132    17295    17330    17238    17057    16833 
   16640    16538    16528    16605    16755    16912    17000    17027 
   17060    17115    17159    17168    17142    17105    17092    17114 
   17171    17269    17401    17505    17505    17399    17263    17149 
   17044    16952    16884    16855    16892    16977    17047    17065 
   17045    17019    16989    16911    16774    16619    16500    16472 
   16574    16810    17119    17385    17499    17468    17411    17398 
   17404    17407    17369    17226    17027    16921    16944    17007 
   17038    17020    16962    16906    16876    16858    16845    16816 
   16751    16714    16797    16995    17189    17275    17275    17277 
   17297    17290    17219    17087    16928    16789    16718    16770 
   16942    17097    17099    16964    16803    16727    16813    17019 
   17216    17314    17329    17337    17419    17578    17702    17667 
   17470    17211    16989    16844    16781    16780    16780    16732 
   16642    16544    16494    16536    16626    16682    16715    16787 
   16918    17084    17252    17391    17489    17537    17521    17433 
   17304    17175    17076    17024    17018    17047    17111    17163 
   17144    17074    16998    16909    16834    16839    16931    17079 
   17226    17264    17166    17027    16938    16912    16884    16816 
   16757    16741    16748    16783    16868    17001    17137    17194 
   17133    17010    16914    16935    17115    17388    17624    17737 
   17704    17537    17294    17089    16982    16949    16965    16974 
   16892    16722    16581    16564    16680    16855    16969    16972 
   16903    16786    16703    16783    16981    17140    17209    17223 
   17226    17261    17343    17428    17452    17372    17189    16954 
   16736    16585    16543    16646    16852    17045    17139    17133 
   17085    17051    17064    17166    17390    17631    17695    17545 
   17317    17097    16924    16857    16870    16862    16797    16719 
   16670    16677    16753    16879    16981    16988    16925    16875 
   16852    16854    16941    17149    17392    17532    17515    17376 
   17201    17113    17163    17267    17320    17282    17163    16997 
   16853    16823    16928    17055    17070    16949    16779    16661 
   16629    16643    16661    16677    16721    16843    17067    17354 
   17622    17779    17762    17609    17436    17304    17217    17180 
   17147    17028    16828    16668    16612    16603    16591    16596 
   16645    16719    16802    16903    17010    17099    17170    17245 
   17338    17420    17442    17401    17353    17344    17363    17365 
   17307    17182    17003    16779    16564    16450    16462    16554 
   16686    16820    16929    17010    17058    17066    17036    16978 
   16942    16993    17120    17234    17284    17309    17341    17342 
   17299    17232    17136    17026    16942    16907    16916    16951 
   16988    17021    17054    17098    17147    17148    17082    17017 
   17009    17052    17145    17244    17253    17149    17026    16968 
   16988    17053    17106    17088    16996    16889    16837    16857 
   16907    16944    16949    16924    16899    16909    16967    17044 
   17075    17043    17012    17020    17053    17104    17164    17204 
   17228    17247    17219    17111    16971    16888    16904    16983 
   17060    17103    17122    17132    17138    17118    17033    16909 
   16812    16759    16738    16753    16799    16846    16893    16978 
   17091    17167    17212    17284    17373    17433    17468    17481 
   17460    17442    17443    17400    17277    17096    16892    16731 
   16688    16739    16767    16704    16585    16494    16488    16554 
   16660    16790    16906    16982    17051    17135    17226    17336 
   17465    17575    17648    17657    17553    17342    17105    16933 
   16870    16905    16978    17034    17042    16986    16903    16854 
   16869    16950    17063    17136    17136    17102    17085    17097 
   17099    17028    16873    16685    16526    16463    16526    16681 
   16864    17025    17149    17225    17233    17198    17155    17116 
   17120    17198    17285    17321    17333    17391    17515    17623 
   17603    17465    17308    17200    17115    16968    16733    16528 
   16475    16567    16722    16846    16866    16792    16721    16734 
   16841    17013    17202    17331    17327    17221    17103    16995 
   16910    16904    16958    16958    16848    16691    16602    16658 
   16854    17109    17325    17459    17500    17397    17200    17094 
   17163    17336    17546    17717    17724    17519    17211    16981 
   16915    16939    16941    16858    16666    16424    16291    16348 
   16504    16653    16783    16890    16944    16932    16909    16967 
   17132    17335    17496    17570    17568    17552    17536    17487 
   17388    17240    17091    16982    16893    16828    16846    16962 
   17110    17209    17215    17094    16842    16542    16342    16361 
   16601    16911    17119    17190    17179    17150    17179    17276 
   17325    17256    17120    16973    16867    16866    16977    17139 
   17274    17312    17218    17024    16831    16769    16877    17054 
   17175    17180    17096    17017    16985    16972    17017    17164 
   17310    17321    17184    16946    16690    16539    16574    16775 
   17020    17153    17103    16941    16826    16880    17073    17270 
   17345    17272    17145    17107    17231    17476    17684    17672 
   17418    17106    16896    16801    16792    16825    16828    16774 
   16695    16617    16589    16668    16823    17005    17177    17258 
   17196    17070    16990    17010    17119    17246    17316    17320 
   17250    17123    17049    17100    17197    17207    17074    16862 
   16712    16703    16794    16910    17009    17069    17080    17058 
   17039    17048    17079    17114    17150    17208    17286    17337 
   17308    17200    17074    17011    17013    17008    16968    16931 
   16905    16871    16846    16855    16892    16912    16904    16913 
   16940    16968    17040    17181    17302    17327    17285    17254 
   17275    17337    17411    17427    17299    17078    16900    16787 
   16705    16680    16723    16794    16879    16961    16998    16960 
   16861    16771    16755    16808    16866    16884    16869    16812 
   16748    16787    16949    17130    17232    17205    17068    16914 
   16834    16891    17088    17351    17566    17667    17678    17663 
   17631    17591    17624    17744    17832    17819    17721    17539 
   17295    17049    16799    16531    16300    16149    16054    16009 
   16027    16047    16023    16018    16110    16352    16731    17093 
   17301    17381    17440    17592    17887    18213    18405    18385 
   18165    17838    17533    17321    17207    17140    17045    16890 
   16714    16575    16481    16381    16250    16101    15956    15869 
   15903    16048    16238    16419    16585    16784    17026    17200 
   17249    17278    17353    17464    17652    17946    18271    18540 
   18697    18720    18651    18524    18276    17812    17139    16397 
   15771    15389    15264    15289    15336    15387    15521    15792 
   16192    16655    17074    17356    17521    17683    17899    18113 
   18295    18483    18650    18704    18648    18526    18289    17898 
   17415    16916    16441    16024    15688    15449    15299    15200 
   15164    15244    15478    15889    16460    17099    17655    17993 
   18092    18015    17842    17672    17568    17550    17618    17716 
   17754    17656    17412    17109    16893    16836    16884    16919 
   16916    16930    16935    16845    16691    16582    16548    16506 
   16368    16128    15882    15799    16011    16535    17263    17939 
   18303    18281    17957    17529    17281    17357    17635    17893 
   17981    17862    17624    17417    17378    17552    17800    17879 
   17677    17248    16733    16321    16125    16079    16037    15851 
   15445    14970    14762    15019    15581    16101    16352    16368 
   16343    16473    16857    17433    18001    18384    18551    18614 
   18721    18913    19132    19314    19401    19313    18997    18451 
   17714    16874    16078    15539    15423    15681    16092    16448 
   16650    16763    16968    17344    17802    18220    18477    18496 
   18314    18000    17573    17011    16237    15225    14160    13299 
   12739    12489    12564    12922    13537    14446    15594    16844 
   18121    19324    20311    21068    21691    22224    22589    22628 
   22188    21259    20048    18779    17537    16376    15345    14418 
   13551    12780    12223    12035    12279    12879    13716    14667 
   15580    16354    17016    17665    18336    18949    19366    19477 
   19297    18975    18646    18376    18206    18126    18108    18173 
   18332    18525    18699    18816    18777    18477    17874    17008 
   16040    15172    14483    13970    13644    13507    13578    13865 
   14313    14854    15521    16352    17265    18143    18927    19555 
   19978    20227    20395    20545    20596    20355    19744    18857 
   17855    16882    16020    15313    14794    14465    14314    14356 
   14657    15253    16027    16806    17523    18209    18841    19307 
   19488    19352    18883    18054    16980    15860    14796    13847 
   13068    12472    12122    12162    12686    13618    14743    15895 
   17060    18246    19405    20490    21458    22240    22732    22836 
   22549    21944    21110    20189    19276    18318    17287    16278 
   15426    14867    14607    14434    14134    13709    13368    13348 
   13700    14265    14850    15326    15684    16035    16490    17035 
   17505    17718    17692    17630    17692    17863    18034    18153 
   18260    18386    18481    18503    18506    18521    18466    18286 
   18025    17772    17632    17656    17776    17870    17853    17662 
   17280    16805    16342    15916    15562    15355    15289    15271 
   15218    15117    15055    15182    15521    15917    16235    16508 
   16884    17445    18095    18670    19064    19204    19066    18750 
   18403    18117    17902    17719    17549    17427    17355    17264 
   17112    16937    16828    16813    16806    16725    16596    16511 
   16542    16668    16760    16735    16636    16540    16491    16505 
   16536    16518    16427    16290    16186    16185    16279    16423 
   16592    16768    16947    17145    17396    17717    18031    18217 
   18199    17991    17692    17420    17242    17187    17228    17260 
   17189    17018    16808    16604    16456    16423    16526    16764 
   17093    17400    17628    17835    18010    18002    17744    17329 
   16886    16490    16172    15944    15810    15765    15811    15933 
   16083    16225    16381    16582    16824    17104    17420    17732 
   18021    18291    18502    18594    18555    18394    18138    17871 
   17651    17467    17284    17060    16822    16707    16779    16971 
   17184    17292    17212    16997    16774    16654    16641    16627 
   16542    16397    16218    16046    15926    15849    15815    15858 
   15971    16138    16373    16680    17061    17515    18010    18487 
   18835    18946    18818    18548    18256    18047    17956    17899 
   17746    17471    17153    16826    16486    16144    15806    15492 
   15269    15172    15153    15143    15139    15227    15506    15972 
   16524    17060    17519    17872    18160    18472    18846    19212 
   19426    19407    19216    18951    18649    18285    17804    17193 
   16490    15776    15221    14977    15016    15208    15452    15694 
   15961    16303    16685    17035    17333    17569    17705    17739 
   17771    17924    18178    18415    18542    18486    18188    17674 
   17053    16454    15981    15690    15535    15437    15412    15524 
   15753    16081    16510    16951    17323    17659    17967    18186 
   18294    18291    18179    18027    17903    17764    17550    17294 
   17057    16887    16809    16805    16854    16940    16983    16883 
   16608    16226    15874    15721    15843    16152    16514    16823 
   16973    16977    16988    17084    17209    17286    17297    17279 
   17309    17469    17760    18056    18264    18399    18452    18384 
   18186    17848    17404    16951    16568    16304    16168    16082 
   15985    15932    16014    16200    16359    16444    16517    16619 
   16763    16979    17243    17455    17544    17527    17451    17394 
   17399    17392    17311    17200    17128    17130    17199    17291 
   17339    17282    17147    17040    17024    17073    17104    17053 
   16914    16734    16561    16405    16247    16102    16039    16120 
   16325    16575    16834    17088    17261    17284    17228    17241 
   17417    17744    18085    18275    18277    18144    17897    17589 
   17293    17004    16713    16490    16424    16574    16876    17142 
   17253    17214    17059    16875    16790    16851    16954    16960 
   16859    16760    16748    16823    16924    16939    16791    16527 
   16260    16104    16167    16496    17009    17523    17856    17953 
   17917    17908    17987    18069    18019    17772    17370    16921 
   16539    16312    16245    16249    16218    16130    16086    16233 
   16603    17079    17485    17699    17717    17621    17527    17539 
   17673    17822    17860    17778    17655    17530    17377    17160 
   16860    16499    16140    15879    15800    15918    16165    16435 
   16661    16858    17053    17213    17308    17336    17293    17191 
   17083    17031    17057    17129    17202    17225    17163    17061 
   17009    17017    17024    17002    16966    16949    16998    17108 
   17179    17129    16966    16754    16580    16520    16567    16631 
   16664    16724    16886    17155    17447    17677    17838    17943 
   17986    18001    18034    18044    17953    17763    17527    17305 
   17204    17276    17368    17271    16936    16469    16024    15739 
   15693    15867    16135    16342    16430    16452    16497    16621 
   16788    16935    17054    17150    17224    17310    17426    17559 
   17685    17761    17734    17600    17386    17148    16943    16798 
   16754    16854    17072    17347    17629    17837    17914    17863 
   17681    17388    17036    16672    16348    16151    16146    16289 
   16432    16467    16413    16374    16451    16664    16923    17096 
   17124    17049    16993    17086    17324    17524    17506    17283 
   17012    16838    16825    16945    17076    17108    17028    16910 
   16859    16940    17135    17343    17419    17327    17202    17191 
   17304    17467    17607    17646    17525    17290    17079    17007 
   17058    17126    17109    16956    16725    16538    16418    16325 
   16272    16256    16251    16290    16437    16688    16968    17224 
   17462    17684    17838    17864    17771    17656    17639    17745 
   17883    17940    17865    17674    17419    17180    17040    17000 
   16959    16797    16494    16154    15910    15831    15919    16100 
   16297    16502    16726    16952    17177    17373    17475    17471 
   17391    17257    17096    16946    16841    16788    16752    16695 
