Origin Time       2025/06/03 22:18:00
Lat.              41.7
Long.             143.6
Depth. (km)       30
Mag.              5.2
Station Code      AOM003
Station Lat.      41.4054
Station Long.     141.1699
Station Height(m) 2
Record Time       2025/06/03 22:19:32
Sampling Freq(Hz) 100Hz
Duration Time(s)  60
Dir.              N-S
Scale Factor      7845(gal)/8223790
Max. Acc. (gal)   1.306
Last Correction   2025/06/03 22:19:32
Memo.             
    4596     4599     4603     4603     4603     4608     4623     4645 
    4662     4672     4671     4657     4637     4618     4592     4556 
    4522     4503     4499     4509     4530     4546     4549     4545 
    4542     4537     4518     4486     4450     4423     4406     4405 
    4405     4395     4386     4398     4438     4498     4556     4591 
    4599     4591     4575     4558     4544     4525     4510     4507 
    4517     4537     4556     4571     4584     4595     4604     4615 
    4619     4622     4634     4654     4679     4706     4735     4768 
    4796     4807     4789     4764     4742     4720     4699     4675 
    4642     4615     4598     4573     4537     4510     4507     4515 
    4513     4498     4476     4449     4426     4409     4383     4352 
    4330     4334     4365     4410     4468     4530     4590     4657 
    4735     4806     4846     4860     4857     4841     4820     4808 
    4801     4784     4754     4729     4703     4666     4630     4594 
    4558     4531     4510     4487     4456     4418     4390     4379 
    4382     4396     4423     4460     4486     4498     4509     4517 
    4525     4534     4525     4496     4472     4461     4471     4494 
    4525     4567     4623     4696     4769     4824     4861     4888 
    4905     4914     4909     4882     4828     4747     4656     4575 
    4513     4461     4430     4423     4425     4430     4449     4472 
    4487     4496     4498     4490     4477     4460     4430     4395 
    4374     4379     4405     4440     4480     4523     4571     4611 
    4633     4635     4623     4595     4550     4494     4436     4388 
    4359     4355     4378     4429     4506     4596     4683     4764 
    4841     4889     4889     4865     4837     4795     4739     4684 
    4629     4580     4540     4509     4488     4476     4469     4464 
    4453     4433     4414     4395     4369     4340     4317     4317 
    4345     4388     4441     4495     4544     4590     4645     4707 
    4768     4818     4862     4909     4951     4978     4993     4992 
    4976     4939     4870     4785     4712     4656     4611     4575 
    4550     4534     4515     4499     4492     4472     4422     4356 
    4295     4240     4201     4190     4191     4202     4247     4322 
    4405     4490     4575     4658     4733     4791     4833     4846 
    4830     4803     4792     4795     4793     4789     4789     4777 
    4749     4711     4664     4607     4546     4492     4448     4413 
    4388     4374     4372     4375     4379     4394     4409     4406 
    4394     4383     4388     4417     4464     4509     4544     4577 
    4619     4653     4665     4668     4671     4673     4684     4691 
    4677     4660     4656     4661     4665     4669     4669     4665 
    4658     4641     4612     4580     4544     4504     4465     4422 
    4384     4374     4394     4430     4468     4507     4549     4581 
    4599     4611     4617     4608     4596     4598     4611     4634 
    4664     4693     4716     4731     4734     4725     4704     4676 
    4638     4585     4538     4507     4486     4482     4492     4502 
    4517     4540     4561     4579     4585     4568     4536     4507 
    4483     4460     4436     4407     4387     4384     4401     4440 
    4491     4545     4602     4657     4711     4754     4779     4788 
    4791     4787     4777     4769     4764     4754     4739     4722 
    4702     4681     4672     4662     4641     4612     4577     4554 
    4554     4561     4560     4542     4509     4475     4450     4440 
    4444     4453     4461     4475     4499     4530     4557     4576 
    4587     4594     4595     4596     4596     4590     4575     4557 
    4545     4534     4522     4506     4487     4483     4496     4522 
    4552     4584     4619     4665     4707     4730     4726     4698 
    4671     4661     4660     4641     4599     4550     4511     4484 
    4472     4460     4445     4441     4449     4468     4494     4518 
    4540     4568     4599     4622     4630     4631     4634     4646 
    4665     4681     4691     4698     4702     4703     4704     4699 
    4672     4634     4607     4590     4560     4518     4475     4444 
    4440     4467     4506     4540     4571     4608     4650     4687 
    4706     4712     4715     4712     4693     4664     4625     4577 
    4529     4492     4477     4482     4509     4540     4560     4569 
    4573     4573     4575     4569     4557     4546     4542     4548 
    4554     4553     4530     4500     4490     4507     4534     4561 
    4583     4591     4595     4618     4652     4671     4672     4660 
    4626     4583     4541     4483     4409     4337     4278     4234 
    4216     4221     4233     4248     4276     4311     4342     4374 
    4407     4444     4484     4534     4592     4645     4687     4715 
    4725     4715     4699     4681     4648     4596     4548     4513 
    4503     4525     4558     4590     4627     4668     4702     4730 
    4754     4762     4757     4750     4742     4725     4696     4649 
    4588     4531     4492     4472     4463     4464     4475     4495 
    4529     4569     4604     4645     4687     4720     4750     4783 
    4808     4824     4835     4845     4842     4822     4792     4760 
    4720     4673     4611     4548     4498     4463     4444     4441 
    4437     4419     4398     4372     4347     4326     4309     4301 
    4314     4347     4398     4455     4510     4554     4592     4633 
    4672     4692     4688     4657     4608     4554     4509     4477 
    4463     4455     4448     4452     4463     4467     4468     4467 
    4452     4441     4453     4482     4511     4538     4564     4594 
    4635     4692     4750     4789     4819     4849     4873     4884 
    4889     4874     4833     4774     4715     4664     4626     4604 
    4591     4585     4594     4608     4615     4599     4556     4503 
    4467     4450     4442     4441     4448     4453     4459     4472 
    4500     4536     4569     4599     4615     4618     4608     4592 
    4579     4569     4552     4527     4519     4527     4534     4540 
    4552     4564     4588     4637     4699     4762     4824     4885 
    4947     5004     5036     5024     4966     4889     4803     4703 
    4604     4517     4436     4360     4303     4275     4270     4283 
    4307     4324     4332     4324     4286     4224     4148     4078 
    4035     4025     4047     4099     4185     4302     4436     4572 
    4706     4830     4928     4999     5053     5097     5130     5146 
    5146     5135     5119     5093     5055     5011     4953     4877 
    4785     4683     4568     4449     4347     4276     4244     4237 
    4236     4228     4209     4180     4153     4137     4132     4145 
    4207     4306     4419     4546     4675     4792     4903     5007 
    5093     5158     5201     5213     5197     5157     5089     5008 
    4931     4851     4758     4662     4572     4494     4429     4365 
    4290     4206     4129     4064     4027     4028     4048     4070 
    4094     4118     4141     4167     4195     4233     4303     4409 
    4531     4652     4757     4849     4916     4955     4976     4993 
    5000     4980     4920     4839     4756     4683     4639     4631 
    4641     4660     4688     4712     4702     4641     4533     4390 
    4241     4126     4051     4008     4004     4043     4105     4170 
    4234     4297     4352     4402     4448     4487     4529     4584 
    4650     4723     4783     4823     4851     4876     4904     4931 
    4946     4957     4966     4965     4959     4938     4892     4824 
    4739     4635     4514     4387     4270     4172     4094     4025 
    3973     3936     3924     3937     3971     4020     4089     4175 
    4272     4369     4467     4560     4649     4730     4801     4869 
    4941     5020     5115     5225     5358     5505     5651     5786 
    5898     5945     5900     5780     5620     5432     5223     5009 
    4800     4606     4452     4356     4297     4244     4182     4114 
    4052     4004     3974     3966     3966     3967     3981     4008 
    4035     4055     4058     4047     4033     4028     4039     4072 
    4141     4251     4380     4510     4634     4738     4816     4855 
    4853     4834     4827     4834     4854     4881     4903     4903 
    4874     4819     4733     4626     4519     4438     4392     4369 
    4357     4360     4383     4437     4517     4591     4637     4654 
    4646     4619     4572     4518     4483     4492     4536     4588 
    4625     4633     4608     4569     4531     4500     4471     4444 
    4422     4406     4401     4410     4418     4421     4430     4446 
    4471     4519     4587     4660     4730     4785     4819     4847 
    4874     4873     4830     4750     4656     4572     4527     4533 
    4571     4592     4563     4476     4352     4216     4075     3946 
    3850     3802     3815     3889     4006     4140     4275     4401 
    4504     4590     4661     4702     4692     4648     4596     4548 
    4513     4498     4502     4523     4565     4630     4702     4764 
    4823     4882     4920     4920     4895     4864     4843     4833 
    4830     4839     4869     4915     4968     5003     5000     4969 
    4949     4953     4961     4961     4949     4914     4866     4835 
    4814     4783     4731     4665     4596     4537     4502     4477 
    4445     4402     4357     4314     4279     4244     4197     4144 
    4101     4072     4070     4086     4105     4132     4190     4282 
    4392     4513     4637     4766     4901     5019     5086     5111 
    5120     5127     5132     5138     5147     5175     5219     5263 
    5297     5301     5260     5196     5121     5027     4919     4797 
    4652     4477     4286     4093     3916     3775     3682     3627 
    3600     3597     3618     3662     3709     3744     3792     3865 
    3955     4070     4201     4334     4471     4614     4745     4854 
    4947     5028     5096     5151     5194     5221     5229     5220 
    5198     5154     5086     5001     4912     4823     4733     4644 
    4558     4484     4429     4391     4367     4355     4363     4394 
    4433     4471     4498     4513     4514     4511     4515     4521 
    4522     4534     4546     4550     4552     4546     4519     4475 
    4429     4394     4375     4364     4347     4317     4280     4241 
    4207     4183     4164     4147     4136     4139     4164     4224 
    4324     4460     4634     4831     5005     5119     5167     5163 
    5119     5039     4930     4792     4629     4460     4321     4234 
    4210     4243     4321     4418     4513     4602     4681     4746 
    4799     4842     4864     4862     4847     4830     4803     4764 
    4722     4671     4612     4576     4571     4583     4612     4650 
    4664     4642     4592     4518     4441     4371     4307     4275 
    4272     4279     4286     4288     4293     4313     4357     4426 
    4526     4649     4785     4918     5030     5112     5154     5163 
    5150     5117     5066     4988     4874     4741     4602     4483 
    4411     4402     4452     4537     4621     4681     4714     4718 
    4699     4661     4598     4496     4365     4230     4114     4028 
    3977     3954     3962     3996     4052     4132     4237     4361 
    4502     4656     4797     4904     4965     4977     4939     4876 
    4824     4803     4811     4835     4855     4850     4811     4745 
    4656     4565     4491     4445     4440     4480     4550     4630 
    4711     4772     4793     4780     4745     4695     4653     4631 
    4630     4646     4677     4719     4768     4818     4850     4855 
    4845     4815     4760     4695     4629     4552     4479     4419 
    4352     4263     4170     4102     4075     4086     4131     4199 
    4283     4368     4441     4494     4521     4525     4526     4533 
    4538     4530     4499     4449     4390     4325     4264     4232 
    4233     4259     4301     4344     4386     4423     4453     4482 
    4518     4554     4590     4622     4644     4645     4625     4592 
    4563     4550     4571     4633     4731     4850     4968     5071 
    5157     5217     5246     5229     5167     5069     4945     4803 
    4658     4517     4375     4226     4077     3940     3835     3780 
    3781     3842     3959     4114     4270     4409     4522     4610 
    4688     4760     4812     4843     4854     4850     4850     4861 
    4869     4873     4887     4911     4938     4955     4941     4882 
    4799     4702     4594     4484     4375     4267     4179     4129 
    4129     4186     4287     4399     4492     4556     4606     4666 
    4742     4804     4837     4849     4842     4816     4779     4733 
    4666     4585     4517     4484     4490     4533     4608     4693 
    4769     4828     4855     4841     4791     4726     4661     4614 
    4583     4557     4541     4542     4560     4595     4637     4666 
    4681     4676     4646     4603     4558     4509     4453     4410 
    4387     4380     4384     4398     4418     4442     4471     4504 
    4549     4606     4673     4752     4834     4903     4961     4997 
    5001     4988     4961     4914     4862     4818     4785     4765 
    4739     4700     4657     4614     4565     4518     4490     4477 
    4471     4472     4475     4464     4440     4410     4380     4348 
    4322     4314     4326     4336     4314     4241     4125     3993 
    3869     3766     3697     3669     3693     3789     3960     4183 
    4428     4681     4934     5175     5398     5582     5701     5749 
    5734     5655     5522     5358     5171     4972     4761     4544 
    4328     4120     3921     3734     3558     3415     3330     3308 
    3346     3430     3554     3711     3877     4044     4220     4394 
    4561     4735     4920     5101     5255     5363     5416     5421 
    5393     5320     5197     5049     4912     4788     4657     4518 
    4382     4267     4179     4116     4070     4043     4040     4068 
    4120     4179     4243     4309     4386     4477     4577     4673 
    4768     4865     4965     5073     5178     5270     5337     5385 
    5406     5394     5346     5260     5135     4978     4814     4657 
    4515     4394     4290     4212     4174     4185     4232     4297 
    4353     4388     4414     4445     4472     4491     4494     4477 
    4463     4477     4527     4614     4730     4857     4968     5059 
    5131     5179     5209     5219     5200     5146     5055     4945 
    4837     4746     4669     4599     4525     4436     4338     4237 
    4126     4016     3929     3889     3901     3963     4058     4160 
    4255     4333     4395     4441     4463     4465     4461     4469 
    4500     4552     4612     4673     4716     4729     4714     4679 
    4626     4567     4504     4434     4365     4324     4310     4301 
    4295     4314     4364     4442     4546     4668     4774     4851 
    4896     4911     4895     4842     4752     4641     4530     4434 
    4368     4332     4317     4322     4360     4429     4506     4577 
    4641     4679     4685     4669     4642     4619     4604     4581 
    4545     4500     4456     4429     4428     4445     4482     4538 
    4617     4715     4824     4920     4992     5051     5116     5189 
    5246     5278     5289     5283     5262     5224     5171     5108 
    5030     4938     4834     4716     4584     4437     4279     4125 
    3985     3865     3780     3728     3719     3757     3838     3954 
    4095     4253     4415     4571     4712     4838     4943     5039 
    5139     5227     5269     5255     5189     5076     4932     4777 
    4611     4444     4298     4191     4125     4091     4070     4048 
    4016     3978     3958     3956     3950     3933     3921     3920 
    3927     3942     3973     4024     4104     4214     4348     4491 
    4629     4757     4862     4950     5026     5084     5125     5150 
    5151     5140     5120     5071     5000     4919     4820     4699 
    4561     4430     4325     4247     4198     4174     4162     4156 
    4164     4185     4216     4255     4294     4329     4365     4402 
    4445     4499     4554     4602     4650     4693     4730     4770 
    4812     4846     4873     4892     4914     4942     4969     4982 
    4988     4985     4980     4978     4988     4997     5000     4990 
    4970     4945     4923     4914     4904     4888     4874     4855 
    4814     4750     4676     4603     4536     4469     4410     4353 
    4287     4216     4144     4078     4017     3969     3940     3940 
    3969     4025     4108     4198     4276     4329     4347     4341 
    4336     4356     4403     4468     4556     4668     4795     4919 
    5034     5127     5194     5244     5273     5265     5223     5154 
    5067     4985     4912     4839     4776     4729     4687     4648 
    4602     4537     4450     4355     4260     4171     4090     4020 
    3974     3973     4029     4136     4280     4450     4634     4814 
    4972     5096     5177     5212     5211     5174     5104     5013 
    4919     4824     4741     4683     4645     4626     4631     4645 
    4654     4662     4673     4681     4664     4603     4499     4361 
    4214     4077     3958     3862     3796     3769     3775     3804 
    3852     3921     4001     4091     4194     4306     4430     4554 
    4665     4766     4855     4922     4972     5017     5050     5053 
    5038     5005     4950     4885     4815     4733     4645     4563 
    4484     4407     4340     4284     4240     4209     4185     4158 
    4137     4131     4141     4167     4216     4279     4349     4434 
    4540     4650     4757     4854     4926     4969     4993     4989 
    4954     4900     4838     4780     4735     4704     4687     4685 
    4702     4742     4800     4861     4922     4977     5017     5046 
    5059     5038     4972     4882     4774     4652     4523     4388 
    4260     4155     4072     4018     4001     4020     4070     4145 
    4245     4361     4486     4612     4726     4801     4834     4835 
    4815     4785     4765     4761     4772     4801     4858     4934 
    5020     5103     5158     5178     5150     5066     4923     4729 
    4506     4275     4048     3840     3666     3530     3435     3396 
    3415     3480     3576     3689     3817     3967     4137     4317 
    4500     4677     4835     4972     5076     5131     5143     5130 
    5104     5074     5040     5005     4966     4928     4903     4877 
    4831     4756     4664     4581     4506     4434     4369     4313 
    4282     4287     4318     4359     4403     4434     4452     4469 
    4483     4490     4494     4504     4525     4571     4641     4723 
    4808     4889     4957     5007     5047     5074     5089     5092 
    5076     5047     5015     4976     4918     4838     4733     4608 
    4476     4340     4209     4091     4004     3955     3940     3963 
    4029     4124     4240     4376     4525     4671     4800     4916 
