Origin Time       2025/06/03 22:18:00
Lat.              41.7
Long.             143.6
Depth. (km)       30
Mag.              5.2
Station Code      AOM003
Station Lat.      41.4054
Station Long.     141.1699
Station Height(m) 2
Record Time       2025/06/03 22:19:32
Sampling Freq(Hz) 100Hz
Duration Time(s)  60
Dir.              U-D
Scale Factor      7845(gal)/8223790
Max. Acc. (gal)   0.358
Last Correction   2025/06/03 22:19:32
Memo.             
   43316    43347    43332    43281    43235    43225    43244    43263 
   43271    43271    43259    43244    43251    43290    43339    43359 
   43347    43336    43349    43360    43340    43297    43260    43249 
   43259    43255    43213    43164    43159    43214    43282    43297 
   43252    43209    43222    43271    43290    43256    43208    43185 
   43190    43200    43197    43193    43195    43200    43205    43220 
   43245    43267    43271    43264    43255    43237    43216    43198 
   43195    43208    43217    43210    43206    43217    43235    43249 
   43254    43254    43270    43301    43308    43279    43243    43224 
   43231    43237    43218    43183    43163    43167    43182    43193 
   43204    43225    43254    43275    43290    43282    43249    43224 
   43232    43272    43325    43349    43336    43316    43306    43306 
   43316    43320    43303    43281    43275    43278    43259    43214 
   43177    43182    43228    43270    43272    43259    43258    43264 
   43264    43248    43228    43222    43229    43228    43205    43182 
   43181    43200    43216    43214    43200    43195    43214    43239 
   43237    43204    43173    43177    43209    43229    43216    43195 
   43214    43272    43328    43339    43299    43245    43206    43190 
   43189    43190    43183    43186    43209    43229    43222    43195 
   43171    43156    43148    43150    43158    43175    43205    43236 
   43262    43274    43263    43240    43239    43264    43281    43276 
   43266    43258    43248    43233    43233    43262    43297    43318 
   43317    43303    43295    43293    43290    43279    43260    43243 
   43231    43225    43229    43240    43245    43244    43255    43283 
   43306    43295    43260    43233    43225    43229    43224    43197 
   43160    43146    43163    43209    43259    43289    43294    43302 
   43320    43329    43322    43310    43305    43301    43302    43309 
   43318    43325    43321    43316    43316    43309    43290    43274 
   43259    43241    43217    43187    43162    43154    43164    43183 
   43194    43177    43137    43112    43128    43182    43244    43276 
   43270    43245    43235    43239    43233    43190    43117    43060 
   43054    43085    43120    43133    43125    43128    43183    43287 
   43383    43422    43409    43380    43366    43372    43382    43367 
   43325    43285    43255    43244    43252    43271    43290    43299 
   43301    43306    43321    43328    43305    43251    43201    43177 
   43175    43185    43208    43239    43274    43303    43317    43313 
   43302    43297    43289    43270    43245    43232    43237    43249 
   43247    43221    43195    43193    43209    43236    43264    43295 
   43318    43316    43289    43255    43227    43206    43181    43137 
   43093    43074    43096    43150    43194    43208    43201    43208 
   43232    43256    43252    43216    43166    43131    43120    43131 
   43154    43171    43167    43159    43160    43166    43177    43195 
   43227    43274    43318    43325    43294    43268    43271    43281 
   43263    43212    43162    43152    43200    43278    43341    43362 
   43343    43308    43295    43320    43349    43347    43309    43260 
   43227    43200    43171    43156    43166    43187    43204    43214 
   43239    43279    43309    43303    43267    43233    43235    43252 
   43249    43214    43177    43178    43222    43258    43248    43225 
   43241    43299    43368    43405    43389    43336    43289    43271 
   43272    43260    43218    43183    43193    43222    43227    43205 
   43179    43167    43181    43210    43244    43260    43245    43220 
   43210    43227    43248    43241    43208    43182    43185    43204 
   43221    43228    43225    43233    43264    43314    43351    43344 
   43301    43263    43255    43271    43285    43262    43218    43197 
   43212    43245    43264    43245    43201    43177    43195    43239 
   43260    43235    43181    43140    43137    43162    43181    43177 
   43167    43171    43189    43208    43225    43252    43295    43341 
   43366    43357    43328    43291    43260    43247    43239    43222 
   43217    43249    43302    43330    43316    43278    43252    43247 
   43232    43200    43177    43179    43195    43213    43233    43259 
   43275    43267    43244    43231    43240    43256    43267    43278 
   43298    43313    43308    43285    43262    43243    43231    43224 
   43224    43220    43200    43175    43181    43220    43255    43266 
   43264    43266    43271    43266    43243    43210    43182    43164 
   43156    43170    43217    43281    43314    43287    43235    43216 
   43239    43267    43275    43276    43286    43290    43259    43201 
   43163    43175    43224    43267    43279    43272    43275    43289 
   43285    43249    43205    43186    43206    43252    43285    43276 
   43241    43220    43229    43252    43258    43241    43229    43236 
   43249    43252    43255    43263    43267    43260    43256    43278 
   43305    43305    43278    43255    43259    43278    43285    43275 
   43267    43281    43308    43328    43325    43299    43271    43255 
   43229    43185    43150    43148    43177    43214    43227    43213 
   43206    43222    43248    43258    43241    43225    43233    43258 
   43279    43295    43306    43302    43290    43275    43252    43227 
   43201    43191    43210    43241    43256    43256    43263    43272 
   43262    43241    43235    43249    43260    43237    43200    43185 
   43195    43201    43190    43186    43210    43254    43285    43271 
   43221    43163    43124    43121    43154    43179    43173    43152 
   43144    43158    43179    43197    43205    43197    43177    43152 
   43137    43162    43220    43275    43310    43322    43316    43297 
   43272    43252    43251    43276    43317    43344    43349    43344 
   43344    43345    43337    43312    43281    43263    43274    43302 
   43313    43285    43233    43194    43187    43208    43228    43244 
   43276    43328    43371    43375    43335    43286    43268    43275 
   43270    43244    43213    43197    43205    43233    43264    43287 
   43301    43318    43344    43379    43409    43420    43411    43390 
   43372    43364    43349    43317    43283    43254    43224    43202 
   43186    43168    43146    43119    43104    43123    43162    43183 
   43173    43148    43139    43156    43191    43209    43179    43123 
   43078    43075    43105    43123    43101    43074    43081    43123 
   43173    43202    43212    43222    43248    43283    43309    43308 
   43286    43275    43290    43312    43312    43299    43303    43326 
   43345    43333    43282    43225    43197    43190    43178    43162 
   43156    43173    43200    43218    43216    43206    43194    43173 
   43162    43183    43240    43310    43357    43368    43360    43355 
   43359    43360    43351    43347    43360    43370    43357    43324 
   43279    43235    43191    43144    43116    43125    43174    43244 
   43298    43312    43290    43252    43213    43171    43123    43085 
   43082    43112    43154    43197    43237    43259    43260    43244 
   43225    43221    43225    43229    43236    43254    43279    43281 
   43245    43197    43166    43163    43197    43240    43260    43256 
   43245    43235    43222    43216    43224    43248    43281    43303 
   43299    43271    43232    43187    43156    43155    43167    43174 
   43182    43202    43236    43271    43303    43340    43368    43371 
   43352    43326    43320    43335    43337    43318    43301    43297 
   43298    43301    43303    43294    43268    43233    43201    43185 
   43168    43128    43073    43044    43063    43116    43178    43222 
   43244    43252    43247    43232    43214    43195    43175    43154 
   43139    43132    43135    43163    43217    43272    43316    43362 
   43417    43459    43455    43401    43340    43308    43314    43349 
   43376    43374    43356    43336    43322    43328    43345    43359 
   43357    43336    43298    43258    43227    43195    43154    43101 
   43066    43070    43092    43097    43070    43046    43074    43147 
   43201    43209    43201    43214    43256    43294    43299    43275 
   43247    43233    43235    43235    43204    43147    43092    43082 
   43125    43171    43166    43125    43110    43159    43256    43348 
   43387    43374    43336    43301    43282    43271    43235    43171 
   43120    43119    43167    43231    43278    43299    43309    43329 
   43362    43380    43359    43306    43268    43270    43290    43285 
   43235    43160    43106    43097    43132    43198    43247    43247 
   43216    43197    43206    43236    43268    43293    43316    43337 
   43356    43372    43380    43382    43375    43372    43386    43424 
   43475    43502    43479    43421    43345    43274    43218    43167 
   43106    43055    43039    43062    43092    43089    43056    43039 
   43058    43096    43132    43168    43216    43262    43282    43267 
   43233    43206    43208    43239    43279    43298    43281    43245 
   43241    43295    43368    43393    43357    43302    43264    43254 
   43243    43214    43177    43147    43154    43204    43267    43316 
   43343    43349    43362    43390    43403    43386    43353    43324 
   43309    43305    43293    43252    43177    43089    43025    43008 
   43027    43044    43060    43106    43190    43290    43372    43402 
   43383    43359    43348    43328    43275    43187    43101    43058 
   43044    43038    43033    43039    43063    43106    43160    43218 
   43281    43341    43384    43397    43366    43303    43243    43209 
   43201    43210    43231    43259    43291    43309    43295    43274 
   43271    43276    43267    43233    43205    43214    43256    43294 
   43291    43249    43214    43214    43239    43262    43274    43290 
   43325    43372    43402    43382    43318    43251    43198    43152 
   43112    43090    43109    43168    43240    43294    43328    43337 
   43324    43299    43278    43270    43276    43279    43263    43233 
   43198    43170    43152    43129    43110    43125    43186    43272 
   43335    43349    43339    43335    43351    43367    43364    43367 
   43390    43411    43399    43352    43308    43299    43309    43290 
   43236    43187    43186    43220    43243    43240    43233    43243 
   43275    43313    43335    43326    43291    43229    43170    43137 
   43121    43106    43086    43058    43032    43020    43009    42996 
   43008    43060    43141    43218    43262    43264    43244    43217 
   43183    43150    43128    43119    43123    43140    43182    43243 
   43291    43314    43313    43301    43295    43301    43297    43263 
   43205    43147    43110    43089    43086    43104    43135    43175 
   43220    43258    43298    43347    43383    43387    43374    43363 
   43360    43355    43340    43312    43285    43264    43236    43194 
   43162    43167    43220    43309    43401    43461    43486    43502 
   43522    43521    43476    43395    43317    43274    43259    43236 
   43187    43143    43151    43204    43255    43295    43335    43374 
   43405    43410    43384    43348    43316    43285    43252    43221 
   43190    43146    43077    42989    42909    42867    42877    42913 
   42963    43035    43131    43239    43330    43382    43397    43395 
   43389    43368    43339    43313    43305    43309    43298    43270 
   43247    43249    43282    43317    43332    43332    43335    43337 
   43329    43291    43218    43131    43058    43033    43078    43167 
   43248    43297    43316    43318    43312    43283    43221    43159 
   43137    43166    43214    43245    43240    43210    43181    43154 
   43110    43031    42942    42897    42916    42974    43025    43054 
   43081    43121    43171    43232    43289    43316    43316    43317 
   43336    43362    43384    43402    43420    43445    43482    43521 
   43552    43567    43549    43502    43448    43399    43347    43285 
   43228    43209    43244    43302    43333    43332    43316    43289 
   43251    43197    43136    43101    43104    43127    43148    43163 
   43174    43166    43129    43090    43089    43124    43154    43146 
   43105    43070    43062    43067    43066    43051    43044    43075 
   43136    43202    43254    43291    43332    43380    43421    43438 
   43422    43386    43364    43364    43379    43401    43409    43382 
   43332    43286    43264    43267    43275    43283    43295    43313 
   43330    43337    43328    43298    43240    43159    43083    43044 
   43052    43082    43105    43123    43158    43213    43275    43330 
   43372    43403    43417    43405    43374    43336    43301    43278 
   43263    43240    43193    43143    43124    43143    43166    43158 
   43131    43128    43159    43191    43205    43204    43206    43235 
   43282    43318    43340    43356    43359    43344    43318    43294 
   43279    43271    43264    43264    43281    43306    43314    43291 
   43241    43187    43162    43178    43221    43263    43293    43318 
   43336    43337    43320    43278    43228    43194    43190    43213 
   43244    43247    43212    43166    43151    43178    43214    43228 
   43221    43218    43233    43263    43289    43297    43278    43233 
   43193    43189    43212    43225    43209    43186    43189    43216 
   43240    43255    43270    43297    43322    43332    43321    43297 
   43270    43247    43239    43240    43228    43195    43159    43131 
   43104    43066    43023    42994    43008    43067    43156    43258 
   43339    43372    43355    43306    43263    43239    43209    43162 
   43106    43073    43097    43170    43237    43279    43310    43353 
   43407    43444    43440    43395    43335    43283    43241    43198 
   43152    43116    43101    43120    43170    43241    43321    43391 
   43433    43441    43425    43403    43384    43374    43370    43362 
   43333    43291    43254    43220    43186    43160    43150    43159 
   43197    43251    43282    43281    43260    43233    43214    43209 
   43204    43198    43216    43254    43272    43252    43200    43141 
   43090    43050    43028    43032    43048    43058    43065    43086 
   43132    43193    43248    43287    43309    43332    43371    43402 
   43398    43362    43310    43272    43258    43249    43241    43232 
   43221    43212    43200    43187    43177    43170    43164    43162 
   43166    43178    43189    43181    43155    43129    43123    43140 
   43168    43201    43229    43251    43266    43272    43268    43276 
   43320    43394    43476    43544    43583    43594    43576    43534 
   43474    43391    43299    43214    43155    43129    43125    43127 
   43131    43135    43146    43178    43236    43306    43364    43395 
   43413    43438    43472    43486    43453    43379    43301    43241 
   43189    43127    43058    43001    42969    42974    43025    43104 
   43164    43197    43208    43209    43222    43255    43279    43285 
   43286    43291    43294    43270    43216    43150    43093    43050 
   43016    42988    42966    42967    43009    43098    43212    43314 
   43374    43378    43349    43320    43291    43268    43259    43266 
   43286    43310    43335    43362    43383    43389    43376    43351 
   43325    43309    43301    43303    43312    43320    43318    43285 
   43231    43191    43187    43206    43214    43205    43190    43177 
   43164    43158    43152    43143    43124    43090    43060    43058 
   43075    43083    43070    43058    43074    43108    43143    43175 
   43221    43287    43357    43410    43436    43429    43405    43376 
   43351    43333    43317    43303    43301    43309    43333    43364 
   43376    43372    43375    43384    43382    43348    43294    43256 
   43245    43235    43204    43159    43133    43155    43212    43274 
   43321    43352    43370    43382    43384    43370    43333    43285 
   43233    43181    43123    43069    43031    43006    42989    42981 
   42981    43000    43039    43097    43173    43252    43309    43321 
   43297    43262    43229    43201    43183    43189    43221    43276 
   43336    43378    43399    43417    43441    43463    43472    43476 
   43488    43498    43478    43433    43391    43367    43353    43344 
   43337    43341    43355    43363    43352    43332    43317    43308 
   43298    43279    43248    43216    43195    43185    43168    43146 
   43120    43105    43114    43147    43185    43213    43228    43229 
   43210    43175    43129    43071    43009    42965    42947    42958 
   42984    42993    42992    43011    43063    43143    43235    43301 
   43326    43335    43347    43362    43352    43298    43214    43136 
   43090    43079    43082    43083    43090    43125    43202    43302 
   43394    43461    43507    43530    43528    43498    43452    43399 
   43336    43270    43221    43182    43135    43081    43033    43008 
   43011    43036    43075    43120    43162    43198    43227    43237 
   43231    43213    43202    43213    43247    43287    43325    43360 
   43379    43372    43352    43326    43298    43275    43262    43251 
   43240    43225    43201    43173    43159    43170    43205    43248 
   43285    43316    43340    43343    43325    43303    43298    43308 
   43302    43259    43197    43144    43112    43092    43070    43048 
   43046    43065    43086    43104    43121    43148    43183    43225 
   43275    43317    43344    43363    43380    43393    43382    43360 
   43356    43362    43344    43293    43231    43191    43182    43175 
   43154    43132    43139    43162    43174    43178    43185    43198 
   43229    43272    43310    43335    43340    43335    43335    43337 
   43328    43306    43291    43301    43343    43387    43407    43410 
   43417    43432    43445    43447    43434    43417    43403    43389 
   43372    43364    43375    43397    43428    43464    43487    43492 
   43482    43452    43407    43364    43321    43285    43258    43233 
   43200    43155    43102    43063    43048    43050    43056    43048 
   43029    43006    42975    42936    42913    42911    42923    42951 
   42998    43050    43094    43124    43139    43155    43190    43239 
   43287    43322    43333    43324    43305    43279    43251    43210 
   43158    43112    43087    43087    43101    43121    43156    43214 
   43279    43321    43333    43339    43349    43359    43349    43320 
   43294    43293    43314    43343    43370    43393    43401    43403 
   43413    43425    43424    43406    43376    43356    43341    43312 
   43260    43201    43154    43124    43106    43089    43063    43044 
   43042    43065    43102    43132    43141    43148    43160    43168 
   43162    43141    43106    43062    43025    43015    43033    43089 
   43166    43245    43324    43403    43475    43519    43519    43483 
   43444    43418    43395    43357    43317    43287    43263    43232 
   43198    43164    43143    43144    43177    43217    43243    43249 
   43240    43222    43209    43194    43179    43174    43177    43185 
