Origin Time       2025/06/03 22:18:00
Lat.              41.7
Long.             143.6
Depth. (km)       30
Mag.              5.2
Station Code      AOM003
Station Lat.      41.4054
Station Long.     141.1699
Station Height(m) 2
Record Time       2025/06/03 22:19:32
Sampling Freq(Hz) 100Hz
Duration Time(s)  60
Dir.              E-W
Scale Factor      7845(gal)/8223790
Max. Acc. (gal)   0.917
Last Correction   2025/06/03 22:19:32
Memo.             
[...]
   -1719    -1711    -1703    -1691    -1675    -1655    -1626    -1602 
   -1587    -1574    -1564    -1559    -1561    -1571    -1584    -1601 
   -1625    -1661    -1702    -1732    -1749    -1759    -1759    -1753 
   -1737    -1703    -1663    -1626    -1599    -1584    -1583    -1590 
   -1583    -1567    -1557    -1553    -1548    -1545    -1551    -1578 
   -1633    -1711    -1790    -1850    -1896    -1935    -1973    -2011 
   -2039    -2045    -2027    -1996    -1952    -1894    -1833    -1768 
   -1705    -1660    -1630    -1609    -1597    -1590    -1586    -1579 
   -1574    -1570    -1563    -1551    -1539    -1540    -1564    -1610 
   -1668    -1723    -1759    -1786    -1811    -1822    -1811    -1795 
   -1786    -1777    -1779    -1787    -1775    -1733    -1686    -1647 
   -1620    -1617    -1641    -1680    -1732    -1798    -1876    -1957 
   -2026    -2066    -2076    -2057    -2015    -1960    -1890    -1796 
   -1690    -1594    -1525    -1482    -1459    -1456    -1467    -1485 
   -1513    -1551    -1587    -1625    -1665    -1701    -1721    -1726 
   -1719    -1698    -1661    -1624    -1591    -1566    -1547    -1536 
   -1539    -1545    -1557    -1580    -1618    -1663    -1715    -1772 
   -1821    -1857    -1885    -1899    -1895    -1877    -1853    -1822 
   -1786    -1750    -1726    -1709    -1691    -1676    -1669    -1668 
   -1674    -1687    -1702    -1711    -1711    -1703    -1691    -1683 
   -1682    -1694    -1721    -1750    -1767    -1775    -1772    -1756 
   -1741    -1734    -1730    -1729    -1732    -1736    -1746    -1775 
   -1799    -1811    -1821    -1823    -1818    -1822    -1840    -1854 
   -1856    -1840    -1804    -1750    -1695    -1647    -1599    -1559 
   -1534    -1525    -1530    -1549    -1568    -1572    -1567    -1557 
   -1545    -1536    -1532    -1534    -1553    -1583    -1610    -1633 
   -1645    -1648    -1642    -1647    -1667    -1695    -1723    -1742 
   -1756    -1769    -1768    -1746    -1713    -1675    -1642    -1624 
   -1617    -1625    -1642    -1663    -1691    -1730    -1768    -1790 
   -1792    -1775    -1733    -1674    -1618    -1575    -1553    -1568 
   -1614    -1664    -1711    -1763    -1804    -1827    -1845    -1856 
   -1848    -1822    -1786    -1733    -1680    -1651    -1641    -1644 
   -1657    -1668    -1669    -1669    -1679    -1694    -1709    -1725 
   -1746    -1772    -1803    -1827    -1830    -1825    -1823    -1827 
   -1841    -1860    -1864    -1854    -1836    -1814    -1788    -1759 
   -1728    -1709    -1711    -1729    -1744    -1737    -1701    -1641 
   -1580    -1537    -1509    -1497    -1502    -1513    -1534    -1582 
   -1648    -1721    -1798    -1867    -1911    -1939    -1958    -1957 
   -1930    -1891    -1849    -1810    -1779    -1753    -1723    -1686 
   -1637    -1587    -1549    -1525    -1517    -1521    -1525    -1525 
   -1526    -1524    -1532    -1564    -1614    -1676    -1744    -1811 
   -1876    -1930    -1969    -1992    -1989    -1957    -1903    -1825 
   -1726    -1626    -1540    -1487    -1487    -1532    -1599    -1674 
   -1745    -1794    -1819    -1830    -1822    -1790    -1750    -1725 
   -1706    -1684    -1657    -1622    -1586    -1576    -1603    -1642 
   -1678    -1705    -1726    -1742    -1767    -1794    -1807    -1795 
   -1761    -1717    -1676    -1652    -1644    -1633    -1614    -1591 
   -1571    -1557    -1552    -1549    -1537    -1514    -1501    -1510 
   -1541    -1582    -1624    -1659    -1680    -1695    -1709    -1722 
   -1742    -1769    -1800    -1833    -1868    -1896    -1919    -1935 
   -1946    -1957    -1961    -1944    -1908    -1868    -1821    -1768 
   -1725    -1688    -1655    -1638    -1642    -1642    -1636    -1622 
   -1597    -1561    -1529    -1494    -1453    -1433    -1447    -1480 
   -1534    -1605    -1679    -1745    -1799    -1836    -1845    -1833 
   -1814    -1786    -1740    -1687    -1649    -1628    -1621    -1633 
   -1652    -1657    -1648    -1630    -1598    -1552    -1505    -1471 
   -1449    -1452    -1482    -1530    -1588    -1661    -1744    -1823 
   -1884    -1915    -1917    -1902    -1869    -1821    -1761    -1702 
   -1640    -1582    -1544    -1526    -1528    -1545    -1575    -1610 
   -1648    -1692    -1730    -1746    -1752    -1746    -1740    -1752 
   -1776    -1800    -1823    -1845    -1864    -1877    -1875    -1860 
   -1840    -1807    -1771    -1740    -1705    -1669    -1630    -1583 
   -1547    -1536    -1544    -1571    -1620    -1679    -1750    -1830 
   -1902    -1960    -2020    -2089    -2146    -2184    -2197    -2161 
   -2058    -1923    -1794    -1687    -1606    -1551    -1522    -1522 
   -1551    -1588    -1615    -1634    -1651    -1664    -1682    -1709 
   -1730    -1745    -1769    -1807    -1845    -1881    -1907    -1910 
   -1894    -1875    -1861    -1853    -1853    -1861    -1873    -1890 
   -1904    -1907    -1887    -1840    -1775    -1707    -1648    -1595 
   -1549    -1514    -1498    -1499    -1513    -1541    -1572    -1590 
   -1588    -1560    -1510    -1459    -1420    -1395    -1389    -1386 
   -1386    -1397    -1422    -1464    -1528    -1609    -1691    -1759 
   -1814    -1860    -1895    -1921    -1948    -1973    -1984    -1979 
   -1958    -1922    -1867    -1800    -1728    -1652    -1578    -1517 
   -1471    -1425    -1374    -1325    -1282    -1236    -1192    -1166 
   -1169    -1197    -1250    -1324    -1401    -1478    -1557    -1632 
   -1699    -1761    -1809    -1846    -1891    -1933    -1965    -1995 
   -2019    -2030    -2035    -2046    -2060    -2079    -2099    -2110 
   -2108    -2092    -2060    -2012    -1950    -1881    -1809    -1737 
   -1668    -1603    -1541    -1486    -1436    -1394    -1374    -1381 
   -1417    -1483    -1561    -1633    -1690    -1725    -1733    -1721 
   -1707    -1703    -1713    -1736    -1760    -1779    -1796    -1807 
   -1814    -1817    -1806    -1776    -1742    -1718    -1713    -1721 
   -1734    -1748    -1756    -1759    -1769    -1798    -1827    -1848 
   -1863    -1880    -1906    -1944    -1976    -1977    -1952    -1915 
   -1883    -1872    -1879    -1875    -1850    -1809    -1746    -1679 
   -1613    -1541    -1466    -1405    -1381    -1404    -1462    -1536 
   -1622    -1714    -1798    -1875    -1927    -1923    -1868    -1782 
   -1675    -1564    -1468    -1395    -1358    -1355    -1386    -1433 
   -1486    -1543    -1606    -1678    -1744    -1784    -1794    -1787 
   -1773    -1759    -1756    -1780    -1845    -1941    -2050    -2155 
   -2234    -2259    -2218    -2119    -1981    -1817    -1641    -1479 
   -1336    -1208    -1104    -1032    -1000    -1009    -1050    -1113 
   -1201    -1317    -1462    -1624    -1779    -1908    -2010    -2076 
   -2110    -2119    -2106    -2074    -2045    -2019    -1989    -1958 
   -1925    -1888    -1860    -1852    -1853    -1860    -1879    -1915 
   -1961    -2006    -2031    -2026    -1989    -1931    -1845    -1722 
   -1561    -1372    -1181    -1024     -919     -864     -845     -851 
    -884     -936    -1016    -1132    -1287    -1463    -1640    -1815 
   -1981    -2120    -2220    -2288    -2317    -2295    -2224    -2133 
   -2038    -1948    -1864    -1794    -1745    -1706    -1675    -1661 
   -1660    -1665    -1678    -1691    -1702    -1718    -1738    -1760 
   -1780    -1780    -1749    -1695    -1622    -1537    -1466    -1420 
   -1393    -1379    -1381    -1399    -1445    -1530    -1651    -1782 
   -1899    -1995    -2057    -2085    -2076    -2029    -1953    -1861 
   -1759    -1669    -1609    -1575    -1572    -1595    -1614    -1614 
   -1599    -1584    -1578    -1568    -1549    -1520    -1483    -1458 
   -1472    -1530    -1614    -1711    -1809    -1894    -1965    -2030 
   -2089    -2123    -2108    -2046    -1948    -1825    -1703    -1595 
   -1513    -1470    -1471    -1507    -1564    -1622    -1676    -1721 
   -1752    -1776    -1798    -1813    -1826    -1858    -1907    -1941 
   -1942    -1917    -1883    -1857    -1838    -1806    -1756    -1711 
   -1690    -1696    -1723    -1741    -1732    -1703    -1667    -1628 
   -1591    -1547    -1491    -1439    -1413    -1428    -1485    -1571 
   -1674    -1782    -1876    -1945    -1981    -1980    -1942    -1872 
   -1776    -1665    -1553    -1451    -1366    -1306    -1287    -1302 
   -1331    -1370    -1420    -1467    -1518    -1586    -1664    -1737 
   -1794    -1826    -1829    -1788    -1713    -1629    -1552    -1489 
   -1447    -1422    -1410    -1404    -1413    -1452    -1522    -1624 
   -1745    -1863    -1962    -2045    -2097    -2110    -2087    -2041 
   -1966    -1875    -1786    -1705    -1628    -1566    -1545    -1580 
   -1667    -1784    -1914    -2039    -2143    -2216    -2251    -2231 
   -2147    -2022    -1872    -1715    -1576    -1475    -1417    -1377 
   -1336    -1312    -1317    -1341    -1374    -1408    -1451    -1517 
   -1606    -1694    -1771    -1837    -1891    -1938    -1979    -2006 
   -2012    -2000    -1975    -1944    -1921    -1907    -1896    -1873 
   -1840    -1796    -1746    -1691    -1618    -1516    -1394    -1278 
   -1196    -1165    -1185    -1237    -1304    -1382    -1479    -1595 
   -1725    -1857    -1972    -2037    -2045    -2015    -1964    -1892 
   -1817    -1755    -1719    -1726    -1798    -1926    -2076    -2212 
   -2307    -2338    -2299    -2209    -2089    -1953    -1818    -1696 
   -1584    -1487    -1409    -1352    -1329    -1354    -1424    -1514 
   -1593    -1638    -1659    -1665    -1675    -1691    -1702    -1686 
   -1637    -1551    -1431    -1290    -1150    -1034     -974     -986 
   -1066    -1212    -1399    -1594    -1780    -1953    -2108    -2242 
   -2346    -2413    -2439    -2434    -2425    -2440    -2471    -2496 
   -2497    -2463    -2385    -2270    -2131    -1977    -1827    -1688 
   -1556    -1437    -1333    -1240    -1165    -1119    -1102    -1109 
   -1136    -1182    -1247    -1331    -1439    -1548    -1634    -1690 
   -1715    -1723    -1725    -1728    -1733    -1725    -1686    -1630 
   -1575    -1516    -1474    -1480    -1528    -1593    -1660    -1726 
   -1788    -1833    -1856    -1865    -1871    -1867    -1858    -1852 
   -1841    -1831    -1838    -1850    -1849    -1827    -1786    -1718 
   -1628    -1522    -1420    -1336    -1270    -1213    -1167    -1139 
   -1136    -1169    -1224    -1293    -1367    -1453    -1567    -1699 
   -1813    -1884    -1910    -1898    -1875    -1868    -1883    -1903 
   -1917    -1923    -1908    -1856    -1780    -1690    -1595    -1520 
   -1486    -1487    -1518    -1560    -1583    -1568    -1528    -1479 
   -1436    -1404    -1395    -1435    -1522    -1647    -1790    -1933 
   -2050    -2128    -2168    -2169    -2141    -2081    -2010    -1935 
   -1852    -1773    -1722    -1709    -1744    -1823    -1937    -2072 
   -2218    -2362    -2481    -2554    -2574    -2551    -2496    -2419 
   -2334    -2239    -2124    -1988    -1842    -1694    -1559    -1455 
   -1391    -1364    -1360    -1378    -1432    -1516    -1601    -1665 
   -1692    -1679    -1637    -1582    -1526    -1483    -1462    -1463 
   -1486    -1522    -1563    -1597    -1613    -1606    -1583    -1552 
   -1514    -1468    -1405    -1328    -1252    -1193    -1161    -1142 
   -1132    -1147    -1186    -1246    -1325    -1408    -1474    -1524 
   -1561    -1584    -1602    -1626    -1655    -1687    -1734    -1804 
   -1896    -2007    -2126    -2243    -2350    -2425    -2455    -2439 
   -2380    -2277    -2131    -1953    -1767    -1595    -1456    -1347 
   -1263    -1210    -1190    -1202    -1244    -1300    -1355    -1417 
   -1491    -1563    -1645    -1742    -1834    -1903    -1953    -1989 
   -2015    -2045    -2096    -2162    -2227    -2284    -2324    -2336 
   -2308    -2245    -2151    -2027    -1875    -1710    -1543    -1381 
   -1229    -1111    -1039    -1019    -1040    -1102    -1205    -1337 
   -1471    -1584    -1668    -1715    -1734    -1755    -1792    -1842 
   -1892    -1926    -1925    -1895    -1854    -1806    -1757    -1725 
   -1707    -1718    -1776    -1867    -1960    -2035    -2087    -2104 
   -2081    -2026    -1935    -1804    -1645    -1478    -1325    -1216 
   -1158    -1140    -1163    -1209    -1275    -1370    -1493    -1628 
   -1756    -1869    -1961    -2015    -2038    -2039    -2018    -1981 
   -1948    -1917    -1883    -1836    -1772    -1695    -1614    -1540 
   -1485    -1451    -1441    -1445    -1445    -1431    -1387    -1314 
   -1244    -1198    -1185    -1216    -1281    -1371    -1491    -1626 
   -1765    -1894    -2002    -2099    -2188    -2259    -2301    -2308 
   -2284    -2251    -2219    -2188    -2154    -2101    -2025    -1930 
   -1833    -1723    -1588    -1431    -1258    -1086     -942     -839 
    -783     -772     -807     -877     -969    -1082    -1221    -1382 
   -1563    -1763    -1968    -2153    -2308    -2432    -2516    -2556 
   -2573    -2566    -2532    -2481    -2416    -2335    -2241    -2147 
   -2068    -1991    -1904    -1806    -1696    -1572    -1441    -1318 
   -1206    -1112    -1050    -1030    -1061    -1134    -1233    -1354 
   -1472    -1576    -1676    -1768    -1834    -1861    -1849    -1792 
   -1699    -1586    -1470    -1359    -1248    -1144    -1075    -1058 
   -1085    -1155    -1258    -1379    -1513    -1664    -1840    -2022 
   -2195    -2355    -2498    -2610    -2668    -2658    -2581    -2446 
   -2266    -2076    -1904    -1752    -1626    -1544    -1497    -1479 
   -1501    -1572    -1669    -1771    -1873    -1984    -2095    -2195 
   -2269    -2311    -2311    -2258    -2153    -2003    -1818    -1615 
   -1418    -1247    -1113    -1026     -993    -1019    -1094    -1216 
   -1374    -1549    -1732    -1906    -2072    -2226    -2339    -2396 
   -2396    -2351    -2280    -2193    -2104    -2023    -1945    -1869 
   -1794    -1703    -1601    -1498    -1406    -1331    -1271    -1220 
   -1170    -1127    -1107    -1113    -1136    -1179    -1248    -1332 
   -1421    -1518    -1599    -1644    -1661    -1664    -1659    -1664 
   -1687    -1709    -1714    -1711    -1709    -1707    -1699    -1687 
   -1664    -1621    -1566    -1507    -1445    -1387    -1351    -1347 
   -1382    -1458    -1555    -1667    -1786    -1891    -1964    -2006 
   -2016    -1991    -1945    -1898    -1857    -1822    -1791    -1759 
   -1717    -1657    -1594    -1536    -1486    -1451    -1439    -1439 
   -1444    -1466    -1495    -1526    -1575    -1655    -1746    -1840 
   -1923    -1979    -2003    -2006    -1999    -1985    -1966    -1946 
   -1934    -1939    -1956    -1960    -1945    -1907    -1852    -1792 
   -1744    -1703    -1661    -1607    -1543    -1476    -1417    -1381 
   -1379    -1416    -1493    -1603    -1738    -1881    -2019    -2133 
   -2212    -2253    -2243    -2188    -2103    -2006    -1910    -1827 
   -1760    -1714    -1699    -1710    -1715    -1691    -1628    -1529 
   -1408    -1271    -1135    -1013     -919     -866     -868     -930 
   -1050    -1213    -1398    -1582    -1753    -1907    -2033    -2127 
   -2191    -2220    -2216    -2182    -2124    -2050    -1975    -1908 
   -1853    -1813    -1780    -1744    -1711    -1705    -1733    -1784 
   -1840    -1891    -1925    -1925    -1885    -1810    -1703    -1578 
   -1451    -1339    -1244    -1163    -1107    -1074    -1054    -1044 
   -1063    -1107    -1171    -1264    -1370    -1470    -1583    -1715 
   -1854    -1992    -2126    -2232    -2304    -2350    -2373    -2359 
   -2317    -2257    -2177    -2087    -2000    -1927    -1877    -1861 
   -1876    -1906    -1941    -1977    -2016    -2058    -2093    -2116 
   -2123    -2115    -2095    -2062    -2022    -1980    -1929    -1873 
   -1818    -1755    -1679    -1603    -1543    -1501    -1475    -1472 
   -1489    -1518    -1557    -1599    -1634    -1659    -1671    -1674 
   -1669    -1655    -1624    -1576    -1518    -1458    -1398    -1348 
   -1309    -1285    -1275    -1277    -1293    -1327    -1372    -1426 
   -1490    -1560    -1625    -1676    -1715    -1746    -1763    -1759 
   -1733    -1690    -1629    -1570    -1528    -1494    -1463    -1444 
   -1425    -1399    -1385    -1389    -1404    -1431    -1475    -1526 
   -1566    -1602    -1637    -1667    -1702    -1744    -1787    -1827 
   -1869    -1908    -1930    -1926    -1899    -1854    -1814    -1796 
   -1799    -1826    -1865    -1907    -1958    -2020    -2084    -2135 
   -2164    -2155    -2110    -2034    -1944    -1852    -1763    -1683 
   -1632    -1618    -1647    -1714    -1811    -1930    -2056    -2174 
   -2273    -2335    -2357    -2342    -2293    -2215    -2108    -1977 
   -1833    -1690    -1560    -1444    -1341    -1256    -1196    -1163 
   -1151    -1161    -1201    -1269    -1344    -1412    -1447    -1439 
   -1397    -1339    -1279    -1228    -1202    -1216    -1273    -1371 
   -1503    -1653    -1811    -1971    -2128    -2274    -2376    -2408 
   -2371    -2272    -2119    -1938    -1756    -1594    -1456    -1345 
   -1269    -1227    -1220    -1246    -1289    -1345    -1413    -1486 
   -1553    -1607    -1642    -1663    -1671    -1663    -1655    -1661 
   -1688    -1733    -1799    -1890    -1995    -2097    -2196    -2284 
   -2347    -2374    -2357    -2296    -2207    -2099    -1975    -1842 
   -1714    -1605    -1521    -1464    -1429    -1417    -1425    -1443 
   -1466    -1485    -1490    -1486    -1471    -1448    -1413    -1359 
   -1290    -1225    -1182    -1163    -1170    -1210    -1282    -1381 
   -1501    -1625    -1734    -1829    -1910    -1980    -2053    -2126 
   -2182    -2208    -2197    -2164    -2124    -2088    -2046    -2000 
   -1956    -1914    -1876    -1852    -1836    -1821    -1795    -1753 
   -1696    -1637    -1578    -1525    -1485    -1453    -1436    -1445 
   -1480    -1528    -1579    -1625    -1653    -1671    -1684    -1698 
   -1713    -1733    -1756    -1783    -1819    -1872    -1930    -1977 
   -2004    -1998    -1956    -1892    -1810    -1717    -1624    -1541 
   -1468    -1398    -1333    -1270    -1202    -1139    -1098    -1086 
   -1100    -1142    -1206    -1289    -1387    -1491    -1599    -1710 
   -1810    -1887    -1934    -1960    -1972    -1972    -1956    -1926 
   -1885    -1845    -1818    -1806    -1798    -1788    -1779    -1763 
   -1742    -1729    -1718    -1710    -1713    -1726    -1749    -1784 
   -1823    -1863    -1898    -1933    -1969    -1995    -2006    -2003 
   -1987    -1953    -1910    -1863    -1817    -1772    -1734    -1703 
   -1679    -1667    -1660    -1647    -1637    -1637    -1645    -1665 
   -1705    -1753    -1795    -1829    -1863    -1888    -1898    -1895 
   -1881    -1856    -1830    -1814    -1800    -1784    -1769    -1760 
   -1756    -1749    -1725    -1688    -1636    -1566    -1490    -1417 
   -1352    -1297    -1266    -1264    -1287    -1331    -1397    -1486 
   -1587    -1682    -1772    -1860    -1935    -1989    -2026    -2046 
   -2046    -2034    -2016    -1996    -1979    -1969    -1964    -1958 
   -1953    -1957    -1971    -1991    -2007    -2015    -2020    -2022 
   -2015    -2002    -1966    -1904    -1818    -1710    -1582    -1445 
