Origin Time       2025/06/03 22:18:00
Lat.              41.7
Long.             143.6
Depth. (km)       30
Mag.              5.2
Station Code      HKD078
Station Lat.      43.1488
Station Long.     144.4976
Station Height(m) 25
Record Time       2025/06/03 22:19:17
Sampling Freq(Hz) 100Hz
Duration Time(s)  60
Dir.              N-S
Scale Factor      7845(gal)/8223790
Max. Acc. (gal)   1.158
Last Correction   2025/06/03 22:19:17
Memo.             
[...]
    3912     3809     3717     3631     3543     3503     3555     3681 
    3817     3923     3994     4031     3996     3889     3784     3730 
    3724     3750     3773     3763     3728     3692     3673     3700 
    3770     3813     3789     3754     3748     3757     3775     3808 
    3835     3843     3843     3843     3816     3746     3686     3708 
    3808     3925     4013     4051     4031     3966     3885     3798 
    3701     3612     3561     3558     3601     3672     3746     3808 
    3844     3867     3898     3935     3956     3921     3811     3690 
    3635     3651     3682     3693     3715     3767     3811     3807 
    3773     3762     3798     3832     3824     3794     3784     3813 
    3869     3906     3902     3865     3836     3834     3835     3838 
    3847     3859     3900     3979     4039     4020     3936     3824 
    3708     3604     3515     3434     3385     3407     3495     3618 
    3736     3827     3900     3954     3964     3931     3877     3834 
    3807     3786     3769     3738     3684     3636     3631     3701 
    3855     4017     4113     4136     4090     3956     3744     3535 
    3437     3473     3561     3622     3663     3736     3840     3942 
    4024     4089     4141     4163     4117     3994     3812     3619 
    3487     3464     3538     3659     3759     3789     3765     3727 
    3672     3611     3573     3554     3542     3559     3639     3777 
    3921     4008     4005     3952     3917     3935     3973     3983 
    3955     3894     3811     3724     3659     3651     3719     3824 
    3885     3847     3751     3689     3697     3727     3731     3723 
    3721     3721     3719     3720     3736     3777     3839     3908 
    3978     4041     4048     3987     3912     3854     3798     3719 
    3650     3645     3694     3744     3759     3721     3659     3646 
    3701     3780     3844     3892     3915     3909     3882     3821 
    3721     3642     3678     3855     4063     4168     4149     4063 
    3955     3852     3759     3673     3618     3597     3592     3608 
    3676     3780     3854     3870     3851     3831     3836     3861 
    3852     3812     3778     3770     3778     3769     3709     3624 
    3582     3588     3578     3545     3543     3605     3704     3797 
    3861     3886     3869     3813     3751     3744     3828     3971 
    4095     4140     4097     4005     3893     3767     3653     3584 
    3568     3591     3612     3605     3593     3620     3705     3802 
    3832     3790     3743     3735     3763     3798     3805     3813 
    3878     3969     4000     3950     3886     3866     3870     3842 
    3765     3682     3670     3746     3855     3951     4017     4056 
    4040     3942     3801     3682     3589     3514     3508     3632 
    3827     3955     3969     3915     3821     3711     3634     3616 
    3630     3639     3636     3653     3732     3848     3923     3932 
    3936     3970     4006     3990     3893     3744     3603     3499 
    3466     3511     3578     3647     3728     3819     3932     4041 
    4060     3971     3870     3828     3829     3817     3788     3784 
    3815     3842     3842     3834     3824     3788     3738     3723 
    3758     3812     3836     3827     3832     3870     3906     3921 
    3896     3811     3688     3581     3523     3493     3462     3451 
    3516     3662     3813     3908     3948     3944     3894     3827 
    3798     3825     3879     3913     3893     3819     3730     3690 
    3724     3789     3829     3817     3775     3751     3753     3735 
    3676     3609     3589     3631     3690     3740     3786     3813 
    3811     3788     3784     3813     3843     3878     3942     4006 
    4028     4000     3952     3910     3890     3908     3916     3854 
    3742     3639     3595     3618     3666     3703     3739     3789 
    3815     3786     3750     3732     3712     3680     3636     3639 
    3762     3981     4193     4318     4311     4187     4018     3870 
    3755     3645     3516     3446     3505     3659     3828     3970 
    4071     4121     4113     4039     3924     3824     3782     3782 
    3771     3736     3721     3750     3797     3823     3790     3694 
    3605     3578     3581     3574     3549     3503     3465     3485 
    3584     3740     3913     4062     4152     4166     4106     3996 
    3874     3755     3635     3549     3511     3472     3418     3384 
    3422     3566     3769     3935     4025     4062     4074     4051 
    3959     3815     3666     3565     3558     3646     3816     4027 
    4206     4329     4375     4309     4180     4086     4058     4050 
    4014     3954     3881     3808     3775     3800     3817     3771 
    3685     3578     3472     3392     3327     3273     3276     3375 
    3545     3708     3793     3790     3747     3723     3747     3821 
    3928     4028     4108     4171     4197     4152     4021     3811 
    3588     3427     3335     3318     3392     3532     3678     3761 
    3771     3766     3796     3850     3865     3817     3767     3774 
    3843     3933     4002     4063     4109     4075     3939     3754 
    3620     3597     3666     3746     3758     3677     3568     3526 
    3550     3554     3495     3407     3360     3381     3483     3689 
    3964     4206     4322     4280     4109     3883     3694     3609 
    3620     3686     3790     3901     4002     4082     4105     4071 
    4018     3966     3929     3931     3937     3902     3817     3674 
    3468     3235     3076     3065     3163     3252     3302     3379 
    3534     3738     3944     4137     4311     4418     4419     4324 
    4168     3958     3669     3377     3241     3349     3630     3929 
    4113     4116     3954     3715     3526     3447     3439     3470 
    3559     3692     3838     3997     4167     4302     4363     4353 
    4321     4336     4390     4391     4272     4023     3716     3466 
    3307     3229     3240     3267     3211     3123     3164     3397 
    3724     3996     4152     4220     4252     4247     4160     4008 
    3854     3739     3716     3809     3928     3960     3879     3726 
    3591     3573     3690     3851     3964     4017     4014     3977 
    3952     3944     3919     3875     3813     3746     3709     3720 
    3754     3766     3708     3555     3323     3083     2943     3015 
    3307     3659     3913     4071     4166     4156     4018     3771 
    3500     3353     3404     3593     3842     4101     4282     4297 
    4144     3898     3655     3499     3472     3566     3720     3883 
    4036     4159     4201     4095     3858     3634     3547     3595 
    3699     3812     3913     3954     3890     3757     3616     3491 
    3395     3368     3434     3592     3793     3983     4137     4214 
    4168     4052     3981     3986     4008     3979     3893     3784 
    3653     3516     3447     3510     3682     3870     4008     4101 
    4149     4148     4090     3974     3842     3719     3578     3423 
    3294     3235     3311     3534     3828     4085     4240     4321 
    4357     4326     4207     4012     3797     3638     3564     3573 
    3647     3771     3904     3981     3975     3909     3811     3711 
    3634     3572     3514     3468     3418     3302     3119     2986 
    3011     3191     3433     3665     3871     4059     4251     4459 
    4658     4812     4860     4739     4456     4105     3815     3640 
    3541     3454     3381     3383     3453     3500     3481     3402 
    3245     3063     2984     3082     3341     3686     3996     4170 
    4180     4066     3913     3825     3852     3935     3991     4040 
    4148     4305     4396     4334     4155     3974     3867     3836 
    3877     3959     3981     3871     3686     3537     3478     3491 
    3510     3484     3415     3319     3211     3118     3068     3071 
    3154     3331     3589     3933     4349     4695     4801     4633 
    4328     4091     4029     4137     4368     4617     4725     4627 
    4403     4153     3917     3711     3573     3534     3574     3578 
    3430     3163     2932     2847     2926     3115     3369     3684 
    3986     4172     4245     4249     4239     4288     4386     4432 
    4349     4120     3802     3500     3254     3059     2921     2862 
    2899     3017     3163     3302     3464     3707     4040     4399 
    4684     4797     4699     4452     4143     3851     3684     3727 
    3939     4172     4302     4299     4180     3967     3719     3488 
    3303     3180     3133     3195     3388     3651     3888     4023 
    4027     3913     3705     3468     3333     3357     3466     3608 
    3804     4040     4286     4511     4671     4719     4627     4378 
    4044     3774     3630     3545     3457     3368     3272     3164 
    3084     3086     3184     3326     3442     3573     3800     4067 
    4212     4126     3897     3735     3728     3800     3882     3933 
    3910     3840     3788     3773     3785     3834     3901     3939 
    3924     3878     3823     3751     3634     3484     3389     3402 
    3499     3657     3846     3985     4009     3979     4006     4151 
    4369     4536     4529     4301     3873     3388     3040     2910 
    2956     3084     3219     3373     3593     3832     3952     3886 
    3704     3527     3476     3618     3892     4132     4182     4064 
    3959     3977     4097     4247     4328     4317     4303     4330 
    4340     4271     4129     3975     3854     3742     3609     3487 
    3410     3368     3350     3348     3325     3295     3331     3450 
    3595     3723     3838     3978     4144     4195     4020     3700 
    3366     3148     3129     3223     3314     3419     3561     3727 
    3936     4124     4189     4143     4078     4077     4141     4175 
    4066     3824     3600     3532     3674     3987     4303     4423 
    4310     4067     3794     3562     3431     3441     3572     3701 
    3700     3565     3379     3241     3218     3330     3510     3657 
    3765     3913     4105     4236     4186     3967     3790     3831 
    4021     4131     4035     3817     3636     3550     3550     3607 
    3665     3685     3708     3802     3951     4039     3982     3836 
    3724     3700     3739     3824     3971     4149     4248     4199 
    4063     3946     3893     3886     3898     3923     3920     3834 
    3642     3379     3113     2902     2808     2884     3103     3366 
    3619     3831     3964     4024     4044     4066     4116     4159 
    4158     4126     4035     3817     3522     3283     3218     3337 
    3565     3878     4241     4502     4519     4303     3981     3715 
    3588     3585     3693     3901     4135     4279     4261     4132 
    4001     3912     3829     3755     3740     3797     3912     4058 
    4187     4241     4170     3973     3697     3438     3307     3352 
    3503     3663     3788     3870     3906     3904     3889     3873 
    3831     3778     3771     3796     3781     3719     3663     3681 
    3789     3921     4021     4071     4075     4039     3951     3816 
    3667     3524     3412     3356     3349     3387     3450     3493 
    3465     3365     3275     3276     3339     3377     3381     3423 
    3539     3680     3793     3879     3966     4093     4282     4494 
    4637     4626     4457     4178     3854     3640     3676     3905 
    4140     4248     4194     3991     3700     3420     3242     3169 
    3115     3051     3075     3268     3581     3869     4009     4028 
    4028     4043     4033     3955     3834     3746     3708     3705 
    3780     3959     4167     4298     4298     4171     3974     3809 
    3748     3777     3850     3897     3825     3636     3423     3249 
    3145     3181     3430     3842     4248     4515     4642     4652 
    4527     4266     3905     3519     3213     3078     3096     3198 
    3384     3673     4004     4244     4247     3959     3534     3172 
    2933     2822     2884     3148     3547     3936     4179     4240 
    4151     3979     3838     3832     3940     4031     4009     3861 
    3638     3429     3314     3335     3488     3732     4009     4291 
    4573     4768     4739     4467     4068     3743     3634     3754 
    4013     4245     4303     4197     4067     4017     4002     3910 
    3678     3373     3163     3144     3231     3281     3250     3215 
    3279     3435     3597     3711     3769     3809     3901     4041 
    4185     4315     4410     4467     4513     4496     4326     4000 
    3630     3361     3242     3231     3319     3516     3746     3892 
    3873     3713     3559     3518     3574     3674     3758     3785 
    3784     3801     3825     3812     3688     3418     3103     2917 
    2913     3017     3153     3312     3547     3929     4403     4776 
    4922     4909     4853     4789     4716     4646     4564     4398 
    4144     3893     3705     3550     3370     3187     3072     3076 
    3196     3397     3623     3829     3966     3954     3730     3356 
    3014     2853     2920     3172     3532     3932     4306     4576 
    4675     4602     4437     4284     4167     4071     4035     4075 
    4171     4309     4448     4504     4426     4248     4043     3838 
    3626     3416     3261     3188     3142     3040     2872     2691 
    2579     2575     2686     2922     3234     3508     3678     3777 
    3916     4118     4278     4341     4340     4271     4099     3802 
    3422     3109     3030     3258     3690     4099     4334     4436 
    4517     4592     4568     4363     3997     3595     3304     3240 
    3418     3711     3900     3877     3705     3472     3214     3017 
    3006     3199     3492     3793     4083     4357     4567     4630 
    4509     4244     3962     3812     3813     3861     3869     3828 
    3781     3773     3808     3871     3936     3951     3870     3700 
    3530     3438     3407     3430     3570     3861     4248     4594 
    4752     4665     4414     4129     3898     3751     3697     3712 
    3753     3800     3819     3746     3559     3291     3013     2830 
    2783     2795     2821     2928     3154     3446     3709     3854 
    3866     3854     3928     4070     4174     4207     4237     4306 
    4375     4401     4383     4329     4253     4193     4160     4113 
    4037     3977     3971     4002     3994     3855     3585     3276 
    3013     2876     2951     3198     3447     3597     3697     3832 
    4013     4176     4275     4307     4268     4189     4152     4175 
    4199     4158     4014     3811     3609     3434     3310     3276 
    3375     3573     3763     3892     3985     4059     4070     3967 
    3808     3721     3728     3742     3728     3731     3786     3874 
    3967     4023     3985     3821     3569     3326     3196     3219 
    3348     3507     3669     3816     3893     3879     3807     3696 
    3569     3466     3388     3333     3322     3360     3457     3612 
    3793     3982     4179     4356     4483     4548     4565     4540 
    4476     4410     4328     4152     3867     3581     3433     3478 
    3643     3785     3844     3850     3816     3708     3519     3333 
    3283     3406     3618     3825     3944     3917     3816     3763 
    3804     3925     4064     4140     4128     4052     3967     3906 
    3832     3686     3458     3191     2955     2825     2799     2822 
    2925     3194     3597     3985     4229     4317     4311     4278 
    4249     4280     4426     4634     4750     4684     4467     4216 
    4040     3979     4025     4120     4141     4000     3723     3404 
    3118     2909     2794     2778     2809     2797     2749     2752 
    2840     3013     3237     3476     3747     4043     4294     4453 
    4518     4496     4414     4326     4297     4368     4536     4738 
    4889     4932     4870     4745     4583     4356     4052     3720 
    3403     3122     2906     2772     2748     2875     3103     3302 
    3423     3523     3634     3717     3758     3775     3784     3782 
    3812     3902     4048     4212     4318     4325     4241     4091 
    3952     3917     3981     4058     4072     4005     3882     3734 
    3543     3311     3092     2944     2894     2951     3117     3335 
    3495     3550     3555     3568     3618     3731     3917     4140 
    4315     4344     4194     3962     3769     3654     3622     3659 
    3699     3703     3736     3817     3906     4005     4136     4280 
    4407     4455     4371     4197     4040     3944     3835     3604 
    3237     2840     2590     2590     2781     3042     3312     3532 
    3661     3736     3815     3900     3970     4033     4106     4176 
    4206     4180     4132     4112     4132     4158     4131     4028 
    3898     3805     3769     3775     3798     3794     3743     3623 
    3420     3191     3068     3156     3411     3692     3893     3960 
    3869     3658     3431     3303     3331     3493     3708     3882 
    3960     3954     3928     3955     4028     4114     4233     4378 
    4480     4514     4486     4394     4275     4195     4195     4252 
    4276     4162     3886     3542     3257     3137     3180     3281 
    3365     3439     3505     3550     3580     3642     3805     4071 
    4326     4442     4371     4164     3929     3748     3647     3646 
    3746     3877     3939     3897     3820     3789     3820     3878 
    3916     3863     3703     3499     3334     3235     3186     3180 
    3253     3416     3604     3748     3843     3913     3955     3962 
    3974     4009     4005     3897     3708     3516     3402     3396 
    3492     3642     3775     3856     3921     4014     4125     4191 
    4172     4090     3993     3888     3755     3595     3439     3356 
    3381     3491     3655     3843     4004     4095     4086     3974 
    3817     3709     3746     3946     4209     4411     4471     4375 
    4201     4047     3975     3975     3989     3993     3982     3924 
    3786     3607     3451     3357     3339     3412     3541     3686 
    3871     4098     4282     4294     4091     3769     3478     3322 
    3308     3379     3508     3681     3824     3848     3736     3576 
    3496     3553     3694     3829     3893     3902     3901     3908 
    3902     3842     3743     3681     3672     3677     3680     3694 
    3771     3936     4153     4372     4533     4588     4542     4403 
    4186     3916     3635     3438     3412     3542     3732     3865 
    3851     3708     3507     3310     3165     3109     3141     3257 
    3427     3580     3651     3655     3657     3713     3819     3894 
    3900     3879     3882     3898     3902     3885     3861     3840 
    3790     3649     3414     3144     2937     2886     2998     3211 
    3504     3871     4225     4445     4488     4390     4202     3987 
    3802     3667     3576     3497     3420     3373     3350     3314 
    3300     3369     3497     3622     3716     3790     3883     4006 
    4106     4178     4274     4364     4384     4311     4131     3904 
    3761     3744     3807     3896     3970     3997     3977     3917 
