Origin Time       2025/06/03 22:18:00
Lat.              41.7
Long.             143.6
Depth. (km)       30
Mag.              5.2
Station Code      HKD098
Station Lat.      42.4985
Station Long.     143.2790
Station Height(m) 81
Record Time       2025/06/03 22:18:43
Sampling Freq(Hz) 100Hz
Duration Time(s)  91
Dir.              U-D
Scale Factor      7845(gal)/8223790
Max. Acc. (gal)   5.060
Last Correction   2025/06/03 22:18:44
Memo.             
[...]
  -15732   -15734   -15722   -15753   -15724   -15556   -15349   -15215 
  -15129   -15036   -14976   -15026   -15110   -15024   -14770   -14590 
  -14559   -14505   -14345   -14183   -14141   -14211   -14285   -14320 
  -14355   -14405   -14418   -14381   -14334   -14250   -14071   -13855 
  -13748   -13846   -14131   -14446   -14586   -14507   -14328   -14169 
  -14111   -14142   -14114   -13960   -13772   -13687   -13819   -14126 
  -14446   -14719   -14949   -15094   -15144   -15141   -15080   -14940 
  -14796   -14748   -14794   -14890   -15044   -15221   -15318   -15253 
  -15012   -14696   -14492   -14462   -14493   -14463   -14351   -14273 
  -14382   -14596   -14625   -14343   -13925   -13652   -13693   -13936 
  -14067   -13948   -13753   -13647   -13667   -13828   -14116   -14508 
  -14983   -15415   -15612   -15545   -15363   -15205   -15099   -14999 
  -14913   -14936   -15055   -15117   -15041   -14899   -14781   -14724 
  -14748   -14843   -14967   -15120   -15279   -15350   -15269   -15076 
  -14828   -14565   -14358   -14281   -14312   -14358   -14358   -14283 
  -14134   -13991   -13936   -13913   -13836   -13730   -13711   -13842 
  -14045   -14224   -14388   -14517   -14539   -14462   -14342   -14202 
  -14102   -14141   -14384   -14825   -15263   -15434   -15404   -15423 
  -15531   -15647   -15726   -15701   -15546   -15369   -15300   -15348 
  -15431   -15450   -15341   -15157   -14986   -14836   -14675   -14497 
  -14347   -14324   -14469   -14654   -14706   -14629   -14553   -14516 
  -14430   -14280   -14164   -14106   -14053   -14014   -14007   -13971 
  -13859   -13740   -13662   -13547   -13360   -13240   -13328   -13594 
  -13907   -14177   -14403   -14624   -14825   -15007   -15188   -15280 
  -15201   -15034   -14835   -14567   -14380   -14499   -14850   -15138 
  -15252   -15263   -15232   -15196   -15172   -15117   -14980   -14748 
  -14496   -14359   -14335   -14297   -14235   -14233   -14269   -14243 
  -14141   -14099   -14230   -14463   -14667   -14812   -14953   -15138 
  -15356   -15595   -15857   -16020   -15931   -15653   -15396   -15241 
  -15103   -14908   -14717   -14647   -14692   -14754   -14778   -14770 
  -14704   -14561   -14423   -14386   -14420   -14424   -14362   -14247 
  -14100   -13919   -13716   -13560   -13537   -13633   -13794   -14002 
  -14230   -14418   -14517   -14519   -14467   -14426   -14373   -14295 
  -14256   -14265   -14257   -14251   -14334   -14511   -14737   -14959 
  -15059   -14995   -14872   -14760   -14663   -14623   -14638   -14659 
  -14671   -14654   -14593   -14580   -14692   -14844   -14914   -14889 
  -14798   -14659   -14485   -14323   -14254   -14314   -14413   -14484 
  -14561   -14640   -14651   -14586   -14478   -14311   -14071   -13806 
  -13613   -13589   -13751   -13988   -14179   -14328   -14476   -14573 
  -14623   -14682   -14736   -14750   -14747   -14783   -14864   -14908 
  -14839   -14708   -14636   -14674   -14778   -14902   -15041   -15186 
  -15307   -15394   -15445   -15448   -15395   -15304   -15157   -14978 
  -14898   -14978   -15124   -15252   -15350   -15406   -15396   -15348 
  -15282   -15188   -15056   -14912   -14800   -14736   -14701   -14636 
  -14503   -14283   -14014   -13807   -13730   -13747   -13784   -13806 
  -13798   -13761   -13721   -13713   -13709   -13648   -13554   -13532 
  -13636   -13803   -13963   -14118   -14297   -14466   -14585   -14683 
  -14808   -14917   -14940   -14906   -14877   -14843   -14816   -14866 
  -14978   -15030   -14975   -14889   -14855   -14875   -14894   -14871 
  -14783   -14632   -14496   -14494   -14652   -14836   -14899   -14855 
  -14829   -14879   -14926   -14858   -14669   -14492   -14397   -14345 
  -14334   -14388   -14467   -14520   -14534   -14513   -14467   -14415 
  -14368   -14310   -14253   -14219   -14189   -14165   -14216   -14359 
  -14504   -14585   -14600   -14600   -14652   -14779   -14933   -15025 
  -14978   -14848   -14796   -14877   -14967   -14922   -14764   -14627 
  -14597   -14666   -14777   -14887   -14986   -15049   -15111   -15228 
  -15302   -15180   -14908   -14646   -14470   -14404   -14451   -14532 
  -14544   -14499   -14462   -14446   -14435   -14415   -14399   -14440 
  -14550   -14666   -14752   -14806   -14825   -14794   -14735   -14692 
  -14677   -14635   -14523   -14372   -14258   -14214   -14200   -14212 
  -14304   -14449   -14550   -14609   -14681   -14716   -14601   -14353 
  -14130   -14025   -14003   -14060   -14245   -14517   -14717   -14775 
  -14758   -14702   -14627   -14616   -14659   -14635   -14566   -14557 
  -14589   -14617   -14655   -14717   -14801   -14890   -14955   -14974 
  -14921   -14760   -14548   -14399   -14335   -14331   -14412   -14563 
  -14658   -14621   -14509   -14397   -14312   -14287   -14342   -14409 
  -14442   -14499   -14617   -14737   -14782   -14758   -14728   -14709 
  -14655   -14544   -14393   -14237   -14161   -14234   -14382   -14492 
  -14555   -14597   -14593   -14490   -14323   -14199   -14211   -14335 
  -14484   -14621   -14759   -14913   -15093   -15245   -15333   -15392 
  -15446   -15464   -15429   -15377   -15373   -15417   -15427   -15317 
  -15099   -14886   -14739   -14623   -14466   -14260   -14099   -14044 
  -14006   -13934   -13919   -13998   -14064   -14054   -14026   -14025 
  -14025   -13980   -13932   -13941   -13998   -14053   -14138   -14326 
  -14605   -14851   -14990   -15028   -14978   -14890   -14886   -14982 
  -15088   -15188   -15317   -15415   -15403   -15300   -15187   -15120 
  -15076   -15016   -14944   -14871   -14793   -14743   -14732   -14746 
  -14810   -14929   -15034   -15051   -14963   -14841   -14760   -14727 
  -14705   -14673   -14620   -14532   -14423   -14330   -14280   -14300 
  -14385   -14457   -14473   -14476   -14461   -14403   -14349   -14330 
  -14334   -14341   -14312   -14219   -14088   -13981   -13959   -14014 
  -14076   -14088   -14052   -14013   -14011   -14035   -14040   -13998 
  -13925   -13896   -13988   -14187   -14413   -14609   -14748   -14802 
  -14728   -14542   -14355   -14288   -14377   -14550   -14681   -14698 
  -14628   -14550   -14548   -14638   -14750   -14818   -14816   -14762 
  -14700   -14648   -14586   -14499   -14445   -14511   -14721   -15009 
  -15241   -15346   -15394   -15445   -15460   -15407   -15318   -15217 
  -15082   -14914   -14777   -14698   -14643   -14611   -14619   -14656 
  -14694   -14700   -14675   -14640   -14578   -14490   -14418   -14395 
  -14438   -14531   -14631   -14713   -14739   -14686   -14586   -14476 
  -14378   -14318   -14291   -14297   -14355   -14465   -14625   -14829 
  -15017   -15147   -15229   -15267   -15253   -15207   -15160   -15114 
  -15059   -14993   -14904   -14751   -14521   -14272   -14096   -14030 
  -14037   -14075   -14110   -14100   -14033   -13936   -13846   -13774 
  -13738   -13744   -13774   -13875   -14073   -14299   -14477   -14598 
  -14662   -14666   -14636   -14612   -14605   -14623   -14688   -14797 
  -14926   -15048   -15121   -15121   -15066   -14994   -14968   -15022 
  -15064   -15001   -14871   -14742   -14601   -14446   -14331   -14284 
  -14289   -14328   -14397   -14478   -14530   -14519   -14472   -14434 
  -14442   -14523   -14681   -14843   -14899   -14848   -14779   -14727 
  -14693   -14717   -14775   -14777   -14729   -14732   -14816   -14936 
  -15045   -15140   -15242   -15341   -15396   -15408   -15410   -15402 
  -15375   -15338   -15299   -15226   -15084   -14877   -14638   -14407 
  -14233   -14162   -14189   -14247   -14291   -14355   -14488   -14648 
  -14758   -14801   -14804   -14801   -14802   -14778   -14701   -14566 
  -14404   -14308   -14337   -14424   -14501   -14539   -14496   -14366 
  -14212   -14085   -13986   -13900   -13825   -13744   -13640   -13527 
  -13443   -13416   -13466   -13559   -13632   -13670   -13683   -13705 
  -13788   -13898   -13959   -13990   -14060   -14192   -14337   -14419 
  -14454   -14547   -14701   -14808   -14837   -14809   -14728   -14667 
  -14694   -14801   -14966   -15165   -15360   -15526   -15668   -15777 
  -15861   -15950   -16070   -16182   -16190   -16048   -15820   -15580 
  -15344   -15120   -14955   -14877   -14837   -14782   -14682   -14503 
  -14258   -14076   -14041   -14057   -14011   -13913   -13829   -13817 
  -13890   -14013   -14141   -14230   -14246   -14195   -14121   -14064 
  -14035   -14025   -13996   -13917   -13849   -13911   -14084   -14246 
  -14366   -14476   -14577   -14689   -14823   -14908   -14891   -14759 
  -14543   -14357   -14293   -14353   -14501   -14689   -14832   -14870 
  -14825   -14771   -14740   -14682   -14586   -14507   -14457   -14443 
  -14504   -14647   -14827   -14986   -15071   -15088   -15103   -15148 
  -15172   -15109   -14980   -14841   -14686   -14538   -14463   -14455 
  -14462   -14486   -14515   -14515   -14494   -14504   -14563   -14608 
  -14567   -14478   -14426   -14442   -14504   -14548   -14534   -14476 
  -14400   -14328   -14268   -14181   -14064   -13983   -13991   -14062 
  -14139   -14162   -14098   -14003   -13961   -13942   -13909   -13942 
  -14084   -14266   -14451   -14644   -14817   -14931   -15001   -15063 
  -15088   -15029   -14912   -14806   -14740   -14688   -14661   -14710 
  -14820   -14899   -14905   -14836   -14674   -14459   -14283   -14179 
  -14168   -14288   -14507   -14723   -14883   -15001   -15082   -15098 
  -15033   -14939   -14904   -14945   -14983   -14956   -14890   -14825 
  -14769   -14715   -14652   -14594   -14558   -14524   -14486   -14465 
  -14440   -14368   -14281   -14185   -14031   -13844   -13697   -13624 
  -13663   -13833   -14053   -14218   -14354   -14571   -14863   -15120 
  -15259   -15272   -15223   -15172   -15110   -15057   -15043   -15043 
  -15043   -15036   -14985   -14894   -14848   -14874   -14875   -14777 
  -14636   -14530   -14447   -14392   -14368   -14365   -14426   -14586 
  -14775   -14894   -14943   -14975   -14991   -14918   -14733   -14509 
  -14335   -14227   -14170   -14164   -14199   -14245   -14283   -14331 
  -14392   -14399   -14339   -14291   -14295   -14334   -14419   -14597 
  -14877   -15190   -15411   -15481   -15491   -15542   -15638   -15742 
  -15873   -16032   -16170   -16266   -16335   -16348   -16310   -16290 
  -16328   -16383   -16410   -16424   -16447   -16460   -16422   -16306 
  -16131   -15934   -15718   -15465   -15179   -14878   -14571   -14269 
  -14017   -13846   -13761   -13779   -13873   -13959   -13998   -13999 
  -13942   -13852   -13815   -13876   -14006   -14183   -14389   -14570 
  -14673   -14708   -14710   -14685   -14617   -14501   -14370   -14301 
  -14345   -14472   -14632   -14796   -14921   -14962   -14897   -14744 
  -14503   -14188   -13887   -13660   -13518   -13462   -13446   -13437 
  -13446   -13437   -13371   -13235   -13051   -12883   -12796   -12833 
  -12996   -13230   -13471   -13660   -13771   -13855   -13922   -13942 
  -13927   -13900   -13857   -13813   -13822   -13942   -14102   -14170 
  -14114   -13944   -13706   -13487   -13305   -13146   -13077   -13134 
  -13261   -13439   -13672   -13900   -14048   -14103   -14108   -14100 
  -14100   -14116   -14149   -14172   -14141   -14040   -13900   -13770 
  -13676   -13612   -13610   -13724   -13890   -14030   -14200   -14431 
  -14631   -14758   -14850   -14895   -14864   -14781   -14689   -14588 
  -14466   -14368   -14345   -14376   -14413   -14473   -14577   -14715 
  -14874   -15029   -15192   -15415   -15714   -16038   -16272   -16351 
  -16340   -16322   -16314   -16324   -16349   -16379   -16406   -16432 
  -16452   -16455   -16468   -16518   -16551   -16548   -16560   -16559 
  -16491   -16416   -16370   -16309   -16225   -16140   -16042   -15896 
  -15696   -15458   -15183   -14870   -14542   -14230   -13990   -13848 
  -13776   -13755   -13755   -13745   -13760   -13845   -13992   -14135 
  -14220   -14283   -14337   -14355   -14389   -14469   -14524   -14520 
  -14454   -14327   -14208   -14154   -14131   -14102   -14067   -13995 
  -13840   -13593   -13294   -13007   -12787   -12668   -12637   -12617 
  -12549   -12482   -12471   -12494   -12510   -12511   -12542   -12654 
  -12829   -13031   -13278   -13562   -13815   -14038   -14315   -14674 
  -15016   -15277   -15491   -15658   -15772   -15888   -16035   -16168 
  -16256   -16301   -16308   -16294   -16271   -16251   -16256   -16295 
  -16366   -16470   -16606   -16733   -16806   -16802   -16731   -16649 
  -16610   -16627   -16714   -16856   -17024   -17201   -17365   -17501 
  -17616   -17678   -17648   -17559   -17469   -17388   -17258   -17038 
  -16757   -16449   -16119   -15781   -15453   -15087   -14642   -14164 
  -13720   -13344   -13051   -12787   -12514   -12245   -11954   -11611 
  -11279   -11014   -10812   -10693   -10692   -10781   -10926   -11119 
  -11344   -11560   -11776   -12029   -12291   -12518   -12760   -13055 
  -13335   -13551   -13713   -13822   -13886   -13957   -14091   -14246 
  -14322   -14283   -14184   -14102   -14054   -14034   -14076   -14187 
  -14301   -14374   -14416   -14447   -14442   -14353   -14207   -14061 
  -13919   -13798   -13764   -13821   -13873   -13876   -13838   -13763 
  -13674   -13606   -13558   -13506   -13460   -13429   -13417   -13421 
  -13441   -13471   -13495   -13505   -13505   -13494   -13462   -13397 
  -13329   -13333   -13439   -13578   -13713   -13876   -14068   -14284 
  -14534   -14778   -14993   -15222   -15507   -15835   -16186   -16555 
  -16930   -17277   -17571   -17825   -18076   -18370   -18697   -19009 
  -19287   -19534   -19742   -19884   -19903   -19791   -19607   -19395 
  -19171   -18967   -18796   -18594   -18310   -17949   -17552   -17131 
  -16660   -16135   -15587   -15043   -14520   -14044   -13616   -13211 
  -12800   -12390   -11977   -11578   -11234   -10937   -10659   -10432 
  -10327   -10372   -10513   -10720   -11011   -11356   -11658   -11897 
  -12124   -12356   -12553   -12691   -12785   -12852   -12914   -12985 
  -13038   -13066   -13116   -13230   -13393   -13531   -13581   -13564 
  -13536   -13486   -13396   -13293   -13231   -13231   -13298   -13423 
  -13570   -13732   -13914   -14110   -14331   -14588   -14847   -15110 
  -15388   -15653   -15888   -16110   -16316   -16499   -16660   -16785 
  -16872   -16929   -16960   -16981   -17014   -17050   -17088   -17131 
  -17161   -17154   -17073   -16861   -16495   -16028   -15523   -15028 
  -14592   -14254   -14007   -13809   -13620   -13446   -13302   -13171 
  -13068   -12997   -12924   -12854   -12825   -12837   -12876   -12945 
  -13078   -13282   -13497   -13678   -13878   -14160   -14536   -14964 
  -15385   -15773   -16110   -16386   -16617   -16838   -17059   -17269 
  -17463   -17641   -17776   -17841   -17864   -17882   -17857   -17745 
  -17572   -17374   -17150   -16910   -16654   -16384   -16113   -15835 
  -15530   -15199   -14858   -14528   -14237   -13983   -13784   -13657 
  -13562   -13444   -13285   -13101   -12927   -12784   -12669   -12579 
  -12525   -12506   -12468   -12398   -12332   -12282   -12251   -12232 
  -12210   -12195   -12204   -12222   -12260   -12343   -12433   -12471 
  -12451   -12428   -12442   -12491   -12557   -12640   -12756   -12919 
  -13095   -13255   -13441   -13695   -13975   -14210   -14400   -14584 
  -14742   -14854   -14936   -14975   -14945   -14894   -14889   -14933 
  -15002   -15084   -15171   -15248   -15342   -15489   -15682   -15888 
  -16074   -16216   -16299   -16336   -16339   -16324   -16290   -16231 
  -16167   -16101   -16005   -15876   -15730   -15569   -15396   -15237 
  -15097   -14959   -14790   -14577   -14372   -14212   -14084   -13987 
  -13944   -13938   -13929   -13888   -13845   -13863   -13956   -14048 
  -14095   -14164   -14307   -14484   -14655   -14850   -15079   -15300 
  -15480   -15618   -15705   -15724   -15677   -15596   -15511   -15429 
  -15321   -15164   -14998   -14874   -14773   -14655   -14531   -14420 
  -14311   -14206   -14114   -14014   -13882   -13726   -13564   -13405 
  -13235   -13082   -12995   -12976   -13026   -13153   -13331   -13555 
  -13829   -14119   -14385   -14617   -14804   -14928   -15009   -15060 
  -15090   -15137   -15232   -15340   -15404   -15429   -15454   -15493 
  -15526   -15525   -15508   -15514   -15550   -15607   -15678   -15753 
  -15811   -15859   -15909   -15947   -15951   -15940   -15932   -15894 
  -15813   -15712   -15615   -15504   -15327   -15074   -14817   -14609 
  -14453   -14343   -14262   -14192   -14168   -14210   -14280   -14358 
  -14455   -14532   -14547   -14539   -14547   -14536   -14469   -14349 
  -14179   -13959   -13699   -13419   -13157   -12941   -12762   -12598 
  -12434   -12307   -12263   -12287   -12356   -12457   -12561   -12671 
  -12816   -12974   -13120   -13290   -13512   -13747   -13959   -14150 
  -14328   -14484   -14640   -14827   -15025   -15222   -15442   -15699 
  -15958   -16183   -16378   -16548   -16680   -16771   -16825   -16865 
  -16919   -16951   -16914   -16838   -16756   -16630   -16484   -16375 
  -16278   -16133   -15944   -15730   -15488   -15213   -14898   -14565 
  -14268   -14033   -13815   -13585   -13363   -13189   -13081   -13018 
  -12941   -12843   -12769   -12721   -12673   -12648   -12677   -12742 
  -12815   -12922   -13105   -13354   -13591   -13765   -13907   -14057 
  -14214   -14357   -14463   -14517   -14535   -14559   -14613   -14698 
  -14796   -14883   -14968   -15051   -15093   -15084   -15070   -15041 
  -14951   -14820   -14709   -14604   -14493   -14426   -14435   -14494 
  -14554   -14598   -14643   -14674   -14669   -14616   -14546   -14520 
  -14551   -14598   -14627   -14629   -14601   -14538   -14435   -14308 
  -14208   -14175   -14200   -14262   -14353   -14462   -14571   -14669 
  -14758   -14837   -14895   -14941   -15012   -15105   -15167   -15192 
  -15230   -15288   -15341   -15395   -15446   -15450   -15418   -15392 
  -15381   -15372   -15353   -15331   -15331   -15327   -15264   -15141 
  -14997   -14837   -14677   -14558   -14507   -14494   -14488   -14488 
  -14500   -14521   -14550   -14574   -14582   -14574   -14566   -14607 
  -14701   -14801   -14886   -14983   -15097   -15195   -15260   -15336 
  -15460   -15566   -15584   -15537   -15496   -15477   -15446   -15376 
  -15280   -15210   -15191   -15214   -15277   -15358   -15400   -15360 
  -15261   -15147   -15013   -14832   -14624   -14427   -14222   -13973 
  -13728   -13536   -13356   -13157   -12970   -12829   -12731   -12667 
  -12636   -12649   -12685   -12710   -12739   -12802   -12887   -12976 
  -13066   -13162   -13255   -13331   -13386   -13432   -13459   -13462 
  -13468   -13500   -13547   -13601   -13659   -13720   -13811   -13944 
  -14089   -14234   -14384   -14516   -14612   -14681   -14731   -14770 
  -14787   -14787   -14833   -14944   -15091   -15265   -15460   -15660 
  -15866   -16058   -16232   -16413   -16602   -16760   -16864   -16919 
  -16924   -16866   -16749   -16588   -16389   -16144   -15874   -15619 
  -15398   -15217   -15071   -14932   -14771   -14600   -14451   -14341 
  -14266   -14210   -14133   -14041   -13968   -13905   -13837   -13778 
  -13716   -13643   -13582   -13541   -13514   -13522   -13589   -13694 
  -13807   -13934   -14080   -14212   -14304   -14366   -14412   -14450 
  -14496   -14542   -14575   -14609   -14643   -14679   -14743   -14850 
  -14974   -15094   -15209   -15317   -15411   -15495   -15579   -15634 
