Origin Time       2025/06/03 22:18:00
Lat.              41.7
Long.             143.6
Depth. (km)       30
Mag.              5.2
Station Code      HKD085
Station Lat.      42.9581
Station Long.     144.0698
Station Height(m) 5
Record Time       2025/06/03 22:19:13
Sampling Freq(Hz) 100Hz
Duration Time(s)  79
Dir.              N-S
Scale Factor      7845(gal)/8223790
Max. Acc. (gal)   2.350
Last Correction   2025/06/03 22:19:14
Memo.             
[...]
    2608     2644     2687     2732     2760     2749     2697     2641 
    2608     2601     2627     2712     2867     3049     3199     3295 
    3334     3326     3289     3246     3225     3244     3306     3380 
    3414     3358     3214     3009     2776     2558     2400     2312 
    2278     2269     2253     2222     2182     2162     2187     2266 
    2389     2535     2682     2816     2910     2951     2948     2938 
    2959     3032     3146     3291     3465     3635     3753     3805 
    3802     3753     3670     3577     3493     3442     3433     3457 
    3510     3576     3626     3634     3589     3514     3441     3389 
    3348     3281     3154     2968     2764     2583     2457     2393 
    2378     2378     2361     2319     2250     2149     2039     1964 
    1937     1944     1946     1925     1904     1919     1988     2108 
    2247     2359     2412     2397     2328     2247     2182     2142 
    2126     2122     2119     2134     2200     2339     2547     2803 
    3075     3325     3531     3690     3808     3906     4009     4116 
    4209     4274     4307     4318     4311     4286     4236     4160 
    4071     3997     3962     3948     3927     3879     3804     3699 
    3586     3484     3385     3277     3159     3030     2898     2770 
    2658     2560     2457     2328     2180     2029     1888     1756 
    1633     1530     1460     1435     1463     1522     1594     1667 
    1733     1792     1872     1987     2138     2313     2484     2629 
    2752     2856     2951     3033     3084     3098     3079     3044 
    3005     2955     2899     2862     2859     2891     2951     3015 
    3060     3060     3024     2999     3036     3152     3315     3461 
    3538     3541     3493     3433     3391     3372     3365     3360 
    3338     3271     3146     2979     2795     2637     2550     2548 
    2616     2721     2837     2948     3046     3126     3187     3242 
    3298     3337     3338     3289     3199     3098     2999     2914 
    2860     2849     2868     2916     2978     3022     3037     3029 
    3024     3051     3123     3230     3333     3397     3416     3400 
    3380     3377     3379     3356     3294     3198     3084     2964 
    2841     2721     2606     2479     2335     2181     2039     1946 
    1918     1939     1989     2045     2093     2135     2166     2185 
    2185     2161     2112     2049     1987     1939     1918     1931 
    1996     2112     2255     2408     2565     2713     2835     2926 
    2998     3060     3111     3134     3123     3096     3079     3087 
    3126     3192     3287     3402     3526     3653     3766     3861 
    3933     3979     3997     3997     3982     3952     3906     3846 
    3780     3724     3672     3595     3481     3345     3195     3053 
    2948     2895     2893     2925     2960     2967     2933     2876 
    2825     2798     2789     2778     2771     2771     2779     2781 
    2764     2729     2674     2593     2488     2382     2299     2242 
    2204     2173     2141     2111     2093     2101     2135     2180 
    2222     2268     2320     2381     2442     2496     2550     2608 
    2670     2716     2735     2737     2744     2768     2814     2867 
    2924     2988     3057     3125     3192     3258     3326     3402 
    3488     3578     3657     3704     3715     3692     3650     3596 
    3532     3464     3403     3353     3306     3245     3163     3072 
    3001     2956     2941     2943     2929     2886     2826     2771 
    2731     2702     2683     2677     2659     2609     2524     2416 
    2309     2230     2170     2112     2049     1988     1942     1922 
    1938     1988     2058     2139     2230     2322     2427     2555 
    2702     2857     2990     3067     3080     3044     2978     2910 
    2859     2828     2821     2832     2851     2864     2871     2882 
    2913     2971     3049     3140     3242     3350     3427     3450 
    3407     3322     3238     3179     3146     3142     3165     3202 
    3237     3273     3312     3343     3357     3350     3308     3225 
    3122     3024     2934     2859     2817     2832     2897     2975 
    3038     3092     3161     3262     3385     3501     3596     3678 
    3761     3835     3877     3886     3879     3869     3848     3804 
    3728     3622     3485     3323     3145     2964     2793     2651 
    2547     2471     2412     2346     2259     2172     2095     2027 
    1981     1968     1975     1988     1995     1999     2015     2056 
    2126     2220     2330     2452     2578     2686     2767     2830 
    2891     2960     3037     3111     3172     3210     3229     3234 
    3230     3203     3146     3060     2967     2876     2775     2664 
    2566     2504     2502     2563     2660     2771     2872     2959 
    3036     3103     3148     3159     3130     3061     2982     2921 
    2886     2874     2880     2894     2883     2820     2702     2558 
    2440     2381     2386     2438     2513     2593     2666     2735 
    2801     2863     2925     2995     3072     3136     3156     3115 
    3015     2887     2760     2666     2609     2573     2532     2482 
    2430     2389     2394     2463     2586     2735     2863     2940 
    2983     3021     3071     3141     3219     3275     3291     3262 
    3195     3103     2997     2893     2794     2690     2571     2435 
    2295     2187     2142     2168     2243     2344     2455     2569 
    2682     2779     2836     2855     2853     2845     2837     2835 
    2843     2867     2913     2986     3091     3214     3338     3464 
    3586     3697     3804     3915     4024     4118     4206     4293 
    4376     4436     4438     4369     4243     4079     3901     3703 
    3485     3264     3042     2849     2695     2569     2477     2430 
    2412     2413     2420     2421     2416     2400     2382     2381 
    2409     2469     2542     2605     2647     2640     2567     2444 
    2293     2147     2047     2016     2045     2107     2178     2242 
    2286     2316     2340     2363     2393     2428     2458     2479 
    2497     2509     2512     2509     2505     2506     2528     2573 
    2631     2697     2774     2866     2976     3086     3181     3262 
    3337     3411     3483     3542     3609     3701     3804     3901 
    3970     4002     4013     4013     4006     3996     3963     3898 
    3808     3696     3574     3447     3314     3180     3052     2941 
    2859     2799     2748     2701     2660     2627     2600     2581 
    2565     2547     2512     2454     2382     2313     2261     2218 
    2160     2077     1981     1895     1836     1825     1869     1956 
    2065     2172     2250     2299     2335     2367     2394     2416 
    2427     2419     2396     2365     2335     2322     2339     2389 
    2463     2540     2616     2685     2739     2772     2795     2829 
    2894     2994     3109     3226     3341     3453     3550     3632 
    3716     3801     3882     3963     4040     4102     4148     4178 
    4187     4175     4149     4106     4045     3974     3879     3742 
    3559     3349     3132     2930     2744     2558     2378     2216 
    2072     1953     1864     1807     1794     1819     1867     1933 
    2010     2091     2177     2273     2370     2457     2532     2606 
    2671     2710     2718     2691     2640     2592     2570     2600 
    2695     2851     3033     3206     3342     3438     3507     3572 
    3643     3726     3819     3902     3956     3975     3960     3915 
    3840     3740     3627     3522     3445     3403     3411     3466 
    3543     3626     3692     3728     3734     3712     3657     3574 
    3472     3360     3244     3121     2988     2856     2725     2592 
    2454     2308     2160     2022     1902     1804     1740     1709 
    1699     1688     1664     1615     1544     1462     1386     1331 
    1310     1320     1355     1409     1471     1540     1611     1684 
    1761     1844     1927     2008     2083     2162     2262     2396 
    2570     2775     2994     3217     3447     3684     3910     4099 
    4232     4309     4337     4326     4288     4234     4174     4112 
    4045     3971     3892     3825     3789     3786     3812     3867 
    3946     4031     4108     4153     4141     4075     3991     3929 
    3902     3900     3897     3867     3784     3645     3472     3298 
    3146     3042     2986     2951     2913     2856     2778     2677 
    2552     2416     2277     2137     2003     1872     1734     1580 
    1410     1239     1092      990      938      926      939      955 
     970      992     1032     1100     1204     1344     1503     1656 
    1786     1895     2000     2118     2249     2393     2552     2722 
    2906     3100     3279     3422     3538     3647     3759     3869 
    3952     3993     3996     3967     3912     3839     3750     3647 
    3538     3429     3330     3244     3168     3114     3079     3055 
    3044     3051     3078     3121     3180     3246     3300     3341 
    3375     3406     3435     3460     3477     3492     3510     3527 
    3539     3546     3541     3500     3422     3323     3221     3130 
    3064     3015     2984     2982     2995     2997     2972     2940 
    2922     2934     2978     3048     3119     3172     3186     3164 
    3122     3068     2999     2926     2856     2793     2743     2705 
    2678     2673     2686     2706     2713     2681     2604     2506 
    2420     2367     2363     2405     2478     2558     2632     2689 
    2722     2737     2744     2751     2764     2783     2799     2812 
    2818     2817     2802     2760     2690     2601     2517     2448 
    2396     2359     2343     2342     2355     2385     2428     2465 
    2486     2496     2496     2484     2467     2455     2452     2459 
    2469     2488     2525     2581     2644     2709     2758     2785 
    2809     2840     2870     2899     2937     2987     3048     3122 
    3203     3284     3365     3449     3530     3600     3650     3678 
    3685     3665     3627     3578     3526     3472     3407     3323 
    3233     3142     3055     2982     2929     2906     2924     2965 
    2995     2990     2948     2886     2839     2829     2853     2909 
    2984     3052     3096     3119     3130     3134     3146     3180 
    3227     3271     3310     3342     3364     3380     3402     3423 
    3433     3420     3385     3331     3265     3199     3133     3061 
    2978     2876     2760     2643     2536     2442     2369     2316 
    2266     2205     2142     2089     2058     2045     2043     2056 
    2080     2116     2170     2243     2332     2421     2498     2563 
    2612     2648     2679     2701     2712     2709     2694     2681 
    2674     2666     2636     2578     2496     2408     2332     2278 
    2253     2265     2305     2357     2417     2485     2544     2594 
    2644     2702     2781     2895     3051     3244     3461     3681 
    3883     4063     4224     4364     4492     4610     4700     4756 
    4783     4780     4752     4696     4614     4499     4342     4153 
    3951     3753     3559     3375     3199     3032     2855     2667 
    2490     2336     2214     2122     2046     1971     1899     1829 
    1752     1665     1566     1452     1337     1225     1121     1040 
     993      985     1020     1094     1200     1331     1491     1686 
    1899     2124     2349     2562     2760     2932     3073     3208 
    3339     3461     3578     3684     3771     3850     3919     3974 
    4023     4068     4102     4110     4087     4037     3975     3913 
    3858     3813     3771     3727     3677     3618     3545     3454 
    3346     3221     3084     2947     2818     2708     2612     2521 
    2435     2357     2307     2311     2369     2459     2569     2675 
    2756     2803     2821     2828     2840     2868     2907     2938 
    2947     2921     2857     2770     2674     2574     2471     2373 
    2285     2218     2165     2128     2108     2104     2126     2178 
    2258     2359     2467     2562     2637     2705     2763     2808 
    2836     2845     2833     2799     2744     2682     2629     2596 
    2589     2609     2648     2693     2729     2763     2806     2860 
    2924     2994     3067     3138     3192     3222     3235     3245 
    3261     3283     3310     3342     3370     3391     3411     3423 
    3426     3424     3424     3430     3442     3458     3480     3507 
    3543     3595     3655     3717     3770     3801     3813     3809 
    3778     3730     3670     3589     3485     3372     3260     3148 
    3037     2928     2813     2693     2573     2452     2344     2257 
    2176     2095     2003     1896     1791     1705     1649     1630 
    1652     1702     1765     1836     1904     1962     2014     2066 
    2131     2220     2331     2452     2574     2682     2768     2841 
    2909     2978     3053     3129     3187     3230     3269     3310 
    3348     3368     3349     3280     3163     3010     2848     2697 
    2578     2498     2448     2401     2342     2272     2207     2155 
    2127     2134     2166     2222     2289     2355     2423     2496 
    2571     2650     2731     2818     2921     3041     3173     3308 
    3447     3596     3748     3901     4051     4199     4369     4565 
    4769     4966     5131     5248     5321     5352     5352     5331 
    5294     5240     5158     5049     4919     4766     4598     4413 
    4217     4017     3805     3572     3325     3072     2817     2569 
    2322     2076     1850     1659     1491     1343     1213     1092 
     978      884      815      778      777      801      853      928 
    1024     1136     1254     1368     1494     1634     1777     1911 
    2026     2120     2191     2239     2270     2282     2280     2268 
    2253     2243     2236     2223     2207     2201     2212     2238 
    2273     2308     2339     2380     2423     2459     2504     2556 
    2624     2716     2825     2932     3038     3146     3254     3369 
    3491     3616     3746     3865     3960     4036     4090     4128 
    4151     4155     4139     4116     4104     4106     4120     4139 
    4145     4137     4116     4070     3997     3915     3827     3738 
    3661     3582     3496     3402     3295     3186     3083     2990 
    2906     2832     2760     2687     2619     2550     2484     2430 
    2390     2354     2308     2257     2204     2154     2111     2076 
    2050     2029     2004     1976     1949     1934     1934     1950 
    1979     2023     2080     2147     2235     2346     2474     2609 
    2733     2844     2940     3007     3048     3071     3087     3100 
    3107     3094     3073     3055     3033     3007     2978     2947 
    2918     2898     2889     2879     2866     2855     2845     2835 
    2826     2828     2845     2872     2905     2938     2971     3002 
    3037     3078     3121     3169     3226     3289     3353     3418 
    3466     3491     3503     3510     3511     3519     3535     3555 
    3585     3612     3627     3642     3659     3661     3646     3607 
    3549     3488     3429     3365     3296     3219     3141     3064 
    2983     2906     2833     2758     2693     2635     2581     2532 
    2474     2397     2305     2205     2100     2003     1918     1838 
    1764     1696     1640     1597     1566     1552     1559     1587 
    1649     1746     1871     2020     2188     2359     2527     2687 
    2835     2978     3122     3261     3384     3485     3549     3580 
    3601     3618     3635     3653     3659     3657     3640     3611 
    3581     3561     3554     3569     3596     3622     3627     3604 
    3555     3487     3410     3330     3244     3152     3056     2956 
    2859     2771     2697     2633     2582     2548     2531     2533 
    2563     2620     2690     2772     2863     2948     3019     3080 
    3132     3184     3241     3291     3325     3334     3315     3280 
    3234     3184     3129     3067     3005     2940     2876     2814 
    2743     2671     2619     2586     2578     2593     2613     2621 
    2608     2571     2520     2467     2415     2362     2316     2278 
    2242     2205     2177     2169     2185     2219     2257     2284 
    2297     2300     2305     2326     2366     2425     2493     2556 
    2608     2648     2693     2751     2817     2883     2943     2994 
    3030     3049     3055     3056     3057     3063     3069     3072 
    3076     3090     3117     3152     3190     3219     3231     3234 
    3237     3246     3258     3273     3288     3296     3291     3271 
    3233     3186     3142     3109     3083     3064     3046     3028 
    3006     2983     2965     2956     2959     2972     2998     3034 
    3075     3111     3134     3146     3146     3133     3113     3096 
    3083     3075     3075     3080     3088     3094     3087     3057 
    3007     2953     2899     2855     2828     2817     2814     2822 
    2839     2860     2886     2905     2907     2902     2901     2905 
    2918     2943     2970     2991     3001     2988     2949     2897 
    2847     2794     2739     2697     2666     2633     2594     2539 
    2470     2404     2342     2286     2246     2220     2204     2197 
    2196     2197     2204     2218     2241     2269     2296     2327 
    2369     2416     2474     2542     2608     2674     2741     2813 
    2891     2978     3069     3168     3268     3358     3435     3489 
    3526     3553     3561     3541     3497     3447     3396     3342 
    3296     3252     3211     3184     3160     3132     3106     3069 
    3024     2980     2948     2932     2944     2978     3021     3060 
    3094     3117     3133     3144     3145     3140     3136     3127 
    3119     3119     3125     3129     3125     3115     3098     3068 
    3038     3015     2994     2970     2944     2905     2851     2793 
    2733     2681     2644     2625     2625     2646     2678     2708 
    2732     2749     2763     2779     2801     2828     2849     2859 
    2859     2844     2824     2813     2812     2814     2818     2822 
    2832     2851     2868     2883     2894     2902     2911     2916 
    2906     2890     2870     2844     2816     2785     2756     2736 
    2720     2705     2685     2658     2635     2619     2614     2624 
    2639     2647     2646     2632     2610     2587     2560     2535 
    2515     2490     2467     2451     2443     2447     2467     2505 
    2562     2635     2714     2795     2879     2970     3067     3164 
    3256     3334     3399     3449     3484     3511     3538     3555 
    3559     3547     3514     3460     3393     3318     3242     3167 
    3098     3041     2994     2953     2930     2925     2943     2982 
    3032     3088     3142     3180     3194     3187     3161     3132 
    3113     3100     3087     3060     3019     2965     2902     2843 
    2794     2756     2735     2727     2713     2677     2620     2554 
    2486     2431     2390     2363     2353     2358     2365     2361 
    2350     2332     2319     2319     2334     2362     2401     2443 
