Origin Time       2025/06/03 22:18:00
Lat.              41.7
Long.             143.6
Depth. (km)       30
Mag.              5.2
Station Code      HKD091
Station Lat.      42.8088
Station Long.     143.6590
Station Height(m) 16
Record Time       2025/06/03 22:19:03
Sampling Freq(Hz) 100Hz
Duration Time(s)  76
Dir.              E-W
Scale Factor      7845(gal)/8223790
Max. Acc. (gal)   9.677
Last Correction   2025/06/03 22:19:04
Memo.             
[...]
  -12407   -12271   -12094   -11944   -11874   -11877   -11958   -12117 
  -12316   -12495   -12604   -12617   -12564   -12515   -12490   -12461 
  -12399   -12287   -12150   -12042   -11971   -11921   -11886   -11870 
  -11900   -12017   -12228   -12495   -12766   -12984   -13084   -13049 
  -12910   -12703   -12469   -12258   -12087   -11975   -11928   -11911 
  -11898   -11890   -11878   -11854   -11832   -11838   -11894   -12010 
  -12175   -12372   -12580   -12756   -12847   -12837   -12749   -12627 
  -12492   -12324   -12127   -11958   -11865   -11862   -11952   -12124 
  -12343   -12544   -12633   -12573   -12415   -12241   -12098   -11988 
  -11897   -11827   -11808   -11870   -11992   -12133   -12279   -12434 
  -12595   -12727   -12792   -12785   -12717   -12614   -12503   -12394 
  -12302   -12262   -12253   -12239   -12213   -12189   -12156   -12096 
  -12004   -11920   -11884   -11912   -11997   -12132   -12301   -12442 
  -12474   -12372   -12209   -12085   -12044   -12055   -12071   -12094 
  -12163   -12298   -12490   -12690   -12820   -12814   -12669   -12460 
  -12287   -12205   -12201   -12226   -12247   -12259   -12263   -12249 
  -12214   -12150   -12054   -11948   -11878   -11896   -12040   -12293 
  -12563   -12735   -12750   -12626   -12420   -12175   -11935   -11745 
  -11624   -11591   -11676   -11894   -12179   -12407   -12509   -12498 
  -12437   -12384   -12374   -12397   -12437   -12483   -12523   -12549 
  -12567   -12584   -12602   -12599   -12559   -12478   -12368   -12256 
  -12166   -12098   -12054   -12032   -12032   -12039   -12040   -12051 
  -12063   -12043   -11981   -11890   -11773   -11639   -11546   -11578 
  -11790   -12175   -12660   -13134   -13475   -13582   -13435   -13104 
  -12692   -12301   -11988   -11746   -11584   -11524   -11580   -11762 
  -12055   -12414   -12768   -13009   -13078   -13022   -12937   -12901 
  -12916   -12927   -12880   -12737   -12495   -12217   -11982   -11820 
  -11736   -11712   -11697   -11659   -11612   -11573   -11560   -11562 
  -11560   -11556   -11592   -11719   -11934   -12166   -12359   -12511 
  -12634   -12722   -12758   -12727   -12626   -12495   -12399   -12383 
  -12455   -12573   -12673   -12695   -12630   -12537   -12455   -12371 
  -12262   -12079   -11823   -11576   -11452   -11504   -11708   -11967 
  -12197   -12366   -12494   -12607   -12688   -12696   -12606   -12426 
  -12171   -11871   -11595   -11398   -11283   -11268   -11388   -11665 
  -12075   -12553   -12999   -13306   -13414   -13331   -13119   -12861 
  -12640   -12511   -12509   -12610   -12745   -12850   -12879   -12800 
  -12615   -12366   -12133   -12009   -12020   -12151   -12343   -12517 
  -12614   -12600   -12498   -12351   -12174   -11978   -11789   -11639 
  -11550   -11520   -11543   -11599   -11668   -11763   -11913   -12121 
  -12379   -12660   -12893   -13001   -12953   -12773   -12494   -12118 
  -11680   -11265   -10975   -10894   -11061   -11443   -11955   -12464 
  -12822   -12962   -12947   -12877   -12780   -12631   -12474   -12388 
  -12414   -12552   -12742   -12877   -12873   -12719   -12469   -12210 
  -12015   -11936   -11993   -12155   -12372   -12594   -12764   -12830 
  -12750   -12534   -12245   -11975   -11790   -11707   -11707   -11773 
  -11881   -12024   -12197   -12380   -12567   -12729   -12826   -12842 
  -12765   -12602   -12367   -12083   -11774   -11492   -11310   -11241 
  -11253   -11323   -11454   -11662   -11935   -12218   -12479   -12706 
  -12876   -12947   -12907   -12783   -12626   -12484   -12361   -12259 
  -12193   -12172   -12183   -12185   -12155   -12120   -12102   -12086 
  -12052   -12006   -11967   -11971   -12051   -12212   -12407   -12573 
  -12668   -12675   -12607   -12517   -12449   -12430   -12457   -12515 
  -12594   -12677   -12738   -12758   -12742   -12714   -12677   -12621 
  -12532   -12409   -12258   -12106   -11978   -11902   -11916   -12037 
  -12245   -12478   -12661   -12735   -12677   -12511   -12298   -12098 
  -11947   -11853   -11832   -11894   -12021   -12163   -12266   -12295 
  -12258   -12175   -12048   -11873   -11686   -11535   -11452   -11448 
  -11510   -11622   -11780   -11965   -12143   -12287   -12386   -12430 
  -12430   -12434   -12507   -12681   -12916   -13115   -13197   -13134 
  -12946   -12679   -12367   -12054   -11793   -11627   -11578   -11665 
  -11874   -12166   -12467   -12684   -12766   -12734   -12649   -12568 
  -12523   -12518   -12523   -12515   -12496   -12465   -12424   -12356 
  -12226   -12032   -11820   -11631   -11481   -11376   -11333   -11365 
  -11481   -11669   -11905   -12167   -12409   -12577   -12644   -12615 
  -12529   -12426   -12341   -12313   -12384   -12580   -12891   -13263 
  -13616   -13857   -13905   -13716   -13320   -12789   -12220   -11704 
  -11306   -11061   -10980   -11040   -11183   -11346   -11499   -11632 
  -11751   -11855   -11965   -12098   -12255   -12429   -12602   -12752 
  -12850   -12880   -12838   -12746   -12648   -12571   -12495   -12405 
  -12320   -12232   -12114   -11975   -11817   -11654   -11533   -11504 
  -11593   -11770   -11952   -12059   -12066   -12020   -12000   -12082 
  -12287   -12580   -12892   -13131   -13243   -13235   -13135   -12972 
  -12772   -12556   -12337   -12129   -11938   -11770   -11650   -11596 
  -11612   -11686   -11777   -11842   -11855   -11826   -11778   -11763 
  -11843   -12047   -12357   -12707   -13008   -13203   -13282   -13282 
  -13235   -13155   -13051   -12900   -12672   -12411   -12190   -12078 
  -12120   -12301   -12549   -12771   -12887   -12865   -12729   -12534 
  -12333   -12164   -12054   -11996   -11961   -11943   -11962   -12033 
  -12158   -12301   -12405   -12410   -12276   -12012   -11682   -11394 
  -11236   -11246   -11395   -11615   -11846   -12039   -12155   -12181 
  -12127   -12013   -11877   -11735   -11589   -11473   -11433   -11485 
  -11620   -11838   -12124   -12451   -12758   -12982   -13104   -13153 
  -13138   -13046   -12877   -12669   -12476   -12329   -12233   -12197 
  -12235   -12353   -12529   -12712   -12857   -12943   -12966   -12931 
  -12864   -12789   -12730   -12695   -12675   -12633   -12542   -12402 
  -12201   -11942   -11655   -11385   -11183   -11088   -11109   -11237 
  -11452   -11709   -11963   -12189   -12384   -12553   -12699   -12812 
  -12866   -12843   -12761   -12648   -12498   -12302   -12075   -11840 
  -11626   -11479   -11439   -11531   -11745   -12019   -12297   -12544 
  -12735   -12864   -12923   -12922   -12891   -12864   -12862   -12910 
  -13007   -13122   -13205   -13240   -13224   -13144   -12996   -12788 
  -12525   -12231   -11947   -11716   -11574   -11527   -11565   -11657 
  -11747   -11776   -11720   -11612   -11504   -11421   -11404   -11497 
  -11691   -11931   -12164   -12353   -12467   -12488   -12429   -12302 
  -12124   -11913   -11696   -11512   -11425   -11477   -11657   -11894 
  -12109   -12244   -12279   -12225   -12116   -12001   -11934   -11943 
  -12029   -12170   -12343   -12544   -12766   -12968   -13096   -13128 
  -13073   -12969   -12866   -12812   -12835   -12916   -13004   -13068 
  -13069   -12978   -12808   -12609   -12420   -12267   -12154   -12073 
  -12020   -11990   -11975   -11982   -12032   -12148   -12332   -12565 
  -12825   -13054   -13170   -13134   -12976   -12758   -12542   -12363 
  -12228   -12121   -12032   -11943   -11830   -11681   -11518   -11369 
  -11263   -11209   -11214   -11288   -11410   -11529   -11614   -11639 
  -11595   -11516   -11462   -11487   -11615   -11830   -12094   -12372 
  -12637   -12858   -13003   -13038   -12972   -12843   -12703   -12602 
  -12584   -12654   -12749   -12795   -12766   -12658   -12482   -12279 
  -12094   -11969   -11920   -11948   -12033   -12159   -12333   -12530 
  -12691   -12784   -12827   -12833   -12772   -12627   -12429   -12217 
  -12029   -11897   -11847   -11901   -12054   -12251   -12456   -12652 
  -12825   -12964   -13045   -13063   -13028   -12923   -12712   -12393 
  -12028   -11709   -11487   -11369   -11352   -11411   -11524   -11649 
  -11722   -11715   -11665   -11618   -11611   -11658   -11754   -11882 
  -12029   -12193   -12357   -12486   -12561   -12603   -12633   -12646 
  -12631   -12595   -12557   -12541   -12575   -12661   -12766   -12833 
  -12815   -12735   -12641   -12556   -12484   -12422   -12351   -12275 
  -12204   -12145   -12117   -12121   -12155   -12225   -12328   -12444 
  -12557   -12660   -12735   -12772   -12777   -12764   -12706   -12559 
  -12310   -11994   -11666   -11389   -11229   -11210   -11318   -11518 
  -11749   -11970   -12155   -12271   -12287   -12210   -12083   -11946 
  -11803   -11659   -11531   -11438   -11426   -11523   -11713   -11951 
  -12182   -12357   -12461   -12511   -12528   -12529   -12529   -12526 
  -12511   -12505   -12529   -12564   -12565   -12507   -12398   -12259 
  -12108   -11967   -11874   -11840   -11871   -11985   -12183   -12438 
  -12719   -12996   -13243   -13431   -13527   -13509   -13402   -13257 
  -13111   -12992   -12908   -12854   -12803   -12699   -12521   -12287 
  -12025   -11796   -11654   -11603   -11622   -11684   -11761   -11842 
  -11911   -11950   -11939   -11866   -11763   -11709   -11755   -11904 
  -12127   -12398   -12714   -13050   -13356   -13575   -13670   -13625 
  -13455   -13204   -12935   -12698   -12505   -12332   -12141   -11940 
  -11753   -11593   -11470   -11395   -11387   -11434   -11491   -11530 
  -11549   -11547   -11508   -11425   -11333   -11281   -11287   -11349 
  -11450   -11569   -11686   -11788   -11862   -11925   -12010   -12127 
  -12245   -12332   -12378   -12391   -12380   -12336   -12255   -12172 
  -12131   -12150   -12232   -12370   -12550   -12772   -13042   -13346 
  -13644   -13883   -14027   -14060   -13986   -13844   -13686   -13537 
  -13383   -13185   -12931   -12648   -12345   -12027   -11709   -11411 
  -11136   -10930   -10843   -10871   -11018   -11292   -11673   -12116 
  -12568   -12964   -13236   -13339   -13275   -13104   -12891   -12702 
  -12579   -12517   -12472   -12406   -12313   -12213   -12116   -12021 
  -11928   -11846   -11796   -11789   -11820   -11882   -11952   -11997 
  -12005   -11990   -11985   -12005   -12035   -12046   -12023   -11983 
  -11962   -11977   -12023   -12082   -12139   -12177   -12179   -12147 
  -12093   -12013   -11913   -11834   -11796   -11788   -11789   -11792 
  -11803   -11847   -11946   -12094   -12274   -12457   -12599   -12671 
  -12683   -12645   -12577   -12513   -12459   -12420   -12406   -12391 
  -12356   -12289   -12159   -11944   -11696   -11518   -11503   -11666 
  -11948   -12263   -12549   -12779   -12937   -13024   -13054   -13041 
  -12974   -12846   -12703   -12606   -12541   -12464   -12352   -12210 
  -12066   -11958   -11911   -11952   -12098   -12309   -12514   -12664 
  -12754   -12811   -12823   -12762   -12622   -12428   -12209   -11971 
  -11724   -11481   -11264   -11110   -11052   -11098   -11246   -11487 
  -11801   -12152   -12503   -12823   -13057   -13135   -13014   -12722 
  -12355   -11989   -11670   -11448   -11368   -11454   -11655   -11881 
  -12059   -12151   -12156   -12094   -12002   -11958   -12048   -12298 
  -12650   -13015   -13298   -13437   -13420   -13246   -12928   -12506 
  -12013   -11499   -11053   -10764   -10690   -10839   -11173   -11650 
  -12221   -12803   -13286   -13574   -13621   -13464   -13159   -12757 
  -12310   -11886   -11580   -11472   -11591   -11923   -12407   -12931 
  -13378   -13664   -13752   -13644   -13359   -12924   -12391   -11855 
  -11411   -11101   -10914   -10859   -10936   -11109   -11315   -11475 
  -11541   -11514   -11439   -11396   -11475   -11724   -12117   -12563 
  -12957   -13230   -13344   -13269   -13004   -12611   -12185   -11813 
  -11550   -11415   -11399   -11481   -11655   -11928   -12299   -12748 
  -13224   -13689   -14107   -14436   -14628   -14629   -14434   -14085 
  -13668   -13300   -13072   -13009   -13085   -13211   -13296   -13302 
  -13224   -13042   -12752   -12414   -12155   -12090   -12266   -12625 
  -13053   -13420   -13617   -13606   -13433   -13174   -12908   -12667 
  -12415   -12090   -11647   -11082   -10423    -9717    -9032    -8442 
   -8014    -7811    -7865    -8185    -8700    -9229    -9629    -9923 
  -10089   -10080   -10045   -10131   -10363   -10801   -11452   -12263 
  -13192   -14145   -15026   -15762   -16276   -16528   -16505   -16237 
  -15809   -15296   -14736   -14162   -13633   -13224   -12995   -12976 
  -13169   -13528   -13948   -14276   -14393   -14265   -13946   -13540 
  -13111   -12653   -12172   -11738   -11407   -11175   -10999   -10833 
  -10648   -10465   -10331   -10292   -10343   -10434   -10531   -10697 
  -11018   -11537   -12235   -13030   -13784   -14382   -14740   -14793 
  -14551   -14112   -13626   -13238   -13004   -12899   -12865   -12822 
  -12636   -12209   -11572   -10835   -10104    -9468    -8969    -8610 
   -8397    -8295    -8205    -8047    -7812    -7539    -7291    -7138 
   -7163    -7442    -8036    -8930    -9995   -11038   -11908   -12542 
  -12960   -13239   -13528   -13977   -14642   -15464   -16349   -17188 
  -17859   -18261   -18333   -18056   -17473   -16727   -15984   -15337 
  -14808   -14369   -13987   -13687   -13563   -13716   -14188   -14924 
  -15768   -16530   -17065   -17309   -17267   -16969   -16459   -15788 
  -14995   -14135   -13273   -12464   -11763   -11194   -10758   -10446 
  -10227   -10045    -9805    -9387    -8719    -7789    -6648    -5404 
   -4198    -3175    -2458    -2122    -2173    -2586    -3326    -4344 
   -5557    -6866    -8217    -9603   -11010   -12406   -13751   -14978 
  -15992   -16681   -16943   -16752   -16193   -15404   -14542   -13772 
  -13220   -12923   -12860   -12982   -13246   -13620   -14076   -14594 
  -15147   -15684   -16139   -16420   -16399   -15981   -15148   -13981 
  -12681   -11522   -10741   -10485   -10783   -11561   -12677   -13952 
  -15210   -16279   -16983   -17184   -16853   -16090   -15070   -13977 
  -12993   -12232   -11707   -11368   -11152   -10984   -10808   -10632 
  -10520   -10543   -10764   -11218   -11878   -12676   -13483   -14135 
  -14501   -14499   -14094   -13347   -12433   -11551   -10855   -10438 
  -10308   -10393   -10574   -10710   -10714   -10598   -10444   -10343 
  -10314   -10281   -10133    -9802    -9282    -8638    -7956    -7312 
   -6783    -6430    -6278    -6357    -6679    -7244    -8028    -8996 
  -10102   -11272   -12376   -13271   -13898   -14292   -14524   -14685 
  -14877   -15169   -15583   -16100   -16665   -17209   -17662   -17968 
  -18104   -18071   -17867   -17518   -17086   -16621   -16158   -15739 
  -15392   -15109   -14856   -14616   -14405   -14238   -14121   -14049 
  -13986   -13871   -13645   -13250   -12688   -12040   -11423   -10945 
  -10682   -10631   -10712   -10808   -10817   -10682   -10377    -9906 
   -9323    -8691    -8070    -7519    -7115    -6926    -6988    -7315 
   -7888    -8630    -9460   -10307   -11111   -11851   -12533   -13136 
  -13602   -13880   -13948   -13811   -13494   -13016   -12418   -11759 
  -11117   -10551   -10099    -9772    -9556    -9445    -9435    -9536 
   -9809   -10311   -11045   -11956   -12931   -13855   -14670   -15356 
  -15869   -16173   -16278   -16222   -16051   -15808   -15526   -15229 
  -14933   -14625   -14268   -13845   -13378   -12879   -12325   -11685 
  -10962   -10192    -9441    -8795    -8353    -8213    -8440    -9057 
  -10076   -11468   -13128   -14881   -16514   -17847   -18773   -19278 
  -19411   -19248   -18864   -18346   -17774   -17172   -16478   -15585 
  -14426   -13015   -11475    -9981    -8685    -7672    -6961    -6543 
   -6369    -6351    -6386    -6397    -6357    -6307    -6316    -6444 
   -6755    -7308    -8139    -9219   -10431   -11612   -12594   -13254 
  -13533   -13460   -13140   -12703   -12259   -11877   -11583   -11389 
  -11295   -11261   -11229   -11171   -11107   -11087   -11173   -11415 
  -11816   -12349   -12981   -13680   -14401   -15118   -15843   -16564 
  -17242   -17828   -18235   -18397   -18293   -17932   -17359   -16664 
  -15931   -15219   -14566   -14010   -13587   -13300   -13109   -12965 
  -12815   -12640   -12430   -12152   -11776   -11304   -10741   -10116 
   -9516    -9020    -8706    -8625    -8764    -9073    -9516   -10068 
  -10690   -11329   -11939   -12479   -12881   -13101   -13134   -12988 
  -12683   -12225   -11616   -10886   -10112    -9391    -8816    -8446 
   -8283    -8293    -8445    -8723    -9082    -9452    -9745    -9911 
   -9972    -9995   -10054   -10211   -10509   -10956   -11533   -12195 
  -12884   -13518   -14023   -14373   -14594   -14721   -14778   -14782 
  -14754   -14732   -14766   -14868   -15034   -15244   -15430   -15508 
  -15411   -15118   -14670   -14164   -13709   -13385   -13243   -13313 
  -13605   -14075   -14629   -15164   -15566   -15761   -15746   -15549 
  -15245   -14935   -14665   -14416   -14175   -13934   -13675   -13381 
  -13047   -12671   -12241   -11777   -11315   -10883   -10498   -10152 
   -9795    -9386    -8914    -8410    -7925    -7514    -7195    -6956 
   -6793    -6718    -6747    -6872    -7098    -7402    -7754    -8168 
   -8661    -9200    -9742   -10269   -10779   -11290   -11808   -12333 
  -12858   -13363   -13811   -14176   -14438   -14590   -14646   -14628 
  -14592   -14600   -14689   -14841   -15003   -15115   -15145   -15090 
  -14976   -14844   -14719   -14607   -14505   -14413   -14354   -14364 
  -14440   -14563   -14713   -14879   -15049   -15207   -15342   -15438 
  -15456   -15353   -15102   -14690   -14126   -13446   -12704   -11966 
  -11286   -10708   -10242    -9873    -9582    -9370    -9267    -9283 
   -9369    -9464    -9539    -9570    -9539    -9452    -9352    -9300 
   -9306    -9364    -9498    -9717   -10015   -10390   -10814   -11245 
  -11659   -12025   -12310   -12499   -12572   -12510   -12320   -12017 
  -11608   -11126   -10638   -10206    -9894    -9769    -9888   -10249 
  -10782   -11387   -11985   -12514   -12903   -13120   -13225   -13329 
  -13516   -13817   -14226   -14696   -15133   -15406   -15412   -15114 
  -14538   -13768   -12933   -12178   -11638   -11394   -11515   -12029 
  -12874   -13927   -15024   -15986   -16695   -17119   -17263   -17127 
  -16727   -16102   -15276   -14292   -13232   -12222   -11392   -10801 
  -10451   -10316   -10332   -10419   -10494   -10477   -10330   -10054 
   -9672    -9229    -8808    -8487    -8314    -8306    -8445    -8698 
   -9042    -9479   -10039   -10758   -11622   -12579   -13560   -14478 
  -15257   -15857   -16243   -16387   -16286   -15961   -15468   -14891 
  -14314   -13813   -13436   -13177   -12991   -12829   -12638   -12407 
  -12160   -11932   -11751   -11616   -11488   -11346   -11217   -11145 
  -11161   -11271   -11458   -11697   -11923   -12048   -12017   -11846 
  -11611   -11389   -11245   -11205   -11252   -11354   -11483   -11622 
  -11749   -11823   -11804   -11646   -11349   -10986   -10642   -10361 
  -10187   -10168   -10346   -10729   -11284   -11943   -12633   -13270 
  -13776   -14092   -14207   -14148   -13927   -13555   -13049   -12451 
  -11813   -11187   -10613   -10133    -9775    -9560    -9502    -9602 
   -9868   -10303   -10895   -11599   -12333   -13018   -13601   -14046 
  -14368   -14632   -14914   -15237   -15612   -16060   -16561   -17047 
