Origin Time       2025/06/03 22:18:00
Lat.              41.7
Long.             143.6
Depth. (km)       30
Mag.              5.2
Station Code      HKD085
Station Lat.      42.9581
Station Long.     144.0698
Station Height(m) 5
Record Time       2025/06/03 22:19:13
Sampling Freq(Hz) 100Hz
Duration Time(s)  79
Dir.              U-D
Scale Factor      7845(gal)/8223790
Max. Acc. (gal)   0.916
Last Correction   2025/06/03 22:19:14
Memo.             
[...]
    1032     1086     1082     1023      951      884      797      706 
     648      612      572      540      508      472      464      513 
     587      643      679      729      812      891      908      868 
     827      803      770      727      683      622      535      461 
     448      491      533      552      581      637      688      720 
     762      823      853      830      801      819      870      908 
     895      853      834      847      877      928      985     1024 
    1051     1071     1063     1020      967      931      912      892 
     866      847      835      819      796      757      693      614 
     550      534      569      634      681      677      658      683 
     738      787      815      827      850      893      918      884 
     838      819      785      715      665      645      623      595 
     564      549      585      658      710      735      792      881 
     954      994     1023     1046     1054     1027      958      874 
     826      839      889      927      931      897      841      784 
     751      753      776      800      795      745      689      680 
     711      741      776      858      959     1009      965      849 
     734      656      581      488      406      346      282      193 
      99       31        5       17       49       98      162      236 
     303      357      426      534      654      746      820      903 
     978     1011     1011     1024     1062     1108     1158     1205 
    1233     1220     1150     1054      974      911      846      789 
     754      737      731      743      760      756      739      735 
     760      793      799      776      764      777      784      766 
     756      781      828      855      845      827      834      849 
     831      781      719      673      657      646      635      648 
     680      695      676      648      619      571      517      503 
     529      553      561      595      666      745      803      858 
     940     1061     1196     1313     1405     1487     1540     1529 
    1487     1443     1374     1278     1179     1082      982      889 
     803      712      637      603      598      592      561      504 
     460      438      395      334      319      342      363      372 
     365      351      338      310      256      216      226      294 
     395      492      562      602      621      622      603      581 
     595      633      656      639      599      592      634      661 
     653      681      784      895      966     1015     1055     1100 
    1151     1212     1290     1362     1370     1310     1242     1190 
    1132     1054      972      909      884      864      800      715 
     672      662      637      580      503      425      368      353 
     365      361      334      317      334      405      522      633 
     687      715      764      826      895      967     1036     1097 
    1142     1148     1124     1090     1050     1001      955      935 
     920      866      785      727      710      695      658      633 
     658      689      649      546      469      461      488      518 
     556      606      654      670      661      677      764      895 
    1012     1082     1107     1097     1084     1081     1065     1026 
     969      899      828      753      653      542      471      459 
     456      433      413      406      407      434      506      602 
     688      747      778      791      792      795      797      789 
     778      772      772      784      808      830      843      878 
     935      966      940      892      869      882      889      845 
     774      746      770      801      805      800      843      935 
    1003     1000      955      940      981     1021     1004      953 
     912      873      814      749      715      704      670      602 
     530      487      473      464      446      423      405      402 
     413      399      356      319      319      351      384      399 
     399      395      406      459      542      633      707      769 
     838      916      980     1004     1005     1020     1057     1100 
    1143     1152     1125     1109     1136     1188     1224     1229 
    1239     1289     1350     1363     1331     1289     1247     1197 
    1156     1148     1161     1161     1142     1123     1113     1088 
    1017      919      823      741      648      523      400      334 
     321      301      229      129       56       24       -1      -16 
     -13      -16      -28      -17       35      120      229      349 
     450      525      602      689      766      815      846      878 
     897      889      866      847      845      828      781      749 
     776      838      868      831      766      734      741      750 
     753      741      700      672      689      706      677      630 
     614      634      661      676      669      639      607      591 
     596      607      603      579      550      526      522      561 
     629      684      710      729      764      832      930     1011 
    1035     1024     1032     1065     1097     1116     1120     1113 
    1098     1081     1071     1085     1116     1125     1086     1020 
     974      976     1000     1019     1038     1062     1094     1136 
    1162     1146     1112     1082     1035      958      889      851 
     830      799      749      706      695      693      664      614 
     587      587      585      572      554      552      576      612 
     638      664      710      766      797      796      800      847 
     916      963      967      932      882      831      772      688 
     598      533      506      496      487      461      422      386 
     369      382      409      433      457      483      502      492 
     460      449      483      538      612      712      810      884 
     951     1007     1038     1067     1098     1115     1132     1144 
    1123     1077     1019      953      886      818      747      685 
     637      596      569      554      546      554      576      573 
     548      554      596      634      656      665      664      658 
     653      623      562      507      472      433      388      367 
     373      402      438      464      490      529      569      604 
     639      680      746      839      912      916      880      858 
     841      787      710      662      664      673      649      607 
     596      622      635      619      614      654      727      789 
     841      900      961      997     1012     1021     1024     1008 
     981      973      980      970      932      886      854      842 
     843      838      826      826      839      855      880      919 
     951      984     1039     1093     1111     1112     1140     1188 
    1215     1206     1181     1169     1162     1140     1112     1102 
    1111     1111     1078     1030     1000      990      967      920 
     870      841      827      805      768      733      716      699 
     658      610      584      579      568      549      558      610 
     670      696      700      719      765      814      832      830 
     827      822      811      792      770      769      788      778 
     726      672      650      634      602      567      534      500 
     477      452      407      367      355      345      317      294 
     287      295      329      396      473      526      550      552 
     534      522      535      550      542      511      468      423 
     375      324      280      265      278      287      280      270 
     271      291      324      338      329      345      422      521 
     584      614      641      688      760      845      918      965 
    1008     1054     1085     1096     1112     1144     1166     1155 
    1135     1144     1181     1205     1189     1152     1131     1134 
    1152     1174     1188     1185     1175     1170     1171     1183 
    1193     1194     1197     1205     1204     1177     1129     1088 
    1044     1005      982      955      905      839      770      716 
     684      657      631      630      675      753      826      864 
     874      891      935      992     1032     1051     1057     1047 
    1035     1020      993      970      963      953      924      882 
     849      847      864      853      801      743      710      696 
     691      699      716      738      756      760      762      760 
     726      670      629      611      618      635      630      604 
     585      580      583      589      595      595      564      508 
     464      440      409      344      241      140       85       62 
      20      -43      -82      -76      -58      -52      -44       -5 
      56       98      117      144      193      251      318      386 
     442      484      504      507      519      558      618      664 
     685      710      760      805      816      807      835      912 
    1008     1094     1163     1227     1297     1364     1406     1440 
    1491     1548     1582     1594     1597     1590     1574     1534 
    1475     1413     1347     1254     1139     1031      943      873 
     801      719      648      606      596      595      581      573 
     595      629      639      642      680      751      815      846 
     851      851      862      873      858      827      803      787 
     780      772      757      749      753      751      746      749 
     770      810      847      865      865      866      877      901 
     922      924      928      961     1008     1032     1011      958 
     904      854      795      724      660      612      568      517 
     460      421      417      418      384      329      295      303 
     326      324      317      346      387      406      432      496 
     576      635      669      685      699      730      770      811 
     850      900      974     1057     1113     1147     1173     1185 
    1194     1209     1215     1196     1152     1100     1046      994 
     950      905      846      778      711      634      550      483 
     430      375      319      283      271      284      318      349 
     375      411      459      494      500      484      461      445 
     436      423      411      410      415      419      426      450 
     506      583      641      664      696      769      847      900 
     947      994     1017      999      965      953      963      981 
     990     1001     1036     1094     1142     1161     1165     1165 
    1177     1208     1232     1237     1240     1240     1221     1196 
    1186     1179     1155     1121     1086     1051     1023     1009 
    1017     1040     1050     1023      970      912      859      800 
     722      645      596      561      506      436      361      287 
     225      176      109       17      -59      -89      -64      -14 
      41      101      162      221      272      314      379      476 
     562      623      683      754      831      895      931      950 
     973      996     1005     1009     1020     1027     1021     1005 
     986      976      967      949      911      866      841      842 
     850      832      789      749      724      697      657      611 
     577      571      592      625      649      676      718      753 
     768      788      838      904      953      970      985     1007 
    1004      977      954      949      950      936      897      855 
     847      869      885      881      874      870      873      889 
     905      920      932      922      892      874      874      872 
     857      849      853      862      861      842      811      776 
     739      706      681      660      637      621      618      614 
     598      576      558      542      511      476      471      496 
     514      488      438      415      426      438      436      437 
     453      483      519      546      569      607      646      669 
     688      723      756      770      781      805      842      881 
     911      926      935      943      951      953      953      949 
     932      923      927      923      920      932      945      951 
     966      996     1023     1047     1093     1148     1173     1167 
    1163     1159     1151     1152     1162     1177     1188     1163 
    1081      961      857      783      711      634      561      490 
     417      349      283      207      128       68       49       59 
      75       93      118      155      199      256      329      411 
     494      573      656      731      799      862      920      973 
    1020     1059     1080     1067     1032     1007      996      985 
     977      988     1009     1026     1035     1035     1015      996 
     990      984      967      947      926      908      899      886 
     855      820      791      773      758      739      722      700 
     676      665      669      684      691      670      629      589 
     579      587      592      580      560      548      546      535 
     507      472      440      410      382      352      318      284 
     257      237      224      233      270      315      376      463 
     557      634      700      772      859      973     1093     1204 
    1312     1408     1480     1543     1602     1648     1676     1702 
    1714     1690     1626     1549     1479     1417     1350     1256 
    1148     1053      967      865      738      606      481      364 
     259      168       99       59       28       -9      -44      -68 
     -71      -41       -1       21       37       63       94      132 
     172      209      244      297      368      440      491      523 
     550      583      621      661      710      777      855      927 
     988     1044     1107     1169     1225     1275     1328     1386 
    1435     1455     1453     1439     1414     1379     1336     1287 
    1243     1200     1151     1105     1066     1016      950      886 
     838      791      734      673      612      550      495      452 
     413      376      352      338      338      351      375      409 
     442      472      502      527      556      606      668      714 
     739      773      818      859      893      922      935      938 
     955      985      994      980      967      970      972      966 
     969      989     1020     1051     1077     1090     1090     1092 
    1093     1090     1100     1119     1119     1088     1040      997 
     958      919      880      834      776      712      652      595 
     541      500      479      479      499      519      519      507 
     507      526      556      585      619      658      685      689 
     676      662      657      649      631      614      596      572 
     544      517      498      490      477      444      405      383 
     383      395      409      414      407      396      402      415 
     423      425      427      437      465      502      526      545 
     573      611      661      719      765      799      834      877 
     931      990     1035     1061     1088     1134     1183     1223 
    1259     1287     1297     1293     1289     1294     1294     1270 
    1235     1212     1183     1131     1061      994      935      873 
     797      722      670      641      604      562      541      542 
     538      515      492      488      511      553      587      608 
     638      679      707      726      747      760      773      805 
     835      841      831      810      783      753      719      693 
     669      638      598      556      531      529      521      510 
     514      534      562      584      589      595      614      631 
     637      631      626      631      642      645      637      631 
     634      633      621      612      615      618      614      606 
     599      619      654      680      695      720      777      865 
     959     1034     1098     1170     1243     1294     1325     1351 
    1379     1394     1379     1343     1300     1247     1182     1102 
    1015      932      858      787      714      641      581      537 
     500      468      448      444      452      473      503      527 
     545      558      569      584      612      645      670      679 
     677      683      703      731      758      788      820      846 
     859      872      889      901      905      896      868      828 
     792      758      724      687      654      627      594      552 
     503      457      429      415      410      413      417      417 
     421      438      472      499      511      531      565      603 
     637      661      688      727      761      783      807      843 
     876      899      916      927      935      946      949      940 
     927      905      891      895      897      888      884      904 
     932      946      951      954      957      965      982      997 
    1008     1017     1026     1035     1044     1040     1015      990 
     986      984      955      920      892      855      796      722 
     656      616      592      562      534      525      538      565 
     600      641      680      716      743      749      742      746 
     766      793      819      834      837      842      838      819 
     808      818      832      839      835      828      830      827 
     818      812      816      826      824      807      788      791 
     800      795      768      734      703      669      638      612 
     577      534      491      444      395      355      328      307 
     284      271      267      260      255      260      275      309 
     353      395      441      492      548      608      668      716 
     768      826      876      905      924      945      974     1004 
    1035     1059     1063     1053     1034     1013      994      980 
     965      946      918      886      857      830      804      777 
     746      719      712      726      749      769      787      811 
     842      881      932      986     1040     1098     1158     1210 
    1254     1291     1324     1331     1308     1281     1269     1262 
    1235     1186     1132     1081     1023      955      885      827 
     789      749      687      637      611      587      550      506 
     464      437      418      388      351      319      305      295 
     276      255      240      229      221      217      211      210 
     221      249      283      309      319      324      345      382 
     426      477      526      567      602      635      675      733 
     807      881      947     1013     1073     1116     1143     1161 
    1170     1173     1171     1163     1147     1128     1107     1084 
    1062     1044     1030     1026     1032     1026      996      955 
     909      862      822      784      743      704      672      649 
     630      610      596      595      604      621      634      645 
     668      696      718      737      753      769      787      796 
     801      810      818      820      805      783      765      756 
     742      726      711      699      696      703      711      720 
