Origin Time       2025/06/03 22:18:00
Lat.              41.7
Long.             143.6
Depth. (km)       30
Mag.              5.2
Station Code      HKD095
Station Lat.      42.9311
Station Long.     143.2137
Station Height(m) 35
Record Time       2025/06/03 22:19:13
Sampling Freq(Hz) 100Hz
Duration Time(s)  60
Dir.              U-D
Scale Factor      7845(gal)/8223790
Max. Acc. (gal)   0.551
Last Correction   2025/06/03 22:19:14
Memo.             
    5008     5073     5162     5200     5186     5198     5233     5204 
    5092     4999     5026     5146     5246     5281     5285     5305 
    5373     5474     5543     5543     5499     5440     5402     5417 
    5448     5456     5443     5416     5375     5320     5262     5256 
    5329     5432     5509     5580     5695     5829     5891     5834 
    5701     5555     5427     5324     5247     5192     5150     5108 
    5063     5043     5107     5233     5324     5336     5304     5283 
    5294     5293     5252     5229     5254     5267     5238     5219 
    5269     5366     5433     5409     5320     5256     5246     5263 
    5290     5306     5308     5306     5279     5221     5189     5223 
    5289     5339     5348     5332     5329     5352     5373     5366 
    5341     5332     5340     5328     5305     5319     5375     5439 
    5489     5517     5532     5516     5444     5336     5247     5213 
    5247     5304     5321     5289     5232     5174     5134     5104 
    5078     5046     4985     4934     4959     5069     5194     5278 
    5333     5375     5382     5335     5252     5206     5213     5217 
    5211     5239     5302     5364     5395     5397     5394     5390 
    5362     5328     5332     5401     5503     5539     5463     5347 
    5259     5228     5258     5314     5346     5308     5247     5278 
    5404     5495     5485     5435     5412     5389     5321     5225 
    5158     5115     5063     5019     5013     5024     5008     4999 
    5063     5177     5229     5185     5142     5194     5302     5355 
    5328     5312     5354     5400     5387     5320     5259     5251 
    5292     5341     5367     5375     5383     5398     5421     5432 
    5427     5414     5389     5363     5367     5382     5379     5381 
    5416     5487     5568     5616     5607     5564     5517     5475 
    5440     5412     5394     5385     5360     5306     5235     5178 
    5147     5132     5135     5169     5202     5184     5140     5139 
    5190     5244     5259     5265     5314     5383     5422     5445 
    5482     5514     5514     5509     5535     5568     5563     5537 
    5529     5526     5502     5448     5386     5358     5379     5427 
    5455     5445     5420     5397     5370     5340     5313     5277 
    5212     5148     5130     5143     5151     5144     5138     5138 
    5140     5161     5215     5252     5219     5159     5158     5215 
    5262     5255     5204     5150     5136     5177     5228     5250 
    5243     5232     5236     5255     5278     5290     5294     5302 
    5305     5277     5209     5154     5181     5269     5347     5373 
    5347     5289     5247     5278     5370     5421     5390     5367 
    5412     5460     5441     5366     5297     5269     5255     5240 
    5240     5258     5266     5251     5269     5358     5456     5487 
    5463     5443     5449     5451     5422     5387     5360     5328 
    5321     5367     5417     5404     5331     5260     5221     5202 
    5200     5216     5260     5321     5340     5300     5258     5263 
    5281     5265     5228     5229     5281     5308     5301     5317 
    5327     5286     5259     5297     5363     5391     5381     5401 
    5456     5468     5433     5418     5427     5395     5294     5208 
    5263     5417     5514     5522     5510     5501     5481     5425 
    5356     5351     5390     5406     5416     5439     5444     5413 
    5343     5285     5283     5297     5281     5254     5211     5155 
    5135     5159     5186     5185     5154     5144     5196     5260 
    5275     5244     5220     5211     5177     5115     5063     5051 
    5065     5078     5092     5136     5235     5332     5348     5304 
    5298     5362     5420     5409     5358     5335     5366     5424 
    5463     5474     5478     5474     5429     5355     5292     5254 
    5228     5216     5238     5289     5343     5405     5486     5545 
    5545     5522     5524     5530     5501     5463     5471     5479 
    5398     5254     5152     5138     5161     5171     5192     5255 
    5292     5221     5132     5143     5224     5289     5320     5373 
    5447     5456     5386     5325     5316     5306     5248     5154 
    5088     5108     5171     5197     5181     5179     5217     5270 
    5296     5292     5294     5312     5341     5394     5448     5451 
    5408     5355     5324     5302     5262     5224     5229     5260 
    5273     5248     5224     5254     5302     5300     5266     5263 
    5297     5333     5352     5362     5379     5377     5331     5282 
    5251     5228     5223     5242     5266     5263     5224     5192 
    5231     5325     5391     5378     5308     5254     5283     5382 
    5460     5479     5463     5448     5459     5485     5498     5489 
    5459     5420     5389     5351     5290     5246     5255     5314 
    5386     5390     5324     5271     5266     5279     5301     5312 
    5305     5306     5317     5336     5377     5420     5435     5421 
    5408     5395     5359     5308     5285     5277     5247     5206 
    5169     5135     5142     5215     5302     5331     5275     5198 
    5181     5208     5235     5262     5277     5273     5255     5248 
    5297     5381     5409     5391     5417     5495     5555     5537 
    5454     5389     5387     5377     5313     5279     5351     5444 
    5429     5339     5301     5329     5356     5339     5266     5169 
    5116     5130     5181     5240     5265     5238     5188     5142 
    5135     5186     5244     5262     5231     5185     5196     5242 
    5227     5166     5157     5228     5312     5327     5310     5350 
    5421     5460     5462     5432     5394     5360     5314     5274 
    5266     5277     5305     5351     5402     5455     5470     5395 
    5298     5274     5300     5289     5238     5216     5235     5239 
    5233     5266     5310     5314     5304     5344     5416     5444 
    5433     5418     5391     5350     5314     5297     5279     5232 
    5188     5206     5258     5266     5236     5247     5329     5428 
    5464     5416     5344     5327     5346     5347     5332     5320 
    5316     5313     5308     5316     5337     5348     5332     5313 
    5336     5377     5360     5304     5266     5262     5277     5286 
    5273     5240     5205     5185     5171     5154     5155     5202 
    5275     5328     5356     5398     5447     5448     5397     5344 
    5302     5256     5228     5254     5304     5313     5294     5281 
    5269     5266     5279     5296     5306     5317     5333     5359 
    5370     5350     5350     5374     5364     5312     5247     5186 
    5170     5217     5289     5344     5383     5413     5421     5420 
    5428     5420     5366     5305     5313     5374     5416     5432 
    5444     5460     5483     5481     5431     5373     5355     5360 
    5339     5290     5277     5323     5364     5350     5319     5310 
    5306     5281     5244     5229     5265     5327     5364     5344 
    5304     5323     5414     5497     5495     5421     5364     5390 
    5452     5463     5414     5354     5285     5202     5142     5127 
    5125     5108     5100     5117     5135     5159     5225     5301 
    5320     5296     5274     5248     5213     5215     5262     5308 
    5312     5270     5248     5296     5356     5381     5383     5362 
    5313     5287     5310     5339     5347     5333     5337     5394 
    5462     5493     5503     5510     5506     5491     5459     5427 
    5410     5391     5347     5297     5270     5270     5265     5235 
    5224     5262     5301     5298     5274     5271     5286     5259 
    5174     5117     5140     5193     5216     5221     5266     5327 
    5319     5243     5185     5192     5227     5232     5215     5227 
    5297     5391     5449     5444     5391     5333     5300     5308 
    5320     5283     5216     5200     5259     5319     5305     5251 
    5242     5283     5301     5260     5211     5193     5223     5298 
    5370     5370     5314     5275     5300     5359     5371     5308 
    5250     5267     5348     5436     5495     5539     5599     5644 
    5607     5494     5362     5254     5204     5239     5343     5435 
    5464     5464     5494     5544     5532     5449     5381     5340 
    5285     5254     5271     5289     5269     5216     5166     5178 
    5254     5331     5350     5297     5239     5247     5287     5304 
    5310     5319     5305     5271     5225     5174     5144     5158 
    5244     5382     5455     5395     5289     5247     5266     5281 
    5255     5200     5155     5144     5175     5242     5298     5327 
    5358     5420     5483     5470     5371     5302     5337     5394 
    5382     5324     5292     5324     5375     5386     5391     5422 
    5416     5343     5256     5202     5202     5219     5208     5209 
    5252     5293     5304     5325     5393     5482     5521     5503 
    5490     5475     5414     5329     5267     5243     5258     5304 
    5371     5439     5459     5428     5394     5408     5462     5470 
    5393     5328     5355     5406     5413     5379     5341     5344 
    5368     5332     5248     5200     5185     5189     5211     5227 
    5240     5282     5340     5377     5358     5300     5283     5343 
    5405     5395     5304     5182     5109     5094     5092     5089 
    5094     5117     5162     5198     5193     5174     5208     5305 
    5391     5408     5360     5298     5259     5238     5202     5155 
    5134     5169     5239     5282     5265     5232     5238     5271 
    5285     5271     5252     5244     5228     5205     5223     5273 
    5290     5294     5333     5373     5373     5373     5417     5486 
    5513     5462     5387     5362     5395     5440     5481     5532 
    5575     5570     5517     5462     5431     5405     5354     5286 
    5256     5266     5256     5221     5223     5260     5263     5213 
    5151     5109     5096     5093     5097     5142     5248     5390 
    5508     5545     5479     5346     5224     5157     5127     5107 
    5089     5104     5151     5178     5163     5150     5190     5263 
    5309     5316     5327     5368     5422     5466     5485     5470 
    5445     5444     5452     5432     5390     5367     5374     5378 
    5387     5437     5487     5452     5344     5281     5313     5348 
    5314     5308     5413     5535     5563     5535     5530     5559 
    5563     5501     5420     5379     5364     5385     5464     5525 
    5494     5422     5393     5405     5386     5308     5238     5216 
    5185     5121     5071     5077     5127     5144     5094     5058 
    5096     5161     5200     5231     5278     5309     5294     5269 
    5285     5324     5319     5265     5201     5166     5151     5116 
    5073     5077     5113     5134     5154     5179     5178     5162 
    5196     5287     5348     5304     5235     5269     5385     5460 
    5451     5431     5444     5421     5335     5278     5283     5283 
    5256     5251     5269     5260     5202     5146     5131     5119 
    5085     5103     5189     5246     5193     5104     5121     5247 
    5339     5331     5300     5319     5368     5420     5478     5503 
    5441     5332     5260     5250     5273     5293     5316     5377 
    5455     5502     5543     5626     5728     5778     5753     5665 
    5576     5551     5535     5444     5344     5333     5366     5340 
    5251     5186     5201     5256     5286     5305     5347     5366 
    5333     5329     5367     5343     5217     5078     5013     5031 
    5070     5094     5139     5209     5252     5262     5263     5265 
    5262     5266     5285     5339     5398     5386     5316     5306 
    5368     5402     5393     5393     5401     5371     5310     5258 
    5250     5285     5309     5321     5378     5452     5467     5437 
    5427     5474     5555     5611     5628     5628     5613     5575 
    5513     5437     5350     5270     5232     5228     5216     5182 
    5166     5196     5263     5333     5362     5358     5366     5382 
    5395     5413     5414     5393     5385     5389     5377     5339 
    5286     5258     5255     5224     5144     5070     5069     5130 
    5190     5225     5248     5258     5229     5165     5093     5016 
    4939     4909     4939     5017     5147     5308     5444     5509 
    5491     5417     5336     5274     5198     5117     5119     5250 
    5429     5533     5553     5589     5665     5694     5652     5594 
    5520     5417     5335     5337     5424     5509     5509     5475 
    5479     5485     5447     5405     5393     5390     5355     5279 
    5213     5186     5166     5151     5138     5071     4969     4922 
    4980     5062     5043     4947     4951     5107     5259     5286 
    5235     5223     5287     5359     5352     5301     5293     5346 
    5387     5347     5232     5142     5144     5173     5135     5065 
    5076     5177     5283     5331     5325     5292     5250     5228 
    5271     5387     5490     5509     5487     5495     5563     5674 
    5759     5767     5709     5622     5522     5398     5263     5177 
    5163     5175     5169     5163     5198     5278     5355     5393 
    5391     5383     5383     5368     5344     5362     5421     5444 
    5393     5332     5323     5354     5386     5379     5341     5314 
    5321     5368     5420     5416     5386     5401     5432     5417 
    5371     5339     5325     5325     5340     5340     5297     5228 
    5162     5100     5040     5005     5012     5053     5121     5206 
    5278     5331     5390     5449     5467     5439     5417     5406 
    5382     5360     5355     5351     5332     5300     5287     5298 
    5301     5294     5292     5309     5351     5406     5456     5441 
    5341     5262     5275     5302     5265     5201     5188     5224 
    5256     5250     5235     5243     5262     5279     5292     5320 
    5391     5440     5395     5333     5332     5340     5312     5304 
    5358     5420     5421     5406     5452     5514     5505     5455 
    5444     5445     5383     5282     5217     5194     5189     5205 
    5229     5213     5138     5070     5058     5062     5012     4914 
    4858     4926     5081     5224     5300     5351     5436     5518 
    5512     5406     5287     5223     5244     5346     5439     5452 
    5428     5417     5447     5513     5548     5530     5509     5498 
    5490     5493     5497     5499     5505     5487     5445     5429 
    5459     5499     5526     5541     5560     5586     5580     5525 
    5449     5427     5495     5595     5638     5620     5586     5568 
    5547     5459     5298     5139     5036     5003     5027     5071 
    5125     5194     5255     5298     5305     5238     5151     5134 
    5154     5127     5044     4976     4993     5043     5028     4957 
    4900     4903     4963     5039     5086     5096     5073     5049 
    5066     5119     5178     5256     5309     5306     5324     5359 
    5351     5337     5341     5354     5398     5460     5510     5553 
    5547     5456     5320     5181     5088     5067     5081     5120 
    5192     5224     5200     5208     5282     5371     5398     5355 
    5319     5310     5278     5236     5246     5316     5367     5331 
    5252     5215     5224     5273     5364     5447     5479     5491 
    5494     5483     5483     5489     5474     5437     5368     5277 
    5216     5228     5278     5312     5328     5355     5408     5463 
    5475     5444     5405     5375     5366     5379     5391     5404 
    5435     5441     5393     5339     5332     5370     5416     5447 
    5462     5474     5497     5533     5562     5545     5481     5417 
    5375     5337     5296     5243     5173     5093     5022     4972 
    4945     4932     4936     4946     4934     4922     4954     5043 
    5159     5262     5339     5414     5499     5562     5556     5514 
    5505     5540     5560     5530     5482     5458     5445     5402 
    5340     5294     5263     5228     5194     5190     5246     5339 
    5401     5418     5424     5410     5360     5298     5274     5292 
    5319     5333     5346     5362     5347     5263     5182     5193 
    5251     5270     5265     5278     5314     5352     5364     5371 
    5385     5350     5274     5238     5251     5259     5250     5266 
    5335     5395     5374     5304     5281     5306     5301     5236 
    5158     5111     5104     5108     5121     5169     5215     5221 
    5238     5297     5378     5443     5467     5474     5487     5476 
    5425     5394     5414     5433     5431     5454     5529     5605 
    5620     5605     5613     5632     5628     5584     5490     5398 
    5366     5354     5312     5254     5213     5200     5185     5146 
    5117     5134     5185     5244     5297     5328     5333     5328 
    5313     5302     5301     5296     5298     5294     5250     5186 
    5144     5127     5132     5136     5098     5049     5055     5115 
    5188     5233     5221     5161     5111     5116     5142     5152 
    5170     5206     5235     5239     5223     5200     5192     5198 
    5220     5271     5333     5362     5359     5378     5445     5521 
    5564     5582     5591     5570     5499     5436     5440     5471 
    5476     5486     5528     5578     5590     5552     5485     5400 
    5317     5301     5359     5401     5383     5368     5398     5418 
    5383     5329     5314     5328     5314     5254     5212     5259 
    5336     5324     5223     5146     5143     5147     5108     5063 
    5066     5098     5125     5150     5169     5157     5135     5143 
    5173     5185     5155     5111     5116     5167     5197     5173 
    5151     5202     5286     5309     5281     5292     5362     5435 
    5459     5441     5428     5420     5404     5405     5412     5363 
    5285     5279     5363     5464     5528     5549     5549     5533 
    5501     5463     5417     5354     5300     5296     5343     5391 
    5397     5378     5378     5391     5391     5371     5340     5309 
    5294     5324     5404     5502     5562     5560     5549     5586 
    5643     5637     5551     5479     5478     5495     5470     5406 
    5344     5301     5267     5201     5084     4972     4920     4926 
    4928     4869     4776     4746     4777     4795     4785     4783 
    4812     4864     4914     4962     5023     5090     5147     5188 
    5224     5282     5379     5498     5597     5668     5724     5736 
    5707     5682     5663     5613     5540     5506     5541     5584 
    5563     5485     5405     5348     5301     5258     5220     5205 
    5223     5267     5310     5314     5278     5236     5208     5204 
    5238     5281     5302     5327     5368     5416     5455     5472 
    5468     5478     5499     5502     5476     5447     5440     5448 
    5441     5428     5435     5431     5387     5325     5270     5221 
    5177     5154     5171     5206     5219     5229     5274     5316 
    5329     5340     5366     5401     5425     5439     5467     5483 
