Origin Time       2025/06/03 22:18:00
Lat.              41.7
Long.             143.6
Depth. (km)       30
Mag.              5.2
Station Code      HKD095
Station Lat.      42.9311
Station Long.     143.2137
Station Height(m) 35
Record Time       2025/06/03 22:19:13
Sampling Freq(Hz) 100Hz
Duration Time(s)  60
Dir.              E-W
Scale Factor      7845(gal)/8223790
Max. Acc. (gal)   1.333
Last Correction   2025/06/03 22:19:14
Memo.             
[...]
   21967    22032    22099    22134    22118    22127    22222    22330 
   22349    22269    22149    22033    21944    21942    22073    22297 
   22555    22792    22910    22867    22719    22500    22230    21988 
   21855    21822    21855    21945    22076    22206    22318    22431 
   22532    22563    22503    22377    22264    22252    22334    22399 
   22396    22377    22356    22291    22172    22050    21978    21957 
   21975    22052    22202    22412    22628    22774    22779    22634 
   22416    22221    22081    22003    21986    22007    22069    22202 
   22364    22439    22389    22261    22087    21909    21822    21875 
   22025    22227    22458    22655    22767    22800    22782    22742 
   22705    22674    22646    22640    22662    22677    22667    22638 
   22576    22454    22292    22158    22096    22075    22040    22005 
   22052    22207    22416    22636    22825    22906    22823    22582 
   22250    21887    21540    21259    21109    21138    21344    21666 
   21995    22231    22338    22358    22374    22420    22454    22453 
   22459    22492    22513    22482    22403    22306    22183    22032 
   21910    21864    21872    21903    21969    22111    22316    22512 
   22657    22752    22767    22694    22596    22524    22466    22422 
   22418    22468    22551    22627    22684    22744    22773    22684 
   22450    22161    21952    21860    21840    21859    21922    22023 
   22160    22319    22484    22632    22744    22805    22824    22840 
   22883    22929    22932    22863    22725    22540    22338    22156 
   22017    21926    21883    21892    21949    22040    22135    22204 
   22214    22148    22021    21909    21876    21880    21871    21909 
   22041    22188    22260    22245    22162    22044    21937    21884 
   21929    22140    22481    22783    22928    22897    22698    22403 
   22133    21942    21825    21797    21901    22121    22380    22573 
   22617    22511    22307    22088    21952    21972    22118    22269 
   22343    22369    22368    22307    22202    22138    22135    22131 
   22117    22127    22141    22144    22192    22297    22399    22451 
   22430    22334    22207    22114    22106    22172    22243    22284 
   22345    22450    22545    22593    22613    22593    22524    22465 
   22445    22435    22432    22473    22567    22661    22670    22569 
   22403    22235    22114    22042    22018    22072    22222    22391 
   22478    22481    22415    22273    22123    22067    22103    22196 
   22346    22484    22515    22415    22169    21787    21417    21236 
   21262    21428    21701    22032    22323    22472    22405    22165 
   21903    21743    21728    21852    22076    22343    22615    22847 
   23002    23063    23014    22852    22605    22312    22044    21892 
   21910    22054    22235    22393    22497    22504    22399    22241 
   22121    22113    22219    22364    22493    22632    22794    22927 
   22994    22990    22914    22804    22740    22750    22790    22850 
   22954    23085    23202    23280    23268    23099    22794    22446 
   22100    21772    21527    21401    21389    21497    21698    21909 
   22076    22210    22304    22347    22346    22302    22185    21964 
   21659    21392    21288    21377    21640    22045    22505    22900 
   23161    23265    23194    22981    22696    22407    22162    21973 
   21833    21774    21826    21978    22157    22285    22387    22518 
   22624    22650    22642    22644    22632    22580    22512    22443 
   22351    22237    22137    22077    22029    21955    21849    21770 
   21801    21955    22119    22207    22235    22216    22145    22048 
   21924    21791    21764    21887    22040    22134    22210    22300 
   22384    22407    22327    22181    22037    21901    21767    21655 
   21579    21598    21778    22091    22414    22638    22723    22694 
   22592    22442    22318    22315    22437    22607    22763    22855 
   22860    22816    22762    22727    22746    22797    22792    22723 
   22669    22636    22565    22454    22387    22426    22547    22681 
   22775    22824    22851    22869    22855    22779    22675    22621 
   22603    22546    22458    22396    22338    22253    22153    22040 
   21919    21830    21775    21724    21697    21766    21940    22154 
   22335    22432    22426    22335    22192    22064    22038    22148 
   22329    22493    22620    22728    22809    22869    22914    22901 
   22800    22665    22534    22391    22283    22273    22311    22292 
   22264    22303    22338    22308    22288    22291    22265    22245 
   22265    22261    22200    22125    22038    21921    21778    21617 
   21432    21238    21093    21027    20987    20958    20965    20979 
   20972    20965    20985    21065    21213    21375    21504    21608 
   21654    21616    21573    21593    21614    21613    21679    21791 
   21834    21833    21884    21984    22091    22202    22329    22462 
   22597    22724    22824    22900    22955    22928    22758    22496 
   22239    22006    21814    21743    21837    22054    22312    22515 
   22599    22590    22582    22607    22632    22688    22819    22986 
   23132    23241    23278    23249    23255    23336    23434    23511 
   23576    23633    23662    23608    23446    23257    23097    22948 
   22817    22724    22663    22627    22638    22707    22804    22898 
   22954    22925    22810    22661    22530    22464    22464    22493 
   22540    22594    22650    22721    22759    22677    22500    22319 
   22183    22127    22177    22324    22539    22755    22889    22886 
   22728    22470    22230    22040    21837    21636    21527    21514 
   21544    21590    21641    21703    21805    21953    22127    22279 
   22392    22512    22631    22680    22630    22496    22293    22077 
   21882    21685    21501    21361    21278    21303    21442    21613 
   21733    21755    21655    21469    21266    21108    21039    21057 
   21095    21084    21033    21035    21155    21375    21652    21956 
   22225    22400    22527    22670    22804    22901    22967    22972 
   22906    22790    22627    22420    22269    22239    22258    22277 
   22331    22400    22408    22349    22243    22094    21955    21924 
   22010    22122    22175    22172    22167    22194    22289    22474 
   22719    22978    23238    23460    23564    23550    23511    23454 
   23317    23116    22909    22719    22554    22426    22333    22283 
   22285    22322    22364    22400    22445    22522    22616    22702 
   22765    22775    22709    22584    22446    22331    22258    22241 
   22277    22347    22416    22488    22581    22696    22825    22941 
   23001    23001    22947    22828    22653    22459    22303    22200 
   22141    22108    22079    22040    21996    21949    21919    21910 
   21883    21821    21749    21702    21693    21702    21694    21658 
   21577    21440    21317    21288    21346    21463    21632    21820 
   21996    22156    22266    22275    22200    22126    22079    22017 
   21934    21865    21825    21810    21824    21878    22010    22207 
   22395    22535    22623    22631    22549    22415    22308    22285 
   22322    22358    22387    22392    22324    22189    22019    21829 
   21647    21529    21517    21593    21728    21940    22218    22501 
   22750    22932    22966    22866    22750    22620    22412    22192 
   22071    22034    22036    22122    22319    22527    22638    22636 
   22550    22427    22312    22202    22081    21975    21944    22030 
   22192    22349    22464    22563    22670    22746    22763    22763 
   22767    22771    22798    22820    22779    22685    22588    22493 
   22391    22299    22252    22260    22320    22412    22491    22553 
   22647    22761    22819    22844    22889    22913    22860    22758 
   22612    22412    22208    22064    21991    22009    22133    22307 
   22458    22570    22642    22643    22545    22368    22146    21890 
   21632    21438    21343    21351    21469    21667    21883    22072 
   22249    22407    22473    22435    22389    22376    22364    22338 
   22331    22373    22401    22347    22225    22060    21855    21662 
   21536    21466    21435    21463    21546    21656    21782    21895 
   21938    21919    21903    21905    21909    21949    22076    22269 
   22459    22628    22786    22910    22993    23049    23064    22998 
   22879    22794    22786    22848    22950    23049    23122    23159 
   23137    23055    22944    22816    22621    22353    22096    21933 
   21878    21914    22002    22122    22299    22509    22661    22712 
   22716    22674    22566    22464    22431    22446    22477    22530 
   22612    22717    22808    22844    22843    22828    22763    22605 
   22364    22063    21729    21421    21217    21141    21172    21296 
   21489    21701    21886    22003    22022    21965    21905    21894 
   21932    22003    22122    22256    22330    22327    22280    22226 
   22223    22315    22447    22547    22592    22581    22531    22474 
   22431    22400    22414    22496    22590    22643    22673    22700 
   22694    22661    22604    22488    22304    22138    22059    22034 
   22013    21990    21980    21986    22002    21988    21868    21645 
   21448    21369    21361    21350    21332    21343    21408    21524 
   21662    21782    21899    22057    22261    22442    22511    22468 
   22393    22349    22334    22343    22373    22415    22476    22580 
   22707    22805    22856    22881    22912    22966    22998    22954 
   22854    22770    22732    22725    22746    22778    22821    22905 
   23012    23058    22998    22875    22754    22686    22705    22794 
   22905    22997    23002    22852    22578    22316    22168    22119 
   22152    22288    22499    22720    22928    23074    23085    22964 
   22782    22615    22497    22408    22327    22283    22285    22299 
   22283    22219    22114    21988    21875    21795    21733    21640 
   21532    21496    21554    21648    21744    21810    21811    21775 
   21724    21644    21535    21443    21413    21442    21490    21558 
   21671    21849    22076    22269    22345    22292    22176    22052 
   21933    21824    21752    21776    21906    22069    22187    22248 
   22272    22233    22086    21875    21687    21533    21409    21379 
   21478    21639    21783    21882    21945    21980    21992    21986 
   21951    21915    21941    22015    22068    22096    22149    22212 
   22249    22280    22318    22339    22362    22419    22478    22495 
   22491    22505    22553    22638    22746    22808    22792    22767 
   22777    22792    22820    22890    22959    22978    22978    22972 
   22939    22902    22935    23009    23031    22989    22936    22877 
   22778    22671    22605    22569    22539    22482    22358    22194 
   22083    22048    22036    22025    22014    22003    22018    22091 
   22222    22393    22594    22800    22947    22979    22912    22796 
   22661    22546    22478    22426    22356    22299    22265    22248 
   22252    22269    22277    22293    22334    22384    22428    22489 
   22593    22723    22794    22777    22721    22651    22567    22466 
   22331    22179    22075    22046    22095    22216    22349    22405 
   22358    22243    22114    22013    21959    21926    21884    21848 
   21847    21868    21903    21971    22064    22138    22188    22227 
   22261    22303    22357    22416    22491    22558    22574    22543 
   22523    22528    22531    22519    22480    22408    22316    22222 
   22125    22036    21990    21990    22002    22000    21978    21942 
   21918    21922    21944    21956    21933    21874    21778    21641 
   21501    21405    21362    21382    21456    21525    21579    21671 
   21798    21902    21968    22007    22026    22049    22113    22230 
   22354    22451    22557    22675    22766    22794    22762    22712 
   22712    22782    22859    22877    22878    22916    22960    22979 
   22977    22967    22962    22943    22901    22860    22839    22828 
   22823    22798    22728    22636    22565    22524    22503    22474 
   22435    22415    22418    22408    22369    22318    22256    22204 
   22225    22350    22527    22674    22743    22747    22723    22682 
   22634    22586    22535    22491    22450    22385    22310    22266 
   22266    22303    22349    22370    22357    22297    22199    22090 
   21975    21847    21728    21649    21618    21604    21579    21559 
   21564    21610    21666    21668    21616    21554    21529    21555 
   21606    21666    21730    21806    21884    21941    21973    22019 
   22094    22156    22176    22157    22125    22117    22133    22125 
   22067    22011    22009    22037    22059    22049    22009    21969 
   21957    21948    21937    21926    21921    21955    22059    22211 
   22360    22486    22608    22727    22796    22789    22751    22743 
   22767    22812    22864    22891    22889    22883    22874    22859 
   22851    22874    22931    22981    23008    23035    23058    23085 
   23141    23188    23178    23113    23032    22940    22825    22721 
   22677    22684    22688    22640    22551    22482    22458    22423 
   22351    22295    22279    22245    22158    22045    21918    21771 
   21643    21585    21586    21622    21674    21685    21606    21498 
   21421    21324    21180    21046    20957    20904    20893    20933 
   21019    21161    21363    21566    21714    21825    21918    21986 
   22034    22106    22219    22362    22504    22601    22640    22654 
   22650    22590    22492    22427    22416    22423    22453    22513 
   22572    22601    22608    22597    22566    22530    22504    22492 
   22480    22469    22482    22513    22542    22562    22578    22586 
   22581    22554    22500    22437    22388    22361    22351    22362 
   22410    22507    22620    22715    22801    22891    22966    23013 
   23032    23031    23018    23026    23074    23144    23206    23259 
   23318    23376    23383    23294    23118    22914    22734    22608 
   22554    22542    22535    22538    22538    22513    22465    22388 
   22276    22126    21932    21718    21543    21444    21421    21455 
   21514    21570    21606    21622    21622    21624    21636    21656 
   21695    21747    21797    21829    21833    21798    21729    21643 
   21563    21510    21494    21490    21483    21471    21452    21429 
   21420    21431    21465    21536    21649    21771    21870    21960 
   22060    22156    22231    22288    22329    22368    22434    22503 
   22542    22550    22536    22476    22354    22212    22098    22029 
   22018    22087    22202    22299    22353    22387    22410    22405 
   22354    22265    22199    22200    22260    22369    22524    22709 
   22894    23044    23124    23120    23044    22940    22846    22767 
   22717    22720    22761    22813    22867    22898    22882    22840 
   22793    22724    22632    22559    22527    22520    22532    22565 
   22590    22586    22566    22524    22438    22341    22287    22285 
   22323    22370    22395    22380    22349    22329    22323    22322 
   22339    22389    22449    22499    22534    22540    22527    22527 
   22565    22643    22750    22854    22920    22948    22939    22866 
   22738    22613    22531    22485    22474    22499    22536    22562 
   22549    22493    22427    22378    22326    22229    22113    22017 
   21924    21811    21694    21587    21504    21450    21411    21370 
   21327    21285    21259    21282    21367    21493    21628    21756 
   21876    21994    22111    22196    22219    22192    22133    22042 
   21940    21859    21840    21903    22022    22153    22287    22412 
   22499    22538    22534    22485    22423    22381    22361    22356 
   22373    22415    22461    22492    22495    22466    22424    22405 
   22416    22432    22438    22435    22423    22408    22404    22401 
   22362    22257    22114    21967    21818    21699    21664    21721 
   21818    21929    22059    22192    22273    22288    22235    22084 
   21849    21641    21546    21537    21575    21668    21825    22021 
   22218    22373    22450    22462    22451    22439    22412    22381 
   22387    22439    22515    22582    22630    22662    22697    22724 
   22725    22715    22704    22704    22725    22739    22707    22632 
   22555    22497    22447    22389    22306    22208    22129    22075 
   22037    22011    22002    22038    22113    22168    22180    22171 
   22156    22161    22195    22242    22300    22376    22469    22555 
   22611    22655    22734    22840    22937    23025    23105    23156 
   23168    23143    23083    23016    22974    22983    23025    23064 
   23090    23089    23033    22935    22817    22681    22558    22497 
   22488    22480    22449    22381    22276    22153    22006    21826 
   21636    21471    21346    21255    21203    21204    21269    21379 
   21509    21643    21772    21888    21979    22044    22103    22160 
   22183    22167    22148    22140    22137    22149    22181    22231 
   22289    22341    22383    22422    22454    22468    22473    22484 
   22505    22528    22535    22507    22446    22361    22243    22111 
   22007    21978    22033    22135    22260    22384    22485    22547 
   22572    22562    22531    22499    22470    22437    22399    22383 
   22385    22399    22441    22500    22532    22519    22491    22472 
   22441    22389    22345    22320    22315    22338    22376    22388 
   22381    22397    22423    22422    22391    22341    22283    22249 
   22268    22315    22334    22324    22326    22323    22258    22130 
   21990    21870    21784    21760    21799    21870    21960    22063 
   22156    22206    22214    22212    22215    22210    22210    22230 
   22254    22280    22312    22343    22381    22437    22491    22520 
   22538    22565    22593    22609    22609    22573    22491    22392 
   22320    22289    22284    22269    22203    22076    21922    21774 
   21637    21537    21493    21513    21581    21651    21678    21664 
   21640    21631    21629    21614    21594    21595    21635    21689 
   21720    21741    21802    21909    22017    22111    22194    22243 
   22268    22289    22306    22334    22403    22493    22570    22628 
   22681    22736    22788    22829    22859    22864    22839    22796 
   22746    22677    22593    22538    22536    22572    22613    22636 
   22631    22608    22572    22516    22438    22333    22202    22073 
   21964    21874    21803    21771    21775    21783    21767    21740 
   21759    21830    21905    21951    21980    22014    22069    22146 
   22230    22306    22358    22385    22401    22419    22434    22459 
   22501    22551    22611    22685    22761    22812    22839    22844 
   22808    22734    22663    22608    22543    22465    22397    22350 
   22327    22337    22365    22366    22320    22256    22185    22123 
   22107    22148    22234    22372    22535    22684    22819    22962 
   23086    23147    23141    23107    23078    23079    23122    23171 
   23190    23210    23253    23275    23236    23159    23062    22940 
