Origin Time       2025/06/03 22:18:00
Lat.              41.7
Long.             143.6
Depth. (km)       30
Mag.              5.2
Station Code      HKD091
Station Lat.      42.8088
Station Long.     143.6590
Station Height(m) 16
Record Time       2025/06/03 22:19:03
Sampling Freq(Hz) 100Hz
Duration Time(s)  76
Dir.              U-D
Scale Factor      7845(gal)/8223790
Max. Acc. (gal)   3.973
Last Correction   2025/06/03 22:19:04
Memo.             
[...]
   -8700    -8896    -9057    -9239    -9418    -9547    -9547    -9329 
   -8899    -8382    -7921    -7588    -7384    -7267    -7182    -7132 
   -7203    -7469    -7878    -8289    -8575    -8702    -8716    -8699 
   -8726    -8795    -8784    -8567    -8179    -7815    -7655    -7719 
   -7851    -7915    -7925    -7978    -8120    -8328    -8529    -8623 
   -8532    -8255    -7885    -7537    -7310    -7218    -7188    -7144 
   -7130    -7273    -7616    -8066    -8449    -8631    -8613    -8515 
   -8438    -8407    -8395    -8360    -8294    -8241    -8251    -8320 
   -8355    -8290    -8176    -8104    -8112    -8198    -8355    -8536 
   -8661    -8692    -8652    -8584    -8532    -8510    -8484    -8390 
   -8209    -7996    -7793    -7605    -7457    -7393    -7437    -7547 
   -7682    -7843    -8054    -8284    -8469    -8580    -8654    -8758 
   -8897    -9003    -9007    -8885    -8698    -8553    -8492    -8426 
   -8220    -7858    -7492    -7288    -7284    -7412    -7620    -7886 
   -8183    -8479    -8768    -9015    -9146    -9084    -8779    -8280 
   -7762    -7388    -7171    -7033    -6917    -6816    -6775    -6851 
   -7042    -7295    -7549    -7754    -7919    -8121    -8421    -8784 
   -9131    -9398    -9562    -9614    -9558    -9400    -9143    -8772 
   -8290    -7784    -7371    -7111    -7032    -7134    -7356    -7584 
   -7778    -7973    -8195    -8426    -8631    -8779    -8874    -8954 
   -9024    -9013    -8827    -8473    -8060    -7689    -7400    -7210 
   -7138    -7206    -7399    -7665    -7952    -8256    -8572    -8851 
   -9034    -9107    -9121    -9136    -9117    -8992    -8761    -8479 
   -8181    -7877    -7574    -7299    -7087    -6997    -7091    -7371 
   -7742    -8117    -8451    -8699    -8826    -8843    -8765    -8580 
   -8313    -8029    -7790    -7608    -7438    -7222    -6994    -6866 
   -6939    -7210    -7576    -7919    -8201    -8449    -8703    -8957 
   -9147    -9215    -9154    -9015    -8856    -8688    -8502    -8318 
   -8183    -8091    -8019    -7990    -8033    -8137    -8282    -8472 
   -8685    -8845    -8885    -8806    -8618    -8330    -7973    -7630 
   -7388    -7295    -7353    -7568    -7921    -8367    -8811    -9115 
   -9173    -9019    -8772    -8523    -8298    -8058    -7759    -7449 
   -7248    -7241    -7389    -7587    -7757    -7909    -8098    -8329 
   -8538    -8634    -8565    -8361    -8129    -7979    -7943    -7950 
   -7894    -7742    -7547    -7381    -7304    -7373    -7584    -7882 
   -8209    -8515    -8760    -8900    -8927    -8847    -8649    -8338 
   -8005    -7769    -7684    -7723    -7850    -8036    -8240    -8429 
   -8595    -8742    -8829    -8800    -8654    -8440    -8217    -8024 
   -7865    -7735    -7620    -7510    -7457    -7541    -7762    -8059 
   -8360    -8596    -8731    -8758    -8700    -8586    -8441    -8286 
   -8143    -8031    -7965    -7960    -8001    -8041    -8055    -8041 
   -8000    -7952    -7929    -7928    -7913    -7847    -7742    -7654 
   -7620    -7651    -7755    -7919    -8079    -8189    -8264    -8349 
   -8469    -8621    -8766    -8846    -8811    -8661    -8461    -8302 
   -8233    -8228    -8240    -8259    -8291    -8326    -8364    -8414 
   -8453    -8455    -8415    -8353    -8252    -8073    -7812    -7534 
   -7317    -7215    -7237    -7342    -7470    -7568    -7620    -7655 
   -7712    -7817    -7974    -8191    -8449    -8694    -8889    -9042 
   -9159    -9252    -9321    -9351    -9321    -9229    -9065    -8814 
   -8496    -8158    -7828    -7554    -7393    -7342    -7352    -7402 
   -7515    -7696    -7906    -8095    -8217    -8248    -8214    -8155 
   -8086    -8012    -7946    -7885    -7821    -7749    -7634    -7483 
   -7388    -7435    -7597    -7805    -8029    -8271    -8542    -8827 
   -9069    -9205    -9213    -9112    -8928    -8711    -8502    -8316 
   -8147    -8002    -7885    -7797    -7750    -7736    -7723    -7685 
   -7654    -7678    -7765    -7867    -7924    -7933    -7950    -8016 
   -8129    -8278    -8449    -8599    -8694    -8742    -8757    -8721 
   -8613    -8449    -8280    -8148    -8048    -7958    -7890    -7879 
   -7927    -8019    -8158    -8334    -8523    -8699    -8829    -8870 
   -8785    -8583    -8317    -8041    -7765    -7485    -7219    -7003 
   -6852    -6782    -6813    -6968    -7252    -7631    -8044    -8445 
   -8818    -9144    -9378    -9463    -9389    -9196    -8947    -8710 
   -8519    -8372    -8267    -8210    -8194    -8212    -8264    -8367 
   -8510    -8650    -8739    -8757    -8725    -8698    -8680    -8629 
   -8494    -8276    -8039    -7836    -7673    -7534    -7426    -7362 
   -7360    -7420    -7504    -7553    -7553    -7524    -7500    -7507 
   -7541    -7568    -7582    -7616    -7690    -7796    -7909    -7989 
   -8013    -8025    -8075    -8166    -8282    -8426    -8587    -8727 
   -8796    -8768    -8683    -8603    -8549    -8507    -8472    -8451 
   -8461    -8510    -8576    -8615    -8595    -8529    -8452    -8371 
   -8276    -8176    -8081    -8000    -7942    -7890    -7827    -7781 
   -7794    -7854    -7917    -7966    -7987    -7965    -7901    -7812 
   -7708    -7599    -7508    -7487    -7580    -7776    -8028    -8301 
   -8549    -8753    -8926    -9046    -9049    -8924    -8718    -8464 
   -8175    -7879    -7646    -7522    -7497    -7527    -7569    -7624 
   -7720    -7857    -8017    -8206    -8424    -8638    -8804    -8900 
   -8955    -9001    -9022    -8984    -8845    -8590    -8257    -7908 
   -7591    -7376    -7312    -7403    -7599    -7817    -8005    -8174 
   -8336    -8461    -8518    -8496    -8414    -8318    -8239    -8154 
   -8036    -7900    -7782    -7703    -7653    -7631    -7659    -7757 
   -7913    -8095    -8270    -8438    -8623    -8789    -8858    -8811 
   -8707    -8594    -8488    -8388    -8287    -8190    -8110    -8035 
   -7962    -7920    -7920    -7944    -7982    -8056    -8170    -8256 
   -8252    -8195    -8155    -8136    -8100    -8048    -8016    -8020 
   -8063    -8139    -8216    -8249    -8226    -8208    -8268    -8392 
   -8494    -8507    -8449    -8375    -8295    -8183    -8027    -7852 
   -7705    -7623    -7604    -7604    -7607    -7665    -7821    -8060 
   -8309    -8484    -8545    -8490    -8359    -8210    -8066    -7938 
   -7886    -7962    -8125    -8298    -8426    -8494    -8510    -8499 
   -8486    -8483    -8456    -8363    -8222    -8093    -7986    -7892 
   -7825    -7803    -7800    -7794    -7816    -7892    -7989    -8063 
   -8106    -8144    -8198    -8249    -8279    -8276    -8249    -8253 
   -8352    -8545    -8738    -8837    -8834    -8787    -8716    -8604 
   -8457    -8314    -8194    -8105    -8039    -7971    -7877    -7757 
   -7628    -7504    -7373    -7241    -7172    -7221    -7362    -7533 
   -7727    -7985    -8268    -8483    -8565    -8529    -8463    -8452 
   -8490    -8527    -8538    -8521    -8490    -8464    -8425    -8328 
   -8187    -8090    -8093    -8166    -8257    -8345    -8411    -8441 
   -8453    -8465    -8445    -8363    -8233    -8085    -7954    -7881 
   -7870    -7896    -7936    -7975    -7993    -8008    -8063    -8166 
   -8247    -8233    -8133    -8025    -8000    -8101    -8284    -8448 
   -8522    -8505    -8426    -8333    -8221    -8046    -7789    -7500 
   -7271    -7194    -7267    -7412    -7569    -7707    -7824    -7971 
   -8199    -8502    -8793    -8966    -8973    -8885    -8785    -8688 
   -8560    -8367    -8122    -7897    -7761    -7736    -7801    -7919 
   -8054    -8149    -8170    -8148    -8156    -8221    -8310    -8424 
   -8561    -8681    -8764    -8812    -8807    -8735    -8608    -8455 
   -8311    -8237    -8253    -8291    -8263    -8139    -7932    -7668 
   -7381    -7099    -6837    -6639    -6565    -6656    -6893    -7190 
   -7479    -7780    -8151    -8554    -8869    -9043    -9124    -9150 
   -9135    -9093    -9016    -8877    -8685    -8505    -8387    -8343 
   -8357    -8402    -8479    -8592    -8741    -8905    -9022    -8984 
   -8775    -8490    -8229    -8032    -7875    -7717    -7541    -7391 
   -7317    -7321    -7377    -7495    -7662    -7803    -7855    -7862 
   -7890    -7963    -8051    -8091    -8056    -7979    -7909    -7869 
   -7855    -7863    -7900    -7985    -8154    -8415    -8700    -8931 
   -9076    -9107    -9034    -8918    -8808    -8704    -8583    -8424 
   -8217    -7987    -7798    -7703    -7709    -7819    -8046    -8370 
   -8691    -8893    -8923    -8784    -8518    -8186    -7824    -7470 
   -7175    -6974    -6883    -6918    -7063    -7271    -7530    -7825 
   -8109    -8338    -8494    -8579    -8614    -8607    -8518    -8334 
   -8137    -8031    -8019    -8029    -8029    -8037    -8063    -8110 
   -8186    -8286    -8398    -8494    -8533    -8511    -8457    -8380 
   -8270    -8162    -8114    -8100    -8048    -7969    -7916    -7927 
   -7994    -8070    -8114    -8129    -8127    -8105    -8041    -7904 
   -7719    -7561    -7458    -7388    -7372    -7489    -7813    -8311 
   -8816    -9150    -9242    -9140    -8923    -8667    -8446    -8309 
   -8243    -8216    -8210    -8208    -8218    -8271    -8364    -8464 
   -8557    -8638    -8681    -8648    -8533    -8368    -8176    -7989 
   -7847    -7767    -7743    -7763    -7817    -7897    -7958    -7993 
   -8064    -8197    -8355    -8499    -8579    -8548    -8406    -8199 
   -7978    -7785    -7659    -7647    -7754    -7929    -8097    -8210 
   -8276    -8336    -8403    -8456    -8464    -8403    -8278    -8118 
   -7989    -7940    -7939    -7897    -7782    -7630    -7500    -7439 
   -7452    -7508    -7611    -7794    -8025    -8236    -8402    -8533 
   -8613    -8613    -8509    -8314    -8101    -7942    -7840    -7797 
   -7831    -7933    -8064    -8210    -8367    -8507    -8596    -8625 
   -8617    -8599    -8595    -8641    -8749    -8845    -8830    -8687 
   -8495    -8347    -8259    -8205    -8168    -8148    -8147    -8171 
   -8212    -8249    -8266    -8236    -8144    -7986    -7771    -7537 
   -7348    -7246    -7230    -7291    -7437    -7657    -7923    -8209 
   -8491    -8730    -8888    -8961    -8965    -8895    -8749    -8552 
   -8368    -8299    -8411    -8648    -8910    -9153    -9362    -9536 
   -9678    -9736    -9656    -9452    -9180    -8884    -8575    -8213 
   -7790    -7377    -7074    -6925    -6928    -7072    -7335    -7597 
   -7689    -7599    -7425    -7183    -6906    -6652    -6378    -6089 
   -5877    -5764    -5748    -5842    -6041    -6296    -6540    -6758 
   -6960    -7153    -7346    -7527    -7674    -7827    -8039    -8316 
   -8607    -8854    -9050    -9242    -9454    -9687    -9911   -10064 
  -10103   -10077   -10075   -10141   -10287   -10458   -10531   -10474 
  -10359   -10204    -9983    -9725    -9477    -9251    -9042    -8829 
   -8591    -8334    -8085    -7847    -7608    -7379    -7200    -7083 
   -7003    -6951    -6918    -6867    -6777    -6685    -6615    -6571 
   -6567    -6624    -6762    -7013    -7357    -7700    -7944    -8063 
   -8078    -8025    -7948    -7884    -7825    -7774    -7770    -7850 
   -8004    -8194    -8376    -8505    -8579    -8645    -8718    -8748 
   -8685    -8507    -8221    -7865    -7461    -7042    -6694    -6502 
   -6511    -6756    -7203    -7697    -8121    -8488    -8842    -9193 
   -9531    -9788    -9888    -9811    -9575    -9205    -8802    -8491 
   -8326    -8318    -8509    -8900    -9402    -9915   -10390   -10794 
  -11097   -11268   -11287   -11136   -10789   -10239    -9521    -8687 
   -7813    -6979    -6239    -5665    -5306    -5144    -5125    -5198 
   -5341    -5540    -5769    -6011    -6253    -6458    -6589    -6674 
   -6768    -6913    -7140    -7449    -7773    -8055    -8309    -8557 
   -8758    -8837    -8779    -8660    -8540    -8426    -8349    -8360 
   -8424    -8438    -8360    -8198    -7967    -7716    -7511    -7400 
   -7418    -7576    -7867    -8268    -8731    -9182    -9533    -9707 
   -9660    -9436    -9177    -8992    -8904    -8927    -9067    -9278 
   -9485    -9641    -9774    -9918   -10052   -10170   -10276   -10301 
  -10183    -9898    -9450    -8845    -8102    -7296    -6540    -5930 
   -5530    -5329    -5262    -5310    -5474    -5714    -5979    -6246 
   -6504    -6731    -6941    -7184    -7510    -7948    -8469    -8964 
   -9362    -9683    -9952   -10152   -10264   -10284   -10203   -10011 
   -9730    -9385    -8992    -8556    -8079    -7562    -6999    -6407 
   -5834    -5364    -5076    -4985    -5054    -5231    -5462    -5751 
   -6153    -6674    -7236    -7770    -8294    -8854    -9432    -9936 
  -10296   -10512   -10631   -10710   -10781   -10827   -10856   -10894 
  -10906   -10798   -10497   -10037    -9532    -9070    -8660    -8287 
   -7946    -7605    -7241    -6849    -6443    -6077    -5856    -5822 
   -5961    -6242    -6640    -7137    -7693    -8241    -8685    -8941 
   -8992    -8899    -8742    -8583    -8442    -8290    -8079    -7825 
   -7603    -7464    -7449    -7564    -7755    -7997    -8314    -8681 
   -9009    -9254    -9432    -9532    -9499    -9274    -8815    -8143 
   -7338    -6500    -5748    -5204    -4908    -4849    -5031    -5416 
   -5888    -6342    -6728    -7036    -7292    -7535    -7808    -8163 
   -8595    -9038    -9468    -9890   -10276   -10633   -11009   -11394 
  -11724   -11962   -12127   -12248   -12322   -12294   -12090   -11672 
  -11040   -10253    -9429    -8644    -7888    -7152    -6474    -5886 
   -5387    -4986    -4677    -4437    -4282    -4278    -4457    -4827 
   -5400    -6164    -7061    -8010    -8915    -9680   -10242   -10577 
  -10674   -10548   -10281    -9967    -9634    -9265    -8839    -8360 
   -7834    -7245    -6623    -6042    -5559    -5186    -4923    -4774 
   -4787    -4989    -5362    -5865    -6466    -7101    -7704    -8275 
   -8851    -9432    -9954   -10357   -10644   -10854   -10968   -10987 
  -10966   -10905   -10746   -10497   -10212    -9891    -9490    -8993 
   -8437    -7850    -7264    -6735    -6303    -6010    -5883    -5883 
   -5946    -6054    -6234    -6515    -6901    -7371    -7857    -8284 
   -8617    -8858    -9058    -9271    -9518    -9774   -10011   -10226 
  -10397   -10469   -10389   -10154    -9799    -9373    -8912    -8440 
   -7965    -7473    -6974    -6539    -6246    -6100    -6065    -6118 
   -6255    -6477    -6740    -6983    -7203    -7430    -7685    -7979 
   -8313    -8665    -9027    -9387    -9695    -9875    -9906    -9834 
   -9695    -9486    -9197    -8845    -8451    -8047    -7665    -7294 
   -6899    -6481    -6110    -5906    -5935    -6181    -6559    -6968 
   -7358    -7707    -7960    -8118    -8248    -8378    -8490    -8573 
   -8650    -8768    -8908    -8984    -8974    -8903    -8758    -8554 
   -8387    -8328    -8348    -8370    -8371    -8375    -8394    -8441 
   -8523    -8630    -8749    -8872    -9005    -9143    -9267    -9371 
   -9443    -9493    -9499    -9398    -9162    -8826    -8394    -7885 
   -7360    -6876    -6453    -6135    -6000    -6053    -6250    -6562 
   -6953    -7385    -7812    -8149    -8326    -8348    -8260    -8093 
   -7890    -7708    -7561    -7431    -7329    -7306    -7389    -7574 
   -7828    -8095    -8332    -8560    -8806    -9035    -9200    -9309 
   -9382    -9402    -9367    -9328    -9288    -9202    -9063    -8888 
   -8692    -8496    -8317    -8147    -7962    -7711    -7365    -6972 
   -6601    -6299    -6119    -6088    -6212    -6489    -6886    -7342 
   -7790    -8194    -8573    -8942    -9271    -9553    -9817   -10069 
  -10282   -10407   -10423   -10365   -10249   -10088    -9914    -9753 
   -9605    -9454    -9309    -9162    -8974    -8731    -8424    -8006 
   -7473    -6897    -6362    -5927    -5610    -5402    -5320    -5385 
   -5566    -5818    -6133    -6480    -6804    -7087    -7372    -7672 
   -7978    -8279    -8573    -8864    -9127    -9323    -9435    -9495 
   -9544    -9582    -9578    -9504    -9382    -9252    -9081    -8776 
   -8274    -7596    -6849    -6149    -5591    -5263    -5200    -5360 
   -5692    -6173    -6787    -7483    -8191    -8877    -9505   -10003 
  -10304   -10401   -10381   -10327   -10246   -10129   -10000    -9886 
   -9768    -9605    -9377    -9088    -8773    -8498    -8287    -8110 
   -7959    -7816    -7650    -7484    -7354    -7222    -7045    -6845 
   -6696    -6674    -6822    -7137    -7558    -8019    -8453    -8796 
   -8996    -9038    -8938    -8719    -8411    -8056    -7681    -7319 
   -7021    -6829    -6754    -6760    -6798    -6858    -6976    -7183 
   -7457    -7757    -8060    -8379    -8715    -9019    -9238    -9391 
   -9513    -9603    -9666    -9682    -9637    -9560    -9462    -9321 
   -9121    -8823    -8418    -7975    -7582    -7299    -7121    -7002 
   -6909    -6859    -6898    -7037    -7245    -7508    -7820    -8147 
   -8430    -8629    -8752    -8857    -8995    -9178    -9397    -9632 
   -9833    -9940    -9946    -9856    -9657    -9354    -8974    -8552 
   -8124    -7740    -7410    -7087    -6766    -6488    -6268    -6122 
   -6083    -6134    -6235    -6367    -6527    -6725    -6982    -7288 
   -7600    -7888    -8162    -8440    -8726    -9026    -9335    -9612 
   -9809    -9890    -9856    -9753    -9613    -9420    -9159    -8838 
   -8478    -8133    -7874    -7690    -7539    -7427    -7369    -7379 
   -7483    -7653    -7815    -7904    -7889    -7792    -7628    -7392 
   -7144    -6945    -6810    -6772    -6843    -7006    -7269    -7614 
   -7970    -8275    -8488    -8621    -8749    -8939    -9194    -9493 
   -9813   -10126   -10395   -10592   -10706   -10758   -10756   -10690 
  -10546   -10316   -10021    -9684    -9324    -8951    -8571    -8172 
   -7739    -7271    -6770    -6254    -5782    -5397    -5101    -4877 
   -4730    -4676    -4726    -4893    -5166    -5513    -5902    -6301 
   -6708    -7153    -7645    -8172    -8727    -9282    -9821   -10338 
  -10793   -11125   -11291   -11299   -11165   -10906   -10550   -10107 
   -9605    -9094    -8613    -8175    -7794    -7474    -7195    -6941 
   -6728    -6546    -6353    -6142    -5961    -5850    -5819    -5860 
   -5941    -6048    -6219    -6458    -6739    -7101    -7557    -8029 
   -8463    -8850    -9185    -9485    -9769   -10017   -10200   -10291 
  -10280   -10233   -10207   -10226   -10291   -10363   -10393   -10373 
  -10347   -10328   -10258   -10096    -9833    -9489    -9134    -8823 
   -8540    -8221    -7842    -7429    -7014    -6613    -6238    -5884 
   -5566    -5340    -5243    -5265    -5366    -5506    -5679    -5907 
   -6180    -6451    -6704    -6960    -7231    -7501    -7761    -8025 
   -8325    -8671    -9035    -9370    -9644    -9842    -9956    -9984 
   -9917    -9753    -9537    -9327    -9134    -8928    -8698    -8445 
   -8185    -7931    -7695    -7477    -7288    -7118    -6956    -6812 
   -6710    -6673    -6708    -6783    -6863    -6945    -7052    -7215 
   -7487    -7863    -8259    -8610    -8935    -9301    -9694   -10011 
  -10230   -10380   -10454   -10484   -10489   -10443   -10334   -10180 
  -10006    -9780    -9455    -9043    -8602    -8193    -7832    -7510 
