Origin Time       2025/06/03 22:18:00
Lat.              41.7
Long.             143.6
Depth. (km)       30
Mag.              5.2
Station Code      HKD091
Station Lat.      42.8088
Station Long.     143.6590
Station Height(m) 16
Record Time       2025/06/03 22:19:03
Sampling Freq(Hz) 100Hz
Duration Time(s)  76
Dir.              N-S
Scale Factor      7845(gal)/8223790
Max. Acc. (gal)   10.520
Last Correction   2025/06/03 22:19:04
Memo.             
[...]
    1829     1876     1852     1779     1718     1714     1773     1902 
    2079     2258     2392     2431     2365     2242     2120     2041 
    2041     2126     2263     2397     2470     2448     2334     2139 
    1892     1632     1402     1242     1179     1233     1398     1653 
    1957     2255     2490     2614     2617     2517     2327     2076 
    1829     1663     1622     1692     1818     1937     2012     2038 
    2042     2052     2069     2076     2066     2062     2080     2127 
    2212     2331     2446     2505     2478     2388     2278     2177 
    2110     2107     2176     2303     2457     2586     2648     2639 
    2582     2502     2381     2195     1966     1740     1532     1351 
    1227     1186     1255     1424     1637     1826     1952     2010 
    2020     2015     2035     2103     2204     2297     2331     2268 
    2106     1892     1682     1521     1460     1543     1777     2123 
    2489     2775     2921     2922     2813     2635     2413     2170 
    1938     1759     1653     1615     1626     1655     1680     1696 
    1715     1767     1868     2000     2127     2228     2299     2344 
    2376     2386     2361     2297     2207     2089     1964     1864 
    1807     1792     1822     1903     2025     2153     2257     2303 
    2277     2199     2096     1992     1900     1838     1827     1887 
    2019     2188     2326     2385     2359     2262     2134     2012 
    1927     1888     1884     1906     1960     2031     2064     2008 
    1856     1630     1372     1109      874      710      643      673 
     791      972     1188     1420     1642     1849     2058     2282 
    2502     2700     2878     3052     3229     3391     3510     3577 
    3596     3547     3418     3213     2959     2697     2463     2292 
    2212     2211     2251     2303     2334     2304     2185     1980 
    1721     1466     1293     1248     1316     1452     1637     1858 
    2091     2285     2390     2390     2286     2097     1872     1667 
    1536     1499     1545     1659     1827     2015     2184     2296 
    2320     2238     2052     1792     1517     1266     1062      930 
     896      976     1154     1406     1702     1989     2211     2338 
    2380     2355     2305     2269     2269     2326     2431     2539 
    2589     2535     2390     2201     2019     1868     1749     1669 
    1636     1645     1684     1734     1798     1892     2016     2164 
    2315     2439     2512     2524     2489     2438     2416     2458 
    2577     2767     2995     3233     3464     3659     3766     3731 
    3531     3194     2774     2331     1912     1547     1247     1016 
     851      747      719      772      892     1042     1186     1304 
    1391     1453     1491     1514     1551     1614     1674     1699 
    1694     1674     1653     1630     1607     1614     1679     1807 
    1976     2146     2293     2394     2420     2330     2123     1868 
    1657     1540     1514     1544     1602     1683     1802     1981 
    2231     2521     2821     3091     3284     3375     3358     3234 
    3010     2709     2367     2046     1815     1711     1733     1852 
    2019     2177     2263     2236     2110     1958     1857     1845 
    1946     2147     2378     2559     2658     2670     2605     2494 
    2382     2295     2247     2245     2285     2349     2392     2376 
    2289     2153     2011     1890     1767     1618     1451     1273 
    1101      967      903      938     1096     1370     1692     1981 
    2180     2272     2265     2195     2103     2016     1942     1879 
    1841     1849     1895     1942     1948     1896     1821     1772 
    1804     1934     2135     2350     2505     2547     2481     2353 
    2205     2077     1992     1937     1864     1742     1593     1468 
    1422     1476     1621     1831     2079     2332     2566     2755 
    2864     2887     2856     2805     2760     2744     2749     2763 
    2767     2737     2651     2506     2326     2137     1969     1834 
    1741     1695     1678     1659     1610     1520     1405     1300 
    1233     1219     1244     1300     1368     1425     1449     1452 
    1475     1556     1701     1895     2138     2420     2720     3010 
    3260     3437     3523     3510     3391     3180     2922     2671 
    2473     2346     2288     2278     2277     2242     2145     1988 
    1807     1659     1580     1567     1595     1625     1625     1579 
    1480     1332     1152      970      808      684      606      591 
     664      828     1062     1332     1601     1838     2037     2207 
    2361     2511     2660     2797     2887     2903     2856     2776 
    2706     2682     2725     2812     2893     2928     2894     2794 
    2658     2512     2362     2203     2015     1796     1582     1410 
    1291     1220     1181     1152     1125     1112     1142     1242 
    1425     1676     1965     2266     2547     2778     2947     3048 
    3092     3094     3068     3011     2910     2747     2515     2235 
    1965     1769     1691     1733     1860     2022     2173     2278 
    2316     2296     2259     2242     2241     2238     2216     2168 
    2115     2085     2093     2137     2197     2246     2246     2166 
    2015     1822     1615     1417     1246     1124     1078     1104 
    1174     1275     1393     1506     1586     1593     1525     1425 
    1351     1345     1432     1606     1827     2030     2158     2177 
    2104     2000     1944     1988     2154     2440     2813     3183 
    3453     3558     3484     3260     2955     2656     2427     2278 
    2201     2162     2114     2038     1946     1841     1738     1661 
    1628     1653     1734     1841     1949     2038     2103     2151 
    2197     2243     2284     2316     2343     2370     2398     2416 
    2401     2330     2192     2010     1819     1663     1544     1451 
    1375     1324     1301     1296     1306     1341     1425     1568 
    1759     1952     2104     2182     2184     2137     2076     2029 
    2000     1979     1945     1894     1838     1807     1829     1899 
    1999     2096     2173     2218     2228     2208     2174     2147 
    2149     2191     2273     2382     2490     2560     2573     2538 
    2488     2448     2417     2397     2405     2461     2560     2682 
    2803     2913     2995     3029     2997     2895     2749     2585 
    2415     2238     2043     1827     1618     1432     1260     1100 
     939      774      612      477      402      417      540      757 
    1031     1316     1571     1761     1877     1953     2038     2147 
    2268     2377     2452     2488     2500     2515     2532     2543 
    2532     2492     2411     2300     2181     2080     2006     1956 
    1935     1946     1976     2015     2065     2116     2149     2154 
    2139     2112     2092     2118     2214     2374     2578     2786 
    2961     3082     3138     3130     3068     2970     2855     2729 
    2598     2474     2374     2289     2199     2104     2025     1976 
    1969     1996     2035     2081     2123     2123     2046     1884 
    1641     1337      993      642      330      108        0       13 
     125      301      508      726      934     1115     1251     1339 
    1391     1431     1490     1591     1736     1898     2047     2160 
    2249     2347     2479     2655     2875     3129     3400     3658 
    3862     3975     3991     3931     3832     3727     3632     3553 
    3472     3356     3191     2988     2766     2540     2344     2196 
    2091     2022     1976     1946     1912     1841     1702     1502 
    1279     1074      924      847      842      907     1034     1190 
    1340     1460     1563     1683     1844     2042     2266     2488 
    2655     2725     2674     2519     2307     2080     1891     1780 
    1726     1686     1628     1537     1402     1231     1063      953 
     936     1030     1215     1445     1664     1837     1968     2079 
    2182     2278     2359     2434     2513     2587     2644     2673 
    2652     2556     2374     2127     1854     1607     1424     1318 
    1286     1316     1374     1429     1455     1453     1466     1533 
    1671     1869     2093     2305     2489     2640     2775     2906 
    3033     3153     3257     3326     3349     3312     3207     3044 
    2867     2735     2679     2704     2790     2893     2955     2949 
    2876     2751     2593     2409     2204     1992     1798     1652 
    1582     1587     1649     1748     1840     1894     1902     1867 
    1795     1710     1620     1528     1433     1328     1213     1089 
     946      793      653      538      463      436      472      575 
     718      889     1074     1247     1390     1510     1621     1738 
    1868     2016     2192     2381     2555     2712     2851     2978 
    3094     3179     3208     3173     3076     2924     2744     2570 
    2417     2299     2228     2224     2282     2398     2562     2748 
    2907     2982     2945     2806     2610     2407     2232     2119 
    2074     2065     2054     2019     1964     1911     1888     1914 
    1991     2106     2228     2327     2380     2366     2274     2126 
    1971     1848     1780     1773     1818     1904     2014     2116 
    2176     2155     2050     1884     1701     1553     1485     1497 
    1567     1652     1702     1703     1674     1648     1651     1684 
    1736     1790     1830     1837     1782     1657     1498     1344 
    1231     1188     1219     1298     1399     1517     1640     1748 
    1848     1949     2049     2149     2239     2304     2353     2412 
    2496     2604     2733     2883     3064     3292     3562     3839 
    4064     4198     4218     4131     3971     3789     3635     3542 
    3491     3416     3258     2987     2601     2119     1591     1071 
     599      186     -147     -380     -503     -526     -461     -314 
     -76      245      623     1012     1366     1640     1798     1853 
    1854     1852     1885     1977     2122     2282     2404     2461 
    2452     2396     2343     2353     2465     2685     2976     3277 
    3496     3537     3352     2960     2424     1837     1316      973 
     870     1003     1301     1653     1931     2029     1896     1564 
    1115      675      383      330      517      880     1344     1831 
    2245     2519     2666     2736     2770     2805     2872     2983 
    3125     3261     3362     3412     3412     3381     3341     3296 
    3241     3173     3098     3013     2921     2836     2776     2749 
    2729     2663     2519     2292     1993     1630     1212      757 
     306      -68     -283     -280      -75      268      673     1044 
    1301     1408     1362     1179      907      622      417      368 
     499      774     1111     1425     1686     1899     2069     2205 
    2311     2369     2355     2253     2046     1759     1443     1156 
     950      858      913     1121     1456     1856     2245     2542 
    2700     2729     2667     2551     2466     2509     2717     3068 
    3496     3920     4272     4507     4604     4583     4495     4399 
    4349     4371     4479     4671     4915     5163     5362     5447 
    5368     5109     4681     4139     3565     3065     2739     2604 
    2601     2656     2724     2779     2818     2845     2849     2814 
    2728     2583     2384     2126     1799     1386      873      279 
    -332     -865    -1236    -1432    -1506    -1553    -1668    -1921 
   -2259    -2563    -2802    -2982    -3080    -3140    -3215    -3302 
   -3377    -3402    -3327    -3129    -2770    -2230    -1536     -769 
     -31      615     1144     1560     1911     2282     2754     3379 
    4166     5066     6007     6917     7724     8371     8874     9321 
    9763    10173    10521    10808    10998    11045    10922    10586 
    9967     8995     7616     5865     3952     2208      858     -120 
    -855    -1416    -1848    -2212    -2536    -2822    -3075    -3314 
   -3546    -3759    -3906    -3917    -3734    -3339    -2759    -2069 
   -1374     -792     -438     -346     -436     -581     -675     -657 
    -514     -237      174      685     1212     1626     1806     1721 
    1476     1271     1282     1601     2230     3098     4063     4959 
    5647     6048     6138     5956     5597     5169     4774     4502 
    4363     4305     4247     4112     3885     3600     3308     3069 
    2925     2891     2949     3041     3129     3213     3280     3311 
    3291     3183     2944     2573     2116     1632     1147      691 
     288      -33     -240     -268      -48      465     1254     2235 
    3281     4259     5044     5533     5656     5427     4949     4374 
    3850     3489     3323     3323     3433     3572     3670     3690 
    3627     3493     3291     3014     2647     2187     1648     1036 
     357     -357    -1063    -1696    -2180    -2478    -2596    -2560 
   -2413    -2196    -1952    -1709    -1485    -1300    -1194    -1200 
   -1304    -1475    -1709    -2000    -2315    -2590    -2748    -2694 
   -2342    -1638     -583      804     2467     4313     6214     8023 
    9575    10716    11325    11384    11002    10318     9483     8700 
    8152     7946     8075     8414     8745     8818     8448     7580 
    6265     4629     2822      986     -761    -2344    -3738    -4965 
   -6081    -7123    -8044    -8712    -8982    -8754    -7996    -6750 
   -5134    -3306    -1428      376     2019     3438     4598     5493 
    6145     6605     6918     7107     7165     7075     6831     6430 
    5868     5152     4317     3408     2455     1475      503     -402 
   -1174    -1732    -1989    -1892    -1447     -675      411     1775 
    3289     4768     6008     6845     7196     7086     6585     5788 
    4818     3809     2887     2134     1540     1040      595      199 
    -137     -403     -587     -691     -724     -716     -684     -629 
    -530     -348      -47      353      818     1305     1782     2235 
    2667     3073     3442     3771     4067     4318     4506     4617 
    4627     4488     4153     3620     2938     2172     1383      661 
     112     -206     -276     -114      236      735     1333     1975 
    2631     3260     3786     4140     4287     4214     3928     3487 
    2976     2481     2079     1806     1630     1503     1374     1193 
     963      731      552      502      643      986     1480     2073 
    2729     3419     4075     4610     4963     5113     5080     4912 
    4665     4374     4089     3867     3739     3708     3751     3839 
    3928     3960     3882     3669     3327     2872     2335     1773 
    1244      796      467      287      270      382      530      607 
     542      326       18     -290     -529     -684     -795     -939 
   -1179    -1559    -2099    -2760    -3457    -4095    -4611    -4970 
   -5146    -5097    -4781    -4202    -3404    -2451    -1405     -301 
     862     2095     3375     4654     5854     6890     7696     8225 
    8469     8491     8390     8243     8116     8060     8095     8186 
    8244     8168     7884     7349     6574     5628     4622     3694 
    2971     2501     2218     2008     1806     1601     1406     1274 
    1270     1441     1809     2346     2975     3596     4095     4367 
    4347     4031     3468     2733     1931     1148      441     -168 
    -676    -1080    -1401    -1691    -1981    -2266    -2515    -2698 
   -2795    -2789    -2675    -2481    -2236    -1975    -1726    -1516 
   -1328    -1125     -858     -490       -8      573     1217     1837 
    2339     2667     2820     2840     2805     2805     2889     3059 
    3304     3603     3908     4180     4418     4610     4746     4849 
    4941     5024     5107     5173     5196     5147     4996     4739 
    4405     4005     3568     3126     2691     2299     2012     1865 
    1877     2068     2452     3017     3703     4440     5158     5765 
    6160     6265     6048     5516     4729     3796     2845     1995 
    1304      768      359       21     -307     -650    -1003    -1355 
   -1713    -2079    -2436    -2749    -2967    -3060    -3010    -2799 
   -2435    -1949    -1381     -773     -187      333      765     1080 
    1266     1359     1412     1462     1529     1597     1656     1715 
    1779     1845     1926     2038     2191     2390     2666     3026 
    3469     4010     4625     5220     5713     6035     6119     5944 
    5562     5071     4581     4185     3947     3915     4091     4430 
    4851     5258     5526     5566     5336     4846     4168     3406 
    2659     2016     1513     1147      907      768      683      608 
     522      433      379      419      623     1032     1622     2327 
    3060     3721     4217     4492     4533     4347     3964     3419 
    2747     2008     1250      473     -326    -1147    -1972    -2758 
   -3442    -3983    -4372    -4604    -4679    -4604    -4417    -4135 
   -3742    -3192    -2474    -1621     -681      287     1220     2066 
    2789     3370     3824     4156     4368     4492     4573     4629 
    4639     4573     4403     4141     3819     3493     3242     3118 
    3144     3314     3582     3902     4243     4575     4888     5204 
    5552     5969     6454     6964     7422     7731     7809     7622 
    7159     6446     5559     4626     3746     2955     2247     1625 
    1098      675      336       55     -186     -388     -540     -626 
    -648     -606     -504     -348     -156       48      270      521 
     781     1008     1165     1209     1116      881      521       71 
    -438     -969    -1474    -1910    -2239    -2440    -2500    -2401 
   -2142    -1740    -1189     -481      349     1250     2170     3073 
    3910     4611     5140     5495     5676     5692     5583     5397 
    5193     5023     4901     4814     4726     4594     4380     4044 
    3557     2948     2285     1638     1074      650      379      249 
     257      391      638     1007     1498     2108     2837     3669 
    4584     5526     6393     7088     7539     7720     7666     7419 
    6998     6404     5661     4808     3873     2907     1971     1121 
     421     -101     -469     -693     -791     -805     -762     -672 
    -562     -459     -383     -367     -440     -629     -953    -1385 
   -1867    -2322    -2664    -2822    -2760    -2481    -2037    -1502 
    -940     -425      -20      228      284      139     -163     -530 
    -853    -1036    -1039     -842     -472      -10      481      984 
    1439     1822     2169     2490     2795     3103     3404     3680 
    3909     4085     4240     4433     4716     5143     5748     6509 
    7375     8286     9170     9957    10606    11088    11389    11496 
   11389    11063    10527     9807     8961     8089     7296     6615 
    6014     5455     4911     4357     3778     3159     2465     1663 
     743     -302    -1455    -2644    -3794    -4828    -5659    -6224 
   -6520    -6569    -6390    -6015    -5506    -4947    -4417    -3983 
   -3690    -3547    -3541    -3627    -3739    -3793    -3708    -3435 
   -2971    -2334    -1549     -670      226     1073     1817     2420 
