Origin Time       2025/06/03 22:18:00
Lat.              41.7
Long.             143.6
Depth. (km)       30
Mag.              5.2
Station Code      HKD085
Station Lat.      42.9581
Station Long.     144.0698
Station Height(m) 5
Record Time       2025/06/03 22:19:13
Sampling Freq(Hz) 100Hz
Duration Time(s)  79
Dir.              E-W
Scale Factor      7845(gal)/8223790
Max. Acc. (gal)   1.866
Last Correction   2025/06/03 22:19:14
Memo.             
[...]
     334      345      372      430      498      553      589      596 
     571      533      490      442      392      353      330      321 
     317      310      306      313      332      345      333      301 
     280      288      301      279      210      116       33      -29 
     -66      -52        9       95      175      214      211      206 
     220      241      257      270      280      298      311      311 
     318      357      410      450      469      464      442      413 
     369      306      230      170      152      172      206      226 
     233      252      297      361      437      503      535      523 
     477      411      341      287      263      260      256      233 
     202      176      163      163      166      164      160      147 
     120       99      106      140      186      226      249      263 
     274      264      233      197      170      156      155      176 
     218      259      270      247      214      187      168      171 
     201      233      255      284      345      429      492      506 
     479      454      457      475      477      476      500      534 
     550      552      556      571      592      592      557      518 
     496      495      511      527      534      535      507      427 
     306      171       56        1       24      117      249      375 
     464      500      492      464      432      402      386      395 
     419      429      411      376      345      332      340      365 
     395      418      440      471      510      556      602      623 
     594      518      418      322      265      255      253      229 
     174      114       87       98      125      143      149      162 
     175      157       95        5      -75     -112      -98      -41 
      45      157      280      406      527      634      718      769 
     788      777      727      638      527      407      295      220 
     194      199      221      247      265      275      282      288 
     297      302      301      288      271      257      248      236 
     216      183      145      116       99      103      133      195 
     297      422      534      602      608      554      471      384 
     297      213      128       41      -22      -32       12       89 
     157      199      209      176      105       14      -56      -70 
     -12      106      252      367      414      383      303      229 
     187      168      164      168      168      166      167      180 
     213      280      383      487      552      556      511      459 
     425      415      419      433      476      560      664      760 
     823      850      857      859      855      837      807      751 
     652      518      379      259      174      129      120      132 
     156      176      160       89      -20     -129     -199     -194 
    -102       54      220      333      361      314      236      174 
     151      162      205      272      351      402      384      306 
     226      193      205      255      332      407      453      464 
     445      415      398      388      376      357      336      302 
     229      109      -33     -149     -194     -155      -68       10 
      74      153      286      488      749     1015     1215     1305 
    1281     1166     1003      823      643      472      324      225 
     191      220      297      405      523      604      602      511 
     363      195       64        2        0       12      -13      -90 
    -203     -313     -363     -345     -284     -197     -101      -16 
      44       71       75       60       13      -59     -130     -178 
    -186     -145      -62       64      230      410      573      699 
     765      753      672      565      491      477      513      576 
     638      677      691      683      673      683      724      788 
     843      849      784      660      519      400      337      352 
     438      548      623      631      576      479      353      232 
     153      139      172      199      180      135       95       74 
      68       72       72       55        8      -67     -148     -197 
    -178      -75       90      271      418      496      517      518 
     546      615      707      801      862      847      749      598 
     454      369      332      305      261      187       82      -31 
    -128     -174     -144      -43       76      170      222      244 
     251      240      198      129       33      -83     -191     -259 
    -279     -267     -249     -255     -282     -307     -283     -184 
     -28      148      315      452      534      562      558      548 
     535      538      591      691      800      884      922      928 
     932      932      904      826      710      592      499      441 
     427      454      510      567      600      616      626      626 
     610      591      608      668      720      702      580      378 
     145      -67     -218     -264     -194      -49      101      221 
     309      364      388      391      391      392      400      407 
     396      363      317      279      280      336      421      483 
     467      351      153      -74     -261     -348     -336     -283 
    -233     -197     -174     -159     -143     -118      -64       22 
     110      179      224      245      270      332      432      541 
     627      669      675      681      699      695      656      596 
     526      434      317      199      126      106      103       93 
      83       87      126      205      302      410      517      596 
     622      568      429      237       51      -79     -136     -128 
     -86      -40       -1       44      125      249      419      634 
     873     1081     1232     1316     1320     1248     1136     1013 
     897      797      695      557      391      229      108       55 
      78      143      199      225      222      193      140       76 
      24       -5       -8       18       83      170      253      317 
     364      394      398      361      291      218      156       89 
      -6     -116     -199     -228     -193     -120      -60      -49 
     -95     -178     -243     -243     -159       -9      162      318 
     442      549      658      758      814      808      760      691 
     616      561      535      546      598      679      770      838 
     845      780      670      575      541      591      712      851 
     938      931      826      635      407      213      103       85 
     114      130       86      -20     -141     -216     -199      -72 
     157      429      646      746      718      592      429      268 
     102      -78     -248     -368     -422     -417     -365     -278 
    -160      -33       78      149      172      168      186      257 
     388      545      700      843      967     1047     1051      967 
     814      625      409      172      -56     -261     -432     -556 
    -612     -577     -453     -275      -82      116      321      518 
     681      783      784      672      494      324      214      189 
     247      348      438      492      515      517      500      459 
     395      330      282      265      292      349      403      432 
     433      423      413      386      334      284      292      398 
     564      696      731      645      456      220        4     -132 
    -136      -12      174      363      533      685      811      878 
     865      800      734      684      627      535      399      232 
      55     -112     -251     -340     -367     -332     -248     -128 
      32      236      442      589      639      577      407      167 
     -86     -268     -299     -167       60      283      414      441 
     414      380      359      353      346      299      175       -8 
    -202     -348     -399     -348     -222      -47      163      369 
     530      630      681      708      731      749      734      673 
     591      515      459      454      527      666      822      938 
     992     1007     1026     1062     1098     1116     1120     1120 
    1101     1043      936      791      648      535      453      382 
     302      190       33     -172     -407     -615     -749     -788 
    -750     -673     -575     -457     -342     -247     -174     -141 
    -147     -171     -195     -207     -191     -133      -45       54 
     167      279      365      411      422      415      415      442 
     491      537      583      625      645      642      626      598 
     556      510      468      437      409      369      330      310 
     321      386      495      606      699      760      783      774 
     749      706      641      567      496      438      414      436 
     495      573      646      683      676      634      561      480 
     409      333      232      108      -36     -187     -317     -405 
    -438     -426     -392     -359     -334     -309     -256     -157 
     -27      112      230      326      405      465      514      565 
     627      706      810      931     1054     1163     1231     1228 
    1135      963      749      530      314      102     -108     -306 
    -461     -541     -534     -453     -334     -222     -137      -67 
      -1       72      174      286      378      422      399      326 
     265      255      291      359      444      544      657      778 
     891      980     1047     1109     1161     1167     1111     1001 
     853      676      487      301      137       22      -44      -76 
     -67      -12       83      199      307      375      379      321 
     225      130       71       49       48       58       79      128 
     217      329      423      460      421      321      195       74 
     -24      -93     -139     -172     -207     -244     -284     -341 
    -407     -452     -449     -387     -264     -109       35      121 
     141      122      110      143      217      294      342      367 
     392      426      472      521      568      621      688      772 
     881     1030     1196     1354     1480     1545     1530     1445 
    1300     1111      907      723      588      508      467      445 
     432      407      359      290      206      105        1      -91 
    -166     -225     -276     -333     -378     -396     -384     -355 
    -333     -349     -403     -460     -487     -480     -446     -390 
    -309     -205      -78       54      168      270      379      503 
     619      699      741      764      783      789      778      738 
     660      552      423      301      225      220      261      307 
     336      356      386      418      438      440      430      422 
     432      471      544      642      754      874      982     1057 
    1086     1067     1001      889      749      610      499      409 
     305      157      -41     -279     -517     -692     -758     -697 
    -529     -294      -31      236      492      726      911     1011 
    1009      934      839      769      723      677      633      612 
     637      700      768      800      776      696      598      523 
     486      465      449      421      373      310      236      152 
      62      -28     -103     -140     -129      -98      -94     -141 
    -217     -284     -318     -321     -307     -297     -306     -338 
    -379     -406     -406     -365     -280     -172      -76       -6 
      44       83      116      149      191      245      299      336 
     357      392      465      571      677      753      781      764 
     718      679      677      712      762      807      808      747 
     637      504      391      348      391      479      561      603 
     604      580      557      562      599      650      684      670 
     616      549      473      379      259      129       25      -31 
     -45      -27       32      117      193      236      244      230 
     210      199      217      275      379      503      598      615 
     533      387      248      155      113      112      128      137 
     125       95       76      105      198      334      463      545 
     569      541      476      395      309      221      128       33 
     -43      -86     -103      -99      -59       33      171      332 
     479      577      612      587      521      452      411      413 
     438      463      465      430      346      206       27     -155 
    -298     -378     -384     -330     -236     -110       37      187 
     307      384      427      450      446      418      391      399 
     448      519      591      646      688      727      747      749 
     735      715      700      700      711      730      749      757 
     746      718      680      638      603      583      567      546 
     517      477      434      396      379      399      465      556 
     631      650      599      502      391      290      203      139 
      97       54      -20     -120     -228     -328     -406     -449 
    -442     -378     -268     -166     -113     -120     -174     -253 
    -340     -427     -517     -611     -710     -805     -889     -957 
    -994     -988     -940     -853     -735     -591     -423     -241 
     -27      233      506      746      928     1035     1084     1115 
    1151     1209     1320     1499     1721     1934     2096     2196 
    2250     2268     2247     2187     2096     1962     1784     1578 
    1344     1086      824      584      384      238      144       64 
     -25     -110     -172     -210     -236     -257     -280     -317 
    -369     -426     -469     -483     -469     -433     -382     -334 
    -302     -283     -278     -268     -237     -190     -144     -108 
     -82      -67      -79     -103     -108      -76      -28        9 
      21       14       14       43      113      213      307      371 
     395      396      392      402      418      453      523      622 
     720      801      870      939     1013     1078     1124     1158 
    1170     1132     1028      878      715      581      511      507 
     544      589      607      577      496      382      257      147 
      75       40       21       10       22       60      116      182 
     249      302      330      326      297      261      244      256 
     290      345      417      494      556      584      562      488 
     379      252      126       21      -56     -108     -126     -117 
     -90      -51       -4       45       81       81       29      -51 
    -122     -178     -229     -274     -275     -213     -114      -14 
      81      179      284      390      476      545      615      689 
     762      841      935     1038     1132     1204     1240     1248 
    1242     1221     1181     1107     1001      880      757      643 
     545      464      394      336      288      247      216      209 
     221      226      211      172      108       22      -82     -203 
    -334     -468     -602     -720     -801     -834     -823     -783 
    -722     -654     -591     -534     -483     -426     -353     -251 
    -135      -31       47       91      105       99       99      137 
     221      342      483      614      734      858      981     1098 
    1210     1298     1337     1297     1166      980      787      610 
     471      367      272      178       75      -25     -106     -152 
    -160     -144     -124     -109      -95      -86      -74      -51 
      -2       66      135      183      205      201      194      209 
     263      365      500      645      773      874      953     1024 
    1094     1159     1224     1296     1375     1455     1506     1510 
    1471     1413     1352     1285     1200     1094      973      841 
     691      518      344      187       62      -31      -91     -120 
    -114      -68       10       98      167      201      194      157 
     112       75       60       85      152      238      313      368 
     419      469      515      561      606      656      707      749 
     765      754      716      658      579      475      349      209 
      56     -110     -292     -463     -603     -718     -808     -876 
    -934     -988    -1042    -1100    -1146    -1148    -1089     -967 
    -811     -654     -515     -392     -278     -182     -114      -66 
     -21       24       56       66       54       31        8       -5 
       0       18       44       68       85       99      130      186 
     272      392      534      668      758      795      793      788 
     801      845      911      984     1050     1108     1165     1228 
    1283     1321     1339     1337     1300     1219     1090      922 
     731      554      402      259      120      -10     -136     -256 
    -357     -419     -419     -355     -237      -86       75      229 
     360      450      499      537      580      629      679      718 
     731      708      652      584      517      449      384      322 
     267      221      176      140      116      109      130      186 
     270      376      495      610      703      778      849      918 
     986     1051     1093     1092     1050      978      889      791 
     700      631      583      562      581      646      743      843 
     919      967     1007     1028     1012      950      861      765 
     669      584      526      496      480      446      375      272 
     159       56      -27      -86     -117     -124     -120     -106 
     -91      -89      -97      -97      -55       39      153      248 
     292      286      234      153       58      -58     -194     -342 
    -495     -642     -769     -861     -901     -881     -823     -757 
    -699     -654     -618     -581     -535     -473     -391     -297 
    -210     -137      -60       33      130      226      325      427 
     541      668      796      913     1001     1046     1046     1012 
     958      893      812      712      608      519      441      360 
     270      170       63      -28      -97     -141     -149     -129 
     -95      -51        4       66      116      137      149      171 
     210      275      355      421      460      472      456      427 
     405      396      415      467      544      633      724      801 
     849      857      843      828      819      810      791      765 
     735      702      662      618      583      576      584      583 
     576      564      548      537      534      540      554      556 
     518      446      361      280      230      222      248      290 
     336      378      406      422      430      425      417      410 
     400      378      333      270      198      140      110      121 
     164      217      253      248      201      128       45      -16 
     -31        4       75      167      271      386      506      627 
     741      841      924      989     1027     1040     1035     1005 
     954      893      831      766      708      664      630      596 
     548      473      383      292      207      122       36      -43 
    -106     -143     -159     -162     -144      -90       -1       91 
     164      199      191      144       68      -29     -132     -218 
