Origin Time       2025/06/03 22:18:00
Lat.              41.7
Long.             143.6
Depth. (km)       30
Mag.              5.2
Station Code      HKD097
Station Lat.      42.6181
Station Long.     143.4210
Station Height(m) 33
Record Time       2025/06/03 22:18:57
Sampling Freq(Hz) 100Hz
Duration Time(s)  65
Dir.              N-S
Scale Factor      7845(gal)/8223790
Max. Acc. (gal)   4.987
Last Correction   2025/06/03 22:18:41
Memo.             
[...]
  -14501   -14503   -14501   -14500   -14500   -14499   -14499   -14500 
  -14497   -14494   -14497   -14497   -14494   -14494   -14494   -14494 
  -14496   -14496   -14496   -14496   -14494   -14494   -14494   -14494 
  -14494   -14494   -14496   -14496   -14494   -14496   -14499   -14500 
  -14500   -14501   -14500   -14499   -14499   -14500   -14503   -14505 
  -14511   -14513   -14516   -14516   -14516   -14517   -14519   -14520 
  -14524   -14528   -14530   -14527   -14524   -14521   -14517   -14516 
  -14519   -14519   -14520   -14523   -14521   -14517   -14519   -14520 
  -14521   -14527   -14535   -14542   -14548   -14551   -14547   -14540 
  -14528   -14516   -14509   -14511   -14512   -14513   -14523   -14534 
  -14534   -14521   -14507   -14494   -14476   -14461   -14455   -14457 
  -14463   -14466   -14465   -14474   -14485   -14485   -14485   -14485 
  -14476   -14467   -14473   -14485   -14492   -14494   -14499   -14503 
  -14504   -14499   -14486   -14480   -14488   -14497   -14500   -14503 
  -14516   -14536   -14557   -14570   -14581   -14601   -14625   -14631 
  -14617   -14586   -14536   -14473   -14412   -14372   -14362   -14381 
  -14411   -14445   -14488   -14534   -14573   -14588   -14575   -14551 
  -14528   -14508   -14496   -14494   -14505   -14516   -14519   -14512 
  -14486   -14451   -14420   -14389   -14368   -14374   -14392   -14412 
  -14454   -14521   -14586   -14638   -14685   -14721   -14743   -14744 
  -14713   -14662   -14612   -14562   -14512   -14481   -14477   -14482 
  -14489   -14505   -14532   -14558   -14574   -14582   -14571   -14534 
  -14482   -14434   -14401   -14399   -14423   -14454   -14484   -14508 
  -14508   -14476   -14413   -14322   -14214   -14116   -14040   -13986 
  -13977   -14018   -14094   -14192   -14308   -14449   -14616   -14787 
  -14926   -15010   -15029   -14978   -14864   -14708   -14551   -14442 
  -14391   -14376   -14380   -14388   -14393   -14399   -14399   -14401 
  -14415   -14449   -14508   -14586   -14659   -14705   -14717   -14690 
  -14627   -14540   -14449   -14373   -14326   -14310   -14327   -14368 
  -14411   -14447   -14484   -14519   -14547   -14570   -14593   -14623 
  -14652   -14667   -14666   -14651   -14620   -14584   -14553   -14531 
  -14528   -14546   -14574   -14598   -14602   -14567   -14494   -14412 
  -14347   -14314   -14332   -14396   -14454   -14494   -14527   -14534 
  -14521   -14523   -14540   -14574   -14639   -14728   -14813   -14863 
  -14848   -14747   -14593   -14432   -14262   -14126   -14094   -14116 
  -14164   -14288   -14461   -14617   -14762   -14894   -14991   -15039 
  -15006   -14891   -14737   -14593   -14474   -14355   -14234   -14154 
  -14095   -14037   -14015   -14023   -14041   -14081   -14145   -14241 
  -14374   -14499   -14586   -14654   -14704   -14729   -14729   -14697 
  -14624   -14515   -14391   -14256   -14129   -14060   -14075   -14170 
  -14349   -14566   -14766   -14931   -15047   -15082   -15041   -14968 
  -14852   -14697   -14571   -14469   -14357   -14305   -14308   -14299 
  -14315   -14377   -14431   -14474   -14519   -14542   -14542   -14536 
  -14515   -14458   -14411   -14377   -14265   -14130   -14096   -14080 
  -14077   -14180   -14318   -14445   -14573   -14656   -14677   -14665 
  -14642   -14629   -14631   -14625   -14632   -14667   -14662   -14611 
  -14584   -14544   -14482   -14463   -14477   -14504   -14551   -14609 
  -14683   -14754   -14809   -14850   -14833   -14736   -14611   -14493 
  -14347   -14227   -14215   -14243   -14295   -14395   -14496   -14586 
  -14654   -14686   -14704   -14694   -14667   -14627   -14590   -14567 
  -14488   -14389   -14349   -14305   -14270   -14330   -14422   -14509 
  -14625   -14720   -14778   -14817   -14779   -14673   -14569   -14462 
  -14351   -14273   -14241   -14256   -14312   -14388   -14469   -14562 
  -14671   -14769   -14812   -14817   -14808   -14763   -14682   -14588 
  -14490   -14400   -14316   -14247   -14207   -14196   -14227   -14295 
  -14385   -14489   -14570   -14613   -14631   -14608   -14547   -14474 
  -14404   -14346   -14320   -14332   -14351   -14362   -14366   -14358 
  -14351   -14353   -14378   -14462   -14565   -14648   -14724   -14769 
  -14740   -14650   -14534   -14413   -14301   -14211   -14154   -14156 
  -14229   -14354   -14516   -14693   -14844   -14926   -14925   -14862 
  -14760   -14635   -14497   -14376   -14307   -14293   -14312   -14377 
  -14493   -14640   -14800   -14936   -15022   -15049   -15001   -14894 
  -14775   -14674   -14598   -14553   -14515   -14473   -14424   -14357 
  -14260   -14162   -14103   -14092   -14141   -14239   -14368   -14500 
  -14601   -14647   -14651   -14617   -14543   -14457   -14385   -14323 
  -14280   -14272   -14305   -14380   -14489   -14600   -14674   -14715 
  -14746   -14750   -14721   -14706   -14694   -14640   -14577   -14521 
  -14431   -14304   -14166   -14033   -13917   -13829   -13788   -13818 
  -13907   -14029   -14183   -14393   -14634   -14824   -14972   -15136 
  -15218   -15159   -15052   -14894   -14647   -14396   -14197   -14067 
  -14018   -14038   -14100   -14208   -14377   -14585   -14783   -14966 
  -15157   -15269   -15240   -15153   -15003   -14743   -14458   -14191 
  -13945   -13780   -13717   -13737   -13859   -14071   -14311   -14551 
  -14789   -14989   -15103   -15132   -15118   -15047   -14872   -14685 
  -14551   -14393   -14276   -14277   -14296   -14332   -14405   -14455 
  -14521   -14571   -14567   -14571   -14575   -14553   -14497   -14432 
  -14440   -14450   -14407   -14454   -14505   -14454   -14465   -14466 
  -14404   -14438   -14494   -14536   -14646   -14733   -14752   -14733 
  -14683   -14602   -14484   -14389   -14355   -14338   -14372   -14450 
  -14488   -14490   -14461   -14354   -14202   -14079   -13994   -13960 
  -14007   -14098   -14212   -14374   -14544   -14655   -14717   -14758 
  -14747   -14685   -14619   -14558   -14494   -14476   -14504   -14546 
  -14624   -14744   -14828   -14866   -14895   -14858   -14766   -14697 
  -14605   -14501   -14449   -14396   -14343   -14355   -14396   -14430 
  -14472   -14509   -14517   -14511   -14517   -14515   -14478   -14458 
  -14469   -14465   -14458   -14459   -14420   -14354   -14292   -14226 
  -14175   -14168   -14192   -14277   -14446   -14635   -14787   -14914 
  -14989   -14983   -14941   -14882   -14789   -14692   -14628   -14588 
  -14558   -14542   -14527   -14509   -14489   -14462   -14409   -14350 
  -14307   -14241   -14169   -14160   -14177   -14195   -14256   -14332 
  -14388   -14442   -14489   -14517   -14542   -14575   -14615   -14636 
  -14619   -14571   -14508   -14438   -14357   -14270   -14224   -14208 
  -14204   -14273   -14412   -14539   -14654   -14755   -14810   -14829 
  -14818   -14791   -14763   -14713   -14651   -14593   -14524   -14485 
  -14505   -14532   -14551   -14586   -14607   -14588   -14524   -14438 
  -14347   -14253   -14181   -14168   -14203   -14261   -14335   -14443 
  -14559   -14635   -14688   -14739   -14759   -14751   -14728   -14674 
  -14590   -14478   -14355   -14265   -14189   -14126   -14122   -14172 
  -14251   -14350   -14445   -14535   -14628   -14704   -14747   -14764 
  -14763   -14735   -14679   -14620   -14557   -14497   -14462   -14443 
  -14439   -14462   -14485   -14503   -14534   -14581   -14642   -14713 
  -14789   -14858   -14913   -14947   -14947   -14910   -14851   -14778 
  -14688   -14573   -14445   -14324   -14208   -14099   -14027   -14008 
  -14025   -14064   -14111   -14173   -14269   -14385   -14485   -14569 
  -14669   -14758   -14791   -14778   -14721   -14602   -14443   -14297 
  -14208   -14203   -14261   -14374   -14548   -14742   -14916   -15064 
  -15153   -15176   -15180   -15136   -14971   -14760   -14573   -14343 
  -14107   -13971   -13905   -13883   -13937   -14031   -14145   -14276 
  -14397   -14497   -14594   -14674   -14713   -14736   -14721   -14612 
  -14463   -14343   -14183   -13995   -13876   -13790   -13714   -13730 
  -13857   -14056   -14308   -14586   -14851   -15079   -15221   -15232 
  -15120   -14978   -14835   -14632   -14484   -14430   -14349   -14330 
  -14386   -14430   -14540   -14692   -14804   -14917   -14998   -15029 
  -15012   -14912   -14777   -14604   -14381   -14247   -14158   -14026 
  -14010   -14060   -14050   -14130   -14237   -14289   -14408   -14531 
  -14615   -14715   -14770   -14782   -14791   -14798   -14798   -14752 
  -14721   -14720   -14670   -14662   -14712   -14693   -14663   -14647 
  -14585   -14517   -14467   -14405   -14335   -14274   -14208   -14156 
  -14141   -14115   -14092   -14119   -14160   -14208   -14300   -14397 
  -14489   -14589   -14675   -14717   -14669   -14531   -14380   -14216 
  -14029   -13929   -13949   -14007   -14129   -14323   -14480   -14582 
  -14655   -14671   -14636   -14575   -14503   -14457   -14451   -14455 
  -14469   -14504   -14519   -14503   -14501   -14511   -14511   -14547 
  -14624   -14705   -14786   -14854   -14901   -14940   -14960   -14952 
  -14941   -14926   -14883   -14860   -14872   -14852   -14810   -14787 
  -14739   -14661   -14590   -14519   -14442   -14365   -14310   -14303 
  -14337   -14384   -14451   -14527   -14584   -14625   -14651   -14640 
  -14589   -14516   -14428   -14318   -14183   -14056   -13981   -13964 
  -13979   -14019   -14080   -14156   -14238   -14324   -14409   -14478 
  -14535   -14581   -14612   -14640   -14670   -14700   -14708   -14661 
  -14567   -14458   -14341   -14243   -14210   -14227   -14281   -14365 
  -14458   -14527   -14586   -14665   -14733   -14733   -14696   -14670 
  -14597   -14499   -14454   -14440   -14442   -14477   -14508   -14520 
  -14527   -14519   -14517   -14551   -14617   -14702   -14778   -14824 
  -14843   -14793   -14667   -14532   -14364   -14166   -14022   -13899 
  -13801   -13775   -13787   -13852   -13996   -14200   -14470   -14771 
  -15049   -15288   -15473   -15556   -15496   -15353   -15167   -14895 
  -14581   -14322   -14119   -13973   -13945   -14007   -14122   -14299 
  -14478   -14620   -14737   -14808   -14808   -14733   -14621   -14542 
  -14458   -14353   -14332   -14345   -14326   -14380   -14458   -14505 
  -14596   -14689   -14764   -14856   -14931   -14980   -15003   -14974 
  -14899   -14818   -14710   -14559   -14447   -14366   -14264   -14208 
  -14191   -14149   -14104   -14057   -14015   -13973   -13938   -13960 
  -14015   -14091   -14184   -14235   -14300   -14413   -14445   -14472 
  -14588   -14617   -14597   -14647   -14640   -14593   -14584   -14575 
  -14612   -14682   -14763   -14904   -15017   -15070   -15153   -15186 
  -15122   -15071   -15002   -14885   -14774   -14655   -14548   -14481 
  -14422   -14381   -14358   -14326   -14272   -14218   -14189   -14197 
  -14220   -14256   -14305   -14355   -14392   -14407   -14412   -14418 
  -14423   -14419   -14436   -14486   -14520   -14548   -14570   -14542 
  -14505   -14481   -14432   -14396   -14392   -14393   -14412   -14440 
  -14470   -14509   -14530   -14509   -14477   -14436   -14384   -14353 
  -14346   -14362   -14415   -14488   -14562   -14613   -14621   -14590 
  -14530   -14472   -14442   -14428   -14443   -14474   -14490   -14523 
  -14577   -14597   -14570   -14509   -14411   -14272   -14126   -14025 
  -13973   -13959   -14006   -14112   -14234   -14381   -14558   -14720 
  -14843   -14949   -15025   -15059   -15071   -15048   -14989   -14899 
  -14766   -14600   -14447   -14322   -14237   -14214   -14257   -14345 
  -14440   -14528   -14605   -14663   -14697   -14708   -14681   -14608 
  -14504   -14381   -14245   -14118   -14027   -13995   -14023   -14111 
  -14249   -14408   -14567   -14701   -14774   -14796   -14777   -14719 
  -14667   -14652   -14655   -14659   -14650   -14623   -14585   -14547 
  -14511   -14485   -14474   -14476   -14503   -14561   -14625   -14710 
  -14828   -14899   -14864   -14786   -14692   -14526   -14341   -14233 
  -14168   -14126   -14138   -14202   -14295   -14412   -14531   -14643 
  -14732   -14769   -14758   -14742   -14717   -14640   -14548   -14504 
  -14434   -14319   -14262   -14261   -14265   -14318   -14438   -14586 
  -14748   -14918   -15060   -15157   -15214   -15207   -15126   -15012 
  -14856   -14625   -14404   -14233   -14068   -13981   -13995   -14048 
  -14165   -14337   -14503   -14644   -14740   -14778   -14743   -14624 
  -14463   -14318   -14154   -13967   -13822   -13698   -13535   -13363 
  -13212   -13081   -12996   -13001   -13127   -13350   -13629   -13917 
  -14185   -14393   -14485   -14499   -14469   -14373   -14272   -14229 
  -14212   -14260   -14411   -14624   -14877   -15134   -15303   -15357 
  -15292   -15083   -14766   -14423   -14087   -13767   -13570   -13552 
  -13579   -13653   -13861   -14049   -14183   -14401   -14608   -14759 
  -14926   -15051   -15125   -15182   -15180   -15134   -15078   -15030 
  -15051   -15110   -15210   -15438   -15680   -15867   -16073   -16159 
  -16078   -15904   -15565   -15101   -14594   -14046   -13540   -13138 
  -12865   -12783   -12866   -13124   -13629   -14249   -14902   -15641 
  -16276   -16681   -16915   -16866   -16532   -16056   -15438   -14790 
  -14289   -13967   -13851   -13983   -14361   -14906   -15453   -15901 
  -16139   -16011   -15529   -14796   -13892   -13004   -12322   -11935 
  -11885   -12175   -12768   -13578   -14512   -15498   -16430   -17223 
  -17795   -18004   -17830   -17316   -16426   -15244   -13953   -12668 
  -11504   -10570    -9913    -9559    -9540    -9894   -10632   -11747 
  -13194   -14827   -16467   -17949   -19030   -19577   -19731   -19440 
  -18538   -17428   -16351   -15079   -13960   -13281   -12765   -12507 
  -12591   -12802   -13140   -13558   -13892   -14162   -14376   -14512 
  -14584   -14540   -14542   -14688   -14702   -14755   -15014   -15091 
  -15144   -15284   -15063   -14698   -14359   -13771   -13185   -12762 
  -12448   -12397   -12541   -12835   -13340   -13878   -14413   -15034 
  -15489   -15682   -15830   -15809   -15499   -15136   -14706   -14187 
  -13736   -13244   -12779   -12492   -12216   -12000   -11988   -12154 
  -12544   -13128   -13900   -14814   -15587   -16229   -16810   -17001 
  -16906   -16800   -16428   -15867   -15406   -14878   -14353   -14013 
  -13809   -13778   -13909   -14123   -14431   -14750   -14994   -15172 
  -15260   -15222   -15055   -14744   -14362   -13963   -13521   -13153 
  -12982   -12968   -13085   -13432   -13995   -14561   -15021   -15384 
  -15516   -15336   -14970   -14542   -14046   -13558   -13289   -13267 
  -13446   -13892   -14547   -15294   -16094   -16830   -17406   -17778 
  -17774   -17346   -16591   -15538   -14372   -13397   -12698   -12353 
  -12484   -12965   -13683   -14497   -15180   -15736   -16116   -16208 
  -16116   -15867   -15458   -14985   -14469   -13968   -13575   -13327 
  -13208   -13180   -13251   -13385   -13489   -13637   -13853   -14060 
  -14323   -14623   -14840   -15020   -15152   -15145   -15060   -14940 
  -14724   -14543   -14481   -14426   -14465   -14682   -14922   -15194 
  -15535   -15803   -15975   -16033   -15851   -15407   -14721   -13853 
  -12981   -12237   -11670   -11369   -11441   -11862   -12448   -13108 
  -13864   -14503   -14918   -15282   -15492   -15477   -15377   -15113 
  -14670   -14148   -13514   -12896   -12420   -12043   -11977   -12314 
  -12850   -13630   -14609   -15516   -16305   -16877   -17120   -17091 
  -16761   -16206   -15627   -15020   -14424   -14007   -13748   -13662 
  -13819   -14087   -14403   -14763   -15052   -15252   -15338   -15294 
  -15171   -14912   -14544   -14223   -13942   -13747   -13778   -13956 
  -14180   -14499   -14828   -15010   -15103   -15128   -14976   -14742 
  -14501   -14211   -13960   -13788   -13632   -13514   -13451   -13446 
  -13520   -13603   -13782   -14139   -14508   -14945   -15460   -15750 
  -15861   -15834   -15477   -14906   -14242   -13482   -12819   -12386 
  -12166   -12255   -12685   -13296   -14007   -14808   -15553   -16139 
  -16536   -16730   -16758   -16656   -16461   -16201   -15874   -15573 
  -15331   -15084   -14847   -14597   -14303   -14065   -13956   -13954 
  -14125   -14509   -14995   -15523   -16071   -16468   -16637   -16592 
  -16303   -15811   -15191   -14515   -13825   -13165   -12663   -12360 
  -12217   -12287   -12568   -12977   -13477   -13956   -14311   -14562 
  -14671   -14604   -14480   -14314   -14114   -14000   -13965   -13963 
  -14004   -14060   -14138   -14199   -14188   -14222   -14330   -14430 
  -14604   -14886   -15157   -15392   -15576   -15657   -15630   -15493 
  -15237   -14852   -14428   -14058   -13693   -13410   -13308   -13301 
  -13423   -13710   -14038   -14374   -14736   -15043   -15257   -15349 
  -15284   -15129   -14850   -14445   -14072   -13706   -13359   -13198 
  -13166   -13224   -13421   -13668   -13946   -14241   -14496   -14777 
  -15071   -15372   -15770   -16173   -16501   -16738   -16833   -16795 
  -16515   -15998   -15475   -14840   -14149   -13686   -13313   -13004 
  -12872   -12799   -12818   -12974   -13177   -13473   -13907   -14380 
  -14839   -15263   -15554   -15685   -15637   -15391   -15049   -14627 
  -14157   -13792   -13520   -13347   -13382   -13533   -13753   -14071 
  -14396   -14685   -14964   -15226   -15453   -15607   -15726   -15831 
  -15843   -15768   -15627   -15372   -15018   -14601   -14110   -13624 
  -13243   -12980   -12872   -12962   -13196   -13521   -13915   -14320 
  -14670   -14914   -15068   -15169   -15184   -15153   -15156   -15114 
  -15032   -14994   -14918   -14808   -14748   -14669   -14570   -14548 
  -14589   -14686   -14885   -15176   -15499   -15792   -16046   -16224 
  -16244   -16151   -16033   -15827   -15549   -15323   -15113   -14851 
  -14609   -14407   -14173   -13917   -13639   -13328   -13036   -12748 
  -12482   -12333   -12287   -12324   -12464   -12648   -12807   -12931 
  -12993   -13005   -12993   -12997   -13115   -13335   -13610   -13964 
  -14362   -14728   -15053   -15349   -15627   -15882   -16123   -16390 
  -16607   -16680   -16663   -16555   -16302   -15955   -15565   -15144 
  -14721   -14311   -13953   -13682   -13464   -13301   -13209   -13190 
  -13257   -13382   -13537   -13740   -13960   -14157   -14339   -14480 
  -14559   -14598   -14598   -14559   -14474   -14342   -14179   -13983 
  -13765   -13572   -13420   -13335   -13378   -13547   -13836   -14264 
  -14786   -15314   -15796   -16167   -16372   -16413   -16275   -15973 
  -15558   -15084   -14616   -14207   -13876   -13664   -13578   -13608 
  -13763   -14027   -14355   -14704   -15043   -15330   -15518   -15557 
  -15437   -15250   -15033   -14731   -14457   -14281   -14075   -13910 
  -13898   -13938   -14053   -14299   -14586   -14871   -15115   -15249 
  -15241   -15093   -14824   -14492   -14192   -13942   -13737   -13684 
  -13741   -13778   -13880   -14048   -14176   -14337   -14573   -14836 
  -15117   -15385   -15638   -15876   -16004   -15944   -15789   -15574 
  -15191   -14744   -14381   -14035   -13795   -13775   -13864   -14037 
  -14289   -14505   -14652   -14742   -14727   -14611   -14435   -14204 
  -13998   -13899   -13842   -13860   -14015   -14195   -14413   -14744 
  -15071   -15357   -15601   -15711   -15665   -15511   -15265   -14955 
  -14635   -14346   -14107   -13964   -13887   -13841   -13876   -13944 
  -13961   -13988   -14002   -13932   -13848   -13770   -13628   -13435 
