Origin Time       2025/06/03 22:18:00
Lat.              41.7
Long.             143.6
Depth. (km)       30
Mag.              5.2
Station Code      HKD098
Station Lat.      42.4985
Station Long.     143.2790
Station Height(m) 81
Record Time       2025/06/03 22:18:43
Sampling Freq(Hz) 100Hz
Duration Time(s)  91
Dir.              N-S
Scale Factor      7845(gal)/8223790
Max. Acc. (gal)   4.608
Last Correction   2025/06/03 22:18:44
Memo.             
[...]
   -9783    -9780    -9775    -9776    -9780    -9780    -9778    -9778 
   -9782    -9783    -9778    -9776    -9782    -9782    -9776    -9776 
   -9782    -9780    -9778    -9778    -9776    -9779    -9783    -9782 
   -9778    -9778    -9782    -9782    -9774    -9774    -9782    -9782 
   -9776    -9776    -9779    -9782    -9780    -9776    -9776    -9780 
   -9780    -9778    -9778    -9780    -9783    -9782    -9778    -9779 
   -9783    -9782    -9778    -9778    -9780    -9782    -9778    -9774 
   -9776    -9782    -9779    -9775    -9776    -9780    -9782    -9779 
   -9778    -9779    -9780    -9779    -9776    -9778    -9780    -9780 
   -9776    -9774    -9778    -9779    -9778    -9776    -9776    -9779 
   -9779    -9778    -9778    -9778    -9782    -9780    -9775    -9776 
   -9782    -9780    -9776    -9776    -9779    -9779    -9778    -9778 
   -9779    -9782    -9782    -9778    -9775    -9779    -9782    -9776 
   -9776    -9779    -9779    -9779    -9778    -9776    -9778    -9779 
   -9779    -9779    -9778    -9778    -9780    -9778    -9776    -9779 
   -9778    -9775    -9774    -9775    -9778    -9779    -9779    -9779 
   -9780    -9782    -9776    -9772    -9774    -9776    -9779    -9778 
   -9775    -9782    -9788    -9788    -9784    -9782    -9786    -9788 
   -9791    -9791    -9786    -9774    -9759    -9759    -9771    -9772 
   -9760    -9756    -9765    -9779    -9788    -9790    -9778    -9764 
   -9774    -9806    -9837    -9838    -9809    -9778    -9764    -9767 
   -9790    -9823    -9823    -9780    -9744    -9763    -9801    -9794 
   -9753    -9737    -9764    -9798    -9823    -9864    -9907    -9904 
   -9846    -9791    -9783    -9779    -9745    -9724    -9760    -9811 
   -9786    -9660    -9536    -9526    -9618    -9703    -9742    -9814 
   -9927    -9977    -9946    -9910    -9869    -9760    -9640    -9656 
   -9825    -9992   -10056   -10054    -9983    -9818    -9674    -9652 
   -9691    -9725    -9776    -9864    -9971   -10061   -10053    -9913 
   -9721    -9599    -9664    -9891   -10077   -10087    -9941    -9676 
   -9367    -9148    -9117    -9247    -9436    -9624    -9778    -9869 
   -9882    -9841    -9752    -9599    -9521    -9675    -9896    -9914 
   -9786    -9724    -9737    -9728    -9742    -9842    -9949    -9994 
  -10011   -10045   -10081   -10081   -10025    -9896    -9738    -9671 
   -9711    -9725    -9683    -9702    -9792    -9807    -9711    -9660 
   -9742    -9849    -9845    -9759    -9706    -9680    -9614    -9574 
   -9657    -9769    -9710    -9524    -9482    -9659    -9813    -9828 
   -9880   -10046   -10126   -10027    -9910    -9865    -9798    -9675 
   -9612    -9679    -9801    -9857    -9844    -9863    -9930    -9927 
   -9782    -9607    -9528    -9487    -9424    -9427    -9482    -9462 
   -9394    -9429    -9586    -9772    -9960   -10131   -10211   -10161 
  -10046    -9975    -9926    -9825    -9745    -9814   -10006   -10241 
  -10500   -10700   -10673   -10424   -10207   -10200   -10305   -10357 
  -10277   -10017    -9614    -9285    -9177    -9202    -9223    -9190 
   -9115    -9099    -9232    -9391    -9374    -9159    -8891    -8681 
   -8581    -8631    -8833    -9081    -9229    -9282    -9386    -9553 
   -9644    -9652    -9757   -10052   -10417   -10689   -10787   -10747 
  -10620   -10407   -10170   -10108   -10363   -10759   -10994   -11033 
  -11037   -11029   -10949   -10849   -10751   -10515   -10025    -9451 
   -9126    -9146    -9270    -9238    -9046    -8884    -8889    -9090 
   -9436    -9726    -9714    -9408    -9039    -8769    -8677    -8789 
   -8955    -8991    -8934    -8954    -9127    -9441    -9915   -10493 
  -10960   -11114   -10983   -10746   -10482   -10180    -9882    -9707 
   -9717    -9895   -10241   -10698   -11086   -11299   -11396   -11384 
  -11180   -10813   -10409    -9984    -9493    -9008    -8676    -8532 
   -8414    -8181    -7978    -8039    -8298    -8532    -8694    -8835 
   -8914    -8873    -8777    -8716    -8722    -8829    -9045    -9312 
   -9602    -9907   -10162   -10296   -10278   -10201   -10269   -10507 
  -10689   -10663   -10489   -10305   -10208   -10177   -10183   -10193 
  -10107    -9963    -9944   -10091   -10322   -10547   -10646   -10562 
  -10393   -10280   -10288   -10316   -10212   -10037    -9981   -10033 
   -9998    -9826    -9711    -9747    -9738    -9566    -9397    -9354 
   -9355    -9342    -9319    -9262    -9170    -9115    -9146    -9234 
   -9344    -9512    -9744    -9923    -9937    -9828    -9722    -9693 
   -9710    -9711    -9711    -9784    -9919   -10049   -10188   -10331 
  -10397   -10345   -10227   -10103    -9942    -9747    -9602    -9559 
   -9549    -9455    -9231    -8997    -8966    -9186    -9493    -9729 
   -9846    -9825    -9711    -9625    -9625    -9653    -9636    -9589 
   -9609    -9753    -9980   -10197   -10336   -10349   -10222   -10039 
   -9930    -9882    -9744    -9502    -9327    -9289    -9271    -9194 
   -9134    -9184    -9358    -9641    -9996   -10299   -10415   -10368 
  -10304   -10262   -10158   -10002    -9904    -9910    -9957   -10006 
  -10115   -10308   -10488   -10536   -10422   -10197    -9948    -9761 
   -9679    -9687    -9753    -9837    -9891    -9879    -9795    -9679 
   -9598    -9567    -9490    -9309    -9121    -9074    -9223    -9458 
   -9568    -9485    -9333    -9225    -9177    -9178    -9227    -9282 
   -9279    -9229    -9265    -9468    -9763   -10008   -10131   -10127 
  -10080   -10131   -10327   -10538   -10597   -10488   -10324   -10216 
  -10210   -10265   -10293   -10251   -10201   -10266   -10484   -10697 
  -10643   -10224    -9613    -9061    -8745    -8716    -8897    -9136 
   -9329    -9485    -9671    -9879   -10023   -10065   -10023    -9923 
   -9799    -9733    -9772    -9849    -9864    -9783    -9683    -9682 
   -9822   -10069   -10350   -10525   -10494   -10320   -10141   -10011 
   -9926    -9896    -9910    -9882    -9748    -9552    -9359    -9204 
   -9088    -8985    -8916    -8969    -9150    -9346    -9468    -9539 
   -9559    -9460    -9266    -9144    -9212    -9394    -9560    -9690 
   -9809    -9903    -9968   -10031   -10056    -9950    -9757    -9655 
   -9744    -9923   -10041   -10061   -10045   -10017    -9999   -10084 
  -10305   -10525   -10613   -10581   -10469   -10269   -10023    -9822 
   -9695    -9626    -9621    -9675    -9710    -9661    -9555    -9444 
   -9354    -9301    -9305    -9359    -9404    -9373    -9282    -9220 
   -9231    -9305    -9374    -9343    -9200    -9035    -8939    -8993 
   -9216    -9521    -9802    -9990   -10035    -9973    -9937    -9973 
  -10003    -9998   -10003   -10031   -10106   -10284   -10557   -10805 
  -10899   -10833   -10728   -10677   -10654   -10600   -10515   -10397 
  -10251   -10141   -10135   -10212   -10285   -10287   -10234   -10158 
  -10048    -9910    -9784    -9659    -9486    -9300    -9208    -9242 
   -9325    -9358    -9301    -9180    -9059    -9012    -9053    -9116 
   -9112    -8978    -8770    -8660    -8758    -9013    -9312    -9571 
   -9720    -9736    -9701    -9718    -9833    -9996   -10118   -10193 
  -10299   -10431   -10523   -10547   -10490   -10316   -10072    -9886 
   -9811    -9799    -9809    -9815    -9757    -9628    -9487    -9366 
   -9285    -9271    -9329    -9428    -9540    -9660    -9778    -9856 
   -9903    -9998   -10153   -10261   -10223   -10025    -9724    -9458 
   -9350    -9408    -9574    -9759    -9850    -9791    -9663    -9585 
   -9585    -9612    -9612    -9564    -9489    -9404    -9328    -9301 
   -9355    -9479    -9601    -9649    -9652    -9718    -9894   -10079 
  -10181   -10246   -10304   -10316   -10285   -10237   -10169   -10068 
   -9896    -9657    -9460    -9418    -9526    -9714    -9913   -10044 
  -10031    -9910    -9834    -9917   -10064   -10108   -10039    -9946 
   -9859    -9786    -9787    -9846    -9869    -9871    -9965   -10218 
  -10534   -10737   -10733   -10569   -10312   -10017    -9783    -9649 
   -9572    -9587    -9774   -10088   -10419   -10648   -10667   -10473 
  -10185    -9922    -9752    -9688    -9660    -9585    -9443    -9270 
   -9142    -9101    -9089    -9045    -9011    -9035    -9081    -9135 
   -9246    -9436    -9656    -9798    -9836    -9871    -9964   -10058 
  -10103   -10072    -9926    -9713    -9570    -9556    -9583    -9540 
   -9432    -9324    -9236    -9181    -9240    -9441    -9676    -9849 
   -9988   -10111   -10120    -9949    -9724    -9629    -9652    -9656 
   -9616    -9585    -9578    -9564    -9504    -9421    -9366    -9346 
   -9383    -9513    -9694    -9849    -9967   -10083   -10210   -10289 
  -10246   -10107    -9998   -10006   -10135   -10334   -10517   -10651 
  -10719   -10678   -10528   -10331   -10133    -9937    -9760    -9647 
   -9628    -9626    -9552    -9444    -9398    -9425    -9450    -9447 
   -9456    -9493    -9558    -9663    -9796    -9902    -9937    -9914 
   -9882    -9875    -9902    -9979   -10104   -10224   -10280   -10268 
  -10197   -10057    -9869    -9686    -9552    -9490    -9472    -9490 
   -9552    -9609    -9574    -9427    -9251    -9173    -9223    -9298 
   -9301    -9243    -9198    -9185    -9196    -9262    -9417    -9610 
   -9757    -9837    -9871    -9877    -9892    -9948   -10023   -10049 
  -10010   -10008   -10116   -10257   -10320   -10309   -10287   -10280 
  -10272   -10253   -10242   -10223   -10126    -9965    -9841    -9786 
   -9742    -9679    -9630    -9643    -9744    -9903   -10044   -10116 
  -10093    -9952    -9752    -9610    -9563    -9556    -9536    -9513 
   -9518    -9518    -9451    -9347    -9283    -9255    -9247    -9274 
   -9336    -9400    -9456    -9525    -9580    -9539    -9387    -9240 
   -9167    -9113    -9065    -9090    -9193    -9312    -9437    -9585 
   -9728    -9825    -9906   -10060   -10278   -10466   -10578   -10629 
  -10605   -10508   -10407   -10342   -10305   -10289   -10289   -10303 
  -10314   -10289   -10227   -10146   -10073   -10031   -10003    -9948 
   -9859    -9775    -9733    -9734    -9769    -9805    -9787    -9695 
   -9574    -9475    -9387    -9297    -9256    -9317    -9421    -9499 
   -9556    -9597    -9636    -9717    -9825    -9845    -9738    -9602 
   -9551    -9601    -9707    -9814    -9872    -9863    -9819    -9817 
   -9895   -10006   -10027    -9926    -9799    -9732    -9748    -9821 
   -9860    -9786    -9637    -9497    -9351    -9186    -9088    -9108 
   -9209    -9363    -9579    -9867   -10168   -10393   -10493   -10461 
  -10291   -10006    -9711    -9528    -9483    -9525    -9599    -9680 
   -9761    -9837    -9914    -9988   -10018   -10010   -10053   -10179 
  -10324   -10438   -10496   -10482   -10404   -10292   -10203   -10177 
  -10173   -10096    -9906    -9657    -9468    -9406    -9440    -9475 
   -9398    -9185    -8930    -8752    -8696    -8707    -8689    -8615 
   -8563    -8611    -8797    -9124    -9506    -9780    -9852    -9771 
   -9676    -9682    -9803   -10007   -10262   -10497   -10600   -10521 
  -10331   -10138   -10003    -9930    -9899    -9892    -9899    -9909 
   -9919    -9938    -9967    -9976    -9925    -9822    -9715    -9651 
   -9637    -9648    -9693    -9830   -10060   -10281   -10424   -10500 
  -10520   -10476   -10395   -10334   -10299   -10246   -10181   -10160 
  -10191   -10230   -10245   -10214   -10107    -9931    -9752    -9606 
   -9490    -9418    -9417    -9487    -9598    -9690    -9709    -9637 
   -9498    -9344    -9246    -9244    -9315    -9396    -9439    -9444 
   -9444    -9440    -9405    -9362    -9374    -9452    -9567    -9680 
   -9767    -9819    -9803    -9709    -9589    -9510    -9486    -9494 
   -9513    -9525    -9551    -9618    -9721    -9842    -9990   -10147 
  -10257   -10299   -10265   -10145    -9980    -9830    -9705    -9598 
   -9520    -9466    -9424    -9377    -9331    -9319    -9366    -9482 
   -9640    -9764    -9802    -9806    -9848    -9913    -9968   -10034 
  -10137   -10258   -10332   -10332   -10300   -10308   -10388   -10527 
  -10682   -10800   -10828   -10763   -10625   -10420   -10185   -10008 
   -9915    -9884    -9918    -9996   -10080   -10164   -10268   -10373 
  -10404   -10311   -10083    -9768    -9454    -9219    -9092    -9055 
   -9089    -9167    -9270    -9379    -9472    -9514    -9486    -9427 
   -9401    -9435    -9502    -9539    -9499    -9391    -9277    -9225 
   -9246    -9302    -9378    -9458    -9505    -9474    -9396    -9354 
   -9336    -9288    -9207    -9131    -9080    -9053    -9073    -9170 
   -9300    -9394    -9467    -9555    -9657    -9748    -9814    -9856 
   -9873    -9892    -9933    -9967    -9948    -9863    -9726    -9586 
   -9516    -9544    -9601    -9614    -9602    -9580    -9531    -9470 
   -9483    -9629    -9865   -10079   -10201   -10239   -10218   -10164 
  -10125   -10147   -10200   -10168   -10014    -9840    -9736    -9694 
   -9659    -9597    -9493    -9325    -9105    -8887    -8723    -8618 
   -8500    -8332    -8190    -8139    -8149    -8136    -8067    -8010 
   -8032    -8112    -8198    -8286    -8374    -8448    -8519    -8652 
   -8889    -9202    -9558    -9915   -10189   -10323   -10349   -10350 
  -10423   -10601   -10859   -11156   -11470   -11781   -12036   -12183 
  -12209   -12131   -11948   -11661   -11321   -11022   -10863   -10894 
  -11114   -11497   -11990   -12505   -13005   -13502   -13945   -14260 
  -14443   -14544   -14600   -14609   -14542   -14353   -13986   -13392 
  -12598   -11728   -10955   -10426   -10164   -10100   -10180   -10327 
  -10443   -10497   -10455   -10245    -9850    -9319    -8722    -8190 
   -7838    -7707    -7788    -8027    -8320    -8544    -8608    -8502 
   -8247    -7846    -7360    -6936    -6679    -6664    -6984    -7595 
   -8276    -8838    -9208    -9335    -9216    -8941    -8623    -8298 
   -7929    -7533    -7238    -7142    -7242    -7458    -7689    -7854 
   -7902    -7823    -7634    -7391    -7198    -7152    -7308    -7670 
   -8149    -8649    -9092    -9451    -9818   -10228   -10575   -10790 
  -10849   -10723   -10455   -10142    -9815    -9467    -9077    -8696 
   -8518    -8649    -8962    -9282    -9571    -9879   -10299   -10841 
  -11362   -11734   -11955   -12067   -12091   -12015   -11834   -11600 
  -11387   -11240   -11186   -11257   -11400   -11488   -11468   -11352 
  -11101   -10677   -10103    -9420    -8708    -8114    -7769    -7662 
   -7677    -7739    -7855    -8040    -8302    -8607    -8881    -9092 
   -9242    -9381    -9607    -9895   -10060   -10021    -9880    -9769 
   -9734    -9776    -9848    -9867    -9769    -9560    -9328    -9155 
   -9047    -9013    -9100    -9312    -9599    -9915   -10219   -10473 
  -10666   -10797   -10855   -10832   -10708   -10477   -10143    -9711 
   -9255    -8876    -8594    -8426    -8409    -8451    -8397    -8257 
   -8141    -8048    -7932    -7835    -7844    -7973    -8159    -8348 
   -8519    -8652    -8716    -8721    -8667    -8544    -8355    -8162 
   -8075    -8163    -8351    -8521    -8703    -9019    -9501   -10077 
  -10663   -11222   -11749   -12244   -12738   -13244   -13694   -13971 
  -14023   -13900   -13671   -13369   -12943   -12309   -11497   -10705 
  -10156    -9975   -10123   -10439   -10747   -10895   -10802   -10521 
  -10196    -9944    -9799    -9764    -9850   -10044   -10282   -10517 
  -10723   -10824   -10755   -10569   -10403   -10373   -10531   -10863 
  -11290   -11641   -11777   -11692   -11433   -11063   -10666   -10345 
  -10238   -10380   -10596   -10683   -10566   -10260    -9795    -9208 
   -8580    -8033    -7647    -7468    -7537    -7866    -8355    -8830 
   -9157    -9293    -9308    -9289    -9285    -9369    -9612    -9958 
  -10296   -10552   -10708   -10756   -10706   -10601   -10498   -10382 
  -10210   -10053   -10058   -10261   -10536   -10766   -10924   -11003 
  -10987   -10863   -10584   -10131    -9622    -9180    -8858    -8700 
   -8649    -8536    -8272    -7902    -7500    -7148    -6953    -6998 
   -7248    -7581    -7898    -8151    -8286    -8291    -8230    -8149 
   -8086    -8125    -8316    -8599    -8869    -9020    -9020    -8945 
   -8885    -8862    -8914    -9094    -9374    -9698   -10080   -10547 
  -11059   -11480   -11719   -11786   -11670   -11330   -10797   -10133 
   -9379    -8631    -8017    -7611    -7387    -7284    -7245    -7246 
   -7317    -7481    -7734    -8052    -8405    -8762    -9108    -9451 
   -9846   -10326   -10858   -11421   -11967   -12407   -12733   -12978 
  -13097   -13062   -12935   -12752   -12511   -12217   -11896   -11556 
  -11148   -10638   -10014    -9298    -8567    -7917    -7443    -7225 
   -7242    -7373    -7546    -7743    -7917    -8039    -8151    -8324 
   -8573    -8861    -9234    -9760   -10369   -10922   -11358   -11685 
  -11958   -12229   -12503   -12780   -13034   -13212   -13297   -13346 
  -13410   -13471   -13466   -13367   -13204   -12962   -12583   -12110 
  -11632   -11153   -10651   -10165    -9742    -9414    -9165    -8976 
   -8893    -8949    -9067    -9153    -9186    -9163    -9039    -8837 
   -8646    -8511    -8444    -8442    -8451    -8437    -8417    -8387 
   -8359    -8352    -8368    -8433    -8575    -8800    -9090    -9344 
   -9479    -9545    -9590    -9602    -9636    -9753    -9919   -10061 
  -10133   -10130   -10081   -10002    -9886    -9778    -9726    -9715 
   -9717    -9720    -9744    -9780    -9751    -9622    -9462    -9319 
   -9194    -9100    -9066    -9084    -9094    -9053    -8945    -8803 
   -8700    -8673    -8708    -8775    -8827    -8834    -8789    -8708 
   -8610    -8503    -8399    -8316    -8282    -8293    -8294    -8255 
   -8183    -8116    -8091    -8116    -8181    -8257    -8289    -8221 
   -8062    -7894    -7831    -7938    -8209    -8573    -8957    -9312 
   -9591    -9764    -9883   -10026   -10210   -10382   -10516   -10628 
  -10731   -10818   -10933   -11133   -11395   -11637   -11808   -11909 
  -11939   -11888   -11782   -11705   -11707   -11753   -11793   -11838 
  -11907   -11969   -12000   -12025   -12047   -12020   -11934   -11844 
  -11817   -11877   -12015   -12181   -12307   -12340   -12233   -11973 
  -11570   -11064   -10517    -9994    -9516    -9065    -8625    -8209 
   -7827    -7488    -7192    -6945    -6778    -6717    -6752    -6886 
   -7136    -7487    -7885    -8274    -8608    -8880    -9136    -9455 
   -9859   -10293   -10709   -11134   -11587   -11996   -12298   -12502 
  -12568   -12424   -12077   -11605   -11078   -10509    -9896    -9271 
   -8683    -8147    -7680    -7312    -7090    -7015    -7007    -6999 
   -7024    -7118    -7252    -7371    -7460    -7527    -7569    -7616 
   -7722    -7893    -8090    -8240    -8278    -8218    -8160    -8183 
   -8313    -8579    -8996    -9493    -9973   -10369   -10651   -10809 
  -10845   -10779   -10655   -10571   -10590   -10656   -10687   -10644 
  -10517   -10335   -10165   -10088   -10162   -10396   -10710   -11003 
  -11260   -11527   -11839   -12177   -12483   -12690   -12742   -12654 
  -12514   -12414   -12378   -12374   -12382   -12401   -12413   -12382 
  -12275   -12097   -11840   -11524   -11211   -10937   -10694   -10467 
  -10228    -9952    -9633    -9288    -8945    -8630    -8371    -8201 
