Origin Time       2025/06/03 22:18:00
Lat.              41.7
Long.             143.6
Depth. (km)       30
Mag.              5.2
Station Code      HKD098
Station Lat.      42.4985
Station Long.     143.2790
Station Height(m) 81
Record Time       2025/06/03 22:18:43
Sampling Freq(Hz) 100Hz
Duration Time(s)  91
Dir.              E-W
Scale Factor      7845(gal)/8223790
Max. Acc. (gal)   4.840
Last Correction   2025/06/03 22:18:44
Memo.             
[...]
   10222    10324    10465    10574    10596    10562    10548    10575 
   10588    10531    10458    10489    10592    10571    10382    10239 
   10223    10100     9768     9485     9389     9256     8950     8672 
    8608     8672     8722     8738     8733     8656     8451     8222 
    8158     8225     8271     8255     8236     8225     8203     8263 
    8530     8881     9096     9211     9343     9413     9358     9309 
    9391     9562     9690     9742     9765     9753     9676     9572 
    9506     9514     9579     9614     9560     9428     9258     9139 
    9181     9362     9539     9630     9656     9643     9593     9526 
    9443     9328     9227     9167     9103     9026     9001     9066 
    9173     9234     9209     9162     9194     9329     9458     9482 
    9416     9292     9113     8964     8937     9024     9174     9337 
    9456     9508     9516     9504     9478     9456     9481     9559 
    9670     9809     9944     9981     9895     9821     9855     9898 
    9853     9737     9612     9553     9605     9702     9756     9765 
    9769     9769     9728     9582     9336     9109     9016     9035 
    9076     9086     9057     8997     8941     8931     8972     8982 
    8870     8695     8602     8607     8625     8618     8626     8703 
    8877     9086     9217     9248     9266     9344     9471     9574 
    9625     9672     9748     9836     9896     9921     9933     9972 
   10080    10200    10237    10224    10224    10218    10181    10092 
    9923     9683     9397     9111     8911     8853     8893     8934 
    8926     8897     8856     8764     8657     8618     8649     8689 
    8689     8673     8725     8880     9082     9277     9450     9609 
    9738     9795     9778     9736     9687     9616     9517     9369 
    9153     8949     8876     8977     9208     9460     9640     9744 
    9819     9875     9911     9923     9849     9678     9508     9386 
    9286     9192     9126     9135     9201     9254     9277     9304 
    9351     9412     9464     9456     9369     9262     9192     9151 
    9089     8999     8928     8916     8942     8985     9059     9182 
    9335     9497     9637     9702     9679     9612     9517     9425 
    9378     9390     9467     9574     9616     9562     9462     9381 
    9382     9459     9506     9448     9319     9235     9292     9450 
    9582     9605     9525     9420     9375     9406     9443     9400 
    9236     9004     8823     8769     8838     8989     9148     9285 
    9435     9560     9555     9427     9340     9389     9466     9427 
    9258     9057     8949     8970     9065     9139     9108     9011 
    9018     9211     9456     9605     9667     9714     9734     9729 
    9749     9783     9768     9720     9674     9594     9436     9246 
    9126     9121     9208     9337     9474     9582     9624     9616 
    9617     9637     9632     9579     9493     9386     9250     9100 
    9011     9004     9035     9111     9256     9398     9458     9458 
    9444     9447     9467     9485     9499     9495     9406     9243 
    9104     9082     9155     9178     9111     9062     9089     9148 
    9200     9244     9300     9346     9352     9342     9344     9348 
    9342     9347     9378     9402     9379     9312     9266     9308 
    9404     9460     9439     9352     9229     9107     9039     9054 
    9089     9065     8989     8919     8905     8984     9132     9306 
    9474     9617     9724     9794     9856     9969    10146    10312 
   10386    10361    10285    10207    10142    10080     9991     9818 
    9517     9138     8819     8671     8694     8819     8953     9009 
    8954     8823     8707     8660     8671     8700     8735     8796 
    8856     8872     8883     8941     9018     9051     9049     9072 
    9165     9273     9321     9323     9316     9282     9221     9223 
    9367     9602     9803     9940    10077    10226    10295    10237 
   10104     9981     9890     9806     9705     9587     9481     9409 
    9347     9263     9186     9143     9148     9220     9332     9410 
    9400     9304     9197     9136     9104     9057     9001     8969 
    8985     9054     9157     9279     9445     9643     9796     9859 
    9830     9767     9736     9725     9671     9556     9409     9300 
    9309     9429     9574     9649     9616     9533     9502     9537 
    9558     9524     9479     9447     9400     9323     9223     9104 
    8969     8857     8839     8907     8984     9043     9112     9180 
    9197     9144     9062     8991     8938     8888     8823     8753 
    8704     8707     8769     8841     8858     8833     8845     8955 
    9121     9250     9312     9348     9397     9454     9502     9595 
    9747     9863     9890     9910    10014    10156    10220    10188 
   10143    10160    10195    10176    10114    10068    10061    10080 
   10085    10015     9823     9540     9286     9165     9167     9205 
    9207     9138     8988     8785     8618     8586     8699     8849 
    8942     9015     9108     9159     9131     9062     8985     8891 
    8772     8683     8700     8822     8974     9084     9144     9208 
    9317     9485     9691     9914    10134    10300    10357    10291 
   10129     9922     9721     9536     9366     9219     9113     9097 
    9201     9386     9585     9738     9813     9846     9898     9936 
    9879     9706     9504     9327     9134     8920     8770     8738 
    8812     8942     9072     9147     9116     8999     8893     8862 
    8869     8846     8769     8691     8658     8652     8657     8675 
    8694     8746     8870     9031     9161     9212     9200     9180 
    9204     9327     9562     9806     9960    10046    10099    10100 
   10080    10057     9988     9894     9840     9841     9869     9896 
    9906     9892     9871     9853     9805     9705     9583     9471 
    9344     9177     9022     8957     8989     9036     9022     8968 
    8941     8939     8949     8989     9065     9167     9294     9401 
    9463     9535     9617     9661     9664     9656     9671     9682 
    9618     9481     9331     9202     9105     9070     9111     9186 
    9279     9381     9429     9408     9408     9485     9590     9645 
    9620     9521     9385     9240     9121     9061     9009     8881 
    8723     8680     8800     8978     9111     9190     9224     9234 
    9274     9359     9433     9455     9429     9391     9373     9377 
    9410     9467     9497     9454     9363     9281     9255     9300 
    9366     9420     9498     9599     9711     9828     9894     9882 
    9855     9848     9830     9788     9737     9670     9563     9427 
    9320     9327     9435     9520     9491     9360     9201     9072 
    8992     8968     8992     9035     9069     9084     9089     9094 
    9082     9040     8973     8903     8870     8930     9086     9271 
    9389     9429     9468     9564     9688     9778     9817     9809 
    9722     9578     9451     9390     9370     9336     9289     9266 
    9270     9270     9250     9217     9185     9136     9030     8891 
    8799     8799     8888     9058     9251     9381     9441     9501 
    9594     9684     9710     9655     9586     9541     9485     9386 
    9270     9174     9101     9039     9026     9081     9162     9232 
    9282     9329     9398     9463     9472     9400     9267     9138 
    9059     9030     9051     9142     9294     9445     9531     9545 
    9545     9571     9605     9629     9637     9629     9628     9671 
    9761     9860     9915     9918     9873     9780     9661     9553 
    9478     9437     9404     9344     9266     9202     9186     9229 
    9308     9369     9390     9424     9526     9656     9725     9694 
    9597     9512     9470     9406     9256     9050     8866     8783 
    8833     8980     9146     9259     9288     9263     9239     9232 
    9223     9194     9147     9090     9038     9008     9036     9097 
    9127     9123     9128     9161     9209     9254     9288     9312 
    9343     9394     9433     9410     9337     9294     9321     9383 
    9450     9485     9472     9433     9396     9371     9366     9389 
    9437     9494     9531     9544     9551     9552     9544     9537 
    9547     9551     9501     9404     9339     9352     9386     9382 
    9339     9279     9224     9190     9185     9220     9274     9319 
    9377     9452     9491     9458     9356     9227     9151     9175 
    9258     9321     9321     9275     9221     9178     9148     9135 
    9174     9298     9474     9643     9753     9761     9683     9605 
    9597     9648     9688     9680     9626     9562     9539     9594 
    9686     9734     9715     9653     9602     9597     9628     9660 
    9668     9640     9606     9591     9567     9516     9451     9410 
    9414     9443     9482     9567     9679     9733     9691     9593 
    9494     9431     9373     9288     9215     9204     9277     9439 
    9694    10006    10284    10423    10390    10258    10093     9923 
    9788     9717     9679     9624     9531     9425     9323     9198 
    9055     8908     8754     8591     8428     8290     8210     8182 
    8163     8104     7960     7723     7447     7202     7007     6836 
    6647     6432     6224     6061     5942     5842     5776     5811 
    5973     6199     6453     6760     7117     7473     7782     8013 
    8210     8429     8654     8872     9067     9232     9413     9653 
    9944    10233    10453    10589    10704    10810    10886    10972 
   11117    11313    11520    11705    11855    11983    12081    12147 
   12262    12513    12876    13261    13622    13942    14127    14091 
   13894    13645    13347    12955    12514    12117    11767    11431 
   11129    10863    10557    10145     9626     9013     8325     7624 
    7037     6670     6496     6420     6430     6551     6778     7059 
    7345     7601     7796     7971     8212     8534     8887     9212 
    9504     9790    10081    10327    10474    10548    10621    10716 
   10806    10906    11040    11172    11294    11506    11882    12343 
   12730    12951    12973    12798    12494    12167    11900    11712 
   11554    11331    10975    10481     9917     9354     8792     8208 
    7607     7020     6478     6026     5717     5540     5385     5144 
    4841     4580     4432     4391     4417     4473     4561     4683 
    4858     5131     5475     5810     6095     6346     6608     6903 
    7206     7499     7817     8209     8683     9190     9694    10187 
   10662    11087    11452    11801    12150    12482    12815    13185 
   13559    13829    13871    13613    13103    12472    11835    11253 
   10731    10249     9833     9512     9235     8966     8738     8575 
    8490     8532     8712     8924     9039     9005     8860     8658 
    8476     8401     8475     8631     8754     8783     8712     8580 
    8457     8356     8267     8212     8221     8316     8509     8803 
    9182     9587     9952    10239    10405    10372    10110     9680 
    9166     8656     8247     7969     7751     7523     7353     7348 
    7479     7661     7886     8206     8656     9227     9845    10388 
   10768    10983    11084    11144    11178    11137    10990    10774 
   10588    10521    10612    10821    11065    11263    11329    11213 
   10968    10696    10442    10235    10118    10079    10014     9852 
    9589     9243     8853     8478     8186     8040     8029     8101 
    8230     8418     8662     8946     9228     9464     9620     9655 
    9541     9285     8949     8604     8349     8270     8384     8669 
    9024     9298     9436     9510     9613     9764     9898     9931 
    9806     9505     9117     8769     8521     8353     8190     7936 
    7533     7041     6615     6349     6291     6485     6886     7377 
    7852     8276     8684     9124     9590    10050    10469    10809 
   11079    11318    11533    11732    11935    12132    12297    12415 
   12509    12615    12725    12769    12694    12517    12278    12001 
   11681    11303    10895    10508    10165     9859     9556     9240 
    8912     8604     8337     8063     7765     7501     7307     7173 
    7075     6982     6890     6832     6833     6859     6882     6924 
    7002     7140     7331     7562     7874     8301     8757     9128 
    9348     9428     9464     9571     9798    10106    10376    10507 
   10480    10307    10015     9637     9205     8730     8228     7784 
    7481     7325     7284     7354     7523     7761     8062     8417 
    8799     9159     9429     9595     9740     9948    10269    10667 
   11049    11342    11520    11619    11699    11757    11790    11834 
   11877    11851    11719    11519    11286    10975    10577    10156 
    9720     9216     8683     8194     7731     7249     6775     6384 
    6108     5933     5868     5941     6147     6470     6871     7327 
    7905     8645     9440    10203    10912    11502    11917    12171 
   12320    12430    12518    12590    12710    12892    13028    13041 
   12912    12590    12048    11345    10552     9757     9019     8326 
    7638     6986     6420     5919     5526     5325     5281     5321 
    5427     5555     5694     5913     6269     6739     7273     7846 
    8455     9120     9859    10647    11450    12216    12903    13516 
   14015    14324    14430    14346    14088    13709    13273    12816 
   12357    11967    11774    11803    11915    11943    11799    11489 
   11084    10660    10262     9880     9497     9127     8807     8603 
    8530     8549     8600     8595     8469     8233     7931     7628 
    7364     7132     6968     6940     7065     7334     7651     7863 
    7920     7854     7693     7497     7335     7219     7123     7051 
    7018     7021     7049     7106     7172     7242     7327     7416 
    7495     7561     7599     7604     7612     7677     7834     8050 
    8256     8421     8550     8644     8716     8796     8885     8995 
    9177     9451     9817    10262    10710    11082    11349    11502 
   11534    11449    11281    11075    10839    10590    10355    10126 
    9880     9597     9240     8789     8255     7677     7128     6659 
    6270     5971     5802     5799     6000     6426     7041     7789 
    8573     9261     9752    10052    10243    10417    10635    10920 
   11213    11441    11615    11804    12064    12391    12738    13054 
   13301    13432    13419    13309    13184    13055    12912    12737 
   12511    12236    11908    11547    11213    10939    10701    10470 
   10243    10052     9936     9861     9722     9460     9100     8722 
    8405     8171     8029     7973     7942     7885     7821     7782 
    7740     7677     7618     7554     7434     7242     7047     6902 
    6782     6654     6538     6475     6478     6528     6636     6786 
    6929     7051     7161     7287     7442     7638     7904     8225 
    8554     8901     9289     9672     9977    10176    10301    10384 
   10462    10588    10787    11028    11244    11361    11308    11098 
   10835    10613    10442    10282    10098     9891     9709     9595 
    9570     9618     9705     9822     9980    10147    10301    10449 
   10569    10642    10683    10725    10767    10763    10652    10446 
   10216     9976     9733     9535     9418     9398     9416     9381 
    9267     9090     8903     8766     8667     8579     8540     8579 
    8689     8826     8950     9070     9186     9279     9370     9467 
    9560     9655     9769     9923    10114    10318    10520    10717 
   10887    10987    10990    10913    10781    10616    10446    10291 
   10166    10088    10034     9990     9965     9979    10021    10054 
   10045     9980     9871     9752     9656     9583     9518     9464 
    9425     9405     9398     9382     9315     9169     8966     8748 
    8536     8334     8148     7989     7839     7668     7493     7345 
    7249     7241     7322     7479     7678     7855     7947     7952 
    7915     7858     7792     7734     7681     7645     7642     7665 
    7716     7825     8002     8233     8475     8667     8754     8741 
    8669     8602     8610     8710     8854     8989     9065     9055 
    8981     8870     8779     8743     8766     8818     8866     8911 
    8954     8976     8977     8984     9027     9103     9204     9346 
    9536     9748     9937    10080    10188    10284    10405    10542 
   10655    10754    10855    10945    10998    10994    10966    10964 
   11002    11053    11097    11149    11230    11292    11279    11222 
   11210    11245    11254    11211    11151    11083    10998    10905 
   10852    10870    10905    10875    10740    10527    10289    10045 
    9817     9649     9522     9374     9200     9036     8895     8753 
    8594     8417     8229     8041     7879     7750     7630     7499 
    7357     7234     7141     7051     6967     6906     6856     6831 
    6859     6945     7086     7275     7520     7831     8166     8491 
    8823     9148     9396     9514     9535     9545     9603     9693 
    9778     9832     9850     9823     9755     9717     9776     9942 
   10185    10426    10592    10690    10773    10858    10893    10820 
   10639    10384    10103     9850     9655     9499     9360     9239 
    9162     9165     9238     9332     9394     9432     9501     9620 
    9763     9921    10081    10214    10272    10238    10138     9990 
    9775     9482     9132     8789     8517     8355     8326     8395 
    8461     8479     8491     8541     8645     8810     8988     9130 
    9229     9312     9394     9483     9552     9570     9556     9524 
    9464     9389     9340     9360     9425     9485     9559     9707 
    9929    10149    10324    10459    10543    10585    10611    10592 
   10497    10324    10093     9846     9612     9414     9283     9223 
    9215     9219     9200     9146     9062     8969     8876     8785 
    8696     8590     8457     8318     8217     8171     8170     8202 
    8274     8380     8499     8623     8788     9007     9254     9520 
    9818    10096    10276    10335    10293    10215    10153    10115 
   10081    10015     9882     9691     9486     9313     9182     9074 
    8977     8870     8752     8668     8680     8785     8926     9065 
    9180     9240     9240     9194     9132     9077     9022     8949 
    8851     8754     8680     8608     8522     8433     8341     8226 
    8077     7919     7789     7676     7560     7441     7373     7416 
    7554     7749     8004     8337     8704     9051     9385     9713 
   10011    10281    10540    10805    11056    11263    11422    11557 
   11700    11850    11954    11963    11863    11664    11399    11128 
   10870    10635    10447    10311    10210    10129    10054     9999 
    9975     9965     9963     9946     9891     9807     9730     9666 
    9589     9498     9398     9283     9192     9123     9022     8901 
    8803     8737     8700     8658     8610     8603     8657     8762 
    8873     8969     9076     9180     9244     9279     9302     9313 
    9317     9339     9401     9491     9583     9667     9752     9879 
