Origin Time       2025/06/03 22:18:00
Lat.              41.7
Long.             143.6
Depth. (km)       30
Mag.              5.2
Station Code      HKD078
Station Lat.      43.1488
Station Long.     144.4976
Station Height(m) 25
Record Time       2025/06/03 22:19:17
Sampling Freq(Hz) 100Hz
Duration Time(s)  60
Dir.              U-D
Scale Factor      7845(gal)/8223790
Max. Acc. (gal)   0.857
Last Correction   2025/06/03 22:19:17
Memo.             
    7379     7339     7318     7341     7418     7507     7560     7564 
    7538     7484     7398     7333     7342     7371     7358     7345 
    7379     7431     7461     7449     7410     7395     7437     7491 
    7468     7383     7344     7393     7465     7495     7495     7495 
    7488     7476     7464     7423     7362     7331     7337     7356 
    7389     7458     7572     7696     7780     7785     7730     7654 
    7550     7414     7304     7241     7202     7225     7338     7480 
    7577     7618     7628     7622     7578     7496     7403     7338 
    7319     7337     7391     7456     7485     7484     7492     7476 
    7406     7344     7321     7298     7279     7303     7362     7454 
    7592     7709     7728     7677     7628     7589     7511     7391 
    7298     7254     7254     7300     7368     7407     7425     7480 
    7561     7589     7561     7524     7492     7468     7445     7404 
    7362     7353     7392     7450     7460     7438     7446     7477 
    7496     7499     7520     7574     7605     7578     7534     7512 
    7487     7431     7379     7337     7281     7231     7210     7199 
    7186     7187     7209     7261     7369     7508     7607     7638 
    7628     7616     7622     7638     7645     7622     7565     7491 
    7427     7376     7298     7196     7149     7204     7335     7465 
    7516     7512     7537     7608     7690     7732     7726     7684 
    7615     7531     7425     7288     7184     7173     7233     7296 
    7322     7327     7357     7431     7538     7649     7711     7716 
    7705     7665     7562     7422     7285     7172     7096     7084 
    7133     7218     7339     7468     7555     7591     7580     7560 
    7564     7542     7462     7368     7292     7244     7273     7389 
    7511     7565     7569     7582     7592     7528     7418     7318 
    7233     7175     7169     7223     7308     7400     7508     7615 
    7661     7638     7607     7604     7591     7535     7460     7373 
    7314     7348     7462     7569     7608     7596     7585     7593 
    7588     7523     7403     7306     7290     7327     7368     7365 
    7314     7290     7337     7414     7481     7527     7515     7416 
    7283     7199     7198     7265     7368     7464     7528     7580 
    7647     7690     7643     7518     7404     7369     7398     7435 
    7442     7406     7353     7327     7346     7387     7423     7460 
    7533     7611     7612     7569     7574     7591     7546     7469 
    7419     7412     7445     7466     7434     7396     7422     7484 
    7528     7541     7519     7500     7499     7484     7437     7365 
    7311     7290     7279     7291     7358     7472     7580     7611 
    7578     7534     7491     7457     7430     7373     7300     7275 
    7322     7416     7488     7484     7457     7464     7472     7472 
    7464     7404     7326     7302     7318     7331     7342     7360 
    7393     7450     7497     7518     7530     7531     7508     7503 
    7541     7588     7605     7587     7560     7541     7508     7453 
    7402     7362     7327     7312     7300     7265     7250     7299 
    7360     7392     7449     7534     7565     7553     7565     7588 
    7578     7543     7534     7554     7542     7445     7287     7145 
    7078     7096     7175     7283     7403     7543     7678     7731 
    7676     7573     7500     7489     7510     7496     7434     7392 
    7427     7487     7499     7466     7404     7345     7353     7422 
    7477     7514     7553     7570     7573     7592     7609     7605 
    7578     7492     7345     7227     7223     7295     7360     7403 
    7447     7497     7523     7496     7442     7391     7377     7430 
    7526     7588     7578     7533     7484     7441     7423     7431 
    7434     7411     7387     7412     7469     7480     7453     7453 
    7510     7576     7588     7550     7518     7488     7420     7304 
    7195     7173     7242     7331     7416     7531     7654     7723 
    7727     7684     7595     7479     7358     7253     7202     7218 
    7256     7291     7349     7429     7501     7549     7561     7520 
    7445     7364     7276     7215     7230     7292     7338     7341 
    7333     7366     7442     7501     7539     7595     7636     7591 
    7484     7407     7407     7466     7526     7549     7550     7523 
    7431     7319     7271     7273     7284     7326     7393     7452 
    7488     7516     7543     7591     7645     7668     7638     7587 
    7569     7574     7550     7473     7369     7292     7250     7215 
    7229     7342     7524     7662     7676     7578     7454     7373 
    7329     7296     7304     7361     7398     7387     7376     7354 
    7283     7219     7237     7344     7480     7578     7641     7674 
    7672     7639     7573     7470     7398     7411     7460     7474 
    7452     7423     7398     7361     7310     7294     7345     7396 
    7402     7408     7452     7493     7504     7526     7604     7699 
    7744     7717     7632     7555     7526     7460     7315     7206 
    7209     7253     7275     7303     7371     7454     7539     7618 
    7657     7649     7616     7553     7449     7352     7302     7314 
    7361     7352     7253     7195     7295     7510     7699     7778 
    7778     7782     7808     7805     7707     7526     7353     7249 
    7199     7142     7060     7063     7240     7495     7634     7609 
    7546     7526     7501     7427     7321     7248     7298     7458 
    7555     7520     7487     7539     7614     7626     7568     7445 
    7310     7258     7268     7246     7207     7192     7221     7331 
    7506     7620     7614     7573     7558     7519     7431     7345 
    7296     7291     7302     7294     7250     7218     7291     7469 
    7638     7697     7651     7589     7578     7597     7569     7472 
    7364     7329     7375     7407     7357     7280     7267     7337 
    7445     7538     7584     7553     7468     7398     7358     7346 
    7388     7477     7534     7511     7468     7488     7565     7596 
    7531     7449     7414     7400     7400     7423     7452     7479 
    7520     7565     7564     7526     7501     7503     7493     7452 
    7383     7312     7273     7298     7385     7470     7499     7487 
    7483     7484     7480     7480     7497     7558     7631     7618 
    7506     7402     7406     7493     7558     7547     7473     7377 
    7312     7303     7311     7296     7284     7290     7277     7284 
    7373     7489     7562     7608     7639     7603     7481     7326 
    7217     7203     7261     7319     7348     7381     7437     7488 
    7500     7469     7437     7437     7461     7489     7534     7622 
    7753     7857     7842     7728     7597     7477     7391     7366 
    7371     7306     7173     7118     7218     7353     7419     7472 
    7578     7705     7770     7734     7623     7499     7399     7346 
    7362     7427     7474     7446     7327     7163     7063     7106 
    7211     7257     7269     7304     7338     7353     7375     7415 
    7477     7549     7609     7658     7713     7726     7645     7530 
    7462     7457     7483     7500     7535     7624     7707     7720 
    7682     7639     7632     7681     7715     7672     7565     7435 
    7334     7276     7236     7219     7269     7360     7416     7445 
    7466     7449     7411     7452     7526     7485     7350     7283 
    7317     7345     7326     7318     7357     7423     7499     7553 
    7547     7507     7489     7497     7481     7398     7230     7042 
    6952     7001     7123     7244     7348     7437     7495     7533 
    7576     7612     7619     7580     7485     7344     7222     7194 
    7277     7433     7565     7582     7511     7461     7458     7433 
    7384     7361     7348     7331     7349     7381     7391     7399 
    7442     7483     7439     7318     7211     7183     7242     7357 
    7484     7596     7681     7743     7771     7739     7688     7684 
    7692     7647     7550     7425     7334     7337     7404     7461 
    7469     7441     7416     7438     7480     7461     7387     7345 
    7361     7395     7422     7503     7672     7846     7929     7878 
    7703     7477     7308     7264     7306     7341     7368     7449 
    7530     7515     7458     7442     7453     7476     7520     7555 
    7547     7530     7539     7535     7499     7481     7483     7452 
    7375     7295     7240     7222     7264     7333     7368     7387 
    7446     7555     7653     7669     7605     7501     7354     7171 
    7051     7065     7152     7238     7334     7443     7503     7474 
    7446     7495     7553     7537     7464     7396     7345     7314 
    7344     7423     7474     7479     7519     7615     7677     7665 
    7635     7620     7569     7466     7375     7295     7187     7128 
    7202     7334     7399     7402     7437     7510     7555     7553 
    7541     7565     7611     7608     7526     7445     7426     7437 
    7457     7479     7442     7350     7299     7311     7326     7357 
    7427     7499     7572     7616     7561     7484     7500     7530 
    7456     7331     7283     7314     7354     7404     7454     7446 
    7396     7366     7342     7312     7353     7491     7645     7734 
    7746     7699     7654     7663     7670     7596     7489     7427 
    7393     7358     7298     7176     7051     7069     7256     7450 
    7557     7626     7704     7754     7703     7546     7358     7210 
    7136     7125     7138     7171     7238     7321     7384     7406 
    7381     7376     7462     7627     7751     7749     7715     7773 
    7831     7735     7530     7345     7203     7079     6982     6960 
    7048     7190     7356     7588     7838     7971     7963     7875 
    7727     7497     7249     7092     7074     7125     7163     7226 
    7357     7476     7545     7580     7553     7504     7528     7624 
    7709     7704     7604     7506     7495     7565     7645     7635 
    7503     7348     7276     7279     7304     7354     7393     7357 
    7275     7222     7222     7279     7391     7516     7627     7704 
    7738     7724     7624     7434     7250     7195     7318     7554 
    7758     7857     7871     7828     7747     7651     7514     7312 
    7082     6895     6793     6799     6951     7203     7453     7649 
    7736     7661     7489     7346     7291     7322     7391     7449 
    7546     7654     7638     7501     7368     7287     7245     7268 
    7389     7555     7658     7636     7528     7391     7275     7275 
    7416     7562     7585     7543     7553     7581     7527     7425 
    7364     7356     7361     7335     7296     7330     7464     7611 
    7661     7615     7561     7528     7473     7371     7260     7204 
    7263     7439     7678     7875     7888     7674     7385     7159 
    6999     6910     6929     7042     7204     7442     7734     7936 
    7940     7807     7653     7511     7379     7296     7288     7326 
    7377     7450     7578     7690     7655     7476     7265     7136 
    7167     7346     7553     7662     7700     7771     7861     7889 
    7844     7715     7514     7364     7314     7263     7137     7001 
    6968     7049     7167     7288     7412     7520     7603     7658 
    7672     7666     7677     7658     7555     7411     7300     7248 
    7227     7215     7213     7207     7207     7256     7312     7318 
    7323     7377     7435     7464     7476     7465     7456     7520 
    7672     7832     7954     8041     8036     7842     7526     7281 
    7175     7110     7045     7072     7236     7453     7588     7547 
    7384     7237     7171     7198     7331     7495     7568     7547 
    7507     7450     7312     7136     7061     7184     7479     7796 
    7990     8016     7904     7708     7461     7173     6899     6740 
    6764     6934     7153     7372     7619     7901     8110     8162 
    8149     8133     7985     7634     7242     6988     6868     6791 
    6763     6840     6988     7142     7337     7607     7854     7990 
    8087     8174     8129     7908     7627     7391     7230     7160 
    7153     7145     7117     7129     7194     7219     7211     7280 
    7449     7630     7735     7758     7744     7716     7663     7600 
    7557     7524     7465     7406     7379     7368     7416     7577 
    7751     7817     7796     7736     7580     7302     7003     6785 
    6660     6643     6799     7128     7493     7811     8094     8284 
    8243     7951     7582     7299     7103     6937     6793     6736 
    6835     7084     7398     7662     7827     7919     7913     7751 
    7515     7358     7338     7415     7541     7657     7730     7767 
    7781     7753     7636     7416     7171     7029     7007     7034 
    7134     7330     7518     7638     7688     7618     7468     7402 
    7462     7522     7524     7547     7605     7619     7520     7341 
    7241     7339     7542     7693     7767     7792     7750     7614 
    7416     7237     7117     7048     7041     7068     7059     7030 
    7086     7234     7418     7619     7817     7971     8083     8105 
    7932     7584     7222     6980     6822     6654     6548     6621 
    6821     7036     7213     7341     7492     7728     7977     8120 
    8127     8017     7843     7685     7568     7454     7364     7307 
    7183     6952     6764     6727     6795     6955     7246     7612 
    7905     8009     7928     7766     7615     7507     7446     7393 
    7337     7352     7434     7499     7537     7551     7531     7558 
    7686     7828     7873     7785     7622     7487     7350     7133 
    6968     7006     7190     7426     7663     7825     7852     7789 
    7722     7655     7550     7446     7403     7403     7381     7306 
    7249     7352     7558     7695     7765     7844     7874     7804 
    7680     7508     7260     7015     6934     7017     7091     7080 
    7061     7092     7184     7349     7551     7747     7933     8078 
    8089     7950     7759     7565     7322     7068     6928     6937 
    7006     7041     7059     7088     7106     7122     7221     7439 
    7662     7790     7885     7967     7944     7739     7389     7061 
    6870     6794     6856     7106     7434     7720     7969     8116 
    8052     7805     7541     7388     7327     7303     7304     7283 
    7227     7242     7366     7493     7588     7707     7812     7801 
    7697     7627     7603     7545     7465     7430     7443     7497 
    7616     7790     7898     7834     7699     7632     7615     7584 
    7530     7420     7258     7146     7122     7101     7025     6940 
    6966     7138     7333     7439     7506     7605     7728     7813 
    7813     7723     7587     7491     7458     7407     7298     7172 
    7065     7020     7091     7246     7388     7485     7566     7609 
    7534     7307     7067     7011     7146     7275     7268     7184 
    7140     7152     7152     7133     7167     7279     7454     7685 
    7900     7985     7924     7797     7676     7601     7592     7603 
    7565     7492     7460     7497     7553     7547     7461     7318 
    7121     6913     6837     6990     7272     7524     7686     7763 
    7763     7711     7662     7587     7423     7249     7167     7114 
    7053     7105     7300     7507     7658     7800     7920     7955 
    7892     7785     7692     7622     7561     7468     7281     7042 
    6863     6770     6795     7010     7314     7515     7591     7615 
    7622     7630     7634     7585     7503     7485     7545     7607 
    7649     7665     7624     7557     7549     7616     7669     7651 
    7609     7553     7456     7350     7304     7288     7249     7226 
    7268     7330     7377     7452     7535     7549     7480     7411 
    7442     7574     7732     7879     7960     7942     7915     7875 
    7690     7419     7231     7107     6998     6983     7109     7295 
    7442     7508     7528     7560     7627     7681     7657     7569 
    7476     7399     7349     7331     7337     7377     7435     7446 
    7418     7400     7384     7356     7321     7290     7269     7229 
    7183     7242     7408     7497     7449     7429     7553     7724 
    7796     7744     7601     7385     7209     7148     7102     6994 
    6913     6964     7128     7299     7434     7516     7484     7388 
    7412     7569     7673     7646     7597     7615     7627     7561 
    7435     7280     7142     7101     7145     7225     7352     7515 
    7616     7608     7573     7581     7628     7738     7894     7947 
    7800     7584     7487     7504     7488     7423     7425     7487 
    7523     7526     7483     7364     7252     7283     7414     7466 
    7395     7321     7318     7304     7231     7164     7148     7133 
    7092     7119     7271     7458     7555     7553     7507     7429 
    7342     7317     7354     7426     7554     7704     7778     7758 
    7704     7665     7653     7672     7689     7638     7537     7460 
    7403     7337     7276     7241     7230     7252     7333     7477 
    7619     7666     7619     7537     7462     7419     7410     7423 
    7454     7497     7564     7662     7726     7669     7589     7630 
    7708     7666     7503     7317     7195     7148     7126     7098 
    7071     7096     7184     7240     7234     7283     7447     7638 
    7730     7715     7658     7607     7623     7716     7774     7727 
    7628     7507     7341     7172     7113     7195     7317     7391 
    7429     7457     7461     7446     7416     7321     7168     7069 
    7068     7088     7091     7113     7196     7349     7534     7673 
    7701     7647     7593     7595     7641     7661     7635     7631 
    7681     7731     7747     7771     7796     7692     7422     7187 
    7183     7358     7551     7711     7840     7870     7754     7574 
    7404     7267     7194     7176     7167     7188     7310     7519 
    7666     7655     7560     7453     7344     7263     7253     7295 
    7290     7209     7164     7252     7447     7650     7762     7770 
    7757     7776     7766     7630     7423     7312     7292     7253 
    7233     7271     7307     7334     7371     7380     7304     7159 
    7032     6972     6968     7007     7134     7420     7797     8031 
    7975     7699     7341     7017     6799     6689     6690     6813 
    7002     7229     7503     7781     8009     8159     8217     8181 
    8062     7897     7681     7434     7285     7291     7344     7334 
    7233     7065     6897     6848     7005     7267     7431     7458 
    7491     7604     7703     7705     7642     7582     7547     7496 
    7429     7391     7377     7344     7288     7253     7288     7422 
    7628     7843     7975     7967     7857     7757     7715     7682 
    7582     7430     7306     7226     7192     7230     7315     7393 
    7465     7555     7636     7677     7715     7770     7784     7740 
    7692     7626     7489     7281     7033     6809     6731     6863 
    7115     7342     7523     7732     7956     8104     8141     8064 
