Origin Time       2025/06/03 22:18:00
Lat.              41.7
Long.             143.6
Depth. (km)       30
Mag.              5.2
Station Code      HKD095
Station Lat.      42.9311
Station Long.     143.2137
Station Height(m) 35
Record Time       2025/06/03 22:19:13
Sampling Freq(Hz) 100Hz
Duration Time(s)  60
Dir.              N-S
Scale Factor      7845(gal)/8223790
Max. Acc. (gal)   1.485
Last Correction   2025/06/03 22:19:14
Memo.             
[...]
   -2937    -2913    -2911    -2938    -2971    -2960    -2906    -2876 
   -2889    -2874    -2813    -2767    -2762    -2762    -2749    -2749 
   -2779    -2802    -2772    -2694    -2629    -2647    -2733    -2779 
   -2731    -2647    -2598    -2594    -2624    -2677    -2733    -2760 
   -2743    -2706    -2702    -2743    -2794    -2843    -2898    -2970 
   -3044    -3118    -3190    -3221    -3184    -3127    -3100    -3083 
   -3040    -2984    -2968    -3011    -3082    -3133    -3171    -3233 
   -3298    -3276    -3148    -3014    -2956    -2959    -2982    -3010 
   -3033    -3015    -2952    -2902    -2905    -2945    -2963    -2909 
   -2793    -2673    -2578    -2512    -2469    -2466    -2521    -2606 
   -2655    -2650    -2652    -2708    -2785    -2837    -2852    -2833 
   -2786    -2735    -2717    -2770    -2887    -3010    -3056    -3002 
   -2898    -2803    -2752    -2751    -2787    -2844    -2889    -2883 
   -2841    -2835    -2895    -2980    -3022    -2995    -2949    -2933 
   -2926    -2910    -2901    -2893    -2859    -2817    -2808    -2837 
   -2880    -2913    -2914    -2890    -2853    -2805    -2744    -2697 
   -2694    -2736    -2793    -2841    -2882    -2914    -2944    -2971 
   -2978    -2951    -2898    -2855    -2876    -2976    -3106    -3206 
   -3244    -3218    -3146    -3075    -3065    -3107    -3150    -3184 
   -3221    -3248    -3244    -3218    -3199    -3188    -3181    -3172 
   -3145    -3100    -3048    -2994    -2941    -2870    -2776    -2701 
   -2671    -2704    -2816    -2965    -3056    -3034    -2951    -2872 
   -2813    -2770    -2764    -2787    -2775    -2728    -2701    -2693 
   -2679    -2694    -2763    -2843    -2875    -2874    -2871    -2866 
   -2841    -2814    -2806    -2809    -2803    -2770    -2731    -2735 
   -2771    -2791    -2799    -2821    -2851    -2863    -2841    -2822 
   -2856    -2934    -3013    -3064    -3090    -3076    -3028    -2988 
   -2970    -2938    -2905    -2891    -2882    -2863    -2836    -2789 
   -2733    -2712    -2722    -2741    -2772    -2820    -2863    -2889 
   -2878    -2825    -2745    -2647    -2571    -2605    -2767    -2952 
   -3049    -3046    -2978    -2866    -2766    -2760    -2856    -2951 
   -2967    -2956    -2998    -3086    -3157    -3188    -3210    -3250 
   -3289    -3292    -3260    -3235    -3233    -3188    -3087    -3015 
   -3025    -3059    -3053    -3013    -2983    -2986    -3009    -3022 
   -3002    -2944    -2837    -2705    -2608    -2566    -2544    -2551 
   -2579    -2577    -2546    -2550    -2616    -2702    -2748    -2733 
   -2670    -2582    -2527    -2542    -2586    -2601    -2585    -2558 
   -2532    -2551    -2651    -2794    -2909    -2957    -2952    -2937 
   -2933    -2920    -2890    -2853    -2821    -2794    -2774    -2781 
   -2836    -2917    -2957    -2936    -2901    -2884    -2883    -2910 
   -3003    -3141    -3248    -3281    -3265    -3225    -3144    -3032 
   -2941    -2898    -2887    -2905    -2974    -3106    -3260    -3348 
   -3335    -3257    -3148    -3017    -2901    -2847    -2821    -2758 
   -2685    -2686    -2774    -2872    -2928    -2944    -2930    -2884 
   -2810    -2758    -2791    -2890    -2970    -2988    -2980    -2991 
   -3025    -3064    -3105    -3146    -3184    -3198    -3152    -3065 
   -3022    -3033    -3026    -2988    -2976    -2988    -2994    -2992 
   -2984    -2968    -2938    -2870    -2764    -2677    -2641    -2647 
   -2675    -2714    -2752    -2768    -2756    -2728    -2716    -2736 
   -2758    -2739    -2695    -2651    -2612    -2587    -2590    -2602 
   -2598    -2592    -2600    -2613    -2612    -2623    -2673    -2745 
   -2812    -2863    -2899    -2910    -2898    -2868    -2841    -2849 
   -2895    -2963    -3038    -3102    -3134    -3136    -3117    -3078 
   -3036    -2995    -2936    -2868    -2835    -2866    -2947    -3045 
   -3136    -3195    -3222    -3233    -3218    -3173    -3118    -3061 
   -2983    -2886    -2824    -2845    -2920    -2998    -3065    -3105 
   -3087    -3025    -2949    -2883    -2829    -2793    -2772    -2766 
   -2758    -2768    -2862    -3028    -3149    -3149    -3036    -2829 
   -2577    -2398    -2378    -2459    -2548    -2610    -2656    -2681 
   -2686    -2704    -2731    -2760    -2803    -2818    -2790    -2802 
   -2920    -3060    -3115    -3100    -3100    -3103    -3060    -2991 
   -2955    -2979    -3028    -3060    -3075    -3098    -3129    -3126 
   -3067    -2992    -2952    -2941    -2913    -2843    -2767    -2758 
   -2829    -2933    -3007    -3033    -3026    -3009    -2986    -2953 
   -2913    -2859    -2760    -2614    -2496    -2478    -2547    -2641 
   -2747    -2863    -2945    -2949    -2893    -2828    -2782    -2771 
   -2785    -2787    -2797    -2871    -2988    -3048    -3029    -3017 
   -3037    -3037    -3010    -3006    -3034    -3055    -3038    -3003 
   -2988    -2970    -2889    -2763    -2660    -2620    -2652    -2735 
   -2808    -2835    -2835    -2840    -2839    -2825    -2816    -2818 
   -2828    -2820    -2778    -2739    -2732    -2759    -2814    -2868 
   -2906    -2943    -2979    -2988    -2980    -2991    -3015    -3002 
   -2945    -2899    -2913    -2970    -3022    -3063    -3096    -3117 
   -3091    -3003    -2910    -2897    -2964    -3041    -3071    -3046 
   -3006    -2991    -3017    -3064    -3106    -3152    -3195    -3192 
   -3169    -3199    -3280    -3333    -3339    -3323    -3245    -3084 
   -2922    -2818    -2758    -2741    -2775    -2820    -2833    -2818 
   -2797    -2782    -2759    -2721    -2701    -2695    -2655    -2594 
   -2578    -2602    -2633    -2662    -2677    -2667    -2644    -2621 
   -2602    -2610    -2678    -2774    -2812    -2771    -2728    -2733 
   -2749    -2751    -2764    -2801    -2847    -2891    -2924    -2956 
   -2990    -3013    -3015    -3010    -3025    -3072    -3102    -3071 
   -3019    -3005    -3014    -3005    -2979    -2986    -3033    -3067 
   -3048    -2982    -2901    -2833    -2790    -2782    -2785    -2751 
   -2678    -2612    -2565    -2513    -2470    -2474    -2512    -2563 
   -2660    -2803    -2918    -2968    -2965    -2926    -2851    -2758 
   -2689    -2658    -2662    -2724    -2840    -2963    -3041    -3052 
   -3022    -2984    -2924    -2836    -2785    -2816    -2889    -2968 
   -3063    -3134    -3136    -3092    -3061    -3037    -2976    -2872 
   -2749    -2662    -2656    -2712    -2790    -2897    -3007    -3056 
   -3042    -3019    -2998    -2979    -2976    -2979    -2984    -3022 
   -3076    -3113    -3141    -3156    -3109    -2979    -2820    -2705 
   -2697    -2782    -2883    -2955    -2997    -3006    -2975    -2907 
   -2830    -2763    -2683    -2586    -2513    -2513    -2581    -2677 
   -2778    -2879    -2953    -2959    -2897    -2843    -2855    -2913 
   -2949    -2928    -2852    -2762    -2718    -2785    -2956    -3145 
   -3249    -3246    -3202    -3156    -3092    -3010    -2955    -2951 
   -2970    -2999    -3060    -3137    -3181    -3175    -3134    -3055 
   -2928    -2783    -2660    -2579    -2548    -2592    -2709    -2860 
   -2991    -3063    -3044    -2949    -2839    -2768    -2752    -2791 
   -2894    -3033    -3134    -3148    -3105    -3064    -3036    -3003 
   -2982    -2994    -3024    -3065    -3123    -3152    -3109    -3024 
   -2948    -2903    -2889    -2874    -2822    -2740    -2677    -2670 
   -2694    -2693    -2671    -2712    -2826    -2934    -2999    -3045 
   -3040    -2933    -2770    -2646    -2585    -2558    -2575    -2663 
   -2789    -2899    -2998    -3103    -3183    -3188    -3084    -2874 
   -2619    -2413    -2359    -2502    -2776    -3060    -3256    -3338 
   -3350    -3326    -3272    -3184    -3059    -2880    -2677    -2525 
   -2501    -2627    -2836    -3033    -3187    -3300    -3342    -3272 
   -3113    -2933    -2802    -2740    -2713    -2713    -2774    -2886 
   -3002    -3117    -3227    -3265    -3195    -3056    -2903    -2797 
   -2764    -2789    -2872    -3024    -3199    -3308    -3322    -3279 
   -3206    -3109    -2975    -2809    -2673    -2616    -2628    -2679 
   -2759    -2841    -2878    -2844    -2778    -2735    -2717    -2697 
   -2690    -2716    -2754    -2782    -2787    -2743    -2660    -2602 
   -2590    -2594    -2627    -2714    -2830    -2955    -3096    -3231 
   -3319    -3350    -3322    -3221    -3063    -2879    -2705    -2587 
   -2560    -2612    -2698    -2783    -2863    -2937    -2998    -3030 
   -3019    -2963    -2890    -2849    -2856    -2899    -2988    -3103 
   -3173    -3169    -3110    -3036    -3002    -3009    -2987    -2914 
   -2856    -2855    -2851    -2808    -2766    -2741    -2705    -2651 
   -2620    -2650    -2732    -2845    -2967    -3071    -3123    -3094 
   -2983    -2845    -2745    -2674    -2586    -2494    -2455    -2508 
   -2639    -2786    -2911    -2999    -3003    -2934    -2884    -2878 
   -2848    -2770    -2705    -2706    -2778    -2884    -2972    -3001 
   -2970    -2878    -2739    -2600    -2482    -2396    -2374    -2397 
   -2413    -2442    -2532    -2668    -2791    -2841    -2781    -2636 
   -2498    -2438    -2465    -2577    -2778    -3022    -3227    -3331 
   -3314    -3188    -2991    -2772    -2582    -2466    -2448    -2525 
   -2662    -2821    -2978    -3140    -3329    -3534    -3690    -3761 
   -3751    -3646    -3457    -3276    -3195    -3196    -3214    -3246 
   -3322    -3412    -3464    -3462    -3433    -3395    -3330    -3248 
   -3235    -3337    -3480    -3559    -3523    -3356    -3071    -2737 
   -2473    -2353    -2362    -2452    -2581    -2686    -2710    -2633 
   -2486    -2332    -2218    -2139    -2104    -2139    -2243    -2389 
   -2542    -2678    -2794    -2883    -2938    -2974    -3003    -3028 
   -3037    -3022    -2986    -2964    -2957    -2929    -2866    -2782 
   -2677    -2542    -2413    -2339    -2324    -2339    -2396    -2523 
   -2694    -2855    -2983    -3107    -3242    -3360    -3442    -3516 
   -3573    -3551    -3445    -3296    -3127    -2961    -2841    -2790 
   -2825    -2943    -3060    -3099    -3082    -3045    -2976    -2905 
   -2907    -2979    -3021    -2975    -2889    -2840    -2844    -2852 
   -2832    -2812    -2814    -2835    -2882    -2965    -3030    -3028 
   -2963    -2862    -2743    -2625    -2544    -2523    -2536    -2563 
   -2624    -2731    -2829    -2867    -2866    -2844    -2820    -2862 
   -2988    -3118    -3175    -3167    -3110    -3006    -2852    -2681 
   -2592    -2623    -2705    -2809    -2937    -3010    -2975    -2911 
   -2921    -2994    -3078    -3102    -3022    -2897    -2814    -2814 
   -2928    -3161    -3411    -3541    -3524    -3427    -3310    -3184 
   -3037    -2907    -2839    -2789    -2708    -2635    -2593    -2550 
   -2515    -2532    -2586    -2632    -2655    -2670    -2701    -2743 
   -2741    -2683    -2621    -2586    -2566    -2569    -2620    -2704 
   -2785    -2826    -2787    -2678    -2546    -2428    -2369    -2403 
   -2505    -2612    -2668    -2660    -2625    -2614    -2624    -2631 
   -2651    -2722    -2844    -3007    -3180    -3314    -3403    -3460 
   -3456    -3368    -3211    -3021    -2852    -2749    -2710    -2708 
   -2745    -2839    -2971    -3122    -3271    -3368    -3358    -3245 
   -3076    -2901    -2744    -2624    -2562    -2596    -2755    -3009 
   -3287    -3537    -3723    -3808    -3786    -3682    -3497    -3233 
   -2949    -2721    -2569    -2498    -2544    -2714    -2929    -3075 
   -3109    -3086    -3048    -2978    -2872    -2797    -2820    -2925 
   -3056    -3194    -3333    -3433    -3446    -3353    -3173    -2960 
   -2767    -2651    -2681    -2852    -3044    -3140    -3144    -3121 
   -3103    -3105    -3109    -3044    -2860    -2623    -2443    -2350 
   -2303    -2293    -2331    -2392    -2425    -2412    -2377    -2384 
   -2471    -2606    -2731    -2825    -2898    -2945    -2982    -3007 
   -2984    -2929    -2930    -3006    -3072    -3103    -3113    -3049 
   -2857    -2567    -2286    -2134    -2165    -2330    -2538    -2739 
   -2882    -2916    -2870    -2808    -2709    -2565    -2435    -2363 
   -2362    -2444    -2581    -2720    -2844    -2963    -3052    -3053 
   -2967    -2886    -2871    -2891    -2909    -2922    -2928    -2930 
   -2903    -2789    -2624    -2532    -2594    -2768    -2976    -3165 
   -3319    -3430    -3496    -3531    -3547    -3481    -3284    -3017 
   -2766    -2587    -2546    -2658    -2849    -3065    -3289    -3462 
   -3501    -3399    -3221    -3038    -2886    -2763    -2683    -2666 
   -2725    -2860    -3045    -3254    -3461    -3615    -3661    -3589 
   -3430    -3221    -2994    -2791    -2650    -2609    -2663    -2747 
   -2841    -2970    -3075    -3063    -2932    -2748    -2532    -2335 
   -2269    -2353    -2492    -2637    -2775    -2820    -2724    -2581 
   -2500    -2497    -2535    -2602    -2704    -2844    -3005    -3138 
   -3229    -3307    -3384    -3416    -3384    -3350    -3397    -3532 
   -3694    -3831    -3955    -4055    -4059    -3964    -3867    -3811 
   -3746    -3651    -3568    -3485    -3341    -3181    -3141    -3226 
   -3337    -3445    -3543    -3569    -3516    -3457    -3392    -3287 
   -3195    -3187    -3260    -3380    -3492    -3526    -3447    -3289 
   -3107    -2936    -2786    -2643    -2469    -2230    -1931    -1632 
   -1413    -1336    -1433    -1676    -1988    -2280    -2443    -2412 
   -2239    -2038    -1880    -1784    -1760    -1779    -1815    -1918 
   -2131    -2404    -2664    -2849    -2886    -2770    -2610    -2505 
   -2451    -2408    -2349    -2285    -2253    -2245    -2223    -2208 
   -2254    -2344    -2394    -2367    -2316    -2307    -2367    -2484 
   -2617    -2717    -2771    -2806    -2839    -2886    -2975    -3071 
   -3099    -3046    -2949    -2839    -2743    -2720    -2818    -2987 
   -3138    -3238    -3256    -3169    -3013    -2870    -2825    -2870 
   -2898    -2853    -2764    -2674    -2631    -2664    -2732    -2771 
   -2798    -2847    -2889    -2894    -2860    -2779    -2664    -2569 
   -2533    -2554    -2632    -2789    -3018    -3292    -3570    -3794 
   -3929    -3966    -3920    -3827    -3709    -3595    -3532    -3568 
   -3676    -3794    -3913    -4025    -4060    -4000    -3909    -3848 
   -3794    -3719    -3678    -3715    -3775    -3800    -3777    -3694 
   -3557    -3399    -3250    -3107    -2991    -2934    -2909    -2880 
   -2852    -2829    -2802    -2778    -2735    -2627    -2469    -2316 
   -2196    -2133    -2143    -2197    -2246    -2274    -2307    -2371 
   -2470    -2585    -2682    -2718    -2656    -2513    -2370    -2289 
   -2288    -2371    -2520    -2695    -2882    -3051    -3148    -3141 
   -3052    -2899    -2686    -2447    -2242    -2099    -2018    -2000 
   -2030    -2085    -2162    -2259    -2374    -2484    -2563    -2623 
   -2681    -2722    -2737    -2759    -2828    -2957    -3145    -3362 
   -3564    -3746    -3933    -4102    -4214    -4255    -4217    -4085 
   -3852    -3534    -3181    -2897    -2735    -2650    -2581    -2509 
   -2432    -2336    -2228    -2151    -2162    -2278    -2443    -2573 
   -2629    -2633    -2605    -2544    -2466    -2397    -2347    -2299 
   -2288    -2398    -2619    -2829    -2983    -3117    -3217    -3245 
   -3230    -3226    -3238    -3242    -3230    -3234    -3276    -3325 
   -3334    -3300    -3233    -3138    -3034    -2938    -2867    -2829 
   -2810    -2783    -2748    -2713    -2660    -2563    -2454    -2397 
   -2408    -2454    -2533    -2658    -2789    -2836    -2725    -2477 
   -2189    -1946    -1790    -1776    -1953    -2254    -2551    -2795 
   -2995    -3122    -3176    -3211    -3231    -3192    -3110    -3030 
   -2955    -2907    -2929    -2992    -3049    -3102    -3184    -3298 
   -3393    -3441    -3468    -3495    -3483    -3414    -3311    -3214 
   -3145    -3121    -3156    -3237    -3318    -3362    -3342    -3238 
   -3088    -2963    -2891    -2862    -2872    -2918    -2975    -3011 
   -3017    -2976    -2868    -2716    -2577    -2481    -2428    -2421 
   -2444    -2489    -2598    -2803    -3051    -3264    -3418    -3510 
   -3549    -3554    -3527    -3485    -3492    -3554    -3620    -3672 
   -3735    -3790    -3767    -3622    -3362    -3041    -2705    -2404 
   -2215    -2155    -2177    -2246    -2365    -2496    -2593    -2655 
   -2702    -2709    -2655    -2600    -2602    -2650    -2716    -2820 
   -2971    -3102    -3133    -3067    -2949    -2820    -2710    -2639 
   -2606    -2619    -2671    -2720    -2747    -2802    -2905    -2992 
   -3019    -3021    -3037    -3044    -2987    -2879    -2774    -2695 
   -2631    -2594    -2608    -2682    -2779    -2848    -2852    -2772 
   -2623    -2458    -2344    -2326    -2392    -2492    -2586    -2675 
   -2770    -2867    -2930    -2934    -2886    -2797    -2694    -2619 
   -2621    -2702    -2801    -2879    -2925    -2933    -2944    -2998 
   -3065    -3092    -3080    -3069    -3109    -3200    -3287    -3341 
   -3379    -3379    -3322    -3245    -3153    -3030    -2899    -2789 
   -2705    -2663    -2702    -2833    -3011    -3153    -3199    -3144 
   -3030    -2941    -2944    -3011    -3076    -3137    -3203    -3215 
   -3136    -3024    -2948    -2916    -2909    -2926    -2955    -2970 
   -2986    -3030    -3092    -3127    -3109    -3055    -2998    -2936 
   -2876    -2880    -2947    -3011    -3069    -3149    -3213    -3194 
   -3082    -2907    -2701    -2509    -2377    -2304    -2262    -2258 
   -2317    -2423    -2528    -2651    -2824    -2997    -3099    -3145 
   -3172    -3181    -3175    -3194    -3249    -3307    -3345    -3362 
   -3370    -3376    -3368    -3331    -3275    -3217    -3172    -3132 
   -3064    -2957    -2847    -2782    -2754    -2739    -2756    -2820 
   -2891    -2909    -2839    -2708    -2570    -2458    -2380    -2340 
   -2342    -2366    -2393    -2425    -2461    -2481    -2478    -2448 
   -2423    -2447    -2515    -2577    -2631    -2671    -2658    -2602 
   -2560    -2552    -2565    -2598    -2660    -2718    -2713    -2640 
   -2546    -2448    -2343    -2255    -2231    -2274    -2334    -2382 
   -2425    -2479    -2546    -2633    -2760    -2937    -3114    -3226 
   -3284    -3337    -3385    -3427    -3483    -3574    -3693    -3811 
   -3892    -3910    -3882    -3839    -3778    -3685    -3588    -3514 
   -3434    -3326    -3214    -3148    -3130    -3125    -3099    -3060 
   -3024    -2972    -2889    -2802    -2764    -2758    -2729    -2678 
   -2637    -2627    -2652    -2709    -2783    -2857    -2936    -3029 
   -3106    -3138    -3141    -3115    -3034    -2911    -2798    -2720 
   -2689    -2731    -2829    -2932    -3003    -3040    -3059    -3063 
   -3040    -2999    -2918    -2762    -2571    -2424    -2328    -2288 
   -2334    -2463    -2625    -2767    -2849    -2848    -2802    -2783 
   -2787    -2785    -2805    -2868    -2956    -3046    -3118    -3150 
   -3146    -3113    -3052    -2957    -2828    -2705    -2636    -2631 
   -2677    -2749    -2790    -2749    -2636    -2498    -2393    -2330 
   -2290    -2285    -2335    -2439    -2597    -2813    -3076    -3335 
