Origin Time       2025/06/03 22:18:00
Lat.              41.7
Long.             143.6
Depth. (km)       30
Mag.              5.2
Station Code      HKD097
Station Lat.      42.6181
Station Long.     143.4210
Station Height(m) 33
Record Time       2025/06/03 22:18:57
Sampling Freq(Hz) 100Hz
Duration Time(s)  65
Dir.              E-W
Scale Factor      7845(gal)/8223790
Max. Acc. (gal)   3.744
Last Correction   2025/06/03 22:18:41
Memo.             
[...]
  -17180   -17182   -17186   -17184   -17182   -17184   -17185   -17189 
  -17188   -17184   -17185   -17186   -17184   -17185   -17186   -17184 
  -17182   -17185   -17186   -17185   -17185   -17185   -17186   -17186 
  -17185   -17184   -17184   -17186   -17186   -17184   -17185   -17185 
  -17184   -17184   -17185   -17185   -17186   -17186   -17186   -17184 
  -17185   -17186   -17184   -17185   -17188   -17188   -17185   -17186 
  -17185   -17184   -17184   -17185   -17184   -17181   -17181   -17182 
  -17182   -17181   -17182   -17185   -17182   -17182   -17185   -17186 
  -17186   -17188   -17186   -17184   -17182   -17181   -17180   -17180 
  -17176   -17174   -17181   -17182   -17178   -17178   -17181   -17182 
  -17184   -17185   -17185   -17184   -17180   -17176   -17173   -17174 
  -17177   -17180   -17184   -17186   -17188   -17188   -17186   -17182 
  -17178   -17182   -17186   -17189   -17194   -17200   -17200   -17196 
  -17192   -17186   -17185   -17193   -17205   -17212   -17216   -17220 
  -17223   -17221   -17212   -17203   -17199   -17197   -17197   -17197 
  -17197   -17200   -17205   -17208   -17204   -17203   -17211   -17223 
  -17228   -17228   -17228   -17230   -17236   -17244   -17238   -17224 
  -17216   -17207   -17192   -17188   -17199   -17216   -17232   -17242 
  -17234   -17219   -17215   -17208   -17185   -17159   -17139   -17134 
  -17135   -17120   -17085   -17065   -17068   -17072   -17080   -17112 
  -17163   -17213   -17244   -17243   -17200   -17157   -17132   -17088 
  -17035   -17015   -17024   -17058   -17124   -17193   -17244   -17292 
  -17327   -17329   -17312   -17280   -17224   -17154   -17085   -17023 
  -16973   -16953   -16964   -16976   -16983   -16984   -16988   -17012 
  -17065   -17136   -17211   -17273   -17305   -17319   -17324   -17323 
  -17313   -17281   -17221   -17155   -17101   -17064   -17061   -17085 
  -17111   -17155   -17217   -17281   -17356   -17432   -17458   -17428 
  -17370   -17288   -17197   -17120   -17051   -16981   -16927   -16904 
  -16906   -16931   -16993   -17086   -17182   -17262   -17329   -17389 
  -17437   -17466   -17462   -17428   -17386   -17350   -17324   -17317 
  -17325   -17340   -17369   -17406   -17424   -17419   -17416   -17400 
  -17335   -17240   -17154   -17089   -17054   -17028   -16984   -16935 
  -16910   -16897   -16892   -16908   -16950   -17004   -17065   -17109 
  -17127   -17150   -17188   -17235   -17296   -17373   -17456   -17544 
  -17616   -17622   -17547   -17401   -17211   -17022   -16883   -16808 
  -16804   -16860   -16942   -17039   -17159   -17280   -17365   -17398 
  -17375   -17308   -17220   -17124   -17031   -16947   -16876   -16833 
  -16837   -16895   -17007   -17166   -17356   -17533   -17658   -17733 
  -17761   -17728   -17649   -17539   -17379   -17205   -17074   -16966 
  -16864   -16800   -16777   -16779   -16834   -16922   -16993   -17064 
  -17108   -17072   -16991   -16919   -16849   -16827   -16910   -17007 
  -17062   -17163   -17297   -17383   -17460   -17541   -17593   -17632 
  -17676   -17712   -17726   -17728   -17705   -17621   -17486   -17358 
  -17228   -17070   -16924   -16803   -16710   -16691   -16745   -16866 
  -17051   -17242   -17404   -17520   -17551   -17497   -17381   -17188 
  -16933   -16677   -16482   -16395   -16447   -16605   -16810   -17050 
  -17312   -17532   -17701   -17837   -17905   -17883   -17802   -17679 
  -17512   -17328   -17189   -17080   -16951   -16865   -16825   -16775 
  -16769   -16834   -16902   -16984   -17082   -17145   -17155   -17147 
  -17115   -17047   -17012   -17041   -17039   -17034   -17113   -17157 
  -17150   -17212   -17250   -17239   -17280   -17338   -17362   -17365 
  -17340   -17285   -17203   -17113   -17043   -17020   -17005   -16989 
  -17032   -17072   -17061   -17108   -17196   -17240   -17263   -17259 
  -17197   -17099   -17003   -16938   -16904   -16883   -16893   -16969 
  -17041   -17089   -17205   -17328   -17386   -17473   -17583   -17651 
  -17672   -17675   -17675   -17658   -17628   -17583   -17535   -17489 
  -17378   -17236   -17149   -17051   -16960   -16974   -17024   -17027 
  -17039   -17053   -17026   -16997   -17012   -17065   -17138   -17239 
  -17332   -17352   -17311   -17247   -17163   -17076   -17004   -16978 
  -17024   -17093   -17158   -17240   -17298   -17311   -17325   -17328 
  -17309   -17324   -17369   -17427   -17466   -17460   -17417   -17324 
  -17196   -17092   -17004   -16946   -16943   -16957   -16966   -16983 
  -17001   -17032   -17077   -17127   -17186   -17250   -17285   -17292 
  -17280   -17244   -17203   -17173   -17163   -17174   -17200   -17226 
  -17232   -17201   -17155   -17122   -17082   -17030   -16980   -16951 
  -16937   -16934   -16945   -16966   -16999   -17039   -17082   -17123 
  -17153   -17170   -17188   -17215   -17242   -17248   -17242   -17251 
  -17267   -17300   -17371   -17458   -17550   -17671   -17770   -17787 
  -17733   -17608   -17404   -17165   -16957   -16802   -16708   -16698 
  -16756   -16881   -17066   -17263   -17443   -17579   -17622   -17566 
  -17439   -17270   -17086   -16935   -16830   -16762   -16744   -16768 
  -16826   -16908   -17001   -17103   -17204   -17289   -17348   -17370 
  -17348   -17293   -17226   -17199   -17203   -17192   -17200   -17231 
  -17223   -17193   -17181   -17172   -17161   -17172   -17201   -17224 
  -17235   -17240   -17235   -17221   -17217   -17200   -17172   -17196 
  -17201   -17132   -17078   -17020   -16907   -16835   -16826   -16837 
  -16902   -17022   -17142   -17240   -17328   -17390   -17382   -17339 
  -17334   -17323   -17267   -17250   -17258   -17207   -17162   -17172 
  -17181   -17201   -17261   -17320   -17367   -17421   -17459   -17439 
  -17381   -17304   -17167   -16984   -16860   -16812   -16762   -16779 
  -16906   -16987   -17061   -17220   -17294   -17317   -17386   -17382 
  -17365   -17402   -17397   -17382   -17412   -17415   -17344   -17265 
  -17228   -17158   -17091   -17208   -17354   -17410   -17581   -17710 
  -17645   -17609   -17528   -17312   -17149   -17015   -16841   -16730 
  -16703   -16673   -16633   -16665   -16748   -16826   -16969   -17116 
  -17169   -17224   -17274   -17226   -17178   -17185   -17178   -17194 
  -17246   -17263   -17271   -17300   -17319   -17320   -17305   -17258 
  -17166   -17068   -17008   -16976   -16995   -17077   -17163   -17219 
  -17243   -17220   -17145   -17030   -16907   -16821   -16787   -16803 
  -16877   -17024   -17207   -17379   -17555   -17694   -17748   -17753 
  -17736   -17674   -17570   -17444   -17328   -17220   -17080   -16951 
  -16877   -16810   -16757   -16800   -16908   -17024   -17173   -17355 
  -17505   -17585   -17613   -17591   -17505   -17396   -17300   -17197 
  -17103   -17024   -16957   -16935   -16942   -16934   -16953   -17000 
  -17022   -17034   -17066   -17111   -17163   -17232   -17294   -17327 
  -17348   -17365   -17358   -17359   -17377   -17374   -17373   -17396 
  -17383   -17327   -17274   -17194   -17084   -17003   -16960   -16929 
  -16924   -16945   -16974   -17000   -17004   -17003   -17024   -17062 
  -17104   -17188   -17292   -17361   -17421   -17471   -17444   -17344 
  -17197   -17003   -16791   -16609   -16503   -16488   -16545   -16692 
  -16922   -17147   -17348   -17544   -17699   -17786   -17814   -17793 
  -17713   -17568   -17390   -17199   -17011   -16866   -16784   -16769 
  -16816   -16895   -16987   -17103   -17235   -17392   -17566   -17736 
  -17890   -18002   -18048   -18042   -17960   -17797   -17590   -17340 
  -17065   -16799   -16556   -16375   -16293   -16293   -16366   -16519 
  -16726   -16930   -17126   -17324   -17477   -17572   -17640   -17652 
  -17587   -17483   -17350   -17200   -17069   -16972   -16904   -16883 
  -16924   -17039   -17200   -17363   -17508   -17616   -17678   -17679 
  -17609   -17491   -17348   -17192   -17047   -16935   -16869   -16843 
  -16839   -16865   -16920   -16997   -17119   -17285   -17424   -17517 
  -17585   -17578   -17474   -17352   -17246   -17131   -17041   -17012 
  -17007   -16992   -16961   -16903   -16841   -16812   -16822   -16865 
  -16942   -17042   -17155   -17253   -17288   -17316   -17382   -17389 
  -17338   -17311   -17230   -17061   -16914   -16806   -16715   -16691 
  -16729   -16789   -16880   -16997   -17115   -17257   -17432   -17577 
  -17693   -17793   -17747   -17572   -17421   -17243   -17045   -16983 
  -17010   -17022   -17080   -17162   -17190   -17219   -17262   -17270 
  -17284   -17342   -17381   -17362   -17359   -17342   -17220   -17143 
  -17109   -17010   -16983   -17005   -16974   -16993   -17039   -17070 
  -17116   -17120   -17100   -17065   -16989   -16969   -16985   -16972 
  -17039   -17113   -17082   -17119   -17165   -17147   -17265   -17431 
  -17517   -17604   -17643   -17586   -17463   -17313   -17166   -17007 
  -16916   -16924   -16950   -17050   -17227   -17381   -17547   -17685 
  -17714   -17697   -17640   -17504   -17332   -17131   -16900   -16704 
  -16553   -16429   -16409   -16519   -16659   -16812   -17003   -17127 
  -17176   -17240   -17296   -17302   -17284   -17261   -17240   -17232 
  -17224   -17258   -17351   -17392   -17378   -17420   -17431   -17371 
  -17398   -17497   -17554   -17599   -17649   -17639   -17571   -17482 
  -17334   -17130   -16912   -16700   -16559   -16521   -16556   -16691 
  -16907   -17093   -17212   -17297   -17351   -17371   -17377   -17406 
  -17444   -17432   -17378   -17335   -17265   -17163   -17122   -17146 
  -17190   -17277   -17367   -17397   -17373   -17297   -17176   -17049 
  -16969   -16946   -16961   -17018   -17076   -17099   -17119   -17139 
  -17136   -17150   -17163   -17140   -17103   -17050   -16995   -16964 
  -16942   -16924   -16945   -17027   -17166   -17336   -17510   -17676 
  -17807   -17872   -17887   -17853   -17749   -17606   -17446   -17239 
  -17016   -16837   -16710   -16637   -16629   -16675   -16745   -16829 
  -16924   -17015   -17095   -17203   -17327   -17400   -17456   -17539 
  -17555   -17518   -17521   -17487   -17405   -17361   -17302   -17215 
  -17169   -17153   -17136   -17151   -17194   -17250   -17323   -17404 
  -17494   -17552   -17543   -17518   -17458   -17323   -17180   -17014 
  -16827   -16698   -16607   -16582   -16657   -16780   -16922   -17058 
  -17154   -17220   -17274   -17300   -17267   -17219   -17184   -17089 
  -16995   -16999   -17020   -17039   -17131   -17208   -17215   -17232 
  -17253   -17259   -17288   -17319   -17334   -17297   -17193   -17084 
  -16947   -16765   -16679   -16665   -16646   -16735   -16865   -16927 
  -17010   -17073   -17062   -17024   -16974   -16941   -16926   -16934 
  -17004   -17113   -17192   -17244   -17340   -17425   -17444   -17491 
  -17537   -17501   -17442   -17359   -17261   -17186   -17159   -17199 
  -17243   -17281   -17336   -17354   -17347   -17350   -17266   -17172 
  -17181   -17126   -17069   -17184   -17257   -17258   -17340   -17389 
  -17356   -17307   -17240   -17184   -17119   -17053   -17074   -17127 
  -17143   -17228   -17381   -17483   -17562   -17674   -17747   -17698 
  -17605   -17528   -17392   -17239   -17139   -17043   -16965   -16927 
  -16897   -16910   -16980   -17082   -17208   -17335   -17446   -17541 
  -17621   -17675   -17686   -17631   -17509   -17355   -17178   -17000 
  -16857   -16753   -16680   -16650   -16686   -16769   -16866   -16993 
  -17145   -17248   -17305   -17355   -17367   -17334   -17297   -17254 
  -17190   -17132   -17082   -17016   -16943   -16873   -16822   -16812 
  -16865   -16977   -17104   -17220   -17320   -17362   -17339   -17293 
  -17242   -17186   -17145   -17116   -17077   -17000   -16900   -16833 
  -16819   -16864   -16973   -17140   -17323   -17475   -17587   -17644 
  -17628   -17558   -17443   -17294   -17158   -17061   -17020   -17053 
  -17118   -17166   -17211   -17250   -17247   -17220   -17205   -17184 
  -17146   -17128   -17130   -17123   -17115   -17116   -17108   -17092 
  -17091   -17095   -17100   -17112   -17118   -17118   -17136   -17181 
  -17248   -17352   -17470   -17543   -17563   -17552   -17487   -17378 
  -17284   -17208   -17131   -17073   -17037   -16988   -16938   -16914 
  -16918   -16964   -17042   -17104   -17142   -17153   -17115   -17070 
  -17072   -17091   -17111   -17177   -17269   -17298   -17300   -17350 
  -17371   -17355   -17373   -17378   -17338   -17308   -17282   -17244 
  -17235   -17274   -17356   -17487   -17647   -17764   -17842   -17917 
  -17898   -17753   -17605   -17460   -17282   -17159   -17105   -17050 
  -17020   -17054   -17089   -17097   -17122   -17150   -17154   -17181 
  -17231   -17248   -17290   -17370   -17408   -17456   -17521   -17496 
  -17412   -17278   -17058   -16812   -16603   -16471   -16432   -16453 
  -16538   -16672   -16737   -16691   -16669   -16665   -16573   -16501 
  -16514   -16507   -16495   -16571   -16702   -16838   -16997   -17169 
  -17319   -17431   -17442   -17366   -17246   -17014   -16726   -16502 
  -16287   -16071   -15971   -15974   -16031   -16179   -16418   -16695 
  -16996   -17313   -17599   -17809   -17902   -17844   -17689   -17505 
  -17234   -16953   -16880   -16897   -16930   -17165   -17486   -17730 
  -18009   -18306   -18516   -18679   -18852   -19002   -19093   -19157 
  -19188   -19086   -18862   -18621   -18311   -17940   -17656   -17433 
  -17267   -17255   -17365   -17585   -17890   -18200   -18453   -18542 
  -18446   -18196   -17744   -17157   -16559   -15871   -15120   -14490 
  -13932   -13450   -13261   -13301   -13527   -14038   -14701   -15407 
  -16155   -16837   -17335   -17644   -17853   -17949   -17876   -17740 
  -17585   -17377   -17231   -17221   -17305   -17504   -17782   -18038 
  -18272   -18450   -18512   -18528   -18557   -18561   -18538   -18516 
  -18415   -18127   -17701   -17140   -16376   -15561   -14859   -14276 
  -13918   -13917   -14246   -14851   -15682   -16636   -17608   -18538 
  -19380   -20077   -20536   -20704   -20537   -20017   -19317   -18500 
  -17500   -16668   -16183   -15670   -15314   -15336   -15287   -15226 
  -15391   -15498   -15684   -16197   -16710   -17262   -18077   -18729 
  -18989   -19078   -18929   -18442   -17821   -17340   -17023   -16772 
  -16846   -17248   -17575   -17990   -18646   -19242   -19770   -20283 
  -20707   -20976   -20873   -20430   -19831   -18886   -17718   -16799 
  -16013   -15290   -14940   -14808   -14689   -14732   -14839   -14914 
  -15122   -15387   -15546   -15669   -15755   -15700   -15537   -15450 
  -15468   -15491   -15665   -15978   -16136   -16289   -16557   -16627 
  -16699   -17034   -17294   -17518   -17917   -18233   -18405   -18593 
  -18752   -18792   -18769   -18774   -18689   -18439   -18121   -17641 
  -17007   -16397   -15777   -15276   -15115   -15126   -15361   -15971 
  -16610   -17215   -17928   -18485   -18836   -19087   -19120   -18952 
  -18661   -18245   -17802   -17417   -17127   -16987   -16974   -17030 
  -17109   -17172   -17227   -17255   -17267   -17348   -17455   -17555 
  -17743   -17938   -18073   -18214   -18261   -18152   -17918   -17554 
  -17139   -16672   -16120   -15597   -15122   -14750   -14643   -14813 
  -15229   -15844   -16522   -17151   -17620   -17820   -17840   -17815 
  -17680   -17436   -17300   -17194   -16939   -16804   -16843   -16806 
  -16850   -17061   -17219   -17361   -17548   -17655   -17705   -17722 
  -17636   -17544   -17482   -17304   -17134   -17107   -16988   -16823 
  -16862   -16938   -17010   -17255   -17550   -17740   -17919   -18117 
  -18229   -18295   -18343   -18245   -18133   -18158   -18090   -17945 
  -17973   -17901   -17651   -17613   -17616   -17482   -17501   -17532 
  -17366   -17135   -16819   -16443   -16108   -15777   -15558   -15483 
  -15369   -15337   -15493   -15670   -15893   -16204   -16551   -16958 
  -17309   -17624   -18011   -18253   -18310   -18378   -18333   -18127 
  -18013   -17929   -17790   -17713   -17637   -17536   -17439   -17307 
  -17158   -16966   -16750   -16582   -16407   -16245   -16150   -16038 
  -15851   -15660   -15506   -15323   -15209   -15331   -15623   -16062 
  -16733   -17478   -18165   -18864   -19519   -19957   -20174   -20224 
  -20032   -19514   -18774   -17960   -17000   -15997   -15242   -14682 
  -14343   -14462   -14929   -15608   -16510   -17446   -18202   -18739 
  -19022   -19033   -18871   -18559   -18096   -17685   -17352   -17016 
  -16845   -16831   -16830   -16907   -17051   -17116   -17088   -17028 
  -16937   -16788   -16615   -16480   -16375   -16279   -16254   -16275 
  -16287   -16355   -16416   -16443   -16529   -16571   -16578   -16713 
  -16895   -17091   -17381   -17633   -17752   -17814   -17838   -17818 
  -17791   -17778   -17836   -17961   -18080   -18235   -18438   -18643 
  -18881   -19133   -19334   -19427   -19381   -19207   -18882   -18439 
  -17994   -17525   -17004   -16545   -16175   -15843   -15631   -15577 
  -15585   -15645   -15743   -15809   -15842   -15854   -15838   -15830 
  -15807   -15661   -15519   -15534   -15526   -15601   -15990   -16407 
  -16783   -17285   -17709   -17976   -18223   -18428   -18573   -18685 
  -18782   -18917   -18993   -18909   -18783   -18544   -18099   -17628 
  -17127   -16625   -16276   -16001   -15835   -15811   -15788   -15822 
  -15920   -16013   -16182   -16395   -16590   -16816   -17085   -17394 
  -17660   -17857   -18148   -18351   -18362   -18446   -18418   -18153 
  -17961   -17761   -17463   -17278   -17165   -17062   -17070   -17158 
  -17247   -17293   -17244   -17105   -16876   -16560   -16256   -15965 
  -15672   -15529   -15485   -15475   -15624   -15834   -16015   -16267 
  -16548   -16794   -17039   -17300   -17558   -17759   -17933   -18125 
  -18277   -18372   -18450   -18520   -18577   -18604   -18624   -18686 
  -18747   -18751   -18728   -18661   -18500   -18283   -18044   -17798 
  -17571   -17356   -17224   -17227   -17251   -17286   -17427   -17520 
  -17483   -17483   -17442   -17288   -17203   -17154   -17035   -16934 
  -16861   -16764   -16673   -16646   -16650   -16621   -16602   -16621 
  -16607   -16611   -16681   -16695   -16677   -16703   -16665   -16596 
  -16652   -16776   -16896   -17038   -17145   -17147   -17073   -16922 
  -16698   -16483   -16302   -16163   -16146   -16233   -16348   -16510 
  -16690   -16800   -16885   -16991   -17081   -17182   -17342   -17516 
  -17662   -17770   -17803   -17749   -17624   -17413   -17178   -17003 
  -16857   -16734   -16698   -16773   -16942   -17169   -17452   -17772 
  -18061   -18284   -18409   -18416   -18350   -18210   -17972   -17748 
  -17597   -17452   -17370   -17410   -17485   -17567   -17675   -17752 
  -17778   -17790   -17797   -17780   -17713   -17599   -17477   -17311 
  -17074   -16806   -16530   -16264   -16052   -15928   -15882   -15890 
  -15947   -16048   -16166   -16256   -16322   -16394   -16482   -16588 
  -16723   -16880   -17022   -17120   -17216   -17354   -17508   -17658 
  -17817   -17960   -18045   -18063   -18027   -17932   -17776   -17564 
  -17308   -17088   -16951   -16842   -16825   -16941   -17004   -17027 
  -17139   -17194   -17176   -17234   -17290   -17271   -17257   -17259 
  -17220   -17153   -17100   -17068   -17089   -17135   -17127   -17143 
  -17169   -17059   -16943   -16887   -16757   -16663   -16686   -16692 
  -16663   -16626   -16576   -16556   -16572   -16607   -16742   -16943 
