Origin Time       2025/06/03 22:18:00
Lat.              41.7
Long.             143.6
Depth. (km)       30
Mag.              5.2
Station Code      HKD097
Station Lat.      42.6181
Station Long.     143.4210
Station Height(m) 33
Record Time       2025/06/03 22:18:57
Sampling Freq(Hz) 100Hz
Duration Time(s)  65
Dir.              U-D
Scale Factor      7845(gal)/8223790
Max. Acc. (gal)   0.999
Last Correction   2025/06/03 22:18:41
Memo.             
[...]
   -2895    -2928    -2953    -2959    -2952    -2945    -2949    -2951 
   -2952    -2960    -2976    -2999    -3019    -3013    -2982    -2953 
   -2948    -2963    -2982    -2983    -2971    -2967    -2967    -2952 
   -2933    -2932    -2944    -2967    -2995    -3013    -3017    -3029 
   -3049    -3044    -3013    -3003    -3021    -3018    -2990    -2991 
   -3036    -3063    -3034    -2994    -2956    -2902    -2855    -2812 
   -2727    -2628    -2606    -2658    -2706    -2706    -2681    -2677 
   -2702    -2717    -2693    -2677    -2741    -2840    -2871    -2845 
   -2821    -2806    -2797    -2764    -2691    -2678    -2797    -2951 
   -3034    -3055    -3053    -3053    -3076    -3094    -3063    -3022 
   -3026    -3010    -2934    -2860    -2774    -2654    -2585    -2566 
   -2528    -2508    -2502    -2439    -2365    -2355    -2377    -2388 
   -2407    -2471    -2563    -2635    -2717    -2825    -2894    -2928 
   -2990    -3061    -3109    -3126    -3110    -3091    -3129    -3240 
   -3350    -3389    -3377    -3358    -3346    -3356    -3333    -3234 
   -3141    -3099    -3044    -2986    -2948    -2884    -2839    -2867 
   -2878    -2802    -2728    -2740    -2779    -2767    -2716    -2668 
   -2635    -2624    -2668    -2758    -2841    -2936    -3041    -3107 
   -3129    -3123    -3099    -3091    -3048    -2917    -2820    -2826 
   -2828    -2795    -2794    -2830    -2886    -2918    -2863    -2755 
   -2729    -2802    -2887    -2948    -2978    -2967    -2955    -2948 
   -2911    -2864    -2847    -2867    -2911    -2943    -2936    -2913 
   -2893    -2841    -2727    -2609    -2571    -2596    -2655    -2771 
   -2924    -3044    -3069    -2987    -2870    -2809    -2809    -2856 
   -2921    -2925    -2876    -2859    -2839    -2758    -2681    -2681 
   -2766    -2884    -2933    -2925    -2944    -2952    -2926    -2911 
   -2893    -2882    -2956    -3061    -3067    -2971    -2876    -2837 
   -2803    -2736    -2674    -2640    -2636    -2670    -2718    -2771 
   -2832    -2868    -2884    -2903    -2891    -2864    -2911    -2992 
   -2995    -2995    -3102    -3217    -3260    -3249    -3188    -3134 
   -3119    -3073    -3009    -2988    -3002    -3003    -2941    -2859 
   -2872    -2907    -2870    -2868    -2925    -2930    -2916    -2905 
   -2828    -2712    -2652    -2640    -2636    -2658    -2710    -2775 
   -2821    -2837    -2821    -2771    -2733    -2751    -2783    -2837 
   -2948    -3032    -3040    -3044    -3063    -3091    -3160    -3194 
   -3138    -3098    -3086    -3019    -2943    -2938    -2957    -2930 
   -2876    -2814    -2731    -2643    -2590    -2604    -2671    -2731 
   -2720    -2675    -2667    -2664    -2637    -2663    -2789    -2928 
   -2983    -2978    -2967    -2905    -2794    -2759    -2828    -2916 
   -3002    -3087    -3106    -3045    -2967    -2910    -2887    -2907 
   -2926    -2918    -2941    -2987    -2975    -2925    -2883    -2832 
   -2782    -2763    -2789    -2830    -2845    -2840    -2859    -2925 
   -2957    -2906    -2867    -2862    -2845    -2880    -2965    -3041 
   -3088    -3102    -3106    -3111    -3080    -3010    -2921    -2866 
   -2890    -2945    -2968    -2976    -2956    -2860    -2778    -2745 
   -2671    -2631    -2709    -2813    -2898    -2925    -2879    -2859 
   -2891    -2903    -2878    -2879    -2905    -2887    -2822    -2748 
   -2713    -2748    -2794    -2791    -2785    -2806    -2822    -2802 
   -2755    -2732    -2772    -2806    -2806    -2832    -2837    -2802 
   -2822    -2864    -2810    -2725    -2732    -2821    -2913    -2991 
   -3113    -3206    -3179    -3129    -3129    -3127    -3118    -3115 
   -3118    -3107    -3048    -2957    -2883    -2801    -2749    -2801 
   -2864    -2828    -2744    -2689    -2697    -2744    -2763    -2760 
   -2771    -2774    -2793    -2821    -2840    -2889    -2937    -2934 
   -2957    -3032    -3052    -3032    -3065    -3111    -3103    -3073 
   -3056    -3071    -3102    -3098    -3071    -3059    -3029    -2965 
   -2932    -2956    -2976    -2964    -2974    -2983    -2944    -2910 
   -2916    -2906    -2886    -2874    -2820    -2728    -2664    -2627 
   -2617    -2663    -2731    -2779    -2803    -2798    -2795    -2808 
   -2785    -2736    -2712    -2677    -2637    -2648    -2695    -2743 
   -2791    -2822    -2821    -2812    -2793    -2763    -2755    -2776 
   -2818    -2857    -2862    -2845    -2843    -2862    -2903    -2953 
   -2972    -2938    -2875    -2820    -2787    -2785    -2781    -2725 
   -2667    -2635    -2565    -2512    -2573    -2670    -2735    -2799 
   -2844    -2839    -2808    -2754    -2740    -2840    -2965    -3013 
   -3017    -3037    -3034    -3002    -3046    -3159    -3226    -3281 
   -3364    -3403    -3388    -3343    -3283    -3249    -3233    -3181 
   -3114    -3084    -3083    -3063    -3019    -3002    -2979    -2897 
   -2857    -2871    -2822    -2776    -2801    -2794    -2756    -2762 
   -2795    -2841    -2890    -2883    -2887    -2964    -3006    -2986 
   -2971    -2917    -2833    -2763    -2682    -2637    -2654    -2679 
   -2725    -2805    -2887    -2948    -3006    -3071    -3099    -3087 
   -3064    -3021    -2968    -2930    -2884    -2874    -2933    -2965 
   -2916    -2828    -2768    -2747    -2681    -2587    -2560    -2565 
   -2531    -2513    -2582    -2660    -2674    -2698    -2752    -2805 
   -2874    -2914    -2894    -2879    -2890    -2878    -2849    -2859 
   -2880    -2884    -2924    -2961    -2918    -2864    -2870    -2880 
   -2853    -2801    -2758    -2762    -2766    -2718    -2695    -2758 
   -2845    -2913    -2975    -3015    -2986    -2936    -2959    -2994 
   -2970    -2967    -3005    -3025    -3042    -3051    -3021    -2992 
   -3006    -3064    -3123    -3122    -3092    -3115    -3179    -3223 
   -3229    -3191    -3130    -3069    -3003    -2948    -2913    -2898 
   -2933    -2972    -2941    -2907    -2891    -2825    -2772    -2776 
   -2772    -2770    -2768    -2727    -2697    -2705    -2709    -2727 
   -2740    -2712    -2677    -2671    -2710    -2794    -2894    -2988 
   -3025    -2975    -2936    -2926    -2866    -2822    -2870    -2918 
   -2934    -2938    -2899    -2847    -2826    -2799    -2793    -2853 
   -2909    -2899    -2879    -2891    -2914    -2922    -2909    -2880 
   -2882    -2924    -2961    -2990    -3010    -2982    -2924    -2875 
   -2851    -2855    -2847    -2824    -2843    -2879    -2876    -2876 
   -2921    -2964    -2980    -2992    -2980    -2911    -2801    -2718 
   -2722    -2766    -2762    -2737    -2743    -2712    -2629    -2579 
   -2582    -2616    -2666    -2697    -2724    -2764    -2785    -2801 
   -2847    -2909    -2968    -3002    -3038    -3118    -3167    -3150 
   -3168    -3227    -3246    -3225    -3207    -3192    -3148    -3073 
   -2999    -2933    -2859    -2768    -2687    -2641    -2621    -2635 
   -2694    -2752    -2797    -2857    -2911    -2938    -2967    -2986 
   -2976    -2967    -2932    -2847    -2812    -2872    -2907    -2876 
   -2874    -2906    -2906    -2893    -2916    -2926    -2884    -2849 
   -2849    -2836    -2820    -2809    -2772    -2766    -2828    -2876 
   -2880    -2906    -2965    -2979    -2944    -2934    -2916    -2816 
   -2698    -2627    -2592    -2597    -2627    -2646    -2704    -2817 
   -2903    -2930    -2929    -2907    -2886    -2876    -2839    -2810 
   -2857    -2929    -2988    -3055    -3092    -3113    -3157    -3159 
   -3114    -3156    -3267    -3276    -3177    -3094    -3007    -2864 
   -2787    -2835    -2886    -2902    -2953    -2992    -2951    -2909 
   -2933    -2945    -2929    -2959    -3006    -3002    -2945    -2903 
   -2889    -2824    -2717    -2667    -2655    -2625    -2662    -2749 
   -2756    -2781    -2879    -2897    -2863    -2848    -2801    -2789 
   -2835    -2825    -2781    -2822    -2894    -2882    -2857    -2890 
   -2914    -2887    -2843    -2774    -2700    -2693    -2678    -2609 
   -2598    -2609    -2590    -2601    -2624    -2643    -2709    -2818 
   -2921    -2979    -2992    -2955    -2907    -2916    -2934    -2917 
   -2903    -2898    -2889    -2883    -2867    -2843    -2818    -2813 
   -2857    -2920    -2964    -2992    -3025    -3072    -3080    -3056 
   -3064    -3059    -3048    -3100    -3123    -3063    -3005    -2971 
   -2951    -2978    -3006    -3013    -3033    -3017    -2941    -2883 
   -2862    -2875    -2887    -2843    -2806    -2808    -2767    -2721 
   -2763    -2848    -2902    -2936    -2965    -2960    -2913    -2867 
   -2870    -2936    -3002    -3025    -3052    -3073    -3014    -2924 
   -2906    -2907    -2864    -2852    -2902    -2918    -2889    -2910 
   -2953    -2910    -2868    -2903    -2882    -2782    -2722    -2689 
   -2658    -2662    -2685    -2729    -2802    -2844    -2808    -2710 
   -2598    -2506    -2450    -2435    -2482    -2581    -2681    -2770 
   -2836    -2863    -2884    -2901    -2899    -2920    -2964    -3009 
   -3067    -3111    -3123    -3163    -3230    -3261    -3262    -3264 
   -3246    -3221    -3221    -3233    -3222    -3183    -3129    -3068 
   -2997    -2948    -2956    -2965    -2922    -2880    -2899    -2925 
   -2917    -2936    -2987    -3002    -2990    -2990    -2983    -2949 
   -2932    -2930    -2907    -2882    -2866    -2821    -2755    -2694 
   -2647    -2629    -2659    -2702    -2714    -2728    -2762    -2790 
   -2801    -2768    -2749    -2808    -2859    -2879    -2903    -2862 
   -2772    -2720    -2667    -2592    -2585    -2655    -2679    -2677 
   -2724    -2731    -2671    -2660    -2729    -2835    -2948    -3025 
   -3052    -3057    -3053    -3056    -3075    -3098    -3109    -3095 
   -3110    -3184    -3177    -3076    -3051    -3056    -2991    -2959 
   -2928    -2845    -2830    -2839    -2803    -2816    -2867    -2890 
   -2902    -2910    -2879    -2843    -2825    -2758    -2660    -2583 
   -2542    -2589    -2640    -2643    -2739    -2874    -2887    -2847 
   -2844    -2830    -2778    -2758    -2789    -2810    -2851    -2965 
   -3073    -3118    -3129    -3078    -3003    -2990    -2959    -2916 
   -2938    -2957    -2937    -2921    -2886    -2826    -2791    -2818 
   -2879    -2895    -2863    -2857    -2852    -2799    -2782    -2803 
   -2778    -2771    -2821    -2832    -2837    -2926    -2995    -2987 
   -2994    -3025    -3022    -2963    -2899    -2902    -2911    -2882 
   -2878    -2889    -2878    -2883    -2901    -2895    -2902    -2924 
   -2926    -2952    -2988    -2957    -2913    -2922    -2906    -2825 
   -2770    -2768    -2744    -2710    -2737    -2772    -2755    -2737 
   -2775    -2835    -2878    -2949    -3051    -3086    -3055    -3010 
   -2937    -2852    -2803    -2797    -2817    -2848    -2880    -2897 
   -2909    -2949    -2983    -2990    -2979    -2948    -2920    -2909 
   -2891    -2870    -2866    -2884    -2932    -2988    -3018    -2991 
   -2934    -2906    -2922    -2959    -3019    -3109    -3167    -3179 
   -3179    -3146    -3067    -2995    -2970    -2963    -2967    -2991 
   -3002    -2986    -2984    -2976    -2951    -2982    -3038    -3046 
   -3034    -3019    -2972    -2951    -2967    -2922    -2830    -2772 
   -2709    -2635    -2606    -2610    -2637    -2697    -2739    -2732 
   -2706    -2674    -2635    -2623    -2647    -2671    -2700    -2737 
   -2733    -2698    -2681    -2662    -2635    -2629    -2644    -2671 
   -2690    -2682    -2708    -2772    -2781    -2731    -2693    -2690 
   -2727    -2764    -2752    -2764    -2878    -2994    -3033    -3059 
   -3105    -3141    -3199    -3280    -3335    -3380    -3414    -3392 
   -3338    -3280    -3235    -3227    -3219    -3179    -3161    -3192 
   -3214    -3198    -3186    -3199    -3188    -3099    -2948    -2783 
   -2655    -2616    -2647    -2633    -2582    -2608    -2646    -2648 
   -2712    -2790    -2832    -2905    -2940    -2871    -2799    -2725 
   -2566    -2416    -2339    -2273    -2238    -2223    -2184    -2196 
   -2263    -2285    -2285    -2330    -2390    -2462    -2574    -2681 
   -2763    -2855    -2941    -2997    -3024    -3036    -3045    -3084 
   -3169    -3250    -3322    -3427    -3507    -3508    -3461    -3369 
   -3238    -3113    -3021    -2956    -2907    -2897    -2930    -2970 
   -3029    -3110    -3152    -3175    -3202    -3150    -3088    -3099 
   -3055    -2971    -2964    -2947    -2901    -2906    -2917    -2876 
   -2801    -2743    -2731    -2694    -2610    -2574    -2560    -2551 
   -2633    -2697    -2641    -2602    -2600    -2592    -2633    -2712 
   -2779    -2853    -2922    -2949    -2941    -2940    -2998    -3088 
   -3117    -3106    -3115    -3121    -3114    -3053    -2968    -2970 
   -3003    -3028    -3073    -3117    -3129    -3096    -3078    -3127 
   -3154    -3115    -3083    -3038    -2936    -2821    -2764    -2793 
   -2891    -3003    -3087    -3121    -3064    -2933    -2813    -2724 
   -2643    -2598    -2583    -2546    -2523    -2556    -2585    -2566 
   -2511    -2461    -2463    -2447    -2342    -2277    -2363    -2511 
   -2614    -2694    -2795    -2875    -2882    -2898    -2971    -3019 
   -3053    -3073    -2976    -2864    -2817    -2682    -2556    -2559 
   -2521    -2498    -2582    -2632    -2700    -2863    -2982    -3048 
   -3146    -3260    -3358    -3407    -3439    -3522    -3582    -3615 
   -3655    -3653    -3747    -3932    -3904    -3836    -3916    -3817 
   -3564    -3403    -3219    -2982    -2841    -2737    -2608    -2551 
   -2539    -2536    -2524    -2398    -2292    -2316    -2226    -2034 
   -2006    -2047    -2060    -2150    -2278    -2354    -2417    -2498 
   -2548    -2628    -2872    -3160    -3362    -3558    -3599    -3476 
   -3546    -3658    -3546    -3469    -3422    -3136    -2782    -2524 
   -2236    -2025    -2056    -2201    -2392    -2663    -2895    -2975 
   -3024    -3133    -3153    -3065    -3087    -3188    -3206    -3198 
   -3191    -3132    -3079    -3071    -3088    -3183    -3334    -3429 
   -3480    -3496    -3391    -3203    -3019    -2812    -2605    -2470 
   -2382    -2342    -2396    -2467    -2493    -2544    -2632    -2670 
   -2670    -2650    -2574    -2508    -2481    -2409    -2347    -2412 
   -2525    -2631    -2789    -2911    -2965    -3055    -3117    -3126 
   -3160    -3176    -3163    -3150    -3103    -3030    -2945    -2837 
   -2766    -2749    -2737    -2781    -2924    -3030    -3083    -3183 
   -3245    -3248    -3334    -3437    -3451    -3442    -3358    -3157 
   -2999    -2948    -2853    -2704    -2644    -2658    -2641    -2605 
   -2570    -2552    -2556    -2544    -2566    -2675    -2759    -2752 
   -2748    -2785    -2803    -2781    -2748    -2697    -2573    -2440 
   -2425    -2506    -2632    -2816    -2982    -3076    -3091    -3049 
   -3038    -3013    -2894    -2798    -2775    -2704    -2590    -2558 
   -2604    -2656    -2724    -2876    -3121    -3318    -3422    -3446 
   -3379    -3315    -3225    -3007    -2778    -2586    -2369    -2226 
   -2185    -2180    -2228    -2227    -2157    -2182    -2219    -2211 
   -2320    -2482    -2601    -2739    -2872    -2998    -3119    -3187 
   -3308    -3551    -3716    -3757    -3813    -3797    -3643    -3496 
   -3375    -3262    -3196    -3105    -2997    -2948    -2886    -2802 
   -2801    -2833    -2806    -2799    -2875    -2953    -2984    -3056 
   -3192    -3250    -3211    -3186    -3121    -2980    -2843    -2694 
   -2574    -2596    -2706    -2808    -2934    -3069    -3173    -3262 
   -3242    -3122    -3052    -2982    -2880    -2872    -2917    -2879 
   -2781    -2720    -2662    -2519    -2365    -2313    -2324    -2369 
   -2504    -2656    -2743    -2853    -3019    -3175    -3333    -3456 
   -3522    -3597    -3638    -3605    -3589    -3576    -3483    -3380 
   -3326    -3249    -3132    -3010    -2867    -2728    -2612    -2481 
   -2354    -2316    -2374    -2482    -2614    -2709    -2741    -2754 
   -2733    -2691    -2690    -2739    -2825    -2891    -2901    -2909 
   -2924    -2928    -2982    -3079    -3141    -3171    -3160    -3105 
   -3082    -3073    -3028    -2995    -2972    -2917    -2829    -2755 
   -2736    -2724    -2754    -2893    -3005    -3002    -2995    -3011 
   -2947    -2814    -2702    -2647    -2605    -2501    -2385    -2272 
   -2119    -2068    -2126    -2176    -2262    -2334    -2349    -2417 
   -2528    -2623    -2714    -2794    -2860    -2884    -2832    -2785 
   -2816    -2824    -2741    -2704    -2794    -2855    -2839    -2902 
   -2999    -3048    -3144    -3267    -3346    -3370    -3323    -3250 
   -3187    -3086    -2967    -2897    -2874    -2879    -2891    -2898 
   -2938    -2968    -2930    -2948    -3055    -3144    -3268    -3430 
   -3488    -3474    -3446    -3330    -3176    -3109    -3052    -2921 
   -2779    -2666    -2573    -2504    -2451    -2420    -2420    -2458 
   -2529    -2600    -2674    -2787    -2905    -2998    -3103    -3221 
   -3292    -3327    -3372    -3400    -3362    -3298    -3250    -3179 
   -3026    -2845    -2731    -2681    -2613    -2558    -2583    -2617 
   -2624    -2673    -2764    -2862    -2928    -2947    -2968    -2991 
   -2929    -2789    -2667    -2587    -2558    -2597    -2664    -2721 
   -2774    -2821    -2851    -2852    -2789    -2679    -2590    -2536 
   -2552    -2659    -2772    -2872    -2987    -3059    -3068    -3083 
   -3083    -3018    -2947    -2943    -2983    -3002    -3022    -3119 
   -3264    -3387    -3457    -3466    -3460    -3470    -3445    -3402 
   -3414    -3419    -3349    -3281    -3219    -3099    -2992    -2909 
   -2751    -2567    -2452    -2369    -2289    -2223    -2157    -2118 
   -2108    -2076    -2026    -1993    -2025    -2142    -2251    -2311 
   -2419    -2570    -2644    -2640    -2643    -2654    -2658    -2695 
   -2794    -2941    -3083    -3183    -3249    -3283    -3295    -3304 
   -3323    -3362    -3388    -3387    -3402    -3383    -3264    -3119 
   -3017    -2944    -2906    -2899    -2905    -2906    -2870    -2790 
   -2727    -2732    -2786    -2848    -2906    -2956    -3014    -3092 
   -3154    -3176    -3145    -3082    -3051    -3010    -2921    -2862 
   -2821    -2766    -2739    -2712    -2691    -2700    -2664    -2639 
   -2698    -2733    -2709    -2768    -2909    -2997    -3038    -3094 
   -3122    -3094    -3018    -2929    -2882    -2845    -2786    -2776 
   -2814    -2817    -2791    -2785    -2771    -2755    -2781    -2797 
   -2752    -2717    -2694    -2651    -2632    -2670    -2766    -2853 
   -2864    -2890    -2947    -2941    -2936    -2987    -3006    -2959 
   -2920    -2891    -2847    -2826    -2799    -2758    -2763    -2754 
   -2716    -2721    -2739    -2763    -2824    -2893    -2990    -3082 
   -3109    -3091    -3051    -3011    -3002    -2955    -2874    -2905 
   -3013    -3026    -3009    -3064    -3083    -3068    -3133    -3231 
   -3321    -3433    -3546    -3662    -3746    -3734    -3701    -3701 
   -3655    -3543    -3441    -3335    -3226    -3149    -3042    -2899 
   -2810    -2720    -2594    -2515    -2467    -2419    -2413    -2436 
   -2419    -2390    -2394    -2405    -2440    -2501    -2563    -2654 
