Origin Time       2025/06/03 22:18:00
Lat.              41.7
Long.             143.6
Depth. (km)       30
Mag.              5.2
Station Code      HKD078
Station Lat.      43.1488
Station Long.     144.4976
Station Height(m) 25
Record Time       2025/06/03 22:19:17
Sampling Freq(Hz) 100Hz
Duration Time(s)  60
Dir.              E-W
Scale Factor      7845(gal)/8223790
Max. Acc. (gal)   1.631
Last Correction   2025/06/03 22:19:17
Memo.             
[...]
     796      754      769      827      893      932      938      924 
     918      909      869      791      712      680      715      789 
     847      874      896      908      913      938      965      969 
     973      977      958      913      834      733      672      692 
     768      850      908      934      928      905      878      858 
     861      876      873      834      792      800      837      839 
     797      749      735      770      824      880      915      909 
     881      865      870      881      880      874      864      845 
     822      778      714      670      676      703      707      714 
     799      943     1062     1097     1050      965      886      815 
     750      703      673      668      685      699      707      743 
     826      939     1048     1105     1102     1074     1017      909 
     776      669      622      643      706      770      831      901 
     972     1004      999      997     1017     1042     1054     1055 
    1036      959      828      688      561      479      486      588 
     764      943     1058     1100     1100     1070     1013      936 
     850      792      799      861      923      920      855      803 
     799      804      758      661      567      522      561      692 
     866     1008     1071     1066     1021      972      919      847 
     765      716      723      783      857      880      845      800 
     788      799      815      838      873      924      970      981 
     961      928      891      857      820      762      697      656 
     645      680      765      874      997     1101     1127     1070 
     982      911      878      859      822      764      714      689 
     708      774      845      895      940      978      980      901 
     761      668      700      815      935     1016     1047     1042 
    1021      988      909      776      656      611      637      703 
     778      853      930      992     1009      977      928      892 
     885      908      909      854      768      693      648      622 
     610      652      762      885      981     1054     1108     1138 
    1136     1092     1011      913      799      668      565      527 
     544      606      693      781      873      972     1062     1132 
    1161     1136     1055      940      826      712      600      491 
     390      352      426      585      773      918      985     1009 
    1017     1008      989      955      891      823      807      846 
     903      936      931      918      934      955      945      901 
     864      868      920      972      953      874      791      753 
     762      774      784      818      845      834      800      768 
     773      835      904      931      923      905      896      896 
     892      864      801      738      722      760      799      805 
     801      832      916     1000     1017      959      855      773 
     766      799      803      778      747      703      648      604 
     614      695      834      996     1116     1161     1154     1125 
    1073     1003      943      895      841      800      808      861 
     895      849      749      683      706      799      869      868 
     858      889      919      923      905      872      851      857 
     868      854      826      800      768      741      745      762 
     785      824      858      851      797      724      670      650 
     677      747      827      880      901      904      896      877 
     868      892      935      974      993      989      972      945 
     901      845      791      776      819      884      936      963 
     954      909      822      689      561      494      496      554 
     670      810      901      926      935      992     1117     1251 
    1323     1310     1217     1074      926      777      635      530 
     498      558      699      869     1012     1092     1102     1054 
     958      862      803      761      697      599      513      491 
     506      545      653      823      994     1113     1167     1177 
    1166     1129     1039      901      761      645      577      583 
     656      777      912     1013     1055     1069     1075     1053 
     972      862      785      754      726      662      585      553 
     631      804      970     1043     1005      909      847      855 
     893      915      913      928      989     1063     1092     1055 
     973      881      816      776      735      685      639      596 
     554      527      537      587      672      749      805      891 
    1012     1108     1143     1105     1015      928      870      811 
     745      692      646      623      643      692      760      834 
     907      992     1077     1117     1090     1024      977      962 
     951      930      892      847      823      815      793      742 
     685      669      708      810      962     1085     1124     1094 
    1028      949      859      800      800      804      774      731 
     669      595      538      503      503      548      594      621 
     648      720      870     1078     1254     1308     1247     1150 
    1075     1023      954      847      737      679      691      739 
     770      800      870      950      980      946      869      797 
     764      756      746      724      707      722      783      880 
     969     1020     1034     1015      961      889      843      834 
     820      795      778      778      800      843      878      869 
     830      819      865      939      989      974      904      832 
     805      831      873      901      924      976     1053     1081 
    1000      853      738      683      637      567      503      492 
     540      595      641      714      832      963     1034     1021 
     989      973      936      868      800      770      792      850 
     877      839      807      827      886      958     1016     1048 
    1032      946      851      835      896      985     1039     1021 
     963      900      834      796      808      834      828      793 
     765      772      818      874      916      949      982     1007 
    1019     1003      943      872      832      818      801      773 
     726      665      615      567      517      495      521      572 
     619      668      762      920     1093     1186     1155     1054 
     947      842      756      726      745      781      831      903 
     980     1019     1001      953      882      800      735      687 
     654      683      745      769      770      804      877      961 
    1019     1040     1046     1053     1063     1063     1030      973 
     926      884      841      818      822      838      854      872 
     873      828      726      603      541      589      710      843 
     943      986     1021     1084     1135     1123     1030      864 
     673      542      523      588      699      812      878      872 
     800      722      699      710      716      751      824      901 
     970     1017     1013      970      934      923      943      980 
     992      970      920      835      754      751      835      932 
     957      886      803      778      803      831      830      801 
     783      776      749      719      726      774      851      938 
    1003     1005      926      819      757      741      735      737 
     761      841      950     1005      970      885      800      739 
     714      719      719      715      758      847      927      931 
     859      801      823      901      974      997      984      985 
    1016     1054     1067     1019      897      729      576      483 
     453      469      495      507      529      596      702      835 
     992     1124     1161     1096      996      907      853      843 
     835      787      719      673      653      623      584      573 
     608      685      807      976     1155     1263     1258     1166 
    1034      901      784      707      720      797      831      753 
     584      430      392      491      706      973     1193     1317 
    1345     1274     1138     1003      912      858      808      766 
     770      815      865      900      909      926      992     1092 
    1183     1263     1325     1347     1329     1270     1144      962 
     776      654      622      627      625      638      710      827 
     903      884      816      774      768      747      684      607 
     564      588      684      811      932     1016     1050     1063 
    1084     1131     1219     1294     1291     1219     1090      909 
     726      592      546      587      658      699      677      615 
     565      519      448      363      322      395      583      828 
    1073     1255     1332     1318     1250     1166     1138     1200 
    1291     1358     1379     1314     1148      918      654      432 
     324      317      360      414      448      511      697     1004 
    1327     1548     1609     1533     1352     1071      742      456 
     270      207      271      392      492      556      612      666 
     684      657      664      783      972     1124     1188     1178 
    1132     1077     1016      951      911      892      876      866 
     854      816      734      610      510      502      541      565 
     589      606      592      571      576      637      785     1009 
    1242     1395     1404     1283     1105      886      626      392 
     294      372      575      793      922      926      846      747 
     706      791     1024     1354     1649     1795     1776     1633 
    1413     1152      846      494      182        4      -60      -64 
       4      186      498      909     1273     1451     1452     1393 
    1366     1391     1440     1472     1476     1458     1375     1165 
     816      403       18     -290     -467     -441     -194      221 
     702     1132     1420     1490     1352     1162     1086     1136 
    1223     1282     1278     1189     1032      830      587      356 
     236      288      488      737      904      920      791      529 
     160     -178     -302     -126      278      773     1264     1678 
    1931     1981     1848     1642     1479     1363     1223      974 
     638      337      144       79      114      193      317      529 
     826     1179     1505     1687     1676     1498     1266     1134 
    1127     1124     1024      818      591      438      334      222 
     159      252      530      889     1171     1283     1242     1162 
    1151     1202     1240     1202     1077      943      908      961 
     985      913      810      781      855      942      943      837 
     642      403      176       27       20      214      592     1042 
    1412     1580     1561     1486     1406     1294     1150      981 
     800      614      444      344      325      330      306      222 
     108       55      137      373      718     1073     1356     1536 
    1593     1543     1474     1445     1431     1331     1057      668 
     333      116       -8        2      221      650     1189     1676 
    1973     2029     1903     1664     1328      962      656      444 
     352      390      517      676      810      878      865      783 
     704      695      729      750      754      777      837      901 
     940      946      918      884      881      899      872      768 
     629      542      564      688      847      963     1011      996 
     900      719      492      278      130       75      113      232 
     417      685      999     1233     1317     1285     1229     1213 
    1216     1181     1073      934      832      774      719      662 
     641      692      807      905      877      703      468      278 
     214      271      368      484      619      750      869      993 
    1131     1289     1482     1671     1787     1800     1711     1536 
    1281      938      585      342      270      356      530      665 
     688      684      760      901     1050     1154     1188     1204 
    1263     1366     1452     1387     1102      688      280       -9 
     -99        1      241      596      978     1223     1254     1124 
     901      656      434      252      183      298      534      720 
     746      679      660      769      988     1227     1410     1528 
    1599     1607     1537     1449     1379     1327     1325     1370 
    1390     1321     1140      878      611      429      378      432 
     521      591      608      537      398      298      311      483 
     827     1239     1509     1528     1360     1148      988      854 
     710      618      649      812     1057     1248     1252     1078 
     876      754      712      749      893     1124     1347     1449 
    1401     1273     1125      945      735      579      589      799 
    1071     1202     1132      932      683      473      383      426 
     569      729      787      750      707      692      719      780 
     822      841      834      738      554      390      372      562 
     826      938      845      666      481      301      167      108 
      95      128      220      386      625      859      986      973 
     858      761      810     1007     1270     1521     1649     1560 
    1248      762      214     -226     -475     -518     -303      199 
     889     1613     2219     2556     2559     2336     2049     1800 
    1605     1379     1042      621      205      -59      -22      274 
     658     1005     1233     1323     1345     1355     1363     1386 
    1368     1210      886      484      148      -41     -125     -149 
    -109      -12      141      361      669     1062     1460     1726 
    1740     1498     1177      970      915      965     1062     1140 
    1206     1236     1098      787      456      213       90       71 
     106      170      256      363      468      542      591      646 
     761      935     1117     1269     1385     1509     1648     1694 
    1580     1401     1291     1296     1332     1301     1171      969 
     757      591      486      490      656      868      919      710 
     298     -126     -364     -338      -83      309      729     1092 
    1333     1428     1413     1318     1197     1181     1351     1621 
    1799     1748     1506     1186      880      672      584      564 
     575      621      695      761      742      625      506      449 
     449      480      461      365      298      314      388      517 
     658      760      783      714      669      785     1027     1267 
    1416     1443     1432     1468     1486     1381     1155      912 
     776      754      726      625      490      395      442      654 
     916     1116     1224     1264     1294     1337     1351     1281 
    1117      908      710      540      423      396      456      589 
     787     1003     1152     1162     1042      891      778      660 
     522      481      630      908     1169     1282     1244     1136 
     990      820      685      637      676      783      900     1000 
    1109     1202     1206     1102      919      687      476      364 
     376      465      556      606      616      630      707      859 
    1055     1270     1467     1561     1464     1208      947      799 
     757      754      726      673      635      616      575      461 
     294      180      228      436      673      811      835      816 
     841      903      940      962     1005     1096     1202     1220 
    1115      986      905      846      804      820      891      992 
    1123     1277     1383     1366     1202      923      596      290 
      56      -79     -120      -78       36      174      305      480 
     727      992     1251     1475     1583     1590     1606     1653 
    1660     1574     1383     1128      842      540      272       91 
      18       33       58       58      102      265      596     1062 
    1466     1588     1417     1148      976      889      747      534 
     376      387      572      849     1078     1142     1054      966 
    1023     1197     1339     1352     1258     1138     1036      904 
     697      517      495      652      916     1146     1229     1215 
    1197     1175     1109     1020      965      977     1023     1040 
    1003      892      739      633      623      679      734      778 
     865     1011     1116     1089      926      670      400      191 
      51        9      136      410      708      934     1098     1264 
    1437     1530     1482     1318     1132     1061     1158     1305 
    1332     1169      892      660      552      521      510      540 
     638      789      943     1026      973      773      507      324 
     299      383      496      611      765      970     1135     1167 
    1085      972      853      707      527      355      255      278 
     430      662      899     1117     1348     1560     1659     1584 
    1371     1136     1008      988      992     1008     1015      923 
     737      592      607      735      850      896      939     1044 
    1161     1186     1101      955      819      726      653      612 
     635      722      876     1081     1274     1405     1464     1466 
    1420     1297     1119      951      800      648      519      445 
     407      372      363      438      594      730      772      739 
     685      654      696      792      876      935      966      999 
    1090     1200     1236     1217     1221     1278     1318     1196 
     811      259     -224     -507     -606     -521     -257       95 
     390      550      615      635      648      706      822      982 
    1190     1393     1502     1483     1412     1379     1362     1285 
    1117      873      614      406      284      268      344      486 
     673      843      930      899      723      440      166       31 
     103      356      697     1044     1345     1507     1462     1305 
    1183     1178     1297     1421     1381     1166      903      675 
     510      459      552      738      923     1030     1009      853 
     633      484      494      666      947     1228     1436     1556 
    1571     1449     1227      978      769      645      631      706 
     774      777      766      811      916     1047     1161     1236 
    1260     1248     1255     1305     1344     1309     1208     1070 
     896      707      553      479      500      556      598      658 
     773      947     1165     1381     1513     1467     1209      805 
     365        0     -205     -189       55      429      758      936 
     976      957      977     1081     1220     1316     1320     1232 
    1078      881      685      548      495      525      595      662 
     770      970     1192     1279     1135      811      479      267 
     178      148      109       14      -78      -68       78      341 
     660      977     1285     1586     1819     1885     1784     1633 
    1509     1393     1277     1161     1023      882      803      800 
     812      780      681      491      217      -10      -40      160 
     479      750      904      977      965      824      633      564 
