Origin Time       2025/06/03 22:18:00
Lat.              41.7
Long.             143.6
Depth. (km)       30
Mag.              5.2
Station Code      HKD110
Station Lat.      42.1310
Station Long.     142.9354
Station Height(m) 4
Record Time       2025/06/03 22:18:50
Sampling Freq(Hz) 100Hz
Duration Time(s)  73
Dir.              N-S
Scale Factor      7845(gal)/8223790
Max. Acc. (gal)   7.120
Last Correction   2025/06/03 22:18:51
Memo.             
[...]
   -2339    -2339    -2339    -2340    -2340    -2339    -2339    -2342 
   -2340    -2338    -2339    -2339    -2338    -2338    -2340    -2340 
   -2336    -2336    -2340    -2340    -2340    -2340    -2342    -2342 
   -2343    -2342    -2339    -2339    -2339    -2342    -2344    -2342 
   -2340    -2342    -2340    -2339    -2342    -2343    -2344    -2346 
   -2344    -2344    -2346    -2343    -2346    -2349    -2349    -2346 
   -2346    -2347    -2350    -2351    -2353    -2354    -2353    -2353 
   -2354    -2358    -2359    -2359    -2359    -2362    -2363    -2361 
   -2362    -2367    -2367    -2366    -2366    -2365    -2366    -2369 
   -2369    -2370    -2369    -2362    -2359    -2363    -2363    -2362 
   -2359    -2355    -2354    -2355    -2355    -2351    -2344    -2340 
   -2342    -2342    -2335    -2330    -2332    -2336    -2339    -2343 
   -2346    -2340    -2335    -2332    -2332    -2332    -2335    -2346 
   -2355    -2353    -2346    -2334    -2326    -2332    -2343    -2346 
   -2344    -2346    -2335    -2312    -2303    -2320    -2339    -2339 
   -2331    -2319    -2297    -2285    -2311    -2338    -2332    -2316 
   -2315    -2315    -2308    -2304    -2293    -2288    -2309    -2339 
   -2336    -2304    -2285    -2299    -2327    -2351    -2373    -2376 
   -2346    -2319    -2327    -2371    -2431    -2466    -2454    -2400 
   -2342    -2326    -2365    -2421    -2451    -2446    -2411    -2338 
   -2262    -2253    -2317    -2396    -2438    -2413    -2317    -2201 
   -2151    -2182    -2246    -2311    -2365    -2370    -2305    -2177 
   -2058    -2058    -2164    -2273    -2357    -2382    -2281    -2118 
   -2057    -2143    -2285    -2409    -2486    -2452    -2286    -2153 
   -2204    -2384    -2554    -2644    -2631    -2502    -2328    -2255 
   -2343    -2479    -2565    -2583    -2505    -2315    -2127    -2097 
   -2218    -2346    -2420    -2446    -2374    -2226    -2122    -2118 
   -2200    -2326    -2428    -2467    -2439    -2355    -2293    -2324 
   -2407    -2442    -2416    -2394    -2419    -2475    -2525    -2531 
   -2467    -2378    -2336    -2350    -2359    -2363    -2417    -2515 
   -2575    -2560    -2508    -2442    -2358    -2285    -2278    -2300 
   -2255    -2209    -2265    -2315    -2227    -2085    -2047    -2151 
   -2296    -2398    -2473    -2528    -2529    -2481    -2424    -2390 
   -2378    -2369    -2374    -2413    -2436    -2407    -2342    -2246 
   -2212    -2328    -2463    -2389    -2100    -1846    -1822    -1923 
   -1960    -1949    -1957    -1933    -1846    -1790    -1829    -1938 
   -2056    -2143    -2182    -2181    -2184    -2245    -2373    -2525 
   -2643    -2718    -2709    -2533    -2309    -2295    -2502    -2739 
   -2860    -2830    -2716    -2628    -2596    -2628    -2741    -2843 
   -2787    -2608    -2477    -2458    -2506    -2570    -2614    -2631 
   -2631    -2562    -2377    -2193    -2189    -2359    -2513    -2528 
   -2469    -2434    -2397    -2282    -2128    -2087    -2196    -2308 
   -2313    -2209    -2056    -1995    -2081    -2177    -2173    -2107 
   -2027    -1952    -1949    -2091    -2353    -2596    -2689    -2639 
   -2517    -2354    -2204    -2150    -2191    -2317    -2519    -2656 
   -2614    -2473    -2365    -2330    -2346    -2416    -2525    -2583 
   -2528    -2421    -2339    -2289    -2303    -2398    -2527    -2605 
   -2579    -2440    -2231    -2038    -1950    -1998    -2141    -2284 
   -2323    -2224    -2053    -1888    -1803    -1850    -1992    -2158 
   -2308    -2362    -2262    -2099    -2029    -2119    -2335    -2548 
   -2613    -2482    -2236    -2047    -2049    -2208    -2420    -2612 
   -2713    -2670    -2543    -2448    -2455    -2562    -2721    -2862 
   -2938    -2964    -2970    -2967    -2905    -2782    -2686    -2651 
   -2605    -2509    -2407    -2328    -2259    -2204    -2161    -2107 
   -2053    -2008    -1921    -1795    -1691    -1645    -1680    -1783 
   -1907    -2050    -2193    -2247    -2161    -2012    -1930    -1946 
   -2043    -2223    -2416    -2488    -2421    -2320    -2272    -2301 
   -2389    -2481    -2521    -2513    -2512    -2531    -2506    -2430 
   -2389    -2444    -2547    -2625    -2650    -2637    -2614    -2583 
   -2556    -2558    -2569    -2558    -2501    -2381    -2257    -2199 
   -2201    -2220    -2224    -2192    -2127    -2056    -1976    -1911 
   -1917    -2000    -2123    -2253    -2354    -2396    -2370    -2297 
   -2227    -2189    -2170    -2162    -2164    -2185    -2249    -2319 
   -2324    -2276    -2234    -2265    -2386    -2511    -2538    -2515 
   -2512    -2501    -2447    -2392    -2373    -2398    -2461    -2538 
   -2606    -2666    -2709    -2720    -2708    -2677    -2600    -2467 
   -2336    -2272    -2273    -2311    -2386    -2471    -2492    -2428 
   -2338    -2265    -2223    -2209    -2219    -2226    -2187    -2112 
   -2038    -1968    -1922    -1954    -2050    -2154    -2262    -2378 
   -2497    -2610    -2708    -2795    -2879    -2937    -2941    -2856 
   -2682    -2506    -2408    -2365    -2365    -2431    -2521    -2574 
   -2583    -2575    -2558    -2539    -2552    -2610    -2679    -2697 
   -2640    -2517    -2335    -2161    -2061    -2011    -1991    -2049 
   -2195    -2355    -2465    -2508    -2479    -2392    -2295    -2228 
   -2185    -2145    -2101    -2035    -1938    -1840    -1784    -1814 
   -1890    -1915    -1867    -1796    -1728    -1647    -1593    -1611 
   -1691    -1776    -1834    -1877    -1929    -2004    -2110    -2226 
   -2324    -2404    -2475    -2532    -2578    -2641    -2714    -2764 
   -2787    -2818    -2898    -3030    -3148    -3194    -3165    -3090 
   -2994    -2898    -2808    -2717    -2593    -2417    -2232    -2068 
   -1918    -1810    -1784    -1841    -1973    -2147    -2295    -2358 
   -2349    -2317    -2282    -2209    -2085    -1952    -1860    -1810 
   -1788    -1800    -1860    -1968    -2110    -2242    -2334    -2400 
   -2469    -2547    -2617    -2671    -2720    -2768    -2818    -2871 
   -2921    -2970    -3005    -2997    -2928    -2812    -2667    -2519 
   -2411    -2376    -2401    -2444    -2447    -2382    -2305    -2289 
   -2316    -2319    -2284    -2212    -2080    -1899    -1736    -1665 
   -1710    -1831    -1965    -2065    -2135    -2209    -2305    -2407 
   -2475    -2497    -2498    -2505    -2505    -2485    -2458    -2447 
   -2470    -2524    -2579    -2605    -2587    -2552    -2529    -2527 
   -2539    -2528    -2467    -2378    -2289    -2208    -2130    -2053 
   -1998    -1993    -2038    -2099    -2135    -2168    -2227    -2299 
   -2355    -2405    -2448    -2469    -2478    -2481    -2450    -2385 
   -2338    -2335    -2346    -2338    -2324    -2300    -2247    -2173 
   -2089    -2015    -1987    -2023    -2106    -2189    -2227    -2215 
   -2169    -2091    -2030    -2058    -2168    -2293    -2389    -2435 
   -2423    -2388    -2388    -2455    -2574    -2708    -2808    -2847 
   -2837    -2817    -2818    -2841    -2872    -2894    -2887    -2837 
   -2764    -2702    -2679    -2704    -2745    -2749    -2686    -2567 
   -2448    -2376    -2319    -2242    -2151    -2065    -1991    -1937 
   -1903    -1872    -1829    -1777    -1725    -1687    -1687    -1732 
   -1804    -1873    -1931    -2011    -2114    -2208    -2311    -2447 
   -2593    -2712    -2799    -2859    -2870    -2829    -2779    -2764 
   -2794    -2845    -2903    -2952    -2959    -2917    -2863    -2786 
   -2655    -2512    -2423    -2363    -2281    -2184    -2110    -2072 
   -2060    -2062    -2081    -2108    -2114    -2100    -2070    -2008 
   -1921    -1826    -1732    -1632    -1540    -1491    -1514    -1574 
   -1610    -1615    -1603    -1599    -1628    -1682    -1717    -1714 
   -1705    -1745    -1845    -1971    -2104    -2239    -2349    -2417 
   -2484    -2586    -2716    -2860    -3002    -3102    -3130    -3117 
   -3118    -3154    -3204    -3245    -3258    -3214    -3114    -2997 
   -2876    -2752    -2643    -2573    -2539    -2492    -2403    -2297 
   -2201    -2124    -2056    -1965    -1826    -1675    -1564    -1503 
   -1468    -1463    -1505    -1578    -1642    -1698    -1786    -1922 
   -2085    -2276    -2488    -2675    -2809    -2901    -2948    -2951 
   -2911    -2848    -2793    -2762    -2749    -2760    -2795    -2844 
   -2909    -2994    -3083    -3164    -3227    -3285    -3334    -3330 
   -3254    -3150    -3036    -2905    -2756    -2606    -2454    -2307 
   -2182    -2089    -2046    -2069    -2128    -2162    -2151    -2119 
   -2088    -2060    -2008    -1903    -1749    -1587    -1448    -1343 
   -1273    -1264    -1331    -1440    -1555    -1663    -1773    -1891 
   -1999    -2085    -2160    -2231    -2282    -2301    -2305    -2307 
   -2307    -2308    -2309    -2319    -2350    -2380    -2380    -2361 
   -2376    -2459    -2597    -2721    -2770    -2743    -2654    -2513 
   -2349    -2185    -2054    -1985    -1965    -1962    -1981    -2033 
   -2127    -2257    -2389    -2489    -2538    -2523    -2473    -2427 
   -2394    -2374    -2366    -2354    -2324    -2288    -2261    -2258 
   -2292    -2363    -2452    -2505    -2494    -2478    -2494    -2519 
   -2535    -2542    -2512    -2446    -2380    -2324    -2285    -2284 
   -2340    -2434    -2517    -2567    -2598    -2614    -2610    -2604 
   -2613    -2623    -2624    -2633    -2664    -2713    -2754    -2758 
   -2714    -2631    -2523    -2415    -2315    -2232    -2184    -2172 
   -2176    -2169    -2141    -2104    -2076    -2045    -2014    -1998 
   -2007    -2054    -2130    -2201    -2257    -2289    -2290    -2274 
   -2272    -2316    -2435    -2621    -2812    -2938    -2988    -2984 
   -2940    -2867    -2801    -2766    -2762    -2778    -2794    -2797 
   -2794    -2785    -2774    -2775    -2758    -2685    -2566    -2423 
   -2258    -2079    -1892    -1699    -1501    -1321    -1202    -1139 
   -1105    -1107    -1136    -1166    -1193    -1229    -1267    -1294 
   -1323    -1379    -1485    -1609    -1706    -1757    -1773    -1779 
   -1804    -1877    -1995    -2135    -2274    -2396    -2502    -2609 
   -2740    -2909    -3106    -3284    -3399    -3443    -3423    -3365 
   -3295    -3222    -3137    -3029    -2901    -2766    -2650    -2559 
   -2479    -2400    -2319    -2230    -2128    -2015    -1896    -1784 
   -1698    -1652    -1640    -1644    -1653    -1679    -1719    -1756 
   -1780    -1809    -1871    -1968    -2095    -2253    -2438    -2651 
   -2893    -3130    -3315    -3426    -3481    -3507    -3499    -3468 
   -3443    -3429    -3410    -3399    -3406    -3412    -3412    -3423 
   -3453    -3473    -3457    -3373    -3203    -2984    -2789    -2624 
   -2439    -2199    -1903    -1586    -1294    -1065     -901     -788 
    -718     -708     -761     -853     -986    -1151    -1308    -1445 
   -1580    -1714    -1849    -2000    -2184    -2397    -2625    -2866 
   -3092    -3268    -3388    -3485    -3569    -3640    -3711    -3773 
   -3793    -3739    -3616    -3465    -3307    -3125    -2905    -2654 
   -2390    -2143    -1927    -1740    -1586    -1485    -1435    -1409 
   -1378    -1343    -1320    -1332    -1378    -1443    -1518    -1598 
   -1679    -1767    -1860    -1965    -2099    -2250    -2403    -2546 
   -2666    -2770    -2880    -3010    -3156    -3318    -3492    -3669 
   -3838    -3994    -4143    -4268    -4355    -4399    -4382    -4276 
   -4075    -3805    -3512    -3226    -2918    -2544    -2080    -1543 
    -972     -409       90      473      719      851      904      924 
     945      959      972      954      837      641      433      199 
     -49     -286     -542     -865    -1259    -1707    -2161    -2556 
   -2859    -3063    -3213    -3385    -3619    -3913    -4220    -4488 
   -4695    -4834    -4923    -4990    -5050    -5093    -5101    -5071 
   -5008    -4918    -4803    -4673    -4525    -4338    -4108    -3832 
   -3514    -3161    -2789    -2398    -2000    -1621    -1281     -980 
    -758     -665     -650     -687     -773     -815     -778     -638 
    -376     -121       62      167      144       51      -49     -178 
    -318     -499     -757    -1073    -1417    -1732    -1975    -2158 
   -2301    -2405    -2486    -2566    -2655    -2760    -2872    -3001 
   -3169    -3369    -3597    -3847    -4082    -4271    -4403    -4499 
   -4587    -4669    -4712    -4722    -4681    -4548    -4374    -4202 
   -4023    -3866    -3669    -3326    -2856    -2259    -1545     -832 
    -220      251      531      622      565      403      199      -16 
    -213     -348     -450     -556     -677     -839    -1059    -1350 
   -1740    -2242    -2862    -3604    -4442    -5324    -6174    -6941 
   -7592    -8091    -8426    -8602    -8637    -8546    -8321    -7951 
   -7454    -6824    -6080    -5283    -4500    -3798    -3200    -2686 
   -2227    -1786    -1294     -719      -87      592     1302     1985 
    2629     3225     3753     4213     4595     4862     4982     4953 
    4769     4415     3881     3164     2289     1298      228     -862 
   -1925    -2940    -3924    -4885    -5810    -6673    -7442    -8071 
   -8505    -8707    -8710    -8602    -8430    -8189    -7855    -7419 
   -6891    -6305    -5674    -4986    -4236    -3416    -2548    -1671 
    -841      -86      611     1289     1977     2691     3427     4120 
    4658     4996     5124     5016     4710     4244     3619     2856 
    1935      854     -344    -1641    -2905    -3975    -4785    -5325 
   -5675    -5931    -6154    -6399    -6693    -7052    -7453    -7834 
   -8159    -8409    -8536    -8510    -8332    -8004    -7501    -6829 
   -6025    -5143    -4244    -3391    -2641    -2026    -1543    -1192 
    -978     -862     -787     -729     -627     -400      -49      410 
     935     1435     1864     2160     2296     2315     2216     2003 
    1714     1355      926      464        8     -419     -808    -1151 
   -1437    -1709    -2011    -2355    -2776    -3254    -3707    -4097 
   -4413    -4650    -4827    -4981    -5117    -5217    -5242    -5188 
   -5085    -4950    -4796    -4626    -4418    -4132    -3743    -3277 
   -2782    -2292    -1838    -1413     -985     -545     -114      252 
     492      575      498      297       37     -205     -394     -542 
    -675     -832    -1077    -1429    -1871    -2388    -2952    -3520 
   -4063    -4537    -4900    -5136    -5246    -5242    -5161    -5036 
   -4895    -4754    -4607    -4432    -4232    -4021    -3797    -3554 
   -3294    -2992    -2624    -2187    -1698    -1175     -648     -155 
     256      576      832     1053     1223     1309     1273     1089 
     757      298     -241     -827    -1428    -2002    -2531    -3009 
   -3435    -3816    -4145    -4395    -4534    -4572    -4540    -4482 
   -4423    -4379    -4352    -4338    -4326    -4311    -4278    -4209 
   -4095    -3927    -3681    -3342    -2906    -2384    -1809    -1232 
    -714     -291       14      184      214      118      -82     -357 
    -668    -1000    -1313    -1576    -1806    -2004    -2166    -2340 
   -2546    -2779    -3042    -3327    -3642    -3986    -4336    -4671 
   -4968    -5189    -5312    -5339    -5270    -5111    -4884    -4615 
   -4305    -3948    -3545    -3090    -2601    -2092    -1598    -1178 
    -857     -625     -483     -405     -338     -263     -195     -118 
     -25       32       32       -2      -72     -172     -280     -394 
    -515     -662     -857    -1090    -1347    -1628    -1964    -2384 
   -2899    -3500    -4140    -4746    -5267    -5676    -5965    -6147 
   -6261    -6334    -6349    -6282    -6126    -5860    -5481    -5013 
   -4480    -3909    -3353    -2847    -2390    -1976    -1613    -1304 
   -1024     -720     -357       75      562     1063     1532     1939 
    2276     2496     2546     2435     2154     1691     1094      395 
    -328    -1012    -1679    -2269    -2729    -3076    -3315    -3511 
   -3717    -3927    -4160    -4422    -4676    -4941    -5233    -5533 
   -5815    -6041    -6160    -6145    -5985    -5709    -5335    -4872 
   -4349    -3805    -3260    -2718    -2191    -1701    -1285     -969 
    -762     -657     -616     -595     -561     -498     -387     -210 
      31      292      562      831     1024     1113     1112     1000 
     797      529      184     -203     -587     -967    -1344    -1690 
   -2026    -2353    -2643    -2924    -3198    -3451    -3715    -4009 
   -4310    -4611    -4901    -5161    -5385    -5563    -5683    -5746 
   -5730    -5609    -5383    -5057    -4639    -4156    -3628    -3094 
   -2596    -2160    -1802    -1520    -1283    -1069     -874     -714 
    -607     -554     -549     -610     -719     -834     -965    -1086 
   -1166    -1231    -1275    -1304    -1331    -1366    -1456    -1598 
   -1796    -2072    -2389    -2735    -3102    -3442    -3742    -3993 
   -4163    -4264    -4317    -4311    -4266    -4187    -4094    -4033 
   -4004    -3982    -3964    -3937    -3882    -3769    -3588    -3333 
   -2995    -2613    -2218    -1809    -1401    -1027     -712     -487 
    -359     -334     -403     -519     -652     -783     -881     -951 
   -1031    -1131    -1256    -1402    -1536    -1659    -1783    -1922 
   -2114    -2384    -2717    -3082    -3437    -3730    -3933    -4041 
   -4064    -4024    -3933    -3785    -3574    -3311    -3003    -2660 
   -2317    -1989    -1678    -1377    -1080     -789     -510     -236 
      10      211      363      457      457      332       83     -279 
    -726    -1220    -1736    -2265    -2805    -3338    -3846    -4314 
   -4727    -5067    -5317    -5481    -5578    -5628    -5636    -5598 
   -5505    -5332    -5055    -4681    -4234    -3721    -3167    -2610 
   -2087    -1618    -1232     -946     -756     -639     -573     -541 
    -506     -446     -384     -337     -288     -264     -260     -270 
    -352     -499     -685     -935    -1235    -1564    -1934    -2327 
   -2705    -3068    -3408    -3701    -3943    -4137    -4271    -4341 
   -4363    -4342    -4272    -4149    -3991    -3812    -3622    -3427 
   -3233    -3028    -2805    -2563    -2309    -2047    -1804    -1610 
   -1471    -1391    -1362    -1352    -1337    -1343    -1375    -1428 
   -1517    -1629    -1733    -1838    -1934    -2012    -2083    -2130 
   -2154    -2173    -2182    -2166    -2122    -2046    -1950    -1860 
   -1779    -1713    -1675    -1659    -1664    -1710    -1780    -1841 
   -1879    -1888    -1869    -1842    -1838    -1895    -2030    -2232 
   -2492    -2794    -3111    -3442    -3786    -4135    -4465    -4762 
   -5015    -5209    -5327    -5360    -5319    -5208    -5030    -4772 
   -4423    -3987    -3464    -2870    -2247    -1644    -1098     -641 
    -276        0      206      357      473      562      616      633 
     616      585      554      504      415      274       45     -283 
    -697    -1178    -1698    -2224    -2739    -3215    -3640    -4017 
   -4340    -4604    -4811    -4950    -5011    -4995    -4914    -4781 
   -4610    -4405    -4166    -3900    -3618    -3327    -3024    -2705 
   -2374    -2030    -1686    -1360    -1061     -800     -598     -461 
