Origin Time       2025/06/03 22:18:00
Lat.              41.7
Long.             143.6
Depth. (km)       30
Mag.              5.2
Station Code      HKD111
Station Lat.      42.0170
Station Long.     143.1487
Station Height(m) 22
Record Time       2025/06/03 22:18:45
Sampling Freq(Hz) 100Hz
Duration Time(s)  60
Dir.              E-W
Scale Factor      7845(gal)/8223790
Max. Acc. (gal)   1.551
Last Correction   2025/06/03 22:18:46
Memo.             
[...]
   -3364    -3365    -3365    -3362    -3361    -3364    -3364    -3361 
   -3362    -3365    -3365    -3364    -3362    -3362    -3365    -3365 
   -3364    -3364    -3365    -3365    -3364    -3364    -3364    -3364 
   -3364    -3364    -3364    -3362    -3361    -3364    -3364    -3361 
   -3362    -3362    -3362    -3365    -3365    -3362    -3364    -3364 
   -3361    -3362    -3365    -3362    -3360    -3362    -3362    -3361 
   -3364    -3364    -3362    -3365    -3366    -3360    -3360    -3365 
   -3366    -3365    -3362    -3364    -3364    -3362    -3361    -3364 
   -3364    -3361    -3361    -3364    -3364    -3364    -3362    -3360 
   -3362    -3366    -3365    -3362    -3364    -3364    -3362    -3362 
   -3364    -3364    -3361    -3360    -3362    -3364    -3361    -3362 
   -3365    -3364    -3362    -3364    -3364    -3364    -3365    -3365 
   -3362    -3364    -3364    -3361    -3362    -3362    -3361    -3362 
   -3364    -3362    -3362    -3365    -3364    -3364    -3365    -3362 
   -3360    -3362    -3364    -3364    -3362    -3364    -3365    -3364 
   -3361    -3365    -3365    -3361    -3361    -3362    -3364    -3364 
   -3361    -3362    -3365    -3365    -3364    -3362    -3361    -3361 
   -3364    -3364    -3362    -3364    -3366    -3364    -3360    -3361 
   -3365    -3362    -3357    -3361    -3365    -3362    -3362    -3365 
   -3364    -3361    -3362    -3362    -3364    -3364    -3362    -3364 
   -3364    -3361    -3364    -3366    -3365    -3364    -3364    -3361 
   -3360    -3361    -3362    -3362    -3362    -3364    -3362    -3361 
   -3362    -3365    -3365    -3364    -3362    -3362    -3365    -3364 
   -3361    -3362    -3364    -3362    -3362    -3364    -3365    -3361 
   -3360    -3361    -3362    -3362    -3364    -3362    -3358    -3361 
   -3364    -3365    -3364    -3362    -3360    -3360    -3362    -3365 
   -3364    -3364    -3364    -3361    -3360    -3361    -3362    -3362 
   -3364    -3364    -3364    -3362    -3361    -3362    -3364    -3365 
   -3365    -3362    -3361    -3364    -3362    -3360    -3361    -3362 
   -3362    -3361    -3360    -3362    -3362    -3361    -3361    -3360 
   -3361    -3362    -3362    -3361    -3361    -3362    -3362    -3361 
   -3362    -3362    -3361    -3362    -3362    -3361    -3362    -3361 
   -3360    -3361    -3362    -3362    -3362    -3365    -3364    -3361 
   -3364    -3364    -3361    -3362    -3364    -3361    -3361    -3364 
   -3365    -3364    -3365    -3365    -3362    -3364    -3365    -3362 
   -3362    -3365    -3364    -3361    -3361    -3362    -3362    -3364 
   -3364    -3361    -3362    -3364    -3361    -3361    -3365    -3366 
   -3365    -3364    -3361    -3361    -3362    -3364    -3365    -3365 
   -3362    -3362    -3364    -3364    -3364    -3365    -3365    -3362 
   -3361    -3362    -3365    -3364    -3362    -3362    -3361    -3362 
   -3362    -3360    -3362    -3365    -3365    -3364    -3360    -3361 
   -3365    -3366    -3364    -3360    -3362    -3365    -3361    -3361 
   -3366    -3362    -3361    -3364    -3362    -3362    -3366    -3365 
   -3361    -3362    -3362    -3362    -3364    -3362    -3360    -3364 
   -3368    -3362    -3360    -3365    -3366    -3362    -3361    -3360 
   -3360    -3364    -3364    -3362    -3362    -3358    -3358    -3364 
   -3366    -3364    -3361    -3362    -3366    -3365    -3362    -3364 
   -3364    -3361    -3361    -3362    -3362    -3361    -3361    -3362 
   -3366    -3368    -3361    -3358    -3362    -3364    -3364    -3364 
   -3361    -3361    -3366    -3365    -3361    -3362    -3362    -3358 
   -3360    -3362    -3362    -3361    -3360    -3357    -3354    -3353 
   -3353    -3353    -3352    -3348    -3338    -3329    -3326    -3331 
   -3345    -3362    -3370    -3361    -3350    -3356    -3379    -3397 
   -3387    -3342    -3287    -3265    -3308    -3379    -3404    -3360 
   -3285    -3246    -3287    -3364    -3362    -3257    -3140    -3094 
   -3152    -3291    -3391    -3350    -3225    -3136    -3152    -3284 
   -3429    -3427    -3264    -3113    -3110    -3234    -3400    -3473 
   -3365    -3221    -3218    -3306    -3419    -3591    -3680    -3542 
   -3341    -3276    -3326    -3414    -3489    -3469    -3348    -3292 
   -3392    -3493    -3530    -3538    -3391    -3153    -3149    -3291 
   -3303    -3245    -3167    -3063    -3119    -3283    -3353    -3439 
   -3528    -3453    -3410    -3528    -3539    -3399    -3268    -3154 
   -3176    -3433    -3649    -3608    -3478    -3422    -3393    -3380 
   -3423    -3478    -3495    -3484    -3422    -3330    -3273    -3230 
   -3258    -3453    -3643    -3681    -3630    -3454    -3262    -3372 
   -3619    -3670    -3597    -3408    -3078    -2897    -3067    -3416 
   -3680    -3689    -3500    -3357    -3372    -3379    -3310    -3280 
   -3240    -3133    -3167    -3346    -3418    -3348    -3180    -3003 
   -3144    -3554    -3742    -3616    -3430    -3300    -3261    -3327 
   -3477    -3577    -3420    -3218    -3408    -3775    -3785    -3446 
   -3173    -3279    -3605    -3676    -3505    -3454    -3454    -3438 
   -3616    -3796    -3754    -3703    -3680    -3577    -3489    -3431 
   -3364    -3304    -3246    -3275    -3430    -3615    -3766    -3807 
   -3763    -3758    -3685    -3492    -3333    -3161    -2986    -3044 
   -3283    -3397    -3252    -2975    -2835    -2948    -3168    -3318 
   -3316    -3226    -3183    -3192    -3204    -3169    -3018    -2899 
   -3045    -3312    -3453    -3491    -3478    -3404    -3291    -3123 
   -3014    -3192    -3500    -3591    -3483    -3294    -3051    -2932 
   -3041    -3206    -3276    -3213    -3094    -3036    -2893    -2606 
   -2596    -3036    -3516    -3707    -3520    -3115    -2990    -3269 
   -3524    -3555    -3458    -3365    -3385    -3441    -3454    -3565 
   -3727    -3673    -3456    -3434    -3735    -4027    -3847    -3298 
   -3030    -3295    -3716    -3905    -3692    -3279    -3103    -3105 
   -3017    -3009    -3130    -3167    -3190    -3267    -3262    -3217 
   -3186    -3130    -3202    -3488    -3661    -3460    -3194    -3214 
   -3380    -3493    -3632    -3743    -3647    -3534    -3665    -3921 
   -4060    -3900    -3424    -2961    -2793    -2933    -3364    -3865 
   -4029    -3750    -3299    -3078    -3343    -3835    -3970    -3620 
   -3150    -2836    -2824    -3177    -3550    -3406    -2826    -2527 
   -2895    -3554    -3951    -3952    -3766    -3553    -3364    -3330 
   -3564    -3944    -4140    -3987    -3712    -3554    -3422    -3225 
   -3171    -3369    -3558    -3504    -3253    -2943    -2733    -2763 
   -2920    -3011    -3103    -3260    -3341    -3341    -3373    -3469 
   -3661    -3808    -3647    -3308    -3136    -3208    -3450    -3649 
   -3558    -3353    -3322    -3353    -3281    -3191    -3208    -3410 
   -3670    -3694    -3447    -3198    -3092    -3082    -3071    -2995 
   -2897    -2890    -3032    -3238    -3338    -3244    -3003    -2808 
   -2948    -3389    -3676    -3585    -3361    -3229    -3230    -3356 
   -3562    -3715    -3640    -3366    -3229    -3519    -4056    -4268 
   -3890    -3388    -3242    -3302    -3295    -3253    -3192    -3065 
   -2951    -2945    -3079    -3262    -3281    -3171    -3264    -3576 
   -3771    -3775    -3715    -3654    -3595    -3419    -3136    -3015 
   -3102    -3218    -3416    -3622    -3519    -3172    -2964    -3056 
   -3339    -3550    -3453    -3160    -2986    -3015    -3136    -3306 
   -3468    -3489    -3416    -3356    -3287    -3217    -3109    -2887 
   -2782    -3041    -3453    -3645    -3474    -3132    -3007    -3191 
   -3364    -3368    -3372    -3528    -3750    -3728    -3370    -3107 
   -3222    -3366    -3245    -3014    -2864    -2830    -2847    -2922 
   -3207    -3653    -3929    -3915    -3812    -3812    -3927    -4023 
   -3939    -3697    -3419    -3107    -2871    -2995    -3473    -3892 
   -3946    -3726    -3532    -3609    -3861    -3919    -3628    -3260 
   -3126    -3227    -3395    -3516    -3501    -3311    -3052    -2879 
   -2909    -3140    -3383    -3469    -3426    -3346    -3325    -3408 
   -3488    -3488    -3539    -3658    -3645    -3497    -3447    -3559 
   -3665    -3622    -3478    -3396    -3466    -3613    -3719    -3750 
   -3677    -3487    -3306    -3267    -3306    -3256    -3098    -3036 
   -3223    -3476    -3514    -3339    -3160    -3165    -3375    -3577 
   -3572    -3412    -3280    -3221    -3149    -3007    -2860    -2870 
   -3105    -3387    -3476    -3368    -3242    -3160    -3109    -3179 
   -3365    -3488    -3464    -3338    -3221    -3264    -3389    -3342 
   -3142    -3026    -3072    -3229    -3411    -3484    -3392    -3260 
   -3214    -3288    -3454    -3607    -3627    -3512    -3360    -3295 
   -3377    -3500    -3565    -3619    -3636    -3504    -3304    -3194 
   -3187    -3244    -3269    -3208    -3195    -3330    -3458    -3457 
   -3395    -3383    -3462    -3562    -3514    -3283    -3063    -3036 
   -3234    -3541    -3666    -3451    -3136    -3015    -3134    -3392 
   -3566    -3468    -3261    -3222    -3333    -3443    -3488    -3483 
   -3491    -3528    -3577    -3632    -3634    -3515    -3360    -3310 
   -3407    -3542    -3546    -3420    -3312    -3250    -3157    -3071 
   -3122    -3311    -3465    -3434    -3252    -3098    -3122    -3357 
   -3680    -3817    -3634    -3366    -3314    -3480    -3645    -3632 
   -3464    -3269    -3096    -2988    -3029    -3138    -3179    -3188 
   -3221    -3249    -3302    -3373    -3346    -3187    -3006    -2930 
   -3007    -3175    -3300    -3277    -3127    -2987    -2994    -3146 
   -3294    -3307    -3256    -3244    -3267    -3327    -3474    -3636 
   -3674    -3564    -3418    -3372    -3439    -3477    -3402    -3304 
   -3303    -3404    -3487    -3392    -3160    -3026    -3067    -3172 
   -3322    -3488    -3531    -3430    -3285    -3186    -3206    -3322 
   -3403    -3420    -3422    -3361    -3244    -3240    -3408    -3581 
   -3592    -3445    -3273    -3214    -3296    -3458    -3599    -3593 
   -3453    -3334    -3322    -3416    -3622    -3866    -4024    -4012 
   -3821    -3595    -3577    -3819    -4083    -4141    -4010    -3858 
   -3782    -3742    -3681    -3624    -3618    -3661    -3676    -3564 
   -3380    -3303    -3368    -3491    -3596    -3585    -3404    -3183 
   -3123    -3302    -3538    -3546    -3310    -3111    -3118    -3250 
   -3345    -3285    -3146    -3149    -3385    -3661    -3689    -3423 
   -3132    -3060    -3184    -3330    -3346    -3161    -2887    -2756 
   -2879    -3154    -3361    -3325    -3088    -2860    -2848    -3102 
   -3422    -3550    -3411    -3078    -2775    -2808    -3195    -3600 
   -3730    -3538    -3180    -2882    -2748    -2766    -2916    -3129 
   -3338    -3527    -3635    -3600    -3466    -3302    -3169    -3078 
   -2947    -2775    -2704    -2803    -2992    -3156    -3271    -3387 
   -3538    -3700    -3859    -4062    -4268    -4320    -4191    -4081 
   -4052    -3993    -3871    -3726    -3585    -3547    -3623    -3659 
   -3592    -3466    -3319    -3264    -3403    -3592    -3596    -3431 
   -3358    -3503    -3732    -3888    -3935    -3897    -3817    -3734 
   -3704    -3759    -3755    -3568    -3387    -3430    -3588    -3670 
   -3673    -3667    -3649    -3564    -3408    -3281    -3269    -3311 
   -3295    -3230    -3175    -3099    -2921    -2671    -2489    -2469 
   -2647    -2990    -3315    -3325    -2905    -2320    -2042    -2230 
   -2547    -2677    -2662    -2659    -2747    -2872    -2866    -2671 
   -2473    -2428    -2517    -2677    -2853    -2976    -3051    -3142 
   -3230    -3211    -3059    -2863    -2768    -2867    -3115    -3361 
   -3460    -3373    -3202    -3142    -3356    -3754    -4028    -3993 
   -3792    -3677    -3788    -4054    -4216    -4117    -3909    -3811 
   -3904    -4201    -4529    -4611    -4423    -4190    -4081    -4101 
   -4158    -4175    -4167    -4122    -3955    -3628    -3280    -3109 
   -3190    -3419    -3616    -3724    -3847    -3950    -3780    -3295 
   -2830    -2706    -2937    -3323    -3640    -3797    -3780    -3554 
   -3230    -3119    -3402    -3862    -4048    -3692    -3028    -2602 
   -2721    -3244    -3786    -4058    -4052    -3929    -3766    -3599 
   -3469    -3325    -3118    -2945    -2906    -2988    -3127    -3248 
   -3330    -3354    -3199    -2775    -2245    -1867    -1755    -1822 
   -1877    -1845    -1838    -1930    -2072    -2262    -2570    -2949 
   -3203    -3191    -3017    -2924    -3014    -3180    -3312    -3422 
   -3576    -3798    -4033    -4151    -4072    -3885    -3774    -3850 
   -4021    -4116    -4109    -4106    -4147    -4116    -3940    -3748 
   -3653    -3572    -3407    -3160    -2890    -2721    -2736    -2848 
   -2983    -3188    -3419    -3554    -3582    -3577    -3603    -3666 
   -3701    -3701    -3781    -4013    -4295    -4452    -4390    -4183 
   -4040    -4112    -4338    -4473    -4301    -3867    -3445    -3253 
   -3289    -3416    -3537    -3645    -3774    -3874    -3832    -3608 
   -3314    -3103    -3037    -3046    -3034    -3015    -3079    -3200 
   -3264    -3198    -2947    -2550    -2278    -2392    -2782    -3067 
   -3011    -2772    -2700    -2894    -3142    -3204    -3033    -2797 
   -2714    -2839    -3114    -3464    -3694    -3618    -3279    -2889 
   -2637    -2560    -2504    -2285    -1945    -1737    -1858    -2285 
   -2833    -3229    -3250    -2943    -2565    -2322    -2280    -2416 
   -2679    -3001    -3252    -3335    -3312    -3327    -3465    -3715 
   -3952    -4004    -3836    -3609    -3480    -3489    -3586    -3690 
   -3766    -3829    -3923    -4041    -4063    -3840    -3438    -3125 
   -3082    -3283    -3620    -3898    -3942    -3840    -3855    -4071 
   -4368    -4558    -4487    -4217    -4012    -4029    -4201    -4345 
   -4267    -3909    -3445    -3126    -3059    -3169    -3289    -3330 
   -3333    -3361    -3442    -3595    -3794    -3931    -3858    -3573 
   -3298    -3261    -3431    -3638    -3790    -3897    -3986    -4074 
   -4167    -4244    -4203    -3947    -3547    -3237    -3213    -3446 
   -3669    -3607    -3291    -3029    -3064    -3326    -3505    -3418 
   -3184    -2991    -2856    -2739    -2652    -2627    -2654    -2685 
   -2682    -2704    -2828    -2978    -3006    -2926    -2868    -2913 
   -3068    -3275    -3420    -3437    -3365    -3314    -3381    -3570 
   -3771    -3835    -3647    -3215    -2728    -2432    -2448    -2706 
   -3048    -3339    -3535    -3646    -3670    -3631    -3611    -3613 
   -3527    -3330    -3164    -3152    -3261    -3349    -3306    -3200 
   -3204    -3350    -3534    -3673    -3730    -3747    -3807    -3894 
   -3933    -3885    -3796    -3786    -3919    -4090    -4114    -3951 
   -3758    -3678    -3684    -3674    -3616    -3530    -3462    -3478 
   -3573    -3650    -3613    -3450    -3217    -2992    -2814    -2678 
   -2579    -2467    -2263    -2025    -1930    -2084    -2415    -2747 
   -2980    -3175    -3391    -3542    -3532    -3389    -3240    -3207 
   -3304    -3431    -3465    -3370    -3208    -3026    -2789    -2479 
   -2193    -2050    -2115    -2349    -2636    -2891    -3082    -3207 
   -3334    -3505    -3651    -3720    -3759    -3812    -3839    -3759 
   -3546    -3315    -3213    -3248    -3338    -3420    -3515    -3663 
   -3850    -3996    -4029    -3948    -3871    -3927    -4082    -4176 
   -4064    -3762    -3484    -3456    -3684    -3973    -4109    -4033 
   -3835    -3665    -3628    -3692    -3705    -3577    -3353    -3173 
   -3156    -3325    -3638    -3987    -4187    -4108    -3801    -3458 
   -3273    -3303    -3445    -3555    -3577    -3530    -3464    -3414 
   -3377    -3354    -3345    -3361    -3408    -3450    -3458    -3427 
   -3338    -3217    -3127    -3095    -3096    -3069    -2948    -2778 
   -2679    -2673    -2683    -2651    -2574    -2519    -2556    -2646 
   -2690    -2663    -2587    -2521    -2558    -2729    -2968    -3176 
   -3289    -3318    -3327    -3335    -3312    -3285    -3327    -3474 
   -3673    -3824    -3870    -3850    -3827    -3815    -3802    -3816 
   -3863    -3910    -3905    -3815    -3655    -3453    -3217    -2994 
   -2859    -2826    -2863    -2948    -3079    -3210    -3285    -3303 
   -3325    -3383    -3456    -3541    -3682    -3909    -4155    -4271 
   -4186    -4010    -3924    -3971    -4048    -4059    -3994    -3923 
   -3919    -3969    -3951    -3800    -3609    -3480    -3385    -3264 
   -3142    -3121    -3248    -3441    -3591    -3685    -3765    -3807 
   -3730    -3511    -3245    -3080    -3080    -3163    -3196    -3142 
   -3038    -2907    -2782    -2722    -2755    -2844    -2916    -2925 
   -2916    -2925    -2907    -2863    -2853    -2883    -2907    -2953 
   -3082    -3275    -3449    -3519    -3483    -3416    -3380    -3372 
   -3364    -3330    -3289    -3296    -3368    -3461    -3526    -3537 
   -3496    -3416    -3310    -3210    -3144    -3102    -3080    -3122 
   -3252    -3430    -3584    -3658    -3658    -3639    -3616    -3564 
   -3496    -3451    -3422    -3381    -3330    -3277    -3238    -3223 
   -3237    -3257    -3264    -3234    -3173    -3130    -3123    -3111 
   -3071    -3028    -3011    -3021    -3055    -3126    -3237    -3353 
   -3434    -3476    -3510    -3523    -3487    -3402    -3292    -3186 
   -3133    -3165    -3237    -3306    -3360    -3380    -3348    -3277 
   -3217    -3215    -3277    -3350    -3418    -3528    -3707    -3889 
   -3986    -3973    -3905    -3855    -3843    -3861    -3905    -3950 
   -3946    -3898    -3848    -3801    -3743    -3689    -3642    -3578 
   -3499    -3419    -3354    -3302    -3234    -3144    -3072    -3036 
   -2991    -2897    -2770    -2646    -2570    -2573    -2616    -2641 
   -2637    -2633    -2667    -2740    -2830    -2917    -2976    -3006 
   -3049    -3137    -3279    -3485    -3728    -3925    -4021    -4048 
   -4068    -4085    -4055    -3973    -3875    -3794    -3739    -3726 
   -3771    -3875    -3983    -4025    -3993    -3950    -3929    -3923 
   -3896    -3809    -3640    -3415    -3180    -2997    -2917    -2930 
   -2978    -2997    -2982    -3003    -3105    -3213    -3225    -3126 
   -3015    -3007    -3130    -3308    -3438    -3481    -3469    -3426 
   -3368    -3322    -3306    -3321    -3383    -3484    -3584    -3638 
   -3632    -3585    -3538    -3535    -3585    -3654    -3670    -3596 
   -3462    -3329    -3237    -3202    -3204    -3211    -3191    -3146 
   -3107    -3092    -3088    -3096    -3129    -3165    -3187    -3175 
   -3118    -3041    -2983    -2952    -2934    -2925    -2914    -2890 
   -2871    -2878    -2901    -2940    -3005    -3098    -3213    -3330 
   -3430    -3505    -3569    -3613    -3623    -3638    -3688    -3747 
   -3788    -3815    -3851    -3928    -4031    -4099    -4094    -4020 
   -3909    -3805    -3753    -3759    -3777    -3750    -3672    -3574 
   -3478    -3389    -3307    -3233    -3176    -3141    -3134    -3173 
   -3261    -3370    -3469    -3520    -3483    -3341    -3146    -2983 
   -2916    -2948    -3036    -3132    -3206    -3252    -3268    -3260 
