Origin Time       2025/06/03 22:18:00
Lat.              41.7
Long.             143.6
Depth. (km)       30
Mag.              5.2
Station Code      HKD113
Station Lat.      42.1287
Station Long.     143.3153
Station Height(m) 15
Record Time       2025/06/03 22:18:36
Sampling Freq(Hz) 100Hz
Duration Time(s)  62
Dir.              U-D
Scale Factor      3920(gal)/6182761
Max. Acc. (gal)   1.967
Last Correction   2025/06/03 22:18:36
Memo.             
[...]
  -14554   -14555   -14556   -14553   -14553   -14554   -14557   -14558 
  -14556   -14553   -14553   -14557   -14558   -14554   -14555   -14557 
  -14555   -14555   -14558   -14558   -14555   -14552   -14553   -14555 
  -14556   -14556   -14557   -14556   -14554   -14554   -14556   -14555 
  -14556   -14556   -14554   -14554   -14555   -14557   -14557   -14554 
  -14553   -14555   -14552   -14554   -14560   -14556   -14550   -14552 
  -14556   -14557   -14557   -14557   -14554   -14554   -14558   -14558 
  -14555   -14554   -14554   -14556   -14557   -14555   -14557   -14557 
  -14554   -14556   -14556   -14555   -14558   -14559   -14555   -14553 
  -14554   -14558   -14560   -14556   -14554   -14556   -14558   -14556 
  -14555   -14556   -14556   -14556   -14555   -14556   -14559   -14555 
  -14554   -14559   -14558   -14552   -14551   -14556   -14559   -14559 
  -14556   -14554   -14554   -14556   -14555   -14554   -14555   -14556 
  -14554   -14555   -14556   -14554   -14554   -14557   -14557   -14554 
  -14552   -14553   -14552   -14557   -14561   -14556   -14551   -14554 
  -14557   -14558   -14556   -14553   -14555   -14555   -14554   -14557 
  -14555   -14554   -14556   -14557   -14554   -14552   -14556   -14558 
  -14553   -14553   -14556   -14557   -14557   -14556   -14554   -14555 
  -14554   -14555   -14557   -14557   -14558   -14558   -14556   -14556 
  -14555   -14553   -14554   -14556   -14557   -14556   -14554   -14554 
  -14558   -14559   -14553   -14552   -14555   -14556   -14559   -14560 
  -14554   -14553   -14557   -14554   -14554   -14557   -14554   -14552 
  -14554   -14555   -14556   -14557   -14554   -14554   -14558   -14557 
  -14557   -14558   -14553   -14551   -14557   -14560   -14559   -14557 
  -14551   -14554   -14561   -14556   -14549   -14555   -14557   -14557 
  -14557   -14553   -14554   -14559   -14555   -14555   -14558   -14556 
  -14553   -14555   -14556   -14556   -14554   -14555   -14555   -14556 
  -14557   -14554   -14553   -14554   -14555   -14556   -14556   -14558 
  -14559   -14555   -14554   -14557   -14557   -14556   -14555   -14553 
  -14556   -14558   -14556   -14557   -14557   -14554   -14552   -14555 
  -14557   -14558   -14556   -14555   -14561   -14560   -14554   -14552 
  -14553   -14555   -14558   -14558   -14556   -14555   -14557   -14557 
  -14557   -14557   -14556   -14556   -14552   -14551   -14557   -14561 
  -14558   -14553   -14552   -14556   -14558   -14554   -14551   -14556 
  -14560   -14558   -14554   -14554   -14555   -14558   -14558   -14553 
  -14552   -14556   -14555   -14555   -14559   -14558   -14555   -14555 
  -14555   -14555   -14556   -14557   -14556   -14555   -14554   -14558 
  -14559   -14556   -14555   -14555   -14555   -14557   -14556   -14555 
  -14556   -14556   -14559   -14560   -14555   -14551   -14552   -14557 
  -14559   -14557   -14556   -14556   -14556   -14558   -14558   -14554 
  -14552   -14556   -14558   -14558   -14555   -14553   -14558   -14560 
  -14554   -14555   -14559   -14557   -14553   -14554   -14556   -14557 
  -14557   -14557   -14557   -14556   -14553   -14553   -14554   -14558 
  -14558   -14556   -14558   -14559   -14557   -14555   -14555   -14558 
  -14557   -14554   -14557   -14557   -14555   -14558   -14559   -14557 
  -14557   -14554   -14552   -14554   -14556   -14555   -14554   -14553 
  -14554   -14556   -14558   -14557   -14555   -14554   -14556   -14556 
  -14557   -14556   -14553   -14555   -14558   -14554   -14553   -14556 
  -14557   -14556   -14555   -14555   -14557   -14556   -14554   -14557 
  -14557   -14555   -14555   -14556   -14556   -14555   -14554   -14556 
  -14556   -14555   -14556   -14557   -14556   -14556   -14555   -14555 
  -14553   -14551   -14556   -14559   -14556   -14555   -14557   -14557 
  -14556   -14552   -14553   -14557   -14556   -14554   -14554   -14554 
  -14555   -14558   -14557   -14553   -14554   -14557   -14558   -14554 
  -14554   -14556   -14556   -14555   -14554   -14553   -14555   -14556 
  -14556   -14556   -14555   -14553   -14554   -14558   -14556   -14552 
  -14554   -14555   -14556   -14557   -14555   -14554   -14558   -14558 
  -14555   -14555   -14557   -14555   -14555   -14558   -14557   -14556 
  -14557   -14554   -14556   -14557   -14554   -14552   -14553   -14554 
  -14560   -14558   -14553   -14555   -14554   -14554   -14557   -14557 
  -14555   -14556   -14555   -14556   -14555   -14554   -14557   -14556 
  -14552   -14554   -14557   -14556   -14558   -14559   -14553   -14553 
  -14556   -14557   -14558   -14554   -14551   -14554   -14556   -14557 
  -14556   -14555   -14557   -14558   -14554   -14554   -14555   -14557 
  -14558   -14555   -14553   -14556   -14557   -14558   -14560   -14555 
  -14553   -14555   -14556   -14558   -14558   -14555   -14556   -14557 
  -14558   -14556   -14553   -14556   -14560   -14554   -14552   -14556 
  -14555   -14555   -14556   -14553   -14551   -14557   -14560   -14557 
  -14555   -14556   -14556   -14556   -14556   -14556   -14556   -14556 
  -14555   -14555   -14556   -14557   -14557   -14556   -14554   -14556 
  -14557   -14556   -14557   -14558   -14554   -14553   -14556   -14555 
  -14554   -14556   -14557   -14556   -14556   -14555   -14554   -14554 
  -14555   -14558   -14559   -14556   -14555   -14557   -14558   -14557 
  -14554   -14552   -14555   -14557   -14555   -14553   -14556   -14558 
  -14556   -14553   -14554   -14556   -14558   -14557   -14555   -14554 
  -14555   -14555   -14555   -14555   -14556   -14555   -14555   -14555 
  -14555   -14556   -14556   -14554   -14555   -14557   -14555   -14554 
  -14556   -14556   -14554   -14555   -14557   -14558   -14557   -14553 
  -14553   -14556   -14558   -14558   -14556   -14554   -14555   -14557 
  -14557   -14556   -14554   -14555   -14557   -14558   -14557   -14555 
  -14554   -14555   -14555   -14556   -14560   -14554   -14550   -14556 
  -14558   -14554   -14555   -14555   -14554   -14557   -14559   -14555 
  -14551   -14554   -14559   -14558   -14555   -14555   -14556   -14557 
  -14556   -14555   -14556   -14554   -14552   -14556   -14556   -14555 
  -14557   -14556   -14554   -14556   -14557   -14557   -14555   -14553 
  -14556   -14559   -14557   -14555   -14555   -14554   -14555   -14554 
  -14555   -14557   -14554   -14554   -14558   -14558   -14556   -14555 
  -14554   -14557   -14557   -14554   -14556   -14559   -14557   -14553 
  -14555   -14558   -14554   -14554   -14556   -14554   -14556   -14557 
  -14554   -14552   -14553   -14556   -14556   -14555   -14555   -14554 
  -14556   -14558   -14555   -14553   -14553   -14557   -14560   -14557 
  -14553   -14555   -14558   -14558   -14555   -14555   -14557   -14555 
  -14554   -14556   -14556   -14558   -14558   -14556   -14557   -14556 
  -14553   -14556   -14558   -14558   -14556   -14552   -14553   -14558 
  -14558   -14557   -14557   -14555   -14557   -14560   -14559   -14556 
  -14553   -14552   -14556   -14561   -14560   -14555   -14555   -14558 
  -14560   -14559   -14555   -14553   -14556   -14558   -14557   -14554 
  -14554   -14555   -14555   -14557   -14558   -14555   -14554   -14556 
  -14558   -14558   -14557   -14555   -14554   -14557   -14556   -14553 
  -14555   -14557   -14556   -14556   -14556   -14556   -14558   -14559 
  -14557   -14555   -14555   -14557   -14558   -14557   -14555   -14554 
  -14555   -14558   -14558   -14555   -14555   -14556   -14555   -14557 
  -14556   -14556   -14557   -14556   -14557   -14558   -14555   -14554 
  -14556   -14558   -14557   -14555   -14555   -14557   -14558   -14556 
  -14555   -14554   -14554   -14555   -14555   -14554   -14556   -14557 
  -14556   -14556   -14556   -14557   -14555   -14554   -14558   -14556 
  -14552   -14556   -14559   -14557   -14556   -14554   -14554   -14556 
  -14555   -14555   -14557   -14556   -14556   -14555   -14555   -14559 
  -14558   -14554   -14555   -14553   -14556   -14560   -14557   -14555 
  -14556   -14556   -14557   -14556   -14555   -14556   -14555   -14552 
  -14556   -14561   -14557   -14552   -14553   -14556   -14557   -14557 
  -14557   -14556   -14556   -14559   -14558   -14556   -14556   -14555 
  -14555   -14559   -14559   -14555   -14554   -14556   -14557   -14555 
  -14556   -14557   -14554   -14554   -14557   -14556   -14557   -14559 
  -14557   -14555   -14558   -14557   -14554   -14555   -14554   -14552 
  -14554   -14558   -14559   -14557   -14555   -14554   -14555   -14555 
  -14555   -14556   -14558   -14557   -14555   -14557   -14558   -14557 
  -14556   -14556   -14553   -14553   -14558   -14558   -14555   -14557 
  -14555   -14554   -14556   -14556   -14555   -14555   -14557   -14557 
  -14554   -14554   -14558   -14558   -14555   -14556   -14557   -14557 
  -14556   -14554   -14555   -14557   -14557   -14554   -14551   -14554 
  -14558   -14557   -14555   -14554   -14556   -14557   -14557   -14556 
  -14555   -14555   -14559   -14559   -14554   -14553   -14556   -14560 
  -14559   -14555   -14554   -14556   -14557   -14556   -14556   -14557 
  -14555   -14556   -14558   -14556   -14558   -14556   -14553   -14555 
  -14558   -14559   -14559   -14555   -14555   -14556   -14558   -14557 
  -14555   -14557   -14557   -14555   -14557   -14558   -14555   -14555 
  -14555   -14556   -14558   -14558   -14559   -14558   -14554   -14551 
  -14555   -14563   -14561   -14553   -14552   -14556   -14558   -14557 
  -14555   -14554   -14555   -14554   -14556   -14558   -14557   -14556 
  -14556   -14556   -14556   -14556   -14557   -14556   -14556   -14557 
  -14556   -14555   -14555   -14555   -14558   -14559   -14554   -14551 
  -14556   -14557   -14555   -14556   -14557   -14555   -14555   -14557 
  -14558   -14557   -14554   -14552   -14555   -14557   -14556   -14554 
  -14554   -14557   -14560   -14555   -14554   -14558   -14559   -14557 
  -14552   -14554   -14561   -14557   -14554   -14557   -14553   -14555 
  -14560   -14554   -14552   -14558   -14555   -14552   -14558   -14559 
  -14553   -14552   -14556   -14556   -14555   -14559   -14557   -14553 
  -14554   -14558   -14558   -14555   -14555   -14557   -14556   -14556 
  -14556   -14555   -14558   -14559   -14555   -14554   -14556   -14557 
  -14558   -14556   -14554   -14553   -14555   -14559   -14559   -14556 
  -14554   -14552   -14552   -14553   -14555   -14559   -14559   -14554 
  -14552   -14556   -14561   -14558   -14552   -14554   -14557   -14557 
  -14556   -14556   -14556   -14555   -14555   -14557   -14557   -14556 
  -14556   -14553   -14553   -14557   -14556   -14556   -14559   -14556 
  -14555   -14557   -14552   -14550   -14557   -14559   -14557   -14556 
  -14555   -14555   -14558   -14558   -14556   -14557   -14560   -14559 
  -14555   -14554   -14557   -14557   -14556   -14555   -14556   -14557 
  -14558   -14558   -14555   -14552   -14555   -14560   -14560   -14557 
  -14554   -14553   -14554   -14557   -14558   -14557   -14556   -14555 
  -14556   -14556   -14555   -14557   -14557   -14555   -14556   -14557 
  -14556   -14557   -14559   -14556   -14553   -14554   -14558   -14560 
  -14559   -14555   -14554   -14554   -14555   -14559   -14558   -14554 
  -14549   -14549   -14559   -14564   -14557   -14554   -14556   -14554 
  -14553   -14552   -14554   -14558   -14559   -14559   -14558   -14557 
  -14557   -14556   -14556   -14555   -14553   -14558   -14562   -14559 
  -14556   -14555   -14554   -14556   -14557   -14556   -14552   -14552 
  -14560   -14562   -14557   -14556   -14555   -14555   -14553   -14552 
  -14555   -14558   -14561   -14559   -14553   -14555   -14559   -14555 
  -14553   -14554   -14557   -14563   -14559   -14553   -14555   -14556 
  -14555   -14555   -14555   -14557   -14557   -14555   -14555   -14555 
  -14556   -14560   -14558   -14553   -14554   -14557   -14554   -14554 
  -14558   -14557   -14557   -14558   -14556   -14557   -14561   -14560 
  -14555   -14552   -14555   -14556   -14558   -14563   -14559   -14552 
  -14553   -14554   -14554   -14556   -14559   -14560   -14557   -14553 
  -14553   -14555   -14556   -14559   -14557   -14554   -14559   -14563 
  -14554   -14548   -14555   -14559   -14559   -14563   -14554   -14548 
  -14559   -14561   -14554   -14555   -14557   -14558   -14558   -14553 
  -14554   -14557   -14561   -14559   -14550   -14548   -14559   -14564 
  -14555   -14549   -14555   -14565   -14564   -14555   -14545   -14548 
  -14562   -14563   -14554   -14553   -14554   -14558   -14562   -14556 
  -14551   -14556   -14558   -14557   -14558   -14558   -14558   -14559 
  -14553   -14552   -14558   -14558   -14555   -14555   -14557   -14560 
  -14559   -14554   -14555   -14558   -14559   -14556   -14553   -14554 
  -14556   -14556   -14558   -14559   -14557   -14555   -14555   -14555 
  -14558   -14558   -14556   -14554   -14553   -14557   -14556   -14550 
  -14557   -14565   -14560   -14550   -14547   -14553   -14564   -14565 
  -14557   -14551   -14553   -14558   -14559   -14556   -14554   -14555 
  -14555   -14557   -14561   -14564   -14567   -14576   -14602   -14647 
  -14694   -14728   -14746   -14740   -14723   -14716   -14692   -14600 
  -14444   -14330   -14347   -14423   -14456   -14506   -14641   -14761 
  -14787   -14812   -14860   -14773   -14538   -14474   -14804   -15214 
  -15231   -14974   -15001   -15252   -14902   -13905   -13562   -14377 
  -15037   -14698   -14388   -15098   -16013   -15780   -14679   -14032 
  -14089   -14191   -14289   -14770   -15567   -16227   -16027   -14467 
  -12582   -12130   -13053   -13930   -14161   -14047   -14210   -15050 
  -15971   -16094   -15501   -14887   -14049   -12385   -11453   -12926 
  -14901   -15197   -14464   -13888   -13993   -14636   -15150   -15316 
  -15026   -14198   -13675   -14245   -15160   -15166   -14224   -13164 
  -12911   -14166   -15834   -16075   -15560   -15191   -14247   -13091 
  -12484   -12753   -14311   -15804   -15537   -14457   -14427   -15007 
  -14410   -13252   -13271   -13895   -13976   -13765   -14242   -15551 
  -15732   -13873   -12667   -14060   -16089   -16472   -15985   -15725 
  -14757   -13292   -12977   -13802   -14570   -14427   -13987   -14709 
  -15996   -16332   -15629   -14431   -13679   -13695   -13460   -13210 
  -14512   -16643   -17192   -16411   -16271   -16365   -15204   -13212 
  -12053   -12458   -13256   -13397   -13521   -14096   -15067   -16524 
  -17155   -15901   -14533   -14189   -13589   -12778   -13300   -15013 
  -16240   -16144   -15513   -15201   -14902   -14287   -13819   -13701 
  -13749   -14451   -15758   -16024   -14879   -14189   -14633   -14848 
  -14183   -13720   -14125   -14556   -14599   -15037   -16136   -16871 
  -15998   -13934   -12784   -13537   -14637   -14083   -12626   -12817 
  -14328   -15064   -15337   -16099   -16772   -16364   -14650   -12665 
  -11605   -11993   -13692   -15296   -15443   -14569   -13780   -13652 
  -14287   -14957   -14645   -13915   -14143   -14955   -15114   -14870 
  -15066   -15220   -14716   -14148   -13815   -13524   -13574   -14046 
  -14668   -15158   -15214   -14861   -14255   -13534   -13208   -13770 
  -14560   -14577   -14369   -14858   -15673   -16058   -15748   -14997 
  -14421   -14385   -14551   -14439   -14293   -14386   -14474   -14833 
  -15431   -15101   -14002   -13779   -14625   -15437   -15705   -15613 
  -15466   -15283   -14811   -14188   -14160   -14696   -14681   -14132 
  -14099   -14645   -15126   -14932   -14121   -13936   -14735   -15093 
  -14531   -14216   -14741   -15362   -15187   -14419   -13996   -14008 
  -13839   -13631   -13995   -14782   -15044   -14328   -13783   -14333 
  -14911   -14782   -14711   -14891   -14893   -14829   -14758   -14412 
  -14009   -13759   -13276   -12878   -13287   -13929   -14218   -14624 
  -15328   -15860   -15556   -14470   -13847   -14269   -14870   -14949 
  -14555   -14211   -14553   -15334   -15645   -15254   -14846   -14886 
  -14946   -14766   -14769   -15113   -15160   -14436   -13926   -14428 
  -14815   -14369   -13915   -14002   -14555   -15113   -14887   -14064 
  -13768   -14211   -14619   -14460   -13945   -13710   -14002   -14552 
  -15075   -15286   -14937   -14396   -14343   -14709   -15049   -15193 
  -14979   -14628   -14601   -14647   -14357   -14193   -14630   -15153 
  -15213   -14994   -14880   -14996   -15040   -14759   -14424   -14308 
  -14383   -14524   -14637   -14714   -14701   -14432   -13863   -13230 
  -13080   -13822   -14937   -15368   -14927   -14424   -14402   -14591 
  -14684   -14701   -14547   -14062   -13591   -13837   -14709   -15128 
  -14641   -13958   -13790   -14261   -15067   -15741   -15976   -15686 
  -15064   -14598   -14486   -14331   -13994   -13898   -14154   -14477 
  -14692   -14624   -14373   -14481   -14930   -15083   -14897   -14729 
  -14611   -14495   -14402   -14290   -14025   -13649   -13497   -13643 
  -13914   -14281   -14565   -14586   -14657   -14916   -14938   -14682 
  -14523   -14428   -14307   -14356   -14501   -14501   -14418   -14406 
  -14519   -14770   -15055   -15155   -14946   -14599   -14464   -14610 
  -14623   -14227   -13816   -13729   -13748   -13876   -14345   -14802 
  -14823   -14657   -14733   -15112   -15440   -15369   -15049   -14693 
  -14340   -14296   -14640   -14889   -14938   -15069   -15096   -14915 
  -15003   -15337   -15351   -15091   -14897   -14807   -14866   -14936 
  -14765   -14657   -14916   -15183   -15236   -15268   -15261   -15020 
  -14565   -14330   -14548   -14645   -14266   -13817   -13592   -13664 
  -13886   -13800   -13584   -13783   -14051   -13894   -13644   -13681 
  -13908   -14217   -14513   -14547   -14460   -14603   -14767   -14694 
  -14518   -14331   -14239   -14279   -14228   -14151   -14302   -14445 
  -14371   -14270   -14195   -14185   -14306   -14406   -14662   -15191 
  -15305   -14949   -14939   -15010   -14621   -14392   -14697   -15073 
  -15082   -14743   -14655   -14949   -14920   -14570   -14517   -14654 
  -14690   -14709   -14552   -14209   -14123   -14234   -14104   -13900 
  -14086   -14657   -15138   -15227   -15124   -15074   -15064   -15069 
  -15156   -15155   -14799   -14398   -14249   -14134   -14053   -14104 
  -14294   -14696   -15001   -14996   -15039   -15154   -14957   -14533 
  -14286   -14244   -14221   -14212   -14233   -14320   -14538   -14691 
  -14652   -14623   -14608   -14551   -14568   -14570   -14479   -14406 
  -14329   -14314   -14552   -14885   -14917   -14603   -14323   -14235 
  -14065   -13793   -13772   -14129   -14593   -14822   -14825   -14827 
  -14790   -14466   -14000   -13998   -14400   -14415   -14037   -13993 
  -14409   -14677   -14443   -14147   -14305   -14807   -15173   -15056 
  -14543   -14095   -14041   -14268   -14595   -14964   -15168   -15069 
  -14887   -14819   -14811   -14764   -14734   -14968   -15375   -15477 
  -15276   -15150   -15117   -15042   -14991   -14965   -14852   -14757 
  -14791   -14726   -14522   -14525   -14702   -14791   -14865   -14845 
  -14517   -14042   -13826   -14125   -14676   -14980   -14980   -14928 
  -14910   -14853   -14724   -14539   -14304   -14070   -13893   -13901 
  -14251   -14667   -14643   -14216   -13856   -13890   -14315   -14758 
  -14838   -14739   -14797   -14854   -14730   -14640   -14586   -14319 
  -13962   -13803   -13948   -14402   -14852   -14883   -14535   -14099 
  -13878   -14120   -14580   -14792   -14832   -14997   -15226   -15290 
  -15002   -14371   -13831   -13844   -14260   -14665   -14989   -15173 
