Origin Time       2025/06/03 22:18:00
Lat.              41.7
Long.             143.6
Depth. (km)       30
Mag.              5.2
Station Code      HKD110
Station Lat.      42.1310
Station Long.     142.9354
Station Height(m) 4
Record Time       2025/06/03 22:18:50
Sampling Freq(Hz) 100Hz
Duration Time(s)  73
Dir.              E-W
Scale Factor      7845(gal)/8223790
Max. Acc. (gal)   8.404
Last Correction   2025/06/03 22:18:51
Memo.             
[...]
   -2690    -2693    -2693    -2691    -2691    -2690    -2693    -2693 
   -2690    -2691    -2694    -2691    -2687    -2689    -2690    -2693 
   -2691    -2689    -2690    -2691    -2690    -2691    -2691    -2690 
   -2690    -2690    -2690    -2691    -2691    -2691    -2691    -2690 
   -2689    -2691    -2694    -2693    -2691    -2693    -2694    -2691 
   -2691    -2690    -2690    -2691    -2691    -2689    -2691    -2694 
   -2690    -2689    -2691    -2690    -2690    -2691    -2693    -2691 
   -2690    -2691    -2691    -2690    -2691    -2694    -2693    -2690 
   -2691    -2691    -2693    -2694    -2691    -2690    -2691    -2690 
   -2690    -2691    -2694    -2691    -2689    -2690    -2693    -2691 
   -2689    -2691    -2693    -2691    -2689    -2689    -2690    -2690 
   -2690    -2690    -2689    -2690    -2694    -2693    -2691    -2693 
   -2691    -2690    -2693    -2693    -2691    -2693    -2691    -2689 
   -2690    -2690    -2689    -2689    -2690    -2690    -2691    -2690 
   -2690    -2690    -2689    -2689    -2690    -2691    -2689    -2689 
   -2691    -2690    -2689    -2691    -2693    -2693    -2695    -2693 
   -2690    -2691    -2694    -2691    -2689    -2690    -2691    -2691 
   -2694    -2694    -2690    -2691    -2694    -2691    -2687    -2689 
   -2693    -2693    -2691    -2690    -2689    -2691    -2694    -2693 
   -2689    -2690    -2691    -2689    -2689    -2690    -2687    -2687 
   -2691    -2691    -2689    -2687    -2690    -2690    -2690    -2690 
   -2689    -2687    -2685    -2686    -2687    -2687    -2686    -2686 
   -2685    -2685    -2683    -2683    -2683    -2682    -2682    -2681 
   -2677    -2677    -2681    -2678    -2673    -2671    -2670    -2670 
   -2670    -2663    -2662    -2666    -2666    -2664    -2666    -2663 
   -2662    -2664    -2664    -2663    -2660    -2656    -2658    -2666 
   -2670    -2671    -2674    -2677    -2681    -2683    -2685    -2686 
   -2690    -2697    -2701    -2698    -2700    -2706    -2712    -2717 
   -2724    -2728    -2729    -2727    -2714    -2704    -2702    -2704 
   -2701    -2701    -2709    -2714    -2705    -2686    -2677    -2683 
   -2697    -2706    -2702    -2690    -2683    -2683    -2691    -2708 
   -2710    -2689    -2671    -2682    -2701    -2702    -2687    -2675 
   -2679    -2687    -2690    -2687    -2683    -2675    -2660    -2644 
   -2651    -2681    -2694    -2662    -2625    -2635    -2677    -2704 
   -2686    -2639    -2594    -2582    -2614    -2670    -2717    -2733 
   -2706    -2644    -2590    -2589    -2663    -2781    -2868    -2866 
   -2774    -2678    -2666    -2744    -2851    -2917    -2917    -2870 
   -2786    -2701    -2685    -2751    -2818    -2814    -2764    -2733 
   -2721    -2674    -2579    -2496    -2485    -2531    -2571    -2571 
   -2535    -2479    -2459    -2509    -2579    -2598    -2552    -2486 
   -2446    -2466    -2562    -2673    -2712    -2683    -2650    -2640 
   -2666    -2732    -2820    -2893    -2917    -2917    -2917    -2893 
   -2857    -2882    -2975    -3046    -3010    -2887    -2774    -2718 
   -2708    -2714    -2681    -2577    -2457    -2401    -2438    -2519 
   -2550    -2475    -2319    -2182    -2182    -2336    -2546    -2679 
   -2687    -2628    -2563    -2519    -2543    -2648    -2776    -2857 
   -2898    -2948    -3011    -3096    -3207    -3277    -3219    -3092 
   -3088    -3283    -3493    -3518    -3412    -3319    -3200    -2970 
   -2713    -2597    -2664    -2803    -2853    -2741    -2532    -2362 
   -2296    -2288    -2276    -2257    -2234    -2200    -2182    -2246 
   -2419    -2585    -2600    -2521    -2512    -2579    -2614    -2620 
   -2706    -2879    -2984    -2926    -2809    -2760    -2795    -2882 
   -2992    -3068    -3046    -2948    -2830    -2709    -2596    -2550 
   -2597    -2666    -2659    -2582    -2512    -2448    -2336    -2226 
   -2215    -2259    -2235    -2138    -2053    -2029    -2073    -2168 
   -2286    -2407    -2478    -2455    -2392    -2413    -2586    -2856 
   -3086    -3103    -2884    -2629    -2525    -2597    -2806    -3098 
   -3325    -3310    -3064    -2813    -2767    -2938    -3167    -3268 
   -3186    -3014    -2905    -2957    -3114    -3210    -3194    -3144 
   -3096    -3021    -2882    -2709    -2620    -2682    -2778    -2731 
   -2544    -2394    -2409    -2551    -2689    -2732    -2679    -2583 
   -2516    -2543    -2658    -2758    -2758    -2683    -2635    -2670 
   -2717    -2651    -2474    -2336    -2361    -2512    -2671    -2764 
   -2778    -2741    -2679    -2609    -2559    -2571    -2660    -2810 
   -2988    -3122    -3115    -2941    -2690    -2494    -2423    -2457 
   -2528    -2575    -2585    -2575    -2565    -2544    -2494    -2397 
   -2290    -2268    -2351    -2431    -2400    -2299    -2245    -2277 
   -2313    -2262    -2149    -2110    -2211    -2344    -2385    -2344 
   -2328    -2412    -2571    -2717    -2799    -2843    -2864    -2849 
   -2821    -2864    -3018    -3203    -3295    -3246    -3129    -3073 
   -3134    -3230    -3257    -3196    -3103    -3021    -2968    -2949 
   -2945    -2930    -2898    -2857    -2830    -2814    -2770    -2693 
   -2627    -2605    -2623    -2678    -2733    -2694    -2543    -2390 
   -2340    -2382    -2458    -2509    -2497    -2424    -2365    -2388 
   -2488    -2602    -2687    -2766    -2851    -2903    -2905    -2901 
   -2941    -3009    -3049    -3044    -3030    -3052    -3107    -3142 
   -3092    -2957    -2817    -2754    -2801    -2910    -2970    -2897 
   -2716    -2542    -2477    -2502    -2533    -2524    -2479    -2411 
   -2311    -2193    -2114    -2115    -2195    -2309    -2413    -2496 
   -2571    -2650    -2705    -2706    -2663    -2633    -2674    -2794 
   -2924    -2982    -2945    -2847    -2762    -2763    -2849    -2937 
   -2947    -2872    -2766    -2671    -2623    -2631    -2670    -2701 
   -2704    -2678    -2664    -2694    -2732    -2728    -2693    -2670 
   -2662    -2633    -2589    -2562    -2546    -2531    -2515    -2508 
   -2529    -2597    -2685    -2724    -2677    -2609    -2624    -2731 
   -2843    -2901    -2911    -2909    -2902    -2878    -2824    -2747 
   -2664    -2592    -2547    -2551    -2590    -2621    -2617    -2574 
   -2516    -2482    -2500    -2552    -2592    -2589    -2562    -2544 
   -2546    -2566    -2616    -2673    -2667    -2581    -2477    -2439 
   -2490    -2592    -2695    -2766    -2785    -2759    -2716    -2683 
   -2675    -2693    -2712    -2704    -2687    -2705    -2762    -2822 
   -2868    -2907    -2948    -2965    -2932    -2864    -2813    -2797 
   -2786    -2745    -2668    -2583    -2539    -2543    -2586    -2667 
   -2778    -2884    -2932    -2899    -2820    -2762    -2763    -2801 
   -2826    -2799    -2706    -2575    -2446    -2350    -2297    -2272 
   -2246    -2226    -2231    -2272    -2342    -2417    -2466    -2482 
   -2500    -2547    -2610    -2667    -2713    -2736    -2751    -2805 
   -2913    -3034    -3127    -3191    -3245    -3294    -3318    -3303 
   -3265    -3244    -3264    -3296    -3281    -3199    -3071    -2936 
   -2824    -2736    -2652    -2583    -2533    -2496    -2469    -2443 
   -2392    -2293    -2155    -2033    -1985    -2010    -2064    -2134 
   -2230    -2338    -2432    -2516    -2600    -2683    -2758    -2799 
   -2803    -2805    -2847    -2922    -2991    -3021    -2998    -2936 
   -2890    -2903    -2961    -3019    -3044    -3019    -2938    -2808 
   -2663    -2555    -2517    -2535    -2573    -2637    -2740    -2853 
   -2941    -2983    -2965    -2898    -2822    -2758    -2694    -2643 
   -2627    -2658    -2710    -2745    -2756    -2760    -2752    -2705 
   -2613    -2496    -2361    -2238    -2153    -2099    -2064    -2043 
   -2042    -2077    -2161    -2270    -2382    -2485    -2559    -2601 
   -2614    -2604    -2585    -2586    -2621    -2686    -2778    -2890 
   -2998    -3072    -3098    -3084    -3049    -3021    -3018    -3034 
   -3049    -3045    -3019    -2980    -2948    -2947    -2988    -3056 
   -3110    -3121    -3084    -3010    -2899    -2776    -2670    -2586 
   -2529    -2496    -2454    -2397    -2357    -2339    -2330    -2319 
   -2281    -2189    -2062    -1938    -1844    -1791    -1787    -1830 
   -1906    -2027    -2224    -2485    -2749    -2945    -3032    -3045 
   -3048    -3068    -3096    -3117    -3098    -3019    -2899    -2764 
   -2648    -2600    -2639    -2728    -2799    -2812    -2778    -2735 
   -2721    -2760    -2825    -2844    -2782    -2668    -2554    -2458 
   -2388    -2353    -2334    -2308    -2295    -2350    -2504    -2732 
   -2995    -3241    -3410    -3478    -3497    -3538    -3609    -3674 
   -3701    -3680    -3608    -3510    -3414    -3315    -3206    -3091 
   -2974    -2851    -2708    -2540    -2380    -2270    -2219    -2199 
   -2195    -2197    -2211    -2234    -2249    -2219    -2142    -2077 
   -2072    -2116    -2178    -2249    -2342    -2447    -2551    -2651 
   -2754    -2859    -2955    -3011    -3021    -2998    -2980    -2995 
   -3040    -3099    -3164    -3235    -3316    -3397    -3438    -3407 
   -3315    -3225    -3168    -3109    -2995    -2813    -2590    -2377 
   -2195    -2047    -1944    -1865    -1804    -1767    -1740    -1726 
   -1749    -1804    -1865    -1914    -1954    -2006    -2070    -2139 
   -2216    -2307    -2404    -2506    -2631    -2768    -2899    -3019 
   -3126    -3217    -3298    -3368    -3404    -3393    -3338    -3271 
   -3219    -3183    -3140    -3075    -3001    -2916    -2802    -2678 
   -2592    -2566    -2570    -2560    -2536    -2516    -2515    -2536 
   -2575    -2620    -2667    -2717    -2739    -2714    -2674    -2647 
   -2629    -2602    -2571    -2567    -2609    -2670    -2706    -2720 
   -2747    -2803    -2879    -2961    -3030    -3075    -3083    -3057 
   -3014    -2960    -2897    -2829    -2763    -2710    -2675    -2667 
   -2697    -2747    -2767    -2745    -2722    -2744    -2812    -2894 
   -2960    -2994    -3001    -2983    -2943    -2899    -2871    -2843 
   -2799    -2743    -2682    -2640    -2629    -2646    -2663    -2644 
   -2575    -2475    -2355    -2234    -2127    -2042    -1977    -1941 
   -1939    -1998    -2122    -2273    -2398    -2475    -2520    -2563 
   -2632    -2728    -2833    -2945    -3067    -3179    -3258    -3325 
   -3404    -3481    -3518    -3500    -3422    -3304    -3200    -3142 
   -3103    -3042    -2953    -2863    -2781    -2689    -2565    -2416 
   -2272    -2149    -2047    -1965    -1910    -1891    -1894    -1902 
   -1914    -1946    -2020    -2154    -2332    -2517    -2686    -2812 
   -2875    -2876    -2833    -2772    -2718    -2682    -2660    -2648 
   -2629    -2585    -2524    -2481    -2486    -2539    -2592    -2598 
   -2544    -2452    -2369    -2336    -2357    -2415    -2488    -2556 
   -2612    -2654    -2700    -2758    -2829    -2909    -2982    -3033 
   -3073    -3126    -3199    -3272    -3310    -3296    -3235    -3142 
   -3037    -2951    -2903    -2870    -2817    -2751    -2708    -2720 
   -2787    -2867    -2911    -2924    -2930    -2933    -2917    -2889 
   -2864    -2843    -2824    -2820    -2853    -2926    -3011    -3064 
   -3061    -2997    -2876    -2744    -2655    -2616    -2589    -2555 
   -2521    -2500    -2493    -2502    -2527    -2550    -2546    -2502 
   -2446    -2398    -2369    -2340    -2305    -2274    -2258    -2255 
   -2263    -2276    -2282    -2293    -2317    -2358    -2416    -2508 
   -2633    -2748    -2821    -2884    -2984    -3127    -3288    -3418 
   -3483    -3473    -3399    -3299    -3223    -3198    -3206    -3217 
   -3204    -3150    -3055    -2945    -2847    -2772    -2743    -2752 
   -2760    -2725    -2639    -2532    -2436    -2344    -2242    -2111 
   -1958    -1811    -1705    -1644    -1618    -1617    -1659    -1761 
   -1927    -2134    -2336    -2504    -2637    -2755    -2867    -2980 
   -3084    -3168    -3233    -3289    -3342    -3387    -3408    -3406 
   -3395    -3391    -3392    -3381    -3345    -3292    -3245    -3215 
   -3188    -3164    -3144    -3127    -3102    -3046    -2947    -2801 
   -2614    -2412    -2224    -2068    -1937    -1836    -1783    -1804 
   -1900    -2064    -2280    -2515    -2755    -2994    -3207    -3362 
   -3430    -3399    -3283    -3141    -3038    -3002    -3009    -3024 
   -3024    -3019    -3044    -3105    -3173    -3233    -3272    -3261 
   -3173    -3003    -2762    -2478    -2188    -1907    -1632    -1360 
   -1089     -834     -619     -460     -360     -302     -265     -234 
    -216     -214     -217     -206     -187     -182     -213     -294 
    -433     -645     -934    -1302    -1760    -2317    -2974    -3680 
   -4356    -4941    -5401    -5734    -5958    -6091    -6124    -6076 
   -5973    -5834    -5688    -5572    -5486    -5429    -5395    -5317 
   -5120    -4779    -4288    -3643    -2866    -2029    -1202     -450 
     186      695     1081     1359     1551     1671     1722     1710 
    1628     1447     1178      876      569      225     -228     -831 
   -1578    -2438    -3368    -4317    -5242    -6115    -6920    -7647 
   -8289    -8846    -9331    -9756   -10120   -10399   -10551   -10542 
  -10303    -9780    -9018    -8059    -6914    -5634    -4232    -2722 
   -1190      303     1659     2762     3611     4261     4779     5231 
    5626     5934     6108     6119     5940     5563     5016     4301 
    3429     2448     1370      199    -1039    -2335    -3655    -4954 
   -6181    -7290    -8272    -9146    -9915   -10557   -11045   -11361 
  -11483   -11411   -11182   -10790   -10233    -9556    -8745    -7774 
   -6693    -5540    -4365    -3242    -2180    -1170     -206      774 
    1813     2844     3751     4436     4831     4941     4789     4417 
    3888     3272     2616     1944     1274      615      -41     -708 
   -1379    -2045    -2717    -3407    -4094    -4749    -5354    -5899 
   -6389    -6841    -7230    -7524    -7739    -7894    -7989    -8017 
   -7946    -7719    -7329    -6804    -6177    -5487    -4770    -4060 
   -3375    -2721    -2114    -1563    -1061     -594     -180      156 
     406      584      708      787      834      869      911      957 
     961      870      675      384       10     -417     -849    -1267 
   -1672    -2053    -2404    -2743    -3090    -3443    -3778    -4052 
   -4251    -4413    -4564    -4702    -4831    -4976    -5139    -5308 
   -5440    -5483    -5425    -5294    -5113    -4881    -4587    -4237 
   -3878    -3543    -3215    -2878    -2536    -2195    -1873    -1586 
   -1323    -1097     -930     -777     -608     -427     -249      -98 
      60      241      369      392      286       55     -276     -699 
   -1182    -1711    -2284    -2853    -3369    -3815    -4197    -4522 
   -4815    -5113    -5417    -5706    -5971    -6183    -6324    -6399 
   -6404    -6332    -6166    -5894    -5512    -5039    -4521    -4010 
   -3559    -3218    -3019    -2911    -2805    -2647    -2385    -1991 
   -1493     -926     -355      143      486      621      579      429 
     230       29     -163     -367     -607     -922    -1312    -1730 
   -2155    -2585    -3006    -3443    -3912    -4399    -4884    -5317 
   -5629    -5799    -5853    -5814    -5713    -5566    -5364    -5111 
   -4804    -4453    -4075    -3701    -3349    -3003    -2652    -2296 
   -1930    -1572    -1240     -930     -627     -319       -9      286 
     530      697      789      797      700      484      162     -221 
    -616    -1008    -1394    -1788    -2211    -2673    -3159    -3638 
   -4078    -4456    -4761    -4993    -5139    -5189    -5165    -5097 
   -5007    -4892    -4749    -4568    -4334    -4060    -3763    -3454 
   -3140    -2826    -2544    -2317    -2157    -2061    -2018    -2022 
   -2076    -2178    -2305    -2427    -2523    -2590    -2637    -2682 
   -2727    -2767    -2802    -2836    -2882    -2941    -2992    -2999 
   -2934    -2801    -2613    -2408    -2218    -2047    -1912    -1833 
   -1803    -1791    -1763    -1683    -1539    -1348    -1138     -940 
    -787     -700     -692     -756     -881    -1070    -1310    -1575 
   -1831    -2068    -2286    -2498    -2704    -2902    -3091    -3276 
   -3446    -3585    -3713    -3862    -4024    -4193    -4344    -4432 
   -4423    -4303    -4079    -3785    -3451    -3115    -2821    -2589 
   -2421    -2324    -2293    -2313    -2358    -2413    -2473    -2515 
   -2521    -2501    -2463    -2415    -2359    -2292    -2215    -2153 
   -2128    -2141    -2174    -2208    -2235    -2257    -2277    -2335 
   -2469    -2681    -2957    -3268    -3559    -3785    -3929    -4010 
   -4055    -4070    -4051    -3979    -3838    -3624    -3365    -3102 
   -2870    -2681    -2532    -2413    -2308    -2195    -2061    -1907 
   -1738    -1566    -1406    -1260    -1138    -1071    -1086    -1188 
   -1355    -1566    -1802    -2052    -2303    -2542    -2758    -2956 
   -3149    -3314    -3424    -3484    -3531    -3604    -3711    -3847 
   -4025    -4226    -4403    -4550    -4648    -4672    -4633    -4523 
   -4369    -4195    -3977    -3738    -3515    -3298    -3091    -2887 
   -2683    -2504    -2343    -2184    -2019    -1830    -1605    -1359 
   -1100     -831     -595     -440     -384     -413     -496     -612 
    -773    -1000    -1267    -1553    -1837    -2095    -2327    -2544 
   -2751    -2967    -3204    -3470    -3762    -4067    -4371    -4685 
   -5008    -5274    -5444    -5540    -5544    -5458    -5302    -5039 
   -4656    -4185    -3639    -3046    -2463    -1923    -1453    -1096 
    -835     -622     -444     -299     -191     -125      -91      -87 
    -126     -214     -340     -488     -646     -797     -940    -1092 
   -1285    -1544    -1879    -2277    -2705    -3123    -3501    -3819 
   -4059    -4214    -4305    -4359    -4392    -4414    -4418    -4392 
   -4325    -4218    -4097    -3948    -3770    -3609    -3470    -3346 
   -3256    -3191    -3144    -3118    -3118    -3127    -3106    -3063 
   -3010    -2937    -2864    -2785    -2671    -2547    -2421    -2301 
   -2224    -2224    -2295    -2403    -2515    -2602    -2654    -2654 
   -2597    -2505    -2405    -2316    -2254    -2245    -2281    -2342 
   -2420    -2508    -2575    -2610    -2609    -2582    -2535    -2477 
   -2417    -2370    -2347    -2370    -2450    -2581    -2736    -2887 
   -3021    -3130    -3211    -3260    -3275    -3262    -3242    -3226 
   -3223    -3257    -3331    -3434    -3566    -3711    -3850    -3969 
   -4051    -4087    -4082    -4033    -3939    -3798    -3616    -3403 
   -3177    -2951    -2733    -2544    -2398    -2285    -2201    -2145 
   -2091    -2025    -1958    -1892    -1826    -1765    -1703    -1640 
   -1583    -1532    -1475    -1399    -1298    -1161     -999     -843 
    -727     -685     -724     -832    -1001    -1235    -1520    -1836 
   -2153    -2452    -2736    -2995    -3213    -3385    -3527    -3646 
   -3771    -3929    -4116    -4313    -4495    -4634    -4727    -4774 
   -4776    -4752    -4707    -4644    -4588    -4519    -4409    -4272 
   -4089    -3838    -3542    -3198    -2833    -2504    -2219    -1964 
