Origin Time       2025/06/03 22:18:00
Lat.              41.7
Long.             143.6
Depth. (km)       30
Mag.              5.2
Station Code      HKD112
Station Lat.      41.9370
Station Long.     143.2403
Station Height(m) 15
Record Time       2025/06/03 22:18:36
Sampling Freq(Hz) 100Hz
Duration Time(s)  63
Dir.              N-S
Scale Factor      7845(gal)/8223790
Max. Acc. (gal)   6.636
Last Correction   2025/06/03 22:18:36
Memo.             
[...]
    1401     1390     1368     1363     1372     1381     1379     1377 
    1385     1385     1377     1377     1375     1371     1368     1370 
    1375     1381     1383     1382     1385     1391     1382     1362 
    1363     1381     1386     1377     1368     1372     1383     1381 
    1377     1390     1394     1375     1364     1366     1360     1364 
    1386     1397     1391     1385     1382     1378     1372     1367 
    1364     1372     1378     1386     1394     1390     1386     1379 
    1362     1370     1397     1391     1368     1362     1364     1374 
    1383     1387     1390     1378     1360     1364     1383     1393 
    1383     1375     1379     1375     1370     1378     1389     1385 
    1375     1375     1374     1363     1363     1379     1393     1397 
    1398     1393     1381     1375     1371     1368     1367     1360 
    1359     1366     1389     1404     1397     1397     1386     1362 
    1367     1383     1377     1374     1374     1368     1375     1381 
    1378     1378     1378     1372     1379     1394     1394     1385 
    1372     1359     1364     1386     1394     1393     1386     1370 
    1359     1362     1378     1402     1405     1386     1371     1368 
    1370     1364     1367     1381     1393     1391     1385     1378 
    1363     1378     1399     1379     1358     1358     1370     1393 
    1402     1394     1385     1370     1359     1372     1398     1402 
    1379     1355     1354     1366     1383     1395     1394     1394 
    1389     1377     1368     1362     1371     1379     1382     1394 
    1386     1374     1382     1378     1377     1381     1364     1359 
    1372     1377     1375     1390     1406     1394     1387     1387 
    1362     1352     1367     1368     1379     1389     1378     1398 
    1413     1386     1367     1359     1352     1372     1382     1371 
    1378     1379     1386     1398     1389     1381     1374     1371 
    1387     1381     1362     1368     1368     1377     1393     1379 
    1370     1377     1375     1381     1383     1381     1383     1382 
    1377     1378     1375     1375     1374     1374     1378     1372 
    1382     1390     1375     1368     1372     1378     1389     1387 
    1381     1378     1372     1381     1390     1381     1372     1372 
    1367     1379     1395     1385     1371     1370     1370     1381 
    1391     1391     1383     1374     1368     1375     1385     1381 
    1374     1381     1381     1377     1387     1386     1372     1372 
    1378     1385     1389     1378     1372     1374     1366     1370 
    1390     1394     1386     1379     1368     1367     1372     1385 
    1401     1390     1368     1368     1374     1381     1391     1389 
    1378     1368     1359     1358     1375     1391     1394     1395 
    1393     1383     1375     1370     1362     1359     1370     1378 
    1387     1389     1383     1389     1391     1382     1372     1366 
    1364     1366     1363     1364     1381     1398     1398     1386 
    1379     1381     1385     1386     1377     1360     1356     1363 
    1377     1387     1393     1398     1391     1375     1368     1366 
    1370     1383     1389     1381     1370     1370     1378     1389 
    1394     1389     1371     1354     1362     1381     1387     1387 
    1385     1385     1391     1382     1372     1372     1359     1358 
    1383     1389     1382     1378     1374     1379     1387     1391 
    1391     1377     1360     1354     1362     1383     1395     1393 
    1378     1360     1366     1385     1391     1390     1382     1375 
    1371     1368     1374     1381     1387     1391     1391     1387 
    1374     1364     1368     1372     1368     1371     1379     1385 
    1387     1385     1381     1381     1378     1378     1378     1367 
    1363     1372     1377     1386     1387     1374     1382     1390 
    1379     1382     1381     1370     1364     1362     1362     1371 
    1383     1395     1399     1391     1377     1364     1362     1367 
    1381     1391     1391     1385     1368     1360     1367     1371 
    1372     1381     1379     1370     1377     1383     1385     1399 
    1398     1374     1364     1363     1358     1374     1389     1379 
    1375     1383     1390     1390     1379     1375     1382     1381 
    1378     1372     1359     1356     1372     1391     1405     1406 
    1387     1362     1356     1370     1378     1381     1379     1372 
    1377     1389     1385     1382     1386     1383     1379     1374 
    1363     1363     1377     1389     1398     1393     1372     1367 
    1378     1379     1375     1379     1379     1374     1371     1374 
    1377     1375     1386     1402     1387     1362     1363     1375 
    1379     1382     1383     1377     1372     1381     1385     1374 
    1363     1364     1385     1404     1390     1363     1360     1375 
    1390     1391     1381     1374     1364     1363     1383     1389 
    1385     1393     1391     1381     1372     1360     1360     1377 
    1382     1387     1394     1383     1371     1371     1371     1370 
    1372     1381     1389     1393     1391     1374     1364     1381 
    1389     1381     1375     1374     1364     1362     1375     1391 
    1397     1390     1377     1368     1368     1371     1381     1395 
    1393     1378     1368     1363     1372     1390     1389     1378 
    1378     1377     1375     1378     1375     1378     1387     1386 
    1387     1386     1366     1356     1377     1394     1391     1379 
    1367     1358     1370     1393     1399     1389     1372     1359 
    1366     1382     1383     1381     1387     1390     1385     1375 
    1360     1367     1387     1385     1381     1379     1372     1375 
    1382     1382     1378     1372     1375     1387     1385     1368 
    1360     1370     1389     1395     1389     1378     1366     1363 
    1371     1378     1382     1381     1385     1393     1381     1362 
    1360     1368     1366     1347     1328     1323     1313     1297 
    1291     1290     1291     1335     1422     1501     1528     1514 
    1503     1501     1479     1425     1325     1194     1094     1102 
    1244     1405     1418     1314     1267     1304     1278     1125 
     978      950      936      843      826     1108     1606     1929 
    1822     1532     1470     1648     1715     1449     1026      805 
     878      980      973     1096     1460     1737     1645     1494 
    1804     2446     2706     2160     1065      248      396     1069 
    1271      918      758     1263     2184     2767     2430     1416 
     557      330      218     -228     -171      926     1903     1873 
    1718     2470     3539     3600     2709     1993     1642     1063 
     417      325      656      778      706      958     1391     1560 
    1706     1969     1902     1534     1421     1518     1278      715 
     368      391      668     1281     2104     2617     2648     2592 
    2614     2413     1772      870      175       79      496     1008 
    1451     1869     2168     2281     2261     2058     1629     1166 
     957     1028     1140     1162     1177     1266     1401     1513 
    1605     1719     1730     1544     1463     1633     1509      792 
     257      573     1138     1239     1329     1941     2462     2081 
    1198      830      984      801      253      378     1544     2620 
    2494     1822     2029     2808     2516     1129      441     1113 
    1769     1327      464      321      818      977      463       -5 
     278     1066     1525     1543     1900     2668     2776     1783 
     742      818     1767     2334     2056     1768     2062     2447 
    2261     1466      456     -348     -776     -858     -378     1004 
    2789     3820     3720     3132     2574     1842      665     -348 
    -284      699     1518     1543     1192     1135     1379     1498 
    1390     1281     1233     1260     1602     2382     3191     3356 
    2658     1460      303     -391     -481      -67      542      951 
    1189     1806     2968     3773     3184     1568      376      253 
     515      564      718     1317     1792     1424      675      560 
     981      986      467      376     1229     2365     2905     2694 
    2122     1620     1333     1034      553      184      279      772 
    1385     1856     1883     1395      795      440      307      448 
     989     1756     2444     2880     3006     2717     1918      961 
     523      616      568      233      299     1196     2320     2691 
    2223     1788     1945     2232     1956     1202      734     1032 
    1695     1968     1795     1617     1417      938      511      777 
    1660     2299     2137     1629     1540     1818     1759     1092 
     329       98      487     1075     1391     1394     1471     1768 
    1991     2008     1952     1737     1144      402       66      198 
     421      654     1040     1548     2050     2405     2439     2196 
    1960     1830     1615     1212      858      772      861     1063 
    1467     1968     2243     2199     2114     2110     1969     1675 
    1443     1364     1413     1433     1108      398     -159      -60 
     565     1147     1197      872      828     1279     1692     1563 
    1040      653      670     1024     1593     2197     2569     2589 
    2407     2158     1831     1441     1108      963     1094     1501 
    1929     1941     1482     1089     1215     1668     1898     1686 
    1348     1162     1027      895      940     1128     1121      758 
     369      379      735     1097     1435     1996     2697     3025 
    2725     2180     1888     1877     1648      850      -20     -116 
     588     1240     1308     1177     1327     1605     1667     1563 
    1445     1183      741      411      422      685      962     1044 
     931      957     1381     1977     2389     2575     2658     2524 
    2041     1486     1227     1151      943      656      544      712 
    1101     1512     1744     1850     2050     2304     2232     1738 
    1255     1057      915      670      446      329      306      413 
     760     1381     2061     2502     2597     2477     2381     2381 
    2243     1782     1171      646      226     -122     -290      -72 
     503     1104     1594     2143     2795     3262     3199     2667 
    2042     1547     1204     1027     1031     1158     1336     1521 
    1626     1506     1129      702      500      646     1001     1269 
    1398     1566     1748     1800     1796     1941     2205     2327 
    2188     1939     1834     1845     1606     1035      515      274 
     145       18       64      413      895     1286     1571     1823 
    2022     2070     1875     1467     1121     1127     1421     1642 
    1579     1362     1210     1188     1255     1378     1460     1352 
    1066      830      841     1053     1293     1433     1408     1301 
    1305     1435     1557     1672     1900     2087     1918     1536 
    1379     1491     1509     1243      972      955      980      868 
     854     1062     1327     1487     1528     1595     1803     2092 
    2289     2205     1869     1497     1109      646      328      384 
     741     1192     1624     1993     2172     2126     2100     2226 
    2274     1923     1182      535      496      951     1258     1059 
     689      656      984     1302     1494     1788     2146     2158 
    1710     1271     1178     1194     1058      904      961     1161 
    1260     1250     1298     1402     1379     1179     1044     1163 
    1317     1212      938      819     1004     1405     1929     2486 
    2916     3026     2728     2169     1586     1102      770      641 
     758     1035     1251     1343     1543     2151     3132     4010 
    4349     4156     3636     2772     1439     -195    -1618    -2358 
   -2378    -2014    -1579    -1111     -417      588     1706     2758 
    3620     3919     3299     1988      619     -375     -951    -1093 
    -596      634     2282     3649     3981     3161     1945     1094 
     623      103     -621    -1174    -1121     -530      249     1119 
    2143     3113     3601     3397     2727     2029     1576     1447 
    1603     1877     2011     1779     1246      900     1185     1899 
    2370     2269     1969     1980     2350     2712     2691     2350 
    2123     2284     2716     3118     3195     2763     1756      307 
   -1119    -2018    -2296    -2095    -1406     -272     1058     2420 
    3762     4838     5181     4544     3187     1545     -117    -1584 
   -2585    -2960    -2782    -2205    -1229      264     2253     4365 
    5948     6497     5958     4664     3086     1591      369     -544 
   -1179    -1498    -1386     -812       49      969     1757     2257 
    2396     2281     2193     2424     3094     4002     4687     4727 
    3985     2689     1327      218     -692    -1479    -1983    -2008 
   -1526     -648      449     1436     1883     1702     1394     1598 
    2409     3287     3659     3430     2922     2575     2521     2494 
    2154     1345      233     -623     -639      260     1566     2643 
    3287     3627     3696     3406     2702     1667      614      -64 
    -291     -336     -441     -560     -469      -49      573     1209 
    1877     2789     4051     5425     6397     6473     5401     3211 
     248    -2775    -4930    -5578    -4797    -3145     -980     1594 
    4193     6134     6920     6555     5400     3778     1996      553 
    -191     -444     -731    -1198    -1545    -1593    -1513    -1497 
   -1393     -874      195     1798     3704     5329     6085     5657 
    4087     1841     -434    -2199    -3060    -2874    -1757      -24 
    1702     2698     2631     1645       33    -1911    -3789    -5070 
   -5347    -4511    -2729     -454     1730     3415     4387     4610 
    4329     3909     3528     3265     3202     3302     3551     3978 
    4391     4537     4344     3804     2902     1779      704      -52 
    -346     -168      471     1570     2893     3900     4220     3954 
    3433     2979     2776     2646     2251     1547      766      155 
    -241     -545     -761     -707     -270      418     1190     2057 
    2928     3469     3443     2857     1829      545     -795    -1908 
   -2385    -2003     -923      425     1593     2332     2641     2633 
    2363     1848     1179      533      168      283      780     1455 
    2239     3013     3595     3916     4018     3964     3740     3304 
    2701     1995     1232      437     -332     -931    -1197    -1012 
    -348      668     1830     2949     3801     4131     3763     2656 
    1057     -511    -1649    -2185    -1995    -1067      437     2257 
    4040     5437     6184     6122     5391     4313     3026     1572 
     118    -1108    -1953    -2373    -2358    -1887    -1030       -1 
    1044     2118     3076     3573     3447     2716     1406     -257 
   -1848    -2986    -3418    -3051    -1944     -313     1452     2948 
    3939     4309     4105     3524     2709     1695      619     -282 
    -938    -1343    -1316     -684      396     1526     2477     3299 
    4012     4461     4445     3947     3134     2130     1054      187 
    -174       75      830     1833     2786     3542     4062     4234 
    3919     3079     1929      811      -97     -702     -878     -631 
     -83      584     1227     1777     2114     2138     1917     1611 
    1456     1582     1809     1861     1621     1125      519      -25 
    -359     -415     -221      163      685     1356     2137     2826 
    3237     3358     3318     3221     3082     2911     2764     2629 
    2451     2246     1987     1518      778     -102     -893    -1414 
   -1599    -1397     -804        0      746     1279     1586     1680 
    1521     1148      808      695      739      781      800      905 
    1225     1767     2390     2968     3420     3666     3682     3532 
    3287     2956     2501     1919     1248      486     -319     -966 
   -1296    -1335    -1140     -822     -504     -199      109      418 
     688      805      761      758      951     1306     1753     2224 
    2619     2944     3318     3692     3859     3734     3431     3127 
    2848     2523     2165     1845     1659     1692     1912     2147 
    2178     1919     1510     1143      873      638      376      121 
      27      197      562      963     1190     1163     1050     1015 
    1050     1121     1294     1618     1971     2261     2523     2724 
    2766     2612     2276     1840     1431     1171     1158     1351 
    1552     1659     1736     1790     1711     1463     1124      769 
     480      342      450      865     1371     1603     1483     1151 
     783      533      313       -1     -205      -48      417      927 
    1263     1375     1356     1351     1447     1621     1803     1980 
    2135     2259     2417     2602     2740     2744     2508     2052 
    1528      999      495       98     -152     -267     -240      -98 
     128      410      623      679      695      747      719      577 
     456      445      534      619      614      571      572      635 
     793     1069     1439     1825     2138     2373     2574     2736 
    2829     2926     3175     3561     3878     3946     3724     3289 
    2739     2134     1583     1201      980      870      881     1032 
    1343     1648     1597     1111      477      -44     -437     -765 
    -930     -804     -407      207      967     1719     2353     2775 
    2920     2849     2648     2322     1984     1763     1663     1680 
    1769     1841     1791     1530     1104      718      560      634 
     784      920     1081     1278     1471     1597     1587     1486 
    1433     1501     1601     1598     1485     1410     1486     1622 
    1625     1420     1155      997      942      946      997     1109 
    1309     1566     1879     2268     2612     2710     2477     2027 
    1605     1325     1120      908      754      865     1366     2107 
    2810     3308     3588     3647     3420     2870     2031     1017 
      -5     -826    -1275    -1323    -1011     -481      103      680 
    1190     1609     1872     1864     1614     1289     1032      783 
     411       -4     -310     -427     -355     -114      346     1026 
    1728     2249     2551     2685     2650     2411     2019     1628 
    1394     1372     1467     1601     1829     2169     2505     2748 
    2907     3037     3106     3042     2875     2614     2218     1688 
    1038      407      -29     -279     -359     -245       54      480 
     924     1340     1692     1848     1698     1278      764      410 
     403      684     1131     1690     2170     2361     2218     1818 
    1300      749      232      -99     -114      157      591     1048 
    1368     1448     1364     1248     1165     1147     1247     1498 
    1791     1977     2057     2070     1985     1796     1560     1358 
    1258     1290     1452     1695     1904     2011     2047     2045 
    1987     1802     1435     1003      712      689      901     1181 
    1385     1483     1494     1463     1455     1470     1449     1420 
