Origin Time       2025/06/03 22:18:00
Lat.              41.7
Long.             143.6
Depth. (km)       30
Mag.              5.2
Station Code      HKD100
Station Lat.      42.2864
Station Long.     143.3120
Station Height(m) 36
Record Time       2025/06/03 22:18:48
Sampling Freq(Hz) 100Hz
Duration Time(s)  60
Dir.              N-S
Scale Factor      7845(gal)/8223790
Max. Acc. (gal)   13.190
Last Correction   2025/06/03 22:18:48
Memo.             
[...]
    -758     -757     -760     -757     -753     -754     -758     -757 
    -754     -757     -758     -756     -757     -758     -758     -760 
    -760     -756     -756     -760     -760     -757     -756     -756 
    -757     -760     -760     -757     -756     -756     -757     -761 
    -761     -757     -757     -760     -758     -757     -756     -757 
    -758     -758     -757     -757     -756     -754     -756     -760 
    -758     -757     -754     -754     -757     -757     -756     -758 
    -758     -757     -754     -756     -757     -757     -757     -758 
    -758     -756     -756     -758     -760     -758     -754     -754 
    -758     -760     -758     -758     -762     -761     -756     -756 
    -757     -756     -756     -758     -758     -757     -754     -753 
    -757     -761     -760     -757     -758     -758     -757     -757 
    -758     -760     -758     -756     -757     -756     -753     -753 
    -756     -757     -758     -758     -757     -756     -757     -757 
    -760     -760     -754     -754     -760     -758     -757     -758 
    -756     -756     -757     -756     -756     -757     -758     -757 
    -758     -758     -757     -757     -758     -758     -761     -760 
    -756     -756     -757     -760     -758     -756     -757     -758 
    -756     -757     -760     -758     -758     -758     -758     -758 
    -758     -757     -757     -756     -753     -757     -761     -760 
    -757     -754     -754     -757     -757     -757     -761     -761 
    -758     -758     -757     -756     -754     -756     -760     -762 
    -758     -751     -756     -761     -758     -758     -761     -758 
    -754     -751     -756     -758     -757     -758     -758     -757 
    -756     -753     -754     -758     -761     -758     -756     -760 
    -761     -756     -756     -757     -757     -756     -756     -757 
    -757     -756     -757     -761     -758     -756     -756     -756 
    -758     -760     -757     -757     -757     -756     -757     -758 
    -757     -754     -756     -758     -760     -758     -758     -756 
    -754     -756     -756     -754     -758     -760     -756     -753 
    -756     -757     -756     -756     -760     -758     -754     -754 
    -756     -757     -758     -758     -758     -757     -753     -754 
    -757     -757     -757     -757     -758     -764     -761     -754 
    -753     -757     -760     -760     -761     -758     -754     -754 
    -757     -758     -758     -761     -758     -756     -756     -754 
    -757     -762     -762     -757     -754     -754     -757     -758 
    -756     -756     -758     -760     -760     -756     -757     -757 
    -750     -750     -760     -761     -756     -756     -760     -756 
    -751     -756     -758     -754     -754     -757     -758     -758 
    -758     -758     -756     -753     -754     -758     -760     -758 
    -758     -758     -758     -757     -758     -760     -758     -757 
    -758     -761     -768     -777     -792     -812     -834     -859 
    -886     -904     -912     -903     -877     -835     -785     -729 
    -676     -649     -646     -643     -653     -693     -743     -777 
    -805     -853     -895     -904     -913     -953     -984     -976 
    -957     -969    -1017    -1032     -994     -988    -1003     -928 
    -785     -676     -618     -595     -587     -583     -652     -791 
    -893     -985    -1096    -1046     -776     -519     -394     -318 
    -243     -122      -22     -117     -379     -619     -660     -483 
    -364     -499     -762     -884     -622     -133       66     -157 
    -540     -819     -801     -634     -791    -1435    -2262    -2659 
   -2146    -1124     -461     -441     -816    -1206    -1259     -927 
    -615     -774    -1254    -1551    -1341     -486      499      787 
     589      441      194      -24       27      -35     -398     -753 
    -905     -928    -1024    -1313    -1613    -1613    -1269     -861 
    -648     -706     -901    -1015    -1040    -1098    -1287    -1491 
   -1237     -564     -249     -492     -768     -849     -913    -1043 
   -1105    -1224    -1615    -1877    -1475     -490      535     1034 
     958      656      241     -190     -514    -1082    -2220    -3456 
   -3979    -3481    -2153     -440      834     1123      907      773 
     765      791      473     -529    -1809    -2759    -3029    -2340 
   -1044     -133      -41     -276     -217      379     1282     1759 
    1215      -99    -1404    -1976    -1709    -1252    -1239    -1802 
   -2693    -3231    -2793    -1637     -472      251      315      -47 
    -283     -122      406     1028     1204      573     -669    -1815 
   -2226    -1995    -1709    -1672    -1638    -1233     -445      413 
     895      614     -241    -1132    -1765    -1864    -1389     -935 
   -1000    -1443    -1752    -1475     -680      182      662      375 
    -638    -1668    -1849    -1035      -27      411      286       28 
      25      168      -74     -999    -2304    -3245    -3288    -2535 
   -1528     -812     -549     -542     -440       13      675     1151 
    1058      328     -742    -1881    -2802    -3096    -2648    -1694 
    -553      444     1057     1308     1336     1104      441     -643 
   -1834    -2691    -2917    -2589    -2104    -1783    -1610    -1219 
    -211     1270     2538     2874     1930      -24    -2211    -3838 
   -4361    -3789    -2824    -2111    -1642    -1135     -463      256 
     760      823      530      251      278      596      826      579 
    -132     -908    -1223     -962     -608     -670    -1285    -2146 
   -2710    -2644    -2016    -1198     -652     -477     -259      292 
     959     1347     1125      279     -874    -2091    -3202    -3987 
   -4338    -4105    -3103    -1521      133     1375     1949     1911 
    1526     1043      602      298      141      106      180      147 
    -182     -706    -1306    -1829    -2061    -2097    -2168    -2296 
   -2355    -2103    -1363     -280      803     1570     1722     1129 
      79     -989    -1881    -2601    -3198    -3531    -3250    -2276 
    -935      270      893      936      812      873     1131     1215 
     762      -89     -938    -1525    -1795    -1926    -2118    -2166 
   -1668     -673      238      442     -214    -1175    -1683    -1506 
    -992     -726    -1050    -1664    -2000    -1811    -1264     -787 
    -662     -665     -457     -122       22     -221     -815    -1377 
   -1470    -1066     -491     -122     -143     -411     -629     -677 
    -724     -947    -1345    -1706    -1748    -1431     -868     -160 
     521      978     1088      761      -79    -1318    -2512    -3194 
   -3226    -2697    -1744     -608      449     1225     1512     1325 
     963      615      318       82     -264     -930    -1790    -2448 
   -2548    -2084    -1476    -1179    -1302    -1607    -1729    -1495 
   -1061     -711     -607     -634     -453      176     1039     1545 
    1305      438     -661    -1576    -2097    -2311    -2389    -2416 
   -2324    -1903     -981      263     1377     2068     2246     1833 
     884     -321    -1493    -2459    -3038    -3156    -2849    -2151 
   -1358     -901     -868    -1058    -1177    -1035     -703     -346 
    -149     -257     -696    -1304    -1741    -1768    -1386     -751 
    -174       64      -44     -280     -423     -473     -603     -823 
    -892     -553      229     1128     1691     1692     1094       47 
   -1081    -1979    -2560    -2890    -3048    -2956    -2457    -1521 
    -319      685     1050      837      476      299      271       55 
    -541    -1258    -1718    -1861    -1873    -2000    -2347    -2628 
   -2416    -1611     -521      261      353       -2     -310     -430 
    -637    -1173    -1845    -2147    -1719     -711      247      553 
     195     -345     -594     -422     -143      -72     -182     -330 
    -421     -391     -417     -733    -1209    -1522    -1545    -1333 
   -1082    -1011    -1047     -999     -818     -537     -286     -255 
    -481     -818    -1071    -1108     -942     -673     -364      -81 
     103       67     -378    -1188    -2011    -2516    -2520    -2049 
   -1371     -766     -318      -63      -36     -124     -137      -60 
       8       58        2     -321     -839    -1328    -1651    -1838 
   -2014    -2062    -1787    -1177     -232      886     1707     1910 
    1509      729     -148    -1070    -2120    -3126    -3734    -3657 
   -2848    -1642     -576      -62     -151     -487     -687     -638 
    -390     -103       35       59       76       27     -232     -692 
   -1162    -1452    -1456    -1174     -797     -581     -626     -804 
    -838     -577     -148      202      276        1     -567    -1275 
   -1923    -2398    -2710    -2783    -2540    -2058    -1436     -846 
    -460     -155      301      942     1599     1903     1572      776 
    -116     -853    -1339    -1630    -1814    -1841    -1611    -1089 
    -382      205      421      340      175       22     -129     -400 
    -915    -1541    -1977    -2177    -2307    -2459    -2620    -2632 
   -2328    -1773    -1067     -244      515     1013     1208     1167 
     965      554      -93     -837    -1482    -1912    -2151    -2276 
   -2322    -2319    -2253    -1991    -1428     -685      -13      477 
     773      826      626      205     -415    -1136    -1790    -2280 
   -2466    -2168    -1418     -506      132      187     -187     -581 
    -711     -510     -159       64       87      -44     -272     -504 
    -799    -1259    -1748    -2026    -1911    -1345     -503      364 
    1065     1458     1524     1355      993      391     -388    -1177 
   -1890    -2424    -2575    -2299    -1702     -949     -324      -14 
       8     -149     -365     -556     -733     -916    -1109    -1354 
   -1656    -1923    -2037    -1965    -1813    -1726    -1791    -1929 
   -1945    -1679    -1134     -463      189      762     1185     1397 
    1428     1302      950      337     -402    -1059    -1526    -1817 
   -1971    -2030    -2074    -2038    -1714    -1078     -349      190 
     356      180     -175     -580     -943    -1206    -1317    -1233 
    -984     -658     -402     -426     -885    -1649    -2365    -2668 
   -2351    -1566     -735      -97      324      486      421      214 
    -101     -467     -834    -1194    -1462    -1548    -1474    -1232 
    -827     -425     -217     -222     -306     -271      -12      356 
     581      503      162     -209     -352     -221      -41     -139 
    -675    -1502    -2270    -2705    -2794    -2670    -2392    -1918 
   -1235     -418      360      832      776      214     -606    -1410 
   -1992    -2195    -1964    -1426     -793     -162      417      772 
     719      271     -378     -996    -1372    -1366    -1009     -515 
    -144     -101     -419     -947    -1453    -1721    -1657    -1352 
   -1011     -762     -529     -168      251      473      302     -217 
    -864    -1445    -1852    -2061    -2147    -2193    -2242    -2288 
   -2232    -1937    -1317     -484      232      564      507      243 
      35       89      382      747     1107     1513     1992     2450 
    2705     2590     2060     1233      282     -784    -2034    -3418 
   -4725    -5564    -5518    -4468    -2691     -747      758     1514 
    1552     1027      128     -965    -2138    -3262    -4136    -4583 
   -4536    -3989    -2971    -1620     -193     1007     1733     1845 
    1383      715      330      444      931     1491     1871     2068 
    2230     2350     2226     1541       86    -1903    -3838    -5179 
   -5721    -5680    -5443    -5142    -4629    -3690    -2278     -583 
    1031     2065     2088     1062     -695    -2587    -3842    -3942 
   -2940    -1312      238     1069      884     -112    -1286    -2047 
   -2145    -1463      -44     1858     3986     6000     7398     7696 
    6633     4328     1285    -1864    -4752    -7292    -9300   -10342 
   -9981    -8079    -4999    -1613     1047     2351     2412     1806 
    1005      292       10      480     1674     3030     3759     3335 
    1752     -514    -2843    -4800    -6232    -7188    -7587    -7078 
   -5263    -1996     2161     6107     8935    10133     9668     7886 
    4880      727    -4014    -8607   -12155   -13765   -13213   -10821 
   -7161    -3171      371     3223     5319     6477     6505     5398 
    3396     1063     -778    -1836    -2512    -3132    -3780    -4287 
   -4164    -3237    -1826     -378      638     1024      992      847 
     780      988     1746     2905     3797     3854     2766      688 
   -1576    -3354    -4552    -5089    -4862    -3960    -2274      113 
    2589     4726     6214     6562     5633     3620      575    -3238 
   -6897    -9485   -10608   -10200    -8626    -6588    -4657    -3130 
   -2080    -1397     -918     -357      621     2111     3811     5139 
    5756     5509     4298     2496      542    -1447    -3387    -5200 
   -6694    -7523    -7329    -5806    -2971      618     4043     6729 
    8432     8645     7238     4514      641    -3728    -7701   -10808 
  -12688   -13215   -12506   -10454    -7182    -3334      540     3948 
    6457     8062     8764     8399     7118     5552     4294     3646 
    4058     5675     7831     9707    10625     9767     6552     1467 
   -4382    -9815   -13419   -14584   -13672   -10943    -7225    -3703 
    -955      238     -670    -3109    -6166    -9062   -11203   -12129 
  -11618    -9761    -6636    -2616     1628     5433     8194     9892 
   10593    10161     8935     7249     5278     3246     1520      490 
    -391    -1363    -1867    -2208    -2563    -2682    -2797    -2886 
   -2546    -1606     -610       78      513      157     -691    -1298 
   -2050    -3150    -4363    -5209    -5332    -4877    -3705    -2362 
   -1560     -812      145     1290     2563     3545     4299     5054 
    5748     6210     6247     5382     2943     -579    -4298    -7592 
   -9136    -8511    -6420    -3520     -924      592     1092      687 
    -612    -2551    -4540    -6169    -6782    -5884    -4186    -2224 
    -241     1147     2027     2473     2180     1385      255     -980 
   -1842    -2146    -1759     -881      149     1262     2226     2893 
    3275     3265     2875     2239     1219     -144    -1451    -2864 
   -4229    -4789    -4793    -4500    -3554    -2208     -724      722 
    1610     1764     1088     -345    -1865    -2968    -3438    -3148 
   -2378    -1588     -905     -243      584     1682     2466     2401 
    1725      564     -769    -1528    -1717    -1669    -1363    -1021 
    -714     -237       36     -318    -1113    -2138    -3294    -4106 
   -4198    -3712    -2825    -1696     -481      830     2123     3225 
    4244     5178     5556     5012     3465      947    -1821    -3956 
   -5364    -6057    -5996    -5495    -4526    -2880     -993      718 
    2052     2565     2309     1784     1024       76     -816    -1625 
   -2292    -2751    -3028    -3207    -3396    -3597    -3716    -3553 
   -3001    -2133    -1123     -321      162      531      812      936 
     976      940      793      650      650      756      858      818 
     421     -294    -1120    -1996    -2694    -2967    -2957    -2593 
   -1690     -542      622     1559     1803     1345      376     -830 
   -1771    -2420    -2822    -2604    -1885     -981      159     1197 
    1786     1960     1483      315    -1001    -2042    -2513    -2281 
   -1759    -1314     -868     -434     -141      -87     -521    -1498 
   -2681    -3686    -4255    -4334    -4079    -3591    -2725    -1381 
     116     1387     2207     2200     1362      197     -834    -1432 
   -1507    -1102     -365      380      985     1480     1613     1070 
       4    -1355    -2691    -3504    -3747    -3457    -2520    -1281 
      -6     1343     2439     2893     2760     2268     1553      746 
    -109    -1017    -1740    -2022    -1949    -1690    -1467    -1505 
   -1715    -1944    -2020    -1850    -1663    -1621    -1703    -1786 
   -1691    -1390     -911     -336      307     1131     1953     2407 
    2265     1474      261     -931    -1815    -2447    -2851    -2859 
   -2461    -1691     -710       52      379      255     -340    -1259 
   -2328    -3408    -4247    -4545    -4102    -2988    -1478      201 
    1749     2713     2932     2567     1698      553     -500    -1416 
   -2085    -2255    -2085    -1800    -1579    -1755    -2261    -2833 
   -3303    -3254    -2629    -1691     -413     1016     2334     3523 
    4229     4131     3468     2435     1107     -176    -1264    -2269 
   -3076    -3638    -3971    -3940    -3667    -3337    -2864    -2234 
   -1529     -764       62      909     1719     2430     2841     2736 
    2089     1003     -275    -1362    -2060    -2296    -2062    -1556 
    -966     -471     -284     -364     -584     -946    -1391    -1745 
   -1786    -1416     -819     -240      199      386      309       41 
    -452    -1215    -2193    -3258    -4016    -4081    -3464    -2427 
   -1242     -118      780     1382     1672     1605     1255      703 
     -49     -783    -1281    -1625    -1875    -1977    -1930    -1771 
   -1603    -1575    -1707    -1823    -1784    -1524     -923     -108 
     616     1144     1449     1464     1148      504     -360    -1190 
   -1792    -2168    -2335    -2339    -2262    -2124    -1988    -1929 
   -1942    -1972    -1942    -1814    -1575    -1178     -722     -376 
    -153      -43      -55     -153     -291     -325     -155      203 
     722     1273     1721     1987     2035     1937     1606      885 
    -112    -1158    -2049    -2627    -2830    -2667    -2274    -1802 
   -1323     -892     -560     -449     -571     -723     -823     -820 
    -688     -557     -518     -633     -905    -1202    -1524    -1900 
   -2170    -2246    -2124    -1752    -1244     -814     -490     -268 
    -171     -122     -140     -271     -359     -294     -167      -63 
      18       98      186      256      207       -9     -325     -592 
    -700     -689     -654     -616     -533     -421     -391     -477 
    -812    -1532    -2374    -3126    -3754    -4023    -3808    -3215 
   -2323    -1274     -265      581     1213     1594     1722     1663 
    1453     1048      471     -182     -812    -1350    -1755    -2046 
   -2220    -2188    -1923    -1445     -814     -207      288      712 
    1044     1208     1125      753       97     -672    -1325    -1887 
   -2408    -2816    -3064    -3037    -2659    -2010    -1239     -584 
    -213     -102     -108     -112     -116     -198     -461     -851 
   -1159    -1308    -1374    -1404    -1424    -1425    -1223     -741 
    -251       99      365      513      519      290     -329    -1291 
   -2324    -3122    -3500    -3358    -2733    -1850     -853      237 
    1250     1979     2378     2407     2003     1328      606      -81 
    -611     -911    -1121    -1393    -1782    -2236    -2617    -2867 
   -2982    -2889    -2515    -1861    -1015     -103      683     1144 
    1240     1043      625      103     -445     -994    -1439    -1709 
