Origin Time       2025/06/03 22:18:00
Lat.              41.7
Long.             143.6
Depth. (km)       30
Mag.              5.2
Station Code      HKD159
Station Lat.      41.7160
Station Long.     141.0046
Station Height(m) 23
Record Time       2025/06/03 22:19:29
Sampling Freq(Hz) 100Hz
Duration Time(s)  60
Dir.              U-D
Scale Factor      7845(gal)/8223790
Max. Acc. (gal)   0.459
Last Correction   2025/06/03 22:19:30
Memo.             
[...]
   10320    10328    10343    10355    10358    10362    10372    10377 
   10363    10327    10291    10282    10309    10369    10430    10461 
   10461    10438    10404    10376    10355    10332    10315    10318 
   10320    10319    10327    10345    10353    10345    10324    10303 
   10287    10278    10276    10289    10311    10335    10358    10372 
   10376    10386    10407    10415    10400    10368    10332    10307 
   10303    10322    10365    10416    10453    10469    10466    10450 
   10426    10393    10361    10338    10323    10314    10319    10332 
   10328    10303    10269    10242    10239    10274    10341    10413 
   10459    10471    10446    10384    10314    10265    10246    10251 
   10266    10292    10331    10377    10412    10428    10434    10431 
   10415    10384    10336    10289    10272    10296    10355    10426 
   10477    10501    10496    10457    10396    10338    10288    10253 
   10235    10237    10260    10304    10359    10411    10436    10419 
   10369    10314    10276    10274    10307    10351    10390    10416 
   10423    10412    10404    10401    10385    10358    10336    10328 
   10330    10345    10366    10378    10378    10376    10376    10381 
   10382    10370    10345    10318    10309    10319    10322    10318 
   10319    10326    10335    10351    10368    10384    10404    10412 
   10393    10357    10315    10282    10273    10289    10319    10351 
   10378    10396    10404    10403    10382    10343    10307    10289 
   10300    10336    10373    10400    10416    10408    10377    10341 
   10297    10262    10265    10303    10359    10411    10431    10422 
   10399    10380    10374    10368    10347    10327    10316    10319 
   10343    10376    10403    10420    10422    10411    10393    10373 
   10343    10305    10285    10301    10349    10400    10432    10442 
   10434    10412    10390    10372    10358    10349    10332    10316 
   10316    10332    10355    10380    10385    10366    10334    10303 
   10273    10255    10257    10282    10331    10378    10399    10393 
   10370    10350    10342    10338    10334    10327    10320    10339 
   10382    10420    10432    10405    10350    10296    10257    10242 
   10258    10293    10343    10403    10442    10444    10412    10370 
   10351    10355    10368    10382    10374    10345    10326    10338 
   10369    10389    10388    10377    10368    10358    10350    10342 
   10342    10355    10373    10380    10377    10369    10354    10339 
   10332    10341    10357    10366    10361    10357    10355    10349 
   10328    10295    10262    10254    10274    10309    10347    10389 
   10420    10413    10378    10342    10327    10338    10351    10359 
   10384    10409    10408    10400    10405    10415    10404    10368 
   10334    10332    10368    10419    10458    10462    10434    10385 
   10331    10296    10293    10312    10336    10358    10357    10334 
   10305    10291    10291    10296    10307    10324    10327    10308 
   10292    10285    10278    10284    10311    10361    10413    10434 
   10420    10404    10400    10404    10413    10417    10415    10411 
   10409    10407    10386    10349    10315    10293    10289    10312 
   10345    10374    10397    10395    10365    10330    10301    10285 
   10292    10324    10359    10369    10343    10311    10300    10311 
   10328    10343    10362    10392    10415    10411    10392    10380 
   10373    10365    10362    10368    10365    10343    10301    10260 
   10255    10296    10350    10388    10412    10422    10409    10389 
   10378    10362    10336    10319    10307    10299    10315    10351 
   10381    10385    10369    10355    10355    10370    10399    10426 
   10426    10412    10395    10363    10327    10312    10334    10378 
   10417    10432    10415    10378    10342    10312    10287    10284 
   10312    10345    10368    10378    10382    10392    10409    10434 
   10446    10434    10409    10381    10347    10326    10315    10312 
   10328    10350    10347    10324    10303    10301    10327    10350 
   10357    10368    10389    10403    10407    10405    10393    10362 
   10320    10277    10247    10247    10278    10320    10358    10374 
   10368    10350    10332    10330    10353    10395    10434    10447 
   10430    10385    10335    10304    10300    10312    10330    10350 
   10382    10409    10396    10354    10315    10293    10299    10316 
   10316    10304    10318    10358    10395    10393    10346    10287 
   10254    10262    10297    10341    10377    10404    10417    10403 
   10361    10328    10319    10334    10380    10435    10465    10455 
   10422    10373    10334    10328    10361    10417    10465    10469 
   10449    10434    10426    10413    10393    10369    10346    10327 
   10314    10308    10312    10332    10357    10358    10342    10330 
   10324    10331    10334    10318    10303    10305    10319    10342 
   10366    10376    10365    10334    10299    10281    10292    10315 
   10334    10351    10373    10396    10403    10390    10374    10361 
   10359    10366    10363    10354    10354    10358    10365    10366 
   10347    10312    10287    10285    10305    10335    10359    10376 
   10382    10388    10400    10400    10382    10362    10342    10319 
   10299    10293    10309    10330    10331    10304    10276    10277 
   10307    10349    10385    10409    10416    10405    10390    10373 
   10350    10327    10316    10331    10374    10417    10431    10423 
   10411    10399    10385    10362    10339    10335    10358    10390 
   10417    10438    10449    10442    10415    10369    10330    10312 
   10312    10332    10369    10401    10415    10411    10384    10339 
   10299    10278    10270    10277    10301    10335    10370    10400 
   10409    10400    10384    10361    10332    10314    10312    10327 
   10350    10370    10378    10374    10358    10346    10346    10359 
   10384    10397    10380    10336    10289    10255    10250    10277 
   10326    10376    10411    10423    10408    10369    10322    10276 
   10243    10242    10269    10323    10382    10423    10442    10439 
   10405    10359    10330    10322    10335    10361    10384    10399 
   10397    10382    10361    10339    10338    10370    10404    10403 
   10376    10347    10332    10339    10345    10330    10323    10338 
   10346    10342    10341    10343    10350    10361    10361    10365 
   10372    10350    10301    10261    10243    10245    10261    10300 
   10357    10409    10440    10443    10423    10401    10390    10389 
   10389    10389    10382    10355    10320    10301    10300    10316 
   10358    10403    10428    10444    10443    10415    10373    10332 
   10303    10299    10314    10334    10351    10372    10393    10408 
   10400    10374    10342    10315    10309    10323    10336    10346 
   10342    10324    10319    10335    10346    10353    10365    10381 
   10399    10403    10389    10359    10320    10295    10295    10316 
   10355    10396    10413    10397    10362    10319    10273    10238 
   10231    10254    10309    10381    10439    10457    10436    10392 
   10330    10269    10239    10253    10296    10359    10412    10430 
   10404    10353    10312    10303    10318    10339    10368    10403 
   10432    10432    10393    10331    10280    10255    10266    10319 
   10405    10477    10504    10498    10471    10416    10353    10309 
   10292    10296    10326    10376    10417    10426    10411    10382 
   10339    10307    10304    10326    10363    10392    10382    10349 
   10334    10351    10381    10408    10416    10390    10345    10293 
   10257    10254    10285    10339    10404    10451    10462    10454 
   10436    10399    10358    10323    10296    10291    10309    10331 
   10350    10369    10382    10385    10381    10376    10368    10366 
   10376    10381    10378    10381    10382    10368    10347    10339 
   10338    10345    10358    10376    10395    10395    10376    10346 
   10312    10285    10264    10249    10261    10300    10351    10386 
   10381    10336    10292    10282    10296    10314    10346    10369 
   10373    10390    10411    10400    10381    10366    10336    10308 
   10309    10331    10369    10416    10435    10407    10365    10327 
   10291    10282    10315    10354    10378    10397    10401    10382 
   10359    10349    10351    10362    10370    10363    10342    10324 
   10320    10322    10328    10342    10354    10373    10393    10396 
   10385    10377    10365    10353    10368    10411    10431    10416 
   10385    10338    10292    10280    10287    10299    10323    10353 
   10380    10413    10442    10430    10377    10320    10288    10284 
   10299    10318    10332    10345    10351    10347    10336    10334 
   10343    10358    10368    10365    10358    10357    10345    10322 
   10308    10311    10336    10395    10457    10488    10496    10482 
   10443    10390    10339    10297    10276    10277    10284    10285 
   10305    10369    10449    10508    10519    10474    10401    10330 
   10265    10219    10211    10250    10328    10430    10523    10574 
   10563    10508    10442    10381    10332    10297    10276    10270 
   10280    10300    10319    10347    10396    10449    10473    10465 
   10432    10369    10293    10235    10203    10210    10273    10385 
   10496    10552    10543    10489    10412    10326    10237    10143 
   10071    10058    10116    10216    10328    10417    10466    10480 
   10484    10486    10474    10446    10411    10358    10288    10226 
   10199    10228    10307    10407    10490    10520    10480    10389 
   10282    10203    10172    10185    10235    10319    10424    10517 
   10563    10542    10447    10307    10177    10110    10122    10195 
   10277    10343    10395    10422    10423    10400    10353    10296 
   10260    10254    10274    10307    10342    10374    10415    10466 
   10521    10565    10577    10551    10493    10417    10358    10327 
   10314    10319    10338    10358    10381    10407    10419    10407 
   10386    10377    10384    10388    10351    10265    10174    10135 
   10153    10199    10261    10327    10376    10412    10454    10482 
   10492    10484    10447    10397    10362    10347    10351    10365 
   10358    10309    10246    10207    10216    10284    10381    10474 
   10543    10573    10548    10478    10403    10350    10320    10296 
   10276    10268    10268    10268    10280    10322    10377    10422 
   10457    10482    10478    10438    10354    10233    10120    10065 
   10072    10141    10268    10411    10520    10567    10539    10440 
   10300    10154    10053    10039    10108    10220    10327    10395 
   10426    10442    10470    10519    10557    10548    10488    10395 
   10315    10266    10239    10237    10277    10347    10403    10424 
   10435    10449    10454    10446    10424    10397    10374    10365 
   10384    10430    10476    10497    10484    10440    10389    10339 
   10300    10295    10315    10358    10432    10519    10577    10579 
   10500    10358    10219    10123    10089    10125    10188    10247 
   10295    10309    10296    10268    10231    10189    10168    10180 
   10204    10222    10226    10218    10224    10272    10345    10427 
   10500    10542    10543    10519    10489    10470    10467    10467 
   10454    10438    10438    10461    10513    10579    10613    10592 
   10531    10466    10412    10374    10353    10338    10319    10297 
   10276    10257    10243    10237    10234    10227    10218    10215 
   10207    10196    10206    10235    10274    10315    10347    10361 
   10351    10299    10200    10098    10049    10062    10122    10222 
   10342    10465    10590    10702    10762    10747    10658    10521 
   10389    10305    10287    10331    10417    10505    10562    10590 
   10604    10592    10552    10482    10386    10284    10215    10216 
   10285    10376    10442    10471    10473    10447    10381    10272 
   10141    10035     9996    10027    10098    10179    10255    10315 
   10355    10368    10345    10292    10241    10211    10207    10215 
   10208    10188    10197    10264    10368    10477    10562    10594 
   10563    10501    10438    10374    10323    10300    10312    10366 
   10451    10536    10605    10631    10598    10509    10380    10261 
   10203    10195    10210    10246    10299    10361    10426    10485 
   10517    10497    10436    10374    10318    10265    10234    10222 
   10219    10214    10189    10145    10102    10099    10147    10223 
   10304    10365    10380    10359    10331    10318    10338    10408 
   10513    10617    10687    10716    10678    10559    10404    10277 
   10208    10206    10264    10350    10436    10509    10546    10536 
   10474    10374    10289    10269    10319    10422    10532    10589 
   10574    10501    10385    10249    10137    10104    10158    10255 
   10368    10467    10513    10489    10411    10304    10210    10164 
   10176    10238    10322    10397    10444    10444    10413    10388 
   10376    10366    10358    10330    10265    10183    10115    10083 
   10096    10174    10300    10436    10558    10629    10619    10524 
   10380    10219    10087    10026    10046    10137    10295    10492 
   10670    10790    10836    10814    10744    10642    10519    10397 
   10297    10234    10211    10220    10242    10261    10268    10255 
   10235    10230    10253    10289    10316    10338    10368    10400 
   10434    10461    10469    10465    10444    10388    10308    10231 
   10158    10089    10038    10042    10119    10235    10354    10443 
   10461    10423    10370    10323    10296    10292    10312    10363 
   10443    10521    10570    10558    10481    10385    10328    10326 
   10362    10423    10489    10538    10563    10578    10573    10511 
   10416    10338    10296    10285    10296    10305    10296    10277 
   10249    10219    10201    10201    10208    10218    10223    10237 
   10254    10262    10270    10295    10334    10378    10411    10423 
   10422    10392    10326    10254    10210    10206    10253    10347 
   10453    10535    10597    10638    10654    10655    10643    10619 
   10584    10524    10442    10370    10327    10308    10305    10309 
   10308    10300    10291    10292    10314    10336    10332    10315 
   10301    10281    10262    10265    10270    10251    10218    10187 
   10169    10180    10227    10287    10332    10369    10400    10417 
   10419    10397    10365    10335    10326    10323    10309    10285 
   10278    10300    10330    10357    10388    10422    10458    10474 
   10443    10374    10301    10250    10255    10338    10459    10561 
   10611    10596    10516    10405    10296    10224    10219    10254 
   10296    10339    10372    10373    10355    10324    10266    10208 
   10191    10203    10230    10282    10341    10382    10397    10377 
   10326    10280    10265    10295    10345    10378    10377    10351 
   10328    10323    10330    10345    10362    10373    10390    10432 
   10494    10540    10538    10493    10423    10354    10315    10305 
   10315    10341    10369    10399    10423    10419    10378    10327 
   10281    10247    10237    10253    10295    10361    10434    10489 
   10521    10527    10501    10461    10424    10392    10355    10322 
   10299    10293    10303    10328    10357    10369    10377    10390 
   10392    10376    10347    10330    10346    10396    10444    10457 
   10417    10328    10222    10135    10091    10096    10154    10243 
   10323    10399    10477    10530    10531    10480    10399    10327 
   10272    10234    10220    10223    10246    10296    10353    10407 
   10449    10461    10434    10382    10320    10250    10189    10183 
   10251    10358    10453    10517    10544    10534    10503    10457 
   10400    10350    10309    10289    10318    10372    10412    10428 
   10404    10358    10327    10318    10328    10373    10420    10439 
   10446    10455    10458    10449    10431    10396    10331    10251 
   10189    10170    10189    10215    10233    10258    10308    10374 
   10434    10467    10474    10467    10451    10442    10439    10424 
   10388    10332    10277    10265    10304    10357    10401    10436 
   10453    10443    10409    10365    10327    10312    10318    10331 
   10346    10358    10350    10324    10296    10258    10208    10169 
   10172    10226    10316    10409    10462    10455    10415    10378 
   10354    10341    10332    10327    10334    10355    10378    10390 
   10384    10357    10322    10297    10296    10316    10351    10373 
   10359    10326    10312    10331    10372    10427    10482    10501 
   10474    10407    10320    10250    10216    10226    10265    10314 
   10353    10382    10405    10412    10393    10369    10361    10378 
   10413    10450    10474    10474    10455    10424    10378    10326 
   10280    10253    10253    10281    10316    10338    10332    10287 
   10214    10164    10169    10234    10345    10469    10547    10557 
   10504    10408    10311    10261    10264    10304    10374    10450 
   10508    10530    10508    10454    10388    10328    10285    10278 
   10319    10392    10467    10528    10557    10538    10470    10382 
   10315    10277    10265    10284    10319    10345    10345    10323 
   10308    10301    10297    10305    10308    10288    10274    10282 
   10301    10324    10351    10372    10385    10404    10431    10453 
   10454    10439    10412    10358    10291    10238    10207    10199 
   10228    10291    10369    10444    10497    10517    10512    10488 
   10449    10411    10392    10399    10422    10443    10457    10453 
   10423    10363    10285    10218    10183    10176    10204    10261 
   10327    10376    10392    10372    10332    10297    10278    10280 
   10291    10299    10297    10280    10251    10239    10245    10266 
   10297    10316    10318    10320    10345    10376    10396    10400 
   10390    10385    10395    10412    10430    10447    10447    10427 
   10408    10396    10389    10400    10411    10407    10393    10378 
   10366    10374    10409    10457    10496    10516    10511    10484 
   10450    10408    10353    10303    10266    10235    10224    10247 
   10284    10316    10342    10361    10365    10351    10342    10331 
   10304    10274    10246    10210    10179    10161    10164    10183 
   10216    10260    10303    10345    10392    10435    10457    10449 
   10417    10382    10357    10346    10347    10347    10334    10305 
   10280    10280    10307    10350    10401    10450    10486    10498 
   10482    10453    10427    10407    10404    10426    10461    10501 
   10538    10543    10524    10488    10427    10335    10230    10142 
   10093    10099    10145    10201    10257    10301    10330    10361 
   10397    10426    10438    10434    10415    10392    10382    10385 
   10386    10377    10359    10336    10315    10297    10287    10296 
   10332    10376    10409    10427    10420    10385    10341    10314 
