Origin Time       2025/06/03 22:18:00
Lat.              41.7
Long.             143.6
Depth. (km)       30
Mag.              5.2
Station Code      HKD110
Station Lat.      42.1310
Station Long.     142.9354
Station Height(m) 4
Record Time       2025/06/03 22:18:50
Sampling Freq(Hz) 100Hz
Duration Time(s)  73
Dir.              U-D
Scale Factor      7845(gal)/8223790
Max. Acc. (gal)   1.439
Last Correction   2025/06/03 22:18:51
Memo.             
   -5757    -5759    -5760    -5759    -5757    -5756    -5757    -5759 
   -5759    -5756    -5756    -5760    -5759    -5756    -5757    -5759 
   -5759    -5759    -5757    -5757    -5759    -5759    -5759    -5760 
   -5759    -5756    -5757    -5759    -5759    -5760    -5757    -5756 
   -5759    -5760    -5759    -5757    -5756    -5756    -5757    -5759 
   -5757    -5757    -5757    -5757    -5760    -5760    -5757    -5757 
   -5759    -5757    -5756    -5755    -5757    -5759    -5757    -5757 
   -5759    -5757    -5755    -5757    -5759    -5757    -5757    -5759 
   -5759    -5757    -5756    -5756    -5760    -5763    -5759    -5755 
   -5757    -5760    -5759    -5757    -5759    -5757    -5756    -5757 
   -5756    -5756    -5759    -5757    -5757    -5760    -5760    -5757 
   -5756    -5760    -5760    -5756    -5755    -5759    -5759    -5756 
   -5757    -5759    -5759    -5757    -5756    -5757    -5759    -5757 
   -5757    -5757    -5756    -5760    -5761    -5757    -5756    -5757 
   -5757    -5757    -5759    -5759    -5757    -5760    -5760    -5757 
   -5759    -5759    -5756    -5759    -5760    -5756    -5755    -5759 
   -5757    -5756    -5757    -5759    -5760    -5759    -5759    -5759 
   -5757    -5759    -5760    -5757    -5756    -5759    -5759    -5760 
   -5759    -5757    -5757    -5757    -5756    -5757    -5757    -5756 
   -5756    -5757    -5759    -5756    -5756    -5760    -5759    -5756 
   -5756    -5759    -5760    -5757    -5757    -5759    -5757    -5756 
   -5760    -5760    -5759    -5757    -5757    -5757    -5757    -5757 
   -5757    -5757    -5757    -5760    -5760    -5759    -5757    -5757 
   -5757    -5757    -5756    -5757    -5756    -5756    -5756    -5757 
   -5759    -5757    -5757    -5757    -5757    -5757    -5756    -5756 
   -5760    -5761    -5759    -5757    -5757    -5757    -5756    -5756 
   -5756    -5756    -5757    -5757    -5759    -5759    -5760    -5760 
   -5757    -5757    -5759    -5759    -5756    -5755    -5756    -5757 
   -5756    -5755    -5755    -5757    -5759    -5757    -5759    -5760 
   -5759    -5759    -5757    -5756    -5760    -5759    -5755    -5757 
   -5759    -5756    -5759    -5759    -5756    -5757    -5757    -5757 
   -5760    -5760    -5756    -5756    -5759    -5759    -5757    -5757 
   -5756    -5755    -5757    -5760    -5760    -5757    -5756    -5755 
   -5755    -5757    -5757    -5756    -5759    -5761    -5760    -5759 
   -5756    -5755    -5757    -5759    -5755    -5755    -5757    -5757 
   -5757    -5759    -5759    -5759    -5757    -5759    -5759    -5757 
   -5759    -5760    -5757    -5755    -5757    -5759    -5755    -5753 
   -5759    -5760    -5756    -5759    -5760    -5756    -5757    -5760 
   -5759    -5759    -5759    -5757    -5759    -5760    -5759    -5760 
   -5759    -5757    -5759    -5760    -5759    -5759    -5757    -5759 
   -5759    -5756    -5756    -5756    -5756    -5759    -5757    -5756 
   -5757    -5756    -5759    -5760    -5757    -5757    -5759    -5755 
   -5755    -5757    -5756    -5755    -5759    -5760    -5760    -5760 
   -5759    -5757    -5756    -5756    -5757    -5757    -5757    -5760 
   -5761    -5757    -5755    -5759    -5759    -5756    -5757    -5757 
   -5757    -5759    -5759    -5757    -5759    -5760    -5760    -5756 
   -5756    -5760    -5760    -5759    -5757    -5756    -5756    -5759 
   -5759    -5757    -5756    -5756    -5759    -5759    -5759    -5759 
   -5759    -5757    -5759    -5759    -5759    -5757    -5759    -5759 
   -5756    -5757    -5761    -5760    -5755    -5757    -5761    -5759 
   -5759    -5759    -5759    -5759    -5757    -5756    -5756    -5756 
   -5757    -5757    -5757    -5756    -5759    -5761    -5759    -5759 
   -5760    -5759    -5759    -5760    -5760    -5761    -5761    -5756 
   -5756    -5757    -5759    -5759    -5757    -5757    -5757    -5759 
   -5757    -5756    -5759    -5763    -5761    -5759    -5757    -5757 
   -5759    -5759    -5757    -5759    -5760    -5760    -5759    -5757 
   -5757    -5760    -5760    -5759    -5759    -5759    -5759    -5759 
   -5757    -5759    -5760    -5759    -5759    -5759    -5757    -5760 
   -5763    -5760    -5760    -5760    -5760    -5761    -5763    -5761 
   -5760    -5761    -5765    -5764    -5763    -5763    -5763    -5763 
   -5764    -5765    -5765    -5767    -5765    -5765    -5764    -5764 
   -5767    -5769    -5767    -5768    -5772    -5775    -5778    -5782 
   -5784    -5787    -5790    -5792    -5795    -5798    -5802    -5803 
   -5802    -5802    -5800    -5796    -5794    -5798    -5806    -5806 
   -5806    -5817    -5823    -5822    -5819    -5806    -5791    -5791 
   -5798    -5799    -5796    -5791    -5787    -5790    -5796    -5788 
   -5763    -5745    -5752    -5772    -5769    -5744    -5726    -5732 
   -5752    -5773    -5790    -5802    -5810    -5800    -5765    -5726 
   -5711    -5721    -5741    -5760    -5786    -5809    -5790    -5719 
   -5652    -5655    -5733    -5802    -5786    -5702    -5641    -5670 
   -5742    -5786    -5798    -5773    -5678    -5599    -5671    -5805 
   -5811    -5718    -5698    -5786    -5846    -5806    -5741    -5714 
   -5703    -5706    -5722    -5746    -5798    -5810    -5714    -5656 
   -5782    -5918    -5853    -5657    -5524    -5540    -5668    -5837 
   -5975    -5973    -5779    -5494    -5265    -5185    -5350    -5740 
   -6091    -6081    -5679    -5200    -5042    -5333    -5807    -6093 
   -6050    -5799    -5541    -5395    -5360    -5470    -5794    -6168 
   -6278    -6145    -6018    -5887    -5616    -5394    -5526    -5938 
   -6208    -6066    -5697    -5468    -5505    -5736    -6119    -6408 
   -6227    -5705    -5340    -5325    -5579    -6015    -6389    -6330 
   -5823    -5316    -5143    -5254    -5525    -5871    -6080    -5942 
   -5578    -5362    -5402    -5518    -5748    -6180    -6475    -6280 
   -5795    -5460    -5458    -5682    -5957    -6133    -6102    -5958 
   -5917    -5964    -5967    -5879    -5706    -5559    -5610    -5864 
   -6185    -6408    -6411    -6242    -6060    -5840    -5429    -4950 
   -4750    -4981    -5490    -6012    -6246    -5948    -5240    -4672 
   -4599    -4758    -4874    -5262    -6157    -6956    -6920    -6254 
   -5709    -5381    -4881    -4471    -4812    -5734    -6443    -6644 
   -6586    -6435    -6114    -5548    -4954    -4731    -5015    -5508 
   -5794    -5869    -6191    -6883    -7267    -6648    -5350    -4441 
   -4398    -4669    -4912    -5503    -6442    -6968    -6685    -6099 
   -5782    -5655    -5489    -5489    -5861    -6301    -6424    -6261 
   -5992    -5695    -5533    -5683    -5941    -5946    -5740    -5684 
   -5873    -5998    -5888    -5840    -5975    -5871    -5444    -5283 
   -5551    -5791    -5844    -5892    -6006    -6033    -5787    -5459 
   -5587    -6232    -6759    -6685    -6123    -5472    -5190    -5428 
   -5806    -5987    -6052    -5989    -5576    -4945    -4654    -5026 
   -5713    -6103    -6045    -5890    -5873    -5934    -6037    -6208 
   -6259    -6002    -5622    -5368    -5211    -5115    -5116    -5228 
   -5562    -6054    -6259    -6035    -5840    -5942    -6064    -5979 
   -5849    -5891    -6031    -6025    -5861    -5742    -5686    -5616 
   -5601    -5652    -5717    -5817    -5790    -5467    -5186    -5382 
   -5836    -6030    -5930    -5830    -5744    -5458    -5047    -4876 
   -5159    -5792    -6478    -6906    -6926    -6592    -6050    -5514 
   -5271    -5463    -5869    -6142    -6151    -5960    -5713    -5603 
   -5691    -5848    -5908    -5772    -5555    -5541    -5697    -5711 
   -5671    -5919    -6346    -6504    -6201    -5675    -5355    -5441 
   -5680    -5745    -5664    -5648    -5732    -5738    -5522    -5244 
   -5232    -5513    -5796    -5919    -5984    -6065    -6031    -5802 
   -5563    -5520    -5606    -5638    -5556    -5391    -5231    -5228 
   -5413    -5637    -5813    -5913    -5910    -5933    -6115    -6351 
   -6439    -6276    -5888    -5539    -5490    -5616    -5671    -5676 
   -5611    -5337    -5035    -5032    -5278    -5555    -5829    -6012 
   -5942    -5725    -5653    -5790    -5904    -5795    -5599    -5590 
   -5690    -5659    -5564    -5579    -5648    -5652    -5599    -5622 
   -5825    -6054    -6065    -5886    -5760    -5806    -5958    -6083 
   -6087    -5927    -5597    -5231    -5112    -5324    -5624    -5795 
   -5817    -5765    -5741    -5767    -5802    -5863    -5957    -6035 
   -6102    -6189    -6266    -6289    -6214    -5962    -5555    -5219 
   -5206    -5498    -5821    -5921    -5746    -5489    -5428    -5603 
   -5836    -6060    -6204    -6089    -5807    -5670    -5683    -5649 
   -5567    -5556    -5649    -5748    -5734    -5699    -5841    -6062 
   -6091    -5956    -5934    -6061    -6127    -6058    -5981    -5964 
   -5961    -5976    -6043    -6091    -6007    -5809    -5594    -5481 
   -5567    -5848    -6093    -6014    -5667    -5428    -5458    -5583 
   -5675    -5769    -5888    -5975    -5942    -5799    -5691    -5695 
   -5694    -5593    -5516    -5622    -5832    -5933    -5902    -5856 
   -5798    -5711    -5692    -5767    -5827    -5818    -5729    -5543 
   -5313    -5194    -5283    -5475    -5594    -5678    -5867    -6050 
   -6015    -5806    -5622    -5579    -5688    -5856    -5948    -5957 
   -5945    -5886    -5741    -5578    -5510    -5575    -5694    -5738 
   -5709    -5742    -5856    -5880    -5772    -5656    -5606    -5617 
   -5717    -5896    -6083    -6219    -6237    -6076    -5819    -5644 
   -5603    -5598    -5533    -5437    -5408    -5458    -5556    -5718 
   -5923    -6065    -6096    -6080    -6093    -6134    -6112    -5976 
   -5791    -5632    -5522    -5491    -5543    -5611    -5611    -5518 
   -5395    -5317    -5328    -5467    -5652    -5701    -5624    -5629 
   -5734    -5736    -5566    -5395    -5398    -5552    -5690    -5671 
   -5539    -5455    -5518    -5660    -5726    -5664    -5560    -5529 
   -5618    -5821    -6077    -6255    -6235    -6053    -5880    -5822 
   -5799    -5691    -5549    -5526    -5636    -5767    -5852    -5895 
   -5869    -5728    -5510    -5351    -5406    -5686    -5995    -6112 
   -6029    -5875    -5724    -5636    -5692    -5845    -5950    -5999 
   -6056    -6081    -6019    -5927    -5902    -5946    -5958    -5883 
   -5803    -5810    -5867    -5919    -5988    -6068    -6072    -5979 
   -5880    -5830    -5805    -5767    -5718    -5687    -5678    -5676 
   -5679    -5675    -5647    -5611    -5617    -5678    -5714    -5655 
   -5564    -5532    -5547    -5567    -5617    -5724    -5875    -6046 
   -6191    -6238    -6181    -6083    -5972    -5881    -5896    -5996 
   -6042    -5994    -5946    -5926    -5875    -5790    -5737    -5746 
   -5819    -5922    -5949    -5840    -5679    -5598    -5618    -5647 
   -5629    -5640    -5732    -5819    -5842    -5819    -5756    -5683 
   -5679    -5752    -5837    -5896    -5888    -5791    -5698    -5737 
   -5913    -6091    -6124    -5984    -5778    -5609    -5503    -5448 
   -5444    -5509    -5626    -5730    -5782    -5848    -5985    -6103 
   -6068    -5884    -5699    -5648    -5722    -5837    -5926    -5931 
   -5806    -5617    -5478    -5420    -5416    -5447    -5486    -5489 
   -5466    -5456    -5449    -5429    -5464    -5595    -5701    -5678 
   -5630    -5690    -5806    -5844    -5748    -5539    -5302    -5185 
   -5271    -5476    -5649    -5742    -5787    -5755    -5595    -5421 
   -5425    -5570    -5667    -5718    -5811    -5879    -5865    -5852 
   -5854    -5803    -5725    -5717    -5783    -5805    -5717    -5634 
   -5690    -5833    -5922    -5914    -5852    -5803    -5830    -5898 
   -5907    -5826    -5732    -5709    -5728    -5717    -5719    -5782 
   -5809    -5717    -5549    -5405    -5348    -5401    -5555    -5776 
   -5999    -6134    -6138    -6048    -5940    -5883    -5881    -5886 
   -5884    -5891    -5871    -5815    -5818    -5941    -6062    -6012 
   -5830    -5699    -5683    -5718    -5761    -5830    -5941    -6060 
   -6139    -6156    -6103    -6035    -6038    -6070    -6019    -5923 
   -5880    -5838    -5714    -5580    -5549    -5603    -5667    -5721 
   -5757    -5718    -5602    -5503    -5487    -5520    -5571    -5632 
   -5678    -5740    -5899    -6122    -6264    -6241    -6129    -6054 
   -6021    -5913    -5728    -5616    -5653    -5732    -5744    -5729 
   -5752    -5765    -5705    -5602    -5552    -5622    -5784    -5906 
   -5915    -5884    -5861    -5765    -5578    -5451    -5521    -5719 
   -5841    -5757    -5556    -5452    -5498    -5537    -5489    -5444 
   -5456    -5487    -5551    -5691    -5860    -5911    -5803    -5656 
   -5587    -5575    -5559    -5530    -5521    -5512    -5466    -5431 
   -5476    -5566    -5610    -5603    -5571    -5532    -5548    -5655 
   -5780    -5826    -5745    -5595    -5505    -5522    -5609    -5738 
   -5857    -5887    -5821    -5736    -5703    -5738    -5769    -5733 
   -5682    -5691    -5745    -5782    -5809    -5872    -5960    -5996 
   -5957    -5899    -5876    -5876    -5849    -5773    -5711    -5753 
   -5892    -6043    -6157    -6245    -6281    -6207    -6041    -5886 
   -5783    -5728    -5796    -5999    -6173    -6232    -6259    -6245 
   -6122    -5979    -5938    -5973    -5995    -5981    -5957    -5945 
   -5950    -5962    -5976    -5985    -6003    -6052    -6106    -6119 
   -6102    -6084    -6037    -5910    -5730    -5591    -5555    -5603 
   -5705    -5822    -5911    -5926    -5857    -5769    -5761    -5867 
   -6008    -6060    -5971    -5822    -5709    -5665    -5698    -5779 
   -5840    -5852    -5827    -5768    -5697    -5626    -5513    -5344 
   -5190    -5100    -5081    -5159    -5344    -5570    -5717    -5718 
   -5626    -5559    -5547    -5535    -5517    -5541    -5559    -5495 
   -5402    -5374    -5413    -5487    -5562    -5605    -5644    -5756 
   -5907    -5950    -5848    -5726    -5659    -5584    -5493    -5466 
   -5495    -5471    -5336    -5182    -5124    -5175    -5292    -5437 
   -5552    -5567    -5529    -5556    -5675    -5836    -6003    -6162 
   -6259    -6197    -5960    -5688    -5553    -5589    -5726    -5880 
   -6002    -6079    -6110    -6091    -6075    -6103    -6149    -6181 
   -6205    -6211    -6184    -6123    -5984    -5742    -5512    -5449 
   -5559    -5699    -5807    -5929    -6060    -6115    -6041    -5908 
   -5829    -5814    -5803    -5780    -5751    -5713    -5698    -5748 
   -5826    -5864    -5848    -5764    -5607    -5478    -5491    -5618 
   -5778    -5977    -6223    -6430    -6500    -6419    -6232    -6003 
   -5817    -5719    -5656    -5571    -5501    -5472    -5458    -5459 
   -5506    -5601    -5729    -5877    -5980    -5964    -5872    -5802 
   -5759    -5703    -5647    -5606    -5575    -5567    -5589    -5621 
   -5638    -5665    -5738    -5814    -5857    -5894    -5949    -6016 
   -6110    -6219    -6276    -6219    -6097    -5991    -5903    -5802 
   -5728    -5736    -5806    -5856    -5814    -5705    -5625    -5638 
   -5738    -5864    -5937    -5931    -5857    -5710    -5522    -5406 
   -5395    -5381    -5274    -5124    -5035    -5053    -5136    -5216 
   -5256    -5262    -5224    -5155    -5132    -5219    -5394    -5587 
   -5724    -5759    -5687    -5535    -5346    -5178    -5101    -5170 
   -5347    -5529    -5647    -5697    -5717    -5741    -5776    -5834 
   -5935    -6041    -6045    -5900    -5665    -5408    -5166    -5015 
   -5036    -5202    -5356    -5344    -5184    -5061    -5092    -5212 
   -5341    -5472    -5557    -5544    -5497    -5522    -5599    -5664 
   -5733    -5814    -5836    -5760    -5672    -5682    -5776    -5863 
   -5922    -6010    -6120    -6200    -6255    -6316    -6377    -6412 
   -6401    -6351    -6297    -6268    -6286    -6370    -6488    -6567 
   -6585    -6604    -6652    -6673    -6639    -6598    -6565    -6501 
   -6416    -6365    -6357    -6345    -6277    -6158    -6027    -5894 
   -5757    -5638    -5530    -5408    -5314    -5328    -5451    -5614 
   -5738    -5752    -5630    -5429    -5262    -5194    -5201    -5269 
   -5406    -5584    -5763    -5895    -5956    -5977    -5996    -6029 
   -6087    -6184    -6295    -6336    -6258    -6111    -5973    -5853 
   -5748    -5670    -5613    -5570    -5575    -5670    -5848    -6053 
   -6230    -6338    -6347    -6265    -6123    -5972    -5838    -5697 
   -5533    -5400    -5346    -5352    -5398    -5468    -5520    -5501 
   -5416    -5316    -5240    -5196    -5213    -5347    -5560    -5733 
   -5814    -5813    -5728    -5594    -5499    -5506    -5597    -5705 
   -5783    -5817    -5834    -5856    -5861    -5834    -5796    -5753 
   -5678    -5571    -5456    -5339    -5236    -5184    -5178    -5201 
   -5266    -5379    -5485    -5520    -5483    -5402    -5287    -5144 
   -4988    -4855    -4797    -4831    -4912    -4990    -5086    -5221 
   -5340    -5410    -5494    -5637    -5807    -5952    -6006    -5968 
   -5926    -5935    -5987    -6057    -6123    -6165    -6181    -6193 
   -6208    -6200    -6187    -6214    -6284    -6359    -6440    -6555 
   -6687    -6766    -6732    -6586    -6390    -6203    -6021    -5822 
   -5649    -5574    -5601    -5676    -5764    -5860    -5946    -5975 
   -5944    -5906    -5923    -6004    -6106    -6205    -6312    -6439 
   -6562    -6615    -6548    -6400    -6261    -6162    -6069    -5984 
   -5973    -6041    -6089    -6046    -5940    -5803    -5667    -5571 
   -5495    -5412    -5343    -5323    -5332    -5328    -5329    -5364 
   -5412    -5472    -5560    -5636    -5661    -5672    -5740    -5877 
   -6037    -6184    -6318    -6420    -6480    -6509    -6505    -6439 
   -6339    -6259    -6200    -6122    -5996    -5865    -5782    -5729 
   -5663    -5610    -5607    -5598    -5518    -5391    -5244    -5076 
   -4881    -4677    -4498    -4384    -4336    -4329    -4379    -4519 
   -4731    -4951    -5150    -5331    -5485    -5601    -5698    -5776 
   -5826    -5863    -5892    -5883    -5825    -5794    -5841    -5914 
   -5968    -6021    -6081    -6141    -6204    -6308    -6485    -6691 
   -6829    -6816    -6648    -6407    -6181    -6015    -5918    -5860 
   -5788    -5682    -5549    -5417    -5324    -5287    -5279    -5294 
   -5351    -5394    -5337    -5206    -5111    -5071    -5054    -5058 
   -5067    -5065    -5082    -5147    -5266    -5433    -5607    -5744 
   -5849    -5931    -5980    -6026    -6110    -6237    -6384    -6528 
   -6651    -6754    -6841    -6885    -6844    -6743    -6619    -6471 
   -6291    -6099    -5938    -5827    -5745    -5656    -5552    -5452 
   -5347    -5223    -5105    -5011    -4927    -4861    -4826    -4815 
   -4839    -4911    -5012    -5130    -5259    -5389    -5491    -5543 
   -5525    -5459    -5412    -5425    -5493    -5591    -5709    -5833 
   -5954    -6072    -6180    -6276    -6349    -6388    -6384    -6336 
   -6280    -6268    -6277    -6247    -6180    -6110    -6043    -5962 
   -5872    -5814    -5798    -5782    -5736    -5678    -5636    -5594 
   -5544    -5509    -5505    -5529    -5571    -5618    -5655    -5667 
