Origin Time       2025/06/03 22:18:00
Lat.              41.7
Long.             143.6
Depth. (km)       30
Mag.              5.2
Station Code      HKD109
Station Lat.      42.1678
Station Long.     142.7673
Station Height(m) 4
Record Time       2025/06/03 22:18:56
Sampling Freq(Hz) 100Hz
Duration Time(s)  61
Dir.              E-W
Scale Factor      7845(gal)/8223790
Max. Acc. (gal)   3.038
Last Correction   2025/06/03 22:18:56
Memo.             
[...]
   -3277    -3280    -3284    -3281    -3275    -3268    -3268    -3275 
   -3285    -3289    -3287    -3276    -3261    -3250    -3253    -3258 
   -3260    -3264    -3279    -3295    -3310    -3329    -3353    -3385 
   -3414    -3426    -3424    -3419    -3422    -3446    -3480    -3492 
   -3477    -3442    -3403    -3392    -3415    -3450    -3477    -3473 
   -3412    -3310    -3230    -3227    -3279    -3316    -3284    -3191 
   -3105    -3084    -3121    -3161    -3160    -3096    -2984    -2866 
   -2776    -2755    -2832    -2976    -3087    -3088    -3022    -3003 
   -3086    -3223    -3352    -3469    -3573    -3596    -3503    -3391 
   -3404    -3565    -3763    -3862    -3796    -3620    -3460    -3433 
   -3580    -3789    -3871    -3751    -3520    -3288    -3100    -2974 
   -2936    -2970    -2990    -2934    -2840    -2812    -2907    -3063 
   -3157    -3149    -3090    -3048    -3059    -3123    -3250    -3441 
   -3612    -3643    -3543    -3461    -3480    -3566    -3707    -3865 
   -3875    -3620    -3217    -2913    -2893    -3103    -3291    -3258 
   -3052    -2844    -2762    -2848    -3069    -3298    -3361    -3198 
   -2922    -2756    -2821    -3030    -3207    -3250    -3198    -3153 
   -3184    -3325    -3566    -3792    -3862    -3769    -3638    -3557 
   -3501    -3461    -3472    -3496    -3429    -3248    -3065    -3006 
   -3076    -3163    -3167    -3110    -3073    -3064    -3052    -3123 
   -3388    -3758    -4010    -4052    -3956    -3797    -3626    -3507 
   -3485    -3554    -3635    -3608    -3399    -3067    -2782    -2679 
   -2718    -2732    -2598    -2384    -2282    -2427    -2741    -3019 
   -3122    -3042    -2851    -2636    -2511    -2597    -2920    -3350 
   -3747    -4047    -4213    -4236    -4171    -4079    -3977    -3863 
   -3767    -3696    -3634    -3577    -3516    -3389    -3144    -2847 
   -2617    -2490    -2447    -2498    -2627    -2781    -2938    -3111 
   -3314    -3578    -3877    -4097    -4186    -4228    -4290    -4341 
   -4351    -4330    -4263    -4089    -3780    -3406    -3121    -3028 
   -3068    -3110    -3064    -2928    -2776    -2702    -2740    -2839 
   -2921    -2961    -2953    -2898    -2845    -2874    -2998    -3156 
   -3249    -3192    -3005    -2809    -2702    -2708    -2824    -3033 
   -3258    -3392    -3381    -3288    -3261    -3393    -3600    -3717 
   -3692    -3589    -3481    -3389    -3331    -3327    -3391    -3503 
   -3609    -3663    -3670    -3639    -3549    -3385    -3196    -3002 
   -2758    -2473    -2230    -2085    -2026    -2046    -2182    -2438 
   -2739    -3024    -3306    -3600    -3858    -4027    -4097    -4085 
   -4044    -4039    -4052    -4025    -3936    -3788    -3591    -3353 
   -3092    -2863    -2740    -2759    -2880    -3046    -3246    -3493 
   -3743    -3917    -3987    -3974    -3916    -3867    -3851    -3809 
   -3688    -3478    -3183    -2820    -2490    -2278    -2191    -2200 
   -2262    -2335    -2450    -2655    -2941    -3264    -3585    -3878 
   -4114    -4247    -4237    -4120    -3975    -3851    -3731    -3584 
   -3396    -3183    -2978    -2824    -2720    -2633    -2539    -2455 
   -2417    -2462    -2612    -2844    -3088    -3302    -3493    -3676 
   -3817    -3896    -3925    -3944    -3959    -3943    -3869    -3754 
   -3649    -3585    -3557    -3516    -3412    -3250    -3087    -2970 
   -2903    -2882    -2918    -2994    -3072    -3152    -3283    -3473 
   -3665    -3777    -3804    -3801    -3812    -3808    -3728    -3568 
   -3395    -3276    -3214    -3154    -3041    -2887    -2758    -2713 
   -2759    -2821    -2816    -2755    -2721    -2744    -2781    -2826 
   -2928    -3099    -3306    -3503    -3667    -3793    -3854    -3805 
   -3659    -3510    -3429    -3383    -3311    -3231    -3203    -3254 
   -3337    -3385    -3393    -3376    -3329    -3261    -3225    -3267 
   -3379    -3507    -3599    -3661    -3728    -3778    -3740    -3591 
   -3395    -3241    -3149    -3068    -2941    -2759    -2558    -2405 
   -2371    -2474    -2659    -2851    -3021    -3188    -3369    -3549 
   -3689    -3744    -3680    -3508    -3308    -3142    -3021    -2937 
   -2897    -2901    -2934    -2976    -3033    -3122    -3244    -3383 
   -3526    -3658    -3750    -3794    -3828    -3886    -3960    -3998 
   -3960    -3852    -3715    -3586    -3453    -3277    -3075    -2902 
   -2794    -2748    -2735    -2713    -2666    -2647    -2736    -2920 
   -3119    -3304    -3484    -3655    -3798    -3883    -3885    -3807 
   -3654    -3442    -3218    -3038    -2898    -2732    -2533    -2378 
   -2330    -2382    -2500    -2652    -2844    -3075    -3319    -3565 
   -3802    -3993    -4104    -4135    -4098    -4009    -3867    -3688 
   -3514    -3377    -3268    -3164    -3065    -3009    -3014    -3055 
   -3096    -3134    -3176    -3214    -3237    -3272    -3369    -3516 
   -3640    -3701    -3716    -3721    -3724    -3723    -3707    -3638 
   -3484    -3254    -2988    -2732    -2525    -2403    -2370    -2439 
   -2625    -2906    -3203    -3461    -3688    -3908    -4118    -4275 
   -4329    -4259    -4082    -3829    -3537    -3237    -2955    -2700 
   -2502    -2401    -2400    -2467    -2554    -2637    -2751    -2934 
   -3159    -3354    -3501    -3628    -3762    -3892    -3978    -3981 
   -3902    -3802    -3738    -3703    -3657    -3566    -3429    -3257 
   -3086    -2937    -2810    -2705    -2621    -2567    -2585    -2708 
   -2926    -3191    -3445    -3649    -3808    -3936    -4031    -4075 
   -4064    -4012    -3927    -3805    -3647    -3445    -3196    -2934 
   -2710    -2546    -2430    -2361    -2351    -2427    -2600    -2840 
   -3057    -3186    -3217    -3184    -3140    -3141    -3213    -3342 
   -3465    -3516    -3483    -3388    -3258    -3098    -2911    -2754 
   -2708    -2783    -2897    -2987    -3061    -3146    -3246    -3333 
   -3387    -3429    -3484    -3549    -3613    -3678    -3734    -3758 
   -3736    -3677    -3608    -3551    -3510    -3470    -3416    -3342 
   -3271    -3223    -3192    -3180    -3203    -3245    -3276    -3299 
   -3325    -3341    -3314    -3235    -3136    -3076    -3098    -3194 
   -3321    -3458    -3613    -3763    -3861    -3867    -3797    -3701 
   -3620    -3557    -3495    -3422    -3348    -3272    -3172    -3048 
   -2925    -2847    -2837    -2886    -2959    -3030    -3083    -3136 
   -3221    -3364    -3550    -3717    -3798    -3766    -3653    -3519 
   -3383    -3242    -3115    -3007    -2911    -2843    -2824    -2845 
   -2884    -2911    -2911    -2890    -2875    -2913    -3021    -3157 
   -3275    -3375    -3470    -3562    -3630    -3650    -3628    -3570 
   -3480    -3376    -3275    -3195    -3134    -3065    -2970    -2883 
   -2848    -2860    -2899    -2964    -3057    -3173    -3306    -3441 
   -3561    -3638    -3643    -3595    -3534    -3488    -3454    -3412 
   -3356    -3303    -3269    -3248    -3226    -3192    -3153    -3145 
   -3181    -3253    -3341    -3404    -3416    -3393    -3366    -3342 
   -3310    -3265    -3222    -3191    -3179    -3195    -3252    -3338 
   -3430    -3497    -3526    -3541    -3570    -3603    -3607    -3578 
   -3537    -3492    -3426    -3325    -3206    -3103    -3046    -3036 
   -3049    -3076    -3121    -3183    -3256    -3323    -3360    -3357 
   -3331    -3306    -3303    -3339    -3411    -3469    -3477    -3449 
   -3418    -3404    -3400    -3383    -3337    -3275    -3214    -3164 
   -3123    -3091    -3076    -3100    -3167    -3241    -3292    -3312 
   -3311    -3296    -3258    -3196    -3132    -3075    -3025    -2984 
   -2956    -2959    -3017    -3132    -3300    -3500    -3685    -3809 
   -3859    -3855    -3824    -3765    -3665    -3530    -3381    -3244 
   -3138    -3064    -3002    -2959    -2945    -2951    -2963    -2980 
   -3030    -3127    -3252    -3366    -3447    -3499    -3528    -3547 
   -3543    -3516    -3481    -3445    -3407    -3387    -3389    -3404 
   -3404    -3365    -3275    -3150    -3042    -2979    -2941    -2909 
   -2893    -2903    -2945    -3022    -3132    -3265    -3403    -3520 
   -3603    -3657    -3688    -3703    -3715    -3723    -3705    -3627 
   -3473    -3267    -3037    -2810    -2612    -2470    -2411    -2423 
   -2471    -2540    -2654    -2812    -2964    -3075    -3165    -3283 
   -3449    -3630    -3771    -3863    -3931    -3979    -3987    -3943 
   -3865    -3782    -3697    -3593    -3449    -3258    -3040    -2829 
   -2671    -2586    -2563    -2586    -2651    -2758    -2911    -3111 
   -3319    -3478    -3569    -3593    -3578    -3557    -3553    -3557 
   -3549    -3519    -3480    -3443    -3415    -3400    -3395    -3397 
   -3404    -3400    -3379    -3366    -3393    -3456    -3538    -3623 
   -3689    -3700    -3646    -3535    -3395    -3260    -3141    -3030 
   -2937    -2882    -2863    -2862    -2872    -2905    -2971    -3067 
   -3195    -3350    -3514    -3666    -3794    -3890    -3969    -4035 
   -4070    -4051    -3964    -3805    -3588    -3362    -3175    -3018 
   -2857    -2686    -2519    -2384    -2313    -2313    -2370    -2485 
   -2667    -2905    -3149    -3358    -3519    -3646    -3763    -3865 
   -3919    -3916    -3874    -3824    -3774    -3721    -3667    -3597 
   -3491    -3343    -3173    -2995    -2818    -2668    -2562    -2504 
   -2496    -2539    -2643    -2802    -3006    -3230    -3445    -3618 
   -3747    -3848    -3912    -3915    -3865    -3793    -3704    -3581 
   -3422    -3222    -3010    -2836    -2724    -2678    -2686    -2713 
   -2736    -2763    -2808    -2875    -2968    -3096    -3258    -3434 
   -3577    -3651    -3662    -3627    -3542    -3426    -3326    -3275 
   -3275    -3300    -3325    -3333    -3329    -3314    -3287    -3248 
   -3210    -3181    -3148    -3100    -3034    -2949    -2871    -2829 
   -2835    -2894    -3003    -3134    -3264    -3373    -3451    -3503 
   -3553    -3616    -3688    -3758    -3820    -3871    -3910    -3939 
   -3950    -3933    -3896    -3824    -3711    -3574    -3450    -3349 
   -3257    -3156    -3055    -2984    -2965    -3010    -3115    -3237 
   -3315    -3322    -3268    -3196    -3154    -3157    -3195    -3248 
   -3304    -3349    -3369    -3385    -3420    -3451    -3450    -3429 
   -3423    -3450    -3507    -3576    -3639    -3673    -3654    -3576 
   -3449    -3292    -3138    -3026    -2978    -2982    -2999    -2992 
   -2955    -2906    -2862    -2822    -2790    -2768    -2751    -2732 
   -2727    -2740    -2763    -2795    -2862    -2974    -3129    -3314 
   -3499    -3674    -3832    -3947    -3991    -3955    -3865    -3754 
   -3630    -3492    -3358    -3248    -3175    -3140    -3133    -3168 
   -3254    -3370    -3480    -3566    -3638    -3700    -3738    -3744 
   -3727    -3685    -3608    -3505    -3395    -3298    -3227    -3184 
   -3169    -3191    -3242    -3295    -3304    -3275    -3235    -3198 
   -3150    -3103    -3084    -3123    -3225    -3356    -3476    -3578 
   -3658    -3708    -3726    -3717    -3689    -3632    -3537    -3415 
   -3294    -3176    -3059    -2949    -2855    -2779    -2720    -2678 
   -2648    -2608    -2547    -2486    -2446    -2439    -2470    -2539 
   -2646    -2785    -2932    -3078    -3226    -3388    -3557    -3715 
   -3850    -3950    -4010    -4035    -4014    -3952    -3862    -3747 
   -3588    -3380    -3156    -2955    -2794    -2683    -2637    -2666 
   -2766    -2913    -3071    -3218    -3349    -3451    -3507    -3520 
   -3511    -3500    -3503    -3510    -3493    -3445    -3380    -3307 
   -3222    -3145    -3094    -3067    -3055    -3052    -3053    -3052 
   -3033    -3003    -2990    -3007    -3046    -3092    -3114    -3083 
   -2998    -2882    -2744    -2585    -2415    -2249    -2110    -2033 
   -2041    -2135    -2297    -2496    -2700    -2897    -3092    -3273 
   -3407    -3474    -3476    -3435    -3376    -3316    -3265    -3214 
   -3150    -3071    -2983    -2910    -2878    -2875    -2890    -2909 
   -2924    -2938    -2967    -3013    -3064    -3107    -3140    -3173 
   -3211    -3260    -3342    -3488    -3699    -3944    -4186    -4402 
   -4573    -4691    -4762    -4793    -4789    -4757    -4693    -4604 
   -4510    -4432    -4379    -4386    -4473    -4618    -4791    -4986 
   -5213    -5458    -5670    -5782    -5757    -5591    -5285    -4850 
   -4351    -3866    -3457    -3144    -2913    -2751    -2644    -2592 
   -2593    -2640    -2701    -2747    -2752    -2697    -2567    -2353 
   -2065    -1741    -1435    -1200    -1074    -1089    -1262    -1568 
   -1957    -2374    -2762    -3068    -3269    -3375    -3403    -3357 
   -3242    -3072    -2878    -2695    -2563    -2509    -2544    -2666 
   -2835    -3002    -3141    -3222    -3226    -3164    -3059    -2928 
   -2786    -2633    -2481    -2359    -2290    -2285    -2326    -2389 
   -2485    -2633    -2839    -3098    -3389    -3674    -3921    -4109 
   -4210    -4213    -4151    -4083    -4059    -4099    -4213    -4382 
   -4556    -4672    -4689    -4588    -4367    -4054    -3688    -3299 
   -2932    -2625    -2412    -2307    -2308    -2389    -2528    -2714 
   -2948    -3215    -3489    -3747    -3981    -4191    -4364    -4461 
   -4441    -4290    -4033    -3701    -3321    -2930    -2574    -2307 
   -2180    -2216    -2424    -2787    -3264    -3815    -4415    -5032 
   -5611    -6077    -6370    -6469    -6369    -6091    -5682    -5174 
   -4581    -3925    -3229    -2515    -1830    -1228     -741     -395 
    -211     -193     -295     -487     -760    -1089    -1476    -1945 
   -2486    -3061    -3615    -4087    -4423    -4588    -4583    -4452 
   -4256    -4040    -3850    -3728    -3697    -3762    -3932    -4187 
   -4483    -4754    -4927    -4939    -4770    -4442    -4021    -3568 
   -3115    -2693    -2331    -2042    -1826    -1686    -1615    -1609 
   -1645    -1696    -1749    -1831    -1979    -2204    -2484    -2787 
   -3096    -3373    -3572    -3682    -3721    -3700    -3612    -3449 
   -3222    -2953    -2673    -2401    -2165    -2004    -1958    -2038 
   -2251    -2587    -3021    -3504    -3983    -4418    -4776    -5012 
   -5081    -4949    -4610    -4094    -3458    -2786    -2160    -1663 
   -1364    -1285    -1390    -1628    -1939    -2278    -2609    -2899 
   -3140    -3349    -3568    -3839    -4156    -4471    -4712    -4826 
   -4787    -4603    -4305    -3963    -3658    -3437    -3312    -3279 
   -3325    -3434    -3603    -3815    -4018    -4176    -4263    -4255 
   -4132    -3898    -3581    -3221    -2868    -2589    -2438    -2436 
   -2556    -2739    -2921    -3046    -3072    -2997    -2853    -2681 
   -2506    -2353    -2246    -2230    -2320    -2489    -2702    -2936 
   -3175    -3406    -3643    -3912    -4210    -4513    -4788    -5001 
   -5134    -5182    -5154    -5067    -4943    -4781    -4573    -4313 
   -4000    -3642    -3250    -2836    -2412    -1995    -1610    -1270 
   -1000     -843     -824     -949    -1194    -1505    -1817    -2085 
   -2296    -2458    -2577    -2667    -2759    -2889    -3080    -3333 
   -3636    -3978    -4342    -4710    -5066    -5417    -5768    -6087 
   -6322    -6439    -6431    -6300    -6050    -5686    -5217    -4661 
   -4070    -3493    -2976    -2575    -2330    -2222    -2191    -2181 
   -2158    -2084    -1929    -1703    -1448    -1215    -1057     -994 
   -1016    -1105    -1247    -1421    -1611    -1811    -2007    -2181 
   -2331    -2451    -2536    -2593    -2646    -2735    -2921    -3249 
   -3711    -4266    -4838    -5340    -5710    -5923    -6002    -5991 
   -5919    -5779    -5530    -5162    -4708    -4206    -3682    -3157 
   -2662    -2231    -1890    -1649    -1539    -1566    -1718    -1985 
   -2339    -2729    -3127    -3518    -3862    -4118    -4263    -4280 
   -4170    -3946    -3634    -3277    -2944    -2681    -2504    -2419 
   -2413    -2466    -2571    -2722    -2905    -3103    -3307    -3499 
   -3655    -3757    -3790    -3748    -3646    -3507    -3348    -3187 
   -3053    -2968    -2940    -2963    -3019    -3096    -3180    -3246 
   -3288    -3302    -3289    -3276    -3296    -3407    -3640    -3997 
   -4434    -4881    -5243    -5451    -5466    -5274    -4887    -4337 
   -3680    -2995    -2365    -1830    -1406    -1116     -994    -1063 
   -1308    -1679    -2135    -2635    -3091    -3420    -3588    -3599 
   -3481    -3268    -2998    -2735    -2546    -2473    -2527    -2686 
   -2899    -3114    -3289    -3427    -3565    -3747    -4004    -4324 
   -4665    -4978    -5219    -5355    -5382    -5309    -5155    -4930 
   -4629    -4240    -3766    -3231    -2668    -2119    -1615    -1190 
    -868     -656     -561     -611     -835    -1251    -1831    -2519 
   -3241    -3929    -4530    -5012    -5346    -5520    -5543    -5431 
   -5197    -4853    -4433    -3979    -3542    -3164    -2884    -2724 
   -2678    -2736    -2876    -3079    -3341    -3636    -3921    -4139 
   -4241    -4212    -4074    -3866    -3619    -3384    -3196    -3052 
   -2937    -2835    -2737    -2670    -2643    -2639    -2628    -2581 
   -2484    -2331    -2133    -1931    -1796    -1769    -1852    -2031 
   -2280    -2566    -2889    -3241    -3591    -3931    -4264    -4568 
   -4816    -4993    -5085    -5090    -5013    -4854    -4630    -4367 
   -4094    -3839    -3604    -3384    -3188    -3005    -2806    -2581 
   -2323    -2045    -1771    -1539    -1382    -1313    -1323    -1409 
   -1568    -1798    -2106    -2478    -2853    -3157    -3348    -3412 
   -3370    -3260    -3133    -3046    -3040    -3130    -3299    -3510 
   -3730    -3948    -4164    -4388    -4625    -4861    -5062    -5196 
   -5239    -5154    -4918    -4534    -4050    -3532    -3076    -2748 
   -2575    -2529    -2555    -2604    -2660    -2733    -2835    -2964 
   -3121    -3295    -3473    -3635    -3758    -3825    -3829    -3751 
   -3578    -3341    -3080    -2814    -2539    -2258    -1987    -1755 
   -1599    -1551    -1625    -1831    -2154    -2560    -3013    -3460 
   -3852    -4162    -4363    -4450    -4438    -4345    -4197    -4009 
   -3796    -3572    -3362    -3198    -3091    -3064    -3142    -3339 
   -3618    -3909    -4156    -4328    -4414    -4426    -4378    -4288 
   -4174    -4032    -3863    -3672    -3469    -3272    -3090    -2930 
   -2812    -2754    -2755    -2810    -2914    -3046    -3187    -3315 
   -3414    -3473    -3500    -3507    -3514    -3530    -3555    -3582 
   -3586    -3541    -3418    -3207    -2938    -2656    -2403    -2199 
   -2050    -1957    -1906    -1895    -1934    -2039    -2222    -2484 
   -2808    -3165    -3524    -3850    -4108    -4275    -4334    -4288 
   -4171    -4023    -3861    -3699    -3543    -3391    -3230    -3046 
   -2830    -2585    -2319    -2060    -1846    -1709    -1678    -1782 
   -1998    -2290    -2647    -3038    -3426    -3775    -4064    -4278 
   -4394    -4395    -4295    -4117    -3881    -3607    -3316    -3015 
   -2727    -2485    -2315    -2241    -2274    -2411    -2646    -2960 
   -3322    -3696    -4037    -4317    -4530    -4668    -4723    -4695 
   -4588    -4423    -4224    -4004    -3790    -3605    -3458    -3335 
