Origin Time       2025/06/03 22:18:00
Lat.              41.7
Long.             143.6
Depth. (km)       30
Mag.              5.2
Station Code      HKD111
Station Lat.      42.0170
Station Long.     143.1487
Station Height(m) 22
Record Time       2025/06/03 22:18:45
Sampling Freq(Hz) 100Hz
Duration Time(s)  60
Dir.              U-D
Scale Factor      7845(gal)/8223790
Max. Acc. (gal)   1.332
Last Correction   2025/06/03 22:18:46
Memo.             
[...]
   32097    32096    32093    32096    32098    32098    32097    32098 
   32096    32092    32093    32097    32097    32094    32096    32098 
   32097    32097    32097    32097    32097    32096    32094    32096 
   32096    32096    32097    32097    32096    32094    32096    32097 
   32096    32096    32097    32098    32097    32096    32096    32096 
   32097    32097    32097    32096    32098    32098    32094    32093 
   32094    32097    32100    32097    32094    32096    32096    32094 
   32096    32097    32096    32096    32097    32097    32094    32093 
   32094    32097    32098    32096    32094    32097    32097    32096 
   32096    32096    32094    32096    32097    32097    32096    32097 
   32098    32097    32097    32096    32094    32097    32097    32096 
   32097    32100    32096    32094    32097    32100    32096    32092 
   32093    32098    32100    32096    32094    32097    32098    32096 
   32093    32094    32097    32097    32096    32096    32096    32097 
   32097    32094    32094    32097    32100    32098    32096    32096 
   32097    32098    32096    32094    32096    32096    32096    32097 
   32096    32096    32094    32096    32098    32096    32094    32097 
   32097    32096    32096    32094    32094    32097    32097    32094 
   32097    32100    32096    32094    32097    32096    32094    32094 
   32096    32097    32097    32094    32094    32097    32096    32094 
   32094    32096    32096    32096    32097    32097    32097    32097 
   32096    32094    32094    32096    32096    32094    32096    32096 
   32096    32096    32096    32096    32096    32096    32097    32097 
   32096    32096    32096    32097    32098    32097    32098    32098 
   32098    32098    32097    32096    32096    32096    32096    32094 
   32094    32097    32098    32094    32094    32098    32097    32094 
   32096    32096    32094    32096    32096    32094    32097    32098 
   32097    32094    32096    32098    32097    32097    32096    32096 
   32097    32097    32094    32093    32097    32098    32096    32094 
   32096    32096    32094    32096    32097    32098    32097    32096 
   32096    32097    32098    32096    32094    32094    32094    32094 
   32096    32098    32097    32096    32096    32097    32096    32096 
   32094    32094    32098    32097    32096    32096    32097    32096 
   32096    32096    32094    32094    32096    32094    32093    32097 
   32097    32097    32097    32097    32096    32096    32094    32094 
   32096    32093    32094    32096    32093    32094    32097    32097 
   32094    32094    32097    32096    32093    32096    32094    32092 
   32096    32098    32094    32092    32094    32093    32094    32098 
   32097    32094    32096    32097    32097    32096    32094    32094 
   32093    32093    32094    32090    32089    32086    32084    32085 
   32084    32078    32073    32067    32057    32049    32051    32067 
   32090    32098    32090    32084    32100    32140    32167    32134 
   32053    31992    31993    32044    32109    32119    32034    31947 
   31993    32101    32113    32017    31889    31788    31779    31882 
   32015    32077    32042    31959    31911    31963    32077    32134 
   32074    31914    31766    31858    32166    32297    32117    31980 
   32035    32061    32032    32131    32309    32397    32373    32270 
   32163    32229    32398    32308    31997    31930    32107    32202 
   32273    32383    32314    32077    31924    31970    32067    31978 
   31761    31700    31849    32008    32058    32036    32055    32184 
   32281    32224    32251    32463    32454    32007    31607    31791 
   32296    32429    32178    32039    32138    32244    32159    31942 
   31904    32178    32454    32385    32081    31986    32130    32084 
   31934    32150    32485    32350    31982    32007    32389    32638 
   32536    32320    32132    31797    31468    31546    31946    32217 
   32174    32125    32346    32613    32621    32323    31941    31827 
   31935    32028    32189    32289    31985    31606    31810    32460 
   32688    32251    31970    32173    32227    32105    32285    32427 
   32092    31780    32017    32479    32587    32239    31904    31982 
   32152    32107    32171    32460    32547    32304    32154    32352 
   32555    32400    32163    32209    32413    32528    32348    31968 
   31797    31827    31918    32093    32139    32115    32290    32401 
   32170    31834    31714    31714    31522    31356    31654    32184 
   32367    32004    31463    31391    31789    31972    31843    31919 
   32158    32130    31981    32055    32077    31719    31398    31654 
   32224    32381    32088    32024    32250    32171    31818    31735 
   31935    31995    31892    31988    32296    32458    32370    32238 
   32080    31911    32039    32282    32069    31654    31644    31985 
   32200    32034    31885    32166    32460    32240    31897    32070 
   32378    32012    31355    31541    32414    32665    32077    31716 
   32043    32460    32424    32055    31862    32026    32143    32055 
   32155    32391    32371    32350    32539    32533    32130    31661 
   31596    32005    32447    32508    32212    31963    32023    32130 
   32112    32179    32271    32201    32121    32101    32080    32240 
   32575    32663    32296    31804    31665    31949    32216    32080 
   31830    32035    32482    32444    32032    32093    32655    32713 
   32093    31869    32346    32636    32397    32274    32533    32616 
   32351    32167    32100    31873    31592    31615    31914    32103 
   32082    32027    32049    32247    32541    32526    32101    31711 
   31677    31918    32194    32301    32163    32032    32225    32439 
   32244    31972    31946    31918    31843    31966    32113    32043 
   32026    32254    32386    32100    31569    31268    31399    31669 
   31796    31792    31795    31978    32254    32351    32296    32275 
   32323    32348    32252    32070    31892    31766    31762    31868 
   31953    31974    32040    32154    32123    31939    31907    32155 
   32375    32335    32350    32622    32718    32429    32185    32193 
   32205    32112    32019    31918    31818    31897    32119    32167 
   31943    31631    31460    31642    32138    32512    32464    32279 
   32278    32374    32422    32371    32174    31926    31768    31769 
   31972    32212    32246    32113    31992    31932    31945    31996 
   32043    32046    31958    31885    31945    31951    31800    31792 
   31993    32028    31861    31946    32329    32417    32057    31853 
   32017    32092    31942    31920    32167    32402    32335    32111 
   32015    32069    32205    32259    32017    31652    31592    31926 
   32238    32147    31841    31784    32059    32364    32464    32323 
   32040    31855    31823    31812    31881    32113    32302    32314 
   32319    32398    32410    32283    32157    32152    32167    32112 
   32082    32065    32044    32131    32212    32067    31860    31905 
   32078    32063    32004    32104    32148    32038    32035    32185 
   32169    31976    31996    32254    32373    32271    32170    32189 
   32294    32394    32444    32466    32497    32548    32589    32574 
   32489    32404    32360    32235    31958    31716    31752    32049 
   32233    32063    31833    31905    32202    32354    32216    32022 
   32042    32317    32589    32518    32228    32111    32177    32189 
   32121    32132    32178    32007    31683    31592    31780    31912 
   31849    31761    31787    31885    32023    32162    32159    32011 
   31928    31992    32127    32233    32177    31919    31692    31747 
   31990    32109    31995    31872    31992    32181    32097    31872 
   31896    32173    32385    32363    32211    32090    32049    31995 
   31830    31657    31681    31864    31976    31931    31884    32016 
   32254    32341    32152    31865    31799    31996    32165    32202 
   32300    32471    32510    32436    32385    32287    32112    32015 
   32078    32188    32217    32206    32202    32143    32047    32034 
   32081    32039    31905    31830    31866    31947    32012    31990 
   31924    31981    32077    31986    31878    32044    32329    32406 
   32225    32032    32055    32213    32289    32175    32004    32069 
   32327    32416    32254    32054    31992    32065    32134    32098 
   31988    31919    31972    32104    32275    32422    32432    32324 
   32238    32263    32339    32333    32254    32217    32233    32278 
   32323    32277    32169    32146    32198    32173    32071    32007 
   31965    31850    31637    31415    31353    31522    31770    31909 
   31978    32097    32175    32103    31989    31972    32005    31990 
   31915    31880    32003    32217    32325    32270    32232    32358 
   32508    32439    32204    32022    31932    31895    31930    31997 
   32017    32046    32178    32331    32327    32177    32074    32044 
   31931    31820    31920    32085    32059    31938    31924    31973 
   31993    32038    32067    31946    31785    31773    31818    31799 
   31835    32016    32177    32171    32138    32229    32341    32305 
   32131    31988    31999    32066    32030    31978    32039    32132 
   32229    32360    32390    32247    32157    32296    32448    32370 
   32184    32131    32243    32347    32324    32256    32258    32323 
   32373    32371    32378    32405    32351    32189    32047    31999 
   32017    32073    32090    32017    31924    31861    31822    31877 
   32043    32157    32063    31884    31866    31986    32044    32016 
   31949    31872    31907    32077    32184    32131    32058    32101 
   32236    32344    32328    32212    32105    32055    31996    31895 
   31874    32000    32063    31941    31842    31857    31845    31870 
   32058    32273    32351    32287    32157    32050    31985    31903 
   31837    31899    32047    32036    31800    31671    31851    32069 
   32084    31997    31972    32028    32073    32053    32032    32127 
   32314    32416    32397    32429    32536    32553    32440    32296 
   32208    32186    32144    32049    32038    32146    32196    32134 
   32073    32073    32134    32235    32244    32144    32170    32385 
   32468    32286    32132    32189    32279    32287    32267    32263 
   32337    32497    32620    32643    32568    32370    32117    31951 
   31909    31927    31928    31889    31833    31804    31833    31872 
   31905    31986    32054    31989    31845    31760    31746    31787 
   31923    32062    32032    31874    31741    31683    31652    31594 
   31540    31500    31417    31367    31467    31619    31747    31950 
   32184    32275    32212    32057    31891    31888    32070    32177 
   32070    31945    31939    31945    31884    31857    31908    31932 
   31909    31961    32069    32059    31923    31853    31972    32179 
   32321    32404    32474    32472    32406    32412    32483    32497 
   32443    32394    32383    32422    32462    32471    32528    32656 
   32742    32714    32634    32564    32464    32331    32275    32287 
   32213    32034    31880    31849    31931    32067    32217    32294 
   32213    32081    32046    32019    31885    31726    31639    31581 
   31511    31486    31557    31673    31792    31955    32177    32363 
   32397    32300    32243    32347    32510    32555    32498    32485 
   32536    32563    32470    32221    31914    31725    31726    31816 
   31869    31831    31756    31756    31851    31920    31885    31824 
   31828    31892    31966    31989    31893    31698    31533    31495 
   31509    31498    31502    31541    31588    31660    31781    31930 
   32074    32251    32510    32786    32957    32994    32995    33012 
   32938    32741    32621    32701    32790    32695    32553    32591 
   32757    32826    32702    32485    32367    32382    32370    32293 
   32186    31982    31712    31584    31688    31915    32142    32290 
   32313    32269    32260    32289    32293    32273    32281    32335 
   32424    32528    32570    32529    32572    32802    33041    33099 
   33037    33006    32996    32938    32873    32856    32815    32628 
   32310    32054    31977    32001    32011    32023    32088    32143 
   32143    32121    32039    31810    31482    31263    31309    31495 
   31591    31557    31475    31371    31279    31302    31482    31695 
   31801    31822    31838    31810    31730    31733    31800    31741 
   31554    31399    31315    31241    31145    31064    31099    31307 
   31596    31789    31833    31827    31846    31857    31776    31595 
   31452    31450    31522    31596    31657    31702    31746    31795 
   31824    31847    31905    31999    32066    32085    32167    32405 
   32728    32984    33099    33104    33091    33095    33057    32930 
   32798    32763    32767    32721    32644    32544    32374    32231 
   32250    32363    32452    32544    32667    32732    32665    32498 
   32293    32076    31853    31662    31541    31477    31446    31450 
   31507    31622    31746    31869    32061    32321    32536    32637 
   32644    32580    32458    32312    32174    32096    32136    32204 
   32163    32084    32123    32236    32263    32221    32212    32175 
   32074    32039    32090    32053    31847    31612    31476    31379 
   31199    30964    30788    30704    30699    30777    30921    31062 
   31171    31306    31486    31687    31865    31943    31941    32009 
   32200    32387    32472    32485    32458    32397    32344    32354 
   32409    32421    32343    32247    32254    32414    32647    32836 
   32964    33060    33112    33077    32919    32651    32337    32085 
   31953    31897    31865    31923    32094    32227    32198    32080 
   31992    31965    31954    31941    31959    32054    32206    32359 
   32467    32529    32563    32562    32506    32406    32329    32344 
   32400    32373    32235    32074    31993    32024    32121    32209 
   32231    32202    32178    32166    32138    32089    32004    31855 
   31702    31650    31712    31776    31765    31787    31935    32108 
   32193    32197    32204    32274    32347    32309    32174    32047 
   31965    31896    31850    31874    31976    32128    32313    32475 
   32560    32599    32657    32686    32613    32490    32389    32310 
   32252    32219    32197    32166    32120    32100    32120    32125 
   32096    32067    32077    32103    32077    32019    32004    32017 
   32022    32020    32008    31995    31970    31926    31915    31957 
   31973    31932    31892    31892    31880    31791    31676    31580 
   31475    31406    31426    31486    31552    31634    31706    31747 
   31785    31838    31881    31901    31919    31939    31945    31963 
   32013    32034    32019    32067    32196    32306    32355    32395 
   32467    32544    32578    32535    32412    32267    32147    32057 
   31997    31978    32022    32158    32333    32412    32325    32135 
   31941    31779    31639    31536    31492    31484    31496    31560 
   31681    31815    31936    32067    32215    32356    32451    32454 
   32409    32412    32452    32445    32409    32413    32439    32420 
   32350    32300    32312    32324    32269    32163    32059    31954 
   31835    31761    31772    31801    31800    31816    31872    31904 
   31885    31889    31958    32023    32057    32113    32205    32293 
   32335    32313    32243    32144    32073    32067    32134    32248 
   32341    32324    32240    32227    32317    32404    32408    32355 
   32252    32116    32042    32047    32028    31980    31996    32065 
   32088    32061    32070    32124    32169    32185    32189    32194 
   32209    32196    32117    32015    31935    31872    31841    31851 
   31862    31861    31884    31942    31996    32019    32022    32027 
   32034    32031    32027    32022    32008    32008    32024    32019 
   32009    32057    32158    32223    32204    32171    32197    32224 
   32209    32219    32297    32402    32506    32610    32668    32629 
   32510    32383    32313    32293    32275    32251    32224    32175 
   32109    32050    31990    31928    31918    31968    32012    32022 
   32028    32034    32058    32134    32212    32220    32189    32181 
   32167    32115    32066    32058    32070    32081    32081    32074 
   32092    32158    32260    32360    32420    32445    32470    32503 
   32494    32390    32256    32217    32270    32302    32256    32201 
   32179    32159    32140    32124    32096    32071    32066    32063 
   32054    32050    32019    31909    31777    31725    31708    31625 
   31482    31384    31398    31488    31567    31614    31677    31777 
   31887    31968    31995    31966    31895    31810    31766    31783 
   31804    31804    31849    31968    32108    32213    32296    32377 
   32431    32417    32354    32302    32297    32302    32278    32240 
   32227    32259    32331    32397    32405    32346    32292    32277 
   32239    32162    32094    32044    31990    31962    31990    32031 
   32036    32031    32023    31988    31928    31870    31823    31785 
   31768    31777    31777    31743    31703    31691    31720    31764 
   31768    31768    31831    31934    32000    32009    32003    32032 
   32081    32116    32177    32279    32364    32402    32427    32454 
   32470    32476    32487    32505    32513    32490    32429    32364 
   32317    32282    32267    32270    32270    32266    32275    32309 
   32312    32239    32147    32115    32140    32167    32142    32077 
   32036    32054    32094    32115    32094    32050    32016    32013 
   32035    32067    32092    32094    32081    32097    32161    32194 
   32159    32135    32170    32215    32216    32173    32117    32082 
   32059    32035    32019    32017    32004    31972    31972    32012 
   32034    32008    31947    31881    31838    31820    31801    31769 
   31737    31716    31715    31747    31792    31815    31839    31893 
   31970    32027    32039    32028    32019    32015    32020    32042 
   32096    32155    32170    32174    32232    32351    32479    32568 
   32624    32670    32692    32671    32626    32590    32564    32537 
   32493    32425    32333    32221    32103    32001    31924    31851 
   31760    31675    31653    31702    31764    31789    31777    31747 
   31714    31698    31720    31758    31772    31762    31770    31830 
   31922    31993    32034    32088    32155    32205    32260    32352 
   32466    32571    32656    32706    32702    32645    32559    32481 
   32447    32447    32427    32363    32296    32248    32200    32131 
   32050    31986    31950    31915    31851    31766    31681    31625 
   31612    31639    31661    31646    31611    31568    31537    31553 
   31591    31604    31617    31679    31791    31900    31984    32076 
   32189    32285    32350    32404    32451    32470    32449    32422 
   32417    32412    32397    32387    32373    32337    32309    32305 
   32312    32301    32258    32193    32130    32082    32073    32086 
   32090    32090    32096    32116    32144    32159    32151    32142 
