Origin Time       2025/06/03 22:18:00
Lat.              41.7
Long.             143.6
Depth. (km)       30
Mag.              5.2
Station Code      HKD109
Station Lat.      42.1678
Station Long.     142.7673
Station Height(m) 4
Record Time       2025/06/03 22:18:56
Sampling Freq(Hz) 100Hz
Duration Time(s)  61
Dir.              U-D
Scale Factor      7845(gal)/8223790
Max. Acc. (gal)   1.239
Last Correction   2025/06/03 22:18:56
Memo.             
[...]
    5286     5084     4996     5089     5294     5466     5494     5386 
    5254     5193     5244     5382     5482     5367     5038     4733 
    4706     4972     5296     5429     5310     5022     4661     4328 
    4148     4232     4548     4853     4833     4406     3912     3881 
    4495     5306     5671     5379     4777     4321     4234     4564 
    5217     5856     6053     5694     5100     4676     4615     4916 
    5429     5856     5907     5567     5181     5148     5463     5726 
    5593     5093     4531     4245     4432     4963     5427     5458 
    5055     4546     4294     4382     4662     4990     5283     5449 
    5375     5061     4746     4768     5189     5683     5875     5759 
    5532     5232     4939     4965     5367     5686     5460     4789 
    4229     4232     4718     5194     5255     4928     4533     4374 
    4541     4881     5151     5197     5022     4815     4820     5038 
    5194     5100     4870     4738     4788     4943     5084     5161 
    5174     5136     5167     5340     5435     5225     4908     4801 
    4850     4818     4729     4769     4955     5112     5098     5016 
    5108     5378     5486     5231     4932     5035     5499     5899 
    5980     5822     5582     5292     4914     4545     4426     4688 
    5169     5535     5505     5117     4727     4538     4379     4109 
    3897     3955     4217     4460     4625     4838     5174     5503 
    5632     5560     5464     5354     5053     4606     4340     4438 
    4743     5047     5255     5336     5314     5252     5163     5043 
    4984     5074     5213     5233     5146     5080     5077     5166 
    5466     5960     6326     6204     5579     4874     4611     4834 
    5152     5351     5474     5460     5182     4796     4654     4853 
    5103     5132     5001     4976     5165     5409     5522     5428 
    5127     4757     4540     4517     4534     4537     4639     4833 
    4916     4792     4598     4464     4411     4448     4621     4928 
    5209     5239     4992     4723     4711     5011     5421     5634 
    5548     5363     5265     5194     5084     5063     5255     5513 
    5586     5463     5333     5263     5146     4930     4753     4799 
    5032     5211     5201     5063     4873     4684     4577     4579 
    4639     4677     4646     4576     4515     4495     4573     4804 
    5108     5292     5227     4966     4698     4654     4922     5274 
    5401     5260     5038     4903     4912     5058     5285     5491 
    5555     5441     5267     5179     5165     5143     5134     5152 
    5138     5054     4936     4796     4619     4491     4526     4729 
    5059     5475     5803     5825     5541     5148     4846     4729 
    4735     4753     4766     4838     5031     5310     5490     5402 
    5115     4841     4669     4579     4611     4831     5175     5487 
    5607     5464     5163     4926     4887     5008     5167     5265 
    5224     4995     4669     4494     4600     4862     5100     5290 
    5463     5560     5485     5228     4947     4810     4853     5015 
    5131     5034     4787     4653     4783     5044     5205     5197 
    5092     4938     4808     4827     5024     5275     5425     5429 
    5381     5389     5463     5528     5491     5337     5177     5131 
    5161     5138     5015     4864     4799     4827     4824     4719 
    4621     4648     4756     4818     4834     4878     4930     4920 
    4876     4899     5050     5212     5201     5034     4932     5034 
    5227     5317     5262     5170     5105     5034     4941     4873 
    4873     4926     4985     5050     5132     5167     5053     4800 
    4608     4665     4912     5138     5201     5140     5066     5034 
    5001     4959     4943     4949     4947     4938     4911     4880 
    4892     4957     5040     5117     5206     5331     5427     5409 
    5294     5157     5022     4874     4768     4801     4972     5115 
    5123     5088     5146     5252     5278     5186     5040     4939 
    4957     5069     5175     5190     5125     5066     5073     5146 
    5256     5337     5319     5213     5111     5080     5143     5274 
    5341     5238     5028     4828     4662     4519     4452     4527 
    4711     4869     4904     4841     4761     4703     4681     4766 
    4990     5178     5109     4831     4612     4619     4789     4941 
    4965     4909     4873     4934     5107     5285     5331     5248 
    5154     5142     5225     5332     5374     5335     5273     5232 
    5185     5093     4997     4970     5030     5103     5117     5085 
    5003     4849     4719     4772     4955     5065     5012     4889 
    4814     4810     4855     4923     4989     5046     5117     5231 
    5351     5404     5362     5267     5174     5124     5104     5057 
    5007     5067     5296     5583     5742     5653     5400     5174 
    5092     5140     5242     5297     5236     5080     4919     4837 
    4845     4887     4887     4851     4855     4900     4903     4838 
    4781     4830     4993     5170     5228     5136     5012     4977 
    5035     5140     5238     5258     5202     5161     5181     5240 
    5296     5302     5238     5130     5019     4930     4869     4837 
    4831     4872     4953     4976     4872     4730     4703     4842 
    5062     5217     5196     4995     4758     4638     4645     4700 
    4727     4680     4614     4630     4739     4857     4938     5015 
    5104     5194     5304     5448     5571     5557     5344     5024 
    4787     4742     4814     4866     4884     4915     4932     4866 
    4726     4627     4673     4834     4988     5073     5132     5190 
    5212     5181     5143     5135     5138     5130     5132     5163 
    5204     5223     5185     5082     4982     4968     5009     5020 
    4985     4965     4981     5017     5098     5243     5390     5429 
    5302     5066     4860     4799     4870     4961     5009     5036 
    5071     5117     5162     5213     5277     5300     5221     5067 
    4959     4986     5097     5169     5155     5124     5143     5227 
    5325     5382     5368     5267     5089     4946     4963     5112 
    5211     5117     4893     4749     4769     4847     4880     4880 
    4877     4864     4842     4822     4797     4773     4788     4835 
    4834     4757     4712     4781     4877     4919     4990     5173 
    5383     5486     5452     5335     5189     5050     4949     4889 
    4874     4897     4914     4888     4873     4915     4976     5016 
    5046     5086     5140     5193     5251     5339     5441     5493 
    5445     5309     5111     4861     4600     4415     4396     4560 
    4816     5017     5070     4992     4887     4842     4891     5027 
    5154     5155     5055     4980     4978     4996     5000     5015 
    5042     5051     5036     5022     5038     5098     5165     5184 
    5177     5175     5139     5040     4919     4838     4834     4896 
    4984     5062     5130     5189     5206     5151     5084     5098 
    5213     5360     5454     5440     5341     5220     5116     5063 
    5109     5232     5339     5350     5265     5136     5022     4977 
    5038     5169     5297     5363     5358     5273     5098     4899 
    4784     4804     4927     5074     5174     5204     5189     5173 
    5209     5298     5362     5324     5184     5015     4903     4866 
    4872     4897     4930     4941     4909     4850     4816     4828 
    4862     4892     4908     4911     4942     5015     5061     5028 
    4957     4919     4926     4920     4861     4785     4754     4788 
    4860     4901     4870     4795     4758     4812     4936     5073 
    5162     5165     5107     5039     4970     4892     4828     4828 
    4923     5101     5274     5319     5205     5015     4847     4772 
    4799     4900     5042     5162     5197     5151     5081     5016 
    4957     4934     4972     5016     5007     4955     4927     4938 
    4938     4904     4889     4951     5053     5103     5080     5067 
    5124     5186     5182     5139     5124     5130     5076     4935 
    4792     4747     4820     4943     5043     5109     5188     5302 
    5428     5521     5543     5468     5333     5212     5128     5084 
    5104     5162     5182     5161     5147     5170     5224     5314 
    5432     5541     5617     5644     5587     5427     5202     5011 
    4934     4954     4968     4920     4854     4831     4860     4924 
    5009     5081     5105     5103     5092     5054     4961     4810 
    4657     4599     4642     4671     4591     4452     4398     4506 
    4700     4853     4904     4893     4889     4918     4968     4999 
    4996     4982     4974     4977     5004     5065     5152     5231 
    5246     5182     5103     5086     5157     5252     5273     5188 
    5088     5065     5107     5125     5069     4970     4904     4897 
    4932     4986     5065     5178     5285     5306     5239     5163 
    5151     5190     5229     5256     5267     5224     5116     5007 
    4949     4915     4872     4843     4877     4963     5035     5035 
    4949     4822     4738     4743     4820     4945     5090     5171 
    5097     4901     4729     4684     4749     4826     4853     4846 
    4861     4938     5071     5198     5255     5265     5289     5302 
    5217     5036     4874     4830     4877     4919     4919     4938 
    5026     5152     5269     5364     5436     5449     5362     5166 
    4950     4818     4789     4810     4833     4849     4895     4996 
    5130     5232     5267     5248     5189     5128     5131     5217 
    5340     5444     5448     5309     5100     4947     4927     5023 
    5161     5273     5328     5336     5325     5314     5313     5313 
    5274     5150     4955     4754     4611     4554     4557     4591 
    4622     4611     4569     4564     4626     4731     4845     4943 
    5022     5057     5027     4951     4884     4838     4819     4861 
    5005     5233     5456     5587     5629     5633     5622     5601 
    5555     5455     5287     5078     4891     4758     4641     4525 
    4453     4441     4446     4455     4509     4635     4789     4901 
    4939     4943     4972     5028     5119     5236     5328     5344 
    5305     5256     5219     5182     5123     5040     4990     5031 
    5124     5196     5227     5244     5270     5279     5235     5139 
    5040     4958     4869     4768     4704     4715     4757     4788 
    4833     4911     4977     4982     4946     4930     4969     5035 
    5089     5144     5205     5217     5142     5013     4897     4835 
    4801     4747     4700     4715     4773     4816     4850     4930 
    5082     5265     5395     5447     5443     5398     5317     5231 
    5171     5124     5055     4946     4820     4734     4723     4785 
    4888     4970     4981     4907     4795     4714     4680     4665 
    4683     4733     4770     4768     4776     4855     4990     5096 
    5127     5124     5130     5139     5154     5185     5239     5293 
    5302     5248     5169     5117     5123     5158     5146     5050 
    4924     4826     4770     4756     4792     4873     4950     4969 
    4954     4973     5032     5081     5108     5134     5157     5135 
    5055     4954     4900     4915     4951     4946     4878     4777 
    4718     4769     4919     5108     5266     5325     5278     5166 
    5051     4990     5005     5069     5132     5169     5174     5140 
    5088     5065     5093     5147     5193     5239     5305     5382 
    5437     5466     5499     5566     5651     5709     5713     5667 
    5607     5578     5571     5551     5508     5443     5346     5236 
    5163     5139     5124     5063     4946     4849     4857     4963 
    5094     5186     5216     5219     5246     5279     5254     5147 
    4992     4850     4776     4793     4881     4962     4968     4927 
    4911     4945     5003     5043     5066     5061     4990     4876 
    4811     4855     4942     4965     4901     4803     4704     4611 
    4561     4610     4746     4862     4891     4870     4881     4950 
    5062     5185     5294     5370     5397     5381     5319     5219 
    5132     5107     5117     5119     5135     5227     5397     5567 
    5660     5672     5628     5545     5425     5270     5101     4932 
    4762     4623     4577     4644     4795     5001     5248     5521 
    5780     5976     6080     6119     6143     6164     6172     6151 
    6085     5972     5836     5701     5579     5486     5418     5327 
    5186     5020     4861     4710     4548     4394     4290     4239 
    4210     4185     4164     4168     4203     4245     4278     4315 
    4379     4459     4522     4565     4610     4669     4739     4796 
    4823     4808     4718     4538     4333     4185     4122     4121 
    4147     4185     4228     4272     4325     4394     4487     4607 
    4752     4911     5069     5171     5163     5027     4811     4610 
    4476     4402     4355     4303     4244     4214     4241     4320 
    4449     4610     4758     4855     4889     4860     4784     4698 
    4618     4565     4575     4652     4750     4842     4951     5078 
    5165     5182     5146     5076     5013     5012     5089     5228 
    5394     5549     5682     5806     5926     6041     6153     6251 
    6315     6338     6328     6304     6291     6262     6166     6004 
    5833     5686     5579     5529     5540     5582     5634     5707 
    5810     5930     6049     6149     6184     6100     5925     5718 
    5510     5289     5059     4885     4830     4870     4934     4999 
    5100     5247     5377     5409     5356     5296     5266     5258 
    5256     5259     5248     5197     5100     4996     4935     4946 
    5001     5067     5159     5267     5335     5324     5240     5105 
    4946     4758     4542     4342     4214     4163     4164     4201 
    4271     4364     4437     4434     4352     4249     4179     4160 
    4172     4198     4237     4290     4355     4410     4436     4434 
    4429     4461     4550     4664     4765     4830     4842     4803 
    4757     4743     4766     4800     4812     4785     4735     4692 
    4677     4687     4707     4733     4766     4824     4923     5044 
    5136     5173     5196     5259     5350     5435     5517     5607 
    5684     5717     5718     5722     5728     5699     5620     5516 
    5432     5398     5408     5449     5495     5495     5413     5252 
    5039     4808     4590     4403     4266     4178     4145     4176 
    4275     4449     4677     4907     5090     5192     5202     5157 
    5100     5058     5042     5051     5090     5166     5285     5436 
    5584     5684     5688     5578     5408     5278     5233     5231 
    5221     5188     5134     5063     4986     4899     4801     4699 
    4577     4450     4392     4460     4608     4743     4830     4900 
    4976     5054     5116     5157     5194     5247     5275     5235 
    5159     5117     5121     5132     5147     5184     5211     5181 
    5081     4932     4796     4716     4683     4664     4649     4634 
    4637     4688     4770     4831     4833     4793     4787     4866 
    5034     5242     5439     5597     5713     5773     5769     5699 
    5575     5428     5289     5192     5165     5197     5235     5233 
    5205     5186     5155     5053     4858     4621     4414     4272 
    4201     4205     4279     4402     4572     4784     5005     5212 
    5387     5505     5566     5601     5622     5610     5564     5521 
    5516     5541     5572     5597     5594     5543     5440     5313 
    5189     5081     4972     4839     4687     4534     4428     4396 
    4401     4402     4409     4426     4448     4464     4479     4514 
    4588     4708     4853     4985     5081     5128     5131     5108 
    5074     5039     5022     5040     5094     5170     5263     5366 
    5464     5553     5637     5679     5629     5503     5371     5269 
    5178     5053     4887     4741     4658     4626     4631     4684 
    4764     4811     4781     4720     4703     4739     4810     4878 
    4907     4895     4849     4772     4698     4661     4680     4737 
    4781     4789     4784     4795     4839     4927     5061     5229 
    5412     5570     5653     5632     5533     5408     5294     5240 
    5271     5341     5377     5340     5262     5185     5131     5093 
    5071     5074     5092     5082     5030     4963     4946     5005 
    5108     5171     5136     5027     4915     4851     4837     4862 
    4919     4989     5058     5107     5125     5151     5233     5373 
    5529     5672     5773     5794     5717     5574     5440     5363 
    5308     5219     5084     4920     4760     4612     4465     4347 
    4324     4409     4531     4625     4685     4746     4804     4828 
    4819     4801     4789     4792     4804     4811     4828     4885 
    4977     5069     5128     5154     5174     5213     5275     5363 
    5459     5525     5541     5516     5482     5476     5505     5549 
    5599     5644     5672     5675     5644     5587     5521     5447 
    5363     5285     5238     5220     5189     5107     4999     4922 
    4912     4961     5040     5124     5198     5256     5286     5266 
    5194     5088     4966     4834     4680     4510     4353     4255 
    4241     4291     4348     4382     4402     4426     4473     4556 
    4657     4753     4831     4882     4927     4990     5057     5096 
    5120     5159     5229     5305     5339     5319     5269     5209 
    5150     5100     5080     5098     5124     5117     5089     5088 
    5142     5233     5327     5405     5479     5543     5574     5559 
    5491     5386     5270     5177     5120     5103     5119     5151 
    5178     5179     5169     5163     5140     5081     5007     4959 
    4955     4943     4901     4868     4874     4887     4864     4811 
    4760     4727     4725     4764     4853     4989     5132     5235 
    5273     5251     5193     5127     5069     5019     4984     4980 
    5000     5032     5070     5092     5082     5054     5020     4986 
    4957     4931     4905     4878     4869     4897     4965     5049 
    5127     5200     5266     5314     5333     5321     5287     5246 
    5201     5155     5127     5135     5169     5201     5208     5188 
    5166     5171     5193     5189     5142     5086     5055     5057 
    5077     5088     5082     5071     5057     5047     5046     5027 
    4954     4814     4646     4522     4471     4453     4433     4417 
    4426     4469     4548     4656     4770     4857     4897     4900 
    4899     4916     4954     4992     5008     4995     4955     4899 
    4842     4800     4769     4749     4765     4819     4885     4942 
    5001     5080     5151     5177     5157     5112     5066     5023 
    4993     4992     5011     5022     5009     4982     4946     4899 
    4831     4749     4669     4611     4573     4540     4504     4490 
    4504     4541     4587     4634     4683     4731     4781     4845 
    4928     5027     5140     5254     5348     5414     5433     5402 
