Origin Time       2025/06/03 22:18:00
Lat.              41.7
Long.             143.6
Depth. (km)       30
Mag.              5.2
Station Code      HKD100
Station Lat.      42.2864
Station Long.     143.3120
Station Height(m) 36
Record Time       2025/06/03 22:18:48
Sampling Freq(Hz) 100Hz
Duration Time(s)  60
Dir.              U-D
Scale Factor      7845(gal)/8223790
Max. Acc. (gal)   3.637
Last Correction   2025/06/03 22:18:48
Memo.             
    4548     4545     4546     4549     4548     4546     4549     4549 
    4549     4549     4549     4546     4545     4546     4549     4549 
    4549     4546     4546     4548     4546     4546     4549     4548 
    4549     4550     4549     4548     4546     4548     4553     4553 
    4548     4546     4548     4548     4546     4550     4550     4549 
    4552     4549     4545     4548     4550     4550     4550     4550 
    4548     4548     4549     4549     4550     4550     4545     4546 
    4552     4550     4548     4548     4549     4549     4548     4548 
    4549     4550     4550     4548     4545     4548     4552     4549 
    4549     4549     4548     4548     4549     4549     4549     4548 
    4549     4550     4549     4546     4546     4549     4548     4545 
    4549     4552     4548     4545     4548     4553     4550     4546 
    4549     4548     4548     4554     4554     4549     4546     4546 
    4548     4548     4549     4549     4549     4548     4548     4549 
    4549     4548     4549     4548     4548     4552     4550     4545 
    4541     4546     4552     4550     4546     4546     4549     4550 
    4552     4549     4548     4548     4548     4549     4550     4549 
    4548     4548     4549     4549     4548     4549     4549     4546 
    4546     4550     4552     4548     4548     4549     4550     4550 
    4548     4546     4549     4549     4548     4549     4552     4548 
    4545     4548     4552     4553     4550     4548     4548     4548 
    4548     4548     4548     4548     4548     4549     4549     4546 
    4545     4546     4548     4549     4550     4548     4546     4546 
    4546     4548     4550     4550     4548     4546     4548     4549 
    4550     4549     4546     4546     4550     4548     4545     4546 
    4549     4549     4550     4552     4549     4549     4549     4548 
    4548     4550     4550     4546     4546     4548     4549     4549 
    4546     4545     4545     4548     4550     4552     4548     4546 
    4549     4550     4548     4546     4546     4548     4550     4549 
    4546     4550     4550     4546     4545     4550     4550     4546 
    4548     4549     4546     4545     4550     4553     4552     4549 
    4548     4549     4550     4550     4550     4550     4549     4548 
    4550     4550     4546     4548     4550     4550     4550     4550 
    4548     4546     4546     4546     4548     4550     4552     4550 
    4548     4548     4549     4549     4552     4552     4549     4546 
    4546     4552     4550     4545     4546     4546     4548     4550 
    4546     4545     4550     4548     4546     4549     4549     4546 
    4546     4546     4549     4552     4549     4548     4550     4549 
    4548     4549     4550     4550     4549     4546     4544     4549 
    4553     4550     4548     4546     4546     4548     4549     4550 
    4549     4545     4548     4552     4549     4548     4548     4549 
    4549     4548     4548     4549     4549     4548     4548     4549 
    4552     4552     4548     4549     4548     4546     4550     4550 
    4549     4548     4546     4548     4552     4550     4546     4545 
    4546     4548     4550     4550     4549     4548     4548     4546 
    4549     4549     4549     4552     4550     4548     4549     4549 
    4549     4548     4549     4548     4549     4549     4548     4546 
    4549     4548     4548     4550     4552     4550     4548     4546 
    4549     4550     4548     4548     4546     4548     4548     4545 
    4549     4553     4548     4546     4550     4549     4548     4548 
    4548     4549     4550     4549     4549     4549     4548     4548 
    4548     4548     4549     4549     4550     4549     4548     4549 
    4549     4549     4552     4552     4550     4552     4549     4544 
    4545     4552     4552     4548     4548     4549     4548     4546 
    4548     4548     4545     4546     4548     4546     4548     4550 
    4546     4548     4552     4550     4545     4545     4548     4549 
    4548     4546     4548     4548     4548     4549     4546     4546 
    4549     4548     4546     4549     4549     4548     4549     4548 
    4546     4550     4550     4548     4550     4549     4549     4552 
    4550     4546     4548     4549     4546     4546     4549     4549 
    4549     4548     4545     4546     4550     4550     4549     4549 
    4548     4546     4546     4552     4549     4544     4549     4550 
    4546     4548     4550     4548     4546     4549     4549     4549 
    4549     4546     4546     4546     4546     4549     4550     4549 
    4546     4546     4548     4548     4548     4548     4548     4548 
    4550     4549     4546     4548     4550     4549     4548     4550 
    4550     4546     4546     4550     4549     4546     4546     4548 
    4548     4546     4548     4548     4548     4546     4548     4550 
    4549     4546     4548     4548     4546     4544     4536     4521 
    4498     4469     4433     4394     4368     4364     4390     4449 
    4536     4645     4743     4783     4758     4706     4644     4538 
    4392     4299     4324     4384     4396     4421     4510     4546 
    4465     4409     4463     4502     4440     4378     4413     4396 
    4182     4033     4256     4602     4722     4726     4814     4957 
    4986     4673     4097     3740     3804     4086     4523     4974 
    5151     5233     5539     5836     5668     4870     3850     3420 
    3904     4730     5086     4752     4376     4726     5652     6237 
    5806     4758     4237     4625     5065     4897     4357     3874 
    3535     3067     2543     2632     3434     4410     5356     6016 
    5881     5265     5008     4850     4114     3383     3397     3987 
    4893     5486     5070     4540     4864     5240     5088     5035 
    5294     5551     5643     5391     4880     4388     3915     3628 
    3564     3153     2716     3289     4525     5351     5692     5819 
    5510     4881     4781     5390     5317     3677     2000     2079 
    3361     4261     4522     4787     4946     4564     4203     4603 
    5304     5516     5283     4970     4703     4576     4838     5355 
    5244     4278     3427     2955     2376     2296     3244     3964 
    3800     4122     5439     6750     7807     8360     7387     5227 
    3391     2614     2968     3883     4244     3924     3684     3713 
    3998     4630     5089     5273     5896     6678     6718     6103 
    5192     4035     2847     1695      796     1008     2728     5223 
    6984     6866     5667     5174     5773     6405     6114     4955 
    3731     3146     3361     4055     4627     4665     4411     4363 
    4536     4700     4824     4828     4619     4390     4014     3268 
    3001     3970     5100     5019     4244     4342     5624     6782 
    6673     5458     3917     2759     2609     3549     4712     5317 
    5474     5359     5023     4855     4961     4739     3940     3366 
    3572     3939     3935     3896     4209     4579     4633     4629 
    4816     5117     5297     5001     4337     3720     3387     3649 
    4603     5664     6185     6133     5597     4671     3950     3790 
    3775     3777     4221     5043     5539     5336     4854     4619 
    4483     4085     3685     3775     4237     4557     4425     3897 
    3447     3689     4549     5233     5093     4229     3433     3519 
    4483     5576     6107     5783     4893     4247     4197     4349 
    4411     4502     4750     5143     5665     6080     5908     5088 
    4129     3562     3526     3829     4168     4434     4714     4764 
    4405     4087     4094     4310     4666     4830     4504     4128 
    4166     4442     4614     4461     3994     3636     3740     4180 
    4698     5028     5049     5084     5405     5857     6054     5589 
    4633     3966     4020     4569     5053     4927     4306     3954 
    4149     4461     4548     4422     4390     4695     5024     4959 
    4541     3997     3645     3815     4359     4808     4985     5026 
    5038     4936     4576     4001     3530     3568     4337     5541 
    6277     5811     4461     3335     3227     3771     4143     4332 
    4673     5028     5336     5586     5343     4477     3639     3500 
    4054     4727     4986     4803     4468     4220     4279     4625 
    4830     4720     4560     4441     4307     4243     4224     4114 
    3993     4079     4450     4861     4993     4928     4816     4572 
    4321     4337     4513     4581     4530     4437     4270     4058 
    3977     4207     4692     5000     4762     4282     4114     4291 
    4476     4537     4580     4629     4835     5408     6027     6230 
    5903     5078     4017     3138     2721     3030     4079     5216 
    5734     5536     4976     4645     4803     4835     4135     3172 
    2953     3846     5124     5676     5327     4876     4947     5490 
    5910     5559     4511     3528     3181     3306     3487     3763 
    4395     5182     5607     5431     4842     4256     3986     3948 
    3855     3754     3993     4671     5441     5800     5616     5200 
    4796     4581     4685     4753     4401     3889     3576     3426 
    3438     3784     4392     4927     5036     4615     4033     3747 
    3836     4121     4425     4711     5007     5310     5518     5509 
    5405     5351     5232     4903     4413     4002     3902     4257 
    5026     5760     5926     5506     4935     4479     4021     3460 
    3025     3180     4172     5626     6721     6875     6269     5435 
    4503     3412     2403     1966     2475     3582     4407     4541 
    4255     4108     4472     5054     5313     5177     4897     4676 
    4634     4603     4167     3558     3543     4251     5124     5624 
    5536     5020     4477     4347     4648     4926     4922     4827 
    4936     5225     5208     4587     3761     3175     2936     3130 
    3631     4167     4816     5563     6012     6019     5687     5130 
    4645     4322     3859     3257     2937     3169     3854     4610 
    5130     5522     5969     6273     6035     5155     4041     3295 
    3123     3253     3414     3616     4033     4646     5078     5074 
    4857     4733     4673     4549     4426     4411     4533     4830 
    5266     5535     5205     4325     3554     3362     3651     4210 
    4789     5020     4880     4741     4726     4588     4237     3929 
    3966     4391     4946     5296     5275     5019     4788     4630 
    4384     4055     3865     3916     4039     4086     4187     4598 
    5297     5926     6138     5792     5069     4456     4256     4261 
    4159     4017     4206     4815     5433     5532     4955     4140 
    3703     3832     4293     4679     4718     4600     4688     4943 
    5140     5190     4962     4360     3727     3520     3798     4333 
    4742     4833     4861     4963     4954     4810     4598     4375 
    4369     4666     4976     4993     4669     4222     4002     4035 
    4008     3898     3943     4209     4591     4903     4909     4602 
    4245     4037     4000     4109     4365     4818     5418     5787 
    5587     5108     4835     4769     4648     4367     4036     3900 
    4116     4553     4885     4958     4878     4660     4294     3942 
    3666     3539     3711     4021     4239     4476     4891     5312 
    5401     4957     4163     3557     3527     3882     4098     3944 
    3797     4237     5256     6168     6404     5996     5312     4612 
    3919     3345     3127     3338     3956     4888     5778     6272 
    6328     6077     5624     5057     4421     3813     3566     3874 
    4460     4938     5084     4815     4328     3929     3662     3473 
    3516     3917     4530     5036     5150     4788     4148     3647 
    3615     3977     4386     4662     4828     4850     4666     4392 
    4180     4085     4203     4623     5150     5454     5449     5296 
    5089     4819     4576     4490     4514     4585     4850     5373 
    5813     5752     5213     4568     4009     3539     3312     3488 
    3958     4498     4895     4928     4510     3912     3562     3573 
    3780     4095     4515     4901     5132     5309     5435     5258 
    4727     4185     4048     4423     4951     5177     5020     4650 
    4220     3952     4005     4279     4665     5082     5368     5464 
    5325     4787     3963     3327     3190     3515     4014     4384 
    4696     5216     5794     5954     5508     4731     4064     3780 
    3855     4041     4126     4189     4515     5119     5584     5533 
    5042     4477     4145     4082     4110     4128     4252     4536 
    4784     4766     4487     4236     4283     4487     4509     4325 
    4207     4353     4685     4901     4858     4741     4683     4602 
    4455     4344     4360     4490     4681     4905     5073     5065 
    4877     4602     4326     4176     4295     4634     4904     4905 
    4729     4565     4494     4449     4342     4140     3912     3824 
    3962     4222     4490     4746     4946     4969     4793     4580 
    4537     4672     4745     4567     4195     3808     3580     3620 
    3909     4418     5066     5549     5518     4874     3874     3010 
    2609     2606     2771     3055     3550     4201     4772     5061 
    5049     4857     4587     4229     3802     3551     3753     4392 
    5157     5682     5800     5526     4954     4245     3658     3429 
    3608     4126     4784     5316     5675     5911     5914     5584 
    5028     4461     4095     4023     4098     4175     4301     4536 
    4837     5089     5169     5101     5085     5240     5452     5551 
    5508     5398     5289     5213     5244     5478     5856     6165 
    6219     5919     5296     4594     4241     4502     5146     5644 
    5765     5688     5516     5134     4477     3651     2849     2315 
    2373     3118     4187     5134     5670     5641     5124     4351 
    3612     3153     2932     2764     2620     2616     2878     3464 
    4230     4882     5308     5536     5510     5294     5107     5007 
    4903     4764     4594     4336     4033     3821     3734     3684 
    3578     3465     3493     3678     3931     4205     4496     4846 
    5290     5763     6027     5779     5000     4156     3743     3871 
    4465     5227     5641     5494     4915     4164     3669     3674 
    3989     4375     4766     5170     5598     5934     6052     5903 
    5443     4838     4405     4259     4306     4329     4195     4033 
    4078     4611     5590     6388     6473     5721     4453     3446 
    3217     3673     4492     5316     5846     5984     5845     5491 
    4807     3919     3256     2916     2740     2907     3402     3919 
    4544     5161     5329     5042     4504     3929     3613     3666 
    3770     3559     3277     3342     3717     4294     4928     5395 
    5818     6259     6494     6393     5684     4347     3034     2351 
    2362     2833     3576     4345     4923     5302     5282     4760 
    4043     3450     3322     3618     3761     3734     3994     4499 
    5105     5908     6465     6238     5557     4822     4259     4330 
    4850     5225     5393     5212     4734     4584     4642     4536 
    4540     4638     4727     4931     5085     4920     4453     4075 
    3885     3734     3842     4085     4228     4504     4826     4989 
    5001     4695     4183     3969     4191     4618     5109     5368 
    5088     4693     4521     4341     4402     4820     5147     5119 
    4675     4202     4056     4032     4108     4422     4996     5489 
    5599     5578     5346     4904     4693     4669     4565     4085 
    3326     2663     2080     1993     2540     3194     3858     4402 
    4887     5468     5838     5886     5602     5142     4750     4584 
    4772     5005     5333     5672     5405     4714     3711     2655 
    2239     2212     2567     3615     5005     6421     7430     7703 
    7055     5692     4591     3874     3308     3157     3267     3589 
    4039     4503     5142     5571     5580     5379     4986     4665 
    4604     4519     4333     4245     4257     4347     4538     4563 
    4357     4295     4409     4569     4747     4768     4779     4858 
    4783     4610     4410     4261     4170     4071     4058     4082 
    4345     5020     5714     6058     5984     5630     5115     4550 
    4037     3616     3650     4252     4961     5476     5717     5624 
    5300     4915     4639     4445     4098     3599     3231     3094 
    3086     3154     3090     2928     3114     3628     4283     4854 
    4965     4866     4835     4702     4615     4631     4558     4536 
    4568     4604     4816     4926     4737     4621     4711     4869 
    5049     5070     4792     4457     4276     4133     3919     3774 
    3931     4399     5080     5618     5643     5382     5084     4774 
    4604     4457     4191     4068     4298     4824     5537     6243 
    6621     6525     6031     5290     4610     4207     4002     3784 
    3410     3011     2744     2681     2871     3138     3437     3870 
    4363     4820     5055     5009     4865     4606     4342     4314 
    4392     4463     4515     4509     4673     5031     5200     5217 
    5235     5054     4719     4482     4391     4384     4392     4288 
    3963     3649     3620     3909     4459     4907     4939     4676 
    4172     3649     3618     4037     4537     5013     5246     5124 
    4966     4907     4891     4982     5200     5474     5737     5930 
    5894     5478     4941     4654     4622     4756     4982     5096 
    5051     4981     4893     4788     4683     4544     4440     4374 
    4286     4290     4409     4522     4542     4480     4392     4279 
    4239     4198     3971     3746     3657     3605     3670     3894 
    4095     4233     4329     4280     4201     4249     4348     4522 
    4776     4891     4750     4487     4263     4153     4266     4590 
    4846     4873     4741     4536     4390     4311     4209     4120 
    4116     4310     4742     5188     5394     5335     5217     5135 
    5043     5063     5142     5100     4968     4814     4734     4662 
    4442     4153     3920     3827     3951     4230     4503     4703 
    4884     4969     4880     4774     4635     4357     4099     3942 
    3892     4066     4372     4576     4631     4592     4567     4669 
    4804     4914     4972     4868     4698     4564     4378     4110 
    3747     3342     3099     3114     3381     3874     4421     4899 
    5281     5460     5449     5356     5232     5232     5356     5363 
    5231     4984     4491     3955     3738     3844     4087     4340 
    4557     4735     4811     4662     4382     4206     4221     4379 
    4484     4365     4159     4071     4125     4332     4615     4737 
    4634     4436     4244     4125     4101     4120     4114     4124 
    4190     4276     4359     4444     4521     4573     4626     4742 
    4985     5267     5416     5437     5440     5462     5521     5593 
    5591     5408     4974     4449     4170     4232     4468     4707 
    4780     4644     4518     4546     4656     4749     4730     4596 
