Origin Time       2025/06/03 22:18:00
Lat.              41.7
Long.             143.6
Depth. (km)       30
Mag.              5.2
Station Code      HKD112
Station Lat.      41.9370
Station Long.     143.2403
Station Height(m) 15
Record Time       2025/06/03 22:18:36
Sampling Freq(Hz) 100Hz
Duration Time(s)  63
Dir.              U-D
Scale Factor      7845(gal)/8223790
Max. Acc. (gal)   3.168
Last Correction   2025/06/03 22:18:36
Memo.             
   -9072    -9073    -9070    -9073    -9077    -9074    -9073    -9077 
   -9076    -9067    -9070    -9082    -9081    -9069    -9062    -9066 
   -9084    -9086    -9067    -9065    -9074    -9070    -9074    -9082 
   -9078    -9072    -9072    -9067    -9067    -9074    -9073    -9078 
   -9085    -9066    -9058    -9076    -9080    -9076    -9082    -9080 
   -9065    -9066    -9074    -9074    -9077    -9078    -9069    -9065 
   -9074    -9085    -9082    -9070    -9066    -9072    -9073    -9072 
   -9072    -9082    -9086    -9073    -9070    -9072    -9066    -9067 
   -9073    -9077    -9080    -9073    -9067    -9067    -9072    -9076 
   -9077    -9076    -9072    -9066    -9074    -9086    -9082    -9069 
   -9066    -9074    -9074    -9069    -9077    -9082    -9076    -9069 
   -9066    -9070    -9080    -9074    -9072    -9081    -9080    -9072 
   -9073    -9073    -9065    -9072    -9086    -9081    -9069    -9072 
   -9076    -9070    -9074    -9078    -9074    -9078    -9078    -9065 
   -9070    -9081    -9077    -9074    -9078    -9076    -9067    -9065 
   -9070    -9078    -9082    -9080    -9077    -9076    -9073    -9070 
   -9072    -9076    -9082    -9080    -9072    -9070    -9070    -9069 
   -9073    -9080    -9076    -9066    -9077    -9085    -9076    -9072 
   -9070    -9072    -9077    -9073    -9069    -9074    -9076    -9072 
   -9073    -9078    -9074    -9069    -9070    -9072    -9080    -9084 
   -9076    -9074    -9077    -9070    -9063    -9066    -9076    -9085 
   -9086    -9072    -9063    -9069    -9067    -9074    -9088    -9080 
   -9069    -9072    -9070    -9073    -9077    -9073    -9069    -9073 
   -9076    -9074    -9080    -9082    -9073    -9066    -9072    -9076 
   -9078    -9074    -9069    -9069    -9073    -9074    -9077    -9073 
   -9069    -9072    -9081    -9078    -9070    -9073    -9076    -9074 
   -9072    -9069    -9077    -9076    -9067    -9077    -9076    -9063 
   -9072    -9082    -9081    -9074    -9063    -9063    -9074    -9084 
   -9085    -9076    -9065    -9062    -9070    -9084    -9081    -9072 
   -9072    -9076    -9080    -9078    -9074    -9070    -9069    -9073 
   -9077    -9073    -9070    -9072    -9074    -9077    -9081    -9074 
   -9070    -9076    -9072    -9066    -9077    -9080    -9070    -9069 
   -9074    -9077    -9078    -9077    -9074    -9070    -9069    -9069 
   -9073    -9077    -9076    -9078    -9076    -9066    -9069    -9076 
   -9080    -9081    -9074    -9066    -9072    -9073    -9074    -9077 
   -9069    -9067    -9080    -9080    -9069    -9070    -9073    -9070 
   -9078    -9081    -9067    -9070    -9080    -9069    -9065    -9072 
   -9072    -9074    -9076    -9072    -9073    -9076    -9069    -9067 
   -9078    -9085    -9081    -9066    -9057    -9066    -9074    -9074 
   -9080    -9084    -9073    -9062    -9069    -9074    -9077    -9080 
   -9073    -9074    -9072    -9057    -9066    -9086    -9084    -9073 
   -9073    -9074    -9073    -9074    -9078    -9078    -9074    -9072 
   -9073    -9074    -9074    -9069    -9069    -9077    -9086    -9077 
   -9059    -9065    -9080    -9078    -9070    -9066    -9073    -9078 
   -9070    -9072    -9077    -9069    -9070    -9078    -9077    -9072 
   -9066    -9065    -9077    -9081    -9072    -9072    -9078    -9070 
   -9069    -9077    -9074    -9072    -9078    -9082    -9078    -9067 
   -9066    -9077    -9082    -9074    -9063    -9067    -9078    -9077 
   -9076    -9077    -9073    -9066    -9067    -9072    -9074    -9072 
   -9073    -9076    -9074    -9072    -9073    -9073    -9065    -9069 
   -9081    -9084    -9078    -9070    -9067    -9067    -9067    -9078 
   -9086    -9077    -9070    -9070    -9069    -9073    -9077    -9078 
   -9076    -9072    -9072    -9073    -9077    -9078    -9069    -9065 
   -9076    -9080    -9072    -9066    -9073    -9073    -9066    -9069 
   -9077    -9081    -9074    -9067    -9070    -9072    -9067    -9076 
   -9081    -9076    -9072    -9072    -9072    -9070    -9070    -9078 
   -9082    -9070    -9062    -9072    -9078    -9074    -9074    -9076 
   -9070    -9067    -9077    -9081    -9078    -9073    -9065    -9065 
   -9077    -9080    -9076    -9076    -9074    -9072    -9070    -9072 
   -9074    -9076    -9074    -9074    -9073    -9069    -9070    -9078 
   -9080    -9076    -9077    -9076    -9070    -9072    -9076    -9078 
   -9074    -9066    -9070    -9081    -9082    -9069    -9058    -9066 
   -9088    -9088    -9073    -9072    -9074    -9072    -9070    -9080 
   -9088    -9073    -9063    -9076    -9078    -9067    -9070    -9077 
   -9078    -9076    -9072    -9076    -9076    -9067    -9072    -9078 
   -9070    -9073    -9080    -9074    -9073    -9074    -9072    -9074 
   -9072    -9065    -9072    -9078    -9073    -9069    -9074    -9076 
   -9073    -9078    -9077    -9065    -9067    -9080    -9080    -9072 
   -9063    -9065    -9069    -9069    -9076    -9090    -9084    -9061 
   -9058    -9074    -9082    -9082    -9080    -9072    -9065    -9061 
   -9070    -9089    -9088    -9072    -9069    -9073    -9077    -9081 
   -9077    -9074    -9072    -9066    -9069    -9081    -9085    -9074 
   -9061    -9062    -9077    -9085    -9078    -9070    -9074    -9076 
   -9065    -9061    -9076    -9094    -9089    -9063    -9051    -9065 
   -9084    -9084    -9076    -9072    -9067    -9065    -9072    -9080 
   -9078    -9076    -9074    -9069    -9070    -9076    -9073    -9076 
   -9081    -9074    -9070    -9074    -9072    -9067    -9073    -9078 
   -9074    -9069    -9073    -9078    -9077    -9067    -9062    -9076 
   -9086    -9081    -9077    -9067    -9058    -9066    -9080    -9081 
   -9078    -9074    -9072    -9072    -9069    -9066    -9070    -9080 
   -9081    -9072    -9069    -9073    -9076    -9076    -9070    -9069 
   -9074    -9077    -9073    -9067    -9072    -9076    -9074    -9076 
   -9073    -9065    -9067    -9076    -9084    -9081    -9070    -9073 
   -9080    -9073    -9067    -9066    -9070    -9080    -9084    -9081 
   -9080    -9078    -9070    -9062    -9069    -9078    -9082    -9081 
   -9073    -9067    -9070    -9074    -9082    -9081    -9069    -9067 
   -9077    -9076    -9067    -9073    -9074    -9065    -9070    -9084 
   -9084    -9081    -9073    -9063    -9072    -9084    -9077    -9069 
   -9069    -9073    -9078    -9080    -9072    -9066    -9067    -9073 
   -9081    -9081    -9070    -9070    -9077    -9072    -9067    -9070 
   -9073    -9073    -9072    -9072    -9080    -9081    -9070    -9066 
   -9073    -9081    -9078    -9070    -9076    -9080    -9078    -9078 
   -9066    -9058    -9069    -9080    -9084    -9085    -9077    -9062 
   -9062    -9080    -9086    -9077    -9067    -9065    -9067    -9074 
   -9080    -9085    -9080    -9062    -9062    -9077    -9084    -9082 
   -9082    -9078    -9062    -9058    -9072    -9081    -9080    -9074 
   -9073    -9076    -9072    -9072    -9076    -9074    -9067    -9066 
   -9073    -9082    -9082    -9074    -9067    -9065    -9065    -9072 
   -9081    -9082    -9078    -9069    -9063    -9070    -9073    -9073 
   -9073    -9074    -9082    -9084    -9074    -9069    -9073    -9074 
   -9073    -9072    -9067    -9067    -9073    -9080    -9080    -9069 
   -9070    -9084    -9080    -9061    -9061    -9080    -9084    -9078 
   -9072    -9069    -9078    -9076    -9059    -9070    -9089    -9077 
   -9061    -9067    -9078    -9078    -9073    -9070    -9070    -9073 
   -9076    -9076    -9076    -9074    -9066    -9063    -9074    -9081 
   -9084    -9080    -9063    -9059    -9070    -9086    -9086    -9069 
   -9061    -9069    -9081    -9084    -9076    -9067    -9069    -9078 
   -9078    -9072    -9073    -9069    -9066    -9077    -9081    -9080 
   -9077    -9065    -9063    -9084    -9085    -9065    -9063    -9077 
   -9077    -9070    -9073    -9074    -9076    -9076    -9073    -9072 
   -9067    -9065    -9070    -9084    -9089    -9070    -9063    -9072 
   -9073    -9081    -9074    -9062    -9076    -9072    -9059    -9078 
   -9084    -9073    -9074    -9069    -9067    -9076    -9073    -9077 
   -9086    -9073    -9058    -9069    -9080    -9078    -9081    -9080 
   -9065    -9062    -9077    -9082    -9074    -9074    -9076    -9076 
   -9078    -9072    -9067    -9076    -9074    -9073    -9078    -9069 
   -9066    -9073    -9072    -9074    -9080    -9073    -9069    -9072 
   -9076    -9077    -9078    -9077    -9066    -9065    -9074    -9082 
   -9080    -9069    -9065    -9066    -9077    -9085    -9078    -9073 
   -9070    -9070    -9074    -9076    -9078    -9076    -9066    -9063 
   -9074    -9081    -9077    -9077    -9072    -9067    -9080    -9080 
   -9069    -9070    -9070    -9066    -9077    -9077    -9066    -9070 
   -9077    -9080    -9084    -9070    -9061    -9073    -9073    -9066 
   -9077    -9090    -9078    -9059    -9066    -9074    -9073    -9080 
   -9082    -9077    -9069    -9066    -9070    -9077    -9078    -9077 
   -9077    -9074    -9069    -9073    -9077    -9077    -9077    -9076 
   -9067    -9072    -9082    -9076    -9063    -9066    -9073    -9085 
   -9088    -9069    -9059    -9066    -9074    -9082    -9084    -9074 
   -9063    -9065    -9070    -9078    -9084    -9077    -9073    -9076 
   -9076    -9070    -9070    -9072    -9072    -9074    -9076    -9078 
   -9081    -9069    -9065    -9082    -9081    -9066    -9070    -9081 
   -9076    -9067    -9070    -9076    -9072    -9069    -9073    -9076 
   -9076    -9069    -9066    -9078    -9080    -9074    -9077    -9072 
   -9069    -9076    -9074    -9067    -9070    -9073    -9073    -9077 
   -9077    -9076    -9074    -9065    -9061    -9077    -9085    -9081 
   -9077    -9069    -9063    -9065    -9066    -9078    -9090    -9078 
   -9067    -9074    -9073    -9067    -9074    -9073    -9070    -9072 
   -9070    -9076    -9080    -9074    -9073    -9069    -9066    -9073 
   -9077    -9081    -9078    -9067    -9069    -9076    -9074    -9074 
   -9076    -9074    -9070    -9069    -9073    -9076    -9076    -9076 
   -9073    -9072    -9076    -9081    -9077    -9066    -9061    -9072 
   -9080    -9081    -9082    -9078    -9067    -9065    -9070    -9082 
   -9088    -9072    -9057    -9069    -9084    -9081    -9070    -9066 
   -9072    -9077    -9077    -9074    -9072    -9072    -9072    -9078 
   -9082    -9076    -9069    -9067    -9073    -9076    -9074    -9076 
   -9077    -9076    -9077    -9077    -9069    -9062    -9070    -9084 
   -9086    -9078    -9070    -9063    -9063    -9077    -9088    -9080 
   -9073    -9072    -9069    -9070    -9074    -9078    -9081    -9077 
   -9077    -9077    -9066    -9057    -9073    -9088    -9080    -9073 
   -9073    -9067    -9066    -9076    -9084    -9080    -9072    -9072 
   -9076    -9077    -9073    -9069    -9072    -9076    -9076    -9078 
   -9080    -9072    -9062    -9067    -9081    -9088    -9077    -9063 
   -9073    -9078    -9069    -9072    -9078    -9076    -9077    -9078 
   -9072    -9067    -9073    -9073    -9070    -9082    -9082    -9066 
   -9072    -9082    -9073    -9069    -9070    -9073    -9084    -9080 
   -9066    -9077    -9086    -9074    -9067    -9070    -9070    -9076 
   -9084    -9078    -9074    -9070    -9062    -9077    -9085    -9066 
   -9066    -9080    -9074    -9077    -9082    -9067    -9061    -9067 
   -9074    -9086    -9088    -9072    -9065    -9072    -9067    -9072 
   -9086    -9081    -9072    -9076    -9070    -9063    -9076    -9081 
   -9078    -9076    -9065    -9063    -9080    -9080    -9073    -9081 
   -9078    -9065    -9070    -9076    -9073    -9076    -9072    -9069 
   -9082    -9077    -9062    -9069    -9074    -9076    -9085    -9081 
   -9072    -9076    -9070    -9061    -9069    -9076    -9082    -9089 
   -9074    -9059    -9065    -9078    -9080    -9074    -9074    -9074 
   -9067    -9065    -9077    -9089    -9080    -9059    -9066    -9084 
   -9073    -9062    -9072    -9078    -9074    -9074    -9081    -9078 
   -9072    -9070    -9070    -9076    -9074    -9070    -9074    -9080 
   -9076    -9070    -9069    -9072    -9074    -9074    -9077    -9081 
   -9076    -9070    -9074    -9078    -9077    -9078    -9094    -9120 
   -9153    -9194    -9247    -9288    -9273    -9193    -9085    -9007 
   -8997    -9016    -8980    -8896    -8876    -8970    -9138    -9320 
   -9424    -9302    -9007    -8857    -8978    -9101    -9028    -8927 
   -9070    -9474    -9846    -9940    -9913   -10038   -10085    -9661 
   -9062    -8823    -8923    -9186    -9389    -9078    -8621    -9003 
   -9765    -9740    -9363    -9396    -9337    -9076    -9074    -8945 
   -8567    -8538    -8451    -7769    -7558    -8656    -9903    -9921 
   -8874    -7928    -8164    -9505   -10196    -8896    -6890    -6285 
   -7601    -9783   -10574    -9135    -8522   -10666   -12395   -11415 
   -9765    -8970    -8294    -7676    -7954    -8631    -8232    -7221 
   -7647    -9274    -9936    -9417    -9109    -9061    -8487    -7966 
   -8488    -9312    -9321    -9036    -9139    -9294    -9383    -9717 
  -10164   -10308   -10098    -9877    -9877    -9846    -9450    -8864 
   -8430    -8036    -7538    -7381    -8016    -8954    -9358    -9243 
   -9147    -9289    -9639    -9938    -9774    -9209    -8710    -8565 
   -8773    -8895    -8290    -7414    -7740    -9159    -9868    -9481 
   -8942    -8394    -7861    -7906    -8360    -8368    -7919    -8005 
   -9255   -10790   -10928    -9630    -8837    -9240    -9370    -8546 
   -7769    -7771    -8257    -8665    -8946    -9470    -9940    -9356 
   -8109    -8108    -9549   -10308    -9590    -9116    -9921   -10924 
  -10844    -9462    -7827    -7568    -8689    -9425    -8972    -8360 
   -8741   -10143   -11356   -11223   -10266    -9598    -9128    -8681 
   -8969    -9940   -10354    -9628    -8553    -8193    -8831    -9688 
   -9532    -8298    -7466    -7884    -8696    -9018    -8861    -8626 
   -8788    -9300    -9494    -9282    -9217    -9134    -8718    -8876 
  -10019   -10617    -9653    -8236    -7744    -8364    -9312    -9647 
   -9224    -8746    -8823    -9541   -10463   -10686    -9833    -8731 
   -8291    -8505    -8811    -8761    -8476    -8483    -9001    -9722 
  -10270   -10415    -9944    -8922    -8023    -8176    -9468   -10293 
   -9159    -7288    -7152    -8937   -10435    -9996    -8384    -7496 
   -8035    -9360   -10562   -10777    -9714    -8375    -7998    -8556 
   -9228    -9429    -8942    -8154    -7831    -8298    -9159    -9545 
   -8958    -8110    -8070    -8951   -10053   -10385    -9435    -8225 
   -8239    -9309   -10085    -9790    -8814    -8122    -8248    -9099 
  -10062   -10069    -8864    -7879    -8541   -10119   -10488    -9058 
   -7726    -8294   -10056   -10752    -9402    -7412    -6909    -8328 
   -9784    -9448    -8059    -7638    -8569    -9614    -9945    -9752 
   -9466    -9428    -9844   -10397   -10412    -9684    -8839    -8630 
   -9027    -9497    -9683    -9300    -8405    -7925    -8619    -9656 
   -9801    -9254    -8806    -8576    -8625    -9105    -9636    -9637 
   -9169    -8820    -8947    -9504   -10004    -9651    -8560    -8023 
   -8638    -9482    -9505    -8764    -8175    -8371    -9077    -9625 
   -9594    -9009    -8363    -8194    -8537    -9016    -9204    -8919 
   -8580    -8596    -8677    -8567    -8428    -8340    -8523    -9217 
   -9818    -9529    -8725    -8526    -9263   -10062    -9998    -9283 
   -8884    -9109    -9424    -9331    -8845    -8469    -8707    -9358 
   -9668    -9239    -8594    -8635    -9444   -10071    -9828    -9135 
   -8626    -8436    -8688    -9437   -10114   -10081    -9424    -8788 
   -8716    -9120    -9427    -9475    -9625    -9828    -9641    -9236 
   -9189    -9431    -9508    -9477    -9583    -9703    -9595    -9097 
   -8322    -7942    -8461    -9275    -9306    -8530    -8193    -9121 
  -10305   -10200    -9070    -8505    -9009    -9634    -9566    -8939 
   -8403    -8604    -9630   -10494   -10123    -9012    -8590    -9127 
   -9830   -10126    -9713    -8727    -8170    -8689    -9481    -9490 
   -8824    -8359    -8554    -9089    -9428    -9266    -8653    -8114 
   -8074    -8276    -8370    -8426    -8519    -8459    -8164    -8068 
   -8629    -9433    -9609    -9003    -8255    -8039    -8414    -8761 
   -8627    -8302    -8220    -8595    -9347    -9894    -9795    -9404 
   -9158    -9053    -9026    -8972    -8629    -8140    -8162    -8889 
   -9576    -9524    -9035    -8923    -9362    -9721    -9578    -9285 
   -9242    -9309    -9217    -8858    -8330    -8062    -8359    -8884 
   -9111    -8910    -8668    -8991    -9821   -10254    -9771    -8988 
   -8714    -9004    -9439    -9562    -9220    -8957    -9266    -9672 
   -9563    -9180    -8995    -9005    -9049    -9157    -9346    -9441 
   -9308    -9140    -9234    -9464    -9525    -9548    -9798    -9983 
   -9778    -9463    -9270    -9130    -9220    -9556    -9632    -9228 
   -8800    -8780    -9158    -9595    -9659    -9306    -8924    -8694 
   -8618    -8707    -8698    -8476    -8357    -8444    -8580    -8791 
   -9078    -9178    -8999    -8935    -9194    -9256    -8739    -8194 
   -8267    -8704    -8888    -8870    -9020    -9073    -8742    -8548 
   -8928    -9397    -9462    -9321    -9157    -9024    -9189    -9616 
   -9823    -9624    -9363    -9387    -9609    -9703    -9566    -9333 
   -9127    -9036    -9123    -9196    -9093    -9128    -9587   -10075 
   -9995    -9363    -8796    -8784    -9185    -9400    -8974    -8306 
   -8383    -9342   -10029    -9672    -8928    -8793    -9397   -10045 
  -10053    -9512    -9009    -8818    -8833    -8826    -8525    -7993 
   -7784    -8282    -9150    -9647    -9443    -8905    -8603    -8779 
   -9155    -9175    -8760    -8330    -8050    -7940    -8278    -8989 
   -9506    -9617    -9518    -9234    -8831    -8571    -8375    -8048 
   -7832    -7974    -8293    -8576    -8914    -9354    -9618    -9532 
   -9439    -9694   -10054   -10039    -9630    -9215    -9132    -9452 
   -9795    -9535    -8730    -8318    -8827    -9555    -9626    -9231 
   -9090    -9356    -9682    -9809    -9720    -9479    -9188    -9030 
   -9000    -8824    -8445    -8091    -7933    -8091    -8750    -9752 
  -10324    -9771    -8492    -7817    -8386    -9261    -9367    -8949 
   -8887    -9528   -10390   -10579    -9857    -9123    -9185    -9644 
   -9612    -8905    -8056    -7641    -7875    -8607    -9406    -9832 
   -9819    -9698    -9749    -9896    -9768    -9040    -7947    -7287 
   -7560    -8344    -8822    -8808    -8903    -9468   -10069   -10201 
   -9895    -9362    -8721    -8097    -7626    -7371    -7419    -7962 
   -8942    -9717    -9738    -9375    -9332    -9649    -9740    -9148 
   -8102    -7372    -7470    -8133    -8854    -9526   -10191   -10638 
  -10646   -10304    -9869    -9560    -9595    -9945   -10081    -9648 
   -9080    -8914    -9119    -9375    -9420    -9252    -9108    -9009 
   -8745    -8428    -8444    -8858    -9351    -9586    -9390    -8907 
   -8548    -8537    -8564    -8178    -7472    -7014    -7192    -7878 
   -8590    -8961    -9072    -9205    -9441    -9583    -9297    -8556 
