Origin Time       2025/06/03 22:18:00
Lat.              41.7
Long.             143.6
Depth. (km)       30
Mag.              5.2
Station Code      HKD159
Station Lat.      41.7160
Station Long.     141.0046
Station Height(m) 23
Record Time       2025/06/03 22:19:29
Sampling Freq(Hz) 100Hz
Duration Time(s)  60
Dir.              N-S
Scale Factor      7845(gal)/8223790
Max. Acc. (gal)   1.217
Last Correction   2025/06/03 22:19:30
Memo.             
[...]
    5663     5726     5767     5792     5815     5822     5803     5771 
    5752     5756     5759     5740     5691     5614     5533     5476 
    5456     5464     5489     5530     5583     5616     5626     5629 
    5621     5610     5614     5637     5671     5706     5746     5782 
    5796     5809     5830     5842     5819     5771     5724     5683 
    5651     5633     5607     5568     5525     5493     5486     5506 
    5535     5553     5553     5536     5518     5516     5526     5564 
    5628     5703     5776     5832     5863     5875     5880     5883 
    5873     5852     5813     5756     5695     5632     5552     5478 
    5428     5400     5386     5395     5433     5493     5560     5624 
    5680     5726     5751     5765     5775     5775     5771     5763 
    5751     5740     5740     5759     5786     5798     5778     5728 
    5664     5603     5543     5476     5412     5360     5333     5348 
    5402     5478     5564     5653     5734     5813     5884     5940 
    5979     5994     5980     5950     5917     5872     5806     5721 
    5630     5551     5475     5386     5302     5258     5269     5320 
    5390     5463     5530     5587     5638     5714     5818     5917 
    5977     5989     5958     5907     5853     5807     5769     5745 
    5734     5722     5694     5638     5567     5505     5463     5445 
    5445     5462     5498     5543     5574     5586     5595     5610 
    5636     5684     5757     5832     5879     5896     5891     5867 
    5825     5773     5728     5688     5638     5579     5522     5466 
    5402     5350     5314     5306     5336     5400     5489     5599 
    5719     5837     5937     6008     6050     6057     6026     5965 
    5879     5769     5657     5567     5490     5420     5362     5321 
    5292     5282     5306     5371     5468     5574     5667     5733 
    5765     5772     5779     5809     5856     5894     5899     5863 
    5786     5690     5611     5579     5593     5633     5675     5701 
    5702     5671     5618     5578     5566     5564     5556     5543 
    5536     5544     5559     5586     5640     5718     5788     5836 
    5865     5875     5846     5798     5763     5748     5738     5722 
    5684     5617     5544     5501     5495     5518     5556     5590 
    5610     5622     5626     5620     5613     5633     5690     5765 
    5830     5850     5813     5752     5703     5668     5640     5617 
    5595     5566     5529     5508     5509     5520     5540     5580 
    5656     5741     5794     5807     5798     5775     5761     5771 
    5771     5733     5667     5601     5556     5528     5516     5524 
    5547     5590     5647     5702     5745     5765     5751     5722 
    5705     5688     5651     5594     5545     5529     5540     5557 
    5572     5579     5575     5566     5570     5601     5647     5688 
    5717     5729     5729     5733     5733     5719     5705     5695 
    5688     5672     5648     5641     5665     5691     5694     5676 
    5653     5638     5630     5628     5636     5632     5610     5594 
    5586     5582     5567     5545     5559     5620     5697     5760 
    5790     5773     5741     5728     5730     5726     5710     5686 
    5663     5645     5625     5602     5591     5599     5625     5656 
    5682     5698     5702     5692     5678     5672     5674     5670 
    5660     5644     5621     5591     5563     5560     5576     5590 
    5602     5621     5641     5651     5645     5638     5653     5691 
    5738     5783     5814     5821     5805     5786     5764     5736 
    5699     5647     5589     5559     5556     5541     5513     5502 
    5517     5549     5579     5599     5616     5630     5667     5729 
    5784     5811     5811     5791     5759     5711     5661     5636 
    5628     5626     5632     5637     5647     5663     5680     5683 
    5674     5663     5649     5622     5582     5545     5530     5532 
    5541     5552     5572     5606     5645     5684     5726     5764 
    5784     5788     5780     5744     5692     5656     5644     5657 
    5698     5732     5730     5701     5668     5647     5626     5603 
    5601     5628     5657     5668     5656     5630     5611     5610 
    5616     5616     5614     5622     5652     5692     5710     5691 
    5661     5638     5622     5613     5606     5609     5629     5661 
    5687     5692     5684     5678     5668     5649     5638     5638 
    5622     5582     5544     5530     5539     5579     5637     5679 
    5698     5710     5732     5755     5763     5767     5782     5800 
    5811     5800     5756     5687     5624     5576     5537     5487 
    5436     5414     5443     5506     5574     5628     5679     5733 
    5771     5775     5761     5744     5738     5752     5756     5736 
    5715     5710     5721     5741     5748     5718     5667     5610 
    5559     5518     5498     5506     5521     5520     5524     5555 
    5587     5603     5621     5659     5715     5768     5803     5819 
    5818     5800     5787     5779     5763     5746     5732     5707 
    5667     5614     5557     5510     5479     5455     5440     5444 
    5460     5487     5526     5567     5598     5621     5653     5699 
    5753     5826     5902     5944     5933     5884     5821     5759 
    5713     5686     5659     5618     5567     5528     5505     5479 
    5454     5443     5459     5512     5583     5630     5657     5697 
    5744     5772     5784     5799     5806     5798     5784     5765 
    5734     5697     5665     5653     5661     5667     5645     5603 
    5560     5529     5529     5556     5598     5643     5661     5651 
    5641     5655     5671     5675     5686     5711     5741     5773 
    5809     5832     5830     5796     5730     5649     5574     5510 
    5463     5439     5436     5451     5478     5514     5567     5625 
    5672     5719     5779     5829     5864     5876     5865     5846 
    5819     5768     5692     5606     5524     5458     5425     5420 
    5428     5451     5479     5497     5516     5557     5610     5667 
    5738     5815     5876     5914     5917     5881     5830     5787 
    5757     5740     5721     5684     5629     5566     5505     5451 
    5404     5374     5377     5427     5512     5609     5698     5759 
    5786     5796     5805     5802     5780     5748     5715     5683 
    5656     5638     5637     5649     5660     5665     5661     5649 
    5641     5647     5660     5682     5713     5734     5733     5725 
    5707     5667     5616     5579     5559     5544     5537     5547 
    5578     5624     5663     5687     5701     5713     5732     5755 
    5761     5749     5732     5706     5674     5653     5637     5626 
    5632     5651     5671     5667     5625     5567     5522     5489 
    5479     5512     5568     5621     5665     5698     5705     5695 
    5683     5678     5695     5736     5775     5788     5779     5755 
    5724     5691     5659     5625     5607     5609     5617     5616 
    5587     5548     5530     5533     5535     5529     5536     5575 
    5652     5740     5803     5823     5803     5783     5790     5800 
    5791     5768     5736     5682     5611     5544     5490     5458 
    5463     5508     5562     5620     5670     5682     5664     5652 
    5655     5659     5674     5714     5772     5814     5829     5819 
    5775     5691     5605     5544     5499     5471     5464     5476 
    5487     5495     5529     5586     5628     5664     5717     5778 
    5832     5872     5891     5879     5837     5790     5757     5733 
    5714     5707     5706     5701     5688     5659     5620     5598 
    5598     5593     5549     5475     5404     5373     5389     5436 
    5497     5553     5611     5702     5814     5906     5964     5992 
    5992     5983     5957     5902     5823     5746     5697     5659 
    5597     5506     5401     5309     5267     5285     5347     5429 
    5499     5547     5578     5617     5671     5725     5779     5841 
    5891     5902     5876     5817     5741     5675     5610     5516 
    5406     5321     5285     5302     5359     5421     5468     5509 
    5557     5632     5719     5791     5832     5857     5887     5922 
    5940     5918     5873     5834     5799     5759     5730     5722 
    5717     5725     5742     5714     5624     5510     5404     5344 
    5350     5386     5440     5530     5629     5707     5780     5844 
    5879     5921     5985     6030     6035     6026     5991     5913 
    5814     5703     5574     5466     5401     5367     5359     5374 
    5390     5405     5420     5421     5418     5429     5440     5443 
    5458     5508     5576     5647     5719     5779     5815     5826 
    5775     5667     5574     5555     5611     5697     5768     5798 
    5782     5751     5726     5692     5643     5593     5553     5528 
    5522     5529     5540     5563     5616     5683     5721     5714 
    5701     5719     5783     5887     6025     6150     6212     6212 
    6164     6060     5926     5796     5667     5551     5471     5401 
    5304     5189     5098     5057     5069     5144     5263     5408 
    5587     5786     5958     6079     6153     6204     6237     6231 
    6166     6038     5867     5692     5543     5401     5239     5057 
    4888     4788     4801     4928     5135     5374     5610     5832 
    5996     6066     6075     6069     6075     6108     6168     6205 
    6161     6025     5848     5684     5555     5468     5404     5337 
    5296     5290     5282     5265     5271     5310     5397     5543 
    5722     5891     6039     6158     6226     6245     6210     6114 
    5972     5819     5686     5574     5459     5340     5251     5208 
    5189     5194     5216     5223     5209     5198     5213     5270 
    5379     5528     5692     5860     6018     6149     6243     6303 
    6343     6381     6416     6428     6380     6235     5995     5690 
    5368     5092     4918     4842     4835     4876     4930     4980 
    5071     5243     5478     5752     6019     6218     6336     6403 
    6431     6393     6295     6162     6022     5894     5776     5665 
    5567     5464     5340     5212     5094     4972     4847     4769 
    4765     4841     4985     5181     5420     5683     5921     6100 
    6223     6313     6382     6424     6448     6458     6426     6328 
    6195     6066     5933     5773     5611     5486     5400     5344 
    5317     5289     5228     5146     5080     5080     5147     5246 
    5356     5470     5580     5691     5790     5850     5872     5872 
    5850     5787     5687     5578     5495     5464     5451     5427 
    5413     5413     5395     5363     5356     5402     5505     5661 
    5832     5971     6066     6111     6103     6056     5964     5832 
    5701     5617     5582     5587     5625     5674     5711     5724 
    5701     5660     5617     5579     5572     5634     5757     5890 
    6008     6096     6110     6025     5908     5832     5782     5707 
    5566     5351     5107     4899     4789     4810     4955     5171 
    5395     5590     5734     5811     5827     5827     5845     5876 
    5903     5906     5853     5768     5729     5767     5833     5880 
    5904     5898     5863     5836     5836     5842     5829     5796 
    5755     5687     5590     5489     5433     5444     5497     5566 
    5641     5699     5732     5741     5710     5647     5568     5510 
    5510     5545     5571     5607     5679     5771     5869     5964 
    6018     6012     5965     5896     5807     5699     5583     5479 
    5383     5267     5134     5042     5044     5142     5310     5495 
    5637     5740     5811     5834     5809     5772     5773     5821 
    5876     5894     5864     5818     5778     5761     5782     5826 
    5877     5931     5953     5888     5707     5427     5134     4941 
    4892     4942     5047     5192     5351     5520     5690     5846 
    5977     6072     6112     6111     6077     5980     5809     5622 
    5481     5383     5325     5325     5374     5439     5514     5620 
    5763     5915     6019     6064     6084     6095     6084     6046 
    5980     5894     5810     5732     5629     5471     5266     5070 
    4957     4939     4990     5076     5177     5301     5462     5647 
    5846     6046     6205     6318     6404     6453     6436     6363 
    6262     6150     6014     5821     5562     5252     4934     4683 
    4564     4596     4750     4955     5146     5312     5463     5598 
    5741     5923     6133     6320     6448     6493     6444     6309 
    6120     5925     5764     5670     5633     5606     5555     5463 
    5336     5189     5062     5004     5034     5154     5346     5572 
    5792     5979     6127     6242     6319     6358     6373     6345 
    6241     6070     5850     5599     5358     5154     4981     4846 
    4785     4823     4958     5155     5355     5520     5645     5738 
    5802     5842     5880     5942     6037     6143     6224     6255 
    6215     6096     5914     5717     5539     5391     5290     5238 
    5200     5136     5046     4965     4927     4957     5088     5309 
    5563     5794     5983     6145     6305     6455     6570     6639 
    6666     6635     6536     6384     6166     5868     5524     5189 
    4882     4626     4455     4380     4406     4548     4815     5174 
    5557     5913     6214     6430     6544     6574     6540     6440 
    6276     6064     5834     5609     5400     5223     5104     5035 
    4986     4938     4891     4876     4924     5051     5254     5482 
    5683     5844     5969     6079     6181     6269     6328     6359 
    6374     6370     6340     6276     6164     6015     5844     5645 
    5413     5174     4961     4803     4730     4756     4851     4982 
    5131     5328     5591     5888     6185     6469     6701     6853 
    6912     6855     6670     6386     6033     5637     5274     4997 
    4811     4703     4661     4676     4735     4837     4992     5206 
    5454     5706     5941     6141     6289     6381     6405     6363 
    6269     6143     5989     5805     5603     5417     5271     5165 
    5085     5038     5031     5071     5169     5329     5536     5764 
    5989     6173     6284     6328     6335     6316     6262     6157 
    6014     5859     5713     5589     5471     5335     5204     5135 
    5158     5247     5350     5428     5482     5516     5530     5551 
    5597     5656     5715     5792     5890     5956     5964     5926 
    5854     5757     5645     5521     5397     5287     5213     5185 
    5181     5177     5178     5205     5282     5428     5632     5868 
    6107     6308     6444     6521     6540     6470     6318     6118 
    5900     5690     5506     5344     5213     5132     5100     5113 
    5190     5309     5416     5491     5551     5605     5652     5678 
    5670     5637     5605     5594     5614     5651     5692     5755 
    5841     5922     5950     5902     5803     5701     5614     5563 
    5580     5645     5706     5738     5744     5717     5670     5610 
    5537     5475     5456     5475     5520     5586     5655     5703 
    5738     5761     5761     5749     5740     5741     5752     5773 
    5784     5761     5714     5661     5622     5609     5617     5645 
    5686     5714     5728     5746     5767     5776     5767     5714 
    5625     5522     5425     5344     5293     5275     5279     5309 
    5371     5455     5553     5665     5779     5883     5984     6081 
    6156     6185     6160     6077     5944     5775     5590     5418 
    5285     5201     5181     5223     5297     5390     5498     5609 
    5728     5859     5972     6038     6054     6026     5989     5989 
    6010     6000     5937     5817     5661     5518     5412     5331 
    5266     5212     5167     5138     5131     5154     5206     5282 
    5377     5490     5607     5732     5856     5964     6046     6095 
    6102     6060     5969     5850     5738     5659     5603     5543 
    5463     5386     5344     5351     5404     5479     5559     5630 
    5676     5692     5701     5721     5751     5794     5848     5896 
    5917     5895     5838     5773     5713     5656     5606     5571 
    5552     5556     5587     5629     5671     5721     5763     5787 
    5809     5833     5856     5894     5944     5981     5996     5964 
    5871     5724     5549     5385     5260     5188     5173     5215 
    5298     5397     5498     5593     5661     5719     5799     5891 
    5965     6000     5983     5919     5823     5714     5614     5526 
    5444     5383     5352     5347     5356     5387     5452     5545 
    5653     5752     5814     5830     5814     5775     5725     5675 
    5626     5571     5526     5516     5544     5614     5703     5779 
    5836     5867     5857     5817     5757     5688     5617     5545 
    5475     5406     5341     5287     5262     5282     5351     5454 
    5564     5674     5779     5856     5896     5906     5898     5884 
    5871     5868     5886     5904     5914     5904     5857     5761 
    5645     5552     5493     5462     5462     5485     5508     5528 
    5557     5617     5706     5806     5894     5950     5952     5896 
    5799     5675     5540     5408     5283     5202     5190     5251 
    5379     5547     5709     5844     5953     6031     6080     6110 
    6129     6126     6092     6023     5921     5795     5656     5513 
    5379     5265     5190     5182     5231     5302     5383     5478 
    5568     5645     5715     5771     5805     5818     5807     5775 
    5741     5702     5653     5618     5611     5634     5692     5765 
    5819     5846     5853     5840     5799     5740     5683     5637 
    5603     5567     5517     5470     5421     5377     5352     5339 
    5339     5373     5431     5490     5557     5644     5740     5837 
    5919     5962     5976     5987     5998     5977     5904     5782 
    5636     5503     5398     5324     5274     5233     5216     5233 
    5281     5363     5475     5607     5755     5906     6026     6096 
    6115     6088     6030     5967     5898     5810     5705     5586 
    5454     5333     5244     5177     5150     5194     5292     5414 
    5547     5652     5713     5760     5817     5884     5941     5957 
    5933     5891     5842     5800     5783     5790     5806     5819 
    5832     5836     5832     5832     5834     5832     5815     5769 
    5676     5543     5394     5275     5216     5212     5243     5300 
    5378     5472     5572     5682     5796     5918     6049     6183 
    6291     6345     6339     6281     6177     6025     5832     5622 
    5416     5223     5062     4945     4857     4800     4785     4824 
    4920     5071     5265     5483     5714     5937     6145     6327 
    6465     6538     6531     6448     6318     6170     6014     5826 
    5598     5356     5142     4969     4839     4756     4726     4749 
    4827     4961     5142     5358     5598     5850     6095     6315 
    6489     6605     6660     6655     6590     6470     6305     6099 
