Origin Time       2025/06/03 22:18:00
Lat.              41.7
Long.             143.6
Depth. (km)       30
Mag.              5.2
Station Code      HKD109
Station Lat.      42.1678
Station Long.     142.7673
Station Height(m) 4
Record Time       2025/06/03 22:18:56
Sampling Freq(Hz) 100Hz
Duration Time(s)  61
Dir.              N-S
Scale Factor      7845(gal)/8223790
Max. Acc. (gal)   4.140
Last Correction   2025/06/03 22:18:56
Memo.             
[...]
   13304    13302    13302    13302    13304    13305    13305    13308 
   13313    13316    13309    13302    13302    13308    13309    13304 
   13297    13296    13294    13290    13290    13294    13296    13288 
   13282    13284    13288    13289    13290    13296    13300    13298 
   13293    13294    13301    13308    13320    13338    13347    13344 
   13342    13346    13369    13402    13425    13419    13394    13369 
   13365    13393    13431    13450    13439    13406    13386    13410 
   13455    13471    13450    13420    13401    13389    13371    13348 
   13331    13317    13282    13228    13188    13171    13173    13174 
   13154    13111    13078    13088    13138    13213    13319    13451 
   13531    13455    13251    13123    13204    13373    13439    13412 
   13401    13410    13366    13269    13204    13209    13223    13207 
   13204    13240    13282    13343    13485    13672    13749    13644 
   13501    13468    13498    13433    13247    13076    13018    13005 
   12947    12899    12950    13055    13096    13063    13068    13151 
   13243    13312    13432    13633    13771    13703    13551    13520 
   13598    13639    13635    13667    13691    13591    13378    13209 
   13208    13327    13420    13400    13293    13173    13111    13155 
   13311    13535    13743    13795    13620    13309    13034    12880 
   12834    12827    12799    12715    12599    12556    12715    13043 
   13343    13495    13564    13587    13525    13435    13451    13597 
   13751    13821    13838    13871    13903    13837    13647    13421 
   13262    13158    13035    12928    12992    13219    13366    13261 
   13018    12860    12868    12978    13093    13117    13031    12947 
   13014    13201    13360    13454    13548    13651    13663    13537 
   13409    13489    13768    14000    13998    13810    13594    13412 
   13225    13046    12927    12876    12869    12923    13034    13139 
   13209    13289    13408    13529    13616    13691    13768    13818 
   13805    13697    13481    13220    13005    12877    12803    12712 
   12557    12363    12229    12222    12378    12722    13163    13508 
   13645    13640    13608    13593    13609    13729    13983    14231 
   14278    14100    13855    13670    13559    13514    13498    13392 
   13144    12892    12804    12896    13058    13228    13397    13514 
   13521    13446    13396    13440    13501    13454    13313    13219 
   13224    13266    13284    13306    13393    13554    13684    13653 
   13479    13313    13247    13235    13207    13185    13221    13275 
   13269    13198    13104    12995    12901    12872    12920    13032 
   13166    13308    13460    13571    13574    13475    13333    13197 
   13099    13074    13144    13238    13232    13111    12989    12978 
   13093    13267    13437    13559    13625    13641    13605    13547 
   13539    13618    13726    13749    13644    13486    13397    13410 
   13443    13397    13263    13104    13007    13055    13236    13428 
   13532    13556    13556    13572    13608    13624    13575    13462 
   13320    13161    12949    12676    12410    12237    12185    12225 
   12347    12549    12804    13078    13367    13629    13791    13851 
   13871    13903    13952    13991    13999    13979    13937    13863 
   13756    13636    13556    13552    13563    13477    13279    13078 
   12985    13020    13128    13234    13258    13178    13054    12953 
   12889    12846    12841    12942    13147    13346    13432    13386 
   13267    13163    13139    13192    13261    13288    13277    13284 
   13340    13427    13520    13616    13703    13752    13752    13728 
   13672    13543    13324    13061    12814    12630    12541    12582 
   12768    13035    13293    13514    13720    13876    13922    13872 
   13826    13836    13825    13707    13501    13297    13173    13144 
   13185    13258    13305    13267    13165    13084    13076    13089 
   13050    12970    12950    13023    13124    13193    13254    13369 
   13551    13755    13921    14008    13999    13900    13737    13547 
   13355    13159    12957    12789    12706    12712    12768    12835 
   12926    13069    13255    13460    13664    13815    13865    13832 
   13783    13744    13674    13551    13424    13343    13275    13163 
   13009    12896    12876    12923    12978    13027    13099    13230 
   13421    13629    13765    13764    13659    13541    13482    13491 
   13531    13554    13532    13447    13305    13138    12988    12899 
   12879    12897    12916    12911    12860    12798    12804    12907 
   13055    13207    13350    13463    13512    13487    13440    13427 
   13458    13508    13563    13617    13641    13609    13545    13528 
   13595    13691    13747    13748    13705    13602    13424    13228 
   13097    13026    12955    12869    12787    12723    12696    12735 
   12839    12968    13061    13086    13086    13138    13248    13365 
   13456    13535    13625    13724    13772    13734    13657    13578 
   13462    13300    13138    13005    12915    12884    12941    13088 
   13257    13386    13501    13635    13761    13821    13784    13697 
   13616    13564    13514    13419    13279    13146    13066    13065 
   13134    13232    13321    13379    13412    13439    13477    13508 
   13513    13478    13392    13281    13208    13208    13277    13381 
   13460    13471    13429    13386    13351    13300    13225    13144 
   13074    13016    12962    12916    12906    12969    13105    13248 
   13347    13401    13437    13491    13583    13672    13701    13652 
   13578    13535    13518    13500    13464    13416    13358    13298 
   13258    13239    13217    13177    13146    13165    13243    13351 
   13435    13458    13429    13404    13408    13427    13441    13444 
   13429    13394    13331    13225    13072    12903    12804    12811 
   12879    12928    12920    12897    12919    12991    13078    13159 
   13252    13371    13483    13547    13572    13599    13630    13644 
   13647    13670    13718    13741    13695    13590    13468    13367 
   13306    13279    13235    13130    12970    12825    12753    12781 
   12897    13080    13284    13473    13651    13818    13948    14014 
   14018    13964    13849    13689    13516    13354    13196    13026 
   12839    12673    12569    12530    12542    12611    12766    13004 
   13271    13500    13651    13732    13768    13775    13756    13709 
   13637    13548    13436    13290    13126    12999    12954    12978 
   13014    13038    13085    13186    13333    13498    13647    13760 
   13838    13884    13910    13919    13878    13767    13626    13494 
   13358    13205    13054    12930    12827    12735    12673    12642 
   12629    12653    12761    12920    13027    13045    13024    13028 
   13077    13162    13267    13382    13512    13649    13772    13851 
   13867    13821    13733    13632    13531    13423    13317    13248 
   13243    13271    13285    13271    13255    13254    13248    13239 
   13250    13293    13356    13420    13471    13508    13528    13518 
   13471    13397    13327    13289    13273    13273    13304    13362 
   13420    13471    13528    13581    13570    13467    13317    13176 
   13051    12933    12830    12780    12812    12920    13061    13204 
   13327    13406    13458    13505    13563    13616    13639    13636 
   13626    13610    13572    13504    13409    13297    13177    13070 
   12992    12935    12885    12852    12858    12908    12977    13047 
   13109    13149    13157    13155    13176    13239    13344    13473 
   13593    13656    13651    13618    13598    13591    13581    13554 
   13516    13481    13460    13459    13467    13475    13487    13495 
   13485    13448    13383    13300    13220    13166    13139    13132 
   13165    13265    13414    13576    13728    13869    13975    14006 
   13952    13822    13647    13471    13340    13262    13204    13136 
   13061    12989    12943    12937    12972    13038    13116    13184 
   13216    13209    13190    13181    13157    13088    12989    12888 
   12798    12733    12699    12694    12725    12811    12951    13108 
   13240    13335    13397    13448    13510    13586    13656    13680 
   13641    13570    13490    13400    13312    13259    13265    13327 
   13414    13497    13563    13602    13617    13637    13676    13697 
   13656    13554    13436    13343    13270    13204    13151    13120 
   13104    13074    13030    13009    13050    13142    13231    13281 
   13290    13263    13225    13225    13294    13413    13531    13616 
   13657    13649    13578    13467    13374    13320    13269    13192 
   13101    13005    12904    12833    12812    12846    12933    13055 
   13180    13284    13355    13398    13432    13467    13521    13601 
   13674    13691    13652    13613    13622    13666    13682    13632 
   13509    13339    13165    13032    12970    12977    13022    13089 
   13192    13332    13487    13636    13759    13836    13829    13710 
   13495    13267    13096    12988    12916    12874    12877    12927 
   13023    13154    13293    13409    13502    13594    13695    13771 
   13768    13689    13578    13489    13451    13439    13410    13362 
   13309    13239    13127    12978    12825    12714    12671    12688 
   12744    12822    12927    13066    13213    13328    13408    13482 
   13563    13628    13659    13674    13699    13738    13778    13802 
   13787    13724    13628    13522    13425    13332    13232    13132 
   13038    12969    12946    12964    13018    13113    13243    13375 
   13479    13549    13598    13640    13686    13740    13795    13840 
   13861    13861    13834    13770    13678    13587    13498    13378 
   13205    12995    12808    12703    12671    12684    12744    12853 
   12989    13122    13235    13333    13421    13486    13498    13447 
   13332    13166    12966    12769    12598    12471    12421    12449 
   12526    12604    12652    12684    12748    12860    13005    13171 
   13346    13514    13659    13767    13845    13905    13932    13910 
   13845    13760    13684    13656    13682    13728    13747    13720 
   13659    13590    13537    13516    13520    13535    13555    13567 
   13555    13521    13482    13444    13404    13358    13325    13331 
   13373    13419    13435    13420    13394    13365    13324    13296 
   13300    13332    13382    13452    13525    13563    13547    13486 
   13408    13315    13215    13147    13155    13221    13300    13390 
   13505    13622    13686    13663    13575    13463    13336    13207 
   13089    12991    12915    12869    12865    12912    12988    13063 
   13140    13243    13375    13509    13617    13687    13726    13721 
   13649    13535    13425    13371    13402    13489    13574    13632 
   13675    13699    13690    13645    13572    13460    13288    13061 
   12835    12664    12568    12542    12586    12680    12784    12876 
   12970    13081    13188    13252    13261    13238    13224    13227 
   13208    13159    13115    13093    13088    13095    13122    13185 
   13277    13373    13467    13568    13667    13751    13825    13895 
   13938    13922    13849    13751    13651    13548    13448    13360 
   13302    13277    13274    13294    13346    13404    13419    13379 
   13336    13331    13363    13412    13458    13486    13477    13424 
   13355    13297    13246    13171    13063    12920    12746    12575 
   12456    12410    12422    12467    12544    12656    12789    12941 
   13108    13267    13385    13452    13494    13518    13505    13441 
   13340    13234    13144    13080    13036    13030    13077    13178 
   13328    13518    13705    13833    13884    13867    13784    13662 
   13527    13393    13273    13155    13032    12926    12858    12833 
   12842    12887    12958    13039    13111    13169    13220    13263 
   13292    13296    13263    13193    13103    13024    12969    12934 
   12914    12895    12861    12806    12734    12660    12598    12569 
   12588    12658    12783    12960    13198    13490    13795    14064 
   14264    14382    14401    14305    14103    13833    13552    13327 
   13212    13235    13393    13666    14004    14346    14642    14870 
   15010    15044    14936    14679    14315    13899    13498    13171 
   12947    12820    12785    12862    13057    13312    13543    13691 
   13726    13624    13359    12955    12495    12073    11720    11438 
   11250    11187    11233    11350    11535    11797    12108    12420 
   12722    13022    13286    13478    13603    13683    13714    13683 
   13601    13491    13373    13251    13149    13101    13142    13288 
   13562    14003    14608    15304    16005    16629    17092    17321 
   17294    17042    16613    16060    15423    14748    14083    13447 
   12856    12348    11955    11666    11450    11271    11111    10964 
   10847    10797    10845    10991    11218    11511    11847    12193 
   12515    12819    13122    13428    13741    14079    14446    14810 
   15145    15464    15785    16086    16336    16517    16615    16634 
   16576    16438    16231    15988    15739    15479    15169    14771 
   14277    13711    13128    12580    12091    11635    11186    10751 
   10346     9975     9647     9377     9182     9074     9023     8995 
    8978     8999     9082     9251     9513     9852    10255    10716 
   11237    11824    12474    13153    13826    14445    14949    15300 
   15493    15556    15529    15452    15349    15223    15086    14952 
   14845    14796    14818    14887    14952    14990    14993    14939 
   14824    14651    14415    14108    13741    13344    12947    12557 
   12179    11851    11624    11543    11624    11835    12131    12463 
   12789    13059    13247    13354    13389    13367    13324    13319 
   13382    13510    13701    13948    14229    14503    14724    14851 
   14851    14706    14446    14122    13770    13406    13070    12814 
   12679    12669    12765    12937    13143    13331    13456    13527 
   13559    13552    13500    13412    13325    13259    13194    13116 
   13047    13014    13024    13063    13097    13093    13039    12943 
   12838    12773    12764    12803    12896    13043    13228    13398 
   13473    13408    13240    13032    12841    12707    12657    12681 
   12750    12841    12937    13030    13126    13227    13339    13471 
   13637    13834    14050    14264    14453    14607    14727    14824 
   14901    14931    14877    14708    14426    14065    13662    13252 
   12876    12564    12343    12220    12189    12240    12363    12544 
   12781    13089    13459    13848    14193    14447    14581    14574 
   14430    14193    13926    13666    13420    13197    13035    12969 
   12978    13016    13036    12995    12854    12603    12271    11929 
   11654    11502    11510    11689    12012    12434    12904    13371 
   13813    14206    14513    14701    14767    14731    14638    14544 
   14494    14496    14530    14548    14494    14335    14065    13707 
   13294    12869    12476    12150    11915    11792    11773    11847 
   11998    12204    12428    12623    12756    12822    12822    12780 
   12761    12825    13000    13278    13609    13941    14241    14492 
   14679    14804    14877    14908    14912    14905    14890    14854 
   14762    14600    14377    14116    13840    13548    13217    12841 
   12444    12066    11749    11530    11430    11443    11539    11676 
   11832    11989    12128    12264    12425    12625    12857    13111 
   13386    13680    13983    14280    14550    14750    14835    14775 
   14563    14231    13849    13493    13216    13046    12989    13034 
   13149    13292    13446    13598    13730    13826    13865    13840 
   13759    13637    13491    13329    13155    12960    12730    12459 
   12159    11885    11697    11634    11704    11901    12210    12586 
   12972    13332    13652    13909    14060    14056    13886    13599 
   13259    12926    12675    12559    12594    12754    13000    13281 
   13555    13788    13938    13969    13864    13636    13335    13039 
   12811    12687    12687    12796    12974    13203    13460    13729 
   13991    14218    14380    14453    14419    14288    14095    13876 
   13656    13474    13347    13267    13220    13203    13230    13304 
   13412    13535    13645    13702    13678    13581    13439    13270 
   13088    12903    12746    12660    12646    12667    12688    12700 
   12688    12627    12525    12394    12259    12144    12079    12100 
   12220    12418    12673    12980    13329    13691    14026    14305 
   14516    14652    14713    14694    14602    14445    14241    14033 
   13860    13744    13697    13705    13725    13706    13608    13420 
   13165    12876    12577    12290    12035    11826    11668    11553 
   11475    11443    11472    11581    11794    12127    12564    13063 
   13570    14038    14450    14796    15071    15276    15403    15444 
   15411    15314    15152    14932    14670    14395    14126    13859 
   13589    13320    13068    12866    12729    12642    12609    12619 
   12657    12725    12825    12953    13103    13246    13342    13375 
   13340    13238    13093    12935    12796    12690    12614    12576 
   12577    12602    12649    12735    12868    13046    13266    13493 
   13689    13821    13883    13922    13994    14106    14231    14337 
   14400    14416    14389    14326    14215    14056    13846    13572 
   13230    12850    12494    12204    12002    11886    11828    11809 
   11819    11865    11966    12129    12345    12591    12845    13092 
   13304    13452    13531    13554    13544    13521    13512    13540 
   13609    13709    13833    13971    14119    14289    14478    14678 
   14870    15020    15109    15144    15136    15078    14948    14728 
   14419    14053    13651    13240    12852    12495    12171    11892 
   11668    11531    11516    11630    11858    12172    12523    12865 
   13158    13383    13547    13656    13716    13730    13702    13635 
   13529    13375    13185    12991    12822    12694    12613    12577 
   12583    12618    12677    12762    12861    12950    13022    13082 
   13135    13184    13243    13316    13390    13452    13495    13535 
   13587    13651    13732    13851    13995    14139    14262    14355 
   14411    14427    14408    14362    14301    14233    14162    14107 
   14076    14068    14062    14037    13984    13900    13790    13663 
   13540    13421    13289    13138    12982    12833    12702    12602 
   12542    12537    12576    12636    12708    12793    12889    13000 
   13120    13242    13352    13424    13437    13410    13362    13300 
   13217    13111    12981    12835    12692    12582    12515    12491 
   12501    12529    12565    12615    12692    12803    12943    13089 
   13209    13284    13317    13325    13316    13293    13265    13231 
   13184    13122    13043    12954    12870    12799    12758    12772 
   12827    12899    12984    13092    13232    13394    13560    13713 
   13825    13873    13857    13795    13702    13590    13473    13358 
