Origin Time       2025/06/03 22:18:00
Lat.              41.7
Long.             143.6
Depth. (km)       30
Mag.              5.2
Station Code      HKD113
Station Lat.      42.1287
Station Long.     143.3153
Station Height(m) 15
Record Time       2025/06/03 22:18:36
Sampling Freq(Hz) 100Hz
Duration Time(s)  62
Dir.              N-S
Scale Factor      3920(gal)/6182761
Max. Acc. (gal)   6.958
Last Correction   2025/06/03 22:18:36
Memo.             
[...]
    -106     -104     -102     -103     -103     -101     -105     -108 
    -103      -97      -99     -104     -106     -105     -103     -100 
     -99     -102     -104     -103     -104     -107     -105     -101 
    -100     -101     -104     -105     -103     -104     -104     -104 
    -104     -101     -101     -105     -105     -106     -106     -105 
    -106     -105     -100      -99     -103     -105     -104     -102 
    -102     -103     -103     -105     -105     -101     -101     -103 
    -103     -105     -105     -102     -104     -105     -103     -103 
    -103     -103     -103     -103     -104     -105     -105     -104 
    -102     -103     -105     -104     -103     -103     -103     -102 
    -103     -106     -107     -104     -102     -104     -103     -100 
    -104     -106     -103     -104     -107     -104     -102     -101 
    -101     -103     -103     -103     -105     -104     -105     -106 
    -103     -101     -100     -101     -105     -106     -107     -108 
    -104     -102     -103     -104     -102     -102     -102     -102 
    -101     -101     -104     -107     -106     -103     -101     -102 
    -104     -104     -104     -104     -103     -102     -103     -103 
    -105     -106     -107     -104     -100      -99     -103     -105 
    -105     -108     -108     -103     -102     -100      -99     -102 
    -104     -104     -105     -104     -103     -103     -101      -98 
     -98     -102     -104     -106     -108     -106     -102     -101 
    -101     -104     -107     -106     -104     -101     -100     -100 
    -100     -104     -108     -105     -101     -102     -104     -103 
    -101     -101     -103     -104     -104     -106     -106     -102 
    -101     -100      -99     -103     -106     -103     -106     -107 
    -103     -101     -104     -104     -100     -101     -106     -108 
    -106     -103     -103     -102     -101     -102     -103     -103 
    -104     -106     -105     -101     -100     -104     -104     -103 
    -102     -101     -101     -104     -106     -104     -100      -98 
     -99     -103     -108     -108     -106     -102     -100     -103 
    -103     -105     -108     -105     -103      -99      -96      -98 
    -103     -107     -107     -106     -105     -104     -101      -97 
     -98     -104     -107     -104     -103     -104     -103     -100 
    -102     -102      -98      -99     -102     -104     -107     -108 
    -106     -106     -107     -108     -105     -100     -100     -101 
    -103     -106     -106     -106     -105     -102     -100      -96 
     -95      -98     -102     -109     -112     -108     -103     -101 
     -98      -96      -98      -97      -97     -104     -114     -117 
    -109     -100      -97      -95      -97     -103     -106     -109 
    -109     -105     -105     -107     -106     -101      -96      -95 
     -99     -103     -103     -105     -111     -108     -101      -98 
    -100     -101     -101     -101     -103     -101     -103     -108 
    -106     -106     -108     -104     -101     -100      -98     -102 
    -108     -109     -108     -108     -101      -97     -100     -100 
     -99     -104     -109     -111     -108     -102      -98      -98 
     -98      -96      -99     -104     -108     -111     -109     -106 
    -101      -95      -96     -100     -104     -108     -110     -107 
    -106     -106     -102      -97     -100     -106     -105     -103 
    -104     -106     -109     -109     -105     -101      -97      -96 
    -101     -104     -105     -107     -106     -104     -104     -101 
     -97      -99     -104     -101     -100     -106     -106     -106 
    -108     -104     -104     -106      -97      -94     -103     -108 
    -112     -115     -108     -101     -101     -101      -99     -101 
    -105     -105     -106     -104     -101     -102     -104     -102 
    -100     -101     -103     -104     -108     -108     -106     -106 
    -102      -95      -92      -93     -103     -109     -109     -112 
    -109     -104     -104      -99      -97      -99     -100     -102 
    -105     -107     -105     -104     -104     -100      -95      -97 
    -102     -105     -106     -105     -103     -102     -105     -107 
    -107     -105     -101     -100     -101     -102     -106     -110 
    -108     -103      -98      -97      -98     -101     -105     -103 
    -102     -106     -107     -106     -106     -103     -100     -100 
    -104     -109     -109     -100      -98     -102     -100     -103 
    -113     -114     -108      -99      -92      -95      -99     -103 
    -111     -115     -111     -104      -99      -94      -95     -101 
    -103     -101     -104     -107     -106     -102      -99     -101 
    -108     -108      -97      -94      -97      -99     -103     -110 
    -111     -109     -104      -99      -95      -92      -98     -110 
    -113     -110     -109     -104      -95      -93      -94      -99 
    -106     -108     -108     -111     -105      -98      -99     -102 
    -106     -106     -102     -103     -108     -105     -100     -102 
    -105     -103      -97      -95      -99     -104     -106     -103 
    -104     -106     -105     -104     -106     -105     -105     -102 
     -95      -94     -104     -109     -108     -110     -110     -106 
     -98      -90      -93      -99     -107     -115     -113     -105 
     -99      -95      -95     -100     -108     -111     -104     -101 
    -105     -102      -97      -99     -104     -111     -112     -111 
    -122     -142     -164     -187     -208     -225     -228     -212 
    -174     -121      -60        5       56       67       32      -44 
    -141     -239     -333     -393     -384     -306     -183      -66 
     -20      -80     -232     -420     -579     -647     -569     -330 
      13      333      470      351       44     -354     -781    -1127 
   -1214     -903     -265      397      799      832      432     -362 
   -1212    -1633    -1348     -462      598     1363     1662     1559 
    1004      -49    -1340    -2391    -2765    -2268     -987      772 
    2415     3274     2994     1600     -367    -2046    -2939    -2937 
   -2097     -676      970     2274     2634     1987      653     -886 
   -1874    -1860    -1106      -74      811     1131      841      270 
    -365     -854     -803     -197      566     1189     1381     1031 
     393     -418    -1350    -1982    -1835     -822      714     2197 
    2937     2430      892     -935    -2285    -2641    -2092    -1093 
      95     1207     1859     1852     1224      201     -735    -1156 
   -1120     -751       -9      733     1041      977      548     -211 
    -794     -849     -529     -187     -190     -558     -839     -786 
    -627     -465      -84      607     1346     1677     1344      441 
    -786    -1926    -2530    -2457    -1698     -332     1102     1991 
    2146     1526      276    -1051    -1889    -1988    -1515     -866 
     -91      871     1524     1340      515     -387     -998    -1190 
   -1023     -672     -203      385      864      850      208     -748 
   -1509    -1815    -1735    -1407     -857      -17     1050     2121 
    2805     2656     1612      -22    -1812    -3114    -3537    -3213 
   -2171     -263     2184     4136     4595     3547     1691     -306 
   -1886    -2748    -2931    -2454    -1444     -359      479     1040 
    1240      954      224     -643    -1172    -1133     -649       35 
     667     1047      987      380     -577    -1369    -1408     -515 
     830     1996     2640     2609     1909      690     -828    -2219 
   -2917    -2694    -1740     -403      863     1740     2190     2110 
    1284     -196    -1794    -2904    -3182    -2479     -982      629 
    1600     1511      460     -795    -1458    -1432     -982     -251 
     599     1314     1650     1341      383     -752    -1632    -2112 
   -2010    -1281     -109     1388     2849     3507     2875     1065 
   -1325    -3320    -4060    -3347    -1631      299     1685     2134 
    1683      647     -604    -1702    -2235    -1965    -1011      330 
    1619     2372     2413     1789      618     -708    -1664    -1919 
   -1371     -280      727     1183     1113      682      -22     -835 
   -1510    -1676    -1028      105      990     1284     1046      453 
    -168     -565     -778     -900     -848     -549     -142      204 
     469      705      907      970      780      342     -214     -661 
    -826     -728     -469     -172       61      256      391      307 
     -60     -627    -1142    -1231     -837     -336      -30       84 
      70      -33     -204     -420     -520     -267      325      949 
    1255     1072      474     -361    -1283    -2064    -2331    -1794 
    -560      818     1668     1667      965      -69    -1075    -1779 
   -1965    -1476     -426      701     1374     1407      919       76 
    -938    -1835    -2274    -1958     -831      738     2093     2668 
    2235      978     -541    -1646    -1949    -1507     -647      236 
     825      957      566     -288    -1243    -1791    -1671     -965 
      64     1094     1797     1900     1274       69    -1300    -2362 
   -2743    -2279    -1171       83     1038     1536     1613     1331 
     768      153     -190     -101      310      748      970      914 
     594       30     -660    -1203    -1272     -753      112      910 
    1285     1065      416     -268     -730     -859     -636     -301 
    -134      -60       99      274      345      315      166     -121 
    -424     -599     -601     -400      -67      172      180      -33 
    -378     -646     -716     -722     -727     -656     -518     -317 
     -33      189      156     -128     -500     -799     -946     -962 
    -953    -1005    -1066    -1040     -928     -787     -626     -431 
    -277     -193      -46      218      454      521      341      -47 
    -398     -468     -174      431     1143     1711     1919     1616 
     869       -4     -674     -964     -891     -566     -153       97 
      38     -227     -527     -759     -825     -708     -482     -160 
     278      651      704      462       91     -333     -602     -449 
      63      676     1168     1296      952      275     -529    -1146 
   -1285    -1019     -546       74      721     1216     1425     1232 
     720      126     -397     -658     -480       54      669     1031 
     931      521       80     -317     -666     -872     -816     -517 
    -170       72      229      353      400      274      -31     -362 
    -574     -676     -760     -833     -784     -581     -350     -239 
    -303     -416     -398     -284     -240     -307     -409     -461 
    -443     -439     -501     -557     -562     -592     -675     -670 
    -396      148      674      792      406     -197     -652     -740 
    -475     -102      133      169       79      -68     -253     -456 
    -618     -661     -518     -212      143      454      676      715 
     487       62     -383     -697     -782     -611     -226      253 
     640      841      898      775      385     -192     -736    -1061 
   -1110     -970     -741     -407       26      424      616      526 
     239      -82     -262     -160      199      651     1022     1111 
     800      181     -507    -1015    -1177     -984     -521       96 
     715     1171     1319     1109      625       22     -525     -879 
    -989     -849     -522     -157      158      398      488      421 
     313      228      134       21      -75     -133     -175     -260 
    -421     -608     -694     -591     -369     -184     -104      -91 
    -101     -164     -355     -701    -1123    -1434    -1427    -1010 
    -284      491     1023     1181     1002      575       37     -453 
    -835    -1071    -1105     -970     -737     -399        4      329 
     444      284     -122     -609     -965    -1074     -968     -759 
    -596     -627     -905    -1267    -1416    -1140     -517      119 
     514      655      582      340       48     -166     -216     -102 
      68      217      341      427      434      321      117      -95 
    -285     -437     -455     -287      -64       42       -5     -143 
    -297     -350     -213       56      325      538      714      895 
    1114     1399     1728     2003     2162     2254     2322     2324 
    2220     2095     2118     2355     2706     3031     3230     3229 
    2911     2133      891     -561    -1829    -2566    -2627    -2166 
   -1552    -1154    -1123    -1366    -1663    -1800    -1690    -1342 
    -808     -336     -321     -970    -2181    -3567    -4540    -4656 
   -3884    -2437     -586     1305     2761     3340     2864     1573 
      64    -1035    -1393     -984       27     1276     2267     2554 
    1869      291    -1693    -3407    -4206    -3655    -1898      249 
    1776     2040     1014     -783    -2604    -3757    -3758    -2585 
    -801      783     1594     1621     1366     1374     1812     2541 
    3360     4039     4327     4046     3290     2451     1887     1668 
    1610     1406      821     -153    -1369    -2629    -3716    -4428 
   -4492    -3607    -1800      422     2221     2678     1267    -1779 
   -5604    -9022   -10868   -10487    -7979    -4138     -286     2181 
    2464      754    -1930    -4285    -5196    -3996     -685     3919 
    8311    10871    10642     7669     2848    -2281    -5949    -6872 
   -4815     -676     3915     7350     8646     7652     4959     1673 
   -1028    -2413    -2416    -1442     -123      904     1195      540 
   -1050    -3244    -5411    -6833    -6898    -5326    -2393     1038 
    3761     4741     3651     1001    -2097    -4394    -5135    -4370 
   -2708     -929      371      990     1010      616       54     -455 
    -781     -816     -490      153     1001     1851     2406     2465 
    2105     1664     1473     1572     1737     1627      931     -366 
   -1898    -3132    -3529    -2688     -578     2275     4874     6235 
    5879     3863      690    -2699    -5186    -5941    -4774    -2274 
     451     2368     2899     1998      162    -1776    -3014    -3088 
   -2019     -241     1596     2818     2948     1854     -235    -2717 
   -4753    -5579    -4771    -2400      851     3894     5730     5849 
    4375     1939     -671    -2734    -3694    -3389    -2122     -454 
    1000     1853     2150     2194     2224     2283     2211     1747 
     750     -629    -2013    -3001    -3296    -2781    -1576       -1 
    1540     2705     3300     3223     2376      835     -970    -2515 
   -3450    -3572    -2836    -1482      -20      944     1064      490 
    -343    -1061    -1457    -1458    -1146     -785     -751    -1252 
   -2090    -2718    -2569    -1426      380     2150     3240     3373 
    2688     1476      -23    -1583    -2934    -3773    -3851    -3145 
   -1798       38     2107     3975     5157     5332     4556     3246 
    1926      949      306     -252     -893    -1564    -2111    -2403 
   -2354    -1921    -1124      -72     1003     1776     1969     1466 
     287    -1365    -2996    -4060    -4253    -3546    -2196     -639 
     776     1815     2307     2196     1554      549     -626    -1799 
   -2763    -3290    -3234    -2623    -1693     -752       63      807 
    1551     2218     2584     2443     1751      625     -664    -1743 
   -2293    -2128    -1264       -1     1215     2019     2208     1792 
     986      103     -536     -687     -307      405     1135     1594 
    1633     1284      733      236        4      103      458      906 
    1250     1333     1034      285     -807    -1908    -2582    -2491 
   -1582     -149     1296     2282     2579     2221     1416      433 
    -494    -1169    -1379     -998     -180      674     1162     1089 
     529     -260    -1001    -1516    -1664    -1341     -625      221 
     910     1264     1258      938      364     -329     -894    -1090 
    -839     -289      275      569      433     -110     -887    -1671 
   -2265    -2489    -2213    -1502     -641       14      176     -255 
   -1155    -2226    -3072    -3334    -2825    -1596       16     1489 
    2325     2223     1203     -397    -2046    -3171    -3366    -2559 
    -978      945     2649     3640     3716     3042     2017     1038 
     358      113      355      968     1662     2108     2098     1620 
     794     -233    -1260    -2026    -2326    -2130    -1624    -1121 
    -882     -972    -1284    -1653    -1899    -1861    -1494     -888 
    -207      367      706      795      677      407       49     -289 
    -452     -286      289     1219     2311     3291     3845     3721 
    2887     1575      154    -1017    -1686    -1751    -1316     -684 
    -222     -156     -448     -914    -1389    -1761    -1949    -1922 
   -1698    -1347     -947     -590     -373     -331     -394     -461 
    -447     -290       68      630     1252     1702     1816     1585 
    1172      828      709      808     1023     1223     1251     1003 
     501     -118     -634     -862     -817     -673     -603     -653 
    -738     -760     -714     -665     -710     -871    -1053    -1134 
   -1057     -856     -643     -552     -696    -1106    -1668    -2144 
   -2304    -2091    -1615    -1013     -408       89      402      483 
     316      -66     -591    -1141    -1582    -1777    -1611    -1107 
    -452      119      474      602      568      494      529      756 
    1139     1519     1724     1694     1455     1051      549       75 
    -186      -87      365     1008     1608     1944     1868     1362 
     572     -242     -809     -971     -734     -247      277      651 
     749      530       90     -363     -660     -728     -560     -214 
     200      520      567      282     -229     -790    -1237    -1457 
   -1368     -950     -317      317      741      849      686      358 
     -37     -395     -628     -661     -446      -31      432      742 
     742      406     -162     -806    -1362    -1667    -1625    -1267 
    -735     -241       38       39     -217     -625     -992    -1130 
    -972     -567      -21      536      965     1146     1010      584 
      60     -298     -341      -83      364      824     1133     1183 
     928      471       48     -148      -64      216      536      759 
     765      467     -121     -887    -1641    -2157    -2288    -2019 
   -1432     -712      -87      271      294       68     -208     -367 
    -327      -85      289      723     1147     1426     1429     1151 
     686      158     -309     -630     -791     -841     -843     -838 
    -861     -945    -1102    -1295    -1447    -1486    -1406    -1243 
   -1055     -922     -873     -847     -779     -636     -409     -150 
      71      225      309      339      330      284      203      122 
      89      131      228      338      436      520      599      668 
     706      702      660      600      551      525      514      502 
     469      390      228      -39     -356     -612     -721     -644 
    -359       93      570      887      940      744      429      149 
     -32     -144     -253     -407     -597     -751     -760     -550 
