Origin Time       2025/06/03 22:18:00
Lat.              41.7
Long.             143.6
Depth. (km)       30
Mag.              5.2
Station Code      HKD108
Station Lat.      42.2528
Station Long.     142.5643
Station Height(m) 42
Record Time       2025/06/03 22:19:01
Sampling Freq(Hz) 100Hz
Duration Time(s)  60
Dir.              N-S
Scale Factor      3920(gal)/6182761
Max. Acc. (gal)   1.651
Last Correction   2025/06/03 22:19:01
Memo.             
[...]
   20188    20245    20242    20203    20152    20099    20036    19976 
   19943    19944    19951    19944    19918    19880    19849    19848 
   19889    19952    20004    20032    20066    20135    20229    20302 
   20323    20305    20283    20264    20231    20183    20133    20085 
   20020    19926    19832    19791    19824    19906    20008    20115 
   20217    20296    20326    20293    20204    20077    19939    19826 
   19765    19766    19811    19863    19896    19898    19868    19834 
   19841    19919    20054    20197    20297    20339    20351    20365 
   20387    20394    20359    20276    20162    20040    19923    19812 
   19695    19565    19447    19394    19457    19654    19943    20250 
   20495    20625    20633    20551    20432    20315    20214    20112 
   19982    19796    19563    19331    19189    19236    19516    19967 
   20437    20778    20923    20884    20712    20457    20174    19912 
   19703    19560    19466    19414    19426    19522    19686    19872 
   20034    20162    20282    20411    20534    20607    20594    20489 
   20323    20145    20009    19955    20002    20128    20278    20368 
   20334    20167    19918    19661    19459    19348    19337    19416 
   19552    19713    19877    20043    20213    20375    20504    20576 
   20596    20582    20554    20522    20472    20370    20193    19965 
   19741    19579    19517    19564    19696    19854    19965    19988 
   19932    19844    19768    19728    19734    19794    19913    20069 
   20204    20264    20242    20182    20130    20090    20048    20006 
   19986    20013    20068    20091    20055    19990    19959    20004 
   20117    20246    20340    20378    20347    20230    20028    19787 
   19585    19486    19498    19573    19650    19707    19763    19847 
   19971    20123    20273    20396    20481    20520    20520    20501 
   20478    20430    20317    20130    19913    19736    19660    19688 
   19778    19881    19968    20040    20103    20155    20191    20203 
   20188    20156    20117    20075    20024    19961    19896    19857 
   19874    19957    20080    20194    20257    20258    20219    20189 
   20198    20242    20304    20352    20345    20259    20100    19889 
   19663    19453    19289    19200    19209    19339    19579    19871 
   20148    20358    20476    20514    20515    20515    20520    20502 
   20412    20239    20033    19857    19751    19713    19715    19726 
   19734    19750    19790    19870    19996    20148    20295    20422 
   20542    20681    20846    21003    21097    21090    20973    20759 
   20464    20117    19764    19455    19217    19061    18994    19025 
   19158    19375    19646    19926    20169    20339    20422    20434 
   20399    20328    20226    20109    19990    19882    19797    19748 
   19755    19829    19954    20096    20220    20310    20348    20304 
   20149    19900    19619    19373    19221    19191    19271    19429 
   19623    19821    20008    20174    20306    20397    20457    20510 
   20574    20653    20741    20814    20843    20816    20729    20591 
   20422    20245    20066    19876    19666    19437    19216    19050 
   18987    19055    19251    19541    19866    20178    20442    20627 
   20712    20675    20511    20264    20008    19796    19644    19560 
   19544    19605    19748    19949    20168    20356    20469    20493 
   20444    20355    20251    20132    19998    19879    19815    19831 
   19915    20017    20082    20091    20047    19966    19869    19774 
   19696    19660    19677    19730    19805    19909    20057    20253 
   20470    20646    20725    20705    20623    20538    20493    20490 
   20495    20472    20407    20316    20221    20129    20047    19984 
   19945    19912    19847    19722    19539    19349    19211    19160 
   19217    19374    19604    19883    20178    20458    20700    20889 
   21016    21059    20998    20833    20587    20309    20046    19808 
   19581    19353    19128    18939    18835    18855    19012    19292 
   19644    19996    20293    20507    20626    20662    20636    20562 
   20457    20343    20244    20183    20162    20158    20141    20080 
   19961    19801    19649    19557    19557    19654    19818    20007 
   20185    20324    20409    20449    20448    20414    20364    20310 
   20253    20190    20111    20004    19876    19753    19664    19632 
   19665    19754    19885    20045    20223    20385    20495    20537 
   20504    20405    20260    20094    19937    19824    19767    19758 
   19776    19804    19833    19865    19913    19968    20002    19995 
   19938    19832    19699    19572    19487    19470    19525    19641 
   19793    19956    20122    20293    20471    20635    20748    20767 
   20659    20430    20124    19813    19570    19433    19398    19442 
   19546    19707    19917    20154    20376    20546    20649    20687 
   20671    20609    20498    20340    20161    19993    19863    19781 
   19745    19757    19813    19897    19976    20027    20035    20007 
   19969    19944    19940    19957    19988    20013    20026    20040 
   20066    20112    20183    20274    20364    20419    20400    20297 
   20143    19980    19846    19770    19757    19808    19911    20037 
   20149    20233    20297    20360    20430    20493    20528    20513 
   20435    20300    20138    19980    19859    19783    19739    19709 
   19688    19670    19649    19623    19592    19564    19552    19576 
   19655    19801    20000    20213    20394    20505    20527    20461 
   20324    20156    19994    19874    19817    19822    19872    19939 
   19992    20023    20041    20053    20067    20076    20078    20081 
   20090    20102    20114    20117    20103    20080    20059    20053 
   20064    20083    20102    20122    20145    20171    20194    20208 
   20210    20201    20173    20122    20063    20029    20031    20058 
   20079    20062    20005    19935    19889    19887    19924    19981 
   20041    20094    20129    20143    20146    20146    20141    20126 
   20093    20038    19966    19882    19788    19690    19598    19528 
   19495    19499    19537    19610    19718    19855    20010    20180 
   20356    20505    20593    20605    20551    20464    20369    20271 
   20165    20049    19933    19832    19757    19713    19700    19720 
   19775    19865    19984    20114    20241    20352    20439    20494 
   20510    20482    20419    20327    20206    20064    19917    19782 
   19672    19590    19541    19540    19589    19687    19832    20008 
   20190    20358    20488    20567    20601    20587    20522    20412 
   20277    20142    20036    19967    19922    19880    19839    19812 
   19820    19875    19966    20059    20133    20185    20216    20239 
   20266    20298    20322    20320    20279    20198    20087    19973 
   19872    19774    19670    19552    19432    19346    19327    19387 
   19521    19720    19966    20232    20479    20667    20756    20732 
   20612    20431    20236    20060    19917    19809    19739    19711 
   19733    19811    19939    20100    20256    20365    20397    20348 
   20240    20114    19995    19895    19809    19725    19630    19523 
   19425    19370    19378    19442    19548    19677    19815    19952 
   20083    20207    20317    20407    20459    20461    20411    20319 
   20205    20103    20040    20036    20083    20157    20238    20312 
   20365    20397    20408    20400    20367    20303    20206    20086 
   19968    19880    19837    19845    19885    19923    19942    19940 
   19922    19902    19885    19869    19856    19852    19869    19923 
   20008    20100    20179    20238    20280    20311    20332    20332 
   20293    20207    20082    19943    19820    19738    19711    19747 
   19837    19955    20069    20144    20165    20143    20095    20047 
   20014    19989    19947    19883    19808    19742    19702    19689 
   19699    19728    19779    19866    19991    20146    20323    20512 
   20686    20807    20852    20816    20705    20529    20308    20069 
   19839    19642    19502    19438    19456    19548    19705    19900 
   20085    20224    20294    20289    20224    20131    20044    19996 
   19995    20033    20099    20176    20249    20315    20363    20383 
   20359    20271    20113    19898    19652    19415    19219    19086 
   19039    19087    19229    19448    19714    19995    20271    20521 
   20717    20840    20880    20839    20729    20575    20408    20252 
   20116    20000    19910    19853    19837    19857    19898    19942 
   19970    19965    19922    19852    19778    19722    19694    19693 
   19717    19765    19848    19973    20121    20254    20324    20298 
   20178    20003    19834    19714    19665    19687    19756    19842 
   19926    19995    20038    20057    20072    20097    20137    20185 
   20223    20244    20261    20287    20328    20384    20445    20488 
   20494    20454    20379    20287    20202    20135    20067    19986 
   19889    19784    19701    19669    19702    19796    19934    20089 
   20233    20334    20378    20368    20303    20195    20063    19917 
   19770    19642    19559    19539    19591    19710    19877    20067 
   20244    20375    20445    20454    20407    20316    20185    20022 
   19853    19708    19616    19598    19666    19820    20042    20289 
   20517    20683    20761    20749    20663    20537    20414    20320 
   20263    20232    20205    20171    20128    20087    20057    20043 
   20042    20037    20022    20008    20010    20037    20085    20135 
   20177    20215    20256    20300    20335    20346    20321    20252 
   20138    19981    19801    19635    19523    19479    19486    19512 
   19536    19567    19622    19703    19796    19886    19960    20015 
   20053    20081    20118    20185    20286    20404    20503    20551 
   20532    20445    20310    20158    20015    19901    19829    19795 
   19790    19804    19828    19864    19914    19976    20031    20060 
   20043    19978    19884    19788    19709    19664    19663    19706 
   19797    19928    20071    20182    20216    20150    19994    19799 
   19628    19523    19496    19540    19638    19776    19946    20138 
   20327    20480    20561    20546    20446    20305    20173    20091 
   20081    20133    20217    20306    20380    20436    20493    20560 
   20620    20647    20627    20555    20435    20285    20121    19962 
   19820    19693    19573    19455    19339    19233    19157    19129 
   19152    19230    19361    19536    19744    19971    20196    20387 
   20524    20588    20568    20467    20309    20130    19971    19851 
   19782    19777    19843    19985    20200    20461    20725    20934 
   21040    21034    20935    20769    20561    20335    20117    19947 
   19859    19865    19946    20081    20236    20383    20507    20600 
   20653    20656    20602    20492    20324    20108    19866    19621 
   19403    19234    19124    19088    19137    19259    19422    19589 
   19725    19814    19853    19851    19818    19758    19679    19592 
   19518    19490    19527    19635    19802    20012    20248    20500 
   20751    20974    21134    21210    21186    21059    20846    20564 
   20245    19939    19693    19538    19470    19459    19472    19498 
   19531    19564    19582    19585    19583    19583    19587    19597 
   19623    19690    19816    20000    20221    20427    20556    20583 
   20519    20392    20239    20095    19975    19885    19837    19834 
   19868    19915    19954    19970    19962    19944    19933    19947 
   20008    20119    20255    20380    20459    20483    20478    20479 
   20512    20575    20628    20620    20508    20291    20016    19745 
   19534    19417    19400    19457    19541    19598    19595    19540 
   19470    19416    19400    19420    19455    19488    19510    19531 
   19568    19634    19731    19842    19950    20047    20133    20232 
   20367    20521    20656    20739    20752    20710    20659    20624 
   20608    20603    20585    20524    20405    20225    20002    19777 
   19590    19459    19385    19365    19381    19414    19455    19509 
   19594    19715    19849    19952    19974    19867    19614    19240 
   18804    18396    18121    18060    18237    18630    19180    19802 
   20410    20932    21311    21517    21544    21408    21155    20849 
   20555    20339    20244    20278    20418    20625    20854    21065 
   21226    21319    21339    21288    21168    20979    20731    20445 
   20156    19892    19661    19474    19345    19288    19319    19431 
   19585    19727    19814    19827    19769    19667    19569    19521 
   19567    19737    20026    20411    20855    21299    21673    21912 
   21967    21836    21565    21233    20913    20654    20472    20349 
   20260    20173    20062    19927    19795    19695    19651    19653 
   19658    19630    19547    19417    19273    19149    19070    19039 
   19026    18993    18914    18781    18625    18495    18428    18441 
   18529    18680    18891    19160    19487    19872    20293    20701 
   21038    21244    21284    21161    20930    20671    20456    20339 
   20351    20482    20699    20957    21202    21390    21498    21520 
   21462    21331    21125    20845    20508    20150    19827    19616 
   19569    19702    19990    20365    20728    20980    21046    20902 
   20566    20078    19493    18875    18292    17819    17520    17438 
   17594    17975    18530    19182    19850    20458    20944    21270 
   21422    21414    21268    21017    20702    20366    20054    19805 
   19653    19614    19687    19854    20086    20363    20673    21002 
   21328    21619    21840    21961    21964    21837    21578    21211 
   20779    20335    19923    19571    19278    19027    18804    18595 
   18398    18233    18127    18102    18169    18323    18559    18860 
   19197    19538    19855    20116    20301    20396    20386    20274 
   20090    19864    19632    19436    19309    19288    19394    19629 
   19967    20364    20756    21065    21207    21120    20793    20270 
   19645    19032    18527    18194    18067    18153    18445    18921 
   19545    20265    21004    21675    22200    22515    22588    22434 
   22098    21634    21104    20569    20092    19736    19543    19529 
   19688    19979    20337    20706    21029    21258    21352    21280 
   21033    20646    20188    19736    19359    19109    19008    19041 
   19168    19343    19527    19687    19805    19874    19893    19871 
   19821    19765    19736    19757    19846    20008    20224    20460 
   20668    20795    20811    20715    20540    20340    20166    20044 
   19959    19888    19822    19759    19698    19646    19595    19509 
   19349    19100    18788    18467    18188    17994    17911    17950 
   18117    18407    18804    19279    19787    20279    20717    21073 
   21341    21522    21613    21628    21589    21522    21441    21339 
   21199    21011    20786    20560    20374    20265    20259    20351 
   20511    20715    20933    21150    21370    21574    21720    21761 
   21644    21349    20906    20377    19847    19386    19037    18824 
   18760    18838    19041    19330    19655    19960    20195    20323 
   20326    20199    19955    19614    19217    18823    18491    18277 
   18213    18297    18516    18846    19263    19739    20231    20676 
   21005    21156    21111    20894    20556    20171    19805    19503 
   19287    19153    19105    19148    19273    19457    19685    19920 
   20106    20190    20137    19957    19696    19418    19199    19099 
   19126    19252    19428    19609    19765    19889    19977    20037 
   20083    20129    20191    20276    20374    20469    20540    20566 
   20537    20451    20314    20140    19950    19760    19578    19400 
   19232    19093    19010    19016    19135    19368    19704    20122 
   20589    21069    21529    21922    22199    22332    22316    22165 
   21911    21605    21297    21021    20798    20635    20527    20460 
   20416    20377    20333    20278    20211    20129    20027    19909 
   19785    19667    19569    19497    19443    19399    19368    19368 
   19407    19483    19573    19639    19645    19575    19429    19229 
   19018    18850    18776    18829    19012    19307    19680    20087 
   20494    20878    21217    21498    21715    21858    21914    21874 
   21733    21491    21168    20800    20427    20087    19804    19593 
   19455    19396    19427    19544    19722    19909    20047    20100 
   20053    19902    19651    19318    18934    18548    18200    17921 
   17744    17699    17808    18079    18492    18995    19536    20067 
   20538    20915    21183    21325    21343    21254    21082    20862 
   20626    20400    20214    20087    20019    20006    20031    20066 
   20096    20121    20160    20231    20349    20516    20718    20930 
   21110    21215    21211    21073    20811    20465    20089    19739 
   19473    19349    19401    19630    19994    20414    20797    21073 
   21198    21164    20991    20710    20354    19950    19529    19127 
   18791    18568    18487    18559    18777    19114    19522    19949 
   20354    20704    20976    21172    21292    21326    21267    21102 
   20826    20457    20020    19554    19114    18742    18459    18271 
   18168    18134    18167    18273    18444    18659    18900    19146 
   19385    19609    19811    19991    20153    20278    20360    20405 
   20415    20389    20324    20214    20062    19885    19717    19588 
   19517    19513    19580    19711    19894    20104    20311    20487 
   20602    20644    20612    20513    20375    20235    20125    20061 
   20043    20057    20078    20087    20077    20044    19999    19981 
   20019    20132    20333    20606    20917    21232    21519    21751 
   21903    21941    21846    21617    21271    20847    20383    19917 
   19488    19130    18868    18728    18718    18853    19145    19581 
   20117    20686    21210    21628    21896    21984    21888    21612 
   21182    20654    20100    19592    19200    18970    18910    19021 
   19269    19593    19932    20234    20456    20581    20604    20527 
   20369    20164    19951    19756    19604    19512    19488    19532 
   19633    19771    19920    20052    20141    20163    20114    20014 
   19888    19754    19636    19536    19451    19386    19335    19290 
   19256    19242    19254    19302    19391    19513    19654    19791 
   19904    19973    19981    19926    19819    19686    19554    19451 
   19409    19442    19543    19691    19859    20018    20151    20246 
   20306    20348    20389    20446    20519    20597    20667    20723 
   20769    20801    20812    20802    20760    20678    20555    20395 
   20213    20034    19879    19771    19709    19680    19671    19669 
   19662    19648    19629    19606    19587    19576    19582    19615 
   19684    19794    19935    20081    20213    20325    20421    20510 
   20595    20675    20733    20760    20757    20718    20636    20510 
   20346    20174    20022    19909    19853    19858    19913    20010 
   20131    20253    20358    20433    20463    20439    20373    20290 
