Origin Time       2025/06/03 22:18:00
Lat.              41.7
Long.             143.6
Depth. (km)       30
Mag.              5.2
Station Code      HKD108
Station Lat.      42.2528
Station Long.     142.5643
Station Height(m) 42
Record Time       2025/06/03 22:19:01
Sampling Freq(Hz) 100Hz
Duration Time(s)  60
Dir.              U-D
Scale Factor      3920(gal)/6182761
Max. Acc. (gal)   0.803
Last Correction   2025/06/03 22:19:01
Memo.             
[...]
   23968    24037    24108    24178    24258    24346    24417    24442 
   24412    24333    24215    24087    23999    23993    24063    24154 
   24184    24124    24027    23967    23974    24023    24069    24089 
   24077    24048    24023    24009    24008    24026    24045    24035 
   23985    23928    23906    23924    23945    23944    23923    23890 
   23849    23813    23807    23847    23924    23997    24035    24045 
   24058    24096    24154    24210    24242    24244    24228    24198 
   24162    24135    24128    24128    24102    24032    23942    23871 
   23849    23898    24014    24154    24245    24238    24159    24090 
   24098    24191    24322    24418    24422    24333    24208    24117 
   24089    24103    24120    24109    24068    24013    23962    23934 
   23950    24023    24134    24225    24239    24158    24017    23886 
   23825    23843    23893    23927    23928    23924    23963    24045 
   24126    24172    24181    24175    24166    24144    24102    24038 
   23969    23930    23943    23999    24061    24091    24085    24071 
   24086    24139    24221    24307    24351    24316    24197    24026 
   23861    23765    23765    23842    23949    24047    24125    24181 
   24218    24240    24250    24243    24205    24139    24076    24036 
   24013    24000    24000    24011    24012    23974    23905    23849 
   23852    23925    24020    24062    24011    23906    23833    23846 
   23931    24051    24179    24294    24379    24417    24395    24318 
   24202    24062    23927    23830    23801    23856    23995    24181 
   24348    24439    24426    24324    24181    24054    23982    23956 
   23932    23887    23849    23851    23900    23960    23985    23977 
   23988    24043    24113    24154    24158    24164    24204    24263 
   24298    24280    24209    24101    23980    23880    23831    23844 
   23902    23966    24009    24041    24083    24146    24206    24228 
   24201    24140    24060    23980    23918    23892    23898    23922 
   23948    23967    23969    23947    23916    23907    23934    23991 
   24071    24149    24187    24175    24151    24160    24218    24301 
   24356    24353    24292    24200    24124    24089    24078    24051 
   23989    23906    23832    23781    23760    23770    23799    23828 
   23854    23884    23929    23992    24075    24176    24279    24355 
   24375    24351    24311    24281    24270    24275    24281    24273 
   24244    24193    24126    24048    23971    23907    23861    23833 
   23823    23826    23838    23871    23936    24033    24131    24189 
   24196    24164    24109    24042    23977    23930    23922    23967 
   24052    24152    24247    24310    24324    24297    24240    24168 
   24093    24026    23987    23999    24061    24146    24213    24229 
   24202    24157    24105    24048    23996    23965    23961    23984 
   24014    24027    24022    24014    24011    24009    24008    24024 
   24066    24117    24148    24146    24120    24088    24078    24105 
   24157    24209    24240    24247    24238    24230    24243    24272 
   24289    24270    24203    24088    23950    23830    23758    23741 
   23758    23780    23782    23760    23731    23720    23735    23777 
   23845    23933    24026    24104    24146    24152    24137    24126 
   24137    24168    24192    24167    24083    23972    23869    23791 
   23744    23720    23708    23710    23732    23779    23858    23969 
   24088    24188    24251    24280    24306    24344    24379    24383 
   24337    24260    24192    24156    24143    24129    24102    24071 
   24052    24049    24061    24086    24123    24165    24203    24227 
   24236    24228    24204    24174    24153    24134    24103    24061 
   24031    24029    24050    24068    24066    24044    24011    23973 
   23941    23927    23938    23975    24033    24103    24165    24206 
   24233    24254    24254    24216    24139    24050    23984    23956 
   23958    23967    23957    23919    23876    23862    23884    23916 
   23937    23945    23956    23993    24057    24117    24166    24215 
   24266    24315    24356    24370    24341    24273    24187    24110 
   24065    24061    24084    24111    24123    24109    24070    24009 
   23932    23852    23784    23745    23743    23767    23803    23850 
   23915    23999    24079    24132    24147    24129    24105    24113 
   24168    24251    24318    24341    24322    24275    24216    24172 
   24162    24175    24176    24136    24067    24000    23960    23958 
   23982    24011    24031    24041    24043    24039    24032    24033 
   24054    24100    24164    24232    24281    24286    24235    24144 
   24049    23985    23953    23934    23905    23870    23861    23894 
   23962    24038    24097    24121    24096    24038    23985    23961 
   23961    23973    23982    23976    23958    23961    24004    24075 
   24139    24169    24163    24133    24097    24070    24058    24063 
   24081    24097    24109    24125    24137    24133    24113    24080 
   24036    23989    23950    23923    23904    23889    23878    23880 
   23902    23930    23951    23960    23969    24005    24088    24205 
   24318    24388    24397    24357    24292    24216    24133    24051 
   23978    23922    23887    23880    23916    23985    24052    24089 
   24080    24041    24020    24054    24149    24270    24357    24365 
   24296    24180    24051    23946    23887    23878    23916    23989 
   24078    24158    24206    24219    24209    24184    24143    24087 
   24028    23999    24028    24114    24227    24314    24325    24249 
   24125    23999    23896    23820    23779    23773    23800    23849 
   23904    23965    24029    24081    24113    24125    24125    24124 
   24118    24095    24055    24020    24017    24061    24140    24220 
   24267    24271    24240    24196    24161    24142    24145    24163 
   24173    24152    24109    24067    24043    24038    24042    24038 
   24014    23983    23964    23966    23992    24040    24096    24138 
   24157    24146    24118    24091    24072    24059    24049    24043 
   24045    24058    24083    24115    24148    24183    24217    24232 
   24220    24192    24157    24124    24089    24046    23995    23941 
   23894    23859    23839    23836    23841    23847    23859    23891 
   23949    24026    24101    24155    24184    24194    24184    24154 
   24101    24022    23930    23847    23795    23787    23813    23835 
   23835    23826    23833    23867    23918    23959    23968    23938 
   23889    23859    23872    23918    23960    23967    23929    23870 
   23825    23822    23869    23946    24020    24064    24075    24073 
   24085    24135    24224    24325    24404    24438    24416    24345 
   24258    24194    24163    24149    24116    24036    23934    23865 
   23860    23911    23976    24014    24014    23996    23992    24025 
   24095    24187    24270    24323    24341    24329    24298    24260 
   24225    24209    24218    24250    24289    24307    24287    24235 
   24177    24140    24139    24166    24198    24216    24212    24186 
   24154    24128    24115    24109    24104    24100    24105    24117 
   24131    24144    24150    24154    24167    24187    24198    24189 
   24152    24090    24024    23974    23949    23937    23925    23914 
   23917    23934    23962    23984    23988    23975    23955    23933 
   23910    23893    23885    23890    23898    23894    23870    23839 
   23820    23826    23849    23877    23911    23955    24010    24070 
   24116    24132    24124    24113    24114    24140    24197    24276 
   24350    24396    24398    24368    24320    24275    24247    24229 
   24198    24141    24064    23990    23941    23925    23939    23973 
   24010    24025    24013    23991    23993    24038    24117    24197 
   24252    24264    24228    24159    24090    24030    23971    23913 
   23866    23845    23878    23973    24092    24174    24176    24094 
   23962    23833    23743    23709    23723    23761    23799    23831 
   23863    23898    23936    23971    23997    24027    24069    24121 
   24171    24199    24200    24193    24199    24222    24252    24279 
   24305    24331    24345    24338    24302    24239    24165    24098 
   24054    24033    24025    24017    24007    24003    24011    24029 
   24044    24044    24028    24016    24026    24058    24093    24118 
   24134    24140    24138    24133    24131    24137    24155    24166 
   24148    24078    23955    23817    23713    23661    23652    23669 
   23705    23754    23800    23830    23841    23840    23840    23863 
   23925    24023    24129    24215    24273    24307    24323    24322 
   24300    24264    24231    24210    24203    24204    24200    24179 
   24133    24058    23965    23871    23796    23769    23798    23856 
   23912    23951    23973    23985    23992    24012    24052    24106 
   24160    24200    24219    24221    24212    24196    24177    24151 
   24120    24094    24080    24067    24043    24000    23942    23872 
   23789    23698    23620    23569    23557    23588    23655    23752 
   23877    24012    24127    24196    24208    24169    24099    24024 
   23973    23963    23987    24025    24057    24082    24108    24152 
   24220    24295    24353    24386    24394    24367    24304    24224 
   24163    24138    24139    24143    24124    24077    24017    23969 
   23942    23924    23899    23854    23794    23733    23686    23675 
   23717    23816    23951    24089    24207    24308    24401    24481 
   24539    24548    24490    24379    24249    24131    24052    24023 
   24037    24080    24137    24196    24246    24272    24264    24227 
   24182    24152    24151    24180    24225    24272    24314    24347 
   24371    24388    24391    24374    24335    24276    24199    24117 
   24048    24001    23969    23945    23927    23919    23926    23947 
   23973    23997    24016    24030    24052    24073    24076    24058 
   24030    24018    24046    24107    24158    24156    24101    24034 
   24000    24019    24085    24183    24290    24378    24436    24455 
   24424    24332    24187    24015    23857    23747    23699    23711 
   23766    23838    23908    23968    24022    24066    24078    24053 
   24002    23950    23921    23920    23939    23961    23973    23986 
   24014    24053    24083    24077    24017    23915    23799    23698 
   23622    23566    23537    23550    23615    23726    23847    23941 
   24001    24047    24105    24177    24238    24267    24267    24254 
   24241    24234    24234    24256    24319    24422    24545    24652 
   24713    24725    24710    24678    24619    24524    24404    24295 
   24230    24218    24244    24274    24269    24212    24119    24015 
   23920    23843    23789    23765    23780    23842    23945    24068 
   24186    24282    24335    24321    24239    24107    23949    23789 
   23644    23527    23452    23437    23488    23595    23741    23897 
   24039    24149    24219    24255    24268    24258    24233    24215 
   24220    24246    24283    24314    24325    24304    24237    24124 
   23988    23863    23782    23766    23808    23879    23957    24033 
   24093    24115    24082    24003    23912    23842    23804    23775 
   23719    23634    23554    23510    23518    23563    23619    23675 
   23740    23827    23945    24102    24292    24482    24631    24699 
   24668    24552    24392    24228    24095    24014    23998    24047 
   24145    24274    24420    24559    24670    24735    24742    24696 
   24618    24523    24415    24296    24159    24005    23853    23712 
   23591    23519    23509    23551    23634    23744    23877    24026 
   24163    24253    24274    24223    24114    23982    23858    23768 
   23733    23754    23819    23897    23955    23978    23987    24006 
   24056    24141    24246    24353    24449    24526    24578    24603 
   24600    24559    24476    24364    24241    24125    24027    23950 
   23895    23860    23862    23917    24028    24181    24352    24525 
   24682    24790    24810    24721    24536    24291    24045    23846 
   23714    23631    23578    23547    23538    23550    23578    23618 
   23664    23715    23780    23857    23940    24017    24072    24099 
   24112    24132    24180    24274    24404    24535    24640    24696 
   24682    24589    24424    24206    23954    23693    23458    23276 
   23172    23165    23241    23385    23584    23808    24019    24191 
   24303    24347    24319    24221    24072    23906    23763    23668 
   23621    23606    23609    23623    23646    23678    23723    23781 
   23848    23920    23990    24067    24165    24278    24389    24462 
   24464    24381    24226    24025    23813    23637    23550    23580 
   23715    23922    24160    24397    24612    24786    24896    24922 
   24858    24722    24546    24368    24220    24134    24120    24151 
   24173    24149    24067    23935    23773    23613    23483    23409 
   23404    23463    23557    23649    23721    23784    23858    23939 
   24002    24038    24065    24103    24154    24204    24234    24239 
   24228    24216    24216    24223    24231    24229    24209    24171 
   24124    24081    24055    24061    24100    24171    24266    24353 
   24405    24409    24359    24251    24080    23840    23547    23248 
   22997    22838    22798    22881    23070    23328    23592    23806 
   23942    24014    24056    24093    24131    24160    24178    24195 
   24220    24254    24293    24322    24324    24299    24250    24185 
   24125    24089    24092    24142    24237    24357    24473    24559 
   24608    24633    24645    24644    24618    24549    24426    24253 
   24045    23838    23660    23529    23453    23427    23444    23503 
   23591    23686    23770    23826    23845    23829    23798    23781 
   23808    23894    24021    24152    24255    24325    24382    24453 
   24540    24633    24718    24783    24811    24798    24749    24678 
   24604    24546    24507    24486    24469    24447    24415    24367 
   24293    24191    24068    23927    23770    23603    23440    23311 
   23241    23227    23255    23304    23365    23441    23531    23631 
   23731    23835    23947    24066    24182    24274    24340    24387 
   24418    24443    24479    24530    24587    24638    24675    24691 
   24683    24656    24606    24528    24425    24319    24241    24201 
   24196    24218    24260    24314    24365    24386    24364    24309 
   24236    24165    24103    24052    24015    23993    23990    24017 
   24074    24154    24232    24294    24334    24352    24338    24285 
   24195    24075    23945    23839    23771    23743    23750    23764 
   23756    23718    23652    23564    23479    23429    23432    23500 
   23627    23779    23913    24008    24061    24077    24069    24052 
   24047    24078    24163    24293    24446    24583    24665    24672 
   24606    24483    24316    24116    23892    23669    23482    23360 
   23314    23335    23397    23485    23595    23723    23861    23992 
   24098    24166    24178    24134    24052    23966    23906    23895 
   23921    23971    24029    24079    24106    24109    24086    24049 
   24022    24018    24038    24069    24098    24123    24154    24204 
   24271    24344    24414    24465    24488    24485    24463    24419 
   24345    24235    24105    23988    23912    23886    23913    23985 
   24078    24165    24235    24286    24322    24348    24363    24354 
   24309    24237    24154    24075    24002    23927    23849    23773 
   23709    23657    23623    23619    23659    23752    23895    24062 
   24224    24358    24446    24484    24476    24430    24351    24249 
   24131    24016    23923    23865    23841    23834    23830    23825 
   23829    23857    23905    23961    24010    24038    24040    24027 
   24013    24019    24050    24094    24138    24173    24202    24241 
   24297    24355    24390    24389    24351    24271    24155    24015 
   23864    23720    23613    23568    23600    23710    23880    24082 
   24289    24482    24645    24760    24810    24782    24690    24560 
   24424    24308    24228    24186    24170    24159    24136    24088 
   24022    23963    23941    23966    24027    24105    24194    24297 
   24412    24537    24653    24731    24739    24668    24532    24354 
   24166    23988    23837    23730    23671    23656    23674    23700 
   23718    23723    23711    23682    23641    23582    23511    23443 
   23383    23335    23304    23298    23328    23406    23529    23676 
   23825    23950    24025    24039    23995    23912    23812    23724 
   23673    23661    23680    23717    23755    23776    23771    23752 
   23737    23738    23763    23816    23896    23997    24104    24199 
   24277    24341    24403    24479    24573    24669    24738    24761 
   24729    24652    24547    24427    24299    24169    24043    23930 
   23851    23823    23846    23907    23982    24056    24122    24173 
   24206    24218    24213    24195    24171    24159    24167    24185 
   24209    24236    24257    24270    24273    24261    24228    24173 
   24104    24031    23967    23920    23893    23893    23919    23964 
   24020    24071    24108    24126    24135    24143    24149    24151 
   24145    24120    24074    24018    23961    23906    23852    23797 
   23742    23694    23668    23671    23694    23735    23793    23858 
   23919    23974    24017    24053    24092    24145    24219    24308 
   24392    24459    24503    24521    24507    24461    24376    24255 
   24115    23979    23867    23792    23759    23768    23809    23875 
   23959    24051    24142    24228    24308    24383    24457    24529 
   24588    24619    24611    24562    24478    24376    24274    24185 
   24114    24058    24008    23956    23910    23886    23884    23900 
   23928    23963    24004    24058    24124    24186    24223    24218 
   24167    24082    23985    23895    23823    23775    23751    23751 
   23770    23807    23856    23908    23960    24007    24048    24084 
   24109    24114    24099    24072    24045    24023    24009    24003 
   24004    24006    24006    24000    23985    23970    23967    23982 
   24009    24043    24086    24137    24194    24252    24303    24325 
   24314    24280    24229    24170    24123    24113    24150    24224 
   24313    24400    24472    24521    24525    24476    24386    24283 
   24187    24096    24004    23906    23803    23714    23650    23602 
   23567    23547    23548    23581    23644    23714    23765    23791 
   23800    23795    23782    23771    23769    23780    23813    23868 
   23940    24016    24074    24102    24099    24068    24016    23966 
   23935    23937    23976    24042    24115    24177    24221    24241 
   24243    24241    24245    24253    24260    24264    24265    24263 
   24250    24227    24201    24172    24134    24086    24039    24004 
   23991    23989    23976    23951    23925    23908    23907    23920 
   23939    23957    23977    24000    24028    24065    24102    24136 
   24174    24218    24262    24301    24331    24352    24364    24364 
