Origin Time       2025/06/03 22:18:00
Lat.              41.7
Long.             143.6
Depth. (km)       30
Mag.              5.2
Station Code      HKD112
Station Lat.      41.9370
Station Long.     143.2403
Station Height(m) 15
Record Time       2025/06/03 22:18:36
Sampling Freq(Hz) 100Hz
Duration Time(s)  63
Dir.              E-W
Scale Factor      7845(gal)/8223790
Max. Acc. (gal)   9.353
Last Correction   2025/06/03 22:18:36
Memo.             
[...]
   21355    21359    21371    21375    21366    21365    21362    21359 
   21374    21388    21388    21371    21342    21336    21363    21379 
   21371    21365    21373    21384    21377    21350    21335    21355 
   21384    21389    21378    21366    21362    21370    21382    21362 
   21324    21323    21358    21398    21423    21409    21367    21338 
   21327    21344    21384    21390    21357    21336    21352    21392 
   21398    21361    21332    21330    21359    21413    21428    21375 
   21327    21335    21361    21367    21365    21354    21358    21386 
   21401    21386    21357    21340    21346    21365    21384    21384 
   21367    21357    21355    21365    21379    21379    21363    21362 
   21371    21367    21358    21355    21359    21362    21359    21371 
   21388    21381    21366    21369    21377    21373    21363    21351 
   21328    21323    21366    21398    21384    21367    21375    21398 
   21401    21359    21320    21332    21371    21382    21362    21352 
   21363    21375    21385    21390    21381    21362    21343    21340 
   21350    21363    21373    21384    21386    21371    21373    21375 
   21354    21347    21354    21358    21366    21371    21374    21369 
   21365    21370    21370    21367    21384    21390    21363    21336 
   21338    21355    21377    21388    21375    21366    21379    21393 
   21384    21358    21332    21331    21361    21375    21370    21367 
   21377    21401    21402    21365    21343    21346    21346    21354 
   21369    21370    21362    21369    21379    21367    21361    21378 
   21384    21371    21366    21355    21343    21344    21363    21392 
   21389    21363    21358    21366    21375    21382    21365    21335 
   21339    21379    21397    21373    21358    21362    21363    21374 
   21381    21359    21336    21350    21379    21390    21377    21361 
   21355    21357    21359    21367    21363    21355    21366    21379 
   21384    21388    21385    21363    21342    21346    21361    21358 
   21359    21377    21389    21388    21373    21354    21350    21351 
   21359    21370    21373    21381    21381    21366    21359    21354 
   21355    21370    21377    21367    21354    21351    21370    21381 
   21377    21375    21373    21366    21351    21344    21365    21374 
   21359    21361    21371    21373    21378    21379    21378    21374 
   21361    21346    21338    21346    21371    21384    21371    21369 
   21371    21373    21385    21386    21363    21340    21338    21355 
   21366    21362    21363    21370    21384    21394    21388    21365 
   21342    21339    21362    21378    21373    21361    21348    21358 
   21382    21384    21370    21367    21371    21369    21357    21355 
   21374    21379    21370    21369    21369    21354    21348    21362 
   21370    21369    21365    21367    21371    21373    21369    21363 
   21371    21382    21385    21374    21343    21328    21348    21371 
   21386    21389    21373    21355    21354    21366    21374    21374 
   21369    21365    21358    21358    21363    21363    21367    21370 
   21370    21371    21369    21370    21365    21355    21367    21374 
   21355    21355    21381    21389    21378    21363    21348    21347 
   21365    21371    21363    21358    21362    21370    21378    21377 
   21367    21358    21361    21373    21382    21379    21361    21339 
   21338    21358    21392    21408    21384    21357    21346    21346 
   21363    21378    21370    21370    21382    21374    21362    21365 
   21365    21365    21363    21348    21348    21369    21384    21382 
   21377    21370    21359    21361    21371    21370    21357    21351 
   21365    21378    21374    21361    21355    21362    21369    21369 
   21373    21375    21365    21363    21377    21377    21361    21346 
   21350    21362    21371    21378    21382    21389    21389    21366 
   21338    21331    21347    21366    21384    21389    21371    21355 
   21354    21367    21378    21373    21370    21371    21369    21362 
   21350    21342    21352    21378    21396    21390    21367    21346 
   21350    21370    21375    21373    21365    21357    21359    21366 
   21363    21357    21359    21371    21384    21385    21373    21362 
   21361    21365    21375    21373    21351    21335    21342    21367 
   21388    21390    21388    21381    21367    21357    21346    21336 
   21344    21374    21397    21386    21365    21354    21355    21370 
   21389    21381    21355    21338    21340    21365    21390    21390 
   21371    21361    21363    21359    21346    21355    21385    21397 
   21385    21369    21348    21339    21358    21373    21363    21363 
   21374    21370    21370    21377    21371    21362    21358    21363 
   21371    21366    21359    21363    21369    21375    21378    21361 
   21340    21351    21373    21371    21369    21375    21370    21370 
   21384    21378    21357    21351    21362    21370    21363    21352 
   21361    21384    21386    21378    21369    21347    21344    21371 
   21377    21369    21363    21358    21371    21384    21365    21354 
   21361    21359    21366    21388    21385    21369    21359    21344 
   21339    21366    21381    21375    21384    21382    21366    21359 
   21357    21367    21382    21367    21347    21348    21347    21352 
   21374    21390    21398    21400    21378    21351    21330    21323 
   21347    21381    21390    21385    21375    21361    21352    21359 
   21369    21371    21375    21377    21363    21352    21355    21361 
   21365    21375    21379    21369    21358    21348    21355    21379 
   21388    21374    21361    21354    21362    21370    21357    21357 
   21373    21378    21382    21381    21363    21355    21363    21370 
   21367    21355    21340    21350    21385    21397    21379    21369 
   21367    21366    21373    21382    21394    21444    21519    21570 
   21559    21478    21370    21289    21261    21265    21262    21246 
   21253    21301    21405    21546    21608    21509    21336    21240 
   21254    21294    21304    21330    21474    21752    21996    22065 
   22042    22027    21921    21632    21285    21085    21190    21537 
   21726    21546    21386    21502    21550    21413    21379    21417 
   21409    21482    21505    21323    21235    21222    20788    20124 
   20035    20768    21776    22277    21894    21139    20933    21369 
   21578    21018    20243    20158    21031    22092    22204    21670 
   21855    22596    22739    22268    21598    20946    20744    20911 
   20933    20837    20931    21274    21654    21691    21431    21201 
   20838    20312    20282    20900    21359    21215    20954    20946 
   20964    20957    21159    21512    21872    22287    22705    22875 
   22653    22141    21560    21100    20757    20513    20497    20749 
   21180    21541    21478    20956    20421    20336    20744    21343 
   21865    22277    22567    22615    22389    21821    20939    20387 
   20795    21691    22276    22531    22492    21886    20898    19992 
   19280    18827    18941    19845    21319    22558    22748    22144 
   21651    21501    21393    21261    21271    21624    22246    22609 
   22432    22019    21354    20152    18997    18873    19668    20401 
   20615    20694    21138    21880    22140    21397    20497    20542 
   21238    21622    21571    21671    22347    23244    23541    23163 
   22792    22553    22115    21710    21691    21780    21529    20854 
   20028    19535    19666    20197    20781    21431    22150    22535 
   22296    21618    20800    20237    20287    20753    21177    21517 
   21816    21787    21352    20853    20565    20633    21018    21429 
   21949    22960    24078    24354    23591    22478    21637    21150 
   20682    19943    19238    19199    20054    21433    22617    22987 
   22549    21694    20677    19846    19766    20557    21705    22589 
   22962    23098    23176    22653    21135    19383    18543    18932 
   19935    20767    21379    22316    23500    24111    23615    22218 
   20591    19422    19008    19342    20325    21501    22237    22370 
   22135    21762    21397    21020    20626    20488    20871    21668 
   22469    22742    22266    21433    20691    20181    19994    20097 
   20325    20707    21362    22191    22805    22828    22320    21774 
   21517    21308    20714    19795    19282    19866    21222    22125 
   21802    20864    20510    20970    21348    21078    20752    21172 
   22234    23114    23205    22642    21955    21424    21023    20754 
   20777    21096    21420    21598    21794    22118    22369    22238 
   21807    21519    21577    21763    21870    21826    21537    21170 
   21018    20945    20698    20405    20247    20223    20418    20949 
   21563    21888    21987    22157    22513    22994    23353    23279 
   22682    21794    20976    20343    19680    18964    18547    18673 
   19271    20129    20922    21498    22091    22762    23237    23336 
   23040    22557    22339    22470    22405    21706    20537    19498 
   19080    19165    19348    19629    20254    21169    21971    22248 
   21953    21528    21450    21735    22118    22378    22304    21872 
   21257    20590    20050    19826    19953    20433    21231    22068 
   22542    22454    21909    21244    20916    21096    21551    22080 
   22593    22881    22827    22551    22117    21529    20950    20606 
   20524    20603    20818    21050    21228    21546    22086    22585 
   22756    22657    22613    22715    22468    21382    19917    19122 
   19434    20371    21123    21239    21027    21120    21616    22054 
   22222    22459    23026    23670    24034    23870    23014    21795 
   20915    20588    20517    20437    20209    19934    19919    20235 
   20630    20883    21042    21355    21806    22122    22245    22238 
   22048    21681    21262    20910    20602    20245    19912    19788 
   19921    20270    20744    21169    21438    21558    21595    21697 
   21880    21914    21648    21189    20698    20382    20375    20525 
   20703    21004    21450    21863    22014    21817    21481    21340 
   21516    21782    21898    21871    21776    21562    21087    20297 
   19450    19008    19230    19978    20853    21483    21816    22126 
   22470    22488    22007    21344    20942    20997    21278    21325 
   21085    20952    21050    21123    21146    21348    21778    22346 
   22927    23286    23309    23059    22600    22003    21367    20757 
   20223    19888    19878    20179    20676    21162    21473    21783 
   22374    23083    23502    23521    23269    22886    22504    22131 
   21641    21057    20497    19936    19373    18859    18516    18670 
   19398    20385    21428    22477    23350    23799    23782    23445 
   22886    22145    21257    20351    19664    19354    19408    19710 
   20105    20459    20754    21069    21481    22021    22573    22864 
   22798    22639    22482    21984    21045    20089    19483    19287 
   19410    19666    19954    20325    20791    21335    21871    22218 
   22438    22708    22897    22728    22077    21112    20301    20071 
   20364    20704    20741    20695    21043    21728    22152    21991 
   21578    21501    21969    22624    22995    22958    22659    22241 
   21740    21201    20784    20731    21154    21821    22303    22343 
   22011    21614    21497    21766    22138    22239    22083    21895 
   21703    21501    21338    21177    21064    21070    21061    20942 
   20883    20981    21097    21146    21223    21370    21546    21733 
   21807    21548    20871    19978    19322    19197    19481    19888 
   20202    20324    20339    20426    20563    20575    20514    20640 
   21081    21674    22137    22373    22551    22801    22991    22837 
   22176    21222    20416    20059    20217    20781    21497    22014 
   22126    22050    22180    22445    22320    21525    20509    20040 
   20250    20507    20308    19911    20044    21006    22164    22631 
   22266    21745    21755    22405    23319    24028    24255    24005 
   23338    22160    20488    18773    17655    17551    18435    19805 
   21046    21922    22612    23240    23527    23133    22183    21207 
   20761    21042    21784    22631    23345    23726    23544    22584 
   20898    18922    17259    16336    16198    16715    17911    19847 
   22239    24405    25674    25770    24991    24038    23383    23033 
   22914    23071    23332    23145    22083    20474    19118    18496 
   18523    18744    18751    18679    18993    19796    20812    21801 
   22771    23971    25412    26542    26758    26038    24879    23688 
   22411    20736    18577    16329    14605    13690    13427    13818 
   15317    18160    21909    25674    28409    29428    28926    27453 
   25335    22960    20862    19413    18716    18509    18311    17938 
   17567    17379    17514    18111    19171    20578    22153    23591 
   24610    25107    24984    24177    22748    20861    18743    16663 
   14998    14260    14769    16405    18789    21505    24136    26353 
   27981    28884    29016    28421    27098    25147    22881    20567 
   18403    16672    15585    15213    15743    17286    19452    21541 
   22970    23553    23662    23905    24455    24981    25243    25180 
   24561    23125    20906    18320    16143    15253    16177    18812 
   22439    26041    28885    30661    31171    30225    27720    23947 
   19762    16198    13946    13173    13706    15421    18233    21643 
   24775    26995    28094    28063    27163    25903    24634    23353 
   22080    21010    20212    19573    18841    17682    16239    15219 
   15300    16798    19438    22418    25035    26856    27433    26441 
   23978    20618    17223    14621    13258    13097    13886    15280 
   16726    17689    17955    17659    17329    17659    19025    21331 
   24150    26931    29195    30636    31068    30410    28733    26358 
   23845    21674    19934    18547    17625    17416    17994    19041 
   20028    20718    21286    21971    22800    23592    24169    24490 
   24534    24166    23213    21633    19653    17599    15769    14582 
   14322    14860    16056    18014    20661    23538    26122    27992 
   28887    28857    28082    26619    24561    22198    19885    17906 
   16418    15469    15129    15504    16548    17963    19390    20582 
   21392    21894    22403    23164    24182    25201    25814    25752 
   24970    23633    22080    20683    19723    19329    19467    20013 
   20856    21851    22806    23652    24368    24813    24798    24210 
   23106    21686    20164    18765    17714    17261    17621    18689 
   19942    20850    21180    21045    20713    20401    20278    20488 
   21062    21872    22690    23295    23542    23446    23133    22740 
   22350    21979    21629    21261    20838    20453    20218    20159 
   20250    20368    20426    20491    20614    20812    21176    21693 
   22191    22584    22933    23225    23290    22937    22125    21043 
   20020    19327    19016    18951    19130    19627    20268    20808 
   21220    21498    21585    21567    21643    21853    22029    22090 
   22081    21991    21795    21463    21003    20663    20788    21504 
   22611    23670    24321    24521    24403    24058    23461    22582 
   21548    20650    20027    19527    19012    18485    18022    17732 
   17690    17875    18225    18743    19527    20590    21697    22508 
   22829    22658    22162    21686    21486    21627    22095    22801 
   23598    24345    24904    25209    25199    24783    24040    23160 
   22192    21093    19958    18962    18252    17949    18057    18427 
   18881    19391    20029    20839    21830    22890    23851    24645 
   25174    25272    24845    23885    22462    20869    19421    18202 
   17254    16641    16484    16892    17784    18993    20339    21582 
   22572    23288    23676    23641    23326    22994    22711    22420 
   22069    21570    20964    20466    20220    20251    20580    21177 
   21917    22736    23564    24192    24387    24005    23105    21971 
   20810    19626    18473    17537    17020    17123    17940    19313 
   20941    22639    24282    25591    26253    26146    25327    24017 
   22593    21332    20286    19426    18746    18239    17899    17761 
   17844    18145    18781    19851    21172    22403    23310    23774 
   23820    23629    23287    22707    21929    21211    20781    20686 
   20804    20996    21236    21544    21838    21946    21753    21316 
   20781    20254    19853    19764    19990    20326    20656    20981 
   21298    21655    22063    22454    22813    23222    23774    24366 
   24744    24787    24513    24017    23449    22836    22192    21674 
   21323    21050    20799    20480    20046    19576    19179    18972 
   19044    19319    19666    20070    20509    20892    21209    21563 
   22018    22466    22690    22573    22199    21691    21078    20424 
   19892    19674    19897    20455    21097    21647    22019    22212 
   22273    22268    22242    22179    22048    21897    21783    21687 
   21505    21142    20619    20096    19695    19425    19252    19183 
   19273    19511    19873    20379    20926    21379    21772    22140 
   22401    22439    22176    21609    20844    20136    19718    19631 
   19867    20456    21392    22563    23730    24586    24929    24791 
   24360    23799    23188    22536    21870    21321    20991    20760 
   20452    20086    19795    19650    19689    19930    20370    21015 
   21806    22584    23199    23564    23595    23236    22536    21647 
   20753    19996    19481    19311    19503    19977    20652    21409 
   22080    22631    23093    23387    23454    23350    23097    22662 
   22015    21209    20414    19838    19608    19661    19793    19928 
   20125    20451    20893    21357    21780    22210    22624    22913 
   22972    22761    22345    21895    21481    21042    20623    20335 
   20206    20206    20283    20418    20672    21033    21363    21578 
   21676    21660    21479    21112    20652    20298    20216    20340 
   20511    20726    21035    21411    21760    22014    22208    22408 
   22562    22545    22296    21888    21374    20740    20069    19526 
   19236    19269    19591    20059    20561    21018    21358    21601 
   21776    21830    21784    21724    21681    21668    21676    21683 
   21682    21714    21803    21871    21865    21825    21771    21681 
   21523    21330    21195    21099    20915    20628    20385    20349 
   20556    20910    21317    21725    22045    22176    22106    21884 
   21595    21346    21165    21041    21004    21097    21288    21501 
   21709    21898    22011    22009    21891    21760    21717    21763 
   21880    21996    21986    21838    21621    21386    21138    20918 
   20876    21124    21627    22275    22923    23404    23608    23519 
   23195    22708    22087    21366    20610    19921    19426    19148 
   19016    19070    19402    19958    20609    21207    21671    22079 
   22501    22905    23214    23334    23236    22971    22573    22030 
   21370    20738    20317    20166    20197    20308    20476    20699 
