Origin Time       2025/06/03 22:18:00
Lat.              41.7
Long.             143.6
Depth. (km)       30
Mag.              5.2
Station Code      HKD100
Station Lat.      42.2864
Station Long.     143.3120
Station Height(m) 36
Record Time       2025/06/03 22:18:48
Sampling Freq(Hz) 100Hz
Duration Time(s)  60
Dir.              E-W
Scale Factor      7845(gal)/8223790
Max. Acc. (gal)   9.441
Last Correction   2025/06/03 22:18:48
Memo.             
[...]
    3919     3917     3920     3923     3921     3920     3923     3919 
    3915     3919     3927     3929     3925     3919     3921     3924 
    3917     3915     3919     3921     3919     3916     3916     3920 
    3920     3919     3925     3927     3920     3916     3923     3925 
    3921     3920     3921     3920     3916     3913     3919     3923 
    3923     3923     3921     3921     3921     3921     3924     3925 
    3921     3916     3916     3920     3921     3917     3920     3923 
    3919     3919     3921     3924     3925     3920     3917     3921 
    3924     3920     3921     3923     3919     3917     3920     3921 
    3921     3921     3921     3921     3923     3921     3919     3919 
    3921     3921     3920     3923     3924     3921     3917     3917 
    3924     3925     3920     3917     3923     3923     3916     3915 
    3920     3924     3923     3921     3924     3924     3921     3919 
    3919     3921     3921     3920     3920     3921     3917     3916 
    3920     3924     3923     3920     3919     3921     3925     3923 
    3919     3920     3920     3917     3920     3924     3923     3917 
    3917     3921     3924     3921     3919     3920     3923     3923 
    3923     3923     3921     3923     3921     3919     3921     3924 
    3920     3920     3924     3923     3920     3919     3921     3923 
    3919     3920     3925     3924     3919     3917     3920     3924 
    3923     3921     3925     3923     3917     3917     3921     3923 
    3921     3921     3923     3921     3920     3920     3921     3920 
    3921     3920     3919     3923     3925     3924     3924     3920 
    3919     3917     3916     3921     3923     3917     3919     3923 
    3924     3924     3923     3921     3921     3920     3920     3920 
    3921     3923     3920     3919     3921     3921     3921     3923 
    3924     3921     3917     3920     3921     3917     3919     3923 
    3924     3923     3921     3920     3921     3924     3923     3920 
    3920     3921     3919     3917     3921     3924     3921     3917 
    3923     3924     3921     3920     3920     3921     3923     3920 
    3920     3920     3919     3917     3919     3920     3919     3921 
    3923     3923     3923     3920     3921     3925     3923     3919 
    3919     3921     3923     3917     3916     3920     3921     3920 
    3921     3923     3925     3923     3921     3921     3920     3917 
    3917     3920     3921     3920     3919     3920     3923     3923 
    3921     3923     3925     3923     3919     3921     3923     3920 
    3917     3921     3924     3921     3919     3919     3923     3923 
    3919     3917     3920     3923     3923     3920     3921     3924 
    3921     3920     3921     3921     3921     3921     3923     3923 
    3923     3921     3921     3921     3921     3921     3919     3917 
    3920     3924     3925     3927     3925     3920     3919     3921 
    3924     3923     3921     3923     3923     3919     3917     3921 
    3923     3920     3920     3924     3924     3920     3917     3921 
    3925     3921     3920     3924     3923     3919     3920     3923 
    3923     3920     3920     3923     3923     3923     3924     3924 
    3923     3921     3920     3920     3921     3920     3921     3923 
    3923     3921     3921     3919     3920     3924     3924     3923 
    3923     3920     3919     3920     3921     3923     3921     3919 
    3921     3923     3919     3917     3923     3923     3919     3917 
    3923     3925     3921     3920     3923     3927     3925     3921 
    3921     3925     3925     3924     3924     3927     3931     3932 
    3937     3954     3966     3966     3966     3963     3944     3923 
    3910     3900     3888     3878     3881     3893     3905     3910 
    3913     3928     3944     3947     3954     3985     4020     4029 
    4027     4033     4028     4005     4000     4016     3998     3915 
    3802     3746     3765     3780     3766     3800     3883     3985 
    4122     4212     4171     4097     4043     3958     3898     3855 
    3712     3576     3646     3848     4037     4117     3966     3758 
    3792     3950     3954     3790     3611     3503     3464     3605 
    4010     4423     4546     4287     3796     3605     3963     4320 
    4195     3651     3018     2891     3547     4469     5066     5080 
    4675     4422     4473     4341     3786     3122     2667     2469 
    2648     3198     3682     4089     4596     4719     4553     4773 
    4968     4590     4010     3470     3123     3326     3757     3748 
    3416     3333     3703     4248     4496     4256     3739     3237 
    2982     3003     3107     3244     3511     4012     4807     5467 
    5464     5188     5215     5259     4793     3869     3006     2548 
    2536     3051     3796     4175     4207     4186     4175     4372 
    4750     4882     4511     3670     2886     3026     3985     4592 
    4357     3839     3327     2937     3298     4280     4603     3902 
    2961     2299     2394     3449     4549     4872     4538     3823 
    3188     3365     4209     4862     5088     4900     4299     4008 
    4477     5040     5023     4293     3117     2238     2151     2578 
    2955     2916     2732     3042     3956     5108     6002     6231 
    5918     5286     4383     3639     3384     3353     3366     3308 
    2922     2486     2710     3693     4622     4797     4338     3692 
    3433     3859     4272     4095     3801     3709     3634     3685 
    3981     4287     4313     3936     3365     3064     3321     3801 
    3900     3640     3639     4325     5529     6644     7038     6439 
    5077     3473     2238     1691     1490     1252     1148     1503 
    2366     3562     5012     6512     7418     7319     6469     5397 
    4499     3734     2820     1817     1143     1156     1877     2979 
    4095     5173     6227     6849     6555     5470     4221     3295 
    2766     2470     2232     1980     1948     2581     3827     5004 
    5574     5586     5319     4995     4792     4600     4071     3210 
    2430     2106     2380     3090     3761     4021     3956     3873 
    4027     4399     4626     4461     4104     3924     4044     4334 
    4569     4452     3975     3585     3591     3835     3939     3674 
    3217     3011     3240     3673     4141     4580     4864     5044 
    5228     5360     5337     4926     3960     2756     1888     1717 
    2146     2741     3200     3581     4024     4449     4687     4623 
    4274     3908     3778     3921     4195     4221     3842     3456 
    3404     3636     3973     4133     3879     3358     3022     3199 
    3835     4521     4827     4676     4384     4352     4687     5044 
    4959     4333     3451     2713     2384     2523     3046     3731 
    4245     4503     4671     4756     4650     4398     4063     3765 
    3657     3692     3790     3917     3970     4052     4332     4568 
    4476     4159     3836     3613     3451     3249     3041     2941 
    3026     3389     3947     4333     4418     4492     4684     4858 
    4895     4617     4021     3403     2997     2903     3046     3230 
    3497     4039     4827     5513     5697     5212     4155     3025 
    2392     2331     2598     2987     3541     4426     5520     6475 
    6864     6361     5115     3630     2411     1738     1517     1570 
    1908     2474     3096     3712     4248     4646     5059     5470 
    5547     5154     4448     3781     3576     3766     3939     3950 
    3815     3585     3337     3057     2794     2592     2438     2520 
    3061     4023     5236     6377     6929     6658     5865     4993 
    4229     3523     2744     1960     1552     1786     2521     3369 
    4001     4378     4649     4872     4918     4631     4012     3323 
    2934     2980     3439     4141     4796     5321     5590     5367 
    4839     4361     3979     3604     3198     2833     2721     2941 
    3318     3651     3951     4328     4623     4537     4147     3777 
    3690     3854     3819     3364     2782     2461     2629     3192 
    3840     4261     4328     4405     4873     5517     5952     5950 
    5422     4540     3559     2648     2008     1749     1736     1817 
    2018     2532     3538     4862     6029     6608     6451     5830 
    5159     4527     3898     3387     3017     2786     2849     3195 
    3630     4047     4324     4409     4355     4105     3721     3480 
    3543     3885     4326     4693     4950     5024     4841     4421 
    3788     3038     2382     2029     2079     2417     2893     3500 
    4118     4477     4554     4482     4260     4027     4021     4307 
    4853     5459     5745     5599     5217     4746     4213     3650 
    3132     2732     2544     2681     3056     3489     4006     4585 
    5040     5285     5339     5163     4658     3851     2909     2080 
    1676     1740     1972     2251     2712     3370     4110     4811 
    5301     5366     5051     4696     4490     4364     4283     4276 
    4225     3910     3334     2764     2517     2732     3254     3735 
    3977     4056     4082     4089     4104     4126     4139     4171 
    4271     4430     4486     4221     3639     2979     2552     2609 
    3099     3778     4448     4963     5312     5556     5691     5697 
    5505     5069     4500     3905     3348     2886     2424     1872 
    1404     1347     1949     3137     4432     5346     5745     5787 
    5730     5633     5192     4230     3088     2251     1962     2288 
    3064     3855     4325     4464     4467     4622     5003     5319 
    5332     5049     4583     4149     3905     3762     3524     3092 
    2601     2340     2481     2911     3346     3538     3507     3543 
    3832     4160     4187     3960     3800     3874     4145     4440 
    4563     4513     4411     4341     4345     4419     4499     4441 
    4230     4068     4072     4202     4336     4297     4066     3762 
    3472     3280     3230     3277     3357     3472     3726     4171 
    4656     4872     4634     4144     3731     3456     3265     3121 
    2983     2916     2944     3082     3453     4008     4518     4877 
    5049     5117     5296     5489     5336     4669     3586     2458 
    1775     1714     2128     2745     3325     3859     4396     4795 
    4884     4673     4382     4248     4305     4357     4187     3792 
    3395     3208     3339     3699     3940     3788     3357     2974 
    2936     3323     3879     4290     4457     4465     4453     4549 
    4789     5000     4935     4507     3852     3316     3183     3391 
    3686     3890     4013     4197     4502     4846     5096     5136 
    4931     4567     4224     3983     3736     3379     2945     2529 
    2289     2384     2724     3002     3148     3416     4001     4780 
    5400     5582     5324     4842     4446     4342     4390     4264 
    3885     3408     2988     2790     2911     3267     3699     4087 
    4371     4599     4843     5040     5082     4907     4432     3715 
    2984     2396     2049     2026     2261     2608     2980     3322 
    3616     3854     4009     4155     4436     4835     5184     5351 
    5273     4954     4448     3805     3095     2474     2111     2112 
    2513     3192     3858     4301     4558     4811     5197     5637 
    5832     5552     4795     3744     2721     2022     1833     2253 
    3148     4147     4924     5355     5479     5370     5016     4436 
    3746     3094     2681     2720     3226     3971     4680     5140 
    5228     5024     4731     4475     4266     4014     3618     3137 
    2768     2639     2739     2934     3041     3075     3318     3950 
    4806     5571     5988     5931     5422     4595     3626     2736 
    2185     2111     2474     3149     3933     4571     4907     4878 
    4503     3985     3582     3349     3152     2893     2640     2594 
    2905     3477     3987     4153     3952     3581     3327     3356 
    3623     4033     4483     4884     5340     6079     7074     7993 
    8534     8537     7987     7079     6062     5077     4183     3465 
    2949     2516     2054     1543     1055      862     1263     2327 
    3780     5082     5740     5609     4962     4245     3827     3825 
    3956     3825     3379     2856     2570     2716     3167     3520 
    3447     2945     2335     2089     2451     3213     3977     4417 
    4374     3954     3407     2929     2592     2350     2074     1702 
    1354     1210     1244     1150      623     -311    -1159    -1165 
     137     2656     5825     8806    10787    11341    10586     9031 
    7283     5848     4941     4477     4317     4405     4719     5177 
    5575     5632     5140     4236     3307     2597     2147     1985 
    2227     3034     4390     5859     6848     7140     6825     6043 
    4984     3743     2257      476    -1324    -2443    -2343     -965 
    1332     3731     5567     6818     7762     8505     8833     8590 
    7815     6547     5009     3474     2037      823     -159    -1165 
   -2091    -2440    -1915     -414     1925     4518     6936     9127 
   10836    11715    11630    10554     8730     6701     5011     3780 
    2629     1389      183     -907    -1597    -1621    -1023      261 
    2380     5159     8025    10199    11152    10854     9413     6963 
    3886      587    -2631    -5142    -5976    -4784    -2115     1246 
    4306     6281     7268     7670     7770     7566     6786     5589 
    4426     3693     3771     4599     5676     6297     5837     4390 
    2425      396     -981    -1150      -64     2042     4792     7765 
   10396    12052    12247    10665     7519     3701      298    -2068 
   -3338    -3319    -2056     -217     1881     4041     5877     7264 
    7832     7551     6952     6079     5314     5013     4548     3985 
    3688     3485     3581     3883     4117     4229     3913     3418 
    3140     2995     3040     2913     2164     1200      518      229 
     214      305      521     1019     2041     3531     5344     7491 
    9525    11034    11732    11315    10354     9351     8328     7554 
    6732     5328     3302      792    -1742    -3645    -4521    -4618 
   -4048    -2552     -500     1971     4768     6953     8270     8668 
    7770     6080     4191     2581     1652     1202     1468     2731 
    4419     6069     7547     8675     9385     9774     9788     9516 
    9066     8131     6994     6007     5136     4845     4731     4055 
    3036     1730      469     -112        9      413      719     1050 
    1410     1865     2710     3454     3770     3778     3406     3129 
    3040     2690     2440     2435     2478     2764     3183     3609 
    3851     3661     3545     3632     3586     3670     3703     3165 
    2303     1559     1497     2423     3658     4730     5487     5607 
    5422     5177     4800     4379     3632     2679     1930     1205 
     568      244      193      735     2022     3645     5395     6990 
    8125     8864     9080     8993     9039     9038     9035     9024 
    8564     7647     6367     4764     3060     1246     -568    -2226 
   -3623    -4214    -3778    -2357      244     3504     6651     9371 
   11118    11452    10443     8147     4905     1431    -1629    -3447 
   -3578    -2351      -27     2960     5782     8168    10184    11637 
   12275    11790    10185     7798     4822     1725     -776    -2435 
   -3191    -2960    -1919     -402     1401     3397     5329     6828 
    7682     7858     7257     5954     4434     3014     1798     1003 
     621      598      966     1553     2226     2999     3635     3951 
    4340     5047     5792     6536     7434     8418     9381    10189 
   10619    10295     8939     6839     4405     1827     -576    -2586 
   -4155    -5061    -5066    -4122    -2174      514     3280     5779 
    7732     8868     9328     9094     8309     7350     6228     5169 
    4298     3402     2662     2162     1873     2069     2620     3265 
    3921     4310     4410     4266     3855     3654     3724     3595 
    3477     3712     4099     4502     4901     5082     4803     3967 
    2685     1404      599      448     1062     2439     4230     6049 
    7765     9236    10116    10203     9514     8044     5942     3693 
    1749      251     -797    -1336    -1255     -522      653     2066 
    3608     4877     5579     5931     5957     5385     4405     3500 
    2848     2531     2673     3102     3489     3690     3678     3478 
    3199     2911     2659     2671     3140     3831     4567     5424 
    6249     6937     7539     7873     7805     7364     6567     5593 
    4672     3811     2976     2292     1907     1968     2538     3451 
    4367     4943     5038     4673     3915     3001     2262     1734 
    1372     1332     1686     2334     3167     3975     4464     4467 
    4072     3497     2895     2319     1903     1915     2509     3669 
    5251     6860     8081     8704     8614     7869     6610     4854 
    2911     1309      317      166      938     2357     4064     5620 
    6733     7222     6901     6019     4882     3676     2728     2107 
    1760     1748     2047     2571     3134     3634     4162     4716 
    5194     5448     5368     4927     4247     3523     2809     2250 
    1923     1657     1553     1795     2308     2952     3526     3996 
    4375     4514     4506     4480     4386     4229     3956     3546 
    3132     2878     3021     3577     4133     4488     4764     4924 
    4961     4923     4639     4023     3194     2440     2250     2786 
    3751     4843     5744     6276     6561     6700     6764     6718 
    6289     5420     4322     3202     2327     1771     1381     1159 
    1131     1302     1829     2694     3662     4548     5232     5705 
    5994     5949     5508     4853     4095     3331     2786     2641 
    2983     3759     4773     5829     6736     7311     7348     6678 
    5449     3931     2361     1020       71     -411     -421       74 
    1158     2555     3866     4911     5536     5751     5690     5447 
    5138     4799     4449     4090     3636     3107     2567     2081 
    1755     1630     1761     2227     3068     4202     5331     6141 
    6527     6525     6234     5738     5093     4348     3555     2860 
    2412     2224     2308     2681     3244     3883     4510     5030 
    5433     5640     5428     4822     4083     3460     3123     3013 
    2956     2884     2816     2875     3132     3483     3832     4099 
    4276     4488     4780     5051     5146     4958     4561     4082 
    3628     3375     3376     3531     3750     3973     4149     4287 
    4401     4482     4540     4579     4603     4588     4496     4391 
    4302     4155     3913     3522     2940     2304     1786     1476 
    1468     1763     2274     2991     3892     4868     5732     6335 
    6659     6624     6212     5589     4752     3736     2855     2265 
    2011     2149     2520     2991     3573     4193     4824     5456 
    5937     6176     6226     6123     5822     5274     4521     3653 
    2798     2097     1621     1399     1516     2003     2779     3735 
