Origin Time       2025/06/03 22:18:00
Lat.              41.7
Long.             143.6
Depth. (km)       30
Mag.              5.2
Station Code      HKD159
Station Lat.      41.7160
Station Long.     141.0046
Station Height(m) 23
Record Time       2025/06/03 22:19:29
Sampling Freq(Hz) 100Hz
Duration Time(s)  60
Dir.              E-W
Scale Factor      7845(gal)/8223790
Max. Acc. (gal)   1.517
Last Correction   2025/06/03 22:19:30
Memo.             
[...]
   -8154    -8155    -8122    -8070    -8048    -8083    -8156    -8262 
   -8352    -8356    -8301    -8236    -8171    -8131    -8105    -8064 
   -8025    -7993    -7954    -7931    -7939    -7960    -8004    -8059 
   -8097    -8117    -8131    -8137    -8156    -8183    -8179    -8156 
   -8156    -8174    -8208    -8274    -8338    -8352    -8311    -8253 
   -8198    -8144    -8094    -8051    -8009    -7977    -7967    -7993 
   -8050    -8122    -8190    -8239    -8266    -8280    -8276    -8235 
   -8175    -8118    -8073    -8047    -8046    -8083    -8141    -8178 
   -8194    -8189    -8152    -8136    -8148    -8147    -8158    -8194 
   -8216    -8203    -8182    -8163    -8139    -8094    -8046    -8019 
   -8014    -8043    -8100    -8145    -8178    -8213    -8251    -8291 
   -8310    -8278    -8225    -8174    -8125    -8086    -8046    -8006 
   -7985    -7975    -7970    -7966    -7955    -7946    -7958    -7992 
   -8036    -8085    -8128    -8166    -8203    -8252    -8313    -8359 
   -8351    -8303    -8253    -8218    -8206    -8208    -8185    -8127 
   -8067    -8044    -8055    -8074    -8085    -8059    -8008    -7978 
   -7978    -7994    -8029    -8070    -8098    -8118    -8135    -8136 
   -8117    -8112    -8121    -8128    -8141    -8141    -8135    -8166 
   -8210    -8226    -8239    -8256    -8251    -8217    -8174    -8122 
   -8054    -7982    -7946    -7959    -8009    -8086    -8172    -8245 
   -8284    -8291    -8282    -8279    -8283    -8279    -8253    -8205 
   -8152    -8117    -8095    -8086    -8093    -8093    -8055    -7987 
   -7940    -7932    -7955    -8008    -8068    -8122    -8187    -8257 
   -8316    -8353    -8360    -8341    -8329    -8337    -8332    -8287 
   -8210    -8116    -8020    -7944    -7889    -7859    -7873    -7917 
   -7962    -7993    -8009    -8037    -8104    -8199    -8298    -8353 
   -8356    -8337    -8326    -8329    -8328    -8294    -8233    -8162 
   -8101    -8054    -8000    -7936    -7894    -7896    -7929    -7982 
   -8023    -8040    -8074    -8145    -8229    -8291    -8301    -8274 
   -8262    -8264    -8259    -8232    -8164    -8086    -8041    -8033 
   -8041    -8041    -8012    -7970    -7958    -8005    -8095    -8191 
   -8263    -8298    -8297    -8268    -8245    -8220    -8181    -8143 
   -8113    -8094    -8075    -8033    -7993    -7978    -7971    -7967 
   -7977    -7996    -8035    -8108    -8191    -8264    -8318    -8337 
   -8321    -8307    -8311    -8299    -8251    -8175    -8097    -8046 
   -8032    -8040    -8039    -8019    -8008    -8012    -8033    -8068 
   -8089    -8097    -8113    -8139    -8176    -8220    -8275    -8322 
   -8324    -8295    -8253    -8213    -8201    -8205    -8176    -8122 
   -8077    -8036    -8004    -8006    -8033    -8047    -8032    -7990 
   -7951    -7952    -7992    -8058    -8131    -8176    -8191    -8197 
   -8210    -8233    -8263    -8297    -8314    -8302    -8289    -8282 
   -8267    -8233    -8181    -8124    -8078    -8062    -8073    -8075 
   -8056    -8029    -7987    -7947    -7947    -7970    -8000    -8052 
   -8101    -8133    -8176    -8218    -8232    -8245    -8289    -8336 
   -8357    -8340    -8271    -8178    -8109    -8081    -8064    -8036 
   -8006    -7986    -7986    -8013    -8027    -8005    -7975    -7971 
   -8017    -8094    -8168    -8226    -8244    -8225    -8216    -8252 
   -8291    -8287    -8257    -8228    -8222    -8247    -8247    -8183 
   -8085    -8008    -7975    -7982    -8019    -8067    -8090    -8085 
   -8074    -8064    -8056    -8047    -8033    -8021    -8025    -8073 
   -8151    -8210    -8244    -8244    -8220    -8202    -8197    -8208 
   -8236    -8260    -8252    -8203    -8145    -8127    -8152    -8163 
   -8129    -8063    -7970    -7890    -7878    -7942    -8033    -8132 
   -8228    -8303    -8360    -8399    -8402    -8357    -8302    -8262 
   -8228    -8197    -8156    -8112    -8083    -8064    -8032    -7969 
   -7885    -7827    -7846    -7921    -7987    -8016    -8024    -8044 
   -8095    -8155    -8183    -8183    -8189    -8222    -8262    -8294 
   -8324    -8333    -8324    -8320    -8307    -8278    -8251    -8232 
   -8205    -8159    -8094    -8033    -8019    -8052    -8085    -8093 
   -8078    -8048    -8033    -8039    -8048    -8068    -8082    -8077 
   -8073    -8094    -8151    -8210    -8240    -8239    -8183    -8106 
   -8068    -8052    -8041    -8052    -8077    -8108    -8145    -8181 
   -8189    -8191    -8208    -8208    -8190    -8174    -8149    -8124 
   -8136    -8189    -8229    -8236    -8236    -8243    -8230    -8199 
   -8164    -8128    -8097    -8074    -8064    -8070    -8063    -8028 
   -7981    -7931    -7897    -7905    -7921    -7943    -8006    -8097 
   -8171    -8205    -8216    -8248    -8299    -8326    -8322    -8309 
   -8303    -8325    -8351    -8326    -8235    -8108    -7994    -7929 
   -7906    -7892    -7875    -7866    -7854    -7870    -7944    -8059 
   -8182    -8284    -8344    -8368    -8374    -8364    -8347    -8332 
   -8324    -8306    -8259    -8185    -8098    -8027    -7975    -7925 
   -7878    -7871    -7909    -7974    -8056    -8136    -8203    -8266 
   -8318    -8349    -8368    -8391    -8409    -8390    -8324    -8243 
   -8163    -8085    -8031    -7990    -7924    -7844    -7782    -7734 
   -7713    -7746    -7823    -7923    -8039    -8171    -8311    -8448 
   -8572    -8675    -8721    -8685    -8587    -8441    -8271    -8117 
   -8019    -7960    -7896    -7832    -7790    -7773    -7786    -7820 
   -7854    -7898    -7967    -8062    -8172    -8280    -8379    -8448 
   -8469    -8467    -8457    -8424    -8380    -8322    -8225    -8102 
   -7992    -7915    -7867    -7832    -7801    -7780    -7790    -7846 
   -7942    -8052    -8156    -8237    -8297    -8340    -8357    -8345 
   -8317    -8278    -8221    -8147    -8071    -8016    -7986    -7987 
   -8010    -8035    -8075    -8140    -8199    -8230    -8226    -8199 
   -8171    -8155    -8155    -8163    -8145    -8087    -8031    -8013 
   -8013    -8016    -8036    -8066    -8091    -8114    -8136    -8158 
   -8185    -8236    -8307    -8343    -8318    -8275    -8243    -8239 
   -8255    -8236    -8158    -8059    -7985    -7944    -7916    -7893 
   -7889    -7916    -7977    -8054    -8122    -8179    -8230    -8272 
   -8306    -8332    -8343    -8356    -8383    -8390    -8356    -8290 
   -8214    -8148    -8089    -8019    -7939    -7871    -7836    -7840 
   -7870    -7901    -7936    -7993    -8062    -8131    -8195    -8247 
   -8289    -8340    -8409    -8455    -8451    -8407    -8338    -8270 
   -8218    -8164    -8104    -8048    -8009    -7973    -7932    -7898 
   -7870    -7862    -7901    -7974    -8050    -8113    -8151    -8170 
   -8183    -8206    -8221    -8201    -8167    -8174    -8206    -8221 
   -8199    -8160    -8145    -8163    -8191    -8217    -8213    -8178 
   -8168    -8229    -8311    -8338    -8283    -8189    -8118    -8097 
   -8098    -8077    -8029    -7977    -7925    -7900    -7905    -7911 
   -7935    -8002    -8095    -8203    -8311    -8384    -8407    -8380 
   -8329    -8274    -8205    -8116    -8039    -7996    -7975    -7954 
   -7913    -7850    -7797    -7812    -7892    -7998    -8120    -8218 
   -8270    -8301    -8351    -8414    -8461    -8480    -8461    -8413 
   -8348    -8274    -8197    -8101    -7982    -7865    -7773    -7735 
   -7765    -7825    -7878    -7923    -7967    -8032    -8131    -8239 
   -8328    -8383    -8392    -8376    -8360    -8344    -8322    -8270 
   -8166    -8068    -8037    -8056    -8102    -8148    -8140    -8091 
   -8063    -8074    -8110    -8152    -8145    -8100    -8070    -8052 
   -8055    -8086    -8097    -8098    -8141    -8205    -8259    -8287 
   -8278    -8274    -8297    -8299    -8268    -8194    -8086    -8020 
   -8031    -8041    -7990    -7911    -7855    -7852    -7915    -7992 
   -8024    -8050    -8129    -8253    -8370    -8422    -8419    -8402 
   -8398    -8422    -8444    -8397    -8275    -8139    -8046    -7987 
   -7923    -7846    -7788    -7774    -7813    -7886    -7944    -7969 
   -8001    -8085    -8205    -8311    -8383    -8417    -8419    -8399 
   -8364    -8294    -8195    -8127    -8117    -8152    -8185    -8156 
   -8081    -8040    -8056    -8112    -8191    -8249    -8257    -8274 
   -8329    -8376    -8370    -8294    -8171    -8062    -8008    -7978 
   -7921    -7839    -7762    -7738    -7798    -7892    -7948    -7959 
   -7960    -8001    -8109    -8253    -8399    -8529    -8608    -8623 
   -8575    -8434    -8214    -7989    -7831    -7743    -7700    -7692 
   -7711    -7770    -7889    -8035    -8148    -8193    -8186    -8185 
   -8222    -8316    -8459    -8584    -8652    -8692    -8692    -8613 
   -8460    -8272    -8100    -7959    -7828    -7681    -7535    -7445 
   -7450    -7542    -7666    -7766    -7852    -7978    -8151    -8320 
   -8422    -8445    -8409    -8383    -8424    -8498    -8540    -8523 
   -8459    -8376    -8303    -8224    -8104    -7954    -7836    -7781 
   -7757    -7738    -7771    -7912    -8144    -8391    -8523    -8451 
   -8252    -8078    -7985    -7955    -7958    -7962    -7990    -8089 
   -8239    -8355    -8360    -8271    -8171    -8109    -8100    -8117 
   -8121    -8104    -8064    -8009    -7954    -7919    -7924    -7994 
   -8120    -8271    -8394    -8421    -8334    -8197    -8102    -8078 
   -8108    -8167    -8220    -8268    -8347    -8421    -8422    -8321 
   -8143    -7950    -7819    -7800    -7875    -7989    -8117    -8257 
   -8388    -8444    -8356    -8166    -7992    -7901    -7894    -7916 
   -7866    -7743    -7657    -7680    -7813    -8005    -8189    -8332 
   -8448    -8567    -8694    -8772    -8760    -8685    -8602    -8546 
   -8527    -8517    -8480    -8417    -8355    -8303    -8263    -8198 
   -8059    -7843    -7596    -7377    -7245    -7209    -7242    -7339 
   -7495    -7663    -7794    -7875    -7935    -8025    -8185    -8390 
   -8584    -8735    -8822    -8823    -8739    -8591    -8395    -8203 
   -8082    -8046    -8052    -8035    -7983    -7956    -8012    -8166 
   -8345    -8438    -8386    -8217    -8054    -8008    -8093    -8217 
   -8278    -8267    -8218    -8135    -8039    -7959    -7881    -7796 
   -7700    -7572    -7427    -7331    -7335    -7449    -7630    -7821 
   -8008    -8212    -8444    -8677    -8856    -8939    -8927    -8858 
   -8789    -8737    -8673    -8572    -8448    -8322    -8187    -8054 
   -7958    -7886    -7836    -7832    -7848    -7858    -7870    -7885 
   -7924    -8032    -8208    -8382    -8472    -8451    -8378    -8355 
   -8403    -8468    -8506    -8503    -8484    -8461    -8397    -8243 
   -7989    -7680    -7414    -7280    -7294    -7412    -7574    -7720 
   -7831    -7935    -8040    -8122    -8160    -8166    -8183    -8235 
   -8291    -8314    -8286    -8198    -8064    -7944    -7900    -7982 
   -8209    -8509    -8764    -8889    -8853    -8680    -8467    -8321 
   -8260    -8221    -8167    -8091    -7998    -7943    -7923    -7854 
   -7703    -7528    -7403    -7392    -7503    -7669    -7838    -7998 
   -8164    -8341    -8487    -8559    -8560    -8522    -8487    -8464 
   -8441    -8433    -8460    -8492    -8483    -8392    -8226    -8044 
   -7924    -7912    -7979    -8050    -8093    -8137    -8178    -8182 
   -8140    -8089    -8071    -8073    -8079    -8055    -7929    -7719 
   -7510    -7372    -7357    -7473    -7676    -7923    -8182    -8421 
   -8641    -8841    -8988    -9030    -8935    -8742    -8552    -8452 
   -8456    -8519    -8561    -8518    -8382    -8183    -7950    -7720 
   -7522    -7350    -7207    -7137    -7188    -7350    -7566    -7803 
   -8023    -8185    -8290    -8370    -8468    -8604    -8726    -8769 
   -8702    -8525    -8298    -8109    -8014    -8009    -8035    -8031 
   -7990    -7939    -7900    -7879    -7865    -7855    -7889    -7996 
   -8163    -8328    -8432    -8451    -8402    -8337    -8284    -8221 
   -8149    -8112    -8128    -8162    -8178    -8159    -8090    -8014 
   -8028    -8116    -8197    -8235    -8221    -8194    -8222    -8290 
   -8328    -8320    -8299    -8291    -8306    -8329    -8325    -8282 
   -8225    -8168    -8098    -8016    -7916    -7801    -7711    -7668 
   -7642    -7597    -7551    -7549    -7623    -7758    -7882    -7947 
   -7944    -7944    -8048    -8270    -8532    -8754    -8870    -8870 
   -8834    -8815    -8773    -8662    -8494    -8284    -8085    -7965 
   -7925    -7911    -7863    -7774    -7705    -7704    -7786    -7955 
   -8170    -8357    -8457    -8453    -8382    -8287    -8216    -8199 
   -8222    -8243    -8241    -8232    -8241    -8268    -8278    -8235 
   -8121    -7965    -7825    -7746    -7743    -7788    -7811    -7763 
   -7680    -7630    -7654    -7747    -7884    -8024    -8132    -8203 
   -8271    -8340    -8390    -8405    -8409    -8444    -8522    -8633 
   -8722    -8727    -8644    -8499    -8316    -8120    -7936    -7798 
   -7711    -7638    -7573    -7538    -7526    -7551    -7634    -7751 
   -7896    -8083    -8305    -8536    -8754    -8942    -9082    -9151 
   -9131    -9042    -8910    -8745    -8542    -8291    -8000    -7696 
   -7406    -7157    -6979    -6871    -6818    -6821    -6879    -7001 
   -7190    -7430    -7730    -8100    -8513    -8910    -9238    -9478 
   -9641    -9724    -9711    -9579    -9316    -8957    -8568    -8209 
   -7913    -7678    -7489    -7331    -7196    -7118    -7138    -7263 
   -7450    -7646    -7824    -7990    -8164    -8372    -8613    -8843 
   -9027    -9151    -9200    -9167    -9066    -8903    -8683    -8428 
   -8160    -7919    -7736    -7601    -7466    -7321    -7202    -7140 
   -7157    -7236    -7326    -7416    -7528    -7680    -7873    -8087 
   -8284    -8441    -8554    -8633    -8696    -8750    -8758    -8699 
   -8608    -8513    -8422    -8375    -8374    -8372    -8356    -8328 
   -8276    -8210    -8140    -8078    -8033    -7993    -7935    -7840 
   -7708    -7584    -7520    -7526    -7574    -7641    -7723    -7839 
   -8005    -8218    -8429    -8592    -8689    -8707    -8653    -8568 
   -8464    -8320    -8125    -7897    -7658    -7446    -7311    -7292 
   -7375    -7508    -7654    -7790    -7923    -8106    -8375    -8694 
   -8978    -9162    -9216    -9169    -9092    -9043    -8992    -8861 
   -8594    -8185    -7717    -7307    -7028    -6894    -6867    -6906 
   -6994    -7144    -7385    -7727    -8125    -8488    -8749    -8911 
   -9024    -9140    -9278    -9390    -9404    -9283    -9039    -8714 
   -8383    -8086    -7828    -7601    -7400    -7236    -7114    -7045 
   -7044    -7103    -7231    -7449    -7744    -8090    -8446    -8768 
   -9028    -9193    -9238    -9177    -9023    -8796    -8563    -8370 
   -8197    -8005    -7801    -7609    -7453    -7368    -7369    -7408 
   -7457    -7545    -7689    -7855    -8024    -8209    -8403    -8579 
   -8723    -8820    -8856    -8843    -8802    -8721    -8583    -8395 
   -8176    -7956    -7780    -7661    -7587    -7568    -7595    -7647 
   -7727    -7828    -7928    -8010    -8075    -8122    -8155    -8187 
   -8216    -8221    -8201    -8147    -8055    -7963    -7917    -7932 
   -8000    -8105    -8221    -8320    -8391    -8449    -8499    -8515 
   -8475    -8374    -8203    -7993    -7816    -7701    -7653    -7678 
   -7740    -7778    -7788    -7811    -7861    -7929    -8019    -8135 
   -8284    -8476    -8695    -8887    -8996    -9028    -9004    -8916 
   -8760    -8541    -8257    -7936    -7670    -7520    -7450    -7395 
   -7335    -7300    -7327    -7458    -7689    -7944    -8170    -8365 
   -8548    -8726    -8889    -8991    -8974    -8826    -8590    -8329 
   -8085    -7873    -7708    -7584    -7485    -7427    -7427    -7489 
   -7614    -7807    -8047    -8294    -8515    -8699    -8842    -8938 
   -8969    -8932    -8845    -8716    -8561    -8391    -8210    -8023 
   -7847    -7696    -7568    -7499    -7510    -7584    -7699    -7816 
   -7917    -8023    -8128    -8208    -8247    -8232    -8171    -8100 
   -8048    -8032    -8063    -8117    -8149    -8156    -8162    -8176 
   -8208    -8271    -8345    -8379    -8352    -8284    -8226    -8218 
   -8236    -8232    -8176    -8077    -7992    -7958    -7965    -8001 
   -8064    -8139    -8222    -8301    -8365    -8437    -8500    -8521 
   -8521    -8505    -8434    -8306    -8143    -7956    -7767    -7624 
   -7558    -7562    -7608    -7669    -7726    -7767    -7803    -7863 
   -7977    -8137    -8333    -8537    -8692    -8752    -8721    -8630 
   -8507    -8403    -8320    -8228    -8137    -8036    -7909    -7796 
   -7716    -7670    -7670    -7705    -7762    -7870    -8032    -8208 
   -8367    -8494    -8581    -8648    -8707    -8737    -8702    -8599 
   -8451    -8286    -8125    -7985    -7869    -7757    -7669    -7651 
   -7699    -7789    -7912    -8035    -8132    -8195    -8239    -8271 
   -8290    -8306    -8317    -8297    -8245    -8170    -8068    -7962 
   -7871    -7797    -7734    -7692    -7696    -7754    -7861    -7996 
   -8140    -8278    -8407    -8536    -8633    -8680    -8676    -8590 
   -8419    -8221    -8044    -7897    -7767    -7631    -7491    -7395 
   -7377    -7462    -7668    -7925    -8144    -8336    -8530    -8715 
   -8891    -9031    -9070    -9001    -8870    -8714    -8540    -8343 
   -8117    -7865    -7619    -7426    -7302    -7231    -7219    -7277 
   -7402    -7588    -7825    -8085    -8326    -8530    -8698    -8823 
   -8899    -8924    -8905    -8839    -8715    -8541    -8344    -8147 
   -7967    -7813    -7685    -7570    -7460    -7354    -7272    -7252 
   -7323    -7479    -7690    -7921    -8159    -8411    -8671    -8905 
   -9076    -9151    -9138    -9069    -8980    -8866    -8700    -8464 
   -8160    -7838    -7568    -7395    -7302    -7250    -7230    -7250 
   -7342    -7520    -7757    -7993    -8191    -8355    -8514    -8692 
   -8884    -9045    -9109    -9049    -8895    -8692    -8460    -8208 
   -7958    -7715    -7484    -7299    -7176    -7114    -7138    -7256 
   -7454    -7720    -8028    -8352    -8654    -8903    -9078    -9163 
   -9158    -9069    -8911    -8722    -8530    -8332    -8109    -7875 
   -7670    -7511    -7399    -7333    -7281    -7246    -7273    -7376 
   -7546    -7761    -7979    -8199    -8437    -8685    -8926    -9120 
   -9224    -9212    -9103    -8922    -8681    -8405    -8129    -7889 
   -7693    -7542    -7430    -7354    -7312    -7322    -7393    -7523 
   -7712    -7931    -8145    -8345    -8525    -8669    -8766    -8800 
   -8779    -8725    -8629    -8488    -8301    -8054    -7796    -7605 
   -7511    -7511    -7578    -7672    -7770    -7879    -8001    -8131 
   -8253    -8355    -8424    -8465    -8505    -8550    -8573    -8548 
   -8471    -8341    -8178    -8013    -7881    -7798    -7770    -7790 
   -7830    -7879    -7948    -8027    -8124    -8252    -8397    -8533 
   -8645    -8726    -8758    -8735    -8658    -8529    -8340    -8120 
   -7927    -7801    -7738    -7705    -7672    -7643    -7643    -7686 
   -7774    -7882    -7993    -8100    -8191    -8259    -8299    -8326 
