Origin Time       2025/06/03 22:18:00
Lat.              41.7
Long.             143.6
Depth. (km)       30
Mag.              5.2
Station Code      HKD111
Station Lat.      42.0170
Station Long.     143.1487
Station Height(m) 22
Record Time       2025/06/03 22:18:45
Sampling Freq(Hz) 100Hz
Duration Time(s)  60
Dir.              N-S
Scale Factor      7845(gal)/8223790
Max. Acc. (gal)   1.474
Last Correction   2025/06/03 22:18:46
Memo.             
[...]
   -1030    -1028    -1024    -1026    -1028    -1028    -1027    -1028 
   -1031    -1028    -1027    -1028    -1027    -1027    -1030    -1027 
   -1024    -1027    -1030    -1030    -1027    -1028    -1026    -1026 
   -1030    -1030    -1026    -1027    -1030    -1028    -1030    -1030 
   -1028    -1028    -1027    -1026    -1028    -1031    -1028    -1026 
   -1027    -1028    -1030    -1031    -1032    -1028    -1023    -1026 
   -1032    -1028    -1026    -1026    -1024    -1026    -1030    -1028 
   -1027    -1027    -1027    -1027    -1026    -1027    -1028    -1027 
   -1027    -1027    -1028    -1028    -1027    -1028    -1030    -1028 
   -1028    -1027    -1026    -1027    -1028    -1030    -1030    -1028 
   -1028    -1027    -1027    -1030    -1030    -1028    -1028    -1027 
   -1027    -1028    -1030    -1031    -1028    -1026    -1027    -1028 
   -1027    -1028    -1030    -1030    -1027    -1027    -1028    -1028 
   -1030    -1030    -1030    -1031    -1030    -1027    -1027    -1030 
   -1032    -1031    -1027    -1026    -1027    -1027    -1028    -1030 
   -1028    -1026    -1026    -1027    -1027    -1030    -1028    -1027 
   -1031    -1032    -1027    -1027    -1030    -1030    -1028    -1030 
   -1031    -1027    -1026    -1028    -1030    -1028    -1028    -1030 
   -1028    -1024    -1027    -1031    -1027    -1026    -1030    -1030 
   -1027    -1027    -1030    -1030    -1027    -1028    -1031    -1028 
   -1028    -1031    -1030    -1027    -1028    -1031    -1028    -1027 
   -1028    -1027    -1027    -1027    -1027    -1028    -1030    -1030 
   -1030    -1028    -1028    -1031    -1032    -1027    -1026    -1030 
   -1031    -1028    -1030    -1030    -1026    -1026    -1026    -1028 
   -1030    -1030    -1030    -1027    -1026    -1028    -1028    -1027 
   -1028    -1028    -1026    -1024    -1027    -1027    -1027    -1030 
   -1028    -1027    -1030    -1030    -1026    -1030    -1030    -1026 
   -1028    -1030    -1026    -1026    -1027    -1028    -1031    -1031 
   -1030    -1030    -1028    -1024    -1027    -1031    -1030    -1028 
   -1028    -1028    -1030    -1028    -1028    -1028    -1028    -1024 
   -1028    -1031    -1027    -1026    -1028    -1026    -1027    -1030 
   -1027    -1028    -1032    -1028    -1027    -1030    -1030    -1028 
   -1027    -1027    -1027    -1027    -1030    -1031    -1028    -1028 
   -1028    -1026    -1027    -1031    -1030    -1028    -1031    -1028 
   -1024    -1028    -1030    -1027    -1027    -1028    -1030    -1028 
   -1027    -1027    -1028    -1028    -1030    -1028    -1028    -1030 
   -1028    -1028    -1028    -1026    -1027    -1028    -1028    -1028 
   -1028    -1027    -1027    -1028    -1030    -1028    -1027    -1028 
   -1028    -1027    -1028    -1030    -1028    -1030    -1031    -1030 
   -1027    -1027    -1028    -1030    -1031    -1030    -1026    -1027 
   -1030    -1026    -1026    -1028    -1027    -1028    -1032    -1028 
   -1027    -1030    -1030    -1030    -1028    -1027    -1030    -1031 
   -1027    -1027    -1030    -1027    -1026    -1030    -1030    -1026 
   -1027    -1027    -1027    -1027    -1028    -1026    -1026    -1028 
   -1028    -1027    -1028    -1031    -1027    -1026    -1030    -1030 
   -1027    -1028    -1027    -1027    -1031    -1028    -1024    -1027 
   -1030    -1028    -1028    -1030    -1028    -1027    -1028    -1028 
   -1028    -1030    -1028    -1027    -1027    -1027    -1028    -1030 
   -1030    -1032    -1031    -1027    -1027    -1030    -1028    -1027 
   -1026    -1030    -1032    -1030    -1027    -1027    -1028    -1030 
   -1030    -1028    -1027    -1024    -1027    -1030    -1027    -1024 
   -1026    -1028    -1030    -1027    -1026    -1027    -1030    -1027 
   -1026    -1028    -1028    -1026    -1028    -1028    -1027    -1030 
   -1027    -1023    -1027    -1028    -1028    -1027    -1028    -1030 
   -1031    -1028    -1027    -1032    -1034    -1032    -1035    -1036 
   -1036    -1040    -1040    -1040    -1046    -1053    -1058    -1059 
   -1051    -1040    -1040    -1042    -1034    -1023    -1013    -1009 
   -1023    -1055    -1080    -1078    -1062    -1054    -1061    -1080 
   -1092    -1080    -1054    -1055    -1093    -1140    -1185    -1209 
   -1182    -1140    -1131    -1135    -1152    -1181    -1162    -1101 
   -1069    -1097    -1167    -1217    -1190    -1120    -1085    -1102 
   -1138    -1156    -1144    -1082     -972     -897     -913     -951 
    -980     -990     -935     -889     -970    -1092    -1101    -1015 
    -935     -904     -908     -942     -992     -985     -946     -978 
   -1023    -1063    -1206    -1293    -1196    -1117    -1107    -1039 
    -965     -927     -885     -880     -899     -924    -1061    -1236 
   -1223    -1067     -945     -892     -913     -970     -988     -982 
    -985     -923     -764     -677     -810     -986    -1023    -1038 
   -1092    -1081     -963     -791     -720     -854     -965     -874 
    -730     -653     -716     -938    -1102    -1139    -1173    -1146 
   -1035     -962     -932     -886     -791     -702     -741     -912 
   -1063    -1059     -936     -876     -974    -1162    -1260    -1108 
    -797     -598     -589     -731     -943    -1015     -938     -930 
   -1016    -1129    -1229    -1202    -1074     -957     -820     -776 
   -1005    -1271    -1328    -1293    -1202    -1050     -950     -895 
    -955    -1183    -1216     -985     -967    -1125    -1078     -928 
    -885     -908     -926     -990    -1159    -1282    -1255    -1200 
   -1139    -1112    -1155    -1132    -1107    -1220    -1312    -1316 
   -1366    -1479    -1559    -1439    -1069     -679     -469     -481 
    -664     -824     -831     -824     -963    -1209    -1366    -1279 
   -1089    -1054    -1100    -1032     -939     -912     -908    -1034 
   -1312    -1498    -1418    -1162    -1005    -1134    -1318    -1316 
   -1243    -1216    -1185    -1190    -1296    -1458    -1586    -1495 
   -1196    -1007     -989     -981    -1021    -1066     -988     -877 
    -846     -926    -1050    -1040     -923     -841     -737     -631 
    -708     -873     -853     -629     -406     -445     -804    -1166 
   -1294    -1270    -1115     -916     -913     -978     -866     -715 
    -657     -708     -857     -862     -719     -772     -974    -1116 
   -1356    -1694    -1760    -1452    -1070     -961    -1209    -1553 
   -1647    -1489    -1364    -1343    -1209     -988     -943    -1043 
    -986     -761     -591     -585     -730     -862     -785     -648 
    -706     -923    -1135    -1200    -1132    -1190    -1375    -1360 
   -1142    -1046    -1107    -1054     -832     -697     -785     -873 
    -715     -421     -299     -413     -607     -777     -851     -832 
    -849     -943    -1032    -1086    -1156    -1228    -1227    -1201 
   -1179    -1013     -726     -573     -592     -588     -529     -588 
    -816    -1054    -1170    -1128     -915     -739     -908    -1263 
   -1397    -1368    -1420    -1453    -1358    -1178     -984     -932 
   -1011     -986     -934    -1059    -1279    -1409    -1285     -907 
    -592     -607     -865    -1124    -1217    -1125    -1030    -1127 
   -1351    -1506    -1509    -1375    -1192    -1048    -1003    -1078 
   -1233    -1408    -1578    -1718    -1792    -1733    -1553    -1406 
   -1335    -1274    -1242    -1240    -1159     -943     -718     -711 
    -957    -1194    -1231    -1139    -1008     -920    -1001    -1246 
   -1506    -1584    -1313     -885     -729     -858     -932     -822 
    -619     -471     -488     -592     -703     -916    -1169    -1227 
   -1080     -913     -903    -1048    -1158    -1147    -1074     -924 
    -792     -830     -858     -693     -579     -769    -1108    -1329 
   -1401    -1366    -1208    -1000     -876     -909    -1098    -1247 
   -1209    -1143    -1155    -1194    -1289    -1378    -1285    -1034 
    -787     -641     -610     -571     -450     -422     -552     -660 
    -720     -886    -1163    -1414    -1467    -1239     -940     -787 
    -785     -922    -1027     -862     -571     -445     -503     -598 
    -612     -588     -680     -936    -1225    -1393    -1422    -1360 
   -1252    -1182    -1151    -1100    -1051     -977     -820     -708 
    -824    -1084    -1252    -1264    -1200    -1135    -1144    -1235 
   -1298    -1296    -1243    -1124    -1032    -1059    -1093    -1080 
   -1138    -1202    -1131    -1042    -1034     -992     -900     -845 
    -845     -899     -969     -963     -878     -805     -791     -799 
    -818     -858     -942    -1065    -1140    -1147    -1152    -1125 
   -1021     -946     -996    -1162    -1366    -1482    -1435    -1281 
   -1156    -1156    -1204    -1112     -850     -616     -596     -737 
    -893    -1024    -1125    -1158    -1102    -1024    -1012    -1101 
   -1250    -1336    -1267    -1112     -967     -849     -797     -822 
    -861     -928    -1011    -1008     -951     -931     -932     -926 
    -942     -978    -1000     -993     -965     -963     -982     -946 
    -924    -1073    -1327    -1474    -1432    -1264    -1067     -920 
    -842     -878    -1024    -1094    -1016     -958     -953     -920 
    -912     -946     -924     -849     -823     -900    -1059    -1208 
   -1216    -1104    -1074    -1224    -1439    -1572    -1529    -1335 
   -1181    -1166    -1228    -1275    -1196    -1001     -872     -849 
    -843     -851     -872     -900     -990    -1134    -1239    -1254 
   -1232    -1252    -1271    -1182    -1007     -888     -930    -1073 
   -1178    -1189    -1140    -1089    -1081    -1131    -1188    -1143 
   -1003     -932     -989    -1058    -1098    -1166    -1217    -1150 
    -981     -862     -892     -996    -1059    -1067    -1059    -1100 
   -1213    -1287    -1260    -1205    -1113     -959     -846     -853 
    -943    -1059    -1134    -1104    -1027     -996     -992     -943 
    -808     -611     -500     -616     -850     -969     -928     -832 
    -741     -658     -612     -622     -634     -626     -656     -739 
    -797     -792     -855    -1077    -1248    -1139     -849     -642 
    -657     -874    -1177    -1426    -1514    -1394    -1223    -1232 
   -1379    -1420    -1283    -1084     -936     -938    -1080    -1240 
   -1333    -1310    -1155    -1001    -1012    -1134    -1201    -1169 
   -1075     -984     -935     -935     -976     -989     -915     -839 
    -828     -803     -716     -672     -746     -907    -1055    -1090 
   -1016     -992    -1092    -1173    -1119    -1001     -965    -1061 
   -1158    -1123    -1008     -897     -819     -849    -1046    -1290 
   -1336    -1096     -784     -650     -707     -831     -884     -815 
    -757     -851    -1039    -1162    -1158    -1092    -1050    -1039 
   -1007     -911     -783     -707     -702     -669     -585     -562 
    -676     -924    -1252    -1495    -1486    -1294    -1142    -1129 
   -1213    -1297    -1317    -1266    -1135     -982     -934    -1004 
   -1109    -1204    -1228    -1175    -1165    -1247    -1379    -1485 
   -1404    -1124     -878     -861    -1090    -1440    -1667    -1614 
   -1355    -1094    -1013    -1124    -1254    -1246    -1077     -811 
    -554     -449     -544     -754    -1013    -1263    -1368    -1282 
   -1136    -1040    -1013    -1080    -1192    -1209    -1109    -1017 
   -1051    -1263    -1513    -1533    -1306    -1044     -897     -918 
   -1048    -1171    -1286    -1399    -1394    -1183     -857     -577 
    -426     -400     -434     -373     -156       31      -51     -449 
   -1001    -1460    -1624    -1464    -1147     -868     -677     -502 
    -291      -54      153      210       48     -270     -664    -1017 
   -1163    -1070     -869     -681     -637     -841    -1167    -1374 
   -1377    -1244    -1125    -1096    -1044     -963     -992    -1109 
   -1212    -1283    -1286    -1220    -1192    -1258    -1404    -1637 
   -1877    -1977    -1917    -1753    -1493    -1217    -1088    -1134 
   -1216    -1233    -1197    -1096     -913     -727     -648     -692 
    -819     -953    -1015    -1016    -1023    -1017     -978     -973 
   -1003     -976     -870     -691     -444     -237     -236     -495 
    -874    -1135    -1198    -1177    -1182    -1239    -1310    -1316 
   -1205    -1026     -869     -722     -544     -413     -398     -427 
    -445     -459     -477     -522     -606     -751     -996    -1314 
   -1611    -1799    -1834    -1714    -1493    -1225     -945     -718 
    -626     -623     -616     -576     -525     -540     -681     -899 
   -1119    -1293    -1366    -1355    -1362    -1426    -1522    -1593 
   -1610    -1649    -1744    -1763    -1599    -1331    -1074     -912 
    -928    -1123    -1401    -1636    -1690    -1495    -1135     -830 
    -826    -1161    -1557    -1702    -1548    -1308    -1209    -1270 
   -1283    -1053     -648     -294      -91       12       39      -71 
    -330     -596     -737     -750     -722     -734     -766     -760 
    -739     -746     -805     -994    -1313    -1633    -1850    -1925 
   -1867    -1772    -1715    -1647    -1529    -1356    -1093     -827 
    -745     -913    -1301    -1810    -2226    -2380    -2313    -2149 
   -1931    -1665    -1381    -1123     -938     -861     -962    -1314 
   -1850    -2323    -2479    -2288    -1952    -1744    -1821    -2131 
   -2451    -2573    -2435    -2110    -1730    -1445    -1324    -1308 
   -1255    -1109     -957     -870     -795     -630     -368     -108 
      95      294      456      444      245       -2     -213     -406 
    -608     -777     -818     -679     -392      -51      178      152 
     -45     -217     -294     -313     -309     -307     -338     -440 
    -614     -789     -877     -850     -743     -589     -445     -369 
    -363     -379     -391     -395     -406     -441     -468     -442 
    -402     -406     -464     -548     -666     -904    -1305    -1790 
   -2223    -2482    -2489    -2295    -2074    -1942    -1891    -1907 
   -1961    -1998    -2043    -2153    -2224    -2118    -1831    -1462 
   -1134     -946     -843     -696     -522     -441     -494     -645 
    -834     -934     -886     -773     -714     -778     -954    -1128 
   -1221    -1273    -1337    -1391    -1379    -1314    -1275    -1289 
   -1285    -1204    -1042     -793     -496     -257     -170     -220 
    -275     -224      -95        0        6      -58     -120      -81 
      91      319      465      456      336      171        0     -151 
    -294     -465     -649     -783     -841     -845     -870    -1005 
   -1217    -1350    -1359    -1350    -1372    -1389    -1371    -1339 
   -1327    -1360    -1436    -1552    -1736    -1966    -2166    -2265 
   -2245    -2119    -1923    -1723    -1626    -1676    -1780    -1815 
   -1741    -1586    -1401    -1258    -1219    -1286    -1416    -1566 
   -1680    -1706    -1647    -1510    -1298    -1069     -885     -750 
    -683     -737     -900    -1078    -1208    -1281    -1327    -1406 
   -1540    -1691    -1822    -1849    -1729    -1582    -1537    -1544 
   -1491    -1347    -1123     -868     -677     -599     -602     -622 
    -641     -697     -843    -1078    -1324    -1464    -1449    -1324 
   -1186    -1143    -1231    -1390    -1524    -1539    -1433    -1316 
   -1278    -1324    -1406    -1453    -1398    -1255    -1121    -1063 
   -1046     -965     -780     -542     -284      -27      180      305 
     341      299      244      233      268      311      291      206 
     120        1     -197     -398     -533     -631     -757     -935 
   -1088    -1116    -1046     -981     -985    -1030    -1028     -972 
    -946    -1031    -1266    -1606    -1927    -2089    -2016    -1783 
   -1580    -1514    -1548    -1601    -1609    -1545    -1431    -1320 
   -1254    -1220    -1200    -1190    -1183    -1177    -1174    -1151 
   -1090    -1038    -1038    -1082    -1158    -1244    -1286    -1204 
    -980     -737     -602     -564     -540     -488     -415     -346 
    -326     -375     -457     -537     -649     -855    -1129    -1367 
   -1467    -1394    -1197     -963     -787     -724     -722     -679 
    -598     -544     -564     -660     -766     -783     -707     -627 
    -576     -569     -654     -822     -999    -1124    -1167    -1146 
   -1109    -1100    -1138    -1204    -1246    -1248    -1231    -1212 
   -1252    -1377    -1502    -1537    -1491    -1429    -1413    -1462 
   -1568    -1710    -1849    -1973    -2087    -2204    -2328    -2396 
   -2313    -2053    -1679    -1328    -1117    -1084    -1170    -1277 
   -1341    -1370    -1386    -1398    -1387    -1329    -1232    -1121 
   -1013     -903     -785     -673     -568     -459     -380     -386 
    -456     -526     -557     -538     -484     -418     -356     -311 
    -270     -209     -145     -124     -155     -198     -228     -263 
    -291     -274     -198      -91       -5        2      -45      -82 
    -113     -194     -344     -534     -726     -918    -1148    -1417 
   -1674    -1877    -1998    -2035    -2023    -1973    -1891    -1823 
   -1836    -1931    -2056    -2170    -2255    -2295    -2276    -2195 
   -2091    -1998    -1887    -1733    -1568    -1458    -1437    -1480 
   -1509    -1462    -1341    -1194    -1059     -962     -885     -799 
    -688     -541     -373     -245     -203     -233     -295     -355 
    -396     -446     -549     -707     -872     -993    -1050    -1059 
   -1066    -1080    -1071    -1048    -1042    -1067    -1135    -1224 
   -1274    -1247    -1151    -1021     -878     -724     -584     -500 
    -483     -495     -502     -510     -554     -653     -791     -913 
    -992    -1054    -1119    -1148    -1128    -1093    -1073    -1058 
   -1028    -1003    -1034    -1132    -1232    -1270    -1243    -1182 
   -1123    -1077    -1020     -940     -866     -819     -810     -827 
    -845     -847     -864     -913     -977    -1027    -1043    -1004 
    -907     -799     -738     -757     -846     -939     -957     -905 
    -865     -892     -965    -1028    -1063    -1109    -1198    -1324 
   -1443    -1514    -1536    -1516    -1448    -1341    -1235    -1162 
   -1134    -1135    -1129    -1094    -1061    -1055    -1057    -1032 
    -989     -965     -970     -997    -1026    -1044    -1058    -1073 
   -1096    -1139    -1197    -1251    -1306    -1379    -1443    -1455 
   -1443    -1436    -1414    -1377    -1333    -1277    -1196    -1101 
   -1021     -970     -920     -869     -858     -900     -954     -990 
    -993     -943     -888     -908    -1005    -1105    -1158    -1163 
   -1173    -1209    -1235    -1205    -1104     -954     -811     -700 
    -627     -591     -550     -463     -375     -340     -353     -402 
    -464     -517     -546     -556     -572     -602     -642     -689 
    -734     -777     -823     -869     -901     -919     -938     -967 
    -992    -1013    -1077    -1178    -1260    -1282    -1251    -1194 
   -1138    -1082    -1035    -1020    -1051    -1109    -1162    -1192 
   -1210    -1227    -1252    -1306    -1371    -1367    -1274    -1163 
   -1096    -1090    -1123    -1148    -1163    -1185    -1198    -1196 
