Origin Time       2025/06/03 22:18:00
Lat.              41.7
Long.             143.6
Depth. (km)       30
Mag.              5.2
Station Code      HKD113
Station Lat.      42.1287
Station Long.     143.3153
Station Height(m) 15
Record Time       2025/06/03 22:18:36
Sampling Freq(Hz) 100Hz
Duration Time(s)  62
Dir.              E-W
Scale Factor      3920(gal)/6182761
Max. Acc. (gal)   6.287
Last Correction   2025/06/03 22:18:36
Memo.             
[...]
    2013     2011     2010     2010     2011     2010     2010     2010 
    2009     2010     2013     2015     2012     2008     2007     2007 
    2009     2008     2007     2010     2013     2013     2012     2012 
    2011     2008     2006     2008     2009     2008     2010     2013 
    2014     2013     2010     2009     2006     2004     2008     2012 
    2014     2015     2013     2011     2011     2009     2009     2009 
    2007     2008     2010     2009     2010     2012     2011     2009 
    2010     2009     2007     2008     2008     2010     2014     2012 
    2010     2009     2010     2009     2005     2005     2008     2011 
    2013     2013     2011     2009     2006     2006     2008     2011 
    2013     2013     2013     2013     2010     2006     2005     2006 
    2006     2009     2013     2013     2011     2010     2010     2009 
    2008     2006     2005     2006     2009     2011     2011     2010 
    2009     2008     2009     2009     2008     2007     2006     2009 
    2012     2011     2010     2010     2010     2011     2010     2009 
    2010     2010     2011     2013     2011     2006     2007     2006 
    2004     2007     2011     2012     2013     2013     2008     2004 
    2006     2008     2006     2005     2009     2012     2014     2013 
    2011     2009     2008     2009     2008     2006     2006     2008 
    2012     2016     2016     2012     2006     2004     2007     2008 
    2009     2011     2011     2012     2012     2010     2006     2006 
    2010     2008     2008     2013     2010     2008     2012     2011 
    2010     2011     2009     2007     2007     2009     2012     2010 
    2009     2011     2014     2013     2009     2007     2009     2010 
    2010     2012     2013     2011     2010     2006     2004     2005 
    2011     2015     2012     2011     2012     2008     2005     2008 
    2012     2015     2015     2013     2008     2003     2005     2010 
    2010     2011     2012     2010     2009     2010     2011     2010 
    2010     2010     2008     2008     2010     2011     2015     2014 
    2009     2011     2012     2008     2006     2007     2007     2008 
    2010     2015     2016     2014     2010     2007     2009     2013 
    2013     2013     2014     2010     2008     2012     2013     2009 
    2009     2013     2013     2012     2011     2010     2010     2010 
    2010     2010     2008     2008     2011     2009     2007     2009 
    2013     2015     2014     2011     2008     2007     2008     2011 
    2013     2012     2011     2012     2010     2008     2009     2009 
    2010     2015     2016     2013     2011     2004     2001     2006 
    2007     2010     2016     2016     2012     2010     2010     2010 
    2005     2002     2005     2008     2009     2014     2021     2019 
    2011     2006     2002     2003     2007     2011     2017     2017 
    2013     2013     2011     2008     2008     2006     2005     2008 
    2009     2008     2010     2012     2012     2011     2008     2008 
    2008     2003     2006     2012     2014     2015     2016     2012 
    2007     2004     2003     2006     2010     2013     2015     2013 
    2012     2011     2008     2009     2009     2007     2010     2014 
    2013     2012     2013     2009     2007     2007     2007     2009 
    2012     2013     2010     2009     2011     2011     2007     2004 
    2006     2007     2007     2013     2017     2015     2011     2006 
    2006     2008     2009     2014     2014     2011     2012     2010 
    2006     2007     2011     2010     2008     2010     2013     2014 
    2015     2012     2005     2002     2006     2009     2008     2010 
    2009     2011     2015     2013     2010     2006     2001     2003 
    2008     2011     2016     2020     2017     2009     2005     2006 
    2005     2004     2009     2012     2015     2019     2020     2014 
    2004     1998     2001     2003     2007     2017     2021     2019 
    2015     2012     2005     1997     1998     2005     2008     2016 
    2023     2019     2012     2009     2000     1995     2001     2007 
    2013     2018     2019     2020     2017     2007     1998     1997 
    2001     2008     2014     2020     2020     2009     2004     2008 
    2007     2008     2013     2012     2009     2012     2015     2012 
    2007     2006     2009     2013     2013     2011     2011     2008 
    2005     2008     2008     2009     2014     2017     2011     2001 
    1998     2002     2011     2017     2020     2016     2007     2004 
    2007     2005     2005     2012     2014     2013     2016     2015 
    2011     2006     1998     2001     2013     2018     2018     2016 
    2007     2002     2005     2005     2004     2008     2012     2017 
    2020     2015     2004     2001     2005     2009     2013     2019 
    2019     2014     2010     2001     1995     1999     2002     2012 
    2027     2027     2016     2005     1997     1996     2000     2010 
    2019     2017     2013     2012     2010     2008     2011     2008 
    2001     2000     2007     2016     2020     2018     2010     2005 
    2004     2003     2007     2012     2015     2018     2015     2006 
    2005     2007     2005     2006     2013     2016     2012     2007 
    2007     2012     2017     2014     2006     2005     2007     2010 
    2013     2014     2014     2011     2005     2004     2009     2018 
    2021     2011     2003     2002     2005     2012     2017     2016 
    2014     2012     2006     2004     2009     2009     2008     2013 
    2016     2013     2005     1998     2002     2011     2017     2023 
    2021     2016     2021     2031     2043     2058     2061     2051 
    2032     2005     1973     1944     1926     1933     1968     2013 
    2051     2094     2141     2158     2128     2070     2008     1953 
    1921     1934     1995     2083     2174     2236     2225     2103 
    1881     1692     1682     1819     1972     2151     2420     2664 
    2654     2331     1880     1521     1331     1338     1623     2149 
    2699     3044     2955     2316     1438      836      715     1011 
    1646     2512     3316     3640     3321     2622     1896     1225 
     499      -32      209     1248     2489     3480     4017     3851 
    2902     1570      510      216      734     1596     2322     2796 
    2952     2805     2519     2011     1265      742      826     1531 
    2575     3408     3571     2910     1708      700      439      750 
    1128     1575     2363     3223     3707     3660     3060     2071 
     908      -84     -264      559     1865     3035     3679     3661 
    3097     2410     1852     1120      246     -122      450     1886 
    3584     4689     4633     3344     1493      135     -272       36 
     812     2055     3470     4337     4272     3392     2065      768 
    -241     -571      267     1949     3670     4881     5133     4265 
    2652      871     -471     -936     -555      545     2336     4204 
    5070     4612     3368     1909      688       65      159      955 
    2158     3169     3560     3177     2177     1176      722      801 
    1141     1589     2151     2856     3614     4113     3863     2661 
    1076       96      148      732     1336     2036     2884     3480 
    3308     2305     1108      406      422     1166     2406     3630 
    4462     4735     4228     2826      978     -533    -1245    -1020 
     133     1886     3539     4392     4325     3685     2657     1301 
     -23     -685     -195     1335     3116     4284     4522     3915 
    2698     1288      121     -500     -394      470     1845     3192 
    3915     3701     2813     1844     1071      597      769     1757 
    3129     4177     4433     3810     2449      736     -721    -1379 
   -1009      210     1891     3662     5042     5448     4639     2917 
     891     -693    -1138     -276     1423     3305     4758     5285 
    4656     2938      642    -1376    -2399    -1965       28     2929 
    5549     6904     6596     4818     2345      195     -956     -957 
      21     1639     3387     4520     4413     3058     1061     -694 
   -1466    -1036      417     2527     4671     6107     6277     4970 
    2598      181    -1454    -2014    -1316      514     2783     4760 
    5919     5843     4430     2105     -171    -1355    -1089      162 
    1762     3335     4534     4888     4096     2401      624     -368 
    -262      750     2144     3274     3753     3499     2674     1609 
     462     -515     -665      354     2085     3770     4772     4756 
    3879     2544     1046     -227     -727     -215     1101     2721 
    3952     4309     3777     2605     1258      330      159      713 
    1725     2859     3813     4227     3817     2742     1436      210 
    -612     -622      299     1846     3482     4576     4739     4098 
    3077     2107     1456     1129     1017     1092     1394     1948 
    2654     3155     3015     2171     1084      369      313      775 
    1496     2265     2877     3179     3100     2603     1778      897 
     319      325      957     2013     3152     3949     3975     3096 
    1702      497       53      530     1638     2817     3553     3638 
    3276     2777     2239     1734     1403     1241     1218     1441 
    1904     2347     2470     2161     1538      843      378      405 
    1007     2009     3037     3768     4125     4111     3651     2779 
    1788     1024      730     1018     1677     2209     2317     2098 
    1734     1369     1165     1218     1536     2079     2668     2984 
    2818     2240     1551     1089      977     1093     1316     1639 
    2070     2576     3071     3363     3227     2631     1852     1268 
    1093     1409     2121     2831     3123     2957     2566     2219 
    2167     2405     2529     2192     1487      767      392      528 
    1068     1867     2767     3427     3590     3321     2726     1879 
    1079      690      807     1294     1974     2643     3021     2960 
    2590     2127     1725     1556     1717     2039     2266     2288 
    2085     1719     1373     1198     1254     1563     1994     2348 
    2615     2779     2677     2267     1683     1069      590      409 
     605     1206     2079     2917     3478     3654     3383     2737 
    1957     1310      951      825      862     1171     1690     2045 
    2079     1979     1886     1856     1976     2284     2703     3016 
    2976     2593     2052     1448      974      951     1431     2244 
    3187     3927     4136     3786     3150     2539     2083     1749 
    1576     1691     1992     2193     2170     1952     1672     1529 
    1607     1889     2290     2650     2914     3043     2814     2094 
    1160      450      248      718     1777     2948     3713     3799 
    3162     2053      951      322      458     1245     2188     2825 
    2983     2698     2123     1504     1050      860     1019     1546 
    2236     2807     3094     3078     2816     2380     1898     1525 
    1366     1533     2038     2649     3013     2851     2193     1402 
     832      600      673      992     1476     1971     2328     2452 
    2325     2048     1716     1354     1041      954     1194     1649 
    2085     2306     2238     1976     1674     1413     1263     1274 
    1466     1876     2451     2937     3011     2500     1521      476 
    -151     -107      524     1490     2417     2924     2916     2579 
    2136     1776     1640     1774     2109     2491     2692     2498 
    1914     1206      733      796     1474     2525     3521     4060 
    3927     3191     2233     1585     1563     2065     2773     3370 
    3629     3510     3166     2755     2385     2178     2150     2178 
    2197     2200     2140     2021     1915     1855     1892     2107 
    2496     2986     3448     3645     3367     2628     1630      679 
     119      130      628     1392     2162     2652     2692     2320 
    1735     1237     1082     1338     1866     2399     2663     2485 
    1904     1194      688      563      777     1216     1834     2523 
    3038     3185     2904     2284     1599     1200     1290     1799 
    2476     3080     3475     3583     3344     2768     1957     1129 
     675      957     1922     3087     3898     4020     3453     2462 
    1372      487       52       98      466      973     1406     1562 
    1437     1217     1098     1203     1556     2039     2462     2683 
    2687     2575     2482     2521     2741     2994     3020     2791 
    2535     2453     2587     2868     3228     3657     4074     4263 
    4027     3345     2453     1785     1714     2298     3247     4106 
    4468     4107     3059     1676      545      164      659     1813 
    3243     4504     5214     5168     4336     2790      707    -1426 
   -2776    -2552     -567     2482     5255     6485     5660     3234 
     308    -1899    -2493    -1264     1131     3436     4423     3520 
    1094    -1743    -3773    -4371    -3666    -2191     -548      750 
    1353     1134      230     -963    -1839    -1843     -817      960 
    2953     4580     5356     4944     3201      435    -2438    -4308 
   -4467    -2824      182     3792     7171     9540    10302     9257 
    6766     3704     1119     -257     -282      683     2042     3221 
    3921     4228     4479     5034     5965     6866     7027     5782 
    2894    -1105    -5025    -7567    -7906    -6130    -3192     -363 
    1371     1705     1108      510      687     1866     3800     6006 
    8035     9563    10213     9610     7760     5223     2855     1330 
     884     1389     2547     4025     5434     6288     6082     4549 
    2037     -444    -1756    -1311      584     2869     4279     3990 
    1982    -1016    -3824    -5312    -4938    -2926     -181     2070 
    2995     2568     1367      222     -140      553     2040     3742 
    5041     5541     5186     4135     2657     1127      -44     -468 
     126     1712     3903     5965     7062     6694     4933     2423 
     147    -1068     -964      162     1766     3272     4150     4081 
    3047     1343     -402    -1396    -1074      518     2658     4286 
    4534     3085      320    -2759    -4865    -4975    -2779     1184 
    5651     9044    10122     8471     4578     -311    -4518    -6580 
   -5879    -2856     1203     4765     6735     6790     5332     3266 
    1625     1134     1967     3773     5846     7366     7666     6449 
    3994     1170     -933    -1574     -673     1248     3306     4582 
    4506     3066      688    -1965    -4084    -4797    -3441      -45 
    4454     8556    10809    10410     7602     3585      -50    -2069 
   -2059     -406     1937     3846     4570     4050     2840     1739 
    1377     1998     3448     5223     6612     6931     5799     3361 
     258    -2601    -4414    -4787    -3697    -1354     1724     4687 
    6602     6788     5085     1991    -1464    -4082    -4954    -3819 
   -1134     2103     4678     5607     4588     2184     -432    -2027 
   -1898     -185     2296     4530     5713     5491     4059     2056 
     333     -400       89     1552     3518     5410     6553     6334 
    4495     1360    -2150    -4833    -5718    -4469    -1609     1712 
    4356     5640     5428     4074     2233      662      -43      337 
    1647     3407     4900     5501     5041     3896     2748     2247 
    2736     4073     5695     6903     7155     6258     4474     2458 
     990      582     1245     2541     3849     4635     4583     3685 
    2251      720     -573    -1447    -1866    -1888    -1540     -785 
     381     1788     3056     3711     3411     2187      470    -1140 
   -2151    -2329    -1716     -553      787     1909     2568     2788 
    2782     2781     2949     3276     3519     3393     2837     2027 
    1245      818      995     1768     2856     3852     4380     4214 
    3349     1996      554     -521     -942     -664      188     1332 
    2383     3022     3129     2810     2293     1846     1694     1881 
    2242     2585     2803     2824     2594     2099     1407      733 
     416      746     1809     3389     4928     5742     5397     3941 
    1910       92     -848     -632      571     2267     3851     4813 
    4886     4132     2894     1639      789      619     1187     2275 
    3413     4075     3926     2966     1550      236     -467     -290 
     726     2252     3777     4768     4818     3823     2081      188 
   -1211    -1622     -884      740     2674     4260     4983     4603 
    3248     1430     -122     -768     -267     1082     2563     3418 
    3237     2119      552     -824    -1487    -1208      -63     1581 
    3157     4135     4222     3408     1983      467     -577     -785 
    -121     1163     2612     3704     4063     3649     2782     1926 
    1431     1419     1760     2196     2499     2562     2419     2184 
    1990     1928     1966     2024     2056     2041     1977     1869 
    1720     1560     1450     1488     1754     2240     2857     3467 
    3917     4068     3844     3263     2467     1742     1421     1686 
    2456     3407     4103     4215     3692     2734     1676      860 
     522      720     1324     2074     2678     2933     2792     2378 
    1932     1683     1742     2096     2629     3146     3407     3245 
    2710     2062     1615     1567     1914     2479     3026     3365 
    3410     3186     2794     2363     2029     1871     1858     1897 
    1926     1909     1805     1605     1350     1107      962     1008 
    1260     1608     1860     1869     1634     1285      974      794 
     758      832      975     1142     1278     1354     1398     1485 
    1630     1735     1699     1537     1363     1307     1433     1685 
    1951     2172     2342     2446     2443     2290     2024     1766 
    1679     1869     2302     2783     3076     3065     2797     2402 
    2024     1766     1680     1788     2069     2443     2788     2939 
    2777     2349     1852     1480     1333     1400     1588     1800 
    1984     2109     2157     2145     2072     1920     1715     1489 
    1270     1128     1103     1144     1212     1337     1528     1694 
    1720     1548     1204      804      513      455      656     1040 
    1497     1945     2334     2612     2739     2709     2574     2479 
    2575     2867     3178     3295     3138     2775     2355     2056 
    2008     2185     2461     2724     2884     2863     2650     2292 
    1850     1391      958      624      532      772     1257     1800 
    2236     2493     2611     2692     2790     2858     2805     2587 
    2243     1890     1644     1554     1641     1907     2272     2591 
    2736     2659     2401     2052     1701     1419     1284     1349 
    1591     1917     2203     2315     2203     1961     1765     1728 
    1869     2151     2498     2803     2975     2988     2871     2679 
    2472     2336     2365     2618     3055     3512     3774     3661 
    3114     2282     1481      997      955     1298     1833     2319 
    2582     2540     2201     1676     1155      826      825     1169 
    1711     2218     2483     2401     2013     1502     1117     1052 
