Origin Time       2025/06/03 22:18:00
Lat.              41.7
Long.             143.6
Depth. (km)       30
Mag.              5.2
Station Code      HKD108
Station Lat.      42.2528
Station Long.     142.5643
Station Height(m) 42
Record Time       2025/06/03 22:19:01
Sampling Freq(Hz) 100Hz
Duration Time(s)  60
Dir.              E-W
Scale Factor      3920(gal)/6182761
Max. Acc. (gal)   1.776
Last Correction   2025/06/03 22:19:01
Memo.             
[...]
    6512     6578     6662     6716     6708     6631     6504     6364 
    6262     6225     6233     6237     6202     6136     6084     6085 
    6144     6222     6264     6233     6134     6023     5977     6017 
    6106     6192     6255     6311     6399     6530     6673     6793 
    6864     6880     6846     6769     6652     6492     6293     6068 
    5848     5681     5608     5626     5695     5781     5871     5974 
    6114     6292     6474     6608     6662     6635     6546     6415 
    6259     6101     5969     5883     5858     5898     5990     6107 
    6228     6344     6452     6557     6666     6773     6858     6886 
    6839     6725     6557     6349     6138     5987     5941     5992 
    6096     6192     6242     6255     6264     6278     6283     6261 
    6203     6125     6072     6079     6155     6283     6424     6546 
    6615     6600     6507     6396     6332     6335     6380     6427 
    6452     6455     6429     6351     6220     6063     5905     5757 
    5626     5533     5525     5630     5827     6062     6284     6470 
    6632     6800     6984     7152     7250     7232     7096     6874 
    6600     6305     6030     5807     5658     5577     5542     5535 
    5567     5664     5833     6057     6308     6572     6836     7069 
    7230     7288     7247     7143     7014     6883     6762     6646 
    6526     6406     6292     6178     6062     5944     5837     5760 
    5733     5780     5913     6106     6304     6444     6483     6411 
    6246     6019     5790     5618     5539     5566     5683     5852 
    6041     6220     6361     6445     6470     6462     6456     6465 
    6473     6454     6404     6340     6283     6249     6250     6281 
    6321     6353     6379     6417     6484     6577     6679     6759 
    6794     6773     6693     6561     6414     6292     6195     6114 
    6044     5987     5942     5904     5872     5874     5952     6119 
    6350     6600     6830     7007     7101     7095     6980     6765 
    6485     6182     5900     5679     5540     5484     5515     5625 
    5801     6029     6284     6533     6748     6903     6988     7011 
    6985     6920     6800     6620     6406     6196     6027     5909 
    5832     5783     5750     5733     5752     5825     5949     6107 
    6278     6437     6561     6636     6661     6646     6600     6524 
    6424     6315     6228     6194     6218     6275     6329     6348 
    6330     6298     6285     6302     6339     6377     6396     6392 
    6377     6371     6395     6456     6532     6587     6589     6536 
    6443     6314     6145     5956     5778     5641     5567     5558 
    5610     5721     5887     6096     6328     6558     6759     6907 
    6983     6971     6876     6726     6547     6365     6199     6068 
    5997     5999     6071     6183     6290     6356     6364     6327 
    6273     6234     6231     6263     6307     6326     6304     6252 
    6207     6212     6286     6416     6569     6718     6842     6924 
    6951     6918     6825     6680     6497     6288     6079     5920 
    5845     5862     5951     6062     6151     6200     6213     6207 
    6205     6235     6292     6351     6391     6402     6394     6379 
    6359     6325     6277     6230     6204     6215     6265     6355 
    6483     6632     6758     6828     6830     6770     6668     6535 
    6366     6158     5925     5696     5504     5377     5337     5379 
    5487     5643     5831     6032     6224     6392     6525     6623 
    6695     6745     6778     6795     6786     6743     6658     6534 
    6395     6269     6183     6146     6146     6166     6197     6239 
    6296     6367     6441     6498     6523     6509     6455     6367 
    6251     6121     6006     5931     5911     5943     6014     6118 
    6254     6415     6577     6710     6792     6811     6777     6708 
    6618     6507     6373     6220     6066     5935     5852     5837 
    5891     5990     6095     6172     6202     6202     6194     6191 
    6210     6261     6344     6450     6552     6621     6640     6605 
    6526     6413     6263     6085     5905     5753     5671     5693 
    5821     6031     6290     6558     6803     7000     7128     7185 
    7168     7073     6905     6682     6440     6228     6077     5992 
    5961     5974     6020     6091     6174     6248     6294     6313 
    6315     6310     6318     6362     6435     6504     6549     6559 
    6522     6440     6312     6136     5925     5711     5534     5440 
    5443     5531     5688     5904     6164     6443     6711     6933 
    7076     7125     7079     6947     6756     6544     6347     6189 
    6080     6021     6010     6039     6084     6122     6130     6108 
    6084     6095     6141     6211     6298     6392     6485     6570 
    6636     6661     6626     6532     6400     6271     6171     6102 
    6060     6038     6026     6009     5986     5974     5993     6048 
    6135     6242     6361     6490     6627     6759     6871     6943 
    6958     6918     6826     6692     6527     6337     6129     5927 
    5757     5651     5639     5718     5861     6031     6186     6301 
    6367     6392     6390     6356     6286     6191     6087     5993 
    5928     5903     5921     5975     6049     6132     6227     6337 
    6455     6570     6669     6742     6778     6766     6708     6616 
    6505     6401     6307     6216     6129     6047     5970     5899 
    5823     5738     5656     5606     5628     5760     5999     6299 
    6593     6820     6946     6981     6948     6867     6758     6638 
    6524     6435     6374     6338     6327     6338     6364     6400 
    6433     6452     6455     6446     6428     6410     6404     6404 
    6397     6382     6357     6317     6258     6177     6073     5953 
    5833     5739     5691     5703     5776     5898     6061     6254 
    6462     6666     6846     6985     7081     7121     7090     6983 
    6816     6615     6416     6250     6127     6049     6020     6041 
    6105     6188     6272     6348     6421     6498     6572     6626 
    6638     6588     6463     6273     6050     5837     5678     5598 
    5604     5675     5787     5928     6094     6277     6468     6643 
    6776     6861     6902     6904     6870     6795     6683     6543 
    6384     6211     6042     5897     5795     5761     5811     5949 
    6160     6399     6609     6752     6818     6812     6765     6708 
    6645     6556     6433     6282     6129     5995     5887     5807 
    5761     5752     5785     5852     5932     6022     6129     6258 
    6399     6534     6643     6708     6737     6759     6794     6830 
    6837     6786     6667     6502     6315     6122     5938     5774 
    5646     5566     5541     5580     5689     5851     6041     6238 
    6421     6563     6650     6670     6612     6489     6316     6116 
    5919     5756     5656     5623     5641     5689     5753     5837 
    5945     6070     6212     6374     6550     6726     6882     6996 
    7067     7095     7084     7033     6943     6812     6643     6456 
    6275     6114     5977     5869     5796     5753     5732     5731 
    5750     5799     5896     6056     6283     6566     6880     7202 
    7500     7734     7877     7920     7857     7689     7425     7078 
    6663     6222     5816     5500     5314     5266     5323     5434 
    5556     5657     5727     5768     5785     5783     5763     5728 
    5689     5666     5680     5745     5861     6016     6183     6338 
    6457     6534     6587     6643     6717     6820     6942     7056 
    7125     7116     7014     6836     6617     6396     6203     6056 
    5961     5934     5977     6071     6201     6341     6469     6569 
    6627     6632     6589     6508     6407     6318     6264     6257 
    6280     6299     6274     6185     6049     5910     5810     5781 
    5833     5959     6140     6349     6557     6731     6836     6855 
    6789     6647     6449     6227     6014     5838     5719     5668 
    5695     5797     5954     6126     6266     6341     6345     6293 
    6215     6136     6073     6035     6028     6056     6113     6192 
    6283     6374     6445     6476     6463     6410     6324     6233 
    6172     6159     6201     6275     6352     6414     6450     6465 
    6483     6516     6565     6624     6677     6707     6711     6696 
    6671     6647     6628     6608     6568     6497     6401     6297 
    6205     6128     6062     6000     5938     5884     5857     5872 
    5933     6033     6159     6299     6445     6581     6680     6719 
    6696     6619     6500     6358     6204     6041     5881     5747 
    5654     5611     5622     5677     5753     5834     5914     5993 
    6085     6202     6340     6487     6623     6725     6779     6779 
    6728     6628     6483     6314     6158     6049     6005     6031 
    6112     6219     6319     6389     6428     6445     6439     6413 
    6369     6318     6278     6257     6260     6274     6274     6231 
    6134     6002     5873     5774     5721     5712     5741     5810 
    5915     6052     6220     6398     6558     6685     6776     6827 
    6845     6836     6791     6696     6551     6365     6165     6003 
    5923     5941     6042     6198     6370     6522     6632     6689 
    6700     6692     6697     6739     6818     6917     7009     7067 
    7062     6984     6852     6706     6575     6482     6444     6460 
    6521     6618     6727     6808     6838     6796     6677     6500 
    6291     6082     5903     5769     5685     5645     5639     5659 
    5697     5755     5853     6001     6192     6399     6579     6685 
    6689     6594     6434     6263     6126     6046     6020     6046 
    6109     6186     6261     6331     6381     6402     6401     6386 
    6356     6304     6218     6101     5979     5884     5841     5873 
    5985     6163     6386     6618     6815     6948     6989     6911 
    6700     6362     5929     5463     5033     4690     4463     4361 
    4376     4503     4739     5069     5465     5901     6346     6762 
    7119     7386     7533     7568     7531     7462     7392     7343 
    7309     7270     7224     7188     7175     7181     7192     7183 
    7133     7034     6896     6749     6620     6519     6436     6364 
    6291     6207     6103     5968     5801     5611     5404     5202 
    5043     4965     5015     5221     5581     6065     6608     7131 
    7561     7842     7941     7847     7579     7189     6763     6391 
    6144     6068     6175     6431     6780     7147     7443     7598 
    7578     7378     7033     6620     6214     5881     5667     5586 
    5625     5758     5953     6170     6368     6498     6528     6455 
    6306     6119     5935     5784     5671     5592     5537     5481 
    5406     5295     5124     4883     4602     4326     4112     4026 
    4110     4382     4840     5459     6178     6916     7579     8076 
    8335     8321     8068     7665     7232     6885     6700     6693 
    6820     7008     7191     7321     7367     7310     7149     6900 
    6595     6286     6025     5855     5808     5890     6081     6351 
    6654     6937     7148     7236     7178     6988     6697     6333 
    5932     5531     5165     4878     4716     4698     4825     5065 
    5362     5666     5945     6163     6288     6304     6216     6053 
    5868     5720     5654     5694     5839     6058     6309     6550 
    6757     6914     7012     7052     7050     7015     6947     6843 
    6705     6542     6363     6178     6003     5856     5752     5699 
    5687     5697     5711     5726     5754     5810     5908     6041 
    6177     6280     6318     6285     6207     6130     6085     6084 
    6123     6175     6204     6179     6083     5919     5720     5526 
    5373     5299     5326     5461     5703     6047     6469     6931 
    7378     7759     8042     8212     8262     8204     8073     7918 
    7786     7699     7642     7586     7497     7342     7098     6766 
    6370     5946     5535     5173     4879     4663     4534     4509 
    4598     4788     5048     5334     5593     5781     5873     5865 
    5793     5714     5682     5715     5795     5890     5981     6076 
    6193     6350     6539     6729     6896     7018     7081     7095 
    7093     7100     7134     7197     7279     7352     7375     7314 
    7149     6884     6548     6173     5787     5420     5097     4846 
    4694     4667     4783     5052     5465     5989     6556     7079 
    7470     7664     7634     7397     7001     6524     6051     5655 
    5388     5273     5305     5456     5688     5951     6204     6408 
    6546     6632     6713     6837     7027     7283     7574     7849 
    8049     8118     8031     7800     7470     7105     6762     6479 
    6277     6172     6177     6303     6542     6860     7207     7522 
    7741     7806     7675     7344     6846     6243     5607     5011 
    4528     4220     4120     4237     4540     4970     5456     5925 
    6315     6597     6777     6875     6920     6941     6954     6962 
    6954     6908     6818     6687     6523     6351     6212     6131 
    6128     6204     6334     6477     6603     6685     6718     6714 
    6688     6649     6590     6494     6347     6141     5877     5564 
    5212     4833     4457     4111     3813     3597     3502     3547 
    3731     4023     4365     4701     4987     5194     5319     5387 
    5446     5548     5729     6001     6354     6745     7118     7422 
    7612     7669     7613     7481     7311     7135     6972     6831 
    6721     6648     6621     6649     6729     6862     7040     7237 
    7428     7593     7708     7757     7729     7611     7392     7075 
    6676     6227     5764     5325     4952     4690     4586     4666 
    4919     5302     5745     6168     6504     6714     6792     6750 
    6612     6404     6159     5919     5741     5685     5791     6072 
    6499     7015     7559     8062     8453     8674     8688     8489 
    8105     7591     7014     6432     5877     5373     4950     4649 
    4528     4621     4924     5389     5928     6434     6817     7012 
    7002     6822     6534     6204     5898     5664     5536     5542 
    5694     5983     6383     6844     7307     7708     7999     8162 
    8200     8125     7959     7724     7441     7128     6801     6490 
    6236     6071     6004     6008     6030     6013     5917     5745 
    5536     5344     5208     5146     5167     5270     5446     5676 
    5938     6198     6427     6607     6733     6803     6824     6812 
    6787     6772     6792     6863     6981     7114     7203     7196 
    7061     6795     6427     6005     5579     5205     4932     4784 
    4768     4870     5061     5311     5584     5843     6064     6223 
    6296     6278     6177     6018     5833     5650     5507     5435 
    5446     5543     5723     5971     6250     6513     6713     6820 
    6824     6723     6525     6253     5960     5718     5589     5621 
    5838     6221     6706     7205     7632     7929     8070     8048 
    7876     7581     7194     6758     6333     5970     5713     5578 
    5554     5621     5748     5898     6057     6218     6367     6496 
    6600     6674     6729     6773     6805     6823     6814     6747 
    6583     6295     5883     5377     4834     4336     3959     3760 
    3786     4055     4555     5249     6062     6888     7624     8170 
    8455     8462     8220     7791     7261     6722     6257     5934 
    5801     5863     6080     6394     6731     7020     7212     7284 
    7244     7131     6975     6793     6600     6401     6201     6018 
    5858     5698     5523     5333     5133     4939     4784     4700 
    4717     4855     5118     5488     5928     6389     6810     7136 
    7327     7358     7218     6921     6505     6043     5633     5374 
    5331     5520     5910     6443     7044     7625     8102     8401 
    8474     8315     7959     7473     6944     6460     6094     5900 
    5907     6109     6462     6902     7358     7758     8048     8185 
    8138     7906     7511     6992     6401     5789     5204     4692 
    4302     4075     4038     4181     4466     4835     5227     5587 
    5876     6079     6200     6251     6249     6215     6175     6150 
    6166     6242     6386     6584     6804     7007     7167     7266 
    7305     7291     7231     7146     7062     6994     6955     6936 
    6902     6822     6672     6445     6154     5831     5508     5219 
    4991     4837     4763     4769     4845     4990     5193     5425 
    5661     5895     6118     6318     6483     6593     6643     6641 
    6608     6569     6550     6558     6580     6611     6650     6683 
    6701     6704     6685     6646     6595     6533     6456     6367 
    6270     6166     6070     6006     5985     6010     6079     6186 
    6316     6448     6567     6657     6701     6688     6614     6485 
    6330     6173     6033     5934     5875     5839     5808     5762 
    5694     5618     5561     5556     5630     5797     6056     6396 
    6785     7183     7538     7802     7924     7868     7644     7289 
    6858     6415     6024     5726     5542     5480     5541     5718 
    5986     6297     6598     6837     6965     6964     6843     6630 
    6365     6103     5879     5708     5606     5595     5675     5835 
    6049     6275     6466     6592     6638     6609     6517     6373 
    6193     5999     5815     5661     5550     5508     5550     5676 
    5871     6110     6363     6602     6795     6906     6913     6796 
    6543     6173     5731     5284     4917     4700     4670     4836 
    5189     5688     6267     6852     7363     7719     7863     7775 
    7469     6996     6434     5871     5376     4999     4771     4707 
    4817     5102     5535     6068     6647     7215     7726     8146 
    8443     8593     8591     8453     8202     7873     7502     7119 
    6757     6435     6154     5916     5722     5575     5479     5443 
    5460     5514     5597     5695     5796     5893     5982     6066 
    6157     6260     6359     6434     6468     6449     6389     6311 
    6225     6131     6034     5948     5887     5863     5875     5907 
    5950     6002     6057     6115     6184     6272     6384     6523 
    6689     6872     7057     7212     7305     7316     7240     7079 
    6846     6572     6291     6039     5853     5768     5809     5973 
    6223     6491     6710     6829     6817     6671     6414     6081 
    5704     5313     4933     4595     4332     4177     4156     4283 
    4551     4933     5407     5939     6485     7014     7491     7875 
    8145     8286     8283     8145     7898     7573     7220     6888 
    6616     6439     6379     6435     6576     6759     6930     7039 
    7060     6986     6831     6622     6391     6174     5996     5870 
    5796     5771     5782     5813     5844     5859     5847     5811 
    5771     5749     5765     5838     5965     6125     6288     6432 
    6560     6677     6775     6848     6890     6894     6856     6782 
