Origin Time       2025/06/03 22:18:00
Lat.              41.7
Long.             143.6
Depth. (km)       30
Mag.              5.2
Station Code      IWT020
Station Lat.      39.7844
Station Long.     141.3296
Station Height(m) 695
Record Time       2025/06/03 22:19:42
Sampling Freq(Hz) 100Hz
Duration Time(s)  60
Dir.              U-D
Scale Factor      7845(gal)/8223790
Max. Acc. (gal)   0.531
Last Correction   2025/06/03 22:19:41
Memo.             
  -43210   -43218   -43204   -43187   -43194   -43208   -43213   -43213 
  -43224   -43256   -43291   -43299   -43285   -43262   -43237   -43214 
  -43205   -43220   -43236   -43237   -43244   -43263   -43266   -43243 
  -43214   -43193   -43168   -43137   -43124   -43141   -43164   -43175 
  -43178   -43174   -43167   -43168   -43183   -43198   -43195   -43198 
  -43221   -43240   -43236   -43235   -43243   -43235   -43217   -43216 
  -43216   -43204   -43206   -43239   -43256   -43225   -43167   -43131 
  -43136   -43154   -43160   -43170   -43190   -43214   -43235   -43240 
  -43224   -43193   -43167   -43167   -43191   -43210   -43213   -43210 
  -43214   -43236   -43252   -43244   -43220   -43191   -43174   -43177 
  -43181   -43167   -43151   -43156   -43182   -43212   -43235   -43239 
  -43229   -43233   -43254   -43264   -43247   -43214   -43195   -43209 
  -43236   -43247   -43227   -43194   -43181   -43190   -43204   -43208 
  -43209   -43201   -43174   -43152   -43151   -43152   -43150   -43159 
  -43167   -43148   -43132   -43155   -43195   -43221   -43229   -43220 
  -43204   -43198   -43216   -43232   -43231   -43225   -43233   -43247 
  -43252   -43251   -43249   -43251   -43254   -43251   -43245   -43241 
  -43240   -43237   -43224   -43193   -43163   -43150   -43144   -43141 
  -43139   -43128   -43117   -43124   -43146   -43160   -43171   -43191 
  -43213   -43217   -43210   -43206   -43208   -43217   -43237   -43264 
  -43289   -43295   -43285   -43268   -43254   -43241   -43225   -43204 
  -43197   -43213   -43225   -43214   -43190   -43177   -43175   -43173 
  -43156   -43128   -43100   -43096   -43128   -43175   -43190   -43174 
  -43167   -43183   -43210   -43245   -43271   -43268   -43258   -43266 
  -43286   -43287   -43258   -43220   -43210   -43220   -43208   -43170 
  -43146   -43147   -43159   -43159   -43144   -43125   -43116   -43110 
  -43113   -43129   -43155   -43177   -43197   -43220   -43247   -43274 
  -43291   -43299   -43310   -43314   -43306   -43302   -43308   -43305 
  -43293   -43271   -43239   -43201   -43175   -43167   -43168   -43168 
  -43155   -43129   -43114   -43114   -43110   -43090   -43079   -43097 
  -43127   -43148   -43164   -43190   -43217   -43225   -43216   -43212 
  -43229   -43259   -43291   -43321   -43325   -43308   -43286   -43276 
  -43275   -43266   -43245   -43227   -43209   -43194   -43193   -43206 
  -43209   -43191   -43158   -43121   -43101   -43102   -43129   -43152 
  -43136   -43106   -43110   -43136   -43155   -43171   -43194   -43220 
  -43237   -43248   -43248   -43247   -43254   -43264   -43263   -43254 
  -43251   -43264   -43286   -43301   -43306   -43299   -43270   -43225 
  -43179   -43131   -43090   -43071   -43067   -43071   -43092   -43129 
  -43164   -43174   -43171   -43177   -43190   -43204   -43209   -43206 
  -43209   -43224   -43251   -43281   -43293   -43287   -43286   -43293 
  -43293   -43278   -43254   -43227   -43202   -43191   -43189   -43179 
  -43162   -43151   -43160   -43185   -43204   -43198   -43183   -43179 
  -43185   -43191   -43195   -43193   -43182   -43173   -43173   -43181 
  -43197   -43209   -43212   -43213   -43208   -43185   -43164   -43174 
  -43202   -43222   -43229   -43235   -43240   -43245   -43256   -43256 
  -43233   -43210   -43201   -43187   -43173   -43170   -43175   -43186 
  -43198   -43200   -43197   -43201   -43200   -43175   -43152   -43166 
  -43200   -43225   -43239   -43243   -43235   -43229   -43247   -43271 
  -43271   -43248   -43233   -43241   -43252   -43245   -43212   -43166 
  -43140   -43148   -43160   -43154   -43140   -43136   -43135   -43129 
  -43120   -43105   -43100   -43129   -43187   -43227   -43227   -43222 
  -43243   -43274   -43291   -43297   -43305   -43309   -43293   -43262 
  -43241   -43240   -43240   -43224   -43217   -43231   -43228   -43195 
  -43151   -43117   -43109   -43113   -43104   -43087   -43092   -43123 
  -43158   -43187   -43212   -43229   -43251   -43275   -43289   -43290 
  -43297   -43305   -43289   -43255   -43239   -43243   -43251   -43267 
  -43275   -43249   -43201   -43166   -43163   -43160   -43129   -43102 
  -43120   -43155   -43174   -43167   -43155   -43152   -43164   -43179 
  -43193   -43202   -43195   -43179   -43177   -43195   -43213   -43204 
  -43187   -43186   -43193   -43200   -43212   -43237   -43267   -43279 
  -43274   -43260   -43248   -43244   -43249   -43255   -43264   -43264 
  -43237   -43202   -43183   -43183   -43189   -43187   -43178   -43162 
  -43135   -43109   -43106   -43125   -43131   -43121   -43125   -43155 
  -43190   -43205   -43205   -43218   -43244   -43258   -43271   -43289 
  -43286   -43263   -43249   -43262   -43285   -43291   -43281   -43263 
  -43247   -43232   -43218   -43200   -43177   -43152   -43132   -43128 
  -43144   -43148   -43120   -43101   -43127   -43170   -43193   -43195 
  -43194   -43195   -43193   -43187   -43193   -43194   -43183   -43186 
  -43218   -43260   -43270   -43245   -43231   -43235   -43229   -43212 
  -43195   -43194   -43212   -43232   -43236   -43217   -43183   -43159 
  -43160   -43171   -43170   -43168   -43194   -43236   -43255   -43244 
  -43214   -43177   -43144   -43143   -43170   -43205   -43214   -43205 
  -43208   -43222   -43231   -43225   -43213   -43208   -43221   -43249 
  -43271   -43256   -43214   -43186   -43178   -43174   -43186   -43221 
  -43241   -43225   -43197   -43183   -43181   -43173   -43170   -43183 
  -43205   -43218   -43216   -43214   -43217   -43213   -43214   -43229 
  -43239   -43240   -43254   -43274   -43283   -43285   -43279   -43262 
  -43241   -43235   -43241   -43251   -43243   -43202   -43152   -43128 
  -43125   -43127   -43129   -43135   -43129   -43114   -43106   -43113 
  -43123   -43128   -43137   -43154   -43171   -43194   -43212   -43217 
  -43235   -43275   -43297   -43281   -43259   -43254   -43244   -43232 
  -43247   -43278   -43282   -43247   -43222   -43233   -43235   -43208 
  -43182   -43182   -43189   -43182   -43171   -43174   -43175   -43164 
  -43160   -43179   -43201   -43204   -43187   -43175   -43171   -43174 
  -43187   -43202   -43201   -43189   -43183   -43189   -43201   -43212 
  -43206   -43187   -43167   -43151   -43154   -43187   -43224   -43231 
  -43229   -43239   -43241   -43228   -43216   -43221   -43243   -43260 
  -43260   -43243   -43222   -43217   -43228   -43239   -43235   -43220 
  -43205   -43183   -43156   -43135   -43124   -43124   -43124   -43132 
  -43162   -43204   -43229   -43240   -43249   -43254   -43243   -43228 
  -43224   -43231   -43245   -43270   -43286   -43274   -43251   -43239 
  -43227   -43205   -43197   -43213   -43228   -43218   -43194   -43182 
  -43181   -43173   -43151   -43124   -43124   -43158   -43190   -43191 
  -43171   -43154   -43146   -43140   -43144   -43162   -43182   -43200 
  -43212   -43222   -43244   -43271   -43279   -43271   -43271   -43276 
  -43268   -43247   -43222   -43206   -43220   -43262   -43291   -43285 
  -43251   -43214   -43191   -43174   -43160   -43159   -43154   -43125 
  -43098   -43098   -43108   -43105   -43109   -43137   -43160   -43154 
  -43137   -43137   -43146   -43155   -43181   -43213   -43239   -43248 
  -43236   -43229   -43251   -43289   -43309   -43305   -43295   -43290 
  -43299   -43317   -43320   -43301   -43270   -43225   -43182   -43166 
  -43166   -43164   -43156   -43148   -43144   -43141   -43129   -43109 
  -43108   -43146   -43197   -43222   -43214   -43197   -43193   -43202 
  -43221   -43232   -43220   -43206   -43217   -43237   -43241   -43231 
  -43222   -43222   -43229   -43227   -43217   -43205   -43189   -43181 
  -43190   -43198   -43183   -43166   -43171   -43189   -43204   -43225 
  -43235   -43221   -43204   -43200   -43201   -43191   -43174   -43168 
  -43171   -43173   -43179   -43191   -43190   -43190   -43202   -43213 
  -43213   -43206   -43197   -43197   -43206   -43225   -43240   -43247 
  -43258   -43268   -43271   -43276   -43274   -43241   -43200   -43185 
  -43187   -43189   -43198   -43224   -43235   -43224   -43213   -43217 
  -43216   -43202   -43194   -43193   -43186   -43183   -43178   -43156 
  -43133   -43129   -43143   -43159   -43167   -43174   -43183   -43189 
  -43190   -43197   -43216   -43239   -43252   -43254   -43247   -43236 
  -43239   -43266   -43283   -43263   -43224   -43193   -43164   -43135 
  -43116   -43114   -43113   -43104   -43108   -43129   -43154   -43170 
  -43183   -43202   -43222   -43231   -43227   -43218   -43212   -43214 
  -43239   -43270   -43285   -43285   -43279   -43276   -43276   -43266 
  -43241   -43221   -43217   -43220   -43213   -43197   -43187   -43190 
  -43193   -43186   -43170   -43152   -43136   -43129   -43140   -43168 
  -43182   -43167   -43152   -43151   -43159   -43168   -43173   -43177 
  -43187   -43213   -43237   -43239   -43221   -43216   -43236   -43256 
  -43263   -43271   -43274   -43256   -43235   -43232   -43244   -43255 
  -43249   -43235   -43222   -43202   -43173   -43152   -43147   -43158 
  -43178   -43190   -43181   -43164   -43151   -43148   -43160   -43167 
  -43156   -43158   -43187   -43217   -43228   -43231   -43233   -43233 
  -43235   -43235   -43228   -43227   -43225   -43212   -43204   -43222 
  -43251   -43266   -43264   -43255   -43249   -43251   -43247   -43241 
  -43254   -43272   -43279   -43279   -43272   -43252   -43217   -43177 
  -43148   -43139   -43152   -43170   -43159   -43137   -43139   -43150 
  -43139   -43125   -43135   -43147   -43164   -43198   -43225   -43225 
  -43213   -43206   -43212   -43220   -43225   -43229   -43228   -43216 
  -43205   -43212   -43228   -43227   -43208   -43186   -43181   -43205 
  -43244   -43262   -43251   -43233   -43231   -43233   -43220   -43201 
  -43210   -43236   -43247   -43236   -43218   -43206   -43202   -43197 
  -43183   -43163   -43143   -43144   -43173   -43197   -43190   -43166 
  -43156   -43173   -43206   -43232   -43237   -43237   -43239   -43229 
  -43212   -43197   -43171   -43143   -43144   -43177   -43202   -43194 
  -43179   -43179   -43179   -43164   -43148   -43146   -43155   -43155 
  -43155   -43178   -43214   -43224   -43202   -43194   -43220   -43241 
  -43224   -43208   -43222   -43240   -43240   -43225   -43202   -43191 
  -43205   -43218   -43197   -43156   -43140   -43156   -43175   -43181 
  -43181   -43185   -43187   -43189   -43193   -43206   -43224   -43241 
  -43263   -43275   -43278   -43279   -43275   -43254   -43231   -43222 
  -43220   -43195   -43147   -43120   -43139   -43170   -43179   -43185 
  -43205   -43228   -43241   -43237   -43217   -43193   -43174   -43164 
  -43178   -43209   -43218   -43200   -43186   -43195   -43224   -43251 
  -43258   -43251   -43254   -43266   -43268   -43252   -43232   -43218 
  -43204   -43195   -43194   -43193   -43185   -43177   -43171   -43155 
  -43117   -43083   -43074   -43073   -43083   -43120   -43155   -43164 
  -43171   -43205   -43254   -43272   -43264   -43270   -43298   -43325 
  -43335   -43326   -43312   -43305   -43290   -43264   -43256   -43263 
  -43245   -43204   -43168   -43144   -43123   -43108   -43098   -43100 
  -43117   -43141   -43141   -43098   -43042   -43029   -43078   -43152 
  -43208   -43232   -43255   -43291   -43326   -43343   -43347   -43347 
  -43340   -43339   -43357   -43367   -43349   -43322   -43303   -43282 
  -43247   -43197   -43155   -43127   -43093   -43051   -43012   -42988 
  -42989   -43011   -43036   -43051   -43059   -43071   -43112   -43177 
  -43210   -43200   -43200   -43251   -43332   -43402   -43441   -43468 
  -43494   -43486   -43432   -43375   -43357   -43370   -43376   -43351 
  -43291   -43206   -43117   -43051   -43032   -43035   -43015   -42961 
  -42893   -42844   -42855   -42920   -42997   -43066   -43125   -43171 
  -43213   -43259   -43301   -43330   -43364   -43409   -43441   -43443 
  -43429   -43420   -43401   -43366   -43322   -43281   -43241   -43212 
  -43183   -43141   -43086   -43040   -43031   -43047   -43059   -43048 
  -43015   -42965   -42912   -42896   -42938   -43002   -43050   -43092 
  -43166   -43270   -43360   -43395   -43382   -43367   -43383   -43425 
  -43472   -43521   -43568   -43587   -43560   -43502   -43432   -43356 
  -43289   -43231   -43186   -43150   -43106   -43044   -42984   -42934 
  -42876   -42803   -42758   -42773   -42815   -42865   -42928   -43005 
  -43073   -43117   -43163   -43239   -43332   -43407   -43452   -43478 
  -43484   -43468   -43447   -43447   -43467   -43492   -43526   -43561 
  -43556   -43497   -43413   -43312   -43181   -43054   -42977   -42955 
  -42961   -42959   -42930   -42886   -42855   -42836   -42809   -42777 
  -42780   -42844   -42946   -43050   -43154   -43275   -43405   -43498 
  -43536   -43551   -43582   -43626   -43671   -43695   -43669   -43611 
  -43567   -43528   -43463   -43368   -43243   -43101   -42971   -42878 
  -42813   -42757   -42708   -42674   -42647   -42647   -42711   -42830 
  -42959   -43066   -43154   -43239   -43310   -43368   -43449   -43552 
  -43629   -43653   -43644   -43634   -43610   -43544   -43440   -43339 
  -43275   -43245   -43221   -43201   -43171   -43120   -43056   -42981 
  -42889   -42812   -42785   -42811   -42876   -42963   -43050   -43112 
  -43150   -43197   -43266   -43329   -43362   -43364   -43352   -43335 
  -43324   -43337   -43353   -43351   -43352   -43386   -43438   -43483 
  -43487   -43436   -43337   -43201   -43055   -42966   -42957   -42989 
  -43016   -43046   -43092   -43105   -43062   -43021   -43015   -43021 
  -43025   -43055   -43129   -43217   -43298   -43375   -43433   -43472 
  -43518   -43563   -43578   -43555   -43503   -43428   -43335   -43225 
  -43098   -42969   -42865   -42824   -42861   -42920   -42951   -42958 
  -42948   -42921   -42917   -42955   -42993   -43004   -43013   -43060 
  -43154   -43270   -43380   -43479   -43559   -43609   -43637   -43648 
  -43619   -43563   -43506   -43455   -43416   -43384   -43360   -43341 
  -43306   -43244   -43189   -43150   -43094   -43013   -42925   -42846 
  -42781   -42747   -42761   -42815   -42886   -42961   -43035   -43104 
  -43164   -43214   -43247   -43270   -43309   -43368   -43410   -43424 
  -43449   -43499   -43534   -43530   -43486   -43428   -43386   -43366 
  -43348   -43309   -43236   -43129   -43024   -42947   -42898   -42874 
  -42870   -42869   -42865   -42870   -42893   -42924   -42954   -42997 
  -43062   -43144   -43235   -43310   -43375   -43449   -43528   -43582 
  -43602   -43592   -43555   -43522   -43511   -43498   -43459   -43405 
  -43348   -43289   -43221   -43140   -43040   -42952   -42915   -42936 
  -42984   -43021   -43032   -43013   -42984   -42973   -42975   -42970 
  -42981   -43039   -43113   -43171   -43227   -43285   -43318   -43343 
  -43387   -43429   -43436   -43424   -43430   -43437   -43409   -43360 
  -43347   -43363   -43356   -43297   -43217   -43166   -43132   -43090 
  -43046   -43001   -42961   -42951   -42988   -43029   -43040   -43032 
  -43039   -43069   -43105   -43141   -43183   -43232   -43282   -43336 
  -43374   -43363   -43320   -43297   -43313   -43340   -43349   -43330 
  -43290   -43260   -43264   -43278   -43262   -43216   -43162   -43123 
  -43124   -43154   -43174   -43167   -43156   -43170   -43195   -43201 
  -43174   -43146   -43139   -43154   -43186   -43221   -43252   -43281 
  -43305   -43303   -43276   -43247   -43231   -43225   -43216   -43189 
  -43146   -43097   -43055   -43029   -43012   -42998   -42998   -43015 
  -43035   -43056   -43087   -43131   -43179   -43232   -43299   -43374 
  -43437   -43487   -43514   -43507   -43470   -43420   -43368   -43324 
  -43301   -43294   -43262   -43187   -43110   -43073   -43056   -43019 
  -42966   -42928   -42909   -42911   -42928   -42943   -42955   -42988 
  -43055   -43148   -43233   -43301   -43364   -43426   -43479   -43514 
  -43521   -43491   -43448   -43436   -43467   -43506   -43519   -43494 
  -43434   -43355   -43271   -43197   -43124   -43040   -42957   -42890 
  -42839   -42812   -42824   -42855   -42880   -42903   -42927   -42952 
  -42993   -43046   -43102   -43155   -43210   -43283   -43366   -43436 
  -43505   -43548   -43538   -43507   -43479   -43447   -43416   -43393 
  -43363   -43321   -43291   -43287   -43278   -43245   -43214   -43198 
  -43182   -43156   -43119   -43054   -42958   -42877   -42862   -42905 
  -42951   -42969   -42979   -43021   -43102   -43179   -43213   -43221 
  -43240   -43274   -43313   -43349   -43398   -43461   -43513   -43544 
  -43561   -43542   -43474   -43367   -43267   -43225   -43224   -43194 
  -43128   -43059   -43006   -42970   -42944   -42942   -42971   -43013 
  -43033   -43025   -43017   -43016   -43015   -43025   -43055   -43098 
  -43164   -43248   -43324   -43374   -43413   -43451   -43484   -43495 
  -43461   -43391   -43321   -43279   -43258   -43228   -43197   -43186 
  -43194   -43216   -43247   -43268   -43264   -43225   -43164   -43123 
  -43124   -43146   -43160   -43170   -43171   -43158   -43147   -43159 
  -43178   -43182   -43185   -43195   -43171   -43090   -43011   -42996 
  -43040   -43094   -43125   -43135   -43139   -43167   -43220   -43267 
  -43291   -43308   -43325   -43340   -43351   -43357   -43344   -43305 
  -43267   -43251   -43251   -43258   -43272   -43301   -43328   -43336 
  -43330   -43310   -43262   -43208   -43182   -43167   -43129   -43087 
  -43062   -43043   -43021   -43009   -43019   -43031   -43021   -43002 
  -43006   -43054   -43132   -43194   -43220   -43239   -43264   -43289 
  -43313   -43345   -43380   -43401   -43399   -43386   -43366   -43337 
  -43305   -43291   -43306   -43321   -43306   -43258   -43204   -43162 
  -43129   -43106   -43085   -43056   -43032   -43039   -43092   -43163 
  -43197   -43171   -43129   -43110   -43112   -43132   -43179   -43244 
  -43309   -43356   -43376   -43378   -43374   -43359   -43337   -43314 
  -43281   -43235   -43179   -43125   -43089   -43089   -43120   -43137 
  -43121   -43101   -43106   -43127   -43137   -43135   -43127   -43114 
  -43098   -43090   -43105   -43140   -43186   -43241   -43305   -43347 
  -43333   -43276   -43221   -43183   -43155   -43125   -43108   -43121 
  -43163   -43209   -43247   -43275   -43287   -43279   -43279   -43310 
  -43335   -43316   -43276   -43243   -43209   -43168   -43137   -43140 
  -43159   -43171   -43175   -43174   -43162   -43141   -43131   -43129 
  -43114   -43085   -43071   -43105   -43170   -43224   -43252   -43281 
  -43324   -43363   -43393   -43414   -43428   -43430   -43432   -43428 
  -43409   -43370   -43308   -43232   -43160   -43102   -43047   -42990 
  -42951   -42939   -42930   -42920   -42930   -42957   -42988   -43031 
  -43100   -43178   -43254   -43330   -43401   -43433   -43433   -43433 
  -43444   -43447   -43432   -43403   -43360   -43299   -43231   -43164 
  -43113   -43092   -43074   -43032   -42984   -42947   -42927   -42935 
  -42975   -43020   -43048   -43077   -43119   -43158   -43182   -43216 
  -43274   -43324   -43353   -43394   -43448   -43479   -43484   -43474 
  -43448   -43410   -43362   -43312   -43289   -43294   -43291   -43270 
  -43243   -43218   -43186   -43137   -43078   -43021   -42973   -42935 
  -42912   -42903   -42915   -42952   -43004   -43060   -43121   -43174 
  -43194   -43177   -43155   -43155   -43177   -43213   -43259   -43302 
  -43341   -43383   -43418   -43434   -43424   -43382   -43321   -43258 
