Origin Time       2025/06/03 22:18:00
Lat.              41.7
Long.             143.6
Depth. (km)       30
Mag.              5.2
Station Code      IWT020
Station Lat.      39.7844
Station Long.     141.3296
Station Height(m) 695
Record Time       2025/06/03 22:19:42
Sampling Freq(Hz) 100Hz
Duration Time(s)  60
Dir.              N-S
Scale Factor      7845(gal)/8223790
Max. Acc. (gal)   1.042
Last Correction   2025/06/03 22:19:41
Memo.             
[...]
  -12379   -12415   -12430   -12420   -12393   -12357   -12322   -12307 
  -12316   -12340   -12370   -12393   -12391   -12367   -12344   -12337 
  -12330   -12312   -12301   -12307   -12329   -12355   -12360   -12328 
  -12279   -12244   -12239   -12266   -12316   -12388   -12482   -12572 
  -12623   -12611   -12552   -12479   -12429   -12422   -12442   -12465 
  -12492   -12530   -12580   -12634   -12671   -12681   -12664   -12627 
  -12591   -12572   -12572   -12588   -12621   -12661   -12699   -12723 
  -12721   -12683   -12600   -12476   -12336   -12201   -12083   -12006 
  -11985   -12016   -12085   -12160   -12220   -12252   -12252   -12229 
  -12193   -12166   -12162   -12185   -12226   -12272   -12314   -12351 
  -12366   -12349   -12314   -12278   -12259   -12270   -12309   -12372 
  -12440   -12486   -12498   -12478   -12441   -12409   -12401   -12429 
  -12482   -12529   -12555   -12568   -12571   -12575   -12596   -12626 
  -12650   -12673   -12699   -12721   -12726   -12704   -12654   -12592 
  -12541   -12510   -12506   -12529   -12561   -12580   -12565   -12509 
  -12432   -12356   -12295   -12252   -12237   -12245   -12255   -12248 
  -12218   -12171   -12120   -12070   -12033   -12016   -12020   -12044 
  -12087   -12147   -12212   -12275   -12337   -12380   -12397   -12403 
  -12422   -12452   -12490   -12534   -12573   -12587   -12576   -12561 
  -12550   -12540   -12517   -12467   -12391   -12312   -12270   -12295 
  -12372   -12461   -12529   -12564   -12572   -12567   -12569   -12594 
  -12634   -12677   -12692   -12679   -12654   -12604   -12517   -12426 
  -12366   -12344   -12349   -12360   -12366   -12370   -12375   -12367 
  -12341   -12295   -12248   -12232   -12249   -12283   -12326   -12372 
  -12413   -12445   -12464   -12456   -12406   -12317   -12220   -12144 
  -12110   -12137   -12216   -12321   -12434   -12534   -12598   -12611 
  -12587   -12553   -12523   -12507   -12513   -12533   -12567   -12596 
  -12607   -12592   -12550   -12499   -12467   -12445   -12407   -12347 
  -12294   -12280   -12301   -12329   -12337   -12313   -12255   -12182 
  -12135   -12123   -12121   -12129   -12145   -12166   -12191   -12233 
  -12291   -12353   -12407   -12448   -12464   -12467   -12476   -12502 
  -12542   -12587   -12630   -12673   -12721   -12766   -12798   -12795 
  -12761   -12703   -12630   -12557   -12491   -12422   -12360   -12328 
  -12341   -12390   -12463   -12540   -12598   -12618   -12591   -12514 
  -12405   -12290   -12191   -12117   -12074   -12071   -12112   -12185 
  -12263   -12313   -12328   -12314   -12287   -12259   -12233   -12216 
  -12218   -12239   -12267   -12289   -12293   -12289   -12287   -12286 
  -12293   -12324   -12371   -12421   -12467   -12507   -12541   -12579 
  -12623   -12663   -12698   -12730   -12754   -12754   -12729   -12685 
  -12627   -12560   -12492   -12440   -12411   -12407   -12438   -12510 
  -12584   -12613   -12591   -12538   -12480   -12428   -12376   -12329 
  -12290   -12272   -12283   -12316   -12343   -12353   -12355   -12347 
  -12328   -12301   -12266   -12225   -12183   -12139   -12090   -12048 
  -12032   -12050   -12100   -12168   -12231   -12275   -12309   -12334 
  -12361   -12397   -12434   -12474   -12526   -12591   -12657   -12704 
  -12726   -12714   -12677   -12640   -12617   -12617   -12634   -12673 
  -12731   -12792   -12823   -12795   -12700   -12567   -12430   -12325 
  -12255   -12208   -12168   -12129   -12098   -12090   -12108   -12150 
  -12199   -12247   -12287   -12313   -12317   -12312   -12310   -12317 
  -12339   -12382   -12429   -12452   -12449   -12418   -12368   -12321 
  -12301   -12305   -12316   -12329   -12349   -12380   -12424   -12484 
  -12553   -12610   -12636   -12627   -12579   -12502   -12422   -12364 
  -12334   -12333   -12352   -12388   -12436   -12482   -12523   -12550 
  -12540   -12498   -12449   -12415   -12402   -12403   -12415   -12437 
  -12467   -12502   -12529   -12530   -12491   -12428   -12370   -12322 
  -12276   -12235   -12206   -12199   -12214   -12243   -12283   -12320 
  -12334   -12336   -12325   -12295   -12267   -12268   -12305   -12368 
  -12442   -12519   -12592   -12654   -12694   -12708   -12718   -12731 
  -12739   -12737   -12729   -12717   -12700   -12683   -12668   -12648 
  -12613   -12559   -12476   -12370   -12276   -12228   -12220   -12228 
  -12224   -12195   -12159   -12147   -12160   -12170   -12147   -12097 
  -12048   -12016   -11989   -11958   -11942   -11977   -12083   -12237 
  -12370   -12421   -12406   -12378   -12357   -12355   -12380   -12428 
  -12484   -12525   -12541   -12542   -12545   -12563   -12610   -12672 
  -12723   -12738   -12715   -12677   -12653   -12642   -12633   -12623 
  -12610   -12583   -12552   -12538   -12545   -12568   -12598   -12623 
  -12629   -12626   -12633   -12648   -12660   -12646   -12602   -12546 
  -12501   -12475   -12452   -12424   -12388   -12337   -12274   -12206 
  -12140   -12079   -12023   -11966   -11916   -11873   -11831   -11800 
  -11794   -11831   -11913   -12021   -12137   -12248   -12355   -12449 
  -12509   -12525   -12501   -12437   -12357   -12295   -12263   -12259 
  -12291   -12352   -12415   -12474   -12528   -12583   -12634   -12664 
  -12668   -12649   -12626   -12622   -12640   -12680   -12746   -12838 
  -12937   -13027   -13100   -13153   -13181   -13177   -13124   -13035 
  -12934   -12843   -12768   -12688   -12584   -12463   -12345   -12233 
  -12101   -11955   -11817   -11705   -11624   -11573   -11546   -11533 
  -11516   -11506   -11522   -11580   -11676   -11793   -11905   -11997 
  -12075   -12143   -12201   -12245   -12282   -12328   -12399   -12494 
  -12596   -12691   -12757   -12792   -12811   -12820   -12825   -12830 
  -12847   -12866   -12879   -12881   -12876   -12869   -12862   -12843 
  -12806   -12752   -12694   -12648   -12633   -12650   -12687   -12730 
  -12766   -12780   -12761   -12702   -12613   -12517   -12425   -12333 
  -12235   -12139   -12066   -12017   -11985   -11956   -11927   -11904 
  -11907   -11929   -11955   -11981   -12016   -12060   -12124   -12206 
  -12285   -12337   -12351   -12328   -12290   -12264   -12266   -12287 
  -12318   -12341   -12351   -12349   -12339   -12326   -12316   -12314 
  -12326   -12353   -12394   -12428   -12437   -12422   -12405   -12402 
  -12430   -12501   -12609   -12723   -12830   -12930   -13009   -13051 
  -13050   -13007   -12938   -12869   -12826   -12820   -12834   -12820 
  -12769   -12696   -12615   -12538   -12464   -12387   -12314   -12251 
  -12198   -12158   -12128   -12105   -12091   -12093   -12104   -12118 
  -12133   -12151   -12174   -12198   -12212   -12213   -12208   -12209 
  -12217   -12216   -12197   -12155   -12083   -11990   -11898   -11817 
  -11772   -11788   -11861   -11966   -12085   -12199   -12312   -12417 
  -12502   -12563   -12607   -12644   -12677   -12715   -12753   -12783 
  -12811   -12849   -12892   -12926   -12934   -12918   -12884   -12835 
  -12777   -12722   -12672   -12636   -12622   -12633   -12649   -12641 
  -12594   -12515   -12432   -12367   -12325   -12301   -12283   -12276 
  -12287   -12313   -12339   -12341   -12310   -12264   -12225   -12202 
  -12197   -12201   -12208   -12218   -12225   -12237   -12253   -12264 
  -12271   -12274   -12272   -12280   -12306   -12343   -12383   -12420 
  -12440   -12451   -12468   -12499   -12530   -12546   -12538   -12490 
  -12410   -12329   -12275   -12258   -12267   -12293   -12341   -12413 
  -12486   -12530   -12521   -12463   -12395   -12352   -12333   -12329 
  -12340   -12374   -12429   -12488   -12537   -12568   -12579   -12572 
  -12564   -12584   -12626   -12679   -12752   -12827   -12884   -12918 
  -12914   -12856   -12757   -12627   -12482   -12343   -12231   -12160 
  -12133   -12132   -12137   -12141   -12133   -12112   -12083   -12047 
  -12015   -12010   -12036   -12094   -12187   -12294   -12382   -12432 
  -12455   -12460   -12455   -12438   -12406   -12355   -12297   -12248 
  -12217   -12193   -12166   -12148   -12155   -12197   -12262   -12313 
  -12333   -12324   -12303   -12299   -12318   -12352   -12397   -12455 
  -12525   -12600   -12679   -12748   -12799   -12835   -12854   -12860 
  -12865   -12865   -12857   -12852   -12852   -12853   -12846   -12816 
  -12756   -12667   -12561   -12461   -12380   -12318   -12267   -12224 
  -12177   -12114   -12043   -11990   -11973   -11982   -12002   -12024 
  -12047   -12079   -12127   -12181   -12245   -12322   -12395   -12447 
  -12460   -12430   -12372   -12309   -12268   -12262   -12280   -12318 
  -12380   -12464   -12553   -12626   -12669   -12690   -12687   -12661 
  -12618   -12559   -12484   -12413   -12370   -12355   -12361   -12387 
  -12429   -12467   -12491   -12495   -12479   -12460   -12453   -12455 
  -12451   -12438   -12425   -12413   -12418   -12444   -12475   -12495 
  -12501   -12486   -12436   -12344   -12240   -12163   -12135   -12171 
  -12259   -12366   -12463   -12529   -12563   -12575   -12565   -12542 
  -12509   -12478   -12453   -12425   -12395   -12360   -12306   -12236 
  -12159   -12091   -12047   -12027   -12033   -12075   -12143   -12224 
  -12314   -12399   -12464   -12505   -12528   -12532   -12525   -12510 
  -12484   -12452   -12425   -12418   -12436   -12468   -12505   -12540 
  -12580   -12634   -12695   -12749   -12789   -12812   -12815   -12799 
  -12764   -12717   -12672   -12642   -12617   -12579   -12526   -12461 
  -12375   -12271   -12168   -12089   -12052   -12055   -12069   -12064 
  -12043   -12010   -11982   -11971   -11981   -12010   -12060   -12128 
  -12205   -12286   -12367   -12437   -12490   -12522   -12529   -12521 
  -12514   -12522   -12546   -12584   -12633   -12688   -12739   -12772 
  -12779   -12768   -12739   -12699   -12658   -12622   -12588   -12569 
  -12575   -12587   -12587   -12563   -12499   -12411   -12333   -12272 
  -12226   -12197   -12186   -12198   -12232   -12278   -12321   -12340 
  -12333   -12314   -12283   -12239   -12183   -12125   -12082   -12067 
  -12086   -12141   -12217   -12286   -12336   -12366   -12390   -12424 
  -12457   -12482   -12499   -12517   -12532   -12538   -12550   -12580 
  -12623   -12672   -12721   -12756   -12773   -12771   -12754   -12735 
  -12708   -12685   -12671   -12649   -12622   -12591   -12545   -12480 
  -12402   -12318   -12248   -12212   -12205   -12205   -12190   -12152 
  -12098   -12035   -11965   -11902   -11861   -11836   -11823   -11815 
  -11826   -11861   -11912   -11963   -12002   -12046   -12116   -12209 
  -12313   -12415   -12513   -12599   -12673   -12726   -12746   -12734 
  -12711   -12698   -12696   -12696   -12698   -12699   -12712   -12745 
  -12788   -12835   -12884   -12924   -12941   -12930   -12891   -12825 
  -12744   -12667   -12600   -12548   -12503   -12463   -12424   -12388 
  -12360   -12340   -12326   -12303   -12262   -12224   -12210   -12220 
  -12240   -12262   -12275   -12287   -12298   -12305   -12293   -12252 
  -12197   -12144   -12104   -12081   -12083   -12118   -12178   -12240 
  -12305   -12379   -12442   -12478   -12488   -12474   -12434   -12387 
  -12348   -12322   -12314   -12320   -12332   -12352   -12378   -12405 
  -12444   -12491   -12534   -12569   -12596   -12611   -12611   -12603 
  -12587   -12557   -12514   -12459   -12397   -12339   -12289   -12248 
  -12225   -12221   -12243   -12294   -12364   -12429   -12474   -12496 
  -12513   -12529   -12540   -12533   -12506   -12472   -12445   -12430 
  -12417   -12388   -12357   -12340   -12336   -12341   -12353   -12361 
  -12360   -12355   -12352   -12353   -12366   -12394   -12437   -12491 
  -12548   -12592   -12619   -12629   -12627   -12631   -12652   -12685 
  -12725   -12756   -12769   -12758   -12725   -12673   -12610   -12532 
  -12447   -12370   -12305   -12241   -12177   -12116   -12063   -12020 
  -11978   -11936   -11896   -11850   -11800   -11767   -11762   -11774 
  -11808   -11859   -11920   -11986   -12055   -12128   -12213   -12305 
  -12388   -12465   -12542   -12614   -12679   -12737   -12788   -12829 
  -12860   -12877   -12879   -12877   -12883   -12897   -12918   -12942 
  -12964   -12974   -12972   -12960   -12941   -12916   -12891   -12860 
  -12819   -12765   -12710   -12656   -12602   -12553   -12501   -12430 
  -12344   -12252   -12162   -12074   -11996   -11929   -11866   -11794 
  -11727   -11682   -11669   -11685   -11718   -11750   -11770   -11769 
  -11750   -11740   -11753   -11789   -11851   -11931   -12013   -12093 
  -12171   -12249   -12328   -12409   -12487   -12561   -12633   -12711 
  -12802   -12900   -13004   -13111   -13207   -13282   -13331   -13355 
  -13355   -13331   -13298   -13270   -13238   -13189   -13123   -13046 
  -12968   -12888   -12810   -12741   -12671   -12592   -12510   -12425 
  -12341   -12256   -12163   -12073   -12002   -11954   -11911   -11874 
  -11840   -11801   -11767   -11747   -11735   -11731   -11738   -11747 
  -11765   -11786   -11809   -11835   -11858   -11880   -11912   -11955 
  -11993   -12019   -12037   -12064   -12105   -12156   -12214   -12274 
  -12332   -12391   -12459   -12536   -12617   -12698   -12776   -12850 
  -12916   -12969   -13008   -13035   -13050   -13058   -13063   -13069 
  -13085   -13112   -13140   -13154   -13143   -13111   -13063   -12996 
  -12915   -12831   -12758   -12711   -12675   -12634   -12595   -12555 
  -12507   -12449   -12372   -12275   -12166   -12048   -11929   -11823 
  -11739   -11677   -11624   -11574   -11519   -11454   -11391   -11342 
  -11318   -11329   -11369   -11439   -11530   -11635   -11749   -11866 
  -11986   -12108   -12231   -12356   -12482   -12610   -12739   -12862 
  -12970   -13066   -13149   -13216   -13278   -13331   -13365   -13381 
  -13375   -13351   -13315   -13265   -13198   -13132   -13076   -13026 
  -12976   -12922   -12858   -12784   -12703   -12625   -12555   -12482 
  -12398   -12312   -12231   -12159   -12091   -12028   -11974   -11931 
  -11896   -11871   -11851   -11831   -11813   -11801   -11799   -11805 
  -11811   -11811   -11824   -11851   -11886   -11923   -11966   -12020 
  -12077   -12127   -12172   -12217   -12270   -12332   -12391   -12449 
  -12507   -12552   -12580   -12588   -12579   -12565   -12553   -12552 
  -12563   -12575   -12587   -12610   -12640   -12668   -12694   -12710 
  -12719   -12730   -12749   -12775   -12802   -12814   -12815   -12810 
  -12799   -12780   -12748   -12706   -12663   -12621   -12583   -12563 
  -12556   -12550   -12548   -12553   -12559   -12556   -12537   -12494 
  -12429   -12360   -12297   -12244   -12206   -12183   -12171   -12156 
  -12129   -12091   -12052   -12021   -11997   -11978   -11973   -11982 
  -11994   -12002   -12009   -12016   -12023   -12035   -12050   -12066 
  -12089   -12117   -12150   -12183   -12225   -12282   -12347   -12414 
  -12483   -12550   -12615   -12679   -12744   -12808   -12869   -12918 
  -12949   -12970   -12982   -12989   -12995   -12995   -12982   -12954 
  -12910   -12862   -12816   -12772   -12721   -12656   -12582   -12513 
  -12449   -12388   -12337   -12295   -12262   -12236   -12209   -12177 
  -12140   -12093   -12039   -11992   -11962   -11940   -11921   -11902 
  -11886   -11890   -11928   -11988   -12048   -12110   -12163   -12204 
  -12239   -12267   -12280   -12283   -12286   -12298   -12328   -12368 
  -12411   -12460   -12515   -12582   -12648   -12694   -12718   -12729 
  -12726   -12718   -12708   -12703   -12707   -12711   -12707   -12702 
  -12685   -12669   -12669   -12681   -12702   -12733   -12771   -12802 
  -12816   -12814   -12789   -12742   -12680   -12614   -12548   -12476 
  -12403   -12336   -12264   -12190   -12114   -12039   -11967   -11901 
  -11844   -11800   -11761   -11732   -11727   -11738   -11759   -11796 
  -11846   -11904   -11956   -12002   -12043   -12082   -12129   -12179 
  -12228   -12276   -12333   -12395   -12459   -12529   -12602   -12669 
  -12734   -12792   -12841   -12889   -12941   -12985   -13024   -13057 
  -13076   -13078   -13068   -13047   -13016   -12977   -12930   -12880 
  -12829   -12775   -12718   -12664   -12615   -12571   -12523   -12474 
  -12417   -12353   -12285   -12202   -12108   -12009   -11917   -11838 
  -11792   -11784   -11797   -11828   -11863   -11888   -11908   -11925 
  -11928   -11925   -11935   -11955   -11982   -12015   -12047   -12082 
  -12117   -12148   -12177   -12205   -12236   -12282   -12343   -12421 
  -12515   -12619   -12721   -12819   -12914   -12996   -13065   -13124 
  -13171   -13200   -13215   -13221   -13220   -13212   -13200   -13181 
  -13150   -13107   -13039   -12945   -12833   -12715   -12598   -12488 
  -12394   -12317   -12251   -12189   -12132   -12075   -12009   -11936 
  -11865   -11800   -11742   -11700   -11670   -11643   -11623   -11620 
  -11646   -11695   -11747   -11792   -11835   -11881   -11919   -11944 
  -11975   -12024   -12090   -12166   -12239   -12305   -12364   -12424 
  -12487   -12559   -12638   -12725   -12812   -12904   -13003   -13107 
  -13207   -13289   -13347   -13381   -13396   -13387   -13351   -13292 
  -13212   -13115   -13009   -12899   -12789   -12688   -12599   -12518 
  -12436   -12357   -12279   -12191   -12097   -12010   -11932   -11859 
  -11792   -11732   -11688   -11668   -11669   -11680   -11691   -11703 
  -11713   -11726   -11742   -11761   -11786   -11824   -11874   -11939 
  -12012   -12087   -12164   -12245   -12325   -12398   -12471   -12546 
  -12623   -12702   -12784   -12864   -12934   -12995   -13046   -13085 
  -13117   -13154   -13193   -13221   -13230   -13219   -13188   -13140 
  -13078   -13001   -12907   -12808   -12712   -12618   -12530   -12451 
  -12375   -12303   -12240   -12179   -12121   -12062   -12005   -11952 
  -11915   -11896   -11889   -11889   -11896   -11908   -11927   -11947 
  -11958   -11959   -11961   -11965   -11974   -11983   -11997   -12012 
  -12029   -12062   -12105   -12144   -12183   -12226   -12274   -12325 
  -12380   -12440   -12502   -12564   -12629   -12699   -12776   -12856 
  -12926   -12982   -13030   -13065   -13088   -13104   -13109   -13099 
  -13080   -13063   -13046   -13023   -12993   -12947   -12876   -12795 
  -12714   -12633   -12560   -12502   -12448   -12388   -12329   -12271 
  -12212   -12152   -12090   -12032   -11978   -11935   -11902   -11870 
  -11832   -11790   -11745   -11700   -11654   -11610   -11576   -11564 
  -11573   -11610   -11664   -11726   -11807   -11909   -12023   -12135 
  -12235   -12325   -12421   -12523   -12623   -12721   -12814   -12903 
  -12991   -13078   -13154   -13211   -13248   -13274   -13293   -13302 
  -13292   -13262   -13219   -13162   -13092   -13015   -12934   -12853 
  -12773   -12698   -12629   -12565   -12499   -12432   -12367   -12302 
  -12235   -12162   -12087   -12021   -11966   -11917   -11871   -11830 
  -11796   -11777   -11766   -11761   -11759   -11766   -11778   -11794 
  -11817   -11847   -11885   -11928   -11974   -12025   -12082   -12140 
  -12205   -12274   -12344   -12420   -12503   -12591   -12684   -12777 
  -12854   -12911   -12946   -12960   -12962   -12958   -12942   -12918 
  -12885   -12845   -12804   -12762   -12712   -12663   -12618   -12579 
  -12542   -12505   -12456   -12405   -12357   -12317   -12280   -12255 
  -12239   -12224   -12217   -12222   -12233   -12240   -12249   -12268 
  -12291   -12318   -12345   -12370   -12397   -12428   -12459   -12487 
