Origin Time       2025/06/03 22:18:00
Lat.              41.7
Long.             143.6
Depth. (km)       30
Mag.              5.2
Station Code      IWT020
Station Lat.      39.7844
Station Long.     141.3296
Station Height(m) 695
Record Time       2025/06/03 22:19:42
Sampling Freq(Hz) 100Hz
Duration Time(s)  60
Dir.              E-W
Scale Factor      7845(gal)/8223790
Max. Acc. (gal)   1.363
Last Correction   2025/06/03 22:19:41
Memo.             
[...]
    3925     3917     3910     3904     3890     3871     3852     3832 
    3804     3778     3773     3786     3801     3819     3843     3867 
    3878     3878     3877     3874     3874     3889     3904     3906 
    3904     3908     3927     3958     3986     4008     4023     4033 
    4048     4058     4056     4045     4029     4018     4014     4005 
    3989     3974     3960     3948     3943     3939     3937     3940 
    3947     3950     3946     3944     3944     3946     3956     3967 
    3970     3966     3954     3943     3947     3964     3989     4009 
    4017     4016     4004     3993     3987     3978     3967     3962 
    3946     3921     3905     3896     3888     3881     3875     3866 
    3859     3863     3877     3889     3892     3889     3885     3882 
    3885     3888     3881     3878     3888     3898     3905     3915 
    3931     3948     3963     3979     3998     4018     4028     4017 
    3989     3956     3925     3904     3900     3906     3920     3944 
    3969     3982     3986     3979     3967     3959     3955     3955 
    3959     3971     3998     4029     4055     4070     4071     4062 
    4056     4050     4033     4018     4017     4018     4012     3996 
    3970     3942     3916     3894     3874     3848     3831     3828 
    3835     3839     3836     3832     3831     3836     3846     3861 
    3886     3915     3939     3960     3983     4002     4012     4004 
    3987     3970     3951     3929     3904     3878     3866     3859 
    3855     3859     3869     3885     3913     3940     3962     3973 
    3971     3970     3977     3987     4001     4021     4037     4045 
    4052     4054     4050     4044     4035     4012     3974     3929 
    3896     3879     3885     3909     3940     3975     4005     4016 
    4009     4000     3993     3991     3991     3987     3982     3977 
    3967     3955     3954     3960     3958     3939     3906     3863 
    3816     3771     3739     3724     3728     3754     3800     3852 
    3894     3916     3921     3924     3924     3928     3936     3954 
    3987     4029     4067     4093     4101     4086     4045     3991 
    3947     3919     3905     3906     3927     3955     3981     3998 
    4002     3996     3981     3966     3956     3948     3939     3940 
    3960     3979     3996     4008     4017     4031     4045     4048 
    4029     3993     3952     3909     3870     3852     3867     3909 
    3967     4024     4059     4064     4047     4010     3966     3931 
    3912     3906     3910     3913     3916     3924     3927     3912 
    3886     3856     3821     3781     3738     3703     3686     3693 
    3724     3758     3788     3817     3840     3859     3879     3897 
    3908     3919     3936     3956     3979     4004     4035     4078 
    4121     4149     4168     4178     4174     4155     4133     4116 
    4108     4108     4112     4110     4102     4089     4070     4045 
    4023     4004     3985     3967     3956     3948     3943     3944 
    3950     3947     3942     3935     3916     3894     3879     3867 
    3856     3854     3859     3870     3883     3892     3893     3885 
    3869     3846     3812     3770     3736     3709     3694     3699 
    3707     3715     3730     3759     3796     3825     3840     3848 
    3858     3873     3892     3912     3943     3989     4045     4098 
    4135     4158     4175     4187     4185     4164     4133     4110 
    4105     4114     4131     4148     4166     4182     4191     4198 
    4194     4175     4148     4109     4059     4006     3952     3913 
    3898     3894     3890     3879     3859     3828     3785     3736 
    3703     3688     3685     3693     3704     3716     3731     3738 
    3736     3738     3738     3738     3740     3747     3770     3811 
    3847     3875     3898     3916     3921     3921     3921     3931 
    3952     3979     4012     4044     4075     4112     4147     4167 
    4168     4158     4148     4149     4160     4171     4185     4202 
    4220     4233     4236     4222     4199     4174     4145     4105 
    4050     3994     3950     3910     3873     3843     3829     3825 
    3807     3773     3738     3711     3696     3696     3707     3728 
    3754     3774     3788     3798     3801     3801     3807     3812 
    3812     3812     3809     3809     3825     3851     3878     3908 
    3942     3974     4002     4028     4043     4032     4000     3969 
    3954     3962     3994     4048     4106     4151     4172     4176 
    4164     4135     4102     4072     4048     4039     4043     4051 
    4067     4093     4108     4098     4064     4012     3959     3915 
    3881     3861     3851     3850     3859     3877     3885     3878 
    3865     3851     3843     3831     3802     3769     3748     3751 
    3773     3796     3811     3816     3808     3790     3777     3778 
    3790     3815     3854     3889     3908     3923     3937     3952 
    3974     4000     4029     4060     4081     4087     4090     4091 
    4097     4110     4126     4145     4162     4175     4180     4167 
    4143     4125     4113     4108     4106     4102     4091     4071 
    4040     4001     3954     3908     3875     3851     3838     3829 
    3815     3792     3766     3739     3712     3696     3694     3700 
    3719     3754     3788     3811     3827     3835     3836     3844 
    3863     3892     3932     3977     4010     4035     4048     4050 
    4043     4036     4027     4018     4014     4004     3975     3937 
    3900     3875     3882     3917     3959     3996     4018     4031 
    4032     4016     3990     3970     3959     3962     3979     4008 
    4044     4078     4097     4090     4068     4047     4033     4024 
    4010     3998     3991     3986     3978     3963     3944     3925 
    3906     3890     3869     3843     3827     3829     3836     3829 
    3817     3807     3793     3781     3773     3769     3774     3785 
    3793     3800     3809     3827     3854     3886     3923     3959 
    3989     4001     3997     3983     3963     3950     3952     3964 
    3983     4009     4047     4086     4113     4126     4131     4113 
    4071     4018     3971     3946     3951     3989     4044     4090 
    4117     4124     4106     4071     4035     4006     3987     3974 
    3963     3964     3977     3994     4014     4029     4029     4014 
    3993     3964     3939     3920     3906     3910     3932     3948 
    3943     3927     3908     3886     3866     3846     3828     3811 
    3790     3765     3738     3707     3688     3686     3697     3716 
    3738     3754     3769     3786     3801     3813     3828     3847 
    3879     3920     3958     3990     4013     4013     4006     4009 
    4014     4028     4056     4093     4136     4176     4203     4210 
    4195     4170     4152     4140     4125     4114     4116     4120 
    4113     4095     4071     4043     4017     3989     3963     3947 
    3939     3935     3936     3937     3932     3921     3904     3877 
    3852     3839     3835     3832     3825     3801     3758     3717 
    3694     3685     3682     3689     3703     3713     3723     3739 
    3761     3790     3825     3858     3890     3917     3933     3943 
    3951     3967     4002     4044     4077     4098     4116     4125 
    4129     4131     4135     4139     4136     4128     4124     4116 
    4105     4094     4082     4063     4043     4021     4000     3979 
    3964     3954     3940     3924     3913     3909     3919     3937 
    3960     3989     4012     4020     4012     3990     3960     3925 
    3896     3885     3898     3923     3948     3967     3966     3943 
    3915     3888     3866     3856     3854     3852     3855     3855 
    3844     3829     3819     3813     3816     3817     3823     3829 
    3825     3812     3801     3796     3798     3812     3827     3842 
    3862     3885     3912     3940     3964     3978     3981     3979 
    3982     3990     4006     4029     4055     4081     4101     4112 
    4113     4108     4108     4116     4128     4139     4147     4148 
    4141     4121     4091     4059     4024     3987     3959     3942 
    3933     3940     3960     3978     3983     3978     3963     3940 
    3916     3894     3871     3850     3823     3792     3771     3775 
    3800     3825     3834     3817     3789     3763     3744     3730 
    3727     3730     3730     3731     3746     3773     3800     3824 
    3848     3869     3879     3883     3888     3904     3936     3986 
    4048     4098     4128     4145     4152     4159     4168     4182 
    4202     4230     4259     4279     4286     4282     4283     4284 
    4271     4245     4216     4187     4163     4136     4109     4083 
    4039     3973     3906     3848     3801     3769     3753     3740 
    3723     3692     3650     3611     3582     3562     3551     3558 
    3576     3596     3618     3635     3646     3650     3642     3630 
    3631     3645     3662     3685     3715     3748     3788     3835 
    3886     3937     3994     4054     4120     4193     4259     4317 
    4371     4419     4459     4483     4494     4486     4455     4411 
    4369     4336     4309     4284     4264     4245     4225     4201 
    4164     4114     4062     4010     3960     3912     3861     3819 
    3786     3754     3730     3712     3692     3669     3650     3636 
    3638     3657     3676     3681     3665     3631     3597     3577 
    3568     3569     3585     3612     3654     3705     3738     3748 
    3754     3759     3773     3792     3820     3866     3928     3991 
    4052     4109     4160     4201     4229     4253     4275     4291 
    4306     4317     4330     4347     4359     4374     4391     4405 
    4410     4405     4391     4360     4301     4217     4124     4040 
    3975     3923     3885     3856     3827     3796     3775     3769 
    3767     3766     3763     3755     3735     3716     3705     3711 
    3724     3738     3751     3755     3728     3673     3616     3580 
    3569     3574     3588     3615     3650     3677     3690     3696 
    3697     3705     3723     3742     3757     3778     3800     3819 
    3848     3897     3964     4043     4110     4148     4168     4195 
    4233     4272     4305     4336     4371     4413     4455     4482 
    4494     4499     4494     4465     4421     4368     4311     4267 
    4249     4251     4255     4248     4221     4170     4095     4005 
    3913     3829     3762     3713     3686     3678     3680     3684 
    3682     3665     3636     3600     3557     3515     3489     3493 
    3530     3584     3632     3663     3662     3631     3581     3524 
    3477     3446     3430     3431     3456     3499     3559     3638 
    3727     3816     3897     3962     4002     4023     4043     4075 
    4120     4167     4218     4284     4359     4428     4482     4523 
    4557     4577     4573     4538     4491     4456     4444     4461 
    4500     4538     4561     4549     4494     4409     4310     4228 
    4174     4136     4104     4064     4012     3954     3889     3807 
    3700     3572     3439     3321     3230     3177     3177     3222 
    3288     3333     3333     3299     3268     3268     3302     3356 
    3419     3491     3559     3615     3654     3682     3705     3731 
    3762     3793     3821     3848     3889     3958     4048     4145 
    4252     4356     4442     4500     4519     4503     4479     4463 
    4452     4453     4464     4484     4498     4484     4438     4382 
    4329     4295     4298     4338     4409     4494     4558     4564 
    4500     4382     4239     4112     4018     3951     3892     3836 
    3789     3742     3688     3627     3569     3504     3430     3357 
    3294     3249     3237     3260     3295     3318     3316     3295 
    3267     3248     3235     3213     3190     3200     3260     3356 
    3477     3609     3739     3846     3915     3947     3962     3975 
    4005     4070     4178     4313     4442     4545     4596     4600 
    4581     4564     4567     4594     4641     4687     4720     4734 
    4722     4675     4606     4541     4487     4440     4409     4395 
    4396     4402     4395     4361     4288     4179     4056     3947 
    3869     3815     3766     3700     3608     3495     3383     3295 
    3240     3206     3199     3213     3226     3241     3258     3292 
    3358     3468     3601     3719     3793     3829     3831     3790 
    3726     3673     3663     3703     3763     3828     3875     3896 
    3888     3834     3742     3643     3565     3532     3557     3622 
    3717     3828     3944     4060     4158     4220     4249     4267 
    4288     4320     4363     4425     4514     4608     4692     4756 
    4808     4858     4893     4896     4864     4784     4664     4529 
    4405     4314     4271     4268     4284     4293     4276     4228 
    4140     4024     3885     3726     3564     3418     3289     3179 
    3095     3048     3040     3068     3119     3171     3221     3268 
    3298     3292     3262     3240     3248     3306     3410     3518 
    3591     3618     3619     3609     3596     3584     3569     3554 
    3538     3538     3588     3708     3883     4086     4288     4448 
    4530     4557     4558     4553     4576     4649     4769     4932 
    5108     5250     5339     5375     5363     5310     5217     5089 
    4945     4812     4696     4587     4483     4374     4245     4097 
    3932     3758     3586     3422     3268     3138     3037     2947 
    2872     2818     2764     2710     2673     2658     2670     2705 
    2756     2821     2902     3006     3136     3272     3400     3516 
    3639     3767     3883     3971     4027     4064     4112     4174 
    4253     4338     4407     4455     4486     4496     4499     4506 
    4509     4509     4531     4581     4645     4719     4795     4854 
    4891     4891     4838     4741     4623     4509     4413     4347 
    4314     4315     4349     4394     4415     4398     4338     4233 
    4086     3917     3736     3564     3412     3283     3179     3099 
    3041     3001     2964     2916     2871     2845     2843     2871 
    2937     3032     3142     3260     3362     3442     3511     3576 
    3640     3700     3742     3766     3790     3825     3875     3952 
    4060     4179     4290     4383     4445     4480     4503     4519 
    4531     4540     4552     4558     4552     4548     4563     4590 
    4617     4642     4664     4672     4653     4606     4544     4475 
    4411     4367     4332     4272     4193     4110     4023     3920 
    3809     3703     3619     3576     3561     3550     3534     3522 
    3520     3532     3549     3551     3535     3505     3462     3408 
    3354     3300     3248     3211     3210     3253     3335     3434 
    3531     3608     3643     3639     3616     3595     3601     3662 
    3782     3942     4117     4267     4349     4359     4324     4271 
    4226     4216     4257     4342     4452     4569     4673     4734 
    4753     4743     4707     4653     4591     4515     4417     4310 
    4221     4166     4144     4145     4155     4163     4153     4118 
    4051     3956     3850     3755     3697     3684     3709     3754 
    3794     3809     3781     3705     3603     3492     3389     3316 
    3260     3211     3190     3202     3238     3294     3369     3446 
    3504     3546     3582     3615     3646     3686     3738     3798 
    3871     3950     4027     4099     4163     4213     4240     4236 
    4210     4189     4185     4212     4267     4328     4378     4415 
    4436     4440     4434     4422     4392     4357     4337     4334 
    4349     4371     4380     4369     4351     4332     4301     4253 
    4206     4171     4136     4087     4008     3894     3773     3676 
    3611     3555     3489     3423     3387     3391     3418     3450 
    3468     3469     3464     3456     3454     3469     3499     3551 
    3618     3674     3712     3727     3724     3727     3746     3769 
    3785     3797     3802     3800     3813     3873     3973     4090 
    4203     4298     4371     4429     4460     4445     4409     4388 
    4405     4464     4553     4642     4710     4743     4735     4671 
    4556     4405     4237     4081     3954     3856     3781     3713 
    3643     3568     3488     3422     3373     3325     3277     3260 
    3292     3370     3481     3608     3735     3861     3990     4121 
    4233     4314     4359     4357     4307     4228     4144     4078 
    4045     4054     4091     4140     4179     4182     4136     4063 
    3979     3890     3807     3738     3681     3622     3546     3450 
    3346     3258     3215     3223     3276     3369     3496     3635 
    3757     3844     3910     3966     4002     4027     4055     4087 
    4126     4174     4220     4263     4306     4338     4337     4302 
    4259     4217     4170     4126     4102     4099     4110     4129 
    4147     4156     4153     4129     4094     4074     4081     4106 
    4143     4182     4205     4203     4183     4147     4102     4064 
    4040     4032     4028     4016     3990     3970     3971     3990 
    4002     3991     3958     3904     3840     3789     3765     3761 
    3758     3742     3708     3672     3645     3627     3604     3569 
    3520     3458     3383     3299     3215     3148     3129     3175 
    3277     3407     3545     3673     3780     3865     3925     3971 
    4031     4117     4220     4320     4403     4468     4523     4569 
    4604     4634     4660     4681     4700     4718     4720     4703 
    4661     4592     4509     4429     4364     4322     4306     4302 
    4293     4270     4229     4170     4082     3977     3867     3766 
    3681     3620     3578     3543     3504     3457     3404     3350 
    3299     3257     3222     3206     3223     3268     3318     3357 
    3372     3356     3327     3316     3339     3395     3466     3534 
    3585     3609     3612     3630     3680     3758     3852     3951 
    4048     4131     4202     4276     4340     4390     4434     4476 
    4519     4567     4622     4689     4753     4785     4772     4708 
    4617     4527     4460     4421     4396     4371     4333     4283 
    4233     4195     4182     4189     4205     4226     4241     4225 
    4160     4048     3902     3743     3596     3476     3393     3356 
    3350     3354     3361     3364     3352     3322     3272     3211 
    3156     3129     3136     3159     3199     3272     3381     3514 
    3645     3751     3821     3850     3843     3821     3808     3815 
    3850     3932     4058     4209     4369     4529     4666     4749 
    4764     4723     4646     4557     4487     4457     4483     4554 
    4630     4664     4626     4519     4384     4274     4217     4207 
    4218     4228     4218     4182     4118     4035     3939     3842 
    3744     3646     3564     3516     3507     3542     3613     3704 
    3798     3886     3940     3942     3898     3829     3744     3649 
    3546     3453     3381     3334     3312     3300     3272     3211 
