Origin Time       2024/04/02 04:24:00
Lat.              40.133
Long.             141.712
Depth. (km)       71
Mag.              6.0
Station Code      AKT019
Station Lat.      39.0390
Station Long.     140.4490
Station Height(m) 173
Record Time       2024/04/02 04:25:04
Sampling Freq(Hz) 100Hz
Duration Time(s)  96
Dir.              U-D
Scale Factor      7845(gal)/8223790
Max. Acc. (gal)   3.738
Last Correction   2024/04/02 04:25:04
Memo.             
[...]
   32749    32749    32744    32744    32752    32753    32745    32748 
   32755    32751    32742    32746    32752    32748    32745    32749 
   32753    32749    32745    32745    32751    32752    32745    32745 
   32748    32748    32746    32749    32748    32748    32749    32748 
   32751    32751    32745    32746    32749    32745    32745    32748 
   32748    32746    32746    32749    32751    32748    32748    32752 
   32749    32745    32745    32748    32746    32746    32749    32749 
   32746    32748    32748    32751    32749    32746    32748    32749 
   32746    32745    32746    32748    32749    32749    32748    32748 
   32749    32749    32746    32746    32752    32752    32744    32742 
   32749    32751    32746    32745    32746    32748    32749    32746 
   32746    32746    32748    32749    32745    32742    32749    32752 
   32746    32748    32749    32746    32744    32748    32753    32751 
   32742    32746    32752    32749    32748    32749    32745    32742 
   32746    32752    32751    32746    32748    32749    32748    32744 
   32744    32751    32752    32748    32748    32751    32746    32744 
   32749    32751    32746    32746    32748    32745    32748    32751 
   32748    32745    32746    32749    32749    32746    32746    32749 
   32748    32748    32748    32745    32748    32751    32748    32745 
   32748    32753    32749    32742    32744    32751    32748    32744 
   32745    32749    32749    32745    32748    32752    32746    32744 
   32749    32748    32742    32745    32751    32749    32744    32745 
   32749    32748    32745    32749    32752    32748    32745    32745 
   32746    32746    32746    32748    32748    32749    32751    32746 
   32744    32749    32753    32746    32741    32749    32755    32749 
   32745    32748    32746    32745    32748    32751    32752    32746 
   32745    32748    32748    32745    32745    32748    32752    32749 
   32746    32751    32749    32745    32748    32749    32746    32745 
   32744    32749    32753    32746    32741    32745    32749    32749 
   32746    32748    32748    32745    32748    32752    32749    32742 
   32742    32751    32753    32744    32741    32746    32752    32749 
   32745    32749    32751    32746    32742    32744    32749    32752 
   32748    32746    32744    32744    32749    32753    32746    32744 
   32749    32749    32745    32748    32752    32748    32745    32746 
   32748    32745    32749    32752    32746    32742    32746    32751 
   32749    32752    32755    32748    32744    32749    32746    32745 
   32755    32752    32738    32741    32751    32748    32745    32749 
   32752    32744    32740    32746    32752    32752    32748    32744 
   32742    32744    32751    32755    32748    32741    32744    32746 
   32748    32752    32751    32745    32746    32749    32744    32742 
   32752    32756    32745    32741    32748    32751    32751    32748 
   32742    32748    32753    32748    32744    32748    32749    32745 
   32748    32752    32746    32740    32749    32755    32744    32741 
   32749    32749    32746    32751    32751    32745    32745    32746 
   32749    32751    32745    32745    32751    32752    32745    32738 
   32741    32753    32756    32741    32736    32751    32756    32741 
   32736    32751    32757    32745    32738    32748    32757    32753 
   32742    32734    32742    32763    32760    32738    32736    32752 
   32756    32745    32742    32746    32749    32755    32749    32736 
   32738    32757    32761    32746    32738    32746    32749    32746 
   32752    32749    32744    32749    32745    32738    32749    32759 
   32752    32741    32740    32745    32751    32753    32746    32736 
   32741    32759    32759    32741    32734    32749    32755    32745 
   32749    32756    32748    32742    32745    32748    32749    32751 
   32746    32745    32749    32753    32749    32748    32745    32736 
   32744    32765    32755    32728    32736    32763    32763    32742 
   32734    32738    32752    32763    32751    32730    32733    32756 
   32769    32757    32736    32738    32751    32749    32748    32756 
   32756    32744    32732    32738    32763    32768    32748    32730 
   32736    32751    32755    32744    32738    32756    32761    32741 
   32730    32744    32759    32760    32752    32738    32724    32737 
   32780    32784    32733    32710    32740    32761    32760    32755 
   32744    32736    32740    32741    32752    32775    32760    32719 
   32725    32759    32765    32753    32746    32740    32730    32738 
   32757    32760    32752    32749    32741    32730    32738    32768 
   32772    32745    32729    32726    32734    32771    32782    32741 
   32718    32736    32755    32760    32753    32745    32740    32740 
   32746    32749    32748    32756    32757    32736    32728    32746 
   32759    32760    32761    32745    32721    32730    32756    32768 
   32763    32742    32717    32725    32768    32779    32741    32724 
   32744    32749    32744    32751    32756    32749    32745    32744 
   32741    32741    32755    32763    32749    32729    32733    32752 
   32757    32756    32753    32737    32725    32744    32764    32757 
   32751    32749    32732    32736    32767    32764    32728    32730 
   32763    32763    32740    32732    32740    32756    32765    32751 
   32733    32734    32751    32764    32755    32740    32742    32752 
   32749    32745    32755    32755    32736    32738    32760    32752 
   32738    32755    32756    32733    32744    32767    32740    32724 
   32761    32778    32741    32718    32746    32773    32756    32737 
   32749    32748    32722    32742    32786    32765    32714    32726 
   32768    32759    32736    32752    32763    32746    32742    32737 
   32733    32760    32779    32749    32717    32729    32757    32765 
   32761    32749    32729    32730    32759    32767    32746    32752 
   32755    32728    32742    32772    32738    32713    32769    32800 
   32728    32692    32767    32787    32724    32728    32782    32767 
   32724    32733    32759    32751    32738    32759    32779    32759 
   32710    32709    32764    32799    32778    32721    32683    32749 
   32832    32773    32682    32719    32782    32752    32732    32768 
   32768    32734    32732    32728    32737    32795    32792    32711 
   32703    32763    32769    32745    32742    32749    32763    32763 
   32733    32718    32732    32772    32814    32744    32644    32726 
   32845    32794    32710    32702    32717    32763    32800    32767 
   32724    32717    32729    32763    32778    32752    32740    32738 
   32737    32749    32764    32771    32753    32710    32715    32783 
   32791    32730    32728    32757    32741    32736    32765    32772 
   32742    32722    32752    32780    32730    32694    32773    32819 
   32732    32682    32741    32784    32786    32763    32705    32690 
   32759    32805    32765    32707    32710    32769    32787    32732 
   32705    32748    32788    32778    32726    32692    32733    32798 
   32791    32719    32706    32751    32761    32756    32756    32748 
   32749    32722    32719    32791    32800    32726    32697    32732 
   32779    32784    32749    32710    32705    32773    32825    32748 
   32665    32709    32791    32814    32767    32688    32676    32768 
   32832    32773    32694    32702    32756    32782    32788    32755 
   32683    32688    32795    32841    32745    32655    32698    32810 
   32823    32718    32684    32760    32776    32757    32759    32706 
   32713    32805    32776    32715    32753    32729    32710    32805 
   32790    32699    32724    32748    32756    32780    32746    32715 
   32724    32753    32800    32757    32692    32752    32788    32736 
   32722    32751    32784    32779    32706    32706    32788    32767 
   32718    32760    32740    32714    32814    32784    32628    32709 
   32869    32786    32686    32728    32741    32744    32786    32757 
   32703    32752    32799    32742    32691    32749    32803    32746 
   32717    32775    32764    32705    32705    32765    32875    32799 
   32533    32633    32972    32887    32613    32638    32787    32782 
   32734    32807    32787    32622    32679    32884    32844    32652 
   32617    32771    32925    32814    32556    32648    32911    32805 
   32645    32767    32807    32707    32690    32751    32841    32815 
   32621    32616    32871    32898    32668    32643    32787    32760 
   32717    32823    32775    32641    32749    32827    32715    32701 
   32764    32794    32811    32692    32593    32798    32942    32734 
   32589    32707    32840    32809    32683    32722    32872    32776 
   32557    32620    32894    32979    32765    32571    32586    32711 
   32890    32952    32767    32609    32613    32671    32854    32933 
   32740    32671    32706    32661    32765    32872    32803    32729 
   32637    32657    32840    32838    32711    32730    32787    32740 
   32630    32697    32908    32842    32630    32688    32827    32724 
   32578    32825    33069    32702    32420    32695    32914    32856 
   32694    32715    32800    32638    32724    32892    32694    32729 
   32837    32653    32701    32817    32738    32772    32813    32676 
   32618    32818    32927    32698    32578    32764    32842    32772 
   32726    32687    32759    32844    32706    32638    32840    32869 
   32643    32617    32796    32859    32779    32682    32717    32798 
   32676    32657    32894    32871    32643    32648    32751    32802 
   32803    32715    32701    32782    32778    32709    32702    32772 
   32825    32763    32656    32688    32838    32826    32678    32694 
   32782    32755    32749    32757    32713    32755    32832    32737 
   32614    32718    32880    32818    32644    32668    32823    32814 
   32697    32709    32759    32746    32800    32786    32620    32648 
   32913    32940    32622    32474    32773    33029    32800    32549 
   32667    32821    32809    32751    32725    32738    32733    32740 
   32786    32746    32692    32752    32775    32767    32788    32694 
   32670    32826    32787    32679    32798    32767    32591    32752 
   32999    32825    32489    32547    32918    32996    32691    32575 
   32736    32790    32753    32773    32783    32734    32675    32706 
   32833    32836    32674    32624    32753    32865    32807    32676 
   32683    32761    32753    32761    32788    32707    32672    32775 
   32805    32721    32683    32710    32726    32733    32740    32707 
   32659    32668    32709    32737    32736    32651    32590    32684 
   32787    32717    32606    32665    32807    32826    32748    32733 
   32790    32773    32722    32780    32860    32856    32842    32863 
   32872    32802    32674    32668    32799    32834    32773    32832 
   32952    32910    32740    32624    32633    32738    32848    32865 
   32776    32587    32464    32680    33029    32980    32610    32564 
   32950    33145    32830    32472    32575    32942    33139    33153 
   33100    32927    32768    32864    33066    33077    32833    32428 
   32108    32065    32089    32016    32170    32721    33367    33763 
   33597    32872    32184    32015    32165    32232    32182    32386 
   32964    33264    32883    32551    32888    33416    33681    33794 
   33637    33127    32803    33000    33504    34144    34402    33737 
   33003    33104    33012    31946    31137    31303    31615    31669 
   31715    31839    31901    31693    31631    32305    32825    32003 
   30978    31599    33386    34736    34951    34140    33322    33292 
   32989    31819    31290    31849    31997    31583    32177    34165 
   35729    35040    32921    31789    32139    32818    33631    34514 
   34634    33778    32224    30599    30373    31627    32271    31797 
   32039    33232    33343    31823    30913    32032    33340    33016 
   32525    33677    34897    34005    32078    31413    32251    32917 
   31961    30414    30599    32522    34045    33798    32406    31568 
   32012    33083    34118    34581    34110    33311    33153    33995 
   35145    35073    33791    32886    31950    30030    28841    29681 
   31506    33112    33447    32071    30273    29716    31077    33497 
   34878    34641    34322    33968    32185    30136    30361    32359 
   33504    33134    32917    33932    35016    34453    33011    33112 
   34446    34588    33593    33281    33843    34385    34503    34188 
   33621    32822    31465    29936    29401    30141    31407    32344 
   32251    31642    32044    33231    33943    34873    36416    36629 
   34736    32159    30042    29188    30260    32684    34596    34453 
   33272    33216    33633    33030    32811    33978    34724    34036 
   32764    31666    31097    31066    31639    32945    33975    33646 
   32765    32719    33397    33361    31652    29656    29847    31962 
   33427    33534    33350    33173    32991    32886    32598    32405 
   33107    34454    34623    32609    30639    31614    34485    35279 
   32879    30240    29592    30562    32059    32890    32825    33106 
   33887    34230    34545    35070    34530    32976    31912    31349 
   30743    31059    33030    34985    34501    32053    30352    30169 
   30516    31324    32479    32868    32444    33025    35295    36666 
   35118    32908    32378    32194    31251    30981    31849    32499 
   32414    32080    31947    32553    33609    33917    33523    33158 
   32721    32695    33291    33160    32151    31545    31752    32676 
   33728    33754    32830    32235    32667    33570    33714    32768 
   31799    31270    30623    30576    32135    33790    34024    33921 
   33974    33129    32115    32553    33655    33808    33241    32695 
   32239    31928    31625    31499    32040    32806    33443    33832 
   32953    31452    31845    33754    34307    32979    31733    31842 
   32537    32463    31855    32213    34006    35580    34977    32869 
   31453    31228    31776    32802    33345    33050    32572    32194 
   32339    33583    35101    35128    33308    31545    31612    32799 
   33480    33322    32933    32724    32335    31657    31743    32734 
   33007    32418    32880    34385    34793    33444    31395    30007 
   30392    31841    32591    32686    32865    32684    32189    32445 
   33791    35244    35198    33359    31688    31330    31243    31399 
   32668    33972    33945    33096    32675    33191    33571    32580 
   31085    30618    31212    32285    33165    32953    32174    32418 
   33443    33879    33590    33108    32881    32703    31716    30878 
   32152    34399    35046    34261    33448    32944    32913    33215 
   33080    32680    32692    32859    32841    32421    31472    31012 
   31603    32093    32105    32397    32734    32529    32238    32440 
   32898    33376    34091    34429    33583    32491    32394    33135 
   33988    34221    33427    31912    30635    30705    31930    33142 
   34114    34537    33482    31919    31920    33112    33442    32616 
   32150    32458    32402    31880    32212    33473    33736    32705 
   32884    34333    33999    32198    32134    33565    33930    33493 
   33674    33355    31596    29992    29706    30539    31965    32837 
   32809    32622    32410    32416    32910    33127    33218    34090 
   34668    33635    32328    32572    33690    34001    33394    32633 
   32159    32162    32371    32319    31804    31131    31207    32130 
   32817    33189    33771    33906    33493    33477    33316    32205 
   31622    32645    33349    32138    30669    31160    33303    34901 
   34889    34441    34163    33231    31938    31352    31538    32165 
   32894    33185    32994    32910    33153    33230    33106    33184 
   32738    31446    31399    33289    34225    32972    31965    32351 
   32738    32683    33057    33885    34322    34047    33458    32964 
   32772    32678    32167    31665    32069    32846    32810    31930 
   31205    31465    32422    33184    33457    33259    32583    31936 
   31730    31791    32128    32555    32526    32414    32790    32991 
   32475    32032    32583    33795    34360    33728    32958    33200 
   33806    33211    31908    31810    32566    32522    31841    31403 
   31544    32389    33119    33150    33423    33864    33489    33180 
   33497    33129    32246    32142    32364    32248    32027    31522 
   31070    31822    33459    34106    33266    32736    33446    33853 
   33099    32725    33598    34195    33616    32902    32497    32188 
   32374    32718    32313    31580    31726    32630    32638    31587 
   31909    34033    34788    33065    31729    32530    33786    33408 
   31846    31264    32205    33157    33212    32756    32374    32391 
   32530    32383    32530    33498    34229    33631    32362    31668 
   31807    32389    33157    33720    33296    31816    30900    32036 
   34117    34909    34083    32946    32414    32406    32744    33242 
   33150    32313    31762    31881    32013    32024    32283    32594 
   32532    32400    32707    33247    33471    33324    33189    33037 
   32582    32418    32884    32917    32312    32454    33517    34011 
   33455    32918    32881    32597    31803    31600    32637    33551 
   33112    32394    32574    32976    32881    32853    33385    33772 
   33350    32832    33034    33386    33042    32489    32447    32265 
   31596    31496    32248    33026    33386    33408    33351    32917 
   31878    31599    32733    33781    33964    33681    33099    32679 
   32699    32564    32059    31941    32728    33554    33322    32530 
   32146    32093    32259    32733    32938    32695    32599    32351 
   31619    31660    33014    33972    33358    32508    33010    33849 
   33183    31796    31581    32412    33164    33427    33203    32711 
   32348    32341    32583    32771    32953    33181    32976    32418 
   32109    32092    32339    32765    33023    33035    32698    32101 
   32081    33093    34234    34167    33045    32366    32544    32722 
   32591    32444    32278    31974    32019    32543    32528    32007 
   32377    33264    33157    32575    32740    33093    32852    32560 
   32790    33114    32938    32656    33064    33669    33286    32377 
   32335    32593    31962    31398    31995    33293    34434    34420 
   33295    32707    32964    32800    32382    32544    32825    32707 
   32548    32508    32269    31930    32111    32857    33357    33300 
   33316    33386    32952    32680    33068    33050    32611    32896 
   33417    33142    32433    32175    32548    32906    33103    33511 
   33332    32193    31668    32398    33039    32911    32652    32470 
   32031    31708    32088    32917    33413    33141    32813    33158 
   33403    33022    32649    32498    32525    32664    32279    31649 
   32058    33057    33049    32455    32540    32946    33323    33983 
   33980    32751    32040    32684    32930    32148    31927    32705 
   33111    32574    31986    32113    32606    32665    32344    32382 
