Origin Time       2024/04/02 04:24:00
Lat.              40.133
Long.             141.712
Depth. (km)       71
Mag.              6.0
Station Code      AKT007
Station Lat.      40.0376
Station Long.     140.0919
Station Height(m) 17
Record Time       2024/04/02 04:24:59
Sampling Freq(Hz) 100Hz
Duration Time(s)  71
Dir.              U-D
Scale Factor      7845(gal)/8223790
Max. Acc. (gal)   2.383
Last Correction   2024/04/02 04:24:59
Memo.             
[...]
   -5020    -5017    -5019    -5022    -5020    -5022    -5023    -5020 
   -5022    -5022    -5019    -5020    -5024    -5023    -5020    -5020 
   -5022    -5020    -5022    -5022    -5020    -5022    -5022    -5022 
   -5023    -5023    -5020    -5017    -5020    -5023    -5020    -5020 
   -5023    -5022    -5019    -5024    -5024    -5020    -5023    -5026 
   -5023    -5023    -5024    -5022    -5020    -5022    -5023    -5023 
   -5023    -5023    -5024    -5024    -5020    -5022    -5024    -5024 
   -5022    -5023    -5020    -5022    -5026    -5024    -5022    -5022 
   -5020    -5022    -5023    -5022    -5019    -5023    -5026    -5023 
   -5020    -5022    -5022    -5022    -5022    -5023    -5022    -5020 
   -5020    -5020    -5020    -5022    -5020    -5020    -5024    -5026 
   -5020    -5017    -5020    -5019    -5019    -5023    -5022    -5019 
   -5022    -5023    -5022    -5023    -5022    -5020    -5022    -5022 
   -5019    -5020    -5024    -5023    -5022    -5022    -5022    -5020 
   -5022    -5023    -5023    -5024    -5024    -5022    -5020    -5023 
   -5023    -5020    -5023    -5024    -5020    -5020    -5022    -5022 
   -5024    -5023    -5022    -5020    -5022    -5022    -5020    -5022 
   -5023    -5023    -5020    -5020    -5023    -5023    -5020    -5020 
   -5022    -5022    -5022    -5019    -5020    -5023    -5022    -5019 
   -5020    -5022    -5022    -5022    -5020    -5017    -5019    -5023 
   -5024    -5022    -5020    -5020    -5023    -5024    -5024    -5020 
   -5019    -5020    -5022    -5022    -5023    -5024    -5022    -5022 
   -5022    -5019    -5020    -5022    -5020    -5022    -5023    -5020 
   -5020    -5023    -5024    -5022    -5019    -5022    -5022    -5019 
   -5020    -5023    -5022    -5020    -5022    -5023    -5023    -5022 
   -5022    -5023    -5022    -5022    -5022    -5022    -5020    -5022 
   -5022    -5020    -5022    -5023    -5022    -5023    -5020    -5020 
   -5023    -5022    -5020    -5022    -5022    -5022    -5023    -5023 
   -5020    -5019    -5023    -5024    -5022    -5022    -5020    -5022 
   -5023    -5022    -5020    -5024    -5024    -5022    -5022    -5023 
   -5023    -5023    -5022    -5022    -5024    -5022    -5017    -5020 
   -5023    -5022    -5020    -5022    -5023    -5022    -5020    -5020 
   -5020    -5023    -5022    -5022    -5024    -5024    -5023    -5023 
   -5022    -5022    -5022    -5022    -5023    -5023    -5023    -5023 
   -5022    -5022    -5023    -5022    -5023    -5024    -5022    -5022 
   -5023    -5023    -5022    -5022    -5024    -5024    -5023    -5024 
   -5022    -5019    -5023    -5027    -5022    -5019    -5020    -5023 
   -5023    -5023    -5023    -5023    -5022    -5023    -5024    -5023 
   -5020    -5022    -5024    -5023    -5023    -5024    -5022    -5020 
   -5023    -5024    -5024    -5023    -5022    -5023    -5023    -5022 
   -5023    -5023    -5020    -5020    -5022    -5024    -5027    -5026 
   -5024    -5022    -5022    -5024    -5024    -5023    -5022    -5022 
   -5022    -5022    -5023    -5022    -5022    -5023    -5026    -5024 
   -5022    -5023    -5023    -5023    -5024    -5022    -5019    -5020 
   -5023    -5023    -5023    -5023    -5022    -5020    -5022    -5020 
   -5020    -5023    -5024    -5022    -5024    -5027    -5023    -5019 
   -5020    -5023    -5020    -5017    -5022    -5022    -5020    -5022 
   -5026    -5023    -5020    -5019    -5020    -5022    -5026    -5023 
   -5019    -5020    -5023    -5022    -5022    -5022    -5020    -5022 
   -5022    -5023    -5024    -5024    -5022    -5022    -5022    -5022 
   -5023    -5024    -5024    -5023    -5022    -5019    -5020    -5023 
   -5020    -5020    -5023    -5023    -5023    -5023    -5019    -5019 
   -5023    -5023    -5024    -5026    -5022    -5020    -5023    -5022 
   -5020    -5023    -5023    -5022    -5022    -5022    -5024    -5023 
   -5020    -5020    -5022    -5020    -5023    -5024    -5022    -5019 
   -5022    -5022    -5020    -5020    -5020    -5022    -5020    -5020 
   -5022    -5020    -5019    -5023    -5024    -5020    -5019    -5020 
   -5023    -5023    -5019    -5017    -5020    -5023    -5024    -5024 
   -5023    -5023    -5023    -5023    -5020    -5020    -5022    -5020 
   -5022    -5022    -5019    -5022    -5023    -5022    -5023    -5024 
   -5023    -5022    -5022    -5020    -5020    -5022    -5022    -5020 
   -5022    -5024    -5022    -5020    -5022    -5020    -5022    -5024 
   -5022    -5020    -5023    -5023    -5020    -5019    -5020    -5022 
   -5020    -5020    -5022    -5022    -5022    -5022    -5022    -5022 
   -5023    -5024    -5023    -5024    -5023    -5020    -5020    -5022 
   -5022    -5020    -5019    -5022    -5023    -5019    -5019    -5022 
   -5022    -5022    -5022    -5022    -5022    -5020    -5020    -5023 
   -5023    -5022    -5020    -5022    -5023    -5023    -5022    -5020 
   -5023    -5024    -5023    -5020    -5019    -5020    -5023    -5023 
   -5022    -5023    -5022    -5020    -5020    -5020    -5020    -5023 
   -5023    -5022    -5024    -5026    -5023    -5023    -5024    -5024 
   -5023    -5020    -5022    -5023    -5023    -5023    -5023    -5022 
   -5022    -5020    -5022    -5022    -5022    -5023    -5024    -5022 
   -5020    -5023    -5024    -5022    -5020    -5022    -5023    -5022 
   -5022    -5023    -5023    -5023    -5023    -5023    -5024    -5023 
   -5020    -5020    -5022    -5022    -5022    -5020    -5019    -5020 
   -5022    -5022    -5023    -5024    -5024    -5023    -5022    -5020 
   -5020    -5022    -5020    -5022    -5022    -5022    -5023    -5022 
   -5020    -5020    -5022    -5022    -5023    -5024    -5024    -5023 
   -5023    -5022    -5019    -5020    -5022    -5023    -5022    -5020 
   -5022    -5024    -5023    -5020    -5022    -5024    -5023    -5022 
   -5022    -5022    -5022    -5020    -5020    -5022    -5022    -5022 
   -5022    -5022    -5023    -5023    -5022    -5022    -5023    -5022 
   -5022    -5023    -5023    -5024    -5024    -5022    -5022    -5023 
   -5020    -5019    -5022    -5024    -5023    -5022    -5020    -5022 
   -5023    -5022    -5019    -5022    -5020    -5019    -5020    -5020 
   -5020    -5023    -5022    -5020    -5020    -5019    -5020    -5022 
   -5022    -5022    -5023    -5023    -5022    -5023    -5024    -5020 
   -5019    -5023    -5024    -5024    -5022    -5019    -5020    -5023 
   -5022    -5020    -5020    -5022    -5022    -5022    -5023    -5023 
   -5022    -5022    -5022    -5019    -5020    -5024    -5023    -5020 
   -5022    -5023    -5022    -5022    -5020    -5022    -5024    -5022 
   -5019    -5023    -5024    -5022    -5023    -5023    -5022    -5022 
   -5023    -5023    -5023    -5023    -5024    -5022    -5020    -5023 
   -5022    -5020    -5022    -5022    -5020    -5022    -5022    -5022 
   -5022    -5022    -5020    -5019    -5019    -5020    -5022    -5023 
   -5020    -5019    -5022    -5023    -5022    -5022    -5023    -5020 
   -5022    -5024    -5020    -5017    -5022    -5023    -5020    -5020 
   -5023    -5023    -5022    -5022    -5022    -5022    -5023    -5024 
   -5022    -5022    -5024    -5023    -5020    -5019    -5020    -5024 
   -5023    -5019    -5020    -5020    -5020    -5022    -5022    -5019 
   -5019    -5022    -5022    -5022    -5022    -5020    -5019    -5020 
   -5020    -5020    -5022    -5022    -5020    -5020    -5020    -5020 
   -5020    -5023    -5023    -5022    -5022    -5022    -5022    -5023 
   -5023    -5022    -5022    -5022    -5022    -5024    -5024    -5020 
   -5020    -5022    -5022    -5022    -5020    -5023    -5022    -5020 
   -5022    -5023    -5023    -5022    -5022    -5023    -5022    -5020 
   -5022    -5023    -5022    -5022    -5023    -5023    -5023    -5026 
   -5024    -5022    -5022    -5022    -5020    -5020    -5023    -5022 
   -5022    -5023    -5023    -5020    -5019    -5020    -5019    -5020 
   -5024    -5024    -5022    -5020    -5020    -5023    -5024    -5020 
   -5019    -5022    -5022    -5020    -5022    -5020    -5020    -5022 
   -5023    -5020    -5022    -5022    -5020    -5019    -5022    -5022 
   -5019    -5017    -5020    -5022    -5022    -5022    -5022    -5022 
   -5019    -5019    -5022    -5020    -5019    -5023    -5023    -5019 
   -5022    -5024    -5023    -5022    -5020    -5020    -5022    -5023 
   -5020    -5019    -5019    -5020    -5020    -5023    -5020    -5019 
   -5022    -5022    -5022    -5022    -5022    -5023    -5022    -5020 
   -5023    -5024    -5022    -5020    -5022    -5020    -5019    -5022 
   -5026    -5023    -5020    -5022    -5022    -5022    -5023    -5024 
   -5024    -5023    -5023    -5023    -5022    -5020    -5022    -5024 
   -5023    -5020    -5019    -5020    -5022    -5023    -5022    -5022 
   -5020    -5022    -5024    -5023    -5019    -5020    -5023    -5024 
   -5024    -5023    -5023    -5023    -5020    -5020    -5022    -5022 
   -5023    -5022    -5019    -5020    -5020    -5020    -5020    -5020 
   -5023    -5024    -5022    -5020    -5020    -5020    -5022    -5022 
   -5022    -5023    -5023    -5022    -5023    -5023    -5019    -5020 
   -5023    -5026    -5026    -5023    -5020    -5023    -5024    -5019 
   -5019    -5023    -5022    -5019    -5022    -5023    -5022    -5022 
   -5023    -5022    -5022    -5023    -5020    -5019    -5022    -5022 
   -5022    -5026    -5024    -5020    -5022    -5024    -5023    -5022 
   -5022    -5020    -5022    -5023    -5023    -5019    -5019    -5023 
   -5023    -5022    -5022    -5022    -5023    -5023    -5023    -5022 
   -5019    -5019    -5022    -5020    -5020    -5022    -5023    -5023 
   -5022    -5020    -5020    -5020    -5019    -5020    -5023    -5023 
   -5020    -5020    -5022    -5020    -5019    -5020    -5022    -5022 
   -5022    -5020    -5022    -5022    -5020    -5020    -5022    -5022 
   -5023    -5022    -5022    -5023    -5022    -5020    -5020    -5022 
   -5023    -5023    -5023    -5023    -5023    -5020    -5022    -5024 
   -5023    -5020    -5022    -5023    -5022    -5020    -5020    -5019 
   -5022    -5026    -5024    -5024    -5023    -5022    -5020    -5020 
   -5019    -5019    -5020    -5022    -5023    -5023    -5022    -5022 
   -5024    -5022    -5020    -5023    -5023    -5023    -5024    -5020 
   -5020    -5024    -5024    -5019    -5020    -5023    -5024    -5023 
   -5020    -5022    -5024    -5023    -5020    -5022    -5023    -5023 
   -5023    -5022    -5022    -5023    -5020    -5020    -5022    -5020 
   -5022    -5023    -5023    -5023    -5024    -5023    -5022    -5022 
   -5023    -5023    -5020    -5022    -5023    -5022    -5022    -5022 
   -5020    -5022    -5023    -5022    -5020    -5022    -5023    -5022 
   -5023    -5024    -5022    -5022    -5022    -5023    -5024    -5023 
   -5020    -5022    -5026    -5024    -5020    -5022    -5023    -5022 
   -5022    -5024    -5023    -5022    -5023    -5022    -5022    -5024 
   -5026    -5023    -5020    -5020    -5022    -5023    -5024    -5022 
   -5020    -5022    -5022    -5023    -5023    -5022    -5023    -5023 
   -5023    -5024    -5024    -5022    -5023    -5022    -5020    -5020 
   -5020    -5019    -5020    -5023    -5024    -5023    -5022    -5024 
   -5023    -5023    -5023    -5022    -5022    -5022    -5023    -5022 
   -5022    -5023    -5023    -5023    -5026    -5024    -5023    -5020 
   -5019    -5020    -5022    -5022    -5023    -5022    -5022    -5023 
   -5022    -5020    -5022    -5022    -5022    -5022    -5022    -5023 
   -5023    -5023    -5023    -5023    -5023    -5024    -5023    -5022 
   -5022    -5024    -5024    -5022    -5022    -5023    -5022    -5020 
   -5022    -5024    -5023    -5023    -5026    -5024    -5022    -5022 
   -5024    -5022    -5022    -5024    -5020    -5019    -5024    -5024 
   -5022    -5022    -5022    -5019    -5023    -5026    -5023    -5022 
   -5024    -5024    -5022    -5022    -5023    -5022    -5022    -5022 
   -5023    -5023    -5020    -5020    -5022    -5022    -5022    -5022 
   -5020    -5023    -5023    -5023    -5022    -5022    -5022    -5022 
   -5022    -5022    -5022    -5022    -5023    -5023    -5022    -5022 
   -5022    -5019    -5020    -5022    -5020    -5019    -5020    -5023 
   -5024    -5022    -5020    -5022    -5023    -5022    -5022    -5024 
   -5026    -5024    -5023    -5022    -5023    -5023    -5022    -5023 
   -5023    -5020    -5020    -5024    -5023    -5022    -5022    -5020 
   -5022    -5023    -5022    -5023    -5022    -5022    -5022    -5019 
   -5016    -5009    -4997    -4985    -4968    -4945    -4920    -4901 
   -4891    -4876    -4857    -4837    -4808    -4779    -4761    -4761 
   -4788    -4845    -4922    -5003    -5067    -5100    -5094    -5057 
   -5001    -4939    -4873    -4799    -4716    -4623    -4521    -4426 
   -4363    -4333    -4347    -4405    -4495    -4581    -4631    -4641 
   -4634    -4618    -4603    -4631    -4742    -4920    -5136    -5367 
   -5606    -5852    -6100    -6338    -6546    -6694    -6714    -6519 
   -6099    -5544    -4990    -4588    -4442    -4554    -4850    -5229 
   -5563    -5733    -5690    -5456    -5081    -4641    -4252    -4000 
   -3846    -3692    -3514    -3343    -3177    -3040    -3048    -3310 
   -3816    -4491    -5248    -5950    -6427    -6570    -6365    -5908 
   -5367    -4900    -4657    -4770    -5216    -5819    -6431    -6972 
   -7354    -7519    -7480    -7242    -6813    -6301    -5825    -5420 
   -5165    -5170    -5400    -5661    -5755    -5595    -5240    -4785 
   -4293    -3886    -3697    -3736    -3932    -4203    -4496    -4801 
   -5119    -5421    -5718    -6070    -6494    -6903    -7196    -7275 
   -7037    -6477    -5782    -5192    -4783    -4449    -4104    -3743 
   -3349    -2932    -2654    -2635    -2785    -3045    -3480    -4024 
   -4464    -4677    -4722    -4692    -4541    -4201    -3859    -3838 
   -4212    -4762    -5242    -5557    -5737    -5773    -5688    -5640 
   -5769    -6030    -6237    -6280    -6215    -6114    -5937    -5594 
   -5105    -4696    -4610    -4806    -4996    -4963    -4726    -4401 
   -4077    -3828    -3724    -3754    -3909    -4228    -4689    -5229 
   -5773    -6166    -6220    -5917    -5448    -5012    -4664    -4415 
   -4324    -4365    -4457    -4619    -4908    -5259    -5559    -5737 
   -5751    -5583    -5274    -4918    -4602    -4364    -4236    -4256 
   -4372    -4537    -4766    -5007    -5177    -5298    -5445    -5605 
   -5638    -5432    -5078    -4750    -4545    -4552    -4801    -5171 
   -5501    -5713    -5821    -5877    -5906    -5911    -5890    -5768 
   -5489    -5109    -4735    -4434    -4228    -4102    -4072    -4155 
   -4290    -4433    -4600    -4764    -4928    -5144    -5343    -5452 
   -5498    -5487    -5420    -5331    -5208    -5047    -4920    -4924 
   -5103    -5387    -5638    -5769    -5694    -5328    -4761    -4260 
   -4027    -4017    -4077    -4133    -4186    -4249    -4371    -4549 
   -4739    -4926    -5076    -5148    -5178    -5202    -5211    -5225 
   -5255    -5231    -5140    -5065    -5019    -4950    -4893    -4936 
   -5097    -5270    -5292    -5097    -4792    -4550    -4488    -4592 
   -4777    -4962    -5144    -5346    -5522    -5603    -5576    -5483 
   -5370    -5239    -5057    -4823    -4594    -4436    -4399    -4506 
   -4741    -5059    -5381    -5620    -5767    -5871    -5917    -5844 
   -5632    -5310    -4938    -4590    -4342    -4256    -4321    -4472 
   -4654    -4828    -4947    -4989    -5003    -5034    -5070    -5125 
   -5202    -5247    -5238    -5205    -5209    -5297    -5431    -5514 
   -5526    -5518    -5506    -5487    -5455    -5378    -5231    -5030 
   -4828    -4699    -4675    -4727    -4820    -4923    -5004    -5058 
   -5086    -5078    -5046    -5011    -4907    -4699    -4473    -4301 
   -4160    -4032    -3905    -3808    -3834    -4037    -4379    -4787 
   -5202    -5586    -5886    -6084    -6178    -6149    -6008    -5836 
   -5674    -5498    -5305    -5155    -5085    -5026    -4885    -4675 
   -4494    -4449    -4544    -4689    -4845    -5011    -5179    -5341 
   -5481    -5574    -5652    -5749    -5795    -5714    -5536    -5340 
   -5150    -4935    -4722    -4598    -4603    -4715    -4893    -5112 
   -5371    -5653    -5864    -5903    -5780    -5584    -5363    -5088 
   -4756    -4434    -4213    -4139    -4175    -4245    -4338    -4496 
   -4684    -4780    -4733    -4629    -4557    -4542    -4576    -4673 
   -4804    -4885    -4901    -4935    -5030    -5147    -5206    -5171 
   -5089    -5028    -5032    -5121    -5236    -5279    -5219    -5088 
   -4953    -4907    -5003    -5177    -5294    -5289    -5231    -5205 
   -5182    -5092    -4949    -4841    -4833    -4914    -5001    -5054 
   -5073    -5080    -5113    -5178    -5219    -5225    -5213    -5171 
   -5093    -4978    -4819    -4645    -4517    -4490    -4568    -4675 
   -4760    -4857    -4997    -5157    -5287    -5317    -5235    -5125 
   -5024    -4946    -4946    -4996    -4972    -4838    -4681    -4592 
   -4587    -4622    -4684    -4787    -4907    -5053    -5224    -5367 
   -5459    -5540    -5624    -5695    -5726    -5698    -5595    -5414 
   -5211    -5062    -4957    -4851    -4780    -4781    -4810    -4811 
   -4823    -4895    -5011    -5155    -5292    -5327    -5278    -5262 
   -5293    -5341    -5424    -5516    -5522    -5394    -5209    -5074 
   -4986    -4915    -4901    -4950    -4984    -4958    -4909    -4888 
   -4914    -4976    -5003    -4928    -4792    -4685    -4654    -4691 
   -4803    -4974    -5101    -5097    -5005    -4916    -4851    -4816 
   -4839    -4876    -4858    -4822    -4797    -4749    -4695    -4672 
   -4662    -4657    -4679    -4737    -4796    -4814    -4774    -4703 
   -4642    -4639    -4712    -4839    -5012    -5220    -5417    -5548 
   -5562    -5472    -5351    -5239    -5146    -5082    -5023    -4953 
   -4935    -5000    -5069    -5104    -5158    -5221    -5209    -5111 
   -4984    -4891    -4864    -4892    -4970    -5121    -5297    -5385 
   -5360    -5283    -5205    -5185    -5243    -5319    -5381    -5456 
   -5518    -5490    -5356    -5189    -5067    -5013    -4981    -4914 
   -4807    -4675    -4536    -4464    -4499    -4588    -4679    -4781 
   -4893    -4984    -5043    -5081    -5119    -5174    -5196    -5109 
   -4954    -4866    -4903    -5004    -5128    -5270    -5397    -5482 
   -5521    -5522    -5487    -5393    -5242    -5096    -5004    -4949 
   -4874    -4754    -4645    -4621    -4652    -4675    -4699    -4722 
   -4711    -4702    -4750    -4808    -4814    -4791    -4762    -4727 
   -4722    -4781    -4850    -4847    -4787    -4734    -4706    -4684 
   -4665    -4662    -4707    -4806    -4928    -5046    -5146    -5223 
   -5287    -5333    -5344    -5308    -5217    -5108    -5026    -4973 
   -4946    -4959    -5011    -5071    -5100    -5081    -5066    -5090 
   -5140    -5186    -5197    -5158    -5086    -5038    -5044    -5084 
   -5105    -5096    -5088    -5104    -5109    -5070    -5031    -5049 
   -5139    -5262    -5360    -5429    -5467    -5435    -5335    -5211 
   -5092    -4955    -4811    -4735    -4753    -4814    -4895    -4997 
