Origin Time       2024/04/02 04:24:00
Lat.              40.133
Long.             141.712
Depth. (km)       71
Mag.              6.0
Station Code      AKT023
Station Lat.      39.1464
Station Long.     140.7161
Station Height(m) 277
Record Time       2024/04/02 04:25:00
Sampling Freq(Hz) 100Hz
Duration Time(s)  97
Dir.              U-D
Scale Factor      7845(gal)/8223790
Max. Acc. (gal)   5.662
Last Correction   2024/04/02 04:25:00
Memo.             
[...]
   35610    35901    36432    36752    36568    36127    35792    35769 
   36069    36509    36840    36886    36679    36391    36026    35541 
   35102    34821    34677    34665    34769    34966    35172    35149 
   34792    34330    34078    34186    34560    34959    35206    35282 
   35303    35383    35557    35897    36351    36618    36548    36321 
   36120    35978    35885    35826    35804    35834    35880    35935 
   36031    36061    35941    35815    35783    35795    35829    35807 
   35567    35149    34921    35068    35266    35154    34731    34226 
   33978    34172    34535    34636    34452    34383    34676    35156 
   35600    35974    36271    36401    36238    35789    35307    35004 
   34905    35068    35513    35932    35976    35716    35507    35553 
   35856    36267    36491    36282    35757    35357    35407    35775 
   36046    35953    35588    35239    35154    35349    35536    35498 
   35341    35166    34906    34604    34415    34449    34743    35151 
   35397    35426    35451    35617    35830    35861    35599    35221 
   34997    35014    35182    35314    35284    35267    35577    36165 
   36630    36664    36331    36016    35992    36086    36046    35819 
   35491    35262    35320    35617    35881    35849    35507    35132 
   34987    35032    35019    34911    34898    34986    35016    34901 
   34632    34438    34650    35155    35537    35626    35480    35213 
   35023    35068    35302    35546    35642    35563    35491    35640 
   35989    36301    36315    36004    35623    35403    35417    35588 
   35641    35401    35054    34815    34770    34993    35321    35410 
   35294    35266    35326    35334    35310    35313    35341    35376 
   35440    35581    35749    35810    35753    35665    35595    35613 
   35726    35820    35819    35741    35714    35897    36135    36066 
   35719    35433    35387    35500    35534    35409    35357    35460 
   35511    35401    35155    34938    35006    35345    35622    35599 
   35374    35212    35201    35314    35564    35785    35773    35644 
   35615    35803    36184    36440    36254    35783    35405    35232 
   35209    35316    35444    35394    35152    34915    34785    34692 
   34607    34600    34743    35008    35272    35476    35603    35595 
   35480    35421    35487    35545    35406    35122    35014    35259 
   35661    35873    35719    35453    35463    35718    35935    35989 
   35877    35621    35368    35329    35580    35958    36134    35923 
   35448    34996    34798    34888    35054    35044    34838    34623 
   34561    34730    35118    35500    35587    35411    35302    35422 
   35596    35664    35687    35741    35777    35752    35665    35584 
   35617    35733    35793    35703    35469    35245    35174    35156 
   35087    35067    35160    35272    35295    35259    35336    35650 
   36143    36609    36780    36501    35932    35419    35172    35214 
   35479    35803    35937    35753    35444    35302    35378    35492 
   35460    35251    34973    34690    34492    34614    35055    35446 
   35580    35577    35560    35540    35533    35565    35604    35590 
   35563    35615    35739    35865    35887    35711    35448    35270 
   35128    35001    35079    35426    35822    36076    36198    36243 
   36140    35830    35415    35062    34831    34724    34757    34900 
   35098    35343    35549    35573    35521    35610    35760    35773 
   35723    35731    35741    35765    35895    36012    35889    35510 
   35136    35105    35446    35823    35957    35837    35591    35436 
   35452    35413    35213    35060    35077    35240    35498    35684 
   35696    35634    35608    35634    35648    35600    35550    35541 
   35506    35360    35085    34762    34508    34348    34256    34283 
   34504    34851    35155    35284    35221    35095    35064    35136 
   35318    35656    35999    36139    36053    35837    35687    35718 
   35719    35527    35341    35356    35540    35766    35850    35681 
   35428    35290    35264    35345    35568    35789    35822    35698 
   35556    35461    35418    35374    35290    35257    35333    35349 
   35158    34889    34749    34813    35041    35293    35441    35476 
   35414    35289    35190    35140    35098    35117    35206    35282 
   35399    35637    35870    35988    36020    35977    35911    35999 
   36243    36375    36259    36104    36092    36072    35878    35631 
   35522    35522    35473    35390    35390    35376    35213    35062 
   35051    35047    35001    35028    35235    35607    35934    36011 
   35873    35695    35622    35692    35853    35980    35874    35483 
   35143    35235    35661    36063    36225    36120    35876    35646 
   35406    35091    34782    34568    34443    34452    34650    34969 
   35194    35164    34990    34909    34975    35110    35259    35361 
   35403    35455    35503    35429    35209    34965    34840    34950 
   35245    35540    35754    35900    35903    35804    35834    36023 
   36169    36185    36057    35741    35424    35370    35492    35550 
   35467    35321    35248    35245    35208    35160    35175    35236 
   35344    35467    35552    35646    35784    35864    35712    35313 
   34974    35032    35413    35739    35785    35634    35530    35630 
   35896    36136    36090    35708    35325    35244    35391    35577 
   35685    35631    35472    35363    35363    35436    35509    35534 
   35550    35563    35484    35260    34942    34669    34551    34570 
   34628    34719    34901    35125    35253    35274    35361    35668 
   36073    36302    36296    36143    35860    35572    35461    35451 
   35376    35237    35082    34946    34885    34939    35106    35309 
   35371    35203    34977    34905    35012    35217    35455    35641 
   35700    35614    35486    35498    35680    35856    35904    35877 
   35820    35703    35499    35233    35050    35139    35451    35712 
   35745    35627    35536    35532    35610    35775    35891    35795 
   35592    35480    35496    35586    35676    35779    35896    35797 
   35402    35059    35046    35287    35567    35677    35602    35502 
   35409    35225    35033    35056    35314    35579    35695    35706 
   35694    35718    35758    35714    35602    35527    35518    35517 
   35488    35452    35399    35305    35221    35236    35394    35694 
   36009    36130    35961    35581    35214    35082    35120    35098 
   35064    35183    35320    35287    35198    35247    35448    35660 
   35671    35448    35253    35266    35349    35365    35338    35322 
   35372    35542    35748    35833    35833    35876    35930    35891 
   35710    35457    35289    35237    35247    35302    35359    35370 
   35347    35279    35131    34963    34942    35106    35320    35425 
   35343    35121    34992    35213    35735    36175    36269    36140 
   35977    35792    35603    35457    35360    35301    35236    35140 
   35102    35230    35526    35835    35986    35957    35799    35560 
   35357    35220    35071    35071    35406    35815    35889    35604 
   35162    34724    34504    34578    34730    34790    34784    34786 
   34951    35279    35486    35465    35425    35521    35753    35985 
   36092    36116    36094    35914    35595    35390    35463    35784 
   36244    36614    36713    36585    36310    35905    35463    35132 
   34958    34919    34981    35013    34958    34962    35021    34943 
   34788    34784    34983    35325    35684    35885    35850    35610 
   35252    34950    34847    34950    35117    35179    35108    35031 
   35089    35274    35417    35398    35247    35066    34959    35017 
   35280    35641    35874    35924    35923    35918    35846    35692 
   35505    35365    35324    35351    35428    35496    35419    35252 
   35225    35353    35468    35529    35563    35529    35471    35553 
   35804    36078    36232    36185    35934    35635    35488    35484 
   35505    35621    35896    36184    36390    36467    36325    36062 
   35846    35611    35274    34911    34643    34653    35056    35611 
   35884    35743    35445    35236    35140    35141    35213    35220 
   35089    34896    34709    34647    34809    35131    35537    35954 
   36153    36078    35985    35980    35895    35644    35361    35224 
   35272    35395    35473    35453    35356    35325    35446    35552 
   35455    35226    35020    34886    34900    35145    35530    35816 
   35830    35592    35221    34862    34801    35137    35480    35560 
   35560    35554    35390    35162    35118    35224    35181    34877 
   34593    34618    34921    35341    35694    35776    35615    35473 
   35468    35464    35360    35270    35351    35602    35869    35999 
   35951    35745    35432    35170    35125    35259    35375    35357 
   35291    35305    35426    35608    35721    35684    35575    35432 
   35245    35104    35091    35217    35441    35619    35653    35691 
   35911    36228    36431    36462    36379    36221    35964    35607 
   35325    35305    35472    35631    35699    35676    35557    35337 
   35033    34757    34676    34865    35189    35386    35387    35302 
   35151    35012    35044    35158    35210    35324    35586    35904 
   36094    35934    35518    35283    35413    35696    35897    35870 
   35619    35360    35220    35095    34962    34981    35245    35584 
   35703    35519    35170    34812    34622    34704    34987    35314 
   35526    35581    35681    36012    36418    36579    36401    36070 
   35800    35692    35714    35703    35532    35247    35052    35199 
   35660    36039    36078    35915    35737    35667    35779    35922 
   35891    35718    35549    35465    35451    35382    35206    35006 
   34812    34696    34834    35132    35302    35301    35220    35104 
   35029    34992    34929    34944    35195    35603    35885    35887 
   35742    35708    35872    36003    35908    35811    35922    36062 
   36045    35908    35685    35434    35286    35226    35194    35260 
   35438    35606    35658    35534    35245    34993    34983    35131 
   35228    35280    35338    35274    35116    35174    35480    35695 
   35619    35378    35206    35276    35544    35812    35968    36011 
   35958    35842    35642    35264    34815    34588    34649    34846 
   35133    35500    35846    36093    36265    36391    36435    36391 
   36321    36220    36086    35993    35946    35876    35764    35576 
   35263    34931    34838    35113    35604    36085    36412    36401 
   36005    35553    35343    35283    35190    35044    34912    34855 
   34816    34705    34593    34674    35014    35401    35590    35631 
   35677    35737    35757    35657    35417    35199    35133    35091 
   34911    34638    34528    34744    35101    35356    35510    35629 
   35727    35841    35943    35964    35872    35696    35517    35418 
   35488    35710    35915    36036    36159    36292    36337    36180 
   35851    35637    35675    35660    35293    34788    34557    34619 
   34773    34979    35185    35252    35255    35353    35522    35660 
   35735    35737    35739    35818    35846    35758    35761    35915 
   36009    35922    35685    35344    34959    34630    34419    34334 
   34295    34192    34037    33952    33975    34040    34111    34200 
   34333    34527    34717    34753    34566    34280    34095    34125 
   34283    34447    34666    35014    35424    35781    35982    35995 
   36003    36155    36248    36069    35796    35726    35918    36320 
   36887    37486    37903    37928    37527    36965    36541    36339 
   36343    36479    36536    36421    36275    36170    36065    36003 
   36023    36073    36131    36217    36366    36591    36732    36602 
   36248    35768    35302    35122    35248    35322    35110    34743 
   34503    34476    34489    34414    34310    34229    34129    34003 
   33979    34145    34368    34495    34481    34287    34014    33955 
   34192    34470    34605    34707    34877    35013    34986    34820 
   34611    34358    33975    33543    33388    33755    34551    35402 
   35865    35727    35212    34758    34603    34669    34790    34867 
   34916    35051    35311    35553    35646    35676    35797    36076 
   36450    36744    36818    36647    36321    36008    35780    35603 
   35414    35139    34839    34793    35179    35888    36601    36848 
   36390    35546    34889    34751    35050    35514    36019    36553 
   37015    37323    37574    37889    38288    38738    39046    38973 
   38526    37809    36976    36382    36192    36097    35783    35244 
   34649    34225    34142    34389    34848    35406    35946    36302 
   36343    36063    35459    34647    34011    33835    34076    34554 
   35017    35237    35187    35035    34854    34489    33855    33129 
   32522    32250    32470    33046    33744    34522    35239    35479 
   35012    34155    33481    33351    33659    34001    34061    33802 
   33538    33755    34593    35727    36771    37531    37953    38021 
   37852    37733    37883    38314    38765    38862    38674    38622 
   38747    38726    38311    37419    36290    35394    34882    34546 
   34234    34094    34396    35078    35671    35812    35634    35614 
   36092    36841    37287    37133    36501    35530    34306    33126 
   32325    31815    31284    30697    30153    29706    29519    29830 
   30786    32324    34177    35986    37222    37432    37004    36829 
   37152    37702    38295    38686    38788    38850    38951    38970 
   38830    38362    37531    36671    36080    35695    35386    35305 
   35716    36517    37165    37195    36705    36300    36406    36813 
   37089    37183    37312    37532    37702    37802    37947    38048 
   37908    37585    37314    37114    36714    35919    34897    34038 
   33570    33399    33262    32911    32329    31801    31544    31492 
   31715    32360    33147    33573    33555    33474    33747    34501 
   35398    35842    35603    34986    34314    33679    33211    33087 
   33196    33250    33196    33222    33458    33871    34358    34960 
   35743    36533    37141    37608    37997    38234    38207    37945 
   37666    37476    37269    36925    36455    36073    35978    36022 
   35941    35708    35440    35233    35098    34951    34797    34743 
   34825    35058    35387    35688    36092    36844    37809    38632 
   39081    38898    37937    36499    35158    34294    33951    33891 
   33740    33277    32587    31918    31509    31509    31834    32063 
   31858    31534    31594    32007    32503    32919    33048    32864 
   32671    32795    33386    34323    35294    36159    36948    37531 
   37763    37775    37825    37980    38082    38034    37899    37682 
   37449    37457    37790    38210    38468    38454    38118    37489 
   36755    36165    35783    35500    35293    35248    35434    35793 
   36117    36224    36190    36279    36691    37377    38005    38286 
   38344    38545    39029    39465    39297    38400    37206    36077 
   35105    34315    33706    33292    33123    33156    33291    33436 
   33505    33590    33797    33899    33666    33166    32482    31727 
   31186    30912    30708    30524    30395    30400    30694    31224 
   31727    32134    32643    33500    34678    35927    37126    38286 
   39247    39645    39283    38466    37689    37218    37243    37886 
   38873    39699    40066    39872    39094    37982    37042    36567 
   36479    36567    36674    36784    36860    36733    36406    36105 
   35885    35560    35063    34546    34217    34187    34368    34558 
   34659    34647    34561    34518    34479    34257    33922    33735 
   33843    34231    34711    35060    35205    35098    34777    34447 
   34226    34065    33967    33957    33967    34006    34310    35006 
   35811    36463    36991    37334    37295    36873    36235    35677 
   35591    35964    36317    36408    36481    36791    37238    37594 
   37809    37893    37720    37210    36575    36198    36205    36321 
   36244    35934    35523    35055    34422    33693    33154    33007 
   33311    33863    34165    34024    33813    33805    33870    33929 
   34067    34300    34568    34823    35139    35592    35978    35992 
   35706    35503    35627    35941    36180    36319    36474    36747 
   37265    37886    38198    38172    38079    37808    37192    36487 
   35858    35181    34480    33928    33679    33872    34318    34492 
   34195    33733    33412    33328    33377    33311    33173    33330 
   33851    34447    34890    35164    35365    35421    35121    34595 
   34303    34418    34680    34812    34759    34707    34915    35330 
   35650    35781    35860    35916    35834    35559    35268    35298 
   35791    36474    36983    37203    37216    37104    36879    36647 
   36640    36921    37254    37307    36980    36556    36346    36385 
   36661    37098    37296    36938    36220    35573    35340    35634 
   36161    36350    35911    35085    34285    33652    33064    32552 
   32401    32746    33392    34003    34334    34404    34447    34638 
   34948    35235    35368    35360    35326    35347    35426    35526 
   35583    35467    35168    34946    35013    35313    35702    36018 
   36067    35807    35434    35244    35383    35645    35703    35586 
   35533    35568    35438    34923    34275    34114    34647    35472 
   36117    36331    36209    36126    36274    36514    36614    36495 
   36431    36780    37435    37955    38078    37835    37484    37272 
   37181    37080    36890    36598    36370    36366    36536    36799 
   37021    36991    36742    36382    35819    35104    34423    33810 
   33363    33227    33204    33027    32786    32749    33026    33416 
   33628    33683    33831    34029    33986    33643    33239    32999 
   33003    33177    33349    33508    33818    34379    35216    36185 
   36894    37164    37188    37081    36823    36629    36745    37026 
   37143    36957    36563    36297    36571    37382    38133    38250 
   37837    37401    37214    37227    37282    37210    36949    36643 
   36445    36333    36263    36188    35873    35199    34477    34084 
   34110    34407    34690    34719    34483    34163    33860    33467 
   32921    32451    32310    32490    32876    33324    33659    33909 
   34236    34569    34809    35028    35239    35391    35546    35694 
   35692    35526    35324    35149    35089    35208    35256    34970 
   34527    34250    34256    34537    34987    35415    35700    35908 
   36089    36130    36022    36000    36306    36925    37459    37481 
   37166    37110    37426    37702    37648    37269    36783    36490 
   36413    36437    36616    36914    37072    36859    36242    35476 
   34942    34770    34788    34674    34369    34261    34543    34905 
   35133    35271    35301    35232    35148    35002    34678    34237 
   33928    33944    34141    34265    34375    34650    35023    35290 
   35398    35495    35644    35607    35278    34979    35085    35629 
   36283    36582    36369    35926    35544    35361    35452    35726 
