Origin Time       2024/04/02 04:24:00
Lat.              40.133
Long.             141.712
Depth. (km)       71
Mag.              6.0
Station Code      AKT021
Station Lat.      39.9940
Station Long.     140.4035
Station Height(m) 119
Record Time       2024/04/02 04:24:56
Sampling Freq(Hz) 100Hz
Duration Time(s)  84
Dir.              E-W
Scale Factor      7845(gal)/8223790
Max. Acc. (gal)   3.618
Last Correction   2024/04/02 04:24:57
Memo.             
[...]
   -3612    -3476    -3410    -3399    -3396    -3348    -3230    -3064 
   -2906    -2814    -2795    -2783    -2713    -2571    -2384    -2166 
   -1917    -1653    -1452    -1375    -1399    -1453    -1494    -1509 
   -1478    -1390    -1279    -1223    -1243    -1310    -1402    -1510 
   -1626    -1761    -1964    -2266    -2609    -2895    -3106    -3276 
   -3412    -3499    -3542    -3549    -3520    -3424    -3204    -2856 
   -2463    -2151    -1998    -1973    -2047    -2262    -2636    -3073 
   -3415    -3596    -3680    -3704    -3608    -3364    -3071    -2870 
   -2794    -2781    -2836    -3014    -3298    -3557    -3640    -3488 
   -3121    -2636    -2178    -1825    -1586    -1499    -1572    -1726 
   -1880    -1999    -2122    -2272    -2359    -2361    -2458    -2816 
   -3325    -3736    -3928    -3919    -3767    -3514    -3241    -3056 
   -2930    -2758    -2543    -2388    -2416    -2679    -3001    -3118 
   -2983    -2720    -2388    -1999    -1686    -1583    -1702    -2042 
   -2600    -3260    -3817    -4095    -4112    -4036    -3982    -3898 
   -3657    -3287    -2986    -2864    -2872    -2917    -3019    -3279 
   -3597    -3727    -3626    -3423    -3176    -2876    -2560    -2351 
   -2381    -2639    -2938    -3075    -2997    -2756    -2382    -1972 
   -1702    -1590    -1521    -1513    -1640    -1788    -1755    -1472 
   -1108     -885     -864    -1003    -1331    -1863    -2436    -2795 
   -2897    -3018    -3397    -3919    -4243    -4153    -3728    -3226 
   -2930    -2910    -2910    -2732    -2471    -2305    -2278    -2357 
   -2620    -3196    -3947    -4519    -4672    -4480    -4213    -3956 
   -3627    -3291    -3105    -3073    -3041    -2914    -2739    -2492 
   -2215    -2231    -2682    -3254    -3576    -3547    -3230    -2608 
   -1684     -729     -126     -164     -864    -1858    -2776    -3547 
   -4139    -4469    -4550    -4425    -4085    -3576    -3034    -2556 
   -2131    -1885    -2000    -2308    -2492    -2501    -2411    -2238 
   -1973    -1702    -1611    -1814    -2234    -2687    -2983    -2986 
   -2737    -2423    -2197    -2218    -2604    -3218    -3789    -4239 
   -4642    -5004    -5147    -4922    -4426    -3829    -3241    -2651 
   -1989    -1418    -1182    -1182    -1111     -965    -1086    -1539 
   -1902    -1879    -1644    -1567    -1764    -2054    -2443    -3044 
   -3685    -4032    -3820    -3132    -2377    -1722    -1197    -1047 
   -1244    -1540    -1869    -2052    -1952    -1823    -1923    -2293 
   -2932    -3820    -4702    -5086    -4922    -4688    -4500    -4089 
   -3396    -2612    -2068    -1923    -1922    -1840    -1763    -1861 
   -2203    -2787    -3658    -4671    -5424    -5564    -4926    -3727 
   -2547    -1792    -1525    -1672    -2045    -2344    -2389    -2362 
   -2471    -2582    -2658    -2949    -3450    -3839    -3847    -3508 
   -3165    -2961    -2637    -2074    -1553    -1360    -1451    -1566 
   -1513    -1316    -1182    -1247    -1379    -1516    -1819    -2335 
   -2924    -3543    -4155    -4639    -4958    -5034    -4734    -4276 
   -4043    -3886    -3577    -3393    -3389    -3210    -2918    -2853 
   -2960    -2929    -2690    -2413    -2214    -2180    -2393    -2770 
   -3029    -2933    -2635    -2486    -2574    -2673    -2587    -2369 
   -2106    -1753    -1518    -1680    -1938    -1902    -1664    -1395 
   -1282    -1483    -1888    -2207    -2212    -2096    -2227    -2492 
   -2589    -2501    -2369    -2276    -2215    -2289    -2620    -3044 
   -3234    -3033    -2629    -2436    -2668    -3109    -3380    -3434 
   -3622    -4023    -4294    -4438    -4754    -5189    -5441    -5368 
   -5107    -4780    -4321    -3753    -3175    -2716    -2667    -2917 
   -2845    -2313    -1776    -1552    -1516    -1379    -1138     -969 
    -972    -1169    -1443    -1711    -2058    -2405    -2532    -2438 
   -2282    -2196    -2203    -2172    -2018    -1935    -2115    -2396 
   -2577    -2682    -2731    -2670    -2619    -2764    -3037    -3229 
   -3312    -3342    -3326    -3322    -3380    -3458    -3414    -3234 
   -3094    -2926    -2695    -2656    -2771    -2837    -2856    -2837 
   -2860    -3053    -3410    -3723    -3763    -3631    -3496    -3194 
   -2614    -2006    -1629    -1555    -1771    -2057    -2119    -2025 
   -1925    -1776    -1651    -1703    -2007    -2346    -2398    -2365 
   -2631    -3057    -3272    -3152    -2901    -2740    -2548    -2207 
   -1957    -1964    -2026    -1980    -2022    -2332    -2727    -2984 
   -3199    -3505    -3765    -3786    -3630    -3439    -3254    -3148 
   -3211    -3383    -3584    -3828    -4052    -4102    -3931    -3734 
   -3662    -3607    -3514    -3466    -3396    -3153    -2739    -2357 
   -2149    -1917    -1540    -1291    -1378    -1691    -1972    -2093 
   -2255    -2497    -2544    -2462    -2527    -2706    -2785    -2741 
   -2848    -3160    -3291    -3069    -2729    -2525    -2516    -2519 
   -2415    -2274    -2137    -1984    -1856    -1931    -2342    -2972 
   -3612    -4060    -4252    -4187    -3739    -3080    -2770    -3009 
   -3451    -3736    -3898    -4078    -4151    -4029    -3875    -3735 
   -3462    -3038    -2668    -2608    -2766    -2766    -2462    -1933 
   -1354     -935     -664     -587     -877    -1332    -1699    -2002 
   -2149    -2128    -2133    -2128    -2020    -1896    -1833    -1898 
   -2093    -2336    -2597    -2783    -2771    -2609    -2457    -2416 
   -2481    -2598    -2721    -2839    -3032    -3300    -3414    -3294 
   -3208    -3272    -3254    -3075    -2955    -3030    -3140    -3118 
   -3098    -3237    -3412    -3491    -3491    -3404    -3168    -2889 
   -2810    -2978    -3256    -3555    -3721    -3665    -3514    -3342 
   -3184    -3065    -2891    -2623    -2415    -2334    -2276    -2281 
   -2419    -2536    -2509    -2330    -1993    -1568    -1190    -1036 
   -1132    -1290    -1471    -1772    -2092    -2358    -2635    -2852 
   -2837    -2570    -2351    -2498    -2899    -3316    -3721    -4039 
   -4113    -3969    -3869    -3935    -3896    -3593    -3237    -2943 
   -2652    -2413    -2223    -1927    -1563    -1351    -1301    -1310 
   -1406    -1680    -2133    -2608    -3021    -3508    -3993    -4139 
   -3924    -3650    -3469    -3337    -3264    -3271    -3215    -3019 
   -2787    -2613    -2470    -2343    -2373    -2527    -2585    -2570 
   -2573    -2636    -2713    -2659    -2621    -2822    -3149    -3427 
   -3530    -3499    -3464    -3346    -3137    -2997    -2975    -2987 
   -2928    -2802    -2694    -2683    -2785    -2799    -2604    -2492 
   -2659    -2817    -2812    -2880    -3002    -2843    -2517    -2513 
   -2859    -3210    -3406    -3457    -3357    -3110    -2822    -2629 
   -2565    -2500    -2236    -1768    -1341    -1232    -1471    -1822 
   -2172    -2592    -2986    -3169    -3115    -3014    -3145    -3419 
   -3527    -3478    -3354    -3100    -2768    -2486    -2340    -2338 
   -2478    -2721    -2768    -2432    -1917    -1482    -1324    -1440 
   -1705    -2070    -2303    -2188    -2045    -2196    -2501    -2709 
   -2856    -3098    -3285    -3257    -3157    -3072    -2961    -2825 
   -2702    -2700    -2866    -3125    -3342    -3330    -3100    -2859 
   -2659    -2519    -2551    -2708    -2810    -2751    -2501    -2080 
   -1595    -1273    -1213    -1332    -1594    -1957    -2304    -2562 
   -2728    -2882    -3072    -3238    -3352    -3375    -3303    -3254 
   -3229    -3161    -3153    -3273    -3399    -3474    -3611    -3753 
   -3643    -3312    -3037    -2928    -2965    -3087    -3173    -3142 
   -3052    -3094    -3237    -3211    -3034    -2909    -2855    -2820 
   -2794    -2793    -2748    -2494    -2080    -1807    -1883    -2199 
   -2550    -2889    -3202    -3403    -3504    -3516    -3298    -2855 
   -2342    -1899    -1792    -2096    -2452    -2592    -2583    -2559 
   -2524    -2446    -2421    -2509    -2583    -2600    -2594    -2504 
   -2355    -2309    -2430    -2663    -2979    -3331    -3499    -3325 
   -2988    -2739    -2581    -2400    -2274    -2330    -2490    -2605 
   -2575    -2471    -2477    -2565    -2624    -2663    -2768    -3072 
   -3416    -3558    -3611    -3663    -3623    -3429    -3196    -3191 
   -3364    -3362    -3055    -2586    -2220    -2106    -2093    -2093 
   -2164    -2227    -2187    -2069    -1917    -1767    -1691    -1733 
   -1849    -2000    -2174    -2315    -2377    -2407    -2504    -2741 
   -3115    -3518    -3777    -3856    -3809    -3667    -3566    -3631 
   -3692    -3555    -3287    -2991    -2697    -2427    -2211    -2095 
   -2085    -2126    -2157    -2164    -2257    -2527    -2770    -2793 
   -2728    -2644    -2471    -2262    -2150    -2297    -2685    -3042 
   -3276    -3480    -3592    -3520    -3356    -3316    -3458    -3601 
   -3657    -3650    -3497    -3140    -2656    -2235    -2037    -2039 
   -2073    -1992    -1831    -1750    -1706    -1621    -1728    -2162 
   -2666    -3021    -3264    -3370    -3235    -2951    -2790    -2886 
   -3159    -3496    -3771    -3905    -3925    -3773    -3356    -2859 
   -2668    -2836    -2920    -2654    -2284    -2046    -1888    -1738 
   -1678    -1791    -1992    -2127    -2216    -2400    -2679    -2961 
   -3210    -3349    -3287    -3142    -3034    -2829    -2577    -2606 
   -2857    -2999    -3082    -3194    -3159    -2955    -2743    -2608 
   -2525    -2404    -2263    -2238    -2365    -2538    -2628    -2646 
   -2668    -2662    -2610    -2566    -2546    -2525    -2430    -2281 
   -2339    -2686    -3067    -3312    -3438    -3443    -3385    -3331 
   -3287    -3287    -3233    -2961    -2538    -2143    -1902    -1831 
   -1983    -2380    -2745    -2891    -3046    -3265    -3329    -3253 
   -3169    -3100    -3046    -2965    -2805    -2585    -2334    -2079 
   -1837    -1628    -1564    -1732    -2010    -2278    -2600    -3038 
   -3443    -3568    -3430    -3303    -3244    -3113    -2968    -2955 
   -2994    -2911    -2751    -2712    -2817    -2941    -3021    -3026 
   -2965    -2870    -2764    -2774    -2920    -2990    -2925    -2845 
   -2758    -2592    -2326    -2047    -1918    -2042    -2361    -2639 
   -2727    -2776    -2899    -2957    -2917    -2926    -3044    -3130 
   -3032    -2857    -2763    -2733    -2787    -2857    -2776    -2601 
   -2475    -2401    -2290    -2084    -1929    -1957    -2007    -1983 
   -2008    -2145    -2367    -2613    -2841    -3087    -3288    -3326 
   -3211    -3084    -3065    -3022    -2829    -2701    -2754    -2758 
   -2604    -2466    -2502    -2606    -2643    -2686    -2752    -2767 
   -2839    -2992    -3051    -3005    -2971    -2918    -2740    -2524 
   -2544    -2845    -3144    -3279    -3312    -3296    -3226    -3129 
   -3045    -2947    -2782    -2578    -2419    -2320    -2282    -2384 
   -2574    -2641    -2633    -2781    -2975    -2925    -2706    -2609 
   -2598    -2511    -2455    -2570    -2771    -2957    -3086    -3113 
   -3042    -2906    -2722    -2571    -2548    -2625    -2697    -2717 
   -2714    -2718    -2756    -2740    -2548    -2323    -2232    -2200 
   -2212    -2365    -2652    -2934    -3098    -3176    -3175    -3026 
   -2798    -2613    -2519    -2535    -2608    -2609    -2490    -2380 
   -2334    -2247    -2173    -2263    -2497    -2736    -2860    -2899 
   -2953    -2997    -2964    -2876    -2778    -2625    -2473    -2519 
   -2729    -2878    -2934    -2960    -3007    -3092    -3126    -3141 
   -3196    -3202    -3084    -2852    -2587    -2332    -2079    -1972 
   -2061    -2215    -2374    -2450    -2381    -2307    -2400    -2600 
   -2687    -2647    -2621    -2592    -2496    -2378    -2301    -2358 
   -2613    -2934    -3125    -3188    -3215    -3229    -3300    -3480 
   -3696    -3786    -3627    -3289    -2911    -2590    -2432    -2523 
   -2867    -3281    -3527    -3586    -3465    -3188    -2948    -2814 
   -2724    -2677    -2685    -2747    -2770    -2679    -2569    -2517 
   -2525    -2575    -2671    -2835    -2956    -2929    -2874    -2871 
   -2859    -2895    -3057    -3281    -3420    -3296    -2975    -2655 
   -2380    -2184    -2108    -2135    -2285    -2559    -2848    -2951 
   -2826    -2647    -2421    -2124    -2004    -2114    -2201    -2200 
   -2172    -2120    -2041    -1926    -1786    -1632    -1502    -1475 
   -1557    -1755    -2025    -2153    -2092    -1989    -1872    -1826 
   -1995    -2308    -2624    -2911    -3179    -3418    -3592    -3701 
   -3771    -3719    -3429    -2934    -2357    -1827    -1564    -1653 
   -1917    -2235    -2629    -3041    -3343    -3484    -3581    -3797 
   -4097    -4302    -4341    -4307    -4206    -3937    -3643    -3473 
   -3241    -2851    -2496    -2215    -1876    -1474    -1074     -689 
    -432     -469     -711     -931    -1117    -1312    -1441    -1497 
   -1598    -1777    -1965    -2188    -2527    -2961    -3335    -3451 
   -3322    -3099    -2832    -2586    -2486    -2563    -2724    -2812 
   -2808    -2774    -2609    -2216    -1699    -1302    -1266    -1478 
   -1622    -1686    -1787    -1981    -2234    -2369    -2413    -2527 
   -2639    -2674    -2687    -2781    -3025    -3254    -3325    -3362 
   -3505    -3751    -3946    -3989    -4008    -4083    -4214    -4368 
   -4473    -4656    -4970    -5287    -5586    -5842    -6002    -6075 
   -6042    -5996    -6106    -6342    -6525    -6529    -6342    -6011 
   -5647    -5327    -4915    -4324    -3775    -3426    -3161    -2844 
   -2486    -2174    -1964    -1848    -1734    -1552    -1337    -1062 
    -693     -386     -248     -194     -172     -236     -407     -714 
   -1210    -1810    -2289    -2573    -2712    -2886    -3315    -3802 
   -3985    -3946    -3954    -4035    -4089    -4145    -4264    -4295 
   -4109    -3802    -3518    -3303    -3076    -2745    -2317    -1798 
   -1225     -733     -406     -272     -247     -221     -248     -407 
    -673    -1028    -1490    -2026    -2502    -2814    -3137    -3672 
   -4236    -4587    -4807    -5013    -5174    -5282    -5413    -5564 
   -5575    -5385    -5135    -4868    -4558    -4252    -3890    -3418 
   -2916    -2458    -2057    -1692    -1333     -962     -629     -454 
    -410     -399     -442     -461     -279       16      118      -91 
    -467     -819    -1063    -1215    -1309    -1378    -1491    -1618 
   -1647    -1613    -1641    -1788    -2023    -2245    -2405    -2581 
   -2839    -3109    -3276    -3319    -3253    -3099    -2911    -2725 
   -2511    -2214    -1872    -1632    -1582    -1692    -1829    -1756 
   -1507    -1393    -1478    -1653    -1869    -2052    -2208    -2363 
   -2442    -2533    -2828    -3281    -3669    -3866    -3989    -4102 
   -4068    -3960    -4005    -4166    -4248    -4167    -4008    -3858 
   -3705    -3601    -3639    -3736    -3743    -3658    -3527    -3299 
   -2976    -2724    -2658    -2714    -2868    -3230    -3786    -4290 
   -4565    -4652    -4533    -4116    -3570    -3204    -3018    -2883 
   -2835    -2821    -2683    -2465    -2254    -1939    -1587    -1459 
   -1385    -1009     -487     -152       25      122      -41     -513 
   -1081    -1655    -2192    -2528    -2682    -2886    -3190    -3450 
   -3604    -3676    -3713    -3743    -3708    -3649    -3816    -4263 
   -4645    -4720    -4541    -4106    -3430    -2743    -2214    -1795 
   -1464    -1266    -1150    -1008     -895     -947    -1205    -1620 
   -2035    -2331    -2570    -2781    -2911    -2992    -3107    -3277 
   -3433    -3473    -3376    -3246    -3123    -2874    -2582    -2587 
   -2955    -3392    -3588    -3462    -3169    -2793    -2378    -2133 
   -2087    -2099    -2142    -2203    -2320    -2620    -3040    -3387 
   -3604    -3766    -3950    -4077    -3890    -3345    -2756    -2428 
   -2392    -2527    -2691    -2739    -2667    -2717    -3040    -3488 
   -3866    -4077    -4118    -4122    -4209    -4325    -4305    -3996 
   -3392    -2675    -2014    -1491    -1167    -1094    -1200    -1201 
    -945     -653     -549     -629     -787     -938    -1151    -1499 
   -1900    -2322    -2764    -3219    -3758    -4294    -4660    -4895 
   -5051    -5132    -5140    -5053    -4896    -4634    -4135    -3472 
   -2855    -2357    -1922    -1503    -1227    -1204    -1301    -1406 
   -1626    -2084    -2675    -3140    -3407    -3618    -3813    -3920 
   -3928    -3994    -4317    -4800    -5148    -5289    -5333    -5301 
   -5032    -4353    -3379    -2424    -1587     -811     -210       82 
     129      -31     -391     -792    -1193    -1705    -2174    -2326 
   -2242    -2299    -2667    -3202    -3770    -4214    -4245    -3771 
   -3005    -2215    -1618    -1348    -1459    -1922    -2521    -2987 
   -3217    -3210    -2992    -2586    -2034    -1460     -943     -450 
     -37      114     -155     -900    -2056    -3431    -4700    -5522 
   -5863    -6004    -6088    -6012    -5726    -5296    -4857    -4563 
   -4410    -4217    -3850    -3368    -2876    -2439    -2088    -1703 
   -1167     -665     -479     -700    -1155    -1499    -1626    -1701 
   -1794    -1910    -2139    -2539    -2995    -3229    -3071    -2706 
   -2447    -2404    -2502    -2643    -2774    -2810    -2609    -2126 
   -1522    -1051     -796     -762    -1077    -1718    -2312    -2492 
   -2282    -1942    -1649    -1525    -1669    -2012    -2524    -3308 
   -4234    -4973    -5398    -5568    -5443    -4942    -4253    -3747 
   -3543    -3424    -3180    -2895    -2651    -2346    -1926    -1420 
    -932     -588     -330     -224     -465     -932    -1412    -1887 
   -2328    -2644    -2798    -2979    -3380    -3846    -4288    -4774 
   -5053    -4811    -4086    -3190    -2431    -1850    -1447    -1416 
   -1821    -2540    -3419    -4207    -4604    -4438    -3839    -3194 
   -2745    -2434    -2184    -1965    -1791    -1803    -2057    -2343 
   -2438    -2431    -2579    -2848    -3002    -3019    -3005    -2926 
   -2705    -2359    -1995    -1715    -1588    -1679    -1979    -2396 
   -2878    -3420    -3936    -4288    -4436    -4432    -4294    -3973 
   -3418    -2716    -2053    -1653    -1748    -2257    -2764    -2956 
   -2803    -2424    -1958    -1525    -1278    -1296    -1524    -1877 
   -2285    -2690    -2928    -2866    -2729    -2829    -3213    -3747 
   -4182    -4347    -4255    -3916    -3402    -2906    -2527    -2231 
   -1964    -1804    -1900    -2191    -2490    -2691    -2814    -2971 
   -3125    -3084    -2889    -2789    -2963    -3397    -3879    -4201 
   -4302    -4193    -3917    -3539    -3198    -3017    -2917    -2759 
   -2489    -2131    -1748    -1410    -1221    -1285    -1588    -2046 
   -2571    -3122    -3690    -4141    -4295    -4259    -4284    -4318 
   -4158    -3842    -3505    -3176    -2875    -2627    -2451    -2408 
   -2504    -2682    -2911    -3056    -2886    -2459    -2131    -2064 
   -2110    -2123    -2138    -2154    -2035    -1756    -1499    -1467 
   -1617    -1730    -1709    -1513    -1151     -869     -881    -1178 
   -1695    -2286    -2774    -3059    -3092    -2961    -2847    -2837 
   -2898    -2968    -3094    -3303    -3434    -3530    -3808    -4163 
