Origin Time       2024/04/02 04:24:00
Lat.              40.133
Long.             141.712
Depth. (km)       71
Mag.              6.0
Station Code      AKT009
Station Lat.      39.8869
Station Long.     139.8467
Station Height(m) 16
Record Time       2024/04/02 04:25:03
Sampling Freq(Hz) 100Hz
Duration Time(s)  104
Dir.              E-W
Scale Factor      7845(gal)/8223790
Max. Acc. (gal)   4.231
Last Correction   2024/04/02 04:25:03
Memo.             
[...]
    4768     4889     4895     4807     4698     4662     4745     4934 
    5186     5443     5671     5871     6034     6141     6188     6191 
    6157     6083     5979     5852     5678     5455     5193     4897 
    4598     4348     4183     4105     4095     4144     4233     4352 
    4491     4622     4718     4791     4858     4934     5049     5235 
    5493     5796     6115     6428     6714     6941     7086     7137 
    7088     6936     6704     6430     6150     5921     5773     5701 
    5667     5632     5555     5413     5184     4874     4530     4224 
    4010     3906     3873     3846     3786     3700     3612     3537 
    3485     3489     3574     3735     3964     4274     4665     5124 
    5633     6154     6610     6939     7118     7142     7018     6789 
    6493     6139     5732     5282     4808     4353     3994     3801 
    3802     3978     4261     4575     4865     5100     5292     5490 
    5707     5922     6095     6177     6149     6038     5887     5722 
    5599     5579     5684     5896     6156     6376     6507     6543 
    6481     6318     6087     5796     5427     4969     4428     3828 
    3245     2767     2467     2380     2486     2735     3069     3433 
    3780     4093     4388     4683     4985     5297     5570     5752 
    5825     5779     5649     5513     5425     5405     5452     5548 
    5670     5819     6046     6354     6694     7021     7271     7368 
    7280     7013     6592     6081     5567     5101     4688     4303 
    3948     3654     3435     3284     3198     3167     3187     3281 
    3465     3701     3935     4124     4247     4307     4352     4432 
    4563     4737     4935     5128     5296     5431     5553     5701 
    5894     6110     6266     6291     6191     6011     5779     5498 
    5178     4835     4506     4241     4068     4005     4091     4326 
    4662     5055     5467     5880     6272     6600     6845     7010 
    7095     7115     7084     7010     6920     6835     6758     6708 
    6694     6700     6693     6666     6635     6619     6594     6516 
    6353     6093     5738     5297     4784     4239     3739     3356 
    3117     3019     3037     3136     3289     3480     3717     4036 
    4453     4942     5431     5854     6173     6385     6519     6579 
    6556     6447     6264     6019     5729     5428     5161     4969 
    4881     4889     4924     4939     4919     4826     4639     4394 
    4141     3924     3774     3704     3693     3721     3812     3991 
    4244     4526     4792     5020     5215     5397     5571     5718 
    5832     5919     5961     5940     5872     5772     5625     5418 
    5151     4843     4567     4367     4249     4228     4301     4440 
    4615     4796     4943     5055     5132     5139     5051     4885 
    4665     4430     4241     4143     4159     4295     4536     4842 
    5173     5508     5852     6219     6578     6868     7038     7075 
    7001     6856     6675     6463     6218     5945     5655     5362 
    5088     4858     4684     4554     4437     4326     4237     4193 
    4207     4302     4482     4729     5023     5362     5728     6085 
    6412     6686     6886     6986     6979     6879     6702     6469 
    6235     6038     5865     5715     5580     5437     5266     5071 
    4853     4619     4409     4256     4162     4110     4104     4148 
    4233     4328     4410     4476     4530     4587     4646     4712 
    4807     4946     5121     5312     5502     5682     5823     5914 
    5958     5973     5968     5933     5863     5775     5682     5584 
    5459     5271     5017     4720     4406     4095     3815     3592 
    3445     3369     3350     3361     3404     3503     3657     3838 
    4036     4256     4502     4764     5024     5263     5479     5692 
    5911     6118     6296     6438     6505     6477     6390     6301 
    6246     6218     6181     6106     5995     5877     5768     5660 
    5537     5383     5193     4985     4804     4679     4618     4619 
    4665     4738     4839     4961     5088     5225     5374     5503 
    5578     5609     5634     5659     5671     5660     5622     5576 
    5530     5470     5389     5328     5325     5387     5503     5649 
    5799     5935     6025     6048     6018     5968     5910     5833 
    5705     5512     5278     5057     4907     4864     4907     5011 
    5136     5228     5262     5256     5233     5228     5262     5309 
    5333     5313     5239     5116     4970     4842     4746     4661 
    4568     4455     4320     4167     4018     3915     3888     3948 
    4083     4237     4356     4436     4488     4542     4612     4683 
    4747     4830     4938     5070     5229     5432     5679     5946 
    6200     6419     6575     6659     6674     6598     6431     6216 
    5980     5732     5493     5279     5105     4990     4926     4881 
    4841     4815     4826     4873     4926     4955     4943     4872 
    4762     4673     4635     4641     4664     4664     4621     4556 
    4504     4467     4428     4383     4348     4347     4382     4442 
    4518     4595     4665     4742     4841     4945     5051     5162 
    5262     5335     5378     5394     5404     5422     5445     5443 
    5400     5343     5304     5300     5317     5325     5313     5285 
    5239     5189     5163     5185     5254     5367     5520     5688 
    5863     6027     6153     6228     6296     6369     6428     6475 
    6498     6489     6484     6505     6529     6534     6501     6424 
    6312     6189     6052     5868     5620     5306     4934     4523 
    4112     3730     3399     3129     2933     2835     2826     2898 
    3046     3273     3589     3994     4453     4922     5373     5788 
    6168     6507     6797     7034     7207     7300     7304     7223 
    7078     6893     6687     6461     6201     5907     5597     5298 
    5039     4851     4734     4658     4596     4541     4492     4460 
    4444     4440     4459     4515     4606     4722     4855     4999 
    5142     5271     5377     5458     5521     5572     5610     5625 
    5613     5562     5468     5337     5196     5054     4904     4757 
    4634     4534     4448     4357     4241     4099     3955     3835 
    3755     3736     3789     3913     4094     4303     4519     4754 
    5004     5247     5493     5749     5999     6242     6461     6623 
    6728     6778     6747     6617     6409     6145     5837     5513 
    5206     4932     4710     4563     4476     4430     4436     4492 
    4580     4689     4823     4995     5220     5479     5722     5913 
    6029     6068     6037     5946     5826     5710     5607     5513 
    5414     5314     5228     5152     5069     4963     4845     4731 
    4626     4526     4433     4348     4279     4255     4306     4452 
    4681     4954     5220     5445     5622     5751     5821     5827 
    5803     5779     5757     5721     5661     5594     5543     5499 
    5456     5422     5412     5420     5451     5498     5536     5541 
    5493     5386     5248     5115     5001     4897     4795     4704 
    4633     4588     4573     4571     4571     4561     4527     4471 
    4418     4398     4444     4575     4756     4941     5088     5165 
    5177     5165     5142     5101     5035     4946     4858     4792 
    4752     4739     4776     4853     4939     5013     5071     5117 
    5144     5139     5089     5012     4947     4903     4860     4824 
    4824     4865     4939     5063     5231     5414     5586     5715 
    5794     5845     5888     5919     5930     5917     5863     5748 
    5586     5414     5282     5208     5159     5105     5031     4936 
    4835     4739     4653     4598     4607     4699     4862     5040 
    5189     5321     5452     5578     5709     5837     5940     6003 
    6025     5994     5922     5868     5868     5908     5968     6042 
    6127     6211     6280     6327     6340     6309     6232     6108 
    5941     5748     5552     5371     5213     5070     4930     4784 
    4627     4464     4315     4203     4136     4121     4149     4209 
    4293     4392     4502     4634     4801     5003     5216     5409 
    5548     5601     5563     5459     5328     5194     5071     4976 
    4912     4870     4845     4843     4866     4919     5005     5101 
    5182     5247     5301     5344     5382     5420     5454     5474 
    5493     5513     5539     5571     5598     5603     5563     5467 
    5329     5184     5050     4951     4900     4889     4916     4977 
    5054     5124     5185     5244     5312     5381     5445     5501 
    5543     5567     5559     5512     5433     5323     5155     4938 
    4693     4464     4303     4230     4222     4257     4324     4429 
    4576     4752     4938     5131     5309     5452     5586     5736 
    5903     6065     6189     6247     6249     6224     6196     6170 
    6158     6151     6110     6006     5861     5702     5532     5337 
    5117     4872     4619     4401     4233     4110     4039     4036 
    4091     4190     4322     4475     4622     4743     4841     4907 
    4942     4955     4959     4968     4989     5026     5062     5094 
    5130     5167     5188     5181     5166     5167     5186     5209 
    5227     5232     5211     5166     5097     4992     4866     4753 
    4669     4619     4618     4675     4779     4926     5115     5331 
    5562     5787     5975     6126     6241     6312     6342     6334 
    6286     6200     6080     5917     5715     5491     5260     5047 
    4870     4730     4629     4571     4553     4575     4608     4621 
    4607     4576     4536     4498     4467     4453     4486     4585 
    4758     5000     5285     5580     5849     6061     6214     6297 
    6303     6227     6084     5895     5697     5520     5370     5238 
    5116     4995     4869     4754     4673     4644     4650     4676 
    4710     4739     4769     4820     4907     5026     5166     5314 
    5458     5590     5718     5850     5979     6103     6231     6347 
    6432     6466     6419     6296     6123     5923     5728     5572 
    5451     5360     5301     5256     5212     5161     5088     4984 
    4853     4714     4581     4452     4322     4214     4148     4116 
    4101     4109     4152     4236     4353     4484     4603     4699 
    4784     4876     4962     5032     5107     5198     5306     5431 
    5551     5637     5679     5692     5678     5613     5502     5373 
    5233     5107     5017     4972     4954     4951     4942     4919 
    4893     4889     4908     4946     5015     5108     5208     5309 
    5414     5520     5609     5656     5655     5611     5535     5431 
    5308     5162     5009     4872     4761     4668     4591     4545 
    4522     4504     4496     4515     4565     4635     4714     4799 
    4888     4977     5071     5182     5294     5391     5456     5475 
    5449     5410     5387     5387     5398     5409     5404     5366 
    5301     5233     5184     5151     5143     5165     5212     5286 
    5383     5485     5572     5644     5688     5683     5624     5524 
    5394     5251     5119     5015     4932     4872     4837     4819 
    4822     4857     4911     4962     5009     5051     5063     5039 
    4997     4950     4922     4932     4977     5058     5190     5346 
    5474     5548     5552     5494     5412     5335     5282     5278 
    5320     5379     5444     5506     5560     5613     5672     5724 
    5746     5753     5755     5738     5698     5645     5584     5520 
    5460     5421     5398     5367     5327     5290     5248     5189 
    5121     5044     4969     4928     4938     4970     4996     5007 
    5012     5011     4990     4949     4895     4837     4788     4750 
    4715     4689     4685     4707     4734     4754     4777     4804 
    4823     4838     4864     4905     4954     5000     5028     5038 
    5057     5105     5173     5251     5340     5424     5485     5528 
    5570     5599     5614     5621     5617     5609     5605     5605 
    5607     5617     5643     5678     5706     5713     5679     5595 
    5479     5339     5173     4986     4796     4610     4450     4340 
    4283     4259     4249     4248     4244     4249     4293     4378 
    4483     4572     4621     4629     4629     4653     4716     4816 
    4919     4999     5054     5113     5185     5269     5378     5516 
    5667     5833     6018     6207     6370     6481     6527     6520 
    6501     6508     6540     6596     6658     6701     6714     6697 
    6650     6589     6528     6478     6462     6490     6548     6623 
    6697     6745     6754     6725     6681     6635     6583     6519 
    6435     6336     6230     6108     5968     5811     5648     5478 
    5313     5162     5034     4926     4830     4734     4631     4542 
    4500     4517     4573     4635     4672     4673     4657     4645 
    4661     4729     4854     5023     5205     5371     5517     5644 
    5737     5798     5848     5907     5991     6116     6292     6508 
    6755     7021     7290     7533     7731     7890     8024     8133 
    8225     8307     8357     8338     8244     8087     7870     7618 
    7360     7095     6814     6517     6207     5880     5533     5170 
    4785     4368     3915     3439     2949     2466     2029     1674 
    1404     1202     1046      920      826      769      764      824 
     950     1123     1333     1572     1819     2084     2378     2686 
    2990     3299     3596     3856     4072     4260     4436     4618 
    4814     5003     5158     5266     5320     5317     5269     5181 
    5062     4938     4819     4676     4495     4290     4081     3878 
    3699     3538     3376     3202     3036     2903     2840     2862 
    2952     3083     3218     3329     3437     3570     3738     3940 
    4179     4432     4668     4869     5031     5158     5274     5394 
    5506     5593     5649     5661     5628     5575     5530     5503 
    5505     5537     5556     5526     5454     5360     5262     5165 
    5076     5008     4961     4930     4916     4915     4905     4877 
    4833     4764     4677     4611     4585     4592     4623     4671 
    4722     4774     4820     4858     4889     4912     4924     4924 
    4920     4918     4915     4923     4962     5024     5101     5186 
    5269     5355     5458     5578     5687     5751     5764     5757 
    5752     5757     5780     5813     5859     5925     6015     6135 
    6296     6482     6654     6779     6856     6880     6840     6743 
    6612     6465     6327     6189     6034     5867     5706     5576 
    5491     5444     5410     5373     5320     5235     5123     4997 
    4850     4675     4491     4341     4260     4243     4261     4293 
    4325     4357     4414     4514     4653     4808     4955     5071 
    5163     5255     5366     5498     5659     5848     6027     6156 
    6230     6266     6281     6284     6277     6262     6247     6242 
    6237     6212     6184     6162     6149     6141     6114     6061 
    6016     6011     6056     6139     6246     6372     6521     6686 
    6836     6951     7038     7095     7111     7074     6978     6848 
    6704     6543     6377     6218     6076     5975     5919     5896 
    5898     5902     5892     5888     5895     5895     5881     5849 
    5796     5740     5705     5703     5740     5802     5867     5900 
    5886     5821     5732     5641     5551     5445     5319     5186 
    5065     4965     4889     4831     4789     4764     4750     4752 
    4773     4803     4816     4795     4745     4681     4622     4581 
    4571     4588     4633     4700     4772     4830     4876     4916 
    4947     4974     4999     5012     5011     5005     5003     5004 
    5012     5032     5051     5077     5125     5182     5223     5238 
    5209     5143     5074     5049     5085     5161     5231     5269 
    5263     5219     5146     5059     4976     4916     4882     4865 
    4870     4909     4980     5073     5179     5305     5447     5575 
    5656     5684     5684     5665     5617     5532     5412     5271 
    5127     4978     4828     4687     4554     4421     4267     4089 
    3910     3766     3670     3613     3577     3557     3557     3573 
    3622     3704     3794     3871     3913     3910     3881     3861 
    3859     3869     3885     3910     3935     3956     3979     4006 
    4041     4104     4201     4322     4449     4564     4648     4710 
    4781     4880     5007     5147     5271     5359     5422     5471 
    5518     5587     5668     5741     5809     5876     5941     6022 
    6143     6293     6447     6590     6723     6858     7015     7192 
    7364     7512     7624     7690     7704     7659     7557     7398 
    7184     6921     6619     6292     5968     5663     5381     5120 
    4877     4641     4411     4209     4044     3909     3805     3747 
    3735     3759     3805     3848     3885     3924     3969     4017 
    4082     4174     4298     4450     4634     4862     5121     5387 
    5630     5823     5957     6053     6122     6151     6147     6129 
    6107     6076     6026     5953     5852     5733     5620     5522 
    5452     5425     5447     5512     5613     5732     5832     5900 
    5960     6025     6084     6135     6189     6239     6276     6305 
    6342     6401     6500     6619     6706     6745     6751     6723 
    6656     6558     6436     6307     6174     6034     5892     5761 
    5655     5568     5463     5302     5081     4822     4573     4379 
    4228     4098     3971     3829     3665     3505     3393     3343 
    3354     3415     3503     3603     3728     3877     4020     4124 
    4159     4131     4060     3960     3861     3784     3754     3794 
    3904     4064     4251     4441     4625     4777     4882     4955 
    5020     5088     5162     5232     5279     5297     5294     5275 
    5243     5200     5165     5170     5220     5278     5310     5296 
    5236     5167     5125     5121     5150     5194     5224     5223 
    5190     5139     5098     5084     5088     5090     5092     5101 
    5115     5128     5150     5179     5192     5170     5113     5016 
    4888     4750     4615     4482     4349     4222     4121     4052 
    4016     4014     4029     4036     4029     4020     4029     4081 
    4171     4278     4379     4484     4600     4723     4858     5023 
    5219     5412     5580     5711     5799     5871     5958     6057 
    6139     6201     6255     6299     6315     6292     6230     6133 
    6000     5833     5644     5449     5259     5084     4920     4768 
    4649     4563     4491     4432     4364     4261     4136     4013 
    3912     3861     3874     3942     4066     4241     4426     4600 
    4773     4943     5113     5292     5463     5622     5786     5948 
    6081     6169     6231     6291     6342     6363     6349     6311 
    6291     6309     6353     6392     6403     6366     6277     6143 
    5983     5822     5691     5603     5547     5512     5494     5481 
    5467     5448     5429     5422     5436     5463     5494     5522 
