Origin Time       2024/04/02 04:24:00
Lat.              40.133
Long.             141.712
Depth. (km)       71
Mag.              6.0
Station Code      AKT018
Station Lat.      39.1937
Station Long.     140.1899
Station Height(m) 114
Record Time       2024/04/02 04:25:04
Sampling Freq(Hz) 100Hz
Duration Time(s)  96
Dir.              U-D
Scale Factor      7845(gal)/8223790
Max. Acc. (gal)   4.092
Last Correction   2024/04/02 04:25:04
Memo.             
[...]
  -10407   -10677   -10754   -10696   -10615   -10612   -10619   -10644 
  -10868   -11182   -11323   -11340   -11323   -11186   -10951   -10767 
  -10621   -10454   -10297   -10187   -10130   -10114   -10168   -10269 
  -10196    -9931    -9856   -10061   -10224   -10299   -10423   -10501 
  -10496   -10511   -10515   -10408   -10197   -10053   -10107   -10210 
  -10281   -10463   -10685   -10783   -10708   -10416   -10088   -10002 
  -10075   -10076    -9996    -9945   -10014   -10242   -10500   -10531 
  -10299   -10114   -10237   -10569   -10871   -10986   -10890   -10735 
  -10685   -10717   -10755   -10808   -10841   -10791   -10638   -10380 
  -10154   -10188   -10451   -10619   -10446   -10130   -10048   -10102 
   -9948    -9745    -9923   -10332   -10517   -10505   -10515   -10500 
  -10443   -10417   -10423   -10488   -10638   -10821   -10936   -10828 
  -10527   -10326   -10287   -10196   -10118   -10214   -10287   -10172 
  -10007    -9919    -9898    -9930   -10030   -10196   -10374   -10505 
  -10561   -10539   -10517   -10546   -10517   -10409   -10368   -10438 
  -10565   -10689   -10732   -10660   -10532   -10427   -10370   -10355 
  -10351   -10322   -10384   -10582   -10636   -10451   -10293   -10297 
  -10400   -10505   -10540   -10604   -10741   -10766   -10602   -10376 
  -10174   -10158   -10453   -10824   -10957   -10843   -10640   -10484 
  -10376   -10189    -9991    -9991   -10166   -10373   -10490   -10440 
  -10346   -10315   -10278   -10277   -10296   -10224   -10238   -10503 
  -10800   -10916   -10852   -10660   -10496   -10497   -10582   -10658 
  -10689   -10606   -10466   -10350   -10224   -10191   -10370   -10586 
  -10639   -10559   -10478   -10470   -10447   -10289   -10093   -10046 
  -10183   -10377   -10513   -10586   -10621   -10644   -10654   -10534 
  -10282   -10160   -10284   -10530   -10809   -11037   -11091   -10951 
  -10710   -10585   -10669   -10754   -10655   -10444   -10207    -9948 
   -9771    -9803   -10007   -10246   -10389   -10396   -10343   -10309 
  -10299   -10299   -10304   -10309   -10305   -10285   -10282   -10285 
  -10274   -10296   -10331   -10334   -10381   -10532   -10662   -10654 
  -10606   -10600   -10558   -10450   -10417   -10624   -10951   -11059 
  -10922   -10795   -10710   -10561   -10431   -10450   -10532   -10519 
  -10444   -10449   -10504   -10473   -10369   -10358   -10461   -10563 
  -10605   -10505   -10278   -10088   -10012   -10077   -10305   -10562 
  -10665   -10555   -10355   -10235   -10177   -10111   -10191   -10459 
  -10670   -10705   -10648   -10540   -10373   -10118    -9828    -9707 
   -9863   -10146   -10359   -10412   -10368   -10351   -10324   -10177 
   -9946    -9799    -9921   -10268   -10534   -10577   -10498   -10415 
  -10412   -10486   -10504   -10428   -10417   -10612   -10887   -10947 
  -10683   -10343   -10215   -10284   -10376   -10469   -10570   -10628 
  -10655   -10658   -10613   -10585   -10532   -10370   -10247   -10246 
  -10260   -10320   -10482   -10616   -10624   -10605   -10679   -10723 
  -10550   -10251   -10012    -9899    -9894    -9941   -10093   -10407 
  -10694   -10697   -10473   -10349   -10436   -10528   -10512   -10454 
  -10386   -10334   -10296   -10212   -10080    -9952    -9910   -10041 
  -10201   -10161   -10026   -10044   -10201   -10366   -10567   -10879 
  -11171   -11245   -11141   -11045   -10980   -10874   -10744   -10561 
  -10253    -9860    -9553    -9556    -9845   -10120   -10326   -10638 
  -10995   -11172   -11091   -10808   -10458   -10247   -10288   -10465 
  -10562   -10544   -10543   -10546   -10417   -10224   -10168   -10238 
  -10285   -10386   -10666   -10935   -11022   -10998   -10906   -10751 
  -10600   -10493   -10440   -10446   -10484   -10536   -10544   -10423 
  -10277   -10320   -10480   -10528   -10470   -10411   -10346   -10274 
  -10224   -10207   -10249   -10326   -10384   -10450   -10550   -10598 
  -10536   -10459   -10411   -10309   -10237   -10291   -10338   -10295 
  -10251   -10315   -10586   -10987   -11214   -11038   -10588   -10274 
  -10289   -10374   -10309   -10253   -10366   -10474   -10412   -10308 
  -10281   -10234   -10075    -9887    -9807    -9842    -9910    -9995 
  -10164   -10386   -10573   -10719   -10786   -10654   -10372   -10146 
  -10075   -10049    -9929    -9783    -9755    -9787    -9883   -10226 
  -10748   -11090   -11068   -10883   -10805   -10855   -10945   -11040 
  -11052   -10983   -10970   -10990   -10885   -10632   -10413   -10438 
  -10704   -10912   -10781   -10422   -10199   -10247   -10308   -10174 
  -10066   -10165   -10303   -10430   -10663   -10913   -11040   -11044 
  -10917   -10666   -10368   -10188   -10199   -10215   -10142   -10111 
  -10138   -10133   -10087   -10044   -10039   -10049   -10025   -10006 
  -10052   -10122   -10143   -10115   -10130   -10274   -10505   -10704 
  -10800   -10760   -10586   -10378   -10258   -10187   -10089   -10006 
   -9973    -9991   -10107   -10288   -10401   -10411   -10370   -10328 
  -10400   -10673   -10997   -11107   -10994   -10851   -10709   -10504 
  -10338   -10284   -10251   -10264   -10389   -10488   -10432   -10243 
  -10004    -9900   -10079   -10403   -10689   -10914   -11105   -11252 
  -11276   -11078   -10740   -10426   -10241   -10281   -10422   -10512 
  -10654   -10740   -10585   -10405   -10378   -10358   -10247   -10172 
  -10305   -10531   -10513   -10269   -10114   -10106   -10025    -9782 
   -9576    -9683   -10104   -10501   -10542   -10292   -10180   -10377 
  -10561   -10517   -10408   -10440   -10694   -11040   -11232   -11195 
  -11044   -10886   -10712   -10488   -10361   -10416   -10476   -10516 
  -10643   -10689   -10531   -10312   -10099    -9891    -9792    -9806 
   -9865   -10012   -10238   -10442   -10633   -10870   -11072   -11101 
  -11011   -10940   -10847   -10693   -10508   -10312   -10174   -10083 
   -9954    -9861    -9921   -10073   -10203   -10318   -10507   -10808 
  -11074   -11159   -11092   -10926   -10692   -10444   -10133    -9740 
   -9574    -9880   -10299   -10369   -10119    -9769    -9567    -9759 
  -10139   -10261   -10142   -10122   -10316   -10547   -10593   -10462 
  -10314   -10220   -10170   -10142   -10188   -10449   -10870   -11133 
  -11065   -10831   -10648   -10609   -10673   -10756   -10820   -10863 
  -10886   -10820   -10671   -10597   -10596   -10516   -10358   -10274 
  -10365   -10492   -10440   -10268   -10142   -10052   -10007   -10098 
  -10281   -10439   -10503   -10484   -10436   -10397   -10463   -10740 
  -11063   -11186   -11209   -11265   -11223   -11018   -10752   -10490 
  -10304   -10234   -10156   -10021    -9985   -10108   -10270   -10346 
  -10308   -10243   -10219   -10189   -10160   -10222   -10359   -10458 
  -10416   -10138    -9745    -9585    -9714    -9934   -10188   -10378 
  -10361   -10249   -10230   -10358   -10596   -10794   -10858   -10885 
  -10948   -10949   -10822   -10665   -10588   -10565   -10525   -10494 
  -10481   -10449   -10424   -10459   -10476   -10374   -10262   -10227 
  -10233   -10358   -10585   -10731   -10697   -10374    -9790    -9386 
   -9506    -9907   -10227   -10399   -10440   -10389   -10338   -10231 
  -10034    -9967   -10149   -10399   -10613   -10913   -11257   -11395 
  -11295   -11178   -11098   -10921   -10682   -10471   -10234    -9972 
   -9795    -9778    -9895    -9999    -9999    -9965   -10039   -10291 
  -10584   -10724   -10714   -10696   -10675   -10555   -10382   -10288 
  -10309   -10446   -10636   -10732   -10662   -10528   -10474   -10451 
  -10288   -10033    -9883    -9919   -10088   -10224   -10247   -10249 
  -10273   -10311   -10308   -10170    -9998    -9988   -10142   -10312 
  -10412   -10424   -10376   -10324   -10239   -10110   -10056   -10107 
  -10223   -10351   -10355   -10272   -10357   -10650   -10914   -10921 
  -10724   -10589   -10550   -10359    -9961    -9641    -9639    -9856 
  -10141   -10444   -10558   -10368   -10169   -10237   -10508   -10840 
  -11121   -11256   -11272   -11299   -11404   -11531   -11550   -11489 
  -11480   -11439   -11268   -11059   -10897   -10849   -10926   -10933 
  -10735   -10442   -10177   -10049   -10080   -10134   -10158   -10099 
   -9869    -9672    -9711    -9828    -9918   -10164   -10561   -10820 
  -10918   -11029   -11097   -11114   -11202   -11272   -11155   -10872 
  -10570   -10328   -10211   -10292   -10446   -10485   -10392   -10245 
  -10170   -10125    -9948    -9788    -9864   -10099   -10336   -10458 
  -10430   -10351   -10246   -10077    -9921    -9803    -9617    -9381 
   -9302    -9456    -9609    -9617    -9679    -9948   -10304   -10532 
  -10507   -10376   -10430   -10669   -10855   -10928   -11013   -11102 
  -11109   -11045   -10918   -10704   -10467   -10347   -10382   -10412 
  -10272   -10089   -10077   -10111    -9996    -9903   -10071   -10424 
  -10735   -10821   -10620   -10192    -9684    -9288    -9188    -9333 
   -9421    -9412    -9537    -9740    -9859    -9984   -10174   -10336 
  -10430   -10543   -10708   -10814   -10876   -11021   -11246   -11465 
  -11577   -11547   -11437   -11233   -10953   -10758   -10609   -10343 
  -10096   -10095   -10257   -10369   -10355   -10304   -10322   -10419 
  -10552   -10620   -10558   -10561   -10729   -10767   -10535   -10359 
  -10449   -10601   -10588   -10366   -10060    -9913   -10030   -10200 
  -10119    -9745    -9432    -9487    -9749    -9976   -10181   -10295 
  -10287   -10409   -10754   -11059   -11132   -11079   -11068   -11142 
  -11261   -11308   -11265   -11288   -11392   -11419   -11331   -11182 
  -11036   -10929   -10679   -10181    -9705    -9441    -9351    -9391 
   -9435    -9474    -9714   -10130   -10498   -10748   -10998   -11310 
  -11435   -11194   -10816   -10612   -10639   -10701   -10530   -10137 
   -9779    -9682    -9860   -10057   -10119   -10192   -10323   -10361 
  -10277   -10235   -10457   -10894   -11115   -10863   -10353    -9906 
   -9651    -9474    -9316    -9289    -9282    -9148    -9131    -9467 
  -10026   -10511   -10786   -11002   -11302   -11577   -11685   -11651 
  -11593   -11583   -11531   -11341   -11103   -10949   -10847   -10658 
  -10338   -10038    -9917    -9961   -10011    -9941    -9768    -9578 
   -9490    -9575    -9618    -9482    -9405    -9459    -9466    -9458 
   -9537    -9698    -9946   -10207   -10382   -10520   -10678   -10875 
  -11102   -11210   -11161   -11182   -11318   -11458   -11611   -11695 
  -11623   -11526   -11441   -11325   -11308   -11453   -11611   -11696 
  -11747   -11665   -11372   -11048   -10822   -10713   -10773   -10820 
  -10667   -10482   -10412   -10358   -10187    -9873    -9594    -9522 
   -9551    -9540    -9518    -9566    -9819   -10261   -10579   -10632 
  -10652   -10806   -11026   -11263   -11511   -11678   -11688   -11595 
  -11453   -11194   -10882   -10827   -11020   -11036   -10696   -10231 
   -9930    -9838    -9876   -10042   -10228   -10254   -10100    -9830 
   -9553    -9385    -9286    -9227    -9259    -9351    -9444    -9543 
   -9659    -9855   -10107   -10216   -10215   -10373   -10678   -10882 
  -10898   -10827   -10801   -10816   -10755   -10682   -10750   -10897 
  -11030   -11088   -10951   -10677   -10430   -10188   -10003   -10034 
  -10204   -10314   -10347   -10304   -10142    -9967    -9883    -9819 
   -9761    -9817    -9996   -10187   -10238   -10087    -9906    -9898 
   -9979    -9995    -9944    -9904   -10035   -10401   -10758   -10887 
  -10843   -10748   -10677   -10643   -10663   -10773   -10913   -10960 
  -10837   -10639   -10544   -10620   -10770   -10862   -10822   -10720 
  -10685   -10717   -10700   -10621   -10548   -10470   -10450   -10625 
  -10827   -10785   -10666   -10704   -10771   -10706   -10507   -10272 
  -10185   -10281   -10359   -10355   -10412   -10513   -10527   -10389 
  -10081    -9819    -9952   -10378   -10669   -10659   -10481   -10314 
  -10245   -10216   -10212   -10222   -10143   -10014    -9988   -10080 
  -10146   -10053    -9891    -9844    -9915    -9994   -10007   -10010 
  -10031   -10014   -10107   -10471   -10851   -10972   -10909   -10783 
  -10633   -10496   -10370   -10237   -10026    -9711    -9475    -9470 
   -9610    -9753    -9786    -9628    -9298    -8901    -8650    -8719 
   -9015    -9315    -9518    -9648    -9740    -9867   -10133   -10588 
  -11182   -11736   -12021   -12048   -12087   -12239   -12422   -12603 
  -12677   -12546   -12348   -12295   -12442   -12599   -12568   -12455 
  -12383   -12214   -11858   -11414   -10995   -10705   -10532   -10350 
  -10184   -10149   -10187   -10173   -10099    -9991    -9906    -9952 
  -10173   -10476   -10689   -10770   -10918   -11250   -11527   -11434 
  -10984   -10466   -10098    -9900    -9822    -9805    -9756    -9643 
   -9571    -9599    -9614    -9541    -9444    -9382    -9300    -9113 
   -8841    -8532    -8201    -7946    -7873    -7850    -7716    -7497 
   -7184    -6752    -6362    -6191    -6277    -6606    -7096    -7607 
   -8031    -8329    -8529    -8723    -9005    -9478   -10204   -11048 
  -11797   -12398   -12897   -13293   -13495   -13470   -13390   -13435 
  -13560   -13613   -13505   -13319   -13171   -13009   -12783   -12586 
  -12409   -12067   -11500   -10913   -10534   -10328   -10106    -9810 
   -9481    -9081    -8635    -8338    -8371    -8635    -8843    -8943 
   -9067    -9224    -9454    -9840   -10285   -10600   -10767   -10982 
  -11389   -11952   -12637   -13340   -13821   -14107   -14409   -14629 
  -14650   -14629   -14671   -14716   -14659   -14407   -13964   -13404 
  -12820   -12252   -11631   -10903   -10077    -9273    -8637    -8163 
   -7807    -7587    -7462    -7310    -7129    -7007    -6839    -6532 
   -6265    -6164    -6212    -6376    -6538    -6681    -6925    -7322 
   -7948    -8897   -10023   -11025   -11765   -12294   -12664   -12775 
  -12537   -12090   -11720   -11557   -11556   -11740   -12175   -12638 
  -12931   -13248   -13628   -13798   -13759   -13594   -13192   -12533 
  -11801   -11300   -11178   -11156   -10922   -10517   -10075    -9591 
   -9096    -8683    -8361    -8083    -7839    -7623    -7489    -7551 
   -7759    -7977    -8245    -8587    -8884    -9163    -9521    -9859 
   -9990    -9888    -9702    -9629    -9714    -9873   -10010    -9994 
   -9818    -9672    -9625    -9645    -9873   -10404   -11070   -11692 
  -12232   -12607   -12779   -12888   -13054   -13244   -13356   -13257 
  -12874   -12341   -11834   -11399   -11018   -10685   -10390   -10114 
   -9779    -9340    -8905    -8654    -8607    -8603    -8557    -8596 
   -8888    -9331    -9676    -9938   -10242   -10498   -10655   -10837 
  -11091   -11322   -11469   -11634   -11877   -12043   -12032   -11983 
  -11997   -11996   -11920   -11847   -11811   -11650   -11242   -10719 
  -10257   -10010   -10153   -10588   -10953   -11086   -11082   -11026 
  -10781   -10180    -9458    -9009    -8860    -8819    -8772    -8653 
   -8610    -8883    -9391    -9906   -10300   -10420   -10220    -9842 
   -9429    -9157    -9121    -9238    -9377    -9367    -9142    -8973 
   -9140    -9580    -9985   -10141   -10095    -9994    -9904    -9933 
  -10173   -10516   -10791   -10930   -10968   -11072   -11388   -11796 
  -12013   -11944   -11755   -11568   -11296   -10905   -10540   -10368 
  -10412   -10505   -10426   -10179    -9981    -9946    -9977    -9933 
   -9775    -9630    -9656    -9819    -9994   -10076    -9988    -9811 
   -9711    -9819   -10242   -10847   -11310   -11619   -11912   -12082 
  -11998   -11786   -11695   -11708   -11631   -11538   -11452   -11180 
  -10822   -10565   -10324   -10152   -10189   -10351   -10474   -10490 
  -10485   -10613   -10825   -10970   -11056   -11125   -11168   -11200 
  -11195   -11124   -11010   -10825   -10531   -10188    -9853    -9560 
   -9378    -9347    -9369    -9243    -8907    -8640    -8708    -9016 
   -9383    -9697    -9813    -9767    -9760    -9815    -9798    -9676 
   -9649    -9902   -10295   -10551   -10552   -10368   -10227   -10341 
  -10690   -11111   -11489   -11897   -12390   -12731   -12696   -12415 
  -12089   -11762   -11458   -11194   -10986   -10859   -10717   -10442 
  -10006    -9482    -9119    -9096    -9219    -9240    -9174    -9131 
   -9188    -9325    -9385    -9327    -9293    -9306    -9323    -9455 
   -9865   -10562   -11296   -11747   -11923   -12059   -12174   -12226 
  -12388   -12688   -12814   -12540   -11992   -11388   -10759   -10037 
   -9262    -8602    -8228    -8243    -8567    -8980    -9286    -9413 
   -9423    -9375    -9308    -9294    -9304    -9328    -9467    -9649 
   -9798    -9981   -10146   -10219   -10222   -10158   -10096   -10134 
  -10277   -10459   -10540   -10484   -10463   -10550   -10627   -10636 
  -10570   -10397   -10189   -10110   -10226   -10439   -10673   -10937 
  -11134   -11149   -11086   -11126   -11276   -11369   -11323   -11240 
  -11176   -11133   -11088   -10955   -10687   -10366   -10134   -10077 
  -10072    -9909    -9601    -9359    -9321    -9468    -9683    -9861 
   -9971   -10021    -9971    -9706    -9282    -9013    -9077    -9355 
   -9690    -9977   -10234   -10659   -11295   -11871   -12199   -12307 
  -12275   -12187   -12182   -12340   -12507   -12471   -12339   -12295 
  -12220   -11971   -11626   -11268   -10916   -10601   -10343   -10081 
   -9755    -9463    -9375    -9521    -9806   -10060   -10152   -10135 
  -10060    -9828    -9468    -9205    -9158    -9277    -9471    -9617 
   -9670    -9756    -9967   -10274   -10696   -11209   -11724   -12193 
  -12587   -12847   -12912   -12785   -12503   -12054   -11531   -11165 
  -11030   -10964   -10751   -10359    -9952    -9602    -9354    -9302 
   -9366    -9425    -9555    -9707    -9679    -9495    -9390    -9558 
   -9931   -10156   -10106   -10041   -10084   -10118   -10054    -9899 
   -9730    -9620    -9536    -9408    -9251    -9143    -9166    -9342 
   -9540    -9648    -9686    -9639    -9528    -9491    -9560    -9651 
   -9745    -9913   -10276   -10795   -11210   -11348   -11248   -11041 
  -10863   -10786   -10827   -10968   -11146   -11356   -11630   -11842 
  -11900   -11901   -11880   -11859   -11955   -12093   -12074   -11956 
  -11902   -11790   -11449   -11037   -10770   -10601   -10412   -10246 
  -10147   -10000    -9753    -9491    -9221    -8966    -8823    -8799 
   -8854    -8968    -9078    -9174    -9293    -9410    -9439    -9317 
   -9090    -8965    -9088    -9360    -9726   -10180   -10516   -10644 
  -10736   -10840   -10840   -10725   -10573   -10455   -10444   -10484 
  -10485   -10457   -10407   -10403   -10528   -10693   -10786   -10804 
  -10770   -10727   -10687   -10625   -10543   -10485   -10511   -10656 
  -10851   -10933   -10866   -10778   -10755   -10802   -10937   -11157 
  -11404   -11593   -11692   -11770   -11875   -11913   -11793   -11577 
  -11387   -11250   -11082   -10839   -10612   -10493   -10426   -10330 
  -10289   -10427   -10606   -10592   -10446   -10403   -10500   -10593 
  -10586   -10550   -10546   -10524   -10498   -10521   -10558   -10504 
  -10308   -10066    -9872    -9672    -9437    -9250    -9123    -9054 
   -9169    -9540    -9994   -10301   -10372   -10201    -9963    -9940 
  -10125   -10208   -10010    -9686    -9528    -9574    -9575    -9454 
   -9418    -9605    -9972   -10384   -10627   -10647   -10615   -10611 
