Origin Time       2024/04/02 04:24:00
Lat.              40.133
Long.             141.712
Depth. (km)       71
Mag.              6.0
Station Code      AKT002
Station Lat.      40.2676
Station Long.     140.5664
Station Height(m) 69
Record Time       2024/04/02 04:24:55
Sampling Freq(Hz) 100Hz
Duration Time(s)  119
Dir.              N-S
Scale Factor      7845(gal)/8223790
Max. Acc. (gal)   10.013
Last Correction   2024/04/02 04:24:55
Memo.             
[...]
    5059     5005     5363     6085     6821     7277     7434     7538 
    7997     8968    10061    10775    10922    10463     9535     8669 
    8268     8077     7704     7041     6039     4903     4222     4374 
    5179     6288     7437     8274     8428     7992     7398     6856 
    6459     6272     5983     5177     3982     3046     2791     2975 
    3337     3996     4955     6151     7596     8907     9497     9335 
    8996     9034     9591    10508    11248    10989     9597     8093 
    7543     8122     9339    10376    10442     9251     7277     5464 
    4372     3759     3358     3291     3483     3570     3546     3846 
    4599     5485     6443     7546     8399     8549     8132     7906 
    8627    10254    12051    13308    13630    13057    12016    10901 
    9848     8893     8002     6960     5525     3738     1929      517 
    -194     -253      109      872     1984     3241     4660     6266 
    7836     9348    10863    12050    12653    12843    12802    12595 
   12291    11927    11512    10953    10072     8980     8027     7317 
    6763     6389     6143     5783     5132     4294     3631     3424 
    3555     3843     4318     4865     5213     5401     5678     6131 
    6691     7153     7199     6681     5872     5367     5672     6747 
    7951     8630     8575     8017     7414     7064     6917     6802 
    6512     5919     5382     5427     6075     6934     7615     8046 
    8499     9189    10120    11034    11317    10501     8912     7352 
    6224     5406     4772     4264     3831     3646     3905     4573 
    5471     6327     7003     7696     8518     9297     9856    10019 
    9779     9505     9499     9775    10326    10949    11234    11067 
   10517     9597     8521     7604     6960     6513     5957     4915 
    3365     1609       44     -880     -877     -120      839     1568 
    2122     2825     3913     5514     7565     9625    11256    12534 
   13714    14697    15260    15310    14743    13452    11554     9520 
    7809     6455     5381     4676     4243     3801     3238     2666 
    2332     2407     2880     3761     4934     6052     6971     7827 
    8646     9360     9950    10311    10261     9745     8872     7878 
    7132     6966     7357     7920     8195     7923     7142     6147 
    5421     5421     6145     7173     8074     8563     8606     8405 
    8237     8394     8887     9313     9348     8957     8202     7211 
    6080     4900     3901     3291     3179     3499     3890     4135 
    4363     4693     5205     5996     6990     7962     8676     9057 
    9215     9232     9167     9177     9342     9541     9663     9730 
    9753     9720     9637     9386     8876     8301     7825     7362 
    6831     6208     5462     4635     3929     3618     3728     4033 
    4471     5055     5582     5952     6354     6880     7438     7989 
    8492     8711     8584     8499     8703     9004     9193     9197 
    8934     8355     7577     6899     6592     6696     7033     7364 
    7477     7325     7074     6844     6697     6829     7322     7905 
    8210     8070     7524     6656     5688     5011     4824     5003 
    5339     5649     5799     5764     5559     5267     5135     5373 
    5869     6331     6577     6570     6307     5952     5926     6475 
    7377     8341     9277    10023    10365    10345    10216    10164 
   10185    10157     9899     9248     8330     7554     7177     7194 
    7550     8095     8461     8330     7839     7456     7334     7207 
    6982     6767     6490     6056     5665     5582     5740     5903 
    6006     6080     6104     6147     6339     6640     6835     6817 
    6751     6820     7040     7403     7851     8082     7839     7280 
    6822     6755     6979     7136     7002     6554     5752     4661 
    3604     2920     2667     2701     2874     3011     2872     2547 
    2574     3280     4453     5756     6999     8094     9039     9930 
   10866    11819    12687    13478    14189    14639    14667    14292 
   13589    12684    11824    11198    10721    10152     9335     8187 
    6660     4941     3481     2548     2015     1752     1798     2053 
    2293     2479     2802     3464     4433     5497     6515     7434 
    8220     8876     9447    10000    10570    11107    11573    11955 
   12069    11716    11055    10346     9521     8461     7334     6278 
    5196     3966     2641     1362      220     -616     -889     -626 
    -124      437      999     1552     2317     3559     5229     7034 
    8796    10457    11834    12823    13582    14161    14365    14251 
   14158    14075    13610    12582    11140     9470     7757     6242 
    5009     3879     2675     1505      657      298      417      965 
    1860     2938     4131     5462     6849     8133     9229    10142 
   10936    11605    12086    12383    12459    12243    11820    11398 
   11114    10889    10552    10166     9756     9150     8436     7873 
    7479     7172     6831     6262     5400     4394     3608     3307 
    3366     3546     3661     3573     3466     3785     4683     5902 
    7061     7861     8176     8218     8341     8640     8900     8957 
    8895     8860     8750     8329     7605     6853     6354     6220 
    6359     6593     6804     7007     7287     7661     8033     8264 
    8274     8054     7662     7177     6635     6025     5390     4862 
    4639     4838     5289     5775     6326     7079     8014     8969 
    9741    10162    10173     9909     9599     9396     9332     9302 
    9036     8364     7419     6471     5719     5233     4988     4914 
    4807     4417     3839     3430     3304     3411     3798     4422 
    5063     5586     6108     6843     7736     8581     9339     9911 
   10030     9705     9252     8838     8463     8230     8252     8375 
    8367     8213     7902     7345     6698     6253     6058     5999 
    5961     5792     5420     4961     4669     4761     5236     5945 
    6758     7531     8100     8432     8586     8596     8533     8444 
    8245     7801     7082     6197     5373     4822     4621     4617 
    4536     4291     4087     4126     4464     5078     5833     6475 
    6806     6907     7071     7480     8137     8911     9593    10012 
   10039     9644     9081     8726     8623     8487     8093     7430 
    6615     5921     5636     5744     5967     6035     5869     5626 
    5560     5877     6589     7458     8259     8922     9393     9680 
    9964    10389    10824    11017    10924    10651    10292     9957 
    9655     9240     8654     7967     7257     6696     6496     6625 
    6809     6864     6844     6863     6963     7157     7493     7944 
    8280     8280     7923     7276     6488     5825     5498     5514 
    5652     5606     5248     4646     3970     3510     3415     3555 
    3856     4341     4924     5490     6070     6772     7534     8186 
    8753     9275     9595     9666     9660     9701     9634     9225 
    8584     8082     7811     7568     7176     6513     5593     4776 
    4510     4851     5553     6312     6735     6628     6381     6573 
    7304     8253     9093     9589     9589     9108     8367     7709 
    7348     7263     7408     7653     7784     7758     7542     7088 
    6666     6621     6955     7387     7676     7755     7580     7167 
    6778     6578     6467     6388     6245     5899     5487     5285 
    5370     5633     5940     6291     6759     7308     7902     8526 
    9030     9266     9302     9288     9243     9086     8749     8214 
    7560     6951     6432     5903     5367     4893     4463     4097 
    3943     4090     4434     4783     5140     5663     6293     6836 
    7285     7681     7973     8194     8429     8671     8876     8934 
    8760     8496     8359     8356     8352     8249     8029     7693 
    7331     7109     6988     6690     6135     5591     5304     5327 
    5587     5888     5985     5826     5651     5643     5717     5877 
    6277     6845     7354     7692     7859     7943     8089     8478 
    9171     9913    10351    10389    10091     9525     8810     8179 
    7823     7643     7404     6975     6311     5536     4908     4534 
    4386     4530     4990     5566     5996     6193     6187     6015 
    5813     5807     6166     6853     7631     8253     8603     8641 
    8490     8503     8982     9859    10786    11445    11686    11477 
   10899    10162     9441     8712     7890     6991     5967     4693 
    3300     2115     1310      889      818      988     1240     1539 
    1996     2747     3797     5008     6303     7731     9166    10346 
   11279    12091    12718    13081    13288    13462    13513    13248 
   12699    12021    11271    10521     9876     9271     8563     7750 
    6901     6046     5289     4807     4657     4704     4752     4711 
    4600     4519     4700     5293     6119     6890     7373     7389 
    7028     6704     6628     6542     6158     5495     4688     3897 
    3354     3291     3639     4059     4459     5003     5555     5890 
    6170     6639     7246     7840     8376     8795     8992     9063 
    9244     9547     9715     9580     9235     8843     8546     8527 
    8760     8901     8711     8253     7809     7642     7762     7978 
    8078     7940     7641     7308     7017     6871     6945     7177 
    7393     7427     7369     7449     7696     8097     8699     9366 
    9828     9987     9957     9856     9705     9567     9574     9566 
    9101     8082     6863     5701     4614     3688     3040     2629 
    2317     2015     1696     1370     1146     1177     1472     1950 
    2616     3403     4050     4405     4644     4988     5449     5972 
    6570     7137     7404     7242     6793     6311     6014     6046 
    6404     6914     7349     7557     7576     7643     8020     8797 
    9822    10786    11321    11195    10566     9882     9468     9409 
    9676    10079    10260     9988     9316     8429     7519     6758 
    6203     5655     4869     4062     3753     4056     4708     5567 
    6575     7562     8364     8957     9506    10211    11087    12062 
   13068    13914    14365    14357    13975    13406    12870    12417 
   11931    11279    10261     8757     7006     5373     3990     2825 
    1863     1019      108     -889    -1742    -2208    -2155    -1590 
    -704      236      990     1436     1741     2251     3129     4298 
    5601     6939     8322     9717    10912    11792    12471    13026 
   13460    13782    13933    13765    13086    11885    10567     9575 
    8899     8336     7840     7348     6648     5672     4599     3555 
    2539     1687     1279     1425     1987     2795     3790     4990 
    6365     7776     9113    10331    11350    12073    12465    12588 
   12580    12577    12641    12745    12861    12924    12768    12217 
   11203     9814     8202     6461     4673     3041     1753      876 
     388      202      259      615     1318     2242     3080     3559 
    3721     3852     4212     4959     6096     7330     8212     8517 
    8390     8070     7701     7456     7411     7353     7134     6978 
    6993     6858     6359     5765     5494     5796     6804     8483 
   10450    12164    13473    14561    15507    16243    16592    16177 
   14652    12135     9157     6219     3739     2164     1553     1387 
    1196     1021     1078     1364     1803     2361     2929     3430 
    3906     4382     4884     5485     6184     6894     7411     7518 
    7315     7172     7381     7962     8734     9531    10139    10212 
    9609     8677     7904     7360     6774     5888     4662     3334 
    2235     1629     1701     2403     3510     4901     6520     8139 
    9478    10527    11534    12606    13574    14253    14594    14655 
   14480    14000    13170    12117    11168    10678    10660    10743 
   10566    10085     9458     8826     8257     7788     7348     6799 
    6103     5275     4468     4071     4311     4847     5148     5062 
    4739     4367     4153     4225     4531     4916     5211     5220 
    4752     3811     2636     1512      683      319      411      895 
    1810     3119     4677     6432     8357    10247    11731    12513 
   12668    12583    12445    12210    12042    12197    12627    13039 
   13057    12324    10670     8245     5505     2936      756     -938 
   -2064    -2677    -2929    -2852    -2180     -561     1962     4970 
    8010    10723    12845    14192    14693    14613    14515    14755 
   15186    15255    14489    12982    11113     9130     7315     5898 
    4854     4135     3670     3186     2493     1853     1579     1661 
    1972     2309     2461     2440     2384     2605     3577     5323 
    7263     8784     9661    10039    10131    10098    10193    10573 
   10990    11086    10790    10268     9721     9315     9126     9147 
    9391     9911    10717    11693    12683    13651    14559    15195 
   15298    14735    13575    12063    10498     9092     7857     6627 
    5254     3736     2119      572     -409     -522      -93      503 
    1113     1486     1513     1516     1933     2959     4546     6497 
    8355     9587    10150    10458    10790    11083    11267    11344 
   11088    10249     8914     7276     5409     3437     1609      136 
    -981    -1769    -2089    -1837     -988      530     2690     5231 
    7747     9884    11618    13124    14488    15793    16969    17636 
   17501    16506    14677    12105     9063     6120     3774     2124 
    1109      576      214     -183     -548     -635     -251      558 
    1605     2816     4170     5522     6750     7921     9086    10025 
   10411    10211     9690     9104     8610     8143     7372     6156 
    4734     3429     2442     1815     1479     1306     1158     1032 
    1139     1713     2772     4109     5498     6760     7788     8723 
    9764    10936    12276    13683    14720    15044    14777    14291 
   13813    13350    12884    12351    11570    10466     9182     7912 
    6708     5575     4646     4047     3778     3913     4596     5768 
    7173     8653    10177    11688    13022    13937    14303    14220 
   13757    12888    11772    10597     9458     8596     8239     8252 
    8301     8163     7830     7271     6357     5209     4155     3341 
    2700     2122     1551     1050      841     1227     2276     3717 
    5223     6535     7442     7935     8310     8793     9142     9009 
    8468     7780     7009     6253     5724     5381     4977     4492 
    4162     4174     4621     5574     6944     8464     9894    11044 
   11749    12043    12185    12337    12499    12615    12475    11754 
   10392     8750     7257     6035     4969     3928     2820     1684 
     846      664     1216     2272     3441     4467     5328     6096 
    6858     7589     8137     8388     8275     7735     6890     6004 
    5247     4615     4216     4288     4804     5417     5856     6076 
    6168     6241     6411     6766     7241     7646     7913     8190 
    8684     9431    10219    10878    11400    11650    11394    10638 
    9520     8100     6508     4966     3577     2320     1258      619 
     587     1139     2241     3686     4927     5632     6065     6631 
    7485     8581     9798    10941    11696    11958    12064    12317 
   12648    12843    12652    11871    10570     9047     7574     6304 
    5293     4514     3892     3362     3019     3051     3492     4232 
    5188     6297     7461     8559     9499    10365    11304    12252 
   13000    13437    13521    13209    12545    11763    11205    11045 
   11213    11479    11500    11016    10115     9092     8208     7569 
    7033     6390     5607     4675     3635     2763     2293     2126 
    2038     1910     1701     1489     1433     1674     2316     3352 
    4598     5832     6860     7601     8175     8754     9360     9913 
   10343    10586    10623    10525    10320     9907     9244     8436 
    7533     6515     5584     5071     4938     4785     4326     3618 
    2949     2652     2895     3531     4168     4592     4955     5435 
    6083     6930     7866     8586     8870     8810     8642     8444 
    8206     8063     8127     8293     8364     8193     7736     7110 
    6528     6137     5917     5809     5822     5949     6088     6174 
    6280     6554     7076     7755     8414     8945     9269     9340 
    9223     9030     8827     8657     8615     8749     8885     8843 
    8727     8671     8622     8559     8499     8392     8168     7773 
    7191     6389     5251     3767     2118      506     -905    -1973 
   -2678    -3098    -3179    -2786    -2016    -1094      -95      958 
    2020     3125     4390     5908     7578     9153    10500    11649 
   12627    13408    13884    13992    13821    13450    12864    12158 
   11514    10939    10242     9320     8317     7470     6843     6343 
    5999     5869     5852     5902     6131     6548     7002     7416 
    7843     8279     8602     8785     8946     9144     9377     9643 
    9911    10103    10085     9742     9135     8506     8081     7932 
    7966     7958     7707     7218     6677     6388     6629     7334 
    8172     8935     9547     9981    10243    10368    10482    10689 
   10925    11097    11144    11049    10848    10449     9709     8696 
    7534     6255     5017     4059     3389     2836     2355     2127 
    2277     2755     3523     4510     5448     6114     6505     6689 
    6720     6642     6427     6042     5498     4803     4008     3300 
    2857     2682     2667     2786     3171     3900     4799     5683 
    6539     7376     8162     8850     9431     9954    10412    10763 
   11133    11634    12108    12363    12406    12286    11958    11481 
   11064    10701    10135     9292     8356     7496     6777     6249 
    5921     5659     5359     5109     5020     5123     5439     5884 
    6307     6643     6855     6839     6502     5976     5618     5634 
    5927     6374     6847     7095     7005     6793     6795     7196 
    7928     8730     9319     9487     9173     8519     7731     6952 
    6328     5962     5791     5661     5459     5155     4791     4399 
    4036     3743     3503     3307     3160     3034     2951     2988 
    3218     3666     4260     4909     5643     6511     7458     8359 
    9120     9659     9918     9999    10137    10434    10750    10914 
   10845    10557    10134     9652     9136     8629     8159     7726 
    7350     7044     6810     6712     6791     6957     7088     7203 
    7415     7793     8344     9067     9919    10670    10989    10774 
   10326     9969     9709     9405     9039     8625     8059     7288 
    6438     5672     5117     4824     4720     4627     4372     3964 
    3657     3775     4463     5570     6750     7654     8089     8110 
    7962     7892     8055     8437     8824     8951     8710     8201 
    7615     7080     6647     6347     6150     5991     5890     5850 
    5819     5786     5730     5595     5358     5016     4645     4415 
    4425     4652     5040     5525     6091     6741     7420     8058 
    8600     9055     9495     9917    10282    10602    10759    10519 
