Origin Time       2024/04/02 04:24:00
Lat.              40.133
Long.             141.712
Depth. (km)       71
Mag.              6.0
Station Code      AKT020
Station Lat.      39.2027
Station Long.     139.9088
Station Height(m) 7
Record Time       2024/04/02 04:25:06
Sampling Freq(Hz) 100Hz
Duration Time(s)  114
Dir.              U-D
Scale Factor      7845(gal)/8223790
Max. Acc. (gal)   2.131
Last Correction   2024/04/02 04:25:06
Memo.             
[...]
   22616    22616    22617    22617    22616    22616    22616    22616 
   22619    22617    22616    22615    22615    22619    22619    22616 
   22615    22615    22615    22613    22615    22616    22615    22615 
   22615    22615    22615    22613    22613    22613    22613    22616 
   22616    22613    22611    22612    22612    22611    22609    22609 
   22609    22609    22607    22607    22611    22611    22609    22611 
   22611    22607    22605    22608    22609    22609    22609    22607 
   22603    22605    22605    22604    22607    22607    22603    22605 
   22608    22607    22605    22605    22605    22603    22600    22603 
   22609    22608    22604    22605    22609    22608    22608    22608 
   22604    22604    22609    22609    22605    22607    22611    22611 
   22609    22612    22613    22611    22612    22613    22611    22609 
   22613    22617    22616    22616    22615    22613    22617    22619 
   22616    22617    22617    22616    22616    22620    22620    22619 
   22616    22616    22620    22623    22620    22619    22619    22617 
   22616    22617    22620    22617    22615    22616    22616    22617 
   22619    22619    22619    22621    22619    22619    22621    22619 
   22613    22613    22613    22613    22616    22615    22615    22616 
   22615    22612    22613    22616    22617    22619    22619    22617 
   22617    22620    22624    22621    22616    22616    22619    22620 
   22621    22626    22623    22617    22619    22624    22624    22620 
   22621    22624    22621    22621    22624    22626    22624    22621 
   22619    22619    22621    22624    22621    22621    22623    22621 
   22617    22621    22624    22621    22620    22621    22621    22619 
   22616    22619    22621    22620    22620    22621    22619    22616 
   22615    22616    22617    22617    22620    22619    22615    22613 
   22613    22616    22617    22617    22616    22613    22612    22616 
   22619    22615    22611    22611    22609    22609    22611    22612 
   22615    22612    22607    22609    22611    22608    22609    22609 
   22605    22607    22609    22609    22609    22611    22609    22607 
   22609    22609    22607    22608    22612    22609    22607    22608 
   22611    22608    22607    22608    22607    22608    22611    22608 
   22605    22605    22607    22607    22609    22609    22611    22609 
   22608    22611    22611    22611    22612    22611    22609    22608 
   22609    22612    22612    22612    22613    22612    22609    22609 
   22611    22611    22609    22609    22613    22616    22612    22611 
   22611    22611    22612    22612    22615    22615    22612    22613 
   22615    22613    22615    22617    22615    22615    22615    22616 
   22617    22617    22615    22613    22613    22612    22612    22613 
   22616    22616    22613    22613    22615    22613    22613    22615 
   22615    22615    22612    22612    22615    22613    22611    22611 
   22612    22615    22613    22611    22611    22611    22609    22609 
   22612    22612    22613    22612    22611    22612    22615    22615 
   22611    22611    22613    22615    22617    22617    22616    22617 
   22617    22617    22619    22621    22621    22617    22619    22620 
   22617    22617    22620    22619    22616    22617    22620    22623 
   22620    22616    22616    22616    22616    22620    22620    22617 
   22617    22619    22616    22613    22617    22619    22613    22615 
   22617    22616    22616    22616    22613    22615    22616    22613 
   22615    22615    22611    22612    22613    22615    22613    22612 
   22612    22612    22608    22608    22613    22616    22612    22609 
   22609    22611    22612    22613    22612    22608    22611    22613 
   22612    22612    22613    22613    22612    22612    22612    22615 
   22615    22615    22616    22616    22615    22613    22615    22616 
   22613    22613    22616    22615    22612    22613    22613    22612 
   22615    22615    22611    22612    22615    22615    22616    22615 
   22613    22611    22608    22611    22613    22611    22608    22609 
   22611    22609    22607    22608    22609    22605    22605    22607 
   22604    22603    22603    22603    22604    22604    22605    22607 
   22607    22605    22607    22608    22604    22601    22607    22611 
   22608    22608    22609    22608    22611    22613    22612    22611 
   22611    22612    22616    22615    22612    22612    22613    22613 
   22613    22613    22615    22615    22615    22613    22612    22615 
   22619    22616    22613    22615    22612    22611    22615    22616 
   22615    22616    22617    22616    22617    22617    22616    22619 
   22617    22617    22617    22616    22616    22616    22620    22623 
   22621    22620    22621    22623    22623    22621    22620    22624 
   22627    22624    22623    22624    22624    22621    22620    22621 
   22623    22621    22619    22620    22621    22623    22623    22623 
   22620    22620    22623    22624    22621    22620    22620    22620 
   22620    22620    22619    22620    22621    22621    22619    22617 
   22617    22615    22615    22616    22619    22617    22616    22616 
   22616    22615    22613    22615    22616    22617    22615    22611 
   22612    22615    22615    22613    22612    22611    22609    22613 
   22616    22615    22615    22615    22613    22615    22616    22615 
   22612    22615    22616    22615    22615    22616    22617    22619 
   22617    22615    22616    22619    22617    22616    22612    22613 
   22616    22617    22619    22617    22613    22616    22619    22616 
   22615    22615    22613    22613    22615    22615    22611    22611 
   22613    22613    22612    22615    22615    22613    22612    22609 
   22609    22613    22619    22616    22609    22608    22609    22611 
   22612    22612    22611    22609    22608    22608    22611    22611 
   22608    22609    22612    22608    22607    22608    22609    22605 
   22605    22608    22611    22608    22605    22605    22607    22607 
   22608    22611    22611    22608    22607    22605    22609    22612 
   22604    22601    22605    22605    22601    22603    22605    22607 
   22605    22605    22605    22607    22608    22604    22603    22604 
   22604    22605    22607    22609    22607    22601    22601    22604 
   22605    22607    22605    22604    22604    22604    22604    22605 
   22605    22608    22608    22605    22608    22609    22608    22609 
   22612    22612    22611    22611    22609    22612    22612    22612 
   22615    22617    22619    22621    22620    22615    22613    22617 
   22617    22619    22620    22619    22617    22620    22619    22617 
   22619    22621    22621    22620    22621    22620    22617    22620 
   22623    22623    22624    22624    22621    22621    22621    22621 
   22626    22624    22620    22620    22621    22623    22627    22626 
   22624    22620    22617    22619    22623    22626    22624    22621 
   22620    22617    22616    22620    22623    22620    22619    22619 
   22616    22617    22620    22620    22617    22617    22616    22616 
   22619    22617    22616    22616    22616    22616    22616    22615 
   22615    22615    22613    22615    22617    22617    22615    22617 
   22617    22613    22612    22616    22617    22615    22615    22616 
   22617    22617    22615    22615    22615    22612    22613    22615 
   22611    22612    22613    22611    22609    22613    22615    22611 
   22609    22609    22611    22613    22615    22615    22615    22615 
   22613    22613    22616    22617    22613    22611    22613    22616 
   22616    22615    22615    22613    22611    22612    22616    22615 
   22616    22619    22615    22611    22613    22615    22613    22615 
   22613    22613    22617    22616    22615    22613    22613    22615 
   22617    22615    22611    22611    22613    22616    22616    22615 
   22615    22615    22612    22609    22609    22611    22615    22615 
   22612    22612    22615    22615    22615    22613    22612    22613 
   22616    22615    22613    22613    22612    22612    22612    22611 
   22615    22616    22615    22615    22616    22613    22613    22615 
   22616    22617    22617    22613    22615    22617    22613    22612 
   22612    22611    22611    22613    22613    22613    22613    22613 
   22613    22615    22615    22613    22612    22611    22612    22616 
   22616    22615    22615    22615    22613    22612    22612    22616 
   22619    22617    22616    22617    22616    22613    22611    22612 
   22615    22613    22613    22617    22616    22615    22613    22612 
   22612    22613    22613    22612    22609    22612    22615    22615 
   22611    22608    22607    22607    22611    22615    22616    22616 
   22612    22608    22608    22611    22611    22612    22615    22613 
   22609    22609    22612    22611    22611    22611    22609    22612 
   22616    22613    22609    22609    22611    22611    22609    22612 
   22613    22612    22612    22616    22619    22617    22616    22616 
   22616    22615    22615    22613    22613    22616    22617    22619 
   22619    22617    22619    22620    22617    22617    22619    22620 
   22620    22621    22621    22620    22619    22620    22621    22620 
   22619    22617    22616    22617    22619    22619    22621    22623 
   22620    22621    22623    22624    22623    22617    22617    22620 
   22619    22620    22626    22624    22620    22620    22621    22623 
   22620    22617    22616    22616    22615    22613    22615    22619 
   22616    22612    22616    22617    22613    22613    22613    22612 
   22613    22615    22613    22612    22611    22612    22613    22613 
   22613    22612    22611    22609    22608    22613    22617    22616 
   22613    22609    22607    22607    22607    22611    22613    22608 
   22607    22609    22611    22611    22612    22611    22607    22607 
   22608    22608    22608    22607    22605    22607    22611    22611 
   22611    22609    22607    22608    22611    22611    22609    22611 
   22609    22609    22609    22608    22609    22612    22611    22608 
   22609    22612    22612    22612    22615    22613    22612    22616 
   22617    22615    22615    22615    22615    22613    22613    22615 
   22615    22617    22616    22613    22616    22619    22619    22617 
   22617    22615    22616    22620    22620    22619    22619    22619 
   22619    22617    22619    22621    22620    22619    22621    22621 
   22619    22617    22617    22617    22616    22616    22621    22624 
   22621    22619    22616    22617    22621    22623    22623    22621 
   22619    22620    22620    22619    22620    22621    22619    22616 
   22616    22616    22613    22613    22616    22615    22613    22615 
   22615    22612    22613    22612    22612    22613    22615    22616 
   22615    22612    22612    22612    22612    22612    22611    22609 
   22609    22612    22613    22615    22616    22616    22613    22615 
   22615    22611    22612    22615    22615    22615    22616    22617 
   22619    22613    22611    22616    22617    22612    22613    22617 
   22612    22609    22613    22615    22613    22612    22609    22611 
   22613    22615    22612    22612    22612    22609    22609    22611 
   22609    22608    22608    22609    22611    22612    22611    22611 
   22611    22611    22612    22611    22611    22612    22611    22611 
   22611    22611    22612    22613    22613    22611    22609    22609 
   22611    22615    22617    22616    22611    22609    22615    22615 
   22613    22616    22617    22615    22616    22620    22620    22616 
   22616    22617    22617    22619    22621    22620    22621    22621 
   22619    22620    22621    22621    22621    22620    22621    22624 
   22624    22624    22623    22621    22620    22621    22623    22621 
   22616    22617    22619    22619    22619    22620    22620    22620 
   22619    22617    22620    22621    22621    22621    22617    22615 
   22616    22617    22619    22616    22616    22619    22617    22615 
   22617    22617    22616    22615    22613    22615    22612    22608 
   22611    22615    22611    22608    22609    22607    22604    22604 
   22604    22605    22608    22608    22604    22600    22600    22600 
   22601    22604    22604    22600    22603    22605    22604    22604 
   22604    22605    22607    22601    22600    22607    22609    22605 
   22605    22605    22601    22605    22611    22608    22605    22608 
   22608    22609    22613    22615    22613    22611    22612    22612 
   22612    22611    22613    22617    22616    22613    22615    22617 
   22619    22616    22612    22613    22615    22613    22609    22599 
   22582    22566    22550    22530    22504    22476    22445    22419 
   22403    22403    22411    22426    22461    22511    22576    22648 
   22723    22802    22889    22963    23009    23025    23022    23012 
   22995    22954    22885    22820    22786    22789    22809    22827 
   22846    22886    22947    23006    23036    23006    22909    22779 
   22657    22557    22462    22354    22238    22157    22158    22233 
   22339    22434    22501    22549    22578    22584    22582    22588 
   22588    22578    22597    22684    22835    23002    23126    23190 
   23201    23188    23190    23213    23215    23137    22943    22657 
   22343    22036    21724    21392    21043    20711    20461    20380 
   20501    20756    21053    21366    21733    22194    22743    23314 
   23773    24025    24093    24094    24101    24084    23990    23820 
   23608    23387    23152    22908    22698    22570    22522    22515 
   22527    22557    22599    22642    22680    22686    22615    22431 
   22180    21979    21925    21992    22077    22100    22049    21990 
   22022    22195    22424    22558    22546    22501    22554    22708 
   22864    22945    22921    22801    22631    22493    22419    22350 
   22261    22227    22337    22567    22829    23087    23328    23479 
   23450    23233    22941    22702    22545    22422    22292    22173 
   22110    22126    22215    22318    22347    22269    22138    22037 
   21994    21980    21959    21965    22104    22415    22821    23230 
   23620    23982    24236    24267    24050    23683    23284    22905 
   22562    22281    22096    22010    21984    22000    22067    22158 
   22207    22148    22014    21899    21870    21921    22032    22195 
   22395    22590    22756    22902    23049    23194    23306    23365 
   23380    23386    23402    23426    23425    23350    23180    22951 
   22732    22557    22399    22242    22111    22040    22036    22080 
   22164    22281    22412    22534    22647    22774    22910    23020 
   23085    23118    23103    22982    22756    22509    22307    22152 
   22009    21876    21801    21817    21926    22122    22397    22728 
   23062    23349    23581    23785    23958    24034    23926    23625 
   23215    22804    22449    22180    22022    21975    22014    22108 
   22230    22362    22496    22620    22721    22767    22735    22648 
   22562    22497    22439    22383    22364    22404    22469    22519 
   22549    22590    22678    22792    22883    22943    22983    22981 
   22878    22671    22445    22273    22177    22148    22175    22270 
   22434    22608    22739    22820    22850    22840    22833    22862 
   22912    22912    22794    22578    22381    22318    22405    22566 
   22689    22708    22632    22515    22399    22297    22212    22167 
   22189    22287    22422    22554    22669    22767    22817    22762 
   22604    22428    22318    22283    22284    22297    22342    22435 
   22559    22670    22758    22828    22866    22862    22832    22804 
   22800    22808    22800    22766    22738    22748    22783    22790 
   22717    22565    22387    22245    22171    22150    22150    22148 
   22149    22185    22288    22419    22515    22563    22585    22612 
   22665    22744    22831    22900    22958    23031    23117    23172 
   23171    23149    23161    23205    23210    23128    22964    22778 
   22626    22516    22432    22368    22307    22239    22179    22154 
   22160    22162    22161    22195    22296    22473    22713    22978 
   23183    23267    23260    23230    23182    23060    22847    22580 
   22327    22129    21975    21841    21747    21752    21872    22048 
   22216    22369    22549    22801    23114    23410    23625    23762 
   23851    23880    23820    23680    23490    23272    23049    22833 
   22642    22492    22370    22249    22126    22019    21932    21870 
   21855    21902    22010    22167    22341    22493    22600    22685 
   22771    22813    22766    22662    22584    22581    22623    22642 
   22608    22545    22482    22439    22427    22443    22453    22420 
   22362    22322    22333    22388    22464    22546    22630    22700 
   22736    22752    22788    22837    22847    22777    22646    22500 
   22383    22303    22260    22256    22296    22373    22447    22488 
   22492    22458    22401    22349    22316    22304    22326    22378 
   22428    22447    22426    22395    22393    22432    22492    22557 
   22619    22675    22719    22738    22736    22729    22736    22754 
   22770    22786    22827    22885    22925    22918    22846    22716 
   22585    22523    22565    22667    22740    22729    22688    22697 
   22742    22720    22578    22369    22206    22148    22168    22237 
   22354    22496    22617    22682    22694    22685    22673    22659 
   22638    22620    22658    22765    22860    22887    22870    22850 
   22850    22879    22944    23026    23074    23036    22935    22844 
   22800    22765    22686    22532    22311    22060    21826    21660 
   21606    21679    21855    22094    22373    22671    22948    23174 
   23336    23415    23403    23318    23188    23018    22801    22546 
   22291    22098    22032    22114    22297    22495    22646    22750 
   22825    22870    22881    22877    22873    22859    22835    22819 
   22809    22779    22705    22593    22501    22489    22542    22585 
   22584    22573    22597    22657    22724    22777    22825    22873 
   22910    22929    22937    22960    23017    23086    23129    23140 
   23144    23151    23155    23126    23049    22941    22817    22673 
   22516    22358    22216    22131    22131    22206    22307    22385 
   22428    22455    22484    22520    22554    22572    22566    22542 
   22508    22461    22408    22369    22380    22457    22576    22697 
   22809    22910    22981    22979    22893    22775    22685    22638 
   22632    22659    22701    22735    22744    22728    22696    22671 
   22665    22662    22654    22616    22522    22391    22270    22196 
   22180    22218    22300    22408    22516    22592    22619    22601 
   22547    22466    22389    22339    22303    22268    22235    22203 
   22169    22152    22167    22211    22287    22376    22450    22504 
   22553    22616    22694    22788    22906    23043    23149    23171 
   23097    22963    22819    22682    22562    22457    22351    22235 
   22113    22006    21967    22038    22194    22364    22508    22611 
