Origin Time       2024/04/02 04:24:00
Lat.              40.133
Long.             141.712
Depth. (km)       71
Mag.              6.0
Station Code      AKT015
Station Lat.      39.3844
Station Long.     140.0519
Station Height(m) 5
Record Time       2024/04/02 04:25:25
Sampling Freq(Hz) 100Hz
Duration Time(s)  81
Dir.              U-D
Scale Factor      7845(gal)/8223790
Max. Acc. (gal)   2.369
Last Correction   2024/04/02 04:25:26
Memo.             
[...]
  -31367   -31407   -31383   -31365   -31321   -31137   -30883   -30743 
  -30754   -30812   -30827   -30770   -30651   -30527   -30476   -30511 
  -30577   -30649   -30712   -30750   -30805   -30921   -31071   -31186 
  -31217   -31162   -31064   -30974   -30931   -30947   -30967   -30943 
  -30902   -30844   -30724   -30608   -30612   -30692   -30704   -30640 
  -30591   -30574   -30573   -30631   -30794   -31027   -31245   -31375 
  -31379   -31326   -31297   -31244   -31126   -31008   -30910   -30778 
  -30616   -30515   -30508   -30510   -30429   -30315   -30323   -30473 
  -30609   -30661   -30694   -30770   -30863   -30886   -30811   -30743 
  -30773   -30927   -31167   -31356   -31429   -31483   -31546   -31554 
  -31506   -31378   -31121   -30847   -30709   -30688   -30642   -30492 
  -30295   -30215   -30333   -30554   -30766   -30925   -30969   -30867 
  -30762   -30801   -30929   -30974   -30897   -30785   -30713   -30726 
  -30808   -30874   -30889   -30863   -30758   -30616   -30616   -30789 
  -30956   -31001   -30963   -30896   -30856   -30892   -30947   -30939 
  -30894   -30901   -30946   -30927   -30781   -30584   -30497   -30589 
  -30780   -30985   -31170   -31276   -31255   -31139   -31075   -31166 
  -31324   -31430   -31457   -31368   -31168   -31009   -31010   -31054 
  -30996   -30920   -30933   -30967   -30958   -30962   -31005   -31009 
  -30947   -30850   -30708   -30569   -30541   -30596   -30632   -30622 
  -30569   -30472   -30370   -30310   -30310   -30396   -30547   -30647 
  -30654   -30672   -30762   -30852   -30877   -30920   -31071   -31243 
  -31301   -31249   -31176   -31155   -31221   -31329   -31361   -31268 
  -31147   -31118   -31155   -31153   -31072   -30956   -30869   -30836 
  -30878   -31029   -31218   -31282   -31213   -31151   -31145   -31095 
  -30889   -30573   -30338   -30269   -30292   -30345   -30424   -30495 
  -30492   -30429   -30395   -30412   -30450   -30539   -30663   -30717 
  -30723   -30797   -30919   -31005   -31063   -31144   -31256   -31318 
  -31207   -30954   -30731   -30613   -30512   -30365   -30223   -30146 
  -30146   -30221   -30349   -30515   -30742   -30981   -31122   -31194 
  -31284   -31334   -31253   -31110   -31005   -30958   -30952   -30986 
  -31043   -31089   -31112   -31114   -31085   -31004   -30851   -30667 
  -30545   -30561   -30709   -30842   -30819   -30716   -30682   -30712 
  -30775   -30948   -31189   -31291   -31183   -30996   -30836   -30754 
  -30784   -30821   -30685   -30410   -30234   -30246   -30303   -30294 
  -30268   -30321   -30470   -30640   -30755   -30869   -31086   -31390 
  -31669   -31873   -31966   -31889   -31703   -31554   -31410   -31129 
  -30774   -30492   -30275   -30096   -30052   -30192   -30431   -30638 
  -30730   -30682   -30576   -30514   -30508   -30534   -30635   -30809 
  -30989   -31153   -31263   -31217   -31047   -30912   -30908   -30975 
  -30991   -30950   -30920   -30917   -30935   -30947   -30856   -30682 
  -30612   -30708   -30802   -30797   -30781   -30792   -30753   -30672 
  -30628   -30605   -30546   -30484   -30507   -30676   -30943   -31137 
  -31128   -30978   -30875   -30970   -31195   -31317   -31232   -31090 
  -31071   -31185   -31309   -31359   -31342   -31272   -31164   -31095 
  -31125   -31193   -31218   -31207   -31156   -31058   -30986   -30978 
  -30977   -30975   -31001   -31033   -31040   -31016   -30956   -30855 
  -30709   -30562   -30481   -30497   -30561   -30580   -30538   -30520 
  -30604   -30751   -30874   -30940   -30969   -30929   -30790   -30622 
  -30539   -30582   -30667   -30699   -30694   -30685   -30669   -30719 
  -30866   -31005   -31048   -31010   -30939   -30869   -30797   -30761 
  -30824   -30889   -30790   -30607   -30545   -30636   -30793   -30919 
  -30963   -30974   -31045   -31229   -31514   -31797   -31958   -31990 
  -31954   -31907   -31893   -31908   -31843   -31622   -31317   -31070 
  -30936   -30854   -30758   -30688   -30686   -30697   -30681   -30686 
  -30713   -30650   -30464   -30280   -30230   -30323   -30510   -30724 
  -30902   -31028   -31148   -31303   -31464   -31567   -31611   -31639 
  -31671   -31687   -31639   -31519   -31352   -31180   -31071   -31036 
  -30998   -30902   -30770   -30640   -30558   -30526   -30485   -30366 
  -30176   -30009   -29955   -30051   -30244   -30370   -30299   -30138 
  -30100   -30210   -30353   -30480   -30608   -30723   -30769   -30746 
  -30731   -30805   -30978   -31133   -31149   -31045   -30925   -30869 
  -30875   -30896   -30889   -30836   -30728   -30588   -30450   -30350 
  -30331   -30400   -30484   -30542   -30613   -30700   -30750   -30789 
  -30871   -30967   -31037   -31158   -31409   -31729   -31970   -32088 
  -32189   -32341   -32440   -32383   -32258   -32193   -32167   -32092 
  -31955   -31785   -31554   -31287   -31091   -31009   -30978   -30946 
  -30901   -30840   -30755   -30635   -30501   -30415   -30366   -30306 
  -30279   -30397   -30653   -30870   -30923   -30886   -30870   -30898 
  -31013   -31209   -31340   -31329   -31276   -31249   -31214   -31148 
  -31074   -31000   -30908   -30786   -30662   -30550   -30481   -30528 
  -30646   -30707   -30739   -30852   -31025   -31147   -31174   -31149 
  -31120   -31097   -31105   -31198   -31375   -31542   -31626   -31664 
  -31742   -31854   -31915   -31900   -31845   -31758   -31641   -31523 
  -31411   -31283   -31141   -31013   -30906   -30817   -30753   -30739 
  -30748   -30713   -30618   -30501   -30381   -30269   -30202   -30202 
  -30208   -30148   -30042   -29979   -29979   -30005   -30057   -30136 
  -30176   -30159   -30159   -30218   -30311   -30404   -30466   -30478 
  -30461   -30451   -30456   -30445   -30366   -30217   -30067   -29983 
  -29963   -29976   -30048   -30222   -30453   -30612   -30655   -30636 
  -30581   -30554   -30685   -30974   -31224   -31268   -31133   -30960 
  -30838   -30750   -30651   -30531   -30404   -30292   -30218   -30175 
  -30142   -30123   -30123   -30152   -30245   -30410   -30582   -30708 
  -30801   -30906   -31067   -31299   -31529   -31653   -31675   -31652 
  -31590   -31492   -31398   -31306   -31156   -30932   -30735   -30657 
  -30638   -30569   -30470   -30447   -30519   -30584   -30523   -30353 
  -30219   -30213   -30262   -30252   -30141   -30007   -29978   -30072 
  -30245   -30469   -30658   -30686   -30596   -30601   -30808   -31098 
  -31320   -31426   -31440   -31407   -31390   -31372   -31263   -31044 
  -30786   -30539   -30330   -30219   -30227   -30295   -30345   -30368 
  -30404   -30484   -30562   -30566   -30531   -30578   -30731   -30893 
  -31000   -31039   -31037   -31095   -31237   -31355   -31399   -31403 
  -31374   -31309   -31234   -31172   -31166   -31230   -31299   -31307 
  -31225   -31094   -31013   -31009   -31004   -30993   -31041   -31149 
  -31284   -31455   -31630   -31746   -31804   -31834   -31814   -31716 
  -31560   -31398   -31267   -31126   -30946   -30813   -30798   -30805 
  -30744   -30661   -30615   -30607   -30646   -30740   -30839   -30897 
  -30927   -30943   -30924   -30855   -30770   -30721   -30707   -30670 
  -30585   -30445   -30289   -30221   -30289   -30437   -30558   -30609 
  -30627   -30661   -30701   -30730   -30740   -30740   -30751   -30770 
  -30739   -30599   -30388   -30207   -30056   -29893   -29783   -29809 
  -29963   -30234   -30577   -30866   -31031   -31139   -31284   -31477 
  -31683   -31905   -32123   -32224   -32197   -32169   -32186   -32192 
  -32190   -32194   -32130   -31976   -31824   -31741   -31673   -31530 
  -31301   -31091   -30998   -31017   -31121   -31232   -31226   -31122 
  -31079   -31185   -31379   -31541   -31583   -31495   -31325   -31167 
  -31058   -30948   -30792   -30565   -30280   -29991   -29759   -29636 
  -29674   -29851   -30063   -30238   -30383   -30510   -30616   -30730 
  -30858   -30947   -30948   -30879   -30781   -30699   -30674   -30730 
  -30842   -30950   -31009   -31062   -31164   -31263   -31245   -31075 
  -30851   -30717   -30728   -30812   -30859   -30836   -30794   -30784 
  -30820   -30927   -31098   -31248   -31311   -31320   -31299   -31220 
  -31075   -30917   -30796   -30719   -30647   -30549   -30442   -30338 
  -30246   -30208   -30223   -30246   -30269   -30329   -30460   -30646 
  -30820   -30915   -30893   -30782   -30697   -30724   -30823   -30915 
  -30940   -30869   -30736   -30591   -30468   -30430   -30456   -30445 
  -30387   -30350   -30353   -30364   -30361   -30341   -30319   -30333 
  -30397   -30495   -30616   -30780   -30994   -31218   -31387   -31486 
  -31506   -31442   -31333   -31206   -31059   -30919   -30843   -30842 
  -30875   -30925   -31029   -31191   -31332   -31415   -31477   -31509 
  -31456   -31317   -31140   -30948   -30716   -30477   -30334   -30287 
  -30231   -30146   -30140   -30323   -30650   -30946   -31114   -31202 
  -31276   -31314   -31295   -31279   -31272   -31217   -31131   -31043 
  -30906   -30717   -30514   -30299   -30132   -30103   -30207   -30369 
  -30569   -30801   -31035   -31260   -31471   -31618   -31660   -31615 
  -31518   -31396   -31279   -31164   -31060   -31029   -31108   -31243 
  -31382   -31498   -31511   -31380   -31182   -30987   -30781   -30559 
  -30377   -30277   -30283   -30400   -30603   -30842   -31087   -31315 
  -31473   -31531   -31544   -31573   -31595   -31536   -31353   -31106 
  -30950   -30960   -31039   -31087   -31135   -31278   -31550   -31854 
  -32066   -32175   -32250   -32339   -32422   -32449   -32414   -32333 
  -32175   -31905   -31554   -31202   -30890   -30640   -30507   -30512 
  -30582   -30605   -30553   -30478   -30430   -30420   -30438   -30451 
  -30420   -30365   -30372   -30481   -30613   -30723   -30851   -30991 
  -31079   -31104   -31099   -31070   -30998   -30862   -30634   -30343 
  -30071   -29853   -29664   -29509   -29431   -29463   -29639   -29940 
  -30252   -30496   -30716   -30946   -31129   -31217   -31253   -31252 
  -31137   -30896   -30622   -30368   -30122   -29883   -29674   -29500 
  -29371   -29334   -29411   -29552   -29700   -29876   -30141   -30466 
  -30751   -30931   -31031   -31078   -31048   -30924   -30726   -30488 
  -30245   -30021   -29860   -29774   -29716   -29639   -29509   -29331 
  -29142   -28960   -28796   -28696   -28686   -28769   -28957   -29258 
  -29674   -30187   -30730   -31229   -31645   -31957   -32171   -32336 
  -32493   -32637   -32738   -32764   -32687   -32526   -32355   -32223 
  -32084   -31873   -31619   -31406   -31256   -31140   -31081   -31071 
  -31005   -30855   -30800   -30943   -31109   -31108   -30998   -30929 
  -30924   -30921   -30888   -30848   -30859   -30933   -31029   -31141 
  -31290   -31437   -31510   -31529   -31598   -31734   -31869   -31973 
  -32067   -32182   -32316   -32381   -32286   -32036   -31675   -31283 
  -30964   -30738   -30593   -30541   -30565   -30623   -30700   -30820 
  -31001   -31172   -31259   -31305   -31392   -31514   -31664   -31887 
  -32170   -32421   -32575   -32602   -32498   -32294   -32044   -31818 
  -31641   -31446   -31197   -30973   -30832   -30724   -30566   -30325 
  -30046   -29828   -29731   -29786   -29963   -30145   -30218   -30221 
  -30276   -30414   -30572   -30665   -30640   -30522   -30369   -30231 
  -30117   -30010   -29902   -29791   -29708   -29736   -29916   -30146 
  -30315   -30416   -30508   -30619   -30724   -30797   -30848   -30905 
  -30967   -30960   -30828   -30639   -30488   -30404   -30424   -30557 
  -30721   -30829   -30854   -30797   -30678   -30554   -30464   -30389 
  -30289   -30177   -30110   -30118   -30181   -30238   -30230   -30207 
  -30249   -30334   -30411   -30495   -30599   -30703   -30796   -30858 
  -30852   -30771   -30649   -30535   -30461   -30435   -30465   -30516 
  -30537   -30550   -30620   -30747   -30874   -30946   -30950   -30894 
  -30798   -30680   -30564   -30496   -30472   -30451   -30441   -30485 
  -30601   -30800   -31105   -31463   -31749   -31901   -31936   -31888 
  -31803   -31729   -31634   -31465   -31290   -31226   -31288   -31434 
  -31631   -31804   -31880   -31872   -31811   -31675   -31452   -31229 
  -31102   -31055   -30997   -30885   -30748   -30619   -30478   -30321 
  -30177   -30117   -30196   -30400   -30673   -31005   -31383   -31718 
  -31896   -31907   -31868   -31885   -31939   -31955   -31924   -31889 
  -31850   -31784   -31699   -31580   -31384   -31143   -31001   -31063 
  -31255   -31433   -31531   -31541   -31476   -31387   -31314   -31294 
  -31363   -31476   -31538   -31554   -31571   -31545   -31401   -31133 
  -30807   -30477   -30176   -29971   -29936   -30056   -30249   -30438 
  -30595   -30740   -30908   -31113   -31314   -31430   -31445   -31415 
  -31352   -31213   -31037   -30889   -30740   -30570   -30427   -30325 
  -30242   -30214   -30271   -30372   -30451   -30449   -30318   -30117 
  -30002   -30079   -30288   -30507   -30640   -30665   -30657   -30697 
  -30782   -30824   -30770   -30681   -30638   -30640   -30619   -30481 
  -30207   -29874   -29539   -29209   -28925   -28750   -28730   -28852 
  -29066   -29299   -29493   -29678   -29937   -30280   -30627   -30933 
  -31218   -31471   -31642   -31704   -31648   -31457   -31195   -31005 
  -30950   -30973   -31004   -31016   -30979   -30861   -30674   -30504 
  -30433   -30456   -30523   -30611   -30720   -30840   -30919   -30893 
  -30825   -30842   -30923   -30935   -30855   -30734   -30585   -30437 
  -30298   -30122   -29963   -29928   -29988   -30099   -30357   -30836 
  -31410   -31919   -32374   -32832   -33196   -33361   -33330   -33103 
  -32692   -32185   -31677   -31197   -30770   -30465   -30322   -30307 
  -30375   -30500   -30673   -30861   -30996   -31051   -31114   -31256 
  -31418   -31537   -31610   -31603   -31506   -31367   -31220   -31098 
  -31036   -31029   -31054   -31086   -31109   -31104   -31056   -31035 
  -31135   -31321   -31456   -31463   -31388   -31311   -31266   -31236 
  -31186   -31139   -31144   -31183   -31175   -31081   -30909   -30730 
  -30647   -30700   -30805   -30862   -30861   -30827   -30797   -30780 
  -30711   -30542   -30321   -30132   -30025   -29991   -29979   -29978 
  -29995   -30019   -30044   -30092   -30200   -30368   -30562   -30754 
  -30940   -31104   -31209   -31260   -31298   -31353   -31415   -31456 
  -31476   -31488   -31468   -31375   -31260   -31213   -31232   -31233 
  -31193   -31186   -31288   -31480   -31618   -31575   -31402   -31275 
  -31278   -31337   -31345   -31244   -31054   -30840   -30650   -30504 
  -30384   -30256   -30136   -30049   -29979   -29914   -29897   -29972 
  -30129   -30307   -30446   -30514   -30519   -30532   -30639   -30840 
  -31041   -31164   -31225   -31274   -31307   -31275   -31156   -30994 
  -30829   -30690   -30608   -30555   -30461   -30343   -30307   -30391 
  -30539   -30696   -30829   -30925   -30990   -31043   -31081   -31086 
  -31062   -31008   -30901   -30732   -30541   -30412   -30420   -30493 
  -30500   -30400   -30258   -30140   -30082   -30098   -30184   -30310 
  -30407   -30420   -30406   -30499   -30751   -31067   -31310   -31417 
  -31394   -31290   -31194   -31206   -31314   -31388   -31363   -31256 
  -31052   -30781   -30572   -30499   -30510   -30524   -30524   -30537 
  -30576   -30658   -30808   -31001   -31189   -31317   -31322   -31203 
  -31075   -31031   -31004   -30879   -30646   -30391   -30253   -30322 
  -30534   -30716   -30771   -30784   -30898   -31139   -31386   -31567 
  -31708   -31799   -31768   -31633   -31482   -31332   -31148   -30956 
  -30842   -30828   -30844   -30813   -30748   -30707   -30692   -30689 
  -30724   -30805   -30901   -30982   -31050   -31101   -31112   -31099 
  -31109   -31148   -31193   -31203   -31120   -30952   -30802   -30735 
  -30742   -30805   -30874   -30894   -30875   -30851   -30835   -30816 
  -30770   -30712   -30686   -30708   -30778   -30882   -30944   -30924 
  -30866   -30843   -30901   -31043   -31230   -31413   -31540   -31569 
  -31502   -31384   -31287   -31272   -31309   -31256   -31051   -30824 
  -30747   -30817   -30913   -30993   -31102   -31247   -31391   -31523 
  -31615   -31635   -31608   -31602   -31623   -31585   -31429   -31224 
  -31054   -30921   -30815   -30731   -30659   -30613   -30634   -30692 
  -30693   -30607   -30500   -30411   -30304   -30179   -30102   -30122 
  -30240   -30427   -30640   -30809   -30863   -30839   -30856   -30959 
  -31068   -31112   -31099   -31087   -31082   -31039   -30942   -30804 
  -30612   -30381   -30192   -30086   -30025   -29986   -29990   -30051 
  -30138   -30234   -30339   -30447   -30564   -30665   -30697   -30670 
  -30661   -30692   -30727   -30746   -30746   -30730   -30723   -30735 
  -30723   -30655   -30576   -30558   -30616   -30700   -30754   -30759 
  -30736   -30742   -30820   -30947   -31068   -31140   -31133   -31029 
  -30878   -30757   -30662   -30559   -30468   -30424   -30416   -30391 
  -30368   -30419   -30524   -30592   -30600   -30608   -30665   -30762 
  -30863   -30932   -30946   -30927   -30946   -31052   -31202   -31318 
  -31376   -31363   -31221   -30978   -30761   -30643   -30605   -30622 
  -30663   -30694   -30700   -30716   -30785   -30909   -31036   -31126 
  -31155   -31131   -31135   -31209   -31287   -31315   -31303   -31240 
  -31126   -31040   -31055   -31143   -31203   -31197   -31191   -31240 
  -31320   -31398   -31455   -31475   -31464   -31429   -31364   -31297 
  -31266   -31247   -31212   -31178   -31148   -31122   -31137   -31221 
  -31328   -31392   -31410   -31414   -31422   -31409   -31313   -31159 
  -31060   -31048   -31054   -31037   -30990   -30892   -30762   -30646 
  -30558   -30457   -30277   -30025   -29795   -29687   -29709   -29818 
  -29982   -30168   -30335   -30447   -30518   -30607   -30716   -30780 
  -30809   -30882   -30996   -31078   -31105   -31104   -31093   -31063 
  -30989   -30871   -30784   -30802   -30916   -31041   -31106   -31072 
  -30971   -30889   -30886   -30966   -31109   -31276   -31421   -31522 
  -31545   -31482   -31399   -31355   -31303   -31237   -31213   -31205 
  -31139   -31025   -30917   -30828   -30762   -30740   -30774   -30843 
  -30920   -31004   -31098   -31195   -31282   -31324   -31294   -31202 
  -31075   -30944   -30821   -30703   -30576   -30458   -30373   -30289 
  -30164   -30036   -29944   -29844   -29718   -29639   -29650   -29713 
  -29795   -29913   -30048   -30146   -30208   -30252   -30261   -30245 
  -30258   -30304   -30346   -30381   -30454   -30565   -30673   -30785 
  -30910   -31013   -31083   -31131   -31151   -31164   -31206   -31264 
  -31303   -31336   -31383   -31425   -31449   -31491   -31553   -31587 
  -31568   -31533   -31525   -31545   -31579   -31622   -31671   -31676 
  -31604   -31531   -31553   -31657   -31739   -31734   -31660   -31572 
  -31514   -31500   -31523   -31573   -31626   -31644   -31587   -31446 
  -31271   -31137   -31077   -31047   -31006   -30962   -30935   -30939 
  -30979   -31023   -31032   -31016   -30973   -30867   -30700   -30524 
  -30370   -30254   -30202   -30221   -30303   -30441   -30618   -30831 
  -31089   -31314   -31388   -31320   -31244   -31237   -31249   -31193 
  -31041   -30840   -30631   -30435   -30268   -30119   -29964   -29817 
  -29724   -29706   -29758   -29874   -30049   -30265   -30476   -30638 
  -30761   -30888   -31008   -31091   -31148   -31174   -31126   -30986 
