Origin Time       2024/04/02 04:24:00
Lat.              40.133
Long.             141.712
Depth. (km)       71
Mag.              6.0
Station Code      AKT014
Station Lat.      39.5950
Station Long.     140.5573
Station Height(m) 56
Record Time       2024/04/02 04:24:58
Sampling Freq(Hz) 100Hz
Duration Time(s)  99
Dir.              N-S
Scale Factor      7845(gal)/8223790
Max. Acc. (gal)   17.921
Last Correction   2024/04/02 04:24:58
Memo.             
[...]
  -10918   -11138   -11171   -11233   -11497   -11587   -11171   -10554 
  -10204   -10247   -10594   -11165   -11881   -12518   -12820   -12771 
  -12487   -11983   -11392   -11218   -11662   -12062   -12039   -12140 
  -12560   -12688   -12193   -11410   -10760   -10407   -10459   -11068 
  -11952   -12437   -12216   -11384   -10008    -8476    -7607    -7776 
   -8590    -9637   -10852   -12193   -13328   -13782   -13351   -12255 
  -11053   -10366   -10385   -10876   -11728   -12950   -14085   -14489 
  -14110   -13171   -11830   -10594   -10026   -10156   -10913   -12189 
  -13163   -12806   -11279    -9837    -9238    -9103    -9082    -9591 
  -10735   -11839   -12563   -13095   -13239   -12617   -11611   -11078 
  -11223   -11604   -11867   -11854   -11468   -10735   -10010    -9964 
  -10899   -12228   -13055   -13153   -12961   -12676   -12125   -11493 
  -11076   -10806   -10667   -10694   -10520    -9988    -9636    -9535 
   -9248    -9402   -10794   -12611   -13614   -13763   -13552   -12982 
  -11904   -10855   -10602   -10898   -10989   -11119   -11805   -12533 
  -12695   -12401   -12001   -11716   -11364   -10714   -10158    -9914 
   -9508    -9130    -9597   -10650   -11458   -12071   -12784   -13244 
  -13077   -12618   -12305   -11820   -10937   -10284   -10392   -10975 
  -11381   -11350   -11319   -11623   -11925   -12139   -12663   -13194 
  -13043   -12590   -12398   -12002   -11206   -10471    -9822    -9290 
   -9398   -10270   -11233   -11547   -11283   -10955   -10612   -10201 
  -10138   -10627   -11232   -11597   -11958   -12544   -12982   -12866 
  -12488   -12294   -12231   -12137   -11946   -11626   -11604   -12309 
  -13234   -13599   -13320   -12636   -11676   -10700   -10174   -10134 
   -9886    -9094    -8403    -8282    -8563    -9293   -10575   -11763 
  -12071   -11759   -11724   -12220   -12804   -13042   -12970   -12955 
  -12835   -12220   -11730   -12070   -12519   -12278   -11804   -11487 
  -10940   -10129    -9553    -9479    -9902   -10585   -11138   -11591 
  -12047   -12237   -12313   -12587   -12494   -11628   -10855   -11010 
  -11619   -11773   -11404   -10979   -10679   -10444   -10461   -11002 
  -11734   -11952   -11631   -11507   -11969   -12464   -12320   -11701 
  -11350   -11512   -11549   -11076   -10590   -10374   -10268   -10577 
  -11346   -11728   -11587   -11755   -12183   -12027   -11281   -10654 
  -10594   -11146   -11954   -12532   -12858   -12953   -12368   -11149 
  -10057    -9443    -9246    -9645   -10604   -11488   -11821   -11830 
  -11839   -11785   -11527   -11164   -10962   -11057   -11398   -11877 
  -12150   -11863   -11214   -10650   -10492   -11010   -12110   -13100 
  -13258   -12583   -11713   -11047   -10561   -10424   -10768   -11294 
  -11618   -11573   -11223   -10652    -9938    -9591    -9954   -10569 
  -11269   -12245   -12850   -12523   -11816   -11306   -11183   -11584 
  -12181   -12506   -12717   -12976   -13024   -12924   -12996   -13014 
  -12469   -11404   -10357    -9786    -9788   -10158   -10581   -10933 
  -11364   -11971   -12592   -13035   -13153   -12730   -11749   -10739 
  -10238   -10054    -9883    -9996   -10500   -11009   -11326   -11550 
  -11680   -11533   -10999   -10489   -10663   -11450   -12166   -12598 
  -12937   -12981   -12356   -11223   -10247    -9958   -10285   -10802 
  -11307   -11820   -12174   -12131   -11788   -11435   -11138   -10957 
  -11045   -11163   -11007   -10693   -10392   -10359   -10820   -11313 
  -11373   -11226   -10928   -10430   -10318   -10890   -11731   -12579 
  -13215   -13263   -12876   -12510   -12349   -12506   -12802   -12625 
  -11712   -10478    -9691   -10012   -11126   -11962   -12226   -12370 
  -12333   -11820   -11105   -10612   -10334   -10185   -10297   -10554 
  -10590   -10512   -10743   -11192   -11493   -11763   -12314   -12861 
  -12829   -12164   -11252   -10443   -10007   -10170   -10905   -11884 
  -12795   -13235   -12811   -11854   -11079   -10667   -10484   -10525 
  -10704   -10881   -11238   -11807   -12078   -11888   -11651   -11583 
  -11624   -11624   -11422   -11172   -11051   -10882   -10552   -10297 
  -10469   -11124   -11878   -12480   -12957   -13238   -13232   -12881 
  -12226   -11489   -10760   -10239   -10235   -10578   -10984   -11452 
  -11816   -11867   -11662   -11229   -10644   -10339   -10482   -10794 
  -11348   -12178   -12567   -12144   -11587   -11448   -11574   -11803 
  -12121   -12282   -12069   -11735   -11493   -11088   -10355    -9543 
   -8938    -8710    -9003    -9755   -10586   -11227   -11751   -12187 
  -12414   -12507   -12664   -12788   -12638   -12337   -12194   -12128 
  -11993   -11928   -11840   -11500   -11065   -10735   -10627   -10883 
  -11389   -11939   -12421   -12745   -12892   -12752   -12129   -11140 
  -10218    -9842   -10026   -10224   -10320   -10759   -11265   -11109 
  -10582   -10393   -10515   -10870   -11561   -12213   -12430   -12312 
  -12100   -11909   -11728   -11593   -11622   -11659   -11415   -11109 
  -11327   -12108   -12785   -12908   -12627   -12131   -11470   -10972 
  -10983   -11349   -11730   -11952   -11840   -11499   -11187   -10705 
  -10062    -9734    -9533    -9346    -9996   -11406   -12287   -12402 
  -12613   -13119   -13316   -12962   -12495   -12243   -12069   -11858 
  -11623   -11392   -11152   -10732   -10239   -10079   -10201   -10442 
  -10967   -11649   -12051   -12035   -11708   -11186   -10605   -10174 
  -10087   -10318   -10724   -11164   -11408   -11497   -11709   -11817 
  -11578   -11484   -11739   -11861   -11786   -11927   -12361   -12764 
  -12841   -12642   -12310   -11846   -11384   -11110   -10913   -10689 
  -10584   -10763   -11195   -11612   -11785   -11746   -11600   -11433 
  -11414   -11638   -11947   -12125   -12185   -12276   -12343   -12123 
  -11526   -10781   -10195    -9946   -10093   -10582   -11171   -11400 
  -10972   -10219    -9756    -9833   -10327   -11086   -11885   -12241 
  -11942   -11458   -11152   -10932   -10971   -11454   -12054   -12603 
  -13177   -13332   -12602   -11345   -10331    -9957   -10145   -10652 
  -11341   -12040   -12371   -12178   -11854   -11772   -11847   -11946 
  -12042   -12019   -11834   -11591   -11353   -11091   -10687   -10120 
   -9651    -9591   -10038   -10813   -11658   -12483   -12997   -12806 
  -12247   -11858   -11449   -10843   -10525   -10837   -11358   -11519 
  -11430   -11502   -11653   -11678   -11693   -11846   -12125   -12303 
  -12128   -11711   -11165   -10455    -9958    -9985   -10075    -9868 
   -9791   -10220   -10872   -11375   -11811   -12255   -12438   -12280 
  -11993   -11659   -11338   -11145   -10982   -10708   -10530   -10858 
  -11765   -12707   -13132   -13057   -12675   -12206   -11982   -11993 
  -12059   -12271   -12415   -12023   -11335   -10886   -10635   -10477 
  -10606   -11102   -11757   -12144   -12016   -11658   -11464   -11449 
  -11434   -11426   -11488   -11388   -11033   -10760   -10629   -10300 
   -9914   -10048   -10740   -11496   -12031   -12318   -12359   -12104 
  -11442   -10642   -10338   -10628   -11101   -11709   -12469   -12827 
  -12393   -11572   -10945   -10696   -10719   -11033   -11701   -12225 
  -12021   -11495   -11379   -11545   -11400   -10916   -10655   -10791 
  -10820   -10836   -11568   -12621   -12884   -12541   -12383   -12201 
  -11658   -11146   -11005   -11133   -11288   -11271   -11232   -11516 
  -11859   -11800   -11728   -11932   -11700   -10982   -10932   -11790 
  -12507   -12479   -11708   -10314    -8950    -8376    -8711    -9838 
  -11480   -12823   -13335   -13296   -13004   -12569   -12212   -11958 
  -11655   -11408   -11530   -11996   -12073   -11175    -9991    -9558 
   -9829   -10214   -10573   -11083   -11664   -11954   -11853   -11574 
  -11236   -10922   -10856   -11138   -11616   -12019   -12163   -12148 
  -12060   -11746   -11342   -11252   -11380   -11354   -11198   -11052 
  -10881   -10704   -10640   -10813   -11252   -11701   -11821   -11732 
  -11763   -11786   -11645   -11611   -11790   -11928   -11865   -11580 
  -11087   -10588   -10349   -10432   -10724   -11056   -11426   -12036 
  -12707   -12953   -12833   -12658   -12170   -11190   -10474   -10678 
  -11302   -11580   -11497   -11392   -11264   -10930   -10705   -11030 
  -11524   -11596   -11449   -11572   -12002   -12225   -11765   -11091 
  -11051   -11593   -12101   -12247   -11917   -11163   -10432   -10184 
  -10373   -10767   -11461   -12453   -13182   -13194   -12749   -12262 
  -11815   -11337   -10929   -10852   -10939   -10663   -10149    -9971 
  -10228   -10755   -11375   -11718   -11593   -11302   -11148   -11142 
  -11207   -11349   -11661   -12035   -12113   -11908   -11778   -11624 
  -11142   -10731   -10928   -11387   -11535   -11410   -11138   -10759 
  -10604   -10866   -11335   -11863   -12251   -12198   -11959   -11955 
  -11951   -11790   -11817   -11940   -11738   -11218   -10507    -9751 
   -9366    -9540   -10012   -10555   -11155   -11850   -12486   -12549 
  -11838   -11106   -11075   -11389   -11524   -11682   -12120   -12633 
  -12846   -12621   -12330   -12307   -12282   -11950   -11480   -11084 
  -10860   -11059   -11638   -11966   -11755   -11448   -11358   -11310 
  -11151   -11142   -11565   -12002   -11901   -11564   -11456   -11329 
  -10916   -10525   -10363   -10115    -9624    -9445   -10034   -10921 
  -11457   -11608   -11600   -11508   -11410   -11550   -12048   -12602 
  -12802   -12486   -11799   -11214   -11028   -10966   -10960   -11360 
  -12005   -12521   -12931   -13012   -12484   -11790   -11388   -11126 
  -10774   -10484   -10673   -11308   -11720   -11473   -10717    -9838 
   -9317    -9374    -9880   -10802   -12016   -12943   -13146   -12850 
  -12501   -12345   -12483   -12792   -12955   -12861   -12657   -12347 
  -11772   -10987   -10372   -10214   -10365   -10682   -11358   -12193 
  -12429   -11777   -10685    -9760    -9410    -9621   -10015   -10332 
  -10574   -10783   -11048   -11530   -12201   -12718   -12673   -11994 
  -11090   -10503   -10662   -11608   -12627   -12970   -12748   -12351 
  -11973   -11890   -12154   -12259   -11789   -10998   -10566   -10849 
  -11503   -11943   -11866   -11232   -10326    -9729    -9748   -10125 
  -10531   -10939   -11356   -11595   -11651   -11831   -12175   -12411 
  -12403   -12152   -11844   -11722   -11628   -11292   -10875   -10675 
  -10662   -10631   -10650   -10948   -11389   -11719   -11994   -12019 
  -11439   -10854   -11086   -11763   -12181   -12218   -11774   -11041 
  -10625   -10509   -10434   -10646   -11117   -11421   -11502   -11550 
  -11551   -11335   -10852   -10241    -9722    -9639   -10243   -11265 
  -12309   -13270   -13872   -13826   -13428   -13076   -12657   -11927 
  -11087   -10627   -10575   -10515   -10311   -10146   -10258   -10867 
  -11701   -12260   -12568   -12582   -11963   -11121   -10752   -10750 
  -10802   -10948   -11161   -11429   -11800   -12019   -11823   -11395 
  -11049   -10862   -10781   -10822   -11010   -11215   -11234   -11137 
  -11221   -11389   -11402   -11485   -11734   -11800   -11662   -11610 
  -11626   -11516   -11346   -11303   -11388   -11534   -11631   -11461 
  -11117   -10948   -10935   -10881   -10876   -11007   -11211   -11470 
  -11731   -11928   -12112   -12291   -12339   -12127   -11664   -11218 
  -11137   -11242   -11060   -10731   -10693   -10920   -11230   -11507 
  -11743   -12143   -12492   -12343   -12096   -12279   -12501   -12384 
  -12083   -11584   -10941   -10588   -10740   -11059   -10989   -10339 
   -9663    -9639   -10227   -10966   -11445   -11276   -10473    -9594 
   -9105    -9143    -9747   -10760   -11661   -12010   -11836   -11315 
  -10727   -10598   -11018   -11353   -11423   -11607   -11707   -11437 
  -11157   -11082   -11091   -11176   -11210   -11092   -10971   -10897 
  -10808   -10632   -10211    -9740    -9647    -9753    -9647    -9510 
   -9697   -10237   -10926   -11569   -12164   -12700   -12949   -12818 
  -12536   -12243   -11886   -11693   -11921   -12137   -11896   -11472 
  -10955   -10135    -9482    -9587   -10268   -11095   -11925   -12611 
  -12793   -12341   -11700   -11263   -10976   -10743   -10496   -10250 
  -10273   -10706   -11286   -11701   -11927   -12182   -12660   -13167 
  -13420   -13594   -13891   -14092   -14154   -14268   -14346   -14392 
  -14725   -15219   -15363   -15265   -15252   -14878   -13842   -12852 
  -12482   -12310   -11889   -11472   -11230   -10882   -10459   -10351 
  -10426   -10061    -9170    -8561    -8941    -9859   -10376   -10332 
  -10077    -9647    -9065    -8849    -9335   -10134   -10995   -12121 
  -13238   -13728   -13564   -13263   -13224   -13381   -13491   -13651 
  -13878   -13645   -12676   -11565   -10933   -10712   -10543   -10253 
   -9936    -9657    -9193    -8536    -8125    -8025    -7798    -7365 
   -7056    -7061    -7334    -7716    -8008    -8059    -7963    -8147 
   -8922   -10069   -11423   -13243   -15388   -17104   -18134   -19047 
  -20218   -21432   -22346   -22758   -22715   -22447   -22040   -21270 
  -19827   -17617   -14916   -12251   -10091    -8540    -7433    -6615 
   -5827    -4688    -3121    -1490     -245      477      855      970 
     702      -12    -1275    -3345    -6358   -10199   -14544   -18773 
  -22099   -24133   -25073   -25153   -24582   -23939   -23620   -23382 
  -23103   -22870   -22445   -21672   -20596   -19024   -16746   -13834 
  -10521    -7142    -3929     -926     1775     4039     5771     6891 
    7364     7094     5911     3784     1003    -1749    -3816    -5097 
   -5998    -7167    -9104   -11718   -14547   -17192   -19287   -20742 
  -21932   -23098   -23831   -23318   -21296   -18588   -16372   -15385 
  -15772   -16914   -17605   -16779   -14415   -11653    -9485    -8131 
   -7564    -7418    -7133    -6731    -6509    -6399    -6177    -5805 
   -5629    -6297    -8020   -10228   -12001   -12644   -12310   -12002 
  -12390   -13011   -12912   -11504    -8845    -5715    -3136    -1728 
   -2020    -4483    -8556   -12807   -16286   -18646   -19603   -19415 
  -19051   -19156   -19407   -19082   -17891   -16294   -15057   -14621 
  -14926   -15240   -14315   -11904    -9383    -8059    -8112    -9175 
  -10524   -11097   -10326    -8418    -5865    -3287    -1340     -571 
   -1304    -3250    -5513    -7591    -9817   -12378   -14733   -16110 
  -15952   -14358   -12259   -10935   -11396   -13676   -16713   -19561 
  -22156   -24510   -26103   -26241   -24447   -20719   -16024   -12015 
   -9784    -9408   -10381   -11766   -12255   -10903    -7920    -4218 
    -603     1890     2201      642    -1217    -2091    -1665     -367 
     980     1275     -508    -4504    -9801   -15226   -19985   -23877 
  -26863   -28258   -27031   -23376   -19190   -16310   -14832   -13595 
  -11878    -9934    -8224    -7074    -6791    -7570    -9377   -11647 
  -13219   -13274   -12278   -11562   -11761   -11946   -10887    -8660 
   -6355    -4897    -4760    -6108    -8730   -11944   -14548   -15407 
  -14319   -11998    -9660    -8291    -7747    -7555    -8162   -10130 
  -12887   -15205   -16621   -17485   -17906   -17551   -16001   -12985 
   -8827    -4765    -2486    -2920    -5616    -9236   -12372   -14512 
  -16098   -17248   -17548   -17282   -17332   -17880   -18380   -18366 
  -17786   -17031   -16314   -15232   -13602   -11705    -9555    -7307 
   -5563    -4216    -2501     -606      507      533     -153    -1240 
   -2860    -5310    -8303   -11047   -12927   -13724   -13887   -14432 
  -15911   -17840   -19438   -20434   -20906   -20838   -20079   -18670 
  -17023   -15223   -12977   -10570    -8606    -7341    -7071    -7843 
   -8880    -9535   -10084   -10791   -11259   -11107   -10320    -9070 
   -7873    -7187    -6858    -6704    -6806    -6770    -6291    -6195 
   -7106    -8503   -10156   -12237   -14092   -14897   -14686   -14131 
  -14146   -15083   -16143   -16448   -16019   -15325   -14777   -14575 
  -14539   -14297   -13711   -12968   -12303   -11684   -10924   -10261 
  -10193   -10563   -10667   -10264    -9753    -9575    -9895   -10563 
  -11055   -10801   -10007    -9529    -9765   -10423   -11364   -12568 
  -13435   -13333   -12453   -11190    -9730    -8587    -8407    -9194 
  -10297   -11186   -11909   -12798   -14160   -15917   -17227   -17174 
  -15755   -13797   -12368   -12147   -12918   -13917   -14507   -14505 
  -14229   -14060   -14026   -13906   -13373   -12287   -11028   -10071 
   -9505    -9078    -8395    -7507    -7122    -7705    -9047   -10802 
  -12618   -13887   -13973   -12718   -10590    -8463    -7163    -7119 
   -8348   -10353   -12044   -12506   -11893   -10913    -9859    -8750 
   -7577    -6195    -4727    -3924    -4615    -6659    -8843   -10142 
  -10493   -10366   -10287   -10809   -12483   -15265   -17984   -19103 
  -18018   -15421   -12688   -10789    -9586    -8500    -7595    -7577 
   -8791   -10557   -11951   -12691   -12672   -11923   -11260   -11480 
  -12467   -13936   -15433   -15890   -14953   -13637   -12850   -12505 
  -12152   -11668   -11300   -11267   -11388   -11268   -10845   -10484 
  -10457   -10678   -11032   -11616   -12314   -12577   -12186   -11535 
  -10862   -10061    -9143    -8310    -7888    -8114    -8799    -9541 
  -10251   -10993   -11704   -12294   -12673   -12854   -13000   -13105 
  -12942   -12344   -11362   -10424   -10164   -10750   -11676   -12298 
  -12318   -11902   -11416   -11086   -11222   -12016   -12769   -12398 
  -10525    -7776    -5443    -4545    -5169    -6835    -8959   -11095 
  -13022   -14507   -15356   -15930   -16800   -17775   -18050   -17224 
  -15651   -13961   -12611   -11943   -11975   -12015   -11475   -10785 
  -10484   -10315    -9929    -9661   -10102   -11209   -12348   -13045 
  -13146   -12646   -11994   -11911   -12468   -13070   -13302   -13113 
  -12552   -11842   -11360   -11268   -11512   -12086   -12861   -13606 
  -14253   -14604   -14262   -13185   -11699   -10076    -8683    -8054 
   -8421    -9506   -10687   -11380   -11520   -11503   -11566   -11425 
  -10752    -9674    -8422    -7249    -6656    -6914    -7720    -8540 
   -8903    -8710    -8500    -9085   -10824   -13520   -16667   -19425 
  -20711   -19804   -16950   -13351   -10405    -8726    -8094    -8144 
   -8414    -8314    -7793    -7317    -7226    -7615    -8194    -8473 
   -8422    -8299    -7978    -7249    -6492    -6291    -6818    -7993 
   -9475   -10752   -11716   -12607   -13554   -14389   -14763   -14802 
  -15014   -15178   -14609   -13317   -12025   -11398   -11461   -11770 
  -12089   -12577   -13405   -14311   -14590   -13757   -12303   -11269 
  -11109   -11385   -11565   -11715   -11978   -12046   -11811   -11434 
  -10787    -9936    -9429    -9730   -10833   -12225   -13251   -13576 
  -13293   -13026   -13409   -14157   -14571   -14575   -14453   -14265 
  -13975   -13656   -13312   -12722   -11843   -11001   -10397    -9940 
   -9587    -9509    -9954   -10928   -11934   -12325   -11981   -11421 
  -11242   -11588   -12220   -12750   -12781   -12263   -11558   -10957 
  -10486   -10299   -10777   -11996   -13275   -13718   -13198   -12275 
  -11352   -10606   -10274   -10427   -10862   -11329   -11661   -11757 
  -11508   -10782    -9690    -8754    -8437    -8743    -9421   -10112 
  -10376   -10268   -10458   -11075   -11302   -10611    -9402    -8375 
