Origin Time       2024/04/02 04:24:00
Lat.              40.133
Long.             141.712
Depth. (km)       71
Mag.              6.0
Station Code      AKT008
Station Lat.      39.8840
Station Long.     140.0706
Station Height(m) 4
Record Time       2024/04/02 04:25:24
Sampling Freq(Hz) 100Hz
Duration Time(s)  60
Dir.              U-D
Scale Factor      7845(gal)/8223790
Max. Acc. (gal)   1.752
Last Correction   2024/04/02 04:25:25
Memo.             
[...]
  -37628   -37669   -37710   -37679   -37681   -37708   -37671   -37656 
  -37731   -37848   -37941   -37962   -37872   -37667   -37447   -37280 
  -37093   -36923   -36838   -36749   -36643   -36528   -36359   -36220 
  -36181   -36193   -36267   -36405   -36547   -36664   -36740   -36772 
  -36792   -36822   -36855   -36887   -36914   -36925   -36927   -36917 
  -36864   -36805   -36768   -36711   -36626   -36535   -36444   -36406 
  -36475   -36578   -36628   -36645   -36629   -36640   -36755   -36838 
  -36859   -36940   -37002   -37003   -37049   -37092   -37102   -37142 
  -37193   -37218   -37230   -37289   -37423   -37552   -37604   -37585 
  -37530   -37459   -37361   -37261   -37183   -37050   -36849   -36639 
  -36454   -36369   -36423   -36529   -36606   -36683   -36811   -36977 
  -37156   -37262   -37233   -37168   -37120   -37025   -36958   -36994 
  -37006   -36946   -36937   -37021   -37110   -37197   -37334   -37474 
  -37584   -37702   -37804   -37885   -37975   -38002   -37957   -37894 
  -37735   -37484   -37280   -37106   -36940   -36844   -36826   -36850 
  -36860   -36833   -36792   -36678   -36493   -36359   -36331   -36417 
  -36593   -36753   -36863   -36979   -37088   -37166   -37255   -37311 
  -37258   -37149   -37033   -36921   -36846   -36774   -36649   -36478 
  -36329   -36286   -36329   -36374   -36350   -36267   -36220   -36240 
  -36290   -36328   -36317   -36323   -36440   -36675   -36976   -37201 
  -37293   -37351   -37420   -37538   -37736   -37886   -37964   -38067 
  -38136   -38134   -38149   -38175   -38142   -38068   -37989   -37864 
  -37681   -37470   -37227   -36940   -36610   -36231   -35892   -35696 
  -35592   -35565   -35718   -35995   -36271   -36560   -36830   -36979 
  -37033   -37084   -37129   -37116   -37068   -37025   -36977   -36899 
  -36776   -36641   -36563   -36589   -36741   -36965   -37176   -37328 
  -37382   -37377   -37373   -37341   -37278   -37201   -37120   -37129 
  -37243   -37349   -37385   -37357   -37296   -37289   -37346   -37427 
  -37515   -37542   -37488   -37431   -37428   -37469   -37512   -37543 
  -37588   -37624   -37615   -37601   -37548   -37390   -37212   -37052 
  -36860   -36679   -36570   -36525   -36504   -36433   -36304   -36165 
  -36076   -36096   -36184   -36228   -36189   -36128   -36143   -36219 
  -36297   -36406   -36558   -36715   -36890   -37039   -37087   -37087 
  -37165   -37320   -37512   -37743   -37936   -37975   -37913   -37889 
  -37929   -37994   -38074   -38152   -38191   -38199   -38165   -38007 
  -37751   -37478   -37193   -36963   -36817   -36703   -36683   -36742 
  -36747   -36711   -36713   -36726   -36745   -36759   -36687   -36575 
  -36541   -36566   -36639   -36760   -36883   -37033   -37177   -37266 
  -37361   -37428   -37412   -37323   -37154   -36961   -36823   -36756 
  -36752   -36744   -36715   -36733   -36752   -36747   -36771   -36796 
  -36828   -36934   -37050   -37077   -37072   -37071   -37060   -37065 
  -37050   -36976   -36903   -36900   -36996   -37147   -37241   -37250 
  -37255   -37315   -37409   -37486   -37498   -37442   -37357   -37330 
  -37372   -37407   -37424   -37388   -37249   -37100   -36980   -36821 
  -36648   -36510   -36429   -36421   -36467   -36551   -36628   -36606 
  -36553   -36566   -36539   -36423   -36332   -36339   -36432   -36591 
  -36737   -36795   -36780   -36775   -36842   -36950   -37010   -37027 
  -37062   -37107   -37135   -37152   -37153   -37145   -37164   -37235 
  -37346   -37424   -37470   -37584   -37751   -37860   -37945   -38032 
  -38010   -37913   -37829   -37731   -37635   -37581   -37539   -37489 
  -37412   -37304   -37214   -37161   -37111   -37062   -37018   -36933 
  -36838   -36799   -36769   -36720   -36691   -36656   -36607   -36578 
  -36526   -36467   -36436   -36383   -36305   -36250   -36217   -36224 
  -36301   -36396   -36429   -36432   -36482   -36576   -36655   -36701 
  -36722   -36724   -36736   -36779   -36852   -36917   -36937   -36965 
  -37039   -37107   -37192   -37334   -37436   -37465   -37473   -37458 
  -37432   -37395   -37289   -37188   -37153   -37130   -37126   -37112 
  -37003   -36903   -36922   -36968   -36952   -36869   -36726   -36552 
  -36487   -36606   -36760   -36841   -36923   -37010   -37048   -37069 
  -37096   -37138   -37185   -37147   -37034   -36911   -36771   -36705 
  -36772   -36845   -36896   -36964   -36984   -36996   -37084   -37185 
  -37242   -37299   -37362   -37359   -37335   -37358   -37303   -37152 
  -37044   -36980   -36934   -36954   -37004   -37030   -37034   -37008 
  -36971   -36965   -37007   -37071   -37111   -37114   -37110   -37130 
  -37192   -37282   -37345   -37370   -37395   -37408   -37405   -37444 
  -37501   -37517   -37484   -37372   -37231   -37169   -37154   -37145 
  -37114   -37017   -36914   -36838   -36745   -36690   -36711   -36740 
  -36788   -36911   -37058   -37174   -37270   -37338   -37316   -37218 
  -37135   -37027   -36882   -36860   -36946   -36938   -36867   -36855 
  -36825   -36734   -36663   -36598   -36585   -36736   -36967   -37133 
  -37215   -37208   -37149   -37106   -37060   -36968   -36872   -36834 
  -36872   -36957   -37002   -36937   -36786   -36630   -36524   -36487 
  -36541   -36616   -36622   -36613   -36629   -36644   -36690   -36747 
  -36728   -36676   -36664   -36655   -36614   -36602   -36699   -36844 
  -36960   -37081   -37168   -37179   -37170   -37143   -37058   -36929 
  -36819   -36819   -36929   -37029   -37046   -37022   -36994   -36973 
  -36999   -37034   -36969   -36813   -36679   -36614   -36637   -36726 
  -36798   -36832   -36896   -37007   -37115   -37172   -37157   -37085 
  -37006   -36965   -37002   -37114   -37242   -37388   -37573   -37652 
  -37573   -37497   -37412   -37254   -37169   -37158   -37107   -37064 
  -37042   -37002   -36963   -36909   -36861   -36861   -36890   -37000 
  -37214   -37400   -37493   -37509   -37450   -37351   -37269   -37235 
  -37260   -37280   -37264   -37251   -37249   -37239   -37220   -37179 
  -37110   -37044   -37014   -36998   -36957   -36879   -36788   -36740 
  -36748   -36776   -36809   -36884   -37030   -37187   -37311   -37393 
  -37413   -37422   -37485   -37581   -37687   -37741   -37694   -37642 
  -37643   -37647   -37669   -37694   -37629   -37492   -37346   -37192 
  -37072   -36963   -36826   -36756   -36717   -36597   -36495   -36466 
  -36409   -36335   -36329   -36375   -36427   -36506   -36603   -36678 
  -36756   -36894   -37084   -37238   -37291   -37327   -37404   -37466 
  -37532   -37623   -37660   -37644   -37654   -37659   -37581   -37442 
  -37318   -37196   -36994   -36736   -36559   -36467   -36398   -36405 
  -36464   -36462   -36464   -36589   -36748   -36876   -37019   -37147 
  -37210   -37276   -37397   -37513   -37558   -37579   -37655   -37739 
  -37763   -37729   -37609   -37424   -37285   -37208   -37141   -37035 
  -36864   -36693   -36585   -36544   -36553   -36514   -36383   -36256 
  -36190   -36170   -36165   -36116   -36023   -35973   -36000   -36061 
  -36135   -36227   -36310   -36396   -36528   -36698   -36859   -36991 
  -37080   -37119   -37180   -37299   -37393   -37431   -37416   -37334 
  -37257   -37227   -37164   -37077   -37011   -36930   -36833   -36738 
  -36697   -36740   -36784   -36838   -36967   -37060   -37065   -37077 
  -37081   -37045   -37065   -37154   -37212   -37233   -37268   -37309 
  -37339   -37357   -37363   -37362   -37363   -37359   -37349   -37323 
  -37262   -37181   -37125   -37137   -37196   -37237   -37220   -37177 
  -37146   -37137   -37193   -37351   -37513   -37628   -37741   -37831 
  -37906   -37995   -38051   -38063   -38044   -38003   -37993   -37997 
  -37990   -38002   -37993   -37940   -37876   -37781   -37639   -37508 
  -37453   -37508   -37579   -37562   -37508   -37485   -37462   -37427 
  -37395   -37384   -37396   -37409   -37424   -37431   -37385   -37293 
  -37247   -37272   -37284   -37260   -37195   -37069   -36945   -36900 
  -36898   -36882   -36864   -36845   -36810   -36799   -36822   -36828 
  -36817   -36791   -36725   -36653   -36599   -36532   -36481   -36448 
  -36391   -36362   -36360   -36320   -36328   -36425   -36517   -36630 
  -36765   -36822   -36879   -37014   -37130   -37192   -37251   -37332 
  -37438   -37546   -37621   -37619   -37519   -37385   -37312   -37335 
  -37426   -37485   -37488   -37481   -37432   -37304   -37108   -36826 
  -36495   -36231   -36074   -35973   -35876   -35814   -35816   -35803 
  -35752   -35727   -35711   -35741   -35872   -36011   -36062   -36073 
  -36119   -36234   -36416   -36587   -36664   -36671   -36682   -36749 
  -36926   -37142   -37276   -37362   -37501   -37692   -37852   -37913 
  -37894   -37837   -37712   -37543   -37339   -37102   -36944   -36861 
  -36745   -36656   -36659   -36709   -36803   -36918   -36994   -37081 
  -37239   -37412   -37539   -37597   -37575   -37498   -37434   -37420 
  -37411   -37390   -37423   -37480   -37517   -37604   -37705   -37744 
  -37752   -37698   -37520   -37318   -37216   -37176   -37110   -37022 
  -36934   -36837   -36725   -36614   -36486   -36315   -36207   -36258 
  -36359   -36429   -36489   -36571   -36744   -36956   -37081   -37143 
  -37152   -37092   -37088   -37184   -37299   -37378   -37396   -37400 
  -37416   -37373   -37315   -37285   -37195   -37111   -37161   -37265 
  -37289   -37218   -37089   -36930   -36792   -36786   -36886   -36921 
  -36856   -36778   -36703   -36672   -36693   -36736   -36879   -37102 
  -37314   -37509   -37620   -37636   -37682   -37723   -37686   -37635 
  -37571   -37458   -37297   -37115   -36963   -36830   -36728   -36749 
  -36844   -36859   -36805   -36741   -36694   -36691   -36728   -36801 
  -36877   -36873   -36817   -36768   -36674   -36540   -36462   -36466 
  -36572   -36784   -36994   -37108   -37120   -37103   -37131   -37162 
  -37181   -37269   -37393   -37528   -37710   -37844   -37837   -37770 
  -37717   -37666   -37590   -37478   -37346   -37208   -37056   -36938 
  -36922   -36967   -37023   -37057   -37027   -36953   -36867   -36794 
  -36745   -36663   -36580   -36614   -36721   -36838   -36963   -37015 
  -36999   -37012   -37034   -37017   -37003   -37000   -36985   -36960 
  -36919   -36900   -36903   -36855   -36759   -36626   -36432   -36220 
  -36072   -36067   -36177   -36259   -36286   -36273   -36194   -36163 
  -36213   -36255   -36323   -36418   -36443   -36436   -36445   -36444 
  -36444   -36462   -36481   -36495   -36551   -36679   -36799   -36836 
  -36784   -36671   -36545   -36452   -36417   -36431   -36437   -36414 
  -36336   -36185   -36074   -36066   -36115   -36202   -36293   -36347 
  -36387   -36440   -36495   -36536   -36567   -36580   -36563   -36553 
  -36582   -36637   -36738   -36857   -36913   -36903   -36899   -36953 
  -37030   -37018   -36937   -36896   -36859   -36782   -36748   -36740 
  -36693   -36671   -36667   -36609   -36576   -36616   -36695   -36836 
  -36956   -36950   -36938   -36992   -37017   -36996   -36987   -37017 
  -37075   -37107   -37085   -37031   -36981   -37004   -37102   -37174 
  -37189   -37204   -37247   -37261   -37204   -37116   -37000   -36876 
  -36825   -36796   -36738   -36699   -36648   -36553   -36497   -36524 
  -36628   -36745   -36794   -36813   -36868   -36915   -36991   -37149 
  -37280   -37361   -37480   -37602   -37721   -37843   -37924   -38001 
  -38052   -38024   -38001   -38024   -38075   -38156   -38210   -38222 
  -38229   -38206   -38161   -38144   -38109   -38009   -37893   -37795 
  -37678   -37542   -37466   -37443   -37388   -37307   -37215   -37091 
  -36961   -36863   -36802   -36801   -36902   -37115   -37358   -37546 
  -37731   -37930   -38021   -38028   -38082   -38109   -38078   -38128 
  -38205   -38163   -38052   -37978   -37959   -37943   -37883   -37806 
  -37732   -37671   -37633   -37577   -37457   -37299   -37160   -37084 
  -37071   -37065   -37033   -36988   -36957   -37017   -37168   -37316 
  -37455   -37579   -37638   -37689   -37781   -37858   -37885   -37864 
  -37863   -37920   -37929   -37849   -37731   -37551   -37339   -37215 
  -37196   -37179   -37110   -37080   -37130   -37157   -37153   -37139 
  -37089   -37106   -37231   -37378   -37561   -37758   -37891   -38011 
  -38130   -38159   -38146   -38178   -38219   -38295   -38408   -38437 
  -38358   -38246   -38067   -37839   -37624   -37341   -37000   -36772 
  -36674   -36614   -36591   -36601   -36605   -36624   -36660   -36659 
  -36595   -36460   -36302   -36243   -36263   -36238   -36166   -36126 
  -36150   -36242   -36413   -36644   -36880   -37115   -37361   -37585 
  -37758   -37887   -37972   -37984   -37929   -37828   -37710   -37592 
  -37461   -37301   -37102   -36894   -36729   -36617   -36543   -36509 
  -36487   -36437   -36389   -36329   -36190   -36015   -35895   -35850 
  -35877   -35946   -36016   -36059   -36082   -36121   -36140   -36065 
  -35934   -35816   -35714   -35664   -35733   -35872   -36019   -36170 
  -36289   -36356   -36444   -36574   -36722   -36886   -37019   -37115 
  -37189   -37189   -37098   -37003   -36980   -36961   -36875   -36788 
  -36711   -36579   -36445   -36362   -36300   -36254   -36236   -36290 
  -36412   -36489   -36528   -36614   -36713   -36809   -36945   -37098 
  -37208   -37257   -37295   -37345   -37346   -37311   -37258   -37172 
  -37091   -37003   -36857   -36697   -36532   -36342   -36162   -36000 
  -35835   -35660   -35488   -35347   -35245   -35201   -35222   -35260 
  -35252   -35216   -35194   -35212   -35286   -35375   -35441   -35561 
  -35777   -36015   -36271   -36562   -36817   -37008   -37172   -37278 
  -37301   -37274   -37228   -37165   -37099   -37034   -36965   -36856 
  -36717   -36613   -36522   -36410   -36328   -36305   -36302   -36258 
  -36193   -36186   -36221   -36258   -36331   -36412   -36440   -36479 
  -36601   -36778   -36971   -37137   -37282   -37440   -37562   -37613 
  -37632   -37638   -37654   -37708   -37746   -37706   -37652   -37650 
  -37658   -37669   -37669   -37585   -37462   -37400   -37384   -37411 
  -37476   -37536   -37619   -37719   -37818   -37955   -38132   -38342 
  -38553   -38716   -38821   -38838   -38769   -38692   -38593   -38449 
  -38303   -38118   -37881   -37660   -37459   -37273   -37110   -36904 
  -36690   -36566   -36495   -36420   -36375   -36359   -36316   -36271 
  -36308   -36413   -36495   -36574   -36749   -37004   -37258   -37505 
  -37752   -37949   -38018   -37971   -37882   -37771   -37639   -37511 
  -37400   -37278   -37142   -37021   -36864   -36656   -36477   -36359 
  -36302   -36339   -36448   -36533   -36598   -36751   -36950   -37107 
  -37277   -37488   -37655   -37770   -37893   -37998   -38009   -37941 
  -37887   -37881   -37883   -37889   -37924   -37928   -37874   -37885 
  -37990   -38086   -38168   -38267   -38329   -38360   -38406   -38452 
  -38461   -38454   -38429   -38348   -38237   -38119   -37959   -37810 
  -37756   -37746   -37748   -37798   -37818   -37781   -37814   -37876 
  -37847   -37791   -37739   -37650   -37569   -37511   -37451   -37388 
  -37326   -37264   -37219   -37237   -37300   -37315   -37276   -37220 
  -37142   -37098   -37100   -37012   -36821   -36653   -36543   -36474 
  -36447   -36408   -36348   -36339   -36390   -36493   -36621   -36725 
  -36830   -36937   -37006   -37073   -37158   -37197   -37176   -37139 
  -37108   -37091   -37110   -37147   -37099   -36942   -36809   -36706 
  -36583   -36528   -36509   -36445   -36398   -36337   -36238   -36162 
  -36080   -36008   -36008   -36008   -35977   -35974   -35996   -36009 
  -36024   -36030   -35989   -35926   -35928   -36007   -36090   -36182 
  -36274   -36350   -36460   -36580   -36666   -36745   -36819   -36910 
  -37026   -37110   -37133   -37072   -36942   -36819   -36732   -36686 
  -36693   -36724   -36760   -36787   -36813   -36855   -36853   -36765 
  -36640   -36539   -36458   -36404   -36425   -36475   -36468   -36444 
  -36441   -36427   -36425   -36471   -36539   -36606   -36660   -36729 
  -36840   -36953   -37044   -37116   -37133   -37068   -36953   -36848 
  -36801   -36845   -36954   -37087   -37220   -37323   -37359   -37343 
  -37318   -37282   -37222   -37191   -37242   -37307   -37342   -37381 
  -37363   -37241   -37114   -37044   -36985   -36927   -36923   -37000 
  -37060   -37029   -36969   -36907   -36815   -36760   -36767   -36738 
  -36657   -36613   -36640   -36688   -36718   -36755   -36791   -36813 
  -36898   -37069   -37251   -37390   -37462   -37489   -37490   -37450 
  -37390   -37324   -37201   -37037   -36946   -36936   -36868   -36752 
  -36683   -36618   -36537   -36494   -36486   -36485   -36491   -36520 
  -36586   -36702   -36844   -36985   -37135   -37266   -37332   -37373 
  -37411   -37399   -37353   -37315   -37269   -37208   -37125   -36990 
  -36836   -36740   -36730   -36799   -36926   -37058   -37156   -37260 
  -37384   -37462   -37481   -37474   -37461   -37471   -37501   -37477 
  -37369   -37237   -37115   -37027   -37035   -37122   -37203   -37243 
  -37242   -37197   -37093   -36949   -36814   -36676   -36553   -36517 
  -36536   -36535   -36495   -36441   -36417   -36441   -36525   -36684 
  -36863   -37012   -37187   -37366   -37453   -37470   -37519   -37593 
  -37654   -37692   -37702   -37702   -37690   -37639   -37573   -37511 
  -37439   -37388   -37365   -37332   -37307   -37316   -37354   -37401 
  -37401   -37346   -37300   -37251   -37153   -37054   -36995   -36945 
  -36929   -36964   -36983   -36975   -36976   -36994   -37029   -37077 
  -37107   -37122   -37157   -37206   -37231   -37211   -37130   -37006 
  -36900   -36815   -36686   -36555   -36489   -36435   -36360   -36325 
  -36343   -36374   -36402   -36416   -36409   -36427   -36532   -36711 
  -36891   -37034   -37130   -37204   -37318   -37440   -37492   -37503 
  -37550   -37608   -37652   -37735   -37810   -37822   -37847   -37874 
  -37825   -37744   -37677   -37619   -37592   -37581   -37588   -37604 
  -37573   -37524   -37523   -37543   -37561   -37565   -37534   -37496 
  -37478   -37453   -37419   -37376   -37328   -37346   -37431   -37504 
  -37555   -37633   -37702   -37727   -37710   -37628   -37498   -37393 
  -37327   -37315   -37358   -37378   -37349   -37309   -37301   -37336 
  -37362   -37345   -37295   -37207   -37096   -36990   -36902   -36856 
  -36883   -36961   -37049   -37133   -37185   -37187   -37147   -37072 
  -36992   -36936   -36877   -36826   -36799   -36753   -36687   -36649 
  -36639   -36613   -36551   -36482   -36386   -36243   -36143   -36099 
  -36045   -36012   -35989   -35918   -35885   -35961   -36104   -36309 
  -36543   -36711   -36778   -36786   -36763   -36670   -36509   -36370 
  -36279   -36198   -36113   -36039   -35977   -35901   -35816   -35792 
  -35812   -35803   -35777   -35777   -35804   -35835   -35861   -35914 
  -35970   -36004   -36055   -36134   -36217   -36310   -36398   -36454 
  -36474   -36481   -36510   -36578   -36672   -36776   -36876   -36999 
  -37165   -37326   -37420   -37455   -37486   -37528   -37552   -37573 
  -37593   -37579   -37569   -37609   -37646   -37615   -37544   -37498 
  -37492   -37530   -37605   -37662   -37671   -37667   -37667   -37665 
  -37652   -37619   -37563   -37507   -37455   -37432   -37462   -37519 
  -37569   -37586   -37538   -37474   -37442   -37411   -37386   -37389 
