Origin Time       2024/04/02 04:24:00
Lat.              40.133
Long.             141.712
Depth. (km)       71
Mag.              6.0
Station Code      AKT003
Station Lat.      40.2784
Station Long.     140.2631
Station Height(m) 35
Record Time       2024/04/02 04:24:58
Sampling Freq(Hz) 100Hz
Duration Time(s)  101
Dir.              E-W
Scale Factor      7845(gal)/8223790
Max. Acc. (gal)   6.531
Last Correction   2024/04/02 04:24:58
Memo.             
[...]
  -15796   -15796   -15799   -15800   -15799   -15799   -15797   -15797 
  -15799   -15799   -15799   -15800   -15799   -15799   -15800   -15800 
  -15800   -15799   -15800   -15799   -15799   -15799   -15800   -15801 
  -15800   -15797   -15799   -15800   -15800   -15799   -15800   -15800 
  -15797   -15799   -15803   -15800   -15799   -15797   -15795   -15799 
  -15803   -15801   -15800   -15801   -15799   -15797   -15799   -15800 
  -15800   -15799   -15799   -15801   -15800   -15799   -15800   -15800 
  -15797   -15797   -15797   -15799   -15800   -15800   -15800   -15800 
  -15799   -15800   -15799   -15799   -15799   -15799   -15797   -15800 
  -15803   -15801   -15799   -15796   -15799   -15800   -15797   -15796 
  -15799   -15800   -15799   -15797   -15799   -15800   -15801   -15801 
  -15801   -15800   -15797   -15800   -15801   -15799   -15799   -15801 
  -15801   -15801   -15801   -15799   -15797   -15797   -15797   -15799 
  -15800   -15799   -15797   -15797   -15795   -15797   -15801   -15797 
  -15796   -15799   -15800   -15800   -15801   -15801   -15801   -15799 
  -15797   -15797   -15797   -15803   -15804   -15799   -15797   -15801 
  -15800   -15797   -15796   -15799   -15801   -15801   -15800   -15801 
  -15801   -15799   -15799   -15799   -15801   -15800   -15799   -15800 
  -15799   -15799   -15800   -15800   -15799   -15800   -15801   -15801 
  -15800   -15799   -15800   -15804   -15804   -15799   -15797   -15800 
  -15800   -15800   -15801   -15801   -15801   -15801   -15801   -15803 
  -15801   -15800   -15799   -15797   -15797   -15800   -15801   -15803 
  -15800   -15800   -15801   -15800   -15799   -15800   -15799   -15800 
  -15801   -15800   -15800   -15801   -15801   -15801   -15803   -15800 
  -15799   -15799   -15800   -15801   -15800   -15800   -15803   -15804 
  -15801   -15801   -15803   -15801   -15801   -15804   -15804   -15803 
  -15801   -15801   -15801   -15801   -15801   -15803   -15803   -15801 
  -15801   -15800   -15801   -15805   -15804   -15801   -15801   -15801 
  -15800   -15799   -15800   -15803   -15803   -15801   -15801   -15803 
  -15804   -15804   -15803   -15803   -15803   -15803   -15804   -15800 
  -15799   -15801   -15803   -15801   -15803   -15804   -15803   -15800 
  -15801   -15801   -15801   -15801   -15801   -15801   -15801   -15800 
  -15801   -15803   -15803   -15803   -15803   -15800   -15800   -15801 
  -15800   -15799   -15801   -15801   -15800   -15800   -15800   -15797 
  -15799   -15801   -15799   -15800   -15803   -15800   -15799   -15800 
  -15801   -15801   -15801   -15800   -15799   -15799   -15801   -15801 
  -15800   -15801   -15803   -15801   -15801   -15801   -15800   -15801 
  -15800   -15799   -15799   -15799   -15800   -15801   -15800   -15800 
  -15800   -15800   -15803   -15803   -15799   -15800   -15803   -15803 
  -15801   -15801   -15801   -15801   -15800   -15799   -15799   -15799 
  -15797   -15799   -15800   -15801   -15801   -15801   -15803   -15803 
  -15800   -15799   -15800   -15801   -15801   -15801   -15799   -15799 
  -15800   -15799   -15799   -15801   -15800   -15799   -15800   -15801 
  -15803   -15801   -15800   -15800   -15800   -15800   -15799   -15799 
  -15800   -15801   -15801   -15801   -15801   -15800   -15799   -15799 
  -15797   -15799   -15800   -15800   -15800   -15799   -15796   -15799 
  -15803   -15800   -15799   -15800   -15799   -15800   -15803   -15801 
  -15800   -15801   -15801   -15799   -15799   -15800   -15800   -15800 
  -15800   -15800   -15800   -15800   -15801   -15801   -15800   -15800 
  -15800   -15800   -15800   -15800   -15801   -15800   -15800   -15801 
  -15801   -15800   -15801   -15801   -15800   -15801   -15801   -15803 
  -15801   -15797   -15797   -15797   -15797   -15800   -15799   -15797 
  -15799   -15799   -15800   -15800   -15800   -15800   -15799   -15800 
  -15800   -15799   -15797   -15797   -15799   -15800   -15801   -15800 
  -15801   -15801   -15800   -15799   -15799   -15800   -15799   -15799 
  -15799   -15799   -15799   -15800   -15799   -15796   -15797   -15799 
  -15799   -15800   -15800   -15800   -15803   -15804   -15803   -15800 
  -15801   -15801   -15799   -15799   -15801   -15801   -15801   -15800 
  -15797   -15801   -15804   -15801   -15800   -15801   -15801   -15800 
  -15799   -15801   -15804   -15803   -15800   -15800   -15801   -15801 
  -15799   -15799   -15800   -15799   -15800   -15801   -15801   -15801 
  -15803   -15801   -15803   -15801   -15799   -15801   -15801   -15800 
  -15800   -15800   -15799   -15801   -15804   -15801   -15803   -15803 
  -15800   -15799   -15801   -15803   -15800   -15799   -15803   -15803 
  -15799   -15801   -15804   -15803   -15804   -15801   -15800   -15801 
  -15803   -15803   -15803   -15799   -15799   -15805   -15805   -15801 
  -15801   -15803   -15800   -15800   -15804   -15805   -15803   -15801 
  -15803   -15804   -15803   -15801   -15801   -15803   -15804   -15803 
  -15801   -15803   -15803   -15801   -15800   -15800   -15800   -15800 
  -15803   -15803   -15801   -15803   -15803   -15800   -15801   -15801 
  -15800   -15801   -15800   -15801   -15804   -15803   -15803   -15804 
  -15801   -15801   -15801   -15801   -15803   -15803   -15800   -15800 
  -15801   -15801   -15803   -15803   -15801   -15801   -15801   -15803 
  -15801   -15801   -15801   -15800   -15800   -15801   -15801   -15800 
  -15801   -15800   -15797   -15799   -15803   -15803   -15803   -15804 
  -15804   -15803   -15803   -15801   -15801   -15803   -15803   -15801 
  -15800   -15801   -15803   -15801   -15800   -15799   -15797   -15801 
  -15804   -15801   -15800   -15800   -15800   -15803   -15800   -15799 
  -15801   -15804   -15801   -15800   -15801   -15803   -15801   -15801 
  -15800   -15801   -15800   -15801   -15800   -15799   -15800   -15800 
  -15797   -15799   -15799   -15797   -15799   -15801   -15801   -15800 
  -15800   -15800   -15799   -15797   -15797   -15799   -15799   -15800 
  -15799   -15797   -15797   -15800   -15800   -15801   -15801   -15800 
  -15800   -15800   -15799   -15799   -15800   -15803   -15800   -15799 
  -15801   -15801   -15800   -15800   -15800   -15800   -15800   -15800 
  -15800   -15799   -15797   -15800   -15801   -15800   -15797   -15797 
  -15800   -15801   -15801   -15801   -15801   -15801   -15799   -15799 
  -15800   -15800   -15800   -15803   -15803   -15801   -15799   -15800 
  -15801   -15800   -15800   -15800   -15800   -15801   -15801   -15800 
  -15801   -15803   -15803   -15799   -15797   -15800   -15801   -15800 
  -15801   -15803   -15801   -15800   -15800   -15800   -15799   -15799 
  -15800   -15799   -15797   -15799   -15800   -15800   -15800   -15800 
  -15800   -15799   -15797   -15797   -15800   -15801   -15800   -15800 
  -15799   -15796   -15800   -15801   -15799   -15797   -15799   -15799 
  -15800   -15801   -15801   -15799   -15797   -15799   -15801   -15801 
  -15801   -15799   -15799   -15800   -15801   -15799   -15799   -15800 
  -15797   -15799   -15801   -15801   -15801   -15797   -15795   -15799 
  -15801   -15800   -15800   -15800   -15801   -15803   -15801   -15799 
  -15801   -15804   -15801   -15800   -15800   -15800   -15801   -15803 
  -15801   -15801   -15801   -15800   -15801   -15801   -15801   -15805 
  -15808   -15804   -15801   -15801   -15801   -15801   -15801   -15801 
  -15801   -15800   -15800   -15801   -15801   -15799   -15803   -15804 
  -15801   -15803   -15803   -15800   -15801   -15803   -15801   -15800 
  -15803   -15801   -15800   -15801   -15803   -15800   -15801   -15803 
  -15800   -15800   -15803   -15803   -15801   -15801   -15800   -15800 
  -15803   -15800   -15801   -15801   -15801   -15804   -15803   -15800 
  -15803   -15801   -15799   -15803   -15803   -15801   -15803   -15801 
  -15800   -15803   -15803   -15800   -15801   -15803   -15803   -15803 
  -15803   -15803   -15804   -15805   -15803   -15799   -15800   -15803 
  -15803   -15800   -15800   -15801   -15801   -15800   -15801   -15801 
  -15801   -15801   -15800   -15801   -15804   -15801   -15799   -15801 
  -15801   -15800   -15800   -15799   -15799   -15800   -15800   -15800 
  -15801   -15800   -15800   -15801   -15803   -15801   -15803   -15800 
  -15799   -15801   -15801   -15800   -15801   -15801   -15800   -15803 
  -15803   -15800   -15799   -15801   -15800   -15799   -15800   -15803 
  -15803   -15800   -15799   -15801   -15803   -15800   -15801   -15800 
  -15797   -15799   -15801   -15801   -15800   -15799   -15800   -15801 
  -15800   -15799   -15800   -15801   -15800   -15797   -15799   -15800 
  -15799   -15797   -15796   -15797   -15800   -15800   -15799   -15800 
  -15801   -15801   -15801   -15801   -15799   -15797   -15799   -15800 
  -15797   -15797   -15800   -15797   -15796   -15800   -15801   -15799 
  -15799   -15800   -15800   -15797   -15797   -15800   -15801   -15799 
  -15799   -15799   -15799   -15799   -15796   -15797   -15799   -15799 
  -15797   -15797   -15799   -15799   -15799   -15800   -15801   -15800 
  -15799   -15797   -15797   -15800   -15799   -15797   -15797   -15800 
  -15799   -15797   -15799   -15800   -15799   -15799   -15800   -15799 
  -15799   -15800   -15799   -15799   -15800   -15801   -15801   -15800 
  -15799   -15801   -15803   -15801   -15797   -15800   -15803   -15799 
  -15800   -15804   -15803   -15801   -15803   -15800   -15799   -15800 
  -15803   -15803   -15801   -15800   -15803   -15801   -15800   -15801 
  -15803   -15801   -15801   -15801   -15800   -15800   -15801   -15801 
  -15804   -15803   -15800   -15800   -15801   -15804   -15805   -15804 
  -15803   -15803   -15804   -15804   -15804   -15803   -15804   -15803 
  -15803   -15805   -15804   -15801   -15803   -15803   -15801   -15800 
  -15801   -15803   -15804   -15801   -15801   -15803   -15804   -15803 
  -15803   -15804   -15805   -15803   -15801   -15801   -15803   -15804 
  -15804   -15800   -15801   -15803   -15800   -15800   -15804   -15804 
  -15803   -15803   -15803   -15803   -15803   -15801   -15804   -15803 
  -15800   -15799   -15799   -15800   -15803   -15801   -15799   -15799 
  -15803   -15804   -15803   -15803   -15803   -15803   -15803   -15803 
  -15800   -15801   -15803   -15801   -15799   -15803   -15804   -15800 
  -15800   -15801   -15800   -15801   -15800   -15799   -15804   -15803 
  -15801   -15801   -15800   -15800   -15800   -15801   -15800   -15801 
  -15803   -15804   -15803   -15803   -15801   -15799   -15800   -15801 
  -15801   -15801   -15804   -15805   -15809   -15817   -15828   -15842 
  -15861   -15878   -15890   -15901   -15903   -15893   -15878   -15861 
  -15844   -15842   -15855   -15888   -15942   -16004   -16058   -16090 
  -16089   -16042   -15946   -15816   -15680   -15562   -15500   -15522 
  -15626   -15790   -15979   -16141   -16237   -16247   -16173   -16044 
  -15909   -15824   -15823   -15912   -16083   -16282   -16424   -16456 
  -16375   -16198   -15963   -15731   -15553   -15438   -15377   -15341 
  -15294   -15205   -15079   -14970   -14933   -15006   -15188   -15431 
  -15642   -15734   -15669   -15442   -15084   -14710   -14520   -14675 
  -15210   -16067   -17066   -17917   -18392   -18424   -18044   -17348 
  -16521   -15762   -15202   -14906   -14902   -15097   -15330   -15568 
  -15900   -16384   -16978   -17489   -17639   -17273   -16464   -15475 
  -14608   -14044   -13892   -14328   -15419   -16849   -18026   -18477 
  -18054   -16920   -15458   -14130   -13246   -12846   -12860   -13246 
  -13918   -14654   -15192   -15354   -15071   -14443   -13817   -13591 
  -13888   -14561   -15445   -16453   -17500   -18439   -19076   -19264 
  -19033   -18515   -17691   -16391   -14590   -12710   -11526   -11553 
  -12619   -14250   -16079   -17764   -18902   -19184   -18539   -17188 
  -15597   -14381   -14041   -14706   -16200   -18081   -19649   -20281 
  -19828   -18635   -17269   -16055   -15003   -14224   -14045   -14571 
  -15449   -16066   -15962   -15191   -14195   -13304   -12607   -12208 
  -12247   -12762   -13652   -14694   -15660   -16533   -17500   -18559 
  -19376   -19596   -19168   -18316   -17329   -16478   -15931   -15569 
  -15080   -14376   -13635   -13008   -12549   -12260   -12040   -11843 
  -11954   -12765   -14270   -16013   -17505   -18569   -19341   -19966 
  -20376   -20421   -20002   -19079   -17767   -16447   -15541   -15205 
  -15288   -15529   -15699   -15622   -15137   -14218   -13138   -12333 
  -12085   -12287   -12579   -12787   -13154   -14033   -15421   -16865 
  -17869   -18354   -18632   -18918   -19079   -18937   -18553   -18061 
  -17469   -16703   -15739   -14600   -13419   -12448   -11800   -11403 
  -11280   -11572   -12320   -13365   -14485   -15595   -16714   -17832 
  -18885   -19704   -19997   -19604   -18702   -17652   -16761   -16102 
  -15504   -14858   -14242   -13811   -13725   -14004   -14505   -15016 
  -15318   -15315   -15125   -14908   -14724   -14575   -14565   -14932 
  -15795   -16935   -17977   -18762   -19276   -19457   -19323   -19001 
  -18535   -17859   -16993   -16213   -15799   -15692   -15687   -15615 
  -15298   -14694   -13979   -13397   -13101   -13035   -13208   -13807 
  -14825   -15885   -16622   -17039   -17400   -17869   -18328   -18453 
  -17934   -16792   -15427   -14280   -13559   -13409   -13937   -15018 
  -16440   -17852   -18598   -18187   -16767   -15070   -13865   -13381 
  -13606   -14581   -15908   -16919   -17243   -16671   -15129   -13138 
  -11564   -10914   -11205   -12267   -14015   -16380   -19002   -21289 
  -22647   -22640   -21378   -19516   -17659   -16241   -15512   -15259 
  -15091   -14908   -14850   -14972   -15103   -15063   -14801   -14366 
  -14023   -14014   -14192   -14297   -14432   -15080   -16632   -18787 
  -20549   -20931   -19575   -16880   -13753   -11079    -9481    -9385 
  -10795   -12996   -14887   -15645   -15142   -14068   -13397   -13699 
  -15048   -17128   -19356   -21135   -22018   -21764   -20520   -18792 
  -17069   -15607   -14496   -13672   -12955   -12252   -11589   -11138 
  -11267   -12285   -14149   -16479   -18756   -20355   -20703   -19811 
  -18320   -16907   -15850   -15250   -15331   -16090   -17111   -17950 
  -18169   -17558   -16510   -15408   -14160   -12820   -11936   -11965 
  -12715   -13525   -13852   -13705   -13428   -13221   -13059   -12838 
  -12637   -12854   -13840   -15508   -17348   -18715   -19290   -19222 
  -18848   -18408   -17982   -17703   -17767   -18268   -19086   -19653 
  -19284   -17914   -16020   -14131   -12677   -11851   -11576   -11839 
  -12657   -13817   -15030   -16027   -16694   -17328   -18165   -18940 
  -19329   -19288   -18922   -18330   -17595   -16841   -16189   -15666 
  -15229   -14818   -14327   -13809   -13664   -14129   -14877   -15402 
  -15417   -14970   -14538   -14793   -15920   -17382   -18542   -19133 
  -19195   -18846   -18096   -16957   -15681   -14604   -13876   -13585 
  -13786   -14311   -14806   -14980   -14681   -13967   -13185   -12769 
  -13063   -14310   -16348   -18442   -19731   -19853   -19059   -17876 
  -16772   -16087   -15993   -16359   -16777   -16902   -16637   -15996 
  -15250   -14940   -15183   -15573   -15850   -16025   -16127   -16114 
  -15970   -15762   -15462   -15014   -14638   -14550   -14713   -15045 
  -15344   -15223   -14661   -14184   -14231   -14739   -15408   -16119 
  -16835   -17281   -17128   -16461   -15687   -15234   -15398   -15939 
  -16227   -15935   -15261   -14575   -14099   -13971   -14311   -15003 
  -15761   -16324   -16526   -16460   -16518   -16985   -17690   -18222 
  -18310   -17961   -17262   -16244   -15093   -13992   -13030   -12633 
  -13312   -14922   -16798   -18296   -19075   -19125   -18671   -18068 
  -17658   -17529   -17462   -17182   -16567   -15736   -14904   -14238 
  -13953   -14142   -14666   -15259   -15496   -15066   -14177   -13262 
  -12502   -11994   -11927   -12472   -13628   -15059   -16140   -16293 
  -15384   -13909   -12552   -11790   -11886   -12785   -14092   -15350 
  -16221   -16590   -16730   -17101   -17868   -18820   -19549   -19649 
  -18955   -17625   -15971   -14347   -13209   -12869   -13189   -13814 
  -14534   -15363   -16371   -17464   -18341   -18657   -18322   -17528 
  -16659   -16163   -16281   -16992   -18148   -19476   -20538   -20775 
  -19859   -18057   -16085   -14528   -13630   -13460   -13879   -14561 
  -15164   -15295   -14592   -13162   -11808   -11470   -12428   -14260 
  -16290   -17695   -17890   -17115   -16051   -15157   -14643   -14648 
  -15234   -16225   -17285   -18085   -18361   -18057   -17416   -16741 
  -16174   -15736   -15500   -15522   -15712   -15898   -15877   -15383 
  -14376   -13288   -12677   -12930   -14129   -15836   -17294   -18000 
  -17932   -17347   -16598   -16055   -15967   -16266   -16690   -17030 
  -17097   -16760   -16147   -15514   -15026   -14743   -14666   -14767 
  -14963   -15144   -15268   -15329   -15268   -15164   -15294   -15765 
  -16390   -16939   -17239   -17107   -16409   -15256   -14022   -13120 
  -12833   -13211   -14054   -15053   -15977   -16671   -17016   -17050 
  -16965   -16888   -16826   -16760   -16740   -16884   -17298   -17901 
  -18372   -18380   -17751   -16621   -15456   -14667   -14362   -14435 
  -14655   -14789   -14863   -15094   -15542   -16043   -16413   -16483 
  -16104   -15322   -14531   -14230   -14638   -15507   -16301   -16618 
  -16429   -15981   -15627   -15623   -15971   -16475   -16856   -16868 
  -16537   -16181   -16093   -16360   -16933   -17594   -17977   -17853 
  -17332   -16687   -16062   -15425   -14777   -14249   -13969   -14006 
  -14365   -14924   -15476   -15812   -15749   -15271   -14632   -14230 
  -14359   -15086   -16216   -17339   -18011   -17887   -16833   -15086 
  -13242   -11983   -11730   -12421   -13598   -14740   -15549   -15923 
  -15847   -15452   -14994   -14754   -14913   -15450   -16190   -17018 
  -17841   -18443   -18625   -18333   -17585   -16530   -15431   -14598 
  -14332   -14710   -15449   -16106   -16409   -16360   -16096   -15739 
  -15412   -15241   -15279   -15564   -16181   -17062   -17869   -18281 
  -18223   -17832   -17351   -16931   -16603   -16406   -16291   -16104 
  -15743   -15178   -14440   -13734   -13374   -13572   -14254   -15016 
  -15457   -15535   -15453   -15379   -15368   -15396   -15458   -15657 
  -16028   -16267   -15957   -15066   -13972   -13198   -13105   -13668 
  -14578   -15549   -16433   -17162   -17653   -17797   -17575   -17132 
  -16665   -16317   -16166   -16245   -16498   -16781   -16954   -16931 
  -16683   -16228   -15655   -15110   -14785   -14962   -15789   -16920 
  -17641   -17566   -16918   -16092   -15346   -14798   -14440   -14276 
  -14310   -14389   -14318   -14088   -13860   -13795   -13969   -14316 
  -14766   -15333   -15939   -16403   -16598   -16460   -16027   -15475 
  -15070   -15026   -15368   -15903   -16376   -16694   -16880   -16903 
  -16726   -16422   -16092   -15809   -15669   -15731   -15957   -16236 
  -16438   -16468   -16343   -16171   -16100   -16160   -16158   -15851 
  -15201   -14411   -13817   -13626   -13873   -14546   -15583   -16753 
  -17670   -17982   -17647   -16976   -16398   -16120   -16005   -15885 
  -15823   -15931   -16171   -16444   -16645   -16694   -16668   -16704 
  -16785   -16742   -16443   -15944   -15441   -15097   -15055   -15345 
  -15704   -15847   -15793   -15741   -15807   -15977   -16105   -16039 
