Origin Time       2024/04/02 04:24:00
Lat.              40.133
Long.             141.712
Depth. (km)       71
Mag.              6.0
Station Code      AKT012
Station Lat.      39.7014
Station Long.     140.7178
Station Height(m) 206
Record Time       2024/04/02 04:24:55
Sampling Freq(Hz) 100Hz
Duration Time(s)  100
Dir.              N-S
Scale Factor      7845(gal)/8223790
Max. Acc. (gal)   23.012
Last Correction   2024/04/02 04:24:55
Memo.             
[...]
   -5827    -5854    -5753    -5575    -5439    -5416    -5475    -5525 
   -5502    -5462    -5476    -5495    -5464    -5417    -5391    -5449 
   -5634    -5823    -5886    -5891    -5948    -6034    -6037    -5845 
   -5518    -5300    -5285    -5316    -5271    -5201    -5188    -5336 
   -5670    -5960    -5996    -5922    -5925    -5927    -5760    -5350 
   -4828    -4502    -4575    -4951    -5335    -5452    -5339    -5367 
   -5711    -6026    -5961    -5595    -5351    -5584    -5925    -5703 
   -5212    -5150    -5389    -5567    -5733    -5910    -6016    -5948 
   -5543    -4973    -4752    -5073    -5616    -5896    -5678    -5208 
   -4895    -4833    -4781    -4457    -4081    -4320    -5346    -6752 
   -7985    -8293    -7476    -6227    -5086    -4456    -4612    -4743 
   -4125    -3591    -3982    -4953    -5975    -6739    -6783    -5954 
   -5121    -5246    -5802    -5772    -5451    -5368    -5177    -4828 
   -4884    -5512    -6420    -7015    -6772    -6512    -7368    -7911 
   -6162    -3562    -2605    -3242    -4340    -5193    -5476    -5691 
   -6149    -6253    -5964    -5892    -6191    -6376    -5651    -4383 
   -4328    -5917    -7635    -7935    -6319    -3886    -2381    -2494 
   -4187    -6905    -8968    -9090    -7955    -6727    -5474    -4160 
   -3555    -4233    -5660    -6478    -5760    -4311    -3543    -3593 
   -4415    -6345    -8206    -8152    -6740    -6274    -7222    -7565 
   -6062    -4290    -3993    -4136    -3221    -2506    -3842    -6552 
   -8495    -8445    -7060    -5753    -4727    -3523    -2851    -3784 
   -5703    -6790    -6623    -6562    -7209    -7534    -6517    -4288 
   -2511    -2920    -4662    -5817    -6647    -7862    -8542    -7923 
   -6027    -3330    -1769    -2980    -5454    -6482    -5290    -3032 
   -1868    -3250    -6031    -7933    -8347    -8017    -7462    -7182 
   -7439    -7055    -4935    -2173     -729    -1636    -4180    -6291 
   -7454    -8656    -9045    -7701    -6151    -5447    -5135    -5012 
   -4688    -3692    -2598    -2717    -4662    -6693    -6551    -5302 
   -5455    -6872    -7641    -6685    -4819    -4031    -5035    -6307 
   -6062    -4229    -2361    -2228    -4617    -8405   -10858   -10426 
   -8193    -5633    -3441    -2421    -2902    -3998    -4976    -6118 
   -7323    -7519    -6349    -4862    -4074    -4263    -5395    -6794 
   -7214    -6453    -5486    -4700    -4020    -3879    -4448    -5383 
   -6593    -7893    -8488    -7731    -6060    -4754    -4515    -4679 
   -4698    -5344    -6723    -7187    -6134    -5197    -5516    -6126 
   -5586    -4116    -3299    -3981    -5580    -6867    -7020    -6471 
   -5933    -5161    -4056    -3566    -4317    -5522    -6049    -5745 
   -4973    -4158    -4387    -6111    -7866    -8370    -7749    -6505 
   -5287    -4506    -4126    -4309    -5139    -6519    -8008    -8133 
   -6320    -4553    -4415    -5089    -5235    -4463    -3501    -3597 
   -4923    -6277    -6543    -5628    -4580    -4538    -4949    -4522 
   -3597    -3235    -3674    -4988    -6960    -8465    -8618    -7685 
   -6488    -5580    -4823    -4229    -4812    -6755    -8455    -8899 
   -8131    -6165    -4000    -3065    -3412    -4548    -5950    -6531 
   -5917    -4849    -3755    -2872    -2849    -3902    -5324    -6004 
   -5400    -4398    -4496    -5877    -7018    -6570    -5390    -5306 
   -6320    -7168    -7300    -6874    -6367    -6274    -6448    -6508 
   -6442    -5983    -4838    -4054    -4544    -4999    -4527    -4533 
   -5736    -7187    -8163    -8360    -7584    -5971    -4279    -3784 
   -4541    -4918    -4507    -4735    -5679    -5942    -5405    -5119 
   -5483    -5832    -5359    -4441    -4294    -4935    -5414    -5925 
   -7037    -7777    -7344    -6648    -6111    -5143    -4117    -3827 
   -4504    -6023    -7152    -6629    -5348    -4695    -4731    -5247 
   -5687    -5229    -4571    -4912    -5692    -5879    -5815    -6235 
   -6983    -7294    -6744    -5807    -5410    -5672    -5324    -3566 
   -2014    -2512    -4318    -5575    -5462    -4368    -3704    -4409 
   -5679    -6505    -6814    -6727    -6438    -6297    -6176    -5647 
   -4934    -4750    -5277    -6153    -7134    -7919    -7888    -6853 
   -5709    -5366    -5404    -5085    -4729    -4797    -5061    -5007 
   -4467    -4093    -4290    -4376    -4187    -4268    -4558    -4989 
   -5768    -6384    -5983    -4706    -3732    -3815    -4374    -4735 
   -5393    -6999    -8631    -8653    -7145    -5644    -5044    -5406 
   -6519    -7565    -7614    -6864    -6215    -5814    -5425    -5359 
   -5732    -5844    -5243    -4476    -4261    -4635    -5154    -5425 
   -5481    -5517    -5321    -4662    -4125    -4626    -5961    -6821 
   -6497    -5574    -4885    -4703    -5008    -5899    -7025    -7403 
   -6886    -6293    -5838    -5549    -6043    -7055    -7272    -6353 
   -5205    -4548    -4260    -4158    -4604    -5475    -5722    -5070 
   -4313    -3902    -3991    -4741    -5859    -6867    -7358    -6999 
   -6045    -5186    -4903    -5265    -5876    -6072    -5526    -4704 
   -4529    -5286    -6235    -6767    -7032    -7113    -6681    -5703 
   -4781    -4491    -4615    -4432    -3797    -3473    -4114    -5382 
   -6447    -6933    -6887    -6326    -5514    -5143    -5584    -6586 
   -7773    -8552    -8201    -6775    -5125    -4266    -4729    -5680 
   -5822    -5244    -4573    -3796    -3029    -2467    -2139    -2687 
   -4409    -6164    -7040    -7287    -7115    -6633    -6168    -5733 
   -5269    -4874    -4662    -4914    -5499    -5919    -6397    -7163 
   -7422    -6621    -5568    -5432    -6127    -6366    -5630    -4804 
   -4352    -3793    -3310    -3784    -5134    -6301    -6579    -6108 
   -5545    -5468    -5863    -6241    -6054    -5155    -4226    -4094 
   -4677    -5502    -6370    -6918    -6659    -5842    -5256    -5206 
   -5486    -6014    -6893    -7862    -8064    -7020    -5513    -4434 
   -3780    -3627    -4418    -5763    -6431    -5780    -4557    -4043 
   -4479    -4947    -4926    -4887    -5063    -4972    -4554    -4681 
   -5664    -6192    -5328    -4460    -5015    -6087    -6578    -6951 
   -7325    -6920    -5891    -5220    -5262    -5697    -5960    -5529 
   -4626    -4243    -4878    -5886    -6488    -6656    -6606    -6392 
   -6166    -6075    -6081    -6303    -6933    -7547    -7310    -6238 
   -5255    -4882    -4777    -4729    -5152    -5906    -5865    -4662 
   -3572    -3728    -4537    -4939    -5109    -5517    -5957    -6319 
   -6470    -5879    -4729    -4166    -4801    -5917    -6311    -5710 
   -5019    -4951    -5186    -5290    -5533    -6061    -6108    -5162 
   -4066    -3859    -4688    -6238    -7719    -8000    -7088    -6173 
   -5798    -5533    -5082    -4432    -3573    -2825    -2701    -3326 
   -4631    -6416    -8025    -8665    -8048    -6747    -5657    -5098 
   -4889    -4927    -5451    -6459    -6887    -6130    -5387    -5512 
   -5895    -6000    -5601    -4676    -3886    -3920    -4687    -5509 
   -5941    -6134    -6318    -6543    -6558    -5887    -4820    -4321 
   -4734    -5744    -6851    -7248    -6525    -5593    -5481    -5854 
   -6045    -6103    -6123    -6045    -5933    -5881    -6018    -6293 
   -6355    -6026    -5547    -5290    -5348    -5510    -5648    -5732 
   -5688    -5459    -4988    -4490    -4383    -4436    -3942    -3177 
   -3458    -4996    -6164    -5968    -5321    -5202    -5647    -6332 
   -6602    -5891    -4756    -4353    -5046    -6114    -6542    -6272 
   -6281    -6708    -6493    -5616    -5343    -5854    -5787    -4395 
   -2799    -2566    -3820    -5502    -6681    -6872    -6133    -5273 
   -4985    -4884    -4399    -3927    -4155    -4905    -5481    -5768 
   -6069    -6315    -6466    -6683    -6893    -7013    -6779    -5929 
   -5260    -5435    -5634    -5269    -4837    -4680    -4519    -3996 
   -3743    -4951    -6976    -7790    -7013    -5917    -5111    -4456 
   -4425    -5377    -6080    -5240    -3715    -3086    -3541    -4575 
   -5784    -6507    -6442    -6280    -6687    -7335    -7719    -7992 
   -8058    -7334    -5818    -4153    -3188    -3532    -4693    -5876 
   -7068    -7661    -6619    -4764    -3856    -4241    -5179    -5950 
   -6270    -6463    -6794    -6847    -6249    -5410    -4860    -4652 
   -4835    -5424    -6083    -6550    -6660    -6196    -5452    -4965 
   -4897    -5456    -6511    -7042    -6536    -5795    -5671    -6181 
   -6716    -6735    -6459    -6323    -6068    -5405    -4735    -4503 
   -4807    -5448    -5811    -5551    -5232    -5336    -5443    -5031 
   -4325    -4122    -4737    -5464    -5779    -6056    -6369    -6137 
   -5223    -4411    -4608    -5494    -5683    -4874    -4411    -5089 
   -5976    -6129    -5930    -5751    -5346    -5119    -5503    -5887 
   -5996    -6299    -6624    -6443    -5742    -4654    -3419    -2718 
   -3049    -4137    -5235    -5752    -5815    -5755    -5316    -4519 
   -4106    -4364    -4762    -4858    -4873    -5352    -6311    -6805 
   -5890    -4193    -3476    -4468    -6166    -7115    -6986    -6629 
   -6454    -6164    -5922    -5967    -5834    -5205    -4679    -5034 
   -6019    -6682    -6752    -6678    -6581    -5999    -4858    -4178 
   -4649    -5328    -5328    -5440    -6496    -7716    -8037    -7565 
   -6782    -5827    -4941    -4537    -4897    -5771    -6158    -5510 
   -4712    -4634    -5143    -6043    -6913    -6705    -5494    -4945 
   -5757    -6592    -6219    -5062    -4449    -5027    -5790    -5656 
   -5228    -5242    -5328    -5228    -4949    -4465    -4405    -5174 
   -5649    -4873    -3843    -3867    -4923    -6270    -7190    -7321 
   -6816    -6177    -6025    -6296    -6166    -5525    -5009    -4610 
   -4101    -4079    -5152    -6592    -6937    -5961    -4846    -4469 
   -4604    -4741    -4934    -5362    -5764    -6019    -6219    -6241 
   -5995    -5494    -5047    -5179    -5647    -5887    -6092    -6330 
   -6249    -5886    -5309    -4641    -4467    -4955    -5682    -6461 
   -7204    -7600    -7311    -6143    -4639    -4141    -4989    -5894 
   -6097    -5952    -5526    -4997    -4954    -5124    -4907    -4716 
   -4951    -5094    -4818    -4313    -3738    -3704    -5026    -7072 
   -8059    -7452    -6411    -5940    -6011    -6157    -6156    -6150 
   -6062    -5412    -4216    -3334    -3414    -4391    -5926    -7404 
   -8090    -7674    -6461    -5452    -5517    -6048    -5809    -4899 
   -4234    -4093    -4437    -5358    -6436    -6956    -6906    -6750 
   -6444    -5764    -5093    -4992    -5374    -5528    -5065    -4580 
   -4793    -5551    -6080    -5973    -5876    -6388    -6731    -6207 
   -5377    -4696    -4374    -4900    -5833    -6016    -5455    -5026 
   -4958    -4984    -5077    -5190    -5031    -4546    -4232    -4641 
   -5483    -5845    -5651    -5652    -6072    -6363    -6087    -5670 
   -5730    -5977    -5971    -5814    -5611    -5724    -6555    -7518 
   -7584    -6569    -5350    -4963    -5308    -5312    -4619    -4166 
   -4723    -5683    -6037    -5707    -5263    -5344    -6085    -6635 
   -6458    -6211    -6281    -6258    -5921    -5370    -4905    -4791 
   -4791    -4691    -4665    -4662    -4626    -4787    -4980    -4777 
   -4158    -3391    -3040    -3766    -5340    -6515    -6448    -5772 
   -5555    -5761    -5872    -6003    -6253    -6389    -6370    -6150 
   -5665    -5127    -4687    -4240    -3667    -3022    -2650    -2897 
   -3647    -4382    -4479    -3839    -3291    -3438    -3885    -4313 
   -4853    -5420    -5800    -5965    -5937    -5690    -5425    -5578 
   -6029    -6301    -6515    -6737    -6469    -5655    -4762    -4006 
   -3511    -3445    -3728    -4198    -4598    -4405    -3473    -2381 
   -1744    -1799    -2443    -3226    -3747    -4028    -4267    -4677 
   -5306    -5736    -5624    -5356    -5566    -6378    -7418    -8457 
   -9362    -9389    -8032    -6253    -5339    -5420    -5859    -6011 
   -5609    -4930    -4388    -4145    -4152    -4257    -4569    -5165 
   -5508    -5370    -5294    -5328    -5023    -4557    -4283    -4098 
   -4090    -4584    -5540    -6852    -8402    -9516    -9745    -9560 
   -9346    -9324    -9976   -10947   -11198   -10724   -10449   -10828 
  -11454   -11587   -10841    -9752    -9267    -9166    -8159    -6077 
   -4248    -3715    -4236    -4648    -4064    -2787    -1692    -1329 
   -1595    -1759    -1617    -2073    -3410    -4814    -6118    -7942 
  -10524   -13363   -15539   -16762   -17658   -18168   -17176   -14204 
   -9937    -5476    -2002     -298     -494    -2131    -3997    -4892 
   -4573    -3024      -89     3751     7526    10490    12279    12694 
   11287     7442     1556    -4455    -8649   -10509   -10809   -10783 
  -11529   -13644   -16484   -18048   -17147   -14995   -13378   -12796 
  -13242   -14959   -17270   -18202   -16627   -13513   -10673    -9528 
  -10459   -12758   -15025   -14909   -10169    -1548     7244    12758 
   13772    11034     6619     3191     2625     4923     8245     9841 
    8106     4180      851      252     2552     5879     7369     4903 
   -1065    -7117    -9536    -7447    -2763     1887     4621     4295 
    -105    -8630   -18693   -26118   -28906   -28520   -26364   -21651 
  -14092    -5490     2195     7921    10623     8764     1425   -10092 
  -21766   -28954   -29671   -24657   -15303    -4094     4949     9238 
    9317     7037     3967     1055    -1262    -2828    -3694    -4005 
   -4116    -4413    -4645    -3920    -1665      341    -1312    -7013 
  -13659   -18449   -19697   -17421   -14211   -12090   -10837   -10215 
  -10030    -9425    -8478    -8345    -9219    -9655    -8156    -4966 
   -1902     -561    -1517    -4448    -7716    -9300    -8889    -7323 
   -4816    -1233     3218     7923    11461    11847     7970      746 
   -7115   -12910   -15715   -16083   -15329   -15055   -15395   -14708 
  -11477    -5197     3231    11047    15060    13941     8446      -87 
   -9846   -17308   -18706   -13421    -5067      679      129    -5965 
  -13718   -19186   -20711   -18850   -14918   -10644    -7715    -6678 
   -6926    -6862    -4303     1193     6898     9188     6631      742 
   -5657   -10821   -14241   -14833   -11739    -6795    -3257    -2277 
   -2331    -1710     -612     -325    -1296    -3169    -5692    -8903 
  -12276   -13963   -12650    -9450    -6010    -2571      733     2195 
    -183    -5431    -9703   -10251    -7034    -2214      388    -1594 
   -6845   -11947   -13776   -11588    -6882    -1811      665    -1655 
   -6897   -10423    -9508    -4985      386     3754     3665     1054 
   -1860    -3650    -4032    -3122    -1436     -265    -1007    -3904 
   -7894   -11458   -13495   -13466   -11470    -8364    -4797    -1320 
     464     -641    -3685    -6615    -7738    -6924    -5819    -5998 
   -7722   -10233   -12394   -13355   -12224    -8093    -1937     3493 
    6400     6513     4311     1432     -722    -2910    -6270    -9988 
  -11483    -8942    -4145     -989    -1395    -3954    -5879    -6081 
   -5679    -5707    -6069    -6245    -6334    -7485   -10056   -12087 
  -11427    -8380    -5449    -5044    -7204    -9765   -11052   -11254 
  -11371   -11399   -10075    -7257    -5026    -4969    -6297    -7369 
   -7362    -6605    -5721    -4565    -3391    -3754    -6443    -9926 
  -11431    -9359    -4965     -926     1605     3082     3655     3142 
    1868      221    -1545    -2995    -3843    -4147    -4163    -4018 
   -3156    -1040     1146     1521      178    -1522    -3416    -6084 
   -9053   -10593    -9819    -8534    -8839   -10264   -10994   -10111 
   -8441    -8112   -10133   -12877   -14067   -12935   -10156    -7350 
   -6331    -7408    -8779    -8203    -5402    -2359    -1377    -3676 
   -8529   -12808   -13189    -9178    -3518     -213    -1243    -4772 
   -7257    -6721    -3605      276     2835     2866      896    -1680 
   -3855    -5000    -4815    -3927    -3581    -4321    -5863    -7689 
   -8854    -8561    -7260    -5586    -3304     -827      186    -1339 
   -4873    -8865   -11608   -11985   -10195    -7839    -6264    -5123 
   -3763    -3044    -4202    -6417    -7574    -7103    -5748    -3990 
   -2459    -2087    -3322    -5522    -6779    -5926    -4360    -3681 
   -3781    -4708    -7049    -9840   -10856    -9215    -6583    -5044 
   -4442    -4006    -4779    -7414   -10521   -12675   -13586   -13513 
  -12361    -9633    -6080    -3978    -4428    -5680    -5146    -2467 
     457     1753      584    -2625    -5950    -7472    -7275    -6907 
   -7411    -8623    -9684    -9810    -9023    -8333    -8723    -9629 
   -9148    -6538    -3601    -2520    -3686    -6170    -8642   -10125 
  -10430    -9914    -9304    -8885    -8002    -6185    -3937    -1941 
    -510     -395    -2515    -5815    -7410    -5765    -2124     1426 
    3827     4679     3605      859    -2412    -4741    -5186    -4357 
   -3981    -5089    -7257    -9193    -9742    -8907    -7645    -6508 
   -5472    -5039    -5914    -7315    -7233    -4942    -2106     -854 
   -1498    -2925    -4224    -4612    -3403    -1429     -606    -1621 
   -3846    -6677    -9216   -10130    -9148    -7200    -4965    -2728 
   -1043     -511     -946    -1362    -1256     -905     -492     -224 
    -540    -1669    -3329    -4951    -6733    -9359   -12159   -13390 
  -12425   -10577    -9805   -10633   -11747   -11624    -9998    -7824 
   -6177    -5553    -6007    -6990    -7334    -6585    -5734    -5535 
   -5215    -4010    -2614    -2177    -2695    -3144    -3117    -3237 
   -3861    -4747    -5595    -5859    -5151    -4194    -4405    -6342 
   -8675    -9490    -8735    -7681    -6812    -6029    -5324    -4630 
   -4179    -4525    -6048    -8577   -10914   -11635   -10791    -9741 
   -9733   -10975   -12276   -12108   -10174    -7281    -4530    -2562 
   -1117      -99       79     -448    -1167    -1815    -2253    -2527 
   -2916    -3535    -4075    -4078    -3788    -4118    -5115    -5509 
   -4490    -3167    -3518    -5782    -7744    -7249    -4735    -2666 
   -2717    -4595    -6917    -8063    -7542    -6104    -3964    -1455 
    -228    -1158    -3056    -4210    -4037    -3905    -5591    -8388 
   -9904    -9294    -7680    -6300    -5506    -5501    -6687    -8280 
   -8328    -6130    -3465    -2805    -4461    -6358    -6714    -5946 
   -5624    -6399    -7638    -8257    -7527    -5748    -4054    -3318 
   -3438    -3805    -4094    -4320    -4747    -5544    -6210    -6324 
   -6091    -5279    -3705    -2772    -3712    -5305    -5768    -5092 
   -4360    -4515    -5829    -7919   -10021   -10935    -9865    -7728 
   -6355    -6431    -6808    -6212    -4966    -4086    -3838    -3808 
   -3801    -4572    -6493    -8140    -8202    -7060    -5476    -3888 
   -2798    -2803    -4195    -6254    -7670    -7898    -7248    -6127 
   -5127    -5093    -6183    -7550    -8540    -9217    -9726    -9860 
   -9267    -8172    -7398    -7264    -7415    -7450    -7067    -6253 
   -5339    -4762    -5016    -6134    -7302    -7653    -6805    -5011 
   -3403    -2710    -2373    -2022    -1938    -2284    -3007    -3618 
