Origin Time       2024/04/02 04:24:00
Lat.              40.133
Long.             141.712
Depth. (km)       71
Mag.              6.0
Station Code      AKT008
Station Lat.      39.8840
Station Long.     140.0706
Station Height(m) 4
Record Time       2024/04/02 04:25:24
Sampling Freq(Hz) 100Hz
Duration Time(s)  60
Dir.              E-W
Scale Factor      7845(gal)/8223790
Max. Acc. (gal)   3.579
Last Correction   2024/04/02 04:25:25
Memo.             
   -7724    -7393    -7187    -7032    -6922    -6972    -7103    -7238 
   -7375    -7493    -7651    -7875    -8137    -8398    -8559    -8577 
   -8480    -8272    -7989    -7668    -7354    -7115    -6914    -6716 
   -6601    -6519    -6350    -6147    -5964    -5821    -5845    -6034 
   -6204    -6288    -6324    -6297    -6203    -6157    -6231    -6320 
   -6346    -6326    -6264    -6207    -6228    -6292    -6380    -6543 
   -6720    -6871    -7083    -7372    -7690    -8009    -8314    -8607 
   -8857    -9050    -9205    -9297    -9325    -9244    -8993    -8683 
   -8424    -8233    -8102    -7996    -7894    -7743    -7522    -7335 
   -7237    -7191    -7180    -7280    -7496    -7693    -7813    -7846 
   -7778    -7709    -7709    -7717    -7712    -7713    -7732    -7785 
   -7804    -7720    -7627    -7545    -7426    -7337    -7273    -7238 
   -7295    -7354    -7360    -7403    -7519    -7655    -7763    -7840 
   -7917    -7985    -8051    -8113    -8083    -7970    -7854    -7715 
   -7573    -7473    -7410    -7387    -7327    -7192    -7071    -6987 
   -6933    -6899    -6835    -6752    -6697    -6678    -6685    -6720 
   -6783    -6836    -6864    -6885    -6922    -7003    -7059    -6997 
   -6875    -6824    -6886    -7003    -7088    -7126    -7167    -7229 
   -7273    -7330    -7442    -7538    -7589    -7624    -7582    -7474 
   -7449    -7568    -7727    -7859    -8010    -8152    -8220    -8226 
   -8212    -8167    -8081    -8058    -8168    -8336    -8540    -8741 
   -8796    -8679    -8472    -8190    -7900    -7731    -7615    -7460 
   -7307    -7152    -7024    -7002    -7056    -7110    -7144    -7138 
   -7084    -7025    -6975    -6934    -6922    -6835    -6651    -6534 
   -6480    -6372    -6238    -6166    -6156    -6160    -6164    -6169 
   -6210    -6289    -6326    -6296    -6265    -6232    -6183    -6164 
   -6230    -6409    -6710    -7095    -7500    -7888    -8230    -8515 
   -8761    -8973    -9096    -9077    -8968    -8799    -8587    -8429 
   -8314    -8160    -8031    -7959    -7906    -7851    -7792    -7773 
   -7753    -7596    -7318    -7032    -6750    -6417    -6099    -5923 
   -5950    -6178    -6525    -6812    -6960    -7071    -7144    -7109 
   -7032    -6994    -6975    -6921    -6810    -6698    -6655    -6704 
   -6808    -6886    -6913    -6933    -6953    -6921    -6870    -6875 
   -6889    -6886    -6879    -6817    -6740    -6720    -6737    -6782 
   -6849    -6909    -6948    -7011    -7098    -7164    -7244    -7368 
   -7476    -7541    -7589    -7600    -7622    -7674    -7657    -7611 
   -7632    -7681    -7734    -7820    -7944    -8078    -8206    -8287 
   -8286    -8268    -8235    -8158    -8095    -8008    -7846    -7735 
   -7739    -7792    -7831    -7850    -7831    -7736    -7581    -7446 
   -7375    -7371    -7399    -7387    -7304    -7195    -7102    -7053 
   -7042    -7061    -7094    -7084    -7056    -7055    -7048    -7056 
   -7115    -7183    -7267    -7383    -7497    -7650    -7874    -8086 
   -8203    -8236    -8194    -8068    -7911    -7751    -7543    -7310 
   -7115    -6959    -6883    -6941    -7040    -7101    -7179    -7272 
   -7350    -7462    -7551    -7485    -7341    -7268    -7241    -7219 
   -7200    -7153    -7057    -6951    -6891    -6845    -6774    -6731 
   -6752    -6870    -7057    -7203    -7295    -7384    -7477    -7577 
   -7639    -7607    -7508    -7393    -7264    -7128    -7068    -7137 
   -7249    -7345    -7422    -7435    -7402    -7381    -7325    -7245 
   -7276    -7361    -7372    -7403    -7483    -7500    -7508    -7592 
   -7662    -7650    -7550    -7350    -7125    -6943    -6763    -6597 
   -6508    -6469    -6461    -6515    -6615    -6727    -6840    -6925 
   -6971    -7025    -7119    -7263    -7491    -7784    -8050    -8252 
   -8392    -8437    -8403    -8384    -8402    -8378    -8324    -8268 
   -8122    -7893    -7723    -7619    -7550    -7565    -7605    -7584 
   -7568    -7599    -7585    -7479    -7356    -7307    -7327    -7350 
   -7317    -7236    -7133    -7021    -6961    -6983    -7049    -7122 
   -7168    -7188    -7215    -7264    -7315    -7344    -7387    -7457 
   -7453    -7371    -7304    -7215    -7049    -6875    -6767    -6747 
   -6810    -6947    -7091    -7195    -7250    -7246    -7190    -7103 
   -7095    -7253    -7437    -7545    -7674    -7835    -7951    -8014 
   -8009    -7965    -7998    -8121    -8247    -8348    -8430    -8496 
   -8525    -8491    -8422    -8368    -8278    -8060    -7798    -7596 
   -7454    -7327    -7160    -6993    -6890    -6820    -6736    -6635 
   -6554    -6477    -6385    -6361    -6401    -6462    -6559    -6673 
   -6801    -6910    -7005    -7202    -7449    -7604    -7690    -7697 
   -7573    -7404    -7241    -7060    -6903    -6826    -6808    -6802 
   -6832    -6901    -6999    -7149    -7317    -7458    -7550    -7607 
   -7676    -7705    -7620    -7477    -7398    -7384    -7372    -7376 
   -7446    -7561    -7666    -7722    -7736    -7761    -7792    -7771 
   -7676    -7592    -7588    -7609    -7566    -7466    -7403    -7344 
   -7244    -7215    -7269    -7240    -7069    -6912    -6845    -6801 
   -6787    -6848    -6960    -7152    -7365    -7489    -7576    -7686 
   -7770    -7805    -7844    -7894    -7920    -7938    -7944    -7886 
   -7788    -7709    -7654    -7595    -7519    -7434    -7364    -7318 
   -7263    -7184    -7140    -7168    -7241    -7302    -7302    -7261 
   -7214    -7133    -7022    -6956    -6959    -6974    -6971    -6955 
   -6912    -6851    -6828    -6825    -6820    -6872    -6988    -7111 
   -7195    -7175    -7068    -6963    -6874    -6797    -6795    -6843 
   -6812    -6750    -6767    -6824    -6907    -7026    -7088    -7080 
   -7091    -7140    -7217    -7349    -7492    -7619    -7776    -7909 
   -7978    -8021    -8054    -8101    -8127    -8091    -8073    -8071 
   -7992    -7797    -7545    -7327    -7219    -7203    -7169    -7105 
   -7102    -7159    -7211    -7240    -7215    -7140    -7111    -7176 
   -7242    -7268    -7317    -7364    -7327    -7240    -7165    -7080 
   -6966    -6898    -6936    -7033    -7176    -7385    -7577    -7669 
   -7703    -7746    -7800    -7827    -7821    -7815    -7805    -7796 
   -7813    -7844    -7878    -7888    -7813    -7695    -7641    -7686 
   -7792    -7867    -7873    -7836    -7763    -7663    -7585    -7553 
   -7534    -7474    -7335    -7146    -7014    -7003    -7079    -7186 
   -7288    -7329    -7285    -7264    -7339    -7473    -7618    -7735 
   -7797    -7819    -7839    -7902    -8012    -8112    -8114    -8023 
   -7956    -7994    -8074    -8105    -8050    -7962    -7894    -7776 
   -7535    -7244    -6997    -6775    -6542    -6374    -6311    -6246 
   -6174    -6170    -6224    -6305    -6372    -6378    -6385    -6496 
   -6687    -6840    -6956    -7122    -7287    -7389    -7443    -7453 
   -7406    -7348    -7356    -7388    -7415    -7518    -7668    -7692 
   -7541    -7329    -7119    -6901    -6709    -6604    -6621    -6724 
   -6837    -6970    -7123    -7279    -7449    -7576    -7651    -7781 
   -7942    -8024    -8040    -8078    -8132    -8166    -8197    -8236 
   -8266    -8251    -8172    -8047    -7873    -7674    -7543    -7485 
   -7435    -7398    -7387    -7373    -7341    -7303    -7292    -7303 
   -7277    -7194    -7076    -6961    -6901    -6879    -6818    -6737 
   -6747    -6821    -6864    -6939    -7078    -7152    -7128    -7098 
   -7090    -7090    -7140    -7246    -7349    -7431    -7481    -7483 
   -7480    -7515    -7596    -7680    -7719    -7758    -7808    -7790 
   -7689    -7577    -7518    -7474    -7425    -7454    -7555    -7635 
   -7668    -7665    -7615    -7542    -7506    -7488    -7431    -7357 
   -7281    -7211    -7180    -7183    -7241    -7345    -7371    -7304 
   -7252    -7226    -7152    -7001    -6851    -6799    -6799    -6802 
   -6874    -7053    -7307    -7555    -7743    -7832    -7765    -7589 
   -7404    -7261    -7191    -7132    -7013    -6897    -6853    -6851 
   -6813    -6756    -6728    -6682    -6593    -6552    -6600    -6686 
   -6806    -6948    -7068    -7210    -7377    -7488    -7530    -7533 
   -7497    -7437    -7406    -7462    -7535    -7499    -7364    -7214 
   -7092    -6999    -6940    -6932    -6916    -6820    -6723    -6670 
   -6548    -6342    -6127    -5918    -5740    -5648    -5644    -5695 
   -5787    -5923    -6073    -6189    -6330    -6544    -6731    -6851 
   -6970    -7083    -7132    -7126    -7122    -7110    -7080    -7094 
   -7130    -7122    -7078    -7020    -6953    -6899    -6894    -6906 
   -6839    -6717    -6628    -6516    -6340    -6189    -6143    -6180 
   -6242    -6355    -6556    -6741    -6837    -6899    -6955    -7036 
   -7153    -7241    -7272    -7281    -7315    -7337    -7295    -7252 
   -7219    -7146    -7092    -7090    -7076    -7072    -7105    -7155 
   -7217    -7238    -7213    -7226    -7261    -7226    -7133    -7096 
   -7199    -7396    -7589    -7707    -7759    -7825    -7919    -8001 
   -8108    -8270    -8375    -8333    -8225    -8144    -8120    -8151 
   -8176    -8128    -8028    -7947    -7908    -7889    -7908    -7983 
   -8085    -8193    -8280    -8317    -8360    -8507    -8711    -8864 
   -9004    -9229    -9485    -9688    -9872   -10072   -10281   -10492 
  -10701   -10901   -11048   -11110   -11090   -11034   -11007   -10989 
  -10925   -10821   -10683   -10503   -10295   -10098    -9956    -9894 
   -9849    -9771    -9680    -9570    -9427    -9297    -9198    -9119 
   -9035    -8958    -8916    -8881    -8853    -8842    -8820    -8785 
   -8729    -8630    -8518    -8398    -8212    -7951    -7726    -7651 
   -7685    -7711    -7705    -7663    -7534    -7304    -7018    -6732 
   -6501    -6332    -6227    -6195    -6187    -6177    -6153    -6060 
   -5898    -5691    -5455    -5232    -5067    -4985    -4959    -4946 
   -4957    -5024    -5132    -5269    -5460    -5715    -5994    -6234 
   -6393    -6490    -6583    -6686    -6772    -6833    -6893    -6949 
   -6986    -6993    -6966    -6930    -6922    -6944    -6936    -6855 
   -6748    -6619    -6421    -6214    -6089    -6043    -5996    -5927 
   -5923    -6045    -6184    -6269    -6359    -6454    -6529    -6585 
   -6600    -6655    -6805    -6889    -6799    -6642    -6517    -6393 
   -6270    -6196    -6145    -6151    -6296    -6512    -6720    -6906 
   -7068    -7195    -7295    -7377    -7446    -7496    -7500    -7454 
   -7441    -7488    -7500    -7460    -7419    -7368    -7364    -7488 
   -7608    -7641    -7707    -7761    -7626    -7383    -7204    -7119 
   -7122    -7171    -7176    -7196    -7325    -7500    -7654    -7805 
   -7962    -8086    -8164    -8205    -8241    -8334    -8413    -8326 
   -8108    -7893    -7746    -7651    -7537    -7389    -7240    -7079 
   -6887    -6716    -6609    -6525    -6442    -6353    -6234    -6142 
   -6097    -6030    -5985    -6048    -6145    -6196    -6208    -6192 
   -6178    -6210    -6246    -6224    -6197    -6261    -6316    -6245 
   -6161    -6122    -6048    -6015    -6111    -6266    -6454    -6731 
   -7029    -7237    -7385    -7493    -7528    -7527    -7496    -7404 
   -7356    -7416    -7452    -7420    -7396    -7348    -7299    -7369 
   -7528    -7669    -7769    -7831    -7890    -7990    -8066    -8082 
   -8125    -8187    -8166    -8068    -8020    -8067    -8083    -7975 
   -7785    -7577    -7387    -7204    -7038    -6959    -6978    -7015 
   -6978    -6867    -6781    -6767    -6777    -6782    -6851    -7029 
   -7221    -7306    -7288    -7240    -7202    -7161    -7122    -7128 
   -7202    -7322    -7416    -7435    -7422    -7400    -7376    -7388 
   -7407    -7379    -7325    -7291    -7288    -7300    -7288    -7223 
   -7200    -7290    -7399    -7519    -7663    -7759    -7821    -7906 
   -8004    -8063    -8075    -8101    -8148    -8155    -8116    -8040 
   -7977    -8010    -8086    -8108    -8104    -8077    -8005    -7946 
   -7901    -7847    -7855    -7911    -7901    -7827    -7751    -7692 
   -7628    -7539    -7400    -7217    -7052    -6924    -6760    -6579 
   -6463    -6386    -6353    -6409    -6488    -6531    -6586    -6683 
   -6791    -6853    -6870    -6878    -6906    -6968    -7033    -7084 
   -7226    -7472    -7713    -7917    -8075    -8155    -8168    -8145 
   -8101    -8016    -7911    -7809    -7699    -7574    -7416    -7230 
   -7086    -6988    -6879    -6790    -6801    -6925    -7099    -7269 
   -7425    -7577    -7689    -7727    -7746    -7823    -7946    -8027 
   -8029    -8019    -8043    -8090    -8144    -8172    -8152    -8116 
   -8098    -8114    -8145    -8141    -8079    -7967    -7784    -7541 
   -7323    -7168    -7049    -6945    -6826    -6686    -6605    -6655 
   -6802    -6945    -7022    -7028    -6970    -6902    -6866    -6860 
   -6907    -6988    -7021    -6983    -6928    -6941    -7044    -7149 
   -7245    -7357    -7414    -7398    -7365    -7314    -7245    -7187 
   -7146    -7122    -7130    -7198    -7350    -7560    -7749    -7877 
   -7971    -8082    -8216    -8322    -8415    -8553    -8664    -8698 
   -8700    -8646    -8554    -8500    -8446    -8360    -8267    -8141 
   -7977    -7823    -7657    -7383    -7037    -6731    -6469    -6261 
   -6135    -6029    -5914    -5829    -5742    -5626    -5524    -5435 
   -5373    -5387    -5482    -5649    -5852    -6021    -6166    -6295 
   -6372    -6465    -6593    -6662    -6745    -6941    -7125    -7249 
   -7385    -7462    -7443    -7450    -7514    -7541    -7538    -7558 
   -7578    -7561    -7533    -7516    -7496    -7507    -7581    -7605 
   -7496    -7369    -7346    -7402    -7474    -7565    -7674    -7762 
   -7804    -7800    -7771    -7789    -7862    -7967    -8105    -8240 
   -8380    -8559    -8695    -8754    -8849    -9015    -9182    -9331 
   -9445    -9502    -9482    -9391    -9267    -9134    -9046    -9057 
   -9108    -9140    -9109    -8955    -8749    -8569    -8353    -8104 
   -7925    -7832    -7732    -7608    -7500    -7408    -7368    -7425 
   -7528    -7659    -7848    -8033    -8147    -8198    -8209    -8202 
   -8221    -8244    -8201    -8073    -7924    -7780    -7624    -7474 
   -7396    -7410    -7456    -7476    -7476    -7453    -7406    -7352 
   -7326    -7327    -7267    -7132    -7015    -6926    -6843    -6778 
   -6718    -6656    -6619    -6620    -6623    -6608    -6637    -6728 
   -6782    -6781    -6818    -6899    -6903    -6820    -6717    -6605 
   -6515    -6475    -6419    -6328    -6250    -6185    -6120    -6069 
   -6035    -6011    -5967    -5921    -5921    -5933    -5908    -5852 
   -5784    -5765    -5832    -5964    -6158    -6408    -6663    -6876 
   -7079    -7296    -7485    -7624    -7712    -7781    -7897    -7996 
   -7951    -7807    -7626    -7375    -7115    -6952    -6801    -6606 
   -6477    -6457    -6512    -6616    -6735    -6801    -6778    -6705 
   -6666    -6704    -6770    -6813    -6868    -6948    -6984    -6956 
   -6936    -6956    -6952    -6925    -6890    -6816    -6732    -6646 
   -6515    -6384    -6264    -6137    -6038    -5950    -5853    -5760 
   -5674    -5633    -5645    -5655    -5655    -5679    -5717    -5755 
   -5818    -5935    -6127    -6334    -6471    -6609    -6816    -7025 
   -7202    -7400    -7635    -7886    -8190    -8537    -8846    -9107 
   -9335    -9467    -9467    -9387    -9279    -9140    -8947    -8696 
   -8413    -8124    -7879    -7716    -7597    -7483    -7399    -7365 
   -7360    -7420    -7607    -7850    -8041    -8193    -8372    -8559 
   -8696    -8826    -9007    -9202    -9375    -9553    -9707    -9794 
   -9805    -9732    -9572    -9321    -9003    -8683    -8394    -8171 
   -8059    -8006    -7958    -8000    -8174    -8378    -8567    -8814 
   -9130    -9460    -9821   -10197   -10481   -10659   -10747   -10689 
  -10519   -10336   -10156    -9914    -9585    -9232    -8885    -8499 
   -8101    -7693    -7230    -6770    -6367    -5987    -5682    -5521 
   -5431    -5355    -5323    -5324    -5329    -5382    -5513    -5671 
   -5815    -5946    -6038    -6104    -6204    -6351    -6498    -6569 
   -6502    -6346    -6189    -6043    -5925    -5890    -5926    -5977 
   -6023    -6103    -6243    -6440    -6658    -6821    -6933    -7056 
   -7188    -7308    -7433    -7581    -7707    -7757    -7778    -7798 
   -7811    -7858    -7952    -8035    -8040    -7983    -7902    -7793 
   -7678    -7626    -7663    -7755    -7900    -8106    -8297    -8411 
   -8500    -8584    -8602    -8565    -8537    -8484    -8397    -8321 
   -8217    -8039    -7815    -7527    -7180    -6874    -6660    -6504 
   -6421    -6420    -6405    -6378    -6409    -6447    -6417    -6324 
   -6158    -5949    -5744    -5502    -5217    -4962    -4730    -4486 
   -4286    -4201    -4230    -4342    -4515    -4716    -4926    -5182 
   -5481    -5741    -5934    -6068    -6177    -6309    -6448    -6542 
   -6538    -6453    -6345    -6249    -6173    -6134    -6154    -6228 
   -6324    -6436    -6561    -6662    -6724    -6751    -6710    -6636 
   -6651    -6756    -6817    -6817    -6794    -6700    -6577    -6532 
   -6540    -6586    -6727    -6889    -7029    -7186    -7294    -7326 
   -7310    -7204    -7015    -6781    -6519    -6274    -6083    -5935 
   -5805    -5697    -5653    -5722    -5956    -6353    -6787    -7203 
   -7622    -7955    -8170    -8382    -8619    -8846    -9063    -9255 
   -9425    -9602    -9778    -9926   -10022   -10026    -9911    -9697 
   -9464    -9236    -8992    -8781    -8649    -8560    -8499    -8476 
   -8456    -8415    -8343    -8187    -7943    -7705    -7550    -7458 
   -7419    -7460    -7565    -7685    -7763    -7785    -7796    -7811 
   -7766    -7658    -7582    -7596    -7669    -7777    -7923    -8097 
   -8256    -8365    -8425    -8418    -8360    -8282    -8155    -7992 
   -7858    -7778    -7749    -7751    -7784    -7863    -7962    -8075 
   -8248    -8441    -8586    -8642    -8599    -8491    -8347    -8163 
   -7978    -7816    -7684    -7596    -7558    -7554    -7574    -7627 
   -7709    -7807    -7906    -7981    -8029    -8128    -8316    -8514 
   -8637    -8658    -8596    -8492    -8374    -8278    -8264    -8352 
   -8482    -8569    -8577    -8517    -8386    -8210    -8064    -7955 
   -7867    -7811    -7789    -7797    -7830    -7879    -7946    -8040 
   -8158    -8303    -8502    -8707    -8823    -8839    -8800    -8737 
   -8677    -8598    -8473    -8364    -8267    -8097    -7878    -7672 
   -7457    -7231    -7030    -6851    -6705    -6652    -6700    -6809 
   -6953    -7098    -7215    -7315    -7384    -7396    -7349    -7256 
   -7149    -7063    -7013    -6983    -6959    -6930    -6876    -6795 
   -6678    -6520    -6374    -6269    -6158    -6007    -5836    -5684 
   -5549    -5409    -5294    -5235    -5248    -5305    -5405    -5589 
   -5814    -5996    -6097    -6118    -6107    -6092    -6043    -5960 
   -5856    -5729    -5597    -5502    -5499    -5617    -5821    -6068 
   -6347    -6621    -6824    -6943    -7078    -7268    -7438    -7573 
   -7715    -7832    -7908    -7929    -7890    -7801    -7650    -7443 
