Origin Time       2024/04/02 04:24:00
Lat.              40.133
Long.             141.712
Depth. (km)       71
Mag.              6.0
Station Code      AKT018
Station Lat.      39.1937
Station Long.     140.1899
Station Height(m) 114
Record Time       2024/04/02 04:25:04
Sampling Freq(Hz) 100Hz
Duration Time(s)  96
Dir.              E-W
Scale Factor      7845(gal)/8223790
Max. Acc. (gal)   11.839
Last Correction   2024/04/02 04:25:04
Memo.             
[...]
   -6600    -6255    -5616    -5066    -4934    -5130    -5352    -5560 
   -5772    -5713    -5162    -4450    -4135    -4334    -4823    -5409 
   -5837    -5814    -5378    -4974    -5027    -5424    -5575    -5155 
   -4681    -4858    -5549    -6062    -5962    -5292    -4504    -4121 
   -4307    -4892    -5516    -5756    -5441    -4811    -4295    -4209 
   -4637    -5309    -5694    -5593    -5352    -5319    -5458    -5580 
   -5579    -5433    -5277    -5358    -5699    -6026    -6052    -5670 
   -5028    -4500    -4406    -4804    -5393    -5641    -5368    -4923 
   -4656    -4615    -4788    -5125    -5360    -5285    -5175    -5394 
   -5701    -5605    -5197    -4919    -4874    -4955    -5184    -5493 
   -5676    -5715    -5638    -5325    -4920    -4816    -5027    -5163 
   -5085    -5028    -5058    -4949    -4714    -4577    -4525    -4507 
   -4592    -4776    -5112    -5694    -6281    -6423    -6048    -5570 
   -5433    -5715    -6054    -5942    -5321    -4677    -4457    -4653 
   -4970    -5120    -4984    -4747    -4783    -5223    -5771    -6016 
   -5772    -5196    -4680    -4488    -4622    -4988    -5289    -5152 
   -4765    -4838    -5667    -6588    -6724    -6052    -5319    -5039 
   -5128    -5343    -5447    -5231    -4858    -4760    -5108    -5675 
   -6049    -5917    -5354    -4806    -4641    -4764    -4779    -4584 
   -4587    -5076    -5748    -6141    -6145    -5873    -5427    -4986 
   -4847    -5069    -5273    -5105    -4626    -4176    -4179    -4738 
   -5382    -5641    -5535    -5336    -5283    -5343    -5219    -4905 
   -4865    -5271    -5722    -5888    -5787    -5463    -5040    -4757 
   -4711    -4927    -5366    -5652    -5429    -4938    -4768    -5146 
   -5686    -5860    -5540    -4989    -4587    -4669    -5327    -6114 
   -6293    -5653    -4812    -4479    -4730    -5205    -5617    -5833 
   -5783    -5548    -5310    -5211    -5341    -5530    -5428    -5061 
   -4781    -4681    -4679    -4819    -5063    -5223    -5262    -5296 
   -5437    -5730    -5926    -5647    -5004    -4542    -4567    -4866 
   -5170    -5486    -5786    -5829    -5574    -5254    -5078    -5125 
   -5301    -5482    -5624    -5660    -5630    -5697    -5706    -5252 
   -4369    -3651    -3639    -4365    -5358    -5896    -5606    -4922 
   -4596    -4842    -5271    -5494    -5454    -5309    -5216    -5232 
   -5324    -5381    -5252    -4868    -4440    -4379    -4884    -5672 
   -6211    -6172    -5621    -4981    -4774    -5143    -5661    -5845 
   -5594    -5107    -4658    -4464    -4595    -4909    -5139    -5185 
   -5243    -5440    -5545    -5374    -5134    -5039    -5022    -5062 
   -5282    -5618    -5764    -5522    -5089    -4833    -4841    -4932 
   -4988    -5063    -5204    -5337    -5370    -5246    -4961    -4650 
   -4541    -4708    -5004    -5294    -5525    -5557    -5373    -5227 
   -5293    -5501    -5736    -5881    -5825    -5593    -5362    -5244 
   -5152    -5020    -4970    -5044    -5084    -5036    -5016    -5084 
   -5177    -5170    -5058    -5024    -5076    -4969    -4773    -4884 
   -5387    -5854    -5800    -5216    -4633    -4587    -5120    -5813 
   -6161    -5931    -5254    -4579    -4473    -5085    -5871    -6100 
   -5593    -4865    -4514    -4634    -4984    -5355    -5584    -5503 
   -5161    -4824    -4683    -4760    -5024    -5328    -5479    -5454 
   -5320    -5161    -5171    -5437    -5686    -5618    -5256    -4819 
   -4550    -4683    -5252    -5891    -6176    -6045    -5672    -5305 
   -5196    -5341    -5429    -5224    -4876    -4706    -4839    -5220 
   -5644    -5794    -5566    -5198    -4984    -5030    -5188    -5215 
   -5147    -5270    -5594    -5757    -5498    -4992    -4712    -4928 
   -5370    -5605    -5543    -5275    -4818    -4387    -4413    -4988 
   -5697    -6087    -6038    -5725    -5428    -5279    -5167    -5040 
   -4980    -4943    -4877    -4924    -5119    -5240    -5131    -4908 
   -4819    -5001    -5355    -5583    -5498    -5271    -5128    -4993 
   -4824    -4885    -5309    -5792    -6015    -6030    -5953    -5683 
   -5269    -5007    -4996    -5053    -5096    -5228    -5479    -5680 
   -5663    -5437    -5152    -5015    -5184    -5522    -5645    -5405 
   -5057    -4819    -4641    -4504    -4530    -4715    -4928    -5154 
   -5391    -5439    -5165    -4785    -4610    -4784    -5229    -5636 
   -5775    -5625    -5215    -4730    -4526    -4720    -5073    -5343 
   -5440    -5314    -5123    -5224    -5584    -5746    -5536    -5252 
   -5175    -5271    -5360    -5336    -5179    -4923    -4677    -4634 
   -4891    -5266    -5451    -5344    -5085    -4885    -4918    -5162 
   -5319    -5159    -4949    -5158    -5765    -6223    -6156    -5736 
   -5339    -5140    -5179    -5378    -5429    -5127    -4673    -4401 
   -4441    -4789    -5368    -5830    -5757    -5231    -4784    -4768 
   -5042    -5277    -5300    -5171    -5040    -4977    -4986    -5109 
   -5310    -5375    -5089    -4604    -4425    -4753    -5194    -5400 
   -5397    -5248    -5030    -4928    -5024    -5252    -5570    -5923 
   -6149    -6066    -5676    -5143    -4688    -4591    -4927    -5351 
   -5501    -5404    -5294    -5292    -5401    -5598    -5722    -5493 
   -4884    -4360    -4452    -5136    -5879    -6104    -5661    -4984 
   -4675    -4931    -5505    -5918    -5729    -5013    -4386    -4314 
   -4679    -5090    -5321    -5404    -5524    -5755    -5856    -5526 
   -4882    -4379    -4342    -4810    -5544    -6046    -5927    -5416 
   -5078    -5119    -5343    -5494    -5391    -5100    -4984    -5282 
   -5757    -5917    -5476    -4666    -4095    -4194    -4874    -5706 
   -6249    -6270    -5822    -5320    -5254    -5540    -5663    -5459 
   -5101    -4746    -4633    -4977    -5559    -5814    -5486    -5003 
   -4955    -5378    -5794    -5822    -5533    -5246    -5104    -5004 
   -4873    -4797    -4942    -5314    -5559    -5312    -4657    -3931 
   -3553    -3932    -4992    -6042    -6407    -5954    -5112    -4614 
   -4903    -5568    -5776    -5339    -4772    -4549    -4862    -5595 
   -6157    -6000    -5352    -4834    -4684    -4892    -5368    -5656 
   -5355    -4766    -4395    -4353    -4662    -5238    -5682    -5815 
   -5842    -5807    -5611    -5343    -5104    -4915    -4896    -5066 
   -5196    -5194    -5243    -5371    -5397    -5228    -4912    -4666 
   -4839    -5375    -5690    -5491    -5201    -5217    -5374    -5441 
   -5462    -5320    -4950    -4788    -5108    -5481    -5486    -5198 
   -4897    -4830    -5123    -5605    -5852    -5643    -5221    -4976 
   -5080    -5424    -5663    -5483    -5009    -4727    -4926    -5410 
   -5753    -5660    -5128    -4469    -4147    -4401    -5107    -5880 
   -6247    -6122    -5917    -5867    -5791    -5525    -5120    -4777 
   -4704    -4909    -5188    -5320    -5267    -5130    -4965    -4793 
   -4657    -4573    -4615    -4846    -5061    -5046    -4970    -5034 
   -5134    -5190    -5287    -5389    -5437    -5532    -5676    -5733 
   -5724    -5742    -5694    -5499    -5309    -5196    -5080    -4977 
   -4911    -4812    -4692    -4649    -4715    -4843    -4966    -5022 
   -4972    -4916    -5086    -5471    -5759    -5806    -5729    -5649 
   -5586    -5468    -5244    -5022    -4947    -4981    -5008    -5061 
   -5197    -5324    -5313    -5181    -5066    -5131    -5386    -5629 
   -5643    -5374    -4947    -4585    -4533    -4878    -5364    -5614 
   -5440    -4873    -4288    -4236    -4792    -5443    -5722    -5533 
   -5019    -4567    -4639    -5200    -5680    -5661    -5236    -4849 
   -4955    -5597    -6212    -6173    -5591    -5196    -5390    -5950 
   -6473    -6552    -5985    -5193    -4831    -5016    -5374    -5513 
   -5312    -4966    -4781    -4904    -5220    -5468    -5526    -5476 
   -5340    -5063    -4785    -4780    -5109    -5536    -5719    -5563 
   -5335    -5293    -5377    -5374    -5225    -5063    -4866    -4523 
   -4293    -4556    -5189    -5660    -5634    -5346    -5301    -5587 
   -5761    -5563    -5254    -5101    -5046    -4984    -4936    -4954 
   -5026    -5031    -4892    -4784    -4943    -5250    -5350    -5235 
   -5200    -5341    -5518    -5570    -5428    -5139    -4779    -4527 
   -4693    -5275    -5799    -5842    -5518    -5217    -5063    -5034 
   -5208    -5475    -5533    -5355    -5194    -5166    -5216    -5360 
   -5598    -5707    -5452    -4995    -4738    -4803    -5035    -5275 
   -5294    -4968    -4612    -4684    -5224    -5863    -6169    -6011 
   -5505    -4934    -4757    -5104    -5493    -5429    -4935    -4411 
   -4209    -4414    -4834    -5088    -5009    -4788    -4644    -4712 
   -5012    -5314    -5335    -5169    -5112    -5112    -5031    -5080 
   -5312    -5435    -5350    -5242    -5304    -5516    -5618    -5448 
   -5157    -4976    -4915    -4799    -4556    -4303    -4256    -4652 
   -5481    -6349    -6725    -6376    -5630    -5074    -4930    -5101 
   -5427    -5607    -5475    -5292    -5319    -5454    -5533    -5525 
   -5367    -5103    -5039    -5294    -5481    -5260    -4789    -4429 
   -4394    -4692    -5167    -5548    -5591    -5294    -4996    -5032 
   -5348    -5676    -5868    -5906    -5852    -5790    -5734    -5697 
   -5756    -5919    -6081    -6103    -5869    -5494    -5304    -5364 
   -5448    -5421    -5300    -5174    -5220    -5607    -6223    -6691 
   -6762    -6347    -5498    -4716    -4645    -5270    -5976    -6207 
   -5938    -5562    -5296    -5130    -5223    -5621    -5850    -5440 
   -4603    -3989    -3910    -4214    -4656    -4990    -5066    -5100 
   -5292    -5381    -5188    -5042    -5165    -5308    -5252    -5044 
   -4796    -4673    -4872    -5337    -5732    -5780    -5456    -4918 
   -4475    -4468    -4823    -5043    -4923    -4756    -4723    -4693 
   -4604    -4549    -4523    -4413    -4197    -3954    -3731    -3491 
   -3175    -2928    -3092    -3748    -4564    -5094    -5067    -4623 
   -4302    -4503    -5063    -5505    -5478    -4999    -4403    -4102 
   -4230    -4464    -4438    -4240    -4156    -4337    -4768    -5244 
   -5537    -5489    -5013    -4283    -3777    -3875    -4457    -5032 
   -5331    -5420    -5258    -4855    -4634    -4903    -5463    -5917 
   -5922    -5444    -4911    -4792    -5128    -5594    -5899    -6034 
   -6064    -6004    -5898    -5822    -5869    -6004    -5964    -5661 
   -5431    -5560    -5965    -6482    -7056    -7508    -7546    -7130 
   -6583    -6285    -6336    -6465    -6369    -6166    -6235    -6615 
   -6924    -6820    -6359    -5962    -6025    -6528    -7071    -7322 
   -7304    -7202    -7176    -7323    -7493    -7372    -6863    -6257 
   -6004    -6273    -6768    -6997    -6604    -5674    -4857    -4814 
   -5444    -6123    -6408    -6122    -5431    -4907    -5023    -5656 
   -6177    -6029    -5300    -4569    -4210    -4068    -3919    -3825 
   -3834    -3827    -3800    -3786    -3755    -3777    -3897    -4004 
   -4089    -4248    -4407    -4453    -4537    -4806    -5032    -4957 
   -4781    -4812    -4951    -4936    -4770    -4698    -4810    -4895 
   -4756    -4429    -4106    -4051    -4320    -4514    -4295    -3929 
   -3678    -3388    -3096    -3088    -3319    -3522    -3727    -4055 
   -4249    -4047    -3624    -3361    -3561    -4248    -5071    -5632 
   -5744    -5405    -4877    -4565    -4660    -5103    -5633    -5829 
   -5530    -5098    -4887    -4855    -4847    -4774    -4595    -4455 
   -4595    -4993    -5363    -5439    -5161    -4675    -4298    -4352 
   -4762    -5138    -5382    -5724    -6164    -6373    -6146    -5711 
   -5526    -5853    -6480    -6918    -6972    -6829    -6627    -6358 
   -6095    -6022    -6169    -6323    -6354    -6361    -6408    -6367 
   -6092    -5595    -5057    -4716    -4702    -4957    -5231    -5270 
   -5125    -5022    -5005    -5089    -5408    -5876    -6176    -6201 
   -6104    -5937    -5695    -5578    -5788    -6210    -6567    -6735 
   -6762    -6720    -6670    -6685    -6588    -6015    -5007    -4001 
   -3325    -3137    -3447    -3979    -4387    -4507    -4349    -4077 
   -3933    -3937    -3843    -3530    -3171    -3032    -3219    -3576 
   -3931    -4367    -5017    -5752    -6255    -6342    -6134    -5859 
   -5655    -5551    -5440    -5278    -5235    -5375    -5549    -5629 
   -5560    -5333    -5061    -4870    -4719    -4492    -4221    -3986 
   -3747    -3415    -2990    -2697    -2930    -3766    -4708    -5200 
   -5184    -5038    -5103    -5371    -5659    -5857    -5891    -5746 
   -5713    -6189    -7122    -7861    -7816    -7153    -6594    -6654 
   -7229    -7835    -8074    -7956    -7766    -7681    -7592    -7263 
   -6658    -6054    -5753    -5732    -5715    -5468    -4928    -4260 
   -3861    -3993    -4434    -4710    -4475    -3751    -2979    -2722 
   -3150    -3897    -4449    -4553    -4359    -4315    -4784    -5665 
   -6485    -6867    -6863    -6824    -7025    -7411    -7670    -7608 
   -7323    -6929    -6469    -5988    -5435    -4718    -3882    -3005 
   -2012     -827      533     1919     2933     3215     3014     2978 
    3361     3829     3946     3601     3036     2582     2311     1817 
     681     -888    -2438    -3985    -5734    -7565    -9263   -10737 
  -11884   -12629   -13043   -13243   -13428   -13798   -14284   -14756 
  -15294   -16013   -16884   -17581   -17633   -16910   -15738   -14661 
  -14035   -13710   -13147   -11870    -9815    -7418    -5293    -3673 
   -2277     -811      679     1989     2932     3289     2979     2269 
    1642     1371     1216      634     -546    -1895    -2936    -3619 
   -4152    -4662    -5166    -5744    -6492    -7291    -7842    -8010 
   -7936    -7825    -7767    -7689    -7423    -6968    -6567    -6288 
   -5850    -5248    -4878    -4874    -4993    -5023    -4905    -4746 
   -4860    -5499    -6504    -7326    -7507    -7015    -6127    -5132 
   -4051    -2763    -1522     -891    -1128    -1979    -2843    -3154 
   -2952    -2863    -3289    -4141    -5196    -6116    -6473    -6169 
   -5599    -5228    -5152    -5151    -5105    -5100    -5098    -4943 
   -4742    -4853    -5320    -5657    -5417    -4608    -3515    -2552 
   -2079    -2153    -2635    -3262    -3615    -3430    -2887    -2461 
   -2612    -3499    -4761    -5769    -6223    -6284    -6318    -6683 
   -7445    -8322    -9038    -9521    -9732    -9624    -9290    -8830 
   -8218    -7408    -6365    -5211    -4278    -3906    -4279    -5200 
   -6106    -6550    -6515    -6160    -5552    -4754    -3981    -3535 
   -3692    -4468    -5491    -6274    -6602    -6594    -6454    -6415 
   -6600    -6559    -5616    -3900    -2338    -1606    -1683    -2239 
   -2953    -3524    -3794    -3894    -4062    -4334    -4509    -4391 
   -4160    -4213    -4590    -4884    -4772    -4440    -4369    -4855 
   -5761    -6502    -6473    -5672    -4666    -4136    -4538    -5867 
   -7522    -8737    -9275    -9427    -9417    -9275    -9016    -8688 
   -8283    -7720    -7026    -6322    -5695    -5219    -4845    -4341 
   -3597    -2690    -1661     -700     -186     -228     -711    -1545 
   -2481    -3129    -3304    -3125    -2889    -2959    -3495    -4120 
   -4193    -3603    -3013    -3230    -4514    -6347    -7744    -8039 
   -7468    -6852    -6772    -7145    -7533    -7585    -7133    -6335 
   -5761    -5860    -6516    -7342    -8054    -8432    -8280    -7605 
   -6646    -5575    -4288    -2713    -1132       10      383      -33 
    -853    -1609    -2103    -2394    -2732    -3489    -4842    -6382 
   -7406    -7635    -7284    -6701    -6274    -6292    -6671    -7038 
   -7078    -6791    -6511    -6627    -7269    -8271    -9331   -10099 
  -10253    -9710    -8810    -8189    -8197    -8557    -8749    -8469 
   -7734    -6853    -6220    -6000    -6185    -6728    -7323    -7334 
   -6517    -5462    -4854    -4801    -4876    -4415    -3067    -1293 
     -70      -17     -915    -1952    -2416    -2281    -2096    -2452 
   -3388    -4220    -4199    -3299    -2249    -1976    -2910    -4549 
   -5881    -6315    -5967    -5260    -4630    -4469    -4926    -5697 
   -6280    -6508    -6534    -6442    -6174    -5624    -4808    -4145 
   -4152    -4882    -5915    -6689    -6816    -6265    -5250    -4117 
   -3288    -3037    -3260    -3586    -3825    -4089    -4395    -4433 
   -3821    -2527    -1143     -716    -1925    -4374    -6787    -7817 
   -6990    -5161    -3917    -4291    -5910    -7418    -7753    -6902 
   -5695    -5150    -5648    -6498    -6567    -5437    -3828    -2871 
   -3053    -3789    -4047    -3352    -2110    -1178    -1271    -2477 
   -4116    -5051    -4456    -2700    -1196    -1113    -2370    -3920 
   -4851    -5088    -5232    -5942    -7345    -8922    -9884    -9699 
   -8567    -7495    -7487    -8510    -9522    -9489    -8279    -6740 
   -5915    -6270    -7568    -9089    -9983    -9670    -8154    -6070 
   -4288    -3303    -3063    -3198    -3298    -3133    -2729    -2467 
   -2903    -3987    -4901    -5057    -4725    -4514    -4658    -4916 
   -4839    -4132    -3117    -2536    -2722    -3511    -4808    -6501 
   -8054    -8837    -8718    -8132    -7771    -8243    -9525   -10797 
  -11200   -10696    -9953    -9540    -9508    -9639    -9702    -9595 
   -9359    -9030    -8638    -8253    -7854    -7381    -6828    -6172 
   -5516    -5093    -4837    -4392    -3742    -3125    -2594    -2122 
   -1711    -1300     -882     -625     -664     -916    -1232    -1567 
   -1895    -2263    -2840    -3555    -4012    -4004    -3751    -3497 
   -3430    -3770    -4444    -5066    -5464    -5769    -5995    -6039 
   -5958    -5811    -5562    -5397    -5663    -6366    -7010    -6974 
   -6112    -4950    -4187    -4086    -4414    -4822    -4949    -4456 
   -3456    -2551    -2135    -1998    -1746    -1297     -830     -650 
   -1024    -1840    -2724    -3460    -4058    -4544    -4760    -4642 
   -4534    -4683    -4914    -5103    -5395    -5913    -6511    -6940 
   -7098    -7138    -7307    -7601    -7705    -7431    -7033    -6847 
   -6802    -6600    -6189    -5703    -5175    -4712    -4573    -4834 
   -5279    -5613    -5722    -5792    -6091    -6619    -7014    -6841 
   -6069    -5269    -5130    -5788    -6616    -6814    -6251    -5516 
   -5209    -5421    -5725    -5625    -5167    -4936    -5313    -6038 
   -6610    -6820    -6670    -6162    -5494    -5081    -5062    -5216 
   -5418    -5714    -6073    -6403    -6617    -6609    -6347    -5980 
   -5659    -5395    -5143    -4843    -4507    -4467    -5192    -6485 
   -7327    -6951    -5661    -4428    -4040    -4608    -5521    -5975 
   -5656    -4823    -3898    -3237    -3018    -3088    -3061    -2813 
   -2650    -2835    -3254    -3619    -3748    -3732    -3866    -4349 
   -5049    -5607    -5805    -5709    -5626    -5803    -6135    -6428 
   -6643    -6700    -6482    -6079    -5757    -5678    -5738    -5745 
   -5587    -5225    -4757    -4496    -4653    -5017    -5197    -4926 
   -4189    -3399    -3169    -3727    -4742    -5510    -5296    -3981 
   -2396    -1725    -2474    -4052    -5379    -5833    -5591    -5256 
