Origin Time       2024/04/02 04:24:00
Lat.              40.133
Long.             141.712
Depth. (km)       71
Mag.              6.0
Station Code      AKT013
Station Lat.      39.6071
Station Long.     140.3209
Station Height(m) 39
Record Time       2024/04/02 04:24:59
Sampling Freq(Hz) 100Hz
Duration Time(s)  109
Dir.              E-W
Scale Factor      7845(gal)/8223790
Max. Acc. (gal)   3.765
Last Correction   2024/04/02 04:24:59
Memo.             
[...]
  -18254   -18234   -18242   -18292   -18333   -18397   -18528   -18638 
  -18693   -18790   -18922   -18976   -18862   -18573   -18246   -18040 
  -17942   -17822   -17590   -17277   -17031   -17054   -17385   -17737 
  -17737   -17369   -17068   -17223   -17768   -18385   -18841   -19026 
  -19021   -19024   -19111   -19271   -19484   -19684   -19788   -19753 
  -19541   -19187   -18823   -18582   -18542   -18628   -18604   -18312 
  -17859   -17496   -17386   -17451   -17450   -17238   -16887   -16663 
  -16796   -17194   -17582   -17820   -17892   -17829   -17685   -17552 
  -17593   -17906   -18354   -18701   -18895   -19037   -19132   -19080 
  -18821   -18436   -18149   -18091   -18141   -18133   -18069   -18042 
  -18121   -18345   -18658   -18844   -18744   -18434   -18150   -18056 
  -18060   -17967   -17756   -17566   -17487   -17471   -17436   -17362 
  -17277   -17251   -17366   -17644   -17971   -18175   -18176   -18084 
  -18049   -18108   -18212   -18323   -18438   -18538   -18619   -18747 
  -18886   -18891   -18677   -18268   -17832   -17543   -17397   -17296 
  -17221   -17205   -17196   -17147   -17127   -17232   -17500   -17856 
  -18166   -18377   -18520   -18588   -18557   -18527   -18647   -18967 
  -19413   -19778   -19889   -19813   -19737   -19705   -19620   -19387 
  -19001   -18507   -17991   -17597   -17401   -17301   -17204   -17147 
  -17123   -17018   -16873   -16895   -17120   -17363   -17477   -17478 
  -17444   -17382   -17267   -17166   -17213   -17473   -17867   -18273 
  -18600   -18771   -18774   -18704   -18708   -18825   -18949   -18983 
  -18904   -18709   -18453   -18187   -17911   -17660   -17513   -17459 
  -17429   -17475   -17679   -17975   -18184   -18212   -18141   -18107 
  -18164   -18311   -18469   -18542   -18561   -18577   -18522   -18296 
  -17907   -17505   -17328   -17490   -17852   -18135   -18146   -17953 
  -17807   -17859   -18095   -18427   -18711   -18852   -18839   -18728 
  -18630   -18597   -18578   -18486   -18299   -18118   -18064   -18104 
  -18135   -18139   -18161   -18216   -18312   -18435   -18466   -18264 
  -17930   -17788   -18017   -18469   -18766   -18671   -18343   -18090 
  -18033   -18095   -18193   -18326   -18449   -18519   -18555   -18570 
  -18536   -18381   -18085   -17753   -17504   -17378   -17363   -17455 
  -17647   -17876   -18118   -18373   -18567   -18621   -18542   -18403 
  -18311   -18370   -18582   -18819   -18927   -18817   -18539   -18273 
  -18202   -18381   -18669   -18773   -18536   -18119   -17818   -17768 
  -17871   -17944   -17888   -17732   -17567   -17493   -17560   -17714 
  -17911   -18183   -18486   -18727   -18856   -18813   -18553   -18149 
  -17771   -17582   -17641   -17875   -18131   -18326   -18449   -18496 
  -18522   -18585   -18643   -18608   -18469   -18315   -18222   -18169 
  -18091   -17914   -17649   -17463   -17437   -17417   -17261   -17014 
  -16865   -17012   -17448   -17944   -18318   -18550   -18711   -18804 
  -18733   -18524   -18287   -18079   -18006   -18099   -18206   -18229 
  -18168   -18056   -18011   -18091   -18164   -18098   -17934   -17849 
  -18029   -18488   -18978   -19152   -18856   -18316   -17960   -18009 
  -18300   -18504   -18443   -18199   -18004   -18044   -18245   -18441 
  -18635   -18866   -19043   -19070   -18928   -18697   -18489   -18365 
  -18335   -18327   -18206   -17892   -17466   -17127   -17012   -17088 
  -17262   -17474   -17676   -17841   -18017   -18242   -18431   -18473 
  -18368   -18234   -18181   -18164   -18122   -18134   -18220   -18314 
  -18364   -18310   -18119   -17878   -17699   -17647   -17737   -17829 
  -17740   -17562   -17489   -17551   -17682   -17845   -18011   -18118 
  -18119   -18046   -17938   -17787   -17604   -17518   -17670   -17975 
  -18198   -18242   -18192   -18103   -17967   -17871   -17933   -18108 
  -18241   -18243   -18158   -18115   -18234   -18499   -18729   -18767 
  -18615   -18404   -18245   -18145   -18142   -18280   -18463   -18590 
  -18658   -18686   -18698   -18675   -18590   -18442   -18231   -18065 
  -18083   -18208   -18249   -18168   -18052   -17969   -17976   -18054 
  -18077   -17969   -17794   -17666   -17709   -17976   -18308   -18434 
  -18299   -18126   -18115   -18239   -18322   -18214   -17987   -17913 
  -18156   -18554   -18808   -18821   -18739   -18692   -18671   -18623 
  -18495   -18276   -18084   -18061   -18165   -18219   -18152   -18064 
  -18072   -18173   -18291   -18382   -18435   -18395   -18211   -17960 
  -17786   -17709   -17625   -17481   -17358   -17408   -17701   -18112 
  -18420   -18501   -18376   -18198   -18121   -18112   -18050   -17917 
  -17815   -17875   -18027   -18036   -17883   -17786   -17857   -18050 
  -18225   -18208   -17965   -17710   -17679   -17895   -18185   -18350 
  -18337   -18268   -18265   -18334   -18435   -18573   -18739   -18825 
  -18727   -18553   -18501   -18603   -18789   -19006   -19140   -19102 
  -18918   -18650   -18343   -18054   -17847   -17803   -17905   -18021 
  -18010   -17805   -17512   -17385   -17536   -17770   -17813   -17655 
  -17513   -17537   -17631   -17632   -17563   -17589   -17774   -17998 
  -18103   -18053   -17914   -17767   -17713   -17786   -17888   -17913 
  -17891   -17911   -18033   -18316   -18713   -19010   -19091   -19041 
  -18954   -18867   -18796   -18719   -18570   -18300   -17971   -17680 
  -17462   -17336   -17316   -17359   -17477   -17676   -17867   -18029 
  -18223   -18422   -18603   -18779   -18963   -19128   -19164   -18989 
  -18661   -18346   -18184   -18139   -18127   -18152   -18249   -18432 
  -18594   -18542   -18257   -17953   -17810   -17813   -17863   -17872 
  -17766   -17517   -17186   -16942   -16943   -17177   -17494   -17713 
  -17772   -17799   -17876   -17932   -17921   -17926   -18065   -18318 
  -18542   -18651   -18694   -18735   -18727   -18634   -18547   -18543 
  -18608   -18725   -18843   -18895   -18882   -18825   -18723   -18589 
  -18446   -18358   -18392   -18434   -18337   -18135   -17992   -18033 
  -18154   -18137   -17942   -17716   -17639   -17830   -18233   -18623 
  -18748   -18561   -18299   -18274   -18497   -18659   -18555   -18237 
  -17882   -17716   -17811   -17995   -18060   -17917   -17671   -17574 
  -17698   -17832   -17782   -17563   -17317   -17217   -17361   -17656 
  -17967   -18220   -18370   -18416   -18387   -18323   -18299   -18320 
  -18322   -18262   -18161   -18021   -17859   -17763   -17791   -17940 
  -18139   -18295   -18368   -18373   -18334   -18257   -18135   -18026 
  -18067   -18281   -18532   -18751   -18924   -18956   -18858   -18759 
  -18658   -18508   -18388   -18358   -18312   -18111   -17751   -17336 
  -17000   -16839   -16891   -17055   -17205   -17342   -17467   -17524 
  -17544   -17556   -17489   -17331   -17181   -17066   -16899   -16629 
  -16351   -16156   -16016   -15867   -15763   -15846   -16201   -16733 
  -17226   -17518   -17618   -17618   -17610   -17664   -17801   -17945 
  -18021   -18042   -18052   -18003   -17875   -17790   -17863   -18073 
  -18322   -18536   -18713   -18867   -18963   -18881   -18562   -18158 
  -17895   -17834   -17848   -17849   -17902   -18110   -18470   -18864 
  -19153   -19259   -19251   -19360   -19711   -20156   -20461   -20553 
  -20555   -20621   -20777   -20920   -20979   -21020   -21035   -20875 
  -20528   -20187   -19981   -19861   -19712   -19487   -19269   -19195 
  -19252   -19280   -19175   -18999   -18868   -18824   -18846   -18856 
  -18735   -18428   -18042   -17759   -17643   -17659   -17760   -17841 
  -17806   -17698   -17629   -17694   -17856   -17946   -17852   -17659 
  -17567   -17712   -18017   -18234   -18204   -18046   -17983   -18072 
  -18168   -18071   -17782   -17574   -17675   -18000   -18269   -18253 
  -17950   -17591   -17425   -17601   -18085   -18574   -18723   -18532 
  -18337   -18435   -18894   -19527   -19962   -19939   -19570   -19159 
  -18881   -18717   -18566   -18418   -18330   -18300   -18281   -18230 
  -18071   -17771   -17455   -17290   -17286   -17350   -17386   -17334 
  -17242   -17178   -17085   -16895   -16672   -16582   -16738   -17200 
  -17903   -18544   -18828   -18808   -18762   -18850   -19045   -19214 
  -19194   -18948   -18578   -18234   -18003   -17821   -17601   -17359 
  -17112   -16879   -16756   -16772   -16819   -16827   -16848   -16983 
  -17317   -17755   -18085   -18230   -18119   -17724   -17301   -17107 
  -17078   -17091   -17092   -17016   -16856   -16731   -16762   -16924 
  -17085   -17111   -17001   -16864   -16816   -16923   -17143   -17315 
  -17329   -17220   -17107   -17135   -17419   -17901   -18388   -18732 
  -18967   -19253   -19622   -19926   -20054   -20050   -20054   -20158 
  -20267   -20189   -19812   -19172   -18492   -18018   -17795   -17726 
  -17651   -17429   -17089   -16810   -16758   -16934   -17124   -17111 
  -16931   -16833   -17016   -17450   -17883   -18114   -18200   -18292 
  -18431   -18617   -18850   -19091   -19305   -19450   -19538   -19654 
  -19808   -19919   -19988   -20074   -20178   -20294   -20426   -20455 
  -20185   -19627   -19062   -18779   -18809   -18858   -18616   -18133 
  -17668   -17339   -17073   -16772   -16460   -16333   -16470   -16671 
  -16753   -16657   -16266   -15599   -14953   -14590   -14574   -14862 
  -15365   -15970   -16471   -16699   -16752   -16879   -17235   -17803 
  -18428   -18964   -19411   -19828   -20245   -20710   -21227   -21672 
  -21868   -21736   -21366   -20873   -20293   -19657   -19144   -18944 
  -18937   -18813   -18431   -17836   -17181   -16641   -16294   -16124 
  -15978   -15701   -15448   -15535   -15923   -16194   -16100   -15749 
  -15425   -15464   -16046   -16977   -17894   -18600   -19128   -19566 
  -19907   -20027   -19877   -19645   -19569   -19622   -19564   -19268 
  -18835   -18474   -18297   -18293   -18435   -18657   -18839   -18904 
  -18867   -18790   -18744   -18823   -19051   -19261   -19207   -18873 
  -18555   -18526   -18755   -19021   -19143   -19130   -19126   -19187 
  -19291   -19340   -19161   -18721   -18189   -17784   -17599   -17587 
  -17678   -17852   -18057   -18130   -17940   -17644   -17563   -17811 
  -18195   -18404   -18295   -17980   -17656   -17478   -17528   -17703 
  -17797   -17737   -17571   -17324   -17042   -16769   -16537   -16453 
  -16638   -17065   -17562   -17928   -18019   -17833   -17510   -17257 
  -17290   -17709   -18303   -18782   -19066   -19195   -19194   -19064 
  -18800   -18476   -18258   -18218   -18247   -18207   -17995   -17658 
  -17378   -17254   -17257   -17373   -17564   -17666   -17498   -17084 
  -16663   -16528   -16792   -17307   -17886   -18401   -18727   -18779 
  -18507   -17918   -17216   -16730   -16671   -16961   -17371   -17814 
  -18273   -18617   -18697   -18589   -18555   -18731   -18993   -19148 
  -19149   -19145   -19330   -19766   -20343   -20839   -21057   -20925 
  -20515   -20023   -19703   -19673   -19799   -19888   -19884   -19823 
  -19795   -19846   -19853   -19700   -19411   -19009   -18539   -18076 
  -17656   -17294   -16950   -16515   -16011   -15635   -15557   -15773 
  -16131   -16483   -16780   -17046   -17390   -17888   -18414   -18820 
  -19105   -19265   -19321   -19376   -19444   -19465   -19484   -19593 
  -19764   -19831   -19668   -19317   -18906   -18522   -18133   -17664 
  -17200   -16920   -16880   -16918   -16775   -16406   -16074   -16098 
  -16541   -17093   -17327   -17113   -16749   -16672   -17039   -17616 
  -18065   -18196   -18040   -17757   -17443   -17127   -16865   -16696 
  -16703   -16961   -17347   -17641   -17756   -17739   -17663   -17545 
  -17415   -17448   -17847   -18538   -19209   -19589   -19614   -19488 
  -19511   -19758   -20073   -20225   -20083   -19761   -19529   -19561 
  -19770   -19903   -19863   -19770   -19703   -19623   -19456   -19118 
  -18631   -18161   -17892   -17949   -18342   -18877   -19269   -19376 
  -19236   -18966   -18592   -18114   -17635   -17213   -16773   -16309 
  -16066   -16293   -16899   -17523   -17867   -17857   -17595   -17203 
  -16741   -16299   -16039   -16046   -16206   -16362   -16480   -16603 
  -16715   -16706   -16507   -16313   -16478   -17165   -18156   -19032 
  -19487   -19515   -19321   -19072   -18823   -18584   -18357   -18212 
  -18281   -18631   -19171   -19695   -19988   -19970   -19735   -19388 
  -18975   -18505   -17948   -17334   -16829   -16572   -16540   -16654 
  -16876   -17173   -17478   -17768   -18033   -18179   -18139   -17986 
  -17879   -17969   -18291   -18693   -18902   -18717   -18234   -17807 
  -17703   -17945   -18446   -19066   -19657   -20102   -20328   -20302 
  -20094   -19880   -19778   -19735   -19651   -19521   -19413   -19377 
  -19392   -19350   -19103   -18555   -17744   -16852   -16125   -15709 
  -15630   -15832   -16152   -16333   -16155   -15628   -15076   -14862 
  -15083   -15560   -16017   -16317   -16565   -16985   -17695   -18571 
  -19386   -19951   -20173   -20159   -20221   -20605   -21266   -21857 
  -21955   -21450   -20725   -20260   -20089   -19854   -19306   -18443 
  -17431   -16572   -16004   -15619   -15361   -15269   -15375   -15616 
  -15877   -16168   -16625   -17253   -17917   -18463   -18744   -18765 
  -18765   -19016   -19519   -19958   -19996   -19649   -19300   -19344 
  -19842   -20433   -20642   -20344   -19804   -19417   -19417   -19656 
  -19732   -19394   -18689   -17923   -17415   -17263   -17331   -17398 
  -17312   -16997   -16484   -15982   -15742   -15823   -16032   -16087 
  -15790   -15164   -14505   -14203   -14455   -15175   -16044   -16714 
  -17031   -17126   -17250   -17616   -18242   -18889   -19356   -19666 
  -19932   -20235   -20540   -20682   -20606   -20414   -20229   -20224 
  -20525   -20961   -21172   -20943   -20305   -19430   -18544   -17833 
  -17346   -17027   -16704   -16152   -15381   -14688   -14342   -14408 
  -14823   -15504   -16362   -17203   -17740   -17786   -17466   -17196 
  -17386   -18063   -18859   -19369   -19506   -19508   -19651   -19982 
  -20340   -20563   -20710   -20941   -21226   -21350   -21151   -20707 
  -20218   -19780   -19422   -19133   -18783   -18227   -17456   -16634 
  -15998   -15684   -15654   -15777   -15889   -15788   -15369   -14867 
  -14732   -15228   -16151   -17015   -17462   -17533   -17508   -17604 
  -17847   -18104   -18331   -18661   -19183   -19738   -20061   -20078 
  -19961   -19931   -20104   -20401   -20645   -20781   -20879   -20941 
  -20844   -20449   -19812   -19267   -19133   -19334   -19488   -19311 
  -18817   -18218   -17707   -17347   -17111   -16942   -16810   -16784 
  -16951   -17278   -17649   -17937   -17987   -17741   -17361   -17064 
  -16935   -16969   -17132   -17293   -17354   -17377   -17334   -17178 
  -17138   -17446   -18010   -18550   -18824   -18832   -18775   -18809 
  -18964   -19156   -19207   -19052   -18792   -18508   -18222   -17969 
  -17801   -17643   -17338   -16891   -16433   -16102   -15971   -15990 
  -16046   -16048   -15994   -15986   -16131   -16407   -16686   -16961 
  -17379   -17963   -18546   -18945   -19161   -19392   -19766   -20144 
  -20374   -20505   -20601   -20567   -20332   -20015   -19764   -19573 
  -19346   -19052   -18778   -18621   -18589   -18582   -18400   -17867 
  -17058   -16335   -16089   -16362   -16750   -16802   -16484   -16191 
  -16281   -16768   -17386   -17838   -18023   -18048   -18135   -18430 
  -18844   -19240   -19642   -20093   -20424   -20510   -20452   -20328 
  -20146   -19932   -19715   -19557   -19492   -19460   -19363   -19153 
  -18844   -18445   -17995   -17632   -17408   -17182   -16821   -16411 
  -16183   -16260   -16569   -17000   -17452   -17759   -17799   -17614 
  -17398   -17423   -17799   -18316   -18647   -18654   -18469   -18303 
  -18179   -18007   -17767   -17505   -17346   -17433   -17755   -18141 
  -18445   -18677   -18952   -19296   -19556   -19518   -19110   -18489 
  -17895   -17463   -17131   -16762   -16383   -16114   -16051   -16224 
  -16528   -16726   -16614   -16181   -15723   -15708   -16364   -17428 
  -18319   -18588   -18266   -17721   -17281   -17123   -17247   -17477 
  -17687   -17933   -18246   -18576   -18877   -19147   -19429   -19758 
  -20082   -20285   -20237   -19901   -19487   -19294   -19356   -19468 
  -19433   -19164   -18679   -18081   -17514   -17092   -16923   -17043 
  -17294   -17520   -17717   -17883   -17968   -17945   -17822   -17678 
  -17672   -17890   -18188   -18347   -18353   -18385   -18468   -18411 
  -18257   -18345   -18828   -19413   -19612   -19197   -18434   -17840 
  -17676   -17767   -17844   -17824   -17716   -17529   -17213   -16718 
  -16178   -15853   -15881   -16200   -16714   -17398   -18107   -18615 
  -18817   -18766   -18740   -19009   -19425   -19639   -19549   -19386 
  -19454   -19797   -20159   -20285   -20182   -20011   -19816   -19522 
  -19128   -18786   -18636   -18634   -18677   -18716   -18671   -18519 
  -18361   -18266   -18243   -18274   -18284   -18261   -18273   -18289 
  -18218   -18033   -17756   -17524   -17504   -17667   -17782   -17590 
  -17157   -17005   -17578   -18698   -19786   -20394   -20429   -20082 
  -19668   -19426   -19457   -19755   -20144   -20349   -20217   -19818 
  -19314   -18747   -18045   -17307   -16767   -16471   -16247   -15984 
  -15805   -15904   -16297   -16816   -17194   -17243   -17065   -16978 
  -17284   -18025   -18859   -19354   -19342   -18862   -18110   -17464 
  -17262   -17517   -17905   -18079   -18006   -17852   -17698   -17517 
  -17285   -17023   -16879   -17064   -17610   -18304   -18856   -19033 
  -18850   -18523   -18179   -17824   -17450   -17088   -16888   -17064 
  -17610   -18257   -18751   -19055   -19265   -19448   -19510   -19333 
  -19049   -18929   -19032   -19174   -19203   -19206   -19309   -19431 
  -19377   -19033   -18378   -17524   -16703   -16071   -15692   -15615 
  -15803   -16177   -16675   -17130   -17344   -17339   -17304   -17377 
  -17529   -17713   -17938   -18154   -18339   -18611   -18981   -19233 
  -19183   -18890   -18604   -18532   -18684   -18914   -19159   -19570 
  -20312   -21153   -21575   -21304   -20457   -19325   -18188   -17197 
  -16393   -15822   -15510   -15394   -15377   -15452   -15645   -15907 
  -16125   -16258   -16375   -16622   -17086   -17679   -18212   -18544 
  -18617   -18511   -18422   -18505   -18765   -19072   -19326   -19498 
  -19485   -19202   -18812   -18592   -18643   -18898   -19232   -19450 
  -19313   -18743   -17999   -17533   -17590   -18033   -18620   -19171 
  -19460   -19251   -18530   -17660   -17081   -16950   -17116   -17254 
  -17154   -16910   -16698   -16565   -16491   -16372   -16067   -15607 
  -15199   -15025   -15120   -15375   -15653   -15915   -16227   -16679 
  -17317   -18092   -18752   -18991   -18848   -18659   -18624   -18719 
  -18779   -18651   -18445   -18449   -18716   -18979   -18937   -18513 
  -17894   -17405   -17339   -17683   -18164   -18558   -18770   -18742 
  -18540   -18404   -18466   -18530   -18376   -18156   -18199   -18571 
  -19080   -19561   -19881   -19969   -19920   -19845   -19742   -19622 
  -19504   -19441   -19554   -19828   -19971   -19727   -19145   -18497 
  -18080   -18004   -18122   -18229   -18295   -18438   -18675   -18867 
  -18922   -18843   -18711   -18673   -18775   -18898   -18960   -19070 
  -19332   -19680   -19957   -20005   -19759   -19326   -18901   -18598 
