Origin Time       2024/04/02 04:24:00
Lat.              40.133
Long.             141.712
Depth. (km)       71
Mag.              6.0
Station Code      AKT006
Station Lat.      40.2153
Station Long.     140.7873
Station Height(m) 123
Record Time       2024/04/02 04:24:53
Sampling Freq(Hz) 100Hz
Duration Time(s)  104
Dir.              N-S
Scale Factor      7845(gal)/8223790
Max. Acc. (gal)   23.010
Last Correction   2024/04/02 04:24:53
Memo.             
[...]
   -9738    -6228    -2392      552     1632      487    -2583    -6632 
  -10237   -12270   -12596   -11639    -9498    -6255    -2817     -422 
     207    -1115    -4102    -7762   -10658   -12216   -12933   -12673 
  -10612    -6951    -3044     -297      213    -2038    -6297   -10679 
  -13922   -16009   -16686   -15068   -10947    -5341       41     3553 
    4027     1148    -4074   -10054   -15776   -20034   -21265   -19151 
  -14700    -9279    -4445    -1675    -1537    -3105    -4895    -6454 
   -8229   -10269   -11834   -12004   -10120    -6508    -2882     -846 
    -764    -2513    -5633    -9229   -12571   -14481   -13331    -8881 
   -2733     2837     5760     4672     -556    -8357   -16143   -21521 
  -22719   -18885   -10709     -970     6454     9181     7192     1418 
   -7064   -16438   -23915   -27214   -25779   -19931   -10667     -670 
    7065    11029    10397     5136    -3038   -11587   -18295   -21420 
  -20074   -15232    -9282    -3867      282     1879       33    -3971 
   -8063   -11592   -14608   -16204   -15214   -11669    -6513    -1104 
    2670     3312      692    -4403   -10467   -15488   -18342   -18785 
  -16179   -10010    -1344     6912    11338     9815     2413    -8418 
  -18763   -25204   -25799   -20329   -10590      263     8972    13192 
   12517     8313     1861    -6075   -13832   -18920   -19923   -17705 
  -14249   -11070    -9620   -11219   -15066   -18300   -19245   -18288 
  -15346    -9787    -2878     2574     5107     5363     4005      720 
   -3909    -7867    -9987   -10509    -9833    -8455    -6847    -5023 
   -3199    -2154    -2254    -3187    -4927    -7403    -9697   -11335 
  -13316   -15970   -17316   -15587   -11560    -6706    -1399     3597 
    6378     6300     4102     -294    -6382   -12019   -15772   -17355 
  -16741   -14526   -11743    -9003    -6648    -5447    -6011    -7884 
   -9911   -11160   -11315   -10431    -8402    -5188    -1556     1312 
    2848     2806      945    -2578    -7227   -12351   -17050   -19890 
  -19930   -17942   -15132   -12279   -10245    -9005    -7631    -5726 
   -3370     -599     2362     4453     3935      484    -4098    -8247 
  -11470   -13073   -12133    -8607    -4121     -992      -10     -788 
   -3609    -8654   -14582   -19387   -21617   -21132   -19129   -16826 
  -14956   -14079   -13736   -12634   -10122    -5998     -382     5163 
    8600     9460     8326     5462     1109    -3516    -6658    -7915 
   -8672    -9917   -11124   -11747   -12141   -12721   -13412   -13965 
  -14087   -13085   -10206    -5950    -2265     -639    -1011    -2758 
   -5503    -8586   -10750   -11365   -10889    -9466    -7171    -4962 
   -3361    -1738      147     1036     -696    -4949   -10272   -15758 
  -20395   -21969   -19222   -13544    -6951     -760     3615     5166 
    3790       66    -4533    -8584   -11173   -11434    -9929    -8294 
   -7032    -6353    -6864    -8421   -10309   -11954   -12969   -12946 
  -11678   -10050    -9329    -9313    -8826    -7484    -5443    -2833 
    -148     2083     3429     3370     2049       37    -2731    -6320 
   -9861   -12503   -14299   -15157   -14150   -11198    -8077    -6617 
   -7025    -8459   -10173   -11149   -10089    -7014    -3003      959 
    3011     1089    -4295   -10574   -15745   -18638   -18337   -14821 
   -9315    -3557     1278     4460     4877     2236    -2126    -7013 
  -11600   -14511   -14991   -13679   -11583    -9414    -7670    -6895 
   -7572    -9379   -11260   -12340   -12233   -11057    -9390    -7850 
   -6708    -5787    -4864    -4077    -3634    -3531    -3874    -5343 
   -8607   -12941   -16738   -19188   -19900   -18245   -14346    -9389 
   -4792    -1568        9       -2    -1467    -3643    -5614    -7133 
   -8360    -9130    -8959    -8141    -7655    -7747    -8208    -9123 
  -10233   -10743   -10214    -8995    -7387    -5192    -2635     -427 
    1005     1327       59    -2875    -6826   -10693   -13504   -14516 
  -12964    -8932    -4018      159     2654     2320    -1237    -6590 
  -11986   -16222   -18154   -17324   -14399   -10481    -6542    -3311 
   -1545    -1948    -4355    -7808   -11317   -13856   -14577   -13335 
  -10530    -6605    -1830     3090     6667     7902     6775     3456 
   -1633    -7668   -13343   -16893   -17336   -14847   -10046    -4318 
     310     2407     1953     -136    -3396    -7429   -10817   -12418 
  -12538   -12013   -11238   -10160    -8680    -7149    -6102    -5607 
   -5609    -6204    -7055    -7792    -8509    -9046    -9209    -9252 
   -9343    -9647   -10449   -11628   -12939   -13971   -13846   -12245 
   -9688    -6733    -4105    -2575    -2324    -3298    -5293    -7352 
   -8433    -8455    -7962    -7460    -7173    -7095    -7338    -8070 
   -8939    -9171    -8164    -5946    -3446    -1899    -1837    -3150 
   -5387    -7690    -9182    -9672    -9444    -8387    -6529    -4826 
   -4201    -4764    -6172    -7884    -9369   -10204   -10104    -9382 
   -8800    -8641    -8676    -8919    -9614   -10588   -11165   -10764 
   -9270    -7159    -5505    -5427    -7099    -9412   -11029   -11456 
  -10477    -7851    -4313    -1404      -48     -346    -2299    -5649 
   -9240   -11659   -12542   -12132   -10538    -8525    -7341    -7344 
   -8122    -9124    -9467    -8456    -6535    -4684    -3242    -2295 
   -2361    -3709    -5840    -8077    -9873   -10835   -10997   -10674 
  -10077    -9370    -8734    -7993    -6659    -4891    -3538    -3110 
   -3639    -5121    -7353    -9536   -10663   -10608    -9894    -8721 
   -7380    -6486    -6281    -6646    -7287    -7776    -8016    -8387 
   -9107    -9710    -9575    -8590    -7137    -5967    -5483    -5193 
   -4618    -3792    -3003    -2948    -4032    -5744    -7514    -8991 
   -9765    -9801    -9485    -9018    -8064    -6358    -4507    -3493 
   -3611    -4552    -5783    -6559    -6542    -6227    -6309    -7105 
   -8406    -9706   -10827   -11759   -12017   -10967    -8503    -5287 
   -2513    -1129    -1435    -3219    -5760    -8237   -10157   -11021 
  -10542    -9112    -7360    -5872    -5179    -5359    -5933    -6440 
   -6917    -7461    -7852    -7985    -8055    -8267    -8532    -8553 
   -8334    -8087    -7654    -6886    -6281    -6258    -6338    -6096 
   -5863    -5737    -5393    -4958    -5113    -6273    -7834    -8841 
   -9161    -9045    -8453    -7437    -6431    -6016    -6346    -7121 
   -8361   -10093   -11585   -12166   -11942   -11153    -9950    -8741 
   -7979    -7661    -7412    -7129    -7159    -7591    -7997    -8112 
   -8148    -8291    -8452    -8544    -8618    -8699    -8576    -8091 
   -7441    -6818    -6322    -5910    -5302    -4565    -4098    -3865 
   -3570    -3267    -3237    -3746    -4870    -6396    -7948    -9207 
  -10096   -10476    -9898    -8418    -6759    -5233    -3782    -2693 
   -2396    -2959    -4095    -5656    -7732   -10100   -12109   -13136 
  -12895   -11503    -9359    -6940    -4757    -3446    -3650    -5346 
   -7717   -10119   -12186   -13282   -12892   -10924    -7788    -4610 
   -2542    -2026    -2860    -4402    -6050    -7470    -8330    -8527 
   -8341    -8059    -7867    -7821    -7763    -7684    -7894    -8529 
   -9300    -9822    -9815    -9362    -8953    -8787    -8538    -8010 
   -7465    -7306    -7546    -7699    -7348    -6481    -5174    -3681 
   -2691    -2709    -3659    -5248    -7041    -8550    -9470    -9548 
   -8631    -7115    -5742    -4876    -4738    -5729    -7592    -9297 
  -10044    -9713    -8595    -6963    -5205    -4047    -4023    -5116 
   -6934    -8935   -10685   -11805   -11958   -11268   -10104    -8521 
   -6629    -4828    -3526    -3029    -3350    -4248    -5433    -6713 
   -8241   -10017   -11562   -12561   -12820   -11939    -9988    -7766 
   -6073    -5266    -5400    -6376    -7797    -9169   -10419   -11553 
  -12260   -12324   -11708   -10416    -8712    -7182    -6409    -6538 
   -7101    -7346    -6727    -5350    -3875    -2686    -1868    -1844 
   -2960    -4899    -6893    -8151    -8467    -8310    -7977    -7441 
   -6898    -6744    -7119    -7754    -8158    -7965    -7238    -6370 
   -5778    -5675    -5869    -6054    -6289    -6677    -6826    -6315 
   -5468    -4823    -4351    -3998    -4066    -4695    -5695    -6863 
   -8136    -9261    -9694    -9270    -8687    -8629    -8629    -7959 
   -6855    -5860    -5289    -5406    -6023    -6597    -6970    -7231 
   -7318    -7258    -7306    -7527    -7635    -7547    -7603    -7832 
   -7615    -6554    -5231    -4571    -4893    -6093    -7947    -9877 
  -11240   -11772   -11353    -9849    -7701    -6000    -5435    -5767 
   -6303    -6592    -6633    -6593    -6643    -6786    -6971    -7416 
   -8154    -8865    -9628   -10539   -10854   -10015    -8606    -7350 
   -6666    -6871    -7623    -8168    -8289    -8364    -8937   -10342 
  -12442   -14451   -15010   -13240    -9794    -6273    -3801    -2567 
   -2428    -3310    -5039    -7190    -9103    -9976    -9261    -7175 
   -4783    -3261    -2987    -3510    -4291    -5077    -5732    -6216 
   -6577    -6756    -6523    -5690    -4529    -3840    -4214    -5682 
   -7954   -10370   -12110   -12671   -11916   -10007    -7379    -4776 
   -2998    -2413    -3163    -5355    -8413   -11007   -12170   -11994 
  -11044    -9513    -7501    -5586    -4538    -4734    -6002    -7813 
   -9479   -10470   -10681   -10228    -9262    -8201    -7678    -7673 
   -7427    -6841    -6693    -7276    -8085    -8719    -9015    -8590 
   -7341    -5729    -4141    -2863    -2201    -2292    -3203    -4657 
   -6046    -7156    -7873    -7838    -7002    -5796    -4693    -3775 
   -3028    -2893    -3726    -5390    -7690   -10150   -11952   -12861 
  -13231   -13247   -12831   -11699    -9660    -7075    -4608    -2871 
   -2116    -2056    -2436    -3393    -4822    -6173    -7285    -8619 
  -10287   -11558   -11578   -10246    -8152    -5929    -4193    -3622 
   -4303    -5656    -7299    -9008   -10226   -10609   -10384    -9842 
   -9198    -8529    -7603    -6334    -5229    -4860    -5080    -5328 
   -5513    -5864    -6266    -6417    -6218    -5702    -5001    -4473 
   -4629    -5570    -6756    -7600    -7929    -7977    -7970    -7807 
   -7614    -7867    -8471    -8870    -9099    -9695   -10795   -11927 
  -12568   -12499   -11715   -10527    -9448    -8675    -8068    -7488 
   -7195    -7761    -8904    -9506    -9040    -7781    -6230    -4992 
   -4576    -4974    -5432    -5201    -4583    -4302    -4410    -4781 
   -5651    -7010    -8417    -9263    -9059    -7928    -6428    -5001 
   -4089    -4133    -5265    -7246    -9518   -11453   -12563   -12386 
  -10903    -8775    -6733    -5286    -4753    -5300    -7002    -9521 
  -12052   -13821   -14424   -13845   -12091    -8905    -4515     -222 
    2686     3924     3730     2405      367    -1944    -4297    -6704 
   -9036   -10821   -11632   -11484   -10898   -10554   -10705   -11261 
  -12101   -13039   -13883   -14368   -13914   -12106    -9363    -6498 
   -4050    -2459    -2245    -3350    -4947    -6411    -7749    -9223 
  -11152   -13443   -15350   -16201   -15743   -13826   -10539    -6424 
   -2400      283      712    -1007    -4423    -9034   -13601   -16650 
  -17536   -16245   -13082    -8812    -4352     -553     1661     1833 
     318    -2277    -5200    -7458    -8415    -8090    -7172    -6858 
   -7967   -10362   -13128   -14963   -14824   -12172    -7045     -583 
    5236     8652     8527     4544    -2184    -9135   -13664   -14505 
  -12275    -8482    -4174     -210     1861      935    -2290    -6319 
   -9995   -12575   -13771   -13474   -11901    -9973    -8403    -7090 
   -5868    -4807    -3981    -3531    -3524    -4087    -5405    -6860 
   -7511    -7287    -6300    -4446    -2254     -679     -153     -388 
   -1100    -2369    -4001    -5479    -6324    -6157    -5161    -4171 
   -4085    -5640    -9369   -15002   -20916   -24857   -25509   -22767 
  -17254   -10374    -3871      726     2276      673    -3029    -7213 
  -10139   -10982   -10307    -8804    -6590    -4029    -2026    -1381 
   -2488    -5394    -9618   -14129   -17973   -20515   -20919   -18419 
  -13286    -6718      -29     5463     8565     8835     6797     3181 
   -1838    -8006   -14154   -18910   -21601   -22075   -20231   -16370 
  -12090    -9443    -8876    -9516   -10847   -12352   -12779   -11338 
   -8410    -4637     -565     3171     5879     6987     6488     4722 
    1869    -1610    -4901    -7612    -9776   -11538   -13046   -14004 
  -14042   -13483   -12928   -12548   -12071   -11254   -10260    -9412 
   -8881    -8653    -8406    -7743    -6709    -5729    -5047    -4604 
   -4264    -3676    -2606    -1881    -2848    -5780    -9925   -14372 
  -17794   -18901   -17840   -15554   -12359    -8513    -5123    -3508 
   -3665    -3975    -3191    -1694     -264      710      364    -2139 
   -5980    -9525   -12042   -13383   -13454   -12193    -9578    -6008 
   -2272      785     2431     2088     -873    -6264   -12573   -18500 
  -23248   -25886   -25991   -23853   -19893   -14443    -8000    -1671 
    3397     7138     9795    10573     8667     4560     -846    -6573 
  -10903   -12540   -12032   -10887    -9872    -8962    -8309    -7996 
   -7749    -7510    -7304    -7130    -7317    -8525   -11060   -13630 
  -14440   -13435   -11132    -7203    -1809     3754     8051    10450 
   11137    10061     6442     -307    -9629   -19542   -27468   -31442 
  -30354   -24140   -14735    -5405     1591     5421     5886     3684 
     105    -3770    -7083    -8905    -8610    -6837    -4877    -3119 
   -1362       44      407     -187    -1047    -2026    -3375    -5085 
   -6997    -9112   -11792   -15155   -18426   -20448   -20515   -18817 
  -16144   -13034    -9607    -5938    -1984     2004     4747     4985 
    2975     -468    -5108   -10203   -14385   -17190   -19017   -19916 
  -19511   -17670   -14658   -10858    -6849    -3700    -2589    -3773 
   -6431    -9871   -13695   -16791   -17680   -15651   -11002    -4761 
    1841     7626    11263    12104    10912     8644     5579     1992 
   -1593    -4797    -7535    -9983   -12341   -14601   -16722   -18617 
  -19823   -19728   -18185   -15797   -13382   -11215    -9445    -8468 
   -8278    -8332    -8208    -7808    -6939    -5220    -2736     -257 
    1463     2045     1071    -1647    -5190    -7898    -8788    -7983 
   -6154    -4379    -3851    -5136    -8167   -12399   -16758   -19831 
  -20517   -18824   -15399   -10812    -6257    -3329    -2646    -4068 
   -7376   -11695   -15315   -16730   -15750   -13286   -10196    -7257 
   -5638    -6085    -8186   -11115   -14305   -16850   -17626   -16637 
  -14866   -12800    -9987    -5886     -778     4437     8964    12012 
   12734    11099     7902     3662    -1422    -6650   -10800   -12934 
  -12731   -10300    -6502    -3076    -1425    -1888    -4274    -7879 
  -11253   -13097   -13231   -12175   -10384    -8460    -7433    -8140 
  -10570   -13680   -15948   -16290   -14376   -10750    -6636    -3141 
   -1005     -544    -1260    -2320    -3296    -3751    -2949     -776 
    1792     3603     4037     2826       40    -3512    -6674    -8712 
   -9356    -8810    -7792    -7148    -7412    -8483    -9869   -11330 
  -12565   -12838   -11757    -9605    -6798    -3843    -1759    -1803 
   -4097    -7346   -10674   -14065   -16889   -17971   -16961   -14386 
  -10756    -6575    -2728      -94      818      -93    -2258    -4788 
   -7383   -10072   -12155   -12575   -11163    -8645    -5962    -4287 
   -4776    -7460   -11009   -13988   -15573   -15219   -12879    -9408 
   -6042    -3765    -3302    -4889    -7963   -11588   -14904   -17113 
  -17710   -16698   -14299   -11002    -7796    -5730    -5217    -5697 
   -6058    -5545    -4140    -2386    -1001     -811    -2536    -5748 
   -8896   -10581    -9952    -6667    -1309     4517     8955    10767 
    9533     5856     1054    -4002    -8668   -11812   -12895   -12545 
  -11738   -11188   -11121   -11449   -11889   -11668   -10285    -8490 
   -7412    -7344    -8209   -10145   -12757   -14999   -16073   -15462 
  -12852    -8776    -4553    -1335      488     1051      480     -876 
   -2087    -2608    -3284    -5262    -8368   -11437   -13601   -14669 
  -14521   -12698    -9329    -5899    -3800    -3080    -3607    -5867 
   -9883   -14486   -17937   -19402   -19542   -18774   -16422   -12414 
   -7859    -3925    -1073     1028     2755     3897     4178     3435 
    1308    -2300    -6766   -10984   -13806   -14647   -13610   -11011 
   -7349    -3697    -1536    -1738    -3998    -7433   -11067   -13992 
  -15857   -16758   -16432   -14728   -12602   -11074    -9877    -8135 
   -5586    -2735       68     2990     5672     7125     6816     4591 
     255    -5657   -11603   -16335   -19535   -20985   -20440   -17925 
  -13787    -9153    -5470    -3383    -3045    -4507    -7285   -10536 
  -13406   -15151   -15375   -13888   -10710    -6524    -2473      232 
     743     -796    -3535    -6666    -9556   -11859   -13460   -13880 
  -12638   -10199    -7395    -4465    -1410     1296     2997     3751 
    3724     2165    -1386    -6153   -11034   -15002   -17026   -16549 
  -13848    -9930    -6052    -3242    -2114    -2716    -4418    -6257 
   -7468    -7597    -6637    -5143    -3800    -3169    -3655    -5196 
   -7307    -9239    -9963    -9054    -7275    -5445    -3870    -2994 
   -3260    -4560    -6440    -8403    -9899   -10440   -10053    -9423 
   -9078    -8752    -7992    -6844    -5528    -4097    -2633    -1537 
   -1310    -2111    -3947    -6876   -10438   -13464   -14953   -14899 
  -13956   -12448   -10270    -7658    -5422    -4060    -3122    -2154 
   -1599    -1968    -3229    -5332    -7998   -10500   -12179   -12538 
  -11488    -9543    -7210    -4837    -2654     -602     1169     2309 
    2770     2554     1386    -1108    -4831    -8839   -12010   -13774 
  -13848   -12280    -9991    -7973    -6354    -5278    -5416    -7029 
   -9529   -12013   -13917   -15017   -14937   -13641   -12154   -11403 
  -11088   -10775   -10731   -10864   -10334    -8854    -7273    -6253 
   -5648    -5540    -6467    -8399   -10457   -11869   -12572   -12683 
  -12198   -11161    -9498    -7223    -5024    -3912    -4364    -6285 
   -9250   -12521   -15237   -16564   -15772   -12889    -9080    -5643 
   -3065    -1688    -2057    -3835    -5923    -7720    -9061    -9842 
  -10143   -10015    -9532    -8827    -7888    -6818    -5819    -4924 
   -4190    -3596    -3100    -2957    -3352    -4139    -5205    -6432 
   -7319    -7380    -6832    -6392    -6455    -6912    -7642    -8394 
   -8488    -7628    -6431    -5540    -5011    -4930    -5729    -7495 
   -9607   -11277   -12019   -11651   -10334    -8692    -7284    -6037 
   -4878    -4214    -4266    -4617    -4588    -3977    -3337    -3180 
   -3462    -4143    -5393    -7134    -8797    -9632    -9529    -9121 
   -8731    -8131    -7357    -6725    -6139    -5269    -4456    -4579 
   -5749    -7191    -8448    -9549   -10160    -9701    -8186    -6281 
   -4587    -3292    -2424    -2000    -2006    -2419    -3187    -4299 
   -5742    -7179    -8171    -8583    -8448    -7894    -7323    -7210 
