Origin Time       2024/04/02 04:24:00
Lat.              40.133
Long.             141.712
Depth. (km)       71
Mag.              6.0
Station Code      AKT007
Station Lat.      40.0376
Station Long.     140.0919
Station Height(m) 17
Record Time       2024/04/02 04:24:59
Sampling Freq(Hz) 100Hz
Duration Time(s)  71
Dir.              E-W
Scale Factor      7845(gal)/8223790
Max. Acc. (gal)   1.768
Last Correction   2024/04/02 04:24:59
Memo.             
[...]
     523      473      521      575      627      739      901     1000 
     976      886      801      764      839     1034     1256     1422 
    1495     1498     1507     1553     1595     1637     1694     1710 
    1652     1560     1474     1399     1305     1112      808      510 
     317      222      203      261      368      468      541      577 
     591      654      832     1101     1366     1547     1638     1652 
    1564     1359     1085      811      579      426      386      444 
     544      626      666      691      751      864      992     1096 
    1158     1182     1171     1128     1090     1120     1246     1420 
    1548     1561     1513     1530     1663     1810     1863     1813 
    1729     1651     1540     1374     1210     1082      982      908 
     843      781      754      780      823      830      776      714 
     714      773      826      837      814      800      814      847 
     874      862      834      851      916      973     1000     1015 
    1038     1050     1031     1017     1038     1053     1038     1035 
    1069     1127     1189     1229     1201     1050      800      576 
     495      550      661      768      832      843      824      823 
     865      922      985     1074     1189     1312     1437     1540 
    1597     1578     1456     1301     1252     1333     1408     1372 
    1236     1066      907      762      612      475      396      398 
     463      550      618      637      619      589      565      577 
     626      649      608      575      581      573      546      577 
     720      934     1125     1223     1223     1193     1174     1134 
    1053      957      881      865      918      994     1036     1030 
    1007      997      978      922      850      824      872      950 
     990      976      965     1003     1085     1205     1356     1506 
    1622     1684     1706     1722     1718     1657     1545     1405 
    1270     1158     1061      997     1003     1085     1204     1316 
    1397     1435     1420     1339     1178      985      847      792 
     772      727      618      441      241       87       29       70 
     186      351      531      700      855      969     1007     1005 
    1032     1121     1255     1359     1381     1337     1255     1136 
     988      812      623      465      379      360      390      441 
     494      556      660      810      999     1217     1394     1424 
    1320     1190     1097     1036      999      976      961      955 
     972     1030     1120     1197     1227     1213     1165     1102 
    1071     1085     1085     1044     1009      997      980      939 
     868      774      707      699      756      881     1048     1197 
    1318     1432     1472     1387     1255     1175     1147     1112 
    1036      946      892      874      881      932     1023     1096 
    1144     1221     1313     1340     1275     1136      954      773 
     618      514      508      606      743      878     1013     1148 
    1273     1366     1410     1416     1386     1287     1125      963 
     822      683      556      460      386      353      414      569 
     754      931     1104     1260     1370     1441     1503     1548 
    1525     1406     1213      994      781      596      463      369 
     305      283      365      591      893     1158     1343     1468 
    1517     1466     1344     1202     1048      878      720      595 
     523      535      614      726      855      992     1119     1242 
    1378     1516     1625     1676     1622     1451     1224     1026 
     893      789      652      503      427      454      554      710 
     908     1124     1340     1552     1744     1872     1885     1784 
    1613     1428     1283     1216     1221     1252     1266     1262 
    1260     1256     1240     1216     1194     1155     1059      889 
     680      491      365      297      260      255      287      357 
     467      633      864     1100     1254     1316     1329     1305 
    1244     1183     1155     1150     1128     1066      992      962 
     985     1011     1003      973      931      859      776      738 
     745      741      708      658      602      554      538      558 
     608      684      769      845      908      949      930      864 
     814      788      765      751      747      749      765      801 
     857      942     1050     1148     1229     1297     1356     1416 
    1470     1497     1490     1433     1314     1152      999      918 
     922      954      970      993     1039     1062     1042     1011 
     999      986      963      953      976     1008     1047     1108 
    1175     1227     1246     1229     1204     1171     1116     1058 
    1020      988      954      951     1001     1077     1117     1093 
    1035      976      903      816      749      719      714      710 
     696      702      756      853      958     1034     1069     1086 
    1097     1069      955      788      654      585      541      503 
     467      444      484      595      712      803      889      980 
    1063     1132     1196     1255     1310     1372     1439     1489 
    1503     1462     1370     1270     1192     1127     1063     1004 
     957      932      943      992     1035     1023      970      936 
     938      951      982     1053     1154     1262     1331     1324 
    1259     1183     1127     1084     1035      986      970      994 
    1028     1034     1009      970      935      932      955      967 
     962      916      805      676      564      441      326      272 
     282      338      438      576      745      930     1107     1235 
    1302     1345     1417     1530     1634     1661     1605     1526 
    1464     1421     1406     1401     1363     1283     1193     1127 
    1084     1030      951      884      861      859      839      788 
     719      652      598      565      561      587      627      675 
     722      765      819      888      961     1021     1051     1048 
    1013      943      880      865      891      936      992     1031 
    1032     1024     1051     1102     1152     1182     1186     1171 
    1166     1161     1128     1074     1021      980      981     1050 
    1136     1173     1161     1127     1093     1071     1050     1008 
     954      909      869      824      792      781      778      769 
     753      731      693      638      610      638      683      689 
     675      689      723      734      719      712      727      770 
     845      928      992     1024     1048     1116     1236     1364 
    1467     1530     1541     1505     1453     1405     1360     1308 
    1248     1217     1251     1320     1370     1387     1358     1263 
    1158     1116     1129     1144     1146     1136     1111     1073 
    1027      976      924      859      769      677      612      568 
     523      480      442      433      468      526      581      614 
     619      612      607      622      664      734      827      923 
    1007     1093     1189     1267     1282     1225     1136     1078 
    1080     1108     1134     1154     1152     1142     1165     1225 
    1308     1404     1507     1597     1659     1690     1680     1630 
    1572     1517     1456     1402     1375     1372     1372     1359 
    1336     1309     1282     1252     1210     1138     1040      946 
     872      818      789      784      795      812      808      776 
     733      702      683      653      606      544      456      338 
     244      222      252      292      334      395      499      650 
     805      915      959      954      927      880      818      760 
     702      648      631      658      723      851     1036     1231 
    1401     1520     1567     1549     1485     1379     1248     1102 
     953      820      737      708      724      774      827      866 
     909      980     1074     1163     1219     1239     1250     1270 
    1290     1285     1251     1204     1158     1117     1092     1094 
    1115     1129     1150     1166     1129     1063     1047     1086 
    1128     1132     1098     1067     1061     1061     1062     1073 
    1063      999      892      785      710      660      638      657 
     697      730      765      811      853      886      934      989 
    1042     1094     1148     1212     1283     1352     1416     1463 
    1480     1482     1462     1390     1269     1138     1020      905 
     803      729      688      676      670      649      634      653 
     700      743      768      781      801      839      889      935 
     947      907      842      797      807      866      957     1067 
    1174     1252     1298     1323     1332     1317     1269     1197 
    1112     1021      954      928      903      826      711      612 
     568      581      626      691      766      832      882      930 
     976     1017     1065     1128     1190     1244     1313     1402 
    1479     1518     1510     1448     1340     1198     1038      900 
     815      772      731      664      584      541      546      576 
     604      631      666      719      800      912     1023     1086 
    1102     1094     1078     1069     1081     1102     1109     1089 
    1061     1058     1090     1146     1182     1159     1096     1063 
    1074     1097     1132     1185     1240     1301     1370     1414 
    1413     1382     1343     1312     1304     1298     1278     1247 
    1202     1147     1096     1061     1054     1074     1093     1085 
    1046      990      935      880      812      716      598      494 
     423      387      392      430      467      496      530      557 
     579      616      664      697      729      769      805      838 
     880      939     1038     1154     1233     1273     1302     1314 
    1285     1232     1193     1189     1202     1188     1134     1053 
     962      899      892      908      912      904      895      885 
     889      912      928      916      885      861      873      931 
    1009     1070     1101     1113     1109     1115     1158     1210 
    1229     1208     1169     1136     1111     1074     1030      993 
     967      947      930      913      897      891      903      936 
     959      943      904      874      842      792      754      750 
     764      772      757      719      684      683      702      726 
     773      843      892      905      896      886      903      947 
    1005     1051     1066     1057     1046     1053     1092     1148 
    1194     1208     1170     1085      978      891      842      832 
     846      859      854      850      870      892      896      881 
     854      832      846      899      976     1066     1156     1223 
    1242     1212     1166     1121     1051      961      924      965 
    1034     1082     1111     1151     1219     1274     1278     1239 
    1181     1117     1075     1062     1053     1036     1024     1015 
    1003      992     1001     1040     1097     1139     1159     1144 
    1082     1005      963      961      974      984      989     1005 
    1028     1016      955      893      869      893      950     1005 
    1039     1066     1105     1158     1188     1154     1077     1005 
     935      853      788      764      762      768      799      849 
     891      912      927      953      996     1040     1039      986 
     924      874      832      801      774      743      722      739 
     810      915     1021     1092     1123     1124     1094     1042 
     984      931      903      900      905      903      893      888 
     905      953     1013     1081     1167     1264     1354     1424 
    1479     1513     1509     1470     1420     1368     1314     1259 
    1185     1069      923      791      712      691      693      706 
     745      815      913     1047     1209     1360     1470     1530 
    1555     1576     1633     1713     1764     1782     1796     1800 
    1772     1713     1634     1544     1456     1389     1354     1339 
    1333     1321     1274     1193     1113     1058     1042     1061 
    1085     1098     1120     1150     1159     1129     1096     1090 
    1098     1101     1104     1100     1086     1071     1062     1050 
    1020      970      919      872      810      720      639      604 
     595      568      537      519      507      514      572      677 
     799      940     1115     1297     1458     1590     1678     1722 
    1749     1771     1811     1907     2056     2208     2322     2392 
    2424     2421     2393     2351     2297     2226     2128     2011 
    1871     1695     1490     1273     1055      837      608      384 
     175      -27     -221     -384     -496     -545     -545     -510 
    -434     -311     -156       29      256      506      746      967 
    1165     1327     1441     1483     1426     1312     1202     1097 
     978      846      722      645      625      612      571      499 
     415      336      263      184       95       10      -63     -133 
    -194     -238     -261     -261     -230     -160      -56       76 
     255      488      738      973     1186     1375     1541     1657 
    1698     1692     1675     1624     1537     1472     1439     1371 
    1248     1094      923      731      508      272       60     -120 
    -299     -463     -579     -673     -774     -849     -866     -832 
    -760     -645     -492     -319     -148       22      207      387 
     510      577      658      788      926     1031     1092     1113 
    1129     1161     1181     1159     1093     1004      927      886 
     861      814      741      662      599      553      503      444 
     413      445      525      594      637      683      737      787 
     835      881      920      963     1023     1092     1129     1113 
    1077     1055     1044     1040     1039     1034     1020     1004 
     999     1028     1097     1177     1227     1235     1202     1127 
    1038      984      981     1019     1092     1178     1243     1277 
    1309     1362     1439     1521     1574     1576     1559     1540 
    1503     1435     1339     1221     1088      957      858      815 
     838      919     1038     1169     1287     1363     1372     1331 
    1260     1174     1098     1067     1077     1124     1227     1364 
    1486     1588     1705     1821     1900     1933     1921     1873 
    1803     1725     1656     1583     1507     1458     1447     1459 
    1478     1482     1468     1445     1417     1378     1325     1258 
    1196     1158     1128     1073      978      865      777      733 
     719      723      731      738      753      762      754      747 
     745      739      751      811      909     1020     1127     1231 
    1327     1429     1551     1655     1701     1699     1684     1678 
    1684     1696     1707     1729     1791     1912     2062     2188 
    2266     2284     2220     2087     1912     1711     1495     1274 
    1043      807      612      473      352      234      140       62 
       4       13      105      236      379      530      695      865 
    1017     1135     1231     1310     1385     1476     1606     1757 
    1894     1985     2025     2000     1900     1760     1636     1533 
    1444     1385     1351     1324     1290     1227     1113      981 
     881      831      814      799      773      731      693      683 
     692      707      746      835      961     1093     1202     1269 
    1293     1289     1250     1190     1148     1162     1235     1344 
    1467     1598     1734     1850     1919     1929     1894     1817 
    1690     1510     1293     1074      891      747      648      591 
     575      591      623      662      699      706      672      626 
     614      645      688      722      768      849      950     1057 
    1163     1263     1368     1491     1606     1686     1732     1757 
    1761     1741     1707     1660     1610     1574     1520     1402 
    1232     1053      904      808      734      662      621      610 
     591      538      468      411      367      322      265      197 
     137      108      121      191      291      388      490      581 
     630      645      672      719      760      774      792      842 
     908      963      989      970      923      881      865      880 
     903      901      885      864      822      760      672      571 
     504      496      521      565      611      646      675      692 
     691      681      679      685      712      768      835      891 
     927      946      930      886      861      851      820      753 
     654      542      444      363      274      166       44      -78 
    -172     -228     -287     -360     -394     -375     -342     -321 
    -287     -214     -106       25      184      341      473      596 
     718      820      899      958     1008     1082     1183     1255 
    1270     1266     1278     1289     1285     1281     1278     1285 
    1314     1329     1285     1188     1051      882      707      531 
     360      218      122       78       98      180      287      386 
     479      577      679      765      831      881      909      927 
     955      981      984      977      980      977      965      949 
     932      913      905      907      895      842      747      638 
     541      461      391      337      322      342      378      440 
     526      619      711      785      846      904      936      919 
     876      832      792      766      777      830      932     1070 
    1209     1314     1367     1366     1335     1281     1205     1129 
    1080     1063     1084     1134     1183     1231     1277     1314 
    1350     1386     1426     1476     1543     1626     1713     1790 
    1854     1921     2020     2158     2276     2350     2416     2500 
    2570     2585     2555     2529     2515     2477     2381     2219 
    2025     1834     1663     1525     1436     1390     1360     1339 
    1321     1297     1279     1318     1439     1615     1815     2026 
    2224     2374     2428     2350     2157     1922     1659     1344 
    1024      777      627      558      545      544      533      523 
     544      612      710      804      895      988     1080     1154 
    1190     1179     1129     1069     1032     1034     1054     1047 
     986      903      855      850      854      861      876      880 
     851      795      724      645      554      461      379      326 
     325      390      500      618      718      811      911     1004 
    1051     1042     1026     1050     1105     1162     1202     1208 
    1175     1147     1171     1251     1336     1389     1414     1422 
    1378     1282     1189     1124     1082     1057     1036     1015 
     999     1000     1039     1107     1159     1143     1043      893 
     751      652      612      633      700      792      876      931 
     974     1008     1001      939      869      858      932     1057 
    1170     1232     1247     1244     1248     1263     1260     1235 
    1221     1232     1258     1285     1300     1289     1258     1204 
