Origin Time       2024/04/02 04:24:00
Lat.              40.133
Long.             141.712
Depth. (km)       71
Mag.              6.0
Station Code      AKT017
Station Lat.      39.2978
Station Long.     140.5621
Station Height(m) 81
Record Time       2024/04/02 04:25:01
Sampling Freq(Hz) 100Hz
Duration Time(s)  97
Dir.              N-S
Scale Factor      7845(gal)/8223790
Max. Acc. (gal)   7.068
Last Correction   2024/04/02 04:25:01
Memo.             
[...]
  -14569   -14889   -14962   -14844   -14725   -14677   -14731   -14893 
  -15094   -15260   -15261   -14989   -14570   -14280   -14256   -14392 
  -14476   -14409   -14253   -14130   -14156   -14341   -14586   -14897 
  -15271   -15448   -15196   -14694   -14481   -14971   -15847   -16278 
  -15857   -14962   -14226   -14004   -14296   -14829   -15198   -15132 
  -14690   -14157   -13799   -13767   -14015   -14343   -14608   -14783 
  -14790   -14612   -14454   -14500   -14678   -14878   -15114   -15311 
  -15264   -14968   -14706   -14721   -14895   -14943   -14887   -14987 
  -15190   -15271   -15255   -15172   -14924   -14573   -14319   -14316 
  -14532   -14705   -14706   -14690   -14705   -14692   -14747   -14906 
  -14962   -14723   -14234   -13884   -14161   -14886   -15280   -15026 
  -14575   -14411   -14613   -15040   -15408   -15327   -14763   -14278 
  -14350   -14769   -15017   -14902   -14612   -14423   -14509   -14879 
  -15330   -15531   -15368   -15064   -14850   -14715   -14597   -14574 
  -14656   -14675   -14570   -14428   -14308   -14312   -14508   -14818 
  -15161   -15399   -15267   -14746   -14207   -14026   -14269   -14679 
  -14889   -14789   -14665   -14806   -15168   -15411   -15241   -14789 
  -14478   -14508   -14725   -14835   -14628   -14233   -14065   -14385 
  -14995   -15319   -14886   -13977   -13471   -13840   -14747   -15558 
  -15782   -15279   -14481   -14084   -14327   -14844   -15187   -15264 
  -15252   -15300   -15398   -15375   -15080   -14594   -14222   -14230 
  -14546   -14808   -14805   -14747   -14837   -14845   -14554   -14219 
  -14216   -14656   -15238   -15368   -14829   -14111   -13851   -14195 
  -14793   -15217   -15245   -14928   -14517   -14274   -14354   -14764 
  -15322   -15727   -15751   -15429   -15001   -14728   -14754   -14939 
  -14956   -14758   -14600   -14562   -14505   -14365   -14227   -14192 
  -14319   -14670   -15128   -15295   -15014   -14635   -14497   -14624 
  -14889   -15128   -15214   -15124   -14951   -14814   -14797   -14913 
  -15020   -14960   -14760   -14447   -14038   -13797   -14021   -14605 
  -15113   -15241   -15083   -14898   -14835   -14920   -15110   -15264 
  -15228   -15018   -14836   -14864   -15047   -15144   -15056   -14931 
  -14868   -14785   -14656   -14593   -14580   -14473   -14246   -14053 
  -14088   -14380   -14720   -14839   -14661   -14351   -14067   -13879 
  -13981   -14462   -15028   -15265   -15002   -14521   -14347   -14631 
  -15024   -15149   -14987   -14839   -14887   -14994   -15005   -14945 
  -14859   -14728   -14588   -14636   -14904   -14966   -14551   -14075 
  -14054   -14435   -14835   -14970   -14735   -14254   -13884   -13915 
  -14215   -14409   -14326   -14098   -13950   -14054   -14451   -14952 
  -15184   -15063   -14970   -15097   -15138   -14959   -14868   -15049 
  -15230   -15174   -15107   -15287   -15487   -15284   -14656   -14103 
  -14084   -14490   -14933   -15125   -14908   -14453   -14206   -14393 
  -14855   -15164   -14995   -14615   -14509   -14750   -15171   -15546 
  -15572   -15147   -14581   -14334   -14546   -14955   -15203   -15129 
  -14841   -14593   -14561   -14744   -14993   -15179   -15257   -15203 
  -15145   -15156   -15005   -14681   -14694   -15290   -15921   -15973 
  -15531   -15021   -14620   -14351   -14220   -14216   -14358   -14652 
  -15001   -15155   -14904   -14434   -14253   -14570   -15025   -15228 
  -15121   -14759   -14268   -13884   -13760   -13900   -14195   -14507 
  -14823   -15072   -15093   -14994   -15039   -15164   -15137   -14998 
  -14940   -14982   -15003   -15007   -15033   -14882   -14449   -14112 
  -14300   -14856   -15194   -15044   -14611   -14133   -13792   -13805 
  -14138   -14457   -14558   -14627   -14866   -15168   -15236   -14944 
  -14580   -14551   -14852   -15164   -15317   -15299   -15097   -14800 
  -14519   -14281   -14251   -14557   -14831   -14648   -14184   -13814 
  -13622   -13711   -14145   -14527   -14449   -14079   -13828   -13788 
  -13829   -13961   -14265   -14636   -14894   -14933   -14774   -14638 
  -14735   -14968   -15144   -15277   -15452   -15584   -15573   -15465 
  -15276   -14953   -14679   -14748   -15043   -15134   -14912   -14554 
  -14129   -13841   -14073   -14731   -15201   -15053   -14459   -14018 
  -14126   -14577   -14932   -14980   -14766   -14558   -14697   -15155 
  -15508   -15464   -15214   -15105   -15151   -15111   -14871   -14542 
  -14273   -14116   -14129   -14369   -14700   -14886   -14926   -14936 
  -14851   -14608   -14416   -14501   -14775   -14941   -14833   -14601 
  -14550   -14762   -15005   -15160   -15331   -15460   -15435   -15356 
  -15292   -15196   -15066   -15040   -15164   -15186   -14918   -14530 
  -14235   -14184   -14432   -14746   -14756   -14459   -14272   -14535 
  -15086   -15485   -15492   -15141   -14594   -14134   -14087   -14492 
  -15005   -15267   -15176   -14844   -14458   -14211   -14260   -14481 
  -14553   -14459   -14447   -14588   -14843   -15199   -15427   -15160 
  -14458   -13905   -13946   -14438   -14894   -15005   -14929   -14975 
  -15156   -15273   -15179   -14871   -14521   -14386   -14540   -14739 
  -14705   -14467   -14300   -14482   -15020   -15452   -15232   -14467 
  -13903   -14085   -14855   -15610   -15859   -15569   -15036   -14627 
  -14486   -14443   -14399   -14492   -14638   -14581   -14439   -14490 
  -14750   -15033   -15099   -14926   -14708   -14488   -14354   -14505 
  -14816   -14895   -14615   -14280   -14297   -14710   -15149   -15303 
  -15175   -14875   -14507   -14260   -14323   -14635   -14922   -15052 
  -15103   -15052   -14715   -14142   -13825   -14193   -15014   -15570 
  -15430   -14844   -14365   -14295   -14625   -15176   -15626   -15724 
  -15523   -15219   -14926   -14820   -15026   -15242   -15045   -14513 
  -14141   -14222   -14639   -14979   -14769   -13979   -13154   -12814 
  -12974   -13255   -13342   -13208   -12969   -12802   -12834   -12957 
  -12915   -12610   -12272   -12202   -12380   -12664   -13050   -13447 
  -13694   -13805   -13826   -13787   -13775   -13763   -13699   -13676 
  -13779   -14023   -14265   -14220   -13926   -13815   -14133   -14636 
  -14953   -15001   -14972   -15053   -15253   -15437   -15475   -15360 
  -15260   -15411   -15800   -16143   -16224   -16012   -15628   -15322 
  -15394   -15948   -16605   -16868   -16776   -16691   -16654   -16471 
  -16266   -16348   -16598   -16623   -16476   -16468   -16518   -16387 
  -16195   -16182   -16276   -16258   -16089   -15934   -15944   -16152 
  -16465   -16757   -16900   -16775   -16511   -16456   -16610   -16514 
  -15942   -15271   -14963   -15079   -15368   -15485   -15249   -14742 
  -14143   -13659   -13420   -13443   -13641   -13725   -13412   -12850 
  -12414   -12259   -12340   -12522   -12587   -12424   -12285   -12565 
  -13143   -13410   -13236   -13161   -13432   -13705   -13729   -13663 
  -13651   -13655   -13815   -14292   -14744   -14773   -14631   -14755 
  -15057   -15260   -15466   -15943   -16509   -16657   -16341   -16050 
  -16074   -16237   -16318   -16333   -16460   -16833   -17400   -17871 
  -17886   -17509   -17266   -17505   -18100   -18813   -19488   -19904 
  -19965   -19953   -20069   -20123   -20035   -20044   -20286   -20622 
  -20794   -20698   -20482   -20183   -19641   -18975   -18496   -18253 
  -18131   -17923   -17265   -16147   -15074   -14388   -14085   -14033 
  -13868   -13366   -12777   -12295   -11894   -11624   -11358   -10886 
  -10416   -10224   -10238   -10315   -10276    -9976    -9593    -9416 
   -9547    -9761    -9745    -9563    -9410    -9266    -9180    -9254 
   -9427    -9555    -9493    -9225    -8923    -8692    -8527    -8509 
   -8758    -9220    -9663    -9983   -10304   -10651   -10840   -10868 
  -10982   -11264   -11504   -11538   -11507   -11643   -11971   -12398 
  -12899   -13481   -14134   -14816   -15441   -15963   -16495   -17147 
  -17755   -18029   -17946   -17721   -17512   -17460   -17732   -18173 
  -18468   -18654   -18914   -19132   -19167   -19062   -18762   -18206 
  -17613   -17208   -16873   -16428   -15952   -15650   -15588   -15627 
  -15585   -15564   -15890   -16621   -17331   -17509   -17039   -16251 
  -15612   -15379   -15485   -15637   -15503   -15055   -14615   -14486 
  -14747   -15214   -15427   -15025   -14241   -13644   -13483   -13637 
  -13903   -13949   -13432   -12480   -11807   -11998   -12820   -13543 
  -13684   -13263   -12737   -12738   -13463   -14426   -15079   -15319 
  -15321   -15295   -15264   -15079   -14867   -14863   -14964   -15033 
  -15152   -15310   -15315   -15174   -15213   -15566   -15915   -15965 
  -15801   -15674   -15684   -15697   -15515   -15090   -14655   -14611 
  -15206   -16295   -17305   -17494   -16565   -14916   -13223   -12141 
  -12152   -13108   -14183   -14589   -14220   -13632   -13552   -14369 
  -15897   -17436   -18245   -18075   -17219   -16201   -15518   -15408 
  -15630   -15583   -15006   -14364   -14172   -14451   -14986   -15488 
  -15677   -15626   -15753   -16336   -17157   -17550   -16916   -15495 
  -14299   -13960   -14134   -14185   -13786   -12980   -12132   -11607 
  -11350   -11070   -10719   -10454   -10413   -10717   -11411   -12406 
  -13468   -14288   -14693   -14735   -14465   -13890   -13186   -12661 
  -12509   -12749   -13282   -13802   -13965   -13775   -13483   -13127 
  -12564   -11861   -11310   -11117   -11313   -11985   -13288   -15060 
  -16707   -17730   -18149   -18157   -17748   -16993   -16214   -15631 
  -15178   -14760   -14389   -14062   -13840   -13876   -14289   -15018 
  -15838   -16438   -16568   -16295   -16085   -16463   -17575   -18914 
  -19535   -18821   -17004   -14983   -13814   -14139   -15661   -17211 
  -17636   -16657   -14944   -13684   -13744   -15009   -16679   -17847 
  -17944   -17089   -16035   -15538   -15769   -16480   -17307   -17803 
  -17779   -17479   -17294   -17423   -17612   -17347   -16428   -15169 
  -14076   -13421   -13333   -13913   -14890   -15685   -15944   -15734 
  -15336   -14976   -14743   -14667   -14679   -14647   -14651   -14918 
  -15446   -16008   -16279   -15903   -14966   -14268   -14436   -15099 
  -15476   -15263   -14519   -13481   -12687   -12657   -13296   -13809 
  -13647   -13275   -13400   -13967   -14418   -14465   -14254   -13976 
  -13624   -13096   -12433   -11973   -12156   -13105   -14396   -15337 
  -15475   -14829   -13950   -13676   -14328   -15349   -15944   -15754 
  -15103   -14744   -14990   -15352   -15179   -14330   -13292   -12772 
  -13039   -13722   -14229   -14331   -14247   -14179   -14112   -14054 
  -13991   -13799   -13617   -13919   -14744   -15299   -14931   -14083 
  -13851   -14845   -16548   -17703   -17463   -16127   -14767   -14212 
  -14346   -14453   -14083   -13336   -12573   -12083   -11858   -11669 
  -11454   -11369   -11612   -12382   -13574   -14557   -14697   -14010 
  -13026   -12216   -11886   -12263   -13273   -14481   -15399   -15685 
  -15317   -14725   -14405   -14328   -14058   -13510   -13231   -13683 
  -14609   -15399   -15745   -15817   -16110   -16961   -18072   -18883 
  -19384   -19858   -20202   -20191   -19863   -19356   -18736   -18058 
  -17517   -17366   -17444   -17178   -16371   -15489   -15024   -15010 
  -15248   -15601   -15955   -15973   -15392   -14530   -13973   -13940 
  -14057   -13801   -13117   -12388   -12120   -12603   -13464   -13925 
  -13601   -12758   -12056   -12086   -12885   -13887   -14369   -14006 
  -13049   -12104   -11851   -12726   -14445   -15967   -16371   -15728 
  -14812   -14183   -14014   -14335   -14970   -15461   -15314   -14364 
  -12999   -11928   -11696   -12422   -13684   -14534   -14118   -12526 
  -10804   -10114   -10964   -12938   -14935   -15923   -15628   -14629 
  -13802   -13695   -14346   -15327   -15970   -15858   -15169   -14470 
  -14207   -14418   -14777   -14914   -14866   -14926   -15103   -15167 
  -15126   -15232   -15543   -15835   -15884   -15569   -14804   -13705 
  -12712   -12236   -12208   -12174   -11979   -12027   -12550   -13176 
  -13452   -13437   -13647   -14476   -15738   -16864   -17379   -17170 
  -16579   -16190   -16282   -16584   -16629   -16210   -15597   -15203 
  -15102   -15097   -15174   -15618   -16621   -17790   -18350   -17875 
  -16681   -15622   -15337   -15639   -15913   -15805   -15377   -14971 
  -14931   -15418   -16367   -17319   -17604   -17001   -15997   -15356 
  -15516   -16243   -16772   -16468   -15452   -14472   -14215   -14809 
  -15849   -16789   -17207   -17043   -16807   -17066   -17741   -18311 
  -18493   -18366   -18014   -17406   -16667   -16160   -16066   -16089 
  -15861   -15309   -14600   -13949   -13428   -12960   -12529   -12228 
  -12186   -12537   -13204   -13788   -13830   -13161   -12116   -11408 
  -11512   -12224   -12891   -12978   -12424   -11649   -11264   -11593 
  -12339   -12849   -12843   -12661   -12707   -13027   -13390   -13567 
  -13444   -12951   -12121   -11219   -10540   -10238   -10330   -10660 
  -10995   -11221   -11403   -11673   -11994   -12077   -11730   -11198 
  -10933   -11155   -11696   -12152   -12239   -11969   -11588   -11419 
  -11526   -11724   -11989   -12475   -13165   -13653   -13497   -12955 
  -12839   -13450   -14308   -14889   -15001   -14608   -13826   -13167 
  -13261   -14106   -15049   -15512   -15450   -15300   -15539   -16248 
  -17169   -17938   -18247   -18094   -17712   -17393   -17535   -18343 
  -19419   -20113   -20146   -19782   -19539   -19726   -20329   -21119 
  -21749   -22038   -22113   -22156   -22157   -21915   -21304   -20479 
  -19770   -19539   -19924   -20538   -20903   -20888   -20461   -19692 
  -18898   -18426   -18503   -18986   -19244   -18765   -17752   -16906 
  -16737   -17088   -17397   -17227   -16490   -15538   -14841   -14496 
  -14382   -14374   -14226   -13711   -12912   -12364   -12594   -13342 
  -13791   -13473   -12544   -11524   -10968   -11199   -12139   -13225 
  -13771   -13609   -13177   -12993   -13263   -13743   -13949   -13652 
  -13099   -12711   -12576   -12406   -12006   -11512   -11157   -11017 
  -11034   -11156   -11288   -11218   -10840   -10401   -10230   -10309 
  -10463   -10671   -10920   -11055   -10964   -10797   -10878   -11318 
  -11889   -12375   -12746   -12969   -13004   -12964   -13070   -13389 
  -13716   -13875   -14019   -14488   -15368   -16252   -16583   -16237 
  -15620   -15242   -15372   -15948   -16561   -16725   -16368   -15861 
  -15522   -15368   -15429   -15809   -16305   -16514   -16197   -15404 
  -14615   -14420   -14918   -15639   -15920   -15449   -14688   -14408 
  -14771   -15282   -15519   -15456   -15263   -15169   -15364   -15820 
  -16209   -16148   -15651   -15114   -14871   -15053   -15566   -16005 
  -15967   -15510   -15022   -14813   -14991   -15542   -16181   -16366 
  -15851   -15025   -14438   -14332   -14601   -14983   -15290   -15419 
  -15292   -14949   -14573   -14369   -14435   -14654   -14767   -14647 
  -14408   -14179   -14010   -14000   -14166   -14273   -14149   -13936 
  -13942   -14432   -15222   -15616   -15157   -14185   -13500   -13639 
  -14461   -15288   -15453   -14856   -14071   -13751   -14112   -14897 
  -15529   -15577   -15164   -14697   -14470   -14542   -14674   -14516 
  -14010   -13383   -12928   -12916   -13377   -13973   -14280   -14172 
  -13946   -13938   -14098   -14212   -14241   -14243   -14176   -13917 
  -13636   -13716   -14071   -14216   -14022   -13717   -13429   -13120 
  -12792   -12626   -12860   -13520   -14304   -14692   -14319   -13370 
  -12347   -11665   -11665   -12402   -13365   -13884   -13782   -13440 
  -13366   -13725   -14234   -14594   -14774   -14705   -14422   -14376 
  -14779   -15169   -15222   -15292   -15840   -16740   -17462   -17726 
  -17582   -17078   -16313   -15647   -15487   -15888   -16553   -17096 
  -17166   -16622   -15850   -15565   -16067   -16947   -17520   -17496 
  -17174   -17000   -17142   -17410   -17544   -17505   -17346   -17032 
  -16575   -16083   -15647   -15331   -15221   -15306   -15398   -15322 
  -15192   -15242   -15449   -15603   -15604   -15446   -15240   -15207 
  -15391   -15527   -15349   -14844   -14257   -13896   -13927   -14324 
  -14935   -15472   -15553   -15044   -14312   -13832   -13686   -13689 
  -13593   -13165   -12503   -12102   -12297   -12877   -13281   -13126 
  -12559   -12042   -11804   -11753   -11908   -12469   -13313   -13895 
  -13899   -13610   -13524   -13898   -14669   -15493   -15948   -15862 
  -15392   -14917   -14806   -15029   -15168   -14895   -14206   -13420 
  -13065   -13343   -13941   -14524   -14925   -14990   -14702   -14270 
  -13992   -14038   -14314   -14616   -14810   -14843   -14725   -14538 
  -14461   -14636   -14956   -15205   -15284   -15171   -14850   -14365 
  -13926   -13824   -14137   -14625   -14808   -14381   -13695   -13355 
  -13554   -14037   -14319   -14092   -13675   -13589   -13905   -14404 
  -14821   -14847   -14455   -14061   -14148   -14729   -15299   -15431 
  -15261   -15228   -15508   -15913   -16166   -16127   -15916   -15778 
  -15801   -15884   -15962   -16054   -16120   -16079   -15934   -15770 
  -15714   -15859   -16182   -16453   -16403   -16082   -15846   -15923 
  -16231   -16548   -16659   -16479   -16182   -16077   -16236   -16328 
  -16021   -15435   -14986   -14847   -14847   -14859   -14931   -15025 
  -14966   -14769   -14744   -15145   -15854   -16409   -16355   -15712 
  -15003   -14721   -14878   -15142   -15261   -15214   -15113   -15045 
  -15052   -15184   -15473   -15854   -16194   -16340   -16140   -15539 
  -14740   -14150   -14053   -14389   -14858   -15149   -15051   -14624 
  -14247   -14237   -14628   -15295   -15952   -16308   -16235   -15780 
  -15237   -15095   -15531   -16070   -16093   -15572   -14974   -14689 
  -14744   -14837   -14671   -14311   -14137   -14418   -15003   -15479 
  -15584   -15442   -15376   -15525   -15757   -15889   -15766   -15309 
  -14651   -14146   -14044   -14277   -14582   -14621   -14206   -13555 
  -13057   -12852   -12924   -13182   -13374   -13238   -12799   -12475 
  -12671   -13240   -13676   -13778   -13753   -13806   -13963   -14169 
  -14409   -14721   -14990   -14926   -14462   -13942   -13761   -13963 
  -14257   -14303   -13968   -13414   -12943   -12802   -13078   -13644 
  -14204   -14485   -14428   -14219   -14142   -14416   -14985   -15480 
  -15624   -15450   -15122   -14806   -14604   -14534   -14562   -14628 
  -14662   -14621   -14555   -14573   -14665   -14640   -14308   -13694 
  -13080   -12795   -13038   -13734   -14478   -14759   -14358   -13545 
  -12896   -12862   -13439   -14212   -14678   -14567   -14049   -13617 
  -13582   -13779   -13917   -14011   -14175   -14312   -14304   -14183 
  -13971   -13583   -13092   -12854   -13073   -13512   -13917   -14335 
  -14823   -15178   -15149   -14754   -14261   -13957   -13996   -14307 
  -14477   -14072   -13315   -12968   -13419   -14245   -14770   -14805 
  -14592   -14297   -13975   -13745   -13676   -13774   -14069   -14497 
  -14809   -14783   -14439   -13986   -13652   -13578   -13682   -13659 
  -13343   -12927   -12677   -12680   -12904   -13238   -13520   -13753 
  -14025   -14200   -14118   -13871   -13680   -13772   -14192   -14634 
  -14804   -14727   -14605   -14697   -15134   -15722   -16109   -16124 
  -15839   -15454   -15153   -15047   -15213   -15627   -16164   -16665 
