Origin Time       2024/04/02 04:24:00
Lat.              40.133
Long.             141.712
Depth. (km)       71
Mag.              6.0
Station Code      AKT020
Station Lat.      39.2027
Station Long.     139.9088
Station Height(m) 7
Record Time       2024/04/02 04:25:06
Sampling Freq(Hz) 100Hz
Duration Time(s)  114
Dir.              E-W
Scale Factor      7845(gal)/8223790
Max. Acc. (gal)   2.949
Last Correction   2024/04/02 04:25:06
Memo.             
[...]
    5755     5815     5856     5902     5957     6003     6033     6050 
    6050     6039     6025     6000     5958     5890     5788     5665 
    5551     5458     5385     5331     5302     5301     5313     5323 
    5313     5306     5332     5401     5516     5664     5813     5948 
    6066     6170     6259     6323     6335     6299     6232     6149 
    6050     5946     5834     5714     5602     5502     5404     5310 
    5244     5205     5174     5140     5111     5107     5132     5184 
    5242     5285     5312     5347     5409     5505     5620     5717 
    5767     5745     5652     5516     5374     5266     5215     5198 
    5198     5216     5248     5278     5312     5374     5468     5593 
    5740     5884     5994     6045     6041     6002     5944     5869 
    5780     5679     5570     5441     5309     5211     5159     5150 
    5177     5231     5298     5383     5486     5580     5656     5733 
    5817     5895     5960     6010     6054     6107     6160     6193 
    6170     6088     5994     5919     5871     5840     5815     5802 
    5806     5834     5888     5965     6045     6100     6119     6093 
    6008     5876     5736     5621     5547     5501     5466     5447 
    5445     5463     5489     5487     5435     5351     5285     5278 
    5335     5425     5525     5644     5779     5922     6061     6172 
    6226     6216     6146     6012     5838     5656     5491     5347 
    5232     5165     5163     5238     5358     5481     5601     5702 
    5767     5807     5848     5892     5915     5891     5826     5742 
    5655     5570     5501     5447     5413     5412     5451     5512 
    5579     5663     5773     5899     6033     6174     6304     6392 
    6427     6413     6362     6273     6168     6093     6069     6083 
    6116     6153     6173     6172     6151     6111     6043     5930 
    5768     5575     5373     5175     5004     4877     4803     4772 
    4772     4800     4845     4899     4961     5017     5065     5090 
    5100     5115     5159     5250     5400     5593     5803     5992 
    6131     6205     6227     6218     6185     6135     6068     5972 
    5834     5663     5487     5333     5236     5193     5152     5088 
    5030     5022     5082     5200     5341     5472     5582     5683 
    5782     5873     5968     6097     6292     6544     6832     7128 
    7410     7673     7898     8056     8136     8152     8108     8009 
    7874     7705     7485     7206     6885     6555     6262     6046 
    5926     5879     5865     5865     5876     5886     5876     5845 
    5809     5803     5853     5954     6060     6126     6158     6176 
    6196     6239     6299     6338     6322     6228     6057     5813 
    5520     5208     4905     4634     4406     4214     4047     3906 
    3805     3755     3773     3869     4028     4230     4456     4702 
    4957     5185     5364     5503     5606     5665     5676     5647 
    5584     5490     5371     5236     5074     4880     4662     4414 
    4132     3852     3636     3512     3458     3460     3512     3608 
    3763     3991     4271     4568     4850     5089     5283     5449 
    5609     5773     5950     6122     6266     6361     6409     6434 
    6454     6475     6496     6493     6444     6342     6189     5991 
    5772     5560     5373     5201     5053     4927     4804     4676 
    4554     4477     4479     4558     4693     4885     5124     5382 
    5640     5887     6097     6254     6345     6361     6322     6266 
    6235     6242     6281     6323     6345     6363     6392     6416 
    6436     6444     6411     6311     6127     5875     5595     5331 
    5094     4880     4677     4492     4351     4283     4305     4401 
    4540     4704     4888     5085     5292     5494     5682     5846 
    5973     6057     6108     6139     6150     6151     6168     6210 
    6266     6307     6301     6243     6157     6076     5998     5906 
    5783     5626     5467     5359     5324     5351     5420     5501 
    5571     5616     5634     5633     5624     5634     5671     5709 
    5736     5749     5742     5732     5732     5736     5742     5757 
    5788     5840     5900     5957     5999     6046     6116     6181 
    6214     6214     6178     6107     6011     5899     5772     5643 
    5529     5454     5424     5441     5495     5568     5653     5733 
    5795     5854     5915     5977     6048     6124     6191     6245 
    6292     6324     6330     6291     6200     6066     5903     5725 
    5547     5378     5229     5113     5022     4924     4826     4760 
    4757     4816     4908     5004     5094     5171     5239     5328 
    5458     5628     5813     5995     6161     6295     6389     6443 
    6461     6432     6350     6231     6104     5980     5879     5830 
    5829     5845     5859     5859     5844     5819     5788     5749 
    5707     5645     5547     5404     5225     5036     4858     4731 
    4704     4791     4988     5263     5578     5892     6174     6401 
    6574     6698     6787     6863     6920     6937     6903     6837 
    6762     6669     6552     6424     6295     6158     5994     5790 
    5564     5344     5152     5004     4914     4884     4920     5036 
    5231     5475     5737     5985     6196     6358     6462     6511 
    6498     6409     6242     6029     5809     5607     5437     5294 
    5166     5067     5012     4995     5019     5078     5165     5275 
    5390     5497     5584     5638     5647     5617     5560     5494 
    5441     5420     5425     5441     5470     5508     5548     5597 
    5659     5719     5759     5765     5737     5668     5556     5425 
    5313     5240     5209     5200     5193     5189     5194     5221 
    5260     5274     5232     5142     5011     4858     4719     4619 
    4571     4591     4679     4810     4958     5119     5293     5475 
    5647     5788     5888     5934     5915     5815     5640     5417 
    5175     4930     4703     4518     4386     4309     4287     4320 
    4411     4576     4819     5127     5471     5814     6131     6413 
    6658     6833     6913     6906     6835     6717     6575     6423 
    6269     6133     6038     5998     5991     5981     5950     5902 
    5856     5845     5875     5941     6039     6156     6272     6370 
    6431     6461     6471     6461     6430     6390     6340     6273 
    6191     6095     6000     5927     5899     5918     5975     6072 
    6205     6359     6507     6629     6735     6809     6844     6836 
    6758     6601     6403     6196     6002     5829     5676     5549 
    5463     5435     5481     5594     5751     5934     6123     6297 
    6451     6570     6640     6667     6650     6586     6486     6361 
    6223     6084     5968     5892     5846     5802     5734     5632 
    5486     5308     5108     4889     4662     4467     4342     4307 
    4355     4461     4600     4758     4946     5166     5397     5621 
    5830     6015     6173     6297     6373     6390     6347     6254 
    6115     5925     5687     5433     5198     5013     4891     4819 
    4801     4843     4959     5147     5367     5574     5756     5923 
    6066     6187     6285     6359     6417     6465     6493     6505 
    6515     6542     6596     6663     6712     6724     6713     6720 
    6770     6860     6986     7125     7246     7344     7411     7426 
    7407     7388     7377     7353     7299     7190     6993     6710 
    6354     5934     5483     5035     4610     4229     3928     3738 
    3661     3680     3790     3978     4213     4480     4750     4978 
    5139     5232     5259     5233     5167     5071     4963     4873 
    4815     4777     4739     4703     4681     4683     4704     4731 
    4758     4801     4874     4984     5134     5306     5478     5624 
    5714     5744     5717     5634     5505     5328     5119     4907 
    4711     4541     4402     4286     4198     4153     4158     4205 
    4290     4396     4518     4658     4812     4976     5140     5294 
    5437     5576     5690     5755     5763     5710     5609     5493 
    5397     5347     5344     5375     5429     5494     5562     5634 
    5702     5755     5796     5829     5854     5865     5834     5756 
    5641     5493     5327     5170     5042     4969     4962     5011 
    5097     5209     5344     5495     5645     5778     5898     6018 
    6153     6300     6436     6546     6627     6678     6687     6655 
    6593     6516     6439     6367     6289     6200     6092     5949 
    5769     5567     5355     5158     5005     4919     4903     4939 
    5007     5085     5157     5219     5279     5346     5414     5490 
    5575     5656     5728     5798     5875     5960     6056     6168 
    6285     6386     6463     6501     6484     6409     6296     6173 
    6064     5973     5896     5834     5794     5778     5792     5836 
    5903     5976     6025     6023     5960     5834     5671     5499 
    5356     5286     5316     5440     5644     5911     6230     6571 
    6874     7076     7157     7123     6999     6809     6546     6207 
    5825     5443     5108     4858     4707     4637     4623     4648 
    4683     4703     4693     4675     4679     4727     4842     5026 
    5232     5420     5571     5687     5782     5861     5913     5913 
    5850     5717     5497     5188     4818     4434     4087     3825 
    3661     3577     3577     3669     3842     4077     4347     4630 
    4905     5177     5460     5755     6039     6305     6532     6690 
    6770     6772     6702     6569     6374     6130     5844     5525 
    5193     4878     4611     4423     4330     4329     4407     4545 
    4726     4942     5171     5401     5632     5856     6058     6220 
    6319     6355     6369     6393     6435     6485     6531     6555 
    6565     6581     6616     6671     6764     6895     7045     7195 
    7315     7377     7376     7300     7156     6957     6724     6482 
    6253     6057     5914     5822     5765     5748     5772     5829 
    5925     6061     6207     6332     6434     6525     6636     6786 
    6959     7118     7234     7287     7264     7176     7045     6880 
    6694     6498     6282     6027     5748     5464     5192     4958 
    4773     4653     4606     4618     4672     4750     4822     4877 
    4919     4947     4982     5049     5148     5273     5421     5584 
    5742     5871     5962     6037     6095     6106     6045     5904 
    5694     5449     5194     4947     4719     4517     4348     4224 
    4152     4145     4206     4307     4414     4496     4536     4529 
    4509     4506     4542     4617     4712     4816     4930     5062 
    5219     5404     5618     5846     6058     6243     6393     6505 
    6574     6594     6551     6412     6177     5880     5566     5271 
    5032     4864     4772     4765     4855     5059     5360     5714 
    6064     6353     6563     6705     6783     6802     6767     6677 
    6542     6403     6284     6199     6158     6173     6258     6399 
    6567     6750     6905     6987     6984     6902     6743     6527 
    6292     6077     5915     5809     5738     5691     5659     5634 
    5625     5636     5652     5644     5599     5517     5435     5409 
    5464     5605     5817     6058     6269     6412     6485     6485 
    6412     6285     6115     5918     5710     5508     5312     5125 
    4942     4752     4565     4417     4334     4344     4455     4649 
    4897     5162     5406     5605     5753     5853     5902     5883 
    5764     5536     5221     4873     4552     4294     4114     4028 
    4041     4137     4295     4495     4714     4934     5146     5336 
    5485     5580     5620     5602     5545     5454     5320     5163 
    5017     4914     4877     4924     5065     5281     5532     5775 
    5985     6142     6231     6247     6205     6114     5985     5825 
    5626     5397     5148     4895     4654     4430     4214     4029 
    3916     3908     4009     4202     4471     4800     5185     5611 
    6049     6480     6894     7261     7555     7774     7913     7950 
    7871     7688     7425     7142     6897     6704     6556     6450 
    6376     6334     6326     6342     6374     6401     6396     6349 
    6262     6139     5987     5807     5602     5395     5213     5071 
    5000     5020     5131     5306     5491     5644     5751     5819 
    5881     5956     6041     6129     6223     6324     6409     6463 
    6486     6485     6480     6477     6458     6411     6336     6253 
    6189     6157     6156     6162     6158     6134     6073     5971 
    5830     5661     5494     5360     5267     5205     5159     5115 
    5081     5078     5116     5182     5263     5348     5424     5463 
    5483     5520     5580     5665     5767     5864     5967     6087 
    6212     6342     6459     6536     6581     6604     6602     6583 
    6548     6481     6377     6239     6057     5832     5583     5328 
    5096     4931     4845     4823     4841     4868     4880     4862 
    4820     4768     4706     4642     4588     4564     4583     4648 
    4770     4970     5242     5568     5931     6307     6664     6986 
    7249     7422     7474     7407     7240     6990     6660     6254 
    5775     5240     4681     4125     3599     3141     2801     2612 
    2574     2651     2805     3011     3265     3558     3904     4322 
    4807     5328     5841     6312     6717     7041     7277     7427 
    7489     7469     7361     7159     6864     6500     6102     5718 
    5386     5124     4927     4777     4658     4591     4602     4683 
    4800     4931     5039     5089     5077     5005     4882     4747 
    4654     4631     4695     4850     5069     5302     5494     5602 
    5620     5575     5503     5429     5382     5387     5447     5552 
    5682     5825     5975     6129     6282     6416     6494     6494 
    6415     6268     6088     5908     5757     5671     5672     5761 
    5915     6111     6323     6520     6679     6777     6804     6774 
    6713     6652     6601     6548     6488     6419     6350     6288 
    6232     6170     6111     6062     6022     5991     5958     5917 
    5845     5740     5618     5501     5409     5348     5305     5281 
    5294     5368     5516     5734     6004     6288     6551     6777 
    6959     7105     7223     7312     7358     7346     7271     7141 
    6968     6772     6586     6438     6338     6286     6276     6284 
    6297     6311     6324     6361     6431     6515     6588     6632 
    6639     6605     6548     6490     6444     6421     6408     6389 
    6361     6316     6255     6173     6058     5894     5664     5360 
    5011     4652     4314     4018     3767     3542     3325     3129 
    2971     2874     2847     2862     2889     2920     2948     2998 
    3109     3306     3582     3896     4206     4490     4734     4943 
    5125     5267     5354     5391     5391     5377     5355     5332 
    5314     5301     5283     5260     5231     5211     5219     5260 
    5329     5410     5486     5552     5613     5682     5751     5794 
    5790     5729     5598     5410     5217     5063     4973     4955 
    4999     5061     5124     5173     5182     5147     5077     4992 
    4916     4861     4833     4831     4846     4862     4876     4912 
    4999     5136     5313     5501     5668     5792     5880     5944 
    5998     6054     6115     6174     6216     6227     6211     6200 
    6214     6259     6320     6358     6343     6286     6219     6172 
    6170     6227     6361     6565     6791     6994     7136     7190 
    7148     7011     6787     6502     6196     5899     5636     5427 
    5292     5244     5274     5360     5490     5660     5846     6027 
    6203     6376     6542     6705     6848     6940     6955     6883 
    6727     6505     6243     5957     5670     5395     5151     4941 
    4777     4672     4644     4710     4870     5096     5328     5518 
    5649     5734     5802     5873     5968     6087     6220     6351 
    6475     6583     6663     6712     6735     6729     6694     6637 
    6562     6471     6385     6311     6246     6195     6157     6127 
    6119     6156     6238     6350     6473     6575     6631     6621 
    6542     6396     6205     6014     5865     5783     5765     5783 
    5814     5868     5958     6095     6293     6565     6893     7250 
    7603     7896     8073     8116     8046     7879     7630     7300 
    6891     6416     5898     5359     4828     4344     3942     3658 
    3510     3481     3547     3684     3892     4158     4436     4681 
    4860     4976     5065     5163     5285     5417     5528     5607 
    5680     5759     5844     5933     6004     6027     5988     5907 
    5810     5703     5597     5501     5418     5343     5265     5179 
    5093     5008     4924     4851     4787     4719     4642     4563 
    4469     4348     4193     4017     3859     3750     3693     3678 
    3692     3738     3819     3936     4110     4349     4626     4907 
    5165     5383     5568     5733     5869     5967     6003     5967 
    5872     5744     5606     5482     5383     5313     5279     5301 
    5393     5541     5717     5895     6049     6169     6254     6304 
    6332     6350     6361     6353     6297     6180     6007     5822 
    5675     5595     5595     5660     5756     5842     5906     5961 
    6030     6126     6245     6369     6475     6565     6639     6683 
    6698     6710     6745     6813     6894     6947     6934     6845 
    6701     6525     6340     6164     6002     5857     5740     5652 
    5598     5574     5568     5574     5586     5597     5607     5632 
    5683     5764     5867     5962     6023     6043     6029     5987 
    5927     5861     5783     5690     5580     5432     5233     4999 
    4754     4550     4453     4499     4680     4954     5263     5551 
    5780     5929     6002     6018     5992     5931     5833     5699 
    5557     5439     5364     5343     5377     5458     5574     5702 
    5805     5852     5841     5779     5679     5553     5418     5289 
    5178     5098     5063     5062     5085     5121     5162     5186 
    5198     5205     5208     5211     5205     5165     5092     4990 
    4865     4737     4623     4530     4455     4398     4356     4332 
    4330     4355     4410     4483     4553     4626     4707     4787 
    4866     4955     5058     5166     5275     5387     5503     5622 
    5744     5868     5995     6120     6231     6316     6376     6421 
    6457     6481     6498     6498     6466     6389     6259     6080 
    5868     5648     5440     5262     5108     4980     4878     4815 
    4810     4880     5036     5279     5595     5960     6338     6701 
    7021     7276     7441     7493     7430     7258     7003     6714 
    6438     6192     5981     5796     5629     5490     5408     5400 
    5474     5629     5822     6014     6195     6361     6512     6644 
    6732     6763     6745     6691     6610     6517     6436     6369 
    6301     6238     6181     6137     6118     6151     6245     6380 
