Origin Time       2024/04/02 04:24:00
Lat.              40.133
Long.             141.712
Depth. (km)       71
Mag.              6.0
Station Code      AKT017
Station Lat.      39.2978
Station Long.     140.5621
Station Height(m) 81
Record Time       2024/04/02 04:25:01
Sampling Freq(Hz) 100Hz
Duration Time(s)  97
Dir.              U-D
Scale Factor      7845(gal)/8223790
Max. Acc. (gal)   2.994
Last Correction   2024/04/02 04:25:01
Memo.             
[...]
  -30640   -30126   -29430   -29465   -30109   -30214   -29484   -29037 
  -29685   -30655   -30634   -29558   -28779   -29300   -30354   -30514 
  -29797   -29458   -29944   -30358   -30009   -29309   -29007   -29334 
  -29918   -30195   -30034   -29905   -30150   -30450   -30399   -30161 
  -30084   -30098   -29967   -29771   -29763   -29953   -30068   -29991 
  -29897   -29770   -29511   -29462   -29922   -30441   -30392   -29899 
  -29589   -29667   -29739   -29506   -29339   -29767   -30456   -30534 
  -30059   -29938   -30339   -30499   -30180   -30005   -30289   -30597 
  -30516   -30214   -30125   -30348   -30416   -30005   -29632   -29905 
  -30454   -30446   -29762   -29164   -29312   -29899   -30057   -29524 
  -29100   -29560   -30349   -30346   -29597   -29243   -29970   -31079 
  -31288   -30422   -29602   -29701   -30275   -30397   -30126   -30115 
  -30252   -30173   -30167   -30260   -30030   -29651   -29546   -29455 
  -29114   -29045   -29613   -30095   -29702   -28952   -28942   -29782 
  -30582   -30595   -29928   -29388   -29693   -30597   -30947   -30033 
  -28806   -28912   -30281   -30946   -29957   -28775   -28956   -30110 
  -30829   -30481   -29654   -29308   -29758   -30499   -30767   -30222 
  -29343   -28996   -29389   -29862   -29941   -29906   -30001   -29937 
  -29644   -29606   -30042   -30507   -30526   -30136   -29747   -29679 
  -29847   -29898   -29643   -29428   -29813   -30526   -30591   -29903 
  -29471   -29832   -30287   -30146   -29770   -29736   -29809   -29513 
  -29112   -29246   -29917   -30343   -30082   -29656   -29660   -30010 
  -30242   -30005   -29501   -29384   -29790   -30051   -29728   -29220 
  -29083   -29355   -29663   -29636   -29301   -29220   -29786   -30349 
  -30009   -29137   -28931   -29608   -30184   -30006   -29520   -29494 
  -30019   -30424   -30186   -29733   -29795   -30164   -30056   -29535 
  -29504   -30168   -30603   -30250   -29728   -29693   -29982   -30156 
  -30065   -29751   -29450   -29577   -30110   -30346   -29920   -29586 
  -30153   -31112   -31309   -30663   -30111   -30156   -30416   -30372 
  -30076   -30021   -30330   -30524   -30287   -30005   -30248   -30809 
  -30828   -30157   -29651   -29791   -30237   -30589   -30538   -29949 
  -29403   -29560   -30032   -29967   -29512   -29524   -29999   -30137 
  -29806   -29605   -29686   -29727   -29740   -29951   -30177   -30052 
  -29678   -29604   -30025   -30501   -30514   -29934   -29149   -28883 
  -29459   -30272   -30392   -29708   -29043   -29049   -29420   -29538 
  -29413   -29509   -29882   -30092   -29864   -29446   -29394   -29875 
  -30219   -29817   -29218   -29409   -30268   -30658   -30064   -29307 
  -29397   -30206   -30724   -30380   -29659   -29396   -29758   -30196 
  -30330   -30310   -30204   -29870   -29585   -29737   -29971   -29725 
  -29235   -29134   -29497   -29820   -29733   -29388   -29228   -29469 
  -29856   -29978   -29666   -29200   -29091   -29446   -29743   -29592 
  -29328   -29412   -29786   -30225   -30634   -30862   -30713   -30254 
  -29965   -30341   -31207   -31612   -30820   -29556   -29309   -30176 
  -30763   -30260   -29384   -29245   -29963   -30570   -30267   -29565 
  -29509   -30046   -30230   -29814   -29412   -29394   -29771   -30510 
  -31089   -30808   -30127   -30219   -30951   -31074   -30318   -29749 
  -30075   -30715   -30769   -30169   -29570   -29448   -29677   -29959 
  -30230   -30318   -30029   -29685   -29718   -29968   -30013   -29880 
  -29910   -30080   -30040   -29760   -29555   -29570   -29695   -29776 
  -29759   -29695   -29689   -29874   -30194   -30257   -29867   -29492 
  -29708   -30287   -30400   -29805   -29292   -29578   -30204   -30179 
  -29454   -29003   -29392   -30084   -30315   -30002   -29601   -29398 
  -29327   -29416   -29740   -29968   -29702   -29207   -29172   -29701 
  -30123   -30034   -29856   -30037   -30377   -30457   -30319   -30277 
  -30323   -30310   -30299   -30202   -29864   -29605   -29732   -29945 
  -29965   -29936   -29830   -29463   -29174   -29455   -29926   -29897 
  -29581   -29558   -29710   -29694   -29636   -29673   -29644   -29598 
  -29809   -30123   -30094   -29847   -29929   -30284   -30337   -30049 
  -29936   -30115   -30260   -30275   -30272   -30107   -29720   -29539 
  -29872   -30306   -30272   -29960   -30013   -30357   -30287   -29689 
  -29396   -29974   -30708   -30588   -29833   -29392   -29535   -29812 
  -29821   -29606   -29465   -29525   -29687   -29830   -29833   -29621 
  -29307   -29209   -29571   -30164   -30400   -30011   -29420   -29301 
  -29705   -30055   -30052   -29828   -29501   -29274   -29466   -29921 
  -30059   -29851   -29778   -29879   -29988   -30265   -30578   -30366 
  -29590   -29080   -29559   -30519   -30674   -29812   -29242   -29855 
  -30720   -30570   -29698   -29261   -29687   -30438   -30708   -30183 
  -29396   -29224   -29762   -30164   -29949   -29655   -29717   -29766 
  -29579   -29566   -29825   -29970   -30005   -30119   -30011   -29531 
  -29301   -29716   -30207   -30117   -29668   -29558   -29795   -29791 
  -29555   -29709   -30231   -30319   -29851   -29806   -30562   -31077 
  -30582   -29840   -29830   -30268   -30318   -29957   -29825   -30123 
  -30333   -30010   -29458   -29324   -29689   -29941   -29744   -29625 
  -30009   -30226   -29662   -29151   -29637   -30462   -30505   -29918 
  -29621   -29991   -30669   -31059   -30863   -30388   -30213   -30504 
  -30842   -30709   -30169   -29870   -30148   -30481   -30223   -29728 
  -29949   -30750   -30878   -30048   -29488   -29957   -30559   -30229 
  -29465   -29473   -30280   -30916   -30802   -30115   -29346   -28949 
  -29089   -29462   -29581   -29408   -29331   -29505   -29662   -29592 
  -29434   -29304   -29230   -29562   -30403   -30896   -30325   -29446 
  -29439   -30117   -30348   -29867   -29498   -29646   -29743   -29436 
  -29251   -29639   -30126   -30086   -29801   -29936   -30362   -30441 
  -30136   -30025   -30275   -30385   -30024   -29554   -29448   -29567 
  -29508   -29285   -29166   -29232   -29421   -29629   -29767   -29916 
  -30127   -30098   -29608   -29088   -29228   -30007   -30508   -30186 
  -29722   -29818   -30133   -30187   -30092   -29959   -29677   -29478 
  -29700   -29925   -29532   -28985   -29285   -30242   -30555   -29839 
  -29258   -29625   -30219   -30163   -29639   -29331   -29550   -30082 
  -30431   -30258   -29860   -29743   -29839   -29817   -29701   -29602 
  -29466   -29339   -29408   -29686   -29894   -29749   -29342   -29124 
  -29342   -29650   -29660   -29394   -29008   -28763   -29006   -29628 
  -30102   -30156   -29930   -29654   -29620   -29955   -30249   -30065 
  -29706   -29774   -30219   -30366   -29859   -29236   -29269   -29930 
  -30499   -30430   -29866   -29531   -29925   -30537   -30485   -29876 
  -29651   -30130   -30538   -30137   -29419   -29430   -30080   -30385 
  -30057   -29698   -29837   -30289   -30385   -29895   -29405   -29597 
  -30352   -30812   -30492   -29933   -29902   -30469   -31068   -31067 
  -30400   -29708   -29637   -30096   -30415   -30300   -30196   -30437 
  -30669   -30484   -30013   -29647   -29589   -29812   -30168   -30393 
  -30326   -30106   -29849   -29455   -29151   -29474   -30207   -30418 
  -29878   -29371   -29357   -29438   -29301   -29089   -29064   -29381 
  -29745   -29550   -28971   -29097   -30219   -31091   -30808   -30190 
  -30346   -30946   -30897   -30145   -29772   -30360   -31205   -31329 
  -30597   -29803   -29756   -30214   -30276   -29809   -29544   -29866 
  -30163   -29767   -29092   -29002   -29509   -30009   -30122   -29895 
  -29631   -29600   -29866   -30333   -30684   -30615   -30262   -30033 
  -30078   -30165   -30113   -29934   -29656   -29486   -29675   -29972 
  -29849   -29390   -29366   -29987   -30414   -30145   -29832   -30014 
  -30184   -29830   -29482   -29806   -30456   -30651   -30288   -29855 
  -29722   -29816   -29918   -29972   -29920   -29810   -29933   -30300 
  -30443   -30118   -29729   -29686   -29748   -29592   -29457   -29585 
  -29644   -29305   -28930   -29119   -29764   -30123   -29733   -28981 
  -28790   -29477   -30177   -29960   -29246   -29316   -30277   -30748 
  -30111   -29432   -29604   -30137   -30277   -30080   -29929   -29982 
  -30321   -30719   -30600   -30030   -29906   -30511   -30947   -30574 
  -30133   -30497   -31099   -30947   -30341   -30137   -30245   -30148 
  -29921   -29737   -29417   -29207   -29650   -30256   -29926   -28939 
  -28671   -29394   -30046   -29961   -29602   -29785   -30661   -31515 
  -31595   -31051   -30743   -31106   -31590   -31541   -31187   -31113 
  -31222   -31087   -30789   -30561   -30284   -30036   -30202   -30663 
  -30855   -30642   -30338   -30167   -30144   -30190   -30281   -30400 
  -30381   -30096   -29635   -29289   -29381   -29817   -30069   -29821 
  -29234   -28725   -28734   -29258   -29771   -29930   -29899   -29776 
  -29349   -28849   -28945   -29404   -29428   -29123   -29061   -29434 
  -30080   -30360   -29799   -29019   -28946   -29525   -29883   -29533 
  -29089   -29308   -29901   -30072   -29740   -29508   -29705   -30001 
  -30036   -29828   -29461   -28995   -28779   -29092   -29407   -29025 
  -28383   -28458   -29137   -29450   -29126   -28884   -29223   -29798 
  -30065   -29917   -29725   -29960   -30457   -30416   -29598   -28838 
  -28863   -29376   -29741   -29803   -29740   -29700   -29783   -30075 
  -30451   -30767   -31159   -31646   -31916   -31830   -31565   -31222 
  -30792   -30364   -30082   -29925   -29768   -29686   -29855   -30168 
  -30314   -30167   -29864   -29678   -29768   -29995   -30160   -30291 
  -30388   -30323   -30148   -30064   -30142   -30329   -30512   -30310 
  -29465   -28630   -28634   -29042   -28729   -27680   -27009   -27224 
  -27654   -27832   -28150   -28782   -29178   -29050   -28852   -28930 
  -29169   -29569   -30163   -30493   -30102   -29355   -29014   -29203 
  -29542   -29952   -30453   -30543   -29914   -29295   -29511   -30207 
  -30456   -30014   -29446   -29396   -29876   -30381   -30732   -31032 
  -30974   -30207   -29281   -29149   -29694   -29830   -29164   -28458 
  -28401   -28734   -28732   -28182   -27681   -27966   -28917   -29465 
  -29076   -28705   -29212   -29967   -30091   -29871   -30099   -30771 
  -31129   -30855   -30489   -30597   -31125   -31507   -31205   -30470 
  -30203   -30766   -31550   -31761   -31410   -31206   -31467   -31784 
  -31779   -31469   -31048   -30712   -30639   -30720   -30510   -29932 
  -29586   -29956   -30792   -31587   -32198   -32583   -32451   -31811 
  -31207   -30985   -30908   -30712   -30630   -31029   -31693   -31930 
  -31465   -30767   -30364   -30312   -30326   -30042   -29369   -28771 
  -28745   -29066   -29218   -29137   -28885   -28267   -27479   -27319 
  -27912   -28237   -27822   -27565   -28129   -28837   -28883   -28661 
  -29008   -29793   -30302   -30414   -30415   -30395   -30307   -30114 
  -29879   -29808   -30164   -31025   -31854   -31905   -31352   -31108 
  -31465   -31764   -31414   -30589   -29805   -29261   -28890   -28800 
  -29023   -29103   -28715   -28393   -28777   -29423   -29420   -28880 
  -28672   -29130   -29737   -29948   -29880   -29851   -29868   -29947 
  -30037   -29836   -29386   -29309   -29890   -30511   -30537   -30150 
  -29944   -30111   -30199   -29840   -29494   -29895   -30937   -31572 
  -31017   -29767   -29023   -29436   -30437   -30821   -30113   -29100 
  -28875   -29475   -29897   -29713   -29647   -30045   -30276   -30028 
  -29763   -29851   -30257   -30689   -30676   -30044   -29389   -29427 
  -29941   -30034   -29386   -28606   -28306   -28482   -28846   -29069 
  -28717   -27891   -27541   -28212   -29060   -28961   -28266   -28337 
  -29527   -30782   -31060   -30400   -29786   -30003   -30654   -30742 
  -30038   -29296   -29174   -29419   -29450   -29432   -29847   -30408 
  -30503   -30296   -30411   -30703   -30543   -30219   -30596   -31525 
  -31947   -31460   -30693   -30292   -30379   -30603   -30349   -29613 
  -29323   -29889   -30383   -30071   -29686   -30194   -31180   -31569 
  -31118   -30478   -30349   -30753   -31048   -30851   -30460   -30257 
  -30300   -30485   -30712   -30954   -31241   -31475   -31320   -30631 
  -29870   -29577   -29583   -29382   -29045   -29003   -29162   -29100 
  -28937   -29169   -29743   -30048   -29783   -29305   -29261   -29963 
  -30917   -31166   -30442   -29631   -29613   -30055   -29964   -29277 
  -29046   -29852   -30882   -31047   -30319   -29494   -29123   -28954 
  -28451   -27789   -27757   -28385   -28696   -28259   -27969   -28632 
  -29590   -29729   -29262   -29270   -29818   -29926   -29358   -29112 
  -29737   -30433   -30553   -30682   -31288   -31688   -31147   -29972 
  -29141   -29185   -29673   -29890   -29644   -29274   -29155   -29211 
  -29122   -29007   -29288   -29914   -30429   -30584   -30492   -30422 
  -30461   -30450   -30423   -30622   -30931   -30931   -30564   -30271 
  -30416   -30784   -30875   -30682   -30604   -30699   -30715   -30730 
  -31077   -31684   -31997   -31668   -31006   -30657   -30944   -31495 
  -31591   -30967   -30184   -30006   -30465   -30940   -31010   -30767 
  -30460   -30268   -30299   -30480   -30545   -30381   -30154   -30044 
  -30057   -30059   -29932   -29666   -29234   -28802   -28892   -29565 
  -30014   -29637   -28903   -28559   -28611   -28696   -28767   -28746 
  -28341   -27803   -27876   -28540   -28898   -28638   -28536   -29083 
  -29674   -29583   -28995   -28644   -28641   -28314   -27434   -26770 
  -26983   -27733   -28289   -28386   -28213   -28017   -27972   -28215 
  -28746   -29278   -29385   -28945   -28367   -28181   -28296   -28188 
  -27877   -28036   -29034   -30122   -30100   -29127   -28713   -29396 
  -30069   -29936   -29573   -29729   -30063   -29740   -28873   -28363 
  -28599   -29180   -29647   -29916   -30103   -30352   -30782   -31384 
  -31905   -32103   -32171   -32408   -32524   -32228   -31936   -32030 
  -32111   -31641   -30910   -30632   -30732   -30628   -30512   -30991 
  -31845   -32301   -32058   -31418   -30913   -31025   -31768   -32479 
  -32436   -31769   -31244   -31098   -30763   -29895   -29031   -28779 
  -28941   -28937   -28661   -28560   -28944   -29438   -29493   -29282 
  -29490   -30283   -31036   -31249   -31193   -31369   -31833   -32239 
  -32224   -31662   -30825   -30283   -30314   -30531   -30473   -30238 
  -30227   -30503   -30580   -30045   -29330   -29281   -29875   -30142 
  -29712   -29447   -30156   -31276   -31542   -30835   -30402   -30943 
  -31598   -31310   -30342   -29787   -30013   -30281   -29766   -28671 
  -28223   -29123   -30346   -30364   -29164   -28216   -28628   -29787 
  -30190   -29506   -28869   -29027   -29363   -29080   -28467   -28382 
  -29056   -29968   -30469   -30289   -29747   -29409   -29511   -29907 
  -30300   -30424   -30238   -29835   -29417   -29357   -29735   -30137 
  -30177   -29853   -29523   -29556   -29733   -29546   -29235   -29548 
  -30419   -30824   -30195   -29280   -29058   -29461   -29844   -30021 
  -30163   -30154   -29735   -29150   -28864   -28842   -28885   -29053 
  -29301   -29359   -29151   -28917   -28931   -29334   -29964   -30315 
  -30014   -29340   -28895   -28891   -29018   -29003   -29089   -29506 
  -29810   -29482   -28914   -28984   -29772   -30473   -30628   -30669 
  -31024   -31353   -31153   -30542   -30052   -30098   -30615   -30964 
  -30550   -29675   -29436   -30287   -31136   -30775   -29671   -29234 
  -29799   -30349   -30133   -29682   -29849   -30515   -30835   -30481 
  -30036   -30130   -30657   -31098   -31136   -30697   -30037   -29721 
  -29832   -29708   -29131   -28826   -29201   -29590   -29227   -28441 
  -28316   -29208   -30175   -30156   -29369   -29050   -29760   -30659 
  -30735   -30064   -29500   -29623   -30335   -30987   -30790   -29774 
  -29066   -29386   -29960   -29787   -29160   -28952   -29243   -29461 
  -29380   -29309   -29421   -29519   -29474   -29303   -29020   -28833 
  -29015   -29296   -29019   -28302   -28165   -28903   -29415   -28950 
  -28283   -28362   -28991   -29332   -28904   -28115   -28005   -28869 
  -29598   -29331   -28777   -28925   -29577   -29963   -29960   -30079 
  -30597   -31147   -31160   -30632   -30275   -30651   -31392   -31708 
  -31453   -31237   -31442   -31711   -31631   -31352   -31315   -31676 
  -32073   -32031   -31599   -31302   -31349   -31353   -31027   -30632 
  -30470   -30524   -30704   -30856   -30673   -30110   -29623   -29585 
  -29860   -30123   -30229   -30186   -30082   -30049   -30060   -29995 
  -29933   -29913   -29733   -29396   -29185   -29134   -28914   -28470 
  -28275   -28587   -28930   -28768   -28287   -28086   -28460   -29099 
  -29376   -29154   -28971   -29107   -29181   -28950   -28813   -29112 
  -29478   -29462   -29299   -29347   -29539   -29851   -30311   -30543 
  -30318   -30156   -30543   -31118   -31307   -31220   -31259   -31322 
  -31186   -31109   -31278   -31349   -31156   -31077   -31314   -31428 
  -31083   -30655   -30647   -31014   -31372   -31504   -31340   -30920 
  -30626   -30682   -30632   -30153   -29812   -30150   -30647   -30487 
  -29968   -29963   -30310   -30099   -29322   -28965   -29481   -30098 
  -29948   -29222   -28750   -28880   -29150   -29023   -28687   -28610 
  -28715   -28744   -28732   -28684   -28476   -28263   -28408   -28829 
  -29039   -28881   -28645   -28638   -28894   -29111   -28981   -28695 
  -28661   -28895   -29154   -29331   -29330   -29012   -28601   -28564 
  -28918   -29273   -29489   -29640   -29668   -29625   -29785   -30098 
  -30149   -29937   -29947   -30261   -30403   -30248   -30287   -30634 
  -30807   -30685   -30681   -30970   -31220   -31147   -30942   -30909 
  -31000   -30989   -30850   -30685   -30535   -30511   -30828   -31414 
  -31677   -31224   -30703   -31010   -31762   -31746   -30888   -30384 
  -30819   -31415   -31357   -30840   -30565   -30836   -31295   -31260 
  -30597   -30073   -30269   -30676   -30526   -29847   -29254   -29166 
  -29497   -29889   -30010   -29798   -29583   -29614   -29631   -29386 
  -29112   -29058   -29103   -29011   -28750   -28507   -28518   -28825 
  -29031   -28634   -27920   -27745   -28173   -28341   -27947   -27810 
  -28485   -29313   -29455   -29052   -28981   -29698   -30523   -30429 
  -29589   -29199   -29654   -30114   -30042   -29965   -30356   -30726 
  -30474   -29894   -29731   -30149   -30719   -31114   -31314   -31464 
  -31654   -31622   -31143   -30680   -30842   -31394   -31658   -31509 
  -31201   -30916   -30935   -31426   -31911   -31752   -31098   -30649 
  -30619   -30612   -30375   -30044   -29736   -29492   -29484   -29722 
  -29762   -29251   -28625   -28641   -29261   -29502   -28730   -27697 
  -27633   -28514   -29178   -28996   -28525   -28471   -28791   -28952 
  -28618   -28013   -27742   -28035   -28352   -28320   -28395   -28966 
  -29573   -29636   -29400   -29509   -29999   -30366   -30360   -30138 
  -29871   -29614   -29466   -29492   -29636   -29702   -29451   -28980 
  -28840   -29305   -29790   -29609   -28961   -28566   -28707   -29019 
  -29000   -28674   -28602   -29087   -29666   -29783   -29508   -29288 
  -29407   -29841   -30304   -30424   -30152   -29951   -30198   -30570 
  -30619   -30559   -30813   -31241   -31355   -31025   -30688   -30766 
