Origin Time       2024/04/02 04:24:00
Lat.              40.133
Long.             141.712
Depth. (km)       71
Mag.              6.0
Station Code      AKT006
Station Lat.      40.2153
Station Long.     140.7873
Station Height(m) 123
Record Time       2024/04/02 04:24:53
Sampling Freq(Hz) 100Hz
Duration Time(s)  104
Dir.              E-W
Scale Factor      7845(gal)/8223790
Max. Acc. (gal)   26.193
Last Correction   2024/04/02 04:24:53
Memo.             
[...]
   12982    13185    13284    13331    13419    13535    13601    13655 
   13880    14334    14758    14827    14462    13853    13284    12960 
   12901    12926    12739    12162    11368    10837    10879    11290 
   11565    11403    10966    10768    11242    12344    13548    14258 
   14310    14054    13937    14130    14544    14925    14891    14211 
   13078    11961    11342    11535    12217    12546    12214    11727 
   11516    11368    10812     9837     9120     9441    10854    12614 
   14058    15190    16370    17706    18763    19020    18543    17712 
   16721    15772    14964    14095    13246    12949    13355    14040 
   14531    14499    13653    11974    10146     9255     9625    10654 
   11940    13645    15689    17224    17203    15368    12550    10158 
    9080     8803     8500     8762    10678    13818    16505    17367 
   16056    13358    10694     8965     8455     9188    10748    12906 
   15803    18924    21247    22133    21250    18721    15660    13429 
   12447    12403    12922    13560    13828    13490    12783    12059 
   11391    10817    10570    10605    10535    10605    11905    14696 
   17513    18883    18738    17825    16980    16703    16856    17046 
   17613    19400    22094    23950    23407    20243    15157     8981 
    2967    -1266    -2889    -2124      441     4525     9838    14878 
   17636    17221    13460     7325     2084     1116     4931    11754 
   19900    27746    32890    33899    31321    26207    19371    11344 
    2918    -4218    -8473    -8926    -5080     1921     9232    14754 
   17861    18472    17355    15797    14364    13262    12885    13394 
   14663    16405    17891    17624    14119     8174     3469     3422 
    8212    15498    22253    25660    24622    21012    18026    17026 
   17012    16660    15595    14054    12567    12167    13406    15395 
   17150    18112    17230    13913     8953     3300    -2408    -6941 
   -8625    -6097      684     9266    16731    22248    25415    25590 
   23251    19153    14162     9922     7430     6575     7790    11578 
   16634    20588    21851    20120    16722    13759    12178    11593 
   11564    12259    13884    16009    17653    17521    14883    10386 
    5505     2124     1802     4765    10548    17640    22558    22578 
   18837    15028    13366    13397    14688    17047    19062    20424 
   22620    24896    23845    18048     9806     2461    -1528    -1193 
    2293     6547     9472     9810     8257     7515     9819    15060 
   20996    24687    24756    22589    19896    16498    12148     7727 
    4298     2694     3098     5115     8545    13614    20002    25309 
   26592    24058    20553    17770    15044    11645     8662     7379 
    7269     7272     7446     8464    10628    13533    16151    17111 
   15804    12984     9400     5914     4476     5537     6578     5738 
    4152     3979     6471    11470    17599    23603    28715    31461 
   30234    24957    17363    10507     6871     6701     9211    13724 
   19080    23283    24146    21012    15136     7966     1304    -2251 
   -1983      396     3892     8542    13292    16212    16564    15970 
   16646    18794    21115    22450    21876    19152    15515    12428 
   10300     9455    10038    10804    10280     8556     6939     6455 
    7130     8371     9517     9868     9263     9034    10246    11518 
   10980     8819     6571     5406     6035     9321    14987    20792 
   24813    26701    26661    25354    23575    21165    17714    13817 
   10451     8002     6755     7315     9612    12657    15874    19438 
   23172    26010    26866    25795    23421    19641    14632    10210 
    8266     8949    10905    12374    12510    11788    11126    11028 
   11337    11839    12745    14085    15145    14893    12947     9829 
    6426     3716     2569     3569     6804    11184    14840    16758 
   17342    17215    16351    14810    13173    11673    10517    10669 
   12603    15593    18721    20834    20548    17807    13967    10427 
    8081     7114     7376     8864    11209    13691    15943    17585 
   17917    16922    15361    13549    11543    10038     9714    10698 
   12830    15585    18397    20695    21296    19244    14921     9504 
    4309      940      600     2785     5914     8834    11061    12791 
   14624    16752    18766    19805    18724    15304    11207     8739 
    8802    10612    12972    15002    16401    17544    18697    19402 
   18932    16768    12864     7973     3434      491     -179     1476 
    4936     9104    13007    16312    18747    19786    19379    18199 
   16586    14374    11955    10149     9391     9567    10191    10793 
   11187    11479    11889    12528    13271    13632    12938    11163 
    9186     7821     7534     8750    11183    13988    16839    19604 
   22064    24142    25444    25436    23994    21454    18746    16993 
   16587    16825    16694    16071    15273    14181    12861    11445 
    9329     6072     2431     -206     -827      723     3700     7040 
   10168    13019    15720    18400    20796    22423    22886    21510 
   18052    14010    11693    11681    12476    12830    12645    12209 
   12028    11998    11092     8899     6103     3788     2971     3913 
    6027     8858    12333    16042    19458    22539    24927    25477 
   23808    21309    19230    16926    13680    10366     8025     6813 
    6561     7437     9904    13678    17527    20551    22441    22837 
   21722    19789    17671    15735    14355    13321    12028    10542 
    9448     8935     8590     8068     7870     8787    10748    13035 
   14804    15018    13178    10075     7090     5271     5238     7150 
   10532    14496    18138    20885    22755    23805    23592    21926 
   19322    16393    13581    11124     9051     7468     6502     6089 
    6158     7025     9331    13235    17643    20680    21081    18742 
   14281     9055     4877     3025     3724     6254     9714    13524 
   17018    19491    20838    21388    21177    19912    17460    14104 
   10536     7495     5390     4394     4672     6590    10272    14573 
   17467    17992    16966    15364    13495    11963    11182    10405 
    9000     7437     6493     6662     7939     9861    12128    14777 
   17655    20177    21733    22025    21011    19014    16661    14442 
   12525    11003    10130    10066    10702    11681    12322    12289 
   12027    11805    11226    10021     8444     7021     6448     7045 
    8241     9397    10467    11655    13176    14875    16174    16873 
   17282    17589    17636    17180    16029    14332    12918    12434 
   12671    13370    14485    15765    16854    17219    16290    14470 
   12779    11489    10787    11335    12868    14112    14211    13409 
   12771    12985    13610    14029    14089    13564    12529    11869 
   12162    12989    13737    14241    14590    14756    14786    14902 
   14802    13890    12495    11554    11145    10674    10203    10203 
   10702    11623    12989    14671    16405    17525    17273    15850 
   14277    13431    13590    14188    14202    13300    12046    11068 
   10831    11512    12679    13686    14183    14056    13583    13481 
   14152    15329    16471    17047    16937    16521    16019    15391 
   14561    13315    11597     9742     8237     7526     7692     8222 
    8721     9622    11308    13136    14193    14206    13448    12626 
   12546    13076    13316    12951    12268    11497    10791    10500 
   11140    12664    14233    15217    15772    16078    15916    15210 
   14052    12499    11175    11092    12361    14065    15516    16569 
   17038    16964    16877    17047    17315    17559    17317    15728 
   13047    10917    10276    10727    11861    13432    14929    16031 
   16671    16525    15273    13332    11452     9778     8352     7809 
    8451     9501    10080     9890     8799     7203     6397     7260 
    9378    11913    14254    15807    16074    15307    14496    14062 
   13393    12252    11265    10760    10852    11828    13309    14296 
   14337    13918    13641    13405    12860    12156    11574    11187 
   11229    11915    12924    13923    15128    16559    17643    18123 
   18225    18048    17550    16557    14854    12710    10801     9626 
    9200     9177     9408    10115    11283    12387    13054    13529 
   13950    13740    12529    10947     9850     9589    10099    11169 
   12617    14238    15689    16622    16973    17014    16897    16397 
   15381    14053    12690    11533    10601     9763     9343     9806 
   10885    11983    13055    14369    15931    17278    17710    16899 
   15095    12874    11191    10945    11908    13177    14399    15435 
   15826    15313    14215    12984    11847    11052    10893    11365 
   12155    12831    13211    13470    13664    13743    13911    14530 
   15646    16626    16734    16004    14959    13949    13061    12106 
   10727     9108     8178     8640    10411    12910    15261    16653 
   16951    16757    16470    15620    13833    11839    10727    10795 
   11539    12371    12999    13122    12583    11773    11210    11083 
   11323    11994    13273    14774    15751    16043    15992    15681 
   14891    13807    13219    13572    14381    14990    15299    15310 
   14763    13563    11896    10087     8623     7938     8114     8954 
   10122    11342    12804    14854    16930    17967    17851    17251 
   16611    16020    15437    14840    14374    14239    14176    13694 
   13096    13169    13999    15155    16173    16451    15610    13960 
   12055    10305     9202     9265    10525    12299    13830    14917 
   15569    15803    15815    15827    15826    15340    13896    12082 
   11151    11423    12043    12039    11191    10265    10237    11380 
   13348    15570    17278    17585    16096    13532    11288    10262 
   10065     9738     9288     9433    10287    11470    12699    13707 
   14243    14203    13791    13436    13378    13531    13616    13338 
   12731    12171    11745    11191    10539    10135    10196    10704 
   11499    12361    13124    13795    14229    14021    13198    12344 
   12054    12492    13138    13313    13020    12951    13660    14831 
   15688    15840    15245    13857    11975    10378     9590     9512 
   10019    11057    12040    12428    12652    13262    13983    14380 
   14477    14601    14974    15502    15934    15738    14446    12577 
   11352    11554    12976    14725    15986    16362    15842    14855 
   13825    12861    12104    11566    10802     9618     8635     8548 
    9354    10490    11308    11502    11294    11061    10979    11137 
   11568    12193    12883    13552    14234    14898    15275    15304 
   15445    15963    16669    17564    18636    19241    18765    17645 
   16843    16686    16893    17154    17251    17143    16964    16760 
   16553    16490    16383    15678    14397    13273    12731    12641 
   12957    13761    14806    15587    15680    15053    14050    12911 
   11962    11782    12306    12749    12694    12306    11631    10551 
    9393     8712     8649     9016     9543     9876     9790     9347 
    8900     8981     9950    11727    13844    15565    16297    16233 
   16326    17460    19570    21420    21789    20727    19120    17621 
   16355    15071    13374    10839     7383     3662      503    -1783 
   -3234    -3925    -3932    -3132    -1287     1304     3886     5860 
    6745     6382     5490     5267     6392     8571    11016    13423 
   16210    19808    24094    28418    31977    33971    33556    30484 
   25678    20729    16816    14076    12062    10709    10382    11053 
   12006    12228    10983     8440     5418     2551      216    -1584 
   -3273    -4909    -6022    -5940    -3890      386     6326    12941 
   19294    24946    29666    32940    34190    33230    30658    27342 
   23757    20563    18766    18638    19303    19616    19114    17918 
   16075    13622    11034     8765     6627     4495     2752     1316 
    -340    -1667     -799     3577    10720    18720    26056    31602 
   34257    33373    29254    23260    17151    12020     8287     6489 
    7191    10227    14485    18447    20579    19500    14756     7371 
    -650    -7132   -10443    -9822    -5385     1925    10515    18162 
   22639    22982    19745    14319     8340     3240      243      228 
    2926     7179    12337    18216    24128    28952    31641    31337 
   27967    22974    18708    16891    17798    20835    25174    29443 
   32032    32144    29916    25721    19612    11727     3105    -4575 
   -9865   -12109   -11672    -9875    -8117    -6543    -4344     -897 
    4553    12764    22816    31973    37975    40265    39102    35436 
   30894    26551    22538    18850    15673    13015    10774     9261 
    8847     9319     9998    10355    10496    10551     9933     8280 
    6111     4016     2913     4407     9111    15466    21234    25315 
   27737    28759    28637    27405    24274    18146     9189     -553 
   -8197   -11774   -10960    -6358      869     8903    15958    21065 
   23881    24476    23371    21207    18546    15438    11179     5863 
    1174    -1210     -418     3430     8984    14949    20756    25682 
   28393    27494    23118    17275    11713     6966     3349     1146 
     496     2247     7592    15916    24702    31440    34195    31749 
   24448    14319     3901    -4970   -11257   -14293   -13809   -10041 
   -3615     4669    13884    22662    29191    31958    30337    24779 
   17059     9679     4580     2790     4854    10910    19642    27892 
   32849    33816    31626    27846    24105    21045    18246    15577 
   13605    12275    10708     8456     5458     1474    -3200    -6907 
   -7148    -2335     7242    19855    32254    39949    39874    32886 
   22454    11936     3998      413     1143     4752     9628    14701 
   19435    22956    24244    23626    22223    20007    16341    11491 
    5857     -515    -6790   -11539   -13709   -12706    -8833    -3427 
    2185     7281    11695    15871    19811    22508    23186    21805 
   18793    15107    12162    11283    12587    15093    18133    21357 
   24000    25231    24656    22351    18952    15334    11863     8461 
    4896      842    -3346    -6054    -5493    -1359     5054    12197 
   18975    24293    26859    26091    22863    18612    14254    10319 
    7160     5042     4413     5807     9343    14312    19434    23480 
   25546    25346    23394    20440    17221    14863    14327    15292 
   16470    16912    16710    16526    16667    16706    15712    12877 
    8293     2821    -2297    -5575    -6210    -4576    -1228     3504 
    9138    14817    19271    21656    22285    21994    21747    22501 
   24127    25137    24322    21652    17579    12910     9062     7348 
    8016     9965    11357    11164    10107     9805    10913    12191 
   11956    10255     8746     8590     9575    11210    13011    14242 
   14666    14952    16154    18868    22481    25367    25984    23695 
   18936    13135     7970     4220     1734      267       75     1763 
    5572    11002    16908    21771    24372    24609    23561    22291 
   20929    19206    16916    14058    11145     8901     7623     6976 
    6609     6987     8873    12085    15561    18580    21057    22459 
   22015    20182    18081    16179    14461    13038    12302    12432 
   13204    14251    14628    13149     9869     5910     2350      271 
     453     2671     6096     9498    11248    10512     8275     6462 
    6385     8557    13109    19538    26385    31500    33284    31766 
   27602    21346    14651     9644     6916     6139     7425    10841 
   15556    19716    21628    21251    19342    16297    12923    10098 
    7634     5151     2968     1318      -35     -923     -661     1086 
    4168     8028    11765    14802    17064    18315    17941    15830 
   13205    11588    11337    12415    14967    18106    20663    22725 
   24198    23936    21654    18527    15561    13008    11476    11738 
   13143    14249    14806    15518    16632    17674    18077    17572 
   16152    14358    12819    11362     9823     8710     8129     7493 
    6408     5109     4168     4054     4870     6313     7969     9694 
   11437    12719    12788    11685    10516    10231    11383    14455 
   18976    23503    26576    26823    23359    16753     9023     2714 
    -193      718     4259     8770    12949    15788    16811    16443 
   15631    15003    14539    14224    14477    15310    15839    15476 
   14602    13398    11784    10586    10562    11284    12387    13964 
   15503    16397    17001    17782    18144    17285    15531    13975 
   13208    12928    12714    12718    13343    14688    16538    18523 
   20173    20995    20563    18505    14692     9609     4158     -676 
   -3387    -2575     1734     8336    15398    20891    23762    24343 
   23421    21440    18790    15959    12704     8374     3454     -761 
   -3369    -3495     -284     6180    14663    22989    28737    30623 
   28898    24413    18223    11780     6490     3330     2641     3658 
    5202     7075     9817    13533    17412    20123    20764    19087 
   15221    10119     5350     1915      103       89     1969     5676 
   11098    17798    24591    29983    32788    32179    27932    20837 
   12487     4760     -688    -2905    -1715     2509     9028    16757 
   23886    27985    27741    23953    18256    12310     7580     4576 
    3348     4094     6578    10076    13668    16703    19263    21514 
   23244    24258    24267    22912    20278    16789    12923     9323 
    6605     5123     5300     7614    11870    16889    21004    22881 
   22184    19452    15368    10492     5498     1244    -1491    -2176 
    -535     3072     7589    12009    15813    18601    19847    19206 
   17149    14895    13153    11677    10226     8865     7933     8276 
   10516    14148    18065    21362    23471    23944    22111    17689 
   11750     6328     3365     3769     6966    11373    15088    16741 
   16333    14937    13485    12344    11956    12607    13707    14376 
   14196    13328    12270    11178     9971     9078     9088    10102 
   11924    14320    16868    18829    19458    18688    17239    15765 
   14241    12258     9859     7855     7250     8405    10756    13585 
   16491    18925    20305    20501    19734    18229    16224    14125 
   12260    10828    10008     9622     9261     8734     8040     7506 
    7904     9703    12546    15573    17755    18393    17498    15253 
   11877     8290     5898     5319     5952     7015     8432    10473 
   13063    15633    17554    18689    19268    19295    18504    16999 
   15337    13922    12924    12571    13055    14351    16113    17678 
   18486    18473    17690    16077    13906    11643     9517     7726 
    6624     6551     7576     9340    11315    13050    13936    13563 
   12492    11722    11603    12029    13066    14694    16397    17666 
   18516    19078    19110    18268    16777    15336    14157    13128 
   12575    12636    12594    11839    10539     9078     7956     7821 
    8850    10671    12640    13973    14328    13865    12594    10689 
