Origin Time       2024/04/02 04:24:00
Lat.              40.133
Long.             141.712
Depth. (km)       71
Mag.              6.0
Station Code      AKT019
Station Lat.      39.0390
Station Long.     140.4490
Station Height(m) 173
Record Time       2024/04/02 04:25:04
Sampling Freq(Hz) 100Hz
Duration Time(s)  96
Dir.              N-S
Scale Factor      7845(gal)/8223790
Max. Acc. (gal)   6.717
Last Correction   2024/04/02 04:25:04
Memo.             
[...]
     499      272      410      770     1005     1372     1665     1526 
    1112      828      862      811      572      710     1193     1452 
    1198      540       86      301      807     1078     1081      951 
     766      600      600      689      360     -425    -1034    -1038 
    -346      777     1637     1798     1579     1660     2128     2193 
    1466      635      427      962     1611     1417      440     -271 
    -172      375      924     1242     1304     1293     1067      318 
    -554     -901     -714     -292      179      533      712      970 
    1647     2425     2409     1476      454      -27      166      977 
    2093     2767     2565     1958     1121        8     -352      519 
    1435     1543     1201      907      643      367      585     1305 
    1517      932      141     -454     -595     -249      594     1891 
    2847     2570     1329      396      438      842      913      554 
     380      926     1255      743      274       -5     -290      122 
    1262     2205     2373     2020     1764     1702     1486      876 
      18     -322      233     1038     1491     1363      872      893 
    1536     1736     1108      330     -228     -418      233     1310 
    1485      787      476      768      980      851      634      800 
    1597     2409     2218     1132      476      753     1017      824 
     969     1755     2361     2155     1362      345     -692    -1193 
    -675      360     1116     1441     1244      395     -440     -711 
    -599      197     1664     2303     1494      789     1071     1232 
     656      191      275      494      702      988     1305     1609 
    1530      719     -337     -881     -446      845     1890     1900 
    1545     1633     1811     1521     1174     1069      608     -229 
    -363      726     2137     2778     2673     2444     1861      441 
    -757     -526      249      301      -56     -125      240      792 
     795       -5     -702     -438      557     1432     1775     1911 
    2018     1885     1601     1337     1158     1283     1576     1479 
     949      595      676      743      629      627      681      495 
     271      585     1356     1750     1494     1094      738      274 
     -62       60      518      780      419      -51      274     1105 
    1526     1571     1737     1780     1325      707      307      175 
     199      184      322      788     1132     1154     1031      913 
    1032     1011      456      232      850     1354     1264     1393 
    1935     1753      627      -14      328      723      880     1021 
     891      496      479     1009     1425     1336     1034      872 
     903      785      380      240      676     1267     1626     1657 
    1406      967      541      531      928      980      372      -35 
     421     1174     1354      954      749      990     1219     1336 
    1256      769      241     -108     -545     -899     -762     -121 
     820     1738     2308     2497     2427     2066     1459     1017 
     847      499      -60     -317      103      963     1347      982 
     958     1732     2268     1895     1208      888      893      943 
     830      600      573      549      299      383      792      791 
     468      400      630      799      754      850     1325     1609 
    1050       83     -179      513     1285     1397      972      587 
     727     1348     1756     1448      958      919      970      797 
     747      923     1139     1278     1071      373     -333     -488 
    -190      417     1318     1875     1632     1108      751      648 
    1044     1773     2050     1513      545     -355     -777     -328 
     777     1555     1441      893      583      707      993     1202 
    1398     1642     1852     1795     1173      351      283      990 
    1429     1208      838      629      562      684     1096     1626 
    1717     1239      669      130     -427     -510      253     1302 
    1722     1510     1490     1702     1468      850      311      113 
     369      581      268       13      503     1213     1336     1009 
     630      417      646     1188     1726     2089     1952     1298 
     459     -422     -943     -726        9      955     1678     1718 
    1337     1213     1391     1309      859      560      630      645 
     365      391      888      919      348      133      427      676 
     795     1074     1453     1424      962      656      710      828 
     746      533      579     1082     1613     1607     1289     1298 
    1389      846       79      122      855     1325     1463     1725 
    1744     1023     -149     -889     -372      727      946      503 
     504      834      869      569      166       17      526     1370 
    1657     1555     1782     1622      526     -345     -274      189 
     480      679     1078     1198      602       16      301     1458 
    2567     2978     3080     2816     1887     1173     1178     1206 
     945      726      693      580      411      608      634      -63 
    -319      454     1136     1250     1165     1065     1047     1057 
    1055     1256     1645     1776     1314      544      -10      -64 
     523     1404     1744     1314      548       -2      279     1162 
    1391      656        8      -32       99      233      646     1314 
    1686     1300      558      337      843     1431     1579     1494 
    1355      953      514      695     1433     1782     1084      -75 
    -522       -5      691      846      330     -379     -642     -349 
     305     1413     2632     2754     1471      155       -9      753 
    1467     1482     1198     1290     1123       28     -569      421 
    1549     1551     1127     1138     1354     1339     1310     1474 
    1393      602     -422     -629       10      673     1120     1406 
    1179      332     -396     -210      743     1710     2081     1800 
    1464     1463     1386      958      525      413      680     1053 
     947      198     -283      348     1236     1266     1061     1301 
    1456     1271     1036      857     1020     1748     2112     1042 
    -406     -513      268      828     1101      953      517      661 
    1452     1965     1682      866        0     -399     -186      126 
     558     1371     1865     1679     1331      997      727      882 
    1302     1233      741      621      634      180      -32      414 
     670      612      828     1036      845      835     1440     1972 
    1783     1182      494     -135     -141      475      915     1051 
    1394     1764     1536      981     1004     1509     1672     1440 
    1278     1242     1078      720      338     -179     -872    -1046 
    -324      795     1815     2430     2573     2342     1638      835 
     618      600      164     -209       60      765     1286     1348 
    1332     1343     1030      603      432      449      758     1327 
    1505     1229     1285     1395      604     -307     -110      572 
     889     1208     1833     2289     2068     1444     1013      642 
     122       35      761     1651     1726      918      174      139 
     387      340       76      198     1034     1794     1641     1080 
     553     -187     -756     -596      190     1031     1221     1017 
    1123     1333     1318     1124     1009     1286     1652     1609 
    1335     1171      986      557       40     -346     -565     -588 
    -353      260     1177     1682     1298      985     1713     2577 
    2405     1513      558     -207     -627     -708     -477      -45 
     329      641     1066     1595     1954     1969     1726     1161 
     495      468      972     1051      858     1254     1556      889 
     328      561      631      272      283      953     1676     1860 
    1637     1256      723      278      234      560      815      839 
    1175     1852     2120     1688     1085     1042     1507     1730 
    1290      321     -325      319     1748     2412     1769      672 
     -39     -449     -765     -662       54      955     1393     1325 
    1182      949      580      456      444      226      290      880 
    1229      939      584      544      507      348      584     1437 
    2047     1664      931      934     1652     2131     1784      932 
     170     -290     -463     -386     -147      270      899     1476 
    1580     1061      445      400      893     1398     1387      861 
     473      729     1412     1640      877       54       52      280 
     237      373     1101     2182     2741     2313     1406      476 
    -209     -271      128      448      562      577      384      279 
     842     1609     1845     1953     2262     2335     2065     1706 
    1263      685       99     -155      176      893     1529     1466 
     467     -361       94     1102     1541     1507     1308      885 
     376      -14     -102      417     1004      635      -87        6 
     457      544      611     1017     1516     1629     1112      511 
     633     1258     1690     1969     2185     1796      673     -305 
    -345      245      614      529      537      994     1441     1343 
     931      621      452      491      773     1154     1593     1911 
    1732     1063      450      419      861     1277     1472     1505 
    1270      693      145      151      703     1385     1756     1291 
     -10    -1178    -1452    -1016      -90     1256     2404     2681 
    2173     1478     1082      869      538      464     1066     1634 
    1263      517      414      711      822      990     1487     1966 
    2003     1644     1345     1478     1777     1621     1008      541 
     515      788     1004      804      444      681     1595     2428 
    2587     2119     1467      830      156      -21      714     1482 
    1387      884      585      252     -256     -367      383     1471 
    1858     1470     1189     1239     1065      568      157      143 
     411      448      141      187      892     1532     1544     1210 
     962      876      889     1158     1771     2205     1877      924 
     -81     -666     -560      167      912     1198     1229     1028 
     456      234      869     1660     1960     1825     1325      325 
    -850    -1532    -1649    -1510    -1210     -877     -622     -442 
    -406     -376       43      911     1691     1833     1506     1120 
     776      564      487      430      442      665     1058     1104 
     561      194      355      464      301      -67     -711    -1139 
    -552      769     1757     2115     2205     2219     2141     1833 
    1505     1586     1902     1896     1254      275     -324     -513 
    -692     -649     -144      500     1017     1526     1977     2012 
    1833     1956     2231     2344     2331     2315     2451     2604 
    2347     1692     1360     1707     1919     1429      855      627 
     664     1111     1728     1871     1362      513       10      372 
     993      918      355      243      596      792      930     1267 
    1266      519     -324     -272      715     1884     2860     3535 
    3553     2902     2084     1628     1815     2481     3152     3457 
    3412     3094     2230     1117      766     1264     1624     1398 
     932      421      -90     -538    -1092    -1611    -1686    -1409 
    -961     -588     -684    -1059    -1410    -1606    -1269     -490 
    -105     -541    -1086     -943     -689    -1377    -2663    -3461 
   -3568    -3435    -3244    -2791    -1987    -1255    -1134    -1462 
   -1493     -909      -52      886     1730     2083     2080     2073 
    1960     1622     1240     1437     2396     2957     2754     2880 
    3388     3746     4207     4531     4110     3141     2369     2173 
    2050     1733     1772     2155     2099     1190      -33     -735 
   -1020    -1314    -1401    -1174     -562      548     1580     2131 
    2551     3038     3364     3246     2833     2506     2053     1274 
     868     1329     2093     2355     2010     1800     2432     3562 
    4220     4093     3862     4093     4549     4893     4857     4141 
    3356     3408     3651     3090     2192     1709     1370      472 
   -1013    -2417    -3225    -3473    -3291    -2650    -1871    -1729 
   -2533    -3464    -3665    -3281    -2540    -1229      710     3053 
    5058     5664     4977     4122     3369     2482     2011     2290 
    2412     1449     -128    -1102    -1008     -388     -207    -1004 
   -2269    -3384    -4376    -4854    -3758    -1020     1520     1977 
     747     -564    -1374    -1394      244     3192     5602     6276 
    5066     2446     -387    -2338    -3211    -3130    -1873      369 
    2247     2640     2130     2030     2853     4131     4719     3839 
    2177      797     -151     -564       54     1231     1387      186 
    -870    -1300    -2083    -2855    -2083      243     2342     2747 
    1514     -537    -2315    -2606    -1341      329     1734     2763 
    2898     2103     1216      456     -379     -799     -406      508 
    1323     1409      946      857     1552     2582     2968     1652 
   -1275    -3858    -4072    -2218     -160     1116     1756     1968 
    1782     1066     -232    -1811    -3225    -3798    -2916    -1142 
     328     1165     1742     2344     2554     1675      564     1044 
    3042     4968     6180     6791     6523     5097     2914      922 
      27      734     2965     5670     7460     7911     7161     5135 
    2011    -1224    -2803    -1848      337     1917     2169     1524 
     838      444      162       51      268      756     1954     4121 
    5805     5478     3385      301    -2756    -4175    -3788    -2775 
   -1464      -32      774      824      357     -789    -2189    -2490 
   -1382     -265      -22     -105       -2      139      207      421 
     927     1765     3013     4413     5274     4936     3172      545 
   -2065    -3937    -4089    -2376     -378      799     1332     1155 
     326     -261      -27      734     1607     2401     2982     3122 
    2459     1131       -2     -398     -345     -487     -980    -1085 
    -311      637      928      627      198      -43      143      750 
    1441     1972     2250     2284     2238     2011     1428     1070 
    1620     2516     2486     1247     -356    -1564    -1988    -1381 
     126     1773     2570     2228     1089     -317    -1069     -845 
    -723    -1200    -1335     -837     -352     -186     -371     -778 
    -909     -249     1267     3053     4183     4513     4824     5313 
    5213     4045     2253      895      553      676      981     1814 
    2596     2400     1551     1143     1632     2470     3098     3280 
    2381      328    -1283    -1132      -17      665      908     1287 
    1252        5    -1711    -2214     -907      672      635     -761 
   -2087    -2749    -2744    -2388    -1952     -966      727     2389 
    3202     2797     1850     1717     2637     3407     2970     1552 
     191     -172      862     2421     2721     1414       62     -340 
    -325     -217      328     1070     1767     2713     3358     2717 
     780    -1676    -3087    -1911     1240     3940     4438     3215 
    2023     1436      627     -665    -1536    -1136      255     1574 
    1845     1030      156       48      595     1420     1848      977 
    -932    -2269    -2026     -916     -117      309      768     1034 
    1321     2382     3609     3569     2230      843      422      873 
    1227     1150     1420     2079     2019      954     -179     -707 
    -538      433     1726     1981      774     -579     -889     -305 
     243     -159    -1426    -2231    -1559      406     2965     5193 
    6388     6617     6058     4708     2890     1009     -773    -2304 
   -3122    -2454      -87     2635     3740     2822     1251      130 
    -472     -321     1135     3458     5335     5902     4966     2879 
     498    -1359    -2096    -1557     -225     1381     2573     2474 
    1348      124    -1084    -2064    -1864     -342     1455     2497 
    2216      776     -634    -1019     -733     -441      -35      623 
     986      685      225       25     -326    -1132    -1715    -1433 
    -808     -353      434     1587     2085     1725     1505     1680 
    1304       87     -909     -718      621     2193     2547     1167 
    -726    -1949    -2118    -1047      720     2072     2582     2679 
    2539     1807      834      480      665      959     1325     1328 
     650     -194     -679     -591       -9      364       40     -179 
     611     1714     1954     1564     1294     1038      430     -206 
    -319       25      460     1026     1965     2848     2828     2153 
    1991     2505     2737     2103     1138      831     1266     1595 
    1470     1255     1341     1885     2486     2486     1728      311 
   -1258    -1767     -904      101      635     1101     1456     1509 
    1197      256     -774     -791      102     1224     2458     3465 
    3549     2543     1208      745     1539     2894     4091     4722 
    4534     3721     2913     2718     3194     3885     4159     3345 
    1540       -9     -351      139      776     1580     2600     3038 
    2007     -191    -2366    -3608    -3682    -2882    -1919    -1682 
   -2162    -2043     -777      449      803      615      217      -37 
     618     2189     3500     3909     3746     2879      985    -1324 
   -2920    -2802     -666     2311     4257     4172     2448      461 
    -796    -1485    -1771    -1231       25      922      734     -155 
   -1186    -1803    -1314     -162      488      679     1043     1416 
    1412     1028      442       60       66        4     -386     -780 
   -1084    -1405    -1529    -1394    -1306    -1418    -1566    -1505 
    -981       17      733      530      -28     -507     -904     -444 
     708      915      342      587     1367     1417      891      892 
    1671     2385     2848     3435     3537     2957     2722     3241 
    3955     4149     3758     3627     4089     4553     4264     2871 
    1587     1873     2934     3400     3565     3823     3253     1470 
     -49      -93      758     1683     2462     2826     2671     2242 
    1705      958      129      -90      274      314      102      303 
     754     1186     1834     2498     2242      635    -1516    -2987 
   -2864    -1134      635      808     -105     -611     -425     -167 
    -214     -346      -95      298       12     -915    -1536    -1327 
    -368     1277     3130     3969     3194     1583      373      548 
    2081     3680     4006     2628      122    -2091    -2895    -2581 
   -2064    -1628    -1101     -464       62      352      591      819 
    1030     1351     1522     1223      544     -170     -152     1198 
    3064     3721     2482      521     -575     -753     -703       27 
    1783     3366     3854     3483     2301      361    -1169     -819 
    1142     2845     3285     3100     2982     2511      954    -1320 
   -3163    -3557    -2149       39     1412     1471      895      546 
     531      390       31     -139      268     1066     1645     1873 
    2135     2438     2173     1158      191     -132      406     2137 
