Origin Time       2024/04/02 04:24:00
Lat.              40.133
Long.             141.712
Depth. (km)       71
Mag.              6.0
Station Code      AKT011
Station Lat.      39.8133
Station Long.     140.5805
Station Height(m) 315
Record Time       2024/04/02 04:24:56
Sampling Freq(Hz) 100Hz
Duration Time(s)  111
Dir.              N-S
Scale Factor      7845(gal)/8223790
Max. Acc. (gal)   5.062
Last Correction   2024/04/02 04:24:56
Memo.             
[...]
    2069     2070     2072     2072     2070     2070     2072     2070 
    2069     2072     2072     2069     2069     2069     2070     2072 
    2072     2072     2072     2070     2069     2069     2069     2072 
    2072     2072     2074     2074     2073     2072     2072     2070 
    2070     2073     2073     2070     2069     2070     2070     2070 
    2072     2070     2070     2072     2069     2069     2073     2072 
    2069     2072     2072     2072     2072     2070     2068     2069 
    2070     2070     2070     2072     2072     2070     2070     2072 
    2073     2073     2070     2070     2072     2072     2070     2072 
    2072     2072     2073     2072     2072     2073     2072     2069 
    2070     2073     2073     2072     2072     2073     2072     2072 
    2073     2073     2069     2069     2070     2069     2070     2073 
    2069     2070     2074     2074     2073     2074     2073     2070 
    2070     2070     2070     2070     2072     2074     2072     2072 
    2072     2070     2070     2072     2072     2072     2070     2070 
    2070     2072     2073     2073     2072     2072     2072     2070 
    2069     2069     2070     2072     2070     2070     2070     2072 
    2070     2072     2072     2070     2070     2072     2069     2070 
    2072     2072     2073     2073     2072     2070     2070     2072 
    2073     2072     2070     2070     2069     2070     2070     2070 
    2069     2069     2072     2072     2070     2070     2072     2072 
    2070     2070     2072     2073     2073     2072     2073     2073 
    2070     2069     2072     2073     2069     2068     2070     2070 
    2072     2072     2072     2072     2073     2073     2073     2072 
    2070     2070     2070     2073     2073     2072     2072     2070 
    2070     2072     2072     2074     2073     2070     2069     2070 
    2072     2072     2072     2073     2073     2072     2069     2070 
    2072     2072     2070     2070     2072     2074     2073     2072 
    2073     2073     2070     2069     2072     2072     2070     2070 
    2072     2070     2070     2072     2070     2069     2070     2070 
    2070     2069     2070     2072     2072     2070     2068     2068 
    2072     2072     2072     2072     2072     2072     2070     2069 
    2069     2070     2070     2070     2070     2070     2070     2070 
    2072     2073     2072     2072     2072     2072     2073     2072 
    2069     2068     2070     2073     2073     2070     2070     2072 
    2070     2068     2068     2070     2072     2069     2070     2072 
    2070     2070     2070     2070     2070     2072     2072     2072 
    2070     2069     2072     2073     2072     2072     2070     2069 
    2073     2070     2068     2070     2072     2069     2069     2068 
    2068     2070     2072     2070     2069     2069     2070     2070 
    2069     2069     2070     2070     2069     2072     2070     2068 
    2072     2073     2070     2069     2070     2070     2070     2070 
    2070     2072     2073     2070     2069     2070     2070     2072 
    2074     2073     2072     2073     2073     2072     2072     2073 
    2070     2069     2072     2073     2070     2072     2074     2073 
    2070     2070     2070     2070     2070     2072     2072     2070 
    2069     2069     2070     2072     2070     2070     2072     2073 
    2069     2069     2072     2070     2069     2069     2069     2072 
    2070     2069     2070     2070     2070     2069     2069     2069 
    2070     2070     2068     2068     2069     2072     2070     2069 
    2072     2072     2069     2069     2072     2069     2069     2073 
    2073     2070     2070     2070     2070     2070     2070     2070 
    2070     2070     2069     2070     2069     2066     2068     2069 
    2068     2066     2070     2072     2070     2072     2073     2072 
    2072     2072     2073     2072     2068     2069     2070     2070 
    2070     2070     2070     2072     2070     2068     2069     2070 
    2070     2070     2072     2072     2070     2069     2069     2070 
    2072     2073     2073     2072     2069     2072     2072     2069 
    2070     2072     2070     2069     2069     2070     2072     2072 
    2070     2070     2072     2070     2069     2070     2072     2070 
    2069     2070     2072     2070     2069     2069     2070     2072 
    2072     2072     2073     2072     2070     2072     2073     2072 
    2070     2070     2070     2072     2070     2070     2072     2069 
    2068     2070     2070     2069     2069     2070     2072     2073 
    2072     2070     2073     2072     2069     2072     2073     2072 
    2070     2069     2069     2072     2073     2072     2072     2073 
    2072     2070     2069     2069     2072     2074     2070     2069 
    2072     2073     2070     2070     2072     2070     2074     2076 
    2070     2069     2072     2069     2068     2070     2072     2070 
    2070     2072     2072     2072     2072     2072     2070     2070 
    2072     2073     2072     2072     2073     2072     2070     2072 
    2072     2070     2073     2072     2068     2069     2073     2072 
    2072     2072     2072     2070     2072     2072     2072     2072 
    2070     2072     2072     2072     2073     2073     2070     2070 
    2070     2070     2072     2072     2070     2072     2073     2073 
    2070     2072     2073     2070     2069     2073     2073     2070 
    2070     2072     2069     2069     2072     2072     2072     2074 
    2070     2068     2070     2072     2070     2069     2072     2074 
    2073     2072     2069     2069     2073     2073     2070     2072 
    2073     2072     2073     2073     2070     2070     2070     2070 
    2072     2073     2072     2072     2072     2070     2072     2073 
    2073     2073     2074     2073     2072     2072     2072     2073 
    2073     2072     2070     2070     2072     2073     2072     2070 
    2072     2073     2073     2072     2069     2069     2069     2070 
    2072     2070     2069     2072     2073     2070     2072     2073 
    2073     2074     2073     2070     2072     2070     2070     2070 
    2070     2070     2072     2070     2070     2070     2070     2069 
    2070     2072     2069     2070     2070     2069     2070     2070 
    2069     2069     2070     2072     2072     2073     2072     2072 
    2072     2072     2070     2069     2069     2072     2072     2070 
    2072     2070     2069     2069     2070     2072     2073     2072 
    2070     2072     2072     2070     2073     2073     2070     2070 
    2070     2069     2070     2072     2070     2070     2072     2072 
    2072     2069     2072     2074     2073     2070     2070     2069 
    2069     2070     2072     2073     2070     2072     2073     2069 
    2069     2072     2069     2068     2070     2069     2070     2072 
    2073     2070     2069     2070     2070     2070     2070     2072 
    2073     2072     2069     2070     2073     2072     2070     2070 
    2070     2070     2069     2070     2072     2072     2072     2070 
    2069     2070     2069     2070     2073     2072     2070     2072 
    2070     2070     2073     2072     2072     2073     2072     2072 
    2072     2070     2069     2069     2070     2072     2072     2070 
    2070     2072     2072     2072     2072     2073     2072     2070 
    2070     2070     2072     2072     2070     2072     2073     2070 
    2069     2070     2069     2069     2070     2072     2070     2072 
    2072     2070     2069     2070     2073     2074     2073     2072 
    2070     2070     2072     2070     2069     2072     2072     2070 
    2070     2070     2070     2072     2073     2072     2072     2072 
    2070     2070     2070     2070     2070     2072     2073     2072 
    2072     2069     2068     2070     2072     2070     2069     2069 
    2068     2066     2068     2068     2066     2068     2070     2072 
    2070     2069     2068     2069     2070     2070     2070     2070 
    2069     2070     2073     2070     2070     2073     2070     2072 
    2073     2070     2072     2072     2069     2070     2070     2068 
    2068     2070     2072     2072     2072     2069     2069     2069 
    2072     2070     2070     2070     2072     2072     2070     2069 
    2069     2068     2070     2070     2069     2069     2070     2070 
    2070     2072     2072     2070     2070     2072     2072     2070 
    2072     2072     2070     2070     2072     2070     2070     2070 
    2072     2073     2072     2069     2070     2072     2070     2072 
    2073     2070     2069     2072     2070     2070     2070     2069 
    2072     2073     2070     2069     2070     2072     2072     2072 
    2072     2070     2070     2070     2072     2072     2070     2069 
    2070     2072     2072     2072     2072     2072     2072     2074 
    2073     2070     2070     2070     2072     2072     2070     2068 
    2070     2072     2069     2070     2070     2070     2070     2072 
    2070     2070     2070     2072     2070     2069     2070     2070 
    2070     2072     2072     2073     2072     2070     2069     2072 
    2070     2068     2069     2072     2070     2072     2073     2069 
    2068     2070     2072     2068     2069     2072     2069     2070 
    2072     2070     2069     2070     2072     2070     2069     2070 
    2070     2070     2070     2070     2072     2073     2070     2069 
    2073     2073     2072     2072     2072     2070     2070     2070 
    2069     2070     2070     2070     2070     2070     2070     2070 
    2072     2072     2069     2069     2069     2069     2072     2072 
    2072     2070     2068     2069     2070     2068     2070     2072 
    2070     2070     2072     2072     2070     2073     2073     2069 
    2070     2073     2069     2068     2072     2070     2068     2072 
    2072     2069     2070     2073     2073     2074     2077     2079 
    2080     2080     2080     2081     2079     2072     2064     2050 
    2037     2026     2018     2016     2020     2023     2026     2035 
    2052     2068     2077     2068     2035     1998     1983     1999 
    2035     2068     2070     2034     1979     1934     1918     1937 
    1980     2031     2053     2018     1930     1813     1694     1593 
    1525     1513     1574     1698     1856     2015     2145     2224 
    2238     2191     2107     2026     1968     1938     1923     1915 
    1911     1929     1977     2041     2091     2131     2208     2347 
    2493     2528     2371     2023     1575     1162      927      953 
    1240     1709     2234     2697     3045     3298     3487     3592 
    3532     3222     2679     2058     1568     1355     1445     1748 
    2122     2455     2700     2871     3017     3126     3076     2736 
    2104     1310      521      -97     -406     -372      -28      600 
    1443     2344     3152     3766     4158     4305     4151     3654 
    2866     1962     1186      747      793     1381     2403     3577 
    4583     5224     5439     5267     4818     4170     3329     2322 
    1247      252     -476     -730     -419      314     1205     2034 
    2709     3203     3473     3406     2876     1894      704     -314 
    -866     -816     -210      761     1879     2930     3724     4175 
    4306     4133     3640     2874     1979     1117      391     -117 
    -288      -16      626     1393     1992     2181     1962     1559 
    1109      680      376      294      441      747     1144     1630 
    2261     3046     3867     4476     4625     4291     3640     2836 
    2062     1505     1260     1213     1090      866      768      963 
    1480     2123     2589     2790     2886     3024     3221     3438 
    3616     3732     3690     3416     3090     2906     2976     3310 
    3663     3800     3750     3570     3215     2770     2401     2203 
    2207     2201     1995     1733     1572     1579     1742     1896 
    1972     2111     2251     2168     1895     1452      896      394 
    -198     -955    -1556    -1718    -1372     -722     -122      345 
     862     1522     2363     3256     3877     4214     4322     4093 
    3744     3447     3002     2361     1587      764      205       89 
     324      859     1530     2166     2828     3399     3636     3541 
    3149     2566     2116     1917     1890     2057     2185     2054 
    1861     1734     1707     1863     2027     2053     2112     2316 
    2532     2670     2652     2423     2056     1471      691        2 
    -488     -642     -299      244      764     1389     2070     2623 
    2936     2911     2668     2436     2243     2099     2077     2204 
    2554     3094     3612     4025     4297     4244     3823     3279 
    2975     3168     3805     4499     4869     4873     4653     4328 
    3947     3443     2825     2177     1530      953      440       32 
    -103       83      423      770     1132     1448     1634     1630 
    1345      982      897     1188     1836     2748     3694     4584 
    5351     5643     5302     4675     3946     3055     1988      754 
    -395     -997     -862     -164      742     1425     1711     1674 
    1258      519     -282    -1024    -1717    -2381    -2862    -2933 
   -2490    -1447      132     1890     3503     5019     6438     7311 
    7377     6708     5475     4168     3152     2424     2073     2097 
    2234     2273     2039     1405      819      878     1490     2344 
    3056     3103     2467     1493      561      102      299      965 
    1678     2074     2130     2170     2436     2725     2926     3192 
    3485     3867     4492     5103     5413     5454     5263     4781 
    4044     3287     2748     2390     1975     1296      248    -1057 
   -2209    -2907    -3114    -2820    -2166    -1312     -302      585 
    1154     1551     1817     2004     2371     2926     3483     3985 
    4234     4028     3654     3510     3692     4143     4634     4896 
    4928     4828     4623     4314     3823     3059     1995      700 
    -602    -1579    -2041    -1962    -1448     -749      128     1290 
    2485     3474     4089     4082     3700     3272     2754     2339 
    2227     2223     2295     2567     3021     3659     4378     4780 
    4591     3828     2635     1433      562      -60     -480     -783 
   -1132    -1436    -1678    -1763    -1379     -638      224     1169 
    1879     2216     2484     2673     2652     2504     2151     1776 
    1802     2106     2469     2920     3281     3539     3839     3921 
    3724     3555     3372     3183     3134     3009     2798     2633 
    2274     1780     1421     1206     1381     1983     2470     2520 
    2181     1629     1237     1174     1343     1791     2376     2859 
    3272     3601     3997     4750     5641     6280     6597     6444 
    5725     4698     3392     1827      525     -324     -785     -733 
    -384       33      472      561      167     -380     -714     -506 
     225     1004     1540     1957     2334     2668     2899     2986 
    3087     3249     3365     3384     3184     2733     2281     1945 
    1586     1282     1237     1437     1791     2070     2008     1580 
     880      202     -117      -95      179      649     1034     1143 
    1093     1030     1113     1476     2010     2554     2924     2984 
    2894     2810     2655     2443     2332     2282     2189     2073 
    1902     1675     1607     1939     2629     3330     3775     3905 
    3676     3183     2613     2010     1444      980      525      113 
     -95     -141      -85      125      491     1073     1995     3063 
    3834     4175     4155     3758     3061     2238     1479     1065 
    1171     1723     2465     3157     3712     4098     4293     4299 
    4086     3576     2770     1782      835      209      -12      128 
     558     1077     1545     1906     2104     2254     2539     2971 
    3362     3568     3550     3306     2972     2710     2531     2430 
    2465     2694     3072     3388     3478     3376     3095     2604 
    2069     1779     1867     2319     2997     3657     4114     4232 
    3870     3102     2104     1028      136     -353     -452     -302 
       4      419      835     1264     1736     2207     2712     3203 
    3442     3190     2479     1579      781      338      336      693 
    1236     1752     2169     2493     2794     3211     3707     4117 
    4233     3846     2947     1746      576     -317     -789     -777 
    -418       24      348      561      784     1071     1468     1841 
    1948     1891     1888     1914     1956     2060     2307     2830 
    3593     4437     5096     5247     4872     4185     3360     2500 
    1800     1391     1161     1028      969      966     1080     1256 
    1383     1389     1254     1128     1082      962      700      398 
     178      184      380      531      761     1341     2151     3009 
    3740     4158     4322     4226     3759     3049     2290     1626 
    1202     1019      978     1008     1055     1112     1233     1459 
    1786     2209     2610     2878     3134     3434     3673     3669 
    3195     2498     2016     1769     1815     2199     2652     3115 
    3577     3758     3658     3527     3464     3577     3904     4172 
    4171     3955     3582     3091     2551     2002     1544     1224 
     961      841      945     1129     1212     1135     1028     1108 
    1429     1861     2150     2119     1921     1765     1621     1467 
    1360     1232     1123     1125     1082      966     1028     1344 
    1829     2354     2704     2821     2845     2829     2799     2754 
    2552     2241     2006     1764     1625     1818     2033     2104 
    2208     2239     2134     2010     1929     1857     1718     1467 
    1082      680      429      387      614     1067     1607     2145 
    2542     2695     2689     2613     2451     2191     1885     1586 
    1302     1136     1152     1247     1490     2003     2637     3280 
    3809     3958     3719     3302     2829     2363     1989     1765 
    1723     1864     2120     2394     2587     2704     2744     2744 
    2817     2903     2949     3036     3080     2968     2664     2230 
    1796     1503     1458     1563     1776     2104     2363     2516 
    2547     2371     2118     1863     1702     1755     1906     2101 
    2323     2440     2376     2085     1552      900      324      -74 
    -180       78      607     1420     2459     3258     3424     3028 
    2313     1653     1420     1575     1849     2092     2150     1957 
    1644     1335     1252     1532     1896     2142     2207     2037 
    1937     2074     2263     2481     2756     3005     3129     3056 
    2783     2423     2047     1495      824      332       36       47 
     523     1258     2087     3018     3921     4571     4812     4648 
    4237     3735     3226     2806     2436     2133     2069     2209 
    2416     2582     2552     2269     1768     1127      588      372 
     457      757     1198     1626     1942     2269     2650     2867 
    2874     2744     2470     2153     1811     1490     1455     1730 
