Origin Time       2024/04/02 04:24:00
Lat.              40.133
Long.             141.712
Depth. (km)       71
Mag.              6.0
Station Code      AKT023
Station Lat.      39.1464
Station Long.     140.7161
Station Height(m) 277
Record Time       2024/04/02 04:25:00
Sampling Freq(Hz) 100Hz
Duration Time(s)  97
Dir.              E-W
Scale Factor      7845(gal)/8223790
Max. Acc. (gal)   7.795
Last Correction   2024/04/02 04:25:00
Memo.             
[...]
  -25623   -25289   -25110   -25421   -26013   -26491   -26501   -25859 
  -24903   -24320   -24336   -24467   -24227   -23770   -23608   -23954 
  -24556   -25022   -25201   -25296   -25400   -25145   -24378   -23615 
  -23261   -23198   -23371   -23896   -24640   -25272   -25641   -25839 
  -26040   -26304   -26423   -26196   -25897   -26046   -26550   -26676 
  -26102   -25282   -24723   -24582   -24734   -24892   -24896   -24900 
  -25022   -25173   -25280   -25400   -25616   -25806   -25790   -25662 
  -25548   -25303   -24790   -24120   -23599   -23464   -23583   -23666 
  -23754   -24050   -24567   -25185   -25775   -26185   -26358   -26322 
  -26046   -25593   -25282   -25393   -25863   -26458   -26813   -26545 
  -25929   -25755   -26087   -26316   -26341   -26434   -26495   -26312 
  -25925   -25517   -25323   -25320   -25159   -24822   -24707   -24852 
  -24865   -24610   -24205   -23696   -23229   -23055   -23202   -23595 
  -24301   -25201   -25829   -25941   -25785   -25562   -25303   -25212 
  -25371   -25400   -25023   -24522   -24240   -24109   -24003   -24082 
  -24402   -24646   -24664   -24679   -24814   -25054   -25432   -25828 
  -25988   -25859   -25609   -25471   -25609   -25928   -26096   -25837 
  -25200   -24544   -24233   -24366   -24664   -24749   -24509   -24067 
  -23697   -23773   -24327   -24880   -25078   -25130   -25339   -25640 
  -25861   -25949   -25847   -25516   -25018   -24540   -24328   -24395 
  -24565   -24736   -24872   -25024   -25350   -25852   -26306   -26599 
  -26855   -27066   -27016   -26696   -26262   -25708   -25112   -24829 
  -24948   -25087   -25026   -24969   -24950   -24725   -24402   -24385 
  -24655   -24791   -24615   -24370   -24409   -24772   -25027   -24857 
  -24576   -24632   -25002   -25347   -25434   -25365   -25424   -25590 
  -25524   -25196   -25027   -25164   -25238   -25035   -24880   -25143 
  -25633   -25793   -25532   -25281   -25238   -25269   -25303   -25278 
  -25180   -25165   -25222   -25177   -25168   -25416   -25706   -25655 
  -25293   -25033   -25058   -25080   -24823   -24505   -24440   -24552 
  -24660   -24754   -24775   -24661   -24548   -24632   -24997   -25461 
  -25713   -25712   -25640   -25639   -25737   -25744   -25506   -25253 
  -25223   -25342   -25469   -25590   -25780   -25995   -25937   -25371 
  -24529   -23970   -23978   -24255   -24441   -24518   -24534   -24526 
  -24632   -24894   -25208   -25533   -25818   -25893   -25749   -25606 
  -25535   -25353   -24930   -24354   -23831   -23577   -23747   -24240 
  -24680   -24865   -24906   -24898   -24887   -24996   -25228   -25436 
  -25524   -25405   -25180   -25209   -25431   -25324   -24899   -24646 
  -24595   -24576   -24850   -25548   -26150   -26187   -25852   -25551 
  -25392   -25357   -25411   -25381   -25166   -24903   -24765   -24864 
  -25197   -25560   -25736   -25709   -25529   -25254   -25000   -24877 
  -24926   -24977   -24768   -24435   -24397   -24738   -25226   -25544 
  -25402   -24968   -24868   -25278   -25666   -25633   -25413   -25326 
  -25261   -25097   -25070   -25297   -25504   -25380   -24941   -24648 
  -24872   -25209   -24997   -24398   -24124   -24378   -24842   -25311 
  -25635   -25558   -25155   -24919   -25054   -25235   -25182   -25014 
  -24984   -25155   -25398   -25569   -25586   -25512   -25494   -25448 
  -25188   -24860   -24730   -24825   -24991   -25114   -25231   -25312 
  -25170   -24939   -24968   -25215   -25546   -26052   -26524   -26476 
  -25895   -25319   -25145   -25359   -25751   -25994   -25802   -25330 
  -25092   -25348   -25863   -26277   -26410   -26230   -25826   -25365 
  -24999   -24776   -24587   -24345   -24173   -24170   -24260   -24378 
  -24493   -24521   -24521   -24667   -24926   -25108   -25139   -25073 
  -25033   -25069   -24991   -24660   -24336   -24231   -24159   -23989 
  -23953   -24217   -24615   -24912   -25041   -25080   -25185   -25412 
  -25610   -25577   -25340   -25146   -25128   -25238   -25424   -25641 
  -25724   -25529   -25192   -25004   -25053   -25185   -25215   -25062 
  -24821   -24651   -24660   -24856   -25085   -25189   -25174   -25010 
  -24641   -24298   -24352   -24833   -25327   -25466   -25307   -25099 
  -24980   -24954   -24896   -24823   -24980   -25320   -25465   -25378 
  -25413   -25706   -26038   -26177   -26071   -25809   -25556   -25423 
  -25327   -25174   -25054   -25095   -25240   -25292   -25189   -25124 
  -25119   -24956   -24744   -24800   -24969   -24952   -24852   -24733 
  -24451   -24259   -24529   -24956   -25033   -24852   -24722   -24682 
  -24727   -24949   -25350   -25739   -25897   -25856   -25708   -25409 
  -25085   -24954   -24973   -24976   -24945   -24935   -24981   -25111 
  -25299   -25442   -25447   -25340   -25224   -25155   -25178   -25343 
  -25594   -25798   -25887   -25848   -25695   -25474   -25201   -24949 
  -24867   -24941   -24988   -24983   -25004   -25037   -25046   -25056 
  -25080   -25127   -25249   -25421   -25521   -25394   -25019   -24752 
  -25026   -25651   -26036   -25992   -25778   -25639   -25587   -25455 
  -25227   -25126   -25236   -25357   -25326   -25178   -24958   -24686 
  -24462   -24354   -24332   -24416   -24642   -24883   -24987   -25103 
  -25388   -25613   -25492   -25139   -24934   -25061   -25328   -25504 
  -25614   -25655   -25467   -25041   -24567   -24286   -24345   -24610 
  -24784   -24765   -24652   -24598   -24769   -25174   -25513   -25452 
  -25053   -24736   -24723   -24831   -24865   -24880   -24991   -25130 
  -25165   -25186   -25336   -25425   -25263   -25066   -25033   -25030 
  -24939   -24808   -24740   -24845   -25114   -25304   -25207   -24989 
  -24965   -25022   -24829   -24533   -24526   -24800   -25074   -25150 
  -24999   -24860   -25007   -25327   -25537   -25608   -25695   -25915 
  -26187   -26199   -25841   -25482   -25419   -25394   -25033   -24482 
  -24221   -24399   -24790   -25178   -25462   -25560   -25504   -25432 
  -25427   -25473   -25577   -25651   -25494   -25097   -24702   -24549 
  -24744   -25123   -25294   -25151   -25047   -25137   -25180   -25142 
  -25107   -24965   -24884   -25222   -25690   -25713   -25343   -24975 
  -24723   -24595   -24710   -24987   -25115   -25056   -24987   -24942 
  -24976   -25153   -25336   -25452   -25494   -25367   -25123   -25039 
  -25288   -25663   -25766   -25536   -25300   -25272   -25347   -25334 
  -25096   -24686   -24416   -24506   -24719   -24686   -24424   -24271 
  -24417   -24768   -25199   -25590   -25752   -25660   -25602   -25814 
  -26072   -25984   -25606   -25284   -25077   -24834   -24598   -24533 
  -24624   -24745   -24884   -24977   -24965   -25027   -25226   -25326 
  -25307   -25347   -25354   -25184   -24980   -24927   -24996   -25027 
  -24895   -24667   -24676   -25069   -25512   -25736   -25828   -25813 
  -25643   -25496   -25563   -25733   -25786   -25701   -25524   -25235 
  -24934   -24734   -24582   -24493   -24572   -24767   -24948   -25078 
  -25162   -25191   -25162   -25056   -24834   -24547   -24325   -24231 
  -24217   -24227   -24286   -24478   -24776   -25072   -25278   -25324 
  -25234   -25135   -25111   -25212   -25401   -25474   -25332   -25132 
  -25076   -25270   -25569   -25666   -25508   -25323   -25176   -24962 
  -24788   -24861   -25022   -24950   -24736   -24664   -24829   -25232 
  -25749   -25999   -25806   -25459   -25230   -25069   -24983   -25122 
  -25370   -25397   -25128   -24796   -24691   -24985   -25520   -25884 
  -25897   -25816   -25982   -26362   -26512   -26133   -25550   -25262 
  -25224   -25103   -24902   -24768   -24706   -24695   -24710   -24691 
  -24645   -24668   -24803   -24972   -25041   -24952   -24817   -24787 
  -24804   -24760   -24802   -25103   -25508   -25693   -25596   -25465 
  -25413   -25278   -25065   -24991   -25097   -25259   -25370   -25332 
  -25155   -24989   -24930   -24952   -25033   -25130   -25073   -24719 
  -24251   -24144   -24602   -25192   -25420   -25273   -24952   -24609 
  -24444   -24641   -25145   -25567   -25509   -25153   -25027   -25204 
  -25293   -25116   -24968   -25135   -25398   -25443   -25398   -25362 
  -25091   -24628   -24441   -24727   -25254   -25708   -25797   -25465 
  -25203   -25404   -25689   -25542   -25023   -24605   -24640   -24973 
  -25154   -25029   -24792   -24663   -24717   -24796   -24719   -24692 
  -24964   -25296   -25405   -25397   -25409   -25444   -25540   -25686 
  -25775   -25785   -25740   -25606   -25442   -25385   -25366   -25172 
  -24783   -24430   -24393   -24698   -25012   -25099   -25178   -25398 
  -25516   -25478   -25556   -25729   -25682   -25374   -25056   -24880 
  -24891   -25100   -25296   -25164   -24784   -24628   -24898   -25243 
  -25336   -25300   -25338   -25373   -25327   -25332   -25486   -25662 
  -25691   -25582   -25361   -24949   -24474   -24251   -24337   -24521 
  -24652   -24727   -24844   -25019   -25126   -25146   -25203   -25253 
  -25165   -25039   -25046   -25204   -25384   -25348   -25020   -24671 
  -24553   -24614   -24680   -24765   -25002   -25321   -25555   -25717 
  -25805   -25722   -25627   -25705   -25766   -25617   -25423   -25321 
  -25207   -24966   -24625   -24322   -24247   -24378   -24448   -24370 
  -24395   -24641   -24892   -25024   -25128   -25220   -25320   -25483 
  -25571   -25490   -25470   -25596   -25550   -25159   -24749   -24750 
  -25122   -25386   -25281   -25035   -24999   -25188   -25348   -25386 
  -25389   -25313   -25107   -24943   -24962   -25066   -25166   -25270 
  -25301   -25192   -25099   -25146   -25097   -24775   -24439   -24314 
  -24212   -24048   -24140   -24553   -24907   -25228   -25866   -26457 
  -26384   -25906   -25648   -25623   -25500   -25262   -25141   -25180 
  -25296   -25456   -25539   -25396   -25115   -24908   -24838   -24757 
  -24572   -24435   -24495   -24678   -24850   -24957   -24983   -24966 
  -24956   -24942   -24981   -25147   -25323   -25381   -25382   -25370 
  -25378   -25489   -25544   -25305   -24926   -24715   -24672   -24691 
  -24887   -25346   -25820   -25925   -25596   -25153   -24957   -25038 
  -25200   -25355   -25540   -25732   -25802   -25651   -25382   -25247 
  -25312   -25386   -25267   -24948   -24667   -24682   -24919   -25077 
  -25093   -25124   -25122   -25022   -25084   -25351   -25385   -25089 
  -24848   -24732   -24584   -24505   -24584   -24760   -24983   -25103 
  -25014   -24911   -24991   -25174   -25307   -25245   -24976   -24822 
  -25077   -25470   -25575   -25440   -25316   -25191   -24970   -24682 
  -24374   -24165   -24246   -24603   -24965   -25138   -25099   -24854 
  -24545   -24453   -24661   -24927   -25022   -24973   -24900   -24899 
  -25073   -25412   -25729   -25849   -25726   -25500   -25415   -25547 
  -25705   -25677   -25442   -25151   -24975   -24975   -25110   -25263 
  -25324   -25293   -25205   -25070   -25031   -25199   -25392   -25486 
  -25570   -25590   -25515   -25570   -25837   -26046   -26077   -26073 
  -25992   -25670   -25208   -24821   -24621   -24613   -24690   -24807 
  -24989   -25089   -25045   -25178   -25586   -25825   -25689   -25380 
  -25014   -24779   -24939   -25308   -25440   -25284   -25115   -25047 
  -24953   -24754   -24576   -24607   -24833   -24930   -24753   -24696 
  -24983   -25188   -25073   -24976   -25114   -25363   -25589   -25694 
  -25593   -25343   -25172   -25176   -25240   -25297   -25336   -25280 
  -25035   -24634   -24318   -24312   -24524   -24694   -24729   -24784 
  -24943   -25072   -25147   -25251   -25321   -25343   -25428   -25506 
  -25415   -25267   -25263   -25348   -25348   -25245   -25047   -24765 
  -24632   -24891   -25404   -25967   -26526   -26805   -26549   -26109 
  -25942   -25917   -25701   -25328   -24988   -24671   -24359   -24223 
  -24358   -24669   -24993   -25108   -24954   -24880   -25222   -25817 
  -26233   -26200   -25809   -25407   -25154   -24877   -24607   -24700 
  -25228   -25690   -25628   -25281   -25191   -25370   -25461   -25388 
  -25309   -25267   -25308   -25504   -25644   -25435   -25006   -24611 
  -24240   -23963   -24024   -24372   -24710   -24964   -25343   -25968 
  -26646   -26975   -26793   -26495   -26465   -26437   -26075   -25635 
  -25389   -25213   -25046   -24954   -24960   -25153   -25479   -25614 
  -25527   -25493   -25532   -25485   -25405   -25394   -25396   -25409 
  -25562   -25851   -26121   -26225   -26142   -26049   -26122   -26291 
  -26383   -26339   -26204   -26071   -26036   -26037   -25928   -25756 
  -25725   -25886   -26056   -26068   -26030   -26154   -26442   -26750 
  -26973   -26968   -26609   -26013   -25438   -25014   -24777   -24715 
  -24598   -24241   -23931   -23981   -24152   -24142   -24098   -24266 
  -24513   -24484   -24124   -23784   -23635   -23458   -23156   -22883 
  -22705   -22584   -22465   -22222   -21856   -21575   -21479   -21432 
  -21298   -21066   -20839   -20719   -20652   -20565   -20451   -20295 
  -20223   -20470   -21007   -21467   -21636   -21779   -22173   -22576 
  -22617   -22337   -22096   -22175   -22464   -22611   -22561   -22588 
  -22806   -23089   -23398   -23785   -24293   -25002   -25806   -26314 
  -26427   -26512   -26784   -27191   -27773   -28545   -29276   -29667 
  -29687   -29670   -29949   -30485   -31045   -31467   -31600   -31325 
  -30758   -30160   -29548   -28732   -27770   -26940   -26350   -26050 
  -26104   -26338   -26481   -26630   -27133   -28046   -29134   -30302 
  -31507   -32436   -32737   -32262   -30901   -28756   -26430   -24524 
  -22962   -21267   -19377   -17813   -17047   -16961   -17053   -17205 
  -17905   -19526   -21817   -24015   -25388   -25936   -26190   -26383 
  -26416   -26208   -25729   -25077   -24387   -23746   -23283   -22967 
  -22669   -22455   -22266   -21871   -21357   -21074   -21294   -22113 
  -23438   -25045   -26651   -28054   -29255   -30276   -31050   -31529 
  -31606   -31051   -29739   -27853   -25878   -24340   -23511   -23352 
  -23642   -24038   -24177   -24008   -23733   -23368   -22904   -22708 
  -23175   -24193   -25385   -26528   -27525   -28259   -28599   -28490 
  -28100   -27734   -27654   -27959   -28401   -28530   -28251   -27885 
  -27623   -27275   -26642   -25732   -24439   -22644   -20871   -19832 
  -19477   -19373   -19350   -19322   -19353   -19780   -20686   -21748 
  -22689   -23503   -24347   -25257   -25983   -26127   -25652   -25089 
  -24926   -25058   -25145   -24972   -24394   -23562   -23074   -23395 
  -24443   -26002   -27905   -29544   -30036   -29362   -28431   -27769 
  -27170   -26406   -25456   -24494   -23881   -23769   -23835   -23685 
  -23334   -23053   -22755   -22135   -21516   -21523   -22088   -22758 
  -23355   -23804   -24159   -24609   -24984   -25050   -25018   -24930 
  -24499   -24027   -24260   -25324   -26609   -27596   -28364   -29128 
  -29582   -29223   -28267   -27577   -27594   -27959   -28212   -28274 
  -28094   -27486   -26630   -26041   -25894   -25982   -26157   -26302 
  -26296   -26218   -26207   -26237   -26352   -26773   -27433   -27814 
  -27519   -26628   -25490   -24564   -24189   -24305   -24656   -25085 
  -25501   -25874   -26210   -26496   -26828   -27286   -27579   -27310 
  -26643   -26164   -26052   -25959   -25647   -25147   -24480   -23689 
  -22885   -22252   -22037   -22235   -22530   -22635   -22505   -22400 
  -22655   -23213   -23747   -24109   -24282   -24275   -24185   -24151 
  -24267   -24422   -24310   -23862   -23333   -22900   -22744   -23170 
  -24117   -25046   -25473   -25436   -25385   -25505   -25478   -25027 
  -24212   -23252   -22546   -22454   -22852   -23458   -24368   -25659 
  -26892   -27622   -28031   -28588   -29430   -30329   -30893   -30743 
  -29886   -28848   -28132   -27801   -27657   -27403   -26874   -26265 
  -25714   -25068   -24416   -24013   -23635   -22852   -21838   -21199 
  -21169   -21436   -21547   -21340   -21041   -20881   -20802   -20684 
  -20709   -21055   -21440   -21466   -21251   -21255   -21807   -22917 
  -24239   -25393   -26416   -27550   -28559   -28827   -28302   -27589 
  -27022   -26433   -25810   -25385   -25174   -25064   -24954   -24621 
  -23917   -23175   -22939   -23348   -24079   -24844   -25585   -26368 
  -27321   -28412   -29201   -29191   -28274   -26757   -25249   -24391 
  -24349   -24791   -25303   -25616   -25650   -25470   -25242   -25378 
  -26187   -27198   -27739   -27765   -27488   -27229   -27460   -28104 
  -28525   -28416   -27967   -27371   -26622   -25762   -24972   -24366 
  -24024   -24027   -24152   -24017   -23560   -22999   -22454   -21871 
  -21343   -21239   -21668   -22141   -22289   -22366   -22488   -22370 
  -22225   -22585   -23309   -23873   -24151   -24339   -24633   -25087 
  -25542   -25760   -25689   -25552   -25635   -26063   -26743   -27429 
  -27912   -28080   -27926   -27650   -27517   -27569   -27594   -27307 
  -26797   -26503   -26518   -26546   -26601   -26929   -27390   -27500 
  -27078   -26500   -26090   -25743   -25424   -25282   -25189   -24889 
  -24490   -24298   -24322   -24335   -24429   -24768   -25027   -24949 
  -24818   -24776   -24592   -24225   -23872   -23643   -23664   -24075 
  -24626   -24860   -24790   -24744   -24723   -24571   -24348   -24171 
  -24048   -24028   -24146   -24225   -24084   -23851   -23761   -23861 
  -24117   -24421   -24603   -24696   -24853   -25124   -25623   -26411 
  -27116   -27328   -27160   -26885   -26443   -25663   -24605   -23618 
  -23044   -22879   -22940   -23159   -23454   -23620   -23479   -22994 
  -22303   -21616   -21153   -21139   -21629   -22459   -23410   -24268 
  -24956   -25670   -26462   -26890   -26777   -26685   -27032   -27529 
  -27835   -27942   -27873   -27616   -27207   -26700   -26223   -25974 
  -26084   -26590   -27232   -27494   -27298   -27058   -26936   -26751 
  -26455   -26244   -26269   -26485   -26794   -27051   -26923   -26314 
  -25658   -25385   -25483   -25693   -25801   -25806   -25843   -25978 
  -26075   -25887   -25478   -25267   -25510   -25948   -26083   -25732 
  -25205   -25006   -25397   -26075   -26241   -25421   -24097   -23163 
  -22999   -23330   -23688   -23777   -23514   -23039   -22775   -23053 
  -23603   -23868   -23726   -23544   -23606   -23741   -23652   -23450 
  -23446   -23630   -23799   -23942   -24229   -24737   -25277   -25586 
  -25740   -26021   -26395   -26501   -26171   -25640   -25304   -25290 
  -25358   -25263   -25069   -24945   -24984   -25204   -25417   -25255 
  -24732   -24444   -24818   -25498   -25779   -25421   -24830   -24478 
  -24417   -24564   -24900   -25211   -25274   -25240   -25347   -25497 
  -25384   -24877   -24300   -24109   -24381   -24889   -25404   -25633 
  -25377   -24788   -24173   -23710   -23379   -23025   -22688   -22621 
  -22932   -23504   -24098   -24456   -24544   -24559   -24678   -24952 
  -25278   -25473   -25496   -25438   -25394   -25567   -26149   -27075 
  -28005   -28395   -28090   -27760   -27888   -28059   -27931   -27796 
  -27820   -27629   -26952   -26211   -26030   -26347   -26465   -26007 
  -25388   -25115   -25112   -25054   -24867   -24584   -24224   -23836 
  -23456   -23120   -22970   -23143   -23562   -23927   -23986   -23838 
  -23714   -23598   -23386   -23168   -23017   -22906   -22955   -23218 
  -23395   -23338   -23423   -23943   -24582   -24841   -24695   -24514 
  -24498   -24633   -25012   -25533   -25691   -25330   -24927   -24876 
