Origin Time       2024/04/02 04:24:00
Lat.              40.133
Long.             141.712
Depth. (km)       71
Mag.              6.0
Station Code      AKT017
Station Lat.      39.2978
Station Long.     140.5621
Station Height(m) 81
Record Time       2024/04/02 04:25:01
Sampling Freq(Hz) 100Hz
Duration Time(s)  97
Dir.              E-W
Scale Factor      7845(gal)/8223790
Max. Acc. (gal)   5.196
Last Correction   2024/04/02 04:25:01
Memo.             
[...]
    1320     1633     2405     2700     2427     2138     1915     1478 
    1003      992     1485     1973     2185     2339     2575     2629 
    2249     1698     1447     1537     1767     2100     2481     2598 
    2196     1512      999      819      904     1189     1609     2108 
    2513     2533     2158     1684     1348     1337     1765     2340 
    2556     2257     1699     1281     1340     1894     2439     2412 
    1950     1671     1746     1925     2115     2307     2268     1875 
    1406     1223     1449     1956     2371     2397     2089     1675 
    1393     1493     1973     2474     2700     2685     2461     2033 
    1715     1811     2077     2131     2020     1918     1815     1823 
    2135     2493     2354     1703     1128     1040     1394     2025 
    2659     2828     2339     1736     1746     2331     2781     2647 
    2201     1965     2008     2000     1861     1861     2073     2215 
    2103     1865     1652     1493     1404     1483     1837     2268 
    2417     2303     2182     2115     1992     1858     1887     2018 
    1988     1744     1512     1499     1583     1578     1632     1887 
    2139     2189     2084     1944     1834     1722     1480     1142 
    1013     1358     2039     2582     2685     2431     1939     1325 
     924     1044     1603     2301     2783     2727     2158     1559 
    1418     1799     2361     2752     2879     2816     2529     1904 
    1213      969     1220     1644     2061     2367     2343     1948 
    1557     1514     1723     1948     2016     1818     1475     1356 
    1625     1952     1918     1593     1393     1478     1642     1763 
    1980     2296     2463     2457     2501     2601     2559     2393 
    2367     2513     2473     2025     1435     1065     1009     1156 
    1372     1567     1690     1760     1879     2054     2166     2266 
    2492     2617     2285     1615     1155     1229     1539     1647 
    1645     1962     2515     2652     2218     1864     2073     2538 
    2722     2532     2154     1744     1522     1636     1868     1934 
    1837     1752     1809     1984     2042     1729     1144      810 
    1090     1726     2282     2587     2606     2394     2131     2018 
    2196     2543     2644     2308     1864     1699     1718     1603 
    1464     1637     1971     1992     1674     1413     1437     1576 
    1599     1588     1768     2042     2047     1745     1524     1582 
    1721     1753     1652     1525     1539     1740     1980     2077 
    2091     2108     1910     1532     1485     1914     2388     2528 
    2332     2072     2019     2224     2377     2139     1821     1976 
    2390     2502     2247     1768     1171      816     1048     1629 
    1939     1823     1748     1926     1996     1775     1513     1466 
    1753     2313     2798     2843     2424     1838     1425     1408 
    1853     2620     3192     2953     1946     1001      822     1243 
    1610     1706     1826     2016     2007     1825     1790     2016 
    2331     2555     2659     2654     2509     2241     1954     1742 
    1622     1647     1791     1852     1729     1611     1732     2042 
    2280     2208     1804     1363     1310     1663     1979     1944 
    1698     1529     1453     1302     1182     1363     1764     2108 
    2328     2458     2432     2145     1680     1394     1552     2012 
    2443     2662     2625     2331     1902     1649     1767     2085 
    2344     2419     2331     2219     2122     2025     2023     2066 
    1981     1811     1798     1999     2123     1917     1582     1568 
    2012     2570     2759     2446     1988     1788     1833     1954 
    2188     2489     2582     2363     2087     1981     2004     2107 
    2338     2548     2455     2046     1621     1428     1539     1954 
    2571     2970     2609     1551      519      186      633     1503 
    2386     2924     2843     2160     1213      626      916     1833 
    2578     2720     2455     2128     1944     2019     2300     2488 
    2389     2170     1995     1721     1390     1370     1637     1729 
    1521     1368     1456     1593     1642     1729     2002     2326 
    2317     1834     1212      907     1080     1555     2014     2157 
    1962     1780     1881     2119     2250     2191     1922     1497 
    1210     1378     1818     2010     1783     1467     1455     1795 
    2176     2282     2083     1850     1863     2077     2289     2407 
    2397     2227     1865     1422     1273     1640     2196     2430 
    2219     1763     1217      749      672     1158     1949     2556 
    2656     2277     1714     1263     1112     1417     2042     2471 
    2434     2141     1783     1428     1212     1306     1725     2243 
    2586     2560     2106     1472     1138     1412     2157     2847 
    2974     2548     2056     1875     1948     2122     2388     2619 
    2543     2166     1872     1891     1968     1763     1381     1293 
    1723     2311     2593     2536     2363     2112     1738     1485 
    1614     1961     2236     2430     2512     2280     1772     1410 
    1456     1672     1803     1937     2181     2401     2328     1885 
    1452     1456     1833     2308     2741     2944     2708     2154 
    1732     1703     1926     2169     2214     1844     1206      845 
    1086     1624     1840     1539     1128     1085     1495     2085 
    2552     2655     2223     1463     1011     1200     1668     1953 
    1987     1883     1659     1379     1364     1914     2797     3280 
    2902     2034     1394     1274     1493     1780     2033     2246 
    2301     2150     2066     2234     2432     2435     2349     2278 
    2081     1753     1642     1933     2307     2303     1790     1101 
     751     1016     1667     2191     2377     2373     2259     2045 
    1900     1946     2080     2303     2725     3119     3010     2316 
    1518     1148     1301     1692     1962     1958     1844     1830 
    1929     1989     1929     1837     1842     1922     1960     1925 
    1871     1784     1583     1414     1603     2096     2423     2218 
    1584      984      746      951     1614     2539     3184     3048 
    2299     1776     1933     2365     2627     2573     2196     1794 
    1736     1896     1896     1710     1591     1628     1733     1790 
    1605     1162      895     1205     1900     2478     2698     2627 
    2462     2474     2690     2702     2281     1831     1794     1946 
    1765     1291     1059     1289     1718     1985     1914     1647 
    1355     1070     1021     1520     2315     2693     2434     2000 
    1767     1709     1679     1574     1447     1448     1606     1765 
    1846     1942     1999     1853     1652     1723     2016     2182 
    2158     2146     2130     1891     1557     1521     1690     1629 
    1402     1493     2007     2407     2133     1387      897     1020 
    1553     2274     3053     3396     2776     1588      881     1146 
    1976     2675     2760     2241     1667     1549     1877     2408 
    2898     3025     2677     2224     2015     1867     1530     1305 
    1532     1927     2069     1972     1877     1976     2255     2425 
    2251     1821     1395     1293     1760     2587     3063     2731 
    2093     1912     2110     2092     1788     1606     1657     1707 
    1740     1854     1803     1375      966     1202     2073     2933 
    3248     2913     2149     1449     1246     1530     1945     2187 
    2209     2039     1721     1429     1341     1444     1567     1537 
    1337     1147     1169     1493     2099     2728     2926     2542 
    2008     1850     2042     2209     2288     2473     2693     2647 
    2245     1786     1570     1525     1539     1706     2002     2184 
    2093     1854     1769     1898     2023     2145     2382     2498 
    2246     1860     1680     1718     1838     1946     1900     1692 
    1609     1837     2150     2189     1949     1730     1575     1409 
    1541     2103     2555     2516     2296     2201     2038     1687 
    1433     1425     1513     1613     1802     2118     2376     2299 
    1917     1636     1767     2041     2030     1848     1822     1956 
    2041     1984     1921     1934     1857     1617     1385     1285 
    1336     1513     1703     1825     1949     2097     2141     2095 
    2133     2236     2288     2308     2293     2088     1679     1333 
    1360     1814     2396     2690     2521     2039     1507     1119 
    1038     1345     1826     2085     1942     1541     1162     1054 
    1304     1733     1948     1661     1181     1084     1390     1737 
    2015     2305     2627     2818     2677     2258     1830     1633 
    1795     2188     2425     2317     2057     1877     1811     1769 
    1711     1702     1745     1680     1364      912      608      556 
     619      758     1127     1663     1918     1675     1248     1053 
    1332     1991     2489     2369     1860     1593     1894     2462 
    2681     2335     1822     1564     1629     1738     1574     1163 
     811      741      955     1409     1939     2010     1374      726 
     814     1440     1873     1752     1310      904      704      816 
    1202     1668     2077     2269     2103     1809     1755     2027 
    2440     2718     2767     2673     2516     2442     2644     3134 
    3657     3870     3678     3316     3063     3082     3400     3883 
    4322     4479     4266     3858     3515     3435     3699     4159 
    4452     4268     3744     3302     3173     3353     3732     4117 
    4251     3959     3420     3019     2832     2685     2612     2817 
    3250     3499     3288     2806     2338     1946     1644     1486 
    1436     1339     1143     1012     1005      911      600      274 
     163      179      135       78      147      286      288      129 
      83      318      654      772      545      260      237      430 
     668      861      899      712      434      367      561      594 
     183     -291     -342       25      486      658      337     -257 
    -606     -415       13      153      -40     -163        8      357 
     777     1227     1555     1668     1750     1953     2107     2153 
    2428     3026     3464     3370     2992     2760     2736     2646 
    2299     1890     1858     2300     2749     2880     2859     2829 
    2739     2709     2945     3300     3370     2976     2403     2035 
    1879     1806     1954     2458     3092     3468     3434     3214 
    3150     3462     4170     5028     5562     5408     4780     4338 
    4563     5402     6280     6404     5586     4549     4074     4279 
    4684     4622     3893     2948     2222     1777     1540     1445 
    1420     1416     1439     1489     1498     1293      805      392 
     523     1166     1787     1872     1464     1065      885      772 
     734      965     1486     2045     2385     2547     2547     2100 
    1309      899     1146     1345      889      175     -159     -197 
    -344     -642     -907    -1015     -927     -722     -552     -471 
    -533     -812    -1116    -1016     -450       47       28     -294 
    -491     -380       54      606      843      629      376      587 
    1323     2208     2736     2648     2261     2172     2513     2878 
    2929     2708     2420     2276     2353     2527     2763     3190 
    3708     4058     4128     3910     3451     2924     2617     2712 
    3017     3252     3389     3522     3685     3924     4286     4590 
    4421     3672     2872     2743     3406     4309     4904     4974 
    4518     3796     3389     3735     4585     5266     5313     4610 
    3325     1985     1216     1215     1633     1985     1949     1363 
     375     -573    -1101    -1256    -1476    -2046    -2789    -3252 
   -3045    -2251    -1255     -210      735     1186     1138     1154 
    1587     2215     2664     2799     2660     2351     2096     2039 
    2115     2315     2566     2482     1914     1355     1343     1718 
    1937     1977     2178     2502     2601     2216     1377      475 
    -108     -321     -297     -210     -147        0      445     1302 
    2272     2717     2277     1264      473      569     1582     3015 
    4309     4954     4552     3280     2091     1896     2597     3245 
    3165     2563     2026     1864     2097     2605     3161     3607 
    3997     4332     4357     3901     3175     2613     2551     3002 
    3588     3716     3133     2392     2334     3068     3908     4198 
    3694     2485     1163      714     1485     2629     3090     2701 
    1995     1406     1034      849      672      186     -707    -1671 
   -2243    -2344    -2309    -2378    -2415    -2176    -1775    -1611 
   -1834    -2114    -1890     -788      939     2440     3003     2775 
    2390     2180     1993     1595     1216     1409     2247     3154 
    3554     3275     2552     2081     2641     4083     5402     5987 
    6043     6011     6039     6054     6057     5919     5440     4770 
    4237     3893     3476     2786     2047     1707     1930     2392 
    2578     2224     1404      450     -168     -176      307      859 
    1161     1254     1383     1860     2851     3859     3919     2763 
    1275      498      630     1148     1534     1525     1081      642 
     739     1221     1621     1734     1352      288    -1210    -2641 
   -3526    -3300    -1671      661     2322     2479     1463      270 
    -321     -184      359      974     1514     1837     1782     1530 
    1543     1933     2212     1853      949      201      288     1170 
    2026     2191     1846     1420     1131     1271     2015     2952 
    3334     2828     1861     1189     1306     2203     3480     4766 
    5818     6203     5494     3935     2519     2165     2917     4099 
    4959     5055     4383     3248     2185     1898     2702     4027 
    4909     4959     4580     4270     4141     4139     4129     3977 
    3917     4388     5236     5821     5738     4953     3564     1868 
     450      -68      488     1732     2917     3288     2650     1594 
     885      765      976     1174     1134      803      391      199 
     259      379      456      492      637     1115     1802     2166 
    1927     1494     1453     1787     2016     1923     1786     1881 
    1977     1618      807       55     -153      191      822     1578 
    2247     2245     1190     -166     -477      660     2289     3149 
    2801     1642      260     -758     -915     -236      650     1129 
    1139      942      595      -71    -1050    -1917    -2080    -1313 
     -44      940     1158      885      859     1385     2042     2336 
    2220     1921     1660     1688     2133     2646     2716     2394 
    2284     2794     3595     3923     3343     2072      847      592 
    1733     3620     4984     5119     4340     3420     3005     3339 
    4148     4745     4600     3896     3163     2640     2339     2262 
    2317     2357     2438     2687     2880     2679     2228     1960 
    1968     1937     1644     1305     1304     1830     2775     3646 
    3767     2884     1491      338     -330     -635     -533        2 
     627      892      720      433      321      432      675      845 
     592     -340    -1667    -2475    -1918     -160     1699     2806 
    3099     2790     2187     1918     2488     3751     5076     5794 
    5626     4892     4276     4201     4554     5073     5584     5790 
    5321     4221     3173     2835     2959     2793     2122     1328 
     853      876     1397     2286     2976     2751     1583      241 
    -376       85     1324     2698     3481     3267     2370     1621 
    1518     1796     2131     2624     3242     3599     3345     2504 
    1595     1248     1632     2385     2805     2269      922     -317 
    -735     -409      180      631      769      575      209      -29 
       5      221      535      949     1402     1684     1578     1186 
     877      785      735      703      931     1363     1547     1298 
    1003     1108     1607     2134     2362     2145     1533      896 
     746     1151     1593     1615     1355     1300     1744     2386 
    2505     1736      557     -237     -325      211     1111     1834 
    1896     1345      712      518      841     1273     1355     1134 
    1186     1834     2690     3211     3319     3257     3173     2897 
    2216     1467     1359     2064     2943     3242     2799     2039 
    1386     1094     1495     2646     3909     4391     3690     2216 
     854      334      849     2011     3003     3064     2245     1479 
    1571     2416     3456     4293     4585     4124     3302     2871 
    3092     3512     3568     3271     3019     2963     2955     2909 
    2959     3202     3483     3623     3578     3257     2539     1557 
     735      292       28     -222     -348     -222      183      716 
    1094     1221     1205     1171     1155     1127     1182     1485 
    1883     2080     2050     1992     2128     2619     3411     4213 
    4611     4294     3402     2551     2263     2538     3113     3831 
    4490     4676     4187     3281     2344     1686     1568     2006 
    2571     2686     2250     1838     2050     2749     3172     2736 
    1620      535       78      432     1377     2386     3051     3358 
    3410     3152     2608     2119     2146     2783     3612     4141 
    4205     3892     3424     3096     3157     3520     3639     3095 
    2142     1324      842      583      483      571      757      864 
     900     1069     1287     1194      851      757     1046     1183 
     699     -125     -738     -947     -711      -72      581      884 
     912      901      850      741      738      772      527       -4 
    -446     -409      187      939     1402     1601     1794     2039 
    2222     2377     2729     3262     3530     3173     2392     1624 
    1107      907      946      927      618      137     -189     -183 
      33      241      318      322      476      815     1009      845 
     522      400      706     1443     2390     3157     3429     3154 
    2427     1485      831      826     1304     1896     2317     2392 
    2215     2083     2182     2489     2786     2843     2592     2160 
    1877     2012     2474     2980     3354     3530     3364     2798 
    2203     2003     2076     2010     1748     1588     1726     2099 
    2554     2990     3353     3551     3493     3307     3311     3564 
    3720     3555     3256     3005     2741     2374     1914     1377 
     804      465      695     1336     1796     1822     1721     1691 
    1590     1386     1301     1462     1655     1734     1834     1937 
    1949     2034     2295     2500     2401     2006     1404      716 
     282      334      733     1316     2023     2648     2793     2282 
    1594     1389     1696     2019     2033     1836     1629     1372 
     900      310      -51       16      317      608     1027     1679 
    2242     2421     2255     1957     1748     1833     2408     3298 
    3808     3466     2569     1767     1568     2060     2845     3426 
    3592     3370     2883     2457     2443     2763     3009     3037 
