Origin Time       2024/04/02 04:24:00
Lat.              40.133
Long.             141.712
Depth. (km)       71
Mag.              6.0
Station Code      AKT016
Station Lat.      39.4545
Station Long.     140.4758
Station Height(m) 25
Record Time       2024/04/02 04:24:59
Sampling Freq(Hz) 100Hz
Duration Time(s)  130
Dir.              E-W
Scale Factor      7845(gal)/8223790
Max. Acc. (gal)   21.165
Last Correction   2024/04/02 04:24:59
Memo.             
[...]
  -13047   -12653   -12333   -12079   -11863   -11803   -12019   -12492 
  -13113   -13782   -14462   -15067   -15462   -15661   -15786   -16005 
  -16420   -16954   -17463   -17772   -17707   -17334   -16884   -16424 
  -15905   -15441   -15236   -15334   -15619   -15904   -15997   -15866 
  -15645   -15407   -15088   -14655   -14222   -13940   -13837   -13838 
  -13950   -14208   -14470   -14519   -14320   -14027   -13822   -13832 
  -14062   -14407   -14755   -15130   -15593   -16093   -16538   -16889 
  -17073   -17030   -16798   -16533   -16443   -16599   -16881   -17104 
  -17153   -17026   -16725   -16237   -15673   -15286   -15246   -15431 
  -15606   -15736   -15857   -15911   -15890   -15786   -15511   -15107 
  -14773   -14598   -14490   -14315   -14010   -13614   -13246   -12957 
  -12702   -12561   -12668   -13004   -13537   -14138   -14585   -14878 
  -15124   -15367   -15666   -16029   -16399   -16792   -17254   -17753 
  -18227   -18617   -18770   -18569   -18134   -17579   -16906   -16245 
  -15763   -15503   -15499   -15718   -15851   -15495   -14550   -13258 
  -11973   -11001   -10497   -10513   -11049   -12006   -13182   -14296 
  -15044   -15283   -15164   -14956   -14805   -14841   -15275   -16120 
  -17128   -18048   -18735   -19051   -18939   -18526   -17973   -17423 
  -16993   -16669   -16401   -16210   -16110   -16023   -15809   -15421 
  -14921   -14332   -13711   -13192   -12746   -12258   -11812   -11653 
  -11847   -12253   -12816   -13531   -14235   -14845   -15476   -16143 
  -16737   -17180   -17377   -17300   -17081   -16914   -16927   -17084 
  -17212   -17239   -17184   -17047   -16860   -16654   -16380   -15939 
  -15277   -14472   -13701   -13166   -13008   -13192   -13554   -13927 
  -14118   -14053   -13915   -13845   -13871   -14031   -14250   -14423 
  -14593   -14817   -15138   -15597   -16174   -16783   -17244   -17406 
  -17338   -17235   -17201   -17186   -17103   -16931   -16668   -16321 
  -15986   -15708   -15423   -15107   -14746   -14307   -13859   -13571 
  -13545   -13718   -13899   -13964   -13980   -14049   -14197   -14412 
  -14661   -14953   -15300   -15601   -15782   -15865   -15870   -15846 
  -15844   -15913   -16060   -16225   -16425   -16699   -16992   -17302 
  -17624   -17811   -17775   -17527   -17146   -16831   -16668   -16470 
  -16005   -15276   -14503   -13875   -13367   -12868   -12390   -12150 
  -12391   -13042   -13779   -14378   -14777   -15026   -15236   -15350 
  -15277   -15168   -15246   -15597   -16113   -16564   -16834   -16935 
  -16868   -16668   -16382   -16117   -16046   -16154   -16274   -16274 
  -16097   -15842   -15641   -15441   -15137   -14710   -14247   -13917 
  -13834   -13944   -14084   -14154   -14183   -14220   -14258   -14257 
  -14254   -14359   -14605   -14913   -15201   -15410   -15546   -15692 
  -15850   -15855   -15577   -15167   -14812   -14493   -14238   -14152 
  -14206   -14408   -14845   -15423   -15938   -16279   -16475   -16618 
  -16746   -16889   -17118   -17439   -17794   -18096   -18258   -18180 
  -17793   -17207   -16613   -16002   -15290   -14528   -13830   -13294 
  -12935   -12640   -12341   -12144   -12109   -12197   -12426   -12814 
  -13306   -13945   -14818   -15832   -16738   -17373   -17759   -17946 
  -17941   -17838   -17736   -17618   -17496   -17454   -17470   -17394 
  -17138   -16692   -16146   -15635   -15215   -14901   -14721   -14588 
  -14391   -14142   -13903   -13751   -13695   -13648   -13543   -13354 
  -13140   -13051   -13144   -13413   -13833   -14319   -14809   -15241 
  -15515   -15641   -15711   -15758   -15768   -15741   -15701   -15678 
  -15726   -15885   -16079   -16182   -16179   -16079   -15853   -15515 
  -15087   -14640   -14366   -14389   -14619   -14889   -15049   -15030 
  -14889   -14654   -14332   -14110   -14197   -14639   -15313   -15955 
  -16316   -16349   -16139   -15789   -15454   -15385   -15722   -16247 
  -16614   -16656   -16449   -16278   -16351   -16630   -16991   -17238 
  -17153   -16713   -16055   -15369   -14897   -14802   -14968   -15105 
  -15060   -14858   -14546   -14215   -13932   -13689   -13562   -13621 
  -13755   -13817   -13821   -13914   -14226   -14715   -15137   -15259 
  -15132   -15021   -15074   -15321   -15773   -16366   -17005   -17586 
  -17971   -18162   -18249   -18226   -18060   -17778   -17354   -16707 
  -15878   -15120   -14651   -14422   -14238   -14008   -13733   -13450 
  -13207   -13039   -12928   -12843   -12856   -13089   -13504   -13900 
  -14175   -14411   -14719   -15098   -15539   -16123   -16858   -17563 
  -17986   -18030   -17730   -17097   -16205   -15298   -14650   -14403 
  -14504   -14798   -15137   -15358   -15360   -15221   -15070   -14935 
  -14854   -14920   -15148   -15399   -15537   -15566   -15538   -15433 
  -15306   -15277   -15364   -15448   -15410   -15255   -15093   -15003 
  -15002   -15049   -15032   -14866   -14663   -14629   -14863   -15329 
  -15903   -16445   -16822   -16903   -16706   -16406   -16127   -15889 
  -15730   -15685   -15691   -15638   -15511   -15329   -15095   -14843 
  -14590   -14334   -14154   -14193   -14493   -14974   -15581   -16290 
  -16950   -17354   -17420   -17213   -16799   -16266   -15839   -15668 
  -15676   -15746   -15773   -15624   -15222   -14650   -14111   -13748 
  -13647   -13902   -14474   -15171   -15807   -16252   -16391   -16167 
  -15630   -14909   -14199   -13755   -13741   -14058   -14466   -14806 
  -15024   -15153   -15329   -15650   -16063   -16403   -16561   -16540 
  -16341   -15994   -15639   -15442   -15483   -15692   -15835   -15704 
  -15265   -14608   -13949   -13578   -13535   -13591   -13605   -13610 
  -13697   -13918   -14218   -14567   -15005   -15430   -15685   -15789 
  -15832   -15815   -15723   -15661   -15658   -15592   -15503   -15623 
  -15936   -16194   -16303   -16343   -16359   -16294   -16015   -15487 
  -14899   -14474   -14241   -14096   -13957   -13849   -13926   -14291 
  -14785   -15137   -15309   -15468   -15746   -16116   -16443   -16632 
  -16703   -16704   -16676   -16664   -16695   -16756   -16807   -16780 
  -16621   -16337   -16021   -15716   -15372   -15010   -14712   -14511 
  -14447   -14453   -14359   -14200   -14108   -14139   -14262   -14346 
  -14273   -14092   -13956   -13959   -14060   -14223   -14499   -14910 
  -15446   -15989   -16343   -16528   -16764   -17142   -17564   -17855 
  -17882   -17624   -17151   -16610   -16090   -15566   -15060   -14620 
  -14224   -13890   -13668   -13567   -13590   -13698   -13743   -13625 
  -13450   -13387   -13497   -13768   -14188   -14669   -15036   -15203 
  -15186   -14990   -14643   -14310   -14164   -14188   -14303   -14607 
  -15210   -15962   -16600   -17035   -17356   -17672   -17996   -18281 
  -18438   -18323   -17872   -17234   -16646   -16239   -15957   -15684 
  -15367   -14997   -14570   -14195   -14011   -13941   -13791   -13572 
  -13454   -13562   -13898   -14369   -14854   -15180   -15230   -15130 
  -15151   -15426   -15867   -16337   -16816   -17300   -17730   -18072 
  -18258   -18220   -17956   -17471   -16842   -16175   -15487   -14891 
  -14625   -14679   -14773   -14739   -14600   -14334   -13919   -13505 
  -13254   -13204   -13390   -13837   -14393   -14843   -15124   -15287 
  -15380   -15417   -15349   -15198   -15121   -15211   -15402   -15641 
  -15959   -16328   -16567   -16561   -16437   -16339   -16302   -16360 
  -16528   -16772   -17001   -17109   -17103   -16978   -16680   -16191 
  -15516   -14717   -13907   -13193   -12761   -12700   -12838   -13034 
  -13274   -13428   -13371   -13232   -13332   -13888   -14783   -15691 
  -16299   -16465   -16263   -15894   -15595   -15510   -15599   -15801 
  -16081   -16298   -16355   -16347   -16430   -16623   -16776   -16814 
  -16830   -16779   -16498   -16006   -15411   -14751   -14058   -13413 
  -12924   -12603   -12340   -12158   -12204   -12474   -12773   -12984 
  -13196   -13533   -13944   -14328   -14739   -15260   -15862   -16409 
  -16783   -17018   -17212   -17365   -17431   -17374   -17209   -17070 
  -17024   -16947   -16730   -16438   -16210   -16038   -15776   -15319 
  -14733   -14246   -13983   -13828   -13656   -13502   -13473   -13640 
  -13986   -14388   -14654   -14736   -14875   -15228   -15639   -16016 
  -16393   -16715   -16862   -16773   -16533   -16299   -16221   -16367 
  -16632   -16783   -16688   -16363   -15880   -15350   -14924   -14733 
  -14847   -15217   -15626   -15849   -15865   -15769   -15561   -15188 
  -14692   -14172   -13724   -13464   -13486   -13717   -14030   -14442 
  -14994   -15552   -15919   -16048   -15993   -15816   -15660   -15718 
  -16062   -16602   -17111   -17340   -17266   -17016   -16657   -16258 
  -15925   -15726   -15705   -15854   -16058   -16183   -16086   -15732 
  -15317   -14995   -14743   -14585   -14565   -14592   -14553   -14472 
  -14461   -14535   -14554   -14400   -14107   -13834   -13752   -13845 
  -13940   -13915   -13861   -14015   -14476   -15068   -15665   -16326 
  -17055   -17662   -17886   -17660   -17228   -16969   -17097   -17462 
  -17749   -17886   -17957   -17921   -17699   -17362   -17003   -16695 
  -16488   -16308   -16021   -15714   -15634   -15851   -16132   -16214 
  -16092   -15858   -15449   -14854   -14227   -13720   -13432   -13350 
  -13294   -13157   -13012   -12982   -13070   -13161   -13184   -13188 
  -13250   -13393   -13555   -13664   -13738   -13848   -14038   -14277 
  -14470   -14563   -14615   -14708   -14912   -15257   -15732   -16343 
  -17088   -17905   -18638   -19122   -19296   -19179   -18792   -18239 
  -17739   -17459   -17383   -17367   -17238   -16891   -16437   -16058 
  -15707   -15252   -14742   -14319   -14068   -13944   -13817   -13641 
  -13467   -13312   -13109   -12748   -12181   -11504   -10928   -10628 
  -10547   -10463   -10285   -10103   -10004    -9994   -10042   -10180 
  -10473   -10895   -11304   -11578   -11734   -11934   -12378   -13111 
  -13945   -14619   -14979   -15051   -15001   -14991   -15029   -15018 
  -14936   -14779   -14520   -14216   -13921   -13549   -13045   -12501 
  -12058   -11866   -12042   -12546   -13269   -14173   -15264   -16480 
  -17707   -18882   -20007   -21116   -22262   -23454   -24629   -25725 
  -26703   -27475   -27947   -28082   -27827   -27120   -26013   -24653 
  -23179   -21709   -20293   -18974   -17802   -16729   -15676   -14656 
  -13782   -13150   -12719   -12395   -12181   -12132   -12270   -12575 
  -12972   -13396   -13867   -14430   -15037   -15581   -16011   -16376 
  -16791   -17323   -17898   -18362   -18659   -18750   -18523   -17906 
  -16910   -15583   -14084   -12652   -11379   -10277    -9405    -8802 
   -8502    -8510    -8729    -9090    -9643   -10395   -11260   -12121 
  -12920   -13721   -14632   -15676   -16761   -17801   -18766   -19630 
  -20339   -20815   -20939   -20721   -20326   -19804   -19033   -17851 
  -16177   -14158   -12087   -10176    -8515    -7130    -6046    -5285 
   -4747    -4298    -3946    -3850    -4198    -5049    -6308    -7874 
   -9701   -11769   -14038   -16420   -18820   -21154   -23317   -25139 
  -26466   -27282   -27668   -27774   -27799   -27818   -27733   -27388 
  -26628   -25334   -23479   -21196   -18786   -16542   -14623   -13059 
  -11811   -10922   -10515   -10608   -11072   -11649   -12140   -12484 
  -12648   -12650   -12519   -12267   -12017   -11843   -11722   -11665 
  -11623   -11512   -11340   -11173   -11084   -11111   -11314   -11861 
  -12780   -13826   -14701   -15149   -15111   -14837   -14592   -14469 
  -14455   -14462   -14408   -14266   -14131   -14245   -14728   -15556 
  -16648   -17794   -18735   -19242   -19224   -18912   -18611   -18445 
  -18412   -18408   -18289   -17988   -17482   -16713   -15564   -14057 
  -12492   -11192   -10320    -9918    -9864    -9945   -10058   -10134 
  -10061    -9911    -9859    -9873    -9833    -9774    -9826   -10052 
  -10471   -11141   -12128   -13564   -15549   -17948   -20472   -22805 
  -24663   -25969   -26865   -27449   -27741   -27858   -27942   -27949 
  -27765   -27367   -26696   -25666   -24300   -22705   -20987   -19026 
  -16530   -13441   -10081    -6987    -4731    -3719    -3996    -5232 
   -6905    -8511    -9707   -10500   -11222   -12167   -13396   -14856 
  -16425   -17901   -19134   -20015   -20374   -20129   -19400   -18360 
  -17072   -15570   -14040   -12829   -12302   -12650   -13795   -15337 
  -16683   -17451   -17566   -17111   -16289   -15391   -14755   -14577 
  -14806   -15264   -15726   -16043   -16254   -16490   -16761   -16849 
  -16403   -15237   -13535   -11766   -10365    -9602    -9558   -10075 
  -10791   -11277   -11210   -10532    -9510    -8554    -8013    -8037 
   -8457    -8939    -9306    -9532    -9671    -9981   -10833   -12413 
  -14530   -16621   -18058   -18540   -18312   -18063   -18534   -20135 
  -22617   -25083   -26651   -26913   -25957   -24368   -22931   -22137 
  -22005   -22165   -22040   -21199   -19646   -17695   -15765   -14268 
  -13378   -12939   -12609   -12137   -11565   -11091   -10999   -11618 
  -12964   -14683   -16251   -17172   -17305   -16920   -16393   -15965 
  -15619   -15183   -14581   -13818   -12957   -12208   -11796   -11788 
  -12029   -12226   -12137   -11719   -11164   -10744   -10613   -10903 
  -11666   -12756   -14100   -15772   -17782   -20044   -22343   -24321 
  -25783   -26819   -27594   -28285   -29056   -29897   -30477   -30231 
  -28683   -25744   -21820   -17659   -13961   -11025    -8731    -6756 
   -4796    -2667     -330     2083     4320     6016     6851     6813 
    6197     5274     4044     2288     -175    -3314    -6912   -10615 
  -14071   -17059   -19441   -21168   -22524   -24090   -26261   -28896 
  -31402   -33073   -33546   -32925   -31594   -30037   -28587   -27244 
  -25926   -24536   -22852   -20794   -18547   -16422   -14739   -13563 
  -12690   -11886   -10999   -10134    -9632    -9742   -10469   -11612 
  -12887   -13984   -14563   -14431   -13757   -12980   -12518   -12599 
  -13157   -13865   -14310   -14222   -13666   -12920   -12252   -11854 
  -11824   -12145   -12706   -13342   -13963   -14636   -15473   -16420 
  -17289   -18007   -18632   -19143   -19426   -19431   -19152   -18674 
  -18226   -18004   -18072   -18339   -18627   -18744   -18499   -17911 
  -17263   -16723   -16263   -15799   -15207   -14436   -13570   -12718 
  -12017   -11634   -11658   -12001   -12344   -12370   -12056   -11599 
  -11210   -10989   -10930   -11119   -11766   -12973   -14589   -16285 
  -17721   -18698   -19149   -19078   -18619   -18172   -18173   -18779 
  -19888   -21223   -22397   -23134   -23361   -22986   -21983   -20619 
  -19257   -18148   -17478   -17296   -17370   -17312   -16803   -15708 
  -14030   -11857    -9467    -7322    -5809    -5043    -4951    -5381 
   -6015    -6524    -6868    -7096    -7160    -7179    -7468    -8164 
   -9158   -10277   -11404   -12488   -13473   -14199   -14494   -14380 
  -14149   -14103   -14405   -15163   -16317   -17649   -19032   -20429 
  -21730   -22709   -23159   -23008   -22326   -21402   -20730   -20663 
  -21096   -21625   -21895   -21681   -20802   -19234   -17205   -15033 
  -12969   -11254   -10099    -9512    -9308    -9250    -9109    -8730 
   -8147    -7619    -7506    -8083    -9362   -11055   -12742   -14045 
  -14783   -15037   -15013   -14971   -15195   -15877   -17024   -18496 
  -20115   -21770   -23367   -24798   -25987   -26883   -27407   -27460 
  -27020   -26194   -25100   -23758   -22110   -20071   -17590   -14720 
  -11704    -8958    -6847    -5418    -4468    -3708    -2878    -1991 
   -1277     -843     -711    -1028    -1971    -3507    -5451    -7739 
  -10476   -13653   -16929   -19782   -21830   -22985   -23437   -23556 
  -23714   -24097   -24660   -25280   -25785   -25926   -25510   -24549 
  -23233   -21802   -20366   -18929   -17594   -16596   -16123   -16127 
  -16270   -16181   -15711   -14913   -14023   -13309   -12796   -12363 
  -11992   -11777   -11851   -12299   -13015   -13667   -13949   -13856 
  -13660   -13628   -13861   -14428   -15333   -16341   -17123   -17498 
  -17568   -17648   -17956   -18465   -18968   -19174   -18999   -18684 
  -18497   -18593   -19043   -19880   -21046   -22310   -23372   -24088 
  -24414   -24295   -23711   -22754   -21618   -20576   -19819   -19344 
  -18908   -18121   -16741   -14810   -12637   -10687    -9227    -8225 
   -7585    -7126    -6660    -6292    -6334    -6957    -8113    -9637 
  -11283   -12711   -13716   -14316   -14558   -14543   -14559   -14932 
  -15772   -16842   -17720   -18119   -17976   -17394   -16640   -16056 
  -15912   -16195   -16609   -16796   -16522   -15696   -14413   -12897 
  -11268    -9535    -7774    -6212    -5094    -4476    -4349    -4820 
   -5888    -7335    -8873   -10249   -11356   -12316   -13429   -15052 
  -17332   -20086   -22939   -25474   -27334   -28300   -28325   -27579 
  -26362   -24983   -23646   -22380   -21038   -19440   -17481   -15137 
  -12436    -9518    -6762    -4569    -2995    -1800     -781        9 
     313       -9     -896    -2215    -3831    -5659    -7661    -9755 
  -11843   -13876   -15757   -17348   -18636   -19676   -20484   -21150 
  -21874   -22771   -23674   -24209   -24165   -23575   -22497   -20991 
  -19188   -17340   -15847   -15059   -14995   -15358   -15742   -15874 
  -15692   -15241   -14617   -13879   -13074   -12382   -12008   -12074 
  -12603   -13468   -14494   -15516   -16316   -16737   -16779   -16626 
  -16588   -16843   -17267   -17625   -17861   -18127   -18550   -19033 
  -19284   -19072   -18454   -17685   -16980   -16436   -16082   -15939 
  -16042   -16395   -16852   -17205   -17424   -17649   -18023   -18490 
  -18810   -18793   -18441   -17887   -17235   -16464   -15561   -14678 
  -14010   -13640   -13560   -13747   -14114   -14501   -14775   -14844 
  -14686   -14493   -14584   -15137   -16108   -17285   -18401   -19156 
  -19229   -18523   -17280   -15889   -14729   -14053   -13933   -14292 
  -14866   -15294   -15304   -14767   -13730   -12386   -10949    -9657 
   -8691    -8139    -8127    -8741    -9836   -11064   -12081   -12722 
  -12954   -12800   -12484   -12422   -12960   -14160   -15817   -17586 
  -19099   -20082   -20449   -20337   -20046   -19870   -19927   -20109 
  -20213   -20140   -19920   -19543   -18979   -18264   -17455   -16641 
  -15919   -15240   -14420   -13402   -12402   -11672   -11322   -11380 
  -11792   -12398   -12962   -13247   -13186   -13001   -13016   -13323 
  -13725   -14040   -14293   -14597   -15030   -15641   -16407   -17209 
  -17932   -18503   -18743   -18366   -17361   -16124   -15093   -14507 
  -14462   -14921   -15714   -16569   -17155   -17221   -16738   -15935 
  -15244   -15053   -15414   -16067   -16734   -17223   -17401   -17266 
  -17001   -16816   -16772   -16843   -16957   -16984   -16912   -16881 
  -17027   -17366   -17753   -18014   -18081   -17860   -17154   -15939 
  -14555   -13443   -12793   -12478   -12249   -11997   -11780   -11676 
  -11709   -11848   -12025   -12241   -12730   -13713   -14990   -16074 
  -16609   -16592   -16317   -16108   -16077   -16182   -16422   -16775 
  -17023   -16904   -16332   -15498   -14739   -14237   -13946   -13703 
  -13427   -13274   -13522   -14307   -15538   -16945   -18171   -18901 
  -18987   -18519   -17755   -17004   -16492   -16129   -15616   -14893 
