Origin Time       2024/04/02 04:24:00
Lat.              40.133
Long.             141.712
Depth. (km)       71
Mag.              6.0
Station Code      AKT013
Station Lat.      39.6071
Station Long.     140.3209
Station Height(m) 39
Record Time       2024/04/02 04:24:59
Sampling Freq(Hz) 100Hz
Duration Time(s)  109
Dir.              U-D
Scale Factor      7845(gal)/8223790
Max. Acc. (gal)   3.764
Last Correction   2024/04/02 04:24:59
Memo.             
[...]
  -19664   -19662   -19660   -19664   -19666   -19662   -19661   -19662 
  -19666   -19666   -19661   -19661   -19664   -19664   -19665   -19662 
  -19662   -19666   -19661   -19662   -19666   -19661   -19660   -19666 
  -19664   -19660   -19664   -19665   -19660   -19660   -19665   -19665 
  -19665   -19665   -19662   -19664   -19668   -19664   -19662   -19665 
  -19662   -19661   -19666   -19662   -19660   -19665   -19665   -19662 
  -19661   -19661   -19666   -19665   -19658   -19660   -19665   -19662 
  -19658   -19662   -19665   -19664   -19666   -19665   -19658   -19662 
  -19668   -19662   -19662   -19668   -19662   -19660   -19666   -19664 
  -19661   -19669   -19665   -19656   -19661   -19668   -19662   -19661 
  -19662   -19660   -19662   -19666   -19661   -19658   -19665   -19664 
  -19660   -19662   -19668   -19666   -19664   -19660   -19661   -19662 
  -19661   -19665   -19669   -19664   -19664   -19664   -19657   -19664 
  -19670   -19662   -19661   -19661   -19660   -19666   -19664   -19658 
  -19665   -19669   -19664   -19664   -19664   -19662   -19666   -19666 
  -19664   -19669   -19668   -19660   -19664   -19669   -19664   -19664 
  -19668   -19662   -19658   -19661   -19661   -19664   -19666   -19666 
  -19664   -19662   -19664   -19670   -19668   -19660   -19662   -19666 
  -19662   -19662   -19666   -19664   -19661   -19669   -19672   -19662 
  -19662   -19668   -19664   -19658   -19661   -19664   -19664   -19668 
  -19666   -19658   -19658   -19665   -19664   -19661   -19665   -19665 
  -19662   -19661   -19661   -19662   -19664   -19665   -19662   -19662 
  -19662   -19662   -19669   -19668   -19661   -19662   -19666   -19664 
  -19660   -19664   -19666   -19662   -19661   -19664   -19661   -19660 
  -19662   -19664   -19662   -19662   -19665   -19665   -19664   -19664 
  -19664   -19664   -19664   -19661   -19662   -19669   -19665   -19658 
  -19664   -19664   -19661   -19665   -19660   -19658   -19669   -19665 
  -19656   -19660   -19665   -19662   -19662   -19665   -19664   -19660 
  -19662   -19666   -19665   -19664   -19664   -19661   -19665   -19668 
  -19662   -19661   -19661   -19660   -19665   -19665   -19658   -19664 
  -19668   -19660   -19658   -19664   -19661   -19662   -19668   -19664 
  -19664   -19666   -19664   -19664   -19662   -19662   -19668   -19665 
  -19660   -19661   -19664   -19666   -19664   -19661   -19664   -19661 
  -19661   -19664   -19665   -19662   -19664   -19665   -19661   -19662 
  -19666   -19664   -19661   -19664   -19662   -19665   -19668   -19664 
  -19664   -19670   -19662   -19657   -19668   -19672   -19661   -19664 
  -19665   -19658   -19662   -19669   -19664   -19658   -19661   -19664 
  -19668   -19666   -19657   -19661   -19668   -19661   -19662   -19669 
  -19661   -19661   -19662   -19660   -19668   -19668   -19658   -19661 
  -19666   -19662   -19660   -19661   -19664   -19661   -19658   -19660 
  -19661   -19662   -19665   -19662   -19657   -19662   -19666   -19662 
  -19661   -19665   -19664   -19662   -19666   -19662   -19657   -19664 
  -19664   -19658   -19662   -19666   -19664   -19664   -19662   -19664 
  -19662   -19661   -19666   -19662   -19658   -19665   -19664   -19661 
  -19669   -19666   -19658   -19662   -19662   -19662   -19666   -19661 
  -19658   -19665   -19662   -19660   -19666   -19665   -19660   -19661 
  -19662   -19662   -19664   -19662   -19661   -19665   -19665   -19662 
  -19664   -19664   -19661   -19664   -19662   -19660   -19662   -19661 
  -19660   -19664   -19666   -19664   -19661   -19665   -19666   -19662 
  -19664   -19668   -19664   -19662   -19666   -19668   -19665   -19664 
  -19664   -19664   -19665   -19664   -19664   -19665   -19665   -19666 
  -19668   -19666   -19662   -19664   -19665   -19662   -19666   -19668 
  -19662   -19662   -19666   -19668   -19666   -19664   -19662   -19662 
  -19665   -19666   -19664   -19666   -19669   -19666   -19661   -19662 
  -19669   -19668   -19661   -19662   -19665   -19666   -19666   -19662 
  -19662   -19666   -19664   -19662   -19666   -19664   -19664   -19665 
  -19661   -19660   -19665   -19665   -19660   -19660   -19665   -19664 
  -19661   -19664   -19666   -19662   -19660   -19664   -19665   -19661 
  -19661   -19666   -19664   -19660   -19661   -19662   -19664   -19666 
  -19664   -19661   -19661   -19664   -19666   -19662   -19661   -19664 
  -19664   -19662   -19665   -19664   -19664   -19666   -19665   -19662 
  -19665   -19665   -19661   -19665   -19666   -19662   -19661   -19661 
  -19661   -19665   -19664   -19661   -19664   -19665   -19664   -19662 
  -19662   -19664   -19665   -19665   -19664   -19665   -19662   -19662 
  -19665   -19664   -19661   -19665   -19668   -19662   -19661   -19665 
  -19666   -19661   -19661   -19665   -19665   -19662   -19664   -19664 
  -19662   -19662   -19661   -19664   -19666   -19662   -19662   -19666 
  -19664   -19661   -19666   -19665   -19660   -19662   -19665   -19664 
  -19666   -19665   -19660   -19662   -19664   -19662   -19664   -19665 
  -19664   -19661   -19660   -19665   -19666   -19661   -19662   -19668 
  -19664   -19658   -19661   -19665   -19662   -19660   -19661   -19665 
  -19664   -19661   -19662   -19664   -19661   -19658   -19658   -19662 
  -19664   -19662   -19664   -19661   -19660   -19665   -19666   -19657 
  -19658   -19666   -19662   -19661   -19666   -19664   -19658   -19662 
  -19664   -19662   -19665   -19665   -19658   -19661   -19668   -19664 
  -19662   -19665   -19662   -19662   -19664   -19662   -19664   -19660 
  -19658   -19668   -19664   -19658   -19664   -19664   -19662   -19665 
  -19664   -19661   -19662   -19661   -19660   -19662   -19660   -19661 
  -19664   -19658   -19658   -19666   -19668   -19660   -19654   -19662 
  -19669   -19664   -19661   -19660   -19660   -19664   -19664   -19662 
  -19664   -19664   -19664   -19664   -19665   -19665   -19660   -19660 
  -19661   -19661   -19661   -19661   -19661   -19664   -19665   -19664 
  -19662   -19666   -19669   -19665   -19665   -19666   -19664   -19664 
  -19665   -19661   -19661   -19664   -19666   -19665   -19664   -19665 
  -19664   -19662   -19664   -19666   -19666   -19662   -19662   -19665 
  -19664   -19665   -19668   -19661   -19658   -19664   -19662   -19664 
  -19670   -19661   -19660   -19669   -19661   -19661   -19670   -19664 
  -19656   -19664   -19666   -19664   -19665   -19668   -19666   -19662 
  -19661   -19666   -19668   -19661   -19658   -19662   -19664   -19664 
  -19662   -19664   -19666   -19661   -19660   -19666   -19665   -19660 
  -19660   -19661   -19665   -19666   -19665   -19662   -19660   -19664 
  -19666   -19662   -19661   -19661   -19665   -19666   -19660   -19661 
  -19668   -19661   -19657   -19668   -19666   -19660   -19665   -19666 
  -19661   -19665   -19666   -19661   -19665   -19665   -19661   -19665 
  -19665   -19662   -19664   -19664   -19664   -19668   -19662   -19658 
  -19662   -19664   -19660   -19662   -19666   -19665   -19662   -19661 
  -19664   -19668   -19665   -19660   -19661   -19666   -19666   -19664 
  -19664   -19665   -19664   -19662   -19661   -19662   -19669   -19665 
  -19660   -19664   -19664   -19665   -19666   -19662   -19660   -19665 
  -19665   -19661   -19665   -19669   -19661   -19658   -19662   -19668 
  -19665   -19661   -19661   -19661   -19661   -19668   -19665   -19660 
  -19662   -19661   -19660   -19665   -19666   -19661   -19662   -19664 
  -19662   -19664   -19666   -19665   -19657   -19657   -19664   -19666 
  -19668   -19665   -19658   -19662   -19662   -19660   -19670   -19669 
  -19657   -19662   -19669   -19665   -19668   -19668   -19657   -19653 
  -19664   -19666   -19662   -19669   -19666   -19658   -19661   -19665 
  -19666   -19666   -19665   -19662   -19661   -19664   -19665   -19666 
  -19665   -19661   -19658   -19664   -19669   -19665   -19661   -19662 
  -19662   -19662   -19666   -19665   -19660   -19661   -19664   -19662 
  -19662   -19668   -19666   -19658   -19658   -19664   -19664   -19664 
  -19666   -19665   -19658   -19660   -19669   -19668   -19664   -19662 
  -19664   -19665   -19665   -19665   -19665   -19665   -19664   -19661 
  -19661   -19662   -19664   -19664   -19661   -19662   -19664   -19664 
  -19668   -19665   -19660   -19661   -19662   -19665   -19662   -19661 
  -19668   -19664   -19658   -19662   -19665   -19664   -19662   -19660 
  -19661   -19665   -19665   -19666   -19664   -19662   -19665   -19666 
  -19661   -19662   -19666   -19664   -19661   -19664   -19665   -19662 
  -19661   -19666   -19665   -19662   -19668   -19669   -19662   -19662 
  -19666   -19669   -19666   -19664   -19665   -19668   -19666   -19662 
  -19664   -19665   -19664   -19662   -19658   -19665   -19672   -19665 
  -19662   -19665   -19665   -19664   -19664   -19665   -19665   -19662 
  -19662   -19665   -19662   -19661   -19669   -19666   -19658   -19669 
  -19668   -19656   -19661   -19666   -19661   -19665   -19668   -19661 
  -19660   -19664   -19664   -19662   -19662   -19665   -19666   -19660 
  -19662   -19669   -19664   -19661   -19664   -19661   -19665   -19668 
  -19662   -19665   -19666   -19661   -19660   -19665   -19665   -19662 
  -19666   -19665   -19665   -19669   -19665   -19661   -19665   -19666 
  -19664   -19664   -19666   -19665   -19664   -19664   -19664   -19666 
  -19664   -19661   -19665   -19666   -19661   -19665   -19666   -19664 
  -19665   -19665   -19664   -19669   -19669   -19660   -19660   -19666 
  -19665   -19660   -19662   -19668   -19665   -19657   -19660   -19668 
  -19666   -19660   -19662   -19665   -19662   -19668   -19669   -19662 
  -19660   -19662   -19664   -19662   -19664   -19665   -19665   -19662 
  -19658   -19658   -19662   -19668   -19664   -19658   -19661   -19665 
  -19662   -19664   -19665   -19664   -19665   -19660   -19662   -19672 
  -19662   -19654   -19665   -19665   -19662   -19666   -19664   -19660 
  -19662   -19664   -19661   -19660   -19661   -19664   -19662   -19660 
  -19664   -19668   -19664   -19660   -19662   -19665   -19664   -19661 
  -19664   -19664   -19657   -19661   -19670   -19661   -19654   -19668 
  -19670   -19661   -19662   -19666   -19665   -19664   -19664   -19662 
  -19658   -19660   -19664   -19666   -19665   -19661   -19664   -19665 
  -19662   -19664   -19665   -19665   -19666   -19665   -19660   -19662 
  -19665   -19665   -19664   -19664   -19661   -19661   -19664   -19666 
  -19665   -19662   -19660   -19661   -19664   -19666   -19664   -19660 
  -19661   -19662   -19662   -19665   -19665   -19660   -19657   -19661 
  -19665   -19665   -19662   -19661   -19662   -19665   -19666   -19664 
  -19660   -19660   -19665   -19662   -19657   -19662   -19665   -19661 
  -19664   -19666   -19662   -19662   -19666   -19661   -19657   -19661 
  -19664   -19661   -19660   -19666   -19670   -19664   -19660   -19662 
  -19665   -19664   -19664   -19662   -19661   -19665   -19665   -19662 
  -19664   -19665   -19665   -19665   -19665   -19665   -19664   -19664 
  -19666   -19662   -19661   -19664   -19665   -19665   -19665   -19666 
  -19664   -19662   -19666   -19668   -19664   -19660   -19662   -19668 
  -19664   -19661   -19665   -19665   -19664   -19664   -19664   -19665 
  -19666   -19662   -19660   -19666   -19665   -19661   -19665   -19661 
  -19660   -19669   -19666   -19661   -19669   -19668   -19658   -19664 
  -19672   -19665   -19661   -19661   -19660   -19669   -19669   -19658 
  -19662   -19670   -19666   -19661   -19664   -19666   -19665   -19665 
  -19666   -19666   -19665   -19662   -19666   -19666   -19662   -19664 
  -19666   -19668   -19666   -19665   -19665   -19661   -19662   -19669 
  -19668   -19666   -19666   -19662   -19662   -19665   -19661   -19660 
  -19665   -19665   -19665   -19666   -19664   -19664   -19662   -19661 
  -19662   -19664   -19666   -19666   -19658   -19661   -19668   -19661 
  -19661   -19669   -19662   -19658   -19665   -19664   -19662   -19664 
  -19662   -19664   -19666   -19665   -19662   -19662   -19665   -19665 
  -19662   -19662   -19662   -19664   -19666   -19664   -19660   -19664 
  -19665   -19664   -19662   -19661   -19662   -19665   -19666   -19664 
  -19662   -19664   -19666   -19665   -19662   -19664   -19664   -19661 
  -19664   -19666   -19665   -19666   -19664   -19660   -19662   -19662 
  -19662   -19666   -19665   -19660   -19658   -19660   -19658   -19660 
  -19656   -19643   -19639   -19634   -19618   -19604   -19588   -19553 
  -19511   -19483   -19464   -19457   -19469   -19504   -19562   -19643 
  -19723   -19778   -19804   -19792   -19751   -19691   -19606   -19512 
  -19430   -19350   -19261   -19165   -19078   -19009   -18967   -18967 
  -18997   -19025   -19039   -19030   -19008   -18981   -18959   -18952 
  -18997   -19132   -19356   -19657   -20040   -20478   -20883   -21185 
  -21340   -21285   -21020   -20650   -20278   -19948   -19645   -19340 
  -19089   -18971   -19001   -19168   -19456   -19772   -19997   -20054 
  -19889   -19537   -19111   -18684   -18253   -17788   -17305   -16947 
  -16895   -17220   -17903   -18843   -19893   -20908   -21739   -22262 
  -22486   -22553   -22631   -22782   -22897   -22808   -22464   -21967 
  -21458   -21011   -20649   -20380   -20135   -19832   -19585   -19549 
  -19608   -19521   -19291   -19124   -19063   -18993   -18906   -18844 
  -18705   -18403   -18064   -17902   -18040   -18482   -19067   -19556 
  -19870   -20094   -20305   -20571   -20996   -21602   -22206   -22609 
  -22747   -22551   -22011   -21327   -20748   -20331   -20004   -19728 
  -19433   -18949   -18185   -17257   -16410   -15857   -15718   -16047 
  -16734   -17471   -17991   -18227   -18245   -18230   -18418   -18864 
  -19456   -20096   -20628   -20748   -20291   -19488   -18785   -18581 
  -19029   -19913   -20892   -21824   -22611   -23012   -22917   -22567 
  -22266   -22045   -21691   -21042   -20143   -19179   -18285   -17460 
  -16779   -16533   -16853   -17428   -17907   -18324   -18883   -19533 
  -19998   -20067   -19759   -19377   -19256   -19425   -19707   -20050 
  -20488   -20957   -21307   -21439   -21432   -21409   -21319   -21055 
  -20679   -20328   -20155   -20258   -20476   -20509   -20332   -20120 
  -19924   -19723   -19469   -19063   -18608   -18330   -18206   -18061 
  -17813   -17361   -16673   -16039   -15861   -16287   -17167   -18188 
  -19074   -19782   -20406   -20907   -21150   -21168   -21136   -21118 
  -21057   -20942   -20888   -21003   -21139   -21019   -20537   -19815 
  -19057   -18443   -18129   -18253   -18837   -19705   -20497   -20834 
  -20653   -20214   -19689   -19049   -18347   -17767   -17429   -17350 
  -17529   -17930   -18403   -18805   -19153   -19534   -19981   -20491 
  -21008   -21381   -21535   -21574   -21577   -21501   -21365   -21259 
  -21174   -21031   -20861   -20744   -20630   -20385   -20081   -19915 
  -19774   -19408   -18836   -18230   -17748   -17460   -17284   -17154 
  -17108   -17151   -17315   -17612   -17945   -18266   -18566   -18798 
  -19026   -19346   -19754   -20241   -20808   -21357   -21740   -21926 
  -21982   -21952   -21867   -21801   -21806   -21836   -21753   -21442 
  -20856   -20063   -19279   -18721   -18382   -18096   -17875   -17941 
  -18322   -18690   -18854   -19001   -19234   -19325   -19140   -18920 
  -18906   -19062   -19213   -19303   -19415   -19580   -19776   -20050 
  -20453   -20966   -21470   -21743   -21589   -21018   -20260   -19624 
  -19287   -19214   -19298   -19487   -19788   -20229   -20736   -21115 
  -21262   -21253   -21112   -20677   -19934   -19186   -18659   -18274 
  -17955   -17825   -18017   -18465   -18925   -19160   -19183   -19184 
  -19248   -19361   -19533   -19727   -19865   -19870   -19731   -19584 
  -19631   -19944   -20376   -20653   -20672   -20592   -20530   -20414 
  -20213   -19971   -19724   -19552   -19477   -19395   -19309   -19322 
  -19449   -19657   -19866   -19928   -19827   -19691   -19575   -19435 
  -19267   -19124   -19036   -18991   -19002   -19068   -19176   -19327 
  -19398   -19214   -18900   -18792   -19052   -19568   -20086   -20393 
  -20474   -20425   -20262   -19975   -19666   -19458   -19421   -19515 
  -19612   -19635   -19660   -19749   -19909   -20132   -20281   -20279 
  -20302   -20348   -20150   -19712   -19311   -19060   -18909   -18769 
  -18619   -18526   -18519   -18657   -19021   -19492   -19915   -20264 
  -20487   -20576   -20592   -20534   -20470   -20533   -20710   -20885 
  -20938   -20819   -20582   -20260   -19892   -19568   -19302   -19014 
  -18715   -18480   -18283   -18068   -17923   -17956   -18098   -18295 
  -18663   -19205   -19699   -19971   -20031   -19997   -19942   -19858 
  -19843   -19932   -19905   -19705   -19600   -19685   -19823   -20024 
  -20372   -20769   -21028   -21066   -20898   -20596   -20233   -19849 
  -19554   -19444   -19372   -19161   -18909   -18765   -18709   -18789 
  -19129   -19526   -19519   -19128   -18819   -18706   -18609   -18621 
  -18856   -19149   -19384   -19570   -19703   -19901   -20248   -20568 
  -20672   -20592   -20506   -20552   -20659   -20644   -20564   -20580 
  -20594   -20461   -20281   -20186   -20155   -20082   -19872   -19480 
  -19001   -18620   -18418   -18376   -18524   -18825   -19080   -19182 
  -19221   -19246   -19225   -19176   -19111   -19002   -18875   -18790 
  -18819   -18979   -19217   -19533   -19921   -20231   -20389   -20569 
  -20845   -21030   -21034   -20956   -20831   -20642   -20417   -20223 
  -20078   -19885   -19588   -19319   -19175   -19021   -18812   -18719 
  -18735   -18700   -18670   -18760   -18910   -19091   -19330   -19549 
  -19685   -19803   -19924   -19966   -19907   -19819   -19812   -20016 
  -20366   -20645   -20864   -21088   -21145   -20992   -20819   -20629 
  -20281   -19835   -19500   -19286   -19060   -18918   -19005   -19194 
  -19356   -19469   -19444   -19264   -19103   -19101   -19218   -19321 
  -19386   -19498   -19584   -19511   -19414   -19404   -19413   -19510 
  -19808   -20163   -20356   -20367   -20322   -20256   -20125   -19958 
  -19832   -19835   -19930   -19935   -19770   -19526   -19361   -19458 
  -19747   -19876   -19741   -19560   -19418   -19288   -19246   -19352 
  -19572   -19824   -19990   -19985   -19720   -19241   -18858   -18748 
  -18775   -18913   -19179   -19353   -19426   -19658   -20012   -20287 
  -20484   -20656   -20808   -20938   -20977   -20815   -20486   -20155 
  -19893   -19634   -19368   -19140   -18917   -18650   -18372   -18166 
  -18053   -18034   -18156   -18436   -18837   -19230   -19476   -19657 
  -19903   -20071   -20051   -20034   -20088   -20031   -19954   -20113 
  -20383   -20487   -20472   -20493   -20524   -20494   -20479   -20625 
  -20807   -20730   -20443   -20189   -19905   -19479   -19071   -18860 
  -18774   -18648   -18434   -18215   -18100   -18171   -18447   -18787 
  -18999   -19130   -19263   -19306   -19260   -19226   -19219   -19282 
  -19418   -19498   -19521   -19646   -19858   -20042   -20262   -20556 
  -20726   -20680   -20587   -20517   -20375   -20187   -20082   -20063 
  -20004   -19820   -19584   -19408   -19310   -19245   -19197   -19236 
  -19379   -19426   -19257   -18995   -18720   -18441   -18268   -18315 
  -18549   -18890   -19299   -19726   -20115   -20434   -20636   -20696 
  -20657   -20591   -20567   -20602   -20706   -20869   -20949   -20790 
  -20461   -20152   -19934   -19801   -19737   -19618   -19379   -19190 
