Origin Time       2024/04/02 04:24:00
Lat.              40.133
Long.             141.712
Depth. (km)       71
Mag.              6.0
Station Code      AKT012
Station Lat.      39.7014
Station Long.     140.7178
Station Height(m) 206
Record Time       2024/04/02 04:24:55
Sampling Freq(Hz) 100Hz
Duration Time(s)  100
Dir.              E-W
Scale Factor      7845(gal)/8223790
Max. Acc. (gal)   17.123
Last Correction   2024/04/02 04:24:55
Memo.             
[...]
   -1453    -1618    -1826    -1925    -1906    -1842    -1800    -1837 
   -1925    -1985    -2054    -2180    -2232    -2119    -1960    -1888 
   -1914    -1966    -1954    -1875    -1741    -1517    -1329    -1420 
   -1755    -2085    -2326    -2525    -2655    -2590    -2173    -1408 
    -688     -479     -739    -1047    -1228    -1471    -1890    -2270 
   -2317    -2065    -1848    -1875    -1939    -1694    -1212    -1039 
   -1352    -1591    -1557    -1728    -1939    -1645    -1248    -1260 
   -1398    -1453    -1464    -1297    -1034    -1039    -1364    -1610 
   -1435    -1135    -1188    -1296    -1038     -851    -1277    -2269 
   -3365    -3840    -3531    -3102    -2679    -1630      124     1637 
    1615      135    -1097    -1521    -2087    -2695    -2698    -2371 
   -2007    -1672    -1702    -1927    -1387      -60      252    -1393 
   -3065    -3003    -2378    -2509    -2631    -2250    -2079    -2548 
   -3577    -3978    -2157      641     1483      577      -74     -997 
   -2953    -4413    -4486    -3813    -2951    -2168    -1474    -1051 
    -967     -700     -530    -1109    -1892    -2454    -3073    -3473 
   -3419    -2997    -2062    -1530    -2502    -3735    -3599    -2586 
   -1864    -1582     -827      820     1861     1005     -653    -1833 
   -2867    -3974    -4594    -4914    -5134    -4140    -1755      230 
     846      961     1219      695    -1320    -3258    -3755    -4280 
   -5796    -6016    -3375       93     1807     1483      621      257 
    -406    -2083    -3620    -3835    -3029    -2062    -1663    -1906 
   -1769     -522      760      336    -1533    -2698    -2440    -1891 
   -1563    -1686    -2513    -2713    -1621    -1503    -3159    -3929 
   -2853    -1773    -1235     -199     1205     1331     -677    -3215 
   -4028    -3053    -1895    -1632    -2235    -2370     -487     1930 
    1463    -1372    -2799    -2571    -3245    -4486    -4523    -3535 
   -2404    -1644    -1460    -1548    -1302     -454      -62     -818 
    -824      361     -562    -3612    -4352    -2574    -2307    -4280 
   -5458    -3554       28     1588      117    -2068    -3512    -4247 
   -4028    -2795    -1198      -24      178     -899    -2943    -4488 
   -4109    -2327     -949     -760     -722      -56      394      225 
    -213    -1467    -3303    -4018    -3634    -3325    -2519     -997 
    -415    -1228    -1987    -1672     -603      271      419     -125 
   -1579    -3785    -5286    -5131    -3983    -2573    -1529    -1462 
   -1876    -1984    -1718    -1043     -113       91     -972    -2245 
   -2124     -600      249     -612    -1620    -2003    -2652    -3250 
   -2763    -1624     -741       54      772      766      298     -199 
   -1548    -3863    -5506    -5616    -4951    -3883    -1985      303 
    1119     -448    -2489    -3279    -3419    -3152    -2033     -795 
    -237     -500    -1397    -1966    -1786    -1586    -1556    -1625 
   -2197    -3269    -4688    -5896    -4878     -660     3825     4711 
    1854    -1757    -3771    -4252    -4247    -3858    -2905    -2070 
   -2211    -3646    -5451    -5269    -2366      344      692      228 
     355      558      409     -351    -1570    -2338    -2344    -2031 
   -1826    -2010    -2455    -2890    -3019    -2035        8     1139 
     114    -1822    -3136    -3569    -3349    -2728    -2153    -1930 
   -1687     -849      -31      -43     -240     -521    -1788    -2897 
   -2124    -1186    -2272    -3546    -2632     -634      545      783 
     558     -421    -2554    -4612    -4951    -3927    -2513    -1197 
   -1208    -2875    -4047    -3310    -1976    -1579    -2230    -3019 
   -2833    -1977    -1667    -1478     -287     1224     1684     1090 
      39    -1343    -2691    -3489    -3527    -2569    -1084     -247 
    -319     -896    -1645    -1877    -1583    -1842    -2708    -3380 
   -3831    -3940    -3678    -3820    -4036    -3152    -1649     -936 
   -1140    -1179     -639     -637    -1611    -2138    -1571     -847 
    -545     -791    -1263    -1290    -1429    -2349    -2876    -1923 
    -309      633      526     -267    -1236    -2012    -2594    -3327 
   -3986    -3407    -1672    -1067    -2567    -4009    -3739    -2772 
   -2380    -2562    -2789    -2712    -2324    -1607     -688      -39 
     190        1     -942    -2484    -3645    -3917    -3692    -3167 
   -2161    -1063     -839    -1584    -1937    -1111     -359     -805 
   -1410    -1039     -895    -2411    -4162    -3888    -2293    -1424 
   -1181     -803     -793    -1216    -1432    -1576    -1757    -1580 
   -1433    -1977    -2683    -2646    -2155    -2079    -2219    -1854 
   -1383    -1467    -1435     -604      309      490     -153    -1437 
   -2694    -2879    -1861    -1075    -1595    -2313    -2025    -1368 
   -1252    -1822    -2821    -3465    -3032    -1788     -764     -643 
   -1032    -1548    -2478    -3339    -3379    -3082    -2875    -2158 
    -797      324      535       76     -297     -394     -928    -1931 
   -2620    -3005    -3160    -2497    -1282     -823    -1422    -1780 
   -1336    -1202    -1641    -1566    -1047    -1146    -1707    -2135 
   -2727    -3198    -2619    -1655    -1742    -2384    -2312    -2054 
   -2566    -3069    -2623    -1899    -1683    -1613    -1417    -1408 
   -1559    -1557    -1479    -1617    -1767    -1547    -1445    -1906 
   -2218    -2107    -2533    -3534    -3931    -3584    -3083    -2461 
   -1709     -791       86       85     -996    -2319    -2890    -2338 
   -1676    -2092    -2801    -2355    -1409    -1476    -2052    -1664 
    -618     -587    -1927    -2961    -2598    -1760    -1462    -1582 
   -1606    -1570    -2073    -3038    -3276    -2304    -1256    -1017 
   -1120    -1020     -785     -739    -1150    -1773    -2049    -1831 
   -1435    -1173    -1232    -1624    -2087    -2324    -2243    -1858 
   -1314    -1036    -1244    -1752    -2421    -2844    -2492    -1556 
    -567      -45     -490    -1509    -2130    -2351    -2820    -3241 
   -2917    -2235    -2197    -2717    -2488    -1497    -1364    -1861 
   -1439     -928    -1618    -2281    -1980    -1863    -2193    -1684 
    -338      342     -143    -1078    -2039    -2733    -2513    -1580 
   -1212    -1757    -2236    -2334    -2505    -2627    -2417    -2146 
   -2002    -1834    -1717    -1682    -1394    -1012    -1185    -1786 
   -1961    -1552    -1372    -1692    -1698    -1112     -815    -1063 
    -950     -353     -198     -564     -932    -1717    -3179    -4329 
   -4349    -3443    -2400    -1983    -2087    -2150    -2292    -2774 
   -3088    -2770    -2122    -1426     -708     -287     -529    -1283 
   -1918    -2189    -2380    -2151    -1156      -99      301     -136 
   -1202    -2111    -2319    -2187    -2232    -2592    -3002    -2990 
   -2417    -1668    -1102     -857    -1001    -1478    -2033    -2357 
   -2610    -3159    -3373    -2546    -1440     -970     -951     -909 
    -832    -1123    -1788    -2192    -2243    -2531    -2882    -2209 
    -283     1317     1138     -359    -2130    -3672    -4321    -3792 
   -2799    -1632     -197      511     -170    -1274    -2185    -3190 
   -3834    -3321    -2047    -1277    -1474    -1761    -1368     -591 
     -31     -152    -1290    -2995    -3970    -3589    -2749    -2058 
   -1066     -133     -556    -2497    -4357    -4634    -3701    -2670 
   -1734     -882     -592    -1115    -2010    -2452    -1984    -1302 
   -1525    -2389    -2681    -2157    -1460    -1119    -1360    -1767 
   -1525     -873    -1046    -2100    -2490    -1701    -1116    -1485 
   -1825    -1502    -1359    -1815    -1922    -1389    -1197    -1759 
   -2359    -2362    -2146    -2486    -3227    -3461    -2867    -2142 
   -1853    -1474     -584     -151    -1135    -2847    -3763    -2988 
   -1200     -303    -1063    -2423    -3331    -3339    -2768    -2531 
   -2309    -1205     -205     -696    -1819    -1691     -441     -201 
   -1528    -2490    -2096    -1318    -1071    -1633    -2566    -2795 
   -2296    -2126    -2205    -1545     -561     -681    -1821    -2485 
   -2038    -1190     -874    -1135    -1055     -656    -1121    -2239 
   -2762    -2708    -2434    -1768    -1058     -583      -10      395 
      99     -610    -1417    -2467    -3608    -4221    -3615    -1710 
     214      585     -661    -2324    -3214    -2803    -1786    -1339 
   -1336     -870     -222     -498    -1772    -2867    -2883    -2367 
   -2354    -2461    -1674     -661     -778    -1783    -2444    -2253 
   -1887    -2108    -2413    -2025    -1385    -1225    -1526    -2019 
   -2434    -2477    -2214    -1844    -1399    -1075     -999    -1105 
   -1702    -2678    -3001    -2506    -2259    -2305    -1632     -869 
   -1854    -3940    -4548    -3333    -2077    -1543    -1302     -903 
    -209      -47    -1183    -2542    -2728    -2120    -1865    -2116 
   -2026    -1332    -1050    -1642    -2122    -2031    -1942    -1938 
   -1857    -1760    -1490    -1132    -1086    -1341    -1734    -2208 
   -2363    -2022    -1858    -2166    -2442    -2641    -2965    -3040 
   -2471    -1629    -1507    -2320    -3106    -3410    -3503    -2943 
   -1258      395      426     -826    -1904    -2571    -3150    -3091 
   -2182    -1266    -1048    -1591    -2462    -2832    -2081     -641 
     255        9     -764    -1206     -970     -554     -962    -1993 
   -2417    -2546    -3528    -4378    -3248     -768      681      167 
   -1085    -1915    -2470    -2693    -2106    -1584    -2146    -2636 
   -1844     -916    -1116    -1748    -1822    -1672    -2081    -2755 
   -2533    -1000      764     1441      967       37     -899    -1885 
   -3171    -4280    -4326    -3515    -2732    -2080    -1123      -29 
     361     -400    -1687    -2647    -3256    -3658    -3370    -2340 
   -1516    -1410    -1425     -993     -409     -554    -1737    -2880 
   -3015    -2481    -1890    -1750    -2041    -1745     -876     -935 
   -2195    -3218    -3030    -2296    -2168    -2311    -1424     -125 
    -525    -2342    -3341    -3103    -2620    -2153    -1668    -1263 
    -853     -584     -814    -1169     -684      337       87    -1891 
   -3553    -3481    -2922    -3433    -4298    -3542    -1259     -108 
   -1209    -2355    -1873     -750     -328     -846    -1609    -1560 
    -839     -966    -2409    -3472    -2801    -1366     -726     -805 
    -683     -722    -1559    -2200    -2112    -2173    -2250    -1692 
   -1240    -1827    -3217    -4540    -4772    -3342     -977      773 
     895     -468    -2346    -3551    -3183    -1501     -301     -815 
   -1823    -2010    -2191    -2667    -2114     -876     -680    -1345 
   -1777    -1965    -1895    -1459    -1366    -2137    -3100    -3140 
   -1984     -769     -915    -2110    -2675    -2106    -1386    -1435 
   -2209    -2376    -1070      105     -633    -2471    -3333    -2732 
   -2018    -1891    -1512     -508       36     -746    -2081    -2674 
   -2474    -2230    -2185    -2145    -2054    -2006    -2004    -1887 
   -1691    -1699    -2025    -2600    -3041    -2926    -2578    -2263 
   -1557     -896    -1127    -1453    -1077     -803    -1097    -1474 
   -1660    -1572    -1194     -878    -1070    -1777    -2681    -3530 
   -3998    -3434    -1815     -660    -1097    -2058    -2062    -1363 
   -1219    -1842    -2316    -2224    -1804    -1290    -1235    -1998 
   -2619    -2010     -805     -265     -407     -527     -610    -1232 
   -2220    -2619    -2033    -1151    -1163    -2231    -2679    -1660 
   -1092    -2097    -2691    -1746    -1264    -2531    -3681    -2898 
   -1248     -792    -1652    -2254    -1750    -1178    -1749    -2687 
   -2134      -93     1336      839     -770    -2304    -3466    -4098 
   -3902    -3175    -2563    -2164    -1846    -1861    -2124    -2191 
   -2407    -3323    -4363    -4467    -3477    -2134    -1116     -581 
    -481     -769    -1243    -1782    -2358    -2664    -2575    -2142 
   -1287     -688    -1190    -2145    -2320    -1625     -783     -334 
    -382     -784    -1609    -2795    -3515    -3267    -2573    -1790 
    -874     -102      121     -184     -668    -1016     -963     -549 
    -295     -504     -874     -889     -486     -153       12      400 
    1021     1406     1146      579      317     -103    -1497    -3391 
   -4568    -4598    -3994    -3159    -1991     -818     -511    -1354 
   -2852    -4391    -5233    -4753    -3366    -2246    -1872    -1567 
    -444     1009     1274      311     -734    -1719    -2690    -3245 
   -3632    -4260    -4881    -4953    -4094    -2667    -1575    -1066 
    -911    -1201    -1869    -2582    -3060    -2801    -1610     -387 
    -129     -409     -155      359      -44    -1507    -3252    -5120 
   -7307    -9103    -9802    -9796    -9282    -7592    -4885    -2612 
   -1460     -660      130      345      330     1460     4048     6467 
    6652     4321      965    -1985    -3512    -2925     -531     2663 
    5412     6326     4733     1532    -1414    -3118    -4072    -4888 
   -5479    -6127    -7825   -10485   -12337   -12089   -10146    -7215 
   -3426      407     2574     2432     1178      477     1125     2505 
    3285     2965     1881      564      102      800      656    -2095 
   -6374    -9852   -11010    -9154    -4280     2604     9583    14551 
   16159    14702    11649     7681     2157    -4764   -10929   -14462 
  -15292   -13965   -11576    -9841    -9352    -9255    -9070    -9246 
   -9582    -8822    -6041    -1725     2455     5707     8329     9756 
    9420     7720     4935     1351    -2770    -7437   -11200   -11032 
   -5802     1827     7639     9088     6882     3673     1278        5 
    -534    -1266    -2751    -4633    -7007   -10280   -13463   -14589 
  -12866    -9614    -7047    -6459    -7156    -7013    -4357      588 
    5728     9231    11114    11503     9919     6721     2894     -406 
   -1983    -2030    -2122    -3150    -4827    -6635    -8284    -9683 
  -10628   -10260    -6902      162     8208    12752    11808     6438 
    -943    -7032    -9150    -7669    -5244    -3307    -1629     -839 
   -1873    -3937    -5096    -3944     -843     2376     3724     1729 
   -3071    -7326    -8170    -6299    -3919    -2116    -1135     -831 
    -857     -616      361     1051       45    -2774    -6967   -10920 
  -12306   -10702    -7047    -2222     2635     6372     8552     9177 
    7447     2666    -2880    -4904    -1977     2300     2987     -556 
   -4494    -5652    -3794     -444     1991     2293     1682     1078 
    -918    -5296   -10021   -12457   -12121    -9522    -5112     -432 
    1949      838    -2185    -4704    -5895    -5823    -3973     -816 
     607    -2558    -9247   -15271   -17039   -13687    -7014      263 
    6072     8444     6582     3152     1559     2420     4455     6075 
    6401     5923     5620     5718     5563     4679     3650     3358 
    3774     4261     3812      846    -4893   -11002   -14119   -12484 
   -7441    -2481     -602    -2099    -4118    -3890    -1900      132 
    1486     1340    -1120    -5306    -9335   -11142   -10060    -7631 
   -5995    -5737    -5699    -4414    -2164     -527      615     2533 
    4611     4978     3234     1224     1123     2930     5028     6432 
    6569     4799     1987      383     1071     2887     4075     4449 
    5012     5278     3244    -1513    -7248   -11863   -14210   -14553 
  -13333   -10359    -6444    -3750    -3597    -5300    -7065    -7701 
   -7254    -5668    -2710      422     1910     1375     -110    -1443 
   -2153    -2108    -1501     -953    -1053    -1707    -1881     -561 
    1930     4033     3996     1378    -1796    -2938    -2064    -1197 
   -1718    -3418    -5225    -6596    -7308    -7136    -6929    -7245 
   -7160    -6273    -4617    -1779     1470     3188     2347     -341 
   -3006    -4102    -3904    -3638    -3447    -2783    -1765     -778 
     -35      156     -137     -329       41     1066     2133     1933 
    -233    -3423    -5746    -6143    -5273    -4264    -3080    -1332 
     -60     -657    -2573    -4097    -4294    -3080    -1080      521 
    1140      916      -83    -1435    -2218    -2268    -2447    -3453 
   -4938    -5968    -6096    -5363    -3650    -1000     1687     3358 
    3777     3022     1584      461     -226     -789     -507     1065 
    2725     3384     3632     4113     4024     2581      541     -888 
   -1869    -3327    -4895    -5404    -5139    -5201    -5292    -4473 
   -3260    -3308    -4922    -5796    -4131    -1819    -1737    -3790 
   -5675    -5868    -4834    -3407    -1564      546     2011     1937 
     433    -1094    -1328     -893    -1374    -2655    -3065    -2111 
   -1410    -2131    -3005    -2558    -1640    -1510    -1687    -1861 
   -2685    -3379    -2274      106     1398      577    -1073    -2359 
   -3684    -5468    -7057    -7611    -6652    -4653    -2890    -1868 
   -1449    -1308     -426     1584     3789     5687     7122     6928 
    4565     1526     -626    -1667    -2177    -2643    -2756    -2361 
   -2304    -2963    -3570    -3481    -2857    -2695    -3657    -4486 
   -3604    -1688     -963    -2475    -4726    -5591    -4908    -3962 
   -3796    -4554    -5343    -5074    -3973    -3330    -3477    -3264 
   -1834      330     2116     2802     2546     1740      352    -1206 
   -1867    -1134      355     1363     1363     1158     1395     1452 
     562     -912    -2122    -2837    -3210    -3281    -3285    -3989 
   -5798    -7564    -7865    -6917    -5938    -5815    -6304    -6007 
   -4094    -1503      128      128     -584     -776     -510     -642 
   -1463    -2143    -1443      421     1719     1728     1512     1794 
    1780      980      812     2409     4423     5184     4818     3973 
    2666     1101      299      970     1998     1413     -989    -3469 
   -4226    -2640       35     1347       16    -3113    -6141    -7362 
   -6336    -4357    -3442    -4496    -6708    -8434    -8316    -6228 
   -3451    -1448     -861    -1626    -3080    -4014    -3693    -2677 
   -1796    -1277    -1483    -2593    -3628    -3915    -3824    -3177 
   -1614       72      776      140    -1054    -1560    -1412    -1437 
   -1485    -1273    -1587    -2995    -4930    -6643    -7786    -8070 
   -7261    -5617    -4075    -3535    -3835    -4155    -4136    -3662 
   -2631    -1617    -1522    -2033    -2035    -1927    -2826    -4029 
   -3964    -2466     -746      190      587     1325     2802     4440 
    5109     4351     2721      957     -537    -1680    -2594    -3200 
   -3028    -1722      117     1162      724     -534    -1642    -2400 
   -3037    -3608    -4113    -4382    -3985    -3022    -2466    -2833 
   -3304    -3051    -2378    -1930    -1836    -1985    -2344    -2816 
   -2997    -2227     -336     1799     2949     2601     1175     -595 
   -1787    -1304      540     1439      -76    -2532    -3547    -2702 
   -1144      321     1233     1003     -334    -2030    -3352    -4010 
   -4106    -3682    -3117    -3327    -4104    -3910    -2570    -1760 
   -2303    -2980    -2525    -1399     -857    -1401    -2798    -4298 
