Origin Time       2024/04/02 04:24:00
Lat.              40.133
Long.             141.712
Depth. (km)       71
Mag.              6.0
Station Code      AKT021
Station Lat.      39.9940
Station Long.     140.4035
Station Height(m) 119
Record Time       2024/04/02 04:24:56
Sampling Freq(Hz) 100Hz
Duration Time(s)  84
Dir.              N-S
Scale Factor      7845(gal)/8223790
Max. Acc. (gal)   3.896
Last Correction   2024/04/02 04:24:57
Memo.             
[...]
     562      542      530      534      548      562      588      643 
     738      868      997     1090     1136     1152     1165     1213 
    1298     1371     1391     1390     1404     1402     1347     1239 
    1107      967      869      855      908      924      789      502 
     183      -49     -170     -174      -56      145      357      507 
     554      510      449      440      504      645      832     1012 
    1116     1109     1026      945      908      918      993     1171 
    1378     1490     1510     1534     1594     1647     1682     1709 
    1684     1537     1305     1120     1065     1113     1225     1409 
    1613     1691     1541     1223      859      550      375      363 
     444      526      604      699      791      855      885      874 
     831      766      691      614      553      546      618      747 
     876      896      750      519      279       47     -132     -221 
    -249     -190        1      229      330      310      349      554 
     803      986     1246     1667     2020     2073     1903     1714 
    1556     1401     1279     1224     1196     1120      980      861 
     814      729      530      321      236      292      392      396 
     282      135       20       10      194      513      818     1139 
    1598     2081     2274     2018     1489      981      680      567 
     436      187       -9       28      259      473      477      274 
      90      120      352      689      972     1040      913      750 
     631      476      247       52        1       86      216      337 
     498      739      980     1088     1036      931      838      735 
     746     1030     1482     1892     2155     2214     2068     1841 
    1637     1464     1300     1124      974      899      828      720 
     727      913     1123     1262     1370     1532     1798     1972 
    1811     1464     1247     1156     1062     1036     1139     1115 
     796      434      260      176      156      390      865     1174 
     986      398     -328     -923    -1171    -1138     -981     -646 
    -114      537     1293     2050     2614     2924     3003     2871 
    2504     1892     1173      534       37     -261     -257      -48 
      66       12       20      217      423      469      477      726 
    1309     1952     2297     2280     1998     1517      996      695 
     720      891      909      704      486      398      369      259 
     -14     -306     -351     -139      137      417      758     1104 
    1223      945      355     -306     -838    -1200    -1333    -1039 
    -298      502     1050     1432     1695     1675     1476     1444 
    1599     1784     2038     2299     2303     2008     1613     1210 
     787      562      770     1156     1480     1799     1891     1561 
    1204     1152     1246     1210      942      660      637      699 
     607      542      607      643      777     1146     1455     1547 
    1574     1539     1381     1171      869      396       -8      -36 
     121        4     -388     -658     -571     -198      132      126 
     -70     -126        0       97       20      -83      -22      101 
     282      738     1217     1229     1057     1298     1849     2262 
    2415     2376     2349     2581     2907     2906     2492     2047 
    1890     1783     1420     1043      949      939      793      635 
     498      220     -117     -247     -141       22      126      206 
     322      341      164       52      106       -6     -243     -160 
     129      109     -244     -487     -348      147      807     1354 
    1638     1649     1501     1393     1246     1005      989     1242 
    1443     1518     1474     1092      405     -106      -79      349 
     803     1078     1242     1466     1827     2137     2146     2010 
    2072     2150     1856     1467     1513     1831     1908     1717 
    1598     1514     1131      588      221     -137     -544     -675 
    -611     -642     -577     -174      326      518      413      402 
     652      828      658      476      669     1004     1078      893 
     710      758     1078     1462     1691     1701     1486     1135 
     904      932      999      764      282      -10       78      341 
     602      746      714      670      757      936     1085     1054 
     940     1026     1305     1520     1521     1348     1144     1043 
    1020      999     1016     1054      946      703      522      473 
     496      546      561      418       79     -280     -399     -255 
     -74       59      230      419      598      656      418       72 
     -41       36      159      465     1144     1969     2374     2273 
    2189     2228     1981     1553     1475     1715     1707     1290 
     938      926      959      926     1127     1480     1498     1170 
     868      602      189     -221     -302       18      545     1032 
    1297     1179      654       90       21      495     1081     1480 
    1614     1332      642      -39     -255      -55      157      400 
     981     1553     1607     1449     1401     1198      795      562 
     708      989      993      722      572      664      703      602 
     653      854      874      749      695      569      244       67 
     388      950     1316     1431     1350     1167     1112     1177 
    1138     1053     1162     1436     1586     1463     1167      795 
     417      166       99      230      490      654      734      918 
    1028      811      378       -4     -164     -105       60      284 
     527      722      978     1424     1927     2289     2488     2532 
    2326     1972     1800     1787     1614     1277     1013      857 
     611      217      -87     -206     -294     -298      -90      143 
     280      457      610      557      454      565      823      993 
    1066     1165     1217     1077      866      762      699      689 
     876     1050      931      710      688      801      803      676 
     666      869     1040     1030      966      851      562      284 
     211      213      211      263      334      388      403      409 
     537      762      967     1223     1499     1633     1688     1825 
    1912     1717     1354     1119      999      904     1023     1379 
    1587     1441     1188      980      654      220       -4       40 
      62      -58     -126      -36       75      121      145       94 
     -35       64      494      788      652      405      352      400 
     504      845     1285     1478     1617     2056     2496     2539 
    2373     2239     2107     2053     2172     2207     1904     1409 
     959      670      508      314       52     -116      -56       75 
      18      -76       79      345      576      855     1053     1017 
     996     1240     1571     1702     1649     1498     1192      811 
     526      317      108      -25       16      159      314      476 
     459      172        5      247      592      666      585      656 
     892     1069     1107     1121     1096      997     1012     1140 
    1112      989     1090     1359     1486     1391     1266     1200 
    1066      827      584      369      201      153      276      506 
     704      712      483      280      384      648      773      677 
     508      454      434      336      328      472      611      780 
    1123     1536     1767     1728     1603     1579     1579     1524 
    1552     1660     1587     1375     1343     1453     1475     1360 
    1183     1058      949      720      523      546      615      530 
     421      476      585      525      403      513      783      913 
     903      911      918      926     1032     1162     1209     1233 
    1259     1202     1086     1036     1048     1053     1100     1201 
    1186      961      622      251     -118     -376     -382     -210 
    -114      -87       41      133       72       99      321      492 
     514      587      784      932     1027     1216     1426     1521 
    1579     1653     1640     1517     1447     1521     1553     1291 
     731      180       10      228      529      719      812      862 
     822      711      712      804      749      575      530      634 
     714      631      445      413      638      888      947      869 
     801      857     1062     1320     1444     1304     1030      908 
     928      874      760      626      372       54     -109      -91 
     -74      -98      -48       72      214      426      764     1229 
    1645     1788     1760     1767     1738     1532     1248     1096 
    1046      922      796      891     1138     1247     1131     1001 
    1042     1208     1391     1580     1655     1428     1100     1044 
    1183     1171      961      770      673      531      365      378 
     511      473      237       94      144      190      193      302 
     456      480      413      360      359      518      872     1202 
    1347     1368     1298     1123     1007     1085     1209     1220 
    1213     1314     1449     1449     1301     1128      981      869 
     919     1080     1038      719      360      156      135      209 
     279      367      517      646      683      716      841      955 
     955      930     1088     1412     1613     1630     1706     1787 
    1625     1305     1038      924     1075     1385     1487     1209 
     764      487      437      402      334      326      275      149 
     203      504      712      634      572      727      845      795 
     778      799      746      792     1036     1225     1161      961 
     783      699      858     1267     1525     1339     1028     1016 
    1166     1112      880      677      519      368      237      139 
      58        6      105      403      723      880      850      722 
     639      643      662      622      503      372      309      299 
     318      363      349      313      440      658      715      649 
     730      999     1198     1219     1273     1416     1404     1219 
    1144     1231     1267     1186     1128     1116     1019      908 
     958     1088     1171     1213     1148      935      716      611 
     607      635      626      615      643      618      527      534 
     602      529      450      621      859      858      765      892 
    1136     1162      946      791      781      743      715      849 
     976      858      602      477      522      610      769     1024 
    1213     1282     1417     1694     1938     1985     1850     1634 
    1340      943      571      409      480      598      580      421 
     194       83      264      568      747      908     1128     1205 
    1020      722      517      436      472      726     1027     1008 
     749      627      669      654      642      834     1124     1198 
    1001      754      572      392      275      338      479      535 
     544      534      460      395      507      787      947      873 
     930     1306     1615     1618     1528     1486     1408     1333 
    1405     1564     1642     1657     1695     1624     1247      741 
     440      338      367      666     1085     1210     1028      801 
     589      394      359      569      855      966      877      793 
     822      889      977     1093     1131     1032      849      669 
     580      576      608      676      712      664      592      537 
     514      579      726      903     1070     1178     1158     1043 
     942      874      841      834      772      641      510      426 
     384      314      252      326      514      708      845      834 
     692      592      641      827     1070     1228     1247     1200 
    1136     1054     1020     1097     1198     1209     1166     1182 
    1163      936      631      476      464      529      635      681 
     585      445      436      544      626      718      984     1356 
    1556     1490     1285     1021      785      695      766      976 
    1232     1259      946      595      418      275       89      -14 
      54      228      357      365      229      -43     -297     -307 
     -24      352      583      720      892      958      815      708 
     882     1206     1417     1561     1745     1823     1705     1533 
    1460     1493     1521     1448     1285     1120     1035     1028 
     981      843      730      649      495      351      375      472 
     494      487      487      464      448      494      650      861 
     989     1019      953      787      666      710      859     1063 
    1260     1298     1113      831      612      472      346      260 
     302      448      526      464      400      368      299      342 
     684     1193     1506     1410     1146     1092     1235     1406 
    1733     2292     2706     2608     2146     1676     1350     1231 
    1360     1648     1865     1853     1624     1251      896      745 
     751      774      832      907      881      787      791      912 
    1003     1074     1308     1663     1908     2068     2251     2286 
    2093     1941     1896     1748     1495     1279     1071      770 
     372      -68     -448     -687     -846    -1009    -1169    -1313 
   -1487    -1699    -1914    -2079    -2104    -1912    -1602    -1371 
   -1196     -911     -567     -280       20      461     1040     1593 
    1991     2332     2718     3102     3442     3773     4182     4652 
    4919     4818     4553     4384     4313     4170     3854     3358 
    2683     1915     1189      530      -90     -680    -1192    -1618 
   -2037    -2438    -2785    -3084    -3229    -3075    -2647    -2128 
   -1679    -1258     -666      105      796     1274     1694     2115 
    2470     2813     3079     3015     2652     2286     2080     1975 
    1834     1629     1435     1240      911      415     -162     -756 
   -1273    -1625    -1773    -1738    -1699    -1891    -2307    -2748 
   -2984    -2809    -2288    -1787    -1486    -1219     -851     -441 
     -87      207      607     1198     1786     2299     2902     3492 
    3798     3848     3817     3804     3851     3893     3801     3557 
    3208     2771     2346     2038     1676     1132      660      503 
     511      314     -160     -591     -822    -1044    -1212    -1050 
    -652     -326      -72      234      521      769     1196     1813 
    2301     2515     2610     2693     2736     2745     2772     2764 
    2551     2111     1669     1370     1082      689      310       55 
    -145     -315     -333     -198     -109     -141     -130        0 
     160      330      614      988     1212     1217     1293     1566 
    1798     1844     1817     1865     1960     1930     1783     1717 
    1718     1587     1367     1279     1316     1232      939      658 
     564      468      193      -89     -271     -514     -814    -1031 
   -1167    -1244    -1243    -1210    -1136     -916     -561     -249 
     -44      194      471      688      974     1431     1877     2172 
    2371     2547     2664     2656     2589     2606     2695     2667 
    2446     2110     1725     1362     1084      936      918      878 
     714      618      684      633      398      294      351      326 
     324      544      753      612      233      -31     -101     -174 
    -352     -496     -464     -373     -446     -687     -905     -957 
    -854     -670     -438     -179       39      210      450      822 
    1263     1702     2091     2438     2749     2992     3211     3407 
    3456     3365     3276     3126     2733     2101     1398      793 
     333      -32     -251     -224      -13      217      306      120 
    -240     -440     -333      -66      275      733     1252     1665 
    1854     1925     2077     2297     2403     2342     2214     2103 
    2003     1860     1688     1622     1642     1537     1302     1188 
    1244     1213      936      599      388      225       82      121 
     329      467      384      155      -32      -75       13      179 
     251       27     -344     -531     -548     -525     -337       -8 
     153       67      -64     -143     -248     -395     -419     -241 
     -28       67       40      -76     -114      236      986     1782 
    2355     2617     2554     2327     2114     1946     1827     1672 
    1371     1055      901      843      768      776      969     1100 
     912      639      579      661      828     1139     1471     1647 
    1638     1555     1529     1633     1858     2076     2030     1661 
    1205      869      685      676      810      923      853      550 
      49     -537     -951    -1069    -1059    -1001     -783     -434 
    -133       59      270      571      797      827      774      714 
     585      440      463      661      769      668      519      391 
     189        9       55      267      441      576      804     1117 
    1352     1474     1659     2058     2598     2983     2945     2519 
    1937     1379      970      783      811      977     1150     1297 
    1483     1648     1675     1603     1512     1327      949      503 
     210      109      103      135      270      652     1197     1530 
    1518     1378     1258     1252     1493     1776     1686     1264 
     997     1101     1347     1475     1406     1125      623      -52 
    -724    -1142    -1221    -1066     -756     -299      248      693 
     915     1063     1271     1425     1412     1290     1177     1063 
     884      710      619      581      718     1148     1611     1782 
    1696     1497     1186      831      575      341      -58     -467 
    -472       98     1069     2050     2650     2697     2288     1696 
    1246     1101     1263     1701     2149     2064     1243       97 
    -849    -1394    -1636    -1690    -1557    -1316    -1178    -1175 
   -1117     -919     -627     -198      400     1021     1574     2083 
    2486     2732     2839     2845     2760     2469     1950     1479 
    1209     1035      897      778      588      305       95      135 
     286      247      101      268      810     1243     1347     1498 
    1844     2079     2120     2126     2041     1846     1829     2138 
    2466     2425     2016     1490     1055      885     1007     1090 
     768      139     -364     -415       35      765     1386     1594 
    1362      901      483      241      168      143       -8     -233 
    -334     -356     -445     -517     -444     -301     -194     -117 
     -98     -202     -355     -351      -71      332      545      406 
      98       14      423     1201     1964     2412     2398     1912 
    1186      598      402      626     1096     1480     1451      986 
     333     -207     -407     -228      207      704      963      858 
     561      302      275      548      864     1001     1093     1310 
    1610     1941     2358     2855     3250     3315     2990     2438 
    1877     1459     1270     1277     1283     1115      816      561 
     400      279      253      342      364      291      363      589 
     673      415        4     -137      132      479      599      575 
     670      984     1409     1800     1979     1830     1564     1571 
    1896     2215     2346     2317     2070     1622     1192      918 
