Origin Time       2024/04/02 04:24:00
Lat.              40.133
Long.             141.712
Depth. (km)       71
Mag.              6.0
Station Code      AKT016
Station Lat.      39.4545
Station Long.     140.4758
Station Height(m) 25
Record Time       2024/04/02 04:24:59
Sampling Freq(Hz) 100Hz
Duration Time(s)  130
Dir.              U-D
Scale Factor      7845(gal)/8223790
Max. Acc. (gal)   4.927
Last Correction   2024/04/02 04:24:59
Memo.             
[...]
  -20568   -20065   -19712   -19461   -19136   -18964   -19149   -19402 
  -19531   -19664   -19896   -20359   -21034   -21629   -22027   -22275 
  -22346   -22262   -22161   -22135   -21987   -21540   -20946   -20340 
  -19828   -19580   -19669   -19992   -20401   -20815   -21054   -20993 
  -20736   -20279   -19630   -19098   -18918   -18985   -19257   -19849 
  -20634   -21425   -22144   -22519   -22497   -22418   -22324   -22106 
  -22003   -22080   -22095   -22064   -21980   -21598   -21116   -20953 
  -20993   -20974   -20929   -20837   -20584   -20251   -19985   -19793 
  -19630   -19542   -19569   -19637   -19712   -19920   -20380   -20931 
  -21251   -21448   -21820   -22257   -22589   -22549   -21814   -20866 
  -20405   -20302   -20378   -20729   -21054   -21130   -21181   -21146 
  -20814   -20336   -19894   -19479   -19172   -19174   -19498   -19909 
  -20142   -20070   -19831   -19565   -19380   -19606   -20358   -21315 
  -22148   -22809   -23257   -23157   -22557   -21930   -21427   -21222 
  -21416   -21558   -21459   -21398   -21332   -21070   -20802   -20588 
  -20051   -19292   -18866   -18787   -18932   -19411   -20119   -20841 
  -21450   -21759   -21583   -21031   -20490   -20113   -19746   -19346 
  -19116   -19203   -19608   -20294   -21072   -21660   -22103   -22585 
  -23012   -23160   -23022   -22731   -22234   -21516   -20860   -20480 
  -20420   -20665   -21034   -21273   -21128   -20586   -19958   -19323 
  -18697   -18461   -18789   -19360   -19827   -20224   -20615   -20713 
  -20552   -20495   -20403   -20189   -20252   -20571   -20858   -21339 
  -22019   -22415   -22451   -22260   -21894   -21668   -21701   -21801 
  -21930   -21929   -21612   -21177   -20767   -20399   -20228   -20186 
  -20115   -20132   -20336   -20642   -20866   -20758   -20262   -19631 
  -19079   -18612   -18420   -18860   -19877   -21038   -21964   -22464 
  -22524   -22194   -21643   -21119   -20757   -20650   -20730   -20852 
  -21074   -21300   -21265   -21041   -20814   -20565   -20439   -20710 
  -21249   -21708   -21926   -21826   -21506   -21165   -20810   -20491 
  -20367   -20480   -20744   -20875   -20690   -20409   -20136   -19859 
  -19919   -20352   -20771   -21015   -21003   -20737   -20293   -19674 
  -19230   -19337   -19911   -20711   -21443   -21999   -22578   -23031 
  -22966   -22462   -21856   -21400   -21290   -21381   -21288   -21038 
  -20842   -20564   -20185   -20013   -20055   -20074   -20173   -20380 
  -20320   -19988   -19712   -19460   -19302   -19499   -19869   -20240 
  -20791   -21355   -21498   -21235   -20949   -20808   -20852   -21173 
  -21528   -21739   -22134   -22550   -22416   -21937   -21552   -21227 
  -21012   -21023   -21054   -21011   -20989   -20891   -20723   -20655 
  -20637   -20580   -20363   -19809   -19149   -18847   -19066   -19580 
  -19944   -20051   -20187   -20421   -20653   -20846   -21001   -21151 
  -21200   -21234   -21564   -21984   -22148   -22080   -21789   -21413 
  -21253   -21290   -21340   -21325   -21362   -21612   -21802   -21532 
  -20996   -20457   -19888   -19568   -19734   -19977   -19980   -19907 
  -19782   -19479   -19128   -18921   -18978   -19387   -20109   -20957 
  -21560   -21864   -22148   -22285   -22227   -22269   -22216   -21870 
  -21535   -21231   -20761   -20318   -20163   -20287   -20569   -20876 
  -21097   -21150   -21011   -20827   -20615   -20260   -19931   -19732 
  -19457   -19179   -19137   -19342   -19799   -20355   -20564   -20224 
  -19700   -19441   -19449   -19780   -20692   -21794   -22534   -22925 
  -22728   -21882   -21199   -20979   -20852   -20945   -21367   -21793 
  -22106   -22260   -22083   -21693   -21342   -21069   -20865   -20810 
  -20880   -20941   -20987   -21159   -21386   -21428   -21239   -20868 
  -20380   -19917   -19516   -19348   -19674   -20217   -20660   -21019 
  -21143   -21141   -21258   -21170   -20798   -20565   -20505   -20510 
  -20748   -21116   -21250   -21217   -21235   -21074   -20717   -20563 
  -20707   -20981   -21197   -21181   -21039   -20972   -20892   -20640 
  -20386   -20444   -20883   -21585   -22199   -22234   -21718   -21091 
  -20590   -20279   -20127   -20120   -20451   -21087   -21589   -21664 
  -21370   -20823   -20108   -19430   -19133   -19267   -19498   -19718 
  -20002   -20294   -20618   -21066   -21641   -22268   -22769   -23014 
  -22975   -22657   -22157   -21547   -20808   -20019   -19287   -18744 
  -18724   -19306   -19978   -20378   -20642   -20814   -20787   -20556 
  -20159   -19870   -19948   -20202   -20403   -20598   -20838   -21119 
  -21388   -21578   -21660   -21463   -20956   -20487   -20214   -20090 
  -20229   -20548   -20852   -21134   -21315   -21273   -20965   -20532 
  -20256   -20131   -20032   -20179   -20648   -21030   -21053   -20869 
  -20700   -20637   -20644   -20618   -20484   -20267   -20174   -20363 
  -20730   -21092   -21290   -21274   -21163   -21047   -20964   -21057 
  -21377   -21702   -21865   -21864   -21737   -21601   -21332   -20749 
  -20224   -20046   -19946   -19803   -19804   -20067   -20483   -20844 
  -21091   -21215   -21207   -21143   -21000   -20861   -20996   -21188 
  -21061   -20922   -21034   -21072   -21072   -21294   -21505   -21475 
  -21138   -20518   -19927   -19602   -19595   -19754   -19730   -19646 
  -19935   -20398   -20623   -20802   -21103   -21317   -21509   -21764 
  -21847   -21745   -21618   -21483   -21404   -21454   -21640   -21820 
  -21720   -21358   -20995   -20655   -20356   -20329   -20602   -20912 
  -21042   -20965   -20781   -20563   -20316   -20136   -20101   -20191 
  -20409   -20536   -20367   -20204   -20221   -20173   -20194   -20475 
  -20719   -20943   -21400   -21787   -21824   -21636   -21222   -20475 
  -19589   -19074   -19272   -19984   -20881   -21712   -22194   -22314 
  -22100   -21405   -20528   -19944   -19731   -19947   -20561   -21151 
  -21540   -21830   -21740   -21220   -20788   -20467   -20043   -19838 
  -19997   -20318   -20726   -21007   -20923   -20726   -20722   -20835 
  -20953   -21105   -21247   -21223   -20983   -20679   -20441   -20340 
  -20444   -20688   -21010   -21501   -22059   -22295   -22034   -21482 
  -20908   -20533   -20479   -20688   -20997   -21215   -21265   -21136 
  -20791   -20403   -20209   -20214   -20312   -20428   -20536   -20401 
  -19962   -19689   -19762   -19969   -20281   -20686   -21145   -21633 
  -21945   -21955   -21802   -21649   -21528   -21405   -21278   -21213 
  -21180   -21105   -21104   -21178   -21127   -20895   -20545   -20129 
  -19716   -19367   -19195   -19414   -19997   -20560   -20891   -21065 
  -20993   -20645   -20333   -20274   -20317   -20285   -20266   -20372 
  -20502   -20557   -20646   -20858   -21074   -21105   -20929   -20738 
  -20707   -20877   -21177   -21424   -21489   -21451   -21456   -21483 
  -21485   -21447   -21230   -20806   -20389   -20005   -19618   -19552 
  -19882   -20167   -20263   -20278   -20182   -20083   -20124   -20277 
  -20409   -20416   -20422   -20466   -20460   -20588   -20941   -21352 
  -21706   -21821   -21660   -21475   -21374   -21338   -21359   -21424 
  -21636   -21940   -22063   -22037   -21992   -21770   -21301   -20706 
  -19927   -19122   -18889   -19302   -19831   -20324   -20876   -21292 
  -21343   -21120   -20910   -20812   -20758   -20713   -20683   -20775 
  -21166   -21747   -22154   -22238   -22088   -21741   -21251   -20875 
  -20730   -20625   -20482   -20322   -20174   -20154   -20275   -20459 
  -20576   -20515   -20544   -20854   -21155   -21239   -21201   -21199 
  -21151   -20783   -20252   -20013   -20105   -20406   -20958   -21654 
  -22144   -22157   -21745   -21169   -20625   -20179   -19838   -19672 
  -19809   -20164   -20513   -20788   -20960   -20962   -20749   -20266 
  -19620   -19103   -18952   -19160   -19510   -19963   -20652   -21334 
  -21598   -21520   -21444   -21428   -21305   -20943   -20428   -20081 
  -20137   -20533   -21131   -21816   -22387   -22707   -22715   -22461 
  -22086   -21598   -21070   -20682   -20347   -20043   -20027   -20360 
  -20818   -21115   -21078   -20899   -20810   -20656   -20383   -20224 
  -20271   -20499   -20810   -21023   -21128   -21146   -20898   -20424 
  -20029   -19785   -19641   -19611   -19633   -19745   -20101   -20710 
  -21343   -21656   -21625   -21455   -21066   -20569   -20464   -20700 
  -20781   -20771   -20912   -20953   -20800   -20725   -20680   -20605 
  -20703   -20887   -20968   -21014   -21022   -20885   -20642   -20486 
  -20490   -20557   -20744   -21119   -21477   -21667   -21770   -21690 
  -21278   -20772   -20429   -20186   -20016   -19985   -20128   -20536 
  -21055   -21244   -21039   -20713   -20394   -20197   -20144   -20169 
  -20349   -20665   -20957   -21169   -21222   -21085   -20794   -20301 
  -19791   -19557   -19545   -19699   -20110   -20591   -20935   -21178 
  -21269   -21170   -21015   -20803   -20460   -20169   -20225   -20532 
  -20629   -20413   -20277   -20417   -20713   -20953   -20945   -20783 
  -20700   -20675   -20680   -20856   -21219   -21686   -22044   -21988 
  -21585   -21155   -20783   -20406   -20108   -19978   -19924   -19965 
  -20275   -20680   -20830   -20912   -21207   -21373   -21173   -20912 
  -20653   -20340   -20187   -20135   -20054   -20127   -20479   -20969 
  -21316   -21440   -21460   -21408   -21374   -21475   -21559   -21436 
  -21199   -21081   -21115   -21174   -21234   -21378   -21670   -21999 
  -22169   -22215   -22258   -22145   -21789   -21456   -21354   -21419 
  -21469   -21348   -21172   -21112   -21076   -20939   -20603   -20031 
  -19456   -19103   -19074   -19453   -20085   -20617   -21022   -21406 
  -21533   -21317   -21020   -20711   -20409   -20263   -20287   -20443 
  -20694   -20937   -21149   -21338   -21536   -21824   -22072   -22129 
  -22061   -21856   -21547   -21284   -20973   -20648   -20626   -20995 
  -21663   -22405   -22808   -22725   -22306   -21671   -20985   -20389 
  -19980   -19799   -19597   -19199   -18877   -18765   -18670   -18539 
  -18409   -18380   -18677   -19252   -19765   -19939   -19789   -19635 
  -19637   -19742   -20183   -20969   -21587   -21861   -21946   -21937 
  -22037   -22221   -22188   -22069   -22162   -22226   -21972   -21547 
  -21097   -20660   -20286   -20027   -19963   -20073   -20266   -20484 
  -20637   -20746   -20862   -20802   -20529   -20325   -20218   -20034 
  -19899   -19992   -20170   -20260   -20304   -20359   -20538   -20973 
  -21409   -21629   -21917   -22289   -22455   -22526   -22642   -22663 
  -22608   -22619   -22634   -22620   -22605   -22405   -21948   -21415 
  -20892   -20321   -19707   -19198   -18954   -18966   -19109   -19224 
  -19218   -19170   -19214   -19373   -19710   -20271   -20910   -21415 
  -21628   -21575   -21536   -21708   -21937   -22044   -22192   -22442 
  -22516   -22426   -22334   -22242   -22204   -22068   -21621   -21100 
  -20682   -20191   -19656   -19238   -18867   -18527   -18387   -18596 
  -19114   -19677   -20128   -20467   -20640   -20694   -20764   -20835 
  -20826   -20827   -20911   -21066   -21483   -22146   -22658   -22901 
  -22971   -22925   -22887   -22877   -22773   -22476   -22022   -21554 
  -21095   -20633   -20139   -19519   -18936   -18647   -18628   -18636 
  -18304   -17616   -17157   -17188   -17396   -17604   -17814   -17984 
  -18112   -18289   -18646   -19356   -20563   -21994   -23130   -23908 
  -24476   -24761   -24667   -24250   -23776   -23468   -23232   -22968 
  -22681   -22404   -22167   -21772   -21046   -20112   -19080   -18085 
  -17354   -16933   -16727   -16654   -16754   -17180   -17826   -18504 
  -19271   -19957   -20376   -20752   -21068   -21273   -21732   -22489 
  -23274   -23927   -24266   -24183   -23757   -23175   -22621   -22229 
  -22195   -22399   -22567   -22886   -23349   -23552   -23452   -23259 
  -23006   -22698   -22374   -21911   -21304   -20880   -20511   -19777 
  -19016   -18642   -18378   -18149   -18249   -18526   -18704   -18918 
  -19140   -19141   -19098   -19261   -19533   -19858   -20371   -21065 
  -21824   -22557   -22933   -22775   -22466   -22188   -21778   -21298 
  -20885   -20582   -20356   -20075   -19749   -19543   -19515   -19649 
  -19975   -20405   -20677   -20714   -20595   -20308   -20061   -20131 
  -20343   -20497   -20760   -21149   -21312   -20987   -20367   -19803 
  -19449   -19364   -19391   -19248   -19040   -19035   -19149   -19230 
  -19458   -19988   -20560   -20916   -21162   -21520   -21913   -22072 
  -21961   -21726   -21401   -21024   -20761   -20598   -20498   -20619 
  -20787   -20731   -20669   -20649   -20528   -20544   -20842   -21132 
  -21273   -21446   -21582   -21554   -21590   -21643   -21400   -21033 
  -20831   -20691   -20537   -20497   -20491   -20452   -20483   -20436 
  -20191   -20052   -20208   -20464   -20731   -21142   -21586   -21737 
  -21536   -21080   -20487   -20032   -19946   -20241   -20821   -21429 
  -21766   -21782   -21618   -21340   -21060   -20977   -21115   -21423 
  -21766   -21764   -21443   -21266   -21274   -21347   -21573   -21851 
  -22029   -22077   -21959   -21667   -21285   -21078   -21303   -21799 
  -22168   -22307   -22306   -22059   -21558   -21101   -20811   -20641 
  -20559   -20293   -19668   -19039   -18804   -18989   -19454   -20054 
  -20587   -20773   -20542   -20117   -19737   -19610   -19882   -20456 
  -21213   -22059   -22725   -23028   -23029   -22817   -22408   -21879 
  -21346   -20726   -19843   -18767   -17690   -16818   -16241   -15838 
  -15638   -15795   -16289   -17104   -18117   -19082   -19927   -20594 
  -20987   -21235   -21514   -21760   -21963   -22225   -22411   -22399 
  -22223   -21856   -21479   -21481   -21872   -22354   -22755   -22983 
  -22959   -22724   -22345   -21883   -21435   -21103   -21050   -21212 
  -21305   -21311   -21216   -20865   -20341   -19749   -19082   -18484 
  -18110   -17880   -17594   -17323   -17401   -17868   -18524   -19300 
  -20001   -20459   -20875   -21458   -22130   -22707   -23242   -23951 
  -24669   -25087   -25131   -24794   -24115   -23221   -22264   -21439 
  -20926   -20714   -20555   -20289   -20143   -20348   -20777   -21254 
  -21632   -21721   -21525   -21207   -20938   -20880   -21022   -21249 
  -21452   -21458   -21273   -21149   -21105   -20858   -20344   -19827 
  -19539   -19430   -19272   -19134   -19291   -19712   -20277   -20961 
  -21593   -22011   -22196   -22075   -21803   -21865   -22248   -22430 
  -22343   -22335   -22512   -22786   -23005   -23022   -22863   -22523 
  -21926   -21228   -20714   -20441   -20279   -20235   -20325   -20385 
  -20410   -20574   -20758   -20717   -20548   -20491   -20599   -20881 
  -21265   -21550   -21789   -22040   -22046   -21814   -21645   -21436 
  -20950   -20285   -19534   -18782   -18238   -17923   -17714   -17591 
  -17609   -17864   -18285   -18550   -18557   -18640   -18990   -19429 
  -19975   -20787   -21632   -22211   -22592   -22854   -22977   -23066 
  -23064   -22721   -22150   -21716   -21440   -21122   -20815   -20637 
  -20533   -20575   -20772   -20765   -20366   -19834   -19471   -19354 
  -19537   -20100   -20773   -21153   -21286   -21309   -21015   -20348 
  -19626   -18917   -18096   -17523   -17587   -18003   -18407   -18796 
  -19152   -19338   -19314   -19237   -19332   -19635   -20121   -20848 
  -21725   -22507   -23024   -23193   -23026   -22694   -22468   -22478 
  -22658   -22956   -23224   -23133   -22554   -21694   -20826   -20198 
  -20036   -20287   -20713   -21242   -21811   -22148   -22077   -21713 
  -21246   -20822   -20511   -20200   -19731   -19201   -18817   -18697 
  -18816   -19043   -19360   -19749   -19946   -20005   -20321   -20779 
  -21053   -21161   -21109   -20839   -20520   -20461   -20835   -21521 
  -22265   -22967   -23627   -24059   -24112   -23792   -23167   -22565 
  -22158   -21748   -21393   -21163   -20784   -20170   -19480   -18882 
  -18538   -18508   -18646   -18736   -18802   -19079   -19537   -19915 
  -20121   -20197   -20204   -20227   -20232   -20070   -19809   -19742 
  -19912   -20185   -20599   -21111   -21463   -21602   -21668   -21640 
  -21336   -20742   -20028   -19317   -18837   -18898   -19457   -20179 
  -20703   -20929   -20995   -20881   -20659   -20582   -20572   -20482 
  -20466   -20602   -20810   -21093   -21397   -21622   -21906   -22227 
  -22168   -21668   -21107   -20644   -20380   -20453   -20646   -20618 
  -20351   -19969   -19573   -19394   -19488   -19647   -19820   -20002 
  -20050   -19990   -20038   -20225   -20389   -20592   -21053   -21670 
  -22291   -22943   -23422   -23476   -23176   -22712   -22262   -21921 
  -21716   -21787   -22069   -22212   -22121   -21914   -21640   -21317 
  -20916   -20483   -20213   -20147   -20125   -20135   -20232   -20394 
  -20572   -20614   -20443   -20187   -19954   -19904   -20293   -21014 
  -21709   -22362   -23017   -23350   -23180   -22612   -21703   -20683 
  -19877   -19302   -19024   -19305   -20009   -20772   -21523   -22300 
  -23028   -23544   -23720   -23768   -23981   -24356   -24850   -25343 
  -25596   -25660   -25574   -24972   -23811   -22512   -21242   -19981 
  -18964   -18407   -18208   -18158   -18115   -18045   -17991   -18042 
  -18237   -18400   -18405   -18372   -18445   -18675   -19003   -19365 
  -19758   -20112   -20375   -20513   -20448   -20316   -20254   -20092 
  -19746   -19407   -19234   -19290   -19647   -20266   -20969   -21597 
  -21980   -21999   -21763   -21401   -20904   -20340   -19845   -19552 
  -19589   -19795   -19818   -19585   -19191   -18721   -18335   -18183 
  -18320   -18685   -19195   -19785   -20304   -20713   -21099   -21348 
  -21289   -21020   -20753   -20598   -20653   -20895   -21112   -21323 
  -21644   -21838   -21687   -21388   -21258   -21315   -21417   -21556 
  -21703   -21763   -21691   -21487   -21276   -21242   -21389   -21523 
  -21509   -21519   -21705   -21797   -21577   -21297   -21062   -20694 
  -20344   -20239   -20275   -20395   -20648   -20927   -21088   -21169 
  -21143   -20776   -20123   -19541   -19186   -19102   -19325   -19731 
  -20132   -20443   -20723   -20956   -21081   -21224   -21379   -21439 
  -21500   -21575   -21614   -21695   -21886   -22161   -22327   -22171 
  -21780   -21346   -20922   -20517   -20268   -20348   -20667   -21043 
  -21421   -21816   -22299   -22813   -23172   -23245   -22944   -22345 
  -21686   -21066   -20534   -20364   -20687   -21124   -21298   -21168 
  -20706   -20031   -19441   -18954   -18634   -18793   -19263   -19622 
  -19789   -19704   -19473   -19438   -19512   -19448   -19391   -19458 
  -19502   -19386   -19078   -18843   -19032   -19568   -20213   -20927 
  -21493   -21562   -21240   -20900   -20699   -20686   -20907   -21315 
  -21803   -22204   -22316   -22165   -21992   -21870   -21668   -21405 
  -21134   -20795   -20493   -20380   -20318   -20202   -20232   -20395 
  -20422   -20409   -20491   -20453   -20353   -20425   -20594   -20822 
  -21173   -21512   -21787   -22099   -22292   -22176   -21919   -21655 
  -21311   -20929   -20610   -20397   -20304   -20236   -20108   -20021 
  -20073   -20258   -20599   -21066   -21494   -21821   -22086   -22196 
  -22177   -22304   -22678   -23137   -23557   -23770   -23465   -22578 
  -21361   -20086   -18997   -18130   -17509   -17382   -17774   -18343 
  -18747   -18940   -19070   -19145   -19168   -19163   -19144   -19265 
