Origin Time       2024/04/02 04:24:00
Lat.              40.133
Long.             141.712
Depth. (km)       71
Mag.              6.0
Station Code      AOM018
Station Lat.      40.7776
Station Long.     140.2060
Station Height(m) 38
Record Time       2024/04/02 04:25:01
Sampling Freq(Hz) 100Hz
Duration Time(s)  108
Dir.              E-W
Scale Factor      7845(gal)/8223790
Max. Acc. (gal)   3.313
Last Correction   2024/04/02 04:25:01
Memo.             
[...]
  -12104   -12001   -11934   -12001   -12075   -12132   -12195   -12206 
  -12252   -12325   -12286   -12205   -12102   -11967   -11932   -11950 
  -11950   -12037   -12205   -12393   -12568   -12710   -12812   -12769 
  -12595   -12415   -12199   -12000   -11935   -11898   -11850   -11882 
  -11955   -11977   -11989   -12070   -12167   -12208   -12221   -12217 
  -12198   -12283   -12522   -12748   -12754   -12580   -12371   -12118 
  -11831   -11684   -11716   -11803   -11896   -11942   -11836   -11699 
  -11718   -11799   -11834   -11928   -12101   -12231   -12249   -12208 
  -12226   -12289   -12285   -12252   -12243   -12282   -12382   -12444 
  -12513   -12622   -12629   -12580   -12518   -12452   -12511   -12607 
  -12650   -12631   -12475   -12293   -12232   -12270   -12318   -12297 
  -12267   -12232   -12106   -12027   -11985   -11819   -11689   -11662 
  -11627   -11705   -11886   -12060   -12279   -12448   -12519   -12631 
  -12756   -12802   -12779   -12721   -12718   -12665   -12417   -12193 
  -12144   -12136   -12151   -12209   -12225   -12183   -12075   -11877 
  -11759   -11803   -11920   -12102   -12199   -12145   -12148   -12113 
  -11901   -11719   -11658   -11676   -11734   -11838   -12078   -12353 
  -12511   -12630   -12691   -12671   -12694   -12706   -12649   -12607 
  -12577   -12517   -12449   -12459   -12513   -12445   -12305   -12258 
  -12263   -12274   -12356   -12457   -12498   -12529   -12599   -12725 
  -12864   -12928   -12953   -12993   -13020   -12996   -12954   -12951 
  -12993   -13014   -12953   -12841   -12703   -12538   -12399   -12278 
  -12194   -12248   -12278   -12208   -12229   -12264   -12228   -12172 
  -12004   -11805   -11719   -11719   -11855   -11966   -11921   -12015 
  -12233   -12333   -12464   -12668   -12826   -12989   -13101   -13136 
  -13115   -12877   -12517   -12283   -12213   -12248   -12241   -12163 
  -12118   -11973   -11772   -11750   -11724   -11647   -11772   -11965 
  -12105   -12294   -12395   -12401   -12441   -12417   -12442   -12681 
  -12903   -13032   -13181   -13221   -13081   -12907   -12841   -12792 
  -12613   -12383   -12152   -11938   -11846   -11781   -11647   -11512 
  -11522   -11699   -11788   -11840   -12042   -12155   -12178   -12266 
  -12240   -12110   -12056   -12042   -12013   -12077   -12249   -12352 
  -12409   -12569   -12734   -12771   -12779   -12919   -13059   -13035 
  -12960   -12854   -12722   -12618   -12421   -12178   -12002   -11784 
  -11556   -11431   -11381   -11365   -11406   -11472   -11458   -11442 
  -11524   -11570   -11545   -11547   -11516   -11456   -11500   -11641 
  -11773   -11896   -12009   -12017   -11942   -11882   -11834   -11763 
  -11745   -11866   -12020   -12067   -12094   -12156   -12177   -12121 
  -12019   -11907   -11840   -11894   -12021   -12094   -12183   -12376 
  -12521   -12576   -12641   -12675   -12671   -12717   -12811   -12893 
  -12915   -12872   -12783   -12630   -12461   -12328   -12199   -12091 
  -12013   -11947   -11905   -11792   -11616   -11637   -11804   -11855 
  -11874   -11951   -11959   -11979   -12154   -12340   -12395   -12410 
  -12447   -12459   -12472   -12484   -12430   -12403   -12453   -12474 
  -12552   -12739   -12812   -12727   -12626   -12478   -12302   -12249 
  -12344   -12471   -12487   -12436   -12490   -12586   -12621   -12717 
  -12897   -13032   -13097   -13057   -12934   -12876   -12831   -12699 
  -12613   -12622   -12583   -12482   -12449   -12532   -12654   -12700 
  -12617   -12513   -12475   -12421   -12317   -12204   -12055   -11928 
  -11888   -11901   -11983   -12127   -12317   -12483   -12540   -12587 
  -12634   -12660   -12777   -12846   -12746   -12634   -12505   -12357 
  -12278   -12197   -12129   -12032   -11869   -11919   -12229   -12474 
  -12653   -12897   -13027   -12938   -12757   -12633   -12590   -12538 
  -12455   -12322   -12202   -12251   -12274   -12170   -12237   -12356 
  -12320   -12302   -12248   -12160   -12144   -12005   -11847   -11892 
  -11966   -11996   -11982   -11882   -11821   -11803   -11739   -11724 
  -11817   -11920   -11898   -11851   -11993   -12209   -12333   -12425 
  -12403   -12282   -12276   -12334   -12376   -12494   -12644   -12714 
  -12633   -12390   -12133   -12009   -11963   -11889   -11813   -11784 
  -11678   -11369   -11030   -10939   -10989   -10903   -10677   -10602 
  -10833   -11043   -11076   -11229   -11500   -11674   -11763   -11807 
  -11809   -11892   -12056   -12135   -12168   -12249   -12214   -12020 
  -11857   -11788   -11751   -11726   -11624   -11443   -11338   -11284 
  -11205   -11233   -11400   -11668   -11994   -12235   -12388   -12592 
  -12860   -13042   -13039   -13089   -13315   -13374   -13198   -13066 
  -12981   -12874   -12744   -12679   -12773   -12772   -12614   -12565 
  -12534   -12449   -12430   -12410   -12390   -12430   -12463   -12449 
  -12494   -12644   -12667   -12499   -12390   -12276   -12056   -11983 
  -12097   -12109   -11947   -11790   -11637   -11416   -11294   -11236 
  -11097   -11013   -11049   -11196   -11479   -11786   -12143   -12579 
  -12906   -13092   -13275   -13537   -13768   -13757   -13626   -13574 
  -13514   -13359   -13107   -12893   -12792   -12681   -12644   -12696 
  -12706   -12807   -12996   -13080   -13163   -13328   -13425   -13405 
  -13412   -13466   -13446   -13458   -13626   -13770   -13814   -13811 
  -13695   -13543   -13497   -13548   -13621   -13645   -13680   -13803 
  -13855   -13780   -13786   -13834   -13701   -13441   -13243   -13158 
  -13128   -13055   -12980   -12966   -12960   -12896   -12820   -12811 
  -12769   -12640   -12609   -12667   -12707   -12858   -13036   -13028 
  -12968   -12933   -12771   -12519   -12333   -12199   -12066   -11966 
  -11908   -11828   -11797   -11862   -11805   -11651   -11620   -11554 
  -11416   -11388   -11373   -11310   -11263   -11244   -11317   -11418 
  -11448   -11434   -11412   -11446   -11560   -11758   -12032   -12193 
  -12198   -12189   -12237   -12357   -12418   -12388   -12298   -12081 
  -11959   -11943   -11766   -11700   -11836   -11873   -11874   -11878 
  -11855   -11901   -11928   -11940   -11948   -11885   -11880   -11886 
  -11857   -11977   -12140   -12239   -12347   -12434   -12572   -12771 
  -12854   -12858   -12885   -12904   -12852   -12730   -12638   -12567 
  -12451   -12376   -12322   -12144   -11932   -11800   -11707   -11670 
  -11674   -11628   -11560   -11476   -11348   -11277   -11280   -11257 
  -11218   -11157   -11061   -11025   -11075   -11168   -11307   -11456 
  -11516   -11523   -11607   -11664   -11584   -11553   -11573   -11461 
  -11304   -11206   -11144   -11200   -11389   -11595   -11808   -12078 
  -12264   -12248   -12156   -12089   -12017   -11962   -11900   -11801 
  -11742   -11700   -11619   -11624   -11728   -11842   -12012   -12156 
  -12148   -12129   -12143   -12109   -12141   -12262   -12356   -12491 
  -12714   -12860   -12893   -12966   -13069   -13126   -13198   -13251 
  -13178   -13032   -12830   -12502   -12136   -11813   -11472   -11165 
  -10966   -10816   -10785   -10909   -11002   -11034   -11118   -11211 
  -11338   -11616   -11962   -12229   -12406   -12444   -12287   -12104 
  -12056   -12044   -12017   -12046   -11997   -11805   -11700   -11761 
  -11830   -11911   -12040   -12151   -12305   -12548   -12796   -13030 
  -13193   -13235   -13240   -13262   -13301   -13351   -13375   -13374 
  -13373   -13367   -13365   -13404   -13502   -13560   -13540   -13562 
  -13644   -13756   -13903   -13942   -13855   -13830   -13848   -13757 
  -13637   -13599   -13597   -13609   -13660   -13652   -13493   -13301 
  -13198   -13104   -12969   -12870   -12818   -12714   -12538   -12379 
  -12289   -12209   -12097   -12001   -11939   -11851   -11749   -11730 
  -11761   -11697   -11608   -11619   -11645   -11578   -11446   -11345 
  -11295   -11206   -11140   -11211   -11313   -11392   -11564   -11803 
  -12021   -12182   -12279   -12371   -12467   -12511   -12549   -12690 
  -12900   -13038   -13063   -13034   -12973   -12872   -12756   -12660 
  -12580   -12526   -12465   -12310   -12101   -11931   -11728   -11469 
  -11290   -11164   -10967   -10848   -10975   -11219   -11438   -11704 
  -12051   -12332   -12495   -12673   -12872   -12943   -12911   -12920 
  -12945   -12881   -12796   -12715   -12552   -12349   -12167   -11967 
  -11761   -11541   -11256   -10983   -10806   -10656   -10492   -10438 
  -10555   -10733   -10932   -11221   -11589   -11959   -12293   -12611 
  -12903   -13107   -13203   -13266   -13387   -13537   -13589   -13501 
  -13340   -13120   -12795   -12440   -12187   -11994   -11740   -11453 
  -11244   -11132   -11047   -10980   -11021   -11179   -11387   -11578 
  -11696   -11774   -11888   -12009   -12093   -12156   -12228   -12321 
  -12420   -12510   -12582   -12636   -12711   -12787   -12707   -12452 
  -12221   -12102   -12036   -12017   -12100   -12274   -12418   -12498 
  -12611   -12746   -12862   -13058   -13338   -13535   -13558   -13475 
  -13440   -13500   -13539   -13545   -13586   -13544   -13389   -13288 
  -13180   -12906   -12602   -12417   -12299   -12305   -12545   -12911 
  -13190   -13342   -13431   -13447   -13367   -13290   -13238   -13104 
  -12896   -12712   -12561   -12422   -12329   -12309   -12349   -12426 
  -12509   -12564   -12588   -12560   -12445   -12326   -12294   -12302 
  -12266   -12212   -12208   -12197   -12113   -12019   -11958   -11909 
  -11878   -11870   -11898   -11989   -12037   -11935   -11807   -11811 
  -11866   -11885   -11917   -11967   -11985   -11962   -11928   -11884 
  -11801   -11724   -11726   -11747   -11724   -11668   -11560   -11383 
  -11180   -11040   -11007   -10953   -10793   -10650   -10592   -10606 
  -10720   -10914   -11115   -11304   -11485   -11631   -11766   -11904 
  -11983   -11994   -12016   -12106   -12233   -12306   -12325   -12353 
  -12351   -12263   -12121   -11970   -11859   -11772   -11623   -11441 
  -11290   -11196   -11184   -11269   -11493   -11807   -12002   -12079 
  -12278   -12588   -12777   -12869   -13004   -13035   -12781   -12382 
  -12094   -11971   -11929   -11934   -11982   -12054   -12129   -12163 
  -12136   -12155   -12270   -12375   -12457   -12591   -12764   -12915 
  -12985   -12955   -12914   -12911   -12911   -12939   -13061   -13248 
  -13421   -13544   -13659   -13801   -13927   -14014   -14065   -14049 
  -13971   -13844   -13618   -13285   -12941   -12704   -12614   -12573 
  -12511   -12495   -12529   -12514   -12487   -12552   -12656   -12703 
  -12735   -12799   -12873   -12985   -13171   -13370   -13437   -13317 
  -13113   -12865   -12575   -12357   -12229   -12074   -11890   -11703 
  -11481   -11318   -11317   -11416   -11530   -11580   -11506   -11377 
  -11321   -11350   -11389   -11418   -11460   -11506   -11526   -11531 
  -11546   -11604   -11772   -12036   -12299   -12538   -12744   -12857 
  -12923   -13004   -13072   -13104   -13086   -13012   -12919   -12819 
  -12744   -12718   -12630   -12424   -12213   -12010   -11746   -11526 
  -11522   -11689   -11870   -12046   -12268   -12511   -12749   -13001 
  -13265   -13478   -13608   -13729   -13888   -14025   -14111   -14224 
  -14369   -14432   -14323   -14035   -13648   -13302   -13046   -12795 
  -12494   -12168   -11917   -11821   -11797   -11753   -11776   -11950 
  -12170   -12382   -12625   -12788   -12761   -12691   -12650   -12475 
  -12141   -11828   -11627   -11520   -11543   -11692   -11832   -11901 
  -11920   -11848   -11680   -11539   -11484   -11450   -11371   -11226 
  -11064   -10967   -10925   -10879   -10793   -10625   -10428   -10297 
  -10238   -10193   -10131   -10060   -10021    -9987    -9911    -9834 
   -9803    -9818    -9906   -10095   -10350   -10647   -10979   -11340 
  -11688   -11902   -11966   -12012   -12073   -12093   -12112   -12174 
  -12212   -12140   -11966   -11776   -11623   -11491   -11383   -11399 
  -11603   -11923   -12209   -12368   -12421   -12421   -12413   -12471 
  -12623   -12795   -12879   -12850   -12826   -12923   -13066   -13136 
  -13146   -13112   -13051   -13077   -13236   -13392   -13452   -13459 
  -13396   -13215   -13082   -13227   -13579   -13848   -13905   -13905 
  -13977   -14060   -14131   -14237   -14289   -14195   -14058   -13992 
  -13980   -14046   -14193   -14235   -14096   -13899   -13659   -13346 
  -13020   -12698   -12364   -12081   -11911   -11846   -11847   -11884 
  -11952   -12082   -12264   -12474   -12671   -12772   -12765   -12761 
  -12807   -12869   -12919   -12893   -12754   -12560   -12351   -12124 
  -11950   -11884   -11813   -11676   -11576   -11518   -11457   -11529 
  -11788   -12044   -12185   -12241   -12226   -12226   -12372   -12610 
  -12737   -12641   -12425   -12309   -12374   -12514   -12668   -12862 
  -13061   -13213   -13408   -13682   -13902   -13963   -13883   -13717 
  -13500   -13259   -13034   -12839   -12618   -12347   -12137   -12039 
  -11985   -11963   -11988   -12008   -11986   -11925   -11788   -11526 
  -11198   -10940   -10797   -10652   -10392   -10139   -10079   -10142 
  -10139   -10098   -10110   -10110   -10084   -10102   -10156   -10251 
  -10415   -10588   -10697   -10747   -10747   -10689   -10658   -10735 
  -10848   -10921   -10991   -11141   -11368   -11508   -11457   -11399 
  -11503   -11645   -11703   -11776   -11919   -12023   -12047   -12121 
  -12322   -12563   -12753   -12893   -12981   -12980   -12885   -12722 
  -12480   -12175   -11893   -11712   -11747   -12124   -12764   -13467 
  -14096   -14524   -14771   -15032   -15344   -15574   -15696   -15758 
  -15738   -15620   -15500   -15425   -15282   -14997   -14631   -14227 
  -13760   -13211   -12649   -12178   -11811   -11539   -11399   -11392 
  -11491   -11680   -11901   -12070   -12195   -12337   -12491   -12614 
  -12683   -12730   -12799   -12819   -12730   -12611   -12451   -12155 
  -11794   -11456   -11072   -10579   -10095    -9780    -9678    -9771 
  -10021   -10331   -10681   -11051   -11304   -11429   -11569   -11761 
  -11939   -12079   -12202   -12329   -12444   -12541   -12621   -12557 
  -12314   -12102   -12001   -11888   -11805   -11888   -12029   -12044 
  -11942   -11830   -11827   -12051   -12433   -12771   -12980   -13000 
  -12769   -12432   -12143   -11869   -11612   -11496   -11553   -11718 
  -11994   -12390   -12784   -13050   -13139   -13050   -12901   -12800 
  -12680   -12561   -12602   -12700   -12654   -12564   -12541   -12513 
  -12465   -12429   -12357   -12232   -12097   -12006   -11973   -11959 
  -11935   -11880   -11730   -11379   -10886   -10592   -10689   -10995 
  -11321   -11647   -11927   -12121   -12299   -12507   -12764   -13022 
  -13144   -13088   -12895   -12614   -12344   -12113   -11894   -11747 
  -11693   -11631   -11519   -11441   -11434   -11446   -11519   -11668 
  -11732   -11665   -11623   -11709   -11904   -12121   -12302   -12444 
  -12521   -12549   -12623   -12721   -12712   -12617   -12509   -12332 
  -12073   -11871   -11745   -11550   -11287   -11109   -11087   -11203 
  -11400   -11545   -11591   -11689   -11892   -12044   -12083   -12116 
  -12172   -12151   -12083   -12087   -12044   -11859   -11720   -11728 
  -11773   -11821   -11859   -11815   -11759   -11792   -11842   -11909 
  -12104   -12424   -12838   -13252   -13443   -13400   -13313   -13242 
  -13188   -13163   -13135   -13150   -13265   -13421   -13552   -13633 
  -13644   -13601   -13559   -13543   -13552   -13618   -13797   -14058 
  -14270   -14386   -14490   -14644   -14805   -14921   -15013   -15041 
  -14859   -14500   -14170   -13940   -13761   -13624   -13566   -13589 
  -13563   -13396   -13197   -13078   -13015   -12927   -12746   -12548 
  -12480   -12532   -12615   -12741   -12912   -13026   -12988   -12833 
  -12692   -12661   -12673   -12599   -12474   -12390   -12340   -12264 
  -12075   -11776   -11558   -11551   -11735   -11996   -12066   -11809 
  -11437   -11163   -11048   -11137   -11314   -11334   -11217   -11184 
  -11227   -11217   -11196   -11202   -11206   -11303   -11512   -11746 
  -12077   -12518   -12796   -12758   -12572   -12395   -12244   -12175 
  -12270   -12509   -12818   -13158   -13412   -13432   -13292   -13128 
  -12897   -12568   -12233   -11961   -11799   -11772   -11828   -11935 
  -12073   -12121   -12031   -11931   -11884   -11820   -11746   -11757 
  -11817   -11793   -11682   -11564   -11465   -11460   -11596   -11785 
  -11955   -12090   -12145   -12096   -11927   -11672   -11400   -11087 
  -10727   -10473   -10412   -10463   -10527   -10532   -10473   -10454 
  -10570   -10775   -10928   -11006   -11122   -11264   -11369   -11507 
  -11681   -11753   -11668   -11504   -11362   -11252   -11144   -11113 
  -11222   -11389   -11538   -11715   -11942   -12116   -12152   -12098 
  -12033   -12004   -12033   -12191   -12528   -12922   -13273   -13616 
  -13836   -13774   -13599   -13536   -13509   -13382   -13197   -13058 
  -12935   -12746   -12499   -12249   -12039   -11970   -12132   -12417 
  -12621   -12706   -12733   -12626   -12318   -11965   -11751   -11686 
  -11723   -11851   -12086   -12386   -12606   -12706   -12773   -12796 
  -12664   -12429   -12309   -12382   -12495   -12533   -12482   -12367 
  -12341   -12474   -12668   -12920   -13248   -13583   -13851   -13973 
  -13923   -13730   -13414   -13023   -12661   -12394   -12155   -11916 
  -11776   -11708   -11570   -11391   -11369   -11523   -11638   -11700 
  -11858   -12015   -12078   -12141   -12175   -12110   -12010   -11975 
  -12039   -12163   -12361   -12718   -13144   -13446   -13606   -13726 
  -13779   -13724   -13670   -13690   -13728   -13711   -13571   -13290 
  -12999   -12910   -13122   -13443   -13666   -13764   -13720   -13529 
  -13250   -12924   -12583   -12228   -11897   -11700   -11674   -11780 
  -11971   -12166   -12309   -12452   -12623   -12753   -12780   -12675 
  -12410   -12004   -11608   -11431   -11475   -11561   -11566   -11458 
  -11303   -11176   -11064   -10949   -10814   -10651   -10573   -10665 
  -10794   -10832   -10871   -10955   -10991   -11032   -11178   -11400 
  -11680   -11978   -12193   -12258   -12232   -12210   -12197   -12187 
  -12185   -12144   -12102   -12132   -12228   -12399   -12638   -12877 
  -13045   -13061   -12914   -12696   -12498   -12356   -12272   -12228 
  -12213   -12216   -12247   -12351   -12483   -12506   -12415   -12347 
  -12375   -12455   -12471   -12368   -12220   -12087   -11907   -11653 
  -11465   -11469   -11619   -11801   -11970   -12129   -12270   -12357 
  -12339   -12167   -11916   -11728   -11630   -11558   -11545   -11685 
  -11889   -11921   -11813   -11777   -11824   -11878   -11962   -12064 
  -12118   -12163   -12248   -12302   -12276   -12212   -12139   -12031 
  -11857   -11719   -11709   -11759   -11850   -12012   -12190   -12328 
  -12420   -12542   -12771   -13031   -13220   -13328   -13367   -13346 
  -13323   -13382   -13532   -13691   -13830   -13942   -13973   -13940 
  -13861   -13680   -13429   -13174   -12922   -12671   -12372   -12004 
  -11727   -11676   -11754   -11846   -11950   -12033   -12013   -11947 
  -12009   -12204   -12379   -12468   -12505   -12523   -12503   -12476 
  -12519   -12548   -12492   -12426   -12336   -12175   -12005   -11878 
  -11759   -11543   -11237   -10998   -10921   -10953   -11053   -11238 
  -11502   -11736   -11828   -11842   -11904   -11970   -11954   -11902 
