Origin Time       2024/04/02 04:24:00
Lat.              40.133
Long.             141.712
Depth. (km)       71
Mag.              6.0
Station Code      AOM017
Station Lat.      40.6388
Station Long.     139.9295
Station Height(m) 24
Record Time       2024/04/02 04:25:03
Sampling Freq(Hz) 100Hz
Duration Time(s)  70
Dir.              U-D
Scale Factor      7845(gal)/8223790
Max. Acc. (gal)   3.843
Last Correction   2024/04/02 04:25:03
Memo.             
[...]
   -5697    -5695    -5695    -5697    -5698    -5695    -5691    -5694 
   -5698    -5697    -5694    -5694    -5694    -5695    -5695    -5694 
   -5695    -5697    -5695    -5695    -5694    -5697    -5695    -5694 
   -5695    -5695    -5692    -5695    -5698    -5697    -5694    -5695 
   -5698    -5697    -5694    -5695    -5698    -5697    -5695    -5695 
   -5697    -5695    -5694    -5694    -5692    -5692    -5695    -5694 
   -5694    -5692    -5694    -5697    -5694    -5692    -5697    -5698 
   -5695    -5695    -5695    -5694    -5692    -5697    -5698    -5694 
   -5695    -5699    -5697    -5695    -5694    -5692    -5691    -5695 
   -5697    -5692    -5694    -5697    -5694    -5694    -5698    -5694 
   -5692    -5697    -5694    -5692    -5697    -5692    -5690    -5695 
   -5697    -5694    -5694    -5697    -5695    -5692    -5692    -5694 
   -5694    -5697    -5695    -5694    -5697    -5695    -5694    -5697 
   -5695    -5695    -5701    -5697    -5691    -5695    -5697    -5695 
   -5697    -5697    -5695    -5697    -5697    -5694    -5692    -5694 
   -5697    -5695    -5694    -5695    -5695    -5694    -5695    -5694 
   -5694    -5699    -5697    -5690    -5692    -5697    -5694    -5695 
   -5698    -5697    -5692    -5692    -5695    -5694    -5692    -5692 
   -5694    -5695    -5695    -5694    -5694    -5692    -5692    -5695 
   -5697    -5695    -5695    -5697    -5694    -5692    -5695    -5694 
   -5692    -5695    -5695    -5694    -5695    -5695    -5694    -5694 
   -5692    -5695    -5695    -5697    -5697    -5695    -5695    -5695 
   -5694    -5698    -5698    -5694    -5695    -5697    -5692    -5695 
   -5698    -5694    -5694    -5697    -5695    -5695    -5697    -5695 
   -5697    -5695    -5691    -5695    -5698    -5694    -5692    -5695 
   -5698    -5695    -5692    -5694    -5697    -5699    -5697    -5692 
   -5692    -5694    -5697    -5698    -5695    -5695    -5697    -5695 
   -5692    -5692    -5695    -5695    -5694    -5694    -5692    -5691 
   -5692    -5695    -5695    -5697    -5698    -5697    -5695    -5697 
   -5697    -5697    -5697    -5694    -5695    -5698    -5695    -5694 
   -5697    -5697    -5695    -5697    -5695    -5692    -5695    -5697 
   -5697    -5698    -5694    -5695    -5698    -5695    -5694    -5695 
   -5694    -5695    -5697    -5695    -5695    -5694    -5695    -5694 
   -5692    -5694    -5697    -5697    -5695    -5694    -5697    -5697 
   -5695    -5697    -5697    -5692    -5694    -5697    -5694    -5694 
   -5695    -5695    -5692    -5692    -5694    -5697    -5697    -5694 
   -5695    -5697    -5694    -5692    -5694    -5695    -5697    -5697 
   -5694    -5692    -5694    -5694    -5695    -5695    -5695    -5694 
   -5692    -5695    -5694    -5694    -5698    -5698    -5694    -5692 
   -5694    -5697    -5695    -5692    -5694    -5695    -5697    -5697 
   -5692    -5692    -5697    -5695    -5697    -5698    -5695    -5697 
   -5697    -5695    -5698    -5695    -5694    -5695    -5695    -5697 
   -5695    -5692    -5698    -5698    -5692    -5694    -5698    -5697 
   -5694    -5695    -5694    -5694    -5695    -5695    -5694    -5694 
   -5695    -5694    -5694    -5697    -5697    -5695    -5697    -5697 
   -5694    -5694    -5695    -5695    -5695    -5698    -5695    -5695 
   -5697    -5692    -5691    -5695    -5694    -5694    -5699    -5697 
   -5694    -5698    -5695    -5690    -5694    -5697    -5698    -5697 
   -5695    -5695    -5695    -5695    -5694    -5694    -5694    -5695 
   -5695    -5694    -5695    -5697    -5694    -5695    -5698    -5697 
   -5695    -5695    -5694    -5697    -5695    -5692    -5695    -5694 
   -5690    -5692    -5692    -5692    -5695    -5695    -5697    -5697 
   -5692    -5694    -5698    -5692    -5692    -5694    -5692    -5695 
   -5695    -5692    -5694    -5694    -5692    -5694    -5694    -5694 
   -5695    -5695    -5694    -5694    -5695    -5695    -5697    -5698 
   -5697    -5694    -5694    -5695    -5694    -5694    -5697    -5695 
   -5692    -5694    -5697    -5697    -5692    -5690    -5694    -5695 
   -5692    -5694    -5694    -5695    -5697    -5695    -5695    -5692 
   -5691    -5695    -5695    -5692    -5695    -5695    -5694    -5694 
   -5691    -5695    -5699    -5694    -5694    -5697    -5694    -5694 
   -5692    -5695    -5699    -5697    -5692    -5695    -5694    -5692 
   -5695    -5694    -5692    -5692    -5695    -5698    -5694    -5694 
   -5698    -5694    -5691    -5697    -5695    -5694    -5697    -5697 
   -5695    -5695    -5695    -5695    -5694    -5697    -5698    -5697 
   -5697    -5695    -5694    -5695    -5697    -5697    -5698    -5694 
   -5694    -5697    -5697    -5695    -5694    -5692    -5695    -5698 
   -5694    -5697    -5697    -5692    -5697    -5697    -5694    -5695 
   -5695    -5695    -5697    -5695    -5694    -5697    -5698    -5695 
   -5695    -5697    -5694    -5694    -5697    -5697    -5697    -5698 
   -5694    -5691    -5694    -5697    -5695    -5695    -5694    -5695 
   -5698    -5697    -5694    -5695    -5697    -5697    -5694    -5694 
   -5694    -5694    -5695    -5697    -5694    -5694    -5697    -5697 
   -5694    -5694    -5697    -5694    -5694    -5695    -5692    -5695 
   -5697    -5694    -5697    -5699    -5695    -5695    -5698    -5697 
   -5695    -5694    -5694    -5694    -5697    -5698    -5695    -5694 
   -5695    -5695    -5695    -5697    -5695    -5695    -5697    -5697 
   -5695    -5694    -5698    -5695    -5692    -5694    -5697    -5695 
   -5695    -5695    -5697    -5697    -5695    -5695    -5695    -5694 
   -5694    -5697    -5697    -5697    -5697    -5697    -5694    -5692 
   -5694    -5698    -5698    -5695    -5698    -5699    -5697    -5695 
   -5695    -5694    -5695    -5698    -5697    -5697    -5697    -5694 
   -5697    -5701    -5695    -5692    -5699    -5698    -5694    -5695 
   -5695    -5692    -5695    -5694    -5691    -5695    -5697    -5694 
   -5692    -5695    -5695    -5695    -5695    -5698    -5697    -5694 
   -5695    -5695    -5694    -5692    -5694    -5695    -5697    -5695 
   -5694    -5695    -5695    -5697    -5697    -5695    -5694    -5694 
   -5695    -5698    -5698    -5695    -5695    -5695    -5695    -5695 
   -5694    -5697    -5697    -5694    -5694    -5697    -5694    -5692 
   -5695    -5694    -5694    -5694    -5692    -5692    -5695    -5694 
   -5692    -5694    -5694    -5692    -5695    -5697    -5695    -5694 
   -5692    -5694    -5695    -5692    -5692    -5695    -5695    -5694 
   -5697    -5697    -5692    -5695    -5695    -5691    -5695    -5698 
   -5695    -5694    -5695    -5694    -5692    -5692    -5694    -5692 
   -5691    -5694    -5697    -5698    -5697    -5692    -5692    -5698 
   -5697    -5691    -5695    -5698    -5692    -5692    -5697    -5697 
   -5695    -5694    -5695    -5694    -5692    -5694    -5695    -5694 
   -5694    -5695    -5698    -5697    -5692    -5694    -5697    -5692 
   -5692    -5694    -5695    -5697    -5698    -5694    -5694    -5695 
   -5695    -5697    -5695    -5697    -5699    -5695    -5692    -5698 
   -5695    -5692    -5695    -5698    -5695    -5697    -5698    -5695 
   -5694    -5694    -5692    -5695    -5695    -5692    -5695    -5697 
   -5692    -5695    -5698    -5697    -5695    -5695    -5697    -5697 
   -5695    -5694    -5695    -5694    -5695    -5697    -5695    -5695 
   -5697    -5695    -5694    -5697    -5697    -5695    -5695    -5695 
   -5694    -5695    -5698    -5697    -5698    -5699    -5694    -5694 
   -5701    -5697    -5692    -5694    -5694    -5695    -5694    -5692 
   -5695    -5697    -5695    -5692    -5694    -5698    -5698    -5698 
   -5697    -5694    -5697    -5695    -5691    -5692    -5694    -5697 
   -5697    -5694    -5692    -5692    -5694    -5695    -5697    -5697 
   -5695    -5694    -5695    -5695    -5697    -5695    -5697    -5697 
   -5695    -5697    -5698    -5697    -5695    -5697    -5698    -5695 
   -5694    -5695    -5695    -5692    -5695    -5697    -5697    -5695 
   -5695    -5697    -5695    -5695    -5695    -5695    -5699    -5698 
   -5694    -5695    -5697    -5694    -5695    -5695    -5695    -5694 
   -5694    -5692    -5694    -5697    -5695    -5694    -5695    -5697 
   -5694    -5692    -5694    -5695    -5694    -5694    -5694    -5694 
   -5697    -5697    -5692    -5694    -5695    -5694    -5694    -5695 
   -5695    -5694    -5692    -5694    -5698    -5694    -5690    -5695 
   -5697    -5692    -5695    -5698    -5694    -5692    -5697    -5695 
   -5692    -5695    -5695    -5695    -5697    -5694    -5692    -5695 
   -5695    -5695    -5695    -5695    -5694    -5694    -5697    -5698 
   -5697    -5694    -5695    -5697    -5695    -5692    -5694    -5695 
   -5694    -5692    -5694    -5695    -5695    -5694    -5695    -5697 
   -5694    -5691    -5692    -5697    -5695    -5697    -5697    -5695 
   -5697    -5698    -5697    -5694    -5691    -5695    -5697    -5692 
   -5692    -5695    -5695    -5697    -5695    -5694    -5695    -5694 
   -5694    -5697    -5695    -5695    -5695    -5695    -5697    -5697 
   -5695    -5697    -5694    -5694    -5697    -5697    -5697    -5695 
   -5694    -5695    -5697    -5695    -5694    -5698    -5701    -5697 
   -5695    -5697    -5692    -5688    -5694    -5698    -5697    -5694 
   -5694    -5694    -5694    -5695    -5697    -5697    -5697    -5698 
   -5697    -5695    -5695    -5697    -5695    -5695    -5695    -5697 
   -5695    -5695    -5694    -5694    -5695    -5695    -5697    -5697 
   -5694    -5694    -5698    -5697    -5695    -5697    -5695    -5695 
   -5697    -5697    -5698    -5698    -5694    -5692    -5698    -5698 
   -5695    -5695    -5695    -5692    -5690    -5694    -5697    -5694 
   -5695    -5699    -5695    -5692    -5695    -5697    -5695    -5694 
   -5695    -5694    -5695    -5698    -5697    -5694    -5695    -5694 
   -5694    -5698    -5697    -5697    -5694    -5691    -5695    -5697 
   -5692    -5695    -5698    -5695    -5695    -5695    -5694    -5695 
   -5697    -5697    -5697    -5694    -5695    -5697    -5695    -5694 
   -5697    -5697    -5694    -5694    -5694    -5694    -5692    -5694 
   -5694    -5692    -5698    -5698    -5692    -5694    -5695    -5692 
   -5694    -5695    -5694    -5694    -5692    -5694    -5697    -5695 
   -5695    -5694    -5695    -5697    -5695    -5695    -5695    -5694 
   -5695    -5694    -5691    -5692    -5695    -5692    -5692    -5698 
   -5698    -5694    -5694    -5692    -5691    -5694    -5695    -5694 
   -5694    -5694    -5694    -5695    -5695    -5694    -5695    -5694 
   -5692    -5695    -5695    -5694    -5695    -5698    -5694    -5692 
   -5698    -5695    -5691    -5694    -5697    -5697    -5695    -5694 
   -5694    -5694    -5692    -5694    -5697    -5697    -5694    -5692 
   -5695    -5697    -5697    -5695    -5694    -5697    -5701    -5697 
   -5694    -5695    -5698    -5697    -5698    -5697    -5695    -5697 
   -5697    -5695    -5695    -5695    -5698    -5699    -5697    -5694 
   -5697    -5697    -5695    -5695    -5695    -5695    -5695    -5695 
   -5695    -5695    -5698    -5698    -5695    -5695    -5694    -5694 
   -5699    -5699    -5695    -5695    -5695    -5697    -5698    -5692 
   -5691    -5698    -5698    -5694    -5698    -5695    -5692    -5695 
   -5697    -5697    -5697    -5694    -5694    -5695    -5695    -5697 
   -5699    -5697    -5694    -5694    -5695    -5695    -5694    -5695 
   -5697    -5697    -5697    -5695    -5692    -5697    -5698    -5694 
   -5694    -5695    -5694    -5694    -5695    -5695    -5694    -5694 
   -5695    -5694    -5694    -5695    -5695    -5697    -5698    -5695 
   -5694    -5695    -5694    -5695    -5699    -5701    -5699    -5702 
   -5705    -5705    -5706    -5706    -5703    -5701    -5699    -5695 
   -5686    -5676    -5667    -5663    -5664    -5667    -5664    -5653 
   -5641    -5625    -5603    -5589    -5580    -5583    -5598    -5620 
   -5641    -5667    -5687    -5695    -5691    -5674    -5640    -5593 
   -5536    -5476    -5414    -5362    -5314    -5279    -5260    -5265 
   -5294    -5358    -5462    -5595    -5734    -5863    -5957    -5999 
   -5984    -5922    -5822    -5699    -5570    -5441    -5320    -5236 
   -5227    -5309    -5487    -5737    -6011    -6265    -6462    -6586 
   -6647    -6639    -6543    -6358    -6096    -5783    -5460    -5165 
   -4922    -4757    -4683    -4710    -4839    -5043    -5270    -5485 
   -5668    -5810    -5935    -6076    -6235    -6403    -6548    -6636 
   -6662    -6648    -6632    -6635    -6640    -6608    -6505    -6313 
   -6039    -5721    -5405    -5128    -4916    -4772    -4685    -4633 
   -4603    -4607    -4653    -4749    -4900    -5094    -5308    -5514 
   -5688    -5830    -5981    -6191    -6485    -6828    -7145    -7358 
   -7429    -7362    -7176    -6886    -6520    -6143    -5811    -5533 
   -5282    -5032    -4774    -4525    -4336    -4276    -4409    -4772 
   -5340    -5987    -6538    -6872    -6993    -6997    -7009    -7101 
   -7258    -7407    -7464    -7362    -7068    -6581    -5958    -5310 
   -4738    -4294    -3982    -3761    -3578    -3420    -3302    -3279 
   -3439    -3835    -4446    -5188    -5980    -6789    -7573    -8283 
   -8851    -9158    -9093    -8638    -7861    -6887    -5887    -4984 
   -4226    -3597    -3021    -2446    -1941    -1667    -1771    -2296 
   -3177    -4286    -5454    -6512    -7317    -7761    -7836    -7634 
   -7287    -6966    -6787    -6748    -6743    -6617    -6257    -5676 
   -5024    -4495    -4237    -4266    -4469    -4737    -5039    -5377 
   -5724    -6046    -6313    -6477    -6475    -6291    -6010    -5748 
   -5545    -5352    -5144    -4965    -4841    -4752    -4689    -4687 
   -4799    -5042    -5368    -5707    -5999    -6218    -6376    -6477 
   -6508    -6471    -6394    -6331    -6343    -6469    -6698    -6967 
   -7168    -7225    -7125    -6885    -6546    -6153    -5744    -5370 
   -5089    -4928    -4884    -4922    -4981    -5013    -5005    -4974 
   -4984    -5084    -5277    -5555    -5904    -6268    -6548    -6658 
   -6577    -6367    -6114    -5877    -5671    -5460    -5225    -4972 
   -4738    -4590    -4587    -4756    -5055    -5401    -5694    -5876 
   -5956    -5964    -5934    -5891    -5819    -5705    -5575    -5460 
   -5347    -5221    -5127    -5131    -5229    -5324    -5310    -5184 
   -5044    -5022    -5181    -5486    -5838    -6177    -6480    -6708 
   -6820    -6810    -6700    -6513    -6301    -6131    -6015    -5950 
   -5954    -6003    -6026    -5996    -5942    -5931    -6008    -6100 
   -6046    -5749    -5271    -4788    -4477    -4429    -4618    -4914 
   -5181    -5359    -5456    -5521    -5632    -5849    -6139    -6350 
   -6340    -6097    -5719    -5340    -5046    -4850    -4757    -4789 
   -4963    -5244    -5543    -5768    -5886    -5925    -5938    -5953 
   -5987    -6064    -6193    -6332    -6412    -6382    -6246    -6039 
   -5826    -5671    -5607    -5647    -5749    -5834    -5837    -5772 
   -5725    -5763    -5872    -6004    -6129    -6235    -6311    -6327 
   -6266    -6147    -6025    -5938    -5873    -5779    -5629    -5471 
   -5359    -5296    -5262    -5274    -5383    -5599    -5853    -6054 
   -6143    -6149    -6149    -6196    -6291    -6390    -6450    -6426 
   -6291    -6052    -5753    -5424    -5085    -4781    -4575    -4518 
   -4588    -4696    -4777    -4845    -4941    -5073    -5225    -5420 
   -5703    -6066    -6405    -6586    -6543    -6318    -6027    -5788 
   -5644    -5563    -5512    -5502    -5533    -5526    -5386    -5134 
   -4903    -4830    -4954    -5204    -5470    -5686    -5827    -5902 
   -5942    -5989    -6068    -6165    -6247    -6286    -6272    -6200 
   -6056    -5815    -5481    -5135    -4920    -4950    -5220    -5606 
   -5944    -6127    -6143    -6033    -5830    -5584    -5373    -5263 
   -5274    -5371    -5491    -5570    -5566    -5493    -5409    -5382 
   -5436    -5540    -5663    -5779    -5861    -5895    -5881    -5822 
   -5724    -5611    -5489    -5321    -5124    -4959    -4849    -4749 
   -4653    -4645    -4824    -5184    -5626    -6033    -6324    -6502 
   -6604    -6673    -6750    -6833    -6863    -6745    -6446    -6048 
   -5699    -5516    -5510    -5603    -5698    -5738    -5734    -5715 
   -5690    -5656    -5625    -5613    -5618    -5626    -5621    -5617 
   -5667    -5792    -5956    -6099    -6189    -6216    -6185    -6104 
   -6023    -6014    -6108    -6272    -6427    -6500    -6451    -6276 
   -6003    -5684    -5367    -5074    -4815    -4596    -4450    -4426 
   -4553    -4804    -5112    -5390    -5614    -5815    -5975    -6026 
   -5962    -5850    -5760    -5719    -5707    -5690    -5659    -5670 
   -5791    -6033    -6305    -6474    -6466    -6304    -6065    -5838 
   -5676    -5564    -5458    -5339    -5265    -5306    -5467    -5702 
   -5953    -6142    -6203    -6123    -5987    -5898    -5873    -5877 
   -5900    -5944    -5962    -5903    -5744    -5516    -5260    -5011 
   -4822    -4752    -4833    -5061    -5377    -5687    -5902    -5996 
   -6045    -6131    -6238    -6285    -6224    -6069    -5834    -5499 
   -5093    -4733    -4557    -4607    -4795    -4993    -5143    -5277 
   -5456    -5686    -5911    -6103    -6250    -6351    -6415    -6442 
   -6430    -6396    -6353    -6295    -6204    -6069    -5911    -5768 
   -5660    -5584    -5502    -5351    -5151    -5003    -4990    -5113 
   -5301    -5462    -5551    -5570    -5549    -5539    -5567    -5618 
   -5675    -5737    -5810    -5892    -5995    -6119    -6214    -6204 
   -6075    -5895    -5769    -5745    -5772    -5757    -5668    -5547 
   -5454    -5416    -5418    -5436    -5485    -5584    -5717    -5842 
   -5930    -5945    -5867    -5714    -5556    -5479    -5528    -5657 
   -5787    -5861    -5876    -5894    -5981    -6120    -6224    -6224 
   -6106    -5917    -5742    -5611    -5476    -5292    -5065    -4876 
   -4838    -5001    -5331    -5680    -5883    -5898    -5815    -5761 
   -5803    -5900    -5969    -5957    -5867    -5764    -5706    -5675 
   -5624    -5555    -5501    -5485    -5520    -5589    -5667    -5733 
   -5748    -5670    -5564    -5562    -5687    -5846    -5937    -5904 
   -5755    -5555    -5389    -5316    -5298    -5260    -5185    -5108 
   -5076    -5134    -5287    -5498    -5728    -5972    -6250    -6534 
   -6714    -6693    -6465    -6115    -5768    -5547    -5474    -5478 
   -5481    -5463    -5455    -5482    -5549    -5648    -5749    -5830 
   -5926    -6089    -6308    -6494    -6558    -6478    -6316    -6150 
   -6031    -5969    -5919    -5792    -5556    -5271    -5027    -4878 
   -4835    -4888    -5022    -5211    -5409    -5574    -5683    -5734 
   -5719    -5652    -5599    -5611    -5660    -5694    -5659    -5536 
   -5375    -5246    -5182    -5198    -5300    -5471    -5683    -5861 
   -5907    -5799    -5605    -5420    -5320    -5333    -5432    -5552 
   -5660    -5771    -5890    -6004    -6080    -6108    -6133    -6187 
   -6230    -6205    -6102    -5957    -5865    -5904    -6031    -6127 
