Origin Time       2024/04/02 04:24:00
Lat.              40.133
Long.             141.712
Depth. (km)       71
Mag.              6.0
Station Code      AOM021
Station Lat.      40.6150
Station Long.     141.2083
Station Height(m) 71
Record Time       2024/04/02 04:24:52
Sampling Freq(Hz) 100Hz
Duration Time(s)  158
Dir.              E-W
Scale Factor      7845(gal)/8223790
Max. Acc. (gal)   91.704
Last Correction   2024/04/02 04:24:52
Memo.             
[...]
    6955     6966     6978     6980     6970     6956     6949     6952 
    6960     6966     6964     6963     6967     6970     6967     6963 
    6959     6953     6953     6960     6967     6970     6967     6963 
    6961     6966     6966     6961     6961     6964     6961     6959 
    6957     6960     6968     6975     6976     6968     6956     6949 
    6961     6974     6972     6966     6961     6963     6964     6963 
    6964     6968     6970     6964     6963     6957     6955     6963 
    6967     6960     6959     6966     6970     6968     6967     6966 
    6960     6961     6966     6970     6970     6966     6957     6959 
    6967     6966     6960     6957     6960     6967     6975     6980 
    6976     6961     6953     6961     6976     6972     6956     6947 
    6952     6967     6975     6971     6963     6952     6949     6961 
    6972     6972     6964     6953     6951     6957     6971     6976 
    6961     6951     6961     6964     6960     6967     6971     6964 
    6956     6953     6964     6976     6971     6961     6956     6955 
    6961     6968     6961     6957     6963     6971     6974     6968 
    6961     6955     6953     6963     6966     6963     6964     6961 
    6956     6960     6968     6970     6968     6963     6957     6952 
    6951     6956     6966     6974     6972     6960     6949     6949 
    6956     6960     6966     6976     6976     6961     6943     6943 
    6964     6982     6979     6964     6953     6955     6960     6961 
    6964     6967     6961     6952     6952     6961     6971     6971 
    6970     6966     6956     6952     6959     6966     6964     6968 
    6975     6964     6948     6944     6953     6972     6986     6976 
    6960     6956     6956     6955     6953     6959     6971     6976 
    6970     6960     6963     6966     6961     6956     6956     6960 
    6967     6971     6970     6966     6961     6959     6961     6971 
    6972     6964     6956     6957     6970     6976     6966     6955 
    6955     6964     6971     6968     6963     6963     6963     6961 
    6960     6966     6972     6968     6961     6960     6957     6960 
    6974     6976     6966     6959     6957     6961     6966     6967 
    6963     6959     6963     6972     6970     6961     6957     6956 
    6961     6970     6970     6964     6966     6968     6966     6959 
    6953     6948     6952     6968     6976     6974     6970     6967 
    6964     6959     6957     6964     6971     6967     6960     6961 
    6964     6966     6966     6961     6956     6957     6964     6967 
    6963     6957     6949     6944     6945     6945     6940     6937 
    6949     6961     6960     6949     6934     6916     6891     6872 
    6875     6887     6891     6889     6897     6917     6948     6982 
    7006     7036     7086     7117     7084     6998     6909     6841 
    6777     6723     6710     6740     6794     6848     6813     6637 
    6517     6758     7348     7832     7747     7145     6552     6407 
    6785     7526     8206     8206     7295     6035     5263     5301 
    5917     6847     7782     8052     7269     6145     5795     6475 
    7447     7996     8206     8186     7322     5822     5508     7211 
    9263     9647     8116     6131     5157     5026     4957     5475 
    7156     8730     8629     7299     6370     6143     5913     6049 
    7078     8302     8951     8305     5919     3565     3352     4652 
    6139     7369     7578     6905     6511     6508     7164     9158 
   10990    10694     8711     6694     5940     6299     6496     6777 
    7835     8428     7983     7011     5278     3894     3978     4086 
    4062     5076     6326     7599     9437    10875    11828    12438 
   11307     9157     8013     7528     7180     6787     4931     1525 
   -1097    -1023     1026     2504     2544     3090     5262     7774 
    9768    11757    13991    15896    16254    14260    11242     9664 
   10157    11164    11001     9086     5969     3271     2323     1998 
     241    -2520    -4406    -4318    -1818     1637     3321     3597 
    4567     5914     7636    11045    14466    15225    13684    11448 
   10836    13446    15780    13944    10721    10111    11030    11114 
   10153     8544     6374     4329     3665     4558     5976     6670 
    4834      139    -3994    -4761    -3245     -982     1360     3167 
    4965     7468    10068    11677    11658    11024    12012    14057 
   14029    11677     9282     8197     9436    11942    11577     7863 
    4874     3308     1024     -935     -251     2737     6169     8599 
    9421     9405    10309    12181    11847     7364     2303      847 
    2141     3353     3979     5116     6795     7538     6598     5296 
    5668     7701     8525     6718     5479     7302     9555     9792 
    9140     8756     9811    13497    16862    16525    15057    15141 
   14308    11572    10249    11400    11963     9089     2525    -4326 
   -6485    -3944    -1323     -433       98      781     1116      477 
    -318     1085     4216     6234     7176     8928    12479    17705 
   21683    21655    19467    17347    15246    13772    12988    11851 
   10299     7848     4615     2756     2060      757     -673    -2903 
   -5876    -5135     -481     2592     3275     3692     3797     5085 
    7763     8043     6280     6536     8613    10543    11695    10797 
    8087     5378     2798     1232     3495     9332    14193    13814 
    8743     4321     4723     8928    13190    14308    11612     7036 
    2778      838     2671     6636     9833    11578    11954    11248 
   10265     8109     4456     2380     2821     2631     1452     1676 
    3011     4311     5933     8040    10605    13131    14027    12523 
    9211     5529     3985     5215     6822     8097    10243    11865 
   10928     8464     6571     6029     5657     3304     -229     -946 
    2485     6647     8151     6794     4457     3275     3607     3969 
    4315     6264     9305    11550    13054    14401    14835    13493 
   10331     6396     3592     2801     3208     4109     5124     5529 
    5260     4584     3568     3589     6072     9586    11924    12900 
   12760    11342     9105     6588     4537     4037     4301     3667 
    2829     2744     2929     4234     7431    10295    10795     9035 
    5726     3064     3613     6534     9018     9733     9105     9007 
   10457    11612    11372    11438    12133    11145     7705     4384 
    3994     5983     7504     7404     6407     5366     4911     4556 
    3811     4317     7114    10277    11931    11743     9679     5964 
    1591    -1310     -984     1545     4274     6902     9761    12696 
   14671    13780    10243     7434     6957     6598     5039     4028 
    4911     6747     8158     8785     9142     9805     9786     6974 
    1968    -1512    -1119     2292     6759    10723    12901    12221 
    8815     4542     1503      862     2889     6407     9225    10108 
    9281     7873     7041     6586     5915     5918     7373     8973 
    8769     6500     3951     3190     4351     5460     4957     3593 
    3117     4085     6073     9097    12872    15404    14431    10052 
    5319     3568     5035     7375     8622     7958     5540     2803 
    1440     2188     4448     6652     7565     6995     5842     5598 
    6324     6200     4521     3203     4367     8047    12137    14220 
   14007    12626    10349     7357     4745     3298     3267     4816 
    6913     7434     5694     3214     2006     3227     6546    10346 
   12831    12954    11110     8640     6551     5432     5044     4237 
    2936     2332     2938     4487     6508     8436    10535    12920 
   13771    12125     9886     8405     7245     6158     5027     3789 
    3279     3888     4668     5312     6291     7118     7612     8888 
   10774    11450    10488     9117     8446     9031     9990     9300 
    7021     5459     5809     7572     9058     7456     2323    -2494 
   -3146      972     7708    13234    14940    13698    11574     9358 
    6895     4365     3032     3960     6357     8671    10327    11462 
   11657     9721     5853     2619     1993     3403     5397     7268 
    9255    11641    13620    14384    14393    14153    13108    10469 
    6758     4035     3639     4569     5105     4514     3096     2085 
    2489     3661     4410     4608     4432     3882     3593     3821 
    3661     3091     3044     3562     5047     8168    11119    11534 
    9564     6424     3572     2610     3325     4502     5988     7873 
   10451    13764    15838    15383    13761    11700     9441     8596 
    9151     8878     6709     3006     -839    -2135     -149     2577 
    4272     4945     4433     3549     3954     5464     6851     8074 
    9479    10924    12081    12451    11800    10538     9023     7246 
    5551     4453     4017     4425     5651     6620     6878     7307 
    7824     7402     5759     3184      857      299     1232     2674 
    4764     7341     9398    10278     9918     8912     8259     8275 
    8318     7832     7157     6816     6859     7425     8496     9327 
    9594     9740     9706     9498     9668     9988     9543     7646 
    4375     1363      383      963     1769     2334     2258     1749 
    2058     3523     5158     6201     6613     6679     6548     6096 
    5633     6077     7541     8665     8475     7946     8812    11234 
   13231    13061    11453    10220    10100    11236    13375    15129 
   15109    12687     8316     4718     4359     5876     7009     7788 
    8532     9270    10089    10249    10002    10546    11016    10405 
    9531     8271     5979     3175      411     -859      920     3670 
    4542     4506     5117     6173     7443     8068     7564     7672 
    8862     9011     7506     5509     3588     2224     1984     2983 
    4996     6656     6682     6006     5656     5302     5313     6652 
    9163    11408    11628     9934     8306     7267     5752     3812 
    2320     1872     2945     4923     6278     6956     8139     9995 
   11615    12194    11562    10407     9790    10080    10899    11708 
   11500     9047     5206     3149     4320     6621     7746     7300 
    5968     5128     5740     6960     7631     7877     8387     9356 
   10015     9070     6297     3561     3142     5005     7195     8494 
    8727     7784     5890     3973     3249     3801     4072     3572 
    3996     5821     7164     6705     5038     3678     3569     4340 
    5409     6852     8553     9580     9328     8827     9428    10569 
   10763     9726     8248     7391     7627     8023     7446     6116 
    4899     4378     4927     6729     9602    12228    12241     8941 
    4422     1318     1197     3485     5478     5860     5888     6139 
    6327     6826     7381     7322     6891     5737     3114      562 
     355     2223     4415     5927     6708     7088     7187     6844 
    6566     7604    10006    11977    11942     9660     6377     4257 
    3844     4198     5591     8267    10820    12236    12136    10011 
    6790     4550     4518     6794     9842    10901     9174     6323 
    3663     1872     1647     2967     5323     8243    10887    12920 
   15010    16433    15018    10963     7048     5425     6404     8449 
    9298     8681     8337     9124    10251    10555     9364     7325 
    6016     5887     6093     6164     5906     4600     1985     -842 
   -2482    -2331     -630     1829     4534     7506    10041    10713 
    9416     7700     6805     6529     5790     4077     2706     3013 
    3659     3082     2559     3593     5432     6535     6064     5059 
    5695     7326     7057     4864     3288     3589     5236     7002 
    8163     9393    10975    11573    11202    12052    13790    12981 
    9184     6151     6589     9574    12212    12534    11226    10075 
    9541     8847     7549     6103     4785     3036     1563     3357 
    9479    15994    17960    14577     9239     6282     7338     9705 
    9825     7611     4780     1686    -1485    -3740    -4604    -3925 
   -1566     1622     4665     7827    11049    12831    12326    10612 
    9486     9902    10594     9099     5447     2724     3310     6706 
   10555    12321    11148     8499     6151     4278     2416     1178 
    1360     2230     2805     3724     5836     8893    12123    14472 
   15790    17119    18300    18018    16054    13162    10118     7415 
    5400     4708     5150     5448     5722     6820     7553     6845 
    5715     4766     3456     1467    -1088    -3146    -2953     -247 
    3223     5971     8013     9892    11870    13905    15391    15399 
   13655    11114     9337     8623     7863     6798     5867     4986 
    4282     3686     2876     2959     4995     7254     7333     5521 
    4159     4656     5746     5640     4965     4973     5081     4488 
    3078      650    -2008    -3333    -3233    -2678    -2110    -2016 
   -2675    -2579     -264     3264     6851    10713    14301    17022 
   20015    23965    28188    31765    32354    27912    21047    15905 
   12411     7707     -333   -11973   -25042   -36499   -44871   -49763 
  -51031   -49380   -45530   -39318   -30268   -16796     2748    26249 
   49364    69754    85878    96060   100419    99733    94051    84709 
   74598    65022    55109    43916    30275    13005    -7229   -28995 
  -51202   -71113   -84613   -89168   -83964   -70108   -51943   -33365 
  -14926     1952    14723    23977    30113    30674    25874    19048 
   12502     9131    12397    22176    35708    49233    57003    55501 
   46445    31731    12271    -8621   -27949   -44957   -57538   -62769 
  -60168   -50903   -37031   -22067    -8708     3739    16704    28390 
   35503    36579    32073    24028    14257     1823   -13169   -25269 
  -28534   -21177    -3242    22893    50422    72505    86660    94085 
   97370    97266    90871    73913    44793     7327   -30109   -58546 
  -72786   -72688   -60192   -36833    -4595    31264    61870    80387 
   85287    76809    57287    33663    11784    -7268   -22392   -32223 
  -37538   -38334   -33903   -25051   -11430     6258    20178    21489 
   10099    -7392   -23188   -32165   -34869   -33582   -27444   -14840 
    2720    20151    32015    35746    31846    23467    14530     7838 
    4995     4283      -39   -11395   -25612   -35391   -35095   -21691 
    1173    24025    40136    48182    48775    42836    30778    13220 
   -5972   -21483   -30354   -30044   -18106     2983    26056    45486 
   59047    65399    63899    54891    39239    19691       95   -18129 
  -35036   -49011   -57742   -58905   -49372   -28566    -1653    23612 
   41277    48271    43989    30481    12988    -2839   -14964   -23310 
  -26299   -22000   -10498     4993    18887    27619    32169    34308 
   33905    30850    25581    17444     5833    -7499   -19565   -28575 
  -33774   -34200   -28779   -16883      585    19776    35289    43596 
   44263    38349    26896    12031    -1603    -9049    -8515    -1914 
    7095    15664    23190    29986    35991    40776    42255    37527 
   26963    14158     2403    -6691   -13797   -20359   -24996   -25239 
  -21207   -13285     -850    14620    29705    40439    42373    34204 
   20328     6683    -3402    -9617   -13643   -16294   -15901   -11646 
   -6019    -1883      846     4012     8113    11898    13730    12361 
    7693      873    -6222   -10890   -10949    -7257    -2656     1074 
    3391     4209     4075     2988      375    -1710      413     6696 
   14177    21303    27689    33008    36822    37430    33916    28779 
   24084    18727    11809     4299    -1525    -2624     1840     9514 
   17464    22268    21042    15237     8421     1821    -4314    -9645 
  -14239   -16490   -14315    -9085    -3765      629     4152     6882 
    9296    11990    15766    21339    27588    31356    29956    23114 
   13490     5498      985    -2361    -5995    -8046    -7059    -3801 
     292     4098     7206     8900     6932      105    -8845   -15368 
  -16887   -13694    -7496     -224     5772     8286     7501     6081 
    6345     8741    12174    14720    15452    15349    15989    18522 
   22981    28015    31818    32657    29754    24645    20526    19994 
   22821    25249    22478    12966      125   -10735   -16575   -17651 
  -16110   -14318   -13117   -11026    -6366      386     7601    13778 
   17196    16611    12285     5154    -3527   -11191   -14949   -13899 
   -8776       89    11956    23518    30581    30904    24829    15313 
    6123     -799    -4652    -4666    -1938      540      608    -2106 
   -6107    -8259    -6588    -2012     3615     8872    12754    14975 
   15091    12453     8127     4564     3676     6469    12590    19943 
   26100    29200    28113    23602    17454    10079     1869    -4197 
   -4791       -2     7134    13163    16044    16588    16884    16980 
   15726    13030     9067     4855     3310     5672     9849    13562 
   14875    12478     7932     3453     -201    -1279     1332     4491 
    4365      673    -4621    -9202   -11661   -12160   -10760    -6847 
    -693     6664    14184    20289    22959    20879    15272     9857 
    7126     6431     6268     5613     3888     1701      203     -163 
     835     3076     5875     9035    12225    14107    13313     9478 
    3744    -1615    -4402    -3165     2174     9676    16559    21384 
   24308    25751    25546    23677    21028    17946    13760     8689 
    3325    -2797    -9120   -13514   -14813   -12510    -6328     1818 
    8652    11734    10079     5173      407    -1634     -533     2025 
    3615     3844     4510     6473     8680    10017    10751    12220 
   14602    16348    16398    15071    13166    11159     8568     4851 
    1131    -1021    -1389     -163     1802     2166     -166    -3852 
   -7353    -8785    -6458    -1945     2180     6139    10617    15129 
   19464    23005    25344    27881    30786    31812    29934    25979 
   21404    18512    18364    19346    19797    18767    15214    10114 
    6316     5181     6185     7763     7353     3723    -1518    -5925 
   -8078    -8178    -7298    -5806    -3874    -2339    -1534    -1436 
   -2523    -4446    -6089    -7441    -8527    -8112    -6066    -4550 
   -5231    -7344    -8775    -7438    -2231     5657    13304    18766 
   21901    23211    23672    24414    25569    26169    24891    20871 
   15057     9834     6393     4068     1968      -40    -1011      395 
    4164     8849    12872    15234    15813    15006    13428    12233 
   12121    12509    12904    13340    13522    13562    14106    15124 
   16225    16923    16254    14342    12721    11761    10416     8190 
    5499     3183     1701      471     -757     -924      399     2127 
    3246     3431     2864     1988      703    -1325    -3942    -7157 
  -11469   -16970   -22670   -26555   -26798   -23232   -17267   -10999 
   -6345    -4222    -4445    -5440    -4244      756     7851    14204 
   17961    18944    19272    21342    24948    28366    30503    30971 
   30233    29199    27839    25336    20942    14644     7844     2370 
    -680     -330     3915    10721    17695    22883    24983    23870 
