Origin Time       2024/04/02 04:24:00
Lat.              40.133
Long.             141.712
Depth. (km)       71
Mag.              6.0
Station Code      AOM015
Station Lat.      40.4791
Station Long.     140.6268
Station Height(m) 137
Record Time       2024/04/02 04:24:55
Sampling Freq(Hz) 100Hz
Duration Time(s)  113
Dir.              E-W
Scale Factor      7845(gal)/8223790
Max. Acc. (gal)   11.397
Last Correction   2024/04/02 04:24:55
Memo.             
[...]
   14153    14655    14007    12461    10507     8791     8290     9811 
   12758    15099    15387    14222    13008    12249    11931    12133 
   12517    12495    11832    10538     8924     7506     6405     5799 
    6404     8313    10504    12010    12424    11834    10848    10139 
   10177    11003    11817    11878    11302    10353     9494     9487 
   10368    11553    12518    12879    12819    13003    13632    13887 
   12675    10538     9612    10882    13266    15099    15175    13610 
   11610     9786     8476     8623    10382    12541    13826    14008 
   13956    14125    13745    12510    11299    10692    10558    10609 
   10436     9715     8536     7681     8363    10535    12390    12414 
   10824     9142     9069    10852    12510    12118    10644    10453 
   11813    13046    12899    11554    10145     9751    10627    12108 
   13309    13937    13930    12745    10008     6859     5769     8013 
   11716    13880    13905    13822    15186    17108    18176    18370 
   17937    16447    13743    10843     9505    10233    11415    11558 
   11105    11229    11998    12519    12334    12108    12928    14837 
   16348    15822    13182     9994     7959     7893     9536    11429 
   12000    11483    11496    12536    13563    13900    13608    12606 
   11122    10349    11144    12116    10891     7807     5852     6774 
    9779    13124    15098    15084    14212    13576    13317    13802 
   15006    15672    15145    14162    13315    12749    12452    11962 
   11121    10265     9251     8394     9057    11157    12495    11894 
   10721    10855    12507    14165    14445    13613    12927    13212 
   14202    14816    14289    12816    11280    10494    10172     9597 
    9347    10392    12262    13540    13327    12060    10936    10341 
    9988    10027    10561    11061    10932    10056     8957     8255 
    8287     9670    12542    15353    16208    14670    11821     9439 
    8993    10584    12668    13786    14153    14465    14673    14391 
   13250    11855    11801    13016    13637    12950    11379     9553 
    8897    10253    12405    13389    12544    11221    10860    11207 
   11510    11495    11326    11535    11685    10532     8595     7878 
    9197    11484    12974    12853    11520     9499     7771     7855 
    9645    11071    11083    10740    10620    10060     9374     9953 
   11961    13983    14716    13906    12399    11658    12093    12455 
   12096    12205    13543    15040    15511    15168    15194    16498 
   18462    18945    16767    13520    11493    10824    10220     9814 
   10546    11065     9747     8259     8521     9528     9948     9996 
   10037     9826     9342     9286    10223    11514    12033    11685 
   11060    10334     9572     8860     8028     7515     8298    10309 
   12062    12162    10785     9298     8656     8901     9944    11718 
   13591    14935    15719    15525    13977    12245    11875    13135 
   15252    17008    17520    17035    16542    16606    16688    15699 
   13224    10569    10048    12214    15076    16837    17435    17134 
   15890    14449    14153    14953    15047    13467    11599    11002 
   11287    11207    10612    10376    10982    11804    11697    10156 
    7830     5741     4384     4032     4703     5378     5375     5479 
    6115     6933     8009     9247    10169    10585    10400    10050 
   10515    11439    11254    10133     9983    11063    11998    12757 
   14261    15990    16541    15839    15151    15321    15977    16290 
   16090    15773    15414    14751    13709    12617    12249    13135 
   14482    14717    13336    11376    10242    10516    11427    11703 
   11194    10851    11269    12090    12606    12437    11758    11163 
   11214    11921    12667    12548    10994     8598     7041     7469 
    9234    10735    10993    10141     8930     8048     7929     8556 
    9278     9738    10365    11114    11101    10247     9963    11079 
   12125    11608    10725    11367    13320    15245    16333    16337 
   15504    14742    15001    16085    16808    16266    14378    12280 
   11705    12753    13581    12973    11855    11680    12491    13404 
   13817    13560    13062    13131    13829    14368    14158    13147 
   11753    10840    10868    11354    11755    12024    11882    10754 
    9169     8650     9382     9973     9718     9219     9205     9798 
   10512    10872    11250    12286    13406    13250    11658    10254 
   10567    12024    12734    11961    10759    10378    11016    12320 
   13980    15454    16218    16173    15307    13640    11651    10288 
    9940     9792     9243     8928     9301     9944    10681    11618 
   12391    12556    12253    11812    11222    10471     9772     9169 
    8958     9984    11929    12825    12089    11643    12588    13609 
   13347    11820     9690     7823     7020     7442     8540     9506 
    9778     9464     9151     9275     9964    11017    11963    12719 
   13811    15110    15518    14844    14355    14904    15816    16152 
   16024    15863    15697    15396    14713    13644    12702    12236 
   12021    11838    11799    11755    11325    10473     9418     8529 
    8194     8479     9134     9913    10754    11434    11342    10355 
    9628    10542    12793    14382    13981    12453    11288    10662 
   10243    10466    11379    11974    11778    11227    10713    10606 
   11257    12507    13763    14353    13953    13054    12359    11912 
   11824    12386    12887    12718    12729    13302    13570    13473 
   13574    13594    13327    13238    13487    13809    14172    14756 
   15214    14774    13459    12337    12222    12768    13149    13057 
   12722    12409    12204    12118    12016    11673    11045    10076 
    8847     8043     8344     9518    10486    10353     9273     8074 
    7596     8394    10089    11358    11407    10737    10116     9830 
    9869    10095    10494    11155    11824    12249    12646    13203 
   13806    14323    14640    14674    14300    13521    12995    13396 
   14602    15950    16538    15573    13235    11156    11056    12523 
   13741    14121    14034    13309    11940    10643    10185    10899 
   12266    13267    13522    13374    13011    12251    11206    10548 
   10547    10444     9687     8761     7965     7161     6976     7854 
    8787     8791     8128     7659     7713     7846     7824     7992 
    8455     8895     9103     9308     9940    10891    11414    11214 
   10860    10824    11169    11705    11938    11839    11971    12475 
   13271    14397    15376    15608    15186    14512    13755    13126 
   13166    13952    14735    15205    15765    16285    16112    15435 
   15408    16519    17741    17810    16729    15516    14748    14230 
   13772    13223    12495    11700    10670     9315     8280     8236 
    8880     9115     8502     8112     8781     9752    10056     9848 
   10000    10901    11755    11477    10125     8861     8698     9655 
   10759    10955    10346     9950    10327    11152    11766    11886 
   11777    11605    11321    11252    11908    13401    15106    15809 
   15009    13653    12803    12437    12089    11909    12436    13255 
   13308    12615    11728    10470     9252     9347    10632    11662 
   11973    12280    13024    13725    13419    12160    11415    11662 
   11674    10935    10042     9332     9155     9942    11157    11743 
   11518    11090    10744    10459    10474    10621    10238     9614 
    9828    10878    11506    11057    10432    10594    11175    11435 
   11626    12299    13008    13120    13178    13738    14026    13306 
   12179    11449    11306    11701    12093    11616    10633    10682 
   12127    13690    14430    14476    14350    14265    13971    13400 
   12891    12640    12619    12847    13279    13714    13887    13481 
   12420    11416    11450    12290    12590    11781    10926    11344 
   12860    14045    13888    12607    11323    11067    11739    12429 
   12744    13196    13860    13734    12514    11236    10466    10108 
   10250    10459    10114     9798    10316    10882    10234     9067 
    9175    10588    11963    12672    12776    12579    12590    12852 
   13074    13493    14180    14177    13023    11923    11907    12548 
   13190    13670    13784    13209    12089    11186    11067    11523 
   11767    11325    10801    10862    11290    11693    11600    10554 
    8964     7966     8534    10416    11917    11689    10262     9167 
    9165     9898    10693    11068    11071    11277    12044    13089 
   13633    13004    11620    10886    11612    12870    13050    11942 
   10870    10809    11337    11655    11688    11526    10829     9748 
    9323    10157    11645    12745    13053    12850    12324    11638 
   11221    11114    11097    11394    11958    12135    11978    12371 
   13389    14022    13998    14175    14786    15001    14373    13513 
   12904    12297    11854    11929    11819    11038    10534    10849 
   11210    11335    11896    12795    12865    11707    10435    10054 
   10335    10889    11904    13043    13414    12997    12368    11792 
   11376    10968    10349    10068    10662    11537    11896    11550 
   10689    10095    10782    12559    13999    14091    13150    12271 
   12266    12843    12912    12081    11273    11419    12270    12969 
   13215    13284    13292    13085    12533    11873    11885    12818 
   13545    13211    12592    12602    12753    12302    11696    11584 
   11550    11117    10611    10467    10714    10870    10309     9277 
    9019    10315    12270    13292    12926    12047    11491    11021 
    9969     8733     8480     9275    10231    11256    12453    12667 
   11284     9979    10381    11921    12999    12776    11709    11056 
   11634    12864    13670    13983    14287    14616    14825    14671 
   13819    12642    12047    12244    12684    12841    12623    12310 
   12048    11619    10983    10524    10615    11254    11755    11249 
   10138     9691    10118    10512    10260     9668     9501    10012 
   10824    11622    12112    11848    10948    10299    10585    11442 
   12048    12074    11603    11294    11970    12915    12708    11758 
   11429    11796    12168    12422    12495    11932    10832    10120 
   10409    11302    11974    12136    12417    13331    14142    14143 
   13776    13359    12646    11878    11843    12691    13358    12973 
   12282    12546    13770    14890    15192    14924    14609    14377 
   14366    15009    16146    16726    16044    14620    13576    13474 
   13774    13495    12316    10825     9760     9265     9194     9703 
   10824    11881    12106    11658    11549    12239    12726    12106 
   11319    11753    13081    14068    14179    13288    11591    10146 
    9882    10369    10289     8865     6889     5759     5745     6492 
    7800     9123    10033    10324     9582     8392     8371     9923 
   11943    13371    13624    12610    11352    11101    11728    12268 
   12340    12202    12314    13065    14175    14625    14022    13560 
   14415    15691    15763    14736    13718    13254    13501    14220 
   14670    14589    14216    13489    12657    12522    13100    13373 
   12718    11728    11475    12484    14121    14856    14203    13192 
   12418    11870    11516    10662     9132     8209     8541     9364 
   10030    10400    10669    11263    11812    11331    10149     9687 
   10222    10909    11423    11585    10579     8642     7639     8160 
    8618     8191     7592     7277     7450     8318     9412     9983 
    9952     9927    10277    10650    10774    11056    11889    12634 
   12190    10785     9755     9427     9093     8850     9293    10048 
   10434    10596    10971    11641    12488    13020    12285    10251 
    8592     8559     9414    10141    11028    12606    14223    14860 
   14613    14308    14544    15287    15788    15346    14006    12411 
   11354    11152    11427    11295    10012     8279     7622     7920 
    7879     7368     6995     6875     7099     7857     9174    10949 
   12363    12274    10933     9688     9201     9444    10297    11460 
   12933    14920    16746    17400    16941    16379    16663    17998 
   19641    20340    19417    17435    15237    13211    12031    12147 
   12475    11776    10439     9328     8687     9072    11087    13861 
   15545    15468    14681    14202    14207    14623    15075    15410 
   16114    16854    16533    15337    14133    12830    11325    10297 
   10188    10647    11192    11778    12550    13647    14998    15866 
   15560    14256    12445    10669     9270     8081     7113     6675 
    6940     8132    10255    12807    15067    15932    14283    10979 
    8833     9038     9923    10116    10403    11697    13350    14422 
   14662    13837    11994    10071     9256    10018    11720    13579 
   15331    16193    15033    12220     9536     8411     9243    11615 
   14303    15720    15229    14045    13946    15152    16424    16671 
   16001    15539    16092    17085    16930    14621    11277     9402 
    9965    11148    10932     9682     9022     9660    11245    12869 
   12930    10207     5968     3429     4221     6777     8770     9347 
    8671     7449     6945     7798     9065     9112     7375     5084 
    4086     5150     7651    10444    12505    13151    12313    10895 
   10756    12853    15336    15120    11117     5189      666     -108 
    2623     6853    10508    12271    12221    12031    13586    16957 
   20081    20881    19350    17297    16394    16889    17992    18472 
   17428    15511    14142    13444    12505    10966     9238     8004 
    7742     8561    10477    13232    15812    17097    17128    16942 
   17103    16910    15485    13161    11101    10539    12197    14902 
   16298    15877    14959    14084    12888    11425    10246     9852 
   10030     9840     8712     7238     6737     8094    10601    12499 
   12727    11263     8677     6161     4895     5452     7954    11789 
   15466    17389    16591    13297     8920     5252     4004     5733 
    8899    11639    13131    12873    11438    10959    12442    13996 
   13162    10655    10285    13567    17501    19402    19060    16958 
   14478    12912    11759    10273     8835     8409     9194    10196 
   11136    12788    15209    17531    18554    17224    13366     8280 
    4649     4743     8009    11545    13404    13900    13702    12810 
   11693    11443    12270    13111    12854    11426     9856     9391 
   10088    10428     9351     7425     5279     3447     3400     5840 
    9448    13144    16916    19843    20312    17977    14430    12201 
   12391    13940    15356    15396    13420    10462     8062     6517 
    5922     6929     9491    12380    14318    15039    15190    15554 
   16282    16484    15090    12259     8937     5354     2015     1031 
    3685     8035    10901    11450    11651    13537    16987    19677 
   19419    16907    15002    15446    17073    17236    14805    10916 
    7052     4283     3716     5348     7283     7878     7784     8621 
   10989    14646    18798    21764    21783    18756    15363    14701 
   16270    16827    15066    12586    10507     8542     7366     8181 
   10104    11061    11229    12572    14860    15786    14777    13609 
   13409    12995    11344     9838     9720     9779     8695     7172 
    6689     7690     8854     8263     5961     4060     4473     7574 
   11975    15101    15055    12734    11163    11790    13338    14679 
   16021    17232    17583    16843    15485    14161    13432    13872 
   15483    17069    17093    14806    10874     7592     7168     9120 
   10723    10525    10084    11399    13845    14775    12645     8756 
    6110     6845    10660    15129    17494    17346    16964    17890 
   18712    17425    14284    11238    10129    11252    12660    11961 
    8865     5397     4031     5308     7303     7761     6242     4625 
    5375     7963     9184     8144     7321     8284    10017    11631 
   13257    14266    14030    13288    12772    12545    12989    14377 
   16272    18106    19222    19269    18557    16775    13486    10374 
    9686    10800    11209    10103     8680     7831     7496     7661 
    8422     9599    11250    12977    13324    12102    10971    10840 
   11615    13150    14519    14742    14216    13624    12881    11808 
   10824    10754    11735    12764    12738    11624    10513    10246 
   10504    10531    10083     9817    10640    12036    12212    10833 
    9603     9355     9591    10223    10493     9065     7011     6893 
    9005    11129    11238     9850     9740    12437    16171    18744 
   19917    19942    19025    18623    19897    20864    18758    14384 
   11190    11595    15041    18495    19252    17041    13381    10473 
    9794    10342    10120     9582    10801    13968    16707    16602 
   14112    11905    11395    12044    12645    11708     8344     3765 
    1067     2331     5958     8284     7727     6385     7269    10073 
   11406    10091     8681     8694     8991     8822     8476     8122 
    7916     7989     8480     9455    10187     9877     9169     9701 
   11896    13971    13895    11884    10377    11281    13778    15859 
   16822    16761    15390    13151    11545    10770     9408     7523 
    7350     9832    12765    13450    11985    10812    11331    12660 
   13433    13209    12480    12044    12347    13336    14469    15080 
   14991    14445    14021    14343    15130    15265    14292    13109 
   12637    12596    12506    12636    12884    12577    12004    11850 
   11631    10836    10251    10330    10037     8799     7825     8833 
   11871    14651    14920    13042    11427    11646    12849    13922 
   14925    15465    14955    13911    12852    12139    12603    13811 
   13902    12884    12788    14006    15066    15441    15741    16044 
   15545    14048    13001    13689    15333    16333    15927    13940 
   10543     6754     3939     2616     2435     3132     4827     6936 
    8118     8363     9001    10527    12482    14241    15151    15118 
   14724    14536    14584    14376    13810    13216    12248    10808 
   10304    11391    12487    12245    10858     9335     9246    11183 
   13387    13959    13328    13065    13595    14048    13617    12951 
   13219    13868    13644    12772    11965    11372    11353    11857 
   11896    11011     9548     8039     7331     7994     9705    11190 
   10936     9378     8765     9737    10670    10471     9944    10396 
   11588    12295    12563    12829    12441    11604    11838    13338 
   14405    13473    11160    10006    11175    12907    13467    13282 
   13288    13371    12777    11110     9136     8109     8352     9396 
   10658    11385    11056     9968     9323    10214    11890    12526 
   11974    11712    12295    12664    11951    10824    10705    11670 
   12179    11275     9670     8681     8938    10120    11291    11407 
   10435     9756    10806    13400    15657    15811    13613    10264 
    7576     6728     7650     9456    10939    11313    10916    10453 
    9967     9451     9595    10990    13108    14735    15186    14515 
