Origin Time       2024/04/02 04:24:00
Lat.              40.133
Long.             141.712
Depth. (km)       71
Mag.              6.0
Station Code      AOM007
Station Lat.      41.1689
Station Long.     141.3845
Station Height(m) 17
Record Time       2024/04/02 04:24:57
Sampling Freq(Hz) 100Hz
Duration Time(s)  109
Dir.              N-S
Scale Factor      7845(gal)/8223790
Max. Acc. (gal)   50.374
Last Correction   2024/04/02 04:24:57
Memo.             
[...]
    4509     9555    11499     8117     4318     4777     7971     7955 
    1638    -6382    -7996    -2319     2955     3820     3998     7196 
   12268    13771     9212     3474      760     -195    -1069     -438 
    2991     6916     8224     6605     4521     4180     4982     5293 
    4290     2374     1267     1796     2539     2084     1691     3256 
    5085     4703     4733     8195     9945     5718     1495     1765 
    3958     5066     3086     -168     1005     6080     7912     5197 
    2988     4120     6837     7508     5251     2083      126      288 
    1312     2150     3666     5975     7276     6451     5206     5236 
    5140     4212     4664     6154     5340     2207     -459     -504 
    3461     8122     6782     1194      476     5740     9089     6901 
    3410     2748     3947     4372     3595     2126     1474     3276 
    4468     1786     -549     1485     4163     4557     5287     7352 
    8564     8662     8702     7653     4631      841    -1590    -1748 
   -1707    -1351     2575     7518     8094     5736     4783     5491 
    6041     6534     6412     3842     2181     5314     8209     5609 
    1252     -415     -936    -1629     -630     2473     6100     8676 
    9944    10999    11014     8406     5034     3157     1086    -3331 
   -7524    -7003    -1156     6610    11763    11970    10071     9914 
    9882     7483     4108     1027    -1278    -1845     -618     1348 
    2627     3088     4423     7071     8770     7642     4361     1715 
    1987     3349     2955     2064     2941     4928     6343     6417 
    5001     3292     2913     2952     2197     2087     3507     4831 
    5200     5470     5771     6370     7148     6043     3373     1055 
    -734    -1120       90     1444     3195     6582    10191    10673 
    8457     6810     5323     2667     1112     1509     1178     -322 
    -972      -81     2528     6519     9470     9472     7730     6355 
    5324     3446      950     -395      897     3858     6324     7561 
    6961     4145      745    -1227    -1194      533     3245     5701 
    7111     8189     9296     8595     5491     2674     1587      679 
    -553     -353     1471     3273     5328     8509    10930    10831 
    9177     6288     2014    -1771    -3792    -3442     -213     3942 
    6833     8266     8598     7820     5691     3267     2130     2596 
    4542     6115     4375     1032     1223     5144     7708     6340 
    4089     4033     4156     2056       81      479     1683     2633 
    4793     7674     8463     7350     6589     5670     3557     1864 
    1163      459      735     1931     2181     2837     6139    10188 
   11738    10353     7650     5109     2478    -1537    -5503    -5922 
   -2340     3048     7921     9884     8569     7203     8375     9018 
    5699     1374     -101      654     1167      680      648     2019 
    3990     5981     8274     9466     7663     5296     5061     4576 
    2700     2170     2897     2481     1602     1964     3187     4441 
    5061     4892     4904     5151     4699     3717     2425      511 
     259     4299     8627     7927     5081     5046     6743     6498 
    3388       75     -427     1904     4577     5301     4700     5522 
    8322    10083     7846     2793     -880    -1123      305     1119 
    1215     1989     4599     7990     9016     6966     4471     3589 
    4040     3495     1304      457     2181     4147     5184     5417 
    4525     3967     4754     4911     3686     2037     1086     2022 
    3547     3966     4421     6115     7666     6840     3815      742 
    -425      966     3835     6867     9177    10177    10125     9315 
    6490     1158    -2880    -2983    -1996    -1881    -1320     1089 
    5251     8897    10650    11503    11276     8950     5287     1595 
   -1594    -3285    -2340      529     4059     7553     9710     9872 
    8930     7302     4500     1188    -1159    -2010    -1082     1325 
    3607     4946     5837     6652     7327     6956     4722     1761 
     -67     -270      418     1636     3464     5745     8854    11848 
   11670     7493     2505     -176     -494      203      769     1363 
    3688     7564     9586     8086     5410     3300     1728      962 
     918     1680     3723     6481     8486     8286     6166     4193 
    3260     2081      -63    -1362      -67     3430     7631    10551 
   11043     9078     5271     1614     -665    -1912    -1417      691 
    2212     3990     8241    11361     9294     5302     3348     2130 
     120    -1219     -630     1013     3186     6566    10230    11672 
    9482     5174     2042     1044     1088     1809     2393     2176 
    2583     4498     6702     7986     7483     5780     5166     5078 
    3258      523    -1472    -2289    -1201     2322     6556     8635 
    8573     8463     8506     6885     3202      546      909     1975 
    1934     2122     3373     4486     4754     4657     4490     3923 
    3373     4191     5308     4587     3352     3480     4070     4356 
    5278     6621     6760     5560     3994     2400      923      225 
     583     1197     1814     3194     5490     7601     8364     8077 
    7720     7126     4936     1154    -1875    -2168      554     4623 
    7253     7912     8245     8634     8351     7188     4909     1679 
    -862    -1078     -207     -614     -494     2803     6565     7491 
    6571     5587     4924     4522     3824     2614     2147     3218 
    4808     5925     6185     5362     4260     3794     3073     1829 
    1983     3256     3225     2739     4175     6351     6764     5764 
    5410     6293     6380     4187     1880     1205      787      676 
    2542     5012     5686     5044     4540     4849     5649     5251 
    3163     1661     2471     4263     4706     3551     3063     4684 
    6606     6307     3383       48     -409     2754     6469     7474 
    6577     6405     6717     6199     4993     3534     2049      924 
     511     1243     2903     3843     3703     4105     4876     5105 
    5652     5902     4372     2917     3230     3419     2647     2678 
    3530     3943     4633     5807     5552     3726     2575     3072 
    4491     6018     6544     5660     4729     4278     3391     2147 
    1452     2142     4002     5255     5080     4676     5127     6057 
    6417     5304     2812      972     1362     2705     2998     2246 
    2033     3202     5116     6947     8383     8872     7464     4675 
    2257      475    -1047    -1152     1039     4218     6594     8032 
    9216     8918     5198      356    -1042      820     1903     1409 
    2567     5853     7862     7749     7474     6833     4899     2686 
     803     -237      696     2538     3773     5143     6907     7801 
    6998     5015     3258     2729     3060     2984     2559     3238 
    4596     4779     4325     4695     4996     4344     2976     1058 
     187     1601     3681     5104     6434     7823     8476     7970 
    6623     5197     3862     1633    -1152    -2636    -2382     -818 
    2052     5595     8598    10220    10147     8795     6813     4699 
    3670     3518     1574    -1736    -2524      103     3716     6145 
    7198     8325     9454     8559     5000      774    -1174     -433 
     842     1877     3316     5208     7241     8513     7697     5232 
    3092     2161     1752      926      384     1597     3950     6853 
   10606    12649    10114     5275     1972     -221    -2714    -3804 
   -1953     1750     5691     9227    11823    12438    10342     5981 
    1447    -1578    -3001    -2191      823     3397     3920     4210 
    5890     8056     8862     6925     3276     1560     2700     2929 
     996      361     2052     4067     5921     7852     8962     7267 
    2299    -1992    -1320     2878     5595     5374     5258     6488 
    7130     6847     6669     6218     4959     2593     -924    -3127 
   -1683     2035     5679     8120     9574    10808    10656     7357 
    2627      -13     -660    -1830    -2577      109     4935     7600 
    7506     8013     9930     9513     5337     1102     -440      284 
    1598     1332      -39      697     3967     6562     6124     3754 
    2609     3910     5512     5116     3334     2308     2849     5024 
    7757     7425     3615     1790     3838     5151     3244       43 
   -1976    -1247     1626     4333     6193     8560    11098    10913 
    7209     3284     1996     1603     -441    -1606     1223     5861 
    8546     8417     7688     7908     7314     5181     3233     1618 
      60     -631     -916     -945     1085     5009     7736     8129 
    7900     7588     6268     3839     1522     1155     2586     3211 
    2822     4357     7658     8912     6894     4288     3582     4245 
    3580      864     -517     1934     4869     4152     1798     2280 
    5406     6986     4936     1772      824     2366     4059     4301 
    4437     6226     7908     6974     4518     2766     2538     3150 
    2955     2084     2119     3090     4217     5308     5788     5657 
    6413     7507     6308     3144      592     -629     -529     1556 
    4882     7770     9163     8932     8707     9315     8321     4182 
     -94    -1217     -253      569     1424     3442     6498     8726 
    8437     5888     3105     2327     3078     2704     1274     1513 
    3658     5719     7110     7682     6642     4513     3010     2504 
    1971     1136      947     2435     4986     6178     5271     4779 
    6372     8060     7183     4144     1561     1047     1547      778 
    -922     -527     2462     5143     6164     6473     6782     7443 
    7597     5441     1463    -1553    -2049    -1258      -90     2760 
    6947     9328     8232     5678     4679     5003     4301     1749 
   -1769    -3138      395     5591     7312     6077     5208     5351 
    5629     5467     4086     2438     3349     6589     8324     6496 
    3078     1711     3569     5537     4749     3156     4212     7188 
    9007     8691     6247     2239     -419      240     1711     1046 
    -588     -205     2970     6628     7767     6405     5622     6697 
    7258     6126     5063     5246     6669     8299     7649     4369 
    1590     1217     1656      963     -475     -837      778     2887 
    3775     4569     6308     6555     4005     1837     1701     1930 
    2421     3099     2949     3115     4461     5269     4114     2349 
    2741     5637     8316     8966     8295     6967     4992     3279 
    2466      837    -2594    -4711    -2439     3048     8368    11399 
   12468    12505    11232     8758     5949     2300    -2069    -4372 
   -3547    -2212    -1810     -199     4229     8773    10068     9008 
    7847     6253     3823     2191     2004     2209     2754     3738 
    4089     3246     2222     2785     4596     5580     6176     7541 
    8622     9117     9946    10542     9552     6702     2857      132 
    -182     -203    -2004    -4114    -4125    -1844      822     2434 
    3100     2612     1718     3180     6400     7026     4545     2980 
    3951     4869     3480      810       33     2089     4028     4764 
    6984    11982    17864    21455    21212    18370    13294     4315 
   -7801   -18781   -25014   -25452   -20511   -11344     1016    15462 
   28205    33497    29290    18488     5329    -6388   -14944   -20609 
  -21933   -16120    -4252     8318    17540    22573    23282    19666 
   13365     7716     3472    -1625    -6458    -6621     -261     8935 
   14521    14847    13105    10330     5238    -2165    -8658    -8765 
   -1397     7765    13213    14800    14462    12125     7954     2943 
   -3539   -11079   -15566   -12688    -3003     8035    15307    17999 
   17410    12758     3295    -7134   -14314   -19298   -23026   -21574 
  -12614     -206    10345    18864    28606    39658    49053    54087 
   50260    33829     8590   -17050   -36009   -43056   -38927   -31357 
  -22103    -5780    15078    31121    36208    30674    19309     4742 
   -9212   -15259   -12039    -3505     6343    13846    18389    20615 
   18563    11318     2505    -2193       27     6534    12955    17506 
   20243    21532    20286    12290    -4326   -23236   -36008   -39252 
  -32381   -14567    12676    40356    55734    55744    46573    30960 
   10561    -7966   -20123   -26481   -26276   -16733    -1011    10524 
   12422     8341     1683    -6934   -15608   -18954   -11364     4710 
   19082    22832    16555     7987     -668   -11306   -20281   -23619 
  -20826    -9263    11395    31517    37712    26192     9008     -777 
   -3852    -4851    -3400     2911    11657    15067    12702     7908 
   -1818   -13157   -15723    -6581     6177    13493    15558    16950 
   16407     8561    -5340   -15236   -15719   -10415    -2091     7892 
   17856    26619    28019    17176     1683    -7703    -8078    -2606 
    3688    10272    20953    32417    33690    20679      637   -17761 
  -30618   -36510   -33832   -21713    -2736    15842    27094    30580 
   28818    22855    14596     6463     -554    -6392   -11259   -12779 
   -7458     1718     7865     8931     6980     3933     1674     3254 
    9657    17813    23448    21656    11092    -1648    -9537   -13344 
  -18856   -26298   -27977   -19141    -2110    18810    38059    49482 
   49831    38152    16102    -8893   -27645   -37296   -40992   -39881 
  -30927   -13180     9154    30735    48166    56840    52941    40271 
   24175     5620   -13313   -28337   -34753   -29694   -16020      657 
   14729    22423    26470    31099    32783    24228     8035    -6855 
  -19529   -28051   -25485   -14447    -1448    12507    25593    32589 
   29316    17316     2331   -10768   -19318   -22094   -17779    -7410 
    3888    13294    21230    25290    21744    12671     5382      819 
   -7234   -17691   -22511   -18053    -6058    10166    27492    39287 
   35830    18042      257    -8668   -12037   -11313    -4760     2759 
    5152     5019     7820    11875    12078     8791     6264     4382 
      35    -4441    -4045     -106     1344     -716    -1730     -398 
    1784     4633     6386     4747     1313      849     5317    11059 
   14759    17340    19759    19089    12050     1144    -8282   -14465 
  -16977   -13644    -4965     3638     8657    12933    17932    18760 
   13524     7526     3029    -2637    -7562    -7546    -4602    -2597 
    -869     2280     5783     7825     8502     9879    12393    13009 
   11209    10368    10431     7723     1914    -3510    -7148   -10139 
  -11673    -9435    -2042    10246    22820    28424    25390    17801 
    8849     -697   -10748   -18661   -19063   -10003     4064    15465 
   18986    16607    13844    10951     4295    -4595    -9171    -5462 
    3730    10885    11551     8160     4203      490    -1949     -970 
    3134     6420     6124     4637     6122    10384    13398    13016 
    9470     3348    -3240    -6655    -5517    -3909    -5617    -7462 
   -5977    -2986      772     7222    15425    21342    20302    11433 
    1701    -3073    -4824    -4760    -2369      318     3219     7655 
   12120    15476    17973    17695    12699     4842    -2774    -8305 
  -10342    -7785     -789     7277    12016    12829    10524     5850 
    2371     1799     1894     3003     6826    11485    14652    15665 
   13317     7015     -743    -6424    -8877    -8799    -7310    -6041 
   -4866     -746     6779    12787    13902    11996     9336     6616 
    4301     2077     -683    -2895    -2350      716     3897     6963 
   10692    13234    12992    11608    10818     9830     7715     5212 
    2146    -2774    -8382   -11901   -11959    -7750      608     9490 
   14192    14474    13587    12403     9729     6802     5332     4558 
    3840     3932     5139     6030     4225     -500    -4653    -4861 
   -2077      795     3235     6258     9967    13637    15979    15352 
   11125     4965     -499    -4870    -8486    -8849    -3973     3208 
    8203    10285    11848    12930    10231     3898    -1871    -5899 
   -9437   -11458   -10191    -5408     2593    12368    20737    24270 
   20528    10970     1038    -4931    -6292    -5300    -4280    -2381 
    2308     8606    14071    17636    17204    11145     3132    -2389 
   -6264    -9788   -10292    -5134     4095    12650    17172    17408 
   14424     9687     3842    -3211    -9061    -9794    -5556      488 
    7231    14440    19990    21713    20660    19014    14295     3021 
  -10752   -19693   -22167   -19749   -12245     -538    11601    21172 
   27552    30215    27677    18847     5346    -7792   -16688   -21485 
  -21817   -15202    -2551     9432    14887    15341    15373    14800 
   10621     3716    -2164    -5020    -4110     1046     8608    14995 
   17647    15016     6654    -4129   -11078   -11196    -6789    -1331 
    3684     9579    16252    19071    15477     8295     1156    -3943 
   -6999    -8313    -6350     -487     6691    12087    13802    11732 
    9298     9556     9910     6893     2376      -28     -619    -1964 
   -3685    -2452     2358     6733     8314     8988     9202     6829 
    1478    -4695    -9323   -10426    -7252    -1648     5138    13487 
   21230    24514    21517    12640     1128    -7175    -8874    -5667 
   -1007     3264     7318    10609    11361     9633     6254     1512 
   -2432    -3465    -2214       63     2227     3645     5441     7682 
    8434     7302     5159     2868     2602     5003     6633     5084 
    3015     4050     7177     8297     6227     3522     1958     1584 
    3636     8297    11834    11539     8370     3877     -317    -2570 
   -2504     -908     1390     4175     6925     8704     9177     8329 
    6282     3265     -565    -3368    -2382     1329     3951     4942 
    7006    10573    12636    11634     8583     3711    -2247    -6998 
   -9896   -10679    -8243    -3784     1240     7267    13054    16128 
   16059    13636     9508     5043     1744    -1028    -4675    -7466 
   -5671      989     8248    12575    14077    13728    12193    10311 
    7402     1907    -4380    -6644    -3450     1362     4791     7759 
   10768    11519     8129     1559    -5128    -9072    -8692    -2929 
    6880    15790    19917    19222    15479    10589     4986    -1694 
   -7719   -10577    -9663    -4982     2771    10393    15122    16856 
   16094    13209     7592     -707    -7771   -10042    -8457    -5024 
     168     6980    13054    15487    13626     9391     4581     -737 
   -5742    -7344    -3699     2409     7006     9857    12383    13791 
   12490     8067     1109    -5393    -6967    -3661     -553      681 
    4353    11799    17575    17647    13724     8530     3127    -1798 
   -5887    -8680    -8452    -3213     6232    14436    16785    15462 
   14042    11446     5323    -3333   -10153   -11118    -6678     -803 
    4492     9383    11869    10709     8445     6261     3593     1691 
    1223     1494     2479     3442     3451     3709     5216     6439 
    5463     2500     -195     -731      812     3430     6235     8518 
   10135    11007    10530     9011     7223     4411      282    -2975 
   -3461    -2343    -1529     -454     1354     2160     2369     4428 
