Origin Time       2024/04/02 04:24:00
Lat.              40.133
Long.             141.712
Depth. (km)       71
Mag.              6.0
Station Code      AOM023
Station Lat.      40.9664
Station Long.     140.4317
Station Height(m) 6
Record Time       2024/04/02 04:25:00
Sampling Freq(Hz) 100Hz
Duration Time(s)  126
Dir.              U-D
Scale Factor      7845(gal)/8223790
Max. Acc. (gal)   4.813
Last Correction   2024/04/02 04:25:00
Memo.             
[...]
   14577    14581    14578    14566    14551    14558    14567    14547 
   14550    14569    14557    14553    14563    14574    14578    14575 
   14573    14558    14555    14563    14554    14557    14566    14561 
   14561    14567    14571    14561    14551    14553    14553    14554 
   14561    14577    14578    14566    14566    14565    14562    14563 
   14563    14570    14570    14567    14571    14565    14555    14551 
   14554    14561    14561    14562    14569    14574    14570    14563 
   14565    14567    14557    14548    14555    14559    14553    14553 
   14569    14580    14570    14558    14563    14569    14569    14566 
   14562    14565    14566    14557    14558    14566    14566    14567 
   14575    14573    14562    14559    14559    14553    14553    14563 
   14567    14562    14570    14573    14561    14558    14563    14565 
   14567    14570    14577    14577    14569    14569    14565    14553 
   14553    14561    14558    14562    14571    14573    14565    14558 
   14565    14574    14570    14567    14567    14562    14559    14559 
   14565    14567    14566    14569    14567    14558    14548    14551 
   14570    14570    14553    14553    14558    14555    14561    14567 
   14569    14578    14577    14555    14551    14565    14562    14559 
   14571    14566    14557    14562    14563    14566    14567    14569 
   14571    14566    14565    14569    14571    14563    14551    14557 
   14565    14562    14562    14565    14559    14550    14557    14573 
   14580    14574    14569    14570    14567    14558    14554    14557 
   14569    14566    14562    14577    14574    14562    14558    14554 
   14562    14577    14573    14565    14561    14559    14554    14566 
   14580    14569    14561    14566    14569    14558    14543    14551 
   14562    14562    14567    14574    14574    14563    14558    14569 
   14567    14555    14558    14563    14565    14566    14570    14574 
   14570    14563    14566    14562    14558    14567    14571    14561 
   14559    14570    14573    14566    14559    14562    14570    14559 
   14553    14559    14558    14555    14557    14559    14570    14573 
   14561    14559    14570    14578    14565    14551    14569    14580 
   14571    14571    14559    14540    14548    14555    14557    14580 
   14581    14562    14566    14569    14561    14558    14555    14561 
   14559    14554    14570    14571    14562    14571    14567    14562 
   14563    14550    14558    14566    14554    14571    14589    14580 
   14559    14548    14562    14570    14557    14563    14581    14561 
   14544    14573    14586    14566    14555    14550    14557    14567 
   14570    14573    14561    14558    14570    14555    14548    14562 
   14563    14562    14563    14563    14565    14562    14567    14575 
   14574    14566    14563    14570    14563    14553    14561    14567 
   14558    14563    14577    14571    14570    14574    14563    14550 
   14554    14558    14563    14577    14575    14561    14557    14553 
   14546    14558    14569    14558    14559    14577    14581    14563 
   14554    14563    14559    14547    14558    14570    14563    14562 
   14570    14566    14557    14570    14578    14561    14551    14555 
   14547    14550    14574    14584    14571    14563    14567    14566 
   14553    14553    14566    14569    14567    14567    14554    14540 
   14550    14570    14574    14569    14571    14573    14567    14567 
   14565    14563    14569    14561    14557    14570    14567    14561 
   14563    14561    14569    14573    14565    14569    14565    14551 
   14562    14584    14580    14554    14551    14563    14555    14553 
   14565    14567    14559    14561    14565    14554    14558    14570 
   14569    14578    14578    14573    14580    14562    14550    14565 
   14557    14553    14565    14561    14565    14577    14565    14553 
   14559    14561    14555    14563    14567    14555    14553    14558 
   14565    14567    14561    14566    14574    14566    14563    14561 
   14553    14559    14567    14563    14555    14558    14569    14574 
   14571    14569    14563    14561    14567    14563    14550    14555 
   14558    14553    14565    14580    14566    14554    14561    14565 
   14563    14562    14561    14569    14574    14566    14563    14569 
   14562    14553    14558    14561    14557    14561    14566    14582 
   14584    14558    14557    14573    14566    14563    14570    14565 
   14559    14565    14570    14571    14566    14558    14544    14543 
   14565    14582    14580    14574    14569    14554    14557    14575 
   14570    14555    14563    14567    14559    14559    14562    14559 
   14561    14562    14565    14569    14570    14578    14577    14561 
   14558    14567    14565    14548    14546    14566    14571    14555 
   14559    14575    14577    14567    14558    14561    14565    14559 
   14565    14575    14565    14555    14561    14559    14555    14562 
   14567    14566    14571    14570    14558    14555    14561    14562 
   14563    14563    14561    14561    14567    14577    14570    14557 
   14557    14559    14554    14554    14561    14563    14562    14565 
   14567    14570    14567    14558    14559    14567    14562    14561 
   14569    14569    14567    14569    14567    14562    14553    14555 
   14562    14565    14566    14557    14559    14569    14562    14561 
   14566    14567    14571    14563    14551    14559    14565    14555 
   14559    14570    14562    14559    14566    14561    14554    14559 
   14569    14573    14569    14562    14562    14563    14561    14562 
   14567    14559    14554    14561    14562    14558    14554    14553 
   14561    14565    14562    14567    14573    14565    14555    14558 
   14569    14573    14570    14566    14563    14561    14561    14558 
   14555    14559    14565    14562    14567    14574    14559    14554 
   14566    14565    14559    14571    14574    14563    14558    14565 
   14566    14559    14561    14562    14559    14563    14567    14574 
   14577    14566    14569    14574    14561    14555    14555    14546 
   14558    14573    14567    14567    14575    14570    14559    14557 
   14562    14566    14569    14566    14554    14557    14566    14562 
   14563    14569    14566    14570    14571    14559    14559    14569 
   14563    14561    14561    14554    14558    14566    14566    14570 
   14567    14555    14555    14559    14559    14563    14563    14561 
   14566    14570    14567    14562    14559    14559    14559    14559 
   14570    14571    14561    14561    14565    14566    14567    14566 
   14562    14555    14554    14561    14566    14569    14566    14570 
   14584    14582    14571    14565    14561    14561    14562    14562 
   14559    14554    14558    14567    14567    14561    14565    14570 
   14570    14566    14561    14563    14570    14567    14561    14561 
   14559    14562    14574    14571    14561    14559    14561    14562 
   14561    14562    14570    14574    14571    14567    14563    14561 
   14561    14557    14553    14565    14565    14554    14566    14573 
   14554    14551    14565    14563    14563    14574    14574    14567 
   14565    14565    14562    14561    14561    14554    14547    14558 
   14569    14567    14567    14569    14558    14551    14557    14561 
   14561    14565    14563    14559    14559    14563    14571    14575 
   14570    14561    14565    14566    14554    14557    14565    14558 
   14557    14561    14559    14569    14580    14569    14562    14563 
   14558    14561    14573    14571    14565    14567    14574    14570 
   14566    14571    14570    14559    14559    14559    14555    14557 
   14562    14565    14565    14565    14569    14575    14575    14567 
   14563    14566    14561    14548    14551    14562    14563    14567 
   14577    14574    14567    14569    14573    14573    14566    14553 
   14553    14563    14566    14562    14558    14565    14570    14567 
   14566    14570    14570    14565    14566    14562    14558    14561 
   14563    14570    14570    14567    14575    14571    14559    14558 
   14563    14570    14567    14555    14557    14566    14561    14555 
   14554    14555    14559    14562    14570    14570    14559    14558 
   14567    14574    14571    14566    14562    14559    14557    14557 
   14561    14563    14558    14559    14570    14573    14565    14563 
   14565    14557    14554    14559    14561    14563    14570    14577 
   14577    14570    14566    14567    14566    14561    14561    14558 
   14555    14566    14561    14546    14558    14575    14574    14577 
   14577    14563    14553    14551    14553    14558    14563    14565 
   14565    14566    14569    14565    14559    14562    14563    14558 
   14555    14565    14574    14570    14565    14565    14559    14559 
   14567    14563    14562    14570    14569    14562    14558    14562 
   14569    14570    14570    14573    14571    14567    14563    14559 
   14558    14567    14571    14565    14562    14565    14561    14558 
   14562    14562    14561    14567    14567    14562    14565    14570 
   14573    14574    14577    14574    14559    14558    14571    14573 
   14563    14563    14566    14566    14562    14557    14557    14561 
   14557    14550    14555    14563    14567    14569    14567    14567 
   14563    14562    14570    14569    14559    14562    14569    14563 
   14559    14562    14562    14562    14559    14554    14563    14571 
   14563    14565    14570    14559    14555    14561    14559    14559 
   14562    14565    14559    14550    14553    14565    14573    14577 
   14573    14565    14567    14562    14554    14562    14562    14557 
   14562    14562    14562    14569    14575    14577    14569    14555 
   14553    14561    14567    14566    14561    14558    14561    14562 
   14566    14577    14577    14570    14562    14555    14561    14566 
   14566    14565    14562    14558    14557    14557    14562    14565 
   14562    14561    14557    14553    14559    14567    14567    14569 
   14574    14574    14567    14567    14575    14574    14570    14562 
   14557    14558    14561    14569    14574    14563    14555    14559 
   14563    14567    14571    14571    14566    14561    14558    14557 
   14562    14566    14561    14561    14566    14565    14565    14569 
   14575    14581    14574    14566    14559    14553    14553    14561 
   14570    14573    14562    14561    14573    14571    14569    14571 
   14561    14555    14559    14559    14563    14563    14561    14555 
   14548    14555    14566    14563    14571    14578    14566    14559 
   14569    14570    14563    14559    14557    14558    14561    14559 
   14562    14570    14566    14563    14567    14562    14561    14566 
   14567    14573    14569    14561    14559    14561    14562    14562 
   14565    14567    14565    14562    14563    14566    14571    14570 
   14562    14557    14559    14558    14559    14570    14570    14558 
   14555    14562    14570    14569    14563    14570    14566    14551 
   14554    14567    14573    14575    14580    14574    14573    14594 
   14634    14685    14755    14839    14916    14979    15021    15026 
   14976    14874    14715    14500    14268    14050    13878    13784 
   13775    13842    14052    14439    14899    15300    15591    15757 
   15831    15844    15750    15493    15122    14774    14512    14237 
   13915    13714    13809    14161    14539    14794    14987    15129 
   15079    14751    14273    13838    13475    13134    12876    12808 
   12942    13228    13616    14058    14489    14864    15179    15376 
   15373    15249    15186    15188    15032    14540    13860    13402 
   13452    13896    14546    15336    16083    16491    16488    16348 
   16281    16150    15751    15048    14092    13089    12368    12116 
   12353    13004    13967    15138    16256    16969    17163    16935 
   16329    15404    14454    13848    13583    13300    12839    12426 
   12268    12397    12899    13868    15052    15923    16271    16340 
   16393    16438    16317    15920    15223    14204    13078    12387 
   12494    13217    14092    14665    14678    14354    14181    14210 
   14087    13749    13483    13414    13419    13367    13216    12966 
   12721    12604    12630    12939    13886    15516    17158    17814 
   17162    15990    15329    15318    15334    14997    14440    13768 
   13074    12802    13379    14727    16266    17228    17140    16340 
   15651    15377    15223    14985    14596    13984    13204    12483 
   12150    12380    12976    13618    14146    14376    14239    14075 
   14243    14706    15244    15612    15597    15300    14997    14690 
   14301    14092    14376    14976    15411    15537    15666    15897 
   15849    15209    14025    12622    11519    11211    11888    13258 
   14661    15547    15731    15418    15192    15371    15607    15552 
   15322    15103    14677    13778    12690    11853    11429    11418 
   11758    12626    14272    16241    17637    18100    17980    17667 
   17150    16410    15836    15666    15504    14844    13767    12943 
   12985    13810    14816    15597    16162    16515    16584    16403 
   15942    15090    14134    13562    13396    13497    13900    14301 
   14185    13554    12893    12505    12368    12538    13136    14220 
   15828    17647    19040    19610    19214    17817    15979    14951 
   15361    16318    16537    15666    14112    12375    10951    10536 
   11443    12999    14378    15488    16592    17635    18021    17061 
   14752    12168    10849    11298    12511    13281    13063    12043 
   11026    10891    12121    14318    16168    16850    16802    16711 
   16704    16575    16155    15352    14170    12949    12309    12745 
   14157    15581    15843    14982    14234    14405    15279    16328 
   17039    16989    15950    14069    12229    11524    11935    12452 
   12744    13532    15151    16985    18208    18068    16247    13562 
   11585    11190    11977    13194    14312    14773    14320    13495 
   13093    13405    14289    15618    17080    18014    17952    16929 
   15302    13645    12317    11214    10349    10196    11097    12788 
   14729    16370    17147    16812    15676    14384    13551    13527 
   14188    14912    15063    14535    13678    12847    12208    12101 
   13101    15153    17336    18736    19097    18674    17759    16525 
   15125    13752    12811    12664    13117    13702    14085    13977 
   13300    12586    12626    13629    15111    16325    16677    16255 
   15654    15145    14550    13792    13081    12534    12168    12228 
   12866    13736    14462    15059    15637    16247    17028    17810 
   17921    17095    15819    14530    13524    13234    13728    14389 
   14490    14152    14102    14470    14736    14608    14216    13784 
   13474    13444    13818    14476    15013    15006    14434    13903 
   14081    14889    15574    15581    15167    15053    15535    16140 
   16236    15898    15720    15673    15222    14548    14262    14334 
   14461    14748    15207    15337    14781    13922    13513    13960 
   14878    15329    14856    13996    13495    13678    14316    14739 
   14558    13949    13193    12658    12735    13431    14308    14856 
   14912    14701    14513    14574    14913    15156    14993    14678 
   14515    14297    13934    13913    14415    14827    14658    14281 
   14454    15299    16132    16353    15957    15165    14318    13911 
   14116    14519    14558    13983    13109    12675    13020    13825 
   14706    15319    15385    15191    15206    15426    15614    15615 
   15384    14943    14393    14037    14168    14693    15157    15169 
   14751    14268    14046    14184    14600    14966    14926    14573 
   14304    14233    14196    14200    14257    14192    13963    13703 
   13467    13167    12785    12617    12938    13549    14150    14678 
   15076    15296    15349    15230    15056    15006    15080    15148 
   15225    15361    15255    14673    13977    13597    13483    13432 
   13535    13844    14021    14071    14319    14608    14709    14735 
   14604    14102    13560    13660    14359    14974    15319    15589 
   15660    15495    15395    15489    15681    15915    15996    15487 
   14376    13358    13069    13459    14015    14341    14526    14854 
   15290    15523    15395    14980    14391    13811    13490    13510 
   13899    14555    15152    15514    15631    15573    15483    15329 
   15083    14871    14720    14636    14584    14519    14596    14782 
   14847    14806    14616    14230    14085    14526    15149    15345 
   14998    14474    13968    13320    12757    12776    13378    14197 
   14836    15063    15016    15003    15203    15460    15495    15313 
   15037    14775    14692    14789    14858    14658    14243    14004 
   14077    14307    14658    15086    15430    15558    15476    15442 
   15743    16209    16393    16119    15365    14160    12951    12317 
   12349    12738    13107    13324    13598    14068    14619    15057 
   15282    15291    15060    14573    14060    13872    14004    14100 
   13938    13667    13740    14482    15596    16445    16642    16236 
   15708    15485    15491    15445    15138    14544    13851    13230 
   12945    13336    14170    14723    14666    14247    13833    13640 
   13741    14169    14771    15088    14916    14594    14384    14187 
   13987    13968    14184    14327    14231    14196    14322    14418 
   14404    14215    13946    13821    13883    14062    14273    14455 
   14480    14253    14022    13937    13865    13895    14229    14798 
   15329    15641    15820    15925    15842    15435    14778    14189 
   13902    13803    13630    13369    13221    13200    13252    13567 
   14304    15259    15978    16082    15495    14740    14590    15191 
   15890    15959    15353    14584    14025    13814    14099    14891 
   15655    15723    15214    14778    14713    14893    14999    14732 
   14150    13574    13169    12997    13297    14114    14912    15149 
   14986    14958    15282    15765    16081    15975    15484    14910 
   14546    14499    14636    14623    14242    13701    13473    13748 
   14220    14535    14597    14432    14156    14027    14368    15178 
   15824    15776    15310    14889    14539    14177    13964    14188 
   14879    15600    15904    15751    15234    14547    14010    13668 
   13340    13092    13211    13697    14139    14376    14634    14979 
   15344    15638    15688    15624    15674    15618    15256    14837 
   14534    14129    13606    13435    13902    14646    15063    14914 
   14523    14347    14472    14609    14592    14574    14597    14581 
   14760    15261    15665    15666    15425    15088    14692    14374 
   14187    13949    13668    13626    13867    14092    14160    14246 
   14453    14612    14655    14735    14763    14408    13703    13097 
   12939    13220    13844    14766    15641    16055    16086    15916 
   15499    14893    14280    13786    13473    13377    13491    13725 
   13871    13702    13359    13306    13693    14212    14472    14270 
