Origin Time       2024/04/02 04:24:00
Lat.              40.133
Long.             141.712
Depth. (km)       71
Mag.              6.0
Station Code      AOM019
Station Lat.      40.8152
Station Long.     140.4470
Station Height(m) 8
Record Time       2024/04/02 04:24:59
Sampling Freq(Hz) 100Hz
Duration Time(s)  161
Dir.              E-W
Scale Factor      7845(gal)/8223790
Max. Acc. (gal)   6.581
Last Correction   2024/04/02 04:24:59
Memo.             
[...]
   -4955    -4982    -4746    -4457    -4172    -3751    -3245    -2816 
   -2504    -2355    -2378    -2461    -2556    -2617    -2500    -2230 
   -1993    -1842    -1744    -1745    -1842    -2019    -2376    -2880 
   -3254    -3294    -3021    -2594    -2281    -2307    -2559    -2754 
   -2853    -2926    -2975    -3114    -3481    -3974    -4310    -4338 
   -4206    -4109    -4095    -4163    -4328    -4618    -4942    -5007 
   -4737    -4425    -4322    -4413    -4480    -4255    -3693    -3086 
   -2720    -2593    -2543    -2469    -2262    -1867    -1479    -1378 
   -1611    -1915    -2019    -1995    -1980    -1921    -1894    -2045 
   -2335    -2675    -3056    -3569    -4203    -4658    -4752    -4563 
   -4224    -4010    -4136    -4444    -4687    -4700    -4355    -3778 
   -3373    -3339    -3535    -3767    -3933    -3997    -3955    -3792 
   -3561    -3329    -2992    -2471    -2010    -1971    -2381    -2883 
   -3090    -2974    -2785    -2675    -2700    -2866    -2980    -2878 
   -2677    -2659    -3005    -3515    -3781    -3623    -3103    -2409 
   -1826    -1478    -1291    -1192    -1066     -799     -517     -545 
   -1015    -1655    -2150    -2459    -2648    -2782    -2990    -3249 
   -3354    -3285    -3267    -3497    -4035    -4707    -5238    -5584 
   -5780    -5703    -5394    -5112    -4866    -4484    -4047    -3789 
   -3707    -3654    -3631    -3719    -3836    -3840    -3844    -4095 
   -4541    -4803    -4618    -4117    -3677    -3501    -3500    -3487 
   -3289    -2906    -2528    -2207    -1898    -1703    -1665    -1686 
   -1741    -1877    -2020    -2074    -2062    -2025    -1953    -1902 
   -1918    -2053    -2430    -2976    -3457    -3785    -3925    -3856 
   -3697    -3646    -3797    -3977    -4020    -4031    -4056    -3942 
   -3647    -3337    -3192    -3264    -3485    -3689    -3697    -3483 
   -3268    -3287    -3414    -3391    -3298    -3271    -3192    -2994 
   -2806    -2744    -2694    -2430    -1995    -1717    -1779    -2014 
   -2192    -2211    -2039    -1763    -1532    -1432    -1494    -1653 
   -1815    -1966    -2108    -2398    -2964    -3504    -3651    -3377 
   -2947    -2752    -2965    -3411    -3846    -4062    -3983    -3796 
   -3805    -4077    -4315    -4275    -4091    -4089    -4390    -4827 
   -5157    -5255    -5175    -5067    -4963    -4814    -4591    -4291 
   -4056    -4044    -4144    -4205    -4190    -4014    -3674    -3318 
   -3010    -2737    -2583    -2659    -2905    -3052    -2948    -2812 
   -2879    -3028    -2990    -2647    -2093    -1525    -1063     -878 
   -1090    -1453    -1645    -1653    -1721    -2126    -2801    -3318 
   -3546    -3708    -3856    -3973    -4158    -4380    -4445    -4245 
   -3839    -3331    -2883    -2741    -2929    -3094    -2951    -2643 
   -2454    -2408    -2373    -2326    -2304    -2236    -2093    -2096 
   -2424    -2859    -3082    -3064    -3003    -3123    -3468    -3847 
   -4098    -4216    -4252    -4232    -4102    -3825    -3437    -2984 
   -2602    -2516    -2772    -3196    -3541    -3645    -3514    -3206 
   -2774    -2353    -2127    -2201    -2474    -2794    -3148    -3566 
   -3959    -4147    -4006    -3638    -3267    -3078    -3283    -3870 
   -4398    -4502    -4207    -3739    -3302    -3029    -3002    -3142 
   -3262    -3308    -3379    -3512    -3580    -3376    -2887    -2446 
   -2270    -2220    -2394    -3025    -3763    -4112    -4089    -3889 
   -3596    -3276    -2940    -2547    -2131    -1810    -1744    -1991 
   -2413    -2801    -3022    -3036    -2986    -3148    -3505    -3719 
   -3662    -3526    -3480    -3538    -3645    -3720    -3672    -3499 
   -3335    -3308    -3392    -3515    -3603    -3568    -3489    -3555 
   -3755    -3956    -4040    -3890    -3519    -3115    -2890    -2875 
   -2911    -2940    -2987    -2964    -2889    -2866    -2874    -2933 
   -3109    -3339    -3565    -3778    -3969    -4117    -4166    -4131 
   -4001    -3620    -3114    -2899    -3061    -3364    -3649    -3871 
   -4001    -3983    -3811    -3630    -3549    -3435    -3195    -2979 
   -2951    -3152    -3493    -3724    -3659    -3404    -3110    -2778 
   -2461    -2315    -2343    -2380    -2322    -2257    -2316    -2473 
   -2558    -2478    -2419    -2600    -2866    -2891    -2660    -2451 
   -2455    -2594    -2674    -2608    -2447    -2316    -2253    -2215 
   -2235    -2320    -2396    -2508    -2694    -2840    -2826    -2598 
   -2285    -2191    -2355    -2488    -2365    -2057    -1800    -1718 
   -1880    -2355    -2948    -3339    -3468    -3422    -3291    -3254 
   -3499    -3964    -4396    -4617    -4611    -4552    -4629    -4699 
   -4484    -4047    -3713    -3692    -3867    -3933    -3789    -3604 
   -3520    -3526    -3596    -3781    -4114    -4495    -4739    -4780 
   -4750    -4735    -4631    -4421    -4248    -4116    -3889    -3628 
   -3553    -3604    -3438    -2886    -2081    -1255     -729     -761 
   -1154    -1507    -1831    -2346    -2943    -3276    -3226    -2968 
   -2623    -2285    -2191    -2396    -2805    -3365    -3840    -3963 
   -3788    -3564    -3447    -3281    -2899    -2498    -2335    -2447 
   -2756    -3106    -3362    -3447    -3358    -3213    -3146    -3283 
   -3564    -3639    -3349    -2936    -2623    -2452    -2484    -2717 
   -2978    -3036    -2786    -2451    -2497    -2922    -3190    -3060 
   -2798    -2716    -2951    -3387    -3742    -3859    -3817    -3796 
   -3920    -4180    -4463    -4579    -4432    -4106    -3711    -3323 
   -3036    -2803    -2500    -2019    -1363     -831     -756    -1013 
   -1178    -1040     -758     -500     -295     -297     -561     -866 
   -1132    -1514    -2045    -2560    -2855    -2890    -2833    -2830 
   -2930    -3171    -3481    -3713    -3881    -4062    -4113    -3994 
   -3927    -3920    -3892    -3885    -3805    -3713    -3840    -4082 
   -4294    -4569    -4789    -4800    -4718    -4648    -4716    -5020 
   -5377    -5606    -5641    -5444    -5211    -5111    -4992    -4718 
   -4288    -3825    -3538    -3369    -3167    -3014    -2876    -2639 
   -2393    -2255    -2315    -2554    -2681    -2439    -1869    -1124 
    -417       14      164      174      167      275      452      459 
     249       44       -8      -56     -330     -750    -1024    -1042 
    -915     -778     -747     -931    -1297    -1607    -1698    -1746 
   -2000    -2385    -2668    -2762    -2724    -2702    -2803    -2994 
   -3281    -3757    -4328    -4769    -4943    -4918    -4938    -5169 
   -5495    -5698    -5734    -5698    -5719    -5949    -6455    -7109 
   -7600    -7719    -7681    -7801    -8031    -8191    -8241    -8197 
   -8091    -7885    -7514    -7098    -6747    -6481    -6423    -6523 
   -6540    -6519    -6596    -6648    -6524    -6251    -5998    -5815 
   -5512    -5065    -4627    -4108    -3505    -3132    -3181    -3541 
   -3883    -3927    -3678    -3319    -2997    -2770    -2517    -2054 
   -1448     -955     -758     -907    -1267    -1551    -1582    -1444 
   -1293    -1151     -977     -746     -413       -9      371      795 
    1356     1806     1844     1572     1171      687      247      -70 
    -301     -468     -685     -904     -819     -481     -282     -459 
   -1003    -1671    -2203    -2570    -2828    -3018    -3213    -3557 
   -4131    -4731    -5170    -5545    -5896    -6083    -6103    -6161 
   -6444    -7011    -7682    -8129    -8316    -8414    -8414    -8301 
   -8229    -8206    -8070    -7789    -7443    -7055    -6613    -6112 
   -5602    -5236    -5038    -4785    -4374    -3982    -3736    -3484 
   -3069    -2596    -2282    -2208    -2197    -2046    -1817    -1580 
   -1194     -715     -369      -43      444      984     1425     1509 
     996       75     -800    -1297    -1398    -1439    -1733    -2331 
   -3105    -3770    -4079    -4063    -3900    -3715    -3550    -3410 
   -3315    -3203    -2971    -2768    -2874    -3245    -3578    -3721 
   -3736    -3730    -3855    -4182    -4565    -4903    -5223    -5510 
   -5680    -5703    -5628    -5449    -5013    -4241    -3445    -2991 
   -2755    -2423    -2064    -1895    -1918    -2077    -2276    -2389 
   -2353    -2095    -1614    -1115     -888    -1042    -1287    -1260 
    -977     -699     -626     -866    -1347    -1845    -2110    -1858 
   -1085     -220      357      612      673      738      897      936 
     643       59     -731    -1507    -1930    -2050    -2219    -2697 
   -3487    -4191    -4479    -4491    -4452    -4502    -4764    -5082 
   -5189    -5046    -4698    -4261    -3960    -3829    -3694    -3385 
   -2936    -2620    -2573    -2542    -2266    -1818    -1429    -1197 
   -1096    -1144    -1360    -1636    -1910    -2245    -2647    -3071 
   -3443    -3622    -3605    -3504    -3295    -2967    -2629    -2371 
   -2316    -2613    -3175    -3690    -3920    -3869    -3615    -3252 
   -3026    -3138    -3522    -4023    -4546    -5043    -5445    -5544 
   -5202    -4742    -4576    -4862    -5613    -6405    -6620    -6210 
   -5545    -4985    -4634    -4237    -3632    -2995    -2515    -2234 
   -2018    -1672    -1200     -633      -27      341      297       16 
    -259     -303       16      468      731      768      599      264 
     -98     -402     -611     -814    -1179    -1733    -2353    -2843 
   -3123    -3291    -3356    -3334    -3419    -3735    -4326    -5155 
   -5954    -6520    -6814    -6717    -6257    -5692    -5233    -4997 
   -4947    -4837    -4617    -4480    -4396    -4303    -4355    -4455 
   -4286    -3889    -3576    -3541    -3754    -4028    -4276    -4652 
   -5298    -6087    -6664    -6794    -6528    -5987    -5305    -4714 
   -4357    -4222    -4198    -4099    -3835    -3522    -3364    -3449 
   -3680    -3970    -4342    -4719    -4932    -5039    -5131    -5023 
   -4608    -3982    -3364    -3125    -3429    -4102    -4815    -5185 
   -5189    -5092    -4834    -4313    -3696    -3019    -2300    -1729 
   -1406    -1283    -1150     -741      -41      733     1312     1467 
    1124      380     -495    -1166    -1506    -1717    -2056    -2548 
   -3007    -3277    -3403    -3539    -3732    -3991    -4369    -4725 
   -4851    -4762    -4507    -4062    -3481    -2926    -2704    -2980 
   -3487    -3951    -4365    -4810    -5400    -6104    -6736    -7254 
   -7631    -7740    -7608    -7335    -6870    -6107    -5063    -3896 
   -2737    -1625     -722     -378     -762    -1595    -2432    -3010 
   -3127    -2814    -2542    -2616    -2829    -2976    -3028    -2859 
   -2378    -1792    -1290     -785     -291      -10       -5     -141 
    -210     -174     -186     -186      -10      168       68     -378 
   -1007    -1576    -2077    -2597    -2994    -3133    -3026    -2763 
   -2581    -2629    -2925    -3557    -4415    -5142    -5451    -5256 
   -4806    -4421    -3963    -3253    -2566    -2196    -2235    -2758 
   -3640    -4606    -5487    -6072    -6092    -5607    -5019    -4649 
   -4604    -4861    -5395    -6116    -6619    -6624    -6451    -6497 
   -6698    -6700    -6299    -5598    -4723    -3808    -3206    -3052 
   -3005    -2886    -2843    -3019    -3411    -3723    -3689    -3415 
   -2948    -2209    -1406     -793     -363       22      487      992 
    1426     1802     2033     2007     1833     1547     1121      660 
     147     -503    -1235    -1915    -2273    -2187    -2030    -2016 
   -1904    -1723    -1641    -1571    -1466    -1356    -1277    -1356 
   -1672    -2228    -3034    -4023    -5080    -5985    -6409    -6345 
   -6129    -5861    -5383    -4719    -4062    -3582    -3406    -3647 
   -4369    -5329    -6039    -6235    -5999    -5582    -5223    -4980 
   -4897    -5139    -5656    -6085    -6164    -5989    -5717    -5271 
   -4554    -3686    -2937    -2496    -2212    -1845    -1420    -1009 
    -679     -669    -1205    -2211    -3206    -3550    -3127    -2488 
   -2093    -2027    -2182    -2363    -2582    -3014    -3584    -4124 
   -4606    -4855    -4615    -3906    -3110    -2762    -3040    -3376 
   -3181    -2702    -2506    -2720    -3087    -3287    -3156    -2654 
   -1792     -930     -548     -615     -789     -920    -1030    -1174 
   -1348    -1463    -1414    -1082     -517       18      305      224 
    -267    -1046    -1885    -2573    -3115    -3788    -4700    -5644 
   -6388    -6820    -7026    -7152    -7110    -6843    -6405    -5713 
   -4788    -3871    -3184    -2934    -3257    -3991    -4710    -4941 
   -4545    -3932    -3559    -3487    -3635    -3975    -4401    -4822 
   -5250    -5551    -5422    -4877    -4395    -4222    -4116    -4066 
   -4313    -4696    -4954    -5070    -5093    -5260    -5760    -6249 
   -6407    -6374    -6276    -6149    -6060    -5977    -5825    -5343 
   -4252    -2882    -1883    -1432    -1178     -842     -573     -588 
    -760     -823     -666     -282      259      777     1038      757 
    -206    -1495    -2451    -2682    -2289    -1556     -542      788 
    2139     2976     3055     2434     1235     -205    -1371    -1925 
   -1819    -1298     -742     -353     -179     -360     -978    -1829 
   -2582    -3115    -3543    -4021    -4738    -5672    -6403    -6627 
   -6369    -5675    -4795    -4203    -4023    -4044    -4167    -4374 
   -4622    -4884    -5209    -5768    -6556    -7315    -7981    -8752 
   -9585   -10068    -9983    -9526    -8957    -8359    -7755    -7234 
   -6728    -5934    -4710    -3294    -2166    -1598    -1478    -1867 
   -2974    -4477    -5745    -6324    -5981    -4915    -3572    -2374 
   -1783    -1841    -2184    -2648    -2959    -2725    -2147    -1584 
   -1005     -450       12      437      714      822      838      691 
     526      498      546      751      984      878      602      573 
     778      990     1109     1197     1313     1297     1092      838 
     425     -241     -907    -1354    -1316     -556      422      842 
     508     -514    -2027    -3481    -4369    -4608    -4627    -4938 
   -5481    -5830    -5757    -5374    -5227    -5796    -6808    -7815 
   -8640    -8876    -8361    -7577    -6934    -6592    -6531    -6574 
   -6782    -7325    -8010    -8572    -8872    -8723    -8159    -7472 
   -6818    -6330    -6088    -5803    -5147    -4178    -3242    -2755 
   -2745    -2799    -2733    -2608    -2494    -2579    -2786    -2818 
   -2639    -2189    -1421     -687     -299     -275     -542     -793 
    -676     -201      369      666      437     -205    -1003    -1786 
   -2502    -3127    -3426    -3252    -2808    -2253    -1761    -1655 
   -1884    -2103    -2180    -1960    -1314     -604     -217     -118 
    -148      -85      205      599      938      997      591      -35 
    -556     -946    -1282    -1601    -1818    -1883    -1921    -1867 
   -1722    -1908    -2562    -3364    -4099    -4592    -4734    -4731 
   -4760    -4781    -4693    -4382    -3883    -3480    -3461    -4004 
   -4919    -5551    -5463    -4725    -3705    -3011    -2887    -2997 
   -3045    -2883    -2631    -2705    -3051    -3295    -3507    -3790 
   -4098    -4602    -5306    -6002    -6463    -6361    -5679    -4808 
   -4163    -4145    -4627    -4889    -4769    -4560    -4241    -3893 
   -3713    -3697    -3892    -4108    -3962    -3642    -3557    -3662 
   -3734    -3603    -3318    -3291    -3754    -4509    -5258    -5711 
   -5819    -5668    -5170    -4541    -4117    -3680    -2929    -1861 
    -726      -24       97      -12     -189     -427     -584     -633 
    -699     -928    -1472    -2246    -2914    -3257    -3392    -3589 
   -3809    -3767    -3577    -3532    -3519    -3391    -3254    -3171 
   -3214    -3510    -4056    -4666    -4961    -4623    -3612    -2246 
   -1244    -1058    -1480    -2319    -3465    -4475    -5051    -5381 
   -5587    -5547    -5209    -4796    -4700    -5035    -5626    -6459 
   -7461    -8260    -8398    -7634    -6282    -5017    -4288    -4155 
   -4368    -4656    -5101    -5881    -6763    -7296    -7296    -6817 
   -5954    -4978    -4379    -4353    -4517    -4411    -4029    -3570 
   -3103    -2718    -2547    -2646    -3001    -3481    -3923    -4233 
   -4298    -4124    -3959    -3948    -3994    -3929    -3707    -3450 
   -3109    -2536    -1937    -1499    -1175     -994     -832     -511 
    -149      171      492      749      878      772      367     -126 
    -602    -1220    -1966    -2643    -3034    -2947    -2535    -2124 
   -1734    -1310     -970     -838     -990    -1409    -2000    -2708 
   -3306    -3399    -2941    -2228    -1435     -596      187      731 
     851      526      -91     -907    -1917    -3030    -4050    -4737 
   -5027    -5151    -5255    -5297    -5352    -5587    -6016    -6485 
   -6856    -7128    -7176    -6751    -5856    -4839    -4114    -3777 
   -3634    -3593    -3549    -3280    -2802    -2396    -2303    -2582 
   -3159    -3879    -4475    -4826    -5093    -5248    -5157    -4980 
   -4837    -4638    -4523    -4737    -5152    -5389    -5206    -4604 
   -3773    -2906    -2097    -1456     -989     -540     -116      176 
     336      317       99     -170     -348     -460     -569     -642 
    -627     -535     -287      248      969     1479     1439      835 
      -5     -689    -1089    -1260    -1217     -988     -699     -604 
    -801     -990     -901     -702     -688     -831     -842     -639 
    -445     -348     -241     -278     -715    -1344    -1730    -1849 
   -1973    -2250    -2678    -3192    -3705    -4216    -4799    -5514 
   -6292    -6833    -6853    -6400    -5695    -4900    -4245    -3933 
   -3871    -3974    -4340    -4827    -5177    -5432    -5733    -6134 
   -6486    -6454    -6002    -5414    -4837    -4338    -4121    -4378 
   -4945    -5347    -5373    -5236    -5179    -5341    -5686    -6069 
   -6508    -6960    -7069    -6647    -6022    -5605    -5317    -4799 
   -4052    -3420    -3032    -2674    -2245    -1908    -1861    -2188 
   -2767    -3357    -3829    -3996    -3624    -2934    -2393    -2139 
   -2007    -1711    -1167     -660     -334      -83       68       62 
     -83     -332     -529     -584     -675     -903    -1065     -942 
    -444      372     1179     1593     1413      642     -461    -1501 
   -2195    -2550    -2813    -3049    -3125    -3204    -3616    -4347 
   -5109    -5624    -5803    -5825    -5871    -5925    -5941    -5930 
   -5896    -5836    -5773    -5791    -5967    -6195    -6285    -6200 
   -6027    -5848    -5688    -5536    -5503    -5737    -6145    -6494 
   -6624    -6426    -5949    -5408    -4855    -4299    -3942    -3870 
   -3836    -3601    -3172    -2691    -2300    -2061    -1992    -2169 
   -2652    -3288    -3858    -4298    -4498    -4268    -3613    -2686 
   -1660     -847     -553     -892    -1771    -2828    -3500    -3408 
   -2687    -1864    -1360    -1182    -1119    -1053    -1007    -1081 
   -1355    -1756    -2087    -2189    -2079    -1902    -1811    -1918 
   -2289    -2860    -3399    -3743    -3964    -4230    -4563    -4874 
   -5135    -5209    -4935    -4498    -4176    -4025    -3966    -3801 
   -3411    -2943    -2442    -1811    -1139     -573     -234     -330 
