Origin Time       2024/04/02 04:24:00
Lat.              40.133
Long.             141.712
Depth. (km)       71
Mag.              6.0
Station Code      AOM022
Station Lat.      40.9923
Station Long.     140.9161
Station Height(m) 4
Record Time       2024/04/02 04:24:58
Sampling Freq(Hz) 100Hz
Duration Time(s)  108
Dir.              E-W
Scale Factor      7845(gal)/8223790
Max. Acc. (gal)   19.710
Last Correction   2024/04/02 04:24:58
Memo.             
[...]
      21      368      427     -205      -71      515      642      615 
     575      495      234     -606    -1629    -1931    -1433     -658 
     203      785      787     1047     1468      905      302      471 
     220     -256     -198     -132     -132     -417    -1030     -970 
    -522     -116      792     1413     1151      598     -218     -585 
     -59      -60     -722    -1051    -1255    -1343     -912       36 
    1169     1642     1444     1534     1737     1304      387     -446 
    -660      -10      974     1204      152    -1337    -2112    -2069 
   -1340      329     2099     2490     1679      742     -122    -1044 
   -1736    -1891    -1846    -1900    -1260      367     1510     1518 
    1520     1310      116     -233      865      814      113      857 
    1017     -193     -607     -734     -901      128     1092     1405 
    1922     1170     -822    -1347     -614     -662     -668      434 
     792      128      280      361     -179       66       41     -666 
      78     1332     1108      576     -122    -1634    -1934     -966 
   -1162    -1248      739     2555     2459     1675      955      203 
    -503     -573      356      662     -292     -463     -418    -1964 
   -2467     -477      731      540      637       76     -877     -249 
     633      122     -202       62     -145     -310     -433     -697 
     -63     1167     1649     1362     1318     1667     1239      206 
    -330    -1143    -1912    -1075     -286     -207     1120     1490 
    -769    -1502      -41      209      170     1502     2173      977 
    -398     -726     -730     -498      641     1471     1147     1201 
    1845     2111     2106     1104     -935    -2212    -2733    -2922 
   -1895     -693     -653     -507      288      527      103     -279 
    -216      199      229      319     1378     2012     1440     1399 
    1746     1011      189       52      -63       86      288       90 
     449      870      -33     -785     -646    -1487    -2338    -1262 
    -310     -484      426     1598      645     -889    -1247    -1131 
    -648      257      830      826      440      -60     -564     -861 
    -542       25      406      724      795      720     1055     1360 
     893      149     -148     -125     -286     -629     -560     -616 
   -1506    -1676     -490      243      407      947     1120      722 
     446      202      151      322      155      261      901      700 
     -49      306     1003      737      492      716      248     -523 
    -413     -124     -345     -541     -789    -1075     -886     -739 
    -530      558     1016      128      318     1443     1389     1680 
    3181     3024      942     -560    -1320    -1871    -1536     -540 
     118      120     -527    -1466    -1746    -1313    -1113     -986 
    -274      429      889     1587     1834     1381     1378     1772 
    1771     1717     1829     1618      639     -943    -1745    -1175 
    -851     -962     -233      -58    -1308    -1695    -1358    -1895 
   -1593       99      868      789     1179     1494     1466     1320 
     965      756      218     -737     -510      477      722     1085 
    1605      810     -591    -1209    -1414    -1757    -2079    -1899 
   -1109     -368      168      795      959      572      758     1448 
    1356      823      534     -118     -572      193     1017      719 
     -32     -418     -309      206      670      453     -399    -1181 
   -1255     -679     -210     -125      -90      -78      253      926 
    1005      938     1530     1784     1937     2972     3334     2424 
    1637      310    -1902    -3045    -3083    -3069    -2370    -1385 
    -990     -190      862      722      -74     -670    -1301    -1264 
    -290      140     -148      -39       20     -692    -1158     -530 
     186      303      812     1557     1242     1019     1838     1767 
    1044     1452     1528      631      549      688     -151     -943 
   -1166    -1175     -886     -638     -585     -187      283      193 
     -94     -251     -885    -1844    -1701     -479      534     1364 
    1910     1557     1262     1320      756      159     -241    -1082 
   -1017      318      735        9     -544    -1267    -2165    -2135 
   -1383     -571      288      882     1368     1972     1856     1300 
    1242      810     -171     -427     -444     -884     -760     -194 
    -193     -279     -136     -454     -803     -471      -89      197 
     922     1385     1070      945     1115      928     1108     1730 
    1309       22     -843    -1483    -1783     -923       31     -110 
    -319       59      442      918     1287      967      799      892 
     283      287     1505     1389     -101     -510     -417     -854 
    -437      456      279       49      170     -544    -1150     -772 
    -523     -378      -59     -518    -1225    -1209    -1275    -1156 
     438     2209     2409     2084     2284     2058     1085      548 
     760      658       82       85      394       45     -155      303 
     210     -517     -658     -253     -178     -422     -510     -669 
   -1260    -1675    -1287     -630     -364      -33     1023     2110 
    2435     2393     1950     1147      846      766      319     -230 
    -962    -1256     -361      211     -380     -454     -116     -908 
   -1485     -641     -369    -1012     -729     -359     -888     -550 
     619      695      168       28     -129       86      888      880 
    -157     -639     -128      584      930      234    -1155    -1453 
    -542      291     1094     1692     1517     1479     1525      526 
    -459     -491     -637     -569      368      369     -932    -1607 
   -1930    -2407    -1530       35      515      830     1437      997 
     126      371      834      607      642      670     -292     -940 
    -334      214      594     1614     2154     1355      306     -442 
   -1236    -1587    -1175     -756     -453       86      193     -263 
    -130      415      193     -356     -338     -162       31      598 
     800      437      706     1116      629      685     1597     1339 
     432      382       47     -622     -275      135     -292     -781 
   -1317    -2119    -2454    -1811     -773     -174      415     1364 
    1661     1765     2860     3412     2376     1347      846       70 
    -649     -645     -265      -81      -82     -365    -1061    -1328 
    -249     1756     3462     3739     2128     -395    -2397    -3492 
   -3527    -2295     -918     -494     -222      140     -303     -615 
     228     1278     2214     2886     2220      548    -1108    -2532 
   -3240    -2998    -2041     -199     1838     2741     2662     2471 
    2208     1761     1312      885      280     -452     -919    -1386 
   -2149    -2369    -1911    -1417     -467      799     1318     1301 
    1262     1073      959      899      391     -326     -684    -1001 
   -1628    -1626     -676      -25      299      866      955      826 
    1046      646     -183     -394     -179      592     1690     1489 
     253     -315     -618    -1036     -598       59      317     1286 
    2274     1790      616     -745    -2254    -2458    -1235     -189 
      31     -249     -286      213      572      676      696      194 
    -400     -338       24      515     1032      823      -16     -622 
    -838     -978    -1084     -950     -299     1030     2328     2527 
    2016     1424       79    -1406    -1691    -1615    -1536     -679 
    -125     -549     -908    -1298    -1945    -1553      -67      889 
    1443     2357     2305     1040      176     -292     -345      880 
    1931     1688     1682     1800      558     -869    -1096    -1169 
   -1447    -1038     -567     -648     -193      664      685      355 
     -59    -1003    -1071      244      950      642      301     -228 
    -392      699     1561      708     -594     -865     -635     -765 
    -990    -1016     -800      276     1780     1844      664       70 
     -20      118     1174     1961     1286      506      346      -17 
    -309      -49     -171     -816     -765     -140      147      661 
    1490     1363      461     -264     -849     -961     -494     -218 
     234     1224     1563     1433     1809     1545      592      513 
     353     -661     -837     -274      -66      492      828     -209 
   -1074     -741     -411     -348      106      483      139     -384 
    -766    -1377    -1729    -1263     -360      533      932      865 
     901      571       14      584     1368      878       32     -589 
   -1463    -2347    -2377    -1089      407     1332     2381     2540 
     847     -522     -527     -449     -221      461      533     -432 
   -1258     -847      -71      230     1281     2840     2898     1852 
     857     -197     -616     -184     -129     -591    -1048    -1614 
   -1784     -961      105      999     2405     3458     2929     2320 
    2176      870     -596    -1008    -1587    -1965    -1549    -1499 
   -1660    -1784    -2316    -2061     -719       91      498     1112 
     722     -380     -429     -209     -751     -610      344      561 
     587     1205     1286      765      828     1146      649     -251 
    -349      186      133     -383     -303     -160    -1042    -1980 
   -1525     -349      346      818     1024      256     -465       39 
     665      733     1175     1884     1939     1572     1328     1121 
     761      179      -56      268       -2     -658     -533     -804 
   -2008    -2400    -2278    -2436    -1059     1571     2540     1998 
    1609      973       -6     -565     -923    -1379    -1728    -1844 
   -1590    -1358    -1510    -1167      -14      849     1011      900 
     905     1082      849      297      286      581      911     1634 
    1895     1156      460     -172    -1228    -1609     -641      500 
     946     1146     1143      373     -514     -548      -93      573 
    1513     1707      526     -670     -963    -1428    -1903     -741 
    1244     2328     2752     2297      834       29     -143     -882 
   -1270     -945    -1092    -1251     -414      475      625      569 
     -85    -1471    -1779     -808     -295       -2      903     1367 
     676     -230     -299      217      452      834     1672     1760 
    1077      795      703      257     -171     -464     -869    -1148 
   -1150    -1080     -525      598     1162     1128     1370      927 
    -567    -1019     -571    -1192    -1418      109      837      -45 
    -356     -121     -279       37      928     1506     1848     1798 
     916     -157     -799     -962     -598      -49      224      325 
     368      197     -278     -792     -540      541     1443     1981 
    2330     1950      818     -546    -1588    -1912    -1934    -1822 
   -1044       17      642      970     1304     1810     2200     1852 
     877     -170     -918    -1598    -2506    -2463    -1205     -602 
    -384      560      540     -664     -618      638     1412     1713 
    2039     2139     1752     1132      379     -766    -1873    -2296 
   -2187    -1872    -1397     -702       66      567      819      842 
     545      415      461        4     -143      847     1356      625 
     167      292      641     1455     1732      980      724     1289 
    1368      693     -278    -1412    -2084    -1884    -1723    -1802 
   -1494    -1648    -2440    -2272    -1648    -1777    -1294     -318 
    -495     -282      943      851      484     2091     3624     3689 
    4182     4527     2948     1463     1171      202    -1008    -1574 
   -1985    -1320     -124      -22      352      807     -600    -1800 
   -1611    -2277    -3225    -2897    -1938     -468     1000     1374 
    1301     1165      517      164      484      642      912     1845 
    2778     3458     3912     3802     3861     4325     3881     2829 
    2019      233    -2315    -3789    -4795    -5917    -5751    -4440 
   -2803       10     3667     6050     6447     5370     3103      383 
   -2200    -4658    -6268    -6457    -5834    -4500    -2173      -71 
     711     1208     2292     3017     2504     1237      315      182 
     789     2374     4186     4687     3890     2451      483    -1198 
   -1783    -1966    -2548    -2933    -2876    -3298    -3666    -3169 
   -3192    -3924    -3441    -1354     1869     5903     9055    10137 
    9733     7920     4716     1270    -2049    -5185    -7032    -7705 
   -8143    -7607    -5485    -2376     1518     5211     6660     6007 
    4828     3430     2405     2596     3261     3732     4194     4704 
    5332     5911     5908     5109     3476     1127    -1300    -3543 
   -5529    -6702    -7695    -9366   -10507   -10403    -9752    -7973 
   -4639     -872     3022     6623     8681     9666     9477     6967 
    4375     3134      544    -3188    -5490    -6901    -7426    -5915 
   -4224    -4018    -4122    -4052    -4576    -5649    -6636    -6872 
   -5653    -2569     2072     7103    11080    13151    13317    11932 
    9263     5915     3049     1613     1174     -449    -4760   -10454 
  -15770   -19634   -19984   -15696    -8442     -298     6728    10164 
    9722     7689     5593     3330     1244      834     3592     9154 
   14580    17610    18774    17660    12529     5167     -675    -3775 
   -4229    -3001    -2609    -4337    -7911   -13068   -18013   -20518 
  -20567   -17482    -9802     -653     5482     9009    10670     9984 
    9767    11016    10675     9051     7562     4394      -14    -3793 
   -8187   -12460   -13784   -14026   -14991   -13842   -10338    -6482 
    -310     8598    15265    17257    16676    14260     9733     4330 
    -483    -3028    -2465    -1116     -980     -976    -1089    -2789 
   -5204    -7132    -9277   -10820    -9593    -6469    -3632     -305 
    4604     9096    11099    11137    10014     8005     6686     7246 
    8442     9294    10254    10345     7384     1267    -6031   -12121 
  -15114   -15508   -14713   -11533    -5493      139     2848     2722 
     -59    -4718    -9397   -12623   -13049    -9703    -2994     5756 
   13597    17254    17963    19219    20106    18566    15939    11892 
    4037    -5414   -11923   -14607   -14706   -13462   -12449   -11661 
   -9369    -6389    -5772    -7285    -8907   -10264    -8861    -2106 
    6470    12260    14682    13745    10215     7349     6836     6933 
    4911     -819    -7794   -11037    -9856    -7508    -4959    -1494 
    1491     3238     5490     8036     8457     6656     4136      754 
   -3483    -6679    -7888    -7869    -6728    -3678     1273     6085 
    8505     8827     7823     4845     1390      460     1316     1938 
    2965     3985     3237     1422    -1155    -6018   -11623   -14675 
  -14719   -11873    -5783     1421     7071    10795    12360    11205 
    8442     5595     2961      673     -885    -2015    -3213    -3736 
   -2605     -787      326      784      116    -2019    -3827    -3954 
   -2006     2438     6840     7573     5158     1520    -3002    -6960 
   -8753    -9173    -8838    -7186    -4927    -3141    -1305     1391 
    4249     5591     5576     6345     7973     8108     5799     1977 
   -1995    -4036    -2945     -864     -646    -2057    -3580    -5101 
   -6224    -5867    -4752    -3856    -1850     1979     5825     7906 
    7820     6210     4610     4428     5497     6690     7492     7330 
    5086      626    -4252    -6953    -6696    -4731    -1713     1800 
    3123      494    -3388    -5177    -4218     -958     2670     4141 
    3727     2673      780    -1806    -4390    -6080    -5319    -2355 
     490     2376     3445     3319     2714     2689     3199     4303 
    5857     6605     5459     2369    -1567    -4533    -6010    -6717 
   -5969    -2867      276      249    -2664    -6083    -8419    -8819 
   -7371    -5077    -3134    -2916    -4513    -5530    -3360     1557 
    6079     8584     9856     9377     6389     3296     2115     1960 
    3040     6211     9613    10962     9396     5059      652    -1078 
   -1611    -2718    -3339    -3823    -5101    -5420    -4224    -3419 
   -3279    -2636    -1248      688     3256     5830     6465     4322 
    1228    -1277    -3080    -3707    -3464    -3551    -3154     -920 
    2025     4144     4743     3181      572    -1516    -3615    -5547 
   -6231    -6097    -4612    -1236      946       10    -1806    -3176 
   -4172    -3896    -2286     -113     2717     5321     5570     3700 
    1846      378     -576      317     1848     1449      361      499 
     195    -1333    -2397    -3186    -4252    -3681     -896     1772 
    2531      919    -2301    -4311    -3082      157     3295     5061 
    4648     2409     -213    -2099    -2586    -1341      816     2234 
    2191     1213     -133    -1219    -1634    -2268    -3240    -2848 
    -689     2382     5564     6565     3765    -1030    -4982    -6087 
   -3900     -311     3013     5763     6866     5823     3913     1517 
    -832     -823     1173     1486     -702    -2894    -3967    -4229 
   -3539    -2149     -573     1366     3632     5350     5526     3982 
    2020     1070      913      885      976     1198     1417     1314 
     864       28    -1794    -3639    -3650    -2532    -1613     -449 
     612      240    -1231    -2713    -3796    -3738    -1555     2667 
    6916     8434     6898     4160     1259    -1534    -3900    -5445 
   -5247    -3348    -1277      392     1549     1559     1331     1865 
    1687      194    -1028    -1979    -3083    -2868    -1578    -1021 
    -591      292      168     -936    -1764    -2536    -3115    -2459 
   -1086      460     2799     4955     5368     4692     3545     1514 
    -190      -49     1152     1799      830    -1655    -3736    -3777 
   -1784     1661     5036     6635     6636     5347     2292    -1057 
   -2721    -3335    -3546    -2539     -850       -4     -533    -2007 
   -2745    -1398     1086     3609     5742     6097     4163     1533 
    -568    -1931    -2176    -1397     -749     -953    -1507    -1741 
   -1459     -978    -1026    -1821    -2197     -930      981     1587 
     618    -1264    -3285    -4101    -2891       58     3724     6053 
    5953     4780     2971     -280    -3820    -6037    -6551    -5090 
   -1753     2523     5933     7113     6794     5350     1782    -2916 
   -6547    -8224    -7040    -3083      777     2219     1503     -600 
   -3154    -4656    -4418    -2673      -67     2096     3260     4186 
    4548     3449     2087     1486      903      738     1699     2635 
    3106     3940     4378     3057      371    -2772    -5541    -6770 
   -6534    -5734    -4255    -2389    -1433    -1491    -1661    -1418 
    -351     1513     3659     5732     7026     7002     6203     5146 
    4072     3524     3196     2274     1188      692      746      826 
      33    -1826    -3816    -5026    -4873    -3352    -1255      132 
    -407    -2583    -4822    -6008    -5472    -3064       55     2274 
    2876     2259     1224      508      625      935      321     -718 
   -1255    -1544    -1398     -440      546     1375     2556     3164 
    2111     -178    -2710    -4405    -4519    -3200     -932     1088 
