Origin Time       2024/04/02 04:24:00
Lat.              40.133
Long.             141.712
Depth. (km)       71
Mag.              6.0
Station Code      AOM017
Station Lat.      40.6388
Station Long.     139.9295
Station Height(m) 24
Record Time       2024/04/02 04:25:03
Sampling Freq(Hz) 100Hz
Duration Time(s)  70
Dir.              N-S
Scale Factor      7845(gal)/8223790
Max. Acc. (gal)   1.910
Last Correction   2024/04/02 04:25:03
Memo.             
[...]
  -15780   -15772   -15774   -15784   -15777   -15773   -15784   -15781 
  -15772   -15777   -15780   -15773   -15774   -15780   -15776   -15774 
  -15780   -15778   -15773   -15776   -15776   -15773   -15777   -15776 
  -15776   -15778   -15774   -15774   -15778   -15778   -15777   -15774 
  -15770   -15773   -15782   -15780   -15773   -15780   -15784   -15774 
  -15773   -15778   -15777   -15776   -15776   -15776   -15776   -15777 
  -15780   -15780   -15773   -15769   -15778   -15781   -15776   -15777 
  -15778   -15774   -15778   -15782   -15773   -15774   -15782   -15777 
  -15773   -15781   -15778   -15772   -15773   -15778   -15778   -15777 
  -15780   -15776   -15772   -15777   -15777   -15776   -15777   -15777 
  -15776   -15778   -15778   -15773   -15773   -15777   -15776   -15774 
  -15778   -15778   -15780   -15778   -15778   -15780   -15776   -15774 
  -15780   -15778   -15774   -15777   -15777   -15772   -15777   -15782 
  -15776   -15774   -15778   -15776   -15777   -15776   -15774   -15778 
  -15776   -15773   -15780   -15778   -15776   -15780   -15778   -15774 
  -15777   -15778   -15776   -15777   -15782   -15777   -15773   -15780 
  -15777   -15773   -15780   -15778   -15774   -15777   -15776   -15777 
  -15778   -15776   -15774   -15774   -15776   -15778   -15778   -15770 
  -15773   -15781   -15777   -15776   -15778   -15773   -15773   -15774 
  -15772   -15776   -15778   -15777   -15776   -15776   -15777   -15776 
  -15774   -15773   -15774   -15776   -15773   -15773   -15777   -15776 
  -15773   -15773   -15777   -15778   -15780   -15780   -15777   -15777 
  -15777   -15774   -15776   -15780   -15776   -15776   -15778   -15774 
  -15772   -15776   -15777   -15773   -15774   -15781   -15777   -15774 
  -15778   -15777   -15770   -15774   -15781   -15776   -15774   -15780 
  -15778   -15780   -15778   -15772   -15776   -15781   -15774   -15777 
  -15780   -15773   -15776   -15782   -15778   -15776   -15778   -15778 
  -15776   -15773   -15776   -15780   -15777   -15774   -15780   -15780 
  -15778   -15781   -15776   -15777   -15782   -15776   -15774   -15780 
  -15777   -15774   -15774   -15778   -15778   -15776   -15778   -15778 
  -15774   -15778   -15778   -15773   -15776   -15780   -15776   -15776 
  -15777   -15778   -15776   -15778   -15782   -15773   -15769   -15778 
  -15776   -15770   -15778   -15778   -15774   -15776   -15777   -15777 
  -15777   -15778   -15780   -15773   -15774   -15780   -15777   -15776 
  -15776   -15777   -15780   -15773   -15772   -15780   -15780   -15776 
  -15780   -15780   -15778   -15780   -15778   -15778   -15780   -15778 
  -15778   -15777   -15776   -15778   -15774   -15777   -15781   -15777 
  -15778   -15778   -15774   -15778   -15780   -15776   -15774   -15777 
  -15781   -15780   -15778   -15777   -15772   -15774   -15781   -15777 
  -15774   -15778   -15777   -15772   -15772   -15777   -15777   -15772 
  -15773   -15777   -15772   -15773   -15780   -15774   -15774   -15776 
  -15772   -15780   -15780   -15770   -15777   -15777   -15770   -15778 
  -15780   -15770   -15777   -15781   -15772   -15774   -15781   -15773 
  -15773   -15776   -15772   -15776   -15777   -15773   -15776   -15777 
  -15776   -15776   -15776   -15774   -15770   -15774   -15782   -15776 
  -15772   -15780   -15777   -15778   -15784   -15774   -15772   -15781 
  -15777   -15774   -15784   -15780   -15773   -15776   -15776   -15776 
  -15776   -15774   -15776   -15780   -15780   -15778   -15776   -15774 
  -15777   -15776   -15774   -15780   -15780   -15777   -15776   -15776 
  -15778   -15780   -15778   -15777   -15774   -15776   -15782   -15778 
  -15773   -15780   -15777   -15773   -15778   -15778   -15774   -15781 
  -15785   -15776   -15773   -15778   -15774   -15776   -15782   -15777 
  -15774   -15780   -15777   -15774   -15776   -15777   -15774   -15774 
  -15777   -15777   -15776   -15778   -15781   -15778   -15778   -15780 
  -15777   -15778   -15778   -15777   -15777   -15777   -15777   -15780 
  -15778   -15778   -15781   -15778   -15772   -15780   -15784   -15774 
  -15776   -15781   -15774   -15777   -15784   -15778   -15776   -15778 
  -15778   -15780   -15777   -15773   -15777   -15782   -15780   -15776 
  -15778   -15780   -15774   -15774   -15778   -15778   -15780   -15777 
  -15776   -15780   -15777   -15773   -15777   -15778   -15777   -15780 
  -15777   -15773   -15776   -15774   -15776   -15780   -15773   -15772 
  -15776   -15774   -15777   -15780   -15777   -15776   -15774   -15774 
  -15778   -15777   -15773   -15776   -15782   -15778   -15773   -15778 
  -15780   -15774   -15777   -15778   -15776   -15777   -15774   -15773 
  -15778   -15778   -15776   -15778   -15777   -15774   -15778   -15778 
  -15772   -15774   -15777   -15777   -15774   -15774   -15780   -15778 
  -15773   -15774   -15774   -15773   -15780   -15780   -15772   -15776 
  -15781   -15777   -15776   -15778   -15778   -15774   -15774   -15777 
  -15776   -15774   -15780   -15778   -15774   -15777   -15778   -15776 
  -15777   -15778   -15778   -15776   -15777   -15781   -15780   -15778 
  -15780   -15776   -15776   -15780   -15777   -15777   -15778   -15778 
  -15780   -15777   -15778   -15782   -15777   -15773   -15780   -15780 
  -15777   -15781   -15781   -15776   -15778   -15778   -15774   -15780 
  -15780   -15776   -15777   -15778   -15780   -15776   -15772   -15780 
  -15780   -15772   -15778   -15782   -15774   -15774   -15778   -15776 
  -15777   -15780   -15776   -15774   -15778   -15780   -15777   -15781 
  -15778   -15773   -15778   -15781   -15774   -15776   -15777   -15774 
  -15777   -15781   -15777   -15774   -15774   -15778   -15782   -15781 
  -15774   -15773   -15780   -15780   -15773   -15774   -15777   -15778 
  -15777   -15777   -15774   -15774   -15778   -15778   -15776   -15778 
  -15776   -15773   -15774   -15776   -15777   -15778   -15780   -15780 
  -15776   -15773   -15778   -15778   -15776   -15777   -15778   -15773 
  -15777   -15786   -15778   -15772   -15777   -15778   -15774   -15774 
  -15773   -15777   -15781   -15776   -15773   -15780   -15778   -15774 
  -15780   -15781   -15773   -15772   -15777   -15780   -15777   -15776 
  -15777   -15774   -15773   -15780   -15780   -15772   -15776   -15778 
  -15772   -15774   -15778   -15774   -15773   -15780   -15778   -15774 
  -15776   -15776   -15777   -15780   -15777   -15774   -15776   -15781 
  -15774   -15769   -15784   -15785   -15769   -15776   -15785   -15772 
  -15772   -15782   -15777   -15776   -15780   -15778   -15778   -15778 
  -15773   -15778   -15782   -15773   -15774   -15778   -15776   -15776 
  -15777   -15777   -15776   -15778   -15777   -15773   -15777   -15776 
  -15773   -15778   -15778   -15773   -15777   -15777   -15772   -15774 
  -15777   -15777   -15777   -15776   -15777   -15777   -15777   -15780 
  -15780   -15777   -15772   -15774   -15780   -15774   -15774   -15780 
  -15776   -15770   -15776   -15777   -15773   -15778   -15780   -15770 
  -15773   -15780   -15774   -15776   -15782   -15780   -15773   -15773 
  -15777   -15774   -15773   -15778   -15776   -15773   -15778   -15778 
  -15776   -15777   -15777   -15774   -15774   -15776   -15778   -15778 
  -15776   -15776   -15777   -15774   -15774   -15780   -15778   -15774 
  -15777   -15780   -15774   -15773   -15777   -15778   -15776   -15778 
  -15778   -15772   -15776   -15782   -15773   -15773   -15781   -15778 
  -15774   -15778   -15781   -15778   -15776   -15777   -15776   -15777 
  -15778   -15777   -15776   -15777   -15774   -15776   -15781   -15781 
  -15778   -15778   -15780   -15778   -15774   -15774   -15774   -15774 
  -15778   -15782   -15778   -15776   -15777   -15776   -15777   -15780 
  -15778   -15774   -15777   -15780   -15774   -15774   -15780   -15780 
  -15777   -15778   -15781   -15778   -15774   -15778   -15780   -15778 
  -15778   -15777   -15774   -15781   -15780   -15773   -15777   -15780 
  -15776   -15777   -15780   -15778   -15776   -15776   -15780   -15778 
  -15774   -15778   -15781   -15774   -15778   -15782   -15776   -15774 
  -15780   -15781   -15776   -15774   -15780   -15776   -15774   -15781 
  -15778   -15774   -15780   -15780   -15773   -15776   -15780   -15778 
  -15778   -15780   -15774   -15773   -15777   -15778   -15778   -15777 
  -15776   -15777   -15778   -15776   -15777   -15781   -15777   -15773 
  -15778   -15778   -15777   -15778   -15777   -15774   -15777   -15780 
  -15778   -15774   -15776   -15777   -15774   -15777   -15781   -15774 
  -15772   -15780   -15782   -15776   -15773   -15778   -15778   -15773 
  -15780   -15782   -15773   -15774   -15781   -15777   -15776   -15778 
  -15776   -15776   -15778   -15777   -15774   -15778   -15781   -15776 
  -15776   -15781   -15776   -15773   -15780   -15774   -15772   -15777 
  -15778   -15777   -15777   -15777   -15777   -15777   -15777   -15777 
  -15778   -15777   -15778   -15780   -15777   -15774   -15781   -15780 
  -15769   -15773   -15780   -15776   -15776   -15781   -15776   -15772 
  -15778   -15780   -15776   -15776   -15776   -15777   -15777   -15777 
  -15777   -15773   -15773   -15777   -15778   -15778   -15774   -15772 
  -15774   -15778   -15774   -15773   -15778   -15780   -15776   -15777 
  -15778   -15776   -15776   -15774   -15776   -15777   -15776   -15780 
  -15780   -15773   -15774   -15780   -15777   -15776   -15778   -15778 
  -15776   -15773   -15776   -15777   -15774   -15778   -15780   -15772 
  -15774   -15781   -15776   -15774   -15777   -15773   -15776   -15778 
  -15776   -15778   -15781   -15777   -15776   -15778   -15777   -15777 
  -15777   -15774   -15774   -15782   -15781   -15772   -15772   -15778 
  -15774   -15772   -15778   -15780   -15776   -15777   -15776   -15770 
  -15776   -15780   -15777   -15777   -15778   -15777   -15773   -15776 
  -15778   -15773   -15774   -15778   -15777   -15776   -15776   -15777 
  -15778   -15773   -15773   -15780   -15778   -15776   -15778   -15780 
  -15780   -15780   -15774   -15773   -15780   -15778   -15774   -15776 
  -15777   -15777   -15778   -15778   -15774   -15776   -15781   -15778 
  -15776   -15780   -15780   -15777   -15777   -15778   -15781   -15780 
  -15777   -15777   -15778   -15778   -15777   -15777   -15776   -15773 
  -15778   -15782   -15774   -15776   -15780   -15778   -15780   -15782 
  -15778   -15777   -15777   -15774   -15774   -15780   -15781   -15777 
  -15778   -15780   -15780   -15781   -15777   -15773   -15780   -15785 
  -15778   -15769   -15773   -15777   -15780   -15782   -15776   -15770 
  -15777   -15778   -15778   -15784   -15777   -15766   -15777   -15782 
  -15774   -15777   -15778   -15772   -15777   -15781   -15773   -15774 
  -15778   -15776   -15781   -15784   -15770   -15773   -15782   -15777 
  -15780   -15781   -15773   -15773   -15778   -15780   -15776   -15776 
  -15777   -15772   -15774   -15780   -15774   -15773   -15778   -15774 
  -15780   -15784   -15776   -15776   -15777   -15774   -15781   -15781 
  -15770   -15777   -15781   -15773   -15777   -15778   -15772   -15774 
  -15777   -15776   -15776   -15774   -15777   -15776   -15774   -15781 
  -15777   -15772   -15781   -15780   -15770   -15776   -15780   -15772 
  -15774   -15780   -15777   -15776   -15774   -15774   -15780   -15777 
  -15773   -15774   -15776   -15781   -15778   -15774   -15777   -15780 
  -15778   -15778   -15776   -15776   -15780   -15780   -15778   -15778 
  -15777   -15780   -15777   -15774   -15780   -15777   -15772   -15778 
  -15780   -15773   -15780   -15784   -15773   -15774   -15781   -15776 
  -15776   -15784   -15777   -15773   -15782   -15782   -15774   -15773 
  -15774   -15778   -15778   -15773   -15773   -15772   -15773   -15778 
  -15774   -15774   -15781   -15784   -15781   -15772   -15755   -15747 
  -15750   -15751   -15747   -15753   -15766   -15768   -15757   -15749 
  -15743   -15742   -15751   -15770   -15785   -15799   -15811   -15811 
  -15795   -15765   -15730   -15695   -15670   -15670   -15692   -15726 
  -15765   -15797   -15815   -15824   -15820   -15811   -15823   -15862 
  -15908   -15932   -15901   -15816   -15718   -15654   -15646   -15670 
  -15684   -15657   -15599   -15560   -15591   -15691   -15812   -15903 
  -15940   -15923   -15866   -15792   -15718   -15646   -15584   -15552 
  -15564   -15627   -15723   -15797   -15804   -15768   -15739   -15769 
  -15889   -16055   -16173   -16193   -16112   -15954   -15799   -15693 
  -15611   -15526   -15448   -15385   -15373   -15446   -15599   -15784 
  -15938   -16013   -16000   -15946   -15901   -15847   -15769   -15699 
  -15670   -15712   -15808   -15882   -15889   -15839   -15749   -15641 
  -15570   -15566   -15634   -15759   -15894   -15978   -16005   -15998 
  -15982   -15981   -15997   -16025   -16077   -16158   -16252   -16309 
  -16232   -16001   -15724   -15542   -15502   -15519   -15477   -15365 
  -15253   -15207   -15265   -15437   -15688   -15958   -16164   -16218 
  -16066   -15732   -15337   -15039   -15005   -15338   -15952   -16602 
  -17031   -17105   -16873   -16528   -16245   -16085   -15997   -15903 
  -15761   -15596   -15437   -15304   -15234   -15219   -15246   -15292 
  -15340   -15442   -15664   -15957   -16218   -16336   -16260   -16096 
  -16008   -16036   -16087   -16054   -15943   -15803   -15612   -15373 
  -15186   -15152   -15286   -15485   -15633   -15716   -15754   -15680 
  -15418   -15020   -14650   -14501   -14715   -15294   -16101   -16850 
  -17236   -17163   -16830   -16536   -16426   -16437   -16471   -16447 
  -16272   -15903   -15360   -14737   -14184   -13832   -13774   -14037 
  -14542   -15151   -15738   -16217   -16567   -16783   -16841   -16731 
  -16528   -16406   -16499   -16753   -16991   -17032   -16771   -16232 
  -15580   -15002   -14594   -14403   -14461   -14742   -15128   -15445 
  -15545   -15408   -15182   -15094   -15294   -15766   -16375   -16923 
  -17215   -17139   -16717   -16090   -15438   -14862   -14432   -14258 
  -14409   -14855   -15415   -15846   -16039   -16086   -16110   -16163 
  -16264   -16437   -16691   -16908   -16897   -16646   -16328   -16075 
  -15898   -15736   -15562   -15417   -15334   -15352   -15485   -15709 
  -16015   -16324   -16448   -16245   -15772   -15303   -15111   -15207 
  -15383   -15460   -15394   -15223   -15090   -15141   -15376   -15727 
  -16150   -16536   -16775   -16823   -16668   -16368   -16060   -15865 
  -15809   -15849   -15913   -15917   -15762   -15414   -14959   -14563 
  -14386   -14501   -14891   -15476   -16104   -16600   -16806   -16671 
  -16353   -16086   -15975   -15986   -16025   -16016   -15931   -15803 
  -15734   -15772   -15812   -15747   -15611   -15522   -15584   -15770 
  -15932   -15975   -15955   -15947   -15930   -15811   -15537   -15172 
  -14875   -14760   -14820   -14990   -15229   -15512   -15803   -16027 
  -16136   -16114   -15946   -15689   -15480   -15414   -15487   -15595 
  -15603   -15461   -15244   -15052   -14928   -14850   -14814   -14931 
  -15287   -15790   -16227   -16479   -16595   -16681   -16796   -16895 
  -16919   -16906   -16943   -17012   -16981   -16783   -16451   -16066 
  -15743   -15545   -15408   -15259   -15111   -15034   -15057   -15190 
  -15431   -15735   -16020   -16202   -16232   -16141   -16000   -15892 
  -15896   -16016   -16183   -16279   -16166   -15831   -15465   -15294 
  -15403   -15703   -16056   -16383   -16602   -16609   -16391   -16051 
  -15704   -15422   -15228   -15122   -15099   -15140   -15252   -15406 
  -15515   -15569   -15639   -15732   -15800   -15819   -15786   -15720 
  -15651   -15597   -15546   -15492   -15491   -15599   -15774   -15898 
  -15898   -15835   -15817   -15854   -15847   -15745   -15623   -15616 
  -15758   -15917   -15963   -15898   -15827   -15815   -15834   -15843 
  -15854   -15873   -15934   -16071   -16227   -16282   -16151   -15827 
  -15441   -15172   -15130   -15334   -15704   -16085   -16321   -16321 
  -16087   -15751   -15472   -15341   -15394   -15596   -15866   -16151 
  -16391   -16490   -16403   -16182   -15894   -15599   -15357   -15249 
  -15345   -15608   -15870   -15946   -15799   -15562   -15412   -15402 
  -15446   -15461   -15518   -15731   -16055   -16299   -16318   -16109 
  -15774   -15452   -15202   -15010   -14909   -14963   -15151   -15372 
  -15539   -15633   -15687   -15700   -15647   -15587   -15600   -15655 
  -15650   -15581   -15553   -15681   -15982   -16325   -16529   -16565 
  -16511   -16407   -16266   -16136   -16100   -16186   -16308   -16312 
  -16152   -15930   -15738   -15587   -15437   -15280   -15188   -15261 
  -15506   -15795   -15969   -15957   -15805   -15634   -15576   -15657 
  -15743   -15711   -15606   -15562   -15680   -15958   -16317   -16641 
  -16819   -16795   -16567   -16186   -15761   -15387   -15106   -14967 
  -14970   -15021   -15072   -15161   -15299   -15471   -15678   -15913 
  -16150   -16347   -16483   -16591   -16695   -16713   -16530   -16147 
  -15669   -15180   -14732   -14422   -14350   -14520   -14805   -15041 
  -15163   -15223   -15295   -15419   -15603   -15828   -16071   -16299 
  -16472   -16549   -16498   -16329   -16110   -15943   -15913   -16000 
  -16074   -16065   -16005   -15905   -15728   -15468   -15188   -15005 
  -14989   -15105   -15269   -15415   -15552   -15731   -15950   -16140 
  -16229   -16201   -16143   -16150   -16258   -16436   -16530   -16411 
  -16152   -15913   -15766   -15678   -15616   -15595   -15618   -15668 
  -15708   -15719   -15734   -15801   -15884   -15897   -15831   -15747 
  -15653   -15534   -15412   -15318   -15272   -15313   -15442   -15607 
  -15735   -15812   -15869   -15923   -15936   -15874   -15758   -15657 
  -15628   -15657   -15742   -15940   -16190   -16274   -16093   -15774 
  -15538   -15518   -15724   -16083   -16448   -16668   -16731   -16721 
  -16644   -16434   -16042   -15512   -15034   -14851   -15033   -15414 
  -15751   -15940   -16035   -16092   -16128   -16151   -16101   -15916 
  -15692   -15564   -15510   -15415   -15246   -15084   -15075   -15306 
  -15704   -16090   -16341   -16452   -16434   -16290   -16055   -15786 
  -15564   -15480   -15512   -15531   -15448   -15287   -15163   -15192 
  -15422   -15801   -16193   -16420   -16409   -16268   -16125   -15966 
  -15703   -15364   -15138   -15179   -15425   -15684   -15847   -15932 
  -15986   -16043   -16117   -16159   -16089   -15903   -15707   -15619 
  -15687   -15861   -16024   -16062   -15952   -15766   -15600   -15515 
  -15508   -15564   -15634   -15678   -15739   -15850   -15934   -15927 
  -15855   -15751   -15635   -15508   -15371   -15282   -15288   -15364 
  -15465   -15562   -15639   -15723   -15820   -15884   -15892   -15896 
  -15947   -16031   -16054   -15939   -15743   -15588   -15519   -15519 
  -15568   -15628   -15692   -15812   -15990   -16098   -16048   -15901 
  -15776   -15761   -15882   -16069   -16224   -16318   -16364   -16380 
  -16398   -16402   -16316   -16143   -15984   -15854   -15669   -15404 
  -15148   -15006   -15036   -15233   -15507   -15718   -15800   -15799 
  -15776   -15741   -15677   -15608   -15557   -15498   -15392   -15261 
  -15194   -15240   -15342   -15439   -15553   -15711   -15866   -15932 
  -15900   -15844   -15866   -15997   -16152   -16189   -16062   -15900 
  -15853   -15893   -15896   -15831   -15820   -15973   -16201   -16290 
  -16154   -15912   -15735   -15701   -15777   -15861   -15903   -15939 
