Origin Time       2024/04/02 04:24:00
Lat.              40.133
Long.             141.712
Depth. (km)       71
Mag.              6.0
Station Code      AOM008
Station Lat.      41.0844
Station Long.     141.2554
Station Height(m) 16
Record Time       2024/04/02 04:24:56
Sampling Freq(Hz) 100Hz
Duration Time(s)  117
Dir.              N-S
Scale Factor      7845(gal)/8223790
Max. Acc. (gal)   87.250
Last Correction   2024/04/02 04:24:56
Memo.             
[...]
    -167      859     2143     2538     2003     1586     2419     3210 
    3302     4626     6201     5035     2196       60     -778      603 
    3388     4442     3125     1267      463     1593     3454     3960 
    3696     4137     4961     5717     5401     2821      643     1590 
    3431     4025     3438     1553     -135      735     3015     3576 
    2686     2077     1102      473     2258     5296     7032     5147 
    -383    -3265      899     6670     7816     4943     1850     1035 
    1742     1472      679     1121     1074        2      394     2355 
    4479     5749     5972     5111     1637    -1799      287     4843 
    6112     6797     8860     7487     1771    -3447    -5327    -3437 
     491     2400     1929     2855     5760     6419     3005      633 
    2825     5865     7298     8051     7341     4645      820    -2388 
   -1988      753     1173      303     2177     5161     5167     2759 
    1073     1779     3774     3886     2573     1976      103    -2405 
   -1007     4093     8546     9000     5606     2979     3372     2085 
   -1466    -1721      241      661      834      835       85       45 
     637     3114     7894     8425     3866     3075     6247     6957 
    5320     3213     1008     -413    -1672    -3418    -2943     2239 
    7705     6589      926     -553     5078    10944     9499     2421 
   -2015     1205     6743     4275    -4344    -7219    -2924     1274 
    3865     5879     6251     5491     3792     1093      760     3608 
    5255     4806     4843     5163     5009     3738     -650    -6558 
   -8476    -4587     2346     9694    14004    12630     7677     2007 
   -1799    -1360      845      908     -510     -442     1640     2673 
     243    -2145     1476     9398    12833     8521     2612     1100 
    3310     4619     1035    -5540    -7900    -3134     5090    10046 
    6651      297      144     4310     6361     7222     9178     9231 
    5510      481    -2141     1019     7566     9861     5525    -2462 
   -8976    -6898     2073     7252     4945      630     -244     2758 
    6743     9074     7581     2452    -2269    -2899     -378     1688 
    1791       78    -2126     -951     4700     9193     8260     6355 
    7947     8318     3373    -1173      199     4684     6280      727 
   -8549    -9933     -541     8596    10068     7102     5756     6162 
    2760    -2467     -491     7047     8753     1489    -5927    -4860 
    3993    10754     7709     1831     3524     9560    12214     9813 
    3075    -4220    -6327    -2663     3164     7686     7564     2933 
   -1171    -2016     -934      568     1155     1345     2709     4202 
    4132     2392      637     1097     2305      668    -2162    -1057 
    2843     3859     1911      662     1710     6138    11547    10636 
    2974    -2427     -449     5617     9541     7676     2995      440 
     349     2119     6531    10409     8658     2289    -2979    -3292 
     619     4168     4044     1410    -1233    -2717    -4017    -5096 
   -2671     3133     8025     9741     7798     3647      742      237 
    1356     3218     4256     4087     2774      221     -220     3357 
    6666     6870     4812     1814      943     3033     3107    -1043 
   -3203      688     5591     6974     6594     7614     9410     6710 
   -1956    -8391    -6058     1142     6054     4823     -842    -4689 
   -3547      561     4094     5080     6426     9756    10237     6193 
    2596     2565     4237     4976     4499     2521    -1733    -4909 
   -2826     2018     4828     4936     4823     6968     9227     7792 
    4503     2598     1302    -1097    -4216    -5729    -2527     5035 
   10146     8630     5111     3254     1485     -375     -618      -12 
    -459    -1707    -2008      842     6208     8415     4288    -1655 
   -2990     1591     7260     8980     7222     5571     5366     6170 
    7647     8338     7177     5566     5584     6462     3975    -2847 
   -7924    -6450    -1848      438     1277     4078     6601     4299 
   -1711    -5995    -4625      355     3079     3091     3834     4973 
    5829     7311     7705     5224     2810     3379     3825     1645 
     249     1478     3148     3881     3198     2759     5313     7632 
    4741    -1048    -3840      218     8985    12881     7291     -778 
   -5263    -6096    -3843     -739      379      712     2231     3873 
    4062     2917     1830     1914     3009     4548     5767     5988 
    6327     7736     8095     5348     1005    -1491     -152     3570 
    6192     6002     4650     4403     4927     4789     4324     4062 
    2812      322    -1028     -504     -922    -3491    -4874    -2384 
    1109     1541    -1147    -4077    -3713      780     5871     7938 
    6787     4716     4807     7573     9471     8171     5077     2774 
    3258     4765     4029     2841     3761     5116     5327     3485 
    -637    -3646    -2951      283     3646     3855      789     -913 
     827     3751     5703     5256     2452      554     1952     4336 
    4843     3456     1606     1115     2131     3002     3593     4086 
    2523    -1340    -2856     2002     9190    10891     6312      834 
   -1937    -1575       87      599      760     2617     5202     6419 
    5371     2043    -2242    -4422    -2188     3801    10660    13976 
   11067     5224     1449      248      180     1069     1178     -939 
   -1409     1776     3454     2084     2361     4691     5053     2770 
     496      861     4375     6667     4240     1323     1930     4283 
    5722     4610     1528     -508     -410      284      579      847 
    1591     2089     1093    -1391    -4199    -4861     -916     5283 
    8266     7138     5791     6945     8946     8773     7303     7476 
    9316     9821     6087     -646    -5524    -5618    -1914     2130 
    2805      700      286     2787     5583     7222     7190     5333 
    3665     3138     2224     1054     -368    -3061    -4575    -2650 
    1032     4216     4873     2554     -363    -1088     1841     6065 
    7669     7415     6598     3376     -179      461     3700     5508 
    5113     2614     -722    -2629    -3221    -2654     -128     3819 
    9261    14443    14359     9202     3792      -16    -2108    -3079 
   -3847    -3358    -1545      -21     1097     2581     4564     5853 
    4874     2247      353      976     4305     8540    10349     8546 
    6390     6512     7068     5640     2216    -1144     -610     4611 
    8703     7045     2058    -2779    -6403    -7470    -5845    -3736 
   -1605     1891     5286     5744     4233     3959     5557     6486 
    4714     1971     1547     3835     4985     2065    -1424    -1425 
     803     3033     4279     4189     4322     5834     6628     4996 
    3325     3572     3549     2224     1934     3098     3642     2724 
      27    -4806    -8340    -5498     2026     7392     7657     5066 
    3102     3136     4117     5686     7017     5458     1610     -737 
    -328     2072     4997     5267     2060     -814     -128     3545 
    8063    10755     9393     6361     5871     6261     4363     1676 
     -83    -1179    -1944    -1829      969     5220     6582     5279 
    4491     3557     1146     -757     -341     1019      777    -1082 
   -2027     -683     1856     3188     2049     1123     2902     5084 
    5090     3414     1561      607      703     1111      739      -95 
     658     3404     6521     9086    10341     9247     5892     1078 
   -3701    -5957    -4082     1615     7699     9069     5803     2000 
    -228      182     2425     3599     4010     5402     6365     5479 
    2863     -541    -1977    -1210    -1175    -1200      900     4035 
    6308     5780     1813    -1767    -1219     2722     7511     9958 
    8349     5556     4716     4723     3331      761    -1287     -951 
    2043     3559      421    -2880     -421     6543    11295     9258 
    2349    -2883    -2349      635     2443     4461     6389     5876 
    3276      437       41     3154     6029     4579      -24    -2562 
    -207     4475     7897     7666     3275     -770      126     3180 
    3643     2255     1101     -662    -2107      205     5115     7641 
    6646     5178     5319     5329     2643     -494     -581      712 
    1452     2087     1644      425       59      265     1445     3287 
    3785     4005     5277     5701     4348     2628     2633     4823 
    5609     2540    -1005    -1200     2405     7152     8008     4224 
    1359     1680     2077     1144      425     2165     5849     6392 
    1799    -2374    -1350     3280     7234     7689     5413     3747 
    3635     3122     2249     2918     4623     4704     2363     -826 
   -3753    -5517    -4224      471     5285     6795     6224     6293 
    6064     4330     2605     2128     2199     1259    -1156    -3497 
   -3728    -1437     1367     2362     2516     4919     8887    10381 
    9104     7699     6413     4810     2597     -569    -2397    -1846 
   -1564     -791     2745     5432     5090     4891     5120     4271 
    2543      298     -274     1721     3157     3411     4796     6308 
    5309     2970     2212     2533     2304     2168     2289     2438 
    3327     3582     1039    -3042    -5624    -5742    -4345    -1838 
    1074     3194     5398     7962     8927     8467     8185     7572 
    5377     3109     3611     5628     6081     4417      460    -4001 
   -4611     -919     3195     4708     3655     2886     4048     5306 
    5617     5036     3048     1223      616     -426    -1077      569 
    2582     3176     3176     2404      537     -838     -805      260 
    2528     5718     7767     7207     5840     6095     7084     6322 
    3505      506    -1012     -791     1123     3967     4882     3002 
    1260      637       -8      -64     1124     3010     4484     3369 
    -774    -3574     -498     6764    12162    11882     7357     2650 
    -198    -1653    -1560      685     3720     4432     1525    -1576 
   -1098     1946     4990     6416     5050     2732     1972     1819 
    1426      938     -704    -2685    -2207      770     3400     3657 
    2176     1683     4070     7040     7425     6164     4876     3191 
    1317     -194     -604     1656     5783     7686     5323     1721 
    1228     4639     7704     5170    -1509    -4788    -1755     3186 
    6083     6072     3620     1109     1459     4072     5499     4780 
    2860       67     -673     2484     4851     3793     3046     3649 
    3380     2359     1243      854     1921     2087      616      259 
    1015     2046     4197     5614     4245     2054     1651     3142 
    4504     4024     2416     1591     2214     3427     4129     3522 
    2096     1433     1795     2585     3500     4004     4588     6204 
    6959     4468      892      282     3370     7026     6686     1088 
   -5086    -5707     -136     6326     8120     4765     1552     2331 
    4785     6664     7840     6813     3686      742    -1404    -1675 
    1405     4095     1701    -1910       24     6405    11128     9687 
    2817    -2417    -1108     3312     5460     3268    -1058    -2068 
    1884     5517     4776     2490     2547     3829     4414     5486 
    6451     4603      315    -4498    -8047    -7241    -1225     5449 
    7666     6297     5143     4062     2608     2921     3653     1782 
    -730      144     4787     9107     8796     4214    -1061    -4761 
   -6081    -3767     1714     6465     7412     5263     1548    -2482 
   -3507      365     5147     6733     6023     4862     4036     4280 
    4180     2247      835     2542     6399     8845     6963     2646 
    1120     3505     4993     2497     -953    -1456      746     2635 
    3202     4388     6156     5290     1382     -643     2150     4984 
    3377      938     1447     3002     3850     3519     1863      405 
    -368      -98     2833     6394     6720     4799     4050     4287 
    3041      461    -1456    -1984    -1443    -1151    -2436    -3414 
    -892     4210     7603     6932     4356     3856     5914     7496 
    7168     5755     3507      973        9      548        2    -2242 
   -3678    -1921     2770     6489     5324      905    -2906    -5512 
   -6494    -4712    -2309    -1574     -247     3102     5352     5441 
    5786     6485     5784     4009     2504     1297     1221     3470 
    5610     4715     1117    -3060    -4388     -862     5086    10206 
   14215    17343    17599    14173    10130     8463     8710     8768 
    6963     2455    -3109    -6658    -8067    -9315   -10652   -10924 
   -9571    -6797    -3615    -1486    -1174    -3755    -7813    -6836 
    1391    10486    14307    11657     7539    10605    22472    36065 
   44686    45204    36607    20206     -274   -20636   -37887   -49169 
  -52111   -47090   -36941   -26056   -18677   -15288   -13672   -11902 
   -8376    -3430     3045    14523    29848    41131    44817    43686 
   38678    31108    28313    34483    42630    41939    27276     2475 
  -23429   -43272   -53658   -54355   -48492   -38245   -23364    -7828 
    2425     5937     2575    -3607    -3527     5918    21972    41322 
   59348    72527    78147    73246    58619    38769    17815    -4472 
  -30873   -56803   -72372   -73218   -57680   -29376    -3208    10201 
   11253     3184    -4804    -3258     5868    17838    33007    51267 
   70576    87442    94154    82537    53428    20726      784    -5864 
  -14206   -33118   -54456   -65915   -63475   -50576   -33702   -19345 
  -13640   -18611   -26488   -27908   -22451   -12920      884    17621 
   32980    43727    47291    40308    23750     7503     3461    13940 
   28926    35262    28695    13539    -4760   -21398   -33876   -40302 
  -35012   -17061     2087     7824    -6351   -30454   -40923   -27734 
   -4298    17374    32248    35217    30578    23680    11529    -2239 
   -9112    -8905    -7580   -10184   -15365   -17599   -13063    -2828 
    6264    11335    19218    32483    39717    30685    11794    -3487 
   -8911    -6270      754     8803    12968    13000    13641    14748 
   14555    14231    12490     5894    -6693   -22368   -35216   -41809 
  -40980   -29934   -12202     2540    13112    24144    33743    36217 
   30662    20632     9209    -2421   -14682   -26107   -31302   -25783 
  -10335     6648    15850    18071    18736    17644    11816     1093 
  -12451   -24741   -28085   -18399    -4564     1313     1313     7044 
   21764    38408    49897    52110    42527    22119    -1667   -16821 
  -18967   -15778   -13809   -12568    -9818    -5069    -3076    -9510 
  -19294   -21259   -12519      764     9028     6484     -904    -3537 
   -2787    -5209    -9661   -10863    -6620     4012    21080    38873 
   48284    45918    34468    20025    10376     6336     2949     -788 
   -3523    -2273     7404    19773    21135    10251    -1360    -6740 
   -7739    -9224   -15037   -23993   -27265   -16401     4098    20501 
   24455    17432     6640     -152    -3088   -10206   -21419   -26428 
  -24769   -25732   -28675   -26744   -19732    -9737     1117    11392 
   23664    35517    37359    27437    14829     7705     8056    12945 
   16403    14405     7476     -414    -3250      156     3784     3434 
     985      340     2315     3897     1914    -4527   -12044   -15383 
  -12919    -6509       86     2074    -2705    -9148    -6872     6214 
   17552    16875     9340     3824      992     -932     -126     2204 
    1309    -1548    -2612    -1840     1098     5393     7538     8021 
   12496    22048    29304    29107    23251    15125     9035     8289 
   10948    12295     9244     2303    -4531    -7406    -6201    -3149 
    -762    -1753    -6507   -12437   -18382   -24219   -26163   -20194 
   -8899     2074    10076    13678    12989    12837    18139    27503 
   33848    28922    11376    -7620   -15905   -14423    -9844    -5911 
   -5922    -6145     2625    16704    22937    17019     3647   -10388 
  -18307   -16367    -6532     3609     6110     1651    -2049    -1008 
    3245     6401     4330     -569    -3936    -4581      858    11488 
   16920    12129     4360     3105    11689    24316    30096    23386 
    8681    -4174    -7793     -657    13670    26064    27037    17355 
    5325    -3892   -10451   -16401   -21891   -24148   -18576    -3137 
   15294    25953    24788    15516     5220    -1270    -3457    -1923 
     406    -1085    -5580    -9443   -11340    -8934     -490    10937 
   18847    18334    12946     9899     8652     4857    -2282   -11238 
  -17660   -17393   -11433    -1733    10143    18561    18628    13815 
   11237    13014    15276    11989     2116    -6945    -9205    -7588 
   -7634   -11581   -16858   -17532   -11794    -5583    -5667    -9896 
   -8484     1857    13405    18083    13968     6280     3844     7300 
    9549     9707    10111     7406     1252    -1216     3982    13323 
   21891    26781    25623    17948     8267     2347       -1    -2428 
   -4760    -5366    -4110     -492     3037     2151     -922      248 
    6505    11952    11499     7184     3927     2351      853     -959 
   -1431     2957    11290    17329    19048    19433    19433    17865 
   13921     7402      388    -3784    -5364    -6868    -8428   -10030 
  -12379   -12669    -8338    -3928    -5277   -11331   -17780   -21085 
  -17977    -8949     1374     8885    10212     4522    -3152    -7523 
   -7711    -3634     4907    15063    22056    24301    23438    20056 
   13633     4167    -6413   -13753   -15982   -15543   -14092   -12457 
  -11634    -9134    -1946     9154    21681    29427    24609    10061 
   -2068    -6022    -6386    -6785    -5992    -4338    -1907     1971 
    3366      800      -40     4058    10405    15817    17049    10125 
   -3596   -15888   -19251   -11499     3619    18173    26138    27234 
   25467    24447    22974    16954     4725   -11306   -24428   -26469 
  -17828    -8259    -3226     -785      774     2974     7477    11472 
    9976     2340    -8739   -19697   -25043   -21328   -11761    -3033 
   -1713   -10629   -22208   -23396   -11668     2930    10809    10843 
    8691     9559    11916    10887     7325     7622    13536    20260 
   24352    25901    25343    23391    21085    17898    14035    11788 
   11049    10044     9127     9219    10951    15456    22086    25952 
   22400    14008     6644     2242      345     -145    -1215    -3769 
   -6265    -5470    -1143     1638     -463    -4932    -8833   -10847 
   -9035    -3099     4731    11184    11483     4282    -4152    -6799 
   -2288     5859    11522    10574     5632     2664     2812     1482 
   -4414   -12511   -18381   -19421   -16376   -11553    -5780     -170 
    1757    -2293    -9551   -14285   -12885    -6134     1405     4558 
    2250    -2092    -4645    -3871     -737     1606      919    -1092 
   -2442    -2528      704     6451    10110    11160    11772    12258 
   12842    11843     7001     1479       52     3271     9243    14748 
   16028    12629     7951     5944     7731    10546    11889    12687 
   14091    14385    10146     1143    -7210    -9470    -5401     1837 
    9486    15026    15099     9351     2404    -1028      205     4558 
