Origin Time       2024/04/02 04:24:00
Lat.              40.133
Long.             141.712
Depth. (km)       71
Mag.              6.0
Station Code      AOM021
Station Lat.      40.6150
Station Long.     141.2083
Station Height(m) 71
Record Time       2024/04/02 04:24:52
Sampling Freq(Hz) 100Hz
Duration Time(s)  158
Dir.              U-D
Scale Factor      7845(gal)/8223790
Max. Acc. (gal)   31.930
Last Correction   2024/04/02 04:24:52
Memo.             
[...]
   18347    18346    18346    18347    18342    18342    18343    18343 
   18346    18349    18346    18343    18342    18342    18345    18349 
   18349    18342    18338    18342    18346    18346    18346    18346 
   18347    18346    18345    18346    18346    18347    18347    18341 
   18341    18349    18351    18347    18345    18342    18343    18353 
   18355    18345    18339    18343    18351    18354    18347    18341 
   18339    18341    18346    18351    18350    18343    18342    18347 
   18349    18346    18342    18339    18337    18346    18355    18350 
   18342    18342    18346    18349    18345    18341    18342    18346 
   18349    18345    18342    18346    18346    18343    18343    18342 
   18345    18350    18346    18339    18341    18347    18353    18349 
   18342    18342    18339    18339    18345    18347    18341    18337 
   18342    18349    18350    18343    18337    18338    18347    18357 
   18354    18345    18335    18331    18338    18349    18350    18347 
   18345    18342    18342    18347    18347    18345    18342    18341 
   18338    18337    18341    18346    18350    18346    18341    18343 
   18349    18345    18339    18342    18349    18350    18343    18342 
   18350    18345    18335    18341    18349    18343    18337    18339 
   18345    18350    18350    18338    18330    18337    18346    18350 
   18350    18350    18341    18328    18331    18339    18347    18360 
   18360    18343    18331    18333    18341    18343    18345    18350 
   18347    18337    18334    18342    18350    18354    18353    18346 
   18339    18337    18337    18338    18341    18349    18358    18350 
   18331    18328    18341    18353    18357    18350    18339    18337 
   18341    18345    18343    18341    18339    18345    18353    18346 
   18337    18342    18347    18347    18351    18351    18343    18339 
   18343    18345    18342    18342    18346    18349    18346    18346 
   18349    18349    18346    18342    18342    18345    18343    18343 
   18349    18350    18339    18335    18343    18347    18349    18345 
   18334    18334    18342    18350    18351    18343    18338    18345 
   18346    18341    18343    18347    18342    18338    18342    18351 
   18357    18347    18338    18342    18346    18342    18345    18350 
   18345    18337    18341    18346    18350    18355    18343    18333 
   18350    18372    18378    18392    18430    18485    18540    18598 
   18666    18731    18790    18860    18929    18981    19021    19067 
   19121    19198    19350    19653    20135    20753    21409    21992 
   22414    22553    22191    21108    19273    16880    14251    11747 
    9760     8694     8766     9875    11755    14274    17450    21417 
   26262    31164    33918    32622    28062    23372    21378    22805 
   26302    29174    28368    22662    14569     8237     5422     5283 
    6789     8905     9613     7464     4519     4930     9261    13824 
   16229    17026    16646    15115    14386    18504    28845    39318 
   41617    35432    26858    19053    12096     8009     9348    15695 
   23589    28931    30461    29783    27202    21725    16595    18057 
   24403    25571    18804    10485     2727    -2860      730    11616 
   18821    19944    19110    17535    18146    24698    33886    38727 
   36259    28397    19689    13860    11300    10413     9902    11020 
   15732    21352    24637    26002    23349    15724     8137     1821 
   -3171    -1910     4276    10746    19130    26723    25832    16785 
    6381      591     1553     7553    16425    23920    24637    20966 
   19411    19552    16636    10245     7916    16191    27286    30118 
   28447    29968    32100    29862    24047    18427    15673    16767 
   20773    22673    17200     8158     5854    14033    25191    27187 
   16852     8010    13536    25169    28286    21109     8402    -1659 
    1501    14918    25674    30834    30508    20927    10037    10470 
   17973    21585    19379    14372    12922    19824    28505    32447 
   35406    35606    24703    11337    13124    23403    22885    15202 
   12766    11387     9995    17744    27168    22644     8980      238 
    1131    10457    23048    31673    34146    34018    34670    32304 
   20795     6936     4479    12329    19035    21192    20416    17913 
   18958    24943    27548    23727    20034    16842     8652     -101 
     400     9362    20676    31239    33509    23271    14355    18364 
   24646    22310    16984    14736    14431    16447    21629    25552 
   23822    20270    21109    24718    27726    29677    24946    11396 
    2176     6251    15198    21342    24394    22441    16264    10795 
    6806     6540    16195    28219    25967    13716     8839    11265 
   13668    18343    23600    24570    25893    29513    29709    26383 
   22472    17512    12698    11967    16803    22391    23525    21836 
   18315    11618     7327     9846    14509    19186    24606    26838 
   25382    23534    19811    14843    13780    16914    21051    21452 
   13930     5641     6156    12766    22825    34761    35681    20930 
    6532     3006     7333    17998    29812    31403    23134    16148 
   12988     9073     7519    14655    25512    29427    24952    17712 
   12556    12066    15207    19884    24808    25816    21367    17124 
   14867    12484    13872    18982    20231    19372    21593    20781 
   14972    13306    17335    20198    19265    15985    14135    16919 
   19874    17355    13392    14301    18667    22054    22742    20711 
   16259    10485     7082     9051    13500    17832    23737    28223 
   25876    21371    22137    23494    17815    10224    10762    19323 
   27945    30431    25979    18349    11932     9517    12291    16996 
   18866    18723    18449    16476    14692    16775    19415    18721 
   17956    19203    19186    17787    18725    20911    19890    16340 
   13522    11275    10296    14335    22539    27432    25436    21875 
   19809    16295    14010    17772    21658    19107    15076    14758 
   15646    15861    17300    20663    23684    23004    18090    13197 
   12361    15638    21186    25118    23101    17131    13552    13992 
   15599    17115    19691    23392    25092    22146    17108    15171 
   18046    21783    22153    20965    20507    18802    17224    19005 
   20771    19361    17284    16008    15849    17486    18441    17084 
   16156    17872    21026    21906    19514    18611    20722    21074 
   18461    15963    15048    16160    18476    19766    20773    23261 
   23512    17429    10602    11348    16726    19161    18796    16572 
   11230     9090    15948    24607    27357    26292    23799    19203 
   15106    14899    16465    16794    18148    21213    20564    15608 
   14303    19371    23392    21868    19808    21803    24349    22185 
   16366    11947    11915    15670    19670    20012    16906    14045 
   13622    15060    17313    20032    22416    22870    21400    19749 
   18347    17116    17571    20186    22874    23220    20449    17354 
   17913    20899    21817    19998    17687    15996    15722    18304 
   22239    22067    16305    11057    10555    12811    16501    22022 
   26565    26372    21578    14770     8915     7303    11514    19341 
   25308    24966    20096    16245    15812    17388    19371    20846 
   21211    21119    21340    20210    16486    13540    14559    16958 
   18631    21494    23452    20559    16972    17933    19946    18453 
   15508    15295    18631    21967    21203    17541    15095    13757 
   12202    12910    16216    18216    18384    18562    17834    17281 
   19782    22613    22785    22482    20625    14246     8136     7780 
   11348    16069    20660    23157    23692    22956    20171    17770 
   18766    20112    18335    15272    13683    14755    18096    20243 
   18713    16985    19352    23580    24989    24059    23018    21111 
   18797    18065    18582    19782    21127    20822    19110    17305 
   15084    13146    13440    16795    22239    26619    26968    23299 
   17586    12827    11556    13119    15129    16675    17903    18900 
   19777    19749    17277    12916     9626     9494    12850    18513 
   22627    22623    20879    18300    14056    13294    18787    23176 
   22743    21550    20295    18341    17998    18740    18411    18430 
   20599    23095    22214    17734    14180    13782    15336    19753 
   25442    25938    20742    16209    15080    15595    16717    18493 
   20187    20567    19346    17347    15506    13910    12762    13810 
   17714    21513    21963    19548    16825    15354    15865    17386 
   17485    16707    16749    16063    14490    14424    15885    18396 
   21859    23982    23765    23210    23985    25569    24868    20299 
   15383    13167    13031    14837    18273    20210    18731    16529 
   16422    16745    15878    16263    18264    18804    18499    19318 
   19998    20699    21926    21277    19307    18692    18173    16553 
   15813    17413    20460    22329    21382    19003    17348    17791 
   20367    22626    22293    20503    19562    19083    16663    12872 
   11878    14875    18173    19008    18549    19527    22206    23168 
   20148    15315    11925    11438    13917    18628    23278    23569 
   18457    13639    13045    14030    14589    15322    17091    21600 
   26967    28181    25510    21532    17073    15715    19041    23113 
   26127    26577    20776    12152     8449    10300    13983    17000 
   18235    19299    21328    21496    18300    14088    11186    11391 
   15252    20105    23550    24923    22343    16684    14274    17231 
   19341    17181    15641    18160    20960    21644    23006    24467 
   21317    13540     6793     6326    11703    16865    18971    21651 
   25096    24416    19584    14945    11577     9828    12843    20050 
   24520    22138    16355    12010    12118    18746    28580    32644 
   27063    17184     9907     9259    15067    22261    26276    25968 
   21415    16227    15785    18295    18624    18841    21820    22736 
   18076    12731    11269    12708    16758    23140    26667    24823 
   21014    15934    10025     8050    11034    15275    19182    22545 
   23866    21286    15361    11584    14875    21049    21995    17771 
   15174    17142    20827    23886    26303    27523    26601    22727 
   15484     8696     8532    15102    22975    27565    26963    22221 
   16829    14509    16703    20834    23365    23141    19919    15840 
   15261    17069    16490    14238    12889    12457    15321    22307 
   26696    24318    20194    18882    19014    17906    15097    12461 
   12090    14031    17176    21420    25795    26096    21120    17014 
   17521    19174    19994    20823    20308    17577    14230    12120 
   13000    16802    20920    23047    22253    20085    19334    19230 
   17934    17153    18395    20190    20525    18459    14474     9949 
    6646     7325    13767    22481    26767    24930    21282    18860 
   17847    18307    18519    16814    16109    18169    19063    17332 
   15982    15483    15545    17933    21053    20710    17776    16083 
   14993    12297    10031    11311    15176    17624    17024    16221 
   17286    19014    21508    25236    27144    25832    23832    21346 
   18478    19793    25321    26700    20698    14270    12271    12688 
   13944    17220    22612    26400    24063    17656    14068    15604 
   19221    20857    17945    12970    11623    15360    21162    27013 
   30951    28514    19862    13829    16141    21636    22464    16907 
   12009    16259    24965    25822    19280    14546    13490    14061 
   17427    23283    27206    25596    19099    11530     7530     9566 
   15561    20236    19758    15718    12502    11519    11715    11989 
   11873    13707    19165    23230    20834    15495    12781    13212 
   15823    19273    20800    20198    19178    17123    14692    16251 
   22902    29774    31845    26730    16070     7723     7888    12083 
   13325    12802    14335    16787    17806    17100    14634    12726 
   14594    16897    15299    14104    16744    19086    20956    25543 
   29562    30557    31703    33489    33038    28736    23269    23591 
   31330    38518    37137    26766    14847     8444     5668     3778 
    5698     9765    10197     9431    13841    21979    27116    25181 
   16297     5065       68     6041    17766    26461    27568    21543 
   13995    12734    18349    22302    19016    13578    12916    15969 
   18504    20514    21922    20039    15491    10862     6490     4838 
    9184    15267    16224    14847    18347    24304    25980    24933 
   24536    22094    17578    15912    14964     7470    -2646    -2905 
    8453    22040    31460    34084    29895    26806    30051    32063 
   28526    25142    21999    14771     6048     1598     5895    18663 
   30454    33443    31704    31001    31295    32179    31045    22007 
    8340     1549     3933     9045    13807    18586    23966    29581 
   33162    32216    24903    13375     5551     5096     7148     9436 
   14193    17752    13765     6357     4565     7812    11765    17205 
   22243    22596    20542    19554    18777    16846    12729     8673 
   11186    20644    30288    37052    39712    35603    29154    26287 
   22435    16613    20463    35695    47129    45019    30801     8541 
  -11295   -15128    -1641    18036    31108    29810    17406     5482 
     469     -610     -789     1381     5838    10187    13625    14769 
   14073    17508    26381    33075    33899    32229    30539    31746 
   38476    45223    43781    33620    19766     9914    12243    24116 
   30731    25343    17747    14921    11113     3674     -607     -930 
   -4429    -9073    -5825     3761    11477    15808    18588    18956 
   17146    16831    21663    31440    38237    32890    21481    16821 
   16379    14048    15399    22924    30851    35554    34080    26401 
   22149    27272    32479    26987    13535     3835     2737     4402 
    4392     3312     1259    -1528    -3410    -1030     9765    26457 
   39661    42103    31224    12256     -298     3499    19376    35947 
   42059    33801    21864    21130    31191    39425    38325    29114 
   16641     6282     2034     5931    15053    20588    17536    12444 
   13232    16267    15350    15414    20412    22191    17667    15330 
   18414    22769    26204    28161    28264    27329    25883    24394 
   24479    25475    22203    11601    -1213    -9517   -12325    -9603 
   -1067     6647     7101     5906    10399    18139    25600    32852 
   36212    31387    22694    16954    14434    15137    21586    28753 
   28112    23153    23431    29297    35857    40134    37739    25883 
   10702      959    -1405     1813     8822    14652    14229    11037 
   12880    19678    25030    25724    24138    25347    30416    33633 
   31023    24175    15491     8479     6740     9310    13851    18981 
   21806    23425    29216    36659    37531    30385    18369     5236 
   -2423    -1626     2494     6069    10828    17350    22302    22420 
   18153    13369    12306    15913    20059    20335    18347    18219 
   19701    20394    19631    17346    15079    15304    17099    18700 
   19719    17440    11097     5979     5771    10265    17824    21062 
   14642     8302    12513    22428    30445    35101    34726    30067 
   26401    25994    27832    30636    31074    27133    21559    17680 
   16312    15658    14052    13906    15739    14763    11537    11121 
   11869    10833    10843    12583    12978    14191    20135    25775 
   23990    18723    18900    25425    32584    35428    32143    24912 
   18885    16896    16259    13270     9865    10578    13182    12357 
   10654    12904    16135    15894    13244    10152     7591     8625 
   14808    21454    22931    19742    15720    13105    14222    19376 
   22523    19981    16776    16213    16434    18712    25253    32776 
   37230    38780    38043    33839    26829    20132    15753    13775 
   13369    12831    11562    11263    12721    14791    16749    17732 
   17088    16363    16895    17825    17460    14370     9745     7654 
   10168    14964    18409    19314    19576    21081    22411    20444 
   16433    16853    23707    29724    29533    26596    23406    17844 
   12465    12906    18009    22465    23446    20794    16791    14260 
   13846    14642    14521    12546    12428    17030    22711    25755 
   26713    25934    23689    21853    20042    16276    12059    10740 
   12966    17219    21859    25228    25548    21616    15557    12856 
   14854    16303    14399    12006    10856    10881    13533    17169 
   16939    14091    12722    11812    12582    17977    22716    22840 
   22815    22599    17431     9223     4849     9154    20023    28100 
   27711    22862    18517    16100    16880    20515    22500    18657 
   11604     8374    10241    12224    12976    15217    19830    26312 
   32061    33234    32404    34520    35741    30520    22239    16746 
   15668    18638    23963    27318    24291    16332    10714    11794 
   17099    21392    19963    12907     6660     5471     7474    11260 
   15959    17968    15373    11317    10936    15117    18712    19442 
   20486    21068    19168    18559    19782    18134    14723    13986 
   15508    17050    17828    17325    14964    11214     8671     8926 
   10316    12717    17574    22036    22414    20818    21571    24352 
   24459    20371    17582    20386    25945    30375    31483    26650 
   18052    13058    14590    20825    29500    35217    33600    28001 
   22450    16819    12723    11965    12939    15965    21566    24945 
   23449    20899    19456    17895    16198    14715    12825    10716 
   10091    12769    17577    20097    18463    14983    11516     9967 
   12619    16884    18080    16777    15475    14872    16725    21082 
   22847    18736    13624    14080    18382    20579    21455    23986 
   24672    21039    17007    15361    15796    18694    23244    25679 
   24050    21567    21574    23029    23778    22609    18368    13725 
   14283    18663    20146    19008    19570    19869    16950    13949 
   14187    16738    19691    21929    22851    22627    21870    21370 
   22103    24348    26227    24799    20345    16372    14891    15391 
   16036    15137    14454    16303    18015    17894    19638    23137 
   22809    18341    15236    15612    16281    14025     9850     7954 
   10258    14349    16949    16244    12976    10700    11637    14305 
   16641    17255    15655    13936    14831    18712    23233    24383 
   20935    16641    14740    15029    16783    19901    24005    27573 
   28844    28281    27210    25845    25174    25515    24464    21714 
   20187    20754    22905    26535    28300    24462    17801    14060 
   14779    17672    20394    21864    20833    16430    11545     9837 
    9598     8006     6709     7240     8600    10141    10944    10679 
   11811    15799    20078    21378    19199    15431    12117    11354 
   14995    20591    22916    22019    21551    21794    22002    21891 
   19213    14669    13105    15225    17895    20710    24278    26865 
