Origin Time       2024/04/02 04:24:00
Lat.              40.133
Long.             141.712
Depth. (km)       71
Mag.              6.0
Station Code      AOM022
Station Lat.      40.9923
Station Long.     140.9161
Station Height(m) 4
Record Time       2024/04/02 04:24:58
Sampling Freq(Hz) 100Hz
Duration Time(s)  108
Dir.              U-D
Scale Factor      7845(gal)/8223790
Max. Acc. (gal)   8.543
Last Correction   2024/04/02 04:24:58
Memo.             
[...]
   12609    12339    12505    13014    14129    14512    13317    12475 
   12984    13599    13629    13702    14413    14925    13724    11415 
   10805    12847    14997    14729    12505    11094    12001    13153 
   12970    12976    13590    13890    14562    15244    14112    12168 
   12036    13821    15124    14170    12758    13444    14146    12658 
   12440    14651    14993    13691    14087    14870    14289    13436 
   13311    13988    14108    12599    11803    13545    15221    14445 
   12540    11985    13513    14531    13050    12599    15024    15870 
   14380    14191    14554    13934    13633    12829    11209    11256 
   12128    12070    13362    16194    16814    14760    13514    14177 
   14446    13370    12583    13335    14187    13204    12588    14241 
   15047    13934    13205    13398    14189    14662    14061    13782 
   13986    12957    10933     9431     9674    11917    14083    14519 
   14513    15681    17331    17076    14168    11641    12339    14287 
   14573    14316    14671    13632    11288    11171    13402    13888 
   11364     9834    12580    16255    15893    13298    12734    14022 
   14933    14389    13356    13405    14003    13879    13227    13257 
   14206    14581    13992    13506    12915    12108    12989    15889 
   16945    14202    12128    13852    14999    11608     8457    10848 
   14673    15499    15292    14207    12131    12298    13651    13676 
   14528    16051    15381    13032    10311     8951    11740    15198 
   13267    10516    14014    17791    15444    12398    12299    13664 
   16236    17109    14771    12613    11788    11830    13713    15248 
   12711    10119    12717    15269    13721    12334    12378    12991 
   15448    17273    14882    11134    11014    13514    14330    14118 
   16052    17263    14031    11097    12683    13787    12366    13269 
   15422    15028    13822    12808    11842    13011    14419    12414 
   10758    12432    13352    12919    13537    13949    13478    13788 
   14611    13988    13392    14277    13184    10632    11641    14341 
   14770    14832    14764    13005    13319    15769    14293    11819 
   13945    14874    11684    11911    15885    15587    11797    11248 
   13263    14211    14565    15145    14818    12946    10729    10569 
   13219    14744    12672    12158    15558    16671    13695    12235 
   13293    13756    13625    13292    12730    13158    14543    15498 
   14534    12482    12717    14176    12870    11277    12968    14532 
   13536    12883    13795    14581    14088    12885    13439    15110 
   13366    10833    13595    16636    14531    13143    15106    14700 
   11514    10617    12395    13864    13702    12521    12474    14089 
   14897    14141    14184    15576    15479    13699    13070    13151 
   12463    12469    13960    14804    13886    13080    12887    12502 
   12810    13343    12325    11179    12939    16086    16313    14565 
   14210    14176    12938    12199    12901    13637    13682    13868 
   15152    16567    15129    11853    11958    14504    14229    12680 
   13267    13637    12379    11965    12816    13437    13902    14350 
   14170    13486    12820    13365    15614    16167    13135    11097 
   11907    12043    12425    14829    14709    11407    11179    13977 
   14574    13581    13887    14652    14450    13644    13441    14446 
   14913    12870    10768    11782    13787    14346    14667    14727 
   13541    12939    13894    14079    12931    12777    13764    13732 
   12555    12152    12957    13443    13656    14594    14357    12625 
   13369    15302    13236    10446    12263    15229    15526    14877 
   14138    13262    13610    13888    12456    11335    12139    14127 
   14862    13437    13419    15375    15187    13240    12841    13084 
   12222    12001    13545    15141    15499    14790    13900    13289 
   12730    13012    13964    13505    12631    13485    14218    14035 
   14223    13474    12062    13001    15421    15591    13533    12460 
   13193    13923    13490    12251    11611    12187    13165    13803 
   13612    13309    13687    13558    13224    13537    12900    12364 
   14262    15658    14416    13925    14879    14561    13865    13833 
   13035    12603    13432    13878    14426    15090    14067    12853 
   13057    12781    12042    12910    13910    13205    12555    12775 
   13016    13533    14048    13725    13711    15446    16540    14189 
   11797    12665    13177    12164    13236    14447    12804    11938 
   13479    14143    13807    14227    14299    13643    13365    13088 
   13059    13844    14413    14716    14733    13173    11429    12480 
   14750    14440    12775    12965    13995    13907    13405    13689 
   14492    14184    12695    13050    15496    15750    13753    13961 
   15256    13764    11996    12630    12958    12127    12314    13786 
   14685    13344    11746    12897    14519    13863    12876    12808 
   12785    13235    13887    13520    13424    14338    13892    12182 
   11736    12264    13142    14480    14308    12749    12973    14334 
   13818    12912    13784    14230    13387    13409    13737    13316 
   13957    15369    14837    13036    12361    12702    13379    14076 
   13963    13612    13805    13527    13294    13784    12866    11611 
   13393    15257    13757    12876    14762    15124    13439    13034 
   13545    13972    14355    13587    13031    14364    14786    13078 
   12191    12594    12849    13659    14388    13500    13363    15199 
   15230    12742    12121    13833    13651    11596    11785    13728 
   13859    13205    13846    13959    13000    13300    14531    14183 
   12781    12799    14021    14423    13583    12657    12364    12498 
   13095    14075    14188    13373    13755    15163    15267    13938 
   12135    11114    11897    12852    13078    13817    14450    14134 
   14281    14674    13333    12548    14739    15417    12941    12603 
   14188    13834    13396    14199    13740    12883    13884    14832 
   14526    14420    13822    12625    13532    15344    14212    11940 
   12260    14230    15430    14890    13180    12553    13497    14079 
   14246    14577    13865    12721    12895    13072    12422    12881 
   13792    13536    13671    13682    12204    12471    14737    14831 
   13657    13864    13803    13190    13856    13944    12194    12426 
   14621    14030    11819    11732    12494    12996    14334    15055 
   13896    13255    13845    13392    12776    14069    15259    14782 
   14139    13481    12610    13088    14293    13743    12432    12687 
   13192    12638    12449    12569    12293    13035    14008    13216 
   13026    14466    13968    12159    12737    13852    13329    13671 
   14690    13907    12629    12166    11777    12145    13656    14266 
   13344    13321    14521    14455    13799    14481    14334    12553 
   12754    14914    14829    12783    12544    13660    13551    12900 
   12873    13355    14493    15190    14455    13736    14149    14725 
   14353    13467    12954    12945    13539    13976    13435    13446 
   14315    13817    12973    14073    14833    13572    12814    13552 
   14355    14359    13263    12032    12316    13460    13331    12017 
   11626    13294    15782    16297    14269    12664    12972    13914 
   14667    14754    13774    12781    13124    13701    12695    11619 
   12573    14185    14481    13689    13076    13504    14370    14084 
   13084    13564    14526    13414    12263    13513    14655    14098 
   13822    14278    14434    14042    13132    12706    13259    13138 
   12325    13038    14959    15801    15222    13594    11376    10948 
   12595    13612    13871    13802    12884    12942    13973    13621 
   13293    14578    15144    13959    12969    13101    13234    12823 
   12864    13410    13456    13590    14715    15086    13475    12447 
   13471    14520    14397    13540    12812    13262    14193    14104 
   13852    14312    14049    13104    12942    12792    12432    13138 
   13666    12997    12779    12837    12367    12795    13890    13860 
   13460    13944    14203    14300    15345    15198    13678    14165 
   15109    13660    12020    11649    12252    14257    15495    13535 
   11654    13205    14427    12592    11300    11597    11772    13023 
   15002    15087    14018    13691    13733    14269    15165    14238 
   12602    13775    15562    14373    12868    13629    14512    14627 
   14719    13559    11736    11989    13062    12241    11391    12496 
   13424    13305    13876    14346    13672    13836    14708    14451 
   14416    14571    12456    10369    11736    13298    12185    12042 
   14160    15157    14806    14407    13028    11870    13369    15618 
   15785    14758    14388    14856    14786    13014    11724    13404 
   14770    12858    11438    12511    13587    14193    13964    12191 
   11412    12499    13030    13649    15311    14982    12609    12129 
   13448    14011    14665    16056    15962    14465    14126    15032 
   14968    13027    11524    12606    14370    14601    13699    12262 
   11504    12920    14634    13965    12309    12360    13475    12987 
   11511    11990    13381    13840    15213    16887    15326    12148 
   12047    13864    13571    12572    13340    13678    12522    12208 
   12895    13041    13433    14642    14686    13355    12777    12970 
   13069    13527    13844    13755    14844    15892    14270    12545 
   13051    13725    14602    15410    13319    11051    12417    14114 
   13749    13292    13032    12552    12159    11777    12487    14744 
   16075    15219    14077    13460    13429    14778    14851    12245 
   12181    15410    16078    13986    12725    11784    10697    11448 
   13034    12869    12565    14324    15680    14553    13883    15360 
   15387    12722    11763    13944    15049    13340    12087    12919 
   13497    13302    14116    14708    13429    12179    12506    13227 
   13104    12449    12310    13305    14303    13869    13274    13514 
   13720    13895    13898    14251    15897    16194    13756    12787 
   14335    13815    11740    12361    13657    12980    12650    13448 
   13926    13979    14049    14461    14789    14111    13439    14091 
   14663    14068    13392    13184    13201    13167    13281    14000 
   14017    12788    13000    14970    15481    14196    13248    12977 
   12839    12264    10682     9887    11939    14334    14293    14060 
   15242    15755    15245    14963    14496    13701    13490    13351 
   12029    11419    13498    14384    11894    10966    12965    14013 
   14168    14855    14500    13468    13536    13643    13304    13748 
   13967    13455    14335    15379    14327    14021    14843    13036 
   10719    12236    15252    15889    15086    14638    13213    10619 
   10459    13505    15188    13778    12502    12610    12665    12769 
   13770    14719    14613    14160    14115    14472    13892    11468 
   10565    13203    14856    13441    13065    14087    12877    11581 
   13504    14800    13382    13267    14442    13776    12839    13452 
   13842    13621    13899    14310    14947    15368    13686    11283 
   11072    12067    12447    13285    15161    15789    14031    12260 
   11901    11333    11194    13965    17610    18173    15646    13232 
   13401    15049    15662    14639    12777    11113    10422    11140 
   12811    13734    13494    13774    14796    14458    12328    11271 
   12974    14434    13544    13932    16213    14358     9004     8896 
   14488    17161    15033    13668    14102    13703    13190    13710 
   14127    14052    14099    14786    15665    14769    12274    11321 
   12872    14431    14226    13946    15067    15052    12600    11612 
   13761    14428    11739    10345    11782    12780    12907    13134 
   13130    13896    15429    15716    15140    15156    14686    13714 
   14563    16191    16043    15168    14347    13284    13053    12866 
   11979    13012    15290    14422    12056    12181    12722    12854 
   14418    14242    11389    11377    13981    14044    13651    15298 
   14544    12086    12897    14813    14681    13153    11805    12969 
   15110    14727    14391    16205    15913    12707    11295    12403 
   13194    12835    12074    12310    13662    13923    13262    13802 
   14180    13402    13749    14611    14060    13201    12564    12432 
   13356    13691    13417    13702    13088    12278    13726    15010 
   13864    13675    15538    15919    14756    14251    14040    14358 
   15718    16006    14492    13186    12864    12954    12683    11376 
   10454    11610    13068    12897    12935    14091    13770    11982 
   12137    14180    14050    11094     9927    12114    13579    12822 
   12274    12764    13674    14416    14160    13032    12514    13045 
   13294    13730    15014    14484    12592    12879    13468    11809 
   10831    12604    14948    15831    15502    14870    14615    14465 
   13223    11515    10978    11615    13207    14639    14449    14202 
   15210    15936    15785    15462    14601    13697    13905    13413 
   10702     8068     7960    10152    12264    12648    12401    13208 
   15086    16623    16899    16305    15422    14304    13281    13408 
   13738    12364    11344    12602    13585    13352    13532    13752 
   13832    13709    12166    10859    10141     6917     4590     7896 
   11588    11522    12029    14782    17220    19008    19693    18154 
   16528    16726    16447    13964    11094     9724    10539    12727 
   13988    14110    14677    15273    14639    13293    12985    13841 
   13185    10593     9891    11475    11897    11803    13421    15190 
   15707    16028    16831    18098    19461    19399    16626    12866 
   11646    13069    14056    13455    12985    14108    14693    12837 
   12395    15580    18118    17896    16592    14639    12691    11780 
   11178    10373     9213     7095     6088     8542    11153    11271 
   12861    16502    17663    17595    18542    17969    16875    16769 
   14728    12537    14223    15766    13161    10508    10187    10042 
   11256    13718    14242    14562    15809    14752    13130    14677 
   16384    14512    11205     9703     9963    10304     9837    10019 
   12386    14154    12934    12744    16383    19561    18949    16850 
   15292    13527    12172    12347    12317    11569    12009    12726 
   11886    11569    13356    14408    13703    13726    13842    12320 
   11391    11979    11394    10285    11561    13562    13964    13899 
   14069    14912    17112    18337    16510    14207    14106    14897 
   14631    13767    13459    12896    11152    10763    13346    14524 
   11974    11068    13740    14508    12622    12224    12552    11948 
   12279    13286    14401    17396    20262    19711    18141    17489 
   15157    12368    12619    12931    11003    10206    10767    10539 
   10542    11537    12768    14021    14855    15017    14840    14049 
   13005    13115    13915    13389    12681    14889    17473    16236 
   14446    15768    16484    13452    10574    10864    10378     7312 
    6662    10706    14935    15425    14422    15431    17251    17918 
   17919    17059    15628    15417    15507    14486    14351    15060 
   13336    10770    11515    13354    13063    12429    11904    10189 
    9333    10829    12440    12726    12591    12704    13003    13741 
   15083    15813    15356    15134    15055    14253    14347    15664 
   16048    15287    14523    14482    15442    15364    12779    10770 
   11276    10990     8513     7465     9153    11041    12345    13392 
   13640    13602    13999    14575    15155    15971    17456    18580 
   17356    14786    13599    13641    13470    13633    13852    12375 
   10658    11176    12407    12988    14432    15554    13846    12051 
   13165    14692    14369    13416    13089    13667    14963    15678 
   15051    14623    14625    13124    11133    11292    13035    13417 
   11672    11102    12637    12321     9941    10330    13871    15610 
   14724    14933    16946    18307    16671    12657    10687    12406 
   14172    13883    12964    12418    12348    12771    12714    12117 
   12526    13448    13702    14287    14924    13791    11499    10605 
   12258    14423    14540    13819    14952    16910    17558    18048 
   18628    16915    13948    12573    12623    13325    13425    11804 
   10508    10990    11376    10646    11302    14270    15244    13213 
   13093    14794    13516    10515    11018    14395    16291    15749 
   14154    13402    14280    14196    12730    13090    13356    10292 
    8220     9990    11375    10939    11719    14216    16039    16020 
   15016    13851    13605    15095    15921    13926    12140    13194 
   14238    13524    13501    14400    14470    14233    14084    13986 
   14419    14085    12642    11863    11608    11503    12097    12218 
   12384    15084    17932    17501    16380    16852    16795    15369 
   13902    12806    12669    13562    13030    11407    12530    14612 
   13404    12062    14162    15924    14777    13797    13443    11726 
   10978    12561    12872    11477    11358    12121    13113    15107 
   15689    13321    11499    12202    13171    13028    12735    12887 
   12972    12617    12100    12607    14962    16673    15005    12140 
   11637    13473    14692    12702     9871    10910    14203    14893 
   13699    13910    15267    15475    14092    12726    12262    12314 
   12961    14589    15714    14611    13613    14777    15415    14651 
   14586    14254    12491    11855    13470    15021    15657    16201 
   16368    15765    14675    13614    12942    12253    11772    12499 
   13694    14021    13753    13984    14882    14694    13398    13298 
   13574    12915    13149    14362    14347    13598    14181    14766 
   13517    12461    13243    14368    14264    13505    13599    13991 
   13217    12036    11693    11649    10755     9437     9756    11819 
   13383    14440    15822    15202    12421    11566    12337    11493 
   11113    12619    13047    13149    14941    16119    16421    17739 
   17936    15639    13809    12884    11300    10859    11861    12059 
   12487    14202    15009    14245    13510    13212    13159    13501 
   13421    12472    11558    11141    11222    11832    12896    14413 
   15228    14364    13780    14650    14512    12846    12552    13487 
   13050    11956    12236    13737    15299    15635    14916    14771 
   14809    13899    13215    13344    12980    12066    11929    12550 
   13070    13698    14353    14374    13996    13333    12523    12727 
   14058    14697    14130    14366    15619    15662    14515    13676 
   13014    12394    12694    14234    16023    16113    14146    12911 
   13543    13810    13493    14121    15084    14601    12926    12734 
   14038    14003    13131    13115    12923    12206    11826    11603 
   12298    14936    16830    15653    14472    15202    15068    13321 
   12016    11952    12742    12764    11345    11619    14154    14508 
   12793    12787    13518    13186    13058    13633    14119    14651 
