Origin Time       2024/04/02 04:24:00
Lat.              40.133
Long.             141.712
Depth. (km)       71
Mag.              6.0
Station Code      AOM013
Station Lat.      40.4126
Station Long.     141.2813
Station Height(m) 29
Record Time       2024/04/02 04:24:50
Sampling Freq(Hz) 100Hz
Duration Time(s)  92
Dir.              U-D
Scale Factor      7845(gal)/8223790
Max. Acc. (gal)   42.494
Last Correction   2024/04/02 04:24:50
Memo.             
[...]
  -16605   -16603   -16600   -16599   -16602   -16603   -16602   -16602 
  -16605   -16602   -16600   -16605   -16603   -16600   -16602   -16603 
  -16603   -16605   -16606   -16603   -16600   -16600   -16600   -16602 
  -16603   -16600   -16598   -16602   -16605   -16600   -16599   -16599 
  -16596   -16598   -16605   -16603   -16599   -16598   -16599   -16599 
  -16599   -16603   -16602   -16598   -16602   -16605   -16600   -16599 
  -16599   -16600   -16605   -16602   -16598   -16599   -16602   -16602 
  -16600   -16599   -16602   -16600   -16599   -16603   -16603   -16598 
  -16599   -16600   -16599   -16600   -16606   -16602   -16599   -16602 
  -16600   -16599   -16600   -16602   -16602   -16602   -16603   -16602 
  -16599   -16600   -16605   -16603   -16600   -16602   -16602   -16606 
  -16605   -16600   -16599   -16598   -16598   -16603   -16609   -16606 
  -16599   -16598   -16600   -16600   -16603   -16603   -16600   -16600 
  -16603   -16605   -16602   -16599   -16600   -16599   -16600   -16603 
  -16602   -16599   -16602   -16602   -16600   -16602   -16602   -16598 
  -16599   -16605   -16605   -16600   -16599   -16599   -16602   -16607 
  -16606   -16598   -16598   -16600   -16599   -16602   -16606   -16602 
  -16598   -16598   -16600   -16603   -16605   -16603   -16602   -16599 
  -16600   -16605   -16603   -16599   -16602   -16603   -16603   -16602 
  -16598   -16598   -16602   -16602   -16603   -16605   -16599   -16596 
  -16600   -16602   -16602   -16600   -16598   -16600   -16603   -16605 
  -16603   -16599   -16599   -16605   -16603   -16600   -16602   -16600 
  -16600   -16605   -16602   -16595   -16598   -16606   -16606   -16603 
  -16602   -16599   -16600   -16600   -16599   -16599   -16599   -16600 
  -16602   -16600   -16600   -16600   -16600   -16600   -16605   -16605 
  -16603   -16605   -16600   -16596   -16602   -16607   -16605   -16602 
  -16602   -16599   -16600   -16606   -16607   -16602   -16598   -16598 
  -16602   -16606   -16602   -16595   -16599   -16606   -16603   -16599 
  -16600   -16602   -16599   -16598   -16602   -16599   -16596   -16602 
  -16605   -16603   -16600   -16599   -16602   -16602   -16600   -16602 
  -16603   -16602   -16600   -16600   -16602   -16600   -16599   -16602 
  -16603   -16600   -16599   -16602   -16603   -16600   -16599   -16602 
  -16602   -16602   -16603   -16599   -16598   -16606   -16607   -16599 
  -16596   -16602   -16600   -16599   -16600   -16598   -16599   -16605 
  -16603   -16600   -16600   -16599   -16599   -16602   -16605   -16600 
  -16596   -16600   -16605   -16602   -16602   -16605   -16603   -16600 
  -16603   -16600   -16598   -16602   -16605   -16602   -16602   -16602 
  -16599   -16599   -16603   -16607   -16605   -16599   -16596   -16596 
  -16599   -16606   -16603   -16598   -16598   -16600   -16605   -16606 
  -16600   -16600   -16605   -16602   -16599   -16602   -16599   -16598 
  -16603   -16606   -16605   -16600   -16600   -16602   -16600   -16603 
  -16605   -16600   -16599   -16602   -16605   -16606   -16603   -16600 
  -16598   -16602   -16606   -16603   -16598   -16598   -16600   -16602 
  -16606   -16606   -16600   -16598   -16600   -16600   -16600   -16600 
  -16600   -16600   -16603   -16605   -16600   -16598   -16602   -16606 
  -16606   -16606   -16603   -16596   -16598   -16602   -16603   -16605 
  -16603   -16599   -16599   -16605   -16603   -16595   -16596   -16600 
  -16600   -16603   -16607   -16603   -16595   -16596   -16602   -16605 
  -16605   -16602   -16598   -16599   -16603   -16600   -16596   -16599 
  -16603   -16603   -16602   -16600   -16599   -16600   -16602   -16602 
  -16602   -16603   -16603   -16602   -16605   -16606   -16600   -16596 
  -16600   -16605   -16606   -16605   -16602   -16599   -16600   -16605 
  -16603   -16596   -16599   -16600   -16599   -16602   -16605   -16598 
  -16599   -16609   -16606   -16599   -16603   -16602   -16598   -16603 
  -16607   -16600   -16598   -16603   -16602   -16600   -16603   -16602 
  -16598   -16600   -16607   -16605   -16600   -16602   -16600   -16598 
  -16602   -16606   -16602   -16600   -16600   -16596   -16599   -16606 
  -16603   -16599   -16602   -16603   -16599   -16599   -16603   -16602 
  -16600   -16600   -16598   -16598   -16603   -16603   -16599   -16600 
  -16602   -16600   -16600   -16603   -16602   -16598   -16598   -16598 
  -16599   -16603   -16605   -16600   -16598   -16598   -16599   -16600 
  -16602   -16600   -16599   -16600   -16602   -16599   -16599   -16602 
  -16602   -16603   -16605   -16598   -16592   -16599   -16606   -16603 
  -16600   -16603   -16602   -16599   -16602   -16605   -16602   -16599 
  -16599   -16599   -16605   -16609   -16599   -16594   -16602   -16605 
  -16602   -16603   -16602   -16598   -16600   -16606   -16606   -16605 
  -16602   -16599   -16599   -16598   -16599   -16602   -16603   -16603 
  -16600   -16598   -16600   -16603   -16598   -16599   -16606   -16605 
  -16602   -16602   -16602   -16602   -16606   -16605   -16599   -16600 
  -16600   -16600   -16606   -16607   -16602   -16599   -16603   -16606 
  -16606   -16602   -16598   -16595   -16600   -16607   -16603   -16598 
  -16600   -16600   -16600   -16605   -16603   -16599   -16598   -16600 
  -16600   -16599   -16603   -16600   -16600   -16607   -16606   -16598 
  -16595   -16600   -16606   -16607   -16605   -16598   -16594   -16600 
  -16609   -16606   -16602   -16600   -16600   -16598   -16600   -16605 
  -16602   -16599   -16600   -16602   -16603   -16605   -16600   -16598 
  -16600   -16603   -16605   -16603   -16600   -16600   -16605   -16603 
  -16600   -16600   -16605   -16606   -16600   -16599   -16602   -16598 
  -16598   -16607   -16606   -16598   -16598   -16600   -16600   -16605 
  -16606   -16600   -16599   -16602   -16599   -16599   -16602   -16602 
  -16600   -16599   -16599   -16600   -16599   -16600   -16603   -16605 
  -16605   -16602   -16599   -16602   -16603   -16602   -16602   -16603 
  -16602   -16602   -16605   -16603   -16599   -16600   -16602   -16602 
  -16603   -16605   -16602   -16600   -16599   -16599   -16600   -16603 
  -16603   -16600   -16600   -16606   -16605   -16598   -16599   -16602 
  -16600   -16605   -16606   -16602   -16598   -16602   -16605   -16602 
  -16602   -16600   -16600   -16606   -16607   -16600   -16598   -16599 
  -16602   -16603   -16606   -16602   -16595   -16598   -16607   -16607 
  -16603   -16602   -16600   -16603   -16605   -16600   -16598   -16600 
  -16602   -16599   -16599   -16602   -16602   -16599   -16599   -16600 
  -16602   -16602   -16600   -16600   -16600   -16602   -16603   -16600 
  -16602   -16605   -16606   -16605   -16600   -16596   -16599   -16607 
  -16605   -16599   -16599   -16598   -16599   -16605   -16605   -16603 
  -16602   -16599   -16600   -16600   -16602   -16603   -16599   -16598 
  -16603   -16603   -16600   -16599   -16600   -16600   -16602   -16600 
  -16598   -16596   -16602   -16606   -16603   -16602   -16603   -16599 
  -16598   -16605   -16607   -16602   -16599   -16602   -16603   -16603 
  -16603   -16600   -16600   -16602   -16600   -16602   -16605   -16600 
  -16598   -16602   -16605   -16605   -16603   -16600   -16599   -16602 
  -16606   -16605   -16598   -16600   -16606   -16603   -16600   -16600 
  -16599   -16600   -16605   -16605   -16599   -16599   -16602   -16600 
  -16602   -16603   -16598   -16599   -16605   -16603   -16600   -16600 
  -16600   -16600   -16603   -16603   -16600   -16599   -16600   -16602 
  -16602   -16602   -16602   -16602   -16602   -16606   -16607   -16602 
  -16599   -16599   -16602   -16605   -16603   -16602   -16603   -16602 
  -16599   -16602   -16606   -16603   -16600   -16605   -16606   -16600 
  -16598   -16603   -16605   -16605   -16606   -16603   -16598   -16598 
  -16598   -16602   -16605   -16599   -16595   -16600   -16606   -16602 
  -16596   -16598   -16600   -16600   -16600   -16602   -16600   -16598 
  -16600   -16602   -16599   -16603   -16605   -16598   -16596   -16606 
  -16610   -16606   -16602   -16599   -16595   -16602   -16607   -16602 
  -16599   -16600   -16602   -16605   -16603   -16596   -16596   -16602 
  -16606   -16603   -16602   -16600   -16599   -16600   -16606   -16605 
  -16598   -16598   -16602   -16602   -16603   -16605   -16602   -16600 
  -16600   -16602   -16600   -16600   -16603   -16603   -16603   -16603 
  -16599   -16599   -16603   -16602   -16600   -16603   -16603   -16599 
  -16598   -16602   -16605   -16605   -16605   -16603   -16600   -16602 
  -16606   -16603   -16599   -16603   -16605   -16600   -16602   -16603 
  -16600   -16602   -16603   -16602   -16600   -16603   -16602   -16600 
  -16603   -16600   -16599   -16603   -16605   -16603   -16603   -16602 
  -16600   -16600   -16602   -16605   -16605   -16602   -16599   -16600 
  -16602   -16605   -16605   -16600   -16600   -16606   -16605   -16598 
  -16596   -16600   -16602   -16603   -16600   -16602   -16605   -16606 
  -16603   -16599   -16598   -16596   -16599   -16603   -16607   -16607 
  -16602   -16592   -16594   -16605   -16610   -16606   -16599   -16600 
  -16600   -16600   -16603   -16602   -16600   -16603   -16607   -16606 
  -16603   -16599   -16596   -16598   -16602   -16605   -16605   -16600 
  -16600   -16600   -16602   -16603   -16600   -16599   -16600   -16605 
  -16603   -16602   -16598   -16595   -16600   -16605   -16603   -16602 
  -16600   -16598   -16596   -16599   -16602   -16600   -16602   -16603 
  -16603   -16602   -16600   -16598   -16600   -16603   -16602   -16600 
  -16602   -16603   -16602   -16598   -16602   -16605   -16599   -16598 
  -16603   -16603   -16600   -16599   -16600   -16600   -16603   -16605 
  -16600   -16598   -16599   -16600   -16600   -16603   -16605   -16602 
  -16600   -16602   -16599   -16598   -16602   -16603   -16600   -16603 
  -16603   -16599   -16598   -16599   -16603   -16603   -16600   -16599 
  -16600   -16602   -16605   -16605   -16602   -16600   -16600   -16602 
  -16606   -16600   -16599   -16605   -16602   -16598   -16600   -16600 
  -16598   -16603   -16606   -16600   -16596   -16599   -16598   -16602 
  -16609   -16607   -16600   -16596   -16599   -16602   -16602   -16600 
  -16600   -16600   -16602   -16602   -16600   -16602   -16603   -16600 
  -16600   -16605   -16603   -16600   -16598   -16598   -16600   -16606 
  -16606   -16602   -16598   -16599   -16602   -16602   -16603   -16603 
  -16600   -16600   -16602   -16598   -16598   -16603   -16605   -16599 
  -16596   -16598   -16599   -16602   -16605   -16602   -16598   -16600 
  -16602   -16600   -16603   -16603   -16599   -16595   -16598   -16605 
  -16607   -16605   -16598   -16595   -16603   -16607   -16603   -16603 
  -16603   -16598   -16599   -16606   -16603   -16598   -16602   -16606 
  -16603   -16599   -16600   -16600   -16602   -16606   -16606   -16602 
  -16600   -16599   -16599   -16605   -16603   -16598   -16599   -16602 
  -16603   -16605   -16602   -16599   -16602   -16605   -16605   -16599 
  -16599   -16603   -16605   -16602   -16602   -16602   -16598   -16596 
  -16603   -16606   -16603   -16603   -16596   -16594   -16600   -16605 
  -16602   -16599   -16596   -16598   -16603   -16607   -16605   -16598 
  -16598   -16605   -16603   -16599   -16600   -16600   -16598   -16602 
  -16603   -16599   -16599   -16605   -16603   -16600   -16598   -16596 
  -16599   -16603   -16606   -16602   -16598   -16598   -16599   -16600 
  -16605   -16603   -16599   -16599   -16605   -16603   -16600   -16600 
  -16600   -16600   -16603   -16603   -16600   -16600   -16605   -16600 
  -16596   -16600   -16605   -16605   -16606   -16603   -16600   -16600 
  -16602   -16599   -16602   -16603   -16602   -16600   -16599   -16599 
  -16599   -16602   -16605   -16602   -16599   -16599   -16599   -16602 
  -16605   -16603   -16602   -16602   -16603   -16600   -16599   -16605 
  -16605   -16599   -16600   -16602   -16599   -16598   -16602   -16605 
  -16602   -16602   -16600   -16602   -16606   -16603   -16598   -16598 
  -16600   -16602   -16602   -16602   -16598   -16596   -16602   -16605 
  -16603   -16605   -16603   -16598   -16602   -16607   -16602   -16596 
  -16599   -16603   -16602   -16599   -16602   -16605   -16600   -16599 
  -16602   -16600   -16598   -16599   -16602   -16603   -16600   -16598 
  -16599   -16602   -16602   -16602   -16603   -16602   -16598   -16599 
  -16606   -16605   -16598   -16599   -16602   -16600   -16599   -16594 
  -16580   -16561   -16524   -16449   -16324   -16116   -15789   -15313 
  -14665   -13886   -13105   -12544   -12420   -12850   -13734   -14725 
  -15404   -15599   -15585   -16021   -17500   -20012   -22666   -23990 
  -22947   -19966   -16895   -15765   -17199   -19562   -20360   -18843 
  -16229   -13521   -10679    -8035    -7071    -8807   -11485   -11485 
   -8135    -5926    -9531   -17759   -24765   -26455   -23585   -19109 
  -14976   -12310   -12972   -19256   -30283   -38680   -36553   -26134 
  -17884   -18215   -22912   -22870   -16366   -11188   -13301   -20025 
  -23449   -18500   -10299    -8251   -12262   -13323    -6450     2690 
    3260    -8959   -24051   -25776   -10885     3701      -33   -17934 
  -30029   -27017   -17878   -13459   -13084   -10006    -2948      885 
   -8685   -29559   -39915   -25119    -4351    -4723   -22071   -31068 
  -20583    -3491      676   -14485   -35563   -41305   -26104    -7676 
   -5676   -20775   -38206   -41007   -25569   -10138   -12137   -23249 
  -25999   -21466   -22037   -29388   -34025   -27685   -12484    -4681 
  -20710   -50518   -61148   -37791    -3129    11715    -1409   -25694 
  -35930   -23589    -7121    -5229   -12158   -12141    -1775     9157 
    9896    -1291   -16754   -23442   -12919     5266    11703     1830 
  -10351   -12062    -7049    -9606   -22654   -31887   -27147   -17169 
  -15086   -19233   -20549   -17998   -16225   -18142   -24737   -33502 
  -35473   -26493   -18455   -24189   -37069   -39847   -27992   -12955 
   -6862   -10065   -15913   -21541   -23268   -15925    -6586    -7180 
  -14690   -16179    -8024    -1764    -6030   -14237   -18343   -16043 
   -9024    -3882    -5274   -10617   -12972   -10389    -9402   -11167 
   -9575    -6143    -7771   -15591   -25678   -32144   -29389   -19701 
  -12518   -12646   -17134   -19234   -16812   -17153   -22096   -22368 
  -14358    -5400    -4291   -14300   -29812   -38935   -34333   -21986 
  -13969   -12559   -11643   -11487   -16945   -26044   -31473   -27062 
  -14015    -3153    -3678   -15850   -33277   -43217   -36004   -16745 
     727     7234     2705    -8463   -20522   -26310   -21969   -11915 
   -5089    -4611    -5602    -6220   -10530   -18831   -25633   -27222 
  -24763   -19588   -12793    -9637   -13783   -19465   -21138   -22168 
  -23665   -21390   -16615   -14193   -16079   -22331   -29286   -29690 
  -21182    -9952    -3319    -2277    -4383   -10557   -20391   -25956 
  -21957   -13840    -7950    -6818   -12985   -21388   -20397   -11186 
   -6339    -8199    -9892   -11921   -16637   -19300   -20106   -23627 
  -25612   -22792   -21612   -24699   -27164   -25867   -21238   -16063 
  -14481   -17884   -21355   -19399   -15871   -17759   -22520   -21798 
  -13104    -4541    -5524   -12874   -17343   -17875   -16650   -12725 
   -7499    -6814   -13533   -21398   -22576   -18018   -15822   -21193 
  -27816   -25807   -16197    -8060    -8102   -15126   -21655   -21834 
  -16587   -12981   -14854   -16303   -13177   -11421   -16308   -22630 
  -21824   -14655    -9346    -8572    -9231   -11566   -16614   -21539 
  -23071   -20297   -16227   -15047   -15719   -16027   -17648   -19629 
  -18902   -16301   -13695   -13670   -17825   -21189   -19288   -15819 
  -15928   -19221   -22295   -23328   -21454   -16613   -12349   -11988 
  -13771   -14430   -14364   -17081   -22644   -25714   -21211   -10154 
   -2641    -8332   -23322   -34214   -31617   -18347    -6451    -4880 
  -11651   -18832   -21082   -17922   -12345    -8379    -8387   -12275 
  -18145   -22688   -22527   -18156   -12654    -8002    -7796   -13007 
  -16854   -15585   -13883   -14623   -16174   -18690   -21917   -21940 
  -18975   -18605   -20144   -18673   -15697   -14809   -16883   -21455 
  -24502   -21667   -15811   -14158   -18374   -22419   -21085   -17037 
  -15747   -17884   -20035   -18598   -13468    -8263    -6463    -9217 
  -14598   -19318   -21288   -20205   -19407   -21766   -23247   -20214 
  -15596   -12464   -12710   -17741   -22828   -20916   -13470    -8021 
   -8865   -15645   -23526   -24740   -17493    -9104    -6783   -10736 
  -16120   -17514   -13510    -8708    -7735   -10303   -14754   -18458 
  -18513   -17062   -17976   -21703   -25089   -23170   -16501   -12364 
  -14793   -19747   -21127   -18270   -15226   -14539   -15908   -18171 
  -18936   -17124   -15886   -17132   -18746   -19506   -19215   -17255 
  -14912   -13965   -13918   -13583   -12928   -13038   -15107   -18360 
  -20121   -19190   -16506   -13471   -12706   -15473   -18376   -18261 
  -15727   -12399   -10504   -12915   -19060   -23091   -21315   -18667 
  -20572   -24321   -24760   -20849   -14840   -11211   -14021   -20090 
  -21703   -17193   -10636    -7692   -12286   -20407   -24417   -22153 
  -16584   -12568   -13617   -17840   -19203   -14987    -9833    -8862 
  -11722   -16050   -19245   -19673   -19782   -21806   -23627   -22626 
  -18561   -13230   -10457   -12093   -14548   -15292   -16232   -17367 
  -16834   -15724   -15880   -17108   -18461   -18603   -16551   -14237 
  -15203   -18956   -20930   -18238   -12638   -10295   -15309   -22550 
  -23957   -18774   -13062   -11496   -12247   -12526   -13765   -16245 
  -16753   -15074   -14301   -14823   -15182   -15799   -16935   -16893 
  -16043   -17601   -21091   -21718   -18274   -14937   -13906   -13281 
  -12106   -11365   -12715   -17416   -22342   -21579   -15765   -12673 
  -15940   -20622   -21744   -19885   -17718   -16561   -15645   -14570 
  -15345   -18898   -22378   -21601   -16289   -12573   -14766   -17123 
  -14508   -13316   -19195   -26334   -26441   -18177    -9433   -10913 
  -20630   -25327   -20309   -12615    -9115   -11141   -15303   -18061 
  -19248   -19641   -18306   -14747   -11819   -12557   -15884   -18268 
  -17672   -15525   -14766   -15535   -15560   -14588   -13636   -13517 
  -16445   -21313   -21940   -15786    -8953   -10328   -19692   -26503 
  -23554   -14160    -7522   -10017   -18233   -23413   -21803   -16926 
  -13250   -12519   -15377   -18832   -17143   -11808   -11218   -17216 
  -22095   -21878   -20664   -20016   -17626   -14350   -12775   -12897 
  -13078   -13115   -15052   -19336   -21917   -19599   -15495   -14470 
  -16017   -17078   -17568   -17043   -15041   -15138   -17496   -17176 
  -14593   -14195   -16422   -18935   -20865   -22422   -22153   -18958 
  -15138   -13371   -14076   -16463   -18746   -18882   -16463   -12488 
  -10003   -13668   -21798   -24929   -18426    -9144    -6806   -11886 
  -16488   -16374   -14141   -13354   -15836   -20903   -24399   -21915 
  -14635    -9455   -11653   -18318   -22161   -20668   -16883   -13957 
  -12938   -14262   -17902   -21039   -20309   -17486   -17304   -20309 
  -22520   -20086   -14096   -10735   -13135   -17760   -20598   -21174 
  -20028   -16822   -13895   -15075   -18870   -20883   -19575   -15358 
  -11415   -12823   -17645   -17959   -13478   -11778   -15138   -17907 
