Origin Time       2024/04/02 04:24:00
Lat.              40.133
Long.             141.712
Depth. (km)       71
Mag.              6.0
Station Code      AOM001
Station Lat.      41.5269
Station Long.     140.9246
Station Height(m) 38
Record Time       2024/04/02 04:25:04
Sampling Freq(Hz) 100Hz
Duration Time(s)  92
Dir.              U-D
Scale Factor      7845(gal)/8223790
Max. Acc. (gal)   2.412
Last Correction   2024/04/02 04:25:04
Memo.             
[...]
    8920     8824     8680     8576     8611     8808     9076     9279 
    9313     9235     9265     9474     9603     9421     9082     8915 
    8974     8997     8932     9078     9423     9575     9436     9269 
    9205     9115     8926     8761     8673     8573     8437     8401 
    8567     8831     9040     9165     9209     9217     9269     9406 
    9610     9680     9450     9161     9094     9196     9263     9112 
    8761     8507     8536     8722     8824     8780     8780     8951 
    9135     9112     8951     8941     9175     9425     9440     9254 
    9108     9140     9286     9410     9406     9220     8928     8758 
    8788     8823     8779     8770     8843     8935     8976     8993 
    9109     9289     9331     9144     8899     8853     9001     9108 
    9131     9150     9180     9251     9339     9306     9162     9135 
    9244     9194     8953     8811     8912     9116     9197     9134 
    9136     9275     9333     9208     9050     8922     8807     8773 
    8847     9020     9236     9355     9408     9486     9439     9221 
    9077     9100     9162     9205     9155     8954     8788     8758 
    8729     8765     8897     8819     8498     8333     8456     8623 
    8749     8926     9084     9128     9082     8988     8992     9101 
    9086     8951     8927     9088     9261     9266     9190     9143 
    9024     8850     8773     8853     9078     9336     9439     9378 
    9313     9339     9429     9490     9467     9351     9169     9034 
    8920     8777     8745     8818     8783     8672     8680     8856 
    9086     9178     9100     9109     9277     9387     9409     9458 
    9475     9385     9248     9169     9121     9045     9042     9182 
    9275     9134     8884     8815     8907     8851     8644     8594 
    8788     9007     9097     9161     9265     9308     9278     9234 
    9173     9134     9123     9069     8931     8712     8542     8619 
    8864     8962     8908     8926     9013     9121     9300     9440 
    9386     9235     9150     9116     9036     8885     8762     8727 
    8712     8703     8695     8660     8623     8591     8640     8815 
    8949     8950     8938     8985     9009     8946     8932     9080 
    9324     9543     9628     9583     9560     9602     9531     9328 
    9182     9047     8833     8734     8811     8872     8822     8739 
    8785     8992     9194     9236     9140     9022     8945     8946 
    9034     9116     9161     9215     9269     9256     9120     8927 
    8861     8949     9043     9073     9053     8976     8870     8780 
    8738     8772     8850     8938     9005     9019     9020     9030 
    9019     9051     9165     9252     9242     9170     9073     8989 
    8920     8881     9026     9339     9531     9513     9485     9531 
    9514     9358     9248     9340     9452     9375     9255     9325 
    9456     9404     9246     9192     9259     9251     9042     8830 
    8812     8869     8810     8689     8625     8576     8525     8564 
    8635     8586     8463     8376     8341     8398     8532     8706 
    8908     8977     8869     8819     8916     9066     9250     9454 
    9614     9674     9612     9504     9490     9613     9678     9491 
    9212     9090     9055     8924     8837     8939     8981     8729 
    8359     8139     8175     8365     8568     8780     9000     9175 
    9362     9576     9717     9701     9591     9558     9593     9483 
    9217     9020     9030     9140     9136     8968     8772     8615 
    8487     8442     8525     8667     8802     8916     8996     9022 
    9069     9180     9197     9105     9119     9242     9286     9211 
    9092     9026     9039     9077     9163     9288     9320     9243 
    9138     9050     9070     9200     9246     9142     9067     9104 
    9155     9192     9192     9058     8851     8808     8932     9012 
    9018     9024     9022     9027     9086     9174     9232     9215 
    9101     8943     8926     9104     9181     8984     8772     8735 
    8735     8660     8557     8505     8623     8907     9100     9126 
    9219     9452     9637     9626     9435     9177     8953     8787 
    8702     8754     8927     9072     9121     9157     9150     9057 
    9005     9057     9101     9066     9000     9023     9158     9238 
    9131     8965     8919     8943     8955     9077     9316     9412 
    9224     8959     8873     8970     9072     9074     9026     8993 
    9015     9088     9142     9123     9051     9038     9182     9363 
    9356     9157     8939     8812     8764     8769     8838     8920 
    8931     8903     8954     9085     9186     9239     9273     9224 
    9111     9073     9119     9135     9090     9026     8997     9067 
    9208     9324     9378     9406     9410     9317     9086     8847 
    8734     8727     8776     8824     8775     8615     8487     8525 
    8715     8958     9132     9192     9244     9381     9506     9528 
    9447     9309     9189     9093     8977     8883     8823     8753 
    8766     8966     9186     9247     9223     9174     9023     8800 
    8698     8779     8846     8818     8843     8958     9116     9320 
    9463     9486     9463     9391     9310     9346     9414     9374 
    9242     9034     8766     8594     8586     8621     8625     8673 
    8749     8734     8673     8673     8737     8845     8922     8899 
    8860     8880     8934     8984     8993     8927     8812     8760 
    8888     9147     9355     9460     9540     9532     9355     9123 
    8916     8748     8653     8579     8564     8749     8986     9085 
    9157     9321     9493     9540     9436     9248     9074     8980 
    8984     9086     9282     9459     9506     9464     9374     9305 
    9346     9378     9339     9351     9340     9166     9019     9042 
    9035     8900     8762     8673     8669     8806     8950     8972 
    8980     9051     9084     9042     8982     8938     8911     8866 
    8780     8688     8668     8769     8916     8995     9016     9035 
    9001     8932     8939     8962     8892     8829     8815     8816 
    8889     9001     9053     9082     9184     9359     9532     9522 
    9239     8938     8884     8945     8915     8869     8926     9076 
    9246     9354     9373     9367     9386     9400     9447     9563 
    9583     9427     9275     9252     9238     9130     8972     8816 
    8679     8621     8723     8974     9261     9466     9498     9394 
    9290     9174     8986     8773     8560     8364     8256     8262 
    8397     8685     9027     9238     9335     9470     9601     9587 
    9418     9189     9019     8931     8878     8880     8970     9107 
    9201     9228     9244     9256     9208     9135     9126     9123 
    9061     9039     9097     9130     9081     9007     8989     9027 
    9019     8991     9065     9208     9285     9278     9235     9132 
    8938     8719     8518     8333     8247     8309     8472     8712 
    8991     9219     9381     9509     9551     9487     9425     9339 
    9165     9038     9015     9007     9023     9103     9174     9142 
    8973     8743     8561     8459     8424     8459     8542     8648 
    8823     9022     9128     9194     9266     9232     9084     8947 
    8900     8982     9213     9444     9522     9545     9580     9466 
    9216     9045     8915     8706     8538     8494     8538     8707 
    8951     9131     9240     9312     9293     9127     8864     8689 
    8712     8827     8939     9053     9153     9256     9387     9513 
    9622     9629     9441     9143     8866     8719     8796     9030 
    9234     9294     9317     9452     9622     9715     9720     9633 
    9463     9215     9019     9036     9104     9042     8977     8893 
    8635     8338     8187     8154     8190     8311     8488     8622 
    8672     8726     8824     8923     8992     9012     9051     9185 
    9304     9238     9059     9000     9124     9277     9308     9221 
    9086     8985     8999     9132     9256     9227     9088     8999 
    9001     9027     9072     9105     9067     9030     9019     8953 
    8896     8910     8928     8969     9011     8970     8957     9097 
    9217     9119     8915     8824     8915     9036     8985     8880 
    8954     9138     9267     9337     9408     9497     9549     9544 
    9560     9566     9459     9360     9360     9290     9117     9022 
    9045     9107     9088     8884     8689     8698     8733     8719 
    8826     9030     9148     9130     9018     8899     8924     9057 
    9022     8795     8656     8752     8992     9223     9340     9337 
    9255     9094     8896     8807     8892     9031     9073     8954 
    8829     8918     9184     9421     9499     9493     9547     9575 
    9439     9302     9297     9244     9081     9008     9061     9113 
    9120     9012     8823     8727     8660     8523     8487     8615 
    8776     8907     9046     9186     9274     9356     9435     9409 
    9298     9150     8966     8835     8773     8764     8792     8727 
    8654     8800     8988     8941     8739     8641     8788     9047 
    9194     9270     9413     9532     9487     9362     9356     9466 
    9467     9301     9148     9126     9216     9289     9154     8873 
    8679     8581     8536     8577     8627     8648     8723     8866 
    9066     9298     9447     9493     9495     9402     9201     9023 
    8957     8938     8850     8743     8741     8811     8914     9045 
    9103     9084     9121     9186     9147     9007     8838     8683 
    8583     8604     8777     9028     9247     9378     9414     9373 
    9234     9109     9221     9435     9375     9078     8861     8824 
    8858     8843     8766     8716     8707     8688     8707     8833 
    8995     9059     9049     9090     9128     9034     8887     8853 
    8914     8977     9085     9247     9355     9366     9344     9401 
    9537     9579     9498     9417     9321     9236     9227     9150 
    8958     8853     8857     8887     8958     9042     9115     9201 
    9205     9024     8808     8758     8833     8899     8918     8939 
    9074     9308     9467     9497     9459     9315     9101     9030 
    9105     9139     9072     8923     8741     8665     8692     8699 
    8745     8919     9144     9340     9525     9714     9815     9788 
    9763     9780     9725     9610     9504     9333     9100     8935 
    8857     8800     8756     8702     8661     8681     8692     8633 
    8587     8658     8762     8749     8658     8617     8642     8685 
    8815     9113     9302     9084     8753     8677     8815     9030 
    9177     9202     9292     9497     9630     9616     9582     9590 
    9525     9325     9015     8661     8487     8564     8637     8599 
    8577     8596     8656     8819     9053     9171     9063     8897 
    8870     8910     8903     8953     9119     9281     9382     9428 
    9441     9490     9513     9400     9186     8943     8785     8856 
    9018     8996     8839     8743     8714     8676     8631     8641 
    8760     8889     8903     8905     8993     9058     9103     9157 
    9070     8876     8718     8607     8600     8692     8791     8995 
    9317     9526     9545     9541     9539     9410     9209     9026 
    8866     8850     8900     8823     8843     9062     9192     9242 
    9320     9342     9367     9418     9358     9263     9300     9382 
    9390     9313     9154     9009     8947     8937     8988     9055 
    9146     9390     9660     9721     9679     9664     9639     9624 
    9643     9641     9617     9620     9718     9873     9860     9574 
    9207     8883     8564     8283     8189     8367     8633     8672 
    8499     8398     8468     8644     8862     9073     9283     9455 
    9524     9552     9591     9649     9736     9796     9771     9649 
    9420     9131     9008     9049     8937     8700     8568     8515 
    8507     8523     8494     8521     8718     8945     9015     9001 
    9080     9246     9394     9470     9408     9216     9074     8999 
    8857     8799     8919     8935     8726     8532     8502     8568 
    8691     8849     8968     9072     9126     8919     8534     8372 
    8540     8814     8938     8793     8600     8635     8823     8953 
    8946     8860     8815     8818     8768     8661     8598     8710 
    9057     9455     9710     9834     9864     9838     9805     9702 
    9540     9444     9382     9309     9315     9320     9235     9105 
    8838     8421     7994     7639     7473     7458     7426     7442 
    7624     7969     8398     8749     9016     9343     9670     9857 
    9914     9888     9779     9586     9366     9189     9132     9166 
    9117     9003     8914     8691     8351     8179     8168     8137 
    8090     8043     7956     7892     7884     7889     7960     8136 
    8294     8357     8359     8344     8415     8650     8897     9040 
    9223     9505     9752     9871     9780     9514     9309     9255 
    9175     9074     9162     9394     9624     9856     9949     9772 
    9479     9193     8974     8896     8816     8633     8472     8417 
    8527     8796     9065     9344     9678     9867     9805     9644 
    9427     9099     8764     8483     8160     7865     7765     7862 
    8050     8230     8418     8671     8862     8887     8943     9175 
    9437     9671    10012    10478    10883    11163    11429    11576 
   11452    11169    10775    10238     9674     9171     8791     8606 
    8519     8434     8364     8228     7967     7696     7577     7623 
    7722     7870     8147     8529     8938     9275     9509     9634 
    9589     9520     9563     9498     9271     9103     9027     8946 
    8923     9104     9402     9605     9641     9543     9448     9413 
    9269     9053     8991     9073     9146     9165     9180     9175 
    9117     8955     8617     8220     7978     7985     8247     8577 
    8837     9207     9683     9953    10003    10093    10346    10731 
   11018    10953    10709    10666    10862    11024    10894    10477 
   10000     9578     9198     8931     8723     8469     8363     8480 
    8488     8272     8054     7975     8036     8197     8371     8553 
    8849     9163     9239     9155     9236     9498     9675     9718 
    9813     9884     9678     9300     9063     8988     8870     8584 
    8208     7952     7869     7788     7677     7727     8028     8413 
    8658     8721     8708     8797     9134     9560     9792     9837 
    9819     9819     9886     9903     9814     9728     9648     9505 
    9243     8874     8526     8122     7618     7318     7331     7465 
    7686     8014     8341     8596     8812     9001     9104     9090 
    9042     9136     9373     9536     9603     9687     9769     9846 
    9892     9848     9810     9751     9433     8877     8330     7943 
    7758     7676     7524     7393     7456     7685     8046     8537 
    9062     9489     9679     9639     9595     9695     9745     9614 
    9510     9525     9486     9367     9324     9391     9474     9462 
    9304     9108     9011     8934     8762     8518     8309     8251 
    8329     8519     8870     9231     9312     9134     8991     8961 
    8904     8745     8478     8216     8186     8417     8677     8833 
    9038     9418     9755     9826     9755     9752     9873    10033 
   10069     9930     9672     9332     8988     8784     8808     8984 
    9084     9000     8923     8939     8873     8777     8777     8710 
    8542     8421     8317     8251     8371     8673     9063     9487 
    9867    10130    10284    10241     9876     9377     9019     8822 
    8719     8629     8505     8463     8519     8482     8282     8104 
    8156     8409     8591     8518     8378     8500     8887     9219 
    9379     9545     9740     9894    10081    10207    10123     9971 
    9875     9838     9899     9964     9919     9803     9675     9570 
    9477     9300     9035     8823     8683     8510     8445     8634 
    8818     8851     8926     9082     9283     9568     9837    10072 
   10366    10494    10237     9825     9483     9142     8764     8452 
    8268     8172     8116     8174     8456     8869     9186     9367 
    9490     9498     9412     9335     9285     9294     9367     9382 
    9282     9197     9192     9097     8910     8866     8924     8858 
    8733     8680     8676     8761     8901     8845     8610     8446 
    8333     8171     8093     8217     8468     8746     9027     9302 
    9524     9589     9501     9466     9510     9406     9105     8842 
    8756     8707     8626     8699     8908     9031     9065     9097 
    9136     9130     9032     8962     8947     8849     8800     8887 
    8943     9016     9103     9062     9023     9046     8992     8835 
    8611     8461     8561     8730     8672     8515     8507     8592 
    8708     8865     8984     9089     9256     9412     9525     9626 
    9714     9826     9941     9940     9813     9645     9447     9198 
    9040     9018     8862     8530     8297     8186     8074     7942 
    7792     7766     7889     7927     7877     7952     8163     8419 
    8735     9055     9221     9279     9427     9617     9599     9347 
    9142     9127     9128     9063     9058     9153     9261     9333 
    9420     9518     9514     9406     9298     9174     8970     8729 
    8518     8399     8417     8487     8484     8509     8683     8978 
    9302     9466     9369     9234     9292     9444     9471     9413 
    9410     9444     9466     9483     9539     9612     9593     9535 
    9603     9769     9894     9887     9768     9640     9494     9321 
    9205     9163     9229     9435     9675     9818     9765     9549 
    9373     9294     9189     8993     8799     8694     8619     8565 
    8649     8843     9032     9177     9246     9297     9416     9499 
    9425     9266     9163     9148     9136     9028     8818     8549 
    8257     8005     7855     7794     7805     7890     7963     8017 
    8201     8476     8641     8738     8938     9174     9282     9255 
    9236     9344     9494     9512     9363     9101     8891     8977 
    9298     9548     9591     9454     9273     9225     9252     9194 
    9076     8931     8760     8689     8758     8831     8845     8818 
    8788     8850     8981     9046     9086     9240     9467     9609 
    9699     9909    10142    10183    10041     9841     9722     9714 
    9617     9405     9275     9186     8978     8814     8880     8999 
    8955     8826     8752     8667     8469     8297     8259     8256 
    8259     8370     8577     8737     8769     8781     8862     8945 
    8978     9055     9262     9485     9552     9547     9620     9688 
    9633     9510     9377     9202     9019     8874     8719     8541 
    8457     8482     8509     8572     8780     9061     9212     9182 
    9126     9140     9143     9074     9012     8992     8878     8614 
    8360     8324     8525     8742     8839     8938     9104     9223 
    9202     9123     9131     9201     9227     9238     9255     9208 
    9116     9115     9231     9283     9175     9103     9190     9333 
