Origin Time       2024/04/02 04:24:00
Lat.              40.133
Long.             141.712
Depth. (km)       71
Mag.              6.0
Station Code      AOM025
Station Lat.      41.1797
Station Long.     140.4805
Station Height(m) 8
Record Time       2024/04/02 04:25:02
Sampling Freq(Hz) 100Hz
Duration Time(s)  111
Dir.              E-W
Scale Factor      7845(gal)/8223790
Max. Acc. (gal)   9.514
Last Correction   2024/04/02 04:25:02
Memo.             
[...]
   11040    11404    11900    12397    12645    12403    11651    10696 
    9929     9499     9440     9757    10184    10239     9759     9221 
    9290    10092    11165    12032    12672    13261    13579    13284 
   12559    11919    11669    11776    11978    12033    11828    11345 
   10750    10277     9980     9836     9834     9895     9952     9975 
    9930     9971    10287    10696    10947    11119    11344    11584 
   11753    11827    11871    11851    11634    11303    11133    11242 
   11473    11580    11437    11038    10509    10083     9896     9985 
   10401    11045    11569    11757    11765    11844    12039    12179 
   12056    11585    10813     9886     9128     8937     9416    10199 
   10771    10920    10756    10480    10316    10461    10935    11578 
   12128    12382    12318    11959    11408    10928    10741    10910 
   11263    11466    11503    11662    11923    11917    11483    10874 
   10478    10415    10535    10731    10933    11026    10817    10206 
    9540     9429    10041    10945    11630    11875    11739    11425 
   11168    11036    10895    10651    10345    10066     9887     9890 
   10152    10593    10966    11057    10901    10806    11068    11615 
   12137    12367    12220    11874    11585    11441    11434    11495 
   11454    11263    11063    11047    11304    11709    11988    12071 
   12106    11959    11377    10547     9818     9325     9134     9219 
    9381     9404     9174     8837     8770     9269    10357    11839 
   13317    14273    14359    13667    12603    11596    10976    10872 
   11115    11357    11416    11502    11892    12422    12768    12885 
   12721    12167    11441    10868    10519    10293    10029     9614 
    9208     9130     9482    10156    11032    11817    12129    11997 
   11789    11740    11881    12055    11971    11584    11151    10839 
   10639    10511    10465    10586    10863    11109    11268    11572 
   12160    12787    13149    13181    12880    12337    11817    11423 
   11076    10802    10615    10399    10095     9805     9736    10053 
   10683    11330    11761    12001    12158    12231    12132    11773 
   11198    10633    10293    10199    10172    10060     9992    10210 
   10704    11315    11989    12658    13155    13374    13289    12862 
   12139    11283    10484     9936     9784     9999    10438    10951 
   11425    11820    12114    12259    12233    12064    11761    11342 
   10912    10598    10442    10349    10234    10088     9875     9539 
    9228     9201     9516    10068    10744    11394    11898    12380 
   12958    13363    13262    12733    12035    11352    10909    10858 
   11133    11560    11913    12002    11809    11470    11138    10864 
   10600    10319    10119    10168    10519    10937    11095    10932 
   10624    10336    10120     9898     9625     9499     9655     9927 
   10157    10395    10766    11318    11902    12259    12224    11840 
   11376    11200    11433    11790    11840    11429    10822    10443 
   10566    11149    11769    11932    11550    10966    10562    10523 
   10848    11367    11853    12154    12190    11982    11610    11138 
   10629    10134     9678     9316     9139     9235     9589    10027 
   10361    10540    10624    10696    10849    11110    11410    11757 
   12206    12671    13011    13171    13142    12926    12565    12212 
   12005    11920    11848    11695    11345    10820    10307     9957 
    9876    10147    10690    11222    11454    11291    10852    10377 
   10096    10100    10265    10373    10296    10087     9936     9980 
   10184    10411    10547    10639    10808    10994    11113    11271 
   11519    11759    11951    12062    12028    11862    11603    11277 
   10989    10912    11121    11489    11813    11969    11988    11958 
   11816    11438    10905    10480    10404    10670    10990    11094 
   10967    10735    10481    10323    10362    10466    10431    10231 
   10012    10012    10389    11051    11793    12425    12708    12522 
   12070    11630    11248    10914    10683    10530    10392    10322 
   10444    10812    11319    11754    11921    11844    11807    12060 
   12523    12841    12776    12417    11932    11388    10860    10424 
   10156    10177    10419    10577    10484    10274    10192    10361 
   10669    10855    10787    10631    10597    10692    10882    11246 
   11805    12460    12981    13074    12652    11971    11394    11106 
   11103    11319    11649    11878    11803    11400    10866    10516 
   10515    10714    10922    11141    11454    11819    12015    11871 
   11481    11044    10708    10579    10735    11126    11495    11546 
   11261    10883    10713    10868    11207    11503    11611    11454 
   11061    10574    10183    10083    10399    11055    11793    12345 
   12606    12521    11931    10895     9976     9693     9990    10497 
   10932    11137    11114    11033    11056    11191    11407    11626 
   11620    11267    10812    10604    10692    10837    10790    10535 
   10304    10324    10621    10990    11238    11450    11799    12221 
   12511    12552    12343    11950    11492    11060    10746    10731 
   11040    11415    11583    11437    11075    10721    10525    10504 
   10590    10665    10631    10497    10314    10089     9926     9954 
   10152    10474    10912    11396    11842    12135    12152    11889 
   11488    11126    10825    10497    10211    10177    10493    11052 
   11595    11923    12028    11975    11808    11566    11296    11057 
   10841    10573    10265    10029     9954    10029    10176    10372 
   10662    11113    11659    11973    11826    11384    10864    10354 
    9975     9882    10150    10685    11242    11605    11634    11346 
   11032    10991    11214    11603    12070    12415    12495    12355 
   12031    11516    10897    10324     9954     9900    10226    10890 
   11641    12185    12468    12548    12415    12064    11477    10667 
    9841     9283     9089     9184     9514    10044    10674    11287 
   11722    11846    11711    11450    11136    10822    10590    10498 
   10540    10646    10813    11157    11700    12206    12390    12221 
   11890    11526    11160    10867    10674    10571    10604    10789 
   11079    11404    11685    11912    12079    12136    12064    11874 
   11672    11607    11674    11800    11948    12009    11890    11692 
   11601    11641    11645    11502    11292    11165    11144    11107 
   10997    10878    10755    10615    10589    10836    11375    12020 
   12426    12275    11573    10669     9910     9421     9234     9351 
    9774    10426    11076    11551    11854    11975    11911    11747 
   11564    11373    11164    11001    11018    11230    11453    11539 
   11576    11624    11615    11549    11437    11155    10673    10196 
    9956    10050    10392    10743    10963    11090    11140    11113 
   11145    11419    11904    12275    12259    11981    11773    11784 
   12024    12406    12668    12575    12128    11442    10633     9801 
    9032     8429     8151     8365     9078    10088    11098    11853 
   12248    12307    12106    11761    11346    10882    10498    10373 
   10492    10737    10980    11122    11244    11504    11897    12245 
   12337    12093    11628    11146    10822    10683    10608    10551 
   10627    10903    11319    11750    11992    11839    11279    10582 
   10084     9904     9972    10176    10447    10778    11022    10949 
   10658    10474    10505    10635    10698    10606    10494    10570 
   10859    11221    11526    11701    11697    11587    11565    11708 
   11893    11983    11901    11661    11384    11140    10922    10805 
   10916    11190    11348    11187    10751    10224     9833     9776 
   10131    10778    11450    11865    11807    11295    10686    10354 
   10346    10492    10629    10646    10535    10411    10415    10652 
   11148    11800    12398    12699    12604    12260    11893    11619 
   11427    11234    10975    10705    10557    10561    10585    10563 
   10608    10732    10777    10702    10633    10638    10659    10616 
   10520    10482    10521    10563    10567    10524    10552    10783 
   11079    11198    11126    11082    11241    11522    11766    11940 
   12033    12031    11944    11821    11807    12052    12514    12978 
   13200    13015    12465    11855    11449    11188    10917    10632 
   10335    10057     9956    10107    10449    10929    11433    11762 
   11820    11657    11362    10939    10423    10137    10349    10906 
   11518    12013    12343    12532    12555    12411    12237    12109 
   12012    11974    11969    11927    11885    11842    11703    11380 
   10849    10184     9552     9153     9124     9467     9995    10440 
   10681    10789    10841    10890    11040    11358    11716    11884 
   11709    11257    10806    10611    10700    10906    10975    10777 
   10432    10185    10193    10473    10891    11217    11296    11252 
   11334    11565    11786    11939    12046    12139    12264    12329 
   12166    11801    11422    11184    11107    11049    10895    10713 
   10654    10729    10759    10605    10357    10242    10457    10955 
   11387    11508    11538    11780    12121    12221    11958    11487 
   11057    10827    10720    10596    10482    10476    10584    10787 
   11175    11784    12372    12606    12391    11884    11345    10937 
   10589    10242    10049    10142    10419    10656    10768    10886 
   11098    11221    11101    10895    10816    10876    10971    11010 
   10922    10717    10501    10368    10390    10652    11064    11384 
   11500    11491    11489    11607    11925    12382    12582    12224 
   11578    11021    10611    10346    10280    10365    10461    10443 
   10319    10251    10393    10697    10984    11088    10964    10719 
   10535    10542    10764    11149    11493    11545    11241    10709 
   10189     9960    10156    10685    11261    11583    11599    11466 
   11346    11375    11543    11647    11539    11277    11038    10941 
   10926    10898    10887    10937    11016    11028    10905    10714 
   10633    10783    11117    11481    11765    11908    11919    11878 
   11823    11720    11547    11329    11105    10932    10827    10739 
   10621    10508    10454    10447    10440    10459    10552    10601 
   10469    10297    10319    10543    10828    11022    11024    10848 
   10648    10619    10806    11094    11333    11403    11319    11236 
   11215    11187    11119    11095    11176    11260    11236    11211 
   11345    11562    11666    11570    11292    10891    10516    10345 
   10411    10621    10854    10962    10894    10750    10627    10565 
   10598    10720    10868    10967    11051    11303    11807    12347 
   12573    12370    11971    11664    11484    11399    11462    11638 
   11789    11823    11723    11601    11601    11696    11805    11958 
   12124    12183    12087    11870    11583    11317    11171    11241 
   11645    12376    13180    13803    14207    14345    14119    13552 
   12764    11853    10932    10179     9720     9466     9155     8645 
    8108     7815     7920     8417     9081     9610     9860     9814 
    9535     9258     9251     9610    10204    10696    10922    11152 
   11620    12193    12563    12528    12100    11515    11106    11102 
   11480    11962    12240    12247    12191    12239    12312    12310 
   12285    12330    12522    12829    13039    13034    12974    12982 
   13049    13285    13772    14359    14890    15265    15255    14634 
   13447    11994    10650     9633     8978     8685     8723     8982 
    9293     9555     9832    10239    10766    11246    11557    11749 
   11902    12008    12055    11994    11716    11245    10800    10644 
   10920    11433    11842    12012    11961    11605    10864     9973 
    9389     9228     9143     8831     8361     8137     8529     9409 
   10304    10881    11001    10663    10081     9560     9305     9375 
    9697    10157    10717    11327    11815    12017    11952    11673 
   11110    10316     9632     9383     9616    10123    10606    10848 
   10797    10516    10168     9931     9861     9880     9840     9695 
    9612     9695     9909    10268    10779    11331    11851    12294 
   12561    12611    12474    12154    11747    11488    11524    11688 
   11699    11500    11187    10837    10571    10492    10531    10542 
   10469    10281     9979     9714     9674     9867    10150    10362 
   10355    10083     9724     9572     9814    10489    11495    12537 
   13271    13625    13767    13724    13336    12509    11307     9996 
    8992     8583     8716     9105     9490     9771    10002    10318 
   10824    11441    11907    11994    11750    11485    11483    11778 
   12262    12694    12706    12189    11396    10554     9751     9088 
    8652     8523     8814     9664    11133    12958    14685    16027 
   16864    17113    16785    16048    15210    14540    14114    13875 
   13755    13782    14116    14719    15288    15743    16156    16378 
   16167    15381    13995    12047     9705     7435     5767     4977 
    5185     6289     7905     9630    11160    12046    11832    10635 
    9173     7924     6855     5995     5275     4310     3133     2228 
    1933     2442     3769     5725     8019    10239    11898    12598 
   12349    11448     9863     7518     4843     2502     1154     1213 
    2497     4622     7348    10223    12607    14168    14986    15240 
   15075    14728    14326    13865    13548    13501    13678    14184 
   15074    16221    17320    17998    18175    18033    17656    16951 
   15907    14562    12870    10901     8877     7106     5976     5765 
    6531     8093    10018    11865    13448    14855    16183    17363 
   18366    19283    20102    20710    20875    20297    19067    17459 
   15371    12752     9904     7383     5954     6025     7279     9001 
   10521    11499    11800    11531    11028    10447     9811     9140 
    8375     7506     6642     6018     5896     6334     7209     8247 
    9153     9930    10797    11873    12985    13641    13437    12467 
   11205    10180     9744     9937    10482    10980    11217    11169 
   10812    10258     9753     9405     9327     9740    10801    12438 
   14261    15849    16973    17558    17705    17536    17149    16688 
   16067    15039    13628    12129    10794     9792     9217     9001 
    9070     9466    10137    10929    11777    12630    13355    13749 
   13666    13279    12853    12294    11394    10104     8433     6539 
    4834     3762     3545     4126     5242     6573     7946     9390 
   11020    12704    13953    14268    13474    11769     9714     8009 
    7037     6732     6907     7456     8243     9242    10552    12109 
   13736    15349    16752    17591    17697    17123    16023    14752 
   13679    12791    11875    10864     9823     8888     8168     7630 
    7157     6756     6516     6346     6134     6146     6848     8280 
    9938    11241    11982    12355    12761    13470    14438    15511 
   16499    17151    17382    17336    17059    16356    15028    12991 
   10249     7206     4637     2976     2176     2180     2832     3824 
    5040     6458     8047     9871    11853    13726    15255    16255 
   16507    15843    14543    13266    12170    10978     9913     9163 
    8228     6966     5846     5108     4760     4590     4229     3824 
    3974     5046     6983     9350    11504    13007    13765    13959 
   13923    13992    14381    15117    16015    16785    17116    16738 
   15587    13899    12137    10878    10544    11044    11844    12449 
   12738    12949    13192    13176    12704    12032    11515    11263 
   11264    11557    12167    12922    13487    13660    13528    13390 
   13575    14176    14972    15581    15611    14958    13900    12760 
   11715    10735     9666     8640     7998     7780     7816     7973 
    8124     8299     8714     9489    10451    11217    11497    11222 
   10507     9667     8919     8120     7076     5795     4486     3478 
    3049     3204     3592     3790     3672     3360     3068     3011 
    3384     4255     5443     6646     7751     8807     9741    10335 
   10490    10309    10062    10062    10396    10978    11746    12703 
   13848    14968    15753    16218    16656    17199    17784    18296 
   18597    18733    18932    19214    19279    18847    17967    16941 
   16047    15346    14720    14118    13663    13446    13459    13836 
   14796    16289    17990    19464    20287    20275    19515    18242 
   16791    15496    14526    13745    12919    12043    11273    10660 
   10130     9537     8829     8125     7524     7063     6824     6862 
    7149     7587     7936     8027     7933     7707     7291     6732 
    6141     5570     5094     4828     4888     5432     6596     8284 
   10164    11844    13050    13682    13791    13454    12665    11385 
    9730     8070     6783     5958     5467     5247     5433     6161 
    7281     8429     9451    10503    11691    12879    13821    14354 
   14467    14166    13464    12403    11063     9745     8911     8830 
    9576    11088    12914    14299    14864    14901    14825    14755 
   14663    14494    14106    13383    12530    12006    12135    12900 
   13990    14877    15264    15279    15161    15117    15309    15759 
   16333    16773    16888    16698    16276    15763    15427    15340 
   15242    14832    13981    12826    11746    11134    11082    11435 
   12097    12995    13976    14944    15823    16418    16398    15510 
   13857    11871    10018     8573     7611     7061     6750     6466 
    6012     5278     4390     3636     3246     3227     3399     3674 
    4178     4988     5879     6466     6596     6436     6166     5836 
    5474     5054     4465     3690     2970     2690     3059     3937 
    5026     6102     7095     8029     8901     9713    10489    11107 
   11408    11488    11686    12279    13166    13976    14509    14808 
   14821    14447    13784    13059    12471    12125    12004    12036 
   12222    12588    13099    13645    14123    14517    14889    15291 
   15773    16252    16472    16339    16148    16224    16600    17109 
   17479    17412    16679    15186    13103    10889     9031     7703 
    6774     6142     5798     5671     5683     5772     5861     5941 
    6126     6561     7308     8376     9718    11151    12359    12982 
   12699    11470     9760     8216     7221     6724     6334     5737 
    4990     4386     4248     4754     5780     7003     8097     8861 
    9331     9699    10168    10879    11853    12916    13810    14323 
   14416    14242    13940    13539    13031    12380    11688    11308 
   11654    12920    14860    16796    18079    18470    18072    17197 
   16202    15230    14284    13554    13413    14021    15057    15904 
   16087    15610    14852    14160    13543    12771    11765    10820 
   10314    10347    10773    11365    11911    12268    12366    12060 
   11281    10257     9328     8711     8563     8973     9772    10467 
   10566     9973     9026     8208     7769     7628     7697     8056 
