Origin Time       2024/04/02 04:24:00
Lat.              40.133
Long.             141.712
Depth. (km)       71
Mag.              6.0
Station Code      AOM005
Station Lat.      41.2949
Station Long.     141.1972
Station Height(m) 10
Record Time       2024/04/02 04:25:07
Sampling Freq(Hz) 100Hz
Duration Time(s)  89
Dir.              U-D
Scale Factor      7845(gal)/8223790
Max. Acc. (gal)   9.560
Last Correction   2024/04/02 04:25:07
Memo.             
[...]
   39109    39401    39121    40022    41590    40919    39166    38608 
   38691    38821    38950    39604    40894    40587    39199    40335 
   42218    41227    39984    40825    41176    40209    39973    40227 
   39348    39044    41192    42264    39595    37265    38466    40648 
   40810    39217    38218    38485    37959    36902    38187    40636 
   40740    39888    40907    42441    42442    41108    40053    40312 
   40467    39997    40540    41451    41087    40323    39995    39178 
   38124    38808    40790    41343    40333    39403    39167    39514 
   39027    37503    37631    38915    37998    36676    38734    41825 
   42184    40775    39582    39320    39910    40239    40494    40684 
   39398    38345    39077    39368    39280    39873    39336    38130 
   38453    39160    39613    41727    44377    44571    42747    40725 
   39208    38581    38573    38759    39375    40078    39847    38996 
   39432    41284    41634    39174    36940    37554    39371    40259 
   40306    39528    38533    38696    39425    39883    40528    41327 
   41557    40605    39337    39592    41131    42333    42471    41135 
   38904    37876    38325    38754    39598    41297    41998    40536 
   38391    37457    37459    37417    37578    37962    38051    38573 
   40559    42584    42309    40672    40749    42076    41400    39406 
   38967    39553    39748    39305    38773    39777    41555    41852 
   40834    38661    36551    37642    40867    42290    41064    39384 
   39349    40143    40301    40140    39465    38560    38205    37546 
   37189    38364    39433    39236    39033    40103    41700    41860 
   40811    40282    40230    40039    39857    39712    39892    40568 
   40911    40316    39452    39733    41440    42603    41870    40405 
   39645    40278    41670    41330    38650    36965    38450    40566 
   40396    39117    39183    39831    38865    37141    36922    37652 
   38079    38703    39239    38861    38639    39145    38955    38360 
   39333    41392    42148    41511    41553    41937    40817    39015 
   38115    38500    39718    40365    40405    40714    40940    41237 
   41191    39572    38179    38865    40086    40551    40165    39091 
   38421    38612    38862    38468    37821    38429    40092    40648 
   39880    39164    39420    40752    41640    41071    40377    40784 
   41832    42422    42333    41791    40366    38360    37214    37220 
   37578    38364    39864    40992    40540    39849    41091    42491 
   41331    39344    38674    38695    38708    38448    38368    39226 
   40192    40732    41077    40651    40011    39899    39370    38676 
   38766    39055    39519    40586    41612    41922    41133    39753 
   38799    38340    38734    39737    39708    38979    38790    39258 
   40176    39746    37820    37943    39798    39857    39307    40432 
   41758    41839    41166    40207    39263    39376    40475    40724 
   39912    39501    39563    39213    38453    38233    39152    40297 
   40498    40462    41129    41667    41598    41204    40639    40906 
   41646    41099    39749    38875    38593    38375    38026    38797 
   40398    40922    40852    40676    39700    38974    39171    39430 
   39285    38527    38164    39428    40570    39702    38281    38198 
   39040    39858    40675    41018    40135    39237    39640    40026 
   39388    39005    38974    38236    37862    38967    40366    40678 
   39969    39521    39726    39545    39355    40084    40691    40332 
   39960    40626    42111    42834    41948    41079    41150    40477 
   38724    37947    38642    39363    39671    40124    40366    40116 
   39854    39117    38340    39241    40647    40232    38507    37477 
   38195    39415    39804    40012    40100    40016    40979    42573 
   42813    41311    39688    39074    39013    39216    39310    38546 
   37681    37875    38772    39393    39573    39935    40396    40285 
   39877    40188    41145    40984    39829    40042    41076    40578 
   38901    37917    38335    39382    39653    38520    37365    38098 
   40255    41458    40379    38657    38869    40319    40308    38998 
   38824    40258    41574    41916    41501    40791    40468    39947 
   39232    39818    40753    40776    40529    39695    38794    39355 
   40375    39885    38056    37119    38183    39561    40143    40336 
   40319    40861    41924    41532    39872    39474    40640    41605 
   41515    40801    40385    40444    40000    38952    38570    39374 
   40074    39233    38024    38441    39492    39664    39170    38165 
   37446    38153    39590    40263    39802    39835    41395    41831 
   39722    38244    39356    41338    42020    41108    40400    40158 
   39113    38622    39066    38573    38175    39102    40281    40817 
   40228    39432    39420    39464    39762    40525    40271    38985 
   38422    39247    40738    41716    41546    40994    40900    41123 
   41116    39919    37909    37461    38788    39691    39679    39874 
   40761    41689    41557    40343    39333    39224    39542    39776 
   39559    38720    37887    38009    39129    40132    40203    39870 
   39586    39436    39835    40092    39550    39324    39737    40020 
   39950    39421    38948    39104    39322    39307    39363    39707 
   40139    39949    39451    39638    40275    40734    41145    41478 
   41310    40832    40659    41237    42198    41993    40560    39588 
   39221    38850    38504    38122    37794    37675    38415    39997 
   40393    39279    38358    38261    39316    40621    40382    39217 
   38743    39646    41580    42620    41642    40093    39599    40215 
   40711    40088    39172    38898    38828    39016    39916    40826 
   40815    40024    39399    39507    39575    38946    38688    39046 
   38817    38722    39544    39919    39942    40637    41384    41670 
   41134    39926    39586    40032    39922    39559    39563    39799 
   39904    39482    38763    38059    37469    37785    39016    39756 
   39850    40386    40995    40622    39858    39706    39679    39248 
   39278    40313    41361    41384    40590    40073    40275    40273 
   39744    39371    38720    37612    37435    38538    39737    40134 
   39924    39823    39758    39602    39942    40602    40917    41233 
   41947    42418    42010    41250    41150    41160    39992    38762 
   38870    38915    38368    38554    38816    38303    38398    39760 
   40872    40941    41223    41771    41216    40250    39996    39976 
   39877    39406    38449    38002    38437    39509    41072    41898 
   41382    40664    39800    38457    38030    38696    38607    37543 
   36819    36963    37967    39904    41972    42606    41723    40829 
   40433    39712    38641    38334    39078    39825    39949    39960 
   40675    41752    41577    39896    37982    36991    38009    39923 
   40219    39453    39255    39459    39572    39097    38372    38701 
   40000    41187    41859    42187    42570    43073    42866    41079 
   39089    39125    40124    39887    38920    38379    38214    38493 
   39247    39610    39440    39634    39939    39703    39766    40585 
   40720    39586    38925    39591    40186    39679    38766    38557 
   38828    38847    38975    39725    40896    41501    40498    38897 
   38869    40500    41526    40868    40340    40741    40635    40076 
   39627    38472    37308    37335    37557    37616    38704    40667 
   41847    41481    40809    40648    40321    40080    40116    39310 
   38159    38221    39356    40228    39916    39329    39876    40902 
   41179    40815    40301    39776    39364    39280    39555    39784 
   39744    39888    40174    39876    39241    39348    40159    40069 
   38750    38624    40493    41760    41246    40632    40502    39556 
   38022    37350    37469    37890    38624    39668    40824    41251 
   41027    40801    40076    39263    39182    39761    41170    42052 
   41033    39908    39814    39523    38916    39025    39773    39860 
   38954    38607    39501    40400    40601    40184    39248    38372 
   37952    38157    39040    40045    41091    41908    41470    40740 
   41199    41540    40517    38881    37633    37381    37910    39042 
   41224    43239    43158    41862    41094    40290    39081    38859 
   39779    40838    42013    42421    40497    38079    38392    40363 
   40829    39977    39810    40014    39364    38754    39006    38831 
   37909    37554    37878    38470    39163    38956    37758    37201 
   38296    40344    41978    42651    42508    41504    40435    40473 
   40811    40406    39926    39541    38664    37991    38522    39503 
   39636    38966    38322    38422    38981    39033    39145    39714 
   39326    38723    39825    41434    42097    41779    40560    39866 
   40189    39974    39677    40142    40356    40622    41273    40711 
   38875    37681    37943    39204    40556    40760    40016    39785 
   40084    40383    41138    42076    41945    40354    38469    38034 
   39414    41045    41800    41794    40990    40439    41380    41951 
   40369    37947    36614    37309    38453    38024    37908    39345 
   40342    40539    40197    39383    39857    41378    41733    40873 
   40089    40545    41762    41489    39946    38934    38508    38915 
   39870    39448    38017    37762    38353    38178    37354    37180 
   38520    40479    40809    39117    37696    38349    40598    42454 
   42452    41161    39860    39498    40670    42253    42661    42391 
   42155    41089    39426    38703    38156    36487    35318    36136 
   38078    39494    39222    38578    39609    41080    41264    41215 
   41821    42182    41863    41332    40603    39622    38630    38063 
   38873    40311    39995    38356    37825    38767    39754    39822 
   39681    40529    41763    41843    40706    39604    39402    39752 
   39931    39950    40293    41049    41638    41577    40976    39910 
   38433    37342    37606    39027    40084    39313    37629    37365 
   38283    38877    39158    38846    37862    37635    38992    41697 
   44442    44957    42888    40498    39672    39785    39279    38241 
   38105    39478    40749    40587    40481    41254    41516    40919 
   39688    37638    36225    37330    40123    42025    41793    40421 
   39492    39380    39241    38411    37817    38794    40298    40841 
   41180    41316    40239    39156    39619    40792    40960    39849 
   38708    38684    39822    40860    40767    40587    41199    41658 
   41088    39309    36927    35332    35306    36672    38604    40420 
   41905    42241    41920    42869    44204    44329    43843    42599 
   40602    39046    38333    39205    41241    41409    39476    38168 
   37447    36502    36729    38153    39433    40571    41081    39980 
   38352    37709    38001    38672    39467    40585    41955    42444 
   41615    40617    40043    39544    38971    38146    36958    36251 
   37111    38963    40585    41530    40992    39259    37818    36882 
   37184    38836    38944    37017    36366    38271    40578    41192 
   40778    41161    42130    42198    41445    41547    42560    42066 
   39069    36342    36649    38215    38075    37015    37106    38912 
   41431    42334    40759    38438    37386    38045    39010    40096 
   42831    45789    45889    44103    44100    46025    46109    42886 
   39163    37552    38244    40108    41515    41787    41531    40676 
   39383    38753    37975    35775    33633    33068    33542    34974 
   38014    40775    40000    37222    37000    39221    40894    41524 
   42184    43293    43848    43089    41871    40435    38758    38276 
   39181    39434    38298    37569    38851    40798    40468    38080 
   37177    39318    42314    43654    43096    41940    40721    38809 
   37172    37442    38106    37882    38445    40046    41492    42701 
   43078    41608    38704    35753    34491    35490    36640    36090 
   34932    35270    37575    40149    41341    41305    40792    40143 
   39278    38565    39699    42611    44180    43704    43864    45094 
   45365    44316    43251    42472    41260    39588    38155    37611 
   38191    39195    39218    37995    37119    37224    36994    36219 
   36096    37080    38516    39552    40220    40400    39642    39333 
   40363    40419    38547    37570    38179    37665    36593    38213 
   41958    44928    46226    45801    43433    40018    37354    36929 
   38430    39938    40798    41242    40208    38079    36810    35811 
   34357    34022    35727    39401    43140    43802    42318    41794 
   42484    43730    44959    44828    42961    41018    40716    41057 
   40146    38087    35829    34596    34994    35672    35681    35419 
   35800    37798    40046    40578    40618    41675    43011    43625 
   43453    43417    44018    44531    45199    46361    46153    43452 
   39807    37102    36184    36769    37859    38090    36649    35440 
   36871    39411    40012    38626    37570    38322    40038    41674 
   43131    43359    42373    42489    42996    40765    36477    33868 
   35471    39649    41756    40602    38904    37976    37197    35333 
   32224    30142    30712    33440    37550    42060    45936    48446 
   48787    46700    42923    38589    35070    34402    37932    44018 
   48934    49825    47096    44367    43992    44443    43260    39453 
   34458    31918    33168    35710    38317    41418    43480    42897 
   40490    38334    37901    38569    38847    38805    39529    41787 
   44923    46221    43688    38911    35095    33979    35634    38167 
   38623    36733    34079    31573    30815    32566    35714    39685 
   43043    43599    42579    43189    45181    45291    43001    40802 
   39610    39156    39687    41135    43339    45496    45820    44027 
   41774    40294    39135    36763    33507    32298    34234    37501 
   40952    43355    42333    38823    36555    36340    37015    38353 
   40089    41428    41989    42213    42283    42087    42699    44635 
   45906    45431    44914    45063    44539    42816    40806    39355 
   38240    36790    35097    34103    34616    35865    36485    37358 
   39735    42097    42600    41320    39510    38722    38884    38476 
   37561    37714    39471    41778    43411    43125    40583    38805 
   39827    41046    40972    39695    36857    35330    37027    38279 
   36417    33642    33278    36023    40009    43452    45264    44788 
   42518    39825    38232    38173    38221    37523    37237    38097 
   40008    43141    45704    44776    41358    39078    38711    38997 
   40086    41643    41943    41305    40655    39355    38578    40487 
   43922    45708    44606    42025    39177    36612    36119    37972 
   39772    40562    40938    41045    40988    40402    39183    38329 
   38383    39226    39737    38601    36837    35418    34577    35721 
   38249    40335    42445    44109    43552    41424    39496    37978 
   36109    34453    35267    39244    43596    44539    41555    38560 
   38157    38007    36377    35068    35529    37566    39675    39355 
   37307    37085    38566    39306    39425    39762    41011    43615 
   45091    43424    41054    40674    42175    44081    44625    43800 
   43987    45690    45922    43777    41929    41021    39849    38731 
   37513    36097    36039    36697    35665    33879    34452    37228 
   38948    39012    39328    39842    40300    41519    42851    43322 
   43268    43232    42909    41640    40455    40221    38743    35407 
   33268    33813    35807    37640    38996    40608    41767    41404 
   40355    39827    40296    41407    41868    40412    37076    34006 
   33612    35957    39617    42854    44410    44613    43653    41266 
   38670    37243    37102    37670    38206    38821    39900    40737 
   40509    38836    36189    34676    35349    36971    39168    42171 
   44551    44618    42564    40602    40108    39795    39172    39363 
   39671    39152    38924    39339    39384    39197    39793    41161 
   41867    41050    40070    39833    39440    39503    41434    43622 
   43680    42313    41650    42392    43301    42489    40155    37887 
   35851    34542    34881    35885    37212    38986    39814    40099 
   40671    39811    38234    39167    41269    41188    40309    40601 
   40674    39908    39210    38973    38974    38577    38338    39116 
   39393    37984    36189    35494    36528    38583    39684    39094 
   38778    41056    44776    46526    45592    43627    41662    40736 
   41376    42211    42479    42643    42385    41501    40427    39623 
   39289    38304    36279    35144    35218    34982    34805    35441 
   36396    37822    39807    41210    41868    42866    43835    43960 
   44265    44991    44651    43335    42303    41659    41037    40463 
   39771    38715    38033    38187    37933    36968    36521    36205 
   35202    34600    35490    37825    40494    41574    41014    40759 
   41654    43302    44972    46084    46807    46367    43158    38272 
   35070    34935    35920    35910    35742    36864    38531    40022 
   41561    43228    44950    45384    43325    40522    39074    39074 
   39773    40159    40296    40938    41659    42010    41428    39069 
   35978    34005    33716    34267    34194    34091    35540    37165 
   37450    37731    38488    38669    38772    39403    39177    37197 
   35226    35193    36483    37725    39272    41926    44887    46646 
   46824    46236    45742    45831    46558    46851    45819    44521 
   43673    42352    40170    37720    36001    35698    36070    36589 
   37948    39784    40598    40329    40525    41316    40803    38870 
   37177    35916    35434    37239    40655    42647    41813    40319 
   40741    42708    44379    44806    43845    41985    40556    40671 
   41690    42237    42400    42419    41432    39676    38313    37336 
   36562    36703    38273    40188    40355    38535    36616    35903 
   36391    37357    37739    37062    35478    33259    31151    30361 
   31488    33538    35270    37142    39792    42373    43480    43214 
   44111    46832    48479    48370    47881    46630    44784    43181 
   41137    38665    37261    37463    38209    38300    37876    37876 
   38225    38179    37839    37693    37565    37035    36277    36186 
   37673    40016    41482    42295    43799    45500    45983    44938 
   42984    41003    39727    38924    37548    35765    35140    35927 
   36883    37619    38530    39451    40117    41006    42373    43121 
   42234    40298    38638    38641    40814    43541    44988    44830 
   43501    41866    40497    39367    38699    38257    37507    37227 
   37933    38182    37131    35910    35101    34472    34746    36351 
   38406    40234    41489    41966    42246    42654    42824    43143 
   43845    43841    42757    41628    40771    39623    38248    37285 
   37112    37562    38380    39619    40932    41415    40922    40181 
   39247    37806    36931    37598    38696    39368    40108    40443 
   39258    36979    35230    35154    36448    37894    39039    40138 
