Origin Time       2024/04/02 04:24:00
Lat.              40.133
Long.             141.712
Depth. (km)       71
Mag.              6.0
Station Code      AOM004
Station Lat.      41.4064
Station Long.     141.4477
Station Height(m) 29
Record Time       2024/04/02 04:25:01
Sampling Freq(Hz) 100Hz
Duration Time(s)  88
Dir.              E-W
Scale Factor      7845(gal)/8223790
Max. Acc. (gal)   10.347
Last Correction   2024/04/02 04:25:01
Memo.             
[...]
    3939     4032     4430     4888     4579     2720     1166     2581 
    4749     4386     3793     4966     5061     3642     3125     2882 
    2592     3657     4380     3121     2542     4433     6218     5221 
    2636     2161     4132     4545     3244     3831     4885     3794 
    3159     4245     5007     4916     3777     2520     3565     4924 
    3167      959     1972     4550     5854     5215     3110     1498 
    2235     3924     4186     3843     4556     5296     4993     4163 
    3497     3994     5178     5077     4364     4611     4347     2978 
    2874     3726     3106     2535     3866     5100     5495     5867 
    4837     2648     2309     3276     2776     2220     3438     4174 
    3454     3322     4050     4425     4345     3929     3353     3871 
    5575     5489     2712     1413     3113     4552     5121     5529 
    4264     2367     2675     4313     5049     4909     4183     3073 
    2972     3871     3782     2729     2716     3609     3975     4287 
    4504     3424     2764     4105     4657     3369     3330     4619 
    4251     2828     3252     4907     5287     4606     4089     3730 
    3689     3807     3375     2961     3429     4379     5003     4773 
    3886     3265     3504     4166     4052     3091     2944     3807 
    4153     4216     4692     4145     2581     2786     4233     3537 
    2203     3797     6293     6151     4271     2906     2825     3900 
    4287     2660     1572     2979     4610     5053     5092     4401 
    3690     4367     4541     2933     1973     2729     3642     3898 
    3662     3514     4201     5151     4768     2933     1849     3451 
    5987     5749     3149     2281     4128     5873     5324     2787 
    1220     2889     5146     4693     2933     2467     3523     4811 
    4899     4058     3927     4509     4066     2695     2845     4710 
    5340     3867     2871     3611     4502     4541     4114     3530 
    3391     3969     3788     2412     2505     4918     6168     4279 
    2007     2486     5015     6323     5086     3168     2366     3015 
    4484     4784     3002     1576     2343     3454     3238     3115 
    4374     5613     5333     4113     2956     2403     3206     4737 
    5019     3970     3126     3303     4494     5807     5544     3384 
    1772     2574     4437     5783     5722     3148      440     1818 
    5522     6583     4874     3024     2478     3744     5069     4414 
    3322     3469     3592     3316     4156     5329     4500     2481 
    1823     2810     4326     5144     4197     2664     3095     4990 
    5094     3208     2650     3915     4827     5152     5032     4040 
    3267     3229     2961     2994     4062     4464     3280     2635 
    3801     5061     5030     4529     4031     3100     2479     2778 
    3292     3748     4216     4475     4483     4260     3994     3901 
    3780     3211     2377     2508     3827     4437     3663     3279 
    4086     4633     4002     3411     3796     4247     4135     4075 
    4449     4889     4768     4059     3798     4496     5063     4550 
    3657     3638     4303     4368     3708     3154     2929     3118 
    3744     4151     3897     3069     2029     2030     3678     4973 
    4174     2538     1953     2857     4499     5111     4020     3408 
    4476     5031     4460     4810     5464     4657     3661     3647 
    3964     4495     4800     4052     3609     4665     5008     3229 
    1795     2340     3161     2902     2463     2760     3427     4032 
    4450     4428     3991     3478     3306     4004     5421     5995 
    4425     2238     2081     3775     4959     4384     2944     2620 
    4126     5714     5792     4850     3592     2560     3277     5314 
    5402     3430     2497     2585     2542     3711     5481     4742 
    2238     1633     3218     4954     5697     4631     2517     2030 
    3697     5155     5178     4437     3334     2420     2667     3592 
    4012     4263     4515     3913     3141     3492     4324     4488 
    4178     4152     4369     4257     3834     3721     4270     4567 
    3643     2794     3257     3609     3175     3496     4467     4356 
    3376     2810     2922     3966     5277     4816     3057     2683 
    3973     5146     5049     3763     2717     3019     3704     3794 
    3967     4357     3896     2895     3013     4228     4862     4483 
    4147     4202     4344     4590     4491     3889     3761     3740 
    2952     3086     4465     4252     2659     2581     3663     4163 
    4392     4672     4486     3944     3450     3169     3532     4537 
    4905     3937     2805     2616     3227     3867     3747     3109 
    3331     4479     4693     3593     2781     3061     4008     4329 
    3207     2463     3784     5169     4565     3555     3869     4689 
    5027     4851     4333     4050     4428     4635     3802     2841 
    2955     3507     3342     2949     3744     5370     5665     4028 
    2396     2496     3912     5020     4916     3843     2641     2398 
    3469     4854     5097     3829     2639     3199     4923     5803 
    4754     3121     2933     3867     4584     4675     3947     3219 
    3681     4220     3597     3021     3284     3392     3142     3246 
    3433     3527     4098     4367     3477     2736     3157     3981 
    4506     4557     4135     3669     3456     3465     4072     4965 
    4853     4012     3682     3489     3300     4010     4492     3318 
    2338     3412     4969     4946     3762     2959     3132     3673 
    3862     3923     4302     4446     3591     2435     2459     3487 
    4174     4372     4467     4056     3466     3924     4750     4318 
    3458     3522     3943     4406     5026     4868     3946     3819 
    4673     5097     4557     3655     3129     3454     3809     3265 
    2970     3454     3343     2960     3661     4467     4032     3362 
    3651     4320     4530     4171     3619     3635     4263     4487 
    3736     2906     3302     4307     4156     3183     3038     4008 
    5159     5339     4372     3635     3769     3701     3063     2778 
    3113     3474     3585     3483     3323     3547     4199     4676 
    4649     4149     3288     2835     3605     4587     3952     2446 
    2566     4473     5933     5593     4175     3249     3867     5331 
    5254     3136     1864     2998     4569     4864     4190     3361 
    2937     3138     3483     3345     3142     3442     3761     3940 
    4259     4240     3782     3549     3636     3754     3969     4280 
    4332     4136     3967     3735     3843     4592     4688     3643 
    3202     4008     4541     3989     3217     2947     2903     3088 
    4006     5131     5223     4133     2902     2889     4229     4934 
    3886     2752     2755     3279     3971     4592     4399     3765 
    3727     4121     4309     4191     3889     3574     3389     3346 
    3534     3937     3936     3474     3650     4382     4437     4122 
    4155     3789     3240     4008     5308     5112     3906     3207 
    3253     4013     5000     4842     3582     2924     3024     2682 
    2601     3794     4692     4139     3387     3250     3442     3712 
    3454     2604     2546     3786     4727     4549     4359     4571 
    4464     3966     3601     3655     4008     4233     4222     4291 
    4332     3855     3294     3717     4515     4168     3338     3111 
    2963     3284     4457     4668     3719     3674     4372     4245 
    3607     3453     3550     3181     2743     3308     4540     4881 
    4072     3310     3225     3875     5058     5247     3766     2910 
    3827     4442     3759     3103     3358     4040     4279     4237 
    4598     4783     4314     4079     4104     3518     3026     3742 
    4629     3981     2378     1807     2500     3177     3605     4255 
    4522     3801     3171     3501     3916     3975     4059     3906 
    3766     4392     5085     4866     4232     3943     4214     4745 
    4477     3316     2978     3962     4392     3537     3024     3515 
    3913     3874     3946     4074     3948     3763     3788     3925 
    3954     3816     3618     3381     3006     2794     3218     3815 
    3921     3873     3939     3883     3917     4132     3850     3343 
    3746     4206     3678     3535     4163     4482     4743     4596 
    3341     3024     4599     5201     3982     3391     3686     3327 
    2484     2160     2984     4880     6138     5154     3326     3063 
    3798     3886     3782     3834     3349     2833     3001     3264 
    3238     3407     3713     3808     4383     5417     5238     4064 
    4029     4849     4897     4583     4345     3639     3427     4477 
    5142     4580     3867     3377     3160     3431     3522     3362 
    3391     2762     1810     2469     4054     4320     3886     4257 
    4328     3515     3399     3928     4005     3908     3703     3325 
    3643     4699     5158     4479     3850     3939     3867     3651 
    3983     4180     3863     3798     4124     4591     5024     4847 
    4055     3411     3190     3365     3630     3454     3615     4405 
    3997     2585     2748     4160     4536     4074     4081     4423 
    4418     3839     3002     2677     3277     4075     3921     2791 
    2177     3156     4487     4365     3294     3126     4197     5074 
    4511     3055     2776     4577     6389     5864     3740     2671 
    3616     5105     5575     4834     3276     1795     1910     3624 
    4865     4348     3057     2516     3127     4279     4702     3778 
    2960     3584     4622     4585     3569     2671     2681     3433 
    3929     3518     3052     3354     3634     3577     4097     4770 
    4429     3527     3207     3589     4018     4040     3516     2806 
    2911     3742     4178     4441     4912     4623     3569     3173 
    3982     5017     5090     4338     3831     4167     5161     5363 
    3813     2694     3640     4610     4125     3200     2770     3326 
    4737     5174     3705     2652     3708     4988     4708     3496 
    2586     2612     3191     3615     3986     4430     4450     4112 
    4098     4413     4891     5406     4828     3042     2143     2851 
    3653     4195     4850     4124     1709     1128     3628     5368 
    4619     3450     2837     2822     3545     4233     4434     4461 
    3986     3059     3010     4033     4594     4176     3596     3315 
    3431     3802     3942     3946     4170     4156     3713     3619 
    4151     4522     4226     3923     4275     4631     4044     2868 
    2519     3585     4625     4063     2691     2609     4234     5518 
    4633     2890     2686     3599     4037     4244     4432     3947 
    3597     4421     5240     4772     3643     2990     3581     5142 
    5559     3811     2513     3640     4989     4691     4239     4515 
    4509     3898     2961     2502     3721     5297     4818     3402 
    3310     3946     4195     4305     3933     2924     2956     4230 
    4311     2952     2304     2430     2343     2774     3705     3692 
    3231     3597     4044     3866     3627     3639     4010     4779 
    4911     3672     2767     3632     4527     3812     2809     3037 
    3893     4299     3832     2874     3090     4733     5177     3568 
    2458     3362     4954     5587     5193     4203     3009     3218 
    4839     4853     3369     3481     4720     5192     5090     4237 
    2727     2363     3376     4205     4502     4411     3592     2840 
    3342     3767     2589     1733     2714     3838     4172     4417 
    4612     4610     4783     5232     5243     4415     3712     3716 
    3782     3777     3990     4302     4577     4398     3642     3437 
    4525     5714     5105     2790     1395     2366     3790     3812 
    2959     2274     2479     3866     4959     4074     2554     2876 
    4202     4152     3360     3640     4549     4544     3298     2427 
    3311     4467     4025     2884     2902     4671     6523     5664 
    3179     2974     4719     5293     4255     2914     2188     2320 
    2447     1933     2124     4071     5618     4774     3581     4178 
    5240     5131     4041     3036     3022     3731     4523     5192 
    4969     3848     3198     3391     4224     5092     4356     2968 
    3532     4914     4949     4585     4766     4472     3703     3713 
    3746     2693     1875     2007     2471     3480     4564     4515 
    3889     4399     5918     6174     4660     3439     2879     1948 
    1578     2675     4120     4833     4507     3376     2639     3069 
    3635     2855     1143      463     1254     2022     2069     2239 
    3311     4862     5683     5103     3956     4000     5768     7744 
    8170     6789     5120     5004     5788     5076     3253     3046 
    4554     5686     5965     5910     5422     4806     4577     4398 
    3854     3221     2879     2955     3672     4672     4436     2840 
    2199     3507     4927     4662     3223     2573     2798     1449 
   -1971    -4149    -2718      373     1763     1543     3055     6889 
    9277     8081     5521     4121     3723     3253     2706     2080 
    1379     1699     3227     4858     6805     9470    10890     9228 
    6218     4722     4544     3638     1426     -886    -1638     -479 
     791      368    -1255    -2000     -560     1694     2212     1250 
    1182     2381     3689     4838     5918     7762    11456    14690 
   13730     9406     6278     7018     9435     9215     5995     3713 
    4326     6012     6814     5707     3376     2624     3573     3025 
     780     -549     -280      757     1625     1800     2427     4217 
    5026     3397     1547     2069     5008     8502     9512     6801 
    3897     3928     4811     3730      881    -1806    -1917     1297 
    4880     5115     2520      799     1144     1698     1877     2446 
    3310     4828     7117     7889     6299     5572     7318     8910 
    8596     7006     5393     6189     9483    10118     5540      912 
     866     3153     3353      579    -2366    -2409      492     3651 
    4864     4344     3183     1320    -1129    -2162     -143     3555 
    6149     6706     6191     5413     5209     6594     8908    10093 
    8754     5478     3122     3537     4050     1510    -2243    -3894 
   -3375    -1687      585     2107     2220     2010     2346     2924 
    3500     4113     4437     4291     4500     5634     6138     5086 
    4722     6204     7354     6952     6605     7662     9115     8662 
    5459     1687     -152     -441     -670     -934    -1200    -2189 
   -3504    -3624    -2164      433     3994     7500     9386     9520 
    9022     8877     9289     9281     7735     5398     3829     3260 
    3445     4538     6100     6897     6578     6104     5845     5508 
    5424     5629     4554     1405    -1525    -2427    -2439    -2315 
   -1323      615     2581     3454     2994     2724     4018     5148 
    3569      796      530     3214     6444     8229     7894     6569 
    6250     6787     5950     3712     3223     5331     6686     5146 
    2182      500     1414     3083     3316     3292     4333     5321 
    5911     6592     6633     5900     4912     3418     2459     3657 
    5540     5644     4375     3495     3960     5667     6660     5188 
    2998     2529     3053     3389     4471     6191     6091     3376 
     843      854     1701     1008      113      957     2276     2450 
    2430     3438     4872     5775     5710     4432     2525     1609 
    2687     4444     5085     5047     5433     6442     7865     8966 
    9356     9409     9255     8716     7335     4873     2003     -168 
    -702     -526    -2127    -4635    -4108      108     4881     7611 
    7982     7153     5913     4487     3461     2932     2423     2151 
    2628     3720     5296     7202     8279     7508     5279     2601 
     791      677     1221     1088      668     1096     2717     4538 
    5009     4064     3129     2903     2613     1657     1008     1827 
    3469     3765     1730      259     2694     7337    10108     9714 
    7304     4639     3694     4922     5485     3277     1035     1216 
    2045     2157     2324     2799     3492     4147     4067     3091 
    1491      236      828     2976     4611     4712     4044     3501 
    4063     6363     8297     7700     5786     3596     1071       13 
    2362     7635    12734    13311     8532     2824      519     2031 
    4752     4799      436    -4804    -5898    -2428     2540     5778 
    5204     2664     2247     4529     7209     8911     8992     7092 
    4374     2857     3370     4850     5854     5810     4128     1163 
    -567      295     2104     3132     2894     1128    -1188    -1317 
    1402     4114     4537     3122     2205     3777     6384     7064 
    6227     6085     6250     5494     4955     5602     6307     6563 
    6612     5644     3607     2232     2648     4252     6068     7221 
    6531     4143     2614     4089     6953     7075     3519       94 
    -569      475     1582     1763     1628     2716     3759     3065 
    3095     5660     8005     8186     7354     6349     5590     5586 
    5746     5449     4781     4101     3886     3750     3157     2965 
    3821     4418     3319     1491      989     1401      795      -95 
     845     2859     3874     3979     4182     4342     4255     3991 
    3331     3408     5395     7176     6431     4761     5005     6733 
    6804     3869      371     -384     2108     5397     7044     6535 
    4831     3334     2258      966      515     1917     3364     3181 
    2394     2798     4499     5938     6421     6782     6987     6463 
    5825     5227     4079     3235     3358     2789      502    -1746 
   -1934       49     2820     4522     4614     4923     6571     7693 
    6698     4529     2558     1414     1652     3364     5362     5913 
    4444     2184     1196     2400     4139     4202     3319     3720 
    4792     4471     3532     3523     3742     3786     3906     3177 
    2062     2505     3447     2644     1764     3190     5308     6026 
    5753     5185     5121     5961     5930     4257     2886     2587 
    2651     3183     3672     3067     2693     3804     4270     3167 
    2952     3731     3295     2423     2724     3300     3528     3939 
    4268     4032     3465     3048     2952     3132     3802     5049 
    6126     5803     4085     3411     5215     7084     6818     4855 
    2254      704     1872     4523     5483     3734     1112     -136 
     891     3111     4712     5487     6211     6384     5015     3130 
    3260     5899     8333     7626     3839      681     1796     5918 
    8102     5556      984     -714     1115     3052     3215     2727 
    3036     3979     4584     4842     5111     4928     3821     2276 
    1745     3279     5784     6967     5941     4193     3585     4137 
    5143     5969     5428     3636     2061     1008      518     1215 
    2454     2617     1659     1459     3064     5239     6739     7946 
    9030     8781     6554     3624     1611     1161     2133     3537 
    4284     4423     4263     3701     3520     4152     3838     2222 
