Origin Time       2024/04/02 04:24:00
Lat.              40.133
Long.             141.712
Depth. (km)       71
Mag.              6.0
Station Code      AOM020
Station Lat.      40.8194
Station Long.     140.7498
Station Height(m) 3
Record Time       2024/04/02 04:24:56
Sampling Freq(Hz) 100Hz
Duration Time(s)  158
Dir.              N-S
Scale Factor      7845(gal)/8223790
Max. Acc. (gal)   13.526
Last Correction   2024/04/02 04:24:56
Memo.             
[...]
   10071     9747     9676     9400     8946     8785     9194    10045 
   11037    11777    11839    11168    10226     9647     9747    10247 
   10480    10076     9423     9180     9491     9999    10395    10550 
   10585    10848    11269    11404    11192    10755    10112     9626 
    9585     9780    10023    10199    10234    10370    10642    10779 
   10964    11340    11450    11091    10551    10069     9861     9954 
    9942     9666     9576     9964    10527    10848    10847    10797 
   11049    11591    12035    12172    12064    11951    12306    13192 
   13836    13622    12827    11994    11470    11506    11885    11921 
   11445    10990    10804    10636    10528    10727    10886    10581 
   10160     9890     9626     9763    10566    11244    11207    10727 
   10071     9522     9302     9008     8523     8598     9541    10867 
   12129    12950    13122    12968    12733    12245    11570    10852 
    9952     9067     8495     8054     8010     9004    10555    11639 
   12285    12899    13116    12650    11940    11303    10544     9668 
    9385    10292    11857    12996    13157    12509    11861    12054 
   12976    13625    13080    11489    10041     9616    10041    10795 
   11556    12162    12760    13466    13840    13539    13072    13001 
   12985    12398    11207     9855     8920     8664     8617     8554 
    9050    10084    10712    10424     9585     8949     9217    10400 
   11611    11981    11672    11372    11129    10779    10638    10498 
    9699     8595     7935     7867     8619    10107    11437    12064 
   12127    11836    11423    11126    11075    11337    11878    12290 
   11821    10428     9273     9244     9809    10120    10476    11796 
   13725    14535    13621    12116    10756     9525     8880     9313 
   10291    10908    11151    11404    11614    11754    11769    11407 
   10980    10791    10457    10108    10395    11157    11653    11676 
   11685    11809    11383    10316     9744    10068    10278    10037 
   10191    11094    12166    12850    13023    12793    12405    11983 
   11435    10868    10578    10350     9585     8415     7715     7986 
    9053    10314    10966    10793    10497    10652    11056    11179 
   10615     9508     8741     9155    10569    12074    13127    13670 
   13655    13228    12811    12486    12133    11857    11263    10091 
    9456    10011    10687    10778    10493     9871     9242     9171 
    9387     9508     9640     9682     9864    10848    12105    12598 
   12600    12599    12144    11267    10913    11263    11476    11217 
   10862    10779    11295    12228    12746    12545    11932    11025 
   10054     9502     9560    10196    11173    11908    12156    12239 
   12233    11990    11508    10824    10164     9805     9594     9317 
    9062     9012     9324     9805    10057    10238    10628    10801 
   10574    10683    11493    12514    13504    14489    15076    14856 
   13983    12814    11446    10129     9591    10058    10795    11159 
   11210    11190    11011    10550    10079     9961    10200    10377 
   10080     9686     9913    10594    11076    11167    11010    10879 
   10879    10839    11172    12235    12841    12070    11002    10678 
   10890    11496    12405    13012    13000    12275    10777     9240 
    8232     7308     6601     6832     8039     9814    11422    12136 
   12106    11749    11179    10643    10270     9896     9547     9454 
    9772    10404    10945    11232    11530    11739    11549    11338 
   11422    11236    10459     9570     9012     8843     8900     9130 
    9687    10332    10563    10594    10986    11595    12028    12216 
   11934    11007     9996     9487     9297     9135     9190     9649 
   10134    10007     9462     9607    10848    12502    14027    15110 
   15314    14469    13095    12213    11997    11375    10006     8976 
    9109    10180    11503    12525    13146    13382    12985    12156 
   11607    11291    10704    10081     9759     9606     9771    10304 
   10615    10740    11649    13389    14818    15129    14265    12847 
   11838    11249    10412     9486     9072     9138     9324     9405 
    9229     9050     9329     9906    10326    10654    11070    11330 
   11013     9992     8823     8236     8168     8220     8383     8576 
    8706     9107    10066    11518    13057    14017    14019    13216 
   12109    11313    10889    10459    10237    10490    10733    10841 
   11327    11958    12050    11658    11152    10787    10910    11437 
   11657    11161    10484    10376    10878    11596    12268    12779 
   13219    13625    13716    13383    12816    11997    10948    10100 
    9729     9725     9975    10216    10156     9872     9478     9015 
    8816     9113     9652    10201    10762    11142    11140    10863 
   10463    10095     9985    10021     9907     9774     9807     9828 
    9879    10254    10771    11075    11084    10721    10204    10064 
   10407    11076    11858    12206    11711    10651     9634     9020 
    9084    10029    11210    11784    12135    12780    13135    12775 
   12060    11273    10615    10255    10058    10035    10366    10781 
   10897    10905    11086    11233    11138    10883    10521    10143 
   10017    10122    10160    10103     9985     9667     9539    10300 
   11549    12087    11647    10895    10342    10164    10412    11043 
   11751    12069    11997    11900    11722    11380    11315    11701 
   12090    12066    11537    10808    10462    10704    11246    11878 
   12429    12567    12175    11426    10494     9726     9475     9589 
    9840    10380    11029    11161    10875    11078    12069    13065 
   13319    13035    12827    12669    12220    11676    11287    10925 
   10527    10092     9726     9871    10528    11078    11302    11430 
   11529    11573    11546    11371    11122    10962    10922    11030 
   11133    10839    10184     9763     9846    10168    10539    10825 
   10778    10606    10833    11527    12538    13500    13621    12934 
   12438    12509    12877    13308    13393    13034    12734    12641 
   12324    11665    10986    10345     9724     9456     9660     9980 
   10073     9811     9400     9337     9730    10025     9930     9852 
   10174    10779    11155    10895    10228     9718     9626     9841 
   10141    10292    10125     9875    10123    10858    11299    11086 
   10584    10183    10141    10373    10277     9737     9477     9867 
   10584    11234    11430    11144    10953    11140    11464    11676 
   11612    11371    11018    10388     9846     9937    10435    10989 
   11456    11396    10785    10507    10948    11400    11272    10624 
    9891     9628     9864    10018     9774     9248     8768     8959 
    9964    11017    11705    12260    12657    12765    12642    12174 
   11306    10500    10211    10164     9749     9130     8973     9273 
    9683    10091    10187     9957    10125    10970    11809    12008 
   11600    11026    10627    10462    10598    11101    11750    12245 
   12514    12483    12147    11812    11487    10808     9975     9703 
   10282    11138    11507    11416    11426    11672    11867    11885 
   11776    11534    11156    10709    10250     9732     9197     9008 
    9470    10370    11327    12037    12090    11421    10567    10002 
   10008    10662    11249    10984    10180     9585     9491     9927 
   10723    11383    11614    11722    11848    11672    11481    12074 
   13327    14351    14698    14380    13666    13224    13200    12803 
   11824    10948    10417    10137    10268    10633    10708    10442 
   10257    10512    11172    11591    11107    10018     9134     8768 
    8846     9151     9217     8945     8831     9055     9274     9373 
    9641    10270    11063    11723    12093    12079    11831    11869 
   12413    12937    12869    12204    11327    10732    10650    10763 
   10952    11651    12592    12841    12459    12136    11954    11793 
   11554    10921    10107     9730     9725     9823    10238    10995 
   11931    13151    14446    15103    14731    13670    12613    11799 
   10881     9767     8727     7932     7565     7789     8559     9742 
   11006    11842    12064    11931    11839    11894    11630    10825 
   10079     9630     9135     8803     8904     9104     9251     9463 
    9826    10605    11754    12560    12371    11272    10004     9319 
    9497    10404    11553    12212    12004    11263    10585    10362 
   10683    11264    11773    12147    12186    11638    10831    10180 
    9695     9564     9907    10197    10177    10170    10011     9421 
    8860     8746     9150    10254    11739    12661    12532    11519 
   10241     9606     9774     9883     9526     9063     8638     8459 
    8991    10071    11122    11940    12549    12974    13123    12820 
   12154    11410    10790    10341     9940     9686    10014    10849 
   11599    11989    11946    11507    11214    11453    11819    11892 
   11715    11317    10752    10396    10608    11330    11939    11750 
   10831     9883     9398     9186     8866     8581     8737     9356 
   10100    10543    10616    10731    11264    12148    12945    13088 
   12247    10802     9811     9964    10802    11495    11808    11971 
   12258    12738    13103    12919    12005    10511     8966     8228 
    8731     9814    10552    10800    10810    10959    11657    12509 
   12548    11641    10552     9950     9964    10320    10802    11435 
   11982    12136    12274    12561    12406    12058    12299    12622 
   12482    12329    12102    11530    11130    11205    11445    11522 
   11014     9965     9405     9934    10775    10968    10467     9930 
    9996    10690    11275    11063    10382    10029    10272    10758 
   10760    10030     9344     9489    10334    11168    11634    12036 
   12356    11974    11011    10273     9855     9610    10029    11218 
   12519    13244    12973    12145    11709    11492    10863    10308 
   10207     9936     9319     8899     8957     9603    10795    11994 
   12785    13196    13333    13482    13699    13358    12465    12109 
   12579    13194    13572    13316    12382    11853    12299    12864 
   12965    12775    12295    11659    11194    10725     9988     9213 
    8757     8777     9115     9378     9594    10176    10975    11276 
   10752     9963     9740    10114    10404    10420    10417    10312 
   10003     9640     9505    10064    11106    11676    11727    11811 
   11682    11125    10384     9495     8777     8714     9204    10116 
   11206    11549    10725     9578     9081     9605    10926    12328 
   13155    13220    12658    11780    10802     9923     9616    10049 
   10832    11657    12136    11695    10604     9846     9826    10311 
   10875    10952    10293     9173     8075     7539     7638     7865 
    8067     8401     8764     9290    10046    10336     9713     8779 
    8415     9019    10153    10800    10532     9973     9784    10012 
   10458    10798    10700    10401    10478    10855    10870    10227 
    9408     9130     9354     9382     9061     8945     9351     9963 
   10373    10650    10970    11245    11468    11735    11935    11890 
   11778    11886    12085    12199    12386    12619    12746    12938 
   13225    13360    13393    13317    12826    12101    11882    12549 
   13549    13801    12895    11711    11317    11689    12075    12244 
   12465    12568    12328    12004    11704    11284    10805    10416 
   10179    10092    10085    10153    10261    10085     9562     9032 
    8583     8203     8041     8064     8047     7803     7302     6747 
    6570     7067     7798     8101     8050     7879     7515     7312 
    7751     8590     9367     9940    10234    10206     9807     9090 
    8583     8780     9447    10069    10355    10308    10270    10535 
   11016    11475    11611    11209    10559    10141    10041     9973 
    9572     8911     8642     9201    10312    11450    12236    12478 
   12424    12617    13266    14368    15863    17288    18137    18358 
   17948    17053    16249    15562    14470    13332    12865    12879 
   12854    12429    11377    10184     9707    10038    10405    10087 
    9147     8159     7318     6394     5649     5806     6825     7924 
    8799     9671    10562    11296    11531    10956    10157    10152 
   10952    12012    13124    13969    14239    14160    13798    12831 
   11230     9212     7223     6119     6087     6249     6219     6446 
    6937     7302     7523     7676     7663     7446     6976     6416 
    6442     7522     9256    11206    13547    16154    18307    19533 
   19732    19159    18512    18106    17626    17012    16517    16152 
   16015    16467    17440    18291    18493    18091    17736    18072 
   18885    19413    19253    18451    17463    17076    17660    18991 
   20645    21888    22171    21857    21635    21730    21880    21590 
   20713    19561    18442    17525    16806    16108    15450    14854 
   13892    12209    10249     8811     8251     8490     9297    10228 
   10562     9757     7986     5987     4411     3539     3457     3970 
    4627     5331     6330     7408     8010     8020     7755     7466 
    7215     7041     6858     6293     5278     4288     3519     2944 
    3075     4375     6466     8463     9459     9012     7620     6208 
    5042     3707     2069      427    -1169    -2646    -3256    -2064 
     943     4514     7141     8368     8660     8405     7747     7091 
    6983     7461     7962     8110     8063     7909     7811     8513 
   10312    12191    12953    12424    11160     9752     8694     8243 
    8280     8613     8951     9050     9435    10777    12696    14507 
   15839    16187    15487    14365    13338    13097    14426    16803 
   18505    18381    16826    15052    13756    12972    12638    12312 
   11419    10619    11275    13527    16155    17864    18036    16580 
   13867    11043     9485     9749    11281    12584    12430    11365 
   10669    10548    10674    10812    10616    10289    10312    10422 
   10505    10887    11217    11091    10783    10428    10068     9941 
    9921     9647     8838     7395     6025     5877     7281     9553 
   11557    12490    12650    12885    13456    13824    13063    11002 
    8856     7715     7730     9254    12482    16403    19805    21906 
   22022    20167    16796    11681     5225      133    -1001     1240 
    4372     6411     6305     4924     5170     8341    12185    14056 
   13653    12407    12042    13144    14323    13898    11844     8922 
    6026     5005     6883     9774    11458    11921    11886    11831 
   12160    12587    12938    13950    15134    14493    11695     8259 
    5076     2330      332     -421      770     3852     7242     9277 
    9628     8858     7618     6485     6041     6531     7318     7472 
    7076     7204     8563    11136    14827    18765    20931    20147 
   17208    13792    11727    11853    12825    13022    12746    12930 
   13382    13549    13605    13937    14080    12565     8430     3079 
    -595    -1440     -970     -627      163     2554     6453    10480 
   13150    14485    15608    16194    14735    11443     8051     5640 
    4583     5104     6868     9055    11369    14080    16654    17853 
   17393    15931    13903    11862    11041    12101    13930    14654 
   13697    12116    10997    10741    11155    11249    10555    10018 
   10251    10670    10647    10382    10536    11389    13068    15665 
   18272    19386    18539    16590    14964    14692    15612    16750 
   17293    16984    16312    16005    15741    14646    13394    13606 
   15168    16486    16835    16857    17263    17698    16985    14615 
   11884    10747    11242    11460    10454     9175     8537     8486 
    8797    10039    13373    18316    22060    22663    20595    16934 
   12771     9115     5983     3110     1135     1127     3555     7564 
   11300    13462    13994    13359    12085    10650     8928     6677 
    4764     4378     5562     7453     8957     9826    11065    12322 
   11196     7422     3937     2436     1996     1915     2149     2311 
    2837     4911     8537    12649    16386    19030    19456    16617 
   10885     4340     -515    -2160     -434     4263    10982    17374 
   21239    22508    22156    20630    18090    15338    13813    14052 
   14966    15223    14843    15103    16426    17163    15822    13030 
   10179     7921     6666     6760     7924     9641    11545    12974 
   13228    12313    10810     9498     9109     9539     9913     9632 
    8599     7458     7264     8174     9768    11753    13544    14720 
   15654    16557    16946    16943    17196    16758    13853     9215 
    5918     5652     6906     7183     5894     4596     4985     6945 
    9148    11203    13404    15024    14724    12534    10451    10222 
   11043    10667     8564     6417     5510     5707     6724     8580 
   11236    14031    16058    17482    18945    19988    19688    18300 
   17273    17400    17563    16173    13373    10983    10316    10854 
   11610    12487    13346    13481    12857    12189    11631    10704 
    9063     6624     3797     1456      -83    -1186    -1582      -47 
    3987     9146    12954    13683    11527     8499     6582     5979 
    5948     6262     6959     7786     8473     8700     7765     5335 
    2478      808      839     2263     4865     7819     9618     9774 
    9009     8002     7194     6998     7577     8757     9791     9472 
    7708     5969     4957     3848     2297      977      531     1088 
    2442     4806     8398    11812    13109    12645    12495    13860 
   16636    19935    22234    22696    21890    20457    18877    17895 
   17443    16881    16370    16112    15854    15834    15985    15512 
   14589    13942    13115    11592    10065     9227     9180    10331 
   12939    15907    17767    18297    18164    17899    17539    16924 
   16406    16476    16771    16452    15245    13385    11373     9803 
    8707     8106     9013    11786    14553    15377    14481    13092 
   11907    11234    11097    10949    10197     8787     7242     6214 
    5571     4788     4374     4712     4484     3095     2358     3443 
    5197     6517     7422     7763     7285     6598     6448     6574 
    6320     5922     6413     8388    11308    13925    15094    14602 
   13315    12298    11754    10886     9265     7743     7009     6751 
    7078     8523    10419    11168    10200     8626     8027     9220 
   12135    15925    18855    19153    16869    14104    12796    13305 
   15198    17428    18257    16869    14288    11917    10265     9166 
    8392     7963     8309     9936    12490    14840    16081    15639 
   13315     9973     7277     6350     7165     9012    10875    11754 
   11735    12104    13427    14863    15786    16441    17123    18111 
   19635    20961    20910    19415    17220    15257    14511    14624 
   13952    12212    10665     9946     9960    10609    11458    11749 
   11028     9510     7747     5724     2951       76     -877     1359 
    6053    11304    15464    17926    18825    18580    17822    16856 
