Origin Time       2024/04/02 04:24:00
Lat.              40.133
Long.             141.712
Depth. (km)       71
Mag.              6.0
Station Code      AOM012
Station Lat.      40.5127
Station Long.     141.4880
Station Height(m) 12
Record Time       2024/04/02 04:24:49
Sampling Freq(Hz) 100Hz
Duration Time(s)  138
Dir.              N-S
Scale Factor      7845(gal)/8223790
Max. Acc. (gal)   280.382
Last Correction   2024/04/02 04:24:49
Memo.             
[...]
   -3842    -3848    -3861    -3850    -3843    -3850    -3844    -3831 
   -3839    -3858    -3863    -3856    -3846    -3839    -3839    -3829 
   -3821    -3835    -3847    -3840    -3847    -3873    -3869    -3835 
   -3823    -3839    -3848    -3842    -3844    -3859    -3862    -3846 
   -3835    -3838    -3839    -3840    -3850    -3859    -3855    -3842 
   -3828    -3828    -3844    -3847    -3844    -3851    -3846    -3834 
   -3840    -3848    -3838    -3828    -3842    -3847    -3835    -3842 
   -3863    -3866    -3850    -3840    -3847    -3855    -3846    -3838 
   -3848    -3855    -3843    -3839    -3851    -3854    -3842    -3840 
   -3847    -3846    -3835    -3829    -3840    -3843    -3839    -3850 
   -3854    -3846    -3839    -3839    -3838    -3838    -3847    -3858 
   -3855    -3846    -3839    -3842    -3851    -3847    -3836    -3854 
   -3870    -3848    -3835    -3848    -3851    -3839    -3842    -3858 
   -3862    -3842    -3827    -3834    -3847    -3840    -3825    -3836 
   -3862    -3856    -3839    -3844    -3847    -3835    -3836    -3843 
   -3840    -3842    -3851    -3858    -3847    -3836    -3843    -3855 
   -3852    -3843    -3843    -3842    -3839    -3846    -3856    -3851 
   -3838    -3834    -3847    -3859    -3844    -3828    -3840    -3856 
   -3842    -3831    -3850    -3852    -3836    -3835    -3842    -3846 
   -3850    -3844    -3843    -3858    -3861    -3842    -3836    -3844 
   -3848    -3854    -3852    -3838    -3834    -3850    -3854    -3842 
   -3840    -3850    -3846    -3839    -3842    -3848    -3848    -3843 
   -3836    -3844    -3856    -3839    -3817    -3836    -3861    -3854 
   -3840    -3842    -3852    -3852    -3839    -3840    -3851    -3848 
   -3839    -3842    -3851    -3856    -3850    -3836    -3834    -3839 
   -3842    -3846    -3848    -3850    -3851    -3851    -3843    -3836 
   -3848    -3855    -3840    -3834    -3843    -3847    -3843    -3839 
   -3851    -3866    -3852    -3834    -3842    -3852    -3840    -3832 
   -3850    -3863    -3854    -3839    -3834    -3838    -3844    -3838 
   -3832    -3847    -3858    -3850    -3842    -3836    -3836    -3850 
   -3854    -3839    -3836    -3848    -3850    -3842    -3842    -3847 
   -3843    -3836    -3844    -3862    -3862    -3843    -3831    -3842 
   -3850    -3838    -3832    -3850    -3865    -3854    -3832    -3832 
   -3847    -3843    -3836    -3850    -3852    -3846    -3850    -3850 
   -3839    -3832    -3832    -3836    -3850    -3865    -3865    -3847 
   -3839    -3843    -3843    -3839    -3832    -3839    -3861    -3865 
   -3842    -3836    -3855    -3851    -3831    -3835    -3854    -3861 
   -3848    -3832    -3839    -3850    -3842    -3844    -3866    -3861 
   -3831    -3819    -3836    -3852    -3843    -3842    -3861    -3862 
   -3850    -3846    -3844    -3839    -3834    -3840    -3850    -3855 
   -3859    -3861    -3846    -3824    -3824    -3842    -3852    -3851 
   -3852    -3854    -3843    -3834    -3839    -3851    -3856    -3846 
   -3839    -3847    -3850    -3846    -3844    -3844    -3844    -3839 
   -3828    -3835    -3859    -3873    -3871    -3859    -3835    -3825 
   -3842    -3848    -3838    -3835    -3836    -3840    -3859    -3877 
   -3867    -3842    -3824    -3832    -3848    -3840    -3823    -3836 
   -3858    -3852    -3842    -3851    -3858    -3844    -3836    -3838 
   -3836    -3836    -3838    -3848    -3866    -3866    -3843    -3817 
   -3793    -3775    -3788    -3828    -3835    -3748    -3642    -3654 
   -3721    -3632    -3507    -3801    -4455    -4525    -3489    -2524 
   -3098    -4691    -5394    -4444    -3148    -2864    -3063    -2955 
   -3192    -4264    -4926    -3632    -1669    -1867    -3673    -3917 
   -2288    -1838    -3387    -4233    -3103    -1958    -2963    -4442 
   -3457    -1956    -3169    -6145    -7816    -6939    -5690    -6158 
   -6343    -3628     -958    -2178    -4976    -6528    -6204    -3439 
    -302     1161     1159     -233    -1455    -1483    -2525    -3443 
   -2169    -1780    -2843    -3141    -2579    -2114    -5000   -11583 
  -14650   -11071    -8279    -9112    -7874    -4428    -1475     -819 
   -5092    -9397    -9645   -10328   -10686    -5008     5020    11045 
    9464     3015    -4943    -6879    -1710     -153    -2328    -1386 
    1505     4067     3669      383     -351     2065     1336    -8333 
  -20642   -23469   -17591    -7820     1799     3304    -3223   -10574 
  -11623    -4415      114    -7404   -17616   -15236    -3508     1243 
    -820     2100     9107    12468     9792     4630     -472    -8102 
  -13748   -10611    -4495    -1755    -3391    -7580    -7971    -6323 
   -9463   -13578   -11570    -8999   -14705   -19179   -16614   -15534 
   -9132     4309     5532    -5628    -9073    -2342    -1159   -11215 
  -20525   -15091     7040    35815    53763    45677    15192   -18247 
  -36956   -37870   -30231   -19580    -8023     7163    29448    37979 
   15634   -17358   -39220   -44220   -34249   -22293   -14696    -3798 
    9300    11962      463   -11364    -6339    14295    31449    28081 
    5120   -18042   -26682   -20854    -6775     -638    -9302    -9929 
    8511    23696    25000    19966     6899   -13279   -27236   -27394 
  -20773   -13113    -2120     8032     9396     1937    -4406    -1513 
    -322    -5516    -2312     4345      315    -4834    -1223     5096 
    4899    -6439   -22007   -24084    -8247     6683    13520    23240 
   29601    20771     2386   -24204   -57109   -70116   -46749    -7732 
   22580    32915    22179     8567     5096    -2709   -24892   -42196 
  -33991   -10075     7053     6821   -10026   -25687   -22351   -10994 
   -4901     2563    14053    27630    42124    42797    18234   -21708 
  -56340   -65225   -46500   -20244    -2137    11545    28229    40155 
   35731    13590   -17404   -35230   -28343   -17788   -22881   -32802 
  -28321    -5616    20386    30291    22383    10412     3765     3138 
    5074     1123   -15105   -32298   -31602   -13697     7159    18260 
   11240    -2272    -1478    11219    20506    16892    -1991   -19539 
  -15898    -7516   -18837   -33619   -28854   -11196     8360    26859 
   33885    22146     5721      480     2489      199   -10019   -23464 
  -33681   -36099   -26194    -5441    14007    20209    13509     5522 
    4106     3470    -4676   -16189   -20783   -17652   -11109    -4091 
   -2249    -8372   -14878    -8896     8641    18825    13076     1328 
   -8711   -17837   -26295   -25488    -9566     9645    18270    13359 
   -2081   -18970   -29944   -35232   -32140   -17513     1898    14563 
   12453    -2941   -18558   -21284   -12221    -2415     4955    13756 
   21926    24773    20175     9258    -3017   -15553   -28426   -30952 
  -17055     -939     6110     7758     6176     3808     5243     6871 
    2805    -7786   -18397   -17739    -6652      136    -4695   -13338 
  -17189   -14087    -4016     7620    12663    11002     6496     -606 
   -6991    -3442     9425    17358    14694     8634     1590    -5589 
   -9452   -13813   -16926    -9508     4054    13532    13132     1034 
  -12756   -18223   -19948   -25338   -32152   -31926   -19496     -623 
   13066    19793    23780    20020     4477   -16325   -35143   -44030 
  -38838   -28987   -23931   -20999   -12282     3315    19494    31747 
   36310    31617    20414     2666   -19180   -36285   -42302   -37596 
  -27650   -14665     2605    16881    19498    13275     5682     1252 
    1305     2741        2    -9486   -21682   -25189   -14326     -373 
    6037     7221     8175    11786    17051    16664     5525    -8291 
  -13046   -10451    -8490    -8606    -8039    -4448     1829     7014 
    9448    14206    20553    18208     5896   -10457   -25558   -30037 
  -23847   -20063   -20983   -15303    -1386     9979    14310    15115 
   12530     4403    -7137   -18592   -27155   -27145   -18422    -9660 
   -3781     2710    10091    15106    13591     3198   -12795   -25528 
  -29922   -27592   -18171    -2366    11975    17910    14993     6014 
   -4040   -10787   -16717   -25142   -31442   -29617   -19057    -5009 
    4692     8610    10544    10431     7832     7678    10384     5611 
  -12546   -35918   -48880   -39278   -13726     8591    20040    24688 
   25656    21914    12621     1472    -6004    -6721    -4958    -9845 
  -20812   -26191   -19722    -7299     4374    14898    22307    23097 
   20341    15641     5929    -7361   -21043   -29648   -26585   -14538 
    -233     8965     5967     -429     3828    11765    10449     2497 
   -4818    -9155   -10044   -10368   -16957   -28154   -29793   -14964 
    6453    19980    19674    11079     2029    -3839    -7277   -11865 
  -17095   -18304   -16218   -17149   -22515   -25371   -17065     3152 
   21485    23869    14088      168   -15516   -25038   -21601   -12113 
   -8059    -9383    -7616    -2809    -1614    -3998    -5621    -4459 
    -734     2351     2848     4006     5352     1844    -4336    -6234 
   -3501      615     6885    11607     5059    -9127   -19121   -24536 
  -24699   -13911     2338    12598    12073     3410    -2874      795 
    4657    -1821   -10714   -13587   -11456    -3738     5314     6432 
     -81    -4653     -459     8950    13945     8743     -521    -3249 
   -2342    -7585   -18180   -24466   -19406    -7840      359     3469 
    1428    -7288   -14550   -10129     1497     6790     1073    -8560 
  -16422   -23942   -29675   -26028   -11800     3885    14222    19454 
   19009    11742     1903    -5049   -10982   -21416   -31145   -28946 
  -13524     8476    22389    16522     1988    -5973    -5474    -1480 
   -1977    -8807   -14150    -9992    -1348    -1213    -6324    -6222 
   -5080    -6831    -7115    -5275      -86     8461    11782     8603 
    4835     -865    -6893    -9491   -11859   -12789    -8037    -1061 
    2705     1914    -3341    -9207    -8299    -3048    -2550    -5734 
   -6818    -6806    -9113   -11745    -9595    -3281     1702     4446 
    7620     7014    -1672   -12143   -19340   -20826   -14445    -8233 
   -6154     -901     7414    11468     9697     5077    -1873    -7871 
   -6898    -1317     2489     1548    -4356    -9371    -7515    -4081 
   -7389   -17244   -25598   -21566    -4980    11317    17288    12892 
    7101     6474     5136    -1174    -9431   -17640   -19735   -10284 
     990     2309    -2258    -5435    -7568    -8060    -6207    -3423 
    1930     6914     2910    -7992   -18647   -28755   -29145   -10511 
   10814    17383    12148     2020    -5549    -7820   -16556   -33652 
  -38371   -21011     6435    30793    38762    26747    10966     1332 
   -7684   -16722   -21660   -20973   -11060     3053     4941    -5107 
   -9026     -912     8235     7871    -2408   -13107   -11811     1167 
    9767     1661   -18310   -32393   -27553   -10692     2295     5352 
    4537     6696     8295     3238    -4506    -7624    -5996    -4384 
   -5706    -7377    -3889     4716    12044    10237    -1907   -11601 
   -9131       16     5833    -1609   -18624   -24788   -14801    -4027 
    -820    -3122    -7377    -6069     3168    10251     8571      198 
  -12390   -21648   -19955   -14131   -13620   -14542    -8969     4606 
   18732    19132     2523   -14233   -15894    -9655   -11485   -19079 
  -18877    -9043     3688    12291    10912     2938    -1298       81 
    1260      824    -1258    -9184   -23114   -33370   -28416    -7192 
   15151    20848    14816    15611    22096    19615     5859   -10719 
  -20706   -18009    -7620    -3275    -8426   -12847    -9418      -18 
    6998     6160     4315     6497     7075     2346    -6061   -14631 
  -19742   -20237   -14531    -3003     6812     7006    -1664    -8240 
   -5255     -830    -2111    -2585     1105    -1351   -14648   -25452 
  -26356   -26217   -26600   -21918   -13038    -1463     8224     8592 
    2304    -2629    -2612     3778    12491    14184    11591    14454 
   18967    19199    16189    10570     4965      301    -6142   -13810 
  -22180   -32960   -44652   -51614   -46684   -24325     9332    32694 
   30484     6427   -29389   -61036   -68667   -48001   -11944    20895 
   33077    26192    22281    30603    33793    14496   -21255   -54540 
  -65207   -38091     7110    32915    40940    47251    47564    46113 
   43988    19467   -28744   -72400   -92215   -91342   -77511   -41843 
   18600    72432    90261    80453    64829    49534    32572    16274 
    3504    -3226    -3354    -4742   -16444   -32175   -35538   -29367 
  -33369   -52461   -73593   -80788   -72978   -66476   -62592   -40842 
    1205    40447    68446    90441    93690    71427    41910    20017 
   10598    12370    12097    -9072   -60454  -125440  -175022  -196489 
 -183608  -124929   -25223    86408   178077   221987   193576   104726 
    5971   -70929  -117865  -121919   -86957   -28148    48632   107608 
   99681    33670   -44049   -96203   -96957   -41786    47781   129756 
  150539    92060      191   -72106  -103048   -87498   -43814    11797 
   84947   150066   162865   126214    67223    -3654   -59572   -57314 
   -8745    32933    44475    13680   -71960  -171031  -205262  -143905 
  -23850   101756   183271   173317    72546   -68904  -196735  -254395 
 -230729  -179454  -106739    18484   156170   238454   226600   117764 
  -39985  -180539  -243365  -200646   -85380    54290   175721   236972 
  229586   170087    70449   -53925  -178582  -271594  -297773  -241722 
 -123541    12204   116293   165156   171255   140116    70441    -5098 
  -54550   -73697   -58500    -7277    65349   119182   119038    82991 
   34956   -25131   -80126  -124020  -168207  -186328  -147155   -61106 
   38796   110143   127114   103198    60797    11962   -33944   -70711 
  -80023   -33875    53762   127924   154226   127354    56425   -25666 
  -82406  -105769  -110258  -100533   -62091     4232    70359   107759 
  103558    67987    16870   -43988   -95640  -119126  -116625   -90583 
  -48030    -2270    42753    76559    86343    82302    70052    32748 
  -20304   -49910   -36202    12515    64004    77903    45598   -10781 
  -64797   -94224   -96989   -88821   -66237   -17872    37408    72360 
   77471    55086    20714    -4990   -19973   -34790   -44158   -41415 
  -38715   -36259   -21855    -3913     8122    24845    45577    46911 
   17050   -30847   -79972  -113941  -111771   -77446   -41766    -9256 
   34288    76100    95806    83107    34666   -27834   -74711   -96556 
  -89125   -47347    16116    74515   111132   117846    86181    29029 
  -20044   -43403   -47621   -47406   -51807   -51602   -36973   -21500 
  -15880   -12199   -13132   -28304   -47730   -55412   -45802   -19133 
   12664    33600    42823    45755    44409    41071    35638    24534 
   11975    10827    18573    20039    14204     2573   -20286   -46359 
  -57152   -45408   -23291    -8656    -4683    -4334    -4851    -5891 
   -5440      804    17145    39928    61445    75984    75583    55921 
   23298    -9001   -27429   -30030   -28308   -30582   -34356   -33643 
  -21882     1370    23487    31083    24193    15283    13217    10552 
   -1979   -19608   -32012   -33520   -21948     -230    22329    38762 
   44070    28867    -8222   -51368   -82224   -94601   -90099   -70718 
  -49046   -41763   -39737   -26026   -10998   -10231   -22030   -36841 
  -42492   -30755    -5246    20013    29227    16803   -10069   -35920 
  -45138   -33085    -6261    21942    38357    39896    26708     -203 
  -28548   -44311   -43649   -27846    -4006    17918    37446    52894 
   52270    35397    14625    -5184   -17413    -9774    15553    41125 
   49574    36216    13433    -6291   -19469   -19785    -2902    25353 
   57215    83770    92032    77178    50141    20673   -12402   -45937 
  -66347   -62874   -35942     5301    41962    52481    37085    15801 
    1324    -2994      780      897   -11172   -29465   -41553   -42903 
  -40135   -38271   -35445   -30468   -23967   -18659   -22206   -37011 
  -53485   -62575   -62419   -51619   -27920     1594    20622    21959 
    9656   -12829   -42105   -72920   -94856   -92142   -61453   -19699 
   12888    28914    33864    32919    24740     9336   -11196   -35318 
  -54734   -55082   -31056     2929    25118    31542    31720    26292 
   15375    10419    17737    30955    42527    47375    41057    24946 
   11365    12324    21455    21928    12303     8995    22887    46548 
   64000    62780    41596    12764    -8237   -17767   -25470   -38115 
  -48798   -46032   -27066    -3078    12302    17801    15147     2965 
  -10420   -16259   -18786   -20644   -19306   -17578   -16956   -13119 
   -5729      866     6860    14382    17509     7716   -11796   -27738 
  -33443   -34299   -34596   -31240   -22883   -15765   -15938   -20386 
  -24505   -27796   -26046   -17986   -13620   -21230   -37991   -53036 
  -56860   -50175   -38812   -26387   -13887    -1491     9319    19431 
   31432    40000    36975    25212    14708    11927    18351    31147 
   41906    42198    31989    14650    -6103   -20374   -21586   -15030 
   -8550    -6048    -5779    -3435       32     1620     2135     2652 
    1865     -233    -1108     -151     3261    12853    25745    30241 
   20025     -525   -20711   -30375   -30052   -23696    -8442    11997 
   24799    24295    13973     -144   -10417    -9958     -676     5799 
     606   -13910   -27129   -29641   -23483   -18079   -15634   -10770 
   -4631    -4502    -9697   -14180   -15849   -14135   -10558    -8964 
   -9409   -10180   -10592    -8638    -4810    -2570    -2428    -2381 
   -1750    -2347    -4729    -6210    -6635    -7319    -6583    -4234 
     523    10150    17564    12852      442    -8996   -11400    -7076 
   -1588    -2442    -7371   -10239   -10750    -8962    -7049   -10891 
  -19059   -23522   -20537   -14019   -10508   -11450   -13622   -13514 
   -9030    -2187     2601     3331      904    -2515    -4576    -2351 
    6899    20738    29091    23145     7024    -5868    -8198    -1923 
    9436    18549    16568     5861    -4820   -11445   -13911   -13919 
  -11349    -4008     6916    17828    25269    24435    11348   -11415 
  -32552   -39349   -28863    -8433    11516    23518    27973    28228 
   21300     4800   -14889   -29220   -32899   -27014   -19298   -13652 
   -8549    -6918   -11955   -18075   -18430   -12973    -4791     2813 
    7148     8237     6979     1814    -8314   -20258   -29524   -33585 
  -33729   -32701   -28254   -17855    -6644    -2220    -6527   -14381 
  -18142   -14397    -6851    -3005    -6108   -12320   -15576   -12521 
   -3694     9319    23098    31918    34877    33785    26847    14277 
    1021    -8171   -12388   -13612   -11333    -3496     8460    20695 
   28759    29016    21460     9178    -4459   -15284   -18732   -15076 
   -7622     1566     8309     9335     6189     -229    -9859   -19526 
  -25307   -25276   -19877   -12812    -8425    -8556   -11801   -12969 
   -9502    -4536     1092     8592    15512    17419    11601      450 
   -9864   -17095   -22678   -23433   -14933    -2868     2577      560 
   -4086    -8291    -8202    -2830      -98    -8293   -22739   -29905 
  -24759   -13732    -2158     9794    21413    29812    30881    20224 
