Origin Time       2024/04/02 04:24:00
Lat.              40.133
Long.             141.712
Depth. (km)       71
Mag.              6.0
Station Code      AOM002
Station Lat.      41.3280
Station Long.     140.8132
Station Height(m) 13
Record Time       2024/04/02 04:25:01
Sampling Freq(Hz) 100Hz
Duration Time(s)  104
Dir.              U-D
Scale Factor      7845(gal)/8223790
Max. Acc. (gal)   9.331
Last Correction   2024/04/02 04:25:01
Memo.             
[...]
   13096    14866    16474    16826    16505    16333    16248    16260 
   16175    16100    16912    17419    15612    13274    13474    15196 
   15522    14582    14017    14197    14966    15526    15214    15415 
   17072    18208    17355    15858    14935    14422    14359    14623 
   14431    14443    16393    18798    18320    15942    14770    14659 
   14563    14964    15884    16306    15763    15101    15257    15790 
   15808    15437    15419    15826    15809    15410    15711    16317 
   15809    14532    14422    16113    17763    17437    15520    14311 
   14835    15016    14089    14620    16711    17417    15936    14131 
   13998    15313    16059    15723    15480    16206    17335    17123 
   15283    13806    14003    14625    14488    14916    17105    19650 
   20020    17694    15106    14262    14551    14335    13234    13097 
   14902    16287    15326    13460    13049    14500    16441    17444 
   17085    16155    15854    15998    15214    14053    14519    16055 
   16571    15919    15446    16069    17208    17107    15376    14453 
   15944    17334    16164    14629    15484    17147    16978    15201 
   13734    14129    15699    15931    14520    14013    15449    16750 
   16436    16038    16691    16853    15411    14069    14812    16013 
   15268    14315    15268    16781    16884    15523    14674    15452 
   16036    15133    14026    14312    16036    17644    17926    17181 
   16032    15217    15402    15516    14183    12735    13340    15560 
   16883    15811    14199    14685    16455    17221    16659    15631 
   15174    15526    15523    14943    15172    16332    16961    16548 
   15878    15768    16344    16814    16156    14648    14033    14879 
   15476    15013    14594    14910    15753    16440    16424    16471 
   17010    16383    13917    12162    13441    16260    17689    17624 
   17394    16845    15514    14130    13921    14801    15213    14747 
   15016    16799    18266    17593    15668    14692    15292    15878 
   15176    14181    14277    15430    16517    16474    15769    15357 
   14960    14459    14304    14361    14759    15816    16706    16579 
   16028    15677    15060    14339    14462    15059    15403    16054 
   17055    17631    17837    17544    16055    14316    13953    14388 
   14480    14817    15646    16009    15966    15853    15101    14126 
   14154    15237    16623    17567    17162    15423    14320    15138 
   16083    15549    15034    15545    15685    15460    16039    16625 
   16233    15573    15542    16128    16541    16233    15680    15331 
   14943    14175    13598    14700    16850    17263    15946    15349 
   15927    16306    15846    15117    14501    13884    13691    14358 
   15460    16503    17371    17550    16560    15240    14968    15894 
   16475    15272    13616    14087    16119    16873    15693    14399 
   14677    16131    16857    16497    16306    16387    16032    15637 
   15684    15514    14985    14902    15153    15151    15237    15708 
   16004    15869    15854    16067    15881    15283    14719    14450 
   14994    16200    16734    15777    14207    13807    15056    16598 
   17232    16870    16060    15178    14397    14277    15099    16278 
   16830    16248    15307    15180    15804    16031    15593    15496 
   15924    16017    15677    15456    15411    15300    15408    16174 
   16810    16132    14712    14045    14435    15071    15383    15631 
   16135    16571    16282    15294    14921    15788    16395    15946 
   15538    15599    15743    15894    15952    16065    16348    16156 
   15253    14384    14146    14827    15963    16260    15854    15831 
   15778    15165    14773    15059    15384    15300    15334    15831 
   16117    16000    16309    16883    16615    15588    14895    14879 
   14862    14669    14922    15896    16999    17140    16391    15816 
   15269    14142    13163    13637    15376    16748    16779    15550 
   14342    14986    16714    17005    15874    15147    15191    15584 
   16339    16896    16613    16062    15911    15731    15110    14447 
   14176    14538    15360    15938    16178    16583    16929    16418 
   15045    13910    13826    14628    15792    16492    15996    14979 
   14893    15782    16422    16183    15805    15975    15746    14528 
   14029    15206    16332    16233    16016    16641    17496    17544 
   16306    14409    13570    14172    14544    14235    14597    16031 
   17336    17393    16430    15315    14735    14963    15357    15117 
   14679    15221    16482    17065    16987    16671    15757    14882 
   14918    15229    14824    14067    14436    15993    16839    16124 
   15230    15508    16210    16013    15249    14967    15387    15653 
   15141    14624    15007    16097    16966    16922    16268    15742 
   15364    14814    14157    13853    14658    16166    16742    16341 
   16341    16681    16259    15141    14442    14798    15766    16474 
   16525    16105    15765    15800    15560    14814    14976    16499 
   17059    15282    13454    13930    15653    16187    15261    14639 
   15313    16447    16779    16002    15041    14882    15402    15700 
   15151    14270    14388    15782    16862    16353    15390    15610 
   16372    16147    15153    14611    15041    15952    16376    16367 
   16735    16992    16170    14982    14837    15415    15357    14820 
   14740    15118    15670    15930    15290    14316    14349    15547 
   16664    16900    16515    15819    15267    15307    15483    15396 
   15616    16330    16902    17174    17080    15990    14376    13467 
   13198    13203    14061    16062    17938    18281    17716    17166 
   16129    14501    13269    13225    14127    15111    15826    16455 
   17062    17412    17039    15824    14548    14091    14141    14292 
   15102    16328    17061    17238    16737    15569    14877    15157 
   15379    15130    15273    16089    16826    16831    16100    14967 
   14013    14179    15421    16147    15858    15676    15525    14881 
   14666    15060    15230    15642    16506    16622    15943    15750 
   16052    15626    14624    14485    15468    16899    18079    17779 
   16112    15094    15094    14852    14551    14931    15576    16085 
   16352    15751    14584    14211    14671    15124    15556    16233 
   16538    15849    14870    14520    14821    15519    16278    16579 
   16312    16100    16428    16702    16079    15010    14357    14088 
   14351    15284    15785    15291    15020    15790    16868    17181 
   16480    15423    14720    14625    14967    15417    15797    15789 
   15313    15052    15283    15435    15242    14924    14947    15496 
   15716    15346    15519    16208    16155    15612    15747    16314 
   16424    16162    15978    15835    15562    15303    15460    15896 
   15516    14084    13428    14937    17127    17366    15558    14311 
   15217    16708    16195    14050    13629    16023    18102    17456 
   15561    14704    14920    15074    14831    15012    16191    17269 
   17084    16143    15433    15277    15149    14616    14327    14845 
   15947    16854    16656    15824    15461    15273    15006    15147 
   15454    15790    16459    16815    16164    15018    14359    14521 
   15026    15341    15353    15506    16185    16544    15843    15426 
   16298    16730    15572    14480    14673    15577    16141    15481 
   14311    14338    15421    16105    16159    16322    16337    15545 
   14843    15257    15957    15975    15839    16131    16434    16293 
   15778    15303    15309    15660    15870    15815    15778    15858 
   15460    14436    13926    14505    15404    16133    16664    16710 
   16162    15499    15286    15363    15336    15419    15790    16071 
   15930    15649    15665    15573    14850    14172    14381    15213 
   16127    16617    16220    15719    16117    16584    16151    15507 
   15147    14646    14515    15518    16756    16977    16486    16179 
   16079    15651    14685    13635    13338    14085    15275    16281 
   16935    16947    16144    15136    14597    14578    14994    15714 
   16235    16214    15738    15238    15330    15699    15730    15757 
   15854    15859    16131    16451    16166    15199    14377    14779 
   15743    15727    15172    15344    16001    16097    15396    14850 
   15369    16552    16970    15784    14010    13776    15554    17050 
   16700    15982    16420    17335    17138    15456    13770    13446 
   14203    15045    15277    15214    15777    16162    15271    14646 
   15525    16769    17064    16163    15002    14766    15449    15989 
   15943    16140    16664    16453    15475    14766    14936    15485 
   15307    14354    14180    15457    16513    16243    15807    15977 
   16182    16175    16156    16308    16583    16330    15365    14548 
   14358    14485    14616    14602    14404    14592    15847    17371 
   17656    16524    14956    14021    14365    15430    15691    15122 
   15454    16694    16976    16316    16430    17316    17442    16132 
   14268    13709    15101    16559    16447    15641    15340    15055 
   14431    14366    14956    15350    15616    15785    15280    14864 
   15295    15533    15124    15014    15855    17200    17709    16746 
   15392    14733    14438    14250    14848    16335    17787    17975 
   16420    14588    14391    15132    14724    13794    14585    16760 
   18184    17807    16056    14408    14041    14412    14557    14770 
   15722    16970    17707    17668    16355    14071    12857    13699 
   15064    15357    15057    15799    17559    18301    16929    14732 
   13566    14075    15564    16275    15365    14766    16056    17617 
   17486    15939    14746    15091    15840    14863    12611    12440 
   15372    17645    16548    14508    14833    16933    17787    16486 
   15082    15087    15607    15434    14731    14656    15992    17297 
   16602    14948    14643    15527    15863    15248    14940    15805 
   17030    16957    15267    13894    14293    15148    14735    13886 
   14461    16190    17138    16447    15543    16071    17064    16578 
   14912    13809    14142    15403    16245    16035    15855    16397 
   16568    15903    15495    15647    15512    15201    15438    15901 
   15959    15739    15438    15002    15068    15826    15884    15078 
   15076    16159    16742    16108    15492    15554    15415    14870 
   14395    14084    14602    16475    18007    17358    15566    14553 
   14605    15265    16221    16831    16378    15655    16029    16555 
   15757    14369    13497    13555    14933    16868    17527    16725 
   15940    15377    14457    14040    14835    15985    16567    16291 
   15477    14918    14951    15111    15002    15070    15692    16340 
   16762    17235    17359    16428    15052    14655    15075    15091 
   14762    14843    15503    16618    17409    17005    16337    16622 
   16761    15456    13722    13078    13791    15438    16984    17120 
   16017    15233    15338    15518    15396    15352    15439    15449 
   15381    15245    15198    15591    16406    17284    17527    16664 
   15755    15774    15790    15300    14978    14706    14361    14655 
   15615    16479    16791    16276    14851    13579    13775    14725 
   14696    13879    14119    16048    17967    18102    16966    16290 
   16390    15827    14226    13560    14813    16395    16691    15834 
   15417    16321    17053    15747    13128    12006    13583    16098 
   17319    16879    16332    16687    17099    16668    15462    14400 
   14461    15113    15481    15934    16409    16148    15581    15562 
   15597    14925    14337    14866    15626    15294    14418    14391 
   15503    16931    17545    16985    16306    16162    16005    15797 
   15545    14740    13960    14164    14967    15504    15728    16183 
   16992    17344    16684    15946    16038    16109    15311    14404 
   14364    15121    15811    15940    16147    16858    17270    16700 
   15691    15256    15592    15614    14493    13220    13393    15002 
   16367    16329    15801    16351    17618    17705    16004    14208 
   14450    16372    17204    15967    14913    15392    16019    15719 
   14754    13455    12528    12842    14188    15512    16286    16764 
   17301    18010    18316    17397    16120    16170    16656    15719 
   14600    15314    16804    17005    15843    14837    15153    16062 
   15822    14295    13066    12941    13466    14374    15874    17857 
   19176    18740    17196    16127    16073    15981    14891    13689 
   13640    14467    15121    15319    15611    16104    16105    15164 
   13806    13327    14031    14658    14797    15047    15268    15583 
   16542    17644    18239    18690    19103    18790    17905    17375 
   17026    16129    14897    13946    13703    14283    15099    15614 
   16181    16883    16461    13979    10983     9903    10723    11751 
   12318    13143    15408    18771    20661    19872    18446    17945 
   17663    16991    16486    17194    18917    19595    18387    16730 
   15435    14196    12475     9805     8048     9971    14179    17228 
   18395    18237    17015    15346    13455    11445    10623    12025 
   14696    16877    17493    16802    16254    16564    16829    16031 
   14604    14006    14359    14461    14189    13981    12962    10407 
    8060     8295    10766    13906    17631    21697    24722    25373 
   22717    17766    13394    11495    12206    14735    18018    20700 
   21274    19441    16075    12343     9633     8478     8172     9000 
   12345    17352    20935    21736    20964    19753    17988    15138 
   11184     7751     7931    12494    17949    20887    21547    21640 
   21417    20100    17455    14133    11163     9175     8371     9186 
   12190    17059    21676    23384    21820    19206    17417    16249 
   14906    13574    12901    13284    14700    16108    16463    16313 
   15994    14224    10628     7727     8352    11866    15296    16960 
   17307    17926    20034    22746    23139    19415    13803    10114 
    9832    11573    12653    12769    14469    17836    20011    20148 
   19552    18362    16073    13649    12355    12415    13640    15313 
   16492    17342    18669    20054    20079    18436    16116    13711 
   11657    11419    13779    17014    18922    19589    19962    19345 
   16927    13544    11160    11105    11626    10411     9390    11653 
   16214    19770    20529    19233    17729    17035    17523    18806 
   18982    17285    15643    15360    15538    15141    14481    14478 
   15371    16907    18536    18891    17104    14288    12171    11415 
   11962    13629    15369    15666    14960    14999    15789    15935 
   14831    13147    12357    13405    15426    17155    18597    19804 
   19647    17078    13204    10675    10183    10262    11119    14219 
   18658    21963    22985    22689    22395    21192    17259    11763 
    8942    10987    14678    15823    14484    13613    14531    15658 
   15762    15612    15573    14905    13828    13396    13792    14746 
   16193    17691    18601    18655    17698    15708    13174    11133 
   10794    12271    14536    17126    19543    20761    20835    19584 
   16438    13227    11614    10604    10053    11101    13680    17081 
   20067    20610    18045    14262    12298    13652    16356    17184 
   15653    14106    14798    17487    19553    19171    17523    16727 
   16680    15564    13254    11963    12638    13622    13392    12287 
   12611    16221    20513    20741    17024    14644    16866    20902 
   22168    20042    17374    15944    15074    13826    12582    12714 
   14492    15948    15743    15105    15236    15969    16833    16690 
   14874    12965    12387    12698    13728    15946    18319    18555 
   15907    12359    10773    12216    14616    14964    13977    14976 
   17763    18904    16888    13851    13000    14415    15476    15363 
   15196    15734    17231    18729    18293    16059    14395    14690 
   16093    16892    16754    16456    15985    15446    15507    15795 
   15503    14871    14700    14798    14216    13043    12437    13362 
   15596    17957    19838    21047    20818    18974    16710    15056 
   14179    14573    16542    18220    17420    15180    14212    15184 
   16362    15857    14338    14291    15920    16857    15965    14671 
   14605    15036    14098    12140    11283    12815    16217    19105 
   19037    16433    13949    13124    13740    15080    16210    16580 
   16270    15246    13668    12523    13099    15383    17451    17637 
   16445    15581    15769    16052    15391    13946    12611    12189 
   12879    14098    15345    16758    18065    18297    17281    15893 
   14659    13998    14667    16275    17693    18851    20008    20363 
   18504    14642    11271    10156    10979    13263    16438    19066 
   20169    19684    17693    15016    13063    12037    11300    11583 
   13968    17574    20710    21917    19782    15248    12023    12232 
   14285    15763    16159    16602    18013    19649    19851    17949 
   14720    12113    11921    13717    15673    16654    16135    14443 
   13258    13386    13576    13397    14288    16559    18763    19877 
   19631    18273    16829    15890    14628    12843    12252    13509 
   14949    15712    16568    17506    17456    16062    14291    13772 
   15130    16721    16222    14094    13541    15588    17437    16757 
   14320    13072    14976    17784    17960    16201    15348    15480 
   15286    14867    14897    15422    15951    16098    16171    16572 
   17043    16935    16089    15284    14926    14407    13784    13956 
   14623    14662    14505    15084    15442    14399    12842    12445 
   13443    14889    16541    18659    20024    18963    16027    13462 
   12978    14269    15277    15041    15040    16233    17621    18328 
   17933    16082    13755    12672    13274    14608    15693    16308 
   16578    16498    16040    15576    15599    15782    15558    15569 
   16507    17342    16947    15993    15319    14667    14106    13934 
   13711    13617    14623    16758    18739    19287    18713    17944 
   16788    15148    13849    13743    15066    16781    17459    17118 
   16510    15709    14770    14050    13633    13624    13944    14098 
   14131    14586    15584    16622    17104    16834    15668    13721 
   12307    12684    14323    16123    17771    18879    18580    17122 
   15778    14675    13329    12617    13848    16407    17913    17572 
   17263    17853    17671    15407    12270    10876    12174    14403 
   15781    16366    16929    17791    18584    18204    16206    14203 
   13946    15051    16006    16244    16314    16519    16494    15790 
   14612    14196    14945    15506    15383    15552    16124    16163 
   15545    15117    15095    15124    15340    15816    16549    17524 
   17647    16397    15457    15925    16499    15832    14434    13718 
   14075    14976    16293    17319    16718    15098    14527    15342 
   15909    15489    15128    15232    15039    14462    14187    14472 
   14997    15732    16707    17254    16908    16063    15426    15203 
