Origin Time       2024/04/02 04:24:00
Lat.              40.133
Long.             141.712
Depth. (km)       71
Mag.              6.0
Station Code      AOM014
Station Lat.      40.4472
Station Long.     140.9403
Station Height(m) 432
Record Time       2024/04/02 04:24:52
Sampling Freq(Hz) 100Hz
Duration Time(s)  144
Dir.              E-W
Scale Factor      7845(gal)/8223790
Max. Acc. (gal)   60.011
Last Correction   2024/04/02 04:24:52
Memo.             
[...]
   -4355    -4332    -4351    -4364    -4340    -4336    -4363    -4356 
   -4334    -4349    -4363    -4344    -4340    -4355    -4352    -4342 
   -4347    -4352    -4353    -4352    -4344    -4344    -4357    -4353 
   -4341    -4352    -4360    -4342    -4338    -4363    -4355    -4332 
   -4351    -4369    -4342    -4334    -4360    -4353    -4332    -4349 
   -4364    -4347    -4341    -4356    -4353    -4341    -4347    -4351 
   -4349    -4347    -4340    -4342    -4355    -4347    -4334    -4351 
   -4359    -4334    -4333    -4359    -4352    -4332    -4349    -4363 
   -4338    -4333    -4356    -4349    -4334    -4349    -4356    -4338 
   -4340    -4355    -4351    -4344    -4348    -4349    -4348    -4348 
   -4347    -4352    -4359    -4353    -4357    -4386    -4409    -4419 
   -4469    -4550    -4606    -4653    -4733    -4788    -4796    -4827 
   -4881    -4877    -4810    -4739    -4665    -4564    -4425    -4224 
   -3985    -3794    -3680    -3566    -3406    -3284    -3373    -3728 
   -4168    -4473    -4681    -4947    -5235    -5417    -5512    -5589 
   -5661    -5653    -5470    -5312    -5607    -6369    -6853    -6215 
   -4531    -2805    -1848    -1645    -1949    -2612    -2837    -1881 
    -810    -1150    -2650    -4020    -4244    -3084    -1884    -2565 
   -4685    -5900    -5957    -6670    -8025    -8380    -7492    -6237 
   -5147    -4553    -4749    -5975    -8182    -9792    -8575    -5522 
   -4658    -6939    -8487    -6852    -3237      606     2910     3356 
    2327    -1912    -8190   -10559    -7061    -2600    -1892    -4745 
   -7777    -9123    -9930   -10149    -7527    -3616    -4297   -11210 
  -17772   -16494    -9532    -5258    -4380    -1887     2551     4621 
    2735     2949     7663     9285     5424     1687     1930     4556 
    2299    -3979    -2700     4016     3404    -3974    -9817   -12155 
  -14820   -20081   -21987   -14104    -3053    -1161    -6970    -9054 
   -5489    -2855    -4064    -6821    -7312    -5076    -1914     5533 
   17543    21582    10625    -4869   -11835    -5529     7631    14527 
    6686   -14426   -34400   -36890   -24318   -11577    -7438   -10535 
  -13045   -10241    -5394    -1598     -130    -6640   -20245   -24031 
   -7762    14087    22373    18810    17450    18133     9971    -4024 
   -9439    -2525     7121    10924     8328      105   -16985   -37012 
  -39428   -20012    -1844     2130     1356     2049      176    -5215 
   -7184      475    12621    16268     8384    -2652   -10801   -12460 
   -7009     1699    10434    11963      -55   -17167   -22968   -12645 
    1231     7627     9061     8217      946   -14189   -28115   -28046 
  -12079     7416    16740    12000    -4734   -24910   -33832   -26569 
   -9668     8595    18353    11628    -9094   -26993   -23986    -3033 
   14014    12089    -3013   -16251   -18385   -10030      114     2297 
   -4544    -9447    -4936      -90    -3792    -9975    -9918    -7395 
   -8484    -6138     3142     5761    -7277   -23430   -24831   -12714 
   -2407      166      743    -1318   -13315   -28424   -29643   -15529 
   -2135    -2590   -12559   -18684   -18056   -16434   -13321    -6411 
   -2619    -6174    -6810     4639    20969    26407    15273      -95 
   -5154    -2463    -3607    -7634    -6713    -4630    -8780   -15489 
  -14661    -2902     8889     7663     -993    -1460     6979    12865 
    8830    -4054   -16345   -17404    -6188     9552    20148    18665 
    5319    -8949   -10210     2451    18110    26931    23545     9907 
   -4253   -10870    -7389     1360     2238    -9286   -21301   -24845 
  -22497   -19847   -19984   -20316   -17421   -13389    -9526    -4270 
   -1215    -4549    -8550    -7260    -6084   -11221   -18220   -17653 
   -7734     4432    13401    17433    15091     7491    -1806    -9481 
  -13976   -15211   -13124    -9556    -8148    -9873   -13414   -17379 
  -18770   -15515    -9103     -364     8243     8807    -1503   -13352 
  -16213   -10512    -4190    -2462    -5112    -9815   -14581   -15314 
   -9753    -4780    -5012    -4561      618     7730    12224    11488 
    8536     9255    15113    20668    19230    11164     1969    -3667 
   -3557    -1024    -2209    -8804   -17763   -24074   -24197   -18744 
  -10775    -3761     -448    -1888    -5827    -5944     1479    11319 
   14890     9169     -315    -5907    -5080     -120     5509     9413 
    9644     5047     -467       62     4379      739   -12685   -23097 
  -22320   -18450   -24001   -36180   -40494   -31839   -17242    -5838 
   -3921   -11300   -21438   -25292   -16904     -611    12680    15755 
    8195    -2826    -7121    -1780     7526    13633    13799    10781 
    7157     3460     2230     3507     3495     1273    -3069    -9526 
  -15673   -19373   -20231   -18369   -13531    -6880    -2400    -1521 
   -1291     -167     1309     2469     2201      885     -234    -1800 
   -4579    -7015    -7589    -8236   -11723   -16650   -18061   -13207 
   -5621    -1252    -2575    -8953   -16534   -19282   -16117   -10953 
   -7202    -6567    -9034   -13605   -17901   -17487   -10432    -1659 
    2241      777    -1048      916     5530     8816     8035     3406 
    -916    -1649     -318      491     -313    -2222    -3649    -3369 
    -756     3207     5265     3167    -1579    -5695    -7511    -7480 
   -6478    -4059      560     5373     7870     8144     5844     1505 
   -1351    -1215     1178     3649     1327    -5778   -11068   -11175 
   -8102    -5200    -4912    -7233    -9904   -10891   -10654    -9764 
   -6631    -1394     1833     -417    -5822    -8314    -4999     1239 
    5501     6089     4575     1684    -2582    -6413    -7786    -7155 
   -6515    -6836    -7788    -9112   -11313   -14260   -15242   -11531 
   -3875     3704     5698     -155    -9532   -14682   -11225    -3913 
   -1549    -5040    -8295    -8014    -4216     2867     9678     9630 
     824    -9563   -12453    -7423     -986     1564     -676    -4769 
   -7850    -9072    -8788    -9394   -12679   -17086   -19603   -18345 
  -14796   -11908   -10392    -9971    -9846    -7218    -1343     3619 
    3582    -1830    -9147   -12145    -7963     -870     3446     3763 
    2137      230     -989      -75     2614     3832     1112    -3954 
   -7457    -8124    -7156    -5520    -4417    -4833    -6158    -5810 
   -2025     2079     1389    -3736    -7280    -5810    -2018       18 
    -770    -1977    -1075     1435     3678     4398     2662     -275 
   -1887    -2924    -4224    -3916    -2307    -1529    -2408    -5163 
   -9115   -13120   -16590   -18287   -17375   -16085   -17286   -19921 
  -20401   -16938   -11202    -7380    -7946   -10319    -9778    -4882 
    1607     5829     5028      508    -2053      616     5549     7867 
    5541      448    -3794    -5733    -6598    -7542    -8864   -10208 
  -10423    -9513    -9267    -9722    -8716    -5841    -2982    -1417 
   -1339    -2990    -5539    -6525    -4375     -637     1213     -388 
   -3476    -4534    -2338      905     3739     5394     3485    -1073 
   -3312    -1609      662     1008      407      -68    -1433    -5350 
  -10519   -12870   -12024   -11395   -11772   -11627   -11052   -11059 
  -10999    -9801    -9059    -9748    -8812    -4854    -1490    -1729 
   -4202    -5243    -2151     3493     7430     7996     6490     5481 
    5790     5387     3836     2336      495    -1818    -2114     1231 
    4887     3719    -2650    -9416   -12360   -10874    -6974    -3202 
    -673      333      -67     -648      -70     1258     1602      -27 
   -3163    -5455    -4024       29     2281     1350     -513    -1841 
   -2720    -2848    -1178     1273      816    -3723    -9352   -13366 
  -15898   -17340   -16147   -11826    -7006    -5653    -8845   -12436 
  -13107   -12016   -10048    -7051    -4969    -5636    -8005    -9895 
  -10917   -12957   -15032   -13022    -7132    -1960     -966    -2930 
   -3272     -221     3438     4666     2851     -463    -2817    -3649 
   -4591    -5734    -5895    -6420    -8923   -11167   -11007    -9537 
   -7290    -3819     -795     -889    -4576    -9570   -12073   -10550 
   -7888    -6150    -4409    -3474    -5103    -7273    -6516    -3416 
   -1372    -1752    -3123    -3219    -1367        0    -1040    -2612 
   -3105    -4194    -7412   -11380   -12943    -9706    -3624     -359 
   -1829    -4885    -7018    -7391    -6174    -5142    -5439    -5977 
   -5275    -3570    -2635    -2948    -2786    -1661    -1663    -2987 
   -2311      530      837    -2986    -6365    -5463    -2848    -3001 
   -5656    -8070    -9674   -10309    -9155    -6606    -3260     -361 
     147     -712     -783     -818    -1987    -3780    -4896    -4298 
   -2924    -2577    -3588    -4818    -4965    -3773    -1755    -1152 
   -4618   -10180   -13682   -14226   -12638   -10621   -10164    -9508 
   -5479     1055     5787     5043     1132      -99     1872     3588 
    3246     1285     -548    -1696    -3175    -5591    -8110    -8372 
   -6064    -3865    -3855    -6257    -8334    -6822    -3040     -234 
     341    -1782    -5968    -9262    -9310    -7481    -6702    -7202 
   -6403    -3838    -2578    -3437    -4001    -2860     -340     1348 
     487     -529     1204     4356     5742     5185     4209     2435 
     178    -1324    -3238    -6489    -9378    -9875    -8168    -7052 
   -7821    -7319    -4606    -4224    -7704   -10906   -10230    -6288 
   -1567     3176     6866     6960     2682    -3654    -7882    -8313 
   -7165    -5556    -3989    -5135    -8854   -10802    -8603    -4464 
   -2435    -3838    -6023    -7306    -8621    -9022    -6750    -4260 
   -5495    -9502   -11595    -9811    -6058    -2855    -2219    -4946 
   -8970    -9867    -5667      -41     2350      409    -3478    -5931 
   -6606    -6424    -4367    -2110    -3964    -8841   -10473    -5942 
     162     1432    -2120    -5634    -6768    -6860    -7055    -6250 
   -3986    -3246    -5378    -6762    -5772    -5572    -8043   -11140 
  -12245   -11952   -12268   -11801    -8302    -4006    -2670    -4550 
   -6640    -6068    -3908    -3366    -4762    -6077    -6029    -5406 
   -5277    -3925      305     5101     7033     5539     2137    -1524 
   -3481    -2600      -67     1864     2039     1382      855      387 
     153      101      491     1858     3017     2875     1795     -139 
   -1927    -1809     -444      472      985     1462      889    -2366 
   -8102   -12754   -12958   -10077    -7662    -6748    -6824    -8235 
  -11018   -13367   -12619    -9192    -7769   -10674   -14210   -13999 
  -10374    -7041    -5560    -4742    -3707    -1775      649      638 
   -3213    -8388   -12044   -12289    -8444    -3262     -845    -2299 
   -5167    -5817    -3439    -1096    -1551    -4210    -6620    -7036 
   -4866     -531     3754     4762     1840    -1574    -2355     -530 
    2791     5714     5448     1759    -1617    -1722     -291    -1051 
   -5053    -9856   -12124   -11377   -10555   -11092   -11954   -13209 
  -14461   -14091   -12333   -10397    -8595    -6790    -4932    -3897 
   -4676    -6435    -7580    -7642    -6995    -6326    -6860    -9518 
  -13009   -14067   -10206    -2826     2740     2802     -457    -2818 
   -3084    -2301     -491     3253     7042     6419      569    -6062 
   -9649    -9981    -8073    -4984    -2693    -3408    -6889   -10170 
  -11422   -11631   -11361    -9059    -3580     3003     6269     4815 
    2212     2045     3865     5726     8324    12328    16166    17513 
   13517     4752    -3852    -9308   -12923   -16768   -19978   -20835 
  -20669   -21305   -21501   -18635   -13004    -9477   -10488   -10943 
   -7389    -3234    -1067      579     3146     5683     5826     2547 
   -2392    -7141   -10422   -10226    -7087    -4911    -7245   -13821 
  -20883   -26179   -28239   -23827   -12387     1938    13506    19002 
   18234    12748     6894     6208    11792    19545    25196    26677 
   23207    17173    14131    17014    22592    25852    26028    24833 
   21864    15518     5428    -5587   -12410   -14624   -17081   -22231 
  -29293   -37731   -47221   -56164   -59898   -52473   -34901   -17837 
  -10656   -11381   -10312    -2315     7832    13294    12388     7310 
     885    -5085    -9772   -11213    -6420     3854    13703    16642 
   10152    -3461   -18222   -24275   -14277     4731    15876    10380 
   -5908   -20092   -24834   -23785   -22319   -20885   -18364   -14936 
  -14116   -20656   -32968   -42195   -41504   -34700   -33057   -40342 
  -45021   -33840    -7443    21351    39048    40180    29863    20383 
   19556    22053    17743     4942    -8931   -14989    -8707     4461 
   13956    16389    11965     2228    -7187   -13142   -14103    -9645 
   -5007    -6107   -13521   -22518   -26820   -23232   -15071    -9061 
   -6052    -3364    -2636    -4094    -4831    -3191     3215    14129 
   26835    37786    38364    25282     6998    -6307    -7010     5938 
   22727    29515    17887    -8788   -34140   -42024   -31418   -14330 
   -3767    -1556     -167     2065     -251    -9409   -21496   -28946 
  -26643   -15048      899    13917    19935    18563    11712     5058 
    2940     4114     4201       94    -6096   -10998   -16302   -24983 
  -34735   -40678   -41092   -37335   -33420   -33442   -36634   -38826 
  -35792   -25602   -12225    -4962    -8089   -13344    -9541     4685 
   20447    28471    26966    21377    21284    31990    48073    58561 
   55669    41052    22469     7495     3998    11485    17778    13228 
   -3804   -26203   -41006   -39906   -23465    -3017     7987    10806 
   14257    15206     5134   -11736   -23278   -23619   -14328    -2135 
    4299     3075        9     -691    -2412    -8097   -12379    -8861 
    2450    11763     7570    -8532   -23830   -25968   -14939    -3997 
   -5506   -17504   -27581   -30123   -26735   -19349   -11593    -6604 
   -3888     -886     2512     4189     2708    -2373   -11472   -23970 
  -34929   -37714   -28138    -7753    13041    22630    17907     2862 
  -15452   -28487   -32794   -32036   -27434   -17906    -7469     -870 
    2219     4747     8958    15275    21073    23313    21524    15556 
    7446     3306     6048     8735     1749   -12691   -23504   -26079 
  -24559   -24345   -25957   -25462   -21529   -17751   -18979   -24714 
  -26095   -17477    -4985     1822      -74    -6376   -10898    -9059 
   -1574     4590     6520     8656    13828    20592    23585    16228 
     145   -14195   -17575   -10459    -4050    -8506   -19313   -23004 
  -15365    -7796   -10898   -17741   -15900    -2637    15313    26102 
   25350    18698    14831    18260    22476    22380    20945    20596 
   23272    25274    17234     1637   -10763   -13385    -6277     2018 
    6222     2902    -8850   -20829   -31118   -40306   -43717   -38275 
  -24845    -9548    -1305    -2577    -6477    -8056    -4098     4658 
   10072    10930    11545    14422    18513    19230    15750    11722 
   11445    13605    10739     -946   -18758   -35473   -42520   -38254 
  -29045   -20425   -14779   -14490   -17957   -19454   -16667   -12037 
   -9674   -11365   -14724   -15854   -11723    -2698     8009    16567 
   18423    11325    -1144   -10936   -12910   -10589   -10238   -13117 
  -17176   -21529   -26623   -31132   -31239   -25677   -18762   -14508 
  -11545    -7399    -2334     2945     8523    13459    15161    12802 
   10206    11747    15672    15947    11539     8657    12324    20615 
   28601    31365    26346    16876     7832     2570     1552      920 
   -3187   -11105   -18408   -21348   -20858   -19946   -20912   -22759 
  -23137   -19079   -11511    -7334    -8982   -11479    -8999    -1200 
    6257     7959     5302     4183     5512     6361     5255     2415 
     -59     -938     -963    -1109    -2328    -5373   -10523   -16552 
  -20865   -21528   -18131   -12440    -9936   -16425   -29868   -41126 
  -42437   -31710   -15341    -5792    -9417   -20325   -27616   -25758 
  -18106   -10859    -7335    -8175   -11254   -12847   -11789    -8807 
   -3946      652     2331     2362     2652     2511     -444    -6035 
   -9749    -8121    -2524     1717     1694      773     2921     8326 
   13192    13242     8680     2971     -764    -1332      734     3659 
    4997     4758     5049     5954     6116     4463      897    -2223 
   -2305      507     2785     -847    -9269   -13697   -12479   -10138 
   -6844    -4433    -3682     -399     4368     7916     9616     7701 
    4527     3684     5555     9437    13385    16422    17679    16258 
   13482     9436     3173    -3696    -7188    -4823     1316     6100 
    5405       93    -6077   -10872   -13338   -13671   -13054   -11978 
  -10627   -10241   -13166   -19337   -22732   -19024   -13342   -11826 
  -13880   -15967   -15422   -13167   -13031   -15877   -19290   -21327 
  -21269   -18590   -13512    -7726    -2211     1840     2833     2169 
    2162     3349     4766     5000     4039     2601      519    -2729 
   -5784    -5942    -3703    -3258    -7226   -12876   -14916   -11561 
   -5444      305     4056     5479     5517     5155     4214     3522 
    3600     2582     1821     2238      174    -3069    -5007    -6760 
   -6550    -3534     1015     5508     5918     1097    -5096    -8509 
   -7888    -4877    -2538    -4760   -12248   -20513   -25151   -24668 
  -19545   -12976   -10091   -12187   -15099   -16803   -18135   -16914 
  -13117   -11776   -14625   -18885   -21277   -20248   -17298   -14338 
  -11647    -9629   -10255   -13300   -14659   -11183    -3370     3993 
    7040     7426     8433    11859    16039    16968    12931     6416 
    1683      996     2716     2524     -234    -1590     -298      429 
   -1838    -6741   -12673   -16573   -16893   -15491   -13987   -12695 
  -11356    -8746    -2903     5555    11696    11777     8249     6336 
    7230     8635    10115    12889    16325    17734    15174    10114 
    4936      533    -1676    -2450    -4668    -8179   -11669   -14624 
  -16461   -17027   -16289   -14314   -12124   -10629    -9188    -7975 
   -7358    -5624    -2673     -479      549     1026      615     -780 
   -1732    -1336      139     2639     5988     9526    11597     9499 
    2016    -8068   -14985   -15057   -10264    -6031    -6814   -12464 
  -18293   -20139   -18284   -14783   -10246    -5371    -1451      946 
    1641     1336     1480     1647      190    -2382    -4395    -5020 
   -4372    -4533    -7194   -10856   -12766   -11510    -8865    -7285 
   -6288    -4627    -2643    -1786    -3125    -5757    -7182    -6578 
   -6087    -7069    -8325    -8297    -7250    -6710    -6544    -5298 
   -3136    -1659    -1853    -3414    -5495    -7788   -10017   -11353 
  -12328   -15126   -19267   -21077   -19965   -18485   -17506   -16688 
  -14894   -10651    -5929    -5017    -7952   -10173    -9020    -5549 
   -1742      384      406      739     2829     4644     3958     1263 
   -1776    -4352    -5782    -5111    -1653     3900     8480     9335 
    6674     1784    -4267    -8866    -9022    -5324    -1578     -206 
     405     2444     4298     3701     2004     1221     1409     2216 
    2493      946    -1571    -3769    -4658    -3273    -1435    -2184 
