Origin Time       2024/04/02 04:24:00
Lat.              40.133
Long.             141.712
Depth. (km)       71
Mag.              6.0
Station Code      AOM006
Station Lat.      41.1976
Station Long.     140.9979
Station Height(m) 1
Record Time       2024/04/02 04:24:59
Sampling Freq(Hz) 100Hz
Duration Time(s)  114
Dir.              U-D
Scale Factor      7845(gal)/8223790
Max. Acc. (gal)   29.008
Last Correction   2024/04/02 04:24:59
Memo.             
[...]
   13783    13342    14364    13763    14301    18623    17662    13386 
   14094    14852    14770    15793    12830    10207    14146    17292 
   16240    17073    18280    15665    13587    14627    16259    16823 
   14530    12622    15538    17455    14729    11935    10392    12623 
   17896    16852    14049    17788    18497    15292    16637    17471 
   13926     9641     8093    11870    15468    15373    17127    17933 
   14839    14793    16349    14058    10520     8171     9671    15186 
   17598    15585    14534    16019    18395    18226    15086    14818 
   18588    18939    12789     7425     7673     9734    12343    15106 
   15071    15183    16252    15943    17305    18438    16339    14511 
   13903    15295    18162    18337    17613    17878    16378    14308 
   13463    12058     9197     8495    13514    18400    17150    14354 
   14419    15354    14654    14496    17647    18994    15341    13628 
   14420    12131    10951    12731    12838    15356    20050    18234 
   14515    16121    17517    16399    16302    15252    12748    13836 
   16757    14814     9992     8322     9229     9771    11028    13421 
   14206    14422    16815    18227    16885    16664    17539    17454 
   17451    17027    16498    16667    15209    13922    15345    15622 
   14146    14567    16232    15655    11410     8104    10114    12631 
   12862    14508    15935    15030    15167    16652    16993    16162 
   14875    13895    14226    16198    19057    19500    15832    13082 
   14708    16262    13868    10682    10886    12478    12710    13495 
   15406    16722    17478    17363    15877    15412    16934    17525 
   16382    15434    14843    13294    12046    13567    15111    13728 
   12405    12596    12834    13284    13379    12378    12669    15237 
   16676    15962    15271    14978    15504    16382    15788    16038 
   17378    15542    13486    14736    15186    14108    13622    13566 
   14311    15053    14818    14373    14148    13576    12117    11510 
   13053    14756    15796    16343    15557    15472    17883    19313 
   17618    15012    12953    12329    13157    13246    13555    15623 
   15932    14901    15773    15900    15115    14648    12577    12457 
   14854    14412    13510    14149    13911    15321    17923    17197 
   15153    14276    12884    12411    13248    12731    13783    17189 
   17798    17483    18685    17770    16675    18057    17651    14841 
   13598    14316    15218    14647    12610    12029    12428    10833 
   10377    13335    14679    14137    16222    18033    16055    13579 
   12762    12637    13637    16579    19122    18385    16654    16825 
   16259    14835    16000    16503    13328    10501    10478    12991 
   15842    15927    15812    17706    17524    14982    14499    14266 
   11489    10378    11438    10962    10947    12434    12726    12418 
   13328    15418    17338    17046    15295    15666    17478    16740 
   16001    18659    19337    16318    15394    16121    15476    14461 
   13568    13547    14212    13481    12540    12679    12293    12779 
   15387    16773    16160    15739    16079    16927    16390    14341 
   13863    13822    12992    14891    16907    14875    14519    17022 
   16753    15913    16626    16298    15226    14797    15682    16309 
   15207    14285    13239    12428    13711    13279    10739    11001 
   12055    12592    15502    16758    14710    15133    16687    15662 
   15672    17128    16062    14728    16046    15720    12367    11570 
   13609    13886    13443    14883    15965    15129    14906    15961 
   15870    14547    12830    10393     9464    12221    15641    16498 
   17146    19627    20143    16970    14142    12981    12658    14141 
   15446    14682    14987    16519    15246    12537    12108    12820 
   13745    15471    16422    16124    15553    15156    15807    16241 
   14897    14851    16316    14627    12441    14013    14539    12594 
   12154    11749    11731    14889    16648    14602    13231    13957 
   15094    15151    14779    16135    17911    18195    17327    16187 
   16463    17143    15808    14550    15198    15557    14162    13032 
   14569    16455    15876    14715    14315    14022    13536    13004 
   13441    14251    14442    15746    17955    17799    15349    14395 
   15684    15669    13817    13244    13562    13074    12978    12640 
   11307    11689    13359    14334    15842    17250    17286    16839 
   16297    15808    14980    13304    12191    12919    14280    15051 
   15660    15715    14661    13316    12430    12972    14470    14026 
   12035    11898    13107    13957    15473    16664    15905    15728 
   17591    18820    18026    16576    15738    15400    14480    13055 
   12379    12572    13217    14258    15361    15735    15159    14731 
   14681    14359    14299    14517    14989    16389    17038    15951 
   15429    16151    16582    15574    14162    14397    14350    12988 
   13691    15774    16580    16239    15156    15765    17678    17004 
   15869    15807    14503    14142    14694    12800    10284     9306 
   10427    13930    16544    17167    17744    16968    14659    13618 
   14061    13525    12430    13483    14708    14292    14604    14486 
   12945    12908    14004    14439    14987    16177    16749    15453 
   14111    14234    13636    12297    12679    13828    14443    16312 
   18531    17869    15747    14949    14987    14797    14621    14894 
   14697    14339    15306    16393    16846    16618    14925    14160 
   14980    14246    12885    12796    12818    13626    15807    16595 
   15319    15041    15988    16256    16919    17825    17099    16035 
   15634    14921    14350    14615    14357    12553    11800    13386 
   13865    13224    14121    15032    15487    16255    16175    15627 
   14602    13420    13637    13922    14048    14766    14434    13603 
   13309    13134    13614    14087    14207    14494    14112    13779 
   14678    16195    17234    16056    13690    13317    13878    13651 
   14181    15546    16279    16362    16096    15777    15727    14895 
   13508    13967    15723    16544    16337    15618    14878    13521 
   11772    12478    14145    13572    13649    15426    16819    18350 
   17801    14818    14266    14412    12397    12036    13355    13468 
   13228    13801    15357    16320    15190    14300    15052    16051 
   16290    14878    13090    13215    14588    15819    15816    14824 
   15117    16224    16401    16564    16575    15184    13489    12981 
   13574    13832    12649    11631    12216    12989    13532    15032 
   16386    16218    15942    16753    18193    18832    17385    15547 
   15148    15311    15885    16540    15727    14898    16328    17490 
   14968    10856     9263    10039    11265    13356    15496    15078 
   13841    14802    15928    15792    16006    15979    15801    16834 
   16623    15188    15614    14976    12698    13662    15337    14342 
   14010    14069    13306    14254    15136    14561    15130    15142 
   13583    13427    14678    16186    16740    15550    15122    15630 
   14820    14029    14260    14185    14408    15696    16648    16370 
   15360    14264    13466    13331    13559    12621    11341    12060 
   12937    12945    15221    18333    17775    15519    15445    15977 
   15507    15622    15974    15132    14210    13676    12968    13846 
   16112    16256    15361    16382    16699    15056    14153    12837 
   10289    10404    13134    13549    11605    12410    15445    16019 
   15894    16534    15120    14887    18022    18369    15298    14332 
   14412    13369    13987    15101    14473    15125    16591    16503 
   16575    16185    14287    13371    14015    15188    16965    18121 
   16660    13755    12877    13733    13587    13274    13559    13999 
   14693    13952    13419    14935    14871    14015    15234    16002 
   15132    14295    14783    16286    16753    16410    16445    15832 
   15056    15283    15475    14632    13150    12776    13385    13419 
   14180    14998    13579    12380    13571    15898    16721    13917 
   11362    12861    14563    14345    14555    15402    15155    12835 
   10948    11861    13664    15819    17875    17500    17172    19089 
   19900    18072    15650    14504    14899    15499    14955    13729 
   13278    13136    11950    11026    12198    13698    13597    13504 
   14427    15583    16185    15604    15905    17448    16588    15472 
   17845    19418    17926    17007    16571    14701    12919    12727 
   13142    13412    14600    15896    15049    12984    11705    12108 
   13652    14328    14505    15088    14966    14401    13630    12962 
   14326    16578    16862    15700    14821    14843    15583    15704 
   14212    12772    13598    15122    14917    14727    15552    15291 
   14725    15442    15745    14889    13933    12881    12231    13792 
   16686    17385    16082    15314    14689    13518    12209    11749 
   13185    14779    15298    16089    16799    17010    16830    14820 
   13232    14972    15306    12753    13709    16236    15014    14358 
   15465    14929    15137    16060    14777    13548    13743    13452 
   12781    13381    14670    14251    13406    14184    14229    14219 
   16498    17385    15753    15279    15480    14855    15211    16977 
   17382    15622    14856    15375    14770    14665    15255    13853 
   13304    15483    15988    14669    15111    16029    14945    13721 
   14628    15897    15557    14825    15105    15097    12978    11287 
   12374    13686    14979    16816    16703    15885    15201    12564 
   12297    16179    16833    14026    13622    14553    14323    14424 
   15757    16025    14324    14215    16108    16675    16789    16575 
   13698    11477    11834    10952    10071    11626    12494    12523 
   13759    14902    16117    17570    16452    13867    13859    15523 
   15792    14872    14644    15333    15489    15070    15051    15218 
   15244    14894    14956    16193    15944    13421    12318    13676 
   15584    16410    15195    13976    14851    15943    16417    17157 
   16551    14970    15503    16638    15442    14224    14362    13332 
   12820    15082    16324    16033    16301    15151    14316    15078 
   13927    13717    15915    15703    15489    17577    16906    13888 
   13203    13992    14416    14659    13595    12487    13525    14458 
   14735    15101    14003    13648    15094    14944    14246    14793 
   14840    15601    18075    18292    15336    14126    15311    14789 
   13915    14796    14573    14256    16027    16700    15192    13568 
   12029    11476    13136    14729    14316    13748    14546    15508 
   15842    16461    16598    14920    13829    14844    14739    12501 
   11978    13998    14440    13053    13486    14708    15020    15645 
   15253    14046    15012    16722    16761    16340    16062    15001 
   14237    14515    14250    14566    16326    16139    14319    13977 
   14274    13845    12808    12158    13275    15059    15460    14851 
   14688    15125    15304    15306    15751    15943    15581    16125 
   17467    17211    15263    13780    13377    14268    15939    15993 
   14796    14871    15724    15398    14527    14773    14705    13959 
   14767    15157    14130    14674    15673    15577    15032    13749 
   13109    13228    13676    16120    17336    15245    14486    14481 
   13236    14316    15780    14778    15129    15722    13790    13311 
   14530    14208    14002    14072    12367    11649    13880    15579 
   15508    16027    15580    12646    11878    13664    12903    11963 
   13608    13900    13455    14062    13571    14299    17343    18477 
   18743    20521    20676    18841    17073    14524    12548    12814 
   13374    14307    15997    16264    15680    15552    14839    14370 
   14667    13018    10693    12094    15211    16127    16110    17354 
   19570    20564    19872    19836    19511    16922    15739    17464 
   16638    12868    11654    12451    11929    11122    11119    11078 
   10189     8252     7287     8622     9570     9234     9000     8498 
    8978    11136    12939    15192    18976    22225    23940    24314 
   23018    20753    18890    17799    17012    16509    16268    15579 
   15033    14565    12015     9512    10540    12613    13965    14582 
   12526    10388    10922    11341    10897    10681    11659    15106 
   18484    19872    20663    20128    17659    15333    14596    14466 
   12769    10428    10631    12291    13103    14860    18474    21393 
   21427    18918    15815    12953    10492    10852    15184    18867 
   19028    19538    21066    20113    17972    15288     9567     4349 
    2608     1583     3230     8263    11356    13460    16403    18154 
   21776    26681    26470    21817    16476    12841    13027    13882 
   12735    13135    15330    15623    14859    14793    13852    11778 
    9315     6443     5994     9828    13814    15903    19392    23650 
   24753    23824    22939    20312    17185    16710    16190    12949 
   10015     9050     7747     6345     7508    10065    10631     9077 
    6732     4287     3588     5305     8625    14866    23180    29390 
   32529    33183    31511    29320    27162    25246    25617    27020 
   25247    20229    15313    11726     8895     5275     -873    -7786 
  -12922   -15639   -14411    -8839     -198     9578    17080    22361 
   28016    32293    33826    35152    36213    36159    36490    35465 
   31375    26669    20960    13176     7014     3823     1278    -1057 
   -3183    -4444    -3649    -2281     -461     3221     6739     9572 
   14754    21104    24745    26106    26820    26320    24196    20844 
   18388    19485    21525    19688    15993    14104    11638     7595 
    5379     5098     4297     2844     2320     5053    11888    19900 
   25462    27945    29320    30765    30408    26767    21043    14085 
    7223     3233     2955     5880    10089    11329     8846     7263 
    9401    13157    15809    16471    16997    21014    26346    27348 
   24846    21663    18732    18117    18740    16995    13806    11932 
   10300     6421       68    -5864    -6327      198     8579    14598 
   19392    22520    22912    23635    23711    21683    24298    31198 
   32898    29879    27714    24983    21088    18075    14959    11989 
   10027     7807     5829     2903    -2322    -5096    -3200     -357 
    1921     4332     6961     9613    11448    13215    17814    24102 
   27473    28733    31723    35351    36466    33724    27754    21238 
   15396    10226     7283     7260     9011     9884     8237     7404 
    9458    10170     7543     5302     4804     3904     2016     -195 
     -58     4298     7869     9347    15430    24042    28424    30608 
   31243    29076    27731    26306    23226    21875    20695    18584 
   19079    20210    19186    17764    15303    10773     6450     3063 
     476     -275      -79     -494     -248     3839    11049    16525 
   20112    24444    27611    27962    26875    24992    22808    20569 
   17038    13288    11963    12139    12039    11982    12009    11730 
   12129    15292    20383    22771    20491    15971    11429     8133 
    7240     8738    11712    15481    19094    20804    20848    21174 
   21255    20730    21147    20737    17749    14956    12340     8154 
    5687     5387     3813     3316     6185     9378    12486    16789 
   21190    24939    25820    22173    18489    18123    17709    15475 
   14103    13718    12263    10366     9432     9648    11195    13525 
   15520    17332    18925    19958    21324    21915    20510    18716 
   15593    11564    10697    10906    10243    11777    12677    10477 
    9413     9815     8617     5987     3820     3183     4432     8563 
   14548    18982    21802    24609    26404    26856    26659    25238 
   23016    21039    18574    15172    11545     8090     6602     8715 
   11354    12422    13805    14162    12384    10966     9394     7091 
    7109     9589    12062    14565    16287    16079    16942    19211 
   19795    20201    20903    19381    17208    15599    13809    12853 
   12420    12087    13042    14285    14517    15163    16823    17668 
   17501    18096    18392    17113    17120    18507    17890    16087 
   14554    12734    11581    10588     8384     6420     5845     7067 
   10540    14443    16318    15515    14100    14249    14493    14706 
   16636    18671    19314    18916    18414    18868    18187    14918 
   12729    13840    15691    16127    15940    16765    18212    19062 
   19720    19692    17761    14588    11480    10129    10836    11060 
    9520     8251     9208    11153    12147    12407    12136    11803 
   13301    16254    18542    20757    23229    23677    23098    23174 
   20518    15268    11965    10567    10534    12704    15133    16357 
   16105    15082    15429    15993    15044    14624    15493    16657 
   17706    17321    15858    15252    14388    12036     9884     9248 
   10543    12557    12560    11364    10778     9594     8986    11032 
   13976    16552    18407    19114    19751    20019    18748    16306 
   13950    13178    14197    16320    19041    21232    21327    19755 
   18864    18292    16252    14085    12464     9772     7246     6292 
    4968     3879     4438     3927     2062     1799     3763     6781 
    9599    12955    17292    19940    20555    21200    21855    22415 
   23149    23683    24476    25388    25273    25111    25695    24355 
   20270    16887    15931    15635    14085    11472     9995    11056 
   12684    12302    11326    11519    11554    11049    10458    10207 
   11632    12854    11295    10218    11470    11454    10679    12132 
   14173    15921    17998    18985    19410    19970    18909    16950 
   16043    16085    16781    17645    17523    16038    14555    13960 
   12623    11017    12073    14296    15187    15703    14962    12513 
   10696     8973     6696     6149     7609     9336    11128    13455 
   15969    18370    20106    20206    19515    19396    18729    17116 
   16318    16632    17995    19901    20133    19435    19722    19931 
   19418    17277    12696     9286     9275    10045    10454    10945 
   11223    11585    12287    12715    12309    12325    13891    15344 
   16823    19731    21509    21030    20803    21151    20988    19920 
   18382    17401    15853    13201    10999     8711     6791     6851 
    6656     5316     5497     7515    10264    13934    17956    20451 
   20898    21470    23086    23341    22102    21550    20108    17332 
   16993    17643    15869    14823    15500    14242    11362     9356 
    8455     7979     8311    10239    12240    12930    13497    13571 
   12723    13155    14415    15310    17791    20798    21357    20055 
   17621    14586    13346    14071    14307    13794    14007    15056 
   16148    16622    16428    15772    14459    13339    13544    14397 
   14914    15403    16255    16488    16233    16673    15977    13363 
   11705    11909    12915    13525    12436    11105    11889    13142 
   12286    10655    10058     9860    10130    11666    14353    17788 
