Origin Time       2024/04/02 04:24:00
Lat.              40.133
Long.             141.712
Depth. (km)       71
Mag.              6.0
Station Code      AOM024
Station Lat.      41.0473
Station Long.     140.6399
Station Height(m) 2
Record Time       2024/04/02 04:25:00
Sampling Freq(Hz) 100Hz
Duration Time(s)  110
Dir.              N-S
Scale Factor      7845(gal)/8223790
Max. Acc. (gal)   39.006
Last Correction   2024/04/02 04:25:00
Memo.             
[...]
   -2570    -1890    -2516    -3974    -5282    -6208    -7338    -8803 
   -9842    -9533    -7796    -5773    -4850    -5410    -6690    -7655 
   -7983    -8081    -8428    -9096    -9720    -9953    -9711    -9139 
   -8426    -7411    -5954    -4526    -3713    -3700    -4201    -4639 
   -4850    -5251    -6200    -7588    -8834    -9402    -9393    -9194 
   -8992    -8785    -8395    -7817    -7489    -7722    -8284    -8776 
   -8920    -8711    -8498    -8537    -8606    -8379    -7740    -6786 
   -5898    -5449    -5439    -5721    -6291    -7152    -8131    -8951 
   -9297    -8881    -7858    -6826    -6226    -5987    -5670    -5054 
   -4600    -4801    -5412    -5891    -6150    -6569    -7423    -8406 
   -8985    -8862    -8005    -6809    -5769    -4947    -4457    -4706 
   -5787    -7288    -8384    -8424    -7680    -6968    -6790    -7103 
   -7628    -8208    -8766    -9231    -9462    -9158    -8202    -6789 
   -5081    -3360    -2178    -2018    -2940    -4502    -6133    -7564 
   -8819   -10000   -11188   -12333   -13032   -12853   -11869   -10438 
   -8795    -7233    -6212    -6042    -6598    -7469    -8298    -8887 
   -9092    -8920    -8473    -7685    -6453    -5112    -4283    -4187 
   -4584    -5166    -5807    -6592    -7373    -7620    -7180    -6593 
   -6361    -6745    -7813    -9051    -9757    -9807    -9595    -9450 
   -9228    -8549    -7261    -5718    -4563    -4001    -3738    -3651 
   -3854    -4444    -5433    -6579    -7511    -7852    -7338    -6264 
   -5285    -4726    -4730    -5618    -7522   -10017   -12314   -13568 
  -13365   -12052   -10172    -8109    -6392    -5447    -5227    -5363 
   -5447    -5296    -5184    -5578    -6567    -7857    -8988    -9342 
   -8519    -6781    -4924    -3835    -3854    -4676    -5867    -7115 
   -8284    -9186    -9528    -9366    -9050    -8780    -8560    -8260 
   -7784    -7223    -6774    -6606    -6690    -6930    -7541    -8718 
  -10138   -11024   -10627    -8853    -6524    -4700    -3861    -3870 
   -4372    -5062    -5692    -6058    -6173    -6169    -5938    -5478 
   -5100    -4932    -4974    -5335    -5998    -6899    -7994    -9061 
   -9717    -9613    -8765    -7568    -6446    -5791    -5814    -6309 
   -6906    -7495    -8147    -8761    -9131    -9099    -8457    -7314 
   -6278    -5746    -5661    -5944    -6516    -7317    -8405    -9593 
  -10385   -10503   -10007    -9099    -7979    -6667    -5348    -4572 
   -4750    -5888    -7631    -9482   -11064   -11997   -11998   -11184 
   -9767    -7796    -5501    -3361    -1755     -708     -103     -203 
   -1452    -3800    -6698    -9377   -11134   -11695   -11200    -9979 
   -8409    -6809    -5358    -4179    -3507    -3674    -4810    -6508 
   -8046    -9090    -9888   -10623   -11087   -10940   -10017    -8598 
   -7357    -6860    -7204    -8051    -8897    -9418    -9495    -9142 
   -8584    -8143    -7975    -7892    -7589    -7125    -6732    -6601 
   -6949    -7612    -8120    -8325    -8382    -8449    -8522    -8475 
   -8320    -8031    -7395    -6308    -4974    -3797    -3127    -3103 
   -3519    -3855    -3827    -3681    -3863    -4610    -5811    -7240 
   -8760   -10273   -11558   -12112   -11430    -9612    -7356    -5464 
   -4421    -4214    -4540    -5093    -5729    -6485    -7369    -8286 
   -9067    -9472    -9339    -8591    -7164    -5339    -3851    -3381 
   -4116    -5730    -7696    -9545   -10905   -11612   -11657   -11025 
   -9877    -8557    -7275    -6245    -5811    -6102    -6941    -7951 
   -8665    -8972    -8966    -8573    -7798    -6801    -5798    -5136 
   -4865    -4735    -4692    -4833    -5320    -6210    -7186    -7873 
   -8044    -7646    -6936    -6278    -5894    -5825    -5915    -5892 
   -5665    -5448    -5601    -6326    -7430    -8544    -9421    -9842 
   -9632    -8938    -8176    -7668    -7487    -7434    -7211    -6878 
   -6714    -6771    -7026    -7534    -8249    -9013    -9502    -9450 
   -9035    -8608    -8344    -8280    -8311    -8241    -7905    -7349 
   -6906    -6777    -6697    -6227    -5204    -3974    -3198    -3246 
   -3843    -4504    -5143    -5925    -6772    -7483    -7992    -8372 
   -8810    -9369    -9699    -9337    -8303    -7198    -6669    -6805 
   -7122    -7188    -7063    -6987    -7072    -7303    -7449    -7291 
   -6902    -6407    -5969    -5837    -6204    -7161    -8438    -9394 
   -9547    -8943    -8077    -7526    -7470    -7623    -7512    -6855 
   -5844    -4855    -4014    -3489    -3631    -4546    -5908    -7153 
   -7866    -8114    -8317    -8765    -9304    -9455    -8904    -7750 
   -6470    -5769    -6060    -7094    -8260    -9032    -9189    -8880 
   -8432    -8081    -7933    -7940    -7858    -7458    -6704    -5807 
   -5200    -5220    -5857    -6797    -7630    -8160    -8499    -8758 
   -8787    -8422    -7828    -7314    -7145    -7518    -8225    -8803 
   -9088    -9136    -9026    -8905    -8760    -8395    -7916    -7717 
   -7855    -7893    -7295    -5859    -3962    -2315    -1377    -1066 
   -1156    -1652    -2625    -4068    -5742    -7203    -8216    -8907 
   -9497    -9987   -10035    -9414    -8465    -7792    -7655    -7650 
   -7234    -6498    -5918    -5915    -6660    -7754    -8561    -8892 
   -8883    -8718    -8587    -8530    -8448    -8282    -7993    -7588 
   -7199    -6976    -6941    -7142    -7668    -8438    -9308   -10095 
  -10651   -10929   -10787   -10115    -9004    -7580    -6100    -4959 
   -4488    -4854    -5860    -7026    -8013    -8664    -8837    -8568 
   -8020    -7353    -6737    -6049    -5071    -4045    -3300    -3042 
   -3488    -4409    -5281    -5771    -5732    -5459    -5479    -5865 
   -6322    -6561    -6504    -6354    -6303    -6382    -6613    -6956 
   -7393    -8155    -9315   -10382   -10785   -10450    -9811    -9416 
   -9301    -8923    -7969    -6606    -5143    -4001    -3505    -3655 
   -4294    -5177    -6058    -6779    -7221    -7412    -7538    -7774 
   -8237    -8918    -9535    -9659    -9159    -8478    -8226    -8568 
   -9216    -9823   -10193   -10307   -10108    -9505    -8631    -7782 
   -7182    -6831    -6540    -6234    -6076    -6232    -6612    -6804 
   -6484    -5825    -5275    -5070    -5076    -4986    -4766    -4610 
   -4504    -4396    -4320    -4237    -4282    -4645    -5209    -5875 
   -6662    -7348    -7754    -7909    -7847    -7827    -8122    -8627 
   -9174    -9666    -9988   -10064    -9768    -9146    -8503    -8056 
   -7793    -7546    -7248    -7204    -7699    -8549    -9379    -9961 
  -10215   -10181    -9963    -9609    -9094    -8426    -7627    -6718 
   -5684    -4464    -3306    -2748    -3105    -4367    -6234    -8063 
   -9340    -9994   -10207   -10174    -9886    -9255    -8382    -7420 
   -6469    -5679    -5256    -5431    -6313    -7615    -8704    -8976 
   -8253    -6963    -5601    -4341    -3346    -2799    -2809    -3322 
   -3990    -4596    -5301    -6309    -7705    -9166   -10019   -10017 
   -9474    -8935    -8814    -8965    -9082    -9202    -9412    -9660 
   -9752    -9367    -8317    -6813    -5433    -4756    -4941    -5694 
   -6502    -7029    -7344    -7662    -7923    -7803    -7186    -6408 
   -5913    -5776    -5719    -5630    -5763    -6250    -7001    -7882 
   -8573    -8792    -8621    -8293    -7923    -7425    -6705    -5953 
   -5490    -5485    -5907    -6664    -7615    -8461    -9040    -9548 
  -10023   -10071    -9390    -8151    -6878    -6139    -6079    -6286 
   -6419    -6497    -6498    -6293    -5923    -5556    -5436    -5786 
   -6415    -6939    -7321    -7626    -7803    -7912    -7955    -7816 
   -7468    -6999    -6625    -6635    -7028    -7389    -7480    -7514 
   -7744    -8170    -8599    -8802    -8625    -8136    -7570    -7107 
   -6870    -6905    -6999    -6858    -6477    -6093    -5819    -5638 
   -5679    -6199    -7177    -8164    -8760    -9074    -9444    -9821 
   -9852    -9413    -8577    -7438    -6207    -5138    -4515    -4550 
   -4974    -5401    -5790    -6161    -6434    -6519    -6504    -6647 
   -7015    -7383    -7442    -7107    -6674    -6529    -6816    -7273 
   -7531    -7697    -8148    -8856    -9474    -9626    -9001    -7700 
   -6365    -5660    -5729    -6160    -6451    -6408    -6015    -5333 
   -4623    -4245    -4450    -5301    -6704    -8263    -9293    -9547 
   -9486    -9651   -10203   -10747   -10652    -9737    -8244    -6677 
   -5638    -5258    -5355    -6007    -7180    -8498    -9521    -9891 
   -9590    -8889    -7928    -6771    -5535    -4330    -3430    -3273 
   -4008    -5200    -6268    -6913    -7169    -7373    -7685    -7851 
   -7858    -8079    -8675    -9354    -9602    -9107    -7979    -6725 
   -6038    -6189    -6704    -6983    -6926    -6851    -6984    -7163 
   -7150    -7029    -7082    -7434    -7867    -7963    -7577    -6955 
   -6415    -6192    -6339    -6689    -7088    -7311    -7237    -7052 
   -6801    -6434    -6046    -5719    -5668    -6100    -6843    -7562 
   -8060    -8321    -8371    -8120    -7561    -6947    -6513    -6324 
   -6463    -6885    -7267    -7433    -7510    -7622    -7678    -7611 
   -7627    -7889    -8275    -8554    -8461    -7863    -7079    -6741 
   -7206    -8203    -9082    -9290    -8714    -7713    -6870    -6651 
   -7055    -7526    -7534    -7164    -6879    -6878    -6978    -7049 
   -7106    -7087    -6925    -6566    -6006    -5611    -5849    -6752 
   -7970    -8885    -8946    -8329    -7763    -7658    -7854    -8039 
   -8118    -8229    -8461    -8698    -8730    -8494    -8145    -7732 
   -7119    -6396    -5902    -5954    -6642    -7663    -8522    -8896 
   -8830    -8688    -8699    -8672    -8388    -7852    -7063    -6030 
   -5005    -4368    -4459    -5404    -6810    -7871    -7940    -7034 
   -5744    -4826    -4675    -4950    -5125    -5111    -5023    -5035 
   -5298    -5778    -6450    -7245    -7851    -8059    -7954    -7928 
   -8429    -9315   -10061   -10362   -10021    -9111    -8102    -7298 
   -6706    -6297    -6072    -6037    -6070    -6026    -5958    -6015 
   -6393    -7291    -8532    -9594   -10169   -10305   -10197    -9994 
   -9745    -9433    -8958    -8166    -7098    -6108    -5551    -5537 
   -6006    -6659    -7096    -7141    -6860    -6525    -6458    -6654 
   -6828    -6882    -6959    -7094    -7209    -7352    -7615    -7749 
   -7290    -6262    -5108    -4087    -3391    -3192    -3527    -4318 
   -5269    -6077    -6583    -6597    -6230    -5979    -6021    -6124 
   -6185    -6224    -6170    -5950    -5579    -5240    -5309    -5871 
   -6604    -7377    -8276    -9304   -10361   -11223   -11855   -12468 
  -12970   -12970   -12201   -10785    -9155    -7658    -6516    -5861 
   -5652    -5836    -6335    -7025    -7763    -8297    -8410    -7998 
   -7061    -5900    -4861    -4079    -3667    -3757    -4432    -5528 
   -6604    -7380    -7885    -8245    -8623    -8943    -8896    -8428 
   -7801    -7356    -7261    -7404    -7566    -7515    -7163    -6752 
   -6511    -6390    -6292    -6288    -6482    -6897    -7522    -8255 
   -8908    -9239    -8928    -7985    -6731    -5371    -4256    -3847 
   -4133    -4861    -5826    -6712    -7373    -7970    -8529    -8874 
   -8904    -8617    -8090    -7447    -6751    -6120    -5757    -5721 
   -6000    -6480    -6820    -6816    -6666    -6669    -6818    -6886 
   -6779    -6569    -6566    -7084    -7919    -8687    -9232    -9423 
   -9238    -8816    -8293    -7859    -7713    -7892    -8164    -8222 
   -8058    -7836    -7568    -7236    -6934    -6759    -6771    -7041 
   -7558    -8189    -8858    -9555   -10219   -10827   -11279   -11388 
  -11184   -10885   -10570   -10197    -9709    -9008    -8050    -6932 
   -5814    -4853    -4259    -4268    -5019    -6304    -7639    -8688 
   -9301    -9379    -9020    -8472    -7998    -7766    -7686    -7593 
   -7501    -7499    -7634    -7878    -8212    -8775    -9620   -10503 
  -11244   -11792   -12046   -11908   -11394   -10685    -9911    -8945 
   -7634    -6120    -4703    -3619    -3125    -3379    -4175    -5131 
   -5840    -5898    -5285    -4483    -3902    -3557    -3292    -2984 
   -2698    -2836    -3842    -5706    -8063   -10617   -13165   -15379 
  -16684   -16514   -14980   -12868   -10848    -9134    -7476    -5490 
   -3327    -1605     -778     -888    -1671    -2710    -3661    -4421 
   -5066    -5661    -6161    -6494    -6655    -6581    -6178    -5547 
   -4904    -4401    -3986    -3400    -2439    -1144      369     2120 
    4036     5779     6976     7285     6296     3685     -553    -5973 
  -11794   -17271   -21813   -24838   -25886   -24889   -22000   -17400 
  -11577    -5329      353     4471     6524     6409     4237      631 
   -3456    -7267   -10500   -13116   -14796   -14867   -13005    -9775 
   -6372    -4035    -3400    -4121    -5514    -7294    -9339   -11290 
  -12468   -12197   -10439    -7801    -4970    -2482     -741       45 
    -226    -1576    -3619    -5668    -7145    -7649    -6917    -4920 
   -2035      868     2799     3292     2631     1583      982     1266 
    2419     4180     6133     7921     9339    10179    10253     9483 
    7842     5205     1435    -3458    -9142   -14789   -19471   -22570 
  -23830   -23696   -23102   -22623   -22411   -22430   -22405   -21961 
  -20775   -18816   -16571   -14651   -13320   -12517   -12175   -12633 
  -14648   -18878   -25257   -32756   -39885   -45312   -48107   -47818 
  -44311   -37805   -29270   -20179   -11786    -4719      760     4063 
    4469     2124    -1890    -6149    -9355   -10986   -11337   -10876 
  -10026    -9236    -8791    -8465    -7705    -6241    -4205    -2062 
    -311     1239     3353     6565    10882    15732    20218    23653 
   25628    25917    24526    21608    17294    11913     6262     1320 
   -2143    -3866    -4081    -3141    -1498      259     1769     2878 
    3389     3157     2052      -52    -3132    -6841   -10525   -13551 
  -15665   -16993   -17855   -18686   -19737   -20673   -21012   -20684 
  -19940   -19325   -19421   -20224   -21190   -21577   -20838   -19170 
  -17456   -16564   -16592   -16858   -16563   -15299   -13320   -11327 
   -9801    -8874    -8625    -9018    -9895   -10980   -11959   -12788 
  -13666   -14837   -16428   -18025   -18621   -17302   -13844    -8617 
   -2289     4340    10501    15507    18846    20314    19927    17716 
   13836     8838     3537    -1366    -5354    -8094    -9533    -9904 
   -9555    -8527    -6674    -4365    -2424    -1441    -1482    -2334 
   -3897    -6022    -8355   -10690   -13054   -15244   -16594   -16414 
  -14436   -10952    -6844    -3160     -664      272     -355    -2162 
   -4367    -6255    -7624    -8615    -9483   -10559   -12100   -13840 
  -15039   -15256   -14644   -13736   -13223   -13664   -15152   -17294 
  -19535   -21327   -22187   -21870   -20503   -18384   -15776   -12914 
  -10042    -7531    -5908    -5580    -6355    -7304    -7416    -6400 
   -4653    -2785    -1329     -584     -418     -394     -356     -545 
    -990    -1355    -1324     -866     -236      392     1053     1713 
    2261     2451     1872      280    -2135    -4677    -6473    -7202 
   -7076    -6270    -4947    -3599    -3010    -3867    -6378   -10134 
  -14083   -16900   -17668   -16144   -12731    -8343    -3882      -13 
    2641     3627     2974     1170    -1175    -3491    -5165    -5744 
   -5381    -4806    -4442    -3927    -2689     -665     1360     2239 
    1379    -1305    -5748   -11576   -18000   -23828   -28030   -30254 
  -30399   -28370   -24362   -19074   -13886   -10145    -8094    -7206 
   -6879    -6508    -5892    -5517    -5849    -6683    -7254    -6793 
   -5097    -2562       75     1810     1711     -540    -4517    -9340 
  -14130   -18206   -20926   -21722   -20422   -17355   -13142    -8415 
   -3703      544     3915     5956     6106     3910     -542    -6378 
  -12131   -16303   -17886   -16630   -13257    -9362    -6534    -5437 
   -5883    -7244    -8781    -9863   -10091    -9652    -9313    -9698 
  -10656   -11399   -11176    -9863    -7789    -5116    -1765     2134 
    6099     9447    11597    12536    12793    12861    12843    12214 
   10015     6035     1263    -3059    -6130    -7565    -7384    -6232 
   -5112    -4610    -4727    -5270    -6142    -7411    -9194   -11589 
  -14540   -17647   -20173   -21303   -20515   -17811   -13628    -8653 
   -3835     -328      891     -519    -4220    -9414   -15041   -19994 
  -23404   -24915   -24717   -23197   -20756   -17910   -15087   -12545 
  -10693    -9971   -10652   -12883   -16241   -19561   -21402   -20609 
  -17004   -11647    -5995    -1013     2963     5786     6980     6087 
    3348     -445    -4307    -7140    -8224    -7515    -5410    -2660 
    -222     1200     1503      905     -444    -2270    -4071    -5563 
   -6724    -7581    -8357    -9296   -10243   -10698   -10384    -9571 
   -8741    -8193    -7940    -7839    -7796    -7732    -7599    -7476 
   -7561    -8089    -8989    -9776    -9952    -9278    -7862    -6135 
   -4672    -4000    -4352    -5513    -6956    -8106    -8646    -8662 
   -8496    -8611    -9447   -11245   -13740   -16079   -17347   -16983 
  -14829   -11570    -8619    -6932    -6416    -6497    -6768    -7248 
   -8060    -8992    -9539    -9227    -7913    -5935    -3773    -1726 
    -197      270     -413    -1730    -3099    -4348    -5678    -7091 
   -8212    -8576    -7886    -6292    -4401    -2818    -1966    -2180 
   -3626    -6150    -9406   -12989   -16233   -18279   -18725   -17824 
  -15958   -13209    -9439    -4880     -392     3126     5065     5100 
    3350      263    -3416    -6585    -8239    -8086    -6723    -5101 
   -3777    -2890    -2494    -2691    -3601    -4962    -6093    -6648 
   -6840    -7053    -7560    -8364    -9128    -9393    -8905    -7781 
   -6551    -5688    -5063    -4386    -3844    -3908    -4699    -5769 
   -6671    -7636    -9292   -11723   -14106   -15255   -14597   -12596 
  -10328    -8739    -8082    -7997    -7932    -7472    -6685    -6077 
   -6200    -7373    -9472   -11851   -13659   -14304   -13544   -11348 
   -7871    -3649      356     3345     5150     5759     4899     2304 
   -1831    -6538   -10516   -13077   -14193   -14017   -12862   -11226 
   -9463    -7817    -6759    -6812    -8145   -10563   -13506   -16137 
  -17706   -17842   -16664   -14509   -11515    -7722    -3433      812 
    4456     7133     8646     8734     7272     4865     2573      796 
    -915    -3051    -5711    -8671   -11487   -13733   -15214   -15927 
  -15834   -14793   -12946   -10798    -8743    -6993    -5713    -4954 
   -4811    -5451    -6804    -8411    -9499    -9467    -8409    -6885 
   -5417    -4318    -3762    -4035    -5476    -8078   -11462   -15045 
  -18077   -19915   -20302   -19180   -16551   -12733    -8384    -4251 
   -1065      610      517    -1155    -3717    -6442    -8845   -10524 
  -11404   -11657   -11115    -9409    -6565    -3219     -367     1119 
     785    -1170    -3969    -6849    -9489   -11693   -13072   -13394 
  -12961   -12160   -11103    -9745    -7998    -5834    -3393    -1081 
     479      823     -114    -1915    -3751    -4882    -5008    -4380 
