Origin Time       2024/04/02 04:24:00
Lat.              40.133
Long.             141.712
Depth. (km)       71
Mag.              6.0
Station Code      AOM016
Station Lat.      40.6021
Station Long.     140.4982
Station Height(m) 28
Record Time       2024/04/02 04:24:58
Sampling Freq(Hz) 100Hz
Duration Time(s)  102
Dir.              N-S
Scale Factor      7845(gal)/8223790
Max. Acc. (gal)   5.194
Last Correction   2024/04/02 04:24:59
Memo.             
[...]
    -423     -220        9      261      558      865      997      773 
     201     -535    -1173    -1528    -1630    -1614    -1625    -1791 
   -2085    -2374    -2523    -2431    -2158    -1834    -1499    -1221 
   -1075    -1024     -992     -955     -922     -880     -832     -781 
    -641     -394     -159      -24      -13     -137     -409     -828 
   -1271    -1617    -1960    -2347    -2598    -2592    -2365    -1949 
   -1416     -928     -637     -579     -611     -533     -336     -120 
      72      155       32     -243     -558     -855    -1132    -1395 
   -1640    -1860    -2000    -1966    -1753    -1476    -1227    -1009 
    -811     -611     -433     -307     -209     -234     -490     -827 
   -1048    -1155    -1243    -1370    -1548    -1779    -2014    -2126 
   -2037    -1811    -1557    -1385    -1405    -1625    -1935    -2247 
   -2457    -2417    -2137    -1761    -1409    -1125     -882     -720 
    -776    -1069    -1498    -1912    -2116    -2006    -1628    -1163 
    -926    -1086    -1548    -2124    -2610    -2860    -2883    -2720 
   -2423    -2079    -1811    -1741    -1895    -2184    -2444    -2527 
   -2400    -2092    -1667    -1297    -1127    -1147    -1323    -1606 
   -1888    -2126    -2384    -2716    -3036    -3156    -2957    -2415 
   -1587     -696        1      383      475      398      276      186 
     168      187      160       85        2     -109     -299     -592 
    -996    -1493    -2022    -2515    -2917    -3188    -3311    -3310 
   -3210    -2983    -2594    -2134    -1773    -1525    -1260    -1023 
    -966    -1112    -1389    -1691    -1935    -2114    -2158    -2025 
   -1880    -1880    -2007    -2177    -2238    -2042    -1633    -1229 
   -1086    -1327    -1825    -2323    -2532    -2290    -1745    -1197 
    -805     -588     -575     -750     -915     -869     -669     -465 
    -303     -183      -79       36      163      252      244      259 
     437      692      916     1070     1057      835      454      -62 
    -608    -1024    -1291    -1490    -1582    -1470    -1182     -870 
    -707     -777    -1090    -1613    -2231    -2767    -3071    -3171 
   -3164    -2995    -2686    -2392    -2066    -1620    -1163     -826 
    -638     -561     -535     -571     -680     -792     -874     -970 
   -1082    -1170    -1235    -1341    -1494    -1557    -1479    -1316 
   -1036     -625     -197      193      642     1188     1688     2031 
    2238     2340     2340     2261     2093     1756     1128      197 
    -819    -1660    -2268    -2718    -3075    -3350    -3511    -3489 
   -3248    -2860    -2444    -2046    -1638    -1219     -835     -541 
    -341     -186      -60       -1       -6      -41      -99     -141 
    -133     -195     -507    -1044    -1659    -2218    -2637    -2941 
   -3237    -3603    -4004    -4263    -4222    -3889    -3370    -2751 
   -2143    -1669    -1348    -1144    -1015     -841     -537     -176 
      95      233      287      319      319      225       13     -259 
    -445     -441     -291      -76      114      137      -58     -319 
    -463     -373     -120       93      211      322      396      314 
      55     -309     -737    -1109    -1227    -1078     -820     -561 
    -319      -95       82      214      372      564      685      675 
     580      441      237       14     -155     -275     -375     -469 
    -589     -770    -1058    -1514    -2158    -2937    -3740    -4448 
   -4957    -5147    -5040    -4816    -4522    -4148    -3844    -3721 
   -3673    -3561    -3316    -2957    -2593    -2297    -2114    -2064 
   -2103    -2239    -2438    -2493    -2232    -1624     -868     -295 
     -67     -175     -545     -936    -1040     -745     -195      351 
     706      805      648      306      -35     -279     -544     -926 
   -1433    -2088    -2882    -3709    -4426    -4989    -5374    -5489 
   -5281    -4762    -3971    -3014    -2081    -1324     -735     -253 
     148      513      869     1237     1634     1975     2134     2080 
    1860     1502     1017      479      -45     -568    -1024    -1340 
   -1518    -1593    -1595    -1536    -1453    -1489    -1736    -2119 
   -2502    -2843    -3160    -3415    -3523    -3477    -3294    -2944 
   -2481    -2047    -1760    -1675    -1795    -2057    -2349    -2521 
   -2505    -2331    -2025    -1641    -1343    -1235    -1304    -1553 
   -2002    -2569    -3090    -3434    -3595    -3616    -3462    -3130 
   -2739    -2409    -2205    -2135    -2189    -2377    -2663    -2953 
   -3106    -2974    -2556    -2022    -1591    -1402    -1435    -1615 
   -1891    -2185    -2459    -2702    -2859    -2940    -3006    -2999 
   -2812    -2432    -1890    -1233     -604     -122      155      171 
     -70     -456     -819    -1011     -963     -708     -326      116 
     521      781      868      750      378     -220     -907    -1513 
   -1987    -2285    -2268    -1895    -1263     -467      380     1129 
    1651     1880     1881     1760     1564     1336     1144      972 
     734      429      101     -309     -847    -1372    -1745    -2050 
   -2365    -2585    -2667    -2722    -2859    -3137    -3549    -3981 
   -4396    -4795    -5007    -4843    -4247    -3330    -2378    -1588 
    -984     -573     -326     -221     -329     -631    -1059    -1621 
   -2193    -2593    -2754    -2654    -2388    -2128    -2000    -2151 
   -2629    -3322    -4068    -4635    -4822    -4600    -4055    -3373 
   -2799    -2438    -2212    -1912    -1367     -722     -282     -166 
    -317     -594     -789     -693     -174      703     1728     2659 
    3267     3423     3179     2690     2108     1530      977      403 
    -240     -959    -1642    -2065    -2157    -2053    -1938    -2033 
   -2450    -3067    -3693    -4175    -4348    -4094    -3389    -2295 
   -1008      184     1136     1810     2118     1969     1404      658 
     -21     -544     -880    -1094    -1377    -1786    -2178    -2413 
   -2455    -2324    -2047    -1657    -1201     -781     -444      -76 
     360      684      724      553      387      353      523      931 
    1321     1289      696     -282    -1329    -2101    -2461    -2506 
   -2359    -2169    -2087    -2057    -1918    -1536     -874     -139 
     403      650      633      499      375      240       78      -95 
    -272     -402     -452     -460     -541     -849    -1432    -2197 
   -2983    -3580    -3808    -3672    -3334    -2922    -2481    -2023 
   -1567    -1151     -797     -507     -311     -240     -186       56 
     565     1170     1656     1868     1687     1088      151     -977 
   -2049    -2857    -3358    -3542    -3379    -2953    -2381    -1675 
    -819      102      880     1351     1567     1629     1543     1379 
    1273     1208     1012      587       41     -487     -986    -1359 
   -1439    -1278    -1075     -947    -1040    -1521    -2347    -3325 
   -4187    -4714    -4941    -5039    -5090    -5100    -5108    -5224 
   -5432    -5499    -5277    -4810    -4143    -3341    -2602    -2087 
   -1705    -1317     -918     -504     -118      122      211      267 
     386      579      727      774      776      700      561      546 
     722      918      955      742      324     -125     -488     -783 
   -1066    -1464    -2019    -2524    -2822    -2917    -2808    -2636 
   -2610    -2698    -2685    -2394    -1838    -1166     -357      603 
    1455     2054     2509     2813     2884     2759     2539     2296 
    2035     1694     1174      426     -496    -1417    -2130    -2559 
   -2697    -2593    -2419    -2312    -2296    -2299    -2174    -1881 
   -1521    -1237    -1165    -1271    -1402    -1510    -1686    -1976 
   -2250    -2351    -2218    -1831    -1285     -820     -733    -1144 
   -1830    -2493    -2972    -3142    -3041    -2902    -2856    -2849 
   -2740    -2474    -2146    -1765    -1219     -534       93      399 
     225     -340    -1096    -1900    -2660    -3346    -4035    -4730 
   -5236    -5387    -5252    -4993    -4731    -4533    -4414    -4357 
   -4257    -3963    -3454    -2883    -2377    -1933    -1520    -1215 
   -1169    -1345    -1607    -2000    -2548    -3121    -3678    -4236 
   -4758    -5143    -5177    -4685    -3739    -2608    -1590     -854 
    -418     -329     -630    -1170    -1707    -2074    -2155    -1954 
   -1564    -1054     -519      -56      253      280      -20     -561 
   -1283    -2065    -2640    -2837    -2667    -2211    -1566     -853 
    -159      483     1007     1236     1035      407     -507    -1447 
   -2160    -2498    -2363    -1856    -1260     -800     -594     -627 
    -702     -533       51      938     1777     2227     2135     1557 
     679     -213     -808    -1032    -1065    -1016     -862     -602 
    -264       81      361      548      685      882     1190     1507 
    1699     1695     1412      765     -128     -932    -1312    -1159 
    -626       67      669      872      596      159      -81      -37 
     170      392      514      467      299      152      176      473 
     920     1139      826       -8    -1107    -2207    -3171    -3908 
   -4318    -4302    -3913    -3322    -2592    -1794    -1163     -889 
    -962    -1182    -1370    -1509    -1633    -1794    -1983    -2101 
   -2133    -2095    -1922    -1642    -1516    -1794    -2463    -3369 
   -4360    -5175    -5506    -5239    -4460    -3323    -2023     -819 
      47      486      572      457      294      207      311      631 
    1089     1597     2053     2328     2288     1860     1219      625 
     144     -297     -741    -1159    -1533    -1927    -2401    -2863 
   -3191    -3399    -3541    -3654    -3798    -3985    -4187    -4345 
   -4351    -4151    -3757    -3192    -2575    -2112    -1838    -1628 
   -1486    -1463    -1472    -1352    -1016     -589     -218      128 
     433      603      631      488      118     -491    -1339    -2301 
   -3156    -3829    -4302    -4436    -4190    -3750    -3323    -3030 
   -2884    -2755    -2489    -2037    -1381     -576      228      938 
    1487     1748     1687     1432     1039      456     -267     -973 
   -1564    -2084    -2650    -3245    -3748    -4135    -4396    -4482 
   -4413    -4297    -4264    -4355    -4394    -4199    -3736    -3005 
   -2056    -1039     -187      244      199     -105     -461     -849 
   -1242    -1472    -1397    -1054     -573      -64      396      746 
     909      822      549      295      135      -22     -180     -291 
    -378     -522     -780    -1077    -1262    -1282    -1201    -1086 
   -1017    -1085    -1232    -1301    -1198     -920     -476      137 
     843     1497     1973     2209     2246     2199     2111     1926 
    1588     1140      650       89     -567    -1208    -1772    -2312 
   -2806    -3150    -3252    -3067    -2648    -2127    -1624    -1171 
    -737     -395     -252     -236     -310     -537     -866    -1242 
   -1695    -2158    -2523    -2760    -2911    -3100    -3391    -3692 
   -3881    -3856    -3551    -2990    -2216    -1289     -332      557 
    1305     1814     2060     2145     2110     1796     1108      182 
    -762    -1594    -2270    -2748    -3010    -3173    -3369    -3528 
   -3483    -3148    -2593    -2027    -1611    -1359    -1240    -1173 
   -1090    -1000     -823     -535     -407     -693    -1278    -1841 
   -2201    -2324    -2224    -2108    -2234    -2594    -3067    -3601 
   -4058    -4244    -4095    -3721    -3292    -2953    -2774    -2768 
   -2929    -3175    -3345    -3369    -3245    -2938    -2517    -2146 
   -1877    -1664    -1476    -1252     -923     -540     -249     -117 
     -54       21      124      264      340      141     -471    -1428 
   -2416    -3100    -3370    -3348    -3229    -3165    -3235    -3393 
   -3433    -3180    -2691    -2095    -1410     -703      -97      382 
     687      669      249     -471    -1247    -1829    -2083    -1968 
   -1576    -1175    -1009    -1181    -1678    -2276    -2633    -2602 
   -2201    -1526     -808     -241       81       76     -168     -471 
    -785    -1102    -1345    -1489    -1572    -1626    -1690    -1809 
   -1966    -2074    -2016    -1728    -1240     -724     -450     -562 
    -943    -1352    -1570    -1475    -1078     -418      380      988 
    1167      972      511     -120     -735    -1156    -1302    -1162 
    -822     -418      -21      355      589      549      309        0 
    -317     -540     -599     -519     -329      -99       55      129 
     191      243      310      433      534      576      572      444 
     113     -407     -994    -1440    -1660    -1678    -1455     -932 
    -149      707     1305     1370      831     -255    -1678    -3115 
   -4301    -4972    -4992    -4554    -3937    -3252    -2533    -1848 
   -1332    -1066     -989    -1013    -1084    -1084     -885     -477 
     -35      237      276      147      -63     -271     -444     -600 
    -814    -1193    -1788    -2508    -3153    -3578    -3707    -3427 
   -2658    -1517     -294      768     1553     1980     2085     2039 
    1914     1638     1221      706      120     -463     -978    -1374 
   -1636    -1830    -1971    -2039    -2147    -2388    -2779    -3272 
   -3709    -4009    -4216    -4376    -4464    -4301    -3697    -2720 
   -1593     -421      769     1853     2690     3283     3726     4077 
    4172     3796     3037     2215     1559     1144      912      743 
     565      329        0     -430     -920    -1402    -1810    -2149 
   -2465    -2812    -3292    -3905    -4445    -4679    -4469    -3836 
   -3038    -2436    -2241    -2463    -2998    -3662    -4202    -4402 
   -4190    -3613    -2828    -2061    -1502    -1254    -1297    -1448 
   -1539    -1595    -1717    -1950    -2332    -2851    -3414    -3846 
   -4031    -3991    -3801    -3559    -3360    -3188    -3028    -2953 
   -3010    -3133    -3204    -3165    -3009    -2736    -2423    -2118 
   -1777    -1451    -1162     -753     -121      608     1169     1386 
    1291      951      396     -247     -864    -1462    -2057    -2609 
   -3056    -3311    -3329    -3125    -2747    -2343    -2084    -1952 
   -1837    -1742    -1648    -1433    -1053     -549      -36      306 
     378      105     -623    -1721    -2870    -3777    -4217    -4099 
   -3545    -2781    -2068    -1595    -1439    -1556    -1664    -1516 
   -1210     -934     -751     -672     -637     -573     -400      -28 
     492     1009     1409     1549     1310      768      133     -396 
    -783    -1108    -1398    -1620    -1742    -1715    -1517    -1233 
   -1000     -926    -1101    -1506    -1927    -2099    -1848    -1159 
    -278      417      715      669      379     -109     -615     -926 
   -1066    -1121    -1069     -947     -885     -949    -1101    -1267 
   -1428    -1609    -1817    -2034    -2286    -2593    -2864    -3025 
   -3072    -2991    -2841    -2748    -2744    -2755    -2643    -2303 
   -1837    -1431    -1100     -866     -768     -650     -367        9 
     330      427      264      -70     -592    -1255    -1807    -2095 
   -2154    -2050    -1856    -1630    -1364     -962     -352      368 
     959     1263     1324     1263     1213     1337     1706     2218 
    2651     2774     2484     1884     1154      402     -261     -731 
    -996    -1131    -1225    -1263    -1233    -1286    -1501    -1764 
   -1927    -1873    -1552    -1054     -599     -406     -549     -943 
   -1359    -1559    -1543    -1445    -1324    -1208    -1116    -1058 
   -1062    -1138    -1296    -1547    -1821    -2012    -2081    -2091 
   -2153    -2259    -2354    -2447    -2435    -2173    -1761    -1414 
   -1260    -1366    -1748    -2289    -2741    -2902    -2712    -2238 
   -1652    -1204    -1120    -1445    -1999    -2508    -2835    -3017 
   -3106    -3084    -2963    -2794    -2585    -2336    -2135    -2062 
   -2079    -2072    -1945    -1667    -1325    -1101    -1067    -1156 
   -1328    -1553    -1701    -1674    -1583    -1653    -1992    -2531 
   -3145    -3747    -4241    -4534    -4650    -4642    -4426    -3993 
   -3539    -3233    -3083    -3048    -3107    -3234    -3337    -3281 
   -2980    -2482    -1953    -1549    -1335    -1283    -1283    -1235 
   -1115     -930     -722     -542     -438     -456     -607     -865 
   -1115    -1198    -1143    -1111    -1175    -1362    -1644    -1840 
   -1738    -1278     -534      302      980     1354     1483     1559 
    1664     1679     1518     1263     1071     1080     1269     1468 
    1547     1424     1031      445     -210     -876    -1474    -1942 
   -2269    -2423    -2423    -2353    -2220    -2003    -1790    -1709 
   -1810    -2006    -2101    -2003    -1799    -1622    -1544    -1544 
   -1579    -1597    -1495    -1331    -1312    -1529    -1987    -2628 
   -3240    -3636    -3811    -3800    -3562    -3014    -2185    -1247 
    -301      633     1431     1946     2146     2074     1827     1610 
    1684     2104     2598     2821     2590     1879      835     -166 
    -774     -928     -766     -452      -83      257      421      319 
      10     -379     -684     -861     -970     -963     -765     -446 
    -148      -27     -186     -580    -1030    -1351    -1480    -1486 
   -1439    -1424    -1625    -2072    -2513    -2759    -2829    -2770 
   -2643    -2592    -2721    -3001    -3291    -3435    -3322    -2890 
   -2234    -1628    -1278    -1202    -1339    -1552    -1652    -1599 
   -1566    -1744    -2172    -2771    -3431    -3967    -4118    -3712 
   -2828    -1725     -696       44      445      581      576      576 
     696      928     1152     1274     1282     1182      928      475 
    -148     -832    -1463    -1983    -2344    -2465    -2361    -2204 
   -2154    -2250    -2459    -2695    -2802    -2681    -2328    -1763 
   -1155     -841    -1036    -1706    -2650    -3632    -4436    -4831 
   -4715    -4245    -3670    -3091    -2473    -1819    -1256     -861 
    -608     -496     -483     -449     -306      -52      259      606 
     985     1325     1510     1440     1112      646      175     -259 
    -669    -1054    -1387    -1672    -1950    -2208    -2369    -2371 
   -2232    -1995    -1629    -1074     -390      224      630      845 
     965     1086     1188     1142      939      661      309     -137 
    -648    -1135    -1548    -1926    -2313    -2724    -3117    -3350 
   -3310    -2967    -2336    -1603    -1034     -693     -492     -361 
    -284     -315     -525     -931    -1521    -2184    -2705    -2971 
   -3021    -2883    -2605    -2308    -2065    -1895    -1836    -1962 
   -2320    -2814    -3294    -3663    -3771    -3437    -2686    -1763 
    -957     -460     -322     -519    -1008    -1680    -2361    -2891 
   -3154    -3127    -2929    -2637    -2251    -1853    -1524    -1271 
   -1055     -872     -868    -1085    -1333    -1533    -1657    -1637 
   -1618    -1775    -2008    -2200    -2384    -2593    -2755    -2749 
   -2556    -2319    -2185    -2192    -2355    -2681    -3082    -3400 
   -3541    -3449    -3075    -2463    -1764    -1112     -608     -314 
    -183     -135     -170     -271     -305     -240     -270     -531 
