Origin Time       2024/04/02 04:24:00
Lat.              40.133
Long.             141.712
Depth. (km)       71
Mag.              6.0
Station Code      AOM029
Station Lat.      40.5764
Station Long.     140.2968
Station Height(m) 123
Record Time       2024/04/02 04:24:58
Sampling Freq(Hz) 100Hz
Duration Time(s)  99
Dir.              E-W
Scale Factor      7845(gal)/8223790
Max. Acc. (gal)   4.049
Last Correction   2024/04/02 04:24:58
Memo.             
[...]
    3210     3213     3211     3211     3213     3214     3211     3206 
    3206     3208     3210     3211     3207     3206     3213     3214 
    3210     3208     3207     3210     3217     3211     3206     3213 
    3211     3203     3207     3211     3208     3206     3208     3214 
    3211     3206     3207     3207     3206     3211     3211     3208 
    3214     3211     3203     3207     3213     3206     3207     3211 
    3207     3206     3207     3207     3206     3207     3213     3215 
    3208     3204     3210     3214     3208     3202     3211     3213 
    3200     3204     3218     3215     3207     3204     3210     3214 
    3206     3204     3211     3210     3208     3208     3206     3210 
    3211     3207     3207     3213     3211     3206     3208     3213 
    3207     3202     3204     3213     3211     3204     3206     3211 
    3210     3210     3213     3210     3204     3211     3213     3206 
    3207     3208     3206     3210     3211     3206     3210     3218 
    3210     3203     3207     3211     3211     3207     3207     3211 
    3211     3208     3208     3210     3210     3206     3203     3206 
    3213     3215     3210     3207     3211     3215     3211     3206 
    3210     3214     3207     3203     3208     3213     3210     3211 
    3213     3208     3207     3210     3215     3217     3207     3204 
    3213     3211     3203     3208     3215     3214     3211     3208 
    3208     3210     3207     3210     3217     3213     3203     3206 
    3210     3210     3208     3210     3211     3210     3208     3211 
    3211     3208     3210     3213     3210     3210     3213     3211 
    3211     3210     3204     3210     3214     3206     3208     3215 
    3208     3208     3213     3208     3208     3213     3210     3204 
    3208     3208     3206     3208     3211     3213     3208     3204 
    3208     3211     3208     3208     3213     3214     3206     3202 
    3211     3213     3210     3211     3208     3204     3211     3214 
    3208     3207     3210     3211     3208     3207     3210     3210 
    3208     3211     3210     3210     3213     3213     3208     3208 
    3210     3214     3210     3204     3208     3210     3208     3214 
    3211     3203     3210     3215     3208     3204     3207     3211 
    3214     3211     3210     3214     3213     3207     3207     3207 
    3207     3211     3213     3210     3211     3211     3210     3210 
    3213     3210     3207     3210     3211     3208     3206     3206 
    3210     3210     3208     3213     3211     3210     3211     3211 
    3210     3210     3204     3206     3214     3210     3206     3214 
    3214     3203     3202     3210     3214     3214     3211     3208 
    3210     3207     3204     3210     3214     3213     3208     3208 
    3208     3208     3210     3211     3208     3208     3213     3210 
    3210     3210     3207     3206     3208     3207     3207     3214 
    3214     3207     3210     3211     3206     3206     3215     3214 
    3206     3206     3210     3210     3204     3207     3214     3213 
    3210     3213     3211     3208     3202     3199     3210     3215 
    3206     3207     3214     3208     3204     3206     3207     3206 
    3208     3213     3211     3210     3208     3206     3211     3211 
    3202     3204     3211     3213     3213     3208     3204     3204 
    3204     3211     3218     3210     3206     3214     3215     3214 
    3208     3203     3207     3210     3204     3210     3217     3211 
    3204     3204     3207     3207     3206     3208     3211     3210 
    3211     3213     3208     3210     3210     3206     3206     3210 
    3208     3207     3214     3218     3208     3203     3210     3213 
    3211     3211     3210     3211     3207     3206     3211     3213 
    3210     3214     3211     3204     3210     3211     3207     3211 
    3211     3211     3214     3208     3204     3208     3210     3208 
    3210     3211     3213     3210     3208     3208     3213     3215 
    3208     3207     3214     3213     3210     3208     3204     3207 
    3213     3208     3207     3210     3210     3210     3211     3211 
    3207     3208     3211     3211     3214     3218     3210     3207 
    3208     3207     3211     3215     3208     3208     3214     3211 
    3208     3211     3215     3218     3211     3203     3210     3217 
    3214     3208     3207     3213     3213     3206     3207     3214 
    3214     3207     3204     3213     3213     3206     3208     3211 
    3208     3206     3206     3210     3213     3210     3206     3210 
    3214     3213     3204     3207     3218     3213     3204     3211 
    3214     3207     3207     3214     3213     3206     3208     3214 
    3213     3211     3211     3211     3213     3211     3207     3208 
    3213     3211     3208     3210     3211     3211     3210     3208 
    3210     3210     3211     3214     3211     3210     3211     3211 
    3211     3213     3213     3208     3208     3211     3211     3213 
    3213     3210     3210     3213     3211     3208     3211     3214 
    3213     3210     3208     3214     3213     3204     3208     3213 
    3210     3207     3213     3214     3210     3208     3213     3213 
    3211     3207     3208     3214     3213     3210     3211     3210 
    3207     3210     3211     3208     3208     3211     3213     3210 
    3207     3208     3210     3210     3208     3206     3208     3215 
    3213     3207     3211     3213     3206     3208     3213     3207 
    3207     3217     3214     3210     3208     3208     3217     3218 
    3211     3207     3210     3211     3208     3210     3214     3210 
    3208     3213     3208     3206     3215     3217     3207     3208 
    3211     3210     3210     3210     3211     3214     3208     3207 
    3211     3211     3210     3210     3214     3218     3215     3211 
    3207     3208     3213     3208     3207     3211     3211     3211 
    3210     3211     3211     3207     3207     3213     3213     3208 
    3207     3213     3214     3207     3203     3207     3213     3211 
    3204     3207     3217     3214     3204     3203     3211     3217 
    3211     3204     3214     3218     3210     3206     3204     3207 
    3213     3207     3207     3214     3211     3208     3210     3208 
    3208     3208     3207     3213     3211     3208     3210     3208 
    3210     3211     3207     3210     3213     3208     3208     3213 
    3213     3207     3208     3215     3208     3207     3215     3210 
    3206     3211     3211     3210     3210     3207     3210     3211 
    3208     3213     3214     3210     3208     3207     3210     3214 
    3211     3210     3214     3211     3210     3213     3213     3211 
    3211     3208     3210     3213     3211     3211     3213     3211 
    3208     3210     3210     3206     3208     3211     3210     3210 
    3214     3213     3210     3210     3211     3210     3208     3211 
    3210     3206     3210     3213     3207     3211     3215     3211 
    3208     3207     3207     3211     3215     3214     3210     3214 
    3217     3207     3204     3214     3217     3207     3202     3207 
    3214     3211     3207     3210     3211     3211     3211     3206 
    3206     3210     3213     3213     3208     3208     3211     3211 
    3207     3208     3211     3211     3210     3210     3208     3208 
    3210     3211     3211     3214     3208     3203     3207     3208 
    3208     3210     3207     3208     3213     3207     3204     3208 
    3210     3206     3210     3211     3208     3211     3210     3208 
    3211     3210     3208     3210     3207     3208     3211     3208 
    3211     3211     3206     3208     3214     3208     3206     3213 
    3213     3200     3204     3219     3215     3207     3208     3208 
    3208     3207     3207     3213     3211     3202     3208     3219 
    3206     3199     3213     3215     3207     3208     3213     3208 
    3208     3206     3204     3213     3217     3210     3208     3208 
    3204     3210     3215     3206     3204     3213     3210     3206 
    3207     3213     3213     3208     3207     3211     3211     3204 
    3207     3214     3210     3210     3213     3207     3206     3210 
    3210     3210     3211     3211     3211     3210     3206     3211 
    3214     3207     3206     3211     3213     3208     3207     3210 
    3214     3211     3206     3206     3210     3210     3206     3207 
    3210     3211     3210     3210     3208     3203     3207     3214 
    3211     3207     3208     3210     3211     3211     3208     3208 
    3208     3204     3206     3210     3210     3208     3211     3210 
    3207     3210     3211     3210     3208     3207     3207     3207 
    3206     3207     3211     3208     3206     3207     3210     3210 
    3208     3214     3214     3203     3203     3210     3204     3203 
    3207     3210     3208     3208     3208     3207     3207     3211 
    3211     3206     3208     3211     3207     3208     3211     3203 
    3203     3210     3210     3207     3207     3210     3210     3207 
    3206     3206     3206     3208     3208     3207     3213     3213 
    3208     3207     3208     3208     3207     3208     3210     3211 
    3213     3208     3206     3213     3213     3207     3208     3211 
    3211     3211     3207     3208     3211     3206     3207     3208 
    3206     3208     3211     3208     3208     3213     3211     3207 
    3210     3211     3208     3210     3210     3210     3211     3206 
    3206     3214     3211     3204     3210     3214     3211     3208 
    3211     3215     3214     3211     3208     3210     3210     3208 
    3210     3210     3207     3210     3214     3211     3207     3211 
    3214     3211     3208     3208     3213     3211     3211     3215 
    3213     3207     3211     3211     3206     3207     3213     3215 
    3211     3207     3211     3214     3213     3207     3206     3213 
    3215     3211     3210     3215     3215     3206     3204     3214 
    3215     3211     3208     3210     3211     3210     3208     3207 
    3210     3213     3213     3211     3208     3208     3208     3208 
    3211     3211     3210     3211     3214     3210     3207     3211 
    3213     3210     3208     3211     3207     3191     3176     3169 
    3153     3126     3105     3091     3073     3067     3071     3075 
    3095     3134     3175     3231     3300     3362     3419     3457 
    3451     3403     3331     3245     3146     3046     2956     2879 
    2826     2801     2791     2799     2817     2824     2835     2875 
    2947     3040     3141     3248     3369     3496     3615     3700 
    3727     3720     3704     3699     3709     3704     3650     3538 
    3366     3154     2932     2710     2504     2363     2338     2436 
    2633     2868     3091     3273     3411     3503     3528     3499 
    3460     3457     3501     3569     3630     3636     3526     3302 
    3017     2702     2398     2155     2015     1985     2010     2016 
    1979     1917     1869     1873     1960     2162     2478     2870 
    3284     3654     3963     4276     4621     4946     5163     5200 
    5055     4803     4499     4166     3844     3596     3461     3437 
    3460     3433     3276     2949     2473     1965     1588     1467 
    1656     2119     2722     3298     3715     3955     4104     4268 
    4534     4919     5309     5521     5433     5031     4387     3640 
    2930     2289     1711     1282     1107     1215     1564     2019 
    2401     2619     2687     2689     2727     2844     2982     3060 
    3042     2943     2844     2832     2928     3149     3491     3855 
    4125     4243     4241     4234     4233     4098     3730     3150 
    2506     2069     2088     2583     3342     4070     4553     4715 
    4580     4287     4051     4039     4301     4756     5213     5432 
    5248     4700     4051     3591     3446     3568     3848     4153 
    4325     4264     3932     3329     2594     1983     1672     1683 
    1854     1941     1807     1530     1318     1390     1867     2717 
    3686     4294     4132     3199     1914      858      394      513 
    1043     1821     2677     3453     4054     4428     4536     4376 
    3991     3488     3052     2871     2988     3256     3400     3250 
    2963     2910     3314     4001     4563     4695     4376     3825 
    3338     3144     3273     3518     3624     3484     3141     2770 
    2554     2616     3014     3623     4131     4283     4050     3604 
    3198     2990     2997     3092     3076     2901     2710     2632 
    2779     3184     3612     3700     3227     2326     1472     1123 
    1358     1871     2249     2355     2371     2524     2880     3299 
    3607     3804     4002     4318     4826     5449     5956     6100 
    5706     4745     3503     2438     1823     1649     1761     2007 
    2322     2678     3040     3406     3780     4035     3998     3653 
    3129     2631     2381     2542     3129     3948     4679     5082 
    5108     4885     4680     4658     4644     4315     3582     2655 
    1910     1576     1537     1513     1279      774      190     -152 
      16      757     1753     2533     2845     2751     2614     2893 
    3763     5020     6187     6723     6432     5626     4789     4243 
    4051     3923     3404     2312      868     -432    -1035     -621 
     692     2397     3862     4604     4541     4017     3454     3107 
    3076     3272     3485     3620     3739     3951     4302     4685 
    4818     4467     3727     2965     2502     2389     2444     2477 
    2411     2226     1962     1802     1923     2273     2570     2635 
    2652     2944     3484     3866     3794     3364     2867     2579 
    2690     3202     3881     4407     4558     4305     3851     3458 
    3190     2982     2820     2767     2988     3634     4542     5239 
    5367     4891     3929     2756     1656      749      191      172 
     708     1715     2947     3996     4633     4833     4606     4059 
    3458     3118     3199     3588     4078     4542     4892     5062 
    5019     4722     4139     3343     2567     1961     1529     1336 
    1464     1856     2448     3188     3878     4309     4510     4693 
    4973     5232     5298     5136     4792     4284     3701     3156 
    2691     2324     2037     1787     1568     1426     1494     1887 
    2533     3204     3632     3707     3564     3358     3126     2920 
    2860     2951     3061     3049     2744     2142     1575     1410 
    1815     2735     3863     4826     5373     5428     5097     4510 
    3804     3190     2821     2716     2825     3056     3333     3628 
    3967     4349     4702     4965     5076     4873     4307     3619 
    3150     3052     3172     3218     3052     2795     2658     2727 
    2916     3064     3072     2959     2801     2641     2401     1938 
    1282      658      261      175      475     1166     2087     2978 
    3607     3862     3828     3755     3843     4013     4005     3721 
    3231     2685     2355     2442     2812     3134     3225     3171 
    3168     3272     3407     3507     3592     3734     3886     3913 
    3788     3636     3618     3709     3726     3565     3307     3122 
    3115     3254     3481     3753     3964     4052     3989     3766 
    3446     3102     2797     2639     2701     2947     3252     3466 
    3511     3429     3268     3032     2763     2614     2691     2820 
    2712     2354     1992     1868     2089     2525     2982     3377 
    3650     3801     3932     4099     4251     4310     4270     4141 
    3987     3900     3877     3894     3979     4109     4217     4233 
    4131     3962     3812     3716     3624     3464     3271     3163 
    3202     3412     3805     4206     4326     4095     3674     3248 
    2914     2641     2344     1998     1679     1594     1890     2365 
    2664     2633     2323     1980     1942     2369     3161     3963 
    4352     4179     3605     2899     2307     1973     1922     2064 
    2258     2388     2415     2397     2353     2216     1981     1698 
    1518     1729     2421     3350     4266     5024     5514     5679 
    5478     4962     4374     3881     3503     3260     3102     2874 
    2524     2124     1767     1540     1491     1615     1868     2170 
    2551     3051     3559     3991     4293     4371     4295     4263 
    4365     4563     4749     4819     4738     4537     4321     4187 
    4117     4083     4036     3894     3701     3528     3387     3277 
    3133     2957     2860     2714     2313     1710     1094      704 
     712     1082     1683     2331     2884     3410     3944     4359 
    4544     4479     4233     3977     3815     3699     3526     3230 
    2866     2519     2236     2062     1929     1794     1796     1979 
    2288     2766     3321     3732     3898     3808     3561     3407 
    3483     3715     4004     4222     4210     3962     3682     3576 
    3647     3797     3967     4136     4284     4399     4430     4348 
    4180     3927     3515     2967     2488     2227     2182     2381 
    2766     3103     3202     3056     2776     2504     2353     2420 
    2731     3148     3489     3713     3885     4006     4045     3954 
    3638     3096     2463     1891     1525     1428     1539     1804 
    2157     2470     2704     2883     2979     2967     2895     2851 
    2922     3126     3384     3628     3778     3732     3531     3304 
    3136     3079     3130     3203     3291     3437     3607     3703 
    3653     3477     3288     3196     3179     3133     3029     2905 
    2845     2957     3248     3520     3564     3387     3171     3130 
    3356     3740     4128     4378     4379     4195     4014     3942 
    3956     4013     4063     4067     4004     3831     3568     3280 
    2979     2686     2400     2091     1818     1695     1858     2371 
    3059     3685     4133     4278     4124     3919     3847     3929 
    4128     4330     4417     4338     4113     3840     3622     3466 
    3341     3181     2907     2547     2211     1979     1908     2033 
    2295     2559     2697     2641     2420     2160     1950     1779 
    1645     1605     1688     1899     2226     2620     2956     3181 
    3399     3680     3983     4163     4060     3686     3173     2683 
    2393     2343     2486     2770     3088     3341     3478     3474 
    3352     3215     3153     3188     3322     3554     3839     4116 
    4376     4556     4572     4461     4253     3942     3569     3156 
    2744     2416     2195     2093     2149     2361     2678     3044 
    3388     3593     3643     3715     3905     4135     4306     4368 
    4297     4144     4036     4028     4029     3963     3847     3723 
    3642     3595     3484     3295     3125     3030     2964     2847 
    2643     2412     2284     2373     2655     2983     3256     3447 
    3527     3480     3335     3179     3130     3229     3366     3410 
    3299     3036     2677     2343     2165     2219     2485     2859 
    3252     3599     3842     3933     3873     3723     3576     3468 
