Origin Time       2024/04/02 04:24:00
Lat.              40.133
Long.             141.712
Depth. (km)       71
Mag.              6.0
Station Code      AOM027
Station Lat.      41.1457
Station Long.     140.8219
Station Height(m) 16
Record Time       2024/04/02 04:24:59
Sampling Freq(Hz) 100Hz
Duration Time(s)  116
Dir.              U-D
Scale Factor      7845(gal)/8223790
Max. Acc. (gal)   15.621
Last Correction   2024/04/02 04:24:59
Memo.             
[...]
   29045    29716    29443    27850    26133    26144    28109    30144 
   30268    28399    25749    23969    24598    26802    27827    26820 
   25342    24987    26109    27918    29295    29490    28281    26512 
   26069    27311    27874    26512    25142    25154    25871    26797 
   27373    26790    26153    27168    29164    29924    28178    25278 
   24132    25289    26703    27444    27966    27989    27276    26821 
   27075    27083    26823    27625    29274    29758    28378    26785 
   26840    28655    30349    29763    27130    25051    25362    27237 
   28478    27899    26072    24291    23530    24190    26250    28753 
   29744    28458    26725    26751    28368    29412    28282    25705 
   24048    24680    26572    28101    28709    28175    27022    27027 
   28439    29396    29074    27958    26782    26796    28237    29164 
   27731    24661    22786    23834    26177    27253    26775    26215 
   26765    28175    29052    28286    26377    25188    25992    27731 
   28140    27193    27133    28455    29165    28287    27392    27592 
   27542    26647    26422    27263    27949    27622    26385    25270 
   25231    26061    27087    27697    27463    26927    26924    27120 
   26865    26424    26237    26152    26025    26346    27425    28281 
   27622    25978    25540    27321    29627    30030    28221    26396 
   26329    27251    27691    27193    26042    25212    25776    27730 
   30009    31252    30402    28001    26572    27510    28871    28476 
   26481    24241    23311    24020    25111    26014    26869    27338 
   27363    27658    28669    29416    28944    28165    28150    28520 
   28675    28382    27244    25505    24322    24543    26019    27310 
   26955    25837    25866    27183    28493    28854    28765    29041 
   29000    27801    26244    25593    26055    26889    27295    26873 
   25871    25482    26604    28313    28949    28205    27155    26582 
   26462    26883    27826    28343    27650    26470    25971    26133 
   26167    25887    26057    27248    28780    29593    29536    28988 
   28302    27943    28036    27959    27078    25828    25220    25172 
   25258    25999    27072    27016    25978    25749    26901    28085 
   28225    27985    28283    28350    27589    27459    28482    28976 
   28270    27284    26505    26230    27058    28478    28983    28105 
   26908    26592    26825    25999    24013    22918    23815    25542 
   26765    27400    27872    28475    29457    30366    29976    27915 
   25660    25301    27033    28391    27893    27060    26667    25932 
   25402    25898    26919    27799    28232    28077    27612    27440 
   27808    28383    28709    28318    26717    24385    23153    24170 
   26395    27988    28069    27334    27199    27835    28440    28705 
   28189    26635    25363    25821    27476    28493    27984    26839 
   26322    26839    27986    28827    28657    27697    26644    26163 
   26512    26968    26611    25790    25381    25456    25856    26275 
   26303    26604    28409    31364    32834    30802    27041    25062 
   26040    28240    29135    27800    25820    25458    27067    29019 
   29521    27980    25488    24260    25762    28818    30303    28445 
   24881    23016    24117    25825    25702    24705    25465    28146 
   30246    30203    28755    27525    27631    28669    29250    28634 
   27021    25381    25192    26497    27091    25690    24258    25128 
   27587    29088    28541    27224    26936    28048    29243    29104 
   27934    26730    25637    25087    25685    26789    27413    27329 
   26728    26083    26028    26346    26214    26190    27441    29118 
   29528    28702    27926    27935    28174    27726    26707    25871 
   25640    26329    27770    28838    28825    27999    26698    25552 
   25481    26416    27310    27498    27160    26838    26661    26103 
   25226    25091    25949    26994    28005    29173    30154    30422 
   29774    28726    28134    27751    26804    25852    25778    26221 
   26569    26825    27102    27175    26870    26977    28186    29241 
   28653    26962    25655    25768    27149    27982    26728    24314 
   22850    23305    25390    27988    29382    28926    27758    27190 
   27872    29444    30204    28998    26848    25316    24823    25398 
   26846    27870    27537    27012    27854    29770    30890    29787 
   27635    26875    27500    27642    26622    24983    23643    23626 
   24889    26076    26337    26424    27270    28094    27675    26916 
   27506    29111    29957    29119    27649    26989    26767    26295 
   26365    26995    26559    25010    24412    25778    27963    29157 
   28533    26995    26129    26365    26902    27029    26869    27145 
   27932    28189    27657    27499    28109    28479    28143    27643 
   27373    27500    27922    27918    27116    26107    25521    25419 
   25525    25760    26419    27318    27544    27112    27449    28914 
   29832    28979    27159    26131    26754    28062    28661    28421 
   27939    27340    26638    26422    26870    27283    27309    27101 
   26854    26873    26833    25932    24850    25173    26616    27641 
   27607    26846    26518    27494    28632    28598    28094    28032 
   27949    27476    27005    26767    26796    26960    27082    27486 
   28051    27587    26073    25363    26369    27774    28032    27261 
   26603    26565    26916    27445    28058    28599    28868    28813 
   28489    27938    27336    26851    26316    25456    24804    25267 
   26388    26913    26769    26794    27344    27977    28090    27481 
   26493    25810    25839    26557    27634    28085    27047    25343 
   24798    26361    29077    30368    28695    25947    25328    27267 
   29130    29020    27691    26570    26256    26766    27637    27901 
   27095    26098    25945    26595    27307    27307    26538    25725 
   25384    25770    27000    28476    29207    28800    28042    27962 
   28291    28173    27733    27534    27356    26581    25429    24992 
   25697    26752    27679    28748    29664    29866    29517    28622 
   27136    26194    26446    26711    26145    25698    26493    27820 
   28098    27328    26580    26053    25575    25616    26406    27297 
   27527    26885    26026    26069    26986    27499    27224    27130 
   27706    28323    28266    27465    26592    26622    27591    28278 
   27853    26771    25741    25014    24948    26427    29185    30728 
   29461    27318    27071    28545    29335    28256    26312    25166 
   25702    27037    27461    26786    26211    26445    27216    27831 
   27797    27176    26450    26288    27141    28363    28493    27398 
   26590    26792    27310    27391    26659    25601    25303    25812 
   26492    27518    28846    29570    29589    29205    27868    25861 
   24659    24718    25579    26786    27324    26588    25843    26549 
   28363    29897    30150    28999    27195    25798    25367    25941 
   27106    27734    27062    26230    26515    26977    26489    25674 
   25465    26511    28906    30994    30981    29184    26711    24502 
   23988    25427    26983    27294    26562    25355    24653    25802 
   28637    30622    29442    26389    25072    26546    28518    28944 
   27719    26021    25563    27043    29101    29602    27931    26019 
   26157    28015    29393    28995    27267    25691    25699    27176 
   28220    27475    25913    25343    26233    27453    27594    26870 
   26858    27603    27822    27835    28445    28722    27916    26832 
   26234    26086    26021    25724    25502    26280    28340    30561 
   31284    29924    27646    26133    25650    25213    24613    24614 
   25307    26010    26482    26962    27486    27896    28302    28965 
   29515    29124    27842    26962    27432    28560    28872    27691 
   25818    24925    25722    27180    28042    28221    28537    29500 
   30397    30113    28503    26362    24786    24349    24541    24684 
   24841    25440    26499    27446    27832    27641    27175    27037 
   27487    28188    28738    28877    28634    28304    27864    26696 
   24571    22944    23681    26342    28517    28888    28363    28134 
   28502    29223    29358    28312    26967    25861    24630    23913 
   24196    24507    25026    27067    29825    31190    30738    29506 
   28377    27469    26553    25883    25884    26291    26426    25833 
   24834    24649    26176    28709    30302    30092    29320    28984 
   28795    28456    27862    26973    26072    25389    24892    24659 
   24800    25070    25139    25258    25897    26912    27853    28364 
   28452    28857    29799    30037    28844    27336    26569    26173 
   25778    25762    25952    25618    25222    26192    28285    29134 
   27706    26018    25906    26663    27020    26823    26473    26389 
   26613    26666    26477    26824    28085    29353    29469    28692 
   28348    28637    28593    27688    26083    24582    24389    26014 
   28412    29350    27931    26161    26072    27072    27595    27021 
   26033    26338    28378    29913    29285    27850    27207    27048 
   26697    26221    26057    26622    27392    27243    26495    26469 
   27118    27535    27662    27919    28308    28161    27002    25783 
   25875    26877    26974    25967    25969    27695    28965    28439 
   27479    27540    28669    29808    29405    27729    26445    25450 
   24097    23414    24445    26545    27926    27704    27040    27476 
   28849    29670    28841    26770    25501    26622    28860    29920 
   29392    27999    26127    24232    23392    24611    27116    28475 
   27911    27581    28829    30006    29500    27785    25948    24773 
   24957    26553    28540    29457    28644    27087    26443    27116 
   28027    27812    26296    25461    27025    29219    29064    26910 
   25574    26196    27226    26831    25321    24769    26180    28458 
   29859    29257    27139    25520    25672    26723    27264    26940 
   26146    25871    27130    29273    30292    29274    27745    27949 
   29351    29286    27225    25168    24738    25664    26520    26792 
   26989    27070    26974    27128    27255    27086    27324    28112 
   28513    27818    26163    24541    24113    25173    27112    28620 
   28601    27742    27399    27711    28198    28578    28895    29438 
   29763    29126    27962    26840    25818    25825    27310    28440 
   27585    26079    26551    28883    29972    28305    25902    25061 
   25509    25633    25139    24829    24984    25600    26605    27284 
   27292    27573    28471    28844    28232    27638    27903    28640 
   28802    28247    27785    27305    26126    24945    25023    26354 
   27857    28584    28431    27695    26696    26273    27305    29149 
   29779    28228    26040    25007    25088    25668    26349    26693 
   26898    27322    27757    28336    29231    29714    29546    29463 
   29301    28372    27338    27135    27039    25856    24351    24475 
   26649    29415    31218    31511    30700    29324    27463    25455 
   24067    23460    23614    24876    26662    27506    27001    26015 
   25520    25832    26291    26119    25633    25488    25589    26192 
   27982    29894    29953    28455    27340    27324    27506    27004 
   25933    25267    26048    27494    27198    24745    22405    22129 
   23870    25887    26734    26928    27454    28134    28217    27309 
   25597    23789    22982    23685    25022    25994    26466    26519 
   26454    26985    28102    28752    28341    27812    28507    30069 
   30819    30173    28921    27859    27341    27584    28552    29143 
   28386    27467    27591    27575    26273    24536    23382    22900 
   23064    23638    23795    23472    23703    24665    25918    27561 
   29249    30854    33041    35078    35695    35453    34842    33235 
   31124    29308    27099    24318    22044    20694    20055    19834 
   19110    17552    16703    17917    20378    22258    22728    22426 
   22453    23483    25296    27118    28830    30975    33798    37058 
   40090    41854    41766    40609    39244    37072    33774    30279 
   26599    22472    19970    21277    24877    26843    25046    21247 
   18852    18987    20275    21365    21541    20403    19228    20594 
   24440    27606    28225    27276    26978    29735    35734    41455 
   43479    41955    39114    37057    36167    34368    30146    25182 
   22122    22334    25436    28726    29790    30078    32184    35135 
   35922    33380    28374    22821    18747    16380    14458    12661 
   11925    12803    15167    18786    22939    26476    29184    32066 
   35714    38861    38839    34545    28880    25488    24470    23900 
   22488    20738    21293    25436    30456    33770    35846    37039 
   36035    31800    25243    19554    17194    16731    15732    14586 
   15103    18303    24279    31747    38034    41165    41378    39685 
   36445    32591    29677    27712    25716    23919    22759    21857 
   21721    23129    25528    28250    30551    30942    29431    27773 
   26295    23807    20125    16518    14539    14855    17243    21351 
   26360    31338    36099    40032    42059    42499    42620    42703 
   41663    38155    32363    26199    21355    18549    17824    18612 
   20533    23468    26636    28929    29674    28381    24786    19692 
   14854    11696    10790    12221    15426    19192    23313    28846 
   35407    40447    42267    41458    39089    36207    34165    32910 
   30859    27054    22275    18904    18917    21551    24146    25149 
   25367    25718    25681    25427    26536    29208    31168    30242 
   27148    24511    23588    24032    25315    26530    26790    26848 
   28389    31380    34385    36472    36707    34528    31044    27795 
   25664    24784    24494    24428    24637    25284    26893    28798 
   29531    29504    29452    27984    24073    19761    18110    19612 
   22269    24520    26685    29884    34036    37224    37654    35694 
   33226    31483    29944    27334    23579    20380    19354    20301 
   22270    24903    27259    27638    26460    26208    27128    26715 
   23944    20653    19097    20097    22685    24918    25591    25123 
   25189    27491    31907    36157    38211    38240    37426    36352 
   34913    32555    28894    24587    21092    18698    16363    14785 
   15849    19176    23422    27834    30967    31955    31773    31399 
   31095    30855    30296    29340    28537    27837    26815    26333 
   27581    29613    30177    28942    27410    26230    25126    24036 
   23350    23923    25712    26946    26079    23832    22882    25267 
   29662    32440    31870    29701    28580    29115    29794    29554 
   29192    29401    29516    29054    28279    27288    25860    24169 
   23399    24568    26403    26723    25706    25392    27067    29731 
   30426    27913    24926    24378    25986    27859    28795    28985 
   29261    29367    28737    28408    29085    28791    25791    22156 
   21321    23820    27006    27738    25898    24833    26717    29805 
   31108    29492    26203    23688    23643    25429    26994    27414 
   27164    26856    27187    28493    29728    29632    28401    26474 
   23828    21578    20845    21001    21466    22715    24856    27029 
   28335    28899    29805    31459    32628    32127    30153    27623 
   25760    25255    25205    24553    23913    24389    26006    28233 
   30554    32248    32757    32603    32688    32169    29523    25706 
   22859    21716    22631    25531    28485    29533    28737    27557 
   27594    29042    30227    29876    28827    28205    27540    26244 
   24858    23953    24065    25556    26971    26727    26320    27742 
   29890    31120    31455    30939    29712    28655    27865    26743 
   25519    24804    24632    24790    25240    25905    26366    26372 
   26554    27706    29474    30364    29299    27187    25921    25863 
   25991    25689    24794    23472    22785    23606    25220    25980 
   25270    24528    25093    26073    26578    27549    29434    31274 
   32726    33971    34214    32830    30805    29251    28267    27544 
   26377    24688    23959    24611    24969    23913    21836    19926 
   19796    22077    25132    26920    27664    28726    30161    31132 
   31020    29646    28096    28148    29552    30140    29207    27978 
   27422    27754    28576    28664    26948    24120    22451    23155 
   25018    26222    26126    25451    25342    26056    27047    27735 
   27500    26326    25623    26485    28020    28861    28617    27575 
   26460    26065    26553    27405    28075    28271    27957    27568 
   27706    28420    28887    28414    27492    26846    26451    25976 
   25378    25127    25578    26106    25876    25378    25789    27307 
   29164    30076    28938    26536    25390    26847    29666    31560 
   31457    30339    29571    29020    28111    27387    27434    27865 
   28135    27911    27031    25914    25105    24559    24101    23758 
   23596    24283    26666    29592    30578    29540    28553    28435 
   28669    29080    29602    29814    29502    28926    28397    28107 
   27884    27261    26418    25791    25184    24633    24528    24607 
   24630    24937    25049    23917    22111    21266    21957    23785 
   26083    27953    29016    29797    30655    31228    30886    29434 
   27770    27228    28090    29447    30215    30246    30033    29466 
   28185    26481    24930    24067    24273    25278    26519    27658 
   28123    27567    26854    26789    26882    26419    25826    26350 
   28040    29322    29420    29164    29351    30018    30570    30056 
   28539    27567    27984    28787    28829    28090    27210    26717 
   26681    26717    26396    25751    25154    24876    24857    24748 
   24703    25245    25975    26415    27082    27993    28405    28397 
   28359    27889    26809    25861    25695    26325    27271    27687 
   27238    26775    26982    27201    26662    25631    25022    25614 
   26997    27781    27400    26368    25128    24549    25848    28026 
   28404    26881    26014    26927    28223    28356    27349    26574 
   27044    28067    28721    28998    28575    27407    26688    26696 
   26311    25505    25249    25539    25975    26968    28603    30046 
   30900    31237    30785    29490    28058    27072    26060    24337 
   22632    22447    24081    26360    27918    28414    28613    29297 
   30434    31476    31837    31043    29452    27916    26176    23931 
   22578    23207    24769    25591    25320    25257    26508    28235 
   28956    28445    27348    26057    24787    24175    24574    25251 
   25594    26125    27494    29319    30414    30164    29404    29200 
   29203    28368    26838    25629    25015    24678    24741    25348 
   26065    26549    27078    27696    27835    27627    27982    28799 
   28814    27598    26275    25766    25752    25890    26329    26842 
   27195    27757    28522    28767    28368    28270    29077    30015 
   30022    29133    28107    27351    26828    26666    26812    26474 
   25311    24430    24942    26233    26636    25648    24630    24973 
