Origin Time       2024/04/02 04:24:00
Lat.              40.133
Long.             141.712
Depth. (km)       71
Mag.              6.0
Station Code      AOM010
Station Lat.      40.8724
Station Long.     141.1427
Station Height(m) 21
Record Time       2024/04/02 04:24:55
Sampling Freq(Hz) 100Hz
Duration Time(s)  100
Dir.              U-D
Scale Factor      7845(gal)/8223790
Max. Acc. (gal)   51.930
Last Correction   2024/04/02 04:24:55
Memo.             
[...]
    9760     6718     3910     2173      967      379      878     3423 
    8893    15705    19399    15765     5741    -2774    -1813     7199 
   14779    14108     7516     1981       79     -603       14     4584 
   11033    13382     9759     3816      -49      976     6859    13629 
   16735    15111    10768     6057     2289      530     2101     6161 
    7398     1593    -5656    -4426     5008    12028     9498     1961 
   -1059     3789    12857    20584    21362    13525     3443     -360 
    3929     8927     4228    -8793   -15604    -8519     6485    20682 
   25749    17632     4661     -132     5636    12764    11341     -658 
  -15952   -21562    -8831    14027    26221    18142     1771    -5888 
     330    12515    19959    19134    11605      583    -7726    -8495 
   -3542     1275     4938    13618    26752    30773    17051    -3890 
  -14351    -9069     3967    13863    13547     4936    -4885   -10557 
   -6728     5406    13267    11396    11052    17393    18017     9860 
    7658    11708     6731    -5161    -8051     2277    15174    14027 
   -5189   -21143   -13005    12023    30453    27117     7431   -10821 
  -13963     1898    24530    32682    23888    12698     5351      974 
     325      133    -2859    -5864    -7210    -4094     8738    23471 
   23804     7543   -11034   -13178     5854    25836    26157    11022 
   -1915     -873    10783    19768    19674    11546      186    -2157 
    7114    10966      684   -10488   -11078    -3141     8083    16864 
   18247    12857     4364     -436     4183    11900    11786     4257 
     688     6967    13173    10723     4375    -2077    -6172     -132 
   13266    18814    10737     -978    -1999    10548    23463    25251 
   14808    -4274   -19946   -18937    -4914     6494     7215     3785 
    6675    16422    23330    18499     6331     1445     5881     7611 
    5304     5760     5390      287    -3497    -1169     6191    14443 
   16020     7177    -4590    -7551     3161    20412    28786    19988 
    2812    -8776    -9909    -3356     5116    10399    12276    11057 
    6365     2527     2983     6453     9991    10377    10384    13127 
   13944    11707     6987    -1813    -7099    -3728     2490     7433 
    6412    -1096    -3839     2439     8753     8714     5998     8066 
   13799    15595    13313    13135    16036    15024     5385    -5162 
   -6835    -3532    -3493    -4630    -1109     6465    12511    14559 
   13605     7912      423    -1479     -442      166     4727    12328 
   18247    19425    13346     5319     2014      799      248     2497 
    5135     5251     2855     1317     6363    16313    21374    15631 
    3180    -4548     -174     9397    11861     8124     9289    13254 
    7607    -6779   -17745   -14038     4374    19141    16799     5996 
   -1513    -1950     3603     9707    11892    10201     6860     5148 
    6941     8985     6674     1973      643     2427     3615     5115 
    7263     7010     4835     3659     5020     9007    14235    17307 
   12087      195    -3994     4494    12274     8822    -2384    -9871 
   -4517     9707    19624    18744    12722     9513     8721     5571 
    1534      907     3531     8152    12349    11674     8097     8355 
   11014     8576     1699    -1285     2682     8814    10390     5080 
    -288     2911    12029    14103     3869    -5358    -1547     8283 
   14118    14882    11333     6234     3102     1410      876     1593 
    1512      247      287     2836     5146     6246     9536    13971 
   13765     8977     5859     6200     5404     1993     -506     1624 
    9850    18172    17350     9297     3167     1512     3258     8348 
   12307    10376     5803     2609     -525    -3403    -1988     4741 
   10289     8475     2236    -2790    -2739     4899    14728    18291 
   13586     2467    -7588    -5813     5995    14455    13728     9699 
    8546    10098    10102     7520     6332     7688     7489     2987 
   -2370    -2361     3674    10224    11934     7140     -410    -2304 
    5628    14613    13828     6542     2169     2297     3015     1703 
     522     3869    10671    14670    11790     3681    -2681     -405 
    9039    17339    19303    16178    10903     5192     1242     2069 
    6748     9096     6160     2544      387    -2839    -3094     3916 
   12156    15677    13825     8328     4039     2702     1792     1314 
    3057     6658     8568     6571     3616     1638     -338     -228 
    3146     5186     4857     7731    13748    15057     8490     1162 
    1383     8953    16305    15211     6700     1200     1890     4831 
    9933    13363    10357     6056     4280     1609    -2671    -4639 
   -1293     4595     5938     1425     -222     6594    13999    14197 
   11132     9224     6617     2506     -989    -2116     -727     2262 
    6295     9844    10963    10824     9520     4074    -2697    -3584 
    2787    12143    17860    15450     9556     7734     9221     8625 
    5579     3909     3883     3877     5921     9185     7977     2633 
    -268     2155     6660     8403     6991     6664     8816     9202 
    4332    -2166    -2990     3366    11519    15292    12329     6615 
    3982     4387     4313     3608     5049     9780    13779    10913 
    3281     -294     2099     7253    13485    15499     9566      958 
   -4369    -4086     1849     9867    14963    12937     3531    -6596 
   -9566    -4004     4290     9759    12980    14921    13000     7055 
    1171     -645     2990    10031    15961    16924    12075     4313 
   -1296    -1748     1877     5894     7561     7842     8214     7761 
    5352     2061     1599     4939     7333     6736     5645     4409 
    3874     6968    11572    11958     7520     2533       94      626 
    2335     2743     3492     7244    10085     8579     6467     6353 
    6500     6173     6556     8216     9412     8201     5872     5406 
    7688    10557    10704     7084     2155     -800      742     6949 
   12178    10085     2835    -2049     -711     4540     8893    10446 
   10709     9925     6548     2295     1036     2801     4901     5360 
    4954     7848    13520    14489     8394     1452      288     5460 
   10407    10039     6351     1935    -1413     -440     5082    10517 
   10984     6868     2701      935     2556     7657    11296     9526 
    6227     5459     6754     9436    10727     7098     2015      153 
    1008     4909    11476    14924    10416     1058    -3576     1863 
   11223    15402    11897     3885    -2416    -1192     6361    12673 
   12827     7580     1594     1880     9358    14932    11982     4899 
    -124    -2466    -1717     3196     9516    12896    10107     3001 
     -71     3738     8656    10809     9072     3981     -839    -2354 
     804     7352    13077    15623    13815     8174     4422     4860 
    4986     3865     3044     1624     1169     4133     8595    10579 
    7624     1437    -2234     1456    11338    19562    19448    11955 
    1834    -5630    -5956      160     6378     7450     5238     3781 
    3229     4703    10288    16394    17335    12737     7169     4054 
    2782     2242     2763     3801     3438     2166     1979     1341 
     336     2909     7744    10288    10409     9602     8519     7881 
    7690     7300     6623     5776     3480      279     1857     9402 
   13829    10118     4527     3098     5510     8808    11097    11932 
   10492     7759     6457     5254     1872    -1140     -477     4056 
    9058     9513     5892     4028     5034     4249      696    -1096 
    1688     7182    11530    12201     9906     6168     2412     2199 
    6632    11749    14277    12748     7256     1902      195     1243 
    3532     5857     6561     5536     4480     5881     9666    10891 
    7280     3688     4209     7511     9271     6455     2045     1161 
    3456     5329     4639     2130     1576     5256    10903    14188 
   11628     5676     3916     7426    10362    10579     7894     1854 
   -2234      712     7352    11797    11237     6943     3488     3315 
    4776     5996     6968     7935     8185     7634     6318     3149 
   -1572    -5130    -4888     -500     6388    13220    17020    15179 
    7015    -1995    -2847     4997    13455    14893     6639    -4693 
   -8598    -3784     3564    10000    15203    18117    18134    15822 
   11939     8209     5282     1574    -2697    -4136     -958     3724 
    6785     8004     7674     8191    11111    13126    11747     7576 
    3015     1186     2328     5741     9641     8924     2978    -3288 
   -6454    -3246     6727    16660    20073    15458     6110     -148 
    1233     7163    12271    12877     8861     3970     1210     -186 
    -530     1159     2241      633      398     4753    10412    12098 
    8033     1742    -1410     -915      297     1771     3296     5038 
    8897    11581     9595     7850     9562    12434    15491    16892 
   14914    11971     9849     7254     3276      251     2077     6748 
    6949     1586    -2623    -1540     3249     9035    12611    12249 
   10497     8467     4028    -1888    -4814    -1517     6300    12918 
   13122     6879     2050     5510    12802    16455    15043     9725 
    3366     -176     -920    -1044     -310     2218     4147     1939 
   -1715    -1071     3379     8014     9678     7391     8040    14771 
   17602    12420     7757     8158    10434    10905     7817     2097 
   -2759    -2909     2637     9990    13759    12768     9925     8185 
    8043     7651     5852     3582     2286     2918     4714     6150 
    6894     6008     4137     5645     9983    10026     4590     -112 
   -1348      283     6315    14790    16713     7114    -4638    -4884 
    5470    14011    14413     9703     4309     -461    -3716    -1988 
    5082    10991     9988     4579     3056     8106    11365     7064 
    1645     2569     9900    17554    17999    11461     3414    -3977 
   -7516    -3273     4749     9011     9551    10509     9724     4299 
    -519      522     4653     7194     8966    11908    12756     9363 
    4837     1584     1856     6754     9996     7480     4816     4382 
    3643     4981     9624    12861    11770     7593     3495     3099 
    5698     5672      760    -4396    -4347      993     6158     6971 
    4888     2434     1108     2867     7655    12039    11670     6448 
    2682     4170     7597    10825    14291    16713    15985    11268 
    5957     4314     5385     6434     4591    -1441    -5514    -1421 
    7148    12360    11647     8830     8233    10438    13159    12274 
    6910     3746     6266     6826      471    -5782    -4918     1833 
    9116    11279     8584     7859     8494     3240    -4310    -4896 
    1800     9980    12545     7122      872      685     6750    15402 
   20094    16492     7542      650     1102     7491    15650    23121 
   26469    21725     9294    -4909   -13973   -15098    -9780    -1444 
    5636     6783      594    -7138    -9116    -4234     3604     9552 
   11770    12093    11581    10750    11619    13324    12563    11834 
   17309    26503    28696    20823    11788     6111     -830    -9566 
  -16278   -18003   -11884    -1795     3708     3682     2062      434 
     -37     1360     2536     2640     4665     9861    15140    15556 
    9639     3504     2550     5956    11935    16812    14756     5090 
   -4510    -6328    -1904     3651     7636     7542     3488    -2438 
   -7665    -6866     2066    14511    24381    27774    24111    14948 
    5321     3145     9499    17082    19533    14710     4575    -4594 
   -6620     -874     5765     5147     -907    -3936    -1491     3183 
    4411    -3260   -13602   -11870     3962    19773    23973    19464 
   15267    14489    15453    15997    13721     8415     3515     3526 
    8926    13082    10646     5100      375    -4500    -9985   -13651 
  -10535       76     9397    12653    14912    16330    10238    -2621 
  -10357    -4353     9383    18970    18411    10507     4603     7091 
   14435    18133    13988     5926      247    -1782    -1795     1557 
    9004    15516    16020     9625     -742    -5902     1078    12229 
   14065     4827    -5776    -9706    -7634    -1084    10708    22813 
   28765    28381    24217    20565    20595    20795    18204    14696 
    8985    -1860   -13679   -19377   -18855   -17795   -19973   -23352 
  -22068   -13988    -3936     3570     8162    11634    17238    24462 
   28699    29338    27942    26171    27652    29523    23872    12494 
    4270     1150    -1135    -3758    -4428    -1912     1158    -1472 
  -11685   -21115   -19174    -5451     9481    16136    13786     7140 
    2037      805      946     1512     4175     7419     7859     6659 
    9286    18139    28000    29941    19168     -450   -17362   -21987 
  -18387   -13510    -3024    12822    22743    23835    23496    26817 
   30797    26835    14154     2123    -4537    -6289    -3754    -1634 
   -3605    -8536   -15068   -20416   -18783    -6438     8868    13373 
    7807     3487     4955    12436    24256    34129    37382    34229 
   28607    25654    23457    15554     3927    -3603    -5228    -3912 
   -2066    -3609   -12544   -27110   -40211   -43939   -34229   -15589 
    1707    11595    16020    22399    36417    50812    51779    37230 
   17737     7892    12879    19352    15649     8514     7630    13088 
   19502    19618     9374    -7121   -24922   -41561   -48456   -37268 
  -14449     2316     1512    -8051    -7106     9776    32027    46992 
   47386    35939    22364    12927    10528    16627    26264    31811 
   29448    17207    -1480   -16101   -22813   -26951   -29833   -26817 
  -15360    -1560     5439     6856     9572    14054    19029    25555 
   31868    33658    25023     3092   -19822   -24914    -8572    17226 
   35109    33265    16289     -780    -8506    -8567    -6725    -4214 
     407     4907     7349     9506    10354     7562     4444     6052 
   12930    20665    23612    17922     2278   -17014   -28728   -28629 
  -18863    -4120     9625    19931    25506    25111    21087    17247 
   16173    16652    14535     7749    -1173    -4664      880     7159 
    6669     1973    -2781    -3835     3600    16507    23614    18408 
    6725      965     4692     8156     5427     1231    -2631    -8155 
  -12856   -15701   -19683   -23264   -21600   -12603     2783    20362 
   36502    48633    49827    38292    22881     9363    -1124    -5981 
   -3970     3466    10362     9251     1323    -5157    -4460     2502 
    9726    12357    10276     5701     1240    -1726    -2054     3204 
   12723    18581    16174     8457     1926     2365     9217    17308 
   23931    26742    21506     9591     -237    -2579     -764      -62 
   -2528    -6643    -8525    -7082    -5722    -7180   -10330    -9792 
     342    16742    26842    24312    16181    11094     9170     6330 
    2982     3385     7646    11448    12537    12525    15114    19913 
   19352    10602      969    -2760        1     4105     3411    -2805 
  -10814   -14715   -11406    -4008     4371    11564    14521    12582 
    7106     2263     3123     8586    14866    19865    19965    13551 
    5679     3276     7816    14000    15732    11387     3503    -3383 
   -6189    -5622    -2575     4338    12576    13300     3577    -6145 
   -4995     4676    12518    12988     8542     5584     9695    19310 
   26716    28262    24387    13913    -1059   -13316   -17371   -13990 
  -10249   -11624   -14067   -10918    -3279     3248     7277    10727 
   13146    13329    12372    10917     7892     4293     4220     9005 
   14625    19010    24084    27935    26535    20374    11057      252 
   -7852   -10470    -8646    -5841    -5606    -7005    -5441       62 
    6409    11233    11715     6737     2555     4523     9921    14087 
   13131     7110     3470     7507    14116    14544     8614     4646 
    5757     7236     7068     6669     5219     1763     -611     1822 
    7503    12132    14033    13032     8602     2116     -700     4220 
   11673    14265    11952     9404     8761     7538     4807     3029 
    2149      606    -1958    -3900     1066    14188    23739    21072 
   12069     5859     4286     4063     2705      218    -2003    -2724 
   -3300    -6245   -10484   -11175    -4197     8021    15670    11989 
    1852    -4847    -4853    -2947    -2056     1426     8873    15187 
   15815    11024     5989     7408    14180    19130    21342    23190 
   22370    16699     7715      155    -1503      622     1741      -63 
   -4630    -7619    -4923       -1     2830     4881     7808    10760 
   12650    11958     9008     7132     6978     7708    10328    12896 
   12972    12425    12376    12451    13643    15561    15969    12538 
    5159    -1737    -5628    -8617    -9906    -7622    -1926     8301 
   19018    20652    12448     2695    -1566     2583    11308    16848 
   16002    10346     5483     6435     8012     4379     -664    -3991 
   -5128    -2228     2465     4510     1957    -5080   -11967   -12218 
   -4210     7736    16266    18347    17108    15587    15998    18131 
   17564    13134     8957     7427     5968     1707    -1985      364 
    7501    13370    13563     9008     5896     7329     8911     6637 
    1593    -2370    -2255      535     2581     3843     7082    12989 
   17570    16036    10053     6193     6520     7493     6390     2998 
    -989    -1132     4941    10887     9961     6305     5807     6858 
    6673     4959     4128     6843     8689     4301    -2569    -5539 
   -1742     6372    10305     6844     1883    -1443    -4086    -4924 
   -2396     3227    10025    14328    14104    11530     9051     7200 
    6346     6759     8818    12586    15966    16181    12461     6026 
    -746    -4914    -3832     2130     8452    11426    10739     7496 
    4652     3940     2814       97    -1587     -329     2529     3948 
    3596     2623        9    -2378     -885     2515     4792     5937 
    6791     9713    14663    18686    22144    24085    19522     9096 
    -577    -4938    -3503      931     5995    11616    14056     9358 
    3103     2513     6949    11832    11588     4041    -5420   -10129 
   -7983    -2008     1863     1611     1004     2998     6350     8478 
    8826     9427    11098    11184     8691     7060     8445    10975 
   12511    11375     6609     2555     5251    12691    18323    19656 
   17370    13898    12123    11445     9921     8028     6253     4102 
    2830     4010     5913     5297     2070     -342     -375    -1104 
   -4585    -9073   -12505   -12299    -6644     1636     8881    14150 
   16691    16711    16725    17371    15770    10895     6910     7624 
   11439    14581    13770     8102     2577     1807     3256     4048 
    4734     5028     3569      -91    -4322    -6806    -6988    -3913 
    3042     9946    12268    10547     8336     7241     5553     2648 
     615      174      742     1587      939     -715     -853       91 
     226     -126      433     1722     2255     3218     7734    15246 
   22030    25300    24162    20031    16773    17211    19722    21772 
   22492    19593    12047     3870     -371     -324     -126    -3231 
