Origin Time       2024/04/02 04:24:00
Lat.              40.133
Long.             141.712
Depth. (km)       71
Mag.              6.0
Station Code      AOM001
Station Lat.      41.5269
Station Long.     140.9246
Station Height(m) 38
Record Time       2024/04/02 04:25:04
Sampling Freq(Hz) 100Hz
Duration Time(s)  92
Dir.              E-W
Scale Factor      7845(gal)/8223790
Max. Acc. (gal)   4.620
Last Correction   2024/04/02 04:25:04
Memo.             
[...]
   -7253    -7442    -7499    -7464    -7341    -7192    -7042    -6885 
   -6720    -6605    -6708    -7087    -7560    -7893    -7919    -7624 
   -7196    -6833    -6628    -6666    -6986    -7381    -7518    -7368 
   -7187    -7067    -6939    -6878    -6963    -6984    -6791    -6627 
   -6717    -6909    -6993    -7006    -7067    -7150    -7172    -7114 
   -6988    -6763    -6486    -6312    -6285    -6340    -6467    -6627 
   -6710    -6704    -6721    -6862    -7115    -7403    -7611    -7591 
   -7327    -7082    -7101    -7323    -7551    -7641    -7485    -7107 
   -6770    -6717    -6851    -6910    -6847    -6836    -7053    -7458 
   -7773    -7730    -7307    -6677    -6104    -5848    -5953    -6228 
   -6457    -6588    -6691    -6759    -6714    -6581    -6470    -6426 
   -6363    -6262    -6215    -6251    -6385    -6660    -6982    -7150 
   -7152    -7132    -7169    -7252    -7342    -7376    -7342    -7346 
   -7462    -7611    -7632    -7422    -7042    -6677    -6423    -6268 
   -6278    -6582    -7069    -7410    -7408    -7150    -6934    -7076 
   -7596    -8147    -8343    -8064    -7460    -6840    -6494    -6500 
   -6729    -6976    -7076    -7042    -6949    -6798    -6660    -6610 
   -6639    -6758    -6922    -7017    -7029    -6976    -6875    -6860 
   -6990    -7172    -7411    -7682    -7794    -7697    -7524    -7295 
   -6986    -6706    -6610    -6685    -6721    -6525    -6124    -5775 
   -5771    -6188    -6821    -7317    -7452    -7265    -6920    -6602 
   -6462    -6497    -6647    -6922    -7296    -7565    -7519    -7264 
   -7105    -7167    -7375    -7595    -7685    -7565    -7298    -7053 
   -6856    -6570    -6197    -5956    -6026    -6347    -6646    -6732 
   -6705    -6772    -7010    -7388    -7870    -8344    -8575    -8436 
   -8004    -7433    -6970    -6835    -6921    -6953    -6831    -6578 
   -6293    -6135    -6166    -6301    -6467    -6660    -6868    -7014 
   -6994    -6771    -6430    -6110    -5967    -6130    -6600    -7214 
   -7758    -8051    -7997    -7641    -7200    -6882    -6744    -6724 
   -6690    -6581    -6431    -6292    -6282    -6525    -6926    -7187 
   -7110    -6824    -6547    -6319    -6168    -6234    -6512    -6782 
   -6879    -6880    -6941    -7047    -7071    -7040    -7076    -7180 
   -7291    -7450    -7673    -7831    -7819    -7713    -7630    -7535 
   -7366    -7194    -7064    -6868    -6663    -6701    -6978    -7240 
   -7311    -7202    -7037    -6906    -6843    -6871    -6924    -6928 
   -6949    -7128    -7485    -7817    -7898    -7707    -7327    -6852 
   -6432    -6208    -6147    -6123    -6143    -6281    -6493    -6643 
   -6624    -6442    -6253    -6278    -6585    -7030    -7476    -7835 
   -7994    -7951    -7885    -7881    -7819    -7605    -7249    -6814 
   -6453    -6355    -6575    -6941    -7132    -6947    -6569    -6370 
   -6484    -6728    -6912    -6925    -6720    -6424    -6293    -6411 
   -6656    -6910    -7126    -7256    -7257    -7157    -7074    -7069 
   -7095    -7157    -7287    -7373    -7258    -6960    -6669    -6582 
   -6720    -6928    -7048    -7034    -6945    -6901    -6940    -6914 
   -6732    -6539    -6484    -6574    -6831    -7200    -7454    -7489 
   -7493    -7599    -7696    -7591    -7183    -6625    -6212    -6068 
   -6129    -6326    -6566    -6723    -6801    -6940    -7144    -7227 
   -7117    -6944    -6797    -6632    -6470    -6442    -6671    -7088 
   -7442    -7553    -7426    -7195    -7030    -7022    -7141    -7256 
   -7195    -6971    -6783    -6710    -6640    -6519    -6385    -6253 
   -6205    -6343    -6577    -6793    -7017    -7231    -7353    -7389 
   -7392    -7335    -7190    -7079    -7148    -7288    -7310    -7198 
   -7045    -6918    -6889    -7049    -7317    -7372    -7074    -6714 
   -6631    -6867    -7252    -7528    -7512    -7222    -6837    -6554 
   -6482    -6596    -6787    -6983    -7155    -7237    -7186    -7061 
   -6961    -6907    -6868    -6804    -6727    -6683    -6701    -6825 
   -7029    -7160    -7163    -7153    -7164    -7110    -6984    -6868 
   -6786    -6704    -6620    -6590    -6690    -6909    -7105    -7110 
   -6880    -6589    -6554    -6903    -7365    -7558    -7371    -6988 
   -6723    -6767    -7005    -7163    -7129    -6943    -6759    -6766 
   -6930    -7022    -6926    -6723    -6625    -6835    -7256    -7539 
   -7483    -7184    -6917    -6948    -7295    -7643    -7684    -7425 
   -7111    -6974    -7042    -7123    -7028    -6789    -6581    -6512 
   -6575    -6686    -6737    -6716    -6712    -6785    -6947    -7210 
   -7491    -7581    -7366    -6964    -6613    -6504    -6643    -6826 
   -6895    -6921    -7033    -7202    -7326    -7357    -7284    -7167 
   -7082    -6995    -6795    -6508    -6365    -6543    -6924    -7200 
   -7168    -6882    -6586    -6525    -6751    -7056    -7165    -7003 
   -6763    -6660    -6731    -6880    -7017    -7053    -6974    -6885 
   -6913    -7056    -7173    -7144    -6986    -6810    -6696    -6637 
   -6581    -6512    -6501    -6664    -7022    -7344    -7314    -6899 
   -6431    -6265    -6486    -6906    -7237    -7314    -7229    -7163 
   -7200    -7325    -7433    -7402    -7265    -7177    -7175    -7192 
   -7218    -7248    -7277    -7342    -7412    -7398    -7241    -6936 
   -6613    -6500    -6596    -6658    -6573    -6420    -6296    -6309 
   -6513    -6806    -7045    -7146    -7121    -7053    -6956    -6845 
   -6843    -6939    -7005    -7044    -7107    -7184    -7237    -7241 
   -7173    -6967    -6628    -6309    -6141    -6153    -6349    -6679 
   -6976    -7071    -6978    -6860    -6840    -6986    -7323    -7634 
   -7620    -7354    -7145    -7109    -7173    -7227    -7173    -7009 
   -6840    -6785    -6879    -7007    -7017    -6893    -6694    -6492 
   -6401    -6523    -6810    -7055    -7024    -6737    -6485    -6492 
   -6751    -7114    -7430    -7642    -7742    -7723    -7624    -7465 
   -7226    -6947    -6745    -6706    -6767    -6808    -6833    -6917 
   -7032    -7122    -7168    -7150    -7056    -6934    -6890    -6899 
   -6833    -6709    -6685    -6806    -6975    -7098    -7125    -7059 
   -6961    -6924    -6971    -7055    -7183    -7449    -7817    -8100 
   -8159    -7940    -7510    -7110    -6929    -6943    -7014    -7030 
   -6972    -6895    -6817    -6731    -6631    -6512    -6384    -6285 
   -6257    -6255    -6216    -6235    -6419    -6664    -6829    -6921 
   -6978    -7021    -7078    -7128    -7094    -6980    -6878    -6822 
   -6794    -6797    -6835    -6852    -6791    -6652    -6473    -6346 
   -6372    -6493    -6558    -6567    -6632    -6771    -6930    -7076 
   -7200    -7318    -7435    -7462    -7308    -7059    -6870    -6810 
   -6902    -7109    -7302    -7385    -7410    -7442    -7420    -7281 
   -7075    -6917    -6901    -6987    -7036    -7002    -6939    -6860 
   -6855    -7026    -7268    -7349    -7140    -6689    -6276    -6208 
   -6489    -6812    -6870    -6662    -6454    -6412    -6523    -6739 
   -6961    -7036    -6934    -6809    -6783    -6804    -6779    -6736 
   -6740    -6805    -6936    -7114    -7236    -7219    -7115    -7036 
   -7042    -7126    -7191    -7107    -6936    -6837    -6762    -6646 
   -6613    -6729    -6929    -7196    -7524    -7843    -8052    -8101 
   -8024    -7863    -7605    -7256    -6951    -6785    -6671    -6573 
   -6592    -6826    -7237    -7611    -7726    -7507    -7014    -6461 
   -6134    -6124    -6292    -6500    -6708    -6895    -7067    -7261 
   -7453    -7523    -7383    -7067    -6646    -6226    -5984    -6010 
   -6268    -6690    -7098    -7281    -7268    -7225    -7294    -7481 
   -7560    -7365    -7059    -6880    -6955    -7261    -7596    -7719 
   -7549    -7153    -6697    -6351    -6195    -6228    -6444    -6760 
   -7051    -7276    -7415    -7398    -7226    -7007    -6868    -6847 
   -6866    -6863    -6813    -6729    -6663    -6673    -6868    -7252 
   -7581    -7638    -7365    -6856    -6381    -6178    -6249    -6405 
   -6446    -6413    -6509    -6740    -7025    -7395    -7757    -7809 
   -7489    -7145    -7028    -7029    -7072    -7184    -7227    -7080 
   -6839    -6632    -6519    -6515    -6632    -6825    -6903    -6771 
   -6636    -6698    -6876    -6975    -6891    -6687    -6540    -6609 
   -6893    -7233    -7516    -7697    -7726    -7642    -7557    -7468 
   -7352    -7246    -7107    -6876    -6596    -6335    -6205    -6308 
   -6555    -6826    -7092    -7187    -6932    -6528    -6277    -6245 
   -6423    -6709    -6871    -6795    -6543    -6323    -6431    -6855 
   -7275    -7526    -7631    -7612    -7516    -7381    -7218    -7064 
   -6949    -6949    -7106    -7230    -7149    -7037    -7140    -7404 
   -7584    -7553    -7384    -7195    -7020    -6856    -6737    -6667 
   -6583    -6507    -6558    -6721    -6772    -6650    -6532    -6489 
   -6525    -6712    -6922    -6924    -6751    -6562    -6489    -6636 
   -6898    -7037    -6971    -6798    -6671    -6681    -6756    -6808 
   -6859    -6961    -7168    -7527    -7946    -8185    -8073    -7650 
   -7214    -7061    -7150    -7281    -7331    -7180    -6905    -6849 
   -7177    -7632    -7784    -7388    -6675    -6176    -6185    -6570 
   -7005    -7168    -6912    -6473    -6243    -6327    -6555    -6704 
   -6650    -6474    -6332    -6346    -6644    -7140    -7493    -7533 
   -7292    -6863    -6475    -6357    -6504    -6802    -7125    -7326 
   -7439    -7518    -7396    -7020    -6635    -6421    -6340    -6326 
   -6353    -6417    -6563    -6818    -7111    -7323    -7352    -7213 
   -7084    -7128    -7317    -7499    -7515    -7377    -7246    -7156 
   -6994    -6740    -6481    -6282    -6222    -6304    -6473    -6755 
   -7117    -7416    -7642    -7758    -7584    -7165    -6820    -6642 
   -6484    -6342    -6350    -6538    -6932    -7546    -8114    -8293 
   -8073    -7728    -7512    -7398    -7194    -6921    -6797    -6858 
   -7010    -7226    -7321    -7044    -6556    -6218    -6083    -6137 
   -6447    -6867    -7119    -7109    -6932    -6826    -6912    -7006 
   -7001    -6961    -6801    -6516    -6403    -6631    -7074    -7508 
   -7743    -7700    -7429    -7099    -6955    -7126    -7473    -7669 
   -7543    -7271    -7028    -6818    -6737    -6848    -6993    -7057 
   -7045    -6964    -6899    -6939    -7005    -7049    -7114    -7125 
   -7045    -7020    -7040    -6987    -6941    -6937    -6891    -6851 
   -6820    -6713    -6601    -6562    -6527    -6462    -6427    -6436 
   -6413    -6343    -6359    -6548    -6724    -6683    -6527    -6517 
   -6775    -7202    -7600    -7747    -7528    -7106    -6822    -6841 
   -7034    -7213    -7308    -7323    -7256    -7142    -7067    -7076 
   -7123    -7146    -7144    -7150    -7206    -7344    -7500    -7600 
   -7686    -7771    -7738    -7533    -7225    -6886    -6600    -6471 
   -6462    -6461    -6523    -6727    -6964    -7032    -6866    -6713 
   -6799    -6970    -7018    -6990    -6972    -6975    -6971    -6833 
   -6486    -6049    -5729    -5806    -6390    -7092    -7473    -7539 
   -7420    -7218    -7122    -7221    -7437    -7538    -7344    -7014 
   -6718    -6442    -6392    -6740    -7207    -7396    -7194    -6755 
   -6331    -6131    -6142    -6120    -5965    -5845    -5915    -6226 
   -6669    -6944    -6909    -6760    -6764    -7028    -7512    -7990 
   -8140    -7975    -7850    -7916    -7942    -7727    -7290    -6727 
   -6156    -5730    -5570    -5682    -6076    -6763    -7572    -8128 
   -8060    -7404    -6659    -6257    -6284    -6640    -7049    -7211 
   -7111    -7003    -7118    -7416    -7711    -7843    -7740    -7474 
   -7168    -6993    -7115    -7395    -7542    -7487    -7310    -7145 
   -7145    -7348    -7636    -7878    -8004    -7985    -7844    -7666 
   -7531    -7423    -7213    -6885    -6570    -6349    -6281    -6381 
   -6497    -6500    -6470    -6546    -6747    -6966    -7034    -6957 
   -6905    -6949    -7126    -7445    -7716    -7747    -7639    -7607 
   -7624    -7495    -7121    -6670    -6484    -6627    -6766    -6596 
   -6141    -5645    -5377    -5459    -5709    -5788    -5591    -5281 
   -5150    -5413    -5886    -6189    -6219    -6142    -6119    -6255 
   -6712    -7474    -8172    -8533    -8598    -8527    -8517    -8677 
   -8977    -9321    -9448    -9153    -8649    -8208    -7848    -7599 
   -7431    -7176    -6810    -6443    -6216    -6185    -6127    -5973 
   -5961    -6062    -6033    -5848    -5567    -5239    -5032    -5080 
   -5298    -5583    -5869    -6033    -6112    -6242    -6355    -6400 
   -6399    -6288    -6107    -5998    -5906    -5738    -5660    -5742 
   -5884    -6150    -6567    -6951    -7121    -7068    -6864    -6528 
   -6184    -6035    -6126    -6436    -6825    -7059    -7187    -7308 
   -7172    -6635    -5888    -5092    -4510    -4414    -4648    -5039 
   -5579    -6031    -6311    -6648    -7048    -7323    -7380    -7184 
   -6814    -6490    -6376    -6531    -6979    -7654    -8380    -8966 
   -9267    -9239    -8930    -8482    -8133    -8056    -8120    -8152 
   -8197    -8248    -8132    -7819    -7479    -7241    -7041    -6756 
   -6415    -6097    -5813    -5598    -5489    -5530    -5784    -6134 
   -6431    -6781    -7291    -7859    -8334    -8644    -8885    -9223 
   -9647   -10152   -10762   -11294   -11589   -11745   -11800   -11620 
  -11230   -10774   -10258    -9736    -9348    -9015    -8568    -8009 
   -7408    -6898    -6667    -6710    -6848    -6926    -6841    -6577 
   -6318    -6299    -6432    -6393    -6022    -5341    -4588    -4116 
   -3986    -4117    -4477    -4823    -5020    -5304    -5761    -6261 
   -6673    -6882    -6929    -6957    -7092    -7453    -7993    -8455 
   -8638    -8569    -8310    -7843    -7230    -6628    -6077    -5589 
   -5328    -5337    -5373    -5278    -5105    -4904    -4692    -4510 
   -4465    -4699    -5204    -5826    -6552    -7468    -8432    -9221 
   -9737    -9817    -9377    -8638    -7875    -7250    -6774    -6259 
   -5626    -5069    -4707    -4575    -4757    -5017    -5047    -5061 
   -5331    -5859    -6662    -7458    -7804    -7716    -7429    -7148 
   -7172    -7503    -7730    -7668    -7492    -7357    -7357    -7501 
   -7580    -7372    -6849    -6183    -5651    -5362    -5215    -5143 
   -5161    -5252    -5444    -5868    -6512    -7136    -7600    -7990 
   -8333    -8614    -8953    -9356    -9705   -10029   -10319   -10397 
  -10250    -9969    -9582    -9111    -8467    -7546    -6531    -5701 
   -5227    -5228    -5518    -5621    -5409    -5152    -4976    -4899 
   -4957    -5067    -5225    -5513    -5795    -5949    -6029    -6037 
   -6102    -6417    -6863    -7258    -7550    -7600    -7273    -6671 
   -6081    -5792    -5991    -6697    -7659    -8465    -8868    -8932 
   -8883    -8787    -8552    -8191    -7847    -7573    -7354    -7236 
   -7263    -7399    -7623    -7871    -7954    -7758    -7321    -6714 
   -6095    -5594    -5208    -5005    -5113    -5416    -5745    -6135 
   -6644    -7260    -7975    -8719    -9301    -9501    -9184    -8388 
   -7371    -6419    -5734    -5491    -5711    -6142    -6538    -6821 
   -6903    -6700    -6258    -5695    -5197    -4985    -5136    -5572 
   -6223    -7018    -7762    -8271    -8567    -8725    -8795    -8797 
   -8596    -8060    -7338    -6631    -6011    -5526    -5179    -4950 
   -4797    -4619    -4472    -4546    -4803    -5108    -5494    -5919 
   -6204    -6338    -6421    -6485    -6600    -6802    -6949    -6952 
   -6889    -6960    -7376    -8032    -8577    -8793    -8629    -8208 
   -7854    -7690    -7446    -6924    -6346    -6069    -6303    -7088 
   -8124    -8904    -9301    -9516    -9591    -9501    -9279    -8770 
   -7919    -7048    -6351    -5837    -5645    -5675    -5643    -5549 
   -5439    -5335    -5499    -6081    -6875    -7614    -8051    -8013 
   -7728    -7650    -7890    -8320    -8800    -9047    -8868    -8515 
   -8388    -8598    -8899    -8900    -8406    -7595    -6766    -6114 
   -5749    -5590    -5355    -4935    -4495    -4257    -4384    -4882 
   -5520    -5933    -5913    -5501    -4954    -4618    -4760    -5482 
   -6605    -7623    -8174    -8371    -8453    -8576    -8858    -9116 
   -8951    -8325    -7566    -6920    -6482    -6308    -6305    -6272 
   -6127    -5960    -5945    -6227    -6716    -7237    -7769    -8229 
   -8472    -8640    -8839    -8824    -8407    -7765    -7187    -6848 
   -6786    -6870    -6835    -6501    -5930    -5413    -5308    -5680 
   -6276    -6879    -7429    -7825    -7905    -7618    -7117    -6590 
   -6150    -5934    -6010    -6191    -6161    -5751    -5181    -5042 
   -5703    -6866    -7916    -8446    -8398    -8024    -7832    -8147 
   -8664    -8850    -8563    -7969    -7377    -7167    -7415    -7761 
   -7862    -7766    -7647    -7530    -7377    -7149    -6758    -6192 
   -5584    -5205    -5219    -5421    -5537    -5571    -5611    -5701 
   -5887    -6251    -6839    -7481    -7956    -8275    -8554    -8787 
   -8878    -8779    -8483    -7909    -7021    -6060    -5321    -4887 
   -4756    -4872    -5054    -5182    -5290    -5375    -5445    -5660 
   -6069    -6521    -6851    -7025    -7245    -7661    -8068    -8268 
   -8352    -8383    -8244    -7944    -7647    -7335    -6928    -6575 
   -6443    -6521    -6735    -6988    -7155    -7182    -7219    -7384 
   -7523    -7481    -7346    -7250    -7198    -7121    -6984    -6843 
   -6795    -6853    -6953    -7150    -7429    -7530    -7361    -7146 
   -6991    -6859    -6880    -7179    -7520    -7499    -7011    -6297 
   -5709    -5530    -5772    -6184    -6446    -6378    -6238    -6450 
   -7007    -7596    -7931    -7804    -7250    -6551    -5979    -5736 
   -5934    -6455    -7014    -7456    -7740    -7836    -7807    -7750 
   -7676    -7545    -7303    -6917    -6492    -6280    -6435    -6806 
   -7119    -7231    -7103    -6772    -6401    -6197    -6293    -6569 
   -6787    -6917    -7082    -7356    -7715    -8005    -8013    -7668 
   -7165    -6860    -6993    -7503    -8039    -8193    -7950    -7663 
   -7541    -7524    -7457    -7159    -6621    -6016    -5570    -5494 
   -5796    -6241    -6610    -6831    -6941    -7138    -7601    -8209 
   -8673    -8856    -8783    -8536    -8213    -7851    -7447    -7044 
   -6601    -6087    -5675    -5516    -5497    -5493    -5510    -5556 
   -5583    -5522    -5414    -5508    -5933    -6488    -6957    -7254 
   -7315    -7191    -7110    -7304    -7761    -8193    -8361    -8260 
   -7944    -7511    -7102    -6731    -6351    -5984    -5684    -5485 
   -5401    -5483    -5780    -6219    -6660    -7038    -7280    -7331 
   -7271    -7231    -7330    -7611    -8039    -8540    -8955    -9062 
   -8839    -8498    -8156    -7858    -7758    -7912    -8125    -8189 
   -8058    -7815    -7488    -7025    -6548    -6309    -6281    -6259 
   -6288    -6482    -6744    -6953    -7099    -7130    -6970    -6729 
   -6658    -6804    -6939    -6860    -6598    -6300    -6122    -6150 
   -6311    -6446    -6426    -6297    -6299    -6498    -6741    -6943 
