Origin Time       2024/04/02 04:24:00
Lat.              40.133
Long.             141.712
Depth. (km)       71
Mag.              6.0
Station Code      AOM012
Station Lat.      40.5127
Station Long.     141.4880
Station Height(m) 12
Record Time       2024/04/02 04:24:49
Sampling Freq(Hz) 100Hz
Duration Time(s)  138
Dir.              U-D
Scale Factor      7845(gal)/8223790
Max. Acc. (gal)   98.151
Last Correction   2024/04/02 04:24:49
Memo.             
[...]
  -14740   -14746   -14746   -14743   -14746   -14742   -14733   -14737 
  -14748   -14750   -14744   -14736   -14739   -14748   -14746   -14736 
  -14742   -14748   -14746   -14746   -14746   -14743   -14747   -14751 
  -14747   -14748   -14754   -14750   -14742   -14739   -14744   -14751 
  -14742   -14725   -14732   -14752   -14754   -14739   -14736   -14746 
  -14751   -14739   -14733   -14743   -14747   -14742   -14742   -14743 
  -14750   -14751   -14742   -14742   -14752   -14754   -14746   -14742 
  -14744   -14755   -14758   -14744   -14735   -14739   -14746   -14746 
  -14740   -14743   -14747   -14732   -14729   -14751   -14758   -14740 
  -14732   -14743   -14752   -14744   -14737   -14742   -14750   -14751 
  -14746   -14743   -14751   -14752   -14744   -14743   -14747   -14747 
  -14748   -14746   -14743   -14746   -14746   -14744   -14737   -14737 
  -14750   -14751   -14739   -14737   -14743   -14744   -14744   -14742 
  -14740   -14748   -14754   -14744   -14739   -14748   -14747   -14733 
  -14746   -14766   -14746   -14723   -14740   -14763   -14756   -14737 
  -14737   -14754   -14754   -14737   -14736   -14750   -14748   -14737 
  -14739   -14743   -14742   -14740   -14742   -14744   -14748   -14748 
  -14743   -14739   -14740   -14746   -14752   -14746   -14737   -14747 
  -14751   -14740   -14737   -14750   -14752   -14739   -14732   -14743 
  -14755   -14751   -14735   -14740   -14755   -14750   -14735   -14735 
  -14744   -14751   -14747   -14737   -14744   -14752   -14746   -14742 
  -14747   -14747   -14742   -14737   -14746   -14758   -14748   -14735 
  -14739   -14751   -14755   -14747   -14736   -14740   -14751   -14752 
  -14739   -14732   -14747   -14756   -14743   -14731   -14742   -14754 
  -14747   -14736   -14743   -14756   -14752   -14735   -14733   -14748 
  -14752   -14743   -14740   -14751   -14759   -14750   -14736   -14740 
  -14750   -14744   -14737   -14742   -14752   -14759   -14747   -14727 
  -14735   -14755   -14746   -14728   -14731   -14750   -14759   -14744 
  -14733   -14748   -14755   -14739   -14731   -14747   -14756   -14740 
  -14725   -14740   -14762   -14755   -14733   -14733   -14748   -14754 
  -14742   -14731   -14746   -14762   -14751   -14733   -14736   -14747 
  -14744   -14737   -14743   -14751   -14754   -14748   -14736   -14737 
  -14751   -14747   -14731   -14735   -14748   -14750   -14743   -14742 
  -14747   -14748   -14739   -14731   -14744   -14759   -14744   -14729 
  -14747   -14767   -14754   -14733   -14736   -14748   -14750   -14736 
  -14736   -14752   -14756   -14742   -14732   -14743   -14755   -14751 
  -14735   -14729   -14742   -14754   -14747   -14735   -14737   -14751 
  -14758   -14747   -14737   -14747   -14752   -14742   -14736   -14748 
  -14756   -14744   -14733   -14746   -14754   -14737   -14725   -14742 
  -14762   -14758   -14739   -14733   -14746   -14752   -14740   -14735 
  -14748   -14752   -14743   -14740   -14746   -14747   -14750   -14751 
  -14743   -14739   -14750   -14751   -14742   -14743   -14744   -14735 
  -14733   -14744   -14750   -14747   -14746   -14746   -14742   -14743 
  -14746   -14743   -14743   -14748   -14750   -14752   -14751   -14740 
  -14731   -14733   -14747   -14755   -14754   -14746   -14740   -14750 
  -14756   -14742   -14727   -14729   -14746   -14756   -14750   -14742 
  -14747   -14746   -14740   -14742   -14743   -14721   -14634   -14389 
  -13838   -13008   -12266   -11939   -11813   -11630   -11846   -12502 
  -11981    -9509    -8066   -11519   -18752   -23674   -22638   -18847 
  -17286   -19048   -21911   -24065   -25682   -24672   -17763    -9481 
   -7823   -12039   -13637    -7852    -1290    -1220    -3291    -2956 
   -4180    -7798    -9948   -10250    -9069    -9676   -17004   -23355 
  -22177   -24745   -34990   -38773   -29539   -17641   -15326   -23440 
  -31334   -30636   -23607   -15318   -10385   -10080    -8521    -6021 
   -6600    -4098    -1115    -4614    -5211    -7788   -18098   -13582 
     145    -1918    -8255    -6019     1111     4453    -9749   -29997 
  -33354   -25162   -17857   -11379   -10809   -25381   -41339   -38666 
  -25466    -9957     3732    -7626   -36846   -41172   -17707     3038 
   10415     2632   -17448   -23494    -9119    -4553   -10492    -8430 
  -11313   -23984   -24406    -7871     2439    -8029   -25762   -35870 
  -33204   -18222   -11013   -25987   -40058   -35478   -27087   -16703 
    6378    16351   -11175   -45805   -55026   -38260    -9223    -2187 
  -24139   -31176   -11994     7049    19278    23539    12825    -1884 
   -4880   -12441   -33890   -38740   -22584    -7469     6405    12195 
   -6523   -36074   -43552   -24956   -12194   -17950   -17494    -4488 
    -275   -10335   -24672   -35811   -36871   -17281    12904    13450 
  -19012   -46364   -52219   -30597     8272    27222    12873   -20958 
  -49315   -45665   -13112    15637     6947   -23087   -26341   -12201 
   -6239     4926    11452    -3665   -25343   -41540   -37658   -12756 
   -1513   -16378   -34686   -33494   -16659    -7450     4918    25077 
   12104   -24726   -39915   -39225   -23839     6546    14031      719 
  -10203   -24325   -27857   -18426   -17416   -11452    -5367   -34600 
  -65107   -48500   -18640     4456    30597    19179   -21521   -34503 
  -39642   -43362   -16792     2488     2320    15055    16382    -8942 
  -30030   -37000   -28582    -1302    17811    -2828   -43590   -57352 
  -42812   -24144     -471    13527    -3936   -22212   -18774   -16850 
  -13656      301    -3055   -17780   -10129    -9749   -39027   -47237 
  -22943     -546    18534    20709    -9204   -34534   -34319   -23483 
   -3742    11823     -400   -30365   -50259   -41249   -14851    -6473 
  -17842   -22689   -10948     5881     6578    -9529   -24611   -28090 
  -19229   -15388   -22088   -14925    -4029   -11299    -7699     8291 
     450   -16584   -22501   -27739   -25436   -18897   -27337   -36840 
  -29725   -16004    -1938    10577     1331   -24538   -20814     5962 
    4764    -8465    -4797   -16448   -44911   -51726   -36698   -12595 
    4301    -7672   -24501   -19699   -13841   -12310      738    10817 
    1962   -10670   -17909   -26932   -28275   -15090    -6110    -8083 
  -13406   -25323   -38345   -37817   -26986   -13918      199     1996 
  -16432   -32664   -26397    -5795    11429    15358     5699    -9745 
  -22631   -30171   -29386   -19359   -10000    -9636   -19421   -33909 
  -32740   -14747    -6814    -7198     -441     2029    -4476   -13182 
  -22796   -22941   -13282   -11276   -20556   -29586   -27548   -20117 
  -20214   -17953    -5003     2182    -3763   -11314   -14152   -16448 
  -18708   -13034    -3207    -5024   -14786   -17710   -19269   -27315 
  -33894   -32351   -17010     7287     9271   -13846   -20826   -11869 
  -15722   -17343   -13954   -29382   -37527   -14067     4464    -1478 
   -9888   -13949   -16198   -11395    -8502   -14829   -20187   -24201 
  -27438   -17108    -4064   -11958   -23664   -18000   -12634   -15750 
  -17328   -18442   -20000   -22378   -22518   -14574    -7780    -5649 
   -4360   -12673   -23153   -19221   -11335   -10378   -10269    -5416 
    1420    -1676   -14814   -22388   -20339   -16067   -17543   -26361 
  -27522   -15697    -9768   -12252   -14488   -23788   -28834   -13401 
      13    -3748   -14693   -28070   -30573   -19214   -14019   -13420 
   -6450    -1829    -4866   -11088   -13670    -9109    -8830   -16571 
  -21334   -25211   -27457   -17398    -3144     1470    -4018   -14841 
  -22374   -20756   -16071   -14678   -14504   -16290   -20401   -18025 
  -11423   -13747   -18378   -10160     -321    -6710   -18368   -23512 
  -28822   -28510   -17930   -13545   -15124    -8874    -3597    -7928 
  -13250   -15992   -16750   -15593   -16287   -16013   -11735   -11029 
  -17463   -23495   -22069   -16441   -11082    -4573    -3964   -14454 
  -21454   -18256   -17528   -20687   -18397   -12758   -11603   -15516 
  -19371   -21679   -23306   -21308   -16409    -9216      754      974 
  -13436   -24887   -24009   -17892   -10574    -3677    -6548   -19768 
  -20903    -5011     2070    -3285    -8301   -18717   -30109   -24908 
  -12090   -10890   -14808   -14817   -16317   -16988   -15561   -18650 
  -19988   -14413    -9575    -8415   -12798   -22356   -26991   -24012 
  -17656   -10818   -10644   -16040   -16175    -9818    -1991     3642 
    -692   -15730   -25276   -21880   -18928   -20210   -17359   -13597 
  -14513   -19350   -24197   -20688   -12330   -10474   -14030   -21266 
  -29434   -28684   -18671    -8113    -4779    -7866    -9333   -10438 
  -13016   -11180    -6948    -5509   -10662   -18918   -14466    -6667 
  -14570   -17574    -9019   -11627   -15160   -12627   -21640   -31245 
  -27835   -19163    -8727    -7198   -19759   -27307   -22493   -15114 
  -10631   -11230   -12989   -13618   -13807    -6177     2512    -2054 
   -8217   -10288   -20628   -29917   -26782   -17690    -5120      997 
  -11535   -25442   -20903    -9506    -5057    -2146    -2627   -18380 
  -40022   -45428   -33019   -14945     -777    -1235   -16771   -29371 
  -26725   -15545    -7514    -4749    -6662   -16526   -21789   -13807 
  -10261    -9185      808    -1819   -21767   -30829   -23172   -14327 
  -14827   -23251   -27000   -22766   -15419    -7064    -4139    -6993 
  -13423   -23568   -20806    -3971    -1084   -11863   -17842   -19440 
  -14022    -4644    -8677   -18690   -15376   -10200   -18266   -24655 
  -18503   -15213   -18509   -16249   -16212   -20237   -12272    -8492 
  -17968   -10089     3007   -11041   -28224   -27406   -22227   -13351 
   -1148    -1977   -15542   -22476   -15326    -7290    -5283    -5289 
  -12837   -19774   -13513   -13641   -19712   -12555   -10102   -15642 
  -14743   -23325   -37936   -34264   -19874   -11720   -12560   -12518 
   -1628     1848   -13818   -25851   -27419   -26943   -19807   -11530 
  -11897   -16432   -20275   -19090    -8021     5317     5144    -7731 
  -18990   -25992   -27530   -21139   -14924   -11635   -10214   -11518 
  -11630   -10875    -9070    -3042    -1023    -8483   -17929   -26249 
  -30368   -24875   -14397    -4981    -2697   -10744   -17086   -16688 
  -17687   -17410   -15107   -18504   -21492   -17342   -18141   -25851 
  -22542   -12040   -10149    -8257    -7824   -21494   -26954   -12225 
   -7817   -17536   -19066   -17639   -18126   -12289    -9255   -10162 
   -1273     2315   -14913   -29169   -26919   -19639    -6655     4799 
   -2384   -16260   -20605   -23955   -25726   -16920   -13671   -21821 
  -21998   -20206   -24275   -14003     5807    11838     5904   -10207 
  -33840   -42435   -29397   -10235      901    -5395   -20706   -26419 
  -19570    -9598    -7006   -11892   -16447   -21284   -23494   -16038 
   -8411    -7136    -2370     2224    -7159   -22257   -26693   -21081 
  -11870    -5869   -12641   -25586   -25556   -15645   -11352   -11959 
  -15626   -23722   -28987   -24094   -11588    -5212    -8754    -8332 
   -7026   -15658   -19105   -11291    -9872   -12638    -9682   -12982 
  -24587   -29458   -26866   -19858    -8480    -4280    -7063    -7080 
  -14850   -28080   -23102    -7770    -2902    -2744    -3253    -9148 
  -18868   -28898   -29814   -20127   -15079   -18337   -19743   -14443 
   -6129    -7685   -18534   -19985   -15511   -13648    -8044   -12642 
  -28647   -26526   -14150   -15589   -14553    -2729    -1132   -10543 
  -16517   -19199   -16780    -5898    -2633   -15600   -24034   -17265 
  -11461   -14855   -22549   -29191   -25315   -12006    -5524   -12664 
  -25952   -34177   -28509   -10557     5317     3547    -9023   -12783 
  -15958   -26068   -22358   -11778   -11519    -3541     8253    -1637 
  -24439   -39660   -36435   -15792     -602    -5193   -16750   -21795 
  -23809   -29585   -31685   -22794    -7790     5764     6701    -6339 
  -13851   -10967   -10978    -9535    -2477     -830    -6666   -20538 
  -41655   -49478   -30821      410    23444    20135   -12212   -45469 
  -48350   -21529     8275    11164   -13500   -32953   -40721   -45486 
  -18010    28831    30932     1425   -15415   -34122   -48373   -28182 
    -141    -1607   -19323   -33226   -50525   -57299   -27036     7078 
   10446    10920    12792    -4433   -15665   -15426   -27595   -30264 
  -14418   -14674   -20887     2461    26256     4040   -34489   -37027 
  -13590     3882     4901   -16433   -46399   -53643   -44474   -42408 
  -31687    -5737     2467   -11518   -13194     2978     2180   -26769 
  -53442   -52574   -25088     8310    26090    19805     1355    -1408 
    3214    -4891     1605    21562    18666     3406   -13541   -39595 
  -48084   -24094     1358      535   -21895   -41172   -36485    -4841 
   23768     4603   -49453   -73795   -50961   -34177   -42354   -21675 
   18107     5107   -33016   -36948   -24630    -4959    22002    25510 
    6604   -19815   -53523   -65792   -44828   -22526     3703    43519 
   57156    25987   -23382   -63661   -81965   -77211   -33003    39191 
   66660    24707   -35125   -65853   -49281      228    43032    43360 
   -4550   -56247   -60515   -29046   -12090   -27706   -47715   -54094 
  -61248   -57288   -29010    -8603     6914    43051    57219    16191 
  -36803   -55476   -34665     3411    24167    10378   -19958   -48062 
  -65102   -52451   -11599    25276    44905    62748    77251    61161 
    -723   -75512  -103639   -84148   -57134   -26792     1863    23830 
   61114    88146    51119   -31313   -94101  -101189   -64675   -28404 
  -24943   -39522   -37454   -19543    -5162     -625   -12681   -25753 
  -20205   -21855   -36466   -35139   -28156   -26757   -11094    10416 
   12286    -4918   -31225   -54122   -53925   -27502    -4995   -12850 
  -28182   -17687    15935    54221    67074    35752      490     -195 
    8217     6354    11580    19232    10431    -8278   -17856   -18594 
  -40597   -82930  -102682  -102412   -93977   -62121   -27897    -8382 
    6729    20220    35090    32880    -1248   -32842   -40446   -40284 
  -24948    11977    31179    13324   -14484   -28397   -22578   -12587 
  -11048    -5806     1885    -3466   -18243   -26218   -18906    -4418 
    2444    -4800   -27373   -53477   -53788   -23990     5034     8637 
  -10621   -24378   -19427   -16410   -16189    -5200    -4846   -27028 
  -36401   -23739   -22165   -27939   -16279     -866     1011    -3392 
   -5468    -2343    -2158   -17921   -42649   -53433   -36775    -3720 
   22477    29651    20607    10061     4491   -12525   -38043   -40571 
  -22789   -16895   -21763   -19462   -17050   -21456   -23207   -19323 
  -16783   -18081   -13587    -1316    -4063   -25699   -34584   -27342 
  -31676   -45782   -47159   -34241   -17099      -56     7585     3055 
     268      649    -1081     1391     4094    -5432   -29430   -59965 
  -78273   -66414   -30670     4144    22561    24777    19842    16362 
   11064     3387     3006     3877   -12260   -40456   -54464   -42310 
  -18856    -1880     5406     2646    -9537   -21163   -22569   -13032 
    -677     2840    -5413   -17001   -21537   -17741   -12800   -12557 
  -20802   -31437   -29887   -20796   -17383   -15061   -13998   -21216 
  -21575    -7446    -2274    -8932   -11689   -22632   -45092   -56122 
  -49669   -28950    -1579     6656    -7842   -18172   -13752    -3443 
    1460    -8846   -26650   -32061   -20673    -3316     9643    12631 
    7796     1888    -5359   -15124   -21254   -23458   -27977   -31540 
  -26647   -21820   -26304   -24768    -8723     3384     3049    -3339 
  -15888   -29974   -33825   -24520   -10795   -10305   -23187   -22889 
   -6879     1624      990     -218    -2872     -519     7892     5223 
   -7096   -17417   -33604   -45469   -34141   -15628    -4885     2743 
    2496   -11083   -28291   -38950   -44043   -45774   -39869   -28953 
  -24872   -25064   -14489     4089    13351     6357    -8560   -17096 
  -15502   -12688   -14432   -19622   -24089   -20229    -5445     7354 
    7609     3811       -1    -8367   -12414    -7024    -3798    -9389 
  -19710   -27167   -29677   -31245   -27405   -17435   -13782   -15095 
  -12333   -14142   -26154   -37960   -44460   -46803   -41256   -23955 
   -5548    -5236   -18370   -25174   -18922    -1455    11853     5914 
   -6421   -12378   -15095   -10660      797     6798     5482     2839 
    -985    -3418     -861     2868     5128     6604     3800    -6720 
  -21454   -30823   -30310   -27419   -27585   -31082   -38533   -40656 
  -31729   -24775   -25320   -25944   -29349   -38673   -45154   -46017 
  -44686   -35572   -20025   -14814   -20806   -18708    -5000     5456 
    8141     8980     7121      334    -6014    -7761    -3727     5027 
    5073    -8672   -14543    -4873      920    -1096      460      337 
   -9987   -19921   -21751   -25309   -33732   -37061   -34747   -32692 
  -30248   -29636   -30699   -24876   -14161    -8845    -9364   -13393 
  -22111   -27560   -19658    -3026    11697    17105    10785     -360 
   -5444      457    11076    16348    14997     5088   -18503   -40922 
  -39996   -20223    -2323      662   -10872   -25384   -34441   -38915 
  -36805   -28043   -23826   -27479   -27965   -24765   -26676   -28401 
  -24503   -22744   -22283   -19333   -19920   -21509   -19773   -20332 
  -20753   -14127    -6540    -7191   -12810   -12838    -5576     -108 
   -1163    -4340    -6092    -5097     -191     4183     1988    -6804 
  -18962   -26520   -22148   -13227    -7776    -6226   -14835   -24557 
  -16636    -5576    -7561   -11638   -17948   -29053   -29760   -21462 
  -21321   -29959   -35904   -31637   -21134   -15619   -16129   -14748 
  -10393    -7831   -10648   -17096   -16853    -6035     3341     3221 
   -3577   -11303   -13190   -11835   -12838   -10860    -6660    -8189 
  -11846   -13329   -15018   -15043   -13282   -13743   -15643   -21432 
  -35924   -49226   -47672   -33216   -15001    -2467    -4338   -14523 
  -18208   -15028   -12190   -11109   -12390   -16591   -21193   -20876 
  -14760   -10828   -11105    -8729    -4563    -3099    -2130    -2533 
   -7686   -11368    -8564    -5795    -7150    -9096    -9081    -9548 
  -15503   -23642   -24347   -18503   -14494   -14922   -17923   -23533 
  -31357   -34218   -27243   -17713   -12843   -13321   -17667   -19901 
  -15221    -8954    -8406   -10374    -7466    -3744    -7393   -14775 
  -19194   -19818   -17170   -13085    -9772    -8267    -8661    -8383 
   -7327    -9751   -13926   -14214   -13116   -15851   -21208   -25690 
  -25949   -21556   -18503   -17952   -16245   -18138   -23534   -21585 
  -12468    -4904    -2415    -5417    -9124    -9143   -10778   -17230 
  -21564   -18675   -12911   -10979   -12263   -11861   -11383   -11947 
   -8811    -5779    -9351   -16993   -26214   -31816   -26838   -17334 
  -13539   -14945   -13956    -6907    -1543    -5046   -12235   -20282 
  -29392   -29844   -21793   -20139   -26169   -29574   -25859   -15957 
   -5518    -1734    -4388    -9846   -17527   -21902   -17771   -14233 
  -17983   -19128   -12802    -6411    -3570    -4243    -6983    -7825 
   -6513    -5366    -5757   -10230   -19407   -26843   -26377   -20116 
  -13082    -9697   -11766   -15117   -16232   -16108   -15915   -16343 
  -17528   -18542   -18882   -19472   -19610   -13786    -2968        6 
