Origin Time       2024/04/02 04:24:00
Lat.              40.133
Long.             141.712
Depth. (km)       71
Mag.              6.0
Station Code      AOM018
Station Lat.      40.7776
Station Long.     140.2060
Station Height(m) 38
Record Time       2024/04/02 04:25:01
Sampling Freq(Hz) 100Hz
Duration Time(s)  108
Dir.              N-S
Scale Factor      7845(gal)/8223790
Max. Acc. (gal)   2.128
Last Correction   2024/04/02 04:25:01
Memo.             
[...]
    1128     1125     1124     1124     1140     1140     1116     1121 
    1140     1117     1112     1142     1138     1116     1131     1138 
    1121     1121     1134     1134     1128     1121     1119     1120 
    1119     1124     1135     1125     1111     1124     1134     1111 
    1113     1136     1123     1112     1129     1125     1113     1123 
    1128     1120     1120     1124     1117     1119     1132     1125 
    1112     1121     1128     1120     1115     1116     1123     1125 
    1113     1112     1128     1128     1117     1120     1127     1119 
    1113     1116     1112     1115     1127     1124     1117     1121 
    1121     1120     1124     1120     1113     1128     1131     1112 
    1113     1132     1131     1115     1116     1129     1124     1119 
    1125     1123     1115     1116     1127     1125     1116     1123 
    1129     1119     1117     1124     1116     1115     1129     1123 
    1113     1125     1123     1116     1135     1131     1109     1120 
    1138     1119     1109     1132     1134     1113     1116     1127 
    1123     1123     1125     1124     1123     1116     1112     1119 
    1120     1119     1127     1125     1115     1117     1124     1116 
    1117     1134     1124     1112     1124     1124     1123     1131 
    1123     1112     1124     1128     1116     1124     1135     1127 
    1120     1127     1124     1121     1131     1129     1117     1125 
    1134     1123     1124     1131     1124     1127     1127     1115 
    1121     1135     1123     1113     1127     1129     1120     1121 
    1121     1120     1123     1116     1117     1127     1125     1115 
    1115     1123     1121     1121     1128     1129     1121     1117 
    1123     1125     1124     1125     1128     1121     1117     1125 
    1132     1125     1121     1128     1127     1117     1123     1128 
    1117     1124     1136     1120     1117     1138     1132     1120 
    1127     1129     1123     1119     1127     1131     1124     1127 
    1132     1124     1116     1128     1134     1121     1121     1134 
    1127     1121     1131     1125     1117     1128     1131     1121 
    1123     1131     1131     1124     1121     1124     1125     1121 
    1120     1129     1131     1116     1120     1134     1120     1112 
    1128     1127     1113     1121     1131     1128     1129     1129 
    1119     1119     1124     1119     1120     1135     1127     1108 
    1125     1140     1123     1116     1127     1121     1112     1120 
    1125     1117     1121     1127     1120     1117     1123     1123 
    1119     1119     1128     1127     1115     1121     1129     1117 
    1112     1123     1124     1125     1127     1119     1117     1121 
    1119     1119     1124     1127     1131     1129     1120     1120 
    1132     1134     1129     1134     1128     1120     1125     1132 
    1127     1125     1129     1128     1128     1136     1131     1119 
    1128     1131     1117     1127     1140     1125     1116     1129 
    1131     1120     1124     1128     1117     1121     1131     1120 
    1120     1132     1121     1115     1128     1128     1116     1119 
    1128     1125     1120     1124     1127     1119     1116     1120 
    1125     1129     1124     1116     1119     1127     1125     1123 
    1124     1123     1124     1125     1116     1115     1129     1129 
    1121     1124     1120     1117     1127     1127     1121     1124 
    1127     1121     1119     1128     1131     1119     1123     1136 
    1127     1117     1123     1123     1121     1124     1124     1119 
    1115     1125     1136     1124     1115     1123     1127     1125 
    1124     1123     1123     1124     1124     1123     1119     1119 
    1124     1124     1123     1120     1119     1120     1120     1120 
    1121     1121     1124     1121     1116     1119     1125     1125 
    1119     1115     1120     1127     1121     1117     1127     1128 
    1117     1119     1127     1123     1116     1119     1125     1124 
    1117     1123     1128     1117     1115     1127     1124     1116 
    1123     1128     1120     1120     1128     1120     1111     1121 
    1127     1119     1119     1127     1120     1112     1124     1132 
    1124     1119     1119     1123     1124     1121     1124     1127 
    1123     1120     1123     1124     1124     1125     1125     1123 
    1121     1123     1125     1125     1125     1125     1123     1124 
    1127     1124     1127     1129     1125     1124     1129     1131 
    1123     1120     1129     1131     1123     1124     1129     1131 
    1129     1129     1129     1123     1123     1134     1128     1116 
    1125     1134     1127     1128     1132     1125     1124     1125 
    1120     1123     1131     1124     1121     1131     1124     1115 
    1124     1128     1121     1121     1124     1123     1127     1127 
    1120     1124     1129     1128     1127     1124     1125     1134 
    1128     1123     1131     1128     1120     1120     1129     1139 
    1124     1112     1132     1135     1119     1121     1131     1125 
    1116     1120     1128     1121     1119     1125     1123     1116 
    1123     1125     1120     1123     1131     1125     1117     1124 
    1136     1123     1105     1123     1136     1125     1120     1125 
    1124     1119     1117     1123     1123     1117     1120     1123 
    1121     1120     1123     1117     1111     1117     1128     1120 
    1112     1123     1127     1115     1117     1128     1121     1113 
    1119     1123     1123     1119     1119     1121     1120     1127 
    1127     1116     1119     1128     1123     1116     1120     1127 
    1129     1124     1119     1124     1128     1127     1125     1127 
    1128     1127     1124     1127     1124     1119     1120     1125 
    1128     1125     1121     1124     1127     1125     1127     1128 
    1123     1123     1129     1121     1109     1127     1142     1125 
    1121     1132     1128     1123     1131     1128     1124     1128 
    1123     1119     1125     1129     1121     1120     1135     1128 
    1112     1128     1131     1108     1120     1138     1117     1117 
    1140     1128     1109     1123     1132     1115     1115     1139 
    1131     1107     1124     1143     1116     1107     1134     1134 
    1107     1116     1142     1119     1104     1136     1135     1105 
    1123     1143     1115     1108     1138     1134     1112     1121 
    1131     1124     1121     1127     1123     1119     1131     1134 
    1115     1112     1135     1139     1117     1117     1135     1121 
    1109     1127     1132     1116     1119     1138     1123     1101 
    1131     1144     1107     1111     1146     1121     1107     1138 
    1128     1105     1124     1128     1111     1117     1124     1123 
    1128     1123     1116     1128     1125     1116     1124     1128 
    1127     1128     1123     1119     1123     1131     1125     1125 
    1136     1117     1111     1138     1129     1115     1128     1125 
    1120     1123     1120     1134     1136     1116     1117     1135 
    1125     1117     1132     1132     1123     1124     1127     1128 
    1124     1124     1128     1127     1127     1128     1123     1120 
    1129     1131     1121     1129     1131     1121     1132     1132 
    1116     1127     1135     1125     1124     1131     1127     1117 
    1124     1134     1121     1112     1124     1127     1120     1121 
    1121     1119     1120     1119     1117     1127     1129     1117 
    1124     1138     1125     1117     1120     1120     1125     1123 
    1115     1131     1138     1115     1123     1140     1117     1112 
    1131     1129     1120     1125     1129     1121     1120     1129 
    1121     1120     1134     1125     1112     1124     1132     1117 
    1115     1125     1116     1112     1124     1121     1120     1124 
    1117     1120     1125     1116     1116     1131     1127     1120 
    1128     1121     1112     1125     1131     1120     1123     1129 
    1121     1123     1134     1127     1119     1131     1127     1119 
    1132     1129     1115     1120     1127     1121     1119     1123 
    1129     1131     1125     1125     1128     1127     1124     1124 
    1125     1124     1128     1132     1123     1123     1134     1127 
    1115     1119     1129     1138     1128     1119     1127     1124 
    1115     1124     1134     1120     1116     1136     1129     1112 
    1125     1135     1121     1115     1125     1128     1117     1124 
    1135     1116     1108     1125     1124     1113     1127     1139 
    1120     1116     1131     1121     1109     1131     1139     1112 
    1111     1139     1131     1115     1125     1131     1121     1119 
    1129     1129     1116     1119     1132     1124     1111     1121 
    1131     1120     1115     1125     1128     1124     1124     1120 
    1121     1127     1123     1121     1127     1128     1124     1119 
    1121     1129     1127     1123     1124     1121     1123     1125 
    1117     1115     1131     1132     1119     1120     1132     1127 
    1115     1121     1131     1128     1124     1123     1124     1129 
    1129     1129     1127     1124     1127     1125     1124     1128 
    1121     1123     1131     1123     1116     1129     1135     1123 
    1124     1138     1131     1120     1125     1129     1120     1120 
    1128     1124     1121     1129     1129     1124     1125     1128 
    1128     1123     1120     1127     1127     1123     1125     1121 
    1119     1129     1131     1121     1124     1125     1120     1128 
    1138     1127     1123     1131     1121     1109     1120     1129 
    1123     1116     1123     1127     1120     1117     1120     1121 
    1119     1121     1124     1116     1116     1129     1125     1112 
    1115     1121     1120     1123     1125     1116     1116     1121 
    1115     1120     1125     1116     1116     1120     1119     1123 
    1120     1117     1129     1120     1102     1125     1142     1117 
    1116     1131     1120     1115     1131     1129     1115     1117 
    1131     1125     1112     1121     1132     1120     1112     1124 
    1125     1112     1119     1138     1127     1111     1125     1134 
    1119     1113     1128     1134     1120     1119     1129     1117 
    1108     1125     1136     1123     1112     1124     1128     1113 
    1113     1129     1127     1116     1121     1127     1117     1120 
    1129     1123     1121     1125     1125     1121     1121     1135 
    1139     1121     1117     1140     1135     1109     1127     1152 
    1128     1108     1128     1139     1116     1111     1138     1140 
    1120     1125     1135     1128     1139     1159     1154     1140 
    1139     1134     1125     1135     1139     1125     1128     1150 
    1147     1124     1123     1146     1155     1155     1174     1192 
    1188     1181     1175     1162     1136     1109     1100     1111 
    1112     1105     1100     1094     1097     1109     1115     1113 
    1115     1116     1134     1143     1119     1108     1116     1094 
    1065     1074     1101     1119     1146     1179     1193     1193 
    1197     1200     1175     1131     1115     1147     1182     1192 
    1217     1264     1281     1273     1267     1242     1201     1178 
    1142     1071     1024     1024     1034     1053     1055     1024 
    1026     1102     1197     1227     1196     1163     1143     1143 
    1179     1192     1140     1108     1112     1078     1021      988 
     969      994     1096     1212     1269     1279     1263     1182 
    1061     1013     1058     1116     1161     1206     1233     1219 
    1193     1201     1190     1090      967      889      819      800 
     924     1097     1210     1259     1239     1169     1082     1016 
    1003     1007     1070     1260     1443     1495     1482     1437 
    1320     1150     1005      903      843      885      999     1063 
    1075     1132     1260     1422     1539     1522     1409     1285 
    1120      891      654      490      513      749     1035     1210 
    1256     1219     1125     1012      967     1020     1097     1177 
    1228     1197     1161     1151     1053      895      811      838 
     947     1078     1140     1127     1151     1243     1293     1260 
    1161      958      718      564      567      777     1173     1610 
    1904     1935     1746     1453     1061      588      236      194 
     419      726     1035     1312     1410     1287     1161     1146 
    1190     1391     1837     2265     2412     2355     2130     1630 
     985      432        4     -309     -338      -12      410      764 
    1139     1439     1463     1275     1097     1097     1323     1607 
    1695     1574     1352     1012      626      369      255      313 
     649     1183     1725     2092     2115     1790     1332      884 
     518      364      410      558      761      880      868      868 
     878      800      765      970     1286     1475     1620     1763 
    1686     1360      993      734      684      904     1293     1655 
    1865     1935     1903     1715     1328      896      594      446 
     465      583      668      704      789      996     1252     1491 
    1786     2043     2160     2300     2474     2502     2381     2114 
    1603      935      241     -463     -997    -1105     -800     -259 
     425     1165     1772     2134     2303     2290     2076     1840 
    1763     1830     1935     1946     1782     1532     1252      864 
     375       10      -10      251      596      870      920      735 
     523      392      286      241      414      841     1337     1737 
    2018     2173     2214     2218     2214     2138     1965     1765 
    1590     1435     1298     1183     1058      862      612      382 
     222      197      373      697      985     1151     1266     1377 
    1463     1518     1583     1660     1622     1364     1030      838 
     846     1007     1247     1455     1549     1587     1680     1792 
    1767     1513     1009      414      130      290      600      855 
    1004     1011      966     1005     1073     1067     1057     1147 
    1362     1641     1787     1717     1549     1363     1179     1048 
    1059     1248     1418     1386     1154      756      291      -66 
    -238     -278     -244     -116       83      292      577     1004 
    1426     1692     1856     1961     1935     1838     1807     1822 
    1756     1516     1143      761      492      496      772     1090 
    1340     1591     1821     1948     1999     2002     1877     1582 
    1235      972      781      600      517      637      784      730 
     627      776     1181     1615     1906     2018     1976     1794 
    1489     1185      993      861      707      591      660      922 
    1127     1077      858      634      523      568      691      823 
     972     1156     1366     1549     1593     1422     1182     1096 
    1120     1090     1044     1034      912      637      448      534 
     776      974     1098     1169     1150     1062     1023     1078 
    1185     1321     1445     1493     1478     1412     1274     1156 
    1174     1316     1545     1807     1918     1696     1254      865 
     654      641      823     1059     1181     1170     1096      986 
     810      583      399      352      491      785     1107     1318 
    1412     1468     1503     1445     1283     1081      915      839 
     818      730      614      679      994     1420     1803     2014 
    1957     1715     1474     1270     1024      750      552      483 
     527      643      756      769      681      634      753      926 
     965     1000     1190     1293     1247     1375     1603     1668 
    1684     1664     1460     1190      938      660      479      457 
     550      795     1117     1269     1224     1212     1262     1258 
    1225     1175     1067      992     1054     1236     1436     1534 
    1553     1575     1517     1363     1362     1576     1741     1823 
    1938     1910     1671     1460     1287     1034      873      927 
    1008      967      838      657      527      472      324      193 
     355      615      726      816      892      862      872      989 
    1179     1463     1698     1761     1732     1584     1294     1090 
    1047      981      939     1038     1088      957      792      691 
     692      824      951     1023     1159     1333     1521     1856 
    2218     2320     2219     2077     1827     1440     1070      812 
     643      580      661      822      924      873      750      810 
    1090     1370     1576     1713     1675     1517     1371     1201 
    1027      988     1047     1090     1148     1290     1471     1566 
    1499     1344     1232     1144     1007      909      919      938 
     938      955      905      742      581      526      519      504 
     561      734      899      926      843      753      710      747 
     908     1120     1237     1232     1119      950      888      982 
    1108     1196     1246     1223     1134     1058     1034     1012 
     981      974     1038     1221     1493     1775     1991     2047 
    1950     1786     1549     1259     1084     1082     1084     1012 
     959      930      911      992     1147     1287     1413     1499 
    1518     1549     1607     1605     1521     1329      976      534 
     217      141      270      535      839     1042     1125     1193 
    1313     1422     1439     1460     1578     1655     1563     1393 
    1252     1124      990      904      905      967     1003      984 
     965      947      873      745      604      494      468      552 
     715      913     1131     1381     1637     1796     1769     1607 
    1439     1296     1143     1042     1096     1274     1398     1379 
    1323     1328     1363     1375     1360     1312     1232     1188 
    1259     1358     1296     1059      770      538      444      469 
     500      558      730      918     1039     1270     1640     1918 
    2066     2203     2214     1960     1564     1254     1135     1108 
     967      742      641      662      720      927     1263     1435 
    1370     1306     1318     1302     1237     1138      950      662 
     417      382      546      753      920     1065     1134     1058 
     878      741      714      729      764      855      966     1047 
    1115     1146     1098      989      832      680      638      681 
     742      903     1148     1291     1287     1282     1362     1475 
    1555     1580     1564     1548     1549     1560     1606     1709 
    1771     1737     1695     1668     1647     1707     1817     1872 
    1811     1536     1058      623      446      463      463      421 
     480      692      967     1192     1340     1405     1308     1046 
     791      662      622      642      765      938     1012     1019 
    1127     1314     1397     1352     1316     1304     1259     1228 
    1224     1155     1016      896      886      963     1021     1057 
    1113     1189     1248     1294     1358     1401     1317     1112 
