Origin Time       2024/04/02 04:24:00
Lat.              40.133
Long.             141.712
Depth. (km)       71
Mag.              6.0
Station Code      AOM007
Station Lat.      41.1689
Station Long.     141.3845
Station Height(m) 17
Record Time       2024/04/02 04:24:57
Sampling Freq(Hz) 100Hz
Duration Time(s)  109
Dir.              U-D
Scale Factor      7845(gal)/8223790
Max. Acc. (gal)   23.866
Last Correction   2024/04/02 04:24:57
Memo.             
[...]
   -6952    -7605    -7379    -6345    -4901    -2884    -2124    -4577 
   -7680    -8588    -8891   -10251   -10500    -7191    -2760    -2492 
   -7429   -12020   -10018    -2651     3362     5185     3723    -1436 
   -9351   -15051   -14909   -11421    -8338    -5707    -3566    -3424 
   -5377    -7904    -8885    -8472    -9038    -9636    -7403    -3466 
   -1501    -3152    -7188   -10088    -7573    -1690    -1313    -7487 
  -10673    -6984    -2825    -3076    -4876    -4419    -2887    -2886 
   -4876    -7801   -10204   -10615    -8012    -5080    -6262    -9007 
   -7407    -3478    -3565    -8014   -11232    -8857    -2880     -117 
   -4305   -10035    -8920    -2253      396    -4738   -11608   -11858 
   -3970     2292    -1344    -8190    -9297    -7244    -6728    -6891 
   -7130    -7133    -4958    -3431    -6205    -8394    -6038    -4313 
   -6381    -7317    -4414    -2493    -4118    -5451    -5390    -6431 
   -7241    -5471    -3389    -3782    -5995    -8576   -10697   -10525 
   -6843    -3291    -4626    -8290    -8826    -6878    -5786    -6062 
   -6237    -4684    -1112     1312    -1809    -8044   -10408    -8668 
   -6770    -6084    -6925    -7392    -5651    -4599    -5445    -4812 
   -3523    -5683    -8791    -8163    -6529    -7663    -9270    -8784 
   -6993    -5229    -4835    -6142    -6401    -3956    -2197    -3591 
   -5714    -6651    -6525    -5157    -4136    -5711    -7700    -6153 
   -3046    -3954    -7846    -9232    -8599    -9030    -8255    -4341 
   -1975    -4768    -8452    -8392    -5815    -3762    -4120    -6189 
   -6269    -3724    -3258    -6192    -7244    -4950    -4858    -7838 
   -8392    -6203    -5645    -6243    -5244    -4488    -6100    -7315 
   -5722    -4233    -5711    -8005    -8657    -8154    -6859    -5301 
   -4900    -4995    -3785    -2058    -3245    -7942    -9643    -5031 
   -2722    -7774   -11576    -9012    -5719    -3767     -943     -548 
   -4425    -7006    -7784   -12170   -15601   -10249    -3030    -3311 
   -6366    -5401    -2463    -1111    -1671    -3742    -6855   -10000 
  -11778   -10161    -5374    -1918    -2250    -4016    -5514    -6029 
   -5714    -7257    -9749    -8679    -6104    -6795    -7808    -5589 
   -3485    -3954    -5007    -6413    -8496    -7776    -3524    -1282 
   -3526    -6609    -8060    -8247    -7349    -5944    -5224    -4993 
   -4957    -6594    -9319    -9045    -5350    -2851    -3796    -6859 
   -9161    -7429    -4020    -4595    -6754    -5297    -3451    -4568 
   -5757    -6281    -8121    -9840    -8611    -5320    -3090    -2469 
   -3017    -5337    -8286    -9999    -9354    -6146    -3651    -5055 
   -7338    -6015    -3271    -3423    -5142    -6251    -7105    -6497 
   -4986    -6712   -10837   -11209    -6824    -2945    -2448    -3512 
   -4271    -4870    -5594    -6392    -8073   -10073    -9493    -5926 
   -3150    -4267    -7011    -6889    -5493    -7272   -10141    -9837 
   -6986    -4241    -3295    -4388    -5448    -4409    -3177    -4450 
   -5687    -4531    -4225    -5606    -5657    -5823    -8414   -10106 
   -8371    -5946    -4803    -3870    -4045    -6782    -8741    -7624 
   -6718    -7053    -6362    -5044    -4572    -4865    -5729    -7168 
   -7446    -5007    -3391    -5765    -7616    -5543    -4054    -6187 
   -8117    -6268    -3370    -4283    -7781    -9163    -8168    -6259 
   -3250    -1603    -4114    -7506    -7848    -7153    -7911    -9008 
   -9001    -7150    -3646    -1181    -2254    -5100    -6527    -6590 
   -6751    -7257    -7859    -7857    -6558    -4814    -4000    -4268 
   -5400    -6652    -6154    -4224    -3682    -5108    -6662    -7352 
   -7453    -7338    -7021    -6467    -5724    -5034    -4842    -5043 
   -5070    -4796    -5235    -7335    -9107    -8098    -6777    -8208 
   -8780    -4924    -1637    -3276    -5899    -6747    -7403    -7219 
   -5661    -5374    -6917    -7304    -5603    -4067    -4301    -6396 
   -8684    -8345    -5834    -4484    -4939    -5202    -5177    -6596 
   -8673    -8553    -6138    -3318    -1058    -1140    -4878    -9163 
   -9960    -8116    -6922    -6582    -5826    -5510    -5848    -5408 
   -4841    -5231    -4715    -2606    -2613    -6435    -9467    -8914 
   -8117    -8067    -6278    -4267    -4406    -4342    -3145    -4544 
   -8402    -9320    -6828    -6072    -7589    -7080    -4590    -3955 
   -5680    -7604    -8515    -7936    -5837    -3885    -4000    -5119 
   -5625    -6396    -7404    -7271    -6887    -7369    -6795    -4336 
   -3227    -4926    -6380    -5694    -4513    -4623    -5949    -7439 
   -7956    -6984    -5877    -6365    -7380    -6617    -4656    -3784 
   -4415    -5914    -7728    -8181    -6081    -3520    -3253    -4248 
   -4540    -5742    -8410    -9085    -7101    -5803    -5908    -5449 
   -4857    -6003    -7888    -8268    -7403    -6478    -5524    -4719 
   -4650    -4788    -4864    -6358    -8272    -6941    -3631    -3369 
   -6401    -9040    -9805    -9180    -6650    -3040    -2309    -5098 
   -6490    -4999    -4749    -6651    -7188    -5913    -5468    -5760 
   -6029    -8102   -10721    -9518    -5337    -2328    -1075    -1233 
   -4051    -8021    -9586    -8895    -7997    -6940    -5967    -5973 
   -6335    -5645    -3991    -3435    -4978    -6573    -6608    -6392 
   -7059    -7290    -6195    -5313    -5202    -3882    -1919    -2975 
   -6272    -7824    -8136    -8749    -8224    -6767    -5726    -4413 
   -2901    -3096    -5701    -8588    -8780    -6366    -4498    -4617 
   -5308    -6102    -7443    -7631    -5601    -4380    -5726    -6520 
   -5343    -4827    -6092    -7547    -7807    -7028    -5846    -4982 
   -5690    -6743    -5476    -3823    -4978    -7026    -7246    -6945 
   -7326    -7111    -6392    -6087    -5175    -4002    -5062    -7750 
   -8746    -7600    -6639    -6517    -5873    -5011    -5472    -6014 
   -5283    -5449    -6690    -6061    -4685    -5676    -7210    -6783 
   -6143    -6617    -6750    -5941    -4984    -4263    -3990    -4834 
   -6949    -8289    -6705    -4504    -5435    -7943    -7990    -5548 
   -3774    -4581    -6388    -6453    -4965    -4183    -5262    -7580 
   -8935    -7497    -4837    -4365    -6284    -7364    -6183    -4591 
   -4307    -5080    -5352    -5055    -6295    -8839    -9822    -8387 
   -5583    -2814    -2137    -3758    -5028    -5262    -6894    -9288 
   -8791    -6197    -5128    -5266    -4980    -5100    -6119    -6880 
   -6786    -6702    -7360    -7506    -5526    -3194    -4237    -7789 
   -8397    -4811    -2353    -4486    -8272    -9521    -7682    -5031 
   -3777    -4051    -4558    -5082    -6096    -7187    -8210    -8916 
   -7784    -5151    -4240    -5913    -7018    -6180    -5692    -6183 
   -5952    -5317    -5637    -6173    -6319    -7047    -7403    -5674 
   -3831    -4047    -5282    -6754    -7912    -7190    -5729    -6054 
   -6713    -5424    -4014    -4725    -6189    -6473    -6376    -7229 
   -8175    -8181    -7680    -6725    -4912    -2964    -2604    -4642 
   -6832    -6674    -5778    -6424    -7445    -7048    -5537    -4465 
   -5273    -7526    -8179    -5671    -3472    -4450    -5719    -5150 
   -5483    -7276    -7642    -6708    -6120    -5154    -3940    -4711 
   -7045    -7360    -5219    -4158    -5331    -6687    -6988    -6268 
   -5269    -5535    -6974    -7113    -5416    -4488    -5773    -7642 
   -7612    -5724    -4804    -5957    -7177    -7339    -7190    -6893 
   -6274    -6104    -6448    -6170    -5748    -6127    -5678    -3865 
   -3408    -5039    -6408    -6666    -6824    -6759    -5738    -4297 
   -3603    -4506    -6185    -6558    -6335    -7896    -9394    -7361 
   -3969    -3784    -6097    -7817    -8557    -8361    -7092    -5834 
   -4915    -4282    -4796    -6185    -7325    -7986    -7869    -6561 
   -4959    -4105    -3596    -3492    -4734    -6154    -5908    -5283 
   -6473    -8511    -9229    -8752    -7477    -5242    -4175    -5551 
   -6646    -5679    -4344    -4239    -4527    -3943    -3667    -5475 
   -8627   -10494    -8756    -4471    -1873    -2687    -4746    -6501 
   -7997    -8617    -7435    -5602    -5634    -6972    -6527    -4762 
   -4576    -5374    -5042    -4623    -5967    -7898    -8237    -7200 
   -6462    -6864    -7384    -6022    -2961    -1161    -2686    -6162 
   -8480    -8248    -6667    -5416    -4823    -4693    -5223    -5503 
   -4558    -4440    -7107    -9880    -9678    -7929    -6509    -5046 
   -4619    -6318    -7913    -8243    -8615    -7824    -4985    -3604 
   -4704    -4885    -3923    -4336    -6023    -7209    -7010    -6250 
   -7165    -9802   -10200    -6409    -2664    -2868    -5028    -5864 
   -5220    -4515    -5078    -6542    -6631    -5370    -5310    -6035 
   -5427    -4707    -5467    -6671    -7861    -8883    -8051    -5580 
   -4436    -5682    -7312    -7649    -6428    -3812    -1659    -2762 
   -6210    -7925    -6554    -4519    -3987    -5009    -6307    -6164 
   -5019    -5718    -7717    -7476    -5749    -5346    -5526    -5451 
   -6389    -8048    -8278    -6797    -5493    -5238    -5433    -5335 
   -4710    -4943    -6974    -8892    -8766    -6462    -3478    -3003 
   -5398    -6685    -6106    -7269    -9539    -8530    -4934    -3329 
   -4565    -6126    -6598    -6141    -5495    -5319    -5267    -5120 
   -5613    -6486    -6697    -6690    -6975    -6373    -5080    -5355 
   -6365    -5499    -4700    -6431    -8259    -8154    -7730    -8168 
   -8544    -7782    -5624    -3194    -2790    -4364    -5178    -4797 
   -4970    -5516    -4892    -3612    -4337    -7130    -8422    -7098 
   -5751    -5595    -5651    -5417    -5346    -6129    -7443    -7510 
   -5929    -4872    -5578    -6698    -6916    -6693    -6704    -6459 
   -5709    -5030    -4660    -4922    -6340    -8145    -8529    -6814 
   -4791    -4526    -5545    -6420    -6598    -6324    -6655    -7284 
   -6567    -5273    -5250    -5825    -5983    -6448    -6939    -6014 
   -4476    -4305    -5767    -7952    -9011    -7314    -4846    -5020 
   -6855    -6885    -5142    -4168    -4695    -5903    -6940    -6658 
   -5292    -5224    -6342    -5346    -3042    -4139    -8025    -9589 
   -8149    -6305    -4460    -3558    -5625    -8190    -7184    -4436 
   -4105    -5868    -7425    -8074    -7337    -5567    -4830    -5544 
   -5665    -4517    -4207    -5953    -7549    -7013    -5337    -4371 
   -5459    -7817    -8284    -6278    -4653    -4726    -5405    -5838 
   -6247    -6998    -7688    -7150    -4546    -1837    -2736    -6624 
   -9066    -8850    -7688    -6193    -5078    -5593    -6770    -6930 
   -7549    -9478    -9212    -5768    -3277    -4014    -6577    -8017 
   -5644    -1101      -16    -4698   -10469   -11944    -9053    -4930 
   -3018    -4197    -5020    -3839    -3383    -4349    -4974    -5502 
   -7061    -8883    -9470    -8733    -7042    -4444    -2268    -2485 
   -4889    -6798    -6154    -4407    -4207    -5346    -6219    -6871 
   -7491    -7290    -6829    -7003    -6496    -5206    -5401    -6550 
   -6154    -4675    -3888    -4460    -6878    -9647    -9381    -6824 
   -5980    -6010    -3990    -2654    -5039    -8172    -8806    -7913 
   -7015    -6041    -5463    -5884    -5657    -3518    -1863    -3080 
   -5506    -6705    -7516    -9279   -10363    -9146    -7186    -5998 
   -4365    -2092    -1669    -3626    -5576    -6812    -8737   -10681 
  -10181    -7688    -5886    -5005    -3705    -2586    -3281    -5624 
   -7456    -7624    -7213    -6804    -5962    -5119    -4955    -5321 
   -5580    -5277    -4661    -4444    -5227    -6921    -8382    -8268 
   -6309    -3959    -3322    -4306    -5086    -5432    -5941    -6427 
   -7268    -8814    -9794    -8877    -6961    -5765    -4965    -4141 
   -4538    -5564    -5476    -5443    -6679    -7333    -6378    -5498 
   -5687    -6318    -6282    -4506    -2174    -2303    -5154    -7520 
   -6870    -4703    -4684    -6736    -6866    -4376    -3249    -4513 
   -4908    -4432    -5935    -8591    -9941    -9721    -7865    -4405 
   -1783    -2700    -5710    -7389    -8052    -9721   -11175   -10238 
   -7719    -5884    -5270    -5452    -6276    -6203    -4094    -1791 
    -645     -375    -1799    -4920    -7215    -7514    -8309   -10424 
   -9312    -3157     1914      891    -3919    -7906    -9336    -9235 
   -9246   -10227   -11038    -9059    -4361    -1390    -2859    -5454 
   -6484    -7758    -9377    -9144    -7335    -5632    -5035    -6176 
   -8395    -9336    -7713    -4665    -1051     2111     2558      830 
    -877    -4294   -11205   -16920   -15738   -10116    -6022    -3453 
    -683      730     1490     3410     3140    -2246    -9680   -16047 
  -21277   -23333   -18968   -11217    -6513    -4642    -1078     3572 
    4735     2430     -168    -3739    -8991   -13614   -16947   -19364 
  -18632   -11738    -1021     5860     5605     1690    -2327    -4452 
   -4773    -6681   -11308   -14673   -14243   -11890    -9142    -6193 
   -4638    -5325    -6014    -5157    -4266    -4079    -3414    -3065 
   -5296    -9375   -11854   -10343    -5012     1252     3518     -305 
   -6852   -13197   -19815   -24995   -22948   -11576     1946     8695 
    8286     5602     1482    -4638    -9582   -12588   -17172   -21925 
  -19614    -8507     3338     8658     9807    11969    13120     8086 
   -2999   -16220   -27226   -31031   -25045   -13948    -5063      604 
    4409     6081     6621     4752    -1310    -9053   -15006   -17186 
  -16483   -14307    -9865    -4772    -2712    -3333    -3376    -2795 
   -4963   -10287   -14072   -12514    -6768     -945     1084     -677 
   -2566    -3321    -4901    -7333    -7925    -4698      685     3800 
    2142    -2745    -8105   -13053   -16590   -15549   -10242    -5792 
   -3476     -942      510    -1383    -5605   -10008   -12942   -13690 
  -12988   -11658    -8888    -4687    -2478    -4132    -6239    -5680 
   -3844    -2987    -2640    -1799    -1578    -2759    -3955    -4372 
   -4626    -4531    -3700    -3136    -3508    -3894    -4810    -8461 
  -13076   -12745    -5746     1887     3769      333    -4388    -8214 
  -10226   -10440   -10777   -12218   -13230   -12364    -9462    -5563 
   -2727    -1811    -1287      -20       35    -3358    -8194   -10322 
   -8224    -3619      334      872    -3206    -8892    -9656    -5235 
   -2755    -4623    -7422    -8779    -7352    -3970    -2366    -3573 
   -5427    -7373   -10102   -13089   -14663   -14127   -12457    -9235 
   -3558     2064     3497      318    -3318    -5150    -6910    -9151 
  -11437   -13510   -13443   -10434    -6756    -3738     -228     2833 
    1945    -2120    -4866    -6331    -9904   -14489   -15485   -12117 
   -7697    -3234     1794     4606     3835     2340      306    -4725 
  -10976   -13647   -12222   -10876   -10721    -8725    -5281    -3893 
   -4440    -4877    -6215    -9485   -11774   -10446    -7554    -5721 
   -4469    -3446    -3655    -4718    -5521    -6245    -6534    -5412 
   -4247    -5140    -7148    -7269    -4131      329     1973    -1821 
   -7815    -9192    -5248    -2968    -5347    -7477    -7045    -7045 
   -7839    -7762    -8068    -9220    -8915    -7632    -8568   -11097 
  -10876    -7014    -3379    -2313    -2393    -1964    -1740    -3878 
   -7827   -10130   -10498   -11011   -10160    -6872    -4448    -3812 
   -2830    -2910    -6544   -11703   -14084   -12483    -9659    -7859 
   -6567    -4608    -1921     -571    -2547    -6106    -7538    -5381 
   -2196    -1983    -4603    -6193    -5800    -6151    -7757    -8295 
   -7585    -7056    -6516    -6170    -6525    -5842    -3472    -1939 
   -2840    -4610    -5443    -5722    -5836    -5117    -3964    -2565 
    -643     -436    -3604    -7462    -8854    -7815    -6606    -6905 
   -7614    -6949    -6064    -7122    -8673    -8220    -7280    -7453 
   -6316    -2928     -831    -1926    -3993    -5728    -7354    -7395 
   -5503    -4936    -7302    -9859   -10184    -8602    -6396    -5155 
   -5621    -6308    -6223    -6467    -6799    -5779    -4959    -6520 
   -9061   -10663   -10736    -7777    -2548     -395    -3337    -6199 
   -5746    -4441    -3522    -2690    -4048    -8050   -11142   -11662 
  -11080    -9693    -7603    -6039    -4810    -3712    -4190    -5730 
   -5749    -4195    -3388    -3856    -4217    -4521    -5746    -6831 
   -6602    -6161    -6145    -5634    -4808    -5290    -7281    -8631 
   -8348    -7581    -6197    -3823    -2151    -2077    -3480    -6993 
  -10679   -10498    -7009    -4611    -4545    -4903    -5051    -5282 
   -5200    -5327    -6781    -8545    -8668    -7341    -5890    -4935 
   -5053    -5967    -5910    -5024    -5767    -8106    -8410    -4557 
     -17      211    -3465    -6620    -6849    -5493    -5525    -8100 
  -10682    -9940    -6241    -2976    -1555     -922    -1644    -5082 
   -9020    -9710    -7519    -5989    -6766    -8352    -8824    -7392 
   -4047    -1044    -1649    -5012    -7819    -9499   -10243    -8743 
   -5859    -4484    -4675    -4752    -5570    -7855    -8502    -5594 
   -3025    -3989    -5941    -7010    -8671   -10103    -9184    -7269 
   -6343    -5900    -5541    -5587    -5300    -4703    -5385    -6960 
   -7253    -6443    -6826    -8766    -9891    -8973    -7522    -6741 
   -6596    -6644    -5532    -2655     -314    -1372    -5347    -8329 
   -7427    -4175    -2120    -2690    -4415    -5023    -4276    -4082 
   -5196    -6151    -5872    -5085    -5124    -5961    -5914    -4550 
   -3962    -5567    -8214    -9725    -8808    -6732    -6378    -7882 
   -8168    -5860    -2693     -931    -1567    -3225    -4071    -4891 
   -7040    -9531   -10478    -9436    -7704    -6782    -6421    -5317 
   -3620    -2755    -3711    -6247    -8514    -9096    -8731    -7796 
   -6084    -5467    -7584   -10643   -11711   -10320    -8646    -7971 
   -6910    -4938    -3523    -3017    -3168    -4662    -7123    -8835 
   -9099    -8310    -6394    -3339     -664     -278    -2205    -4826 
   -6588    -6740    -5530    -4311    -4241    -4841    -5155    -5062 
   -4430    -3630    -4337    -6582    -7650    -6559    -5663    -6754 
   -8729    -9391    -8401    -7194    -6342    -5568    -5032    -4932 
   -5431    -5991    -5877    -6216    -7406    -7319    -6018    -5948 
   -6890    -6856    -5823    -4984    -4760    -5074    -5949    -6855 
   -6959    -6620    -6613    -6440    -5593    -4587    -3712    -3531 
   -5100    -6966    -6529    -5116    -5597    -7346    -8413    -8888 
   -9228    -8553    -6825    -5651    -5366    -5070    -5046    -5549 
   -5741    -5174    -3908    -2594    -3136    -6112    -8812    -9027 
   -8148    -7553    -5790    -2778    -1429    -2374    -3438    -4413 
   -6421    -8912   -10856   -11649   -10135    -6227    -2735    -2012 
   -2972    -4504    -6443    -6427    -3665    -2624    -5516    -7808 
   -7188    -7512    -9732    -9917    -7290    -5119    -5193    -6678 
   -8719   -10422    -9702    -6957    -5976    -6966    -6219    -3898 
   -3181    -3716    -3673    -4164    -6116    -7703    -7591    -6465 
   -5444    -5217    -5526    -5502    -5053    -4820    -5188    -5994 
