Origin Time       2024/04/02 04:24:00
Lat.              40.133
Long.             141.712
Depth. (km)       71
Mag.              6.0
Station Code      AOM021
Station Lat.      40.6150
Station Long.     141.2083
Station Height(m) 71
Record Time       2024/04/02 04:24:52
Sampling Freq(Hz) 100Hz
Duration Time(s)  158
Dir.              N-S
Scale Factor      7845(gal)/8223790
Max. Acc. (gal)   72.737
Last Correction   2024/04/02 04:24:52
Memo.             
[...]
    1324     1327     1324     1317     1314     1313     1313     1318 
    1324     1327     1327     1320     1310     1310     1320     1324 
    1320     1321     1324     1320     1320     1324     1323     1318 
    1316     1316     1321     1327     1324     1320     1320     1312 
    1309     1323     1333     1325     1320     1320     1317     1317 
    1324     1328     1328     1327     1317     1305     1309     1323 
    1335     1333     1323     1317     1314     1312     1316     1323 
    1321     1323     1331     1335     1328     1316     1306     1305 
    1312     1324     1331     1327     1320     1316     1314     1324 
    1336     1333     1320     1312     1310     1317     1323     1320 
    1320     1318     1314     1323     1332     1328     1318     1312 
    1314     1324     1327     1321     1318     1320     1323     1318 
    1310     1306     1310     1321     1327     1324     1321     1323 
    1321     1317     1310     1306     1310     1321     1323     1321 
    1325     1331     1332     1323     1304     1306     1324     1331 
    1323     1316     1313     1316     1323     1328     1325     1321 
    1320     1321     1320     1314     1312     1321     1327     1321 
    1316     1316     1317     1314     1321     1328     1323     1320 
    1318     1312     1310     1320     1324     1318     1314     1317 
    1327     1331     1325     1316     1314     1318     1318     1313 
    1312     1318     1325     1321     1305     1296     1306     1325 
    1332     1329     1331     1323     1309     1305     1308     1312 
    1320     1328     1329     1329     1317     1302     1302     1321 
    1337     1332     1318     1312     1310     1318     1325     1321 
    1314     1314     1320     1323     1316     1306     1305     1316 
    1332     1335     1320     1309     1305     1310     1320     1325 
    1323     1323     1327     1318     1305     1304     1313     1324 
    1332     1329     1317     1317     1321     1317     1316     1323 
    1327     1327     1321     1312     1309     1318     1331     1337 
    1331     1310     1302     1318     1337     1350     1354     1341 
    1325     1323     1329     1343     1364     1387     1395     1390 
    1395     1420     1444     1455     1452     1440     1414     1368 
    1309     1264     1239     1217     1183     1136     1113     1156 
    1266     1405     1524     1571     1514     1391     1313     1387 
    1632     1976     2188     1954     1264      627      656     1385 
    2187     2421     1888      760     -376     -650      275     1657 
    2334     1962     1171      491      109      460     1730     3028 
    3115     1926      747      562      946     1323     2054     3055 
    2909     1053     -787     -807      614     1834     2143     2077 
    1794      873     -109       40     1142     1607      770      332 
    1713     3215     2845     1533      851      878     1549     3036 
    4383     3879     1471     -529     -326     1167     2299     2624 
    2039      789      190      927     2153     2655     1345    -1078 
   -1925     -733      561     1560     2539     2749     1938     1155 
    1757     3096     3069     1860      841      -56     -707     -832 
    -812      -54     1580     2212     1279      467      452      815 
    2019     4733     7805     8781     7445     6282     6065     4758 
    1363    -2258    -3881    -4166    -5375    -6934    -6490    -4595 
   -3231    -2070     -344      643       97      448     4039     8268 
    8660     6254     5937     8298     9909     9552     8646     8122 
    7678     6716     5049     2556    -1065    -5356    -8978   -11063 
  -11542   -10623    -8869    -6926    -4820    -1954     1922     5575 
    7221     6191     2660    -1787    -3130      957     6492     7920 
    5632     4139     5406     7555     8502     8137     6844     4911 
    3852     4506     4810     2766     -781    -3844    -5366    -5821 
   -6519    -7003    -5115    -1485      859     1491     1460      680 
     186     1483     3061     2475      711      442     1505     2543 
    4579     7896     9953     9639     8113     6003     4349     5007 
    7141     6844     2160    -3909    -7461    -8239    -7757    -7268 
   -8194    -9173    -6373     -585     2613      534    -4637    -9144 
   -9765    -6073    -1455      778     1165     1848     3294     5093 
    6521     6305     5312     6481     9528    10847     9381     6783 
    3269    -1637    -5810    -6008    -3123    -1308    -1745    -3072 
   -4329    -3905    -1436      693     1093       79    -1872    -2739 
    -403     3785     6940     8394     9072     9275     8527     7207 
    6798     7084     6264     4359     1931    -1327    -3801    -4048 
   -3827    -3854    -2779    -1216     -676    -1354    -3387    -6151 
   -6794    -3241     2724     7592     9221     6866     1471    -3133 
   -3222      206     3708     6708    10254    13274    13529    10324 
    5398     1510     -175     -230      799     1945     1134    -2546 
   -6982    -9069    -8025    -5748    -4095    -2956    -1510      895 
    5271    11044    14729    13497     8274     2461     -868     -957 
       0    -1399    -5884    -9717    -8494    -2636     3118     5857 
    6419     5367     2708      681     1239     2662     2679     2176 
    2644     3261     3175     2690     1439     -549    -1255     1031 
    4908     6698     4507      392    -2583    -3298    -2166     -475 
     265     -241     -938     -766      114      703      976     2245 
    5000     7824     8841     7323     4041      564    -1667    -2007 
    -746     1209     2666     2963     2639     2299     1884     2002 
    3541     5476     6029     5008     2597    -1701    -7057   -10783 
  -11183    -9131    -6363    -3977    -2268     -803     1069     3956 
    8086    12089    13552    11781     8580     5638     2533    -1097 
   -3537    -3505    -1895      345     2949     5050     5707     5741 
    6612     6871     3622    -1819    -4854    -4006    -1786     -822 
   -1977    -4270    -5778    -5082    -2215      846     2150     2578 
    3998     6011     6565     4143     -330    -3430    -2944     -337 
    1910     3356     5279     8503    11929    13516    12402     9232 
    4702    -1066    -6947    -9887    -8182    -4369    -2016    -2045 
   -3643    -5358    -5123    -2123     1570     3159     2533     1784 
    2471     4787     7314     7527     4684     1266     -118      418 
    1583     2775     3551     3163     1240    -1259    -2770    -3111 
   -3191    -3213    -2228      687     4509     7222     8708     9321 
    7804     4117      729     -884    -1416    -1171      297     2259 
    3426     4152     5406     6457     5934     3609       76    -3434 
   -5262    -4541    -2023      299     1046      784      440      113 
     -99     -463    -1451    -2247    -1740     -361      959     2047 
    2598     2115     1177     1425     3962     7989    11198    11592 
    9000     5067     1714     -260    -1208    -1906    -2560    -2442 
   -1240      -43      -70    -1250    -2101     -719     3279     7905 
   10751    11051     9169     5343     -125    -5865    -9630   -10246 
   -8256    -4414      689     5443     7627     6967     5640     5049 
    4293     2702     1229      502     -531    -2980    -5883    -7160 
   -6308    -4260    -1395     2146     5269     7155     8386     9343 
    9097     6538     1634    -4000    -7817    -8386    -6299    -2948 
     213     1880     2018     1796     2195     3771     6405     8567 
    8284     5084      415    -3688    -5968    -6048    -4233    -1478 
     999     2493     3611     5508     7651     8152     6546     4027 
    1464    -1004    -3055    -4090    -4101    -3578    -2304      168 
    2963     4675     4976     4251     2932     1661     1224     2201 
    4452     6727     7537     6496     4233     1582     -639    -2277 
   -4206    -6270    -6169    -2924      986     2987     2849     1420 
    -205     -999     -503     1266     3466     4995     5842     5985 
    4533     1614    -1413    -3372    -3491    -2016     -148     1582 
    2948     2876      853    -1433    -1661       99     1725     1993 
    1417      973     1310     2614     4527     6102     6073     3875 
     737    -1127    -1077     -378      229     1270     2986     4436 
    4806     4638     4194     2916     1431      530     -410    -1598 
   -2497    -3025    -3084    -2887    -3285    -4498    -6127    -7699 
   -8068    -6076    -2169     1742     3932     3885     2035     -475 
   -1737     -587     1858     3793     4583     4395     3631     2655 
    1890     2278     4222     6558     7902     7884     6826     5206 
    3699     3418     4865     7072     9080    10714    11361     9991 
    6540     1930    -2656    -5709    -5726    -2808      795     2768 
    2897     2517     2593     2853     2380      943     -490    -1255 
   -1945    -2694    -2432    -1044      175      940     1923     2197 
     318    -2385    -3013     -958     1620     2424     1383       54 
   -1242    -3109    -4769    -5447    -5564    -4885    -2736      432 
    3284     4027     1782    -1884    -4652    -5115    -2755      851 
    3048     3901     5346     7388     8592     8314     6820     4941 
    3591     3041     3051     2751     1032    -1499    -2587    -1231 
     903     1383      179     -152     1640     3850     5174     6365 
    7719     7960     6593     5256     5333     5464     3434     -193 
   -2440    -1912     -164     1275     2290     2361     1197      606 
    1919     3257     2347      -28    -1478    -1309     -903    -1340 
   -2234    -2830    -2506     -853     1216     1964     1186      438 
     884     1987     2563     2558     2415     1437     -712    -2567 
   -3211    -3049    -1795      951     4320     6681     6879     5391 
    3349     1035    -1046    -2011    -1991    -1748    -1541     -670 
    1841     5377     7973     9104     9860    10389     9829     8247 
    6708     5931     5232     3161     -160    -2737    -3272    -2465 
   -1401     -167     1197     2257     3460     5497     7253     6840 
    4445     2231     1232      163    -1900    -3960    -4899    -4715 
   -4012    -3761    -4874    -6867    -7832    -6563    -3789     -969 
    1065     1926     1437      604     1243     3391     5000     4766 
    3631     3338     4361     5907     7148     6991     4402      557 
   -1656    -1179      -82     -854    -3119    -4448    -4021    -2781 
   -1142      525     1277      958      425      409      580       -1 
   -1057    -1208      -89     1366     2296     2697     2882     2701 
    2003     1370     1579     2313     2135      394    -1761    -3001 
   -2940    -1564      580     2199     2292      831     -918     -897 
    1516     4780     7211     8035     6889     4403     2448     2101 
    2565     2814     2587     2165     2258     2947     3499     3825 
    4191     4253     4014     4102     4471     4662     4731     4523 
    3437     1583     -247    -1954    -4082    -6246    -6939    -5301 
   -2118     1185     3373     3341      955    -2311    -4661    -4992 
   -3483    -2228    -2979    -4217    -3152      329     3985     6311 
    7103     6165     4062     2889     4097     6759     8488     7326 
    3869     1474     2558     5522     7323     7672     7971     7983 
    6909     5522     4217     1566    -3134    -8198   -11686   -13115 
  -12251    -9034    -4800     -990     2037     4160     5429     5610 
    3535     -724    -4536    -5601    -4186    -1545     1814     5589 
    8776    10096     9147     6901     5063     4916     6011     6214 
    3794     -716    -4725    -6029    -5232    -4515    -4618    -4760 
   -4482    -3620    -1601     1470     4062     4679     3215      837 
    -940    -1156      500     3943     8266    12090    14763    16317 
   16958    16629    14384    10156     5525      583    -5231    -9713 
  -10643    -8935    -7069    -6795    -7156    -5529    -1725     1834 
    3407     2845      594    -2550    -5035    -5306    -3955    -3373 
   -4144    -4068    -1537     2701     7223    10847    12248    10727 
    7387     4900     4874     5304     2708    -2752    -6825    -6593 
   -3415      137     2870     4108     3337     1289     -650    -2188 
   -3333    -3369    -2737    -3588    -6714   -10226   -12008   -11253 
   -7897    -2824     2124     5738     8271    10466    12841    15406 
   17051    16310    12901     7180     -121    -6265    -8618    -8268 
   -7574    -6670    -4706    -1652     1212     1796     -630    -4727 
   -8980   -12374   -13541   -11149    -5134     2542     7956     7947 
    3380    -2108    -4918    -2836     2678     7192     8106     5643 
     307    -7045   -14280   -18875   -18850   -13204    -3254     7242 
   15499    21826    27643    34338    43025    52359    58689    59256 
   53222    40659    22211      -60   -21285   -35212   -38722   -33594 
  -24034   -14511    -9431   -12090   -22897   -39079   -55463   -66688 
  -70811   -68661   -59688   -42877   -20586     2353    21691    35082 
   42896    47078    48541    47024    41362    29582    11959    -6731 
  -19754   -23369   -19812   -14659   -11673   -10991   -10062    -5404 
    5154    21539    40753    56323    61821    55082    37461    12370 
  -14516   -36852   -49295   -48087   -32366    -5367    25891    53669 
   72096    77569    71424    59617    46395    32603    19587    10731 
    7668     7253     6712     8784    17015    29342    39675    43272 
   39017    28729    15471     2486    -8715   -20619   -36086   -53235 
  -67059   -73992   -74032   -69364   -61781   -52378   -42151   -31375 
  -19645    -7773      460       62    -9907   -23938   -34099   -35515 
  -28402   -16525    -4109     5682    10705    11362    11056    12453 
   15097    16916    15576     9917     2477    -1648      904     9953 
   22222    33546    43151    53597    64901    72054    68183    49724 
   21224    -6805   -25317   -30473   -23737   -10644     1476     7663 
    9733    12654    16941    19800    19534    15411     7693    -1630 
   -9386   -12348   -10454    -8619   -11708   -18956   -25456   -26636 
  -20152    -6309    10432    21748    21598    11757    -1750   -14403 
  -24232   -31392   -36444   -38722   -37330   -32270   -25366   -19859 
  -17350   -16286   -13471    -6115     5265    15681    19566    15044 
    4533    -6779   -13992   -15120   -10640    -1591    11190    26009 
   39113    46091    44219    33538    17385     1123   -10851   -16680 
  -16938   -13884    -9865    -6571    -4995    -4332    -2732     1217 
    9204    21606    35330    46192    50760    45990    31563    11666 
   -7979   -23191   -31372   -31571   -25409   -16309    -6619     4036 
   16704    29783    38541    38200    28163    12648    -3462   -17697 
  -29280   -37843   -42662   -41964   -33895   -19558    -4104     6446 
    9336     6620     3415     3871     8433    14454    18131    16987 
   11531     3622    -5109   -12195   -14926   -12150    -4132     7144 
   17671    23819    24634    20954    13648     3769    -6482   -14050 
  -16699   -14542    -9713    -4812    -1386     1031     3778     7638 
   12567    16105    14856     9614     4158     -136    -4149    -7970 
  -10656   -11250    -9049    -3654     4842    14985    23662    28012 
   26721    19623     7973    -5614   -18746   -29704   -36173   -35467 
  -27417   -15550    -4417     2955     6183     7599     9316    10930 
   11543    10897     8110     2736    -3996   -10358   -14624   -14683 
   -8758     2521    15165    24606    28447    26373    20187    13086 
    7028     2355     -369     -733       29      -17    -1144    -2120 
   -2527    -2903    -3132    -2419     -116     4298    10814    17732 
   21892    20925    15084     6286    -3753   -12943   -18358   -18590 
  -15093   -10608    -7488    -7032    -9159   -12467   -15118   -16092 
  -15241   -12587    -8210    -2963      855      866    -2602    -6504 
   -7801    -4816     2583    11823    18204    19176    16390    12283 
    7445     2212    -1881    -3647    -3847    -3469    -1841     1401 
    4299     4378     1422    -2006    -2586      595     5019     7114 
    4797    -1552    -8833   -12991   -12113    -7106     -211     6469 
   12148    17297    22165    26102    28193    27928    25826    23341 
   21425    19395    15619     9555     2560    -3554    -7599    -9386 
  -10003   -10458   -11040   -12328   -14162   -15129   -14631   -12885 
   -9683    -5142     -799      854     -885    -3253    -3601    -2828 
   -3037    -4081    -3678      129     6943    14034    18023    16426 
    9202     -172    -7049    -9603    -9309    -8490    -8002    -6670 
   -3593      114     3433     6417     8370     8083     5938     3883 
    2987     2069     -328    -3689    -6075    -5377        9     9522 
   19685    26180    26175    20029    11464     4453      415    -1221 
   -1398     -905    -1228    -4317    -9672   -13963   -15280   -14616 
  -13058   -10825    -8291    -6110    -4657    -3993    -4563    -6505 
   -7634    -5011     1078     7596    12206    14562    15738    16758 
   17409    17024    15622    13764    12051    10839     9933     8368 
    5015     -224    -5976   -10597   -13878   -16968   -20540   -23422 
  -23075   -17988    -9580     -772     6130     9413     8903     7246 
    7263     9105    11529    13498    14133    12706     9180     4909 
    2118     2242     5563    11372    17370    20721    20533    17828 
   13707     9244     5917     4428     3650     1405    -3635   -10488 
  -16362   -19025   -18034   -14229    -9514    -6228    -5637    -7318 
   -9983   -12976   -16000   -17398   -15502   -11300    -6731    -1692 
    4712    11770    18007    22862    25941    26156    22993    17637 
   11916     6801     2609     -282    -1791    -2722    -4626    -8328 
  -12260   -14034   -13676   -12761   -11383    -8758    -5366    -2131 
    1339     5562     9162    10434     9888     9031     7970     5972 
    3327     1518     1379     1973     2381     3241     5452     8915 
   12378    13682    11219     4877    -4455   -14207   -19957   -18779 
  -12191    -4525      805     3280     4193     4437     4349     4824 
    6643     9201    10862    10142     6658     1363    -4209    -8498 
  -10179    -8924    -5085     1344    10011    19203    26404    29644 
   28678    24946    20457    16619    13355     9695     5555     1939 
    -445    -1983    -3650    -6057    -8947   -11726   -14087   -15716 
  -16159   -15491   -14104   -11831    -8467    -4509     -494     3546 
    7551    10754    12054    11442     9900     7587     4166      369 
   -2953    -5944    -8803   -10975   -11377    -9472    -6052    -2245 
    1432     4396     5309     2879    -2308    -7244    -8974    -7190 
   -3410      579     2940     2965     2035     2110     4180     7836 
   11574    14038    14423    12166     7609     2164    -2577    -5478 
   -6605    -7051    -7121    -5570    -1296     4962    11300    16313 
   19611    21370    21316    18685    13953     9089     5567     3639 
    3007     3030     2840     1861      251    -1150    -1738    -2338 
   -4596    -8880   -14103   -19479   -24692   -28810   -30678   -29852 
