Origin Time       2024/04/02 04:24:00
Lat.              40.133
Long.             141.712
Depth. (km)       71
Mag.              6.0
Station Code      AOM003
Station Lat.      41.4054
Station Long.     141.1699
Station Height(m) 2
Record Time       2024/04/02 04:25:02
Sampling Freq(Hz) 100Hz
Duration Time(s)  132
Dir.              N-S
Scale Factor      7845(gal)/8223790
Max. Acc. (gal)   41.306
Last Correction   2024/04/02 04:25:01
Memo.             
[...]
    5752     4722     3753     3082     2444     2149     2763     3657 
    3681     3076     2548     2134     2427     3819     5298     6203 
    6781     7032     6785     6245     5979     5941     5368     4664 
    4858     5532     6083     6531     6192     4644     2952     2205 
    2037     1453      521       66      321      962     1625     2261 
    3033     3889     4920     6014     6556     6739     6936     6579 
    6066     6598     7689     8221     8144     7817     7749     7993 
    7676     6401     4641     2937     1906     1678     1601     1097 
     309       86      996     2547     3955     4888     5346     5375 
    4957     4305     3827     3662     3931     4652     5374     5964 
    6875     8222     9224     8783     6824     4403     2524     1630 
    1649     1914     1780     1556     2187     3935     5888     7009 
    7129     6639     6053     5679     5301     5022     5294     5605 
    5161     4326     3785     3393     2772     1945     1016      160 
    -265      -56      792     2107     3424     4442     5395     6412 
    7284     7844     7770     6868     5582     4708     5034     6555 
    8117     8884     9119     9011     8081     6103     3727     1756 
     301     -868    -1842    -2555    -2543    -1413      271     1918 
    3630     5103     5876     6502     7676     9057     9830     9787 
    9406     9019     8541     7987     7415     6500     5085     3769 
    3100     2805     2490     2241     2088     1946     2008     2396 
    2785     3071     3618     4233     4224     3632     3186     3287 
    3626     3933     4677     5907     6696     6762     6809     7063 
    7014     6488     5934     5603     5263     4868     4753     4776 
    4356     3512     2668     2077     2157     2953     3569     3473 
    3396     3994     4838     5339     5429     5020     4141     3537 
    3711     4105     4163     4005     3944     4209     4649     4954 
    5306     5846     6224     6439     6825     7159     6949     6201 
    5161     4064     3296     2978     2992     3476     4288     4884 
    5148     5204     4959     4587     4318     3906     3078     2147 
    1880     2471     3238     3707     3937     4191     4750     5260 
    5193     4869     4633     4444     4733     5641     6332     6382 
    6254     6297     6417     6345     5894     5092     4352     4288 
    4725     4833     4563     4436     4364     4029     3661     3488 
    3285     3045     3063     3210     3338     3573     3518     2860 
    2158     1772     1718     2308     3329     4072     4654     5647 
    6853     7626     7730     7368     6799     6220     5628     4857 
    4128     3982     4298     4441     4509     4995     5574     5753 
    5718     5328     4101     2515     1449     1155     1609     2646 
    3754     4702     5751     6735     6891     5996     4849     4337 
    4407     4472     4386     4144     3870     4455     6234     7917 
    8383     7769     6570     5306     4426     3682     2470      839 
    -572    -1156     -661      518     1597     2191     2597     3395 
    4831     6463     7604     8046     8040     7936     7892     7555 
    6601     5359     4224     3458     3456     4086     4581     4506 
    4125     3878     3834     3917     4126     4131     3747     3487 
    3762     4403     4923     4862     4333     3767     3412     3477 
    3875     4340     5053     5994     6535     6469     6062     5448 
    4733     4014     3192     2231     1613     1938     2902     3623 
    3994     4452     4889     5047     5231     5626     5737     5375 
    5125     5327     5806     6204     6021     5562     5852     6637 
    6821     6534     6258     5622     4480     3248     2254     1656 
    1345     1142     1132     1683     2986     4383     5231     5964 
    6821     7209     7238     7655     8271     8310     7700     6706 
    5221     3439     2046     1247      872      893      846      249 
     -58      901     2250     2764     2864     3288     3873     4564 
    5545     6187     5954     5844     6794     8302     9748    10921 
   11446    11205    10388     8862     6467     3623      915    -1344 
   -2862    -3466    -3373    -2695    -1216     1098     3796     6088 
    7446     8159     8893     9583     9478     8573     7678     7024 
    6439     6042     5645     4785     3499     2250     1466     1447 
    2234     3339     4029     4102     3948     3796     3604     3431 
    3323     3287     3522     3921     4064     4059     4333     4974 
    5838     6543     6686     6444     6222     5883     5208     4398 
    3518     2600     2093     2068     1958     1691     1868     2654 
    3662     4610     5113     4996     4839     5076     5549     6064 
    6339     6281     6311     6643     7038     7322     7416     7287 
    6933     6168     4837     3161     1537      306     -309     -276 
     141      669     1475     2759     4198     5456     6612     7709 
    8498     8876     8864     8074     6444     4953     4129     3379 
    2664     2650     3245     3877     4390     4747     4746     4425 
    4083     3847     3759     3909     4077     3871     3302     2747 
    2556     2820     3289     3636     3883     4495     5725     7109 
    8171     8818     8849     8194     7119     5790     4325     2988 
    1917     1167      785      606      518      768     1738     3348 
    4808     5591     6114     6787     7290     7304     6895     6065 
    5116     4850     5478     6353     6949     7240     7306     7187 
    6957     6544     5752     4495     2961     1733     1125      673 
      48     -400     -265      406     1165     1777     2401     3165 
    4234     5737     7130     7663     7460     7215     7341     7560 
    7161     6057     4977     4527     4797     5358     5629     5574 
    5593     6012     6771     7063     6219     4787     3593     2957 
    3034     3537     3908     4032     4102     4384     4851     4843 
    4052     3041     2228     1518      903      595      672      962 
    1437     2112     2664     3037     3591     4357     5344     6783 
    8309     9283     9717     9693     9076     8306     7855     7284 
    6285     5289     4353     3267     2470     2417     2720     2722 
    2324     1719      923      229      152      654     1615     3103 
    4641     5694     6384     6972     7408     7550     7508     7449 
    7272     6933     6498     5810     4946     4378     4064     3681 
    3495     3651     3794     3829     3717     3273     2741     2413 
    2143     2097     2735     3739     4459     5067     5926     6669 
    6967     7236     7645     7528     6511     4949     3253     1908 
    1424     1725     2363     3087     3785     4299     4544     4567 
    4460     4387     4460     4469     4195     3696     3084     2562 
    2288     2331     3183     5032     6937     8141     8814     9258 
    9586     9603     9054     8054     6799     5505     4367     3084 
    1443       76     -437     -369       -5      730     1617     2359 
    3056     3782     4486     5051     5186     4897     4662     4841 
    5325     5636     5593     5641     6031     6382     6091     4989 
    3794     3348     3688     4513     5653     6851     7689     8043 
    8186     8074     7468     6650     5790     4707     3599     2764 
    2243     1993     1753     1209      440     -180     -220      491 
    1444     1953     1969     1950     2425     3650     5328     6810 
    7705     8253     8804     9101     8495     6756     4418     2454 
    1624     1934     2779     3611     4345     5267     6403     7190 
    7406     7381     7078     6458     6035     5930     5706     5301 
    4942     4509     3886     3191     2354     1354      502       68 
       0      -75     -233       62     1088     2513     3997     5298 
    6311     7206     7828     7742     7242     6899     6770     7051 
    7855     8338     7780     6768     6214     6079     5863     5467 
    5100     4806     4459     4099     3747     3105     2224     1576 
    1177      843      656      496      454     1183     2737     4283 
    5324     5971     6492     7242     8307     9055     8823     7994 
    7465     7334     7106     6597     5832     4819     3847     3268 
    3067     3021     2994     3010     3219     3643     3946     3744 
    3156     2722     2813     3331     4044     4626     4584     3839 
    3055     2949     3495     4081     4248     3985     3751     4217 
    5452     6837     7681     7612     7092     7011     7202     7007 
    6717     6563     6052     5019     3663     2097      733      103 
      98      236      459      816     1205     1711     2367     3206 
    4391     5545     6386     7472     8833     9728     9946     9622 
    8781     7796     7184     6955     6659     5853     4457     2758 
    1121        8     -145      387      777      924     1476     2590 
    3896     5076     5791     6027     6124     6172     6394     7040 
    7572     7569     7321     6858     5906     4584     3230     2004 
    1119      734      488      264      818     2486     4294     5339 
    5929     6448     6620     6648     7213     8091     8536     8417 
    7852     6793     5393     3896     2463     1440     1075     1023 
     858      595      279       36      170      549      966     1726 
    2848     3966     5023     6015     7006     8284     9532    10093 
   10068     9809     9216     8314     7484     6910     6377     5563 
    4483     3464     2778     2718     3204     3370     2843     2230 
    1813     1447     1119      661      122      124      915     2035 
    3244     4691     6239     7314     7607     7503     7503     7776 
    8160     8220     7723     6974     6388     6015     5501     4637 
    3823     3609     4047     4729     5049     4426     2837     1155 
     432      785     1553     2336     2957     3140     3037     3052 
    3056     2714     2131     1741     1767     2068     2681     3900 
    5756     8087    10374    11682    11808    11379    10536     9059 
    7360     6012     4965     4043     3389     3046     2751     2284 
    1624      815       32     -436     -499     -355      -86      367 
    1015     2134     4020     6129     7623     8590     9505    10065 
    9830     9134     8301     7214     6052     5220     4603     3908 
    3335     3109     3009     2740     2398     2424     2894     3356 
    3674     4110     4621     5046     5559     6100     5971     4949 
    3897     3396     3248     3469     4067     4519     4668     4962 
    5597     6257     6550     6315     5552     4430     3456     2914 
    2284     1220      473      784     2070     4013     5969     7061 
    7377     7587     7500     6669     5198     3397     2066     2084 
    3096     4253     5433     6667     7703     8464     8872     8499 
    7221     5533     3793     2127      942      319     -205     -519 
      85     1556     3138     4568     6112     7654     8572     8604 
    7835     6151     4139     2970     2608     2278     1895     1556 
    1350     1784     2998     4414     5763     7049     7823     7865 
    7655     7458     7110     6563     5810     4792     3717     3180 
    3586     4330     4537     4452     4476     4295     3923     3402 
    2259      816       68      186      774     1491     1827     1939 
    2871     4803     6806     8240     9036     9458     9911    10357 
   10161     8977     7315     5919     5117     4915     5005     4671 
    3642     2641     1992      928     -799    -2371    -3227    -3172 
   -1818      527     2771     4480     6134     8079    10066    11547 
   12086    11697    10864     9941     8780     7024     4569     1726 
    -993    -3011    -3983    -4041    -3547    -3002    -2613    -2074 
   -1574    -1652    -1902    -1324      631     3762     7388    11018 
   14246    16524    17779    18331    18183    17292    15967    14419 
   12318     9134     4841      182    -3856    -6741    -8279    -8241 
   -6624    -3856     -459     3161     6502     9019    10471    10920 
   10589     9795     8723     7418     6203     5657     5863     6066 
    5752     5408     5528     5998     6667     7292     7236     6039 
    4166     2344      473    -1499    -2605    -2112     -182     2998 
    6916    10501    13440    16125    17968    17764    15759    13204 
   10365     7137     4114     1579     -513    -1429     -577     1151 
    2458     3153     3249     1937    -1085    -5016    -9150   -12966 
  -15660   -16341   -14380    -9969    -3956     2917     9647    14932 
   18561    20987    21855    21076    19368    16875    13713    10773 
    8619     7231     6517     6485     7304     8509     9115     8984 
    8197     6292     3281     -432    -4529    -8195   -10519   -11419 
  -11372   -10449    -8206    -4684     -703     2704     4631     5013 
    4954     5371     6261     7523     8924    10007    11057    12349 
   12942    12085    10535     9526     9374     9582     9621     8672 
    6174     3460     2389     2621     2628     2239     2265     3018 
    4523     7049    10552    14023    16171    16464    14912    11728 
    7418     2413    -3067    -8444   -12660   -15240   -16424   -16216 
  -14665   -12294    -9614    -6858    -3531     1256     6870    10812 
   11310     8714     4220     -823    -5254    -8590    -9922    -8125 
   -3343     3902    13122    23082    32613    40651    45958    47812 
   45781    40031    31734    21825    11350     2610    -2879    -5957 
   -7900    -9408   -10818   -11607   -11453   -11518   -13274   -16962 
  -21671   -26171   -29451   -31131   -31230   -29327   -24588   -16478 
   -5119     8216    21088    31233    37839    41465    42901    42125 
   38924    34327    30235    27548    25783    24443    23222    20929 
   16044     8864     1476    -4783    -9965   -14218   -17973   -21810 
  -25212   -27253   -27930   -27712   -26860   -25374   -22731   -18220 
  -11947    -4684     2587     8802    13892    18790    23647    27834 
   31340    34658    37980    41165    43379    42897    38689    31421 
   22250    12453     3605    -3302    -7605    -8694    -7368    -5196 
   -2604      -55     1259     1005     -959    -4699    -8530   -11049 
  -12970   -14939   -16772   -18214   -18490   -16873   -13481    -8461 
   -2340     3165     6812     8799     9401     8386     5975     3639 
    3076     4588     7461    11134    15007    18036    19573    19568 
   17936    15404    13744    13811    15198    17473    20189    22653 
   24027    23323    19965    14308     7098    -1313   -10382   -19006 
  -26555   -32719   -36765   -38037   -36186   -31020   -22844   -12888 
   -2830     6312    14172    20583    25809    30019    32501    32478 
   30512    28229    27049    27652    29700    31720    32123    30337 
   26801    22222    16920    10995     4897     -793    -6054   -11294 
  -16618   -21585   -25699   -28880   -31114   -31818   -30086   -25764 
  -19591   -12209    -4183     3468    10172    15839    19525    20139 
   17725    13404     9111     6331     5136     5622     8272    12264 
   15869    18195    19014    18226    16119    12904     8488     3357 
   -1453    -5069    -6945    -7087    -5957    -3732     -510     2880 
    5472     7136     8480    10069    11495    11769    10890     9705 
    8457     7107     6029     5256     4753     5066     6323     7728 
    8329     7672     6228     4932     4002     3071     1993     1003 
     544      846     1717     2859     3964     4646     4606     4036 
    3505     3068     2411     1557      742      315      672     2012 
    4351     7360    10455    13343    15858    17297    16744    14118 
   10384     6886     4725     3894     3281     2307     1405      819 
     216     -592    -1559    -2975    -4962    -6937    -8422    -9337 
   -9791   -10048   -10052    -9198    -6959    -3699     -117     3838 
    8002    11468    14233    17061    19684    21107    20958    19780 
   18216    16471    14700    12830    10602     8649     7915     8032 
    7905     7223     6322     5441     4561     3203      800    -2074 
   -3936    -4291    -4139    -4330    -4684    -4745    -4301    -3276 
   -1771       24     2111     4402     6473     8137     9385     9915 
    9880    10269    11604    13144    14434    16143    18428    20452 
   21431    20861    18432    14210     8712     2612    -3615    -9436 
  -14041   -16995   -18659   -19518   -19642   -18920   -17026   -13670 
   -9196    -4268      483     4452     7460     9894    12194    14388 
   16217    17805    19580    21473    22960    23506    22657    20306 
   16686    12154     7128     1846    -3530    -8310   -11520   -12860 
  -12642   -11362    -9774    -8418    -7325    -6250    -4351     -668 
    4587    10373    15749    19936    22384    22751    20915    17208 
   12244     6903     2459      -71     -515      556     2266     4039 
    5544     6099     5238     3672     2462     1748      854     -677 
   -2247    -2616    -1112     2081     6354    10801    14616    17544 
   19620    20814    20817    18769    13899     6515    -1939    -9587 
  -15323   -19230   -21478   -21586   -18931   -13657    -7009     -471 
    4943     8853    11672    13830    15071    15403    15184    14330 
   12837    11163     9694     8756     8586     8865     9140     9513 
   10326    11577    12896    13791    13540    11487     8060     4529 
    1598     -807    -2945    -4999    -6932    -8532    -9477    -9370 
   -7919    -5136    -1518     1966     4569     6232     7164     7672 
    8106     8230     7653     6933     7026     8102     9740    11443 
   12463    12154    10773     9243     8253     7989     8344     9169 
   10430    12051    13432    13436    11549     8436     4410     -614 
   -5320    -8143    -9011    -8206    -5989    -3285     -808     1436 
    3302     4392     4600     4133     3381     2566     1480     -213 
   -2533    -4853    -6289    -6708    -6477    -5368    -2663     1899 
    7620    13146    17194    19190    19529    19036    17956    15935 
   12903     9499     6808     5497     5258     5709     6844     8163 
    8916     9004     8733     8226     7160     5026     1675    -2547 
   -6860   -10411   -12856   -14103   -13741   -11358    -7121    -1675 
    4448    10786    16484    20861    23653    24297    22401    18549 
   13586     8237     3357     -619    -3653    -5375    -5555    -4514 
   -2593      172     3757     7460     9990    10552     9367     7462 
    6029     5328     4773     3877     2511     1066      248      238 
     645      912      591     -237    -1213    -2208    -3076    -3688 
   -4087    -3983    -2884     -916     1480     4153     6902     9467 
   11974    14619    17120    18728    18798    17706    16409    15018 
   13078    10589     7885     5301     2992      783    -1421    -3451 
   -5061    -5949    -6220    -6334    -6102    -5067    -3364    -1132 
    1453     3649     5049     6126     7300     8525     9633    10508 
   11245    12009    12692    13057    13012    12768    12762    13383 
   14658    15944    16368    15450    13053     9563     5765     1872 
   -2415    -6940   -11007   -14129   -16214   -17054   -16499   -14925 
