Origin Time       2024/04/02 04:24:00
Lat.              40.133
Long.             141.712
Depth. (km)       71
Mag.              6.0
Station Code      AOM011
Station Lat.      40.6803
Station Long.     141.3669
Station Height(m) 43
Record Time       2024/04/02 04:24:52
Sampling Freq(Hz) 100Hz
Duration Time(s)  149
Dir.              U-D
Scale Factor      7845(gal)/8223790
Max. Acc. (gal)   142.309
Last Correction   2024/04/02 04:24:52
Memo.             
[...]
   -7024    -7025    -7024    -7014    -7015    -7025    -7024    -7013 
   -7014    -7025    -7030    -7030    -7028    -7021    -7015    -7021 
   -7028    -7026    -7021    -7021    -7022    -7022    -7021    -7020 
   -7015    -7020    -7026    -7022    -7020    -7024    -7026    -7024 
   -7024    -7024    -7020    -7015    -7017    -7020    -7022    -7024 
   -7021    -7021    -7022    -7026    -7032    -7028    -7018    -7015 
   -7021    -7028    -7028    -7018    -7014    -7020    -7024    -7026 
   -7029    -7024    -7020    -7024    -7022    -7022    -7022    -7022 
   -7021    -7025    -7025    -7020    -7021    -7025    -7022    -7025 
   -7026    -7022    -7024    -7029    -7025    -7015    -7015    -7020 
   -7022    -7026    -7028    -7018    -7013    -7021    -7026    -7021 
   -7022    -7033    -7034    -7026    -7020    -7021    -7020    -7015 
   -7017    -7025    -7030    -7025    -7020    -7025    -7033    -7026 
   -7017    -7020    -7026    -7026    -7024    -7022    -7022    -7024 
   -7024    -7025    -7028    -7024    -7018    -7020    -7021    -7014 
   -7013    -7025    -7030    -7025    -7025    -7029    -7026    -7021 
   -7018    -7021    -7026    -7026    -7022    -7024    -7025    -7025 
   -7021    -7020    -7022    -7022    -7022    -7024    -7024    -7022 
   -7018    -7018    -7029    -7034    -7025    -7014    -7015    -7020 
   -7021    -7021    -7021    -7021    -7020    -7022    -7029    -7029 
   -7022    -7022    -7029    -7028    -7021    -7018    -7024    -7026 
   -7024    -7022    -7022    -7024    -7021    -7022    -7026    -7025 
   -7021    -7021    -7025    -7029    -7026    -7020    -7022    -7026 
   -7021    -7025    -7030    -7028    -7022    -7024    -7028    -7026 
   -7021    -7025    -7026    -7018    -7021    -7029    -7032    -7025 
   -7020    -7024    -7030    -7026    -7020    -7020    -7025    -7026 
   -7024    -7022    -7024    -7025    -7022    -7021    -7025    -7030 
   -7028    -7024    -7026    -7030    -7026    -7021    -7020    -7021 
   -7021    -7024    -7030    -7032    -7025    -7018    -7021    -7025 
   -7026    -7025    -7022    -7021    -7021    -7024    -7032    -7030 
   -7017    -7014    -7024    -7028    -7024    -7020    -7021    -7026 
   -7029    -7024    -7018    -7020    -7022    -7025    -7022    -7022 
   -7025    -7024    -7020    -7022    -7024    -7022    -7025    -7025 
   -7020    -7017    -7021    -7024    -7028    -7025    -7020    -7022 
   -7024    -7020    -7021    -7022    -7021    -7020    -7017    -7020 
   -7025    -7022    -7018    -7020    -7024    -7021    -7015    -7015 
   -7020    -7020    -7021    -7026    -7028    -7021    -7017    -7021 
   -7024    -7018    -7017    -7021    -7020    -7018    -7022    -7025 
   -7024    -7021    -7020    -7022    -7022    -7018    -7020    -7025 
   -7024    -7022    -7025    -7024    -7021    -7021    -7022    -7025 
   -7025    -7020    -7020    -7022    -7025    -7025    -7028    -7026 
   -7025    -7025    -7025    -7025    -7022    -7020    -7020    -7025 
   -7024    -7020    -7025    -7033    -7030    -7028    -7026    -7021 
   -7021    -7025    -7026    -7026    -7026    -7022    -7020    -7024 
   -7029    -7028    -7026    -7025    -7024    -7024    -7022    -7024 
   -7028    -7021    -7018    -7028    -7034    -7030    -7025    -7025 
   -7024    -7021    -7025    -7030    -7028    -7024    -7022    -7015 
   -7009    -7010    -7026    -7044    -7038    -7014    -6997    -6991 
   -6966    -6886    -6701    -6291    -5485    -4101    -2012      718 
    3724     6359     7838     7477     4893       86    -6647   -14948 
  -24406   -34115   -42569   -48153   -49545   -45921   -36776   -21405 
     -86    23805    44868    59071    64863    61318    47514    25374 
     585   -21487   -38827   -51395   -58796   -59643   -52479   -37694 
  -18617      463    15770    22770    18446     4769   -14412   -34963 
  -50167   -55366   -51817   -41323   -23577     -221    23494    43147 
   58807    70837    73660    57870    20272   -29548   -73948   -98305 
 -100147   -85747   -58483   -22060    13053    41935    67200    83889 
   84096    70166    48163    18914   -18288   -59225   -94194  -114124 
 -115339   -95728   -54453    -1097    45732    74374    89023    97503 
   92924    62646    11518   -43321   -89020  -116502  -121574  -111508 
  -94713   -65129   -13771    49391   103157   134454   136478   106216 
   52677    -7982   -64183  -109699  -138180  -141825  -120262   -81706 
  -34993     6922    35005    56259    74538    83397    77922    47738 
   -9201   -66398   -99989  -109861   -97460   -63560   -19471    21350 
   49767    64821    74541    79307    69885    45303    11178   -29419 
  -70143  -100122  -113163  -107194   -77755   -26275    32751    83015 
  111670   110793    88672    59749    27214    -9036   -46542   -81190 
 -106407  -115966  -104404   -76756   -49408   -25085     6293    43055 
   75392    95897    96113    71084    25132   -28474   -69642   -86940 
  -88169   -82235   -62741   -24214    19337    54977    84947    99820 
   83980    45297     -691   -45642   -78580   -95013   -98803   -82027 
  -39060     8995    39452    50129    48752    47399    48662    37795 
   12151   -11898   -30523   -51763   -71923   -79416   -67817   -40980 
  -12938     6858    21714    37185    54333    62490    47690    17602 
  -16610   -57982   -91891   -94498   -71408   -41543   -14654     6199 
   27766    53843    71343    72191    60902    32680   -14629   -58232 
  -77058   -77669   -72851   -61707   -40252   -11892    13302    26010 
   28938    31029    35553    41187    36293     6640   -33241   -53388 
  -54500   -52223   -38777    -7807    24482    45310    49673    32402 
    4149   -14154   -23159   -38988   -56177   -54911   -36913   -18598 
   -4386    11260    28802    39884    36660    21411      972   -20136 
  -35800   -42758   -45395   -44783   -33920   -11821     6737    11021 
   14569    29732    39730    27967     6116   -12517   -27872   -36668 
  -37631   -35677   -29621   -20124   -12482    -2990    12027    26963 
   35020    30083    13163    -3666   -13544   -20889   -29845   -37261 
  -34852   -22793   -13093    -9737    -4761     4399    12216    16287 
   17158     9788   -10119   -36047   -54068   -53292   -37191   -17563 
    1348    19298    32749    37153    28776    10012    -8455   -19610 
  -30133   -47009   -60089   -57376   -41196   -14481    16814    37359 
   43505    39704    24943     8068       45    -7199   -21406   -34894 
  -44196   -51489   -50800   -38043   -18061     3593    23345    41920 
   59406    63337    40390    -1092   -38958   -61528   -68013   -58946 
  -39798   -16108    10828    31068    33181    22642    10327     -406 
   -7588   -11043   -14110   -16367   -15128   -11290    -8176    -9892 
  -13277   -10355    -7326   -11551   -13933    -9655    -1470     8418 
    8028    -8459   -27264   -38072   -39939   -32134   -17655      841 
   21348    32422    25056     7954    -4907   -10017   -13115   -18199 
  -21006   -16402    -7722    -3068    -4599    -7967    -9984   -10646 
  -12131   -15778   -16588    -8591     3788    11304    12606     9899 
    1286   -13919   -28860   -32725   -21999    -5841     4988     9040 
    8077     1714    -7260   -13128   -14040   -13281   -13115   -12216 
   -9568    -5736    -1764     1560     4120     5672     5335     1806 
   -6172   -17594   -27190   -29554   -24179   -15672   -10048    -7650 
   -5346    -3321     -441     4768     7852     6654     3715    -3379 
  -15961   -25988   -26754   -20475   -12941    -7728    -4696    -3856 
   -6250    -8167    -3762     5672    13173    13936     7666    -3078 
  -14166   -21747   -26802   -32092   -33417   -25269    -9278     9046 
   23433    30073    29257    20089      810   -23575   -40408   -41068 
  -29910   -14994     -130     7885     3605    -3732    -4035    -2592 
   -3504    -2901    -4576   -12930   -21716   -25157   -21308    -9963 
    2147     7759     6251    -1035   -10478   -15067   -11647    -4153 
    1038     1378    -1339    -6882   -13730   -16141   -15067   -16322 
  -17115   -11911    -2849     3878     3117    -3105    -3944     2752 
    4151    -4665   -14239   -18917   -19766   -17626   -14584   -12627 
  -10149    -6108    -3925    -5594    -7453    -7246    -7175    -8316 
   -9228    -6237     4068    15322    15241     3924    -7404   -14072 
  -20595   -27706   -27166   -15523    -2043     4673     4210     -249 
   -4486    -6998    -8816    -9880   -10705   -11450   -10831    -9146 
   -6245     -514     6164     8650     4815    -1937    -7825   -12685 
  -17155   -20552   -20042   -13540    -5786    -2870    -4268    -6617 
   -9085   -11200    -7940     2114     9629     9607     6378      538 
   -8181   -15272   -19823   -24518   -28497   -28772   -22640    -9717 
    4225    11373     9586     1985    -6793   -12702   -15217   -16054 
  -14782   -11072    -6053       99     4633     3496    -1057    -4822 
   -8152   -11677   -14418   -16001   -16181   -15075   -12136    -5217 
    4588    11541    10519      839   -11704   -18399   -16279    -9698 
   -3496     1992     5702     2559    -6343   -13324   -15830   -14782 
  -10354    -5093    -1387      702      783    -2390    -8897   -15768 
  -19199   -18324   -15770   -13987   -11325    -6701    -3402    -3033 
   -4241    -6574    -8849    -9834   -11414   -12870    -9042    -1865 
     638    -1377    -2440    -2443    -5059   -12001   -19341   -20657 
  -14045    -3362     3863     4591     4864     7480     6675    -1259 
  -12653   -19963   -20325   -18131   -15244   -10215    -5035    -1664 
    -238    -1620    -5780   -11003   -14365   -14440   -13019   -10150 
   -4679      607     2049     -772    -4446    -4892    -3341    -2543 
    -877     1377     -743    -8757   -17550   -20822   -18823   -18193 
  -19272   -15525    -7285     1786    11519    17410    14061     4471 
   -6453   -17336   -25870   -27904   -21645   -11261    -4588    -4251 
   -4641    -1394      897    -3026    -8233    -6292     1875     6947 
    2891    -6254   -13475   -18295   -23220   -26221   -23874   -17670 
  -11377    -4959     3797    13725    19977    17739     6458    -8521 
  -20648   -27361   -28992   -26705   -22206   -15661    -6654      969 
    2498      209     -413     1379     2038     -961    -6057   -11713 
  -18019   -21713   -19932   -14727    -7272     1069     5167     3807 
    1089     -841    -1201     1235     3408      346    -5884   -10677 
  -14526   -18307   -21722   -23337   -18590    -8355     -750     1350 
    2219     4818     7470     6559      982    -7565   -17092   -25371 
  -29648   -26589   -15985    -4799     1933     6863     9308     6201 
    1702    -2285    -8889   -14752   -17203   -19183   -18939   -14921 
   -9197    -1521     4807     5522     3213     -634    -6675   -12326 
  -16032   -17297   -16316   -16957   -19518   -18565   -12464    -4509 
    2160     6604     9506    10161     6805      391    -6529   -12930 
  -18003   -20205   -18874   -15201   -10619    -4256     4000    10038 
    9829     3840    -4642   -12231   -15882   -16239   -17597   -19109 
  -16513   -11670    -9096    -8263    -4780     2056     6339     2577 
   -7551   -16368   -17799   -12437    -4781      653     1794      -45 
   -3338    -7132    -8939    -7831    -6555    -8712   -14438   -16839 
  -11145    -3693      179     2232     2093     -247    -1671    -3742 
   -9626   -15950   -17560   -14268   -10700   -11442   -12582    -5352 
    7834    14690    10363     1791    -2484    -3036    -8229   -17895 
  -22084   -19680   -18613   -22603   -27087   -22505    -6843     9236 
   17595    20147    18874    12519      568   -15993   -31364   -37338 
  -33513   -26365   -19985   -12676    -2884     5038     7815     9279 
   12025    11653     4634    -5918   -15570   -21983   -24471   -25575 
  -26619   -24050   -17246    -9624     -915     8966    15704    17145 
   12495      608   -13383   -23579   -29895   -31264   -25855   -14247 
     302     9679     9333     4212     -364    -2440    -2577    -4919 
   -9919   -12475   -11780    -9544    -5181     -548     3227     6917 
    5961    -3082   -14860   -22461   -23850   -21509   -18759   -16293 
  -13053    -6779     2619     8837     8429     7032     7491     4449 
   -4656   -13173   -15066   -13567   -15097   -20748   -23903   -18686 
   -9555    -3248    -1150    -1962    -1480     1552      800    -5868 
  -12055   -13914   -14143   -16510   -19699   -17699    -7852     4854 
   11605     9316     5134     3797      351    -7348   -16345   -26369 
  -35625   -39523   -36568   -28854   -20294   -13130    -6363        8 
    5382    11790    19631    26585    32854    38222    38994    32724 
   19199     1806   -11916   -19835   -25602   -30564   -36626   -43559 
  -43638   -32584   -15847    -1912     2079    -5503   -16781   -21315 
  -18581   -16860   -19811   -24009   -28867   -36428   -41989   -34396 
   -8321    26501    54749    69515    71949    67078    55394    30411 
   -3624   -34884   -62648   -85760   -96994   -93421   -69882   -26685 
   17636    47767    64093    68908    63400    49107    25909     -329 
  -19365   -33593   -54637   -80581   -95318   -88277   -61317   -23854 
   11381    37407    55283    62214    53960    36587    17065    -4180 
  -27785   -55975   -84447   -97669   -87242   -57113   -13444    33922 
   74482   104129   119209   115989    96462    62263    13667   -42404 
  -96094  -137705  -156203  -148479  -119811   -71544    -4889    65092 
  113572   126045   106716    66594    13119   -44199   -91203  -120050 
 -129416  -118027   -88298   -45291     4291    46930    70838    77618 
   73354    59059    38017    15358   -10395   -36825   -51607   -49655 
  -36139   -18134    -4868     1802     9539    21068    32606    37316 
   29485    13608    -4098   -25602   -49100   -64669   -66239   -55375 
  -36481   -14218     6304    21752    31904    34942    28809    14791 
   -5377   -24883   -33404   -33552   -37980   -49013   -53682   -38237 
   -7053    20197    33813    38863    37829    28579    12862    -4828 
  -21394   -33058   -36417   -33895   -27405   -12301    12129    36547 
   50287    50083    39600    23531     4036   -19175   -43607   -62384 
  -75050   -85270   -84345   -61088   -23521    12217    40228    56945 
   57913    46593    25914    -6018   -41172   -63769   -65811   -48500 
  -21436      722    15271    31600    47611    51457    42361    26327 
    8496    -8375   -31450   -61618   -80973   -78189   -58356   -30638 
   -5449    13371    31341    47991    53138    41567    19799    -1499 
  -16293   -27859   -41970   -53053   -50359   -36030   -20233    -6025 
    8009    21454    31415    33156    26709    17420     7037   -10365 
  -36514   -56239   -58114   -52240   -49006   -44454   -29862    -3816 
   26779    53185    64370    53449    27376    -3385   -32965   -54992 
  -65426   -66302   -59406   -41933   -12610    21207    48959    65279 
   68285    57940    37037     9825   -17394   -40176   -58803   -68382 
  -62064   -44805   -23946    -1227    16457    20769    16551    12864 
    7322    -2825   -13714   -21540   -19134    -9436    -9512   -20441 
  -28189   -25942   -14133     4329    23971    36829    39425    36070 
   29069    15628    -7566   -38669   -65016   -72420   -58048   -29710 
   -1984    12627    17950    25331    27897    12707   -10789   -26184 
  -29114   -23460   -20052   -23558   -23279   -10386     7384    13043 
    2506    -8658    -7533      452     3411    -2052   -11596   -19661 
  -24227   -28059   -32408   -30315   -15421     2830    10476     7057 
    -874    -4109     3137     9690     5275     -457     -503    -3647 
  -14816   -30211   -44408   -49647   -42836   -26516    -3551    18311 
   31195    34068    28860    20147    11003    -1356   -15562   -22310 
  -15699      418    16233    21770    14949     3642    -8483   -25342 
  -41247   -43416   -30789   -12776     1829     9100     8446     -471 
  -12854   -19176   -16938    -9911    -2524    -2263   -11484   -21996 
  -28594   -32174   -29266   -14210     9541    30655    40691    35766 
   17779    -3588   -20383   -29124   -27473   -18250    -6660     2801 
    4256    -2122    -9069   -14088   -19461   -24339   -25101   -19778 
   -8552     7965    25323    34223    30149    19296     7487   -11090 
  -41250   -72976   -93903   -99720   -86753   -53874   -10647    31619 
   67412    89413    91527    75199    42641     1363   -31914   -47815 
  -47475   -35347   -20306    -7261     3140     5146    -4685   -20965 
  -28942   -14580    11724    25855    21180     4716   -14210   -25709 
  -29394   -31394   -34561   -40282   -42476   -30036    -8429     4760 
    8931    17371    30281    37710    34045    17625    -7398   -32822 
  -48809   -45698   -27540    -9067     1946     4989     1660    -6821 
  -19137   -28440   -29207   -23656   -13104      990    10300     9412 
    3765    -1763    -8827   -15087   -15198   -10593    -8432   -14863 
  -25559   -28647   -20289    -5343     9112    17774    21244    20429 
   13359     -222   -17490   -30742   -32151   -23890   -12572      311 
   12698    19884    21004    15985     4599    -7998   -18986   -30955 
  -39361   -37007   -26522   -14943    -5900     3153    15562    26181 
   29624    27622    20015     4774   -15114   -34588   -49272   -56276 
  -56371   -47984   -27112      927    24135    34952    34400    30177 
   25396    16970     5506    -7676   -22754   -36810   -48768   -59094 
  -61391   -47849   -21473     5575    24277    34835    41802    44207 
   34300    11476   -14872   -37993   -53059   -55657   -49659   -38502 
  -17965     9135    31031    41027    40659    35055    26569    13321 
   -4855   -25041   -40976   -45981   -41908   -35553   -29552   -22771 
  -11805     4513    19334    24432    19398     8303    -5309   -17632 
  -26454   -32421   -36269   -39073   -41697   -41428   -33853   -17473 
    3326    18597    22277    18792    13859     8116     1709    -4814 
   -9599    -8050      579    10739    17147    18450    17421    17980 
   18781    16073    10050      878   -11014   -21590   -28844   -33540 
  -34545   -31280   -26856   -23322   -18978   -13346    -7607    -2825 
    -656    -1385    -5556   -12745   -16060   -10702    -2006     3233 
    3292     -761    -5822    -7183    -3901       76     3711     8559 
   11353     8360     1451    -6987   -14748   -17941   -17811   -17412 
  -13903    -8132    -7157   -12222   -17998   -18917   -13736    -7213 
   -3584    -3395    -6621   -12893   -20830   -27899   -33088   -37473 
  -38794   -32780   -19588    -4591     6150    10847     9432     1251 
   -8591   -11731    -6426     3688    12965    16665    17219    18169 
   16270     8710    -1783    -9358   -10593   -10361   -14358   -20559 
  -22551   -15282    -2627     5996     8978     8958     4785    -4064 
  -14797   -22983   -25069   -20633   -11674    -3218    -1998    -8910 
  -16961   -20452   -20240   -18287   -15766   -13663    -9491    -1183 
    6187     5640      241      -12     4835     5938      761    -7149 
  -13567   -14343   -10045    -4955     -576     3586     8009    10983 
    7591    -2415   -12694   -19881   -25583   -29621   -29351   -23576 
  -12908    -1404     2739    -4259   -15407   -21026   -20173   -17930 
