Origin Time       2024/04/02 04:24:00
Lat.              40.133
Long.             141.712
Depth. (km)       71
Mag.              6.0
Station Code      AOM001
Station Lat.      41.5269
Station Long.     140.9246
Station Height(m) 38
Record Time       2024/04/02 04:25:04
Sampling Freq(Hz) 100Hz
Duration Time(s)  92
Dir.              N-S
Scale Factor      7845(gal)/8223790
Max. Acc. (gal)   4.897
Last Correction   2024/04/02 04:25:04
Memo.             
[...]
    8965     8680     8421     8216     8043     7835     7569     7380 
    7439     7757     8143     8394     8467     8487     8592     8779 
    8937     9011     9020     8997     8968     8939     8908     8845 
    8714     8529     8382     8356     8405     8471     8576     8622 
    8472     8244     8172     8301     8518     8784     9061     9132 
    8889     8541     8324     8321     8515     8772     8961     9092 
    9220     9393     9568     9533     9159     8604     8091     7758 
    7689     7827     7986     8074     8112     8190     8376     8577 
    8658     8602     8456     8305     8245     8252     8279     8406 
    8649     8869     9036     9255     9463     9536     9518     9406 
    9134     8779     8472     8291     8264     8330     8464     8714 
    8951     8986     8922     8903     8881     8837     8753     8560 
    8349     8237     8175     8116     8116     8209     8380     8613 
    8851     9008     9035     8885     8610     8415     8413     8567 
    8783     8905     8857     8623     8222     7862     7757     7870 
    8083     8334     8545     8676     8800     8946     8996     8918 
    8857     8866     8899     8986     9119     9204     9265     9331 
    9350     9378     9437     9359     9096     8776     8413     7970 
    7557     7353     7416     7639     7901     8166     8391     8550 
    8708     8905     9086     9197     9240     9251     9234     9138 
    8978     8873     8874     8891     8877     8896     8923     8857 
    8656     8371     8075     7825     7662     7573     7484     7404 
    7477     7759     8149     8538     8877     9113     9266     9429 
    9585     9624     9535     9375     9205     9078     9011     8984 
    8958     8880     8722     8541     8455     8549     8719     8784 
    8722     8595     8446     8341     8290     8220     8125     8077 
    8085     8152     8332     8629     8931     9108     9103     8920 
    8660     8534     8665     8968     9283     9474     9445     9208 
    8816     8363     8006     7819     7780     7898     8144     8390 
    8571     8715     8841     8981     9138     9228     9174     9008 
    8865     8834     8880     8984     9138     9261     9297     9242 
    9027     8623     8129     7653     7303     7192     7287     7473 
    7705     7947     8143     8320     8491     8519     8313     8024 
    7894     8055     8432     8857     9213     9398     9335     9090 
    8843     8707     8658     8619     8581     8606     8689     8758 
    8777     8742     8667     8586     8522     8509     8568     8669 
    8766     8820     8814     8802     8845     8932     8989     8938 
    8799     8641     8498     8382     8318     8370     8561     8752 
    8810     8783     8741     8696     8684     8707     8733     8777 
    8869     9004     9115     9105     8924     8615     8352     8286 
    8345     8378     8357     8330     8299     8260     8235     8226 
    8226     8195     8082     7971     7970     8074     8294     8631 
    8954     9150     9224     9263     9321     9302     9111     8800 
    8469     8201     8052     8017     8063     8167     8295     8413 
    8509     8610     8748     8885     8959     9007     9099     9215 
    9267     9231     9181     9186     9223     9232     9165     9012 
    8795     8526     8264     8112     8101     8190     8298     8343 
    8322     8264     8163     8074     8105     8303     8625     8969 
    9220     9273     9104     8854     8684     8603     8590     8626 
    8640     8625     8667     8781     8891     8892     8715     8464 
    8361     8472     8608     8618     8579     8598     8633     8600 
    8494     8394     8405     8560     8769     8951     9104     9169 
    9076     8866     8660     8579     8622     8641     8557     8444 
    8374     8318     8257     8224     8224     8284     8446     8621 
    8676     8644     8635     8692     8810     8947     9058     9167 
    9301     9364     9265     9076     8920     8793     8629     8436 
    8275     8171     8128     8143     8209     8313     8426     8506 
    8554     8592     8550     8367     8129     7956     7911     8058 
    8361     8634     8745     8746     8753     8781     8752     8610 
    8391     8203     8189     8344     8510     8594     8622     8637 
    8677     8764     8884     9012     9135     9244     9286     9190 
    8974     8739     8603     8640     8797     8927     8904     8698 
    8415     8262     8289     8388     8507     8638     8737     8791 
    8802     8721     8515     8266     8135     8247     8534     8841 
    9086     9209     9201     9136     9053     8935     8818     8718 
    8572     8406     8361     8468     8568     8526     8391     8287 
    8237     8187     8120     8037     7965     7969     8066     8217 
    8384     8511     8583     8606     8580     8599     8734     8888 
    9009     9150     9247     9211     9101     8988     8857     8680 
    8495     8413     8494     8661     8776     8777     8753     8783 
    8833     8847     8781     8645     8509     8457     8523     8667 
    8823     8953     9061     9096     8981     8807     8742     8806 
    8868     8802     8646     8519     8414     8245     8044     7909 
    7881     7947     8070     8208     8379     8591     8757     8876 
    9009     9074     8974     8746     8464     8256     8239     8351 
    8494     8634     8699     8681     8677     8661     8559     8476 
    8534     8721     9009     9350     9616     9710     9574     9223 
    8819     8533     8370     8251     8170     8155     8235     8424 
    8675     8907     9043     9024     8874     8641     8348     8113 
    8047     8086     8170     8333     8527     8680     8779     8784 
    8718     8673     8615     8532     8575     8712     8710     8536 
    8343     8222     8244     8399     8544     8607     8615     8591 
    8602     8707     8858     8984     9101     9234     9290     9190 
    9004     8799     8580     8386     8302     8345     8394     8365 
    8336     8365     8442     8541     8614     8658     8702     8683 
    8579     8506     8522     8571     8608     8611     8584     8572 
    8584     8586     8537     8445     8330     8217     8162     8198 
    8291     8433     8683     9077     9505     9760     9747     9498 
    9108     8714     8436     8276     8187     8189     8324     8579 
    8878     9100     9171     9153     9113     8996     8745     8433 
    8202     8178     8352     8594     8785     8870     8839     8707 
    8487     8209     7952     7800     7746     7740     7774     7847 
    7952     8039     8082     8217     8509     8785     8920     8937 
    8858     8725     8611     8519     8437     8463     8610     8754 
    8834     8841     8735     8537     8286     8020     7871     7905 
    7987     8085     8255     8418     8532     8638     8680     8648 
    8702     8919     9200     9486     9707     9709     9540     9400 
    9288     9104     8862     8644     8515     8482     8480     8488 
    8490     8414     8253     8098     8029     8074     8168     8248 
    8361     8569     8810     8991     9042     8939     8769     8648 
    8638     8704     8743     8748     8779     8808     8818     8818 
    8764     8645     8488     8352     8301     8387     8611     8869 
    9081     9279     9408     9360     9198     9001     8802     8694 
    8698     8737     8808     8951     9108     9180     9107     8946 
    8799     8645     8437     8233     8154     8309     8646     8935 
    9051     9034     8946     8854     8772     8727     8811     8991 
    9124     9154     9076     8865     8546     8212     7943     7773 
    7676     7593     7550     7659     7978     8411     8781     9001 
    9103     9111     9024     8897     8802     8770     8818     8899 
    8946     8964     9000     9031     8949     8708     8444     8329 
    8391     8518     8600     8604     8557     8533     8567     8575 
    8546     8614     8792     8970     9115     9192     9169     9094 
    8949     8667     8303     7958     7709     7612     7642     7749 
    7925     8128     8280     8405     8527     8587     8541     8480 
    8498     8583     8684     8799     8950     9065     9035     8889 
    8714     8546     8442     8415     8370     8287     8336     8584 
    8816     8827     8662     8480     8399     8410     8424     8436 
    8488     8596     8803     9130     9479     9683     9679     9514 
    9277     9108     9027     8896     8650     8345     8089     7982 
    7993     8066     8166     8199     8117     7956     7781     7677 
    7699     7835     8064     8334     8552     8649     8646     8580 
    8479     8375     8317     8345     8446     8499     8417     8272 
    8183     8179     8224     8267     8326     8503     8826     9169 
    9416     9540     9555     9479     9389     9385     9466     9521 
    9475     9320     9074     8820     8625     8473     8380     8417 
    8587     8799     8911     8851     8725     8726     8858     8904 
    8719     8394     8093     7901     7815     7785     7780     7817 
    7906     8037     8197     8368     8540     8661     8676     8579 
    8413     8286     8301     8456     8694     8930     9078     9127 
    9136     9105     9015     8978     9103     9301     9416     9418 
    9414     9420     9339     9155     8934     8735     8567     8375 
    8201     8209     8434     8745     9007     9144     9157     9116 
    9113     9201     9316     9320     9140     8831     8527     8295 
    8140     8108     8155     8144     8073     8023     8028     8141 
    8372     8600     8734     8770     8743     8730     8785     8905 
    9062     9132     9022     8837     8649     8436     8293     8214 
    8073     7990     8085     8179     8170     8136     8143     8224 
    8340     8445     8580     8752     8837     8769     8576     8297 
    8044     7936     7916     7912     8037     8336     8656     8872 
    8896     8768     8677     8671     8692     8795     8962     9078 
    9124     9105     9035     9031     9134     9217     9177     8988 
    8734     8584     8591     8658     8687     8618     8527     8564 
    8702     8829     8992     9188     9236     9143     9057     9013 
    9063     9234     9410     9512     9490     9298     8974     8563 
    8129     7761     7474     7310     7335     7601     8101     8586 
    8804     8788     8658     8569     8627     8789     9088     9528 
    9896    10112    10203    10064     9741     9369     8915     8441 
    8037     7642     7281     7014     6840     6872     7098     7348 
    7654     8066     8422     8615     8685     8741     8914     9246 
    9580     9730     9683     9510     9305     9147     8935     8657 
    8490     8429     8417     8488     8552     8550     8472     8324 
    8276     8399     8530     8577     8640     8758     8841     8947 
    9154     9292     9333     9337     9193     8980     8869     8789 
    8704     8641     8552     8507     8560     8633     8706     8733 
    8687     8650     8573     8361     8068     7763     7520     7434 
    7506     7715     8020     8329     8554     8644     8668     8783 
    8942     9000     8950     8823     8714     8760     8958     9197 
    9350     9321     9151     8962     8806     8660     8494     8314 
    8143     7890     7460     6982     6650     6509     6605     6988 
    7485     7843     7987     7996     8031     8199     8419     8572 
    8649     8733     8872     9105     9494     9834     9872     9718 
    9497     9147     8737     8411     8104     7711     7275     6828 
    6444     6272     6361     6683     7129     7464     7533     7425 
    7372     7500     7736     8085     8606     9162     9568     9791 
    9923    10170    10558    10843    10951    10963    10854    10671 
   10527    10370    10104     9666     9004     8190     7412     6817 
    6431     6216     6160     6241     6457     6802     7110     7237 
    7254     7291     7474     7877     8359     8780     9144     9478 
    9736     9803     9751     9710     9558     9220     8827     8484 
    8280     8236     8291     8398     8511     8626     8773     8962 
    9192     9444     9709     9990    10206    10253    10183    10093 
   10002     9909     9794     9691     9707     9829     9972    10119 
   10201    10118     9826     9369     8823     8260     7811     7564 
    7468     7526     7773     8133     8641     9378    10173    10791 
   11151    11211    11026    10755    10523    10466    10723    11286 
   12009    12729    13257    13404    13215    12862    12324    11556 
   10655     9690     8772     8133     7817     7666     7489     7079 
    6362     5510     4820     4534     4723     5355     6289     7254 
    8040     8615     9045     9377     9574     9610     9540     9402 
    9185     8854     8414     7888     7190     6277     5344     4630 
    4315     4487     5022     5665     6228     6627     6906     7281 
    7900     8658     9382     9964    10270    10177     9744     9193 
    8595     7886     7179     6636     6205     5778     5331     4939 
    4780     4900     5220     5822     6802     8001     9165    10138 
   10797    11106    11200    11180    11057    10918    10849    10856 
   10824    10496     9697     8456     6936     5417     4210     3532 
    3493     4091     5227     6709     8316     9736    10654    11005 
   10924    10658    10597    10885    11377    11908    12260    12303 
   12042    11422    10516     9553     8603     7564     6446     5536 
    5112     5135     5428     5917     6574     7331     8121     9009 
   10102    11223    12059    12474    12422    11950    11271    10552 
    9803     9015     8222     7469     6887     6562     6334     6052 
    5761     5489     5319     5481     6048     6856     7666     8241 
    8533     8679     8829     9111     9485     9772     9996    10250 
   10366    10103     9413     8437     7430     6643     6255     6377 
    6925     7612     8187     8506     8467     8182     7935     7851 
    7996     8505     9355    10293    10978    11202    11065    10835 
   10692    10716    10976    11476    12070    12563    12831    12788 
   12356    11541    10498     9517     8819     8446     8383     8534 
    8702     8814     8954     9112     9155     8980     8657     8402 
    8352     8490     8757     9084     9436     9776     9941     9821 
    9558     9343     9248     9278     9327     9215     8874     8310 
    7578     6933     6635     6712     7149     7904     8707     9219 
    9227     8756     8031     7319     6767     6413     6301     6447 
    6706     6910     7033     7056     6963     6812     6696     6768 
    7132     7651     8159     8564     8761     8737     8534     8185 
    7857     7676     7504     7229     6914     6666     6555     6583 
    6708     6880     7084     7360     7722     8155     8677     9274 
    9802    10108    10224    10304    10431    10597    10756    10879 
   10959    10941    10728    10274     9639     8989     8480     8070 
    7678     7339     7123     7057     7075     7044     6951     6890 
    6928     7137     7626     8401     9373    10332    10936    10944 
   10436     9698     9038     8672     8611     8645     8472     7927 
    7202     6664     6466     6520     6709     6875     6928     7011 
    7279     7659     8051     8397     8598     8623     8633     8785 
    9059     9389     9764    10108    10326    10373    10196     9898 
    9819    10091    10476    10744    10810    10643    10216     9516 
    8694     8028     7636     7512     7693     8089     8409     8507 
    8515     8599     8742     8819     8815     8819     8897     9062 
    9331     9687     9984    10057     9842     9410     9018     8838 
    8776     8719     8689     8753     8910     9018     8937     8630 
    8176     7749     7447     7306     7407     7801     8361     8895 
    9266     9346     9109     8748     8461     8368     8542     8904 
    9329     9782    10162    10366    10430    10312     9871     9212 
    8645     8360     8343     8440     8476     8461     8611     9028 
    9556     9990    10165    10000     9599     9090     8437     7622 
    6809     6214     5962     6075     6513     7180     7913     8571 
    9026     9223     9265     9219     9101     8991     8899     8824 
    8826     8899     9043     9224     9312     9294     9178     8903 
    8488     7965     7384     6936     6772     6922     7348     7882 
    8284     8490     8590     8644     8707     8800     8908     9073 
    9286     9518     9795    10000     9936     9597     9101     8565 
    8131     7897     7851     7852     7713     7414     7080     6829 
    6721     6731     6764     6720     6574     6485     6652     7098 
    7754     8548     9297     9821    10137    10272    10203     9930 
    9417     8733     8178     7923     7913     8147     8572     8978 
    9235     9335     9262     9059     8758     8324     7877     7616 
    7635     7997     8681     9497    10249    10856    11257    11371 
   11157    10693    10150     9684     9323     9035     8858     8795 
    8776     8752     8715     8650     8430     7897     7169     6621 
    6493     6756     7272     7879     8465     9053     9666    10192 
   10467    10354     9850     9189     8607     8259     8259     8475 
    8634     8669     8642     8565     8428     8172     7793     7431 
    7263     7341     7547     7692     7700     7607     7468     7381 
    7503     7928     8495     8957     9296     9624     9964    10228 
   10315    10233    10116    10080    10049     9875     9545     9074 
    8476     7947     7749     7952     8386     8795     9046     9153 
    9157     9081     8955     8735     8345     7886     7557     7445 
    7543     7828     8206     8544     8749     8802     8766     8706 
    8637     8592     8625     8762     8989     9205     9329     9428 
    9524     9536     9439     9277     9058     8772     8473     8283 
    8235     8240     8291     8472     8764     9042     9204     9267 
    9308     9234     8889     8336     7785     7400     7311     7555 
    8000     8434     8725     8870     8931     8873     8668     8441 
    8325     8321     8398     8536     8723     8928     9085     9184 
    9286     9410     9525     9571     9489     9289     9013     8633 
    8116     7558     7102     6772     6528     6381     6304     6230 
    6158     6146     6231     6407     6616     6840     7125     7504 
    7933     8310     8571     8723     8820     8997     9394    10003 
   10651    11061    11055    10747    10353     9938     9543     9298 
    9313     9491     9576     9471     9289     9073     8827     8654 
    8650     8847     9252     9751    10107    10176     9976     9595 
    9165     8802     8536     8417     8548     8916     9355     9637 
    9586     9220     8748     8382     8176     8046     7969     7992 
    8035     7942     7740     7554     7407     7300     7225     7168 
    7190     7327     7547     7809     8055     8216     8271     8252 
    8220     8270     8410     8515     8499     8356     8079     7753 
