Origin Time       2024/04/02 04:24:00
Lat.              40.133
Long.             141.712
Depth. (km)       71
Mag.              6.0
Station Code      FKS001
Station Lat.      37.7946
Station Long.     140.9192
Station Height(m) 7
Record Time       2024/04/02 04:25:18
Sampling Freq(Hz) 100Hz
Duration Time(s)  118
Dir.              E-W
Scale Factor      7845(gal)/8223790
Max. Acc. (gal)   7.320
Last Correction   2024/04/02 04:25:17
Memo.             
[...]
  -11502   -11577   -11344   -11484   -11141   -10351   -10114   -10332 
  -10596   -10624   -10022    -9127    -8783    -9144    -9528    -9261 
   -8734    -8934    -9574    -9683    -9347    -9111    -9302    -9695 
   -9598    -9489    -9929   -10052    -9875   -10118   -10388   -10552 
  -10739   -10436    -9769    -9418    -9525   -10027   -10700   -10833 
  -10006    -9023    -9369   -10700   -10813    -9759    -9423    -9541 
   -9239    -9138    -9556    -9757    -9327    -9078    -9490    -9477 
   -8946    -9327   -10314   -10156    -8942    -8667    -9860   -10440 
   -9656    -9177    -9346    -9263    -9062    -9196    -9306    -8942 
   -8935    -9961   -10750   -10338    -9664    -9456    -9590   -10239 
  -10860   -10714   -10824   -11441   -11236   -10621   -10270    -9306 
   -8220    -8391    -9603   -10616   -10503    -9778    -9347    -8984 
   -8887    -9711   -10482    -9911    -8776    -8569    -9335   -10033 
  -10123   -10262   -10466    -9728    -8926    -9256    -9614    -9590 
   -9980   -10490   -10642   -10160    -9103    -8984   -10027   -10000 
   -8784    -8526    -9391    -9929    -9706    -9483    -9668    -9900 
  -10215   -10235    -9383    -8972    -9868   -10539   -10480   -10439 
  -10017    -9354    -9020    -8572    -8734   -10127   -10897    -9967 
   -8480    -7743    -8478    -9792    -9774    -8536    -7847    -8248 
   -9246   -10407   -10959   -10558    -9911    -9748   -10115   -10669 
  -11152   -11222   -10889   -10574   -10126    -9971   -10901   -11512 
  -10281    -8723    -8725    -9643   -10052    -9670    -9161    -9055 
   -8843    -8442    -9027   -10197   -10114    -9162    -8908    -9136 
   -9147    -9390   -10191   -10687   -10638   -10706   -10393    -9609 
   -9497   -10068   -11038   -11835   -10875    -9259    -9649   -11094 
  -11310   -10548    -9937    -9213    -8160    -8293    -9934   -10872 
  -10273    -9305    -8618    -8348    -8457    -8719    -8901    -8694 
   -8490    -8850    -9324    -9721   -10107   -10118   -10184   -10532 
  -10704   -10812   -10687   -10277   -10243   -10369   -10287   -10542 
  -10813   -10282    -9647    -9697   -10041   -10223    -9950    -9404 
   -8997    -8581    -8769    -9850   -10081    -9193    -8802    -8738 
   -8378    -8490    -8932    -8874    -8981    -9593    -9718    -9583 
  -10064   -10785   -11229   -11380   -11010   -10099    -9535    -9733 
   -9972   -10249   -10633   -10228    -9146    -8298    -8190    -9061 
  -10211   -10405    -9408    -8172    -7873    -8676    -9699   -10555 
  -11241   -10936    -9822    -9347    -9552    -9950   -10735   -11047 
   -9990    -9088    -9703   -10550   -10600   -10223    -9540    -9100 
   -9104    -8799    -8981    -9992    -9981    -9163    -9344    -9902 
   -9551    -8949    -9196    -9925   -10241   -10231   -10162   -10076 
  -10133    -9942    -9346    -9135    -9676   -10415   -10731   -10368 
   -9373    -8479    -8824    -9902   -10142    -9871   -10080   -10188 
   -9830    -9765   -10077   -10158    -9894    -9647    -9891   -10307 
  -10150    -9985   -10420   -10642   -10212    -9690    -9265    -9221 
  -10099   -10976   -10540    -9267    -8262    -8179    -9283   -10388 
  -10169    -9576    -9697    -9792    -9660    -9985   -10184    -9655 
   -9427    -9890    -9900    -9229    -9016    -9811   -10816   -11006 
  -10185    -9147    -8985    -9533    -9869   -10233   -10575    -9903 
   -9139    -9616    -9950    -9362    -9347    -9879    -9718    -9228 
   -9346    -9991   -10312    -9733    -8943    -9078    -9767    -9532 
   -8588    -8602    -9188    -9130    -9308   -10015    -9965    -9317 
   -9359   -10261   -10809   -10280    -9744    -9845    -9809    -9794 
  -10368   -10679   -10195    -9741   -10056   -10805   -10693    -9720 
   -9443    -9564    -9132    -8981    -9148    -8900    -9086   -10058 
  -10335    -9471    -8583    -8276    -8581    -9126    -9374    -9462 
   -9763   -10422   -10710   -10261   -10477   -11133   -10521    -9377 
   -8881    -9001    -9923   -10987   -11084   -10453    -9819    -9740 
  -10025    -9714    -9026    -8739    -8695    -8858    -9332    -9760 
   -9911    -9963    -9888    -9120    -8401    -9167   -10265   -10382 
  -10443   -10465    -9842    -9512    -9941   -10399   -10501   -10114 
   -9381    -9244    -9877   -10052    -9443    -9053    -9188    -9225 
   -9347   -10116   -10357    -9416    -9081    -9684    -9761    -9568 
   -9764   -10093   -10632   -10917   -10293    -9512    -9366    -9772 
  -10319   -10455   -10289    -9917    -9332    -9371    -9541    -8907 
   -8772    -9367    -9236    -8964    -9657   -10432   -10447   -10038 
   -9564    -9267    -9367    -9726    -9941   -10057   -10270    -9926 
   -9198    -9256    -9445    -8937    -8838    -9402    -9547    -9491 
   -9965   -10575   -10592    -9798    -9247    -9921   -10235    -9238 
   -9057    -9852    -9502    -8914    -9726   -10422    -9886    -9477 
   -9813    -9865    -9247    -9005    -9339    -9315    -9647   -10731 
  -10696    -9524    -9061    -9540   -10544   -11623   -11988   -11684 
  -11061   -10150    -9621   -10102   -10503    -9706    -9061    -9869 
  -10706   -10354    -9794    -9602    -9126    -8303    -8010    -8565 
   -9134    -9396    -9994   -10989   -11529   -10820    -9724    -9899 
  -10802   -11134   -11250   -11323   -10741    -9791    -9614   -10415 
  -10644    -9555    -8858    -9274    -9247    -8492    -8095    -8041 
   -7915    -7946    -8357    -8704    -8409    -8198    -9054   -10095 
  -10011    -9093    -8650    -9356   -10238   -10246    -9991   -10123 
  -10351   -10675   -10844   -10315    -9833   -10307   -11281   -11759 
  -11155   -10179   -10322   -11052   -10625    -9702    -9599    -9651 
   -9416    -9435    -9863   -10512   -10816   -10363    -9560    -8891 
   -8468    -8375    -8831    -9526    -9657    -9144    -8633    -8452 
   -8422    -8721    -9552    -9680    -8657    -8662   -10260   -11146 
  -10532    -9612    -9119    -9343   -10243   -10893   -10606   -10054 
  -10085   -10624   -11178   -10827    -9389    -8658    -9036    -8966 
   -8598    -8532    -8793    -9663    -9946    -8877    -8098    -8398 
   -8946    -9374    -9722    -9667    -9244    -9321   -10057   -10606 
  -10636   -10324    -9840    -9741   -10308   -10768   -10770   -10663 
  -10339    -9952    -9930    -9967    -9657    -9282    -9532   -10584 
  -11057    -9859    -8723    -8951    -8970    -8428    -8673    -9401 
   -9995   -10748   -10854    -9660    -8721    -9274   -10555   -11394 
  -11061    -9948    -9448    -9714    -9549    -8937    -8633    -8266 
   -7848    -8268    -9309   -10071    -9877    -9124    -9289   -10098 
  -10154    -9840    -9937   -10412   -10909   -10917   -10597   -10539 
  -10767   -11051   -11326   -11250   -10768   -10535   -10253    -9756 
  -10114   -10841   -10773   -10242    -9617    -9131    -9315    -9768 
   -9308    -8025    -7449    -8105    -8916    -9013    -8735    -8675 
   -8765    -8866    -9023    -9386    -9887    -9991    -9964   -10488 
  -11119   -11256   -11156   -11263   -10974    -9717    -8891    -9570 
  -10307    -9826    -9090    -9244    -9790    -9849    -9220    -8536 
   -8554    -8638    -8403    -8920   -10054   -10189    -9456    -9578 
  -10068    -9618    -9464   -10120   -10324   -10554   -11223   -10719 
   -9273    -9162   -10331   -11192   -11257   -10195    -8702    -8827 
  -10196   -10764   -10891   -11029    -9998    -8908    -9548   -10138 
   -9462    -9070    -8891    -8378    -8970   -10459   -10840   -10251 
  -10122   -10440   -10407    -9792    -8964    -8494    -8781    -9661 
  -10336   -10365   -10125    -9369    -8228    -8386    -9688   -10184 
   -9879    -9769   -10050   -10574   -10794   -10674   -10768   -10659 
   -9896    -9081    -8692    -8734    -9288    -9769    -9184    -8187 
   -8212    -8810    -8673    -8073    -8066    -8834    -9977   -10500 
   -9809    -9244    -9556    -9786    -9992   -10353    -9909    -9157 
   -9643   -10956   -11539   -11192   -10762   -10342    -9929   -10280 
  -11086   -11318   -10882    -9857    -8903    -8679    -8418    -8199 
   -8791    -9224    -8671    -7757    -7344    -8020    -9468   -10426 
   -9994    -8865    -8662    -9621   -10670   -11101   -10737   -10309 
  -10817   -11605   -11492   -10889   -10558   -10239   -10000   -10503 
  -10922    -9817    -8380    -8604    -9425    -9020    -8186    -8414 
   -9099    -9074    -9207   -10197   -10578    -9602    -8546    -8831 
  -10458   -11821   -11919   -11364   -10450    -9566    -9958   -10972 
  -10839   -10088    -9991   -10471   -10575    -9609    -8787    -9427 
  -10111    -9639    -9344    -9653    -9474    -9274    -9856   -10401 
  -10422   -10173    -9774    -9774    -9990    -9771    -9845   -10220 
   -9690    -8634    -8386    -9351   -10265    -9531    -8386    -8390 
   -8398    -8330    -9202    -9980    -9792    -9543   -10102   -11230 
  -11959   -11593   -10493    -9976   -10677   -11491   -11711   -11535 
  -10311    -8344    -7832    -8876    -9351    -8865    -8410    -8268 
   -8046    -7917    -8853   -10239   -10273    -9258    -8756    -9015 
   -9444    -9699    -9779    -9784    -9536    -9031    -8877    -9390 
  -10162   -10497    -9868    -8796    -8422    -8899    -9414    -9383 
   -9239    -9381    -9148    -8721    -9135    -9817   -10096   -10276 
   -9640    -8515    -8893   -10369   -10964   -10432    -9774    -9525 
   -9202    -8646    -8630    -9340   -10234   -10586    -9906    -9354 
  -10049   -10481    -9755    -9505   -10239   -10909   -11315   -11445 
  -11124   -10682   -10208   -10068   -10906   -11572   -11007   -10561 
  -10851   -10902   -10723   -10403    -9504    -8878    -9386   -10197 
  -10361    -9975    -9865   -10390   -10727   -10567   -10558   -10724 
  -10754   -10558   -10111    -9778    -9409    -8672    -8542    -9023 
   -8556    -7611    -7570    -7835    -8008    -8773   -10021   -10840 
  -10438    -9508    -9408    -9524    -9293    -9873   -11010   -10862 
   -9396    -8413    -8175    -7501    -6937    -7527    -8521    -9205 
   -9693   -10376   -11673   -12467   -11638   -10494   -10064   -10008 
  -10260   -10566   -11084   -12232   -12738   -11672   -10062    -8677 
   -8155    -9035   -10034    -9963    -9054    -7923    -7649    -8407 
   -9077    -8974    -7956    -6781    -6998    -8997   -11469   -12483 
  -11186    -9069    -8189    -8715    -9691   -10563   -11457   -12280 
  -11882   -10521   -10413   -11210   -10773    -9757    -9474    -9227 
   -8802    -8406    -7341    -6573    -7684    -9308    -9954    -9880 
   -8922    -7831    -8208    -9551   -10640   -11425   -12071   -12506 
  -12158   -10986   -10446   -11129   -12087   -12941   -13567   -13464 
  -12442   -10650    -8804    -7846    -7654    -7562    -7272    -6327 
   -4915    -5009    -7175    -8884    -9475   -10291   -10393    -9155 
   -8316    -8839    -9930   -10467   -10342    -9891    -8615    -7018 
   -7013    -8325    -8911    -8808    -9639   -11527   -12991   -13324 
  -13107   -12198   -10369    -9143    -9891   -11782   -12996   -13028 
  -12787   -12197   -10531    -8618    -7913    -8622    -9791   -10651 
  -11080   -10725    -9717    -9445   -10350   -11117   -10733    -9155 
   -7273    -6852    -8171    -9290    -9516    -9703    -9224    -7882 
   -8083   -10528   -12309   -12256   -12186   -12266   -11234    -9247 
   -7562    -7346    -8147    -8604    -9175   -10350   -10735   -10438 
  -10733   -10386    -8792    -8171    -8889    -9343    -9652   -10663 
  -12163   -12692   -10987    -8299    -6501    -6259    -8014   -10345 
  -10647    -9329    -8719    -9720   -11747   -13088   -12148    -9356 
   -6470    -4791    -4426    -5324    -8064   -11377   -12229   -10773 
   -9904   -10087    -9913    -9389    -9009    -8946    -9903   -11128 
  -10493    -8311    -6444    -5764    -6862    -8968    -9958   -10192 
  -11619   -13509   -14143   -13575   -12202   -10692    -9837    -9128 
   -8402    -8374    -8711    -8779    -8658    -8205    -6955    -5678 
   -5931    -6818    -6207    -5607    -7948   -11820   -13548   -12591 
  -11107   -10605   -11323   -13007   -14474   -14520   -14073   -14530 
  -15250   -14872   -12982   -10434    -8741    -8635    -9355    -9309 
   -7859    -5992    -4831    -4383    -3889    -3699    -4988    -6617 
   -6651    -6187    -6698    -7507    -8557   -10434   -12538   -14118 
  -14584   -13716   -12152   -10480    -9425    -9439    -9666    -9433 
   -8985    -8700    -8976    -9948   -11038   -11375   -10849   -10030 
   -9103    -8351    -8982   -11057   -12260   -11916   -12490   -14354 
  -14837   -13393   -12123   -11700   -11211   -10550    -9728    -8351 
   -6953    -6327    -6162    -5543    -4575    -4638    -6343    -8669 
  -10389   -11291   -11747   -11465   -10409   -10052   -11155   -12501 
  -13140   -13620   -14494   -14752   -13243   -11101   -10084    -9871 
   -9412    -8471    -7105    -5910    -5709    -6342    -7094    -7700 
   -8117    -8225    -8108    -7978    -8117    -8711    -9297    -9656 
  -10426   -11610   -12582   -13122   -13136   -12459   -11337   -10647 
  -10724   -10638    -9872    -8892    -8202    -8349    -8756    -8159 
   -7515    -8536   -10546   -11708   -11379   -10663   -11141   -12339 
  -12565   -11824   -10710    -9417    -9228   -11130   -13467   -13810 
  -11766    -8152    -4261    -2331    -3103    -4579    -5489    -6596 
   -7916    -8299    -7604    -6956    -7349    -8654    -9994   -11227 
  -12741   -14400   -16016   -17212   -17417   -16615   -14909   -12513 
  -10354    -9144    -8471    -7759    -7325    -7407    -7225    -6340 
   -5683    -6330    -7763    -8278    -7422    -5794    -3775    -2943 
   -4683    -7276    -8930   -10226   -11296   -11302   -10782   -11165 
  -11944   -11711   -11350   -11840   -12181   -11777   -11105   -11078 
  -12131   -12426   -10513    -8213    -7146    -7099    -8116   -10044 
  -11372   -10474    -8726    -9278   -11319   -11832   -11132   -10926 
  -11442   -11998   -12037   -12437   -13717   -14173   -12359    -8955 
   -6351    -6357    -8136    -9892   -10434    -9418    -7962    -7327 
   -7246    -7210    -7956    -9585   -10725   -11101   -11056   -10327 
   -9844   -10319   -10509    -9840    -9190    -9540   -11141   -12583 
  -12197   -10104    -7568    -5999    -5973    -6605    -7194    -7885 
   -8579    -9309   -10083   -10075    -9157    -8602    -9247   -10548 
  -11191   -10656   -10112   -10636   -11383   -10972    -9414    -7815 
   -7901   -10287   -12229   -11483   -10031    -9981   -10662   -11227 
  -11680   -11465   -10277    -9045    -8421    -8611   -10359   -13797 
  -16791   -16467   -13158    -9790    -8162    -8938   -10859   -10588 
   -8201    -7069    -7272    -6689    -5701    -5736    -6728    -7474 
   -6862    -5738    -6062    -7838    -9643   -10219    -9332    -8360 
   -8001    -7543    -7331    -8538   -11168   -13753   -14432   -12800 
  -10642   -10145   -11479   -12661   -11901    -9783    -8365    -8590 
   -9958   -11364   -11091    -8433    -5328    -4047    -4877    -7160 
  -10044   -12430   -13146   -11460    -8842    -7776    -7726    -6872 
   -6265    -7256    -8498    -9300   -11082   -13146   -12733   -10466 
   -9637   -10133    -9996   -10912   -14169   -16544   -16255   -14991 
  -13567   -12231   -11815   -12351   -12787   -12012   -10139    -8781 
   -9009    -9219    -7506    -5049    -4171    -5192    -6779    -7777 
   -8140    -8290    -7866    -6601    -5923    -6810    -8160    -9424 
  -10955   -12580   -14015   -14640   -14272   -13744   -12950   -11416 
  -10347   -10681   -11562   -12264   -12139   -10575    -8428    -6512 
   -5695    -7098    -8691    -8245    -7350    -7091    -6717    -6887 
   -8367    -9555    -8537    -6783    -7574   -10359   -12174   -13196 
  -14392   -14647   -13701   -12712   -12452   -12456   -11782   -11421 
  -12295   -12293   -10277    -8321    -7689    -7587    -7376    -6874 
   -5980    -5667    -6925    -8482    -9155    -9782    -9999    -8970 
   -8047    -7861    -7935    -8753    -9579    -8829    -7348    -7078 
   -8418   -10288   -11234   -10945    -9958    -8081    -5964    -5614 
   -6975    -8370    -9579   -10897   -12125   -13274   -14034   -13660 
  -11982   -10062    -9575   -10957   -12806   -13468   -12514   -11349 
  -11915   -13421   -13425   -11981   -10222    -8197    -6862    -7067 
   -7630    -7842    -8311    -8480    -7408    -6374    -6882    -8316 
   -9647   -10721   -11372   -11259   -10660    -9779    -8610    -8083 
   -8664    -9543   -10648   -12425   -13814   -13009   -10709    -9734 
  -10327   -10400    -9710    -9300    -9309    -9792   -11024   -12179 
  -11974   -10112    -7445    -5449    -4773    -4981    -5967    -7641 
   -8942    -8932    -8514    -9074    -9745    -8976    -7495    -6844 
   -7470    -9293   -11460   -12700   -13201   -13620   -13490   -13057 
  -13284   -13333   -12081   -10638    -9850    -9174    -9035    -9478 
   -9105    -7851    -7156    -7454    -7813    -8244    -9212    -9169 
   -7194    -5166    -5067    -6886    -8864   -10145   -11476   -12025 
  -10601    -9242    -9879   -10720   -10574   -10909   -11647   -11537 
  -11070   -11287   -12245   -12928   -12355   -10817    -8982    -7384 
   -7033    -8320   -10152   -10984    -9987    -8433    -8460    -9286 
   -9150    -8910    -8889    -8280    -8658   -10712   -12012   -11812 
  -11311   -10868   -10855   -11516   -12206   -12606   -12695   -12010 
  -10620    -9572    -9676   -10592   -11394   -11423   -10388    -8621 
   -7276    -7250    -7870    -7614    -6365    -5641    -6219    -7117 
   -7550    -8050    -9261   -10667   -10741    -9489    -9150   -10242 
  -10696    -9971    -9664   -10546   -11863   -12360   -11369   -10158 
  -10365   -11115   -11028   -10810   -11199   -11574   -11543   -11774 
  -12371   -12280   -11591   -10809    -9103    -7128    -7221    -9613 
  -11947   -11803    -9130    -6399    -5983    -8082   -10774   -11431 
   -9348    -6774    -6419    -8526   -11013   -12417   -12926   -12652 
  -11545   -10473   -10301   -10527   -10416   -10003    -9347    -8793 
   -8532    -7927    -7171    -7142    -7410    -7375    -7426    -7342 
   -6682    -5914    -5174    -4491    -4573    -5691    -7614    -9741 
  -10601    -9952    -9794   -10786   -10998    -9859    -9274   -10049 
  -11017   -11549   -12118   -12621   -12199   -11213   -10800   -10727 
  -10597   -10602   -10272    -9549    -8815    -7944    -8159   -10443 
  -12305   -11763   -10608   -10693   -11607   -11977   -11184    -9895 
   -8846    -8542    -9782   -12150   -13014   -11211    -9516    -9518 
   -8858    -6836    -6118    -7547    -8807    -8468    -8430   -10200 
  -11295   -10238    -9336    -9039    -8228    -8248   -10026   -11884 
  -12113   -11464   -12008   -13288   -13297   -12347   -11510   -10434 
   -8749    -6933    -6359    -7846    -9477    -9547    -9867   -11492 
  -12204   -11531   -10994   -10092    -8464    -7740    -8953   -11441 
  -13173   -12580   -10747    -9200    -8117    -7836    -8232    -8885 
  -10069   -10808   -10365   -10095    -9948    -8823    -7649    -7392 
   -7712    -8557   -10006   -11379   -11942   -11701   -10989   -10319 
  -10482   -11119   -11206   -10971   -10717   -10087    -9054    -7753 
   -6779    -6561    -6146    -5694    -6606    -8078    -8787    -8870 
