Origin Time       2024/04/02 04:24:00
Lat.              40.133
Long.             141.712
Depth. (km)       71
Mag.              6.0
Station Code      FKS011
Station Lat.      37.0917
Station Long.     140.9031
Station Height(m) 162
Record Time       2024/04/02 04:25:52
Sampling Freq(Hz) 100Hz
Duration Time(s)  83
Dir.              U-D
Scale Factor      7845(gal)/8223790
Max. Acc. (gal)   2.179
Last Correction   2024/04/02 04:25:52
Memo.             
[...]
   -5915    -5949    -6027    -5958    -5810    -5626    -5458    -5641 
   -6050    -6195    -6191    -6312    -6370    -6197    -5969    -5904 
   -5994    -6103    -6169    -6154    -5989    -5791    -5761    -5756 
   -5648    -5725    -5879    -5714    -5597    -5798    -5837    -5710 
   -5740    -5691    -5610    -5938    -6343    -6227    -5880    -5724 
   -5590    -5456    -5536    -5799    -6188    -6523    -6527    -6369 
   -6307    -6195    -6056    -6200    -6427    -6300    -6035    -5980 
   -6085    -6247    -6311    -6188    -6072    -5923    -5610    -5540 
   -5918    -6224    -6199    -6004    -5768    -5724    -5981    -6187 
   -6019    -5753    -5749    -5790    -5780    -6027    -6261    -5996 
   -5529    -5386    -5472    -5522    -5660    -5861    -5859    -5809 
   -5925    -5985    -5798    -5651    -5854    -6079    -6048    -6106 
   -6276    -6114    -5726    -5578    -5589    -5548    -5656    -5975 
   -6245    -6254    -5973    -5567    -5331    -5472    -5883    -6239 
   -6293    -5968    -5535    -5400    -5582    -5899    -6250    -6465 
   -6381    -6070    -5692    -5366    -5337    -5687    -6083    -6289 
   -6292    -6054    -5714    -5521    -5567    -5728    -5833    -5892 
   -5849    -5552    -5240    -5296    -5634    -5984    -6286    -6475 
   -6485    -6547    -6741    -6658    -6183    -5768    -5732    -5913 
   -5999    -6025    -6180    -6232    -5925    -5514    -5215    -4978 
   -4996    -5370    -5832    -6250    -6574    -6619    -6388    -6147 
   -6012    -5873    -5832    -6072    -6475    -6783    -6737    -6415 
   -6161    -5872    -5428    -5206    -5354    -5594    -5863    -6274 
   -6474    -6123    -5728    -5787    -6010    -5954    -5659    -5522 
   -5672    -5818    -5914    -6068    -5992    -5575    -5394    -5779 
   -6239    -6405    -6374    -6103    -5633    -5466    -5815    -6234 
   -6416    -6538    -6655    -6592    -6350    -5976    -5499    -5243 
   -5435    -5798    -6050    -6253    -6400    -6245    -5729    -5188 
   -5038    -5355    -5732    -5960    -6289    -6561    -6355    -5823 
   -5391    -5412    -5989    -6647    -6709    -6118    -5447    -5194 
   -5413    -5985    -6569    -6666    -6353    -6016    -5644    -5364 
   -5532    -5903    -6089    -6250    -6234    -5674    -5103    -5098 
   -5321    -5512    -5792    -5983    -5867    -5760    -5980    -6188 
   -5949    -5521    -5383    -5499    -5751    -6261    -6767    -6756 
   -6340    -5972    -5695    -5445    -5516    -5996    -6409    -6500 
   -6409    -6089    -5674    -5582    -5779    -5979    -6137    -6137 
   -5826    -5476    -5436    -5590    -5753    -5995    -6234    -6264 
   -6060    -5734    -5395    -5190    -5352    -5841    -6266    -6438 
   -6447    -6400    -6226    -5765    -5310    -5363    -5736    -5941 
   -6002    -6022    -5945    -5975    -6239    -6458    -6485    -6376 
   -6025    -5536    -5395    -5809    -6389    -6612    -6353    -5919 
   -5501    -5131    -5027    -5248    -5545    -5860    -6214    -6336 
   -6180    -6072    -5977    -5780    -5809    -6138    -6461    -6762 
   -7159    -7295    -6736    -5867    -5447    -5427    -5408    -5586 
   -5931    -5867    -5462    -5266    -5300    -5302    -5211    -5128 
   -5246    -5509    -5675    -5902    -6381    -6697    -6598    -6342 
   -6022    -5725    -5701    -5945    -6247    -6376    -6230    -6077 
   -6211    -6443    -6436    -6237    -5976    -5625    -5375    -5557 
   -6150    -6795    -7164    -7125    -6639    -5815    -5127    -5031 
   -5455    -6015    -6436    -6566    -6342    -5964    -5715    -5553 
   -5433    -5595    -5975    -6114    -5859    -5487    -5221    -5167 
   -5444    -5848    -5994    -5892    -5821    -5931    -6207    -6447 
   -6363    -6070    -5996    -6116    -6116    -6038    -6062    -6096 
   -5977    -5841    -5751    -5481    -5219    -5424    -6018    -6525 
   -6682    -6497    -6039    -5605    -5694    -6254    -6663    -6679 
   -6494    -6196    -5842    -5557    -5394    -5312    -5282    -5405 
   -5697    -5919    -5968    -6004    -6038    -5954    -5792    -5513 
   -5136    -5089    -5510    -6048    -6511    -6670    -6292    -5776 
   -5555    -5518    -5576    -5714    -5826    -5988    -6200    -6207 
   -5983    -5796    -5734    -5717    -5738    -5649    -5289    -4986 
   -5111    -5560    -6030    -6212    -6010    -5736    -5713    -5867 
   -5994    -6127    -6309    -6415    -6349    -6145    -5994    -6037 
   -6099    -6102    -6249    -6388    -6158    -5752    -5559    -5609 
   -5795    -5987    -5969    -5753    -5688    -5950    -6278    -6443 
   -6396    -6099    -5833    -5935    -6208    -6309    -6249    -6053 
   -5732    -5616    -5942    -6380    -6413    -5952    -5506    -5637 
   -6092    -6318    -6413    -6431    -5965    -5248    -4931    -4990 
   -5258    -5894    -6608    -6736    -6289    -5802    -5402    -5047 
   -5074    -5643    -6313    -6681    -6633    -6196    -5736    -5725 
   -5962    -5992    -6022    -6147    -5945    -5617    -5678    -5906 
   -5979    -6031    -6066    -5957    -5876    -5872    -5776    -5790 
   -6123    -6421    -6358    -6045    -5709    -5497    -5495    -5680 
   -5915    -6126    -6259    -6130    -5730    -5386    -5404    -5711 
   -5914    -5979    -6254    -6551    -6473    -6288    -6130    -5638 
   -5181    -5425    -5863    -5807    -5630    -5660    -5702    -5810 
   -5935    -5805    -5562    -5374    -5139    -5090    -5524    -6073 
   -6340    -6517    -6609    -6235    -5544    -5204    -5532    -6184 
   -6601    -6619    -6381    -5941    -5476    -5408    -5775    -6097 
   -6131    -6165    -6332    -6384    -6326    -6328    -6224    -5873 
   -5578    -5710    -6039    -6099    -6019    -6103    -6223    -6265 
   -6301    -6249    -6004    -5806    -5829    -5904    -5942    -5941 
   -5817    -5594    -5410    -5360    -5501    -5823    -6153    -6199 
   -5832    -5377    -5267    -5428    -5624    -6031    -6678    -7041 
   -6867    -6431    -5880    -5341    -5240    -5719    -6318    -6519 
   -6346    -6072    -5771    -5586    -5713    -5921    -5898    -5757 
   -5698    -5674    -5749    -6088    -6408    -6381    -6177    -5988 
   -5837    -5756    -5737    -5729    -5736    -5773    -5769    -5790 
   -5995    -6177    -6142    -6070    -5960    -5742    -5692    -5856 
   -5942    -6019    -6340    -6619    -6496    -6266    -6162    -5984 
   -5741    -5655    -5776    -5940    -6010    -6042    -6052    -5985 
   -5776    -5336    -4966    -5131    -5634    -5930    -5996    -5996 
   -5934    -6038    -6326    -6359    -6069    -5826    -5817    -5898 
   -5826    -5684    -5869    -6353    -6556    -6316    -5989    -5603 
   -5216    -5233    -5551    -5737    -5813    -5864    -5765    -5634 
   -5748    -5941    -5880    -5734    -5759    -5864    -6031    -6272 
   -6273    -5958    -5796    -5853    -5830    -6012    -6454    -6394 
   -5890    -5867    -6245    -6261    -5984    -5830    -5751    -5803 
   -6088    -6261    -6215    -6237    -6293    -6170    -5860    -5583 
   -5539    -5738    -6123    -6389    -6168    -5732    -5486    -5301 
   -5242    -5589    -5942    -5913    -5863    -5849    -5626    -5563 
   -5849    -6033    -6006    -6039    -6068    -6056    -6154    -6143 
   -5906    -5760    -5637    -5312    -5178    -5551    -6000    -6093 
   -5956    -5846    -5795    -5749    -5759    -5895    -6060    -6187 
   -6354    -6469    -6420    -6257    -5992    -5768    -5864    -6200 
   -6336    -6218    -6119    -5921    -5640    -5729    -6181    -6524 
   -6477    -6157    -5807    -5580    -5655    -5956    -6079    -5892 
   -5664    -5570    -5510    -5510    -5672    -5830    -5926    -6088 
   -6147    -5923    -5616    -5466    -5552    -5853    -6178    -6307 
   -6308    -6338    -6245    -5887    -5591    -5738    -6130    -6490 
   -6835    -6849    -6232    -5491    -5235    -5416    -5721    -6023 
   -6153    -5857    -5458    -5571    -6076    -6388    -6281    -5917 
   -5498    -5260    -5421    -5814    -6211    -6652    -6766    -6174 
   -5528    -5574    -5946    -6068    -6146    -6328    -6372    -6345 
   -6338    -6064    -5545    -5224    -5208    -5308    -5568    -5977 
   -6220    -6111    -5807    -5614    -5618    -5672    -5811    -6050 
   -6084    -5792    -5460    -5321    -5463    -5830    -6091    -6054 
   -5805    -5448    -5331    -5671    -6012    -6087    -6161    -6108 
   -5740    -5533    -5725    -5981    -6272    -6575    -6565    -6389 
   -6400    -6413    -6251    -6042    -5859    -5787    -5979    -6226 
   -6147    -5925    -5795    -5611    -5602    -5988    -6176    -5802 
   -5471    -5539    -5613    -5603    -5710    -5877    -6127    -6444 
   -6543    -6328    -5892    -5348    -5121    -5525    -6145    -6328 
   -5969    -5518    -5325    -5296    -5340    -5551    -5823    -5915 
   -5891    -6053    -6359    -6458    -6343    -6270    -6237    -6139 
   -6073    -6138    -6285    -6396    -6411    -6282    -5883    -5333 
   -5175    -5682    -6335    -6462    -6200    -6061    -5914    -5640 
   -5676    -6104    -6450    -6507    -6369    -5983    -5556    -5578 
   -5879    -6002    -5930    -5760    -5671    -5883    -6192    -6237 
   -6030    -5786    -5610    -5674    -5954    -6092    -6066    -6066 
   -5992    -5865    -5884    -5934    -5733    -5514    -5719    -6064 
   -6196    -6436    -6655    -6369    -6002    -5952    -5833    -5624 
   -5651    -5760    -5755    -5863    -6099    -6031    -5563    -5143 
   -5171    -5560    -5900    -6083    -6242    -6207    -5941    -5738 
   -5638    -5540    -5553    -5790    -6099    -6168    -6057    -6137 
   -6266    -6127    -5989    -6147    -6469    -6836    -7115    -6972 
   -6478    -6237    -6245    -6030    -5850    -5903    -5682    -5281 
   -5256    -5405    -5283    -5117    -5201    -5355    -5594    -5944 
   -6014    -5879    -5979    -6201    -6311    -6378    -6455    -6488 
   -6413    -6205    -5981    -5877    -5802    -5545    -5240    -5302 
   -5772    -6231    -6420    -6335    -5985    -5598    -5455    -5432 
   -5346    -5352    -5495    -5494    -5336    -5404    -5705    -5818 
   -5795    -6000    -6301    -6543    -6875    -7107    -7013    -6895 
   -6882    -6629    -6160    -5760    -5433    -5321    -5499    -5567 
   -5373    -5196    -5224    -5333    -5306    -5289    -5458    -5676 
   -5988    -6376    -6492    -6358    -6291    -6276    -6264    -6442 
   -6744    -6801    -6529    -6270    -6326    -6485    -6224    -5703 
   -5521    -5510    -5314    -5189    -5287    -5478    -5763    -5985 
   -5796    -5289    -5051    -5277    -5532    -5790    -6347    -6814 
   -6791    -6497    -6041    -5556    -5541    -6021    -6265    -6016 
   -5756    -5601    -5467    -5590    -5973    -6261    -6089    -5548 
   -5331    -5817    -6486    -6737    -6704    -6675    -6413    -5985 
   -5872    -5917    -5821    -5881    -6212    -6361    -6091    -5680 
   -5215    -4653    -4457    -4874    -5444    -5823    -5989    -5980 
   -5886    -5791    -5736    -5589    -5424    -5686    -6239    -6424 
   -6211    -6034    -5946    -5757    -5482    -5123    -4602    -4333 
   -4896    -6030    -6907    -6959    -6177    -5198    -4592    -4521 
   -5069    -5821    -6192    -6288    -6318    -6261    -6161    -5980 
   -5810    -5935    -6246    -6412    -6543    -6739    -6673    -6394 
   -6347    -6394    -6112    -5665    -5559    -5845    -6097    -6008 
   -5679    -5359    -5247    -5448    -5945    -6502    -6671    -6303 
   -5724    -5177    -4877    -5088    -5583    -6008    -6403    -6754 
   -6848    -6716    -6581    -6671    -7102    -7418    -7061    -6431 
   -6161    -5999    -5505    -4947    -4796    -4962    -5077    -5011 
   -4914    -5112    -5645    -6133    -6416    -6606    -6620    -6361 
   -6123    -6251    -6550    -6716    -6794    -6820    -6727    -6489 
   -6266    -6215    -6165    -6154    -6430    -6617    -6266    -5634 
   -5113    -4810    -4745    -4970    -5462    -6012    -6357    -6405 
   -6249    -6035    -5776    -5409    -5208    -5501    -6084    -6477 
   -6419    -5980    -5479    -5310    -5575    -6015    -6265    -6084 
   -5729    -5675    -5799    -5813    -5787    -5695    -5413    -5084 
   -5015    -5451    -6247    -6855    -6960    -6758    -6465    -6083 
   -5698    -5582    -5802    -6053    -6060    -5945    -5953    -5864 
   -5439    -5084    -5053    -5116    -5305    -5670    -5915    -5949 
   -5917    -5780    -5472    -5205    -5204    -5390    -5609    -5764 
   -5772    -5741    -5786    -5840    -6012    -6367    -6575    -6465 
   -6230    -6139    -6320    -6598    -6797    -6678    -5918    -4993 
   -4683    -4989    -5548    -5972    -6118    -6200    -6292    -6455 
   -6804    -7331    -7766    -7684    -7308    -7015    -6505    -5775 
   -5444    -5626    -5757    -5664    -5610    -5571    -5497    -5497 
   -5567    -5648    -5580    -5267    -5022    -5246    -5827    -6374 
   -6650    -6593    -6470    -6581    -6712    -6654    -6566    -6482 
   -6308    -6169    -6239    -6336    -6150    -5734    -5394    -5297 
   -5405    -5502    -5422    -5352    -5485    -5545    -5521    -5802 
   -6169    -6228    -6326    -6628    -6694    -6461    -6285    -6268 
   -6357    -6647    -7069    -7233    -6909    -6181    -5327    -4710 
   -4525    -4831    -5580    -6411    -6831    -6471    -5370    -4212 
   -3639    -3704    -4355    -5350    -6048    -6224    -6014    -5289 
   -4360    -4099    -4730    -5775    -6698    -6794    -6002    -5300 
   -5035    -4920    -5324    -6259    -6813    -6709    -6404    -5880 
   -5082    -4612    -4812    -5297    -5705    -5923    -5879    -5660 
   -5567    -5761    -5898    -5756    -5755    -6042    -6353    -6732 
   -7165    -7412    -7446    -7306    -6836    -6107    -5751    -6003 
   -6164    -6015    -6170    -6701    -7032    -6945    -6670    -6200 
   -5579    -5325    -5628    -6111    -6517    -6814    -6949    -6786 
   -6349    -6029    -6052    -6050    -5809    -5701    -5778    -5711 
   -5682    -5809    -5721    -5510    -5431    -5228    -5003    -5309 
   -6087    -6705    -6791    -6369    -5683    -5208    -5309    -5934 
   -6716    -7001    -6519    -5821    -5278    -4919    -4990    -5460 
   -5991    -6444    -6579    -6092    -5427    -5501    -6087    -6205 
   -5991    -5961    -5935    -5756    -5522    -5458    -5709    -6050 
   -6301    -6484    -6489    -6114    -5512    -5071    -4855    -4900 
   -5386    -6073    -6473    -6458    -6245    -5953    -5516    -5204 
   -5356    -5597    -5586    -5826    -6509    -7022    -7069    -6820 
   -6419    -6134    -6253    -6573    -6515    -6149    -6133    -6347 
   -6219    -6076    -6346    -6458    -5972    -5339    -4968    -4891 
   -5001    -5136    -5256    -5386    -5486    -5537    -5562    -5575 
   -5799    -6372    -6698    -6393    -6164    -6508    -6910    -6886 
   -6430    -5679    -5104    -5150    -5529    -5778    -5852    -5728 
   -5429    -5321    -5606    -6088    -6432    -6295    -5833    -5509 
   -5356    -5517    -6147    -6624    -6577    -6547    -6540    -6133 
   -5765    -5730    -5563    -5491    -5975    -6496    -6562    -6351 
   -5945    -5482    -5386    -5530    -5543    -5605    -5768    -5707 
   -5602    -5844    -6034    -5736    -5370    -5148    -4734    -4357 
   -4533    -5071    -5684    -6393    -6775    -6525    -6130    -5896 
   -5773    -6016    -6659    -7149    -7159    -6758    -5975    -5094 
   -4611    -4626    -5023    -5709    -6199    -5984    -5580    -5717 
   -5994    -5957    -5927    -5999    -5929    -6022    -6731    -7456 
   -7466    -7144    -6778    -6139    -5517    -5348    -5485    -5630 
   -5894    -6397    -6717    -6439    -5853    -5439    -5317    -5560 
   -6088    -6455    -6558    -6731    -6806    -6562    -6546    -6822 
   -6629    -6126    -6012    -6035    -5887    -5921    -6053    -5805 
   -5494    -5620    -5701    -5277    -4936    -5000    -4978    -4993 
   -5544    -6235    -6470    -6305    -5953    -5578    -5510    -5840 
   -6153    -6174    -5995    -5606    -5054    -4738    -4885    -5228 
   -5513    -5783    -6203    -6756    -6851    -6127    -5386    -5224 
   -5184    -5093    -5320    -5778    -6149    -6454    -6659    -6542 
   -6115    -5672    -5528    -5709    -5929    -6002    -5960    -5944 
   -6130    -6358    -6210    -5798    -5567    -5593    -5933    -6613 
   -6968    -6619    -6231    -5967    -5427    -5128    -5472    -5626 
   -5202    -5100    -5609    -5865    -5695    -5671    -5756    -5715 
   -5783    -6191    -6801    -7292    -7569    -7681    -7454    -6813 
   -6089    -5605    -5401    -5456    -5640    -5589    -5163    -4673 
   -4475    -4702    -5233    -5809    -6187    -6307    -6205    -5809 
   -5308    -5251    -5711    -6191    -6438    -6673    -6933    -6875 
   -6650    -6758    -6970    -7001    -7133    -7245    -6860    -6147 
   -5559    -5081    -4889    -5482    -6261    -6324    -6181    -6304 
   -6149    -5833    -6087    -6747    -7184    -7304    -7165    -6697 
   -6212    -6168    -6489    -6816    -6851    -6507    -6056    -5559 
   -5005    -4936    -5487    -5914    -5802    -5352    -4739    -4175 
   -4054    -4371    -4818    -5331    -5769    -5786    -5348    -4860 
   -4843    -5420    -6288    -7132    -7369    -6475    -5108    -4433 
   -4653    -5397    -6400    -7005    -6716    -6064    -5606    -5287 
   -5051    -4880    -4669    -4392    -4224    -4461    -5089    -5746 
   -6138    -6141    -5849    -5498    -5279    -5321    -5645    -6084 
   -6396    -6498    -6440    -6200    -5961    -6019    -6161    -6243 
   -6589    -6988    -6940    -6596    -6265    -5969    -5803    -5902 
   -6060    -6100    -6237    -6417    -6319    -6092    -6014    -6079 
   -6249    -6474    -6598    -6473    -6247    -6137    -5948    -5707 
   -5838    -6195    -6335    -6327    -6431    -6542    -6482    -6520 
   -6833    -7032    -6839    -6500    -6207    -5722    -5173    -5208 
   -5745    -6143    -6234    -5956    -5348    -4878    -4737    -4872 
   -5363    -5879    -6034    -6173    -6551    -6627    -6042    -5235 
   -4776    -4978    -5678    -6303    -6598    -6582    -6336    -6151 
   -5992    -5667    -5427    -5402    -5304    -4985    -4669    -4521 
   -4425    -4523    -5179    -6138    -6656    -6504    -6097    -5710 
   -5533    -5938    -6797    -7558    -7969    -7850    -7087    -6146 
   -5636    -5630    -6008    -6532    -6725    -6609    -6434    -5891 
   -5026    -4469    -4411    -4669    -5175    -5705    -5846    -5763 
   -5984    -6328    -6363    -6301    -6340    -6311    -6297    -6504 
   -6656    -6338    -5736    -5373    -5267    -5228    -5370    -5657 
   -5751    -5543    -5254    -5036    -4954    -5077    -5340    -5680 
   -6107    -6396    -6380    -6350    -6446    -6403    -6173    -5934 
   -5697    -5537    -5692    -6046    -6181    -6060    -5906    -5649 
   -5321    -5360    -5732    -5996    -6154    -6328    -6454    -6598 
   -6787    -6805    -6562    -6366    -6372    -6396    -6392    -6322 
   -6141    -6100    -6369    -6690    -6696    -6367    -5891    -5341 
   -4885    -4747    -4981    -5470    -5852    -5888    -5736    -5606 
