Origin Time       2024/04/02 04:24:00
Lat.              40.133
Long.             141.712
Depth. (km)       71
Mag.              6.0
Station Code      FKS005
Station Lat.      37.6389
Station Long.     140.9853
Station Height(m) 17
Record Time       2024/04/02 04:25:42
Sampling Freq(Hz) 100Hz
Duration Time(s)  94
Dir.              N-S
Scale Factor      7845(gal)/8223790
Max. Acc. (gal)   6.122
Last Correction   2024/04/02 04:25:42
Memo.             
[...]
  -20526   -20571   -20409   -20231   -20372   -20169   -19611   -19607 
  -20061   -20031   -19472   -19252   -19469   -19818   -20239   -20194 
  -19813   -19751   -19526   -19111   -19353   -19784   -19512   -19055 
  -19164   -19506   -19480   -19237   -19080   -18805   -18751   -19542 
  -20471   -20637   -20387   -20245   -19935   -19309   -19314   -20298 
  -20806   -20200   -19503   -19286   -19618   -20229   -20201   -19688 
  -19674   -19818   -19467   -19295   -19631   -19618   -19332   -19553 
  -19826   -19734   -19923   -20490   -20779   -20653   -20416   -20090 
  -19642   -19175   -18874   -19118   -19861   -20332   -20156   -19894 
  -20100   -20359   -19994   -19373   -19246   -19711   -20428   -20452 
  -19438   -18922   -19507   -19974   -20136   -20291   -20088   -19712 
  -19570   -19479   -19317   -19429   -20015   -20596   -20590   -20237 
  -20043   -19807   -19477   -19531   -19692   -19665   -20228   -21288 
  -21594   -21018   -20266   -19768   -19784   -20052   -20133   -20174 
  -20345   -20343   -20055   -19812   -19781   -19854   -19916   -19873 
  -19726   -19687   -19885   -20083   -19989   -19579   -19224   -19241 
  -19300   -19144   -19194   -19583   -19984   -20514   -21141   -21181 
  -20672   -20252   -19904   -19572   -19550   -19777   -19920   -19869 
  -19847   -19873   -19708   -19665   -20025   -20390   -20402   -19938 
  -19292   -19213   -19923   -20785   -20935   -20190   -19375   -19252 
  -19684   -20098   -20209   -20117   -19884   -19512   -19143   -19048 
  -19465   -19977   -19963   -19710   -19789   -20143   -20217   -19643 
  -18940   -18909   -19508   -20058   -20164   -20116   -20213   -20214 
  -19994   -19808   -19610   -19291   -19199   -19506   -19858   -19903 
  -19715   -19643   -19539   -19167   -19089   -19596   -20186   -20478 
  -20421   -20366   -20636   -20773   -20310   -19584   -19159   -19215 
  -19460   -19681   -20031   -20309   -20321   -20247   -19742   -19056 
  -19481   -20671   -20763   -19634   -19094   -19672   -20220   -20352 
  -20179   -19689   -19507   -19874   -20029   -19653   -19422   -19641 
  -19746   -19714   -19815   -19755   -19719   -19881   -19741   -19696 
  -20196   -20413   -19877   -19091   -18848   -19510   -20356   -20711 
  -20524   -19984   -19761   -20062   -20175   -19893   -19799   -20131 
  -20366   -20206   -20025   -19867   -19495   -19251   -19453   -19774 
  -19842   -19855   -20291   -20872   -20826   -20324   -19951   -19719 
  -19669   -19764   -19815   -20097   -20518   -20509   -20178   -19766 
  -19333   -19356   -19692   -19541   -19287   -19727   -20293   -20341 
  -20146   -19971   -20011   -20182   -19978   -19647   -19903   -20308 
  -20090   -19724   -19863   -20255   -20378   -19950   -19427   -19477 
  -19673   -19387   -19132   -19502   -20011   -20137   -19965   -19561 
  -19510   -20175   -20374   -19481   -18765   -19009   -19541   -19774 
  -19593   -19167   -19291   -20124   -20628   -20530   -20673   -20995 
  -20637   -20009   -20008   -20402   -20765   -20744   -20029   -19350 
  -19421   -19589   -19241   -18927   -19179   -19673   -19992   -20171 
  -20156   -19896   -19881   -20040   -19669   -19267   -19531   -19818 
  -19580   -19213   -19201   -19631   -20181   -20355   -20164   -19954 
  -19575   -18990   -18837   -19271   -19703   -19967   -20314   -20617 
  -20668   -20605   -20499   -20160   -19664   -19552   -19967   -20291 
  -20216   -20116   -20065   -19824   -19742   -19966   -19839   -19394 
  -19145   -18998   -19039   -19480   -19930   -20108   -20271   -20475 
  -20491   -20503   -20715   -20551   -19888   -19772   -20332   -20464 
  -20142   -20278   -20592   -20152   -19357   -19214   -19543   -19511 
  -19229   -19494   -20254   -20923   -21335   -21211   -20383   -19579 
  -19588   -20059   -20182   -19953   -19646   -19570   -20047   -20447 
  -20302   -20142   -20135   -20132   -20112   -19924   -19656   -19610 
  -19722   -19809   -20054   -20298   -20119   -19901   -19962   -19807 
  -19453   -19546   -19997   -20127   -19965   -20020   -20167   -20117 
  -20021   -19715   -19224   -19323   -19774   -19759   -19742   -20152 
  -20538   -20669   -20659   -20340   -19642   -19323   -19637   -19696 
  -19448   -19670   -20090   -19930   -19527   -19430   -19504   -19805 
  -20147   -19974   -19770   -20175   -20474   -20046   -19606   -19700 
  -19850   -19755   -19801   -19982   -19809   -19568   -19839   -20236 
  -20237   -20093   -20136   -20177   -20069   -20043   -19921   -19426 
  -19118   -19354   -19373   -18908   -18937   -19719   -20281   -20061 
  -19454   -19337   -19896   -20197   -19865   -19685   -20090   -20389 
  -19917   -19327   -19349   -19418   -19059   -18767   -18898   -19303 
  -19940   -20552   -20499   -19947   -19938   -20731   -21394   -21141 
  -20190   -19465   -19494   -19708   -19711   -19827   -19893   -19620 
  -19353   -19263   -19188   -19106   -18836   -18401   -18391   -18947 
  -19651   -20214   -20440   -20302   -20028   -19830   -19600   -19356 
  -19519   -19834   -19732   -19500   -19384   -19296   -19391   -19561 
  -19519   -19392   -19377   -19434   -19498   -19666   -20063   -20548 
  -20912   -21006   -20703   -20358   -20331   -20143   -19630   -19562 
  -19969   -20027   -19777   -19808   -19888   -19642   -19618   -20170 
  -20623   -20540   -20210   -19919   -19853   -20007   -20221   -20397 
  -20364   -20189   -20139   -20281   -20609   -20761   -20312   -19650 
  -19441   -19720   -20046   -20250   -20515   -20663   -20459   -20233 
  -20314   -20532   -20665   -20548   -19961   -19435   -19691   -20282 
  -20407   -19936   -19606   -20102   -20711   -20596   -20144   -19944 
  -20136   -20336   -20225   -20294   -20544   -20208   -19701   -19965 
  -20452   -20317   -19942   -19791   -19579   -19552   -20191   -20572 
  -20101   -19985   -20534   -20501   -19719   -19336   -19869   -20707 
  -20929   -20206   -19292   -19068   -19271   -19198   -19032   -19340 
  -19761   -19592   -19103   -18858   -18960   -19330   -19531   -19279 
  -19134   -19434   -19512   -19040   -18774   -19062   -19380   -19549 
  -19634   -19561   -19489   -19503   -19429   -19381   -19619   -19803 
  -19600   -19444   -19695   -20085   -20197   -19982   -19739   -19595 
  -19319   -18900   -18936   -19498   -19816   -19997   -20380   -20283 
  -19480   -18781   -18905   -19936   -21073   -21307   -20679   -20044 
  -19958   -20182   -20094   -19668   -19408   -19615   -20185   -20497 
  -20183   -19762   -19491   -19099   -18719   -18879   -19639   -20340 
  -20653   -20686   -20467   -20237   -19963   -19464   -19375   -20125 
  -20835   -20587   -19626   -18821   -18956   -19773   -19957   -19380 
  -19279   -20042   -20773   -20781   -20529   -20441   -20082   -19631 
  -20027   -21018   -21266   -20618   -20235   -20364   -20421   -20634 
  -20962   -20548   -19647   -19267   -19622   -20092   -20046   -19942 
  -20228   -20385   -20326   -20247   -20197   -20409   -20557   -20320 
  -20128   -20166   -19980   -19398   -19180   -19697   -20042   -19761 
  -19510   -19776   -20154   -20009   -19629   -19549   -19689   -19877 
  -20047   -20225   -20227   -19724   -19143   -19094   -19614   -20425 
  -20993   -21001   -20686   -20224   -19714   -19557   -19816   -19842 
  -19641   -20021   -20775   -20933   -20437   -19890   -19549   -19363 
  -19425   -19749   -20063   -20240   -20313   -20073   -19525   -19341 
  -19596   -19626   -19593   -19862   -20083   -20008   -19743   -19518 
  -19581   -19980   -20142   -19546   -18909   -18895   -19024   -19016 
  -19136   -19399   -19669   -19996   -20282   -20173   -19847   -19881 
  -19927   -19273   -18492   -18457   -19033   -19674   -19737   -19051 
  -18588   -18960   -19404   -19442   -19724   -20213   -20124   -19731 
  -19418   -18814   -18416   -19101   -20148   -20309   -19882   -19718 
  -19633   -19237   -18793   -18810   -19491   -20260   -20281   -19884 
  -20108   -20584   -20316   -19795   -19842   -20221   -20556   -20771 
  -20642   -20274   -20239   -20178   -19480   -19172   -19842   -20299 
  -20055   -19537   -19012   -19107   -20021   -20776   -20792   -20555 
  -20387   -20297   -20610   -21190   -21374   -20973   -20189   -19512 
  -19538   -20208   -20672   -20298   -19711   -19796   -20322   -20723 
  -20744   -20170   -19556   -19874   -20642   -20664   -20302   -20520 
  -20769   -20399   -20178   -20395   -20382   -20086   -19892   -19993 
  -20333   -20514   -20133   -19404   -19245   -19928   -20398   -20164 
  -19997   -20143   -20129   -19993   -19866   -19504   -19233   -19498 
  -19823   -19913   -20081   -20274   -20266   -20050   -19693   -19595 
  -20040   -20387   -20082   -19746   -19863   -20071   -20163   -20102 
  -19780   -19529   -19641   -19676   -19294   -18958   -18933   -18777 
  -18430   -18499   -19138   -19796   -20070   -19977   -19876   -20366 
  -21068   -20802   -19797   -19363   -19658   -19815   -19673   -19677 
  -19570   -19290   -19458   -19738   -19525   -19452   -19926   -20351 
  -20109   -19153   -18350   -18311   -18590   -19026   -19750   -20329 
  -20028   -18879   -18404   -19344   -20391   -20730   -20629   -20205 
  -19746   -19739   -20140   -20478   -20421   -20152   -20270   -20657 
  -20526   -20075   -19834   -19450   -18970   -19188   -20251   -21136 
  -20815   -19658   -18855   -18859   -19197   -19180   -18836   -18939 
  -19363   -19350   -19593   -20622   -21084   -20502   -19899   -19545 
  -19399   -19742   -20360   -20781   -20802   -20638   -20700   -20765 
  -20278   -19510   -19284   -19761   -20252   -20351   -20341   -20189 
  -19546   -18837   -18841   -19514   -20005   -19892   -19715   -19765 
  -19739   -19715   -19924   -20210   -20220   -19849   -19715   -20101 
  -20394   -20576   -20888   -20794   -20224   -19874   -19847   -19758 
  -19676   -19835   -20035   -20027   -19930   -19926   -19971   -19901 
  -19697   -19656   -19954   -20343   -20611   -20588   -20071   -19341 
  -19161   -20000   -21008   -20860   -19899   -19452   -19701   -19876 
  -19762   -19676   -19550   -19564   -19958   -20054   -19818   -19900 
  -19907   -19723   -19919   -20224   -20409   -20746   -20831   -20179 
  -19444   -19562   -20183   -20289   -20051   -20054   -19796   -19257 
  -19273   -19496   -19390   -19562   -19880   -19657   -19386   -19386 
  -19008   -18501   -19044   -20389   -21031   -20663   -20086   -19761 
  -19718   -19630   -19415   -19515   -19909   -20266   -20364   -20059 
  -19641   -19329   -19242   -19608   -19874   -19479   -18936   -18889 
  -19330   -19840   -20117   -20082   -19834   -19793   -20120   -20171 
  -19696   -19284   -19084   -19060   -19400   -19660   -19595   -19741 
  -20005   -19610   -18851   -18962   -19835   -20382   -20511   -20594 
  -20731   -20968   -20865   -20104   -19273   -18927   -19175   -19854 
  -20272   -20034   -19502   -19074   -18868   -18918   -19369   -19893 
  -19836   -19363   -19056   -19180   -19556   -19641   -19491   -19704 
  -20193   -20368   -20146   -20104   -20564   -20961   -20860   -20588 
  -20502   -20837   -21400   -21297   -20312   -19332   -18974   -19395 
  -20468   -21367   -21384   -20769   -20190   -20083   -20532   -21200 
  -21494   -21177   -20594   -20217   -20409   -20883   -20819   -20298 
  -20015   -20082   -20372   -20852   -21393   -21590   -20958   -19780 
  -19025   -19191   -19859   -20286   -20335   -20305   -20108   -19890 
  -19919   -19651   -19157   -19375   -19932   -19955   -19940   -20250 
  -20213   -19907   -19865   -19816   -19800   -20174   -20304   -19629 
  -18821   -18700   -19303   -20271   -21104   -21393   -21181   -20617 
  -19781   -19113   -18932   -18985   -19322   -20061   -20510   -20379 
  -20243   -20146   -19653   -18837   -18395   -18837   -19678   -20142 
  -20029   -19440   -18814   -18752   -19279   -20051   -20736   -21095 
  -21118   -20821   -20406   -20329   -20464   -20225   -19831   -19919 
  -20247   -20279   -19863   -19002   -18314   -18373   -18355   -17568 
  -16858   -16920   -17269   -17616   -18280   -19018   -19400   -19572 
  -19346   -18468   -17658   -17628   -17921   -17469   -16155   -15186 
  -15404   -16528   -18000   -19332   -20266   -20803   -20506   -19164 
  -18049   -18381   -19507   -20260   -20607   -20923   -21220   -21540 
  -21593   -20966   -20406   -20850   -21764   -22167   -22114   -21883 
  -21223   -20356   -19676   -18890   -18266   -18723   -19880   -20478 
  -20533   -20810   -21290   -21938   -23008   -23814   -23649   -23240 
  -22971   -22381   -22215   -23140   -23838   -23121   -21412   -19534 
  -18306   -18546   -19890   -20802   -20594   -20158   -20333   -20989 
  -21816   -22308   -21690   -20128   -18559   -17527   -17490   -18782 
  -20587   -21550   -21386   -20584   -19452   -18334   -17447   -16522 
  -15446   -14706   -14936   -16359   -18738   -21470   -23715   -24906 
  -24950   -23761   -21307   -18735   -17992   -19052   -19913   -19792 
  -19265   -18463   -17649   -17757   -19074   -20420   -20171   -18293 
  -16548   -16352   -17811   -20437   -23082   -24004   -22666   -20821 
  -20158   -19928   -18929   -17926   -18002   -18878   -19853   -20552 
  -21136   -21864   -21795   -20169   -18478   -17991   -17984   -18239 
  -19469   -21263   -22023   -21135   -19938   -19296   -18681   -18415 
  -18963   -19229   -18590   -17824   -17248   -16822   -17209   -18893 
  -21058   -22273   -21899   -20661   -20065   -20945   -22461   -23121 
  -22735   -22269   -21813   -20509   -18652   -17685   -17852   -18022 
  -17724   -17496   -18038   -19973   -22997   -25552   -26300   -25261 
  -23089   -20178   -17315   -15769   -16033   -17589   -19209   -19511 
  -18435   -17428   -17412   -17820   -18157   -18813   -20036   -21357 
  -21959   -21451   -20471   -19741   -18999   -18370   -18785   -19862 
  -20460   -20713   -21150   -21273   -20559   -19743   -19234   -18455 
  -17883   -18508   -20035   -21146   -20779   -19291   -17907   -17752 
  -19120   -20426   -20259   -19708   -19793   -19741   -19345   -19178 
  -19022   -18490   -18006   -18612   -20672   -23094   -24590   -24652 
  -23322   -20927   -18432   -17447   -18342   -19777   -20798   -21127 
  -20669   -19791   -19118   -19369   -20453   -21188   -21095   -20518 
  -19579   -18805   -18871   -19426   -19631   -19446   -19541   -19930 
  -19832   -19295   -19151   -19367   -19345   -19114   -19012   -19020 
  -19059   -19475   -20623   -22364   -23804   -23430   -20715   -17301 
  -15491   -16156   -18650   -21703   -24092   -25405   -25605   -24240 
  -21509   -18771   -17483   -18087   -18987   -17969   -15635   -14713 
  -15908   -17851   -20054   -22476   -24000   -23870   -22646   -20950 
  -19214   -18130   -18085   -18970   -20325   -21107   -20526   -19188 
  -18223   -17982   -18335   -19149   -20043   -20826   -21864   -22981 
  -23083   -21851   -20333   -19430   -19225   -19553   -20186   -20763 
  -20668   -19638   -18754   -19174   -20169   -20324   -19913   -20233 
  -21184   -21502   -20719   -19311   -17895   -16964   -16869   -17685 
  -19029   -20304   -20938   -20660   -19973   -19723   -20007   -20106 
  -19757   -19669   -20073   -20470   -20756   -20834   -20613   -20154 
  -19354   -19020   -19903   -20756   -20596   -20472   -21057   -21602 
  -21766   -21825   -21296   -19786   -18252   -17464   -17277   -17617 
  -18331   -19194   -20405   -21810   -22149   -20617   -18447   -16806 
  -15585   -15201   -15870   -16707   -17351   -18231   -19446   -20370 
  -20709   -20950   -20833   -19745   -18522   -18505   -19705   -20945 
  -21296   -20997   -20684   -20109   -18825   -17447   -17004   -17824 
  -19496   -21444   -22947   -23384   -23240   -23147   -22507   -21188 
  -20227   -19651   -18713   -17891   -17676   -17493   -17401   -17829 
  -18315   -18377   -18324   -19070   -21084   -23572   -25091   -24405 
  -21855   -19264   -17496   -16675   -17209   -18458   -19624   -20903 
  -22034   -22771   -23610   -24383   -24187   -22489   -20069   -18678 
  -18821   -19579   -20101   -19862   -19147   -18763   -18997   -19861 
  -21057   -21749   -21474   -20817   -20587   -20524   -19830   -18453 
  -16860   -15876   -16313   -17878   -19808   -21695   -23156   -23799 
  -23422   -22615   -22296   -22376   -22312   -21926   -21200   -20144 
  -18821   -17691   -17350   -17863   -19052   -20707   -22225   -22674 
  -21648   -19863   -18320   -17475   -17653   -18843   -20077   -20547 
  -20452   -19789   -18242   -16329   -15157   -15561   -17003   -18104 
  -19190   -21095   -22338   -21455   -19433   -17802   -17232   -17791 
  -18632   -18832   -18659   -18503   -18050   -17578   -18067   -19653 
  -21529   -22712   -22293   -20453   -18697   -18245   -18709   -18588 
  -17624   -17338   -18328   -19881   -21533   -22604   -22437   -21450 
  -20131   -18767   -18048   -18187   -18657   -18949   -18975   -19056 
  -19676   -21246   -23240   -24210   -23835   -23013   -22216   -21382 
  -20687   -20736   -21344   -21008   -19138   -17259   -16727   -17232 
  -18409   -20422   -22316   -22789   -22114   -21154   -20190   -19363 
  -18831   -18855   -19772   -21230   -22400   -23114   -23276   -22207 
  -20275   -19033   -18738   -18442   -18141   -18615   -20189   -22160 
  -23209   -23041   -22207   -20536   -18037   -16132   -16272   -17938 
  -19426   -20155   -20393   -19897   -18555   -17381   -17571   -18724 
  -19566   -19701   -19246   -18412   -17621   -17247   -17701   -18792 
  -19680   -20186   -20487   -20470   -20345   -20324   -20395   -20827 
  -21832   -22955   -23203   -22104   -20460   -19392   -19264   -19651 
  -19921   -19899   -19642   -19210   -19214   -20102   -21024   -20949 
  -20074   -19246   -18643   -18009   -17886   -18972   -20812   -22437 
  -23330   -23444   -22889   -21726   -20391   -19954   -20761   -21436 
  -20686   -19005   -17531   -16872   -17161   -17967   -18654   -18773 
  -18341   -18242   -18812   -18970   -17994   -16278   -14754   -14646 
  -16313   -18650   -20606   -21845   -21957   -20952   -19780   -19348 
  -19820   -20659   -21003   -20391   -19294   -18809   -19523   -20849 
  -21830   -22191   -21747   -20364   -18895   -18318   -19086   -21136 
  -23164   -23831   -23314   -22360   -21469   -20960   -20819   -20985 
  -21427   -21640   -21130   -20329   -20034   -20005   -19345   -18246 
  -17640   -17487   -17389   -17946   -19531   -21165   -21925   -21853 
  -21486   -21431   -21764   -22145   -22397   -22370   -22103   -21753 
  -21049   -19854   -18600   -17693   -17096   -16626   -16397   -16379 
  -16248   -16214   -16625   -17344   -18204   -19087   -19619   -19606 
  -19962   -21622   -23538   -23832   -22272   -20464   -20005   -20687 
  -20979   -20422   -20102   -20321   -20437   -20718   -21540   -22102 
  -21870   -21375   -20642   -19332   -18203   -17834   -17535   -16914 
  -16872   -18216   -20166   -21516   -21969   -21639   -21220   -21581 
  -22365   -22786   -22372   -20791   -18827   -17694   -17447   -17659 
  -18164   -18929   -19616   -19367   -18257   -17524   -17568   -17860 
  -18377   -19310   -20240   -20815   -21034   -20819   -20247   -19516 
  -18789   -18264   -17948   -17783   -17868   -18252   -18640   -18484 
  -17973   -17940   -18003   -17053   -15554   -15187   -16634   -18866 
  -20667   -21863   -22617   -22893   -22732   -22164   -21247   -20533 
  -20596   -21394   -22549   -23371   -23163   -22196   -21199   -20255 
