Origin Time       2024/04/02 04:24:00
Lat.              40.133
Long.             141.712
Depth. (km)       71
Mag.              6.0
Station Code      FKS023
Station Lat.      37.4775
Station Long.     139.9309
Station Height(m) 219
Record Time       2024/04/02 04:25:44
Sampling Freq(Hz) 100Hz
Duration Time(s)  109
Dir.              E-W
Scale Factor      7845(gal)/8223790
Max. Acc. (gal)   1.838
Last Correction   2024/04/02 04:25:43
Memo.             
[...]
  -13803   -13801   -13783   -13747   -13686   -13609   -13543   -13498 
  -13482   -13486   -13491   -13489   -13478   -13470   -13491   -13543 
  -13598   -13647   -13672   -13657   -13603   -13525   -13450   -13392 
  -13348   -13323   -13309   -13301   -13289   -13265   -13251   -13261 
  -13290   -13356   -13470   -13609   -13734   -13832   -13906   -13967 
  -14017   -14060   -14103   -14137   -14162   -14170   -14146   -14092 
  -13995   -13855   -13694   -13533   -13392   -13302   -13284   -13321 
  -13393   -13466   -13525   -13595   -13682   -13783   -13898   -13996 
  -14049   -14056   -14017   -13941   -13864   -13801   -13744   -13691 
  -13622   -13531   -13423   -13308   -13198   -13101   -13007   -12930 
  -12864   -12793   -12753   -12756   -12785   -12831   -12888   -12958 
  -13039   -13123   -13220   -13338   -13446   -13536   -13624   -13684 
  -13722   -13752   -13771   -13784   -13788   -13771   -13734   -13684 
  -13630   -13579   -13548   -13539   -13537   -13539   -13539   -13540 
  -13552   -13570   -13597   -13624   -13647   -13670   -13691   -13721 
  -13753   -13764   -13755   -13744   -13738   -13736   -13733   -13733 
  -13726   -13707   -13682   -13659   -13648   -13662   -13689   -13702 
  -13689   -13639   -13559   -13470   -13390   -13336   -13298   -13254 
  -13192   -13113   -13043   -13014   -13023   -13063   -13130   -13213 
  -13313   -13423   -13508   -13548   -13574   -13606   -13637   -13672 
  -13703   -13713   -13693   -13640   -13562   -13478   -13423   -13419 
  -13464   -13541   -13621   -13679   -13698   -13684   -13652   -13620 
  -13602   -13594   -13590   -13585   -13560   -13509   -13429   -13340 
  -13255   -13173   -13099   -13030   -12969   -12934   -12907   -12895 
  -12922   -12977   -13047   -13142   -13242   -13329   -13406   -13489 
  -13587   -13689   -13776   -13857   -13926   -13959   -13963   -13957 
  -13954   -13965   -13992   -14029   -14062   -14080   -14068   -14006 
  -13907   -13810   -13734   -13683   -13648   -13618   -13587   -13552 
  -13524   -13495   -13475   -13473   -13486   -13508   -13525   -13536 
  -13539   -13540   -13545   -13555   -13572   -13587   -13586   -13571 
  -13544   -13513   -13487   -13464   -13447   -13440   -13443   -13450 
  -13452   -13452   -13451   -13462   -13502   -13568   -13653   -13752 
  -13853   -13948   -13999   -14002   -13975   -13922   -13838   -13728 
  -13593   -13440   -13293   -13163   -13065   -13004   -12964   -12938 
  -12933   -12939   -12965   -13016   -13115   -13257   -13409   -13545 
  -13671   -13776   -13842   -13891   -13940   -13973   -13988   -13965 
  -13903   -13819   -13721   -13612   -13491   -13350   -13204   -13074 
  -12974   -12920   -12903   -12888   -12869   -12846   -12811   -12791 
  -12803   -12846   -12938   -13047   -13128   -13194   -13266   -13331 
  -13404   -13501   -13595   -13683   -13772   -13830   -13844   -13833 
  -13809   -13783   -13775   -13786   -13809   -13829   -13845   -13859 
  -13884   -13932   -13987   -14038   -14077   -14095   -14103   -14121 
  -14152   -14181   -14188   -14157   -14080   -13961   -13826   -13706 
  -13609   -13532   -13470   -13417   -13373   -13333   -13293   -13261 
  -13244   -13231   -13220   -13211   -13193   -13155   -13097   -13043 
  -12996   -12960   -12957   -12984   -13030   -13111   -13224   -13354 
  -13487   -13621   -13757   -13902   -14044   -14162   -14245   -14291 
  -14305   -14292   -14261   -14219   -14160   -14081   -13988   -13880 
  -13771   -13663   -13571   -13504   -13454   -13425   -13413   -13402 
  -13383   -13356   -13335   -13313   -13285   -13265   -13251   -13232 
  -13225   -13231   -13236   -13250   -13266   -13300   -13359   -13423 
  -13485   -13518   -13512   -13501   -13495   -13495   -13527   -13575 
  -13624   -13668   -13680   -13644   -13555   -13435   -13311   -13198 
  -13105   -13050   -13049   -13073   -13093   -13105   -13103   -13099 
  -13108   -13126   -13159   -13216   -13271   -13315   -13355   -13389 
  -13412   -13439   -13460   -13475   -13508   -13549   -13589   -13637 
  -13684   -13705   -13702   -13679   -13649   -13621   -13593   -13570 
  -13566   -13581   -13606   -13639   -13674   -13702   -13726   -13761 
  -13814   -13871   -13921   -13953   -13969   -13967   -13942   -13909 
  -13873   -13825   -13749   -13643   -13528   -13436   -13378   -13344 
  -13323   -13297   -13243   -13189   -13167   -13173   -13219   -13306 
  -13390   -13464   -13555   -13645   -13728   -13832   -13952   -14061 
  -14161   -14233   -14233   -14164   -14054   -13937   -13832   -13743 
  -13664   -13586   -13498   -13390   -13273   -13165   -13092   -13063 
  -13053   -13043   -13046   -13053   -13051   -13046   -13042   -13057 
  -13108   -13189   -13281   -13365   -13414   -13435   -13447   -13466 
  -13508   -13581   -13666   -13730   -13761   -13763   -13741   -13718 
  -13714   -13709   -13686   -13641   -13574   -13493   -13405   -13333 
  -13300   -13311   -13352   -13393   -13417   -13428   -13410   -13374 
  -13347   -13325   -13305   -13308   -13312   -13293   -13278   -13278 
  -13278   -13285   -13305   -13343   -13390   -13429   -13456   -13483 
  -13514   -13540   -13570   -13603   -13628   -13655   -13679   -13684 
  -13668   -13621   -13558   -13498   -13437   -13389   -13369   -13369 
  -13375   -13386   -13410   -13466   -13545   -13648   -13778   -13903 
  -14011   -14102   -14146   -14145   -14118   -14083   -14057   -14056 
  -14081   -14119   -14137   -14126   -14094   -14053   -14019   -13992 
  -13975   -13967   -13967   -13968   -13954   -13932   -13909   -13875 
  -13833   -13807   -13795   -13768   -13716   -13644   -13559   -13470 
  -13382   -13301   -13235   -13180   -13132   -13084   -13030   -12984 
  -12941   -12907   -12911   -12945   -12978   -13012   -13070   -13131 
  -13174   -13215   -13255   -13288   -13328   -13374   -13406   -13429 
  -13460   -13483   -13481   -13451   -13417   -13394   -13394   -13420 
  -13458   -13489   -13494   -13474   -13443   -13406   -13374   -13366 
  -13379   -13409   -13436   -13460   -13518   -13589   -13666   -13765 
  -13871   -13972   -14054   -14099   -14115   -14102   -14052   -13973 
  -13868   -13730   -13566   -13377   -13174   -12988   -12830   -12702 
  -12629   -12604   -12602   -12614   -12637   -12672   -12744   -12860 
  -13011   -13184   -13365   -13529   -13667   -13783   -13882   -13971 
  -14050   -14118   -14170   -14200   -14200   -14166   -14100   -14008 
  -13905   -13799   -13701   -13620   -13555   -13491   -13435   -13390 
  -13355   -13339   -13354   -13392   -13448   -13517   -13568   -13591 
  -13597   -13586   -13593   -13640   -13697   -13748   -13774   -13751 
  -13691   -13621   -13562   -13524   -13505   -13479   -13427   -13344 
  -13244   -13150   -13090   -13085   -13108   -13126   -13149   -13178 
  -13213   -13294   -13433   -13595   -13764   -13934   -14087   -14216 
  -14342   -14449   -14515   -14546   -14523   -14435   -14312   -14189 
  -14088   -14008   -13944   -13871   -13763   -13621   -13459   -13304 
  -13176   -13078   -13018   -12988   -12962   -12918   -12847   -12765 
  -12704   -12672   -12646   -12633   -12648   -12691   -12772   -12888 
  -13009   -13122   -13221   -13296   -13350   -13419   -13516   -13618 
  -13703   -13756   -13759   -13716   -13655   -13608   -13567   -13531 
  -13509   -13500   -13493   -13504   -13539   -13582   -13620   -13653 
  -13689   -13716   -13732   -13740   -13740   -13747   -13768   -13797 
  -13826   -13849   -13852   -13833   -13801   -13765   -13738   -13725 
  -13710   -13687   -13666   -13655   -13648   -13644   -13649   -13664 
  -13680   -13694   -13703   -13711   -13733   -13782   -13852   -13922 
  -13969   -13983   -13972   -13948   -13907   -13846   -13771   -13691 
  -13618   -13559   -13504   -13419   -13296   -13150   -13008   -12892 
  -12816   -12789   -12791   -12808   -12842   -12899   -12974   -13065 
  -13178   -13311   -13435   -13540   -13639   -13722   -13770   -13799 
  -13830   -13842   -13829   -13806   -13776   -13741   -13689   -13612 
  -13512   -13394   -13275   -13153   -13035   -12947   -12885   -12837 
  -12808   -12802   -12826   -12884   -12958   -13045   -13153   -13277 
  -13396   -13505   -13608   -13693   -13753   -13802   -13855   -13894 
  -13915   -13923   -13906   -13859   -13782   -13679   -13571   -13474 
  -13400   -13348   -13312   -13292   -13281   -13269   -13259   -13273 
  -13329   -13425   -13532   -13625   -13709   -13771   -13802   -13822 
  -13836   -13841   -13838   -13830   -13819   -13802   -13765   -13705 
  -13625   -13532   -13428   -13327   -13266   -13248   -13248   -13242 
  -13225   -13203   -13173   -13169   -13224   -13317   -13412   -13497 
  -13563   -13603   -13647   -13733   -13846   -13954   -14042   -14100 
  -14133   -14150   -14164   -14176   -14179   -14169   -14141   -14088 
  -14007   -13900   -13771   -13620   -13458   -13296   -13154   -13054 
  -12993   -12958   -12953   -12968   -12988   -13022   -13073   -13147 
  -13242   -13346   -13451   -13544   -13602   -13640   -13679   -13713 
  -13743   -13774   -13803   -13821   -13822   -13807   -13772   -13713 
  -13643   -13581   -13541   -13532   -13545   -13578   -13622   -13664 
  -13703   -13734   -13747   -13745   -13745   -13747   -13743   -13724 
  -13697   -13664   -13610   -13537   -13458   -13375   -13301   -13239 
  -13201   -13197   -13219   -13266   -13331   -13402   -13489   -13583 
  -13689   -13832   -14002   -14160   -14293   -14386   -14420   -14401 
  -14349   -14274   -14193   -14100   -13980   -13830   -13644   -13432 
  -13228   -13047   -12896   -12785   -12737   -12739   -12779   -12843 
  -12927   -13023   -13115   -13184   -13234   -13290   -13363   -13435 
  -13506   -13585   -13640   -13656   -13651   -13637   -13613   -13587 
  -13579   -13581   -13578   -13567   -13548   -13536   -13539   -13558 
  -13574   -13572   -13555   -13529   -13506   -13508   -13535   -13578 
  -13622   -13660   -13683   -13702   -13729   -13768   -13819   -13865 
  -13884   -13871   -13834   -13786   -13720   -13628   -13528   -13443 
  -13370   -13308   -13258   -13213   -13149   -13043   -12912   -12783 
  -12679   -12619   -12603   -12592   -12564   -12528   -12494   -12495 
  -12560   -12683   -12841   -13015   -13190   -13350   -13481   -13593 
  -13699   -13807   -13907   -13984   -14033   -14057   -14080   -14111 
  -14125   -14110   -14062   -13983   -13890   -13807   -13749   -13717 
  -13694   -13680   -13667   -13643   -13614   -13579   -13537   -13504 
  -13485   -13490   -13516   -13555   -13603   -13659   -13706   -13749 
  -13787   -13807   -13811   -13802   -13790   -13787   -13798   -13817 
  -13815   -13774   -13702   -13625   -13563   -13532   -13537   -13560 
  -13583   -13598   -13598   -13593   -13597   -13614   -13660   -13736 
  -13815   -13868   -13879   -13845   -13790   -13736   -13675   -13605 
  -13551   -13510   -13478   -13448   -13420   -13401   -13390   -13390 
  -13400   -13416   -13447   -13464   -13444   -13397   -13311   -13209 
  -13131   -13078   -13050   -13035   -13016   -12987   -12945   -12916 
  -12926   -12973   -13057   -13180   -13308   -13409   -13485   -13540 
  -13601   -13693   -13802   -13910   -14003   -14056   -14080   -14091 
  -14089   -14077   -14064   -14034   -13979   -13910   -13840   -13775 
  -13714   -13649   -13576   -13491   -13390   -13282   -13192   -13147 
  -13153   -13181   -13203   -13201   -13184   -13166   -13157   -13166 
  -13208   -13259   -13304   -13333   -13340   -13335   -13327   -13333 
  -13385   -13467   -13540   -13603   -13663   -13707   -13732   -13745 
  -13749   -13744   -13732   -13703   -13657   -13593   -13512   -13424 
  -13347   -13288   -13234   -13167   -13103   -13057   -13011   -12961 
  -12945   -12969   -12999   -13035   -13099   -13177   -13255   -13323 
  -13393   -13495   -13612   -13720   -13828   -13922   -13964   -13957 
  -13925   -13872   -13819   -13791   -13792   -13810   -13825   -13821 
  -13794   -13748   -13701   -13662   -13630   -13601   -13563   -13497 
  -13400   -13289   -13169   -13054   -12982   -12960   -12984   -13051 
  -13123   -13178   -13240   -13315   -13397   -13486   -13585   -13694 
  -13792   -13857   -13890   -13891   -13861   -13822   -13775   -13703 
  -13621   -13539   -13452   -13354   -13247   -13151   -13085   -13053 
  -13066   -13132   -13225   -13325   -13439   -13564   -13706   -13875 
  -14052   -14222   -14366   -14451   -14472   -14446   -14384   -14307 
  -14238   -14176   -14098   -14002   -13895   -13786   -13699   -13644 
  -13620   -13618   -13628   -13639   -13649   -13672   -13714   -13783 
  -13882   -13987   -14077   -14145   -14185   -14195   -14175   -14126 
  -14042   -13923   -13784   -13632   -13482   -13352   -13257   -13197 
  -13163   -13149   -13154   -13169   -13188   -13208   -13228   -13244 
  -13252   -13247   -13236   -13219   -13177   -13127   -13082   -13019 
  -12946   -12893   -12858   -12847   -12868   -12922   -13005   -13101 
  -13215   -13338   -13450   -13536   -13589   -13610   -13597   -13551 
  -13494   -13424   -13335   -13204   -13024   -12827   -12637   -12451 
  -12299   -12224   -12228   -12303   -12448   -12637   -12860   -13100 
  -13343   -13591   -13834   -14060   -14265   -14424   -14508   -14515 
  -14465   -14361   -14212   -14029   -13818   -13591   -13355   -13131 
  -12947   -12812   -12733   -12733   -12807   -12930   -13093   -13300 
  -13545   -13833   -14152   -14470   -14764   -15024   -15230   -15371 
  -15446   -15452   -15373   -15222   -15017   -14760   -14467   -14160 
  -13855   -13574   -13340   -13174   -13093   -13092   -13153   -13257 
  -13381   -13508   -13633   -13760   -13899   -14035   -14141   -14212 
  -14233   -14184   -14095   -13977   -13824   -13655   -13486   -13323 
  -13171   -13059   -13000   -12965   -12939   -12915   -12866   -12795 
  -12725   -12661   -12614   -12592   -12577   -12549   -12522   -12510 
  -12530   -12603   -12729   -12884   -13036   -13163   -13267   -13366 
  -13475   -13601   -13747   -13896   -14008   -14064   -14071   -14046 
  -14007   -13954   -13898   -13833   -13749   -13653   -13555   -13462 
  -13382   -13319   -13271   -13248   -13239   -13243   -13274   -13328 
  -13383   -13429   -13475   -13524   -13567   -13612   -13660   -13698 
  -13720   -13717   -13683   -13643   -13616   -13603   -13597   -13575 
  -13527   -13443   -13343   -13254   -13176   -13117   -13088   -13088 
  -13120   -13176   -13262   -13378   -13517   -13691   -13869   -14011 
  -14125   -14196   -14203   -14168   -14102   -13995   -13860   -13703 
  -13535   -13366   -13204   -13065   -12977   -12947   -12965   -13005 
  -13076   -13177   -13292   -13416   -13549   -13686   -13815   -13918 
  -13987   -14023   -14030   -14025   -14023   -14026   -14035   -14049 
  -14053   -14046   -14050   -14071   -14092   -14111   -14133   -14164 
  -14192   -14208   -14206   -14160   -14057   -13894   -13679   -13440 
  -13194   -12955   -12729   -12523   -12357   -12243   -12177   -12160 
  -12189   -12239   -12320   -12456   -12653   -12900   -13166   -13421 
  -13651   -13842   -14018   -14189   -14346   -14463   -14499   -14432 
  -14276   -14050   -13799   -13564   -13362   -13192   -13050   -12934 
  -12845   -12773   -12714   -12664   -12641   -12658   -12718   -12815 
  -12933   -13041   -13116   -13169   -13209   -13239   -13274   -13313 
  -13350   -13362   -13329   -13282   -13243   -13219   -13219   -13246 
  -13292   -13355   -13423   -13485   -13564   -13653   -13721   -13772 
  -13810   -13824   -13824   -13805   -13753   -13690   -13643   -13605 
  -13572   -13548   -13529   -13521   -13524   -13535   -13571   -13649 
  -13760   -13886   -14017   -14153   -14301   -14451   -14594   -14701 
  -14766   -14783   -14747   -14661   -14543   -14399   -14237   -14080 
  -13942   -13817   -13714   -13651   -13621   -13609   -13590   -13548 
  -13486   -13412   -13342   -13288   -13254   -13239   -13247   -13263 
  -13258   -13224   -13149   -13027   -12911   -12830   -12764   -12726 
  -12730   -12750   -12776   -12831   -12927   -13047   -13190   -13346 
  -13460   -13502   -13501   -13477   -13440   -13437   -13477   -13536 
  -13618   -13721   -13836   -13954   -14068   -14176   -14265   -14332 
  -14386   -14405   -14384   -14327   -14237   -14108   -13948   -13775 
  -13603   -13463   -13370   -13309   -13275   -13265   -13252   -13238 
  -13239   -13265   -13304   -13362   -13444   -13547   -13660   -13771 
  -13884   -13988   -14052   -14071   -14041   -13954   -13824   -13672 
  -13531   -13417   -13336   -13293   -13298   -13335   -13382   -13456 
  -13560   -13663   -13753   -13830   -13868   -13853   -13815   -13779 
  -13771   -13806   -13849   -13859   -13818   -13732   -13639   -13586 
  -13589   -13625   -13652   -13637   -13575   -13479   -13375   -13305 
  -13277   -13244   -13197   -13166   -13126   -13051   -12970   -12895 
  -12808   -12714   -12617   -12498   -12379   -12301   -12278   -12324 
  -12444   -12615   -12808   -12996   -13167   -13311   -13419   -13510 
  -13599   -13687   -13780   -13867   -13917   -13925   -13899   -13853 
  -13810   -13782   -13765   -13748   -13709   -13639   -13545   -13455 
  -13390   -13363   -13383   -13448   -13547   -13684   -13837   -13960 
  -14044   -14077   -14064   -14033   -14033   -14088   -14184   -14293 
  -14384   -14426   -14418   -14372   -14291   -14187   -14068   -13923 
  -13743   -13525   -13262   -12966   -12671   -12421   -12249   -12163 
  -12160   -12217   -12302   -12411   -12538   -12676   -12822   -12972 
  -13120   -13265   -13409   -13544   -13662   -13761   -13841   -13902 
  -13940   -13938   -13894   -13815   -13729   -13671   -13668   -13730 
  -13853   -14018   -14176   -14278   -14318   -14311   -14293   -14287 
  -14293   -14304   -14293   -14230   -14098   -13905   -13672   -13420 
  -13159   -12914   -12710   -12567   -12471   -12422   -12432   -12492 
  -12592   -12731   -12901   -13095   -13309   -13535   -13755   -13964 
  -14158   -14308   -14384   -14382   -14311   -14196   -14085   -13991 
  -13895   -13807   -13724   -13641   -13597   -13599   -13624   -13660 
  -13706   -13755   -13798   -13830   -13841   -13807   -13733   -13622 
  -13483   -13335   -13193   -13063   -12945   -12822   -12684   -12544 
  -12428   -12348   -12328   -12386   -12511   -12675   -12854   -13039 
  -13216   -13366   -13498   -13622   -13730   -13822   -13898   -13950 
  -13964   -13933   -13856   -13736   -13593   -13447   -13319   -13232 
  -13197   -13197   -13221   -13261   -13294   -13327   -13389   -13486 
  -13616   -13783   -13963   -14138   -14304   -14440   -14530   -14584 
  -14596   -14563   -14516   -14466   -14412   -14368   -14330   -14291 
  -14239   -14160   -14053   -13937   -13842   -13790   -13768   -13755 
  -13732   -13687   -13620   -13548   -13482   -13416   -13352   -13274 
  -13159   -13024   -12901   -12806   -12744   -12729   -12758   -12803 
  -12829   -12816   -12802   -12798   -12796   -12830   -12918   -13035 
  -13176   -13332   -13489   -13641   -13805   -13969   -14107   -14214 
  -14268   -14241   -14154   -14027   -13857   -13674   -13504   -13352 
  -13238   -13171   -13138   -13128   -13123   -13105   -13081   -13045 
  -13005   -12999   -13012   -13035   -13072   -13108   -13127   -13128 
  -13116   -13084   -13046   -13014   -12972   -12919   -12880   -12884 
