Origin Time       2024/04/02 04:24:00
Lat.              40.133
Long.             141.712
Depth. (km)       71
Mag.              6.0
Station Code      FKS009
Station Lat.      37.2796
Station Long.     140.6344
Station Height(m) 430
Record Time       2024/04/02 04:25:57
Sampling Freq(Hz) 100Hz
Duration Time(s)  68
Dir.              N-S
Scale Factor      7845(gal)/8223790
Max. Acc. (gal)   5.448
Last Correction   2024/04/02 04:25:57
Memo.             
[...]
   -3188    -3227    -3226    -3049    -3110    -3534    -3667    -3103 
   -3078    -4175    -4230    -3057    -3172    -3969    -3732    -3638 
   -4014    -3593    -2970    -3177    -3439    -3194    -3223    -3622 
   -3863    -4176    -4225    -3592    -3137    -3025    -2868    -2920 
   -2924    -3044    -3878    -4476    -4257    -4114    -3807    -3041 
   -2937    -3172    -2889    -3198    -4020    -3983    -3747    -3901 
   -3850    -3784    -3619    -2921    -2565    -3021    -3100    -2712 
   -3024    -3730    -4090    -4047    -3538    -3187    -3372    -3429 
   -3163    -2963    -3202    -3734    -3662    -2991    -2812    -3068 
   -3141    -3133    -3046    -3389    -4388    -4789    -4275    -3774 
   -3443    -2926    -2424    -2457    -2953    -3611    -4314    -4611 
   -4239    -3473    -2801    -2650    -2675    -2663    -3235    -4033 
   -4018    -3566    -3408    -3115    -2710    -2805    -2955    -2943 
   -3385    -4102    -4348    -4109    -4055    -4085    -3553    -3211 
   -3547    -3310    -2673    -3073    -3802    -3761    -3684    -3913 
   -3828    -3534    -3295    -2821    -2392    -2532    -2809    -2949 
   -3402    -3970    -4110    -3929    -3639    -3396    -3350    -3338 
   -3545    -4144    -4125    -3333    -3362    -3700    -2791    -2296 
   -3299    -3848    -3582    -3852    -4190    -3489    -2647    -2752 
   -3001    -3086    -3588    -3794    -3545    -3688    -3792    -3384 
   -2914    -2851    -3562    -4274    -4018    -3780    -3875    -3235 
   -2718    -3177    -3418    -3218    -3326    -3564    -3519    -3379 
   -3670    -4014    -3673    -3546    -4229    -4133    -2897    -2640 
   -3547    -3450    -2552    -2857    -3790    -3937    -4163    -4506 
   -3919    -3343    -3277    -3032    -2916    -3013    -3041    -3067 
   -3122    -3357    -3380    -3109    -3670    -4554    -4299    -3881 
   -4060    -3732    -2911    -2566    -2741    -3225    -4104    -4679 
   -4399    -4191    -4089    -3092    -2176    -2612    -3435    -3555 
   -3450    -3851    -4205    -3724    -3013    -2675    -2492    -2550 
   -3105    -3844    -3900    -3407    -3450    -3609    -3254    -3088 
   -3285    -3522    -3574    -3283    -3105    -3326    -3453    -3316 
   -3404    -3624    -3456    -3366    -3635    -3534    -3388    -3658 
   -3480    -3134    -3287    -2864    -2282    -2905    -3445    -3292 
   -3653    -4040    -3798    -3519    -3288    -3146    -3379    -3511 
   -3348    -3511    -3970    -4185    -4074    -3647    -3214    -3396 
   -3662    -3249    -3082    -3724    -4033    -3615    -3186    -2999 
   -2924    -2972    -3307    -3500    -3478    -4044    -4450    -3994 
   -3744    -3711    -3561    -3612    -3406    -3103    -3331    -3657 
   -3767    -3697    -3308    -2889    -2882    -3133    -3235    -3456 
   -4009    -4171    -3775    -3250    -2664    -2457    -2578    -2644 
   -3190    -4005    -4287    -4193    -3964    -3520    -2940    -2778 
   -3264    -3462    -3354    -3805    -4168    -3935    -3819    -3775 
   -3341    -2936    -3076    -3105    -2604    -2921    -4120    -4290 
   -3569    -3337    -3456    -3557    -3727    -3643    -2987    -2407 
   -2698    -3215    -3196    -3311    -3829    -4054    -3970    -4009 
   -3959    -3176    -2062    -1975    -2632    -2817    -3056    -3905 
   -4394    -4336    -4720    -5319    -4815    -3596    -3219    -2975 
   -1848    -1414    -2182    -2955    -4054    -5408    -5503    -4587 
   -4174    -3969    -2983    -2081    -2328    -2974    -2926    -2552 
   -2843    -3271    -3036    -3073    -3661    -3898    -3944    -4232 
   -4317    -3879    -3690    -3973    -3554    -2756    -2663    -2802 
   -3198    -3726    -3285    -2733    -2862    -2620    -2358    -2756 
   -3314    -4187    -5016    -5077    -5212    -5498    -4625    -3175 
   -2579    -1794     -162       17    -1962    -3991    -5175    -5991 
   -6404    -6145    -5233    -3897    -2531    -1287     -430     -897 
   -2439    -3906    -5559    -7164    -7611    -7191    -6043    -3770 
   -1618     -638       85      778      479     -477    -1422    -2963 
   -5112    -6600    -6870    -6525    -5845    -4789    -3842    -3013 
   -1732     -747    -1171    -2182    -2755    -3144    -3175    -2745 
   -2845    -3854    -5067    -5643    -5346    -4409    -2802    -1031 
     -93     -182    -1066    -2716    -4567    -5613    -6064    -6137 
   -4741    -3048    -3294    -3865    -3238    -2955    -2963    -2222 
   -1718    -1814    -1917    -2427    -3217    -3982    -5065    -6218 
   -7234    -7229    -5695    -4363    -3469    -2118     -928      355 
    1638      837    -1896    -4075    -5873    -8129    -8992    -8186 
   -6725    -3673      -24     1625     1314       49    -1904    -4067 
   -5418    -5852    -6184    -5661    -4035    -2957    -2496    -1976 
   -1433     -972    -1497    -2839    -3712    -4203    -4450    -4556 
   -5250    -5540    -4287    -3215    -3483    -3790    -3500    -3107 
   -3149    -3696    -4051    -3649    -2417     -959     -232     -683 
   -2226    -3770    -4549    -5728    -7101    -6756    -5135    -3636 
   -2423    -1499    -1239    -2187    -3273    -3337    -4143    -6061 
   -6671    -5773    -4334    -2582    -1575     -957      378      454 
   -1696    -3704    -4812    -5664    -5961    -5829    -5155    -3555 
   -2208    -2092    -2336    -2242    -2739    -4428    -5660    -5428 
   -4947    -4213    -2616    -1413    -1327    -2123    -3720    -5017 
   -5509    -5769    -5444    -4405    -3067    -1826    -1215    -1038 
   -1286    -2101    -2864    -3770    -5393    -6844    -6593    -4504 
   -2532    -2052    -1991    -1734    -1811    -1760    -2054    -4005 
   -6000    -5405    -3090    -1999    -2431    -2698    -3044    -4118 
   -4866    -4953    -4936    -4180    -2465     -950       37      157 
   -1499    -4014    -6038    -7334    -7295    -5602    -2991     -685 
      99     -514    -1894    -4050    -5941    -6178    -4973    -3790 
   -4047    -4657    -3674    -2043    -1020     -502    -1017    -3053 
   -5732    -7219    -7029    -6023    -3893    -1009      396      -60 
   -1053    -2592    -4658    -6338    -7219    -6525    -3994    -1271 
      75       39     -198     -723    -3015    -6142    -7746    -7705 
   -7064    -5775    -3480     -988      403      338     -774    -2658 
   -4552    -5988    -7528    -7769    -5487    -3181    -1733       67 
     730     -607    -2677    -4989    -6859    -7264    -5891    -3670 
   -2336    -1634    -1017    -1553    -2698    -3349    -3852    -4230 
   -4496    -4618    -4440    -4633    -4780    -3905    -2812    -2392 
   -3019    -4355    -4494    -3522    -3528    -3978    -3342    -2115 
   -1594    -1857    -1948    -2853    -5092    -5822    -4837    -3947 
   -2513    -1466    -1939    -2236    -2363    -3653    -5217    -5725 
   -5636    -5408    -3931    -1767    -1687    -3285    -3269    -1556 
   -1294    -2727    -3099    -2913    -4234    -5823    -5952    -4676 
   -2984    -1938    -1622    -1688    -1952    -2636    -4148    -5717 
   -6131    -5493    -4955    -5035    -4521    -2424     -255     -211 
   -2350    -4469    -4808    -4261    -4093    -3815    -3360    -3007 
   -2034    -1121    -1185    -1174    -1534    -3240    -4982    -6261 
   -7323    -7292    -5752    -3249    -1516    -1695    -1952    -1514 
   -1753    -2454    -3639    -5595    -6254    -4793    -3424    -3334 
   -3202    -2200    -1800    -2342    -1921    -1696    -3442    -4533 
   -4472    -4869    -3649    -1583    -2497    -4506    -4324    -3480 
   -3458    -3049    -2598    -3445    -4043    -3640    -3863    -4240 
   -4031    -4050    -4066    -3649    -3457    -3840    -3802    -3099 
   -3369    -4428    -4394    -3758    -3586    -2911    -1394     -353 
    -911    -2910    -4349    -4486    -5362    -6704    -6447    -5255 
   -4257    -3106    -1625     -541     -481     -614     -718    -2236 
   -4758    -6291    -6274    -5471    -4741    -3199       33     1995 
     471    -2173    -3998    -5067    -5652    -6354    -6617    -5633 
   -4591    -4058    -3739    -4041    -3708    -2235    -1730    -1985 
   -1753    -2195    -3604    -4163    -3566    -3260    -2983    -2245 
   -2772    -4764    -5729    -5116    -4519    -3924    -2905    -2370 
   -2259    -1911    -2151    -3478    -4455    -4834    -5881    -5891 
   -3140     -723     -954    -1892    -2520    -3690    -5189    -6349 
   -6700    -5648    -3245     -151     2216     2103     -112    -2582 
   -4903    -7059    -7970    -6982    -5008    -3441    -2392    -1204 
    -288     -904    -2979    -4938    -6346    -7523    -7707    -6450 
   -4147    -1756     -534     -163       12    -1393    -4604    -6196 
   -4733    -3748    -4095    -3319    -2751    -3146    -2624    -2536 
   -3844    -4777    -4907    -4806    -4618    -4068    -2990    -1448 
    -321    -1093    -2744    -3680    -4322    -4325    -3690    -3678 
   -3713    -3172    -3003    -2894    -2355    -2574    -3424    -3150 
   -2254    -2639    -3562    -3704    -4158    -4919    -4388    -3415 
   -3184    -3095    -3304    -3684    -3234    -2639    -2875    -2895 
   -2246    -2349    -3150    -4086    -5306    -5487    -4760    -4757 
   -4441    -3279    -3037    -3115    -1583     -313    -1594    -3642 
   -5300    -6828    -6276    -4117    -3245    -2457    -1096    -1464 
   -1895     -841    -1494    -4029    -5242    -5144    -5136    -5347 
   -5921    -5748    -3686    -1837    -1811    -2157    -1740    -1468 
   -2656    -4002    -4110    -4515    -5297    -5062    -4387    -4380 
   -4834    -4342    -2702    -1269     -743    -1123    -2077    -3599 
   -4733    -4419    -5206    -6774    -4637    -1248    -1182    -2033 
   -1860    -2721    -4958    -6498    -6282    -5092    -3913    -2937 
   -2069    -1588    -1364    -1368    -2941    -5228    -5289    -4349 
   -4680    -4432    -3142    -2905    -2971    -2182    -2077    -3356 
   -4313    -3727    -3724    -5265    -4556    -2180    -2328    -2566 
   -1440    -2604    -4465    -4072    -3744    -4348    -4499    -3759 
   -2039    -1069    -1750    -2447    -3098    -4430    -5977    -6932 
   -6512    -4951    -3107    -1308      400     1309      243    -1829 
   -3296    -5131    -7338    -7812    -6061    -3277    -1306    -1262 
   -2076    -2829    -3935    -5108    -5445    -5088    -4336    -2508 
    -630    -1243    -2884    -2586    -1768    -2378    -3861    -5229 
   -5432    -4576    -4338    -4598    -3132     -847     -669    -1447 
   -2168    -4777    -7800    -7977    -5649    -3190    -2157    -2238 
   -2297    -1861    -1638    -2882    -4421    -3874    -2284    -1938 
   -2570    -2874    -2961    -3862    -4993    -5805    -7325    -8295 
   -6408    -2674       13      103    -1017    -1466    -2249    -4309 
   -5898    -5757    -4355    -3191    -3126    -2840    -2677    -3484 
   -3636    -3481    -3904    -4108    -4193    -3576    -2060    -1354 
   -1830    -2851    -3981    -4600    -5336    -6262    -5227    -2817 
   -1786    -1294     -556    -1532    -3781    -5402    -6458    -7180 
   -7009    -5270    -2986    -1985     -831      909      222    -2277 
   -3824    -4545    -4923    -4617    -3852    -3562    -3545    -2336 
   -1038    -1952    -4032    -4834    -3960    -2910    -2552    -2227 
   -1767    -1590    -2376    -4415    -6231    -7225    -8091    -7842 
   -5406    -1840      568     1020      827     -152    -2787    -5540 
   -7281    -8328    -7877    -5972    -4193    -2396     -442      -83 
   -1098    -1379    -1757    -3785    -5312    -4866    -4104    -3319 
   -2212    -2052    -3041    -4168    -4861    -4509    -3287    -2504 
   -1899     -469      440     -796    -3215    -4662    -5374    -6601 
   -6582    -5304    -5383    -4900    -2369    -1040    -1296    -1136 
    -988    -1552    -2461    -3738    -5327    -5794    -4799    -4413 
   -4920    -4197    -2462    -1875    -2431    -3210    -3785    -3693 
   -3828    -4870    -5776    -5270    -2999    -1318    -2477    -4314 
   -4306    -3983    -5325    -6465    -5435    -3673    -2216    -1393 
   -1744    -1890    -2135    -4048    -5333    -5044    -5510    -6019 
   -4797    -2791    -1251     -661     -931    -1485    -2736    -4611 
   -5277    -4320    -3088    -2484    -2890    -3600    -3473    -3214 
   -3566    -3272    -2261    -1836    -1414    -1158    -2585    -4299 
   -4619    -4675    -5080    -5177    -4729    -3682    -2565    -2551 
   -3365    -3601    -3663    -3969    -3119    -1765    -1925    -2763 
   -2872    -3214    -4639    -5510    -4423    -2783    -2137    -2196 
   -2479    -3037    -4213    -6027    -6424    -3859    -1165    -1144 
   -2361    -2532    -2155    -3422    -5854    -6624    -5296    -3198 
   -1636    -1710    -1945    -1687    -3604    -6477    -6358    -4525 
   -3923    -3585    -2035     -969    -2089    -3705    -3717    -2740 
   -2300    -2775    -3593    -3916    -3570    -3431    -4230    -5494 
   -5915    -5336    -4309    -2558    -1223    -1088    -1102    -2093 
   -3862    -4669    -5537    -6305    -5749    -5292    -4761    -3086 
   -2185    -2492    -1692       28      425    -1304    -4206    -6065 
   -5728    -4819    -4480    -3667    -2096     -673     -167    -1644 
   -4637    -6561    -6359    -5131    -4365    -4617    -4195    -2258 
    -476      248    -1201    -5227    -8108    -7747    -6455    -5069 
   -2536      607     2269      945    -1908    -3628    -4581    -6174 
   -7641    -7788    -6118    -3402    -1810    -1586     -862       -8 
   -1151    -3727    -5412    -6110    -6261    -4635    -2357    -2386 
   -3635    -3549    -2539    -1881    -1991    -1988    -1861    -3361 
   -5084    -4808    -4482    -5378    -5665    -4423    -2835    -1985 
   -1505     -761     -274     -992    -2810    -4525    -5464    -6312 
   -6748    -5371    -2716      -66     1560      828    -1588    -4194 
   -5941    -5645    -5154    -5944    -5281    -2781    -1007     -904 
   -2627    -4847    -5417    -5024    -4822    -4356    -3546    -2354 
   -1282    -1242    -2046    -3180    -3674    -3908    -5266    -6293 
   -6177    -5900    -5028    -4025    -3177    -1721     -858    -1209 
   -2290    -4198    -5271    -4220    -3002    -3001    -2817    -1873 
   -1622    -2168    -2953    -4320    -5065    -4249    -3380    -3045 
   -2835    -3059    -3057    -2982    -4460    -5945    -5088    -3693 
   -3643    -3399    -2417    -2629    -3377    -2708    -1840    -1814 
   -1961    -2506    -3466    -3925    -4008    -4579    -4853    -4009 
   -3460    -3769    -3792    -3264    -2906    -3357    -3727    -2617 
   -1912    -3519    -4294    -2844    -2432    -2840    -2589    -3393 
   -4895    -5543    -5903    -5961    -4885    -2961    -1719    -1910 
   -2023    -1563    -2191    -3497    -4037    -4671    -5451    -4928 
   -3769    -3785    -4363    -3416    -2015    -2354    -2940    -2851 
   -3379    -3843    -3858    -4387    -4761    -4252    -3298    -2458 
   -2439    -3254    -4021    -4309    -4477    -4791    -4901    -4490 
   -3585    -2417    -1478    -1296    -1976    -3113    -4395    -5108 
   -4841    -4756    -4399    -2498    -1372    -2803    -4430    -4299 
   -3659    -4023    -4224    -3049    -2115    -2543    -3199    -3572 
   -3979    -3780    -2479    -1233     -911    -1112    -2222    -4294 
   -5020    -3993    -4263    -5302    -4050    -2300    -2158    -1919 
   -1830    -3790    -5707    -4808    -3268    -3673    -4635    -4067 
   -2079    -1142    -2566    -3958    -3604    -2951    -2833    -2519 
   -2596    -3352    -3809    -4336    -4903    -4923    -4774    -4264 
   -3738    -3831    -3905    -3839    -3473    -2043     -772    -1416 
   -2779    -3204    -3508    -4170    -4112    -3703    -3785    -3365 
   -2477    -2478    -2875    -2840    -2758    -2844    -3510    -4588 
   -4409    -3437    -3858    -4758    -4698    -4698    -5038    -4909 
   -4213    -3167    -1927    -1088    -1221    -1414    -1267    -2398 
   -4446    -5390    -5339    -4881    -4278    -4078    -3592    -2469 
   -2161    -2988    -3743    -4722    -6467    -6875    -4853    -3046 
   -2481    -1607    -1026    -1471    -2119    -3230    -4538    -4738 
   -4194    -4237    -4741    -4684    -5020    -6237    -5586    -2920 
   -1129     -600     -850    -2008    -3091    -3481    -4098    -4618 
   -3315    -1718    -2366    -3557    -3908    -4575    -4764    -3767 
   -3071    -3065    -2891    -2188    -1568    -2255    -4143    -5417 
   -5228    -4915    -5194    -4870    -3757    -2614    -1632    -1682 
   -2817    -3385    -2681    -1768    -1927    -2558    -2863    -3716 
   -4765    -5312    -5873    -5521    -3917    -3013    -3242    -3503 
   -3257    -2463    -1884    -2118    -2527    -2481    -2274    -2744 
   -3893    -4540    -4614    -4819    -4711    -4172    -3306    -2303 
   -2465    -3294    -3535    -3859    -3744    -2743    -1979    -1304 
   -1294    -3060    -5289    -6539    -6604    -5660    -4310    -2867 
   -1073      336     -128    -2115    -4102    -5158    -4950    -4665 
   -4988    -4207    -2415    -2034    -2921    -3424    -3595    -3434 
   -3312    -4340    -4908    -3638    -2752    -3306    -3967    -4153 
   -4160    -4209    -3568    -2042    -1728    -3017    -3092    -2049 
   -2907    -4760    -4602    -3106    -2235    -2623    -4114    -5170 
   -5036    -4826    -4800    -4676    -4237    -3562    -3767    -4379 
   -4136    -4085    -4406    -3608    -2033    -1202    -1807    -2926 
   -3096    -2976    -3314    -3411    -3770    -4033    -3171    -2901 
   -3500    -3643    -3958    -3802    -2951    -3456    -4688    -5030 
   -4510    -3084    -1846    -1433     -866     -874    -1938    -2539 
   -2749    -3267    -3407    -3264    -3281    -3372    -3746    -4128 
   -4229    -4328    -4207    -3738    -3361    -3433    -3751    -4074 
   -4737    -4908    -3630    -2540    -2720    -2662    -1753    -1517 
   -2454    -3372    -4256    -4941    -4486    -4149    -4606    -4248 
   -3322    -3057    -2983    -2691    -2708    -3334    -3929    -4048 
   -4417    -4773    -4078    -2853    -2047    -1881    -2047    -2269 
   -2732    -3099    -3214    -3423    -3443    -3588    -4160    -4600 
   -5371    -6550    -6552    -4810    -2693    -1703    -2016    -2575 
   -2654    -3222    -4703    -5140    -4063    -3406    -3523    -3360 
   -2604    -1814    -1953    -2975    -3775    -4075    -4220    -4264 
   -4282    -4175    -3963    -4108    -4286    -3639    -2629    -2023 
   -1942    -2531    -2863    -2515    -3289    -5308    -6010    -4785 
   -3888    -3796    -2643     -703       18    -1092    -2857    -3901 
   -4421    -4576    -4060    -3281    -2295    -1937    -2579    -2620 
   -2678    -3302    -2810    -2542    -3850    -4459    -3387    -2134 
   -1845    -2500    -3487    -4004    -3808    -3738    -3885    -3473 
   -2778    -2637    -3356    -4133    -3896    -3310    -3296    -3242 
   -3006    -3523    -4536    -4550    -3816    -4133    -4826    -4020 
   -2898    -2920    -3146    -3285    -3936    -4548    -4465    -4074 
   -3711    -3019    -2193    -1968    -2505    -3728    -5028    -5351 
   -4851    -4491    -4260    -3546    -2762    -2604    -3019    -3897 
