Origin Time       2024/04/02 04:24:00
Lat.              40.133
Long.             141.712
Depth. (km)       71
Mag.              6.0
Station Code      FKS006
Station Lat.      37.5022
Station Long.     140.7593
Station Height(m) 471
Record Time       2024/04/02 04:25:50
Sampling Freq(Hz) 100Hz
Duration Time(s)  73
Dir.              U-D
Scale Factor      7845(gal)/8223790
Max. Acc. (gal)   3.431
Last Correction   2024/04/02 04:25:50
Memo.             
[...]
   16148    16235    16258    16287    16245    16024    16009    16394 
   16741    16773    16572    16313    16201    16262    16178    15693 
   15333    15705    16411    16788    16707    16329    15963    15823 
   15822    16117    16880    17494    17344    16646    16032    15911 
   16031    16027    15962    15892    15870    16167    16684    16957 
   16946    16752    16341    16039    16028    16008    15796    15695 
   15994    16357    16465    16422    16318    16306    16432    16345 
   15901    15645    15984    16529    16686    16410    16173    16173 
   16276    16464    16424    16059    15969    16178    16050    15776 
   16011    16464    16575    16648    16957    16946    16209    15346 
   15313    15959    16344    16459    16582    16456    16312    16416 
   16424    16245    16204    16303    16359    16482    16621    16524 
   16289    16098    15981    15971    16144    16417    16418    16120 
   15897    15943    16281    16645    16706    16537    16386    16389 
   16286    15925    15800    16077    16387    16580    16641    16505 
   16249    16120    16155    16221    16249    16013    15657    15820 
   16395    16729    16804    16884    16972    17031    16866    16301 
   15705    15400    15292    15607    16355    16664    16318    16175 
   16418    16445    16137    15944    16017    15998    15812    15907 
   16326    16575    16525    16341    16044    15921    16228    16522 
   16347    15952    15793    15966    16282    16472    16488    16411 
   16085    15600    15406    15676    16356    17043    17101    16618 
   16125    15816    15711    15778    15897    16101    16502    16806 
   16598    16028    15591    15456    15431    15550    15973    16418 
   16600    16537    16374    16445    16556    16154    15741    16059 
   16641    16715    16344    15958    15781    15973    16453    16772 
   16884    17077    17046    16563    16258    16383    16371    16209 
   16305    16441    16336    16148    16016    16017    16281    16668 
   16811    16680    16382    15888    15543    15665    15938    16025 
   15961    15908    16012    16183    16186    16083    16087    16141 
   16168    16229    16333    16370    16328    16434    16676    16708 
   16565    16482    16270    15939    15943    16185    16209    16119 
   16237    16514    16800    16931    16530    15867    15784    16150 
   16279    16187    16144    16129    16106    16210    16483    16758 
   16864    16839    16822    16711    16555    16480    16171    15757 
   15731    15805    15712    15826    16254    16605    16588    16303 
   15978    15707    15670    16056    16456    16487    16441    16380 
   16182    16155    16276    16187    16077    16201    16252    16075 
   15942    16083    16378    16443    16297    16156    16020    16113 
   16480    16715    16821    16879    16605    16137    16013    16389 
   16883    17001    16690    16248    15928    15907    16198    16519 
   16559    16231    15735    15539    15903    16383    16594    16767 
   16910    16660    16209    16074    16119    16071    16216    16372 
   15921    15376    15595    16124    16379    16521    16451    16069 
   15724    15583    15736    16129    16302    16259    16453    16772 
   16808    16514    16258    16528    16892    16514    16001    16090 
   16117    15894    16087    16513    16583    16378    16073    15693 
   15650    16154    16633    16727    16606    16202    15685    15520 
   15542    15646    16225    16912    16995    16528    15915    15655 
   15865    15896    15784    16109    16364    16258    16487    16811 
   16544    16167    16179    16272    16355    16621    16684    16178 
   15547    15275    15441    15853    16108    16279    16734    17080 
   16815    16329    16163    16163    16077    16173    16484    16475 
   16038    15703    15826    16197    16452    16507    16530    16684 
   16799    16592    16193    15735    15210    15075    15797    16815 
   17037    16517    16214    16186    16069    16127    16371    16525 
   16626    16583    16418    16560    16833    16615    16240    16306 
   16393    16205    16206    16457    16487    16237    16114    16087 
   15988    16191    16633    16852    16969    16776    15958    15412 
   15712    16024    16110    16492    16700    16326    16186    16654 
   16988    16704    16240    16033    15909    15989    16541    16795 
   16359    16077    15986    15755    16069    16742    16726    16357 
   16437    16521    16039    15465    15345    15489    15630    15869 
   16316    16794    17010    16918    16753    16656    16336    15712 
   15441    15880    16407    16476    16349    16204    16038    16398 
   17111    17004    16205    15774    15655    15531    15716    16056 
   15944    15635    15932    16637    16794    16317    15893    15807 
   16056    16600    16946    16718    16299    16029    15800    15720 
   16059    16609    16941    16965    16777    16549    16521    16399 
   15784    15252    15375    15815    16210    16418    16430    16696 
   17243    17259    16625    16056    15793    15774    16078    16366 
   16216    15880    15803    16071    16330    16340    16394    16420 
   16193    16167    16440    16606    16679    16661    16480    16409 
   16394    16248    16335    16576    16387    15921    15484    15121 
   15327    16086    16671    16929    16900    16610    16443    16237 
   15751    15678    16148    16243    16020    16124    16206    16143 
   16270    16127    15515    15334    16125    17038    17054    16519 
   16214    16015    15715    15627    15823    16039    16240    16536 
   16779    16726    16503    16316    16235    16428    16596    16151 
   15589    15709    15986    15936    16123    16480    16443    16222 
   16092    15943    15857    15966    16306    16613    16394    15886 
   15855    16402    16900    16842    16664    16814    16769    16440 
   16204    15838    15630    16162    16803    16907    16815    16696 
   16642    16924    17184    16974    16336    15471    15007    15272 
   15704    16102    16583    16777    16582    16283    15990    15763 
   15588    15479    15749    16430    16965    16849    16295    15946 
   15942    16048    16245    16453    16614    16687    16295    15712 
   15715    16029    16183    16449    16873    17177    17119    16505 
   15789    15585    15606    15618    16021    16699    17093    16939 
   16376    15963    15940    16047    16256    16511    16572    16587 
   16556    16129    15595    15502    15754    15944    15915    15994 
   16515    17166    17382    16945    16216    15965    16224    16281 
   16135    16060    15912    15984    16486    16731    16363    15942 
   15643    15300    15199    15522    15986    16239    16494    17099 
   17350    16798    16193    15808    15441    15426    15863    16298 
   16595    16761    16541    16218    16374    16799    16926    16572 
   16063    15772    15519    15255    15340    15755    16254    16800 
   17327    17491    17024    16264    15916    16116    16209    15951 
   16092    16703    16837    16448    16121    15958    16016    16121 
   16067    16117    16330    16602    16834    16659    16190    15911 
   15736    15696    16075    16436    16420    16405    16430    16421 
   16590    16711    16514    16066    15510    15360    15772    16193 
   16542    16818    16644    16166    15788    15747    16160    16625 
   16545    16160    16108    16174    16159    16482    16897    16756 
   16201    15861    15912    16096    16339    16490    16202    15761 
   15776    16082    16374    16954    17479    17088    16200    15705 
   15545    15572    16019    16683    16970    16780    16563    16542 
   16498    16229    15800    15422    15448    15993    16668    17095 
   17140    16748    15982    15169    14882    15498    16549    17037 
   16672    15988    15581    15786    16259    16451    16411    16289 
   16168    16376    16783    16667    16047    15774    16052    16263 
   16131    16083    16267    16216    16062    16345    16686    16660 
   16640    16640    16245    15778    15940    16397    16457    16399 
   16491    16475    16393    16449    16648    16775    16483    15885 
   15472    15434    15738    16195    16428    16402    16325    16096 
   15793    15905    16314    16421    16245    16274    16540    16568 
   16310    16151    16013    15921    16101    16170    15966    15900 
   16179    16646    16779    16370    16002    16119    16437    16563 
   16536    16515    16417    16181    16108    16524    16992    16740 
   15997    15589    15514    15539    16002    16694    16914    16721 
   16486    16372    16440    16318    15984    16110    16594    16900 
   17026    16772    16162    15677    15349    15367    15988    16560 
   16703    16695    16236    15311    14872    15307    16267    17313 
   17676    17123    16433    16143    16132    16213    16336    16449 
   16533    16749    16772    15924    15009    15387    16210    16155 
   16048    16613    16929    16506    15796    15219    15033    15403 
   16217    16827    16849    16866    17143    16950    16092    15527 
   15718    16116    16426    16572    16337    15967    15997    16441 
   16853    17014    16891    16470    15969    15634    15674    15873 
   15742    15853    16771    17401    16900    16155    15947    15974 
   16146    16444    16347    16062    16178    16143    15561    15395 
   16069    16667    16822    16902    16773    16237    15724    15892 
   16592    16784    16202    15747    15614    15319    15292    15900 
   16536    16827    16750    16322    15817    15498    15615    16062 
   16239    16141    16283    16652    16992    17068    16713    16410 
   16410    16098    15651    15777    16056    16121    16352    16544 
   16316    16024    16075    16204    16011    15904    16312    16614 
   16510    16710    17022    16722    16397    16328    15832    15344 
   15664    16459    17197    17651    17471    16565    15552    15159 
   15564    16389    16908    16798    16499    16384    16174    15574 
   15132    15645    16756    17301    16935    16209    15512    15120 
   15313    15649    15790    16190    16704    16814    16731    16702 
   16652    16524    16308    16204    16264    16170    15986    16097 
   16335    16356    16117    15612    15272    15569    16071    16347 
   16621    16742    16213    15450    15257    15466    15695    16156 
   16649    16600    16360    16650    17057    16779    16039    15492 
   15429    15915    16605    16938    16931    16703    16027    15245 
   15084    15507    15904    16194    16861    17682    17967    17918 
   17972    17693    16700    15616    14932    14532    14713    15592 
   16447    16862    16964    16708    16117    15769    16289    17400 
   18092    17882    17317    16926    16537    16105    15885    15728 
   15523    15593    16047    16571    16768    16575    16298    16266 
   16548    16668    16326    16087    16123    15830    15379    15422 
   15770    15986    16209    16542    16634    16310    15696    14932 
   14427    14619    15248    15861    16775    17980    18393    17844 
   17027    15834    14685    14667    15294    15418    15271    15607 
   16468    17454    18225    18365    17494    16043    14895    14399 
   14755    15881    16503    16139    16308    17340    17826    17701 
   17621    17150    16318    16102    16438    16406    15917    15561 
   15676    15975    15807    14994    14303    14678    15871    16735 
   16997    17393    18214    18975    19321    19029    17864    16353 
   15210    14370    13922    13996    14081    14170    14773    15581 
   16002    16225    16464    16336    15912    15958    16660    17323 
   17660    17911    17875    17382    16752    16167    15738    15743 
   16110    16544    17032    17494    17645    17170    15963    14891 
   14835    15259    15485    15619    15719    15642    15453    15515 
   16051    16573    16549    16417    16551    16425    16177    16528 
   17172    17375    16784    15529    14640    14796    15125    15103 
   15628    17026    18459    19246    19218    18540    17462    16235 
   15257    14667    14283    14134    14403    14976    15461    15610 
   15552    15511    15388    15268    15655    16418    17042    17455 
   17514    17167    16706    16394    16542    17055    17371    17126 
   16228    15238    14940    15068    15248    15859    16596    16680 
   16459    16546    16677    16575    16497    16659    16742    16417 
   16283    16884    17428    17170    16555    15989    15406    15178 
   15700    16537    16977    16869    16380    15488    14596    14535 
   15246    16012    16663    17296    17905    18657    19462    19677 
   18945    17466    15508    13698    12916    13185    13697    14208 
   15075    15884    16141    16517    17251    17243    16241    15665 
   16143    16602    16470    16390    16775    17373    18076    18871 
   18970    17625    15601    14346    14262    14605    14698    14508 
   14546    15476    16995    18067    18250    17749    16718    15377 
   14694    15331    16229    16285    16222    16814    17227    16992 
   16835    16609    15776    14912    14462    14220    14446    15427 
   16449    16933    17471    18180    18119    17149    16193    15762 
   15882    16656    17748    18411    18264    17180    15284    13409 
   12656    13116    13883    14594    15340    15889    16464    17404 
   18044    17847    17520    17714    17959    17616    16914    16436 
   16117    15587    15188    15566    16302    16443    16044    15715 
   15583    15684    16141    16627    16675    16546    16584    16538 
   16507    16590    16117    14962    14168    14513    15731    17159 
   18297    18625    17706    16229    15626    15746    15498    15152 
   15408    16178    17000    17304    16960    16343    15889    15800 
   15839    15915    16263    16569    16187    15561    15755    16702 
   17496    17498    16767    15982    15352    14783    14909    15601 
   15789    15803    16622    17693    18164    18239    17898    16659 
   15030    14188    14451    15246    16121    16946    17437    17323 
   16814    16325    16119    16356    16796    16767    16182    15970 
   16579    17120    17034    16897    16883    16490    15658    14688 
   13933    13926    14881    16237    17302    17915    17946    17442 
   17053    16762    15898    15014    15161    15726    15419    14617 
   14750    15931    17014    17832    18750    18624    16764    14962 
   14669    15226    16105    17313    18098    17813    16816    15757 
   15045    14744    14816    15277    15631    15427    15390    16224 
   17327    17801    17429    16448    15456    15233    15788    16222 
   16162    16089    16213    16243    16127    16202    16573    16776 
   16352    15395    14499    14118    14278    15074    16285    16989 
   17138    17591    17994    17440    16542    16401    16816    16842 
   16355    16043    16094    16205    16222    15905    15299    15125 
   15647    16155    16052    15514    15192    15541    16418    17475 
   18308    18522    18175    17608    17026    16561    16313    16291 
   16235    15738    15202    15465    16248    16710    16551    15930 
   15519    15705    16271    17134    17741    17393    16649    16193 
   15736    15410    15593    15566    14867    14219    14145    14682 
   15788    17193    18354    18586    17906    17238    16983    16796 
   16487    15904    15022    14596    15325    16529    17293    17622 
   17259    15974    14836    14671    14982    15512    16177    16262 
   15978    16359    17101    17100    16221    15218    14960    15719 
   16700    17010    16864    16895    17022    16999    16956    16957 
   16988    16885    16432    15936    15688    15418    15134    15249 
   15743    16151    16059    15495    15099    15503    16465    17435 
   18187    18354    17932    17464    16885    15857    14779    14234 
   14443    15442    16699    17151    16486    15326    14208    13651 
   14423    16287    17774    18262    18396    18391    18107    17686 
   17109    16507    16198    15952    15610    15472    15541    15758 
   16079    16104    15815    15458    15074    15157    15998    16830 
   17181    17370    17481    17664    18029    17836    16707    15280 
   14346    14445    15036    15277    15415    15545    15564    15975 
   16637    16889    16614    15959    15461    15963    17282    18222 
   18280    17798    17072    16657    16969    17346    17041    16317 
   15477    14357    13509    13765    14781    15665    16132    16232 
   16060    16048    16303    16486    16877    17566    17581    16546 
   15399    14875    14845    15128    15654    16177    16455    16410 
   16335    16325    15853    15219    15446    16340    16996    17262 
   17389    17317    16904    16471    16422    16378    15900    15747 
   16451    17010    16789    16453    16263    15572    14607    14685 
   15525    15531    15120    15635    16645    17151    17035    16946 
   17662    18755    19052    18554    17687    16204    14755    14482 
   14943    15345    15954    16738    16895    16281    15781    15754 
   15649    15457    15601    16013    16665    17393    17586    17447 
   17815    18497    18508    17429    15700    14226    13663    13963 
   14611    15036    15210    15584    16005    16023    16048    16221 
   15939    15736    16357    16992    17211    17636    18133    18060 
   17446    16572    15479    14543    14381    14956    15633    15907 
   15925    16031    16078    16029    16112    16371    16951    17663 
   17712    16999    16433    16560    17100    17652    17709    16868 
   15762    15441    15861    16087    15793    15701    16092    16272 
   15950    15480    15145    14899    14682    15153    16702    18150 
   18345    17568    16806    16740    17231    17531    17107    16132 
   15182    14758    14913    15179    15484    15874    15892    15943 
   16691    17397    17226    16314    15074    13984    13813    15036 
   16924    17963    17606    16803    16370    16174    16096    16218 
   16303    16093    15660    15331    15448    15831    15988    15917 
   16036    16519    16951    17027    17155    17412    17319    16864 
   16366    16089    16222    16376    15998    15691    16237    16887 
   16734    16114    15508    15066    15128    15564    15618    15417 
   15606    15940    16263    16933    17539    17583    17501    17408 
   16779    15867    15462    15403    14998    14532    14912    15971 
   16653    16679    16614    16737    16767    16529    16108    15662 
   15502    15772    16506    17707    18670    18673    18061    17267 
   16267    15329    14806    14585    14485    14689    15303    15979 
   16453    16868    17243    17205    16607    15931    15731    16173 
   17014    17687    17636    16684    15481    15229    16077    16800 
   16706    16320    16077    15704    15169    14937    15145    15638 
   16227    16573    16742    17115    17451    17435    17199    16576 
   15708    15477    16038    16669    16879    16357    15194    14297 
   14465    15556    16822    17566    17703    17741    17972    17979 
