Origin Time       2024/04/02 04:24:00
Lat.              40.133
Long.             141.712
Depth. (km)       71
Mag.              6.0
Station Code      FKS011
Station Lat.      37.0917
Station Long.     140.9031
Station Height(m) 162
Record Time       2024/04/02 04:25:52
Sampling Freq(Hz) 100Hz
Duration Time(s)  83
Dir.              N-S
Scale Factor      7845(gal)/8223790
Max. Acc. (gal)   3.716
Last Correction   2024/04/02 04:25:52
Memo.             
[...]
   85861    86163    86263    86144    85900    85546    85198    84993 
   84952    85143    85604    86136    86421    86508    86548    86354 
   85953    85729    85772    85869    85864    85764    85685    85723 
   85914    86116    86221    86300    86128    85689    85530    85618 
   85665    85903    86154    86020    85692    85267    84777    84663 
   85089    85729    86233    86422    86429    86352    86143    86055 
   86136    85989    85633    85457    85675    86147    86520    86648 
   86567    86273    85932    85858    86073    86374    86729    87066 
   87076    86649    86036    85611    85548    85684    85881    86059 
   86113    86167    86360    86586    86611    86254    85754    85445 
   85280    85278    85495    85739    85915    86009    85915    85648 
   85378    85214    85253    85465    85499    85306    85359    85787 
   86266    86609    86660    86258    85587    85045    84852    84908 
   84985    85039    85164    85423    85784    86105    86235    86097 
   85831    85723    85807    86067    86579    87064    87150    86864 
   86391    85904    85611    85518    85552    85793    86131    86375 
   86599    86771    86742    86449    85963    85675    85791    85900 
   85835    85905    85985    85758    85391    85233    85425    85673 
   85683    85784    86063    86092    85969    86082    86235    86057 
   85650    85309    85193    85383    85784    86206    86458    86329 
   86001    85927    86116    86285    86394    86494    86564    86655 
   86752    86751    86553    86067    85541    85353    85329    85248 
   85376    85799    86196    86255    85912    85375    84883    84632 
   84704    84950    85303    85739    86057    86215    86279    86202 
   86035    85833    85537    85276    85205    85257    85518    86015 
   86387    86400    86182    86031    86039    86051    86103    86190 
   86190    86089    85897    85824    85947    86051    86221    86543 
   86740    86591    86225    85976    85968    86123    86371    86521 
   86468    86348    86151    85861    85650    85617    85819    86109 
   86154    86074    86067    85950    85725    85452    85062    84743 
   84670    84881    85483    86175    86524    86572    86255    85476 
   84744    84523    84769    85294    85807    86058    86177    86329 
   86401    86327    86246    86165    85945    85722    85735    85869 
   86067    86421    86756    86910    86783    86262    85679    85465 
   85568    85761    85923    86017    86028    85881    85572    85338 
   85369    85475    85421    85436    85725    85968    86008    86111 
   86277    86262    85995    85662    85536    85608    85665    85629 
   85595    85607    85527    85415    85594    85972    86161    86123 
   85955    85618    85284    85264    85548    85842    85872    85626 
   85459    85618    85857    85984    86090    86000    85650    85588 
   86053    86601    86892    86898    86540    85816    85171    85058 
   85345    85747    86124    86287    86213    85996    85658    85391 
   85342    85340    85315    85554    86175    86782    87133    87362 
   87376    87014    86448    85947    85619    85487    85572    85777 
   86062    86391    86440    86066    85614    85421    85579    85978 
   86339    86456    86387    86258    86039    85768    85607    85506 
   85476    85631    85781    85807    85745    85507    85266    85318 
   85546    85741    85982    86290    86402    86190    85901    85774 
   85785    85733    85494    85337    85457    85634    85912    86537 
   87133    87154    86725    86255    85787    85302    85112    85445 
   86031    86320    86086    85666    85361    85120    85072    85415 
   85865    86015    85926    85959    86130    86186    86175    86135 
   85932    85735    85908    86436    86868    86880    86537    85995 
   85457    85278    85606    86117    86462    86630    86702    86710 
   86563    86223    85888    85584    85268    85104    85198    85542 
   85904    85988    85899    85869    85941    86096    86198    86073 
   85703    85209    84942    85113    85409    85634    85878    86117 
   86300    86259    85939    85604    85371    85324    85649    86155 
   86471    86556    86479    86300    86224    86275    86221    86043 
   85868    85818    85932    85995    85943    85878    85707    85446 
   85259    85268    85378    85321    85232    85411    85735    86031 
   86302    86513    86530    86255    85823    85467    85376    85631 
   85935    86059    86150    86270    86373    86394    86217    85874 
   85464    85074    84892    85135    85781    86379    86505    86351 
   86170    85858    85549    85442    85434    85482    85483    85402 
   85490    85680    85707    85627    85596    85629    85565    85422 
   85423    85492    85631    86053    86435    86386    86080    85804 
   85722    85903    86139    86170    86152    86289    86468    86616 
   86706    86614    86305    85926    85548    85156    85085    85595 
   86155    86341    86447    86521    86386    86204    86143    86209 
   86306    86250    86044    85885    85770    85587    85533    85770 
   86019    86147    86290    86420    86401    86109    85689    85472 
   85452    85445    85482    85580    85677    85847    86012    85943 
   85807    85849    85969    86088    86217    86232    86147    86192 
   86223    86017    85895    85988    86011    86013    86148    86258 
   86115    85715    85359    85230    85170    85176    85440    85793 
   85923    85931    86093    86381    86560    86449    86190    86070 
   86055    85935    85738    85660    85617    85417    85272    85329 
   85477    85622    85625    85656    85900    86074    86105    86143 
   86023    85648    85278    85159    85317    85625    85892    86034 
   86104    86144    86220    86310    86274    86111    85877    85591 
   85430    85561    85849    85938    85764    85703    85936    86239 
   86435    86567    86637    86472    86104    85901    86053    86247 
   86158    85961    85881    85839    85858    85930    85874    85696 
   85460    85294    85337    85523    85783    86015    86050    85845 
   85472    85260    85604    86302    86744    86805    86722    86491 
   86098    85739    85602    85656    85660    85588    85664    85951 
   86283    86420    86250    85766    85224    85047    85166    85328 
   85648    85988    85982    85762    85661    85734    85851    85762 
   85488    85378    85413    85511    85947    86571    86926    86957 
   86756    86422    86198    86266    86518    86728    86840    86769 
   86489    86265    86148    86043    85995    85884    85630    85411 
   85330    85263    85229    85368    85429    85369    85583    85928 
   85955    85756    85692    85746    85716    85672    85633    85511 
   85363    85224    85264    85612    85912    86030    86305    86680 
   86825    86655    86275    85973    85808    85648    85664    85854 
   85939    85884    85797    85792    85795    85621    85407    85318 
   85171    84974    85050    85492    85919    85914    85685    85625 
   85718    86011    86456    86648    86510    86247    86011    85892 
   85734    85610    85826    86101    86084    86026    86063    86017 
   85988    86013    85919    85699    85347    85099    85332    85810 
   86150    86296    86294    86251    86341    86637    86867    86788 
   86540    86152    85630    85295    85388    85735    86024    86190 
   86219    86043    85947    86150    86287    86228    86236    86319 
   86462    86670    86713    86536    86196    85765    85448    85247 
   85032    84929    85148    85522    85696    85783    85870    85618 
   85214    85182    85395    85580    85702    85735    85665    85399 
   85113    85121    85217    85176    85113    85139    85328    85642 
   86001    86248    86202    86047    85945    85877    85970    85935 
   85563    85399    85611    85796    85891    86008    86067    86038 
   85997    85880    85773    85893    86028    85982    85911    85877 
   86003    86366    86664    86752    86784    86771    86665    86562 
   86611    86746    86674    86452    86358    86286    86108    85968 
   86003    86209    86373    86313    86057    85536    84875    84516 
   84484    84551    84758    85035    85329    85785    86221    86404 
   86400    86287    86242    86454    86806    87002    86950    86788 
   86425    85835    85288    84897    84740    84867    85105    85313 
   85298    85082    84877    84616    84457    84650    85031    85564 
   86178    86526    86594    86478    86235    86134    86136    85959 
   85777    85901    86206    86416    86657    87178    87740    87894 
   87640    87308    86985    86549    86093    85631    85104    84844 
   84921    85087    85463    85888    86101    86375    86742    86988 
   87025    86859    86701    86660    86671    86703    86632    86317 
   85905    85754    85992    86351    86410    86132    85880    85561 
   85086    85031    85419    85692    85766    85765    85807    85924 
   85924    85833    85656    85271    84955    84959    85298    85901 
   86425    86760    86915    86701    86251    85766    85375    85255 
   85039    84476    84079    84126    84539    85321    86260    87107 
   87666    87790    87631    87245    86503    85645    85193    85305 
   85621    85981    86366    86447    86188    85718    85005    84248 
   83533    82914    82792    83242    83978    84929    86044    87049 
   87620    87685    87477    87218    87000    86829    86544    86040 
   85441    84948    84788    84851    84638    84179    84061    84354 
   84793    85469    86217    86606    86721    86721    86518    86096 
   85446    84910    85045    85792    86771    87718    88234    88183 
   88067    88195    88145    87386    86070    84913    84190    83781 
   83916    84578    85348    85949    86089    85951    85959    85819 
   85513    85579    86049    86543    86613    86233    85914    85742 
   85457    85190    85145    85241    85442    85893    86497    86903 
   86933    86761    86760    86976    87043    86875    86567    85823 
   84647    83679    83353    83740    84570    85399    86155    86749 
   86992    87012    86863    86564    86381    86448    86757    87183 
   87284    86880    86309    85704    85195    85074    85162    85276 
   85434    85544    85846    86341    86490    86266    86070    86112 
   86393    86682    86863    86940    86622    85891    85220    84971 
   85186    85419    85417    85534    85666    85509    85279    85056 
   84847    84689    84484    84528    85013    85584    86088    86414 
   86402    86205    85815    85253    84900    84933    85295    85730 
   85897    85936    86071    86329    86803    87340    87646    87412 
   86630    86032    86015    86263    86474    86323    85923    85484 
   84816    84287    84411    84792    84699    84192    84022    84431 
   85105    85892    86713    87254    87378    87419    87490    87458 
   87315    87102    87088    87097    86525    85671    85224    85256 
   85467    85456    85087    84676    84597    84862    85252    85584 
   85642    85280    84673    84308    84515    85104    85766    86271 
   86562    86765    86749    86479    86343    86364    86211    86016 
   86157    86456    86387    85976    85700    85846    86420    87022 
   87262    87278    87033    86409    85839    85603    85623    85938 
   86501    87118    87631    87916    87820    87237    86339    85565 
   85221    85293    85545    85772    85758    85185    84227    83521 
   83250    83461    84319    85436    86355    87100    87478    87257 
   86722    86038    85314    85118    85639    86247    86400    86305 
   86452    86732    86794    86784    86848    86775    86405    85884 
   85607    85590    85437    85144    84892    84847    85357    86409 
   87556    88238    88074    87350    86455    85495    84861    84948 
   85658    86452    86791    86667    86270    85580    84739    84132 
   83917    84017    84395    85009    85707    86179    86196    85977 
   85761    85518    85363    85588    86216    86772    86829    86487 
   85982    85664    85953    86571    86865    86609    85896    85170 
   84978    85344    85887    86174    86051    85843    85847    86004 
   86127    86096    85834    85306    84801    84623    84626    84793 
   85162    85376    85326    85228    85183    85244    85425    85645 
   85565    85054    84599    84519    84715    84920    84932    85018 
   85151    85054    85178    85768    86287    86524    86640    86551 
   86051    85248    84693    84819    85388    86080    86802    87203 
   87107    86857    86501    85942    85585    85729    86082    86358 
   86559    86783    87050    87174    87062    86821    86481    86194 
   86057    85953    85984    86138    86154    86038    85945    86115 
   86764    87471    87621    87266    86498    85284    84153    83577 
   83489    83743    84267    84874    85260    85429    85835    86583 
   87187    87358    87227    87062    87232    87841    88526    88807 
   88469    87717    86964    86379    85927    85675    85522    85275 
   85091    84958    84829    85083    85484    85456    85263    85311 
   85594    86154    86906    87519    87980    88329    88325    88024 
   87555    86884    86336    86217    86266    86219    86263    86408 
   86246    85729    85272    84923    84295    83432    82719    82224 
   82000    82320    83238    84433    85480    86047    86189    86346 
   86503    86336    85926    85307    84516    84025    84206    84960 
   85900    86706    87323    87763    88034    88056    87548    86668 
   86140    86015    85866    85959    86458    86922    87091    87050 
   86958    86698    86202    85706    85266    84937    84915    85213 
   85679    86020    86071    86032    86047    86057    86116    86202 
   86166    86112    86104    85976    85672    85232    84862    84905 
   85251    85396    85307    85338    85530    85676    85698    85699 
   85653    85401    85182    85209    85189    85112    85187    85225 
   85237    85356    85379    85375    85450    85465    85542    85691 
   85773    85945    86131    85990    85456    84836    84661    85087 
   85761    86440    86908    86942    86880    87046    87261    87646 
   88227    88321    87673    86755    85916    85261    84839    84782 
   85206    85781    86022    86009    86123    86320    86216    85780 
   85409    85303    85328    85409    85595    85882    86189    86398 
   86547    86602    86223    85434    84627    83926    83702    84361 
   85471    86362    86841    87014    86894    86440    86061    86093 
   86112    85765    85405    85477    85839    85976    85949    86188 
   86499    86536    86435    86281    85896    85311    84851    84719 
   84767    84844    85110    85446    85456    85210    84820    84369 
   84326    84906    85934    87043    87666    87600    87052    86333 
   85727    85369    85607    86425    87012    87060    86826    86283 
   85666    85492    85819    86406    87080    87590    87700    87596 
   87481    87038    86162    85410    85170    85164    85045    84817 
   84627    84593    84865    85546    86475    87169    87301    87237 
   87373    87377    87030    86601    86074    85351    84681    84375 
   84514    84960    85527    85973    86086    85936    85788    85761 
   85731    85635    85598    85734    85980    85893    85097    84094 
   83794    84485    85723    86772    87085    86825    86787    87435 
   88437    89175    89087    88299    87546    86953    86238    85463 
   84684    83948    83365    83011    83119    83766    84789    85880 
   86412    86169    85723    85517    85513    85511    85434    85410 
   85440    85592    86031    86529    86941    87340    87636    87696 
   87478    87108    86757    86466    86177    85752    85302    85009 
   84746    84576    84680    84951    85205    85268    85232    85226 
   85105    85045    85271    85558    85796    86000    86128    86044 
   85672    85399    85557    85939    86427    87130    87905    88433 
   88738    89021    89077    88609    87691    86688    86059    85806 
   85634    85595    85453    84829    84125    83687    83331    83100 
   83147    83444    83943    84443    84728    84882    84987    84909 
   84851    85143    85625    86100    86459    86516    86202    85538 
   84869    84578    84441    84294    84316    84210    83689    83315 
   83479    83884    84377    84932    85379    85615    85629    85627 
   85878    86359    87018    87948    89008    89603    89486    89172 
   88825    88314    88011    87971    87775    87313    86738    86266 
   86038    86001    86070    86140    86120    86042    85868    85398 
   84732    84302    84300    84640    85201    85746    86066    86256 
   86540    86976    87384    87465    87281    87250    87407    87400 
   87118    86721    86236    85668    85278    85152    85066    85039 
   85307    85822    86174    86015    85426    84739    84183    83862 
   83735    83667    83867    84564    85471    86329    86983    87250 
   87307    87215    86861    86520    86408    86389    86363    86362 
   86408    86483    86711    87255    87863    88028    87563    86687 
   85916    85726    85926    86066    86148    86094    85830    85703 
   85703    85742    86086    86535    86907    87191    86979    86451 
   86204    86294    86589    86830    86869    86883    86709    86190 
   85666    85217    84541    83663    83026    83023    83554    84171 
   84639    84859    84690    84294    84078    84219    84689    85338 
   85861    86065    86040    85923    85796    85808    86038    86275 
   86350    86302    86047    85422    84630    84149    83986    83735 
   83450    83547    84229    85194    85923    86390    86591    86198 
   85496    85109    84954    84746    84636    84805    84987    85001 
   85287    85924    86422    86751    86976    86992    86969    87184 
   87833    88709    89136    88828    88133    87319    86493    85958 
   85947    86292    86671    86931    86952    86598    86143    85974 
   85980    85936    85978    86293    86856    87411    87563    87173 
   86589    86155    85926    85860    85812    85649    85347    84948 
   84626    84441    84381    84622    85052    85337    85475    85538 
   85650    85954    86220    86343    86466    86381    85919    85299 
   84744    84388    84346    84604    84959    85388    86190    87150 
   87616    87524    87102    86521    86132    85965    85835    85714 
   85480    85187    84959    84689    84377    84032    83799    84040 
   84767    85758    86687    87396    88052    88383    88145    87623 
   86950    86252    85665    85330    85499    85885    86038    86040 
   86009    85920    85903    86088    86292    86206    85776    85226 
   84921    85013    85351    85756    86142    86417    86510    86470 
   86287    86020    85962    86221    86611    86931    87124    87183 
   87048    86713    86271    85993    85986    86073    86339    86748 
   86769    86232    85490    84890    84647    84778    85143    85530 
   85828    86127    86374    86416    86341    86201    85882    85392 
   84892    84600    84628    84950    85583    86377    86887    86900 
