Origin Time       2024/04/02 04:24:00
Lat.              40.133
Long.             141.712
Depth. (km)       71
Mag.              6.0
Station Code      FKS007
Station Lat.      37.4061
Station Long.     140.9632
Station Height(m) 70
Record Time       2024/04/02 04:25:52
Sampling Freq(Hz) 100Hz
Duration Time(s)  78
Dir.              N-S
Scale Factor      3920(gal)/6182761
Max. Acc. (gal)   3.917
Last Correction   2024/04/02 04:25:52
Memo.             
[...]
  -15190   -15665   -15511   -14700   -14653   -14960   -14670   -14818 
  -15555   -15671   -15450   -15526   -15503   -15452   -15439   -15119 
  -15381   -16468   -16217   -14665   -14952   -16422   -15555   -14018 
  -14842   -15478   -14364   -14293   -15294   -15147   -14645   -14906 
  -15058   -14920   -14988   -15243   -15468   -15461   -15175   -14675 
  -14732   -15375   -15224   -15098   -15841   -15661   -15180   -15670 
  -14971   -13532   -14373   -15587   -14465   -13628   -15009   -16057 
  -15246   -14512   -14857   -15094   -15103   -15343   -15681   -15894 
  -15446   -14871   -14890   -14710   -14457   -14829   -14929   -14320 
  -14361   -15264   -15190   -14174   -14167   -14848   -14754   -14563 
  -15303   -15889   -15558   -15312   -15293   -15602   -16412   -16098 
  -15120   -15211   -14943   -14164   -14775   -15626   -15110   -14602 
  -15354   -16036   -15083   -14012   -14686   -15101   -14165   -14244 
  -15097   -14847   -14350   -14936   -15872   -15288   -13988   -14313 
  -15241   -15378   -15574   -15668   -14976   -14806   -15683   -15626 
  -14844   -14844   -14837   -14920   -15607   -15829   -15326   -14728 
  -14805   -15590   -15623   -14908   -14944   -15365   -15306   -15041 
  -14853   -15010   -15055   -14424   -14442   -15507   -15724   -14794 
  -14239   -14312   -14237   -14251   -14943   -15915   -15999   -14839 
  -14420   -15460   -15632   -15003   -15179   -15165   -14873   -15342 
  -15490   -14988   -15003   -15166   -14835   -14668   -14919   -14998 
  -14697   -14598   -15165   -15447   -14697   -14157   -14478   -14949 
  -15474   -15834   -15783   -15710   -15204   -14706   -15453   -15740 
  -14459   -14160   -15414   -15869   -15332   -15464   -15614   -14794 
  -14985   -15937   -15003   -14111   -15225   -15652   -14908   -15132 
  -15582   -15292   -15410   -15737   -15108   -14494   -15140   -15416 
  -14718   -15476   -16466   -15031   -14025   -15071   -15439   -15464 
  -16125   -15588   -14569   -14598   -14819   -14903   -14660   -14388 
  -15067   -15408   -14658   -14382   -14986   -15758   -15818   -15050 
  -14731   -15199   -15658   -15544   -14918   -14485   -14460   -14353 
  -14170   -14777   -15867   -15751   -15040   -15050   -14647   -14062 
  -14692   -15047   -14100   -13628   -14200   -14698   -14667   -14594 
  -15203   -15842   -15462   -14841   -15085   -15512   -14961   -14341 
  -14648   -14920   -14928   -15007   -14757   -15021   -16139   -16080 
  -15045   -15334   -15792   -14958   -14712   -15434   -15474   -15038 
  -15114   -15533   -15959   -15968   -15183   -14689   -15225   -15534 
  -15115   -15300   -16194   -15991   -15192   -15619   -15661   -14615 
  -14623   -15194   -15384   -15964   -16206   -15197   -14003   -13871 
  -14130   -14123   -14979   -16068   -15710   -15308   -15603   -15658 
  -16153   -16001   -14430   -14597   -16057   -15571   -14895   -15747 
  -15931   -15169   -15202   -15532   -15186   -14907   -15022   -15079 
  -15085   -15109   -15160   -15170   -14890   -14349   -14139   -14670 
  -14857   -13878   -13452   -14088   -13686   -13003   -14062   -14877 
  -14344   -15017   -16136   -15008   -13793   -14493   -14918   -14448 
  -14740   -15639   -16008   -15824   -15464   -14881   -14061   -14185 
  -15837   -16642   -15799   -15911   -16918   -16335   -14623   -14058 
  -14582   -14814   -14847   -14957   -14928   -15337   -16284   -16680 
  -16128   -14959   -13717   -14039   -15704   -15900   -15118   -15574 
  -16018   -15613   -15556   -15425   -14791   -14674   -14710   -14060 
  -13932   -15091   -15801   -15445   -15930   -16823   -16070   -15126 
  -15284   -15154   -14982   -15234   -15063   -15016   -15332   -15007 
  -14477   -14818   -15215   -14568   -14382   -15377   -15207   -13814 
  -13686   -14792   -14962   -13908   -13564   -13909   -13813   -14335 
  -15457   -15536   -14781   -14542   -15071   -15208   -14927   -15469 
  -15939   -15437   -15361   -15725   -15322   -14785   -14647   -14292 
  -14023   -14376   -14719   -14709   -14821   -14966   -15191   -15707 
  -15662   -14978   -14931   -15492   -15547   -15198   -15025   -15250 
  -15833   -16117   -16434   -16853   -15999   -14989   -15393   -15709 
  -15032   -14529   -15270   -16268   -15623   -14458   -14835   -15628 
  -15407   -14983   -14734   -14417   -14539   -14770   -14625   -14721 
  -14915   -14519   -14306   -14784   -14794   -14360   -14433   -14665 
  -14979   -15725   -16046   -15337   -14835   -15000   -14758   -14782 
  -15649   -16064   -15897   -15680   -15766   -16053   -15390   -14702 
  -15270   -15330   -14850   -15419   -15383   -14333   -14786   -16051 
  -15451   -13565   -13463   -15314   -15781   -14884   -15255   -15715 
  -14744   -14043   -14554   -15396   -15423   -14191   -13704   -15110 
  -15493   -14203   -14607   -16408   -16435   -15292   -15291   -15689 
  -15347   -15415   -15823   -15526   -15584   -16512   -16628   -15453 
  -14994   -15477   -15064   -14595   -15196   -15288   -14548   -14432 
  -15050   -15429   -15162   -14964   -15233   -15172   -14969   -15133 
  -15117   -14774   -14023   -13557   -14227   -14484   -14093   -14551 
  -15127   -15489   -15870   -15379   -14898   -15543   -15821   -14988 
  -14790   -15522   -15254   -13909   -13422   -14102   -14524   -14470 
  -14776   -15281   -15413   -15200   -14730   -14298   -14698   -15614 
  -15708   -15159   -15332   -16126   -15779   -14202   -13856   -15070 
  -15302   -14523   -14996   -15901   -15246   -14313   -14235   -13974 
  -13709   -14396   -15374   -15456   -15059   -14964   -14395   -13860 
  -14822   -15582   -15005   -14968   -15541   -15704   -15905   -15871 
  -15393   -15539   -15757   -14714   -14035   -15432   -16712   -16108 
  -15502   -15915   -15786   -14758   -14598   -15518   -15668   -15055 
  -14904   -14860   -14634   -14983   -15877   -16191   -15963   -16191 
  -16084   -15144   -14705   -14680   -14734   -15129   -14839   -14472 
  -15216   -15623   -15336   -15455   -15638   -15511   -15255   -14980 
  -15006   -15194   -15425   -15723   -15303   -14466   -14524   -14935 
  -15045   -15460   -15679   -15300   -15190   -15098   -14803   -15326 
  -15778   -14825   -14271   -15088   -15125   -14062   -14124   -15275 
  -14950   -13594   -14065   -15194   -14901   -14512   -14646   -14978 
  -15677   -15555   -14289   -13879   -14704   -14799   -14049   -14364 
  -15162   -14861   -14870   -15790   -15986   -15570   -15344   -15013 
  -14816   -15346   -15933   -15710   -15341   -15532   -15989   -16281 
  -16183   -16139   -15964   -15098   -14854   -15502   -15234   -14496 
  -14895   -15358   -14650   -14035   -14489   -15047   -14767   -14375 
  -14793   -15206   -14838   -14318   -14518   -15120   -14699   -13930 
  -14634   -15650   -15509   -15083   -15397   -15707   -14744   -13838 
  -14494   -15386   -15459   -14904   -14222   -14374   -14853   -14818 
  -15114   -15129   -14395   -14591   -15137   -14961   -14615   -14239 
  -14348   -14428   -14204   -14803   -14847   -14338   -15760   -16847 
  -15578   -15399   -16476   -15900   -15050   -15623   -16287   -15963 
  -15402   -15519   -15294   -14404   -14298   -14892   -15293   -14942 
  -14502   -15429   -16002   -15084   -14965   -15674   -16023   -16131 
  -15683   -15299   -15358   -14835   -14624   -15233   -15019   -14474 
  -14637   -14701   -14708   -15140   -14913   -13902   -14337   -15644 
  -15046   -14157   -14933   -15244   -14711   -14952   -15270   -15142 
  -15153   -15062   -15150   -15397   -15008   -14843   -15387   -15702 
  -15723   -15623   -15667   -15600   -14682   -14386   -15489   -16022 
  -15557   -15233   -15393   -15643   -15495   -15307   -15042   -14335 
  -14202   -15102   -15632   -15161   -15055   -15549   -15317   -14448 
  -14156   -14921   -15673   -15557   -15442   -15502   -15185   -14966 
  -14864   -14463   -14500   -15128   -15267   -15163   -15207   -14992 
  -15424   -16010   -15001   -13933   -14399   -14928   -14534   -14540 
  -15516   -15905   -15510   -15838   -16789   -16707   -15455   -14718 
  -14946   -15258   -15205   -15169   -15656   -16028   -15553   -14924 
  -15106   -15201   -14316   -14186   -15034   -14632   -13663   -14024 
  -14745   -14701   -14730   -15274   -15339   -14774   -14680   -14962 
  -14718   -14511   -14930   -14936   -14547   -14758   -14853   -14471 
  -14537   -14891   -14744   -14508   -14455   -14192   -14634   -15841 
  -16141   -15376   -14650   -14818   -15175   -14341   -13960   -15155 
  -15314   -14785   -16024   -17063   -16244   -15487   -15649   -15922 
  -15830   -15476   -15014   -14665   -15257   -16120   -15411   -14376 
  -14820   -15196   -14553   -14529   -15434   -15883   -15579   -14894 
  -14171   -13846   -13595   -13496   -14312   -14868   -14328   -14531 
  -15330   -15106   -14720   -14911   -14986   -14817   -15244   -16029 
  -15324   -14274   -15377   -16170   -15014   -14829   -15577   -15101 
  -14518   -15020   -15212   -14825   -15159   -15535   -15209   -15359 
  -15820   -15376   -15208   -16101   -15834   -14680   -14888   -15343 
  -15544   -15783   -14777   -14454   -15830   -15830   -15032   -15777 
  -16588   -15724   -14585   -15375   -16498   -15234   -14142   -15352 
  -15633   -14727   -15329   -16024   -15503   -15271   -15375   -15060 
  -14776   -14671   -14358   -14038   -13996   -14338   -14822   -14687 
  -14544   -14816   -14288   -13894   -14700   -14957   -14465   -14940 
  -15643   -14942   -14310   -14741   -14681   -14150   -13778   -13467 
  -13680   -14193   -14271   -14148   -14823   -15937   -15707   -14713 
  -14879   -15382   -14764   -14049   -14510   -15194   -15186   -15108 
  -15255   -15616   -16105   -15792   -14950   -15200   -15453   -14390 
  -14530   -16280   -16404   -15154   -15252   -15858   -15115   -14598 
  -15178   -14974   -14355   -14981   -15615   -15164   -15255   -16177 
  -16102   -15439   -15896   -16559   -16147   -15886   -16163   -15613 
  -15066   -15754   -16210   -15802   -15526   -15414   -15430   -15675 
  -15596   -15196   -15291   -15890   -15936   -15314   -15340   -15961 
  -15797   -15531   -15876   -15735   -15915   -17136   -17180   -16090 
  -16104   -16423   -16028   -15930   -16140   -16110   -15604   -14816 
  -14863   -15240   -14789   -14576   -14676   -14088   -13461   -13045 
  -13175   -14405   -14924   -14352   -14966   -16075   -15589   -14589 
  -14575   -14828   -14223   -12965   -12595   -13446   -13572   -13113 
  -13992   -14936   -14784   -14716   -14321   -13534   -13587   -14073 
  -14245   -14672   -15539   -15619   -15360   -16118   -16365   -15465 
  -15068   -15075   -14473   -13661   -13973   -14953   -14578   -13673 
  -14149   -15184   -15811   -15931   -15966   -16745   -16781   -15418 
  -15556   -16858   -16254   -15711   -17330   -17393   -15414   -15327 
  -15619   -14557   -15250   -17033   -16984   -16548   -17339   -17764 
  -16442   -14688   -13832   -13126   -12274   -12446   -13849   -15294 
  -15945   -15656   -15345   -15966   -15969   -15072   -15559   -15694 
  -13665   -12635   -13429   -13703   -13375   -13880   -14622   -13973 
  -13515   -14320   -13696   -12477   -13623   -14645   -13956   -14111 
  -15120   -15735   -15299   -13429   -12249   -12729   -12585   -11282 
  -10921   -11942   -12415   -12385   -13303   -13878   -13369   -13715 
  -15042   -15532   -15672   -17204   -18314   -17014   -15527   -15347 
  -15563   -15578   -15902   -17543   -19011   -18435   -17344   -16527 
  -14989   -13398   -12874   -13637   -14930   -15753   -16327   -16824 
  -16890   -16599   -15960   -15026   -15012   -16725   -17862   -17294 
  -17476   -17754   -16029   -15058   -16687   -18075   -18208   -18950 
  -19581   -18184   -16291   -15661   -14879   -13326   -13004   -14790 
  -16332   -16185   -16489   -17155   -16089   -15030   -15201   -14629 
  -13399   -13123   -13398   -13328   -13588   -14784   -15603   -15285 
  -15143   -15228   -14870   -15098   -15138   -13877   -13781   -14398 
  -12812   -11929   -14077   -15774   -15796   -15918   -15633   -14073 
  -12427   -11961   -11955   -11443   -12170   -14643   -15858   -15148 
  -13813   -12602   -13062   -14134   -13596   -12910   -12873   -12916 
  -14142   -15731   -15950   -16490   -17984   -17913   -16605   -16540 
  -17386   -17186   -15650   -14841   -15716   -15845   -14221   -14073 
  -16412   -17371   -16025   -15653   -16077   -14740   -13233   -13916 
  -15255   -16233   -17140   -17126   -17270   -18492   -18737   -18167 
  -18452   -19104   -19071   -17302   -14538   -12662   -10981    -9466 
  -10059   -11782   -13307   -15531   -16934   -16076   -14533   -13293 
  -13384   -15092   -15933   -15176   -14928   -15766   -16402   -15925 
  -15534   -17139   -18602   -17046   -15127   -14974   -13962   -11390 
   -9507    -9148    -9937   -11874   -14433   -16138   -16870   -17220 
  -16308   -13813   -11494   -10580   -10048   -10672   -14513   -18305 
  -18303   -16747   -16046   -16044   -16015   -15011   -14417   -15650 
  -16725   -17232   -18753   -20067   -19278   -17104   -15143   -14139 
  -14187   -14510   -14506   -14717   -15199   -15357   -14672   -13670 
  -13952   -14724   -14412   -13958   -13782   -13918   -15288   -16800 
  -16844   -16623   -17250   -16913   -14549   -12920   -14147   -15249 
  -13765   -12963   -15012   -16207   -13939   -11473   -11957   -13756 
  -14858   -15598   -16733   -18210   -18203   -16384   -15733   -16055 
  -14687   -13131   -13660   -15841   -18098   -18678   -19075   -21135 
  -21263   -17508   -14134   -13653   -14168   -14444   -14966   -15511 
  -15230   -13975   -12392   -11739   -12658   -14303   -15705   -16481 
  -16530   -16041   -14987   -13657   -14069   -16129   -16408   -15435 
  -16119   -16807   -15612   -14397   -13668   -12613   -13507   -16387 
  -16873   -14990   -14509   -14818   -13418   -12055   -13303   -14949 
  -14733   -15176   -16624   -15708   -13198   -12007   -11869   -12032 
  -11842   -11255   -12578   -14812   -14132   -11915   -12463   -15399 
  -16863   -17052   -17858   -17466   -16209   -16165   -15753   -14767 
  -15094   -15820   -15403   -13660   -11601   -11145   -11769   -11623 
  -12127   -14641   -16392   -16159   -17208   -19487   -18450   -14905 
  -14022   -14104   -11735   -11485   -15025   -16501   -15067   -14313 
  -14204   -14121   -14764   -15480   -15672   -15414   -14675   -14302 
  -14901   -15321   -14702   -14181   -14360   -14350   -14052   -14144 
  -14551   -14602   -14619   -14698   -14359   -15550   -18246   -18347 
  -16197   -15453   -15656   -15572   -16647   -19137   -20648   -19886 
  -19105   -19525   -18118   -15240   -15622   -18394   -19202   -18488 
  -18511   -18705   -17879   -16239   -14732   -14505   -15741   -17257 
  -17941   -17796   -17191   -15985   -15011   -15296   -15585   -15044 
  -14877   -15259   -15241   -14889   -13849   -11421   -10044   -11857 
  -14015   -13661   -12611   -12965   -13317   -12853   -12689   -13439 
  -14796   -14831   -13541   -13720   -14552   -13669   -12796   -13524 
  -14672   -15819   -16886   -17018   -16207   -14919   -13390   -12537 
  -13793   -16149   -16365   -14867   -15095   -16455   -15712   -14019 
  -14866   -16537   -15980   -15501   -16168   -15767   -15308   -15058 
  -13455   -13069   -14625   -14903   -15365   -17366   -16835   -14569 
  -15227   -15813   -13433   -13359   -15867   -15040   -12814   -13471 
  -14048   -12729   -12714   -14130   -14275   -14550   -16763   -17690 
  -15999   -15086   -15440   -15601   -16380   -16944   -15800   -14461 
  -13713   -13108   -13334   -13693   -13761   -15368   -16721   -15523 
  -15263   -16991   -17061   -15047   -13271   -12780   -12775   -12741 
  -13785   -15628   -16043   -14479   -12945   -13023   -13644   -13921 
  -15629   -18648   -18865   -15951   -14407   -13857   -11933   -11283 
  -12515   -13502   -14452   -15012   -15391   -16392   -16076   -14359 
  -13284   -12223   -10643   -10213   -11988   -14447   -15484   -16616 
  -18578   -17449   -14614   -16188   -19291   -18448   -16931   -16916 
  -15876   -14780   -15657   -18034   -20007   -19137   -16453   -15129 
  -14671   -13752   -14106   -16068   -16608   -15062   -14191   -14464 
  -14323   -14109   -14411   -15284   -16961   -17917   -17785   -18785 
  -19562   -17931   -16704   -16973   -15960   -13535   -11718   -12078 
  -14111   -15156   -15551   -16296   -15407   -13837   -13549   -12720 
  -11419   -12571   -14868   -14525   -13498   -15124   -16744   -16096 
  -15627   -16650   -17664   -17958   -17205   -15623   -15177   -14966 
  -13050   -11324   -10956   -11586   -12982   -14323   -15925   -17218 
  -16660   -15430   -14798   -14539   -15208   -15895   -15379   -15953 
  -17518   -16920   -15562   -15950   -17152   -17772   -17179   -16420 
  -16950   -17489   -16817   -15637   -14036   -13248   -14993   -16323 
  -15241   -14880   -14977   -13239   -11915   -12620   -14080   -15797 
  -17339   -18048   -18498   -18780   -17380   -14214   -12488   -13721 
  -14402   -13508   -14828   -17201   -15740   -12438   -11853   -12893 
  -13179   -12612   -12290   -13097   -13543   -12528   -11617   -11327 
  -10885   -11577   -13944   -14885   -13707   -13679   -15261   -15779 
  -14820   -14721   -14786   -12891   -12195   -14093   -14507   -13473 
  -14064   -15411   -15000   -14034   -15846   -19184   -20448   -19574 
  -17780   -15875   -14678   -13628   -12608   -13861   -16882   -17335 
  -15066   -14516   -16543   -16756   -14215   -14080   -16469   -16553 
  -15366   -16073   -17440   -17678   -17003   -16417   -16571   -16188 
  -14422   -14310   -16603   -16646   -13957   -12776   -13227   -13283 
  -13755   -15553   -17046   -16910   -16325   -15997   -16213   -17870 
  -18967   -17804   -17090   -17763   -16887   -14582   -14195   -15030 
  -14100   -12643   -12242   -11916   -11976   -13145   -14391   -13970 
  -12882   -13787   -14923   -14794   -15243   -15064   -13257   -12429 
  -13404   -14123   -13860   -14156   -15079   -15193   -15115   -16422 
  -18240   -18668   -17933   -16802   -15845   -16373   -17953   -18996 
  -18871   -17308   -15523   -14864   -14744   -15011   -15806   -16281 
  -16153   -15607   -14876   -14278   -13157   -11982   -12422   -13093 
  -13310   -14991   -16366   -15915   -15539   -14888   -12692   -10118 
  -10172   -12693   -12947   -12100   -14757   -16528   -13706   -11675 
  -12709   -14394   -16667   -18374   -17457   -15376   -14330   -13914 
  -13074   -13325   -15584   -16583   -15699   -15736   -15556   -14775 
  -15128   -14909   -13876   -13949   -14776   -14943   -13861   -13817 
  -15309   -14837   -14094   -15964   -16861   -15924   -15950   -15763 
  -14372   -13941   -14962   -15377   -14540   -15004   -17380   -18247 
  -17034   -16103   -15886   -16452   -17220   -16555   -15671   -16135 
  -16160   -14875   -13511   -12455   -12341   -13590   -14954   -16391 
  -18579   -19384   -17298   -15797   -16795   -16887   -15755   -15864 
  -16090   -15081   -13618   -12990   -14352   -16758   -16736   -13735 
  -12607   -14878   -15962   -15299   -17217   -20347   -19348   -15830 
  -14501   -14491   -12584    -9489    -9502   -12363   -13333   -13272 
  -15160   -16823   -16472   -15721   -15475   -15162   -14838   -15259 
  -15959   -15766   -15857   -17007   -16740   -14804   -13645   -13802 
  -14155   -13545   -13204   -15221   -17851   -17867   -16051   -16339 
