Origin Time       2024/04/02 04:24:00
Lat.              40.133
Long.             141.712
Depth. (km)       71
Mag.              6.0
Station Code      FKS020
Station Lat.      37.5560
Station Long.     140.1226
Station Height(m) 527
Record Time       2024/04/02 04:25:57
Sampling Freq(Hz) 100Hz
Duration Time(s)  73
Dir.              U-D
Scale Factor      7845(gal)/8223790
Max. Acc. (gal)   0.985
Last Correction   2024/04/02 04:25:57
Memo.             
[...]
   26892    26858    26792    26725    26743    26870    27021    27070 
   26962    26788    26698    26754    26889    27013    27078    27086 
   27076    27079    27124    27197    27251    27279    27332    27423 
   27490    27486    27456    27456    27477    27490    27495    27504 
   27491    27433    27363    27322    27311    27330    27384    27445 
   27499    27542    27550    27499    27402    27311    27291    27363 
   27459    27476    27380    27243    27164    27187    27298    27432 
   27488    27429    27345    27341    27402    27417    27302    27098 
   26932    26887    26933    26985    26997    26967    26894    26823 
   26812    26856    26894    26893    26859    26798    26715    26649 
   26673    26812    26960    26991    26898    26785    26747    26802 
   26904    26963    26917    26825    26796    26840    26879    26855 
   26775    26689    26626    26589    26605    26717    26892    27001 
   26948    26805    26743    26817    26924    26966    26927    26831 
   26750    26755    26833    26892    26869    26792    26700    26615 
   26562    26558    26577    26600    26628    26649    26663    26698 
   26743    26784    26848    26951    27037    27052    27024    27009 
   27008    26990    26916    26785    26700    26774    26982    27186 
   27274    27244    27189    27198    27305    27446    27522    27502 
   27438    27395    27392    27384    27325    27241    27222    27302 
   27382    27360    27271    27216    27238    27290    27307    27303 
   27309    27310    27276    27193    27105    27109    27252    27465 
   27587    27514    27340    27233    27249    27326    27391    27400 
   27342    27255    27207    27214    27211    27149    27071    27055 
   27124    27240    27322    27295    27175    27056    27000    26982 
   26964    26963    26991    27032    27037    26975    26874    26817 
   26847    26900    26898    26869    26882    26950    27039    27110 
   27130    27095    27016    26923    26862    26850    26869    26875 
   26831    26762    26732    26769    26846    26909    26919    26890 
   26883    26936    27013    27021    26932    26827    26808    26877 
   26950    26959    26925    26908    26927    26956    26963    26927 
   26848    26779    26767    26801    26827    26813    26788    26775 
   26757    26708    26655    26636    26673    26767    26905    27012 
   26991    26859    26755    26777    26870    26932    26954    27016 
   27148    27267    27263    27122    26937    26846    26931    27143 
   27315    27328    27220    27106    27022    26970    26983    27079 
   27193    27226    27155    27062    27040    27087    27135    27128 
   27072    27016    27012    27075    27175    27238    27225    27179 
   27189    27268    27341    27332    27256    27191    27187    27233 
   27297    27352    27360    27329    27318    27353    27379    27348 
   27287    27257    27256    27232    27168    27103    27081    27106 
   27147    27157    27122    27051    26962    26900    26923    27022 
   27140    27216    27226    27193    27147    27102    27063    27022 
   26991    26998    27047    27103    27102    27016    26913    26898 
   26983    27072    27051    26882    26655    26508    26532    26686 
   26819    26794    26609    26426    26428    26601    26771    26821 
   26762    26685    26688    26773    26850    26827    26709    26592 
   26577    26671    26811    26920    26956    26928    26874    26843 
   26887    27000    27116    27190    27203    27172    27176    27251 
   27328    27357    27341    27288    27233    27249    27378    27562 
   27676    27653    27560    27502    27522    27591    27634    27606 
   27542    27500    27484    27475    27432    27324    27186    27094 
   27093    27143    27168    27151    27112    27058    26982    26885 
   26786    26746    26802    26914    26954    26855    26724    26700 
   26809    26948    27008    26968    26910    26893    26905    26913 
   26935    26994    27060    27093    27103    27128    27162    27164 
   27110    27028    26994    27056    27164    27237    27259    27259 
   27253    27259    27276    27305    27338    27360    27357    27322 
   27270    27234    27230    27222    27178    27128    27129    27175 
   27198    27148    27049    26973    26936    26893    26805    26688 
   26611    26630    26677    26617    26453    26341    26400    26582 
   26715    26665    26460    26246    26157    26234    26407    26535 
   26524    26400    26260    26200    26273    26454    26632    26704 
   26680    26681    26785    26928    26966    26852    26719    26703 
   26788    26855    26815    26692    26590    26595    26700    26836 
   26937    27017    27091    27112    27070    27024    27020    27062 
   27140    27232    27294    27292    27241    27194    27191    27233 
   27286    27309    27311    27341    27399    27411    27346    27261 
   27257    27361    27472    27481    27413    27376    27421    27499 
   27534    27503    27450    27437    27450    27418    27318    27232 
   27261    27402    27538    27568    27504    27432    27403    27430 
   27515    27598    27584    27477    27357    27279    27268    27329 
   27399    27407    27359    27333    27372    27421    27403    27299 
   27159    27068    27082    27172    27268    27292    27214    27070 
   26937    26886    26906    26912    26851    26758    26701    26720 
   26773    26792    26739    26631    26545    26551    26642    26742 
   26793    26779    26732    26685    26647    26612    26593    26604 
   26616    26595    26541    26489    26493    26605    26779    26893 
   26887    26852    26878    26929    26963    27004    27051    27054 
   27033    27062    27136    27201    27213    27152    27051    26987 
   27016    27099    27152    27148    27129    27108    27105    27164 
   27263    27344    27383    27380    27357    27369    27426    27456 
   27400    27318    27299    27340    27348    27279    27195    27174 
   27210    27255    27259    27214    27136    27044    26989    26982 
   26966    26887    26790    26755    26801    26878    26939    26947 
   26867    26746    26694    26742    26805    26842    26881    26933 
   26981    26974    26896    26793    26728    26705    26674    26628 
   26608    26628    26688    26782    26883    26935    26927    26925 
   26977    27045    27070    27027    26958    26928    26958    27013 
   27048    27031    26964    26902    26927    27051    27195    27261 
   27216    27093    27014    27087    27260    27349    27271    27157 
   27194    27376    27499    27399    27128    26894    26856    26987 
   27129    27152    27058    26960    26940    26978    27009    26986 
   26917    26839    26775    26738    26728    26739    26746    26715 
   26635    26557    26554    26646    26755    26793    26761    26736 
   26784    26877    26932    26932    26936    26983    27049    27103 
   27139    27155    27164    27162    27135    27105    27094    27106 
   27155    27237    27321    27376    27421    27467    27498    27514 
   27564    27668    27778    27822    27770    27672    27595    27568 
   27587    27633    27675    27665    27598    27508    27422    27359 
   27332    27311    27259    27194    27201    27310    27442    27491 
   27427    27295    27186    27176    27261    27349    27341    27214 
   27051    26948    26927    26948    27004    27082    27120    27059 
   26950    26881    26863    26852    26821    26770    26686    26593 
   26543    26553    26586    26601    26570    26512    26465    26455 
   26480    26531    26596    26632    26617    26589    26605    26673 
   26730    26750    26778    26847    26902    26878    26792    26728 
   26731    26798    26890    26935    26904    26870    26912    26997 
   27054    27075    27074    27039    26967    26885    26817    26789 
   26820    26882    26936    26971    27004    27039    27022    26908 
   26759    26684    26700    26771    26867    26963    27064    27153 
   27152    27039    26901    26835    26859    26883    26812    26704 
   26685    26770    26856    26844    26761    26715    26767    26904 
   27074    27202    27233    27166    27058    27028    27166    27410 
   27571    27533    27376    27253    27203    27197    27228    27278 
   27294    27271    27275    27349    27430    27438    27387    27338 
   27295    27248    27207    27160    27090    27017    26977    27001 
   27072    27135    27174    27203    27218    27195    27143    27087 
   27051    27049    27093    27155    27183    27176    27168    27159 
   27136    27118    27130    27159    27178    27163    27117    27083 
   27102    27149    27152    27098    27060    27099    27187    27244 
   27216    27137    27091    27078    27024    26910    26801    26779 
   26850    26935    26974    26979    26983    26994    27000    26997 
   26990    26950    26860    26774    26770    26851    26929    26902 
   26769    26643    26659    26812    26937    26906    26781    26719 
   26784    26902    26954    26871    26724    26686    26839    27062 
   27176    27145    27079    27103    27245    27413    27499    27488 
   27427    27360    27325    27344    27410    27469    27484    27477 
   27484    27511    27545    27561    27525    27433    27329    27276 
   27295    27342    27346    27295    27216    27125    27043    26960 
   26863    26786    26789    26882    26967    26912    26732    26607 
   26659    26812    26883    26816    26708    26674    26742    26824 
   26831    26782    26746    26774    26855    26912    26881    26794 
   26763    26852    27000    27118    27171    27162    27113    27062 
   27051    27086    27099    27044    26970    26954    27014    27109 
   27178    27203    27194    27172    27149    27126    27101    27070 
   27040    27004    26921    26801    26724    26773    26924    27044 
   27010    26833    26655    26619    26717    26812    26781    26632 
   26476    26407    26438    26526    26604    26640    26674    26740 
   26811    26840    26838    26846    26887    26937    26935    26839 
   26708    26659    26747    26889    26973    27002    27056    27152 
   27230    27210    27097    27002    27035    27160    27263    27279 
   27240    27206    27207    27241    27298    27361    27405    27423 
   27436    27457    27519    27622    27673    27596    27453    27369 
   27414    27544    27660    27673    27556    27380    27286    27330 
   27409    27398    27317    27259    27272    27319    27299    27183 
   27066    27045    27114    27168    27139    27089    27103    27171 
   27210    27166    27062    26990    27014    27078    27089    27020 
   26901    26809    26806    26878    26962    26989    26944    26871 
   26811    26761    26727    26736    26775    26797    26773    26719 
   26703    26755    26840    26887    26848    26766    26769    26919 
   27118    27213    27166    27089    27063    27072    27093    27126 
   27171    27232    27305    27356    27361    27360    27390    27403 
   27353    27280    27252    27268    27276    27214    27102    27052 
   27135    27264    27299    27199    27072    27027    27060    27099 
   27063    26917    26730    26626    26634    26655    26624    26593 
   26623    26697    26748    26715    26624    26565    26578    26623 
   26627    26582    26542    26530    26527    26503    26453    26435 
   26492    26557    26563    26545    26563    26615    26620    26553 
   26474    26469    26547    26611    26547    26400    26339    26472 
   26713    26913    27031    27108    27174    27240    27303    27360 
   27390    27371    27317    27274    27292    27368    27423    27414 
   27368    27341    27371    27461    27565    27606    27549    27441 
   27348    27306    27325    27411    27544    27637    27616    27507 
   27403    27380    27417    27433    27388    27314    27282    27317 
   27351    27295    27144    26994    26966    27091    27267    27353 
   27315    27256    27263    27309    27299    27199    27067    27008 
   27062    27128    27086    26973    26912    26952    27032    27068 
   27055    27041    27033    27001    26940    26896    26902    26936 
   26950    26950    26983    27074    27168    27174    27075    26977 
   26974    27049    27110    27102    27051    27020    27041    27059 
   26987    26840    26758    26839    26997    27067    27008    26935 
   26960    27066    27126    27075    26983    26933    26935    26952 
   26966    26986    27016    27033    27027    27012    27028    27066 
   27070    27010    26931    26919    26991    27068    27067    26975 
   26859    26794    26815    26894    26959    26943    26865    26809 
   26821    26865    26879    26852    26828    26852    26909    26952 
   26985    27047    27135    27202    27193    27097    26975    26912 
   26939    26998    27008    26958    26910    26905    26923    26936 
   26963    27032    27139    27237    27301    27341    27367    27379 
   27398    27440    27492    27527    27531    27527    27549    27585 
   27591    27534    27442    27387    27399    27448    27476    27461 
   27414    27361    27305    27238    27199    27218    27278    27322 
   27286    27160    27051    27020    26986    26901    26821    26802 
   26824    26808    26708    26580    26505    26507    26558    26586 
   26526    26399    26298    26254    26222    26173    26148    26160 
   26184    26198    26195    26191    26200    26188    26100    26003 
   26040    26229    26423    26500    26500    26535    26662    26858 
   27039    27140    27187    27220    27224    27182    27145    27157 
   27202    27234    27217    27176    27216    27368    27504    27491 
   27386    27333    27368    27419    27437    27433    27430    27436 
   27445    27460    27492    27576    27688    27727    27639    27486 
   27380    27384    27440    27448    27387    27325    27326    27383 
   27423    27399    27352    27341    27334    27283    27216    27171 
   27168    27205    27244    27252    27230    27211    27241    27329 
   27415    27440    27400    27334    27268    27233    27211    27147 
   27031    26937    26952    27056    27128    27071    26914    26767 
   26697    26705    26736    26730    26685    26655    26670    26707 
   26704    26662    26644    26671    26713    26724    26665    26574 
   26530    26562    26653    26746    26773    26707    26601    26524 
   26515    26572    26655    26709    26701    26678    26735    26882 
   27005    27009    26914    26835    26892    27090    27280    27295 
   27136    26966    26921    26977    27039    27083    27106    27075 
   26977    26844    26743    26732    26808    26894    26948    26979 
   27009    27043    27071    27087    27097    27116    27162    27216 
   27230    27221    27253    27317    27329    27241    27128    27122 
   27282    27510    27642    27600    27454    27353    27378    27449 
   27463    27417    27378    27384    27432    27480    27477    27403 
   27297    27211    27164    27155    27184    27216    27197    27126 
   27024    26901    26802    26786    26840    26894    26916    26917 
   26908    26897    26890    26865    26802    26751    26754    26805 
   26856    26852    26774    26654    26563    26557    26612    26666 
   26670    26626    26573    26542    26534    26538    26563    26644 
   26763    26877    26958    26994    26978    26916    26843    26820 
   26883    26993    27081    27133    27190    27267    27363    27484 
   27600    27649    27615    27562    27558    27591    27614    27630 
   27669    27747    27842    27908    27909    27842    27757    27737 
   27811    27927    27990    27947    27811    27643    27513    27436 
   27399    27394    27417    27467    27499    27437    27267    27074 
   26971    26993    27055    27063    27002    26916    26838    26766 
   26694    26622    26570    26553    26538    26491    26430    26406 
   26441    26496    26509    26466    26399    26357    26346    26325 
   26269    26212    26212    26283    26372    26437    26464    26460 
   26460    26487    26531    26572    26592    26601    26609    26626 
   26684    26798    26941    27051    27074    27045    27052    27120 
   27195    27213    27157    27087    27074    27143    27252    27329 
   27332    27283    27238    27233    27259    27272    27259    27238 
   27209    27143    27060    26994    26959    26954    26952    26935 
   26889    26811    26716    26653    26666    26734    26794    26800 
   26721    26596    26522    26563    26684    26786    26815    26792 
   26790    26851    26946    27009    27009    26993    26997    27029 
   27095    27178    27229    27240    27248    27272    27333    27457 
   27592    27615    27504    27364    27288    27282    27315    27352 
   27352    27313    27283    27302    27353    27391    27387    27332 
   27243    27160    27132    27141    27112    27022    26932    26909 
   26963    27058    27129    27136    27095    27070    27093    27128 
   27126    27075    27004    26951    26928    26914    26902    26910 
   26954    27009    27047    27056    27035    26989    26968    27024 
   27145    27256    27295    27275    27255    27265    27294    27318 
   27334    27330    27287    27228    27199    27206    27213    27191 
   27140    27091    27083    27120    27168    27189    27172    27157 
   27193    27275    27329    27283    27168    27093    27117    27210 
   27306    27342    27322    27292    27288    27310    27338    27342 
   27326    27310    27275    27202    27120    27081    27089    27085 
   27025    26956    26958    27064    27201    27222    27081    26893 
   26801    26813    26828    26774    26700    26677    26713    26782 
   26838    26835    26774    26697    26657    26680    26770    26897 
   26997    27022    26978    26912    26867    26833    26777    26701 
   26663    26701    26759    26751    26694    26663    26667    26658 
   26611    26545    26497    26508    26592    26698    26758    26757 
   26734    26732    26775    26850    26917    26933    26875    26781 
   26728    26748    26796    26820    26805    26770    26750    26757 
   26771    26782    26797    26823    26838    26825    26797    26771 
   26761    26765    26778    26779    26774    26808    26916    27060 
   27167    27217    27251    27288    27328    27352    27345    27352 
   27399    27440    27411    27348    27348    27433    27513    27488 
   27378    27307    27383    27562    27696    27680    27542    27411 
   27376    27429    27488    27481    27425    27394    27413    27429 
   27411    27391    27379    27337    27251    27153    27071    27031 
   27033    27035    26987    26927    26909    26924    26929    26898 
   26827    26777    26798    26852    26869    26829    26766    26747 
   26825    26947    26993    26933    26859    26850    26906    26978 
   27016    27020    27031    27067    27125    27190    27243    27278 
   27288    27253    27174    27093    27074    27136    27240    27326 
   27355    27324    27274    27243    27241    27249    27247    27232 
   27206    27162    27125    27148    27226    27309    27344    27313 
   27247    27197    27178    27156    27089    26978    26881    26855 
