Origin Time       2024/04/02 04:24:00
Lat.              40.133
Long.             141.712
Depth. (km)       71
Mag.              6.0
Station Code      FKS023
Station Lat.      37.4775
Station Long.     139.9309
Station Height(m) 219
Record Time       2024/04/02 04:25:44
Sampling Freq(Hz) 100Hz
Duration Time(s)  109
Dir.              N-S
Scale Factor      7845(gal)/8223790
Max. Acc. (gal)   2.284
Last Correction   2024/04/02 04:25:43
Memo.             
[...]
   -1008    -1146    -1281    -1390    -1455    -1474    -1455    -1409 
   -1360    -1327    -1309    -1302    -1296    -1291    -1309    -1356 
   -1439    -1549    -1664    -1782    -1902    -1993    -2043    -2061 
   -2041    -1969    -1852    -1687    -1472    -1239    -1035     -896 
    -814     -778     -795     -850     -942    -1071    -1235    -1420 
   -1609    -1784    -1906    -1960    -1964    -1908    -1782    -1609 
   -1412    -1201     -985     -780     -591     -410     -232      -72 
      66      168      205      166       58      -98     -263     -422 
    -580     -738     -916    -1115    -1310    -1491    -1629    -1703 
   -1725    -1714    -1690    -1672    -1684    -1715    -1745    -1777 
   -1811    -1838    -1854    -1844    -1802    -1755    -1713    -1657 
   -1580    -1466    -1298    -1090     -843     -579     -328      -95 
     105      263      380      460      511      531      515      444 
     299       97     -141     -399     -648     -859    -1023    -1140 
   -1201    -1190    -1119     -999     -842     -662     -486     -336 
    -218     -135      -74      -40      -35      -59     -128     -253 
    -418     -576     -684     -739     -756     -743     -726     -727 
    -743     -750     -741     -722     -700     -699     -737     -826 
    -980    -1178    -1381    -1553    -1692    -1796    -1867    -1926 
   -1976    -1993    -1969    -1900    -1799    -1672    -1522    -1351 
   -1165     -970     -787     -638     -537     -484     -473     -486 
    -517     -585     -697     -846    -1015    -1185    -1337    -1462 
   -1549    -1594    -1611    -1626    -1640    -1648    -1644    -1605 
   -1521    -1399    -1273    -1161    -1069     -993     -930     -874 
    -816     -760     -716     -689     -672     -656     -646     -660 
    -703     -785     -881     -946     -980     -985     -972     -967 
    -992    -1044    -1108    -1147    -1147    -1116    -1063    -1005 
    -943     -866     -778     -685     -598     -529     -484     -486 
    -546     -652     -789     -935    -1069    -1192    -1308    -1425 
   -1556    -1692    -1810    -1884    -1917    -1904    -1853    -1796 
   -1773    -1783    -1803    -1818    -1799    -1723    -1603    -1459 
   -1320    -1192    -1051     -884     -697     -506     -317     -144 
      -6       95      149      151      106       32      -51     -135 
    -211     -280     -364     -477     -625     -795     -947    -1047 
   -1075    -1040     -969     -877     -783     -699     -621     -534 
    -440     -332     -206      -79       37      130      184      205 
     180      118       40      -64     -186     -319     -487     -673 
    -842     -976    -1063    -1100    -1111    -1139    -1205    -1277 
   -1316    -1314    -1270    -1193    -1132    -1115    -1129    -1169 
   -1219    -1247    -1236    -1190    -1144    -1147    -1231    -1393 
   -1590    -1760    -1846    -1844    -1795    -1732    -1694    -1691 
   -1680    -1621    -1487    -1262     -970     -684     -440     -255 
    -144      -91      -72      -78     -125     -234     -403     -656 
    -992    -1360    -1717    -2012    -2220    -2346    -2404    -2417 
   -2398    -2353    -2285    -2184    -2042    -1865    -1674    -1482 
   -1305    -1163    -1050     -955     -876     -812     -766     -733 
    -726     -751     -804     -885     -976    -1073    -1175    -1277 
   -1372    -1449    -1493    -1502    -1460    -1359    -1213    -1032 
    -830     -639     -476     -346     -265     -237     -261     -332 
    -441     -588     -764     -962    -1178    -1394    -1598    -1756 
   -1837    -1833    -1756    -1640    -1513    -1387    -1260    -1112 
    -943     -777     -629     -521     -476     -494     -538     -585 
    -627     -664     -727     -847    -1030    -1248    -1449    -1598 
   -1668    -1664    -1602    -1495    -1367    -1227    -1077     -919 
    -749     -581     -436     -311     -229     -209     -252     -334 
    -437     -546     -652     -750     -845     -939    -1031    -1128 
   -1231    -1305    -1325    -1309    -1263    -1202    -1177    -1196 
   -1225    -1248    -1251    -1217    -1152    -1071     -996     -935 
    -895     -884     -888     -896     -918     -932     -936     -951 
    -976    -1001    -1021    -1036    -1036     -988     -877     -737 
    -603     -500     -444     -426     -436     -479     -545     -622 
    -729     -865    -1013    -1152    -1262    -1333    -1358    -1328 
   -1256    -1150    -1026     -905     -814     -760     -724     -692 
    -648     -588     -537     -515     -521     -537     -561     -581 
    -580     -564     -541     -499     -421     -318     -210     -110 
     -27       18       28       12      -27      -98     -202     -321 
    -440     -553     -660     -770     -886    -1012    -1156    -1324 
   -1491    -1645    -1787    -1912    -2011    -2065    -2057    -1996 
   -1907    -1806    -1702    -1588    -1449    -1290    -1138    -1001 
    -886     -810     -773     -784     -851     -958    -1090    -1240 
   -1399    -1561    -1709    -1837    -1962    -2076    -2158    -2192 
   -2176    -2127    -2073    -2029    -1996    -1975    -1945    -1892 
   -1818    -1714    -1574    -1420    -1282    -1166    -1057     -946 
    -837     -737     -656     -614     -619     -666     -760     -878 
   -1008    -1167    -1355    -1541    -1698    -1795    -1813    -1761 
   -1659    -1516    -1335    -1116     -857     -548     -199      148 
     456      710      901     1016     1051     1012      901      726 
     492      213      -95     -405     -703     -974    -1194    -1355 
   -1447    -1468    -1436    -1377    -1305    -1223    -1121     -976 
    -770     -518     -243       18      247      429      548      596 
     576      490      353      178      -31     -268     -525     -777 
    -986    -1131    -1206    -1209    -1150    -1066     -972     -868 
    -760     -645     -523     -400     -298     -232     -213     -247 
    -313     -405     -525     -677     -868    -1101    -1368    -1649 
   -1933    -2205    -2443    -2640    -2797    -2903    -2949    -2926 
   -2855    -2743    -2577    -2386    -2193    -1991    -1767    -1533 
   -1309    -1104     -942     -830     -742     -658     -594     -567 
    -571     -612     -679     -739     -808     -901    -1003    -1105 
   -1227    -1366    -1502    -1636    -1777    -1926    -2083    -2234 
   -2349    -2400    -2369    -2274    -2124    -1933    -1715    -1474 
   -1204     -919     -631     -349      -89      126      290      411 
     495      525      483      371      184      -59     -321     -573 
    -812    -1034    -1229    -1399    -1544    -1651    -1718    -1750 
   -1740    -1692    -1618    -1512    -1360    -1177    -1005     -869 
    -770     -712     -680     -643     -594     -540     -504     -492 
    -508     -553     -607     -650     -688     -739     -818     -936 
   -1085    -1247    -1418    -1595    -1759    -1892    -1991    -2047 
   -2052    -2006    -1915    -1776    -1607    -1420    -1208     -965 
    -699     -436     -203      -31       62       99      101       66 
      -1      -91     -202     -328     -456     -579     -695     -801 
    -899     -985    -1058    -1113    -1152    -1175    -1171    -1132 
   -1053     -932     -781     -606     -409     -187       45      249 
     405      515      587      621      607      530      373      130 
    -187     -541     -895    -1228    -1521    -1776    -1989    -2147 
   -2255    -2328    -2365    -2366    -2319    -2226    -2100    -1966 
   -1841    -1725    -1609    -1483    -1345    -1220    -1136    -1097 
   -1100    -1136    -1210    -1318    -1448    -1593    -1736    -1853 
   -1934    -1985    -2008    -1999    -1962    -1896    -1788    -1636 
   -1451    -1236    -1003     -781     -585     -426     -329     -298 
    -326     -386     -449     -510     -549     -561     -560     -535 
    -477     -390     -268     -110       62      228      372      473 
     518      514      475      415      357      286      175       18 
    -163     -365     -583     -810    -1036    -1244    -1424    -1556 
   -1626    -1647    -1632    -1591    -1529    -1449    -1343    -1208 
   -1069     -957     -885     -870     -927    -1050    -1217    -1402 
   -1580    -1734    -1869    -1992    -2092    -2158    -2195    -2201 
   -2178    -2131    -2069    -1995    -1912    -1815    -1709    -1598 
   -1464    -1318    -1171    -1004     -826     -661     -517     -382 
    -259     -168     -117     -102     -130     -199     -301     -410 
    -513     -616     -737     -882    -1034    -1171    -1262    -1285 
   -1251    -1178    -1078     -942     -761     -550     -333     -135 
      32      152      216      220      167       74      -54     -213 
    -380     -557     -743     -930    -1098    -1256    -1422    -1588 
   -1732    -1848    -1931    -1971    -1972    -1945    -1892    -1818 
   -1722    -1593    -1421    -1210     -978     -756     -568     -426 
    -325     -253     -205     -170     -145     -145     -179     -251 
    -355     -486     -635     -783     -934    -1097    -1266    -1428 
   -1561    -1649    -1676    -1645    -1586    -1518    -1444    -1374 
   -1308    -1248    -1190    -1143    -1128    -1155    -1227    -1332 
   -1455    -1564    -1645    -1699    -1737    -1773    -1796    -1800 
   -1784    -1714    -1583    -1417    -1243    -1096    -1000     -932 
    -857     -764     -666     -603     -594     -626     -666     -679 
    -665     -653     -673     -743     -853     -974    -1093    -1185 
   -1237    -1262    -1271    -1278    -1264    -1219    -1147    -1050 
    -935     -823     -737     -693     -687     -711     -756     -800 
    -845     -901     -967    -1027    -1069    -1096    -1121    -1158 
   -1201    -1240    -1264    -1283    -1305    -1316    -1324    -1320 
   -1262    -1151    -1016     -882     -778     -716     -691     -704 
    -743     -804     -892     -999    -1102    -1189    -1239    -1233 
   -1165    -1034     -861     -684     -534     -441     -400     -395 
    -414     -441     -477     -525     -588     -675     -770     -847 
    -876     -861     -828     -789     -773     -808     -881     -965 
   -1044    -1104    -1136    -1147    -1139    -1129    -1132    -1136 
   -1128    -1123    -1128    -1146    -1169    -1204    -1266    -1355 
   -1453    -1537    -1584    -1579    -1498    -1355    -1194    -1047 
    -904     -760     -623     -496     -387     -321     -313     -352 
    -419     -504     -583     -633     -657     -672     -695     -734 
    -772     -792     -795     -777     -738     -693     -649     -595 
    -544     -495     -444     -405     -376     -356     -346     -349 
    -369     -414     -477     -535     -573     -591     -600     -616 
    -649     -714     -818     -942    -1074    -1194    -1286    -1352 
   -1398    -1437    -1466    -1470    -1436    -1351    -1236    -1138 
   -1078    -1074    -1129    -1233    -1370    -1518    -1667    -1833 
   -1995    -2119    -2211    -2269    -2285    -2282    -2259    -2222 
   -2182    -2143    -2108    -2081    -2050    -2002    -1933    -1841 
   -1711    -1548    -1379    -1212    -1044     -891     -760     -649 
    -549     -464     -403     -364     -349     -344     -332     -311 
    -305     -326     -379     -480     -623     -787     -957    -1113 
   -1242    -1352    -1449    -1521    -1561    -1563    -1505    -1382 
   -1213    -1026     -838     -654     -476     -307     -166      -63 
     -10      -12      -62     -145     -252     -365     -481     -600 
    -726     -861     -992    -1112    -1213    -1294    -1363    -1418 
   -1460    -1490    -1501    -1489    -1455    -1394    -1297    -1173 
   -1040     -897     -761     -670     -633     -630     -654     -683 
    -704     -722     -738     -764     -803     -839     -854     -826 
    -746     -634     -514     -407     -328     -261     -205     -145 
     -67        5       56      106      155      194      213      203 
     175      109      -13     -176     -376     -604     -835    -1055 
   -1240    -1387    -1518    -1632    -1723    -1807    -1883    -1944 
   -1976    -1972    -1930    -1858    -1761    -1644    -1517    -1398 
   -1279    -1148    -1008     -870     -761     -708     -712     -783 
    -909    -1057    -1202    -1341    -1452    -1532    -1606    -1691 
   -1788    -1877    -1933    -1937    -1876    -1759    -1625    -1514 
   -1437    -1374    -1298    -1202    -1089     -970     -872     -796 
    -726     -658     -579     -477     -361     -232     -106      -13 
      31       29       -5      -64     -137     -233     -379     -585 
    -845    -1129    -1412    -1663    -1869    -2014    -2096    -2131 
   -2124    -2087    -2015    -1894    -1706    -1445    -1134     -816 
    -534     -306     -140      -29       33       64       67       29 
     -62     -211     -417     -664     -918    -1143    -1310    -1424 
   -1501    -1556    -1591    -1593    -1540    -1432    -1262    -1039 
    -791     -530     -264      -18      187      342      429      448 
     405      295      120     -112     -396     -726    -1074    -1428 
   -1776    -2088    -2320    -2459    -2501    -2455    -2349    -2189 
   -1975    -1707    -1401    -1073     -747     -453     -218      -59 
       5      -45     -211     -477     -816    -1190    -1582    -1980 
   -2373    -2740    -3053    -3276    -3377    -3345    -3186    -2918 
   -2573    -2169    -1736    -1309     -912     -546     -203       97 
     324      456      495      438      311      144      -49     -256 
    -449     -610     -735     -841     -949    -1058    -1144    -1174 
   -1116     -977     -791     -607     -461     -356     -280     -216 
    -157     -121     -103      -97     -121     -191     -295     -421 
    -550     -679     -807     -926    -1034    -1132    -1221    -1314 
   -1409    -1491    -1563    -1618    -1648    -1649    -1636    -1615 
   -1597    -1588    -1594    -1593    -1578    -1556    -1526    -1483 
   -1433    -1381    -1345    -1345    -1383    -1433    -1467    -1478 
   -1479    -1478    -1489    -1517    -1544    -1559    -1547    -1505 
   -1447    -1366    -1267    -1171    -1071     -965     -868     -783 
    -712     -662     -631     -625     -638     -657     -666     -668 
    -669     -675     -695     -737     -781     -810     -818     -792 
    -730     -652     -560     -469     -394     -317     -240     -183 
    -156     -162     -199     -271     -382     -521     -665     -795 
    -900     -992    -1073    -1128    -1159    -1167    -1162    -1156 
   -1142    -1123    -1112    -1117    -1144    -1194    -1264    -1348 
   -1426    -1493    -1540    -1563    -1567    -1566    -1575    -1599 
   -1630    -1655    -1663    -1649    -1617    -1560    -1478    -1382 
   -1275    -1152    -1020     -882     -730     -580     -450     -332 
    -228     -136      -43       43      110      145      149      122 
      75       22      -18      -37      -41      -40      -35      -27 
     -24      -22      -29      -63     -120     -194     -298     -432 
    -577     -724     -866    -1007    -1143    -1274    -1404    -1520 
   -1597    -1636    -1641    -1603    -1539    -1476    -1425    -1387 
   -1360    -1336    -1312    -1296    -1300    -1325    -1362    -1405 
   -1459    -1509    -1540    -1541    -1498    -1416    -1312    -1201 
   -1104    -1016     -931     -849     -761     -672     -602     -577 
    -615     -710     -842     -973    -1082    -1182    -1283    -1382 
   -1479    -1563    -1603    -1591    -1536    -1443    -1327    -1205 
   -1075     -926     -762     -606     -471     -371     -317     -314 
    -348     -415     -514     -625     -730     -828     -918     -988 
   -1048    -1100    -1125    -1121    -1096    -1054    -1008     -966 
    -926     -891     -857     -826     -796     -769     -757     -778 
    -842     -935    -1050    -1166    -1267    -1355    -1440    -1513 
   -1552    -1552    -1517    -1444    -1337    -1201    -1036     -851 
    -661     -479     -319     -209     -163     -178     -241     -344 
    -481     -641     -819    -1015    -1215    -1410    -1603    -1780 
   -1926    -2030    -2083    -2083    -2038    -1960    -1868    -1772 
   -1661    -1529    -1385    -1242    -1112    -1003     -918     -861 
    -828     -819     -841     -889     -965    -1084    -1237    -1412 
   -1587    -1738    -1846    -1922    -1976    -2008    -2015    -1987 
   -1922    -1829    -1709    -1574    -1447    -1329    -1219    -1120 
   -1032     -936     -826     -710     -588     -464     -348     -251 
    -186     -155     -147     -160     -201     -270     -361     -461 
    -562     -669     -774     -866     -922     -920     -869     -780 
    -666     -556     -460     -390     -359     -361     -398     -472 
    -576     -700     -843    -1004    -1179    -1356    -1516    -1638 
   -1713    -1742    -1733    -1687    -1615    -1521    -1408    -1281 
   -1128     -945     -733     -508     -298     -112       37      139 
     187      176       98      -37     -220     -441     -693     -969 
   -1248    -1509    -1730    -1896    -1991    -2010    -1961    -1864 
   -1728    -1563    -1390    -1216    -1058     -926     -827     -774 
    -765     -797     -881    -1004    -1138    -1263    -1345    -1371 
   -1352    -1298    -1215    -1112     -992     -843     -664     -465 
    -276     -122      -14       48       66       35      -37     -141 
    -278     -450     -661     -892    -1135    -1372    -1566    -1705 
   -1792    -1831    -1834    -1799    -1722    -1609    -1464    -1291 
   -1098     -896     -699     -529     -383     -270     -197     -160 
    -156     -193     -276     -411     -581     -765     -938    -1075 
   -1175    -1237    -1259    -1231    -1163    -1094    -1036     -999 
    -996    -1007    -1015    -1032    -1067    -1113    -1170    -1231 
   -1285    -1320    -1332    -1308    -1252    -1183    -1108    -1043 
    -993     -939     -866     -772     -660     -542     -440     -368 
    -325     -297     -274     -255     -255     -303     -410     -576 
    -785     -999    -1196    -1362    -1472    -1540    -1594    -1629 
   -1638    -1625    -1583    -1513    -1418    -1306    -1189    -1065 
    -923     -768     -598     -414     -232      -60       91      203 
     268      297      279      220      129        2     -179     -417 
    -704    -1017    -1333    -1618    -1844    -1999    -2085    -2111 
   -2092    -2046    -1977    -1888    -1784    -1655    -1494    -1325 
   -1161    -1011     -900     -837     -816     -831     -855     -881 
    -915     -965    -1048    -1171    -1321    -1482    -1625    -1723 
   -1769    -1757    -1694    -1598    -1483    -1360    -1239    -1105 
    -949     -773     -588     -407     -255     -152     -112     -130 
    -199     -313     -465     -650     -873    -1132    -1412    -1686 
   -1921    -2092    -2180    -2177    -2085    -1910    -1683    -1428 
   -1152     -853     -521     -178      144      434      656      778 
     807      764      656      486      253      -41     -398     -783 
   -1166    -1506    -1768    -1949    -2058    -2096    -2076    -2000 
