Origin Time       2024/04/02 04:24:00
Lat.              40.133
Long.             141.712
Depth. (km)       71
Mag.              6.0
Station Code      FKS017
Station Lat.      37.2844
Station Long.     140.3689
Station Height(m) 259
Record Time       2024/04/02 04:25:49
Sampling Freq(Hz) 100Hz
Duration Time(s)  102
Dir.              E-W
Scale Factor      7845(gal)/8223790
Max. Acc. (gal)   3.104
Last Correction   2024/04/02 04:25:48
Memo.             
[...]
   -9686    -9575    -9455    -9246    -9192    -9358    -9414    -9427 
   -9724    -9999    -9927    -9923   -10108   -10049    -9857    -9846 
   -9823    -9597    -9304    -9089    -8892    -8660    -8565    -8695 
   -8839    -8873    -8845    -8719    -8552    -8544    -8618    -8559 
   -8541    -8735    -8888    -8981    -9271    -9552    -9606    -9795 
  -10239   -10443   -10315   -10304   -10342   -10120    -9927    -9965 
   -9948    -9753    -9543    -9397    -9165    -8903    -8932    -9076 
   -8953    -8822    -8916    -8934    -8765    -8673    -8760    -8916 
   -9065    -9190    -9286    -9288    -9271    -9406    -9556    -9560 
   -9541    -9548    -9447    -9223    -9054    -9009    -8955    -8928 
   -8947    -8858    -8811    -8945    -9040    -9135    -9420    -9699 
   -9772    -9756    -9707    -9510    -9243    -9069    -8980    -8964 
   -9016    -9139    -9347    -9539    -9625    -9628    -9628    -9683 
   -9726    -9710    -9647    -9578    -9579    -9552    -9371    -9216 
   -9196    -9185    -9292    -9579    -9737    -9757    -9805    -9656 
   -9355    -9239    -9231    -9175    -9229    -9402    -9470    -9428 
   -9369    -9262    -9154    -9086    -9016    -8978    -9001    -9027 
   -9011    -8973    -8949    -8969    -9080    -9267    -9371    -9316 
   -9325    -9458    -9467    -9382    -9383    -9414    -9513    -9786 
  -10012   -10022   -10034   -10075    -9902    -9676    -9698    -9802 
   -9684    -9431    -9254    -9157    -9150    -9288    -9408    -9310 
   -9173    -9234    -9305    -9251    -9288    -9355    -9234    -9158 
   -9270    -9283    -9225    -9340    -9482    -9479    -9482    -9562 
   -9544    -9335    -9119    -9047    -9012    -8981    -9032    -9090 
   -9109    -9174    -9242    -9182    -9078    -9097    -9146    -9120 
   -9223    -9479    -9562    -9447    -9427    -9490    -9435    -9317 
   -9216    -9038    -8923    -8959    -8884    -8712    -8630    -8549 
   -8540    -8777    -9094    -9288    -9494    -9722    -9698    -9583 
   -9795   -10112   -10126   -10098   -10268   -10322   -10227   -10253 
  -10241   -10048    -9934    -9960    -9871    -9590    -9360    -9296 
   -9147    -8912    -8847    -8777    -8496    -8271    -8225    -8164 
   -8095    -8116    -8124    -8064    -8055    -8175    -8410    -8641 
   -8827    -9185    -9633    -9734    -9640    -9715    -9769    -9779 
   -9973   -10157   -10180   -10226   -10268   -10162   -10029   -10068 
  -10249   -10349   -10322   -10255   -10115    -9890    -9609    -9309 
   -9138    -9144    -9174    -9163    -9182    -9185    -9124    -9078 
   -9039    -8977    -8919    -8864    -8833    -8781    -8684    -8658 
   -8640    -8495    -8403    -8517    -8676    -8793    -8930    -9038 
   -9105    -9246    -9464    -9566    -9417    -9254    -9282    -9333 
   -9394    -9597    -9720    -9632    -9593    -9643    -9599    -9560 
   -9601    -9549    -9432    -9383    -9302    -9113    -9057    -9188 
   -9135    -8924    -8969    -9140    -9154    -9238    -9521    -9726 
   -9837   -10034   -10091    -9979   -10100   -10353   -10368   -10268 
  -10183    -9967    -9668    -9481    -9340    -9128    -9011    -9077 
   -9034    -8766    -8588    -8634    -8691    -8577    -8384    -8414 
   -8619    -8671    -8675    -8760    -8722    -8716    -8961    -9252 
   -9487    -9691    -9749    -9656    -9553    -9478    -9389    -9292 
   -9232    -9236    -9252    -9216    -9111    -9051    -9096    -9063 
   -8941    -8982    -9184    -9375    -9555    -9711    -9792    -9765 
   -9567    -9317    -9247    -9220    -9103    -9089    -9089    -8904 
   -8748    -8758    -8768    -8677    -8617    -8722    -8831    -8799 
   -8819    -8927    -8892    -8816    -8910    -9034    -9124    -9288 
   -9460    -9587    -9709    -9792    -9836    -9873    -9950   -10130 
  -10230   -10087    -9996   -10085   -10033    -9822    -9740    -9755 
   -9659    -9491    -9418    -9439    -9467    -9528    -9663    -9776 
   -9787    -9832    -9929    -9822    -9639    -9666    -9707    -9718 
   -9868    -9906    -9740    -9774    -9987    -9979    -9914   -10115 
  -10285   -10154    -9971    -9941    -9973   -10039   -10166   -10242 
  -10260   -10251   -10130   -10011    -9975    -9859    -9718    -9617 
   -9421    -9192    -8993    -8762    -8622    -8583    -8429    -8235 
   -8210    -8321    -8459    -8561    -8718    -9034    -9359    -9609 
   -9871   -10045   -10110   -10179   -10099    -9868    -9734    -9621 
   -9375    -9115    -8900    -8733    -8669    -8687    -8756    -8845 
   -8876    -8870    -8877    -8887    -8986    -9227    -9418    -9389 
   -9171    -8880    -8683    -8708    -8916    -9093    -9030    -8833 
   -8731    -8622    -8469    -8568    -8843    -8900    -8849    -9020 
   -9202    -9155    -9113    -9154    -9139    -9258    -9575    -9730 
   -9698    -9706    -9614    -9404    -9354    -9409    -9383    -9255 
   -8892    -8351    -8031    -8051    -8129    -8143    -8270    -8576 
   -8870    -9057    -9242    -9475    -9720    -9975   -10216   -10327 
  -10266   -10138    -9985    -9815    -9736    -9774    -9803    -9725 
   -9576    -9474    -9425    -9310    -9143    -8995    -8861    -8857 
   -9090    -9266    -9119    -8937    -8950    -8974    -9078    -9470 
   -9841    -9857    -9715    -9506    -9073    -8652    -8490    -8376 
   -8189    -8087    -8139    -8260    -8333    -8422    -8791    -9378 
   -9809   -10088   -10404   -10550   -10454   -10440   -10484   -10249 
   -9780    -9378    -9139    -9049    -9055    -9008    -8918    -8911 
   -8926    -8937    -9018    -9200    -9420    -9517    -9598    -9856 
  -10084   -10187   -10318   -10381   -10234   -10014    -9900    -9844 
   -9760    -9643    -9501    -9451    -9437    -9328    -9317    -9456 
   -9575    -9757   -10060   -10300   -10407   -10550   -10733   -10679 
  -10358    -9991    -9701    -9602    -9674    -9695    -9679    -9664 
   -9413    -8937    -8594    -8456    -8413    -8530    -8829    -9154 
   -9331    -9367    -9363    -9262    -9135    -9244    -9526    -9668 
   -9626    -9598    -9639    -9620    -9483    -9340    -9331    -9329 
   -9132    -8939    -8864    -8703    -8661    -9027    -9528    -9861 
   -9923    -9641    -9050    -8399    -8089    -8163    -8409    -8768 
   -9028    -9094    -9294    -9655    -9903   -10025   -10111   -10077 
   -9883    -9674    -9533    -9369    -9038    -8619    -8378    -8253 
   -8091    -8044    -8136    -8293    -8548    -8737    -8766    -8878 
   -9159    -9428    -9630    -9832    -9998   -10076   -10012    -9721 
   -9428    -9414    -9364    -9088    -8899    -8746    -8463    -8322 
   -8436    -8552    -8681    -8954    -9103    -9018    -8966    -8893 
   -8681    -8569    -8635    -8622    -8559    -8704    -8756    -8455 
   -8324    -8527    -8723    -9092    -9745   -10183   -10312   -10426 
  -10349   -10007    -9845    -9950    -9888    -9559    -9213    -8802 
   -8264    -7959    -8012    -8060    -7960    -7932    -7919    -7643 
   -7402    -7572    -7784    -7942    -8598    -9568   -10242   -10794 
  -11372   -11641   -11754   -11990   -12024   -11703   -11340   -10913 
  -10191    -9472    -9220    -9236    -9084    -8830    -8645    -8398 
   -8251    -8527    -8984    -9387    -9873   -10270   -10393   -10471 
  -10563   -10492   -10393   -10494   -10662   -10764   -10932   -11079 
  -10928   -10640   -10617   -10786   -10804   -10640   -10342    -9799 
   -9131    -8625    -8356    -8305    -8426    -8654    -8957    -9188 
   -9266    -9343    -9362    -9107    -8808    -8779    -8876    -8995 
   -9216    -9472    -9690    -9861    -9996   -10058    -9879    -9560 
   -9378    -9190    -8834    -8479    -8320    -8368    -8433    -8461 
   -8576    -8742    -8931    -9151    -9269    -9282    -9348    -9502 
   -9624    -9697    -9769    -9741    -9695    -9838    -9987   -10026 
  -10130   -10131    -9819    -9454    -9153    -8614    -7902    -7553 
   -7614    -7657    -7712    -8067    -8680    -9344    -9894   -10347 
  -10665   -10476    -9853    -9398    -9123    -8877    -9003    -9410 
   -9626    -9607    -9378    -8941    -8505    -8164    -7982    -8095 
   -8344    -8419    -8352    -8367    -8441    -8464    -8517    -8654 
   -8734    -8565    -8310    -8341    -8588    -8837    -9170    -9553 
   -9909   -10376   -10998   -11603   -12040   -12351   -12444   -11935 
  -10902    -9904    -9081    -8436    -8241    -8387    -8382    -8066 
   -7650    -7369    -7184    -6953    -6895    -7184    -7570    -7978 
   -8526    -9073    -9535   -10015   -10442   -10839   -11469   -12124 
  -12275   -11985   -11500   -10858   -10385   -10334   -10368   -10177 
   -9749    -9049    -8263    -7773    -7593    -7587    -7681    -7794 
   -7952    -8091    -8203    -8463    -8694    -8784    -9112    -9629 
   -9895    -9987   -10038    -9753    -9204    -8980    -9306    -9903 
  -10531   -10933   -10890   -10675   -10628   -10515   -10145    -9891 
   -9751    -9288    -8776    -8560    -8317    -8093    -8205    -8479 
   -8831    -9393    -9958   -10255   -10431   -10656   -10716   -10538 
  -10416   -10416   -10369   -10353   -10550   -10800   -10849   -10895 
  -11074   -11024   -10675   -10432   -10326   -10010    -9580    -9482 
   -9651    -9678    -9522    -9333    -9217    -9211    -9136    -9011 
   -9139    -9460    -9630    -9625    -9578    -9468    -9239    -8918 
   -8568    -8267    -8105    -7985    -7693    -7349    -7180    -7195 
   -7393    -7703    -7858    -7757    -7589    -7636    -8019    -8453 
   -8662    -8838    -9124    -9397    -9668    -9944   -10065    -9937 
   -9620    -9298    -9078    -8977    -8962    -8753    -8322    -8167 
   -8433    -8710    -8835    -8915    -8842    -8649    -8600    -8587 
   -8517    -8581    -8586    -8387    -8356    -8533    -8594    -8604 
   -8730    -8883    -9140    -9640   -10114   -10273   -10215   -10130 
  -10125   -10184   -10196   -10126    -9952    -9660    -9421    -9354 
   -9398    -9566    -9815   -10048   -10288   -10415   -10237   -10018 
  -10080   -10203   -10125   -10037   -10172   -10343   -10308   -10260 
  -10330   -10233    -9961    -9795    -9657    -9466    -9410    -9490 
   -9548    -9620    -9776    -9899    -9872    -9765    -9609    -9294 
   -8905    -8658    -8544    -8484    -8507    -8583    -8584    -8353 
   -7928    -7519    -7148    -6910    -7084    -7458    -7597    -7727 
   -8235    -8926    -9509   -10015   -10474   -10785   -10979   -11202 
  -11303   -11145   -11064   -11136   -10998   -10627   -10173    -9684 
   -9229    -8812    -8514    -8421    -8401    -8437    -8641    -8795 
   -8662    -8548    -8764    -9111    -9458    -9954   -10550   -10874 
  -10694   -10363   -10277   -10253   -10160   -10181   -10293   -10349 
  -10363   -10492   -10729   -10763   -10469   -10135    -9931    -9699 
   -9327    -8851    -8282    -7677    -7165    -6860    -6851    -7082 
   -7408    -7662    -7785    -8047    -8600    -9046    -9159    -9182 
   -9194    -9292    -9644    -9992   -10212   -10516   -10665   -10481 
  -10331   -10297   -10165    -9929    -9535    -9024    -8706    -8657 
   -8772    -8965    -9136    -9375    -9609    -9509    -9158    -8843 
   -8591    -8451    -8568    -8868    -9127    -9405    -9840   -10215 
  -10270   -10104   -10012   -10033   -10023   -10088   -10274   -10270 
   -9817    -9065    -8406    -8051    -8046    -8267    -8343    -8190 
   -8074    -8027    -7959    -7928    -7938    -7973    -8145    -8406 
   -8583    -8710    -8912    -9220    -9536    -9693    -9776    -9976 
  -10196   -10296   -10305   -10315   -10292   -10083    -9774    -9570 
   -9377    -9147    -8928    -8563    -8127    -7866    -7634    -7410 
   -7477    -7761    -7993    -8205    -8517    -8926    -9433   -10122 
  -10887   -11367   -11539   -11749   -11974   -11844   -11361   -10974 
  -10912   -10994   -11030   -10851   -10423    -9963    -9649    -9568 
   -9699    -9761    -9431    -8748    -8129    -7874    -7820    -7766 
   -7889    -8259    -8486    -8475    -8640    -8993    -9204    -9423 
   -9845   -10177   -10319   -10494   -10685   -10783   -10856   -10929 
  -10936   -10943   -10997   -10870   -10512   -10301   -10272   -10077 
   -9904    -9941    -9713    -9177    -8881    -8738    -8457    -8364 
   -8491    -8456    -8390    -8318    -7901    -7512    -7669    -8062 
   -8370    -8716    -9032    -8985    -8627    -8343    -8164    -8000 
   -8085    -8452    -8707    -8702    -8726    -8937    -9185    -9425 
   -9655    -9659    -9425    -9313    -9377    -9286    -9138    -9302 
   -9583    -9776   -10197   -10701   -10735   -10461   -10195    -9709 
   -9074    -8673    -8287    -7743    -7469    -7522    -7689    -8147 
   -8884    -9563   -10037   -10368   -10574   -10511   -10242   -10139 
  -10270   -10404   -10551   -10732   -10708   -10407   -10072    -9853 
   -9705    -9504    -9173    -8706    -7943    -6967    -6367    -6374 
   -6642    -7125    -7825    -8167    -8151    -8591    -9315    -9709 
  -10314   -11190   -11371   -11122   -11327   -11581   -11518   -11649 
  -11973   -11959   -11573   -11109   -10525    -9683    -8814    -8170 
   -7740    -7601    -7666    -7612    -7531    -7693    -7958    -8208 
   -8595    -9078    -9400    -9412    -9213    -9180    -9531    -9983 
  -10386   -10929   -11416   -11483   -11276   -11153   -11086   -10848 
  -10399    -9840    -9171    -8397    -7711    -7159    -6574    -6137 
   -6076    -6237    -6509    -6818    -6999    -7169    -7484    -7811 
   -8081    -8550    -9332   -10065   -10631   -11268   -11751   -11800 
  -11611   -11295   -10845   -10409   -10060    -9823    -9697    -9528 
   -9302    -9134    -8978    -8766    -8527    -8307    -8244    -8425 
   -8648    -8851    -9251    -9702    -9877    -9845    -9868   -10056 
  -10265   -10315   -10227   -10106   -10007    -9988    -9973    -9763 
   -9409    -9101    -8779    -8517    -8595    -8819    -8799    -8658 
   -8657    -8649    -8505    -8442    -8610    -8880    -9081    -9155 
   -9301    -9655    -9954   -10193   -10524   -10667   -10608   -10655 
  -10712   -10619   -10484   -10363   -10207   -10037    -9956    -9961 
   -9921    -9697    -9358    -9057    -8687    -8303    -8274    -8584 
   -8780    -8714    -8773    -9028    -9030    -8761    -8615    -8677 
   -8824    -9009    -9194    -9288    -9400    -9703    -9957    -9995 
  -10129   -10369   -10246    -9725    -9344    -9212    -8986    -8753 
   -8777    -8946    -9144    -9431    -9729    -9919    -9945    -9683 
   -9250    -9051    -9105    -9058    -8946    -8953    -8937    -8999 
   -9400    -9790   -10027   -10570   -11128   -10990   -10493   -10173 
   -9790    -9244    -8916    -8874    -8808    -8648    -8541    -8445 
   -8298    -8235    -8317    -8517    -8846    -9161    -9139    -8830 
   -8664    -8722    -8826    -9040    -9294    -9259    -9001    -8874 
   -8829    -8660    -8507    -8527    -8650    -8788    -8887    -8892 
   -8883    -8934    -8964    -9039    -9358    -9896   -10397   -10565 
  -10528   -10650   -10797   -10855   -11028   -11124   -10974   -10825 
  -10660   -10415   -10307   -10274    -9988    -9474    -9040    -8779 
   -8641    -8677    -8884    -9108    -9104    -8834    -8633    -8581 
   -8561    -8741    -9035    -9142    -9059    -8850    -8664    -8553 
   -8270    -7933    -7744    -7452    -7119    -7133    -7456    -7844 
   -8274    -8769    -9192    -9424    -9589    -9749    -9776    -9684 
   -9605    -9513    -9374    -9315    -9517    -9907   -10195   -10285 
  -10191    -9902    -9613    -9502    -9510    -9479    -9290    -9026 
   -8750    -8387    -8121    -8154    -8217    -8125    -8183    -8495 
   -8742    -8869    -9100    -9369    -9489    -9555    -9829   -10299 
  -10624   -10773   -11021   -11226   -11157   -11048   -11043   -10963 
  -10822   -10685   -10412   -10026    -9656    -9340    -9274    -9590 
   -9894    -9810    -9603    -9470    -9153    -8700    -8514    -8613 
   -8646    -8511    -8442    -8588    -8850    -9126    -9483    -9918 
  -10079    -9799    -9456    -9224    -8920    -8619    -8534    -8580 
   -8640    -8811    -9034    -9232    -9579    -9911    -9894    -9709 
   -9567    -9448    -9493    -9706    -9826    -9729    -9514    -9321 
   -9167    -9051    -9131    -9335    -9348    -9155    -8959    -8853 
   -8760    -8654    -8799    -9269    -9630    -9591    -9387    -9346 
   -9456    -9640    -9898    -9975    -9838    -9848    -9891    -9756 
   -9742    -9861    -9822    -9722    -9660    -9510    -9300    -9207 
   -9285    -9294    -9096    -8984    -9055    -8932    -8479    -8008 
   -7707    -7535    -7639    -8082    -8522    -8803    -9123    -9582 
  -10039   -10330   -10557   -10740   -10544   -10053    -9699    -9451 
   -9127    -8873    -8868    -9096    -9490    -9952   -10297   -10538 
  -10797   -10928   -10806   -10596   -10426   -10307   -10241   -10165 
  -10096   -10068    -9822    -9193    -8614    -8460    -8391    -8193 
   -8230    -8471    -8513    -8486    -8716    -9113    -9458    -9694 
   -9852    -9977   -10075   -10046    -9856    -9679    -9652    -9698 
   -9714    -9678    -9556    -9312    -8999    -8688    -8434    -8306 
   -8210    -7881    -7402    -7186    -7260    -7365    -7488    -7690 
   -7894    -7946    -7881    -8016    -8298    -8444    -8672    -9150 
   -9652   -10116   -10621   -11005   -11148   -11314   -11573   -11565 
  -11202   -10696   -10200    -9863    -9664    -9386    -8947    -8511 
   -8240    -8044    -7838    -7848    -8143    -8338    -8355    -8537 
   -8892    -9190    -9367    -9463    -9629    -9918   -10220   -10566 
  -10937   -11072   -10814   -10339    -9841    -9375    -8959    -8486 
   -7831    -7179    -6866    -6972    -7256    -7447    -7620    -7954 
   -8317    -8588    -8988    -9617   -10211   -10547   -10766   -10944 
  -10848   -10570   -10513   -10646   -10693   -10644   -10473   -10060 
   -9605    -9352    -9131    -8870    -8874    -9184    -9524    -9786 
  -10011   -10197   -10231   -10034    -9764    -9660    -9694    -9609 
   -9387    -9239    -9186    -9161    -9162    -9153    -9038    -8812 
   -8552    -8347    -8272    -8243    -8187    -8244    -8290    -8105 
   -8024    -8287    -8568    -8748    -9027    -9418    -9783   -10107 
  -10547   -11097   -11519   -11777   -11948   -11905   -11627   -11356 
  -11130   -10731   -10332   -10227    -9980    -9298    -8783    -8784 
   -8926    -8923    -8954    -9140    -9262    -9267    -9282    -9212 
   -9051    -8965    -8868    -8657    -8610    -8846    -9011    -8900 
   -8734    -8726    -8773    -8788    -8897    -9063    -9208    -9427 
   -9639    -9674    -9629    -9672    -9737    -9651    -9416    -9182 
   -9076    -9086    -9076    -9020    -8939    -8735    -8500    -8348 
   -8158    -8047    -8268    -8657    -8862    -8842    -8841    -8905 
   -8860    -8829    -9096    -9541    -9884   -10096   -10207   -10197 
  -10187   -10280   -10384   -10381   -10323   -10218    -9964    -9674 
   -9433    -9022    -8386    -7816    -7495    -7364    -7375    -7458 
   -7395    -7211    -7225    -7468    -7744    -8024    -8398    -8941 
   -9487    -9786    -9991   -10345   -10724   -11001   -11179   -11195 
  -11029   -10793   -10605   -10498   -10442   -10471   -10597   -10547 
