Origin Time       2024/04/02 04:24:00
Lat.              40.133
Long.             141.712
Depth. (km)       71
Mag.              6.0
Station Code      FKS010
Station Lat.      37.2338
Station Long.     141.0018
Station Height(m) 43
Record Time       2024/04/02 04:25:55
Sampling Freq(Hz) 100Hz
Duration Time(s)  80
Dir.              N-S
Scale Factor      7845(gal)/8223790
Max. Acc. (gal)   4.983
Last Correction   2024/04/02 04:25:54
Memo.             
[...]
    6099     6045     5832     5722     5676     5532     5329     5327 
    5556     5678     5551     5529     5852     6169     6169     6068 
    6068     6060     5958     5873     5952     6085     6127     6122 
    5917     5448     5125     5162     5317     5408     5512     5725 
    5833     5578     5213     5071     5088     5188     5386     5552 
    5521     5289     5044     4938     4968     5109     5267     5225 
    4947     4737     4691     4545     4449     4752     5100     5111 
    5115     5348     5537     5476     5346     5389     5464     5421 
    5468     5687     5791     5603     5344     5236     5285     5537 
    6014     6394     6354     6073     5879     5879     6034     6115 
    6041     5975     5800     5416     5246     5548     5829     5703 
    5503     5556     5733     5871     6042     6211     6145     5913 
    5745     5580     5382     5454     5940     6312     6118     5795 
    5830     5892     5657     5576     5967     6411     6555     6392 
    5921     5343     5139     5503     5973     6035     5903     6080 
    6458     6543     6243     5859     5594     5493     5563     5672 
    5695     5733     5796     5656     5238     4881     5071     5724 
    6110     5886     5498     5371     5429     5494     5555     5628 
    5800     6122     6284     6033     5622     5418     5495     5624 
    5532     5265     5134     5236     5390     5659     6089     6342 
    6285     6027     5691     5551     5647     5753     5800     5732 
    5472     5175     5103     5181     5094     5065     5582     6222 
    6141     5448     4923     4760     4621     4544     4818     5300 
    5587     5672     5776     5846     5786     5687     5571     5281 
    4939     5050     5524     5721     5640     5707     5919     6019 
    5989     6049     6030     5562     5043     5073     5393     5495 
    5449     5482     5536     5547     5514     5428     5335     5304 
    5455     5773     6000     6119     6301     6490     6485     6218 
    5867     5670     5638     5686     5842     6041     6116     6102 
    5975     5625     5262     5154     5298     5494     5466     5193 
    5012     5082     5248     5370     5335     5154     5085     5283 
    5478     5386     5348     5826     6488     6718     6511     6145 
    5813     5564     5252     4876     4630     4576     4810     5418 
    6129     6551     6606     6488     6223     5721     5258     5247 
    5567     5764     5795     5988     6291     6284     5953     5717 
    5759     5886     5944     5953     5919     5864     5815     5686 
    5433     5227     5314     5695     5927     5692     5287     5074 
    4980     4897     4985     5306     5576     5597     5547     5556 
    5510     5350     5166     5224     5648     5952     5764     5517 
    5443     5232     5023     5125     5217     5080     5165     5695 
    6115     6038     5784     5632     5555     5512     5571     5806 
    5948     5764     5566     5686     5925     5971     5948     5971 
    5795     5467     5313     5386     5575     5724     5763     5736 
    5629     5532     5580     5698     5707     5553     5468     5638 
    5914     6120     6150     5948     5686     5606     5728     5987 
    6362     6666     6714     6594     6372     5980     5506     5150 
    5039     5120     5144     5036     5013     5198     5490     5782 
    5994     6058     6031     5981     5962     6038     6073     5969 
    5863     5734     5526     5339     5224     5224     5389     5607 
    5690     5637     5682     5911     6011     5699     5194     4996 
    5225     5454     5394     5408     5826     6336     6532     6393 
    6069     5806     5792     5875     5883     5958     6146     6177 
    5899     5541     5337     5121     4716     4423     4557     4966 
    5323     5505     5593     5610     5552     5441     5228     4993 
    4953     5179     5543     5738     5687     5552     5329     5134 
    5294     5760     6026     5861     5593     5562     5752     5834 
    5603     5422     5616     5944     6170     6332     6432     6380 
    6176     5999     5938     5869     5815     5907     5964     5796 
    5638     5584     5429     5246     5101     4961     5040     5265 
    5310     5395     5950     6698     6797     6108     5539     5680 
    6002     5815     5427     5483     5775     5718     5474     5421 
    5248     4811     4625     4814     5046     5254     5586     6035 
    6147     5671     5198     5134     5150     5105     5185     5339 
    5454     5678     6103     6369     6129     5680     5418     5277 
    5239     5448     5852     6205     6320     6204     5877     5331 
    4725     4333     4240     4297     4622     5421     6320     6821 
    6929     6859     6590     6042     5316     4668     4471     4804 
    5393     6031     6403     6305     6035     5717     5224     4776 
    4664     4811     5136     5736     6370     6660     6671     6455 
    5757     4800     4332     4552     5082     5726     6297     6396 
    5953     5490     5444     5660     5884     6027     5883     5358 
    4785     4708     5232     5767     5738     5115     4369     4120 
    4432     4951     5293     5093     4571     4428     4914     5765 
    6616     7106     7056     6683     6247     5769     5340     4973 
    4591     4554     5250     6380     7182     7115     6438     5691 
    4953     4328     4059     4126     4658     5755     6885     7422 
    7321     6866     6276     5803     5551     5181     4660     4646 
    5389     6331     7074     7615     7754     7268     6521     5971 
    5553     5080     4599     4399     4619     4995     5316     5613 
    5714     5389     4915     4850     5200     5390     5228     5000 
    4803     4738     5046     5566     5900     6010     6149     6381 
    6351     5833     5289     5302     5809     6320     6651     6917 
    6859     6033     4793     4062     4172     4924     6214     7654 
    8405     8048     6978     5852     4999     4415     4205     4595 
    5489     6421     7291     8332     9167     9162     8360     7172 
    5817     4441     3450     3291     3954     5051     6135     6948 
    7680     8591     9081     8127     6002     4163     3493     3796 
    4394     4819     5225     5869     6632     7250     7407     6921 
    6111     5386     4634     3798     3438     3829     4453     4928 
    5224     5067     4395     3798     3942     4791     5606     5937 
    6110     6239     5958     5486     5354     5435     5544     5938 
    6627     7105     7014     6409     5367     4162     3447     3527 
    4075     4858     5957     6848     6619     5501     4592     4625 
    5703     7141     8324     9342     9869     9282     7890     6683 
    6079     5497     4496     3469     3037     3488     4483     5427 
    6108     6481     6359     5632     4707     4245     4191     4037 
    4001     4729     5884     6589     6912     7210     7334     7295 
    7233     6941     6173     5073     4044     3435     3388     3573 
    3709     4214     5111     5790     6336     7028     7466     7346 
    6855     6357     5908     5463     5375     5799     6327     6721 
    7204     7686     7423     6004     4125     3115     3603     4739 
    5154     4469     3597     3306     3406     3816     4824     6129 
    6795     6374     5382     4519     4183     4583     5606     6747 
    7361     7415     7489     7516     7118     6691     6500     6042 
    5181     4527     4446     4711     4947     4909     4661     4418 
    4419     4957     5751     5957     5336     4499     4233     4889 
    6060     6933     6982     6249     5081     3690     2313     1848 
    2909     4391     5215     5768     6309     6635     6914     7183 
    7117     6480     5344     4290     4005     4488     5235     5923 
    6403     6633     6947     7678     8449     8521     7720     6493 
    5352     4461     3769     3497     4037     5352     6689     7140 
    6658     5873     5332     5347     5717     5919     5768     5517 
    5485     5601     5416     4858     4531     4783     5175     5282 
    5181     5039     4882     4760     4652     4430     4379     4855 
    5297     5082     4741     5097     5927     6266     5975     5792 
    5860     5952     6432     7445     8171     7902     7087     6349 
    5487     4340     3543     3819     4885     5634     5429     4579 
    3784     3500     3677     4082     4699     5744     7237     8513 
    8667     7620     6214     5105     4105     3214     3283     4681 
    6610     8232     9265     9294     7977     5998     4286     3161 
    3076     4360     6173     7284     7434     7200     7082     7071 
    6940     6608     6192     5827     5610     5803     6357     6646 
    6388     5871     5459     5447     5832     6266     6412     6243 
    5778     4787     3426     2307     1672     1590     2362     3835 
    5081     5651     6187     6787     6462     5215     4224     3620 
    2936     3037     4637     6442     6953     6523     6114     5790 
    5555     5829     6635     7497     7863     7627     7377     7565 
    7771     7335     6300     5275     4730     4787     5331     6056 
    6628     6943     6984     6347     4796     3319     3257     4518 
    5837     6384     6372     6286     6262     6338     6511     6519 
    6149     5517     4950     4750     4934     5355     5914     6305 
    6355     6207     5636     4627     4091     4556     5374     5944 
    6544     7433     7990     7732     7101     6594     6259     5911 
    5331     4510     3703     3241     3315     3865     4745     5977 
    7418     8332     8058     6770     5448     5104     5630     6077 
    6060     5980     6207     6698     7260     7611     7460     6920 
    6417     6145     6130     6529     7200     7596     7353     6481 
    5414     4950     5273     5663     5687     5479     5055     4777 
    5174     5632     5445     5262     5823     6794     7499     7742 
    7458     6475     4959     3530     2938     3258     3804     4375 
    5011     5212     4923     4795     5071     5200     4824     4463 
    4490     4688     4854     4783     4384     4020     4085     4507 
    4923     5256     5648     5960     5969     5514     4756     4414 
    4873     5713     6220     5941     5076     4274     4149     4546 
    4602     4376     4776     5740     6400     6432     6174     5967 
    5860     5649     5096     4504     4414     4627     4955     5903 
    7369     8413     8604     8210     7411     6214     4854     3777 
    3325     3474     3793     4140     4843     5753     6278     6110 
    5416     4965     5472     6515     7082     6805     6038     5412 
    5358     5741     6191     6551     6866     7134     7074     6471 
    5614     4857     4345     4205     4502     5024     5220     4845 
    4374     4168     4255     4753     5721     6925     7730     7584 
    6820     6124     5876     6285     7037     7304     7086     7245 
    7773     7620     6358     4927     4332     4271     4175     4375 
    5066     5783     6319     6766     6625     5391     4048     4133 
    5414     6544     7433     8791    10057    10060     8905     7461 
    6231     5358     4633     4033     4135     5111     6253     6724 
    6265     5270     4460     4437     5042     5571     5881     6409 
    7272     7848     7429     6061     4429     3330     3153     3496 
    3878     4476     5333     5869     5913     5849     5740     5610 
    5621     5312     4337     3501     3535     4074     4548     4762 
    4760     4831     5194     5633     5887     6014     6138     6073 
    5514     4645     4129     4176     4182     3708     3289     3678 
    4633     5352     5738     6097     6131     5567     5262     5934 
    6893     7369     7439     7477     7549     7281     6534     5661 
    5023     4801     5096     5791     6372     6345     5749     4931 
    4178     3743     3798     4098     4229     4521     5441     6400 
    6628     6384     6199     6131     6366     7146     7834     7445 
    5823     3612     1999     2259     4415     6832     7848     7283 
    6172     5525     5521     5876     6280     6390     6138     5904 
    6026     6215     6099     5954     5937     5686     5198     4903 
    4918     5009     5096     5498     6511     7731     8338     8035 
    7084     5724     4280     3472     3541     3921     4629     5950 
    7044     7098     6617     6339     6230     6006     5501     4553 
    3640     3755     4761     5332     5007     4761     5370     6350 
    6852     6805     6660     6596     6477     6257     6116     6137 
    5935     5296     4919     5339     5879     5830     5579     5630 
    5567     5171     5142     5755     6399     6721     6878     6694 
    5902     5000     4456     4079     3923     4274     5061     6068 
    7017     7576     7618     7392     7153     6589     5422     4074 
    3132     2955     3531     4421     5197     5753     6095     6029 
    5439     4726     4182     3680     3439     3661     3831     3767 
    4149     5332     6710     7341     6793     5775     5297     5076 
    4217     3056     2729     3268     3615     3530     3736     4414 
    5221     6130     6971     7161     6879     6907     7041     6574 
    5590     4708     4459     4719     4993     5587     7141     9157 
   10494    10858    10648     9937     8584     6980     5714     4882 
    4249     3831     4172     5356     6184     6073     6023     6407 
    6515     6276     6027     5432     4369     3766     3944     4104 
    4371     5548     7072     7580     6939     6265     6143     6172 
    5911     5248     4450     4068     4486     5663     6999     7499 
    6828     5881     5530     5688     5949     6165     6322     6143 
    5166     3520     2269     2427     3769     5098     5921     6856 
    8025     8587     8293     7912     7728     7242     6496     5917 
    5543     5478     5827     6334     6859     7369     7472     6855 
    5657     4072     2492     1620     1896     3360     5440     7119 
    7951     8005     7407     6673     6265     6106     6135     6616 
    7624     8347     7782     6288     4957     4054     3403     3109 
    3129     3300     3726     4299     4542     4498     4924     5926 
    6652     6643     6142     5725     5842     6039     5702     5190 
    5217     5778     6269     6500     6548     6123     5233     4320 
    3658     3528     4224     5487     6257     5865     5316     5683 
    6440     6932     7462     7743     6897     5695     5594     6201 
    6675     7438     8638     9200     8384     6845     5656     5166 
    4915     4372     3554     2716     2072     2050     3110     4792 
    5718     5247     4245     3680     3460     3138     2876     3215 
    4174     4938     4851     4190     3669     3682     4131     4958 
    6056     6929     7477     7808     7607     6926     6304     6124 
    6436     6895     7200     7393     7267     6332     4779     3523 
    3001     2818     2813     3342     4486     5803     6767     6948 
    6347     5827     6041     6386     6214     5757     5486     5640 
    6278     7346     8756    10054    10238     8839     6633     4517 
    2810     1879     2257     3736     5243     6087     6482     6720 
    6739     6440     5925     5386     4835     4228     3778     3917 
    4876     6092     6782     6951     6795     6278     5841     6075 
    6795     7435     7765     7686     7026     5895     4772     4168 
    4372     5229     6038     6193     5755     4962     4170     3971 
    4475     5296     6099     6717     7140     7246     6858     6031 
    5190     5009     5653     6511     6901     6613     5975     5412 
    5046     5005     5611     6779     7655     7647     7155     6635 
    6133     5589     4754     3801     3574     4398     5671     6724 
    7299     7392     7017     6214     5189     4179     3581     3963 
    5109     5952     6112     6254     6662     6755     6416     6241 
    6200     5771     5135     4642     3936     3046     2986     4144 
    5557     6285     6351     6243     6219     6223     6050     5582 
    4992     4729     5090     5813     6427     6683     6426     5755 
    4969     4159     3708     4313     5775     7064     7570     7418 
    6839     5962     5100     4430     3931     3983     4708     5301 
    5320     5351     5664     5593     4816     3896     3191     2714 
    2616     2851     3240     3885     4820     5586     5879     6110 
    6436     6296     5544     4869     4795     5104     5584     6493 
    7713     8395     8044     7069     5833     4472     3484     3314 
    3870     4806     5761     6367     6320     5695     5038     4919 
    5462     6322     6966     6864     5998     5171     5123     5437 
    5124     4185     3608     3993     5078     6185     6785     6899 
    6990     7453     8002     7969     7547     7476     7657     7402 
    6690     6259     6462     6837     6831     6146     4835     3572 
    3171     3642     4594     6069     7878     9117     9358     9263 
    9225     8622     7134     5486     4364     3615     3153     3404 
    4244     5082     5769     6377     6687     6376     5637     5077 
    4901     4791     4544     4491     4889     5540     6255     6859 
    7172     7380     7778     8160     7978     7314     6874     6814 
    6745     6546     6299     5950     5410     4737     4094     3597 
    3222     2956     3044     3635     4197     4093     3624     3526 
    3908     4428     4692     4515     4237     4328     4927     5799 
    6415     6334     5648     4965     4760     4860     4846     4553 
    4297     4768     6061     7296     7804     7847     7809     7560 
    6897     5972     5061     4461     4449     4982     5535     5629 
    5447     5255     5036     5069     5524     5915     5915     5818 
    5832     5756     5521     5352     5277     5096     4754     4249 
    3605     2991     2555     2484     3011     4012     5034     5879 
    6663     7325     7546     7248     6801     6605     6655     6741 
    6690     6188     5181     4338     4167     4407     4770     5220 
    5555     5637     5613     5628     5805     6183     6555     6551 
    5946     5092     4630     4762     5209     5779     6547     7460 
    8158     8279     7755     6772     5632     4788     4595     4930 
    5475     6095     6662     6893     6729     6512     6442     6481 
    6683     7195     7955     8557     8671     8293     7515     6569 
    5830     5470     5209     4743     4240     4044     4241     4625 
    4909     5074     5424     6000     6295     6103     5842     5660 
    5308     4884     4818     5131     5394     5533     5763     5918 
    5690     5314     5394     5952     6424     6501     6231     5826 
    5553     5582     5880     6050     5719     5081     4506     4213 
    4383     4815     4909     4448     3743     3256     3456     4307 
    5186     5844     6436     6743     6477     5934     5599     5401 
    4995     4716     4988     5271     5092     4997     5503     6170 
    6372     6262     6350     6620     6809     7020     7381     7537 
