Origin Time       2024/04/02 04:24:00
Lat.              40.133
Long.             141.712
Depth. (km)       71
Mag.              6.0
Station Code      FKS018
Station Lat.      37.3959
Station Long.     140.3619
Station Height(m) 245
Record Time       2024/04/02 04:25:59
Sampling Freq(Hz) 100Hz
Duration Time(s)  67
Dir.              N-S
Scale Factor      7845(gal)/8223790
Max. Acc. (gal)   3.280
Last Correction   2024/04/02 04:25:59
Memo.             
[...]
   15338    15211    15246    15387    15542    15689    15759    15682 
   15512    15365    15313    15321    15321    15319    15310    15261 
   15233    15234    15228    15296    15398    15354    15187    15020 
   14922    14908    14924    15012    15242    15525    15747    15894 
   15993    16085    16059    15780    15441    15336    15450    15634 
   15801    15855    15781    15687    15608    15533    15552    15638 
   15628    15556    15520    15510    15552    15692    15855    15904 
   15769    15546    15384    15323    15369    15511    15664    15735 
   15689    15634    15678    15735    15711    15641    15603    15585 
   15500    15318    15102    14912    14771    14775    14948    15133 
   15245    15360    15510    15570    15442    15228    15049    14921 
   14864    14939    15122    15288    15380    15471    15543    15477 
   15287    15129    15057    14989    14929    14971    15109    15269 
   15407    15520    15626    15711    15789    15862    15866    15773 
   15672    15591    15472    15441    15664    16019    16276    16417 
   16511    16494    16281    16004    15854    15797    15705    15550 
   15327    15120    15106    15246    15376    15537    15722    15772 
   15684    15547    15449    15453    15485    15475    15491    15538 
   15531    15480    15403    15310    15253    15248    15234    15175 
   15121    15067    14922    14723    14596    14601    14739    14940 
   15109    15207    15237    15240    15236    15210    15196    15222 
   15250    15236    15178    15152    15178    15199    15268    15433 
   15577    15601    15562    15529    15469    15408    15422    15472 
   15512    15614    15807    16046    16272    16430    16511    16541 
   16505    16414    16303    16148    15984    15908    15925    15982 
   16013    15985    15935    15878    15800    15732    15691    15635 
   15510    15352    15269    15222    15093    14941    14891    14928 
   14962    14970    14972    14967    14994    15157    15453    15718 
   15873    16005    16150    16271    16374    16429    16374    16209 
   15993    15770    15530    15240    14941    14715    14530    14365 
   14341    14454    14566    14681    14863    14974    14901    14825 
   14910    15105    15323    15471    15499    15529    15676    15853 
   15925    15928    15897    15720    15398    15136    15090    15257 
   15503    15649    15674    15674    15655    15561    15448    15444 
   15506    15547    15674    15930    16086    15984    15758    15557 
   15403    15329    15358    15381    15269    15094    14972    14908 
   14925    15076    15334    15616    15811    15863    15863    15882 
   15851    15768    15707    15620    15489    15427    15406    15295 
   15084    14841    14635    14484    14338    14210    14177    14241 
   14380    14586    14778    14983    15292    15597    15792    15936 
   16069    16154    16137    16025    15896    15781    15670    15601 
   15595    15660    15822    16074    16339    16451    16306    16025 
   15758    15541    15345    15088    14785    14582    14577    14770 
   15040    15282    15569    15920    16160    16179    16086    15988 
   15838    15654    15543    15597    15782    15920    15936    15898 
   15784    15546    15314    15286    15448    15614    15715    15766 
   15699    15516    15352    15233    15161    15246    15538    15911 
   16247    16538    16726    16688    16492    16326    16216    16108 
   16004    15900    15819    15871    16162    16559    16780    16742 
   16573    16310    15889    15368    14886    14562    14482    14681 
   15114    15622    15975    16047    15886    15646    15422    15157 
   14804    14443    14179    14045    14071    14188    14207    14091 
   13944    13865    13892    13953    14033    14177    14320    14428 
   14567    14747    14910    15072    15256    15425    15574    15701 
   15714    15584    15423    15338    15356    15453    15579    15692 
   15838    16039    16221    16266    16096    15790    15511    15288 
   15118    15056    15124    15333    15689    15973    15888    15543 
   15248    15010    14756    14589    14574    14640    14727    14870 
   15102    15367    15614    15835    16028    16201    16336    16345 
   16144    15770    15396    15179    15156    15296    15529    15662 
   15572    15379    15287    15400    15616    15734    15746    15750 
   15732    15728    15882    16181    16433    16551    16594    16580 
   16418    16066    15670    15484    15616    15898    16105    16198 
   16252    16278    16263    16201    15973    15530    15026    14548 
   14184    14166    14584    15271    16038    16723    17186    17320 
   17043    16422    15682    14998    14481    14297    14466    14810 
   15201    15584    15861    15893    15641    15269    14966    14742 
   14562    14416    14320    14320    14428    14647    14918    15080 
   15098    15082    15005    14782    14426    14030    13855    14127 
   14673    15110    15290    15261    15061    14794    14605    14598 
   14791    14990    14991    14933    15067    15400    15792    16070 
   16132    16101    16151    16243    16259    16168    16052    16093 
   16345    16603    16661    16534    16390    16362    16441    16502 
   16517    16594    16781    17015    17194    17213    17012    16773 
   16707    16633    16326    15924    15518    15099    14890    14986 
   15141    15237    15298    15245    15124    15156    15406    15665 
   15714    15564    15295    14899    14505    14312    14310    14384 
   14548    14902    15446    15994    16317    16339    16110    15674 
   15206    15039    15228    15516    15785    16050    16262    16367 
   16320    16075    15715    15438    15319    15191    14978    14872 
   14960    15107    15323    15688    16031    16120    15944    15581 
   15192    14932    14669    14258    13865    13730    13927    14328 
   14789    15157    15171    14770    14261    13938    13811    13826 
   14048    14462    14917    15259    15369    15300    15226    15120 
   14839    14447    14154    14131    14345    14521    14558    14678 
   14976    15275    15499    15711    15836    15823    15823    15967 
   16212    16491    16711    16725    16586    16509    16551    16629 
   16680    16653    16506    16163    15615    15066    14775    14875 
   15337    15951    16432    16615    16600    16552    16464    16376 
   16429    16551    16642    16811    17062    17204    17120    16833 
   16391    15880    15406    15090    15016    15051    14997    14924 
   14960    15051    15167    15311    15344    15261    15313    15564 
   15813    15932    15984    16069    16074    15799    15318    14881 
   14586    14395    14218    14083    14219    14662    15132    15383 
   15407    15376    15411    15498    15669    15882    15928    15789 
   15635    15484    15365    15395    15496    15502    15369    15188 
   15084    15091    15155    15174    15063    14908    14886    15059 
   15340    15561    15633    15662    15755    15815    15692    15349 
   14885    14461    14148    13922    13838    13996    14323    14688 
   15141    15612    15882    16105    16498    16829    16742    16174 
   15453    15049    15133    15552    16110    16708    17203    17456 
   17409    16987    16286    15565    14921    14436    14324    14559 
   14936    15304    15483    15464    15453    15448    15268    14995 
   14848    14769    14601    14401    14339    14536    14953    15453 
   15901    16102    15943    15595    15275    14990    14751    14688 
   14843    15210    15712    16144    16464    16749    16906    16758 
   16316    15776    15334    15107    15063    14980    14755    14515 
   14378    14409    14608    14756    14698    14592    14604    14755 
   15030    15365    15638    15766    15763    15720    15724    15847 
   16094    16357    16443    16295    16043    15774    15565    15519 
   15564    15535    15477    15525    15753    16174    16618    16884 
   16923    16719    16364    16144    16148    16128    16017    16004 
   16050    15986    15804    15583    15387    15157    14770    14342 
   14148    14278    14613    15075    15565    15846    15797    15584 
   15358    15078    14754    14507    14343    14249    14320    14585 
   14864    14990    14962    14851    14743    14787    15039    15292 
   15345    15330    15535    16013    16542    16923    17113    17091 
   16816    16372    15973    15763    15743    15777    15637    15295 
   14967    14759    14663    14770    15051    15342    15569    15668 
   15664    15688    15768    15859    15979    16131    16258    16320 
   16371    16463    16526    16463    16320    16187    16033    15822 
   15643    15583    15624    15678    15616    15449    15384    15475 
   15549    15591    15661    15584    15222    14720    14299    14215 
   14594    15184    15732    16127    16131    15655    14971    14381 
   13937    13549    13184    12942    13004    13406    14041    14843 
   15561    15857    15789    15580    15334    15168    15110    15059 
   15032    15252    15749    16210    16418    16430    16275    15925 
   15502    15126    14831    14605    14432    14350    14443    14733 
   15161    15634    16032    16251    16248    16047    15678    15211 
   14840    14698    14729    14852    15045    15311    15650    15962 
   16140    16141    15928    15576    15232    14972    14885    15040 
   15357    15716    16102    16474    16679    16565    16151    15723 
   15491    15465    15741    16297    16849    17176    17290    17363 
   17497    17537    17410    17213    17000    16884    16960    17053 
   16875    16394    15885    15498    15213    15118    15244    15376 
   15329    15163    15039    15039    15093    15039    14823    14392 
   13748    13161    12968    13223    13697    14189    14612    14870 
   14952    14976    15056    15259    15573    15874    16044    16154 
   16340    16537    16559    16387    16137    15874    15604    15422 
   15422    15485    15457    15294    14997    14742    14754    14966 
   15157    15261    15354    15410    15317    15137    15053    15157 
   15398    15604    15658    15664    15693    15687    15707    15772 
   15655    15271    14797    14283    13744    13425    13456    13676 
   13905    14142    14477    14891    15268    15473    15450    15313 
   15296    15500    15772    15973    16133    16332    16549    16696 
   16784    16808    16594    16104    15589    15277    15234    15384 
   15519    15518    15564    15840    16252    16671    16977    17081 
   17045    16893    16718    16731    16799    16623    16282    15925 
   15566    15232    14902    14647    14612    14737    14989    15454 
   15990    16318    16335    16156    15893    15507    15020    14553 
   14199    14013    14048    14303    14634    14836    14845    14739 
   14608    14538    14562    14565    14439    14355    14477    14690 
   14935    15248    15547    15715    15699    15539    15368    15286 
   15317    15396    15435    15442    15484    15635    15857    15990 
   16039    16070    16024    15897    15751    15657    15705    15827 
   15769    15423    15041    14960    15180    15476    15682    15642 
   15182    14457    13923    13683    13516    13477    13703    14098 
   14573    15088    15543    15874    16079    16205    16367    16598 
   16726    16594    16352    16231    16200    16160    16144    16179 
   16285    16526    16852    17109    17243    17239    17059    16758 
   16491    16337    16306    16438    16671    16834    16923    17011 
   16987    16758    16337    15773    15244    14863    14574    14377 
   14369    14559    14787    14901    14886    14787    14667    14546 
   14385    14149    13926    13891    14125    14598    15215    15765 
   16006    15844    15437    15068    14860    14747    14644    14466 
   14297    14369    14625    14882    15132    15350    15498    15558 
   15408    14995    14559    14312    14146    13996    14062    14481 
   15110    15666    15925    15894    15799    15847    15989    16075 
   16178    16402    16630    16746    16779    16814    16873    16916 
   16875    16715    16524    16348    16039    15533    15115    14976 
   14963    15013    15186    15464    15813    16109    16221    16171 
   15927    15402    14744    14310    14264    14516    14975    15504 
   15912    16173    16283    16131    15668    15059    14566    14272 
   14110    14076    14143    14234    14453    15037    15890    16609 
   16956    16881    16362    15553    14821    14450    14328    14278 
   14409    14800    15380    15989    16308    16247    16117    16173 
   16382    16506    16294    15790    15307    15012    14802    14644 
   14574    14588    14790    15219    15619    15769    15722    15581 
   15399    15196    14949    14651    14435    14463    14728    15124 
   15561    15973    16309    16557    16692    16590    16229    15844 
   15618    15573    15697    15877    15943    15863    15773    15839 
   16071    16378    16683    16826    16637    16247    15959    15853 
   15826    15792    15722    15730    15958    16278    16467    16468 
   16324    16144    16112    16249    16380    16349    16092    15668 
   15252    14998    14935    14970    14989    15001    15060    15003 
   14670    14293    14189    14392    14814    15229    15259    14848 
   14204    13409    12591    12054    12033    12572    13475    14268 
   14569    14488    14231    13840    13512    13512    13842    14257 
   14519    14760    15273    15885    16248    16376    16321    16081 
   15816    15646    15546    15506    15699    16151    16505    16555 
   16402    16119    15781    15593    15793    16395    17096    17609 
   17910    18046    18046    17961    17861    17775    17602    17238 
   16772    16403    16293    16480    16834    17134    17258    17205 
   16988    16634    16239    15831    15361    14890    14573    14364 
   14157    14034    14000    13915    13770    13601    13450    13402 
   13425    13491    13711    14019    14272    14451    14524    14508 
   14484    14451    14442    14625    15165    15892    16357    16368 
   15998    15400    14882    14801    15253    15944    16434    16587 
   16542    16457    16399    16359    16321    16255    16108    15975 
   16008    16163    16333    16430    16363    16208    16021    15653 
   15151    14763    14494    14220    13923    13702    13772    14188 
   14656    14936    15018    14904    14654    14570    14856    15214 
   15269    15088    14882    14810    15094    15724    16308    16513 
   16351    16000    15673    15507    15433    15329    15246    15330 
   15645    16146    16727    17258    17609    17724    17649    17435 
   17138    16873    16659    16413    16209    16186    16298    16399 
   16378    16202    15990    15865    15707    15345    14868    14463 
   14238    14195    14222    14293    14489    14746    14893    14868 
   14712    14538    14515    14547    14393    14192    14172    14235 
   14331    14565    14850    15082    15284    15384    15259    14943 
   14580    14354    14388    14627    14939    15255    15510    15669 
   15745    15716    15627    15592    15626    15628    15525    15376 
   15310    15300    15219    15095    15059    15124    15199    15175 
   14983    14679    14426    14412    14638    14877    15084    15453 
   15966    16393    16765    17207    17543    17575    17334    16939 
   16561    16336    16329    16615    17103    17419    17373    17193 
   17073    16974    16866    16702    16308    15691    15145    14839 
   14673    14658    14841    15026    15115    15238    15280    15024 
   14554    14091    13772    13713    13907    14183    14499    14986 
   15628    16123    16177    15832    15357    15053    15067    15248 
   15394    15457    15507    15732    16164    16609    17011    17289 
   17158    16609    15966    15464    15223    15268    15364    15319 
   15191    15014    14845    14825    14908    14925    14885    14897 
   15021    15241    15435    15379    14995    14566    14362    14328 
   14369    14474    14621    14840    15191    15588    15884    15978 
   15778    15383    15129    15198    15372    15381    15241    15118 
   15113    15240    15441    15695    16067    16497    16796    16976 
   17105    17065    16804    16544    16414    16316    16193    16033 
   15830    15731    15776    15700    15372    15002    14800    14750 
   14771    14828    14855    14744    14504    14291    14169    14076 
   14131    14523    15118    15529    15454    14944    14322    13884 
   13745    13898    14355    15067    15772    16204    16345    16368 
   16383    16357    16237    15990    15703    15576    15651    15822 
   16036    16294    16553    16699    16548    16071    15471    15010 
   14890    15125    15504    15792    15870    15763    15638    15634 
   15707    15709    15637    15634    15715    15772    15749    15685 
   15647    15650    15739    15851    15660    15110    14615    14520 
   14898    15668    16514    16950    16777    16308    15889    15597 
   15434    15392    15391    15350    15219    15025    14879    14818 
   14835    14982    15279    15703    16114    16247    16066    15757 
   15434    15210    15156    15219    15338    15358    15082    14566 
   14092    13837    13857    14202    14766    15342    15843    16158 
   16148    15919    15708    15491    15122    14682    14403    14415 
   14573    14677    14794    15016    15211    15194    14921    14469 
   14026    13934    14343    15003    15593    15981    16150    16164 
   16227    16436    16538    16291    15894    15697    15792    16027 
   16148    16120    16120    16227    16475    16857    17167    17197 
   16984    16715    16671    17023    17523    17780    17689    17354 
   16906    16414    15935    15520    15142    14790    14551    14490 
   14543    14550    14378    14096    13871    13694    13454    13169 
   12957    12934    13105    13300    13471    13836    14369    14773 
   14989    15176    15329    15412    15583    15888    16117    16094 
   15861    15606    15456    15441    15576    15790    16040    16383 
   16696    16696    16429    16258    16339    16487    16422    16048 
   15580    15282    15263    15520    15916    16244    16353    16243 
   16108    16117    16220    16329    16406    16426    16484    16649 
   16758    16644    16357    16004    15655    15435    15356    15261 
   15098    14920    14779    14744    14800    14814    14690    14422 
   14069    13657    13235    13016    13228    13819    14384    14677 
   14979    15427    15736    15880    16033    16156    16244    16374 
   16430    16379    16417    16634    16924    17112    17030    16629 
   16062    15562    15268    15213    15318    15435    15514    15574 
   15615    15634    15649    15634    15437    14974    14411    13886 
   13425    13208    13305    13464    13482    13419    13405    13481 
   13662    14000    14430    14786    15080    15429    15820    16156 
   16349    16399    16379    16332    16384    16668    17043    17285 
   17394    17501    17635    17730    17751    17633    17317    16906 
