Origin Time       2024/04/02 04:24:00
Lat.              40.133
Long.             141.712
Depth. (km)       71
Mag.              6.0
Station Code      FKS013
Station Lat.      37.0893
Station Long.     140.5546
Station Height(m) 303
Record Time       2024/04/02 04:25:51
Sampling Freq(Hz) 100Hz
Duration Time(s)  91
Dir.              N-S
Scale Factor      7845(gal)/8223790
Max. Acc. (gal)   4.140
Last Correction   2024/04/02 04:25:50
Memo.             
[...]
   -5443    -5356    -4899    -4509    -4360    -4236    -4029    -3906 
   -3948    -4068    -4394    -5063    -5674    -5792    -5609    -5317 
   -4820    -4399    -4683    -5580    -6145    -6037    -6072    -6766 
   -7388    -7098    -6187    -5591    -5552    -5331    -4679    -4484 
   -5142    -5857    -6218    -6700    -7113    -6723    -6084    -6141 
   -6471    -6417    -6081    -5742    -5595    -5610    -5497    -5059 
   -4391    -3731    -3430    -3875    -4977    -6016    -6417    -6500 
   -6751    -6675    -5798    -4623    -3794    -3555    -3642    -3635 
   -3573    -3694    -4230    -5193    -6259    -7276    -7908    -7570 
   -6471    -5521    -5263    -5586    -6258    -6871    -6885    -6633 
   -6720    -6705    -6126    -5325    -4824    -4985    -5659    -6242 
   -6332    -5926    -5418    -4962    -4063    -2959    -2516    -2473 
   -2390    -2793    -3636    -4236    -4530    -4573    -4459    -4708 
   -5437    -6299    -6744    -6224    -5366    -5152    -5424    -5810 
   -6133    -6204    -6219    -6048    -5486    -5321    -5972    -6750 
   -7329    -7951    -8517    -8577    -7978    -7021    -5832    -4421 
   -3339    -2957    -2997    -3176    -3268    -3423    -4117    -5038 
   -5454    -5111    -4282    -3703    -3766    -4156    -4521    -4785 
   -4996    -5167    -5578    -6426    -7119    -7165    -6917    -6920 
   -7267    -7537    -7541    -7603    -7928    -8279    -8141    -7481 
   -6496    -5042    -3929    -4158    -4990    -5363    -5265    -5098 
   -5092    -5177    -5242    -5181    -4799    -4220    -3681    -3240 
   -3067    -3211    -3522    -3867    -4171    -4523    -5046    -5818 
   -6662    -7083    -7047    -6798    -6340    -5913    -5514    -5047 
   -5251    -6177    -6625    -6392    -6372    -6741    -6937    -6586 
   -5883    -5567    -6118    -6747    -6130    -4360    -3091    -3121 
   -3086    -2087    -1629    -2732    -4008    -4382    -4604    -5397 
   -6227    -6370    -6173    -6232    -6370    -6427    -6282    -5751 
   -5508    -5836    -5880    -5513    -5251    -5258    -5668    -6340 
   -6828    -6993    -7009    -7024    -6970    -6577    -5607    -4429 
   -3990    -4391    -4897    -5398    -5976    -6334    -6434    -6222 
   -5495    -4421    -3595    -3622    -4094    -4078    -3852    -4149 
   -4509    -4268    -3952    -4143    -4526    -5036    -5711    -5989 
   -5867    -5872    -5914    -5590    -4762    -4045    -4465    -5686 
   -6559    -7180    -7905    -8086    -7431    -6835    -7111    -7807 
   -8063    -7913    -7538    -6786    -5833    -4959    -4225    -3646 
   -3271    -3215    -3496    -3956    -4467    -4934    -5152    -4889 
   -4106    -3015    -2173    -2184    -2930    -3925    -5074    -6254 
   -7254    -7866    -7565    -6783    -6999    -8024    -8297    -7852 
   -7712    -7612    -6951    -6480    -6767    -6681    -5485    -3998 
   -3219    -3520    -4406    -5213    -5794    -5983    -5725    -5182 
   -4542    -4121    -3738    -3065    -2517    -2540    -3053    -3550 
   -3777    -4340    -5443    -6354    -6513    -5829    -4920    -4808 
   -5474    -6108    -6436    -6663    -6940    -7096    -6833    -6528 
   -6677    -6928    -6876    -6477    -5867    -5468    -5431    -5686 
   -6212    -6539    -6497    -6451    -6237    -5633    -4916    -4230 
   -3366    -2286    -1609    -1733    -2227    -3030    -4315    -5374 
   -5476    -4716    -3605    -2967    -3399    -4437    -5425    -6432 
   -7395    -7962    -8202    -8307    -8353    -8260    -7689    -6767 
   -6076    -5710    -5502    -5537    -6061    -7103    -8116    -8328 
   -7611    -6644    -6137    -5984    -5468    -4549    -3861    -3298 
   -2714    -2866    -3630    -3882    -3697    -3828    -4035    -3915 
   -3892    -4406    -5090    -5405    -5628    -6003    -5848    -5097 
   -4680    -4846    -5444    -6717    -8287    -8999    -8545    -7902 
   -7619    -7292    -6837    -6324    -5579    -4939    -4621    -4178 
   -3692    -3599    -3748    -3977    -4071    -3797    -3863    -4708 
   -5456    -5547    -5278    -4945    -4739    -4747    -4668    -4338 
   -4534    -5572    -6278    -6139    -6035    -6316    -6507    -6494 
   -6529    -6484    -6222    -5900    -5456    -4995    -4997    -5464 
   -5914    -5987    -5672    -5377    -5459    -5602    -5233    -4580 
   -4410    -4704    -4915    -5074    -5323    -5532    -5674    -5587 
   -5232    -5023    -5028    -4958    -4877    -4792    -4525    -4282 
   -4116    -3676    -3377    -4233    -6019    -7307    -7582    -7708 
   -8036    -7956    -7419    -7076    -7028    -6936    -6839    -6768 
   -6465    -5950    -5499    -5188    -4888    -4656    -4846    -5190 
   -4774    -3771    -3300    -3443    -3492    -3465    -3659    -3936 
   -3998    -3531    -2907    -3024    -3735    -4356    -4780    -5154 
   -5876    -6988    -7639    -7674    -7847    -8143    -8268    -8428 
   -8372    -7672    -6789    -6428    -6423    -6174    -5721    -5360 
   -4962    -4600    -4727    -5277    -5394    -4461    -3150    -2488 
   -2619    -3118    -3457    -3597    -4097    -4872    -5165    -4851 
   -4384    -3981    -3750    -3831    -4135    -4801    -6085    -7419 
   -8105    -8371    -8421    -7989    -7326    -7061    -7296    -7750 
   -8100    -7862    -6762    -5530    -5090    -5054    -4926    -5054 
   -5402    -5509    -5055    -3983    -2839    -2273    -2358    -2554 
   -2415    -2454    -3065    -3677    -4104    -4843    -6123    -7588 
   -8495    -8482    -7955    -7545    -7317    -6813    -6064    -5606 
   -5640    -5945    -6273    -6597    -6801    -6569    -5890    -5221 
   -5026    -5061    -4970    -5135    -5364    -4706    -3603    -3248 
   -3318    -3150    -3311    -4187    -4988    -5171    -5337    -5742 
   -5792    -5570    -5616    -5778    -5865    -5950    -5634    -4823 
   -4453    -5078    -6122    -6880    -7172    -7291    -7388    -7115 
   -6262    -5188    -4513    -4509    -4815    -5224    -5907    -6324 
   -5784    -4946    -4729    -5071    -5656    -6096    -5977    -5567 
   -5402    -5562    -5645    -5281    -4899    -5054    -5529    -5903 
   -5841    -5370    -4992    -4920    -5175    -5560    -5487    -5070 
   -4851    -4698    -4486    -4531    -4841    -5039    -5140    -5545 
   -6208    -6608    -6424    -6124    -6392    -6783    -6663    -6513 
   -6473    -6026    -5416    -5123    -5030    -4741    -4131    -3782 
   -4241    -5019    -5421    -5409    -5247    -5274    -5408    -5074 
   -4294    -3577    -3285    -3632    -4345    -4957    -5401    -5822 
   -6355    -6859    -7048    -7038    -6997    -6745    -6230    -5676 
   -5395    -5470    -5482    -5190    -4846    -4587    -4495    -4722 
   -5088    -5460    -6114    -7007    -7479    -6974    -5744    -4680 
   -4068    -3397    -2685    -2374    -2610    -3470    -4571    -5223 
   -5641    -6527    -7514    -7608    -7011    -6747    -6930    -7074 
   -7199    -7504    -7587    -7072    -6419    -6061    -5733    -5278 
   -4947    -4962    -5124    -4888    -4271    -3753    -3315    -2925 
   -2952    -3327    -3780    -4498    -5444    -6134    -6374    -6156 
   -5377    -4554    -4295    -4321    -4538    -5188    -5917    -6563 
   -7263    -7696    -7649    -7199    -6609    -6450    -6683    -6500 
   -5644    -4669    -4164    -4345    -4958    -5378    -5292    -5111 
   -5022    -4672    -4102    -3564    -3219    -3316    -3632    -3875 
   -4403    -5161    -5447    -5350    -5641    -6458    -7360    -8205 
   -8981    -9161    -8395    -7173    -5967    -5013    -4521    -4264 
   -4252    -4816    -5547    -5894    -5930    -5904    -5929    -5979 
   -5906    -5640    -5520    -5832    -6041    -5516    -4615    -4384 
   -5085    -5601    -5402    -5467    -6068    -6243    -5545    -4465 
   -3649    -3260    -3091    -3152    -3576    -4178    -4557    -4631 
   -4622    -4661    -4916    -5436    -5980    -6309    -6390    -6454 
   -6448    -6099    -5796    -6034    -6625    -7103    -7261    -7337 
   -7362    -6928    -6134    -5472    -5043    -4793    -4637    -4542 
   -4698    -4986    -5169    -5296    -5243    -4747    -3979    -3424 
   -3306    -3373    -3334    -3179    -3125    -3568    -4565    -5709 
   -6906    -7955    -8218    -7838    -7423    -6928    -6278    -5761 
   -5621    -6011    -6648    -6979    -7036    -7141    -7075    -6571 
   -6042    -5701    -5215    -4698    -4361    -4035    -3817    -3913 
   -4209    -4374    -4136    -3962    -4569    -5428    -5559    -5139 
   -4803    -4727    -4888    -5224    -5555    -5841    -6188    -6247 
   -5800    -5532    -5819    -6080    -6106    -6355    -6804    -6809 
   -6154    -5298    -4604    -4176    -4175    -4573    -4922    -5032 
   -5437    -6249    -6613    -6170    -5645    -5575    -5535    -5005 
   -4374    -4217    -4436    -4814    -5236    -5328    -5000    -4854 
   -5238    -5640    -5593    -5366    -5386    -5440    -5071    -4529 
   -4437    -4908    -5489    -5787    -6030    -6500    -6890    -6818 
   -6401    -6107    -6057    -5903    -5560    -5250    -5047    -4988 
   -5093    -5265    -5406    -5418    -5147    -4774    -4796    -5267 
   -5645    -5634    -5672    -6039    -6303    -6249    -6124    -6019 
   -5764    -5225    -4742    -4657    -4816    -5097    -5367    -5525 
   -5836    -6223    -6378    -6420    -6490    -6516    -6289    -5822 
   -5529    -5482    -5336    -4972    -4457    -3997    -3951    -4441 
   -5205    -5806    -6043    -6100    -6097    -5957    -5551    -4716 
   -3678    -3157    -3408    -3952    -4515    -5161    -5815    -6407 
   -6787    -6720    -6284    -5826    -5564    -5468    -5463    -5431 
   -5250    -5086    -4978    -4703    -4425    -4426    -4631    -4946 
   -5247    -5389    -5606    -6075    -6334    -6146    -6007    -5960 
   -5485    -4698    -4239    -4422    -4912    -5192    -5456    -6089 
   -6621    -6601    -6446    -6415    -6334    -6154    -5761    -5216 
   -4826    -4549    -4244    -3874    -3603    -3867    -4472    -4743 
   -4687    -4700    -4965    -5341    -5652    -6058    -6577    -6847 
   -6551    -5724    -4870    -4379    -4263    -4561    -5211    -6097 
   -7090    -7828    -8163    -8198    -7835    -7187    -6682    -6434 
   -6014    -4930    -3522    -2755    -2797    -2945    -2920    -3164 
   -4001    -5024    -5603    -5767    -5908    -6048    -6091    -6085 
   -6000    -5880    -5995    -6470    -6960    -7122    -6961    -6628 
   -6427    -6478    -6556    -6673    -6770    -6440    -5729    -5065 
   -4537    -4094    -3809    -3888    -4356    -4785    -4781    -4349 
   -3882    -3869    -4163    -4237    -4052    -3870    -3817    -4027 
   -4461    -4734    -4669    -4538    -4639    -5009    -5373    -5533 
   -5738    -6250    -6868    -7261    -7522    -7870    -8104    -8000 
   -7658    -7317    -7060    -6559    -5799    -5325    -5213    -5212 
   -5193    -5058    -4978    -4962    -4760    -4531    -4438    -4287 
   -4035    -3771    -3532    -3299    -3064    -3069    -3561    -4328 
   -5012    -5458    -5725    -6089    -6556    -6698    -6558    -6748 
   -7341    -7685    -7497    -7209    -7061    -6903    -6751    -6648 
   -6469    -6219    -6065    -6015    -5778    -5263    -4815    -4576 
   -4392    -4197    -3924    -3589    -3392    -3507    -3912    -4367 
   -4671    -4796    -4737    -4637    -4639    -4573    -4268    -3867 
   -3738    -4091    -4702    -5301    -5726    -5881    -6124    -6737 
   -7273    -7371    -7296    -7411    -7684    -7641    -7214    -6917 
   -6750    -6376    -5846    -5371    -5202    -5313    -5424    -5630 
   -5873    -5888    -5728    -5256    -4498    -3889    -3516    -3406 
   -3515    -3393    -3082    -3099    -3518    -4071    -4756    -5803 
   -6974    -7588    -7506    -7182    -6883    -6546    -6218    -5949 
   -5640    -5424    -5440    -5572    -5806    -6038    -6119    -6195 
   -6183    -5953    -5865    -5977    -5941    -5746    -5402    -4958 
   -4822    -4953    -5017    -5123    -5215    -5046    -4787    -4722 
   -5008    -5586    -6054    -6157    -6052    -5748    -4966    -3936 
   -3477    -3908    -4641    -5051    -5105    -5017    -5093    -5574 
   -6053    -6119    -6145    -6424    -6664    -6674    -6583    -6600 
   -6721    -6538    -5865    -5316    -5332    -5505    -5555    -5611 
   -5463    -5003    -4615    -4355    -4014    -3900    -4207    -4280 
   -3708    -3214    -3437    -3994    -4357    -4606    -5054    -5551 
   -5649    -5502    -5578    -5857    -6160    -6393    -6447    -6423 
   -6370    -6199    -6021    -6023    -6200    -6274    -6091    -5988 
   -6127    -6226    -6218    -6172    -6096    -5987    -5778    -5655 
   -5833    -5985    -5817    -5566    -5472    -5454    -5258    -4706 
   -4031    -3743    -3878    -3909    -3696    -3658    -3816    -3960 
   -4364    -5020    -5374    -5436    -5614    -5838    -5923    -5944 
   -5989    -6245    -6677    -6943    -7098    -7315    -7423    -7358 
   -7261    -7241    -7198    -6880    -6411    -6139    -6010    -5729 
   -5251    -4753    -4241    -3578    -2932    -2592    -2486    -2509 
   -2716    -2991    -3248    -3589    -4024    -4476    -4892    -5263 
   -5617    -5890    -6070    -6269    -6600    -7037    -7213    -7007 
   -7007    -7523    -8075    -8286    -8243    -8056    -7740    -7346 
   -6971    -6585    -6088    -5390    -4417    -3287    -2228    -1409 
   -1086    -1395    -2035    -2578    -2887    -3140    -3511    -3902 
   -4224    -4772    -5649    -6354    -6762    -7218    -7581    -7749 
   -7975    -8144    -8095    -8020    -7940    -7663    -7388    -7400 
   -7202    -6393    -5582    -5061    -4456    -3869    -3441    -3103 
   -3056    -3194    -3227    -3323    -3609    -4041    -4519    -4877 
   -5242    -5719    -6085    -6223    -6268    -6359    -6405    -6168 
   -5826    -5848    -6210    -6525    -6658    -6570    -6313    -6107 
   -5872    -5406    -4924    -4733    -4784    -4785    -4765    -5098 
   -5556    -5514    -5162    -5112    -5333    -5395    -5233    -5120 
   -5242    -5489    -5464    -4986    -4437    -4201    -4297    -4567 
   -4750    -4704    -4569    -4625    -4888    -4995    -4818    -4688 
   -4784    -5061    -5498    -5906    -6023    -5952    -6010    -6305 
   -6644    -6724    -6810    -7489    -8345    -8521    -8252    -8098 
   -7743    -6748    -5463    -4521    -4056    -3769    -3493    -3466 
   -3773    -4066    -4225    -4468    -4758    -4789    -4499    -4233 
   -4214    -4256    -4324    -4645    -5181    -5672    -5975    -6154 
   -6432    -6856    -7226    -7323    -7057    -6660    -6470    -6428 
   -6191    -5709    -5240    -4959    -4897    -4904    -4787    -4687 
   -4770    -4868    -4673    -4222    -4024    -4213    -4369    -4430 
   -4599    -4779    -4824    -4887    -5185    -5590    -5821    -6021 
   -6394    -6725    -6825    -6825    -6831    -6801    -6716    -6540 
   -6185    -5699    -5201    -4752    -4600    -4854    -5031    -4787 
   -4428    -4270    -4179    -3904    -3561    -3483    -3645    -3937 
   -4468    -5217    -6042    -6728    -6924    -6756    -6778    -6906 
   -6670    -6266    -6165    -6249    -6142    -5902    -5903    -6151 
   -6172    -5906    -5861    -5976    -5790    -5571    -5580    -5373 
   -4928    -4731    -4685    -4525    -4407    -4324    -4212    -4294 
   -4482    -4534    -4615    -4874    -5269    -5664    -5813    -5737 
   -5714    -5726    -5572    -5340    -5278    -5324    -5254    -5197 
   -5421    -5834    -6183    -6393    -6507    -6478    -6274    -6037 
   -5904    -5861    -5765    -5571    -5452    -5417    -5209    -4828 
   -4712    -5082    -5448    -5476    -5513    -5737    -5937    -5956 
   -5791    -5532    -5111    -4476    -4016    -4051    -4317    -4513 
   -4723    -5121    -5680    -6205    -6501    -6515    -6295    -5999 
   -5952    -6162    -6243    -6160    -6165    -6173    -5994    -5676 
   -5273    -4842    -4644    -4735    -4766    -4626    -4644    -4864 
   -4922    -4800    -4892    -5198    -5378    -5431    -5514    -5664 
   -5830    -5854    -5776    -5832    -5923    -5853    -5790    -5867 
   -5894    -5768    -5695    -5737    -5595    -5170    -4835    -4756 
   -4661    -4587    -4799    -5124    -5362    -5580    -5706    -5694 
   -5652    -5624    -5706    -5880    -5944    -5864    -5729    -5618 
   -5499    -5227    -4939    -4887    -4963    -4838    -4365    -3825 
   -3632    -3809    -4122    -4374    -4495    -4657    -5028    -5428 
   -5476    -5170    -5009    -5341    -5802    -5921    -5931    -6197 
   -6527    -6648    -6616    -6642    -6790    -6918    -6952    -6876 
   -6683    -6473    -6288    -6057    -5768    -5405    -4938    -4550 
   -4437    -4488    -4449    -4248    -4118    -4182    -4221    -4225 
   -4382    -4545    -4542    -4660    -5071    -5355    -5404    -5678 
   -6096    -6327    -6581    -6933    -7192    -7392    -7574    -7739 
   -7948    -8019    -7595    -6748    -6026    -5647    -5310    -4949 
   -4769    -4698    -4576    -4450    -4287    -4070    -3969    -3908 
   -3717    -3632    -3789    -3888    -3866    -4064    -4537    -5030 
   -5436    -5763    -6012    -6157    -6174    -6151    -6130    -6076 
   -6089    -6181    -6131    -5984    -5987    -6075    -6137    -6115 
   -5906    -5668    -5522    -5339    -5167    -4989    -4614    -4251 
   -4259    -4492    -4611    -4608    -4676    -4901    -5078    -5026 
   -5028    -5340    -5551    -5269    -4877    -4874    -5053    -4996 
   -4920    -5212    -5629    -5954    -6448    -6972    -7013    -6772 
   -6837    -6959    -6498    -5672    -5232    -5316    -5509    -5579 
   -5539    -5470    -5375    -5131    -4803    -4649    -4839    -5327 
   -5634    -5346    -4885    -4823    -4966    -4914    -4742    -4754 
   -4953    -5030    -4972    -5104    -5460    -5765    -5915    -5954 
   -5886    -5764    -5648    -5524    -5458    -5533    -5698    -5842 
   -5910    -6037    -6281    -6421    -6400    -6330    -6104    -5668 
   -5395    -5576    -5798    -5643    -5428    -5379    -5144    -4603 
   -4148    -4081    -4378    -4830    -5144    -5204    -5200    -5283 
   -5227    -4866    -4587    -4552    -4355    -4093    -4302    -4792 
   -5039    -5147    -5406    -5688    -5933    -6265    -6573    -6786 
   -6974    -7092    -7121    -6952    -6453    -5926    -5769    -5900 
   -5960    -5841    -5890    -6195    -6258    -5868    -5368    -5026 
   -4707    -4247    -3920    -3963    -4113    -4099    -3942    -3798 
   -3773    -3840    -4083    -4571    -5069    -5433    -5752    -5922 
   -5788    -5571    -5580    -5718    -5726    -5800    -6150    -6362 
   -6323    -6543    -7011    -7314    -7431    -7462    -7263    -6786 
   -6328    -5999    -5530    -4920    -4510    -4455    -4567    -4560 
   -4349    -4109    -4023    -4062    -4126    -4117    -3955    -3809 
   -3924    -4202    -4421    -4560    -4672    -4838    -5177    -5602 
   -5950    -6230    -6413    -6434    -6420    -6524    -6666    -6717 
   -6745    -6832    -6918    -6966    -6959    -6775    -6396    -6077 
   -5869    -5466    -4878    -4515    -4564    -4723    -4604    -4356 
   -4340    -4299    -3956    -3676    -3731    -3978    -4249    -4438 
