Origin Time       2024/04/02 04:24:00
Lat.              40.133
Long.             141.712
Depth. (km)       71
Mag.              6.0
Station Code      FKS016
Station Lat.      37.1232
Station Long.     140.1910
Station Height(m) 375
Record Time       2024/04/02 04:26:04
Sampling Freq(Hz) 100Hz
Duration Time(s)  83
Dir.              E-W
Scale Factor      7845(gal)/8223790
Max. Acc. (gal)   2.931
Last Correction   2024/04/02 04:26:04
Memo.             
[...]
  -12299   -12343   -12382   -12417   -12459   -12455   -12376   -12305 
  -12270   -12266   -12299   -12307   -12259   -12205   -12168   -12144 
  -12143   -12175   -12237   -12388   -12636   -12776   -12673   -12472 
  -12294   -12131   -12051   -12117   -12267   -12440   -12588   -12680 
  -12730   -12769   -12780   -12707   -12536   -12310   -12118   -12101 
  -12272   -12436   -12457   -12349   -12189   -12136   -12224   -12306 
  -12328   -12339   -12320   -12307   -12411   -12641   -12897   -13045 
  -13008   -12858   -12650   -12426   -12324   -12336   -12271   -12108 
  -12006   -12036   -12125   -12224   -12274   -12213   -12091   -12031 
  -12128   -12394   -12696   -12864   -12842   -12696   -12553   -12442 
  -12299   -12171   -12112   -12048   -11970   -11958   -12090   -12409 
  -12780   -12977   -12964   -12834   -12556   -12162   -11877   -11769 
  -11766   -11874   -12015   -12101   -12198   -12313   -12348   -12262 
  -12050   -11788   -11664   -11743   -11916   -12124   -12374   -12618 
  -12788   -12761   -12567   -12418   -12336   -12189   -12032   -11975 
  -11973   -11961   -12017   -12186   -12411   -12617   -12690   -12615 
  -12507   -12413   -12326   -12316   -12402   -12502   -12569   -12555 
  -12390   -12140   -11956   -11915   -11921   -11851   -11797   -11905 
  -12100   -12285   -12475   -12702   -12964   -13136   -13135   -13081 
  -13076   -13015   -12750   -12297   -11896   -11781   -11923   -12147 
  -12345   -12463   -12492   -12490   -12509   -12550   -12555   -12511 
  -12453   -12356   -12255   -12248   -12312   -12348   -12305   -12179 
  -12070   -12140   -12361   -12465   -12298   -11974   -11639   -11394 
  -11375   -11610   -11971   -12356   -12717   -12991   -13144   -13167 
  -13045   -12754   -12303   -11834   -11550   -11530   -11753   -12110 
  -12480   -12860   -13189   -13313   -13273   -13170   -12931   -12553 
  -12247   -12166   -12179   -12117   -12039   -12027   -12082   -12217 
  -12382   -12484   -12471   -12339   -12143   -12013   -12063   -12214 
  -12337   -12410   -12406   -12317   -12271   -12320   -12388   -12476 
  -12572   -12587   -12550   -12501   -12425   -12418   -12487   -12451 
  -12272   -12152   -12232   -12397   -12471   -12457   -12345   -12066 
  -11765   -11651   -11686   -11770   -11871   -11913   -11859   -11799 
  -11862   -12060   -12271   -12406   -12465   -12476   -12495   -12546 
  -12590   -12577   -12461   -12245   -12063   -12043   -12140   -12235 
  -12297   -12403   -12626   -12904   -13057   -12982   -12708   -12299 
  -11881   -11642   -11657   -11880   -12235   -12564   -12715   -12723 
  -12714   -12702   -12600   -12361   -12066   -11870   -11807   -11832 
  -12019   -12351   -12652   -12847   -12966   -12995   -12879   -12619 
  -12322   -12087   -11946   -11907   -12023   -12337   -12738   -13045 
  -13176   -13100   -12847   -12549   -12321   -12172   -12063   -11951 
  -11855   -11839   -11854   -11885   -12032   -12229   -12344   -12421 
  -12521   -12638   -12734   -12746   -12650   -12521   -12420   -12352 
  -12345   -12382   -12366   -12344   -12410   -12498   -12565   -12614 
  -12510   -12259   -12046   -11862   -11700   -11693   -11782   -11859 
  -12017   -12237   -12406   -12563   -12745   -12899   -12923   -12683 
  -12253   -11900   -11701   -11585   -11538   -11550   -11670   -11963 
  -12344   -12675   -12907   -12970   -12852   -12669   -12452   -12202 
  -12055   -12031   -12028   -12062   -12129   -12202   -12313   -12406 
  -12413   -12393   -12376   -12287   -12062   -11794   -11715   -11884 
  -12123   -12336   -12561   -12723   -12739   -12706   -12696   -12663 
  -12545   -12328   -12120   -12083   -12216   -12380   -12528   -12679 
  -12746   -12621   -12415   -12317   -12307   -12272   -12218   -12183 
  -12167   -12164   -12251   -12488   -12742   -12850   -12838   -12758 
  -12592   -12415   -12302   -12225   -12194   -12221   -12241   -12229 
  -12239   -12343   -12548   -12753   -12754   -12476   -12148   -11971 
  -11889   -11861   -11913   -11977   -12001   -12019   -12069   -12197 
  -12393   -12542   -12550   -12398   -12208   -12155   -12201   -12232 
  -12312   -12438   -12533   -12640   -12748   -12718   -12604   -12550 
  -12430   -12124   -11840   -11762   -11821   -11985   -12247   -12471 
  -12586   -12634   -12598   -12486   -12424   -12398   -12290   -12152 
  -12129   -12259   -12478   -12672   -12703   -12591   -12479   -12426 
  -12418   -12425   -12386   -12278   -12181   -12167   -12235   -12359 
  -12501   -12621   -12660   -12604   -12576   -12609   -12602   -12532 
  -12398   -12191   -11998   -11925   -12010   -12190   -12352   -12460 
  -12464   -12330   -12183   -12081   -11936   -11799   -11738   -11682 
  -11719   -11994   -12347   -12618   -12841   -12924   -12819   -12723 
  -12707   -12661   -12557   -12328   -11920   -11541   -11418   -11531 
  -11776   -12044   -12247   -12397   -12548   -12707   -12827   -12903 
  -12899   -12660   -12255   -11989   -11913   -11908   -11979   -12100 
  -12170   -12159   -12106   -12075   -12055   -11975   -11813   -11581 
  -11387   -11402   -11655   -12043   -12475   -12803   -12964   -13134 
  -13312   -13263   -12996   -12654   -12237   -11758   -11383   -11327 
  -11674   -12280   -12899   -13338   -13513   -13424   -13146   -12800 
  -12430   -12067   -11800   -11623   -11514   -11545   -11753   -12093 
  -12488   -12842   -13070   -13123   -12978   -12665   -12294   -11979 
  -11749   -11645   -11750   -12037   -12391   -12723   -12955   -12938 
  -12646   -12291   -11955   -11634   -11477   -11545   -11780   -12125 
  -12398   -12511   -12614   -12727   -12712   -12568   -12371   -12187 
  -12106   -12113   -12101   -12148   -12352   -12553   -12657   -12722 
  -12699   -12505   -12210   -11932   -11718   -11615   -11685   -11882 
  -12069   -12213   -12441   -12779   -13054   -13149   -13123   -13034 
  -12880   -12746   -12677   -12614   -12614   -12748   -12931   -13103 
  -13265   -13381   -13446   -13478   -13423   -13331   -13282   -13171 
  -12933   -12702   -12577   -12501   -12325   -11977   -11604   -11411 
  -11456   -11695   -12046   -12418   -12753   -13028   -13266   -13464 
  -13500   -13250   -12823   -12384   -11971   -11630   -11385   -11203 
  -11136   -11227   -11377   -11560   -11850   -12118   -12220   -12361 
  -12673   -12911   -12942   -12887   -12814   -12741   -12757   -12835 
  -12737   -12329   -11724   -11106   -10669   -10497   -10544   -10756 
  -11117   -11612   -12141   -12582   -12870   -12996   -12978   -12865 
  -12725   -12545   -12195   -11684   -11192   -10759   -10390   -10233 
  -10243   -10369   -10727   -11298   -11979   -12660   -13153   -13416 
  -13483   -13419   -13398   -13409   -13300   -13097   -12900   -12846 
  -13005   -13174   -13167   -12955   -12596   -12245   -11961   -11761 
  -11701   -11705   -11631   -11464   -11380   -11542   -11859   -12195 
  -12568   -12908   -13088   -13213   -13429   -13628   -13640   -13358 
  -12750   -12006   -11389   -11016   -10982   -11368   -11989   -12521 
  -12934   -13362   -13647   -13662   -13544   -13243   -12677   -12147 
  -11915   -11920   -12036   -12159   -12232   -12318   -12437   -12459 
  -12352   -12253   -12217   -12150   -12056   -12069   -12201   -12359 
  -12502   -12650   -12752   -12676   -12447   -12222   -12085   -12127 
  -12438   -12861   -13112   -13104   -12901   -12542   -12079   -11645 
  -11383   -11350   -11547   -11928   -12406   -12927   -13313   -13263 
  -12772   -12120   -11572   -11303   -11326   -11570   -11994   -12457 
  -12760   -12868   -12827   -12657   -12398   -12087   -11762   -11476 
  -11358   -11607   -12179   -12712   -12938   -12904   -12757   -12519 
  -12216   -11978   -11870   -11830   -11816   -11813   -11797   -11830 
  -11935   -12043   -12226   -12644   -13324   -14092   -14654   -14882 
  -14823   -14492   -13971   -13359   -12672   -12031   -11607   -11418 
  -11502   -11896   -12418   -12799   -12884   -12619   -12136   -11627 
  -11200   -11030   -11195   -11553   -12028   -12560   -12988   -13201 
  -13149   -12896   -12583   -12217   -11831   -11601   -11508   -11364 
  -11210   -11172   -11241   -11404   -11669   -11979   -12275   -12491 
  -12560   -12486   -12403   -12467   -12606   -12614   -12542   -12577 
  -12679   -12793   -12928   -12930   -12741   -12563   -12449   -12225 
  -11880   -11599   -11468   -11527   -11846   -12318   -12789   -13186 
  -13324   -13043   -12552   -12077   -11641   -11344   -11276   -11361 
  -11530   -11746   -11992   -12333   -12761   -13065   -13077   -12860 
  -12544   -12181   -11792   -11425   -11223   -11325   -11641   -12015 
  -12356   -12548   -12501   -12276   -12046   -11901   -11794   -11751 
  -11882   -12160   -12453   -12633   -12575   -12252   -11673   -10860 
  -10118    -9778    -9745    -9933   -10511   -11421   -12452   -13460 
  -14179   -14351   -13945   -13059   -11894   -10733    -9963    -9907 
  -10498   -11391   -12332   -13122   -13603   -13848   -13869   -13448 
  -12717   -12185   -11985   -11966   -12152   -12584   -13105   -13458 
  -13527   -13432   -13340   -13231   -13008   -12764   -12544   -12276 
  -12060   -12078   -12410   -13009   -13709   -14258   -14480   -14453 
  -14311   -14058   -13760   -13513   -13257   -12977   -12820   -12870 
  -13045   -13219   -13412   -13674   -13765   -13450   -12857   -12212 
  -11680   -11441   -11527   -11873   -12451   -13089   -13475   -13468 
  -13112   -12484   -11695   -10974   -10604   -10702   -11237   -12116 
  -13046   -13705   -14003   -13903   -13439   -12749   -11907   -11121 
  -10732   -10706   -10709   -10779   -11200   -11799   -12218   -12517 
  -12872   -13108   -12946   -12474   -11947   -11504   -11246   -11156 
  -11098   -11098   -11299   -11740   -12410   -13261   -14069   -14515 
  -14516   -14103   -13159   -11871   -10721    -9899    -9522    -9714 
  -10284   -11088   -12121   -13070   -13598   -13705   -13452   -12900 
  -12235   -11580   -10960   -10644   -10802   -11006   -10986   -11071 
  -11466   -11912   -12089   -12043   -12073   -12155   -12015   -11766 
  -11805   -12245   -12819   -13325   -13887   -14465   -14716   -14480 
  -13825   -12941   -12104   -11458   -10936   -10461   -10115   -10053 
  -10320   -10843   -11565   -12398   -13158   -13691   -13968   -14076 
  -14139   -14102   -13868   -13582   -13408   -13261   -13105   -13073 
  -13089   -12950   -12665   -12371   -12131   -11904   -11734   -11792 
  -11931   -11801   -11526   -11488   -11796   -12352   -12943   -13293 
  -13325   -13147   -12838   -12529   -12217   -11693   -10982   -10339 
   -9925    -9833   -10118   -10692   -11326   -11848   -12232   -12463 
  -12511   -12482   -12468   -12433   -12375   -12370   -12376   -12301 
  -12217   -12228   -12321   -12572   -13058   -13566   -13759   -13500 
  -12906   -12124   -11327   -10871   -10949   -11310   -11790   -12468 
  -13217   -13851   -14273   -14345   -14054   -13551   -12945   -12328 
  -11905   -11838   -11992   -12187   -12572   -13228   -13848   -14158 
  -14173   -13948   -13514   -13034   -12648   -12391   -12258   -12140 
  -12000   -11889   -11824   -11873   -12032   -12253   -12614   -13049 
  -13298   -13277   -13039   -12604   -12064   -11515   -11020   -10656 
  -10442   -10462   -10852   -11472   -11982   -12305   -12548   -12627 
  -12545   -12525   -12513   -12221   -11676   -11136   -10809   -10893 
  -11527   -12618   -13770   -14505   -14648   -14300   -13545   -12461 
  -11314   -10494   -10291   -10733   -11680   -12815   -13630   -13819 
  -13605   -13321   -12941   -12433   -12047   -11850   -11688   -11511 
  -11344   -11205   -11145   -11267   -11696   -12348   -12949   -13292 
  -13257   -12812   -12198   -11777   -11655   -11739   -12037   -12496 
  -12899   -13122   -13077   -12721   -12210   -11712   -11234   -10828 
  -10652   -10606   -10517   -10586   -10953   -11515   -12260   -13058 
  -13555   -13676   -13593   -13355   -12885   -12132   -11335   -10741 
  -10380   -10395   -10890   -11778   -12911   -13995   -14715   -14941 
  -14804   -14480   -13942   -13230   -12615   -12306   -12293   -12413 
  -12561   -12704   -12646   -12263   -11734   -11292   -11095   -11178 
  -11483   -12070   -12858   -13516   -13861   -13926   -13895   -14011 
  -14173   -14130   -13855   -13259   -12255   -11072   -10034    -9387 
   -9290    -9575   -10065   -10852   -11835   -12781   -13497   -13749 
  -13603   -13292   -12854   -12486   -12449   -12540   -12437   -12240 
  -12104   -12064   -12256   -12583   -12775   -12806   -12613   -12159 
  -11796   -11736   -11747   -11700   -11715   -11773   -11947   -12564 
  -13605   -14550   -14943   -14713   -14103   -13323   -12387   -11423 
  -10654   -10185   -10135   -10543   -11176   -11699   -11854   -11592 
  -11263   -11364   -11862   -12448   -13077   -13531   -13489   -13220 
  -13161   -13297   -13439   -13441   -13213   -12880   -12649   -12441 
  -12206   -12060   -11778   -11268   -11071   -11462   -12143   -12873 
  -13483   -13787   -13842   -13828   -13695   -13325   -12841   -12328 
  -11719   -11214   -11171   -11489   -11734   -11844   -11912   -11811 
  -11668   -11649   -11546   -11300   -11117   -11194   -11642   -12289 
  -12873   -13305   -13477   -13304   -12901   -12501   -12150   -11701 
  -11183   -10895   -10903   -10970   -11219   -11928   -12606   -12649 
  -12414   -12313   -12143   -12010   -12266   -12598   -12415   -11743 
  -11121   -10968   -11280   -11836   -12576   -13433   -14134   -14457 
  -14332   -13802   -12960   -11889   -10705    -9683    -9256    -9680 
  -10866   -12401   -13752   -14662   -15137   -15110   -14555   -13707 
  -12880   -12330   -12074   -11886   -11807   -12044   -12567   -13259 
  -13932   -14280   -14157   -13689   -13134   -12587   -11931   -11141 
  -10446   -10110   -10150   -10563   -11338   -12108   -12576   -12876 
  -13119   -13162   -12989   -12842   -12668   -12183   -11608   -11272 
  -11018   -10886   -11329   -12313   -13320   -14017   -14247   -14044 
  -13540   -12710   -11678   -10739   -10142   -10199   -10975   -12096 
  -13209   -14075   -14446   -14439   -14385   -14145   -13521   -12789 
  -12062   -11286   -10755   -10588   -10503   -10493   -10849   -11535 
  -12253   -12884   -13327   -13468   -13270   -12636   -11718   -10933 
  -10465   -10287   -10341   -10601   -11205   -12109   -12954   -13564 
  -14095   -14575   -14779   -14708   -14472   -13840   -12760   -11607 
  -10690   -10152   -10139   -10702   -11623   -12642   -13626   -14419 
  -14886   -14929   -14445   -13597   -12857   -12476   -12386   -12511 
  -12679   -12644   -12483   -12463   -12594   -12729   -12792   -12675 
  -12341   -12012   -11877   -11881   -11969   -12148   -12326   -12441 
  -12584   -12885   -13270   -13414   -13177   -12699   -12148   -11627 
  -11128   -10683   -10490   -10642   -11017   -11470   -11873   -12086 
  -12069   -11843   -11396   -10933   -10787   -11013   -11408   -11761 
  -11966   -11985   -11824   -11693   -11884   -12375   -12810   -12893 
  -12656   -12298   -12040   -11913   -11657   -11178   -10782   -10625 
  -10586   -10733   -11245   -12020   -12787   -13355   -13684   -13837 
  -13864   -13713   -13193   -12356   -11677   -11557   -12036   -12857 
  -13632   -14104   -14102   -13624   -13078   -12802   -12629   -12262 
  -11537   -10596   -10017   -10253   -11173   -12363   -13514   -14330 
  -14542   -14335   -14112   -13829   -13305   -12664   -11993   -11265 
  -10682   -10555   -10879   -11503   -12395   -13350   -13972   -14038 
  -13591   -12816   -11848   -10825   -10083    -9919   -10363   -11329 
  -12583   -13670   -14308   -14476   -14150   -13479   -12833   -12452 
  -12231   -11934   -11607   -11450   -11541   -11931   -12544   -13084 
  -13389   -13537   -13552   -13381   -13086   -12752   -12341   -11838 
  -11395   -11179   -11071   -10936   -10939   -11273   -11846   -12482 
  -13150   -13721   -13911   -13647   -13119   -12626   -12410   -12528 
  -12891   -13278   -13412   -13182   -12676   -12000   -11350   -10989 
  -10901   -10874   -10893   -11017   -11286   -11720   -12091   -12225 
  -12356   -12629   -12842   -12880   -12799   -12636   -12322   -11796 
  -11142   -10585   -10389   -10633   -11130   -11713   -12270   -12606 
  -12633   -12436   -12073   -11711   -11599   -11763   -12129   -12663 
  -13236   -13670   -13786   -13549   -13144   -12672   -12199   -11863 
  -11670   -11619   -11836   -12330   -12977   -13705   -14385   -14778 
  -14679   -14033   -13032   -12051   -11315   -10820   -10561   -10724 
  -11379   -12204   -12928   -13491   -13784   -13751   -13458   -12892 
  -12063   -11217   -10652   -10516   -10848   -11561   -12433   -13147 
  -13405   -13231   -12943   -12826   -12915   -13027   -13026   -12924 
  -12745   -12422   -11840   -11128   -10663   -10515   -10569   -11007 
  -11869   -12831   -13583   -13930   -13888   -13605   -13151   -12695 
  -12468   -12406   -12271   -12077   -11973   -11950   -12021   -12298 
  -12634   -12745   -12571   -12218   -11925   -11948   -12221   -12498 
  -12618   -12546   -12513   -12764   -13323   -14058   -14650   -14721 
  -14139   -13077   -11878   -10968   -10660   -10867   -11263   -11624 
  -11793   -11713   -11530   -11394   -11281   -11137   -11014   -11040 
  -11252   -11576   -11969   -12397   -12785   -13235   -13918   -14662 
  -15044   -14797   -13965   -12789   -11508   -10454    -9999   -10143 
  -10620   -11233   -11762   -12033   -12170   -12395   -12742   -13036 
  -13127   -13027   -12880   -12888   -13134   -13510   -13917   -14183 
  -13996   -13247   -12160   -11056   -10193    -9778    -9946   -10648 
  -11616   -12556   -13339   -13967   -14327   -14166   -13508   -12762 
  -12097   -11327   -10489    -9952    -9998   -10551   -11423   -12456 
  -13339   -13768   -13710   -13247   -12515   -11799   -11345   -11205 
  -11229   -11207   -11110   -11013   -10945   -10924   -10943   -11152 
  -11695   -12374   -12966   -13419   -13647   -13535   -13051   -12386 
  -11874   -11630   -11566   -11634   -11665   -11516   -11317   -11271 
  -11668   -12660   -13848   -14678   -14913   -14528   -13647   -12652 
  -12017   -11970   -12361   -12926   -13529   -14087   -14413   -14401 
  -14169   -13810   -13243   -12557   -12096   -11939   -11850   -11716 
  -11537   -11410   -11576   -12027   -12526   -12970   -13297   -13416 
  -13350   -13112   -12673   -12205   -11931   -11754   -11515   -11434 
  -11682   -12016   -12253   -12407   -12445   -12406   -12339   -12172 
  -11892   -11522   -11092   -10767   -10632   -10619   -10774   -11051 
  -11195   -11249   -11589   -12384   -13377   -14152   -14557   -14598 
  -14131   -13128   -11813   -10534    -9745    -9674   -10135   -10891 
  -11688   -12363   -12996   -13541   -13788   -13772   -13643   -13313 
  -12775   -12317   -12104   -12101   -12305   -12595   -12800   -12895 
  -12930   -12901   -12783   -12668   -12645   -12606   -12560   -12687 
  -12835   -12773   -12696   -12810   -13036   -13301   -13471   -13340 
  -12991   -12634   -12224   -11740   -11357   -11152   -11167   -11566 
  -12279   -12969   -13500   -13838   -13763   -13147   -12303   -11650 
  -11223   -10854   -10546   -10454   -10766   -11452   -12185   -12784 
  -13216   -13359   -13093   -12406   -11551   -10951   -10787   -11101 
  -11896   -12873   -13656   -14069   -14019   -13567   -12906   -12121 
