Origin Time       2024/04/02 04:24:00
Lat.              40.133
Long.             141.712
Depth. (km)       71
Mag.              6.0
Station Code      FKS018
Station Lat.      37.3959
Station Long.     140.3619
Station Height(m) 245
Record Time       2024/04/02 04:25:59
Sampling Freq(Hz) 100Hz
Duration Time(s)  67
Dir.              U-D
Scale Factor      7845(gal)/8223790
Max. Acc. (gal)   1.763
Last Correction   2024/04/02 04:25:59
Memo.             
[...]
   12591    12415    12118    11854    11610    11468    11472    11507 
   11535    11569    11546    11473    11457    11442    11353    11318 
   11364    11427    11477    11450    11354    11280    11287    11373 
   11500    11631    11730    11763    11750    11681    11557    11499 
   11554    11604    11615    11628    11715    11935    12116    12132 
   12069    11983    11963    12037    12136    12236    12259    12147 
   12042    12079    12243    12434    12414    12117    11827    11657 
   11527    11431    11373    11368    11383    11303    11176    11217 
   11367    11365    11329    11475    11676    11796    11788    11645 
   11492    11380    11317    11406    11614    11755    11749    11637 
   11466    11299    11202    11219    11402    11688    11911    12052 
   12251    12403    12294    12091    11956    11761    11600    11578 
   11570    11577    11659    11685    11597    11553    11518    11373 
   11277    11259    11209    11233    11381    11557    11747    11943 
   11966    11846    11770    11611    11400    11441    11672    11885 
   12027    12066    11973    11745    11495    11319    11276    11389 
   11611    11966    12240    12137    11815    11469    11114    10885 
   10987    11358    11669    11803    11848    11836    11805    11750 
   11692    11711    11781    11831    11807    11709    11665    11749 
   11874    11907    11846    11784    11797    11886    11888    11762 
   11637    11473    11280    11173    11152    11217    11381    11557 
   11659    11740    11823    11832    11749    11643    11632    11743 
   11866    11931    11929    11859    11743    11643    11650    11811 
   12013    12145    12221    12183    12010    11831    11657    11456 
   11295    11236    11306    11508    11754    11954    12144    12321 
   12345    12163    11894    11723    11692    11685    11626    11519 
   11468    11479    11422    11408    11557    11620    11488    11394 
   11365    11338    11425    11549    11585    11646    11720    11720 
   11719    11747    11735    11659    11615    11684    11708    11537 
   11277    11059    10926    10881    10962    11279    11709    11943 
   11919    11824    11824    11877    11853    11797    11755    11712 
   11731    11769    11773    11804    11780    11589    11433    11577 
   11839    11904    11816    11713    11711    11790    11664    11450 
   11568    11816    11898    11986    12124    12170    12113    11969 
   11785    11674    11583    11450    11395    11446    11516    11554 
   11556    11605    11747    11803    11646    11453    11387    11466 
   11672    11874    11994    12052    11963    11719    11578    11624 
   11595    11477    11487    11516    11443    11449    11620    11793 
   11861    11834    11655    11400    11310    11407    11610    11917 
   12231    12415    12476    12372    12070    11759    11529    11377 
   11460    11668    11716    11662    11616    11543    11466    11415 
   11453    11620    11749    11816    11965    12090    12044    11873 
   11680    11572    11539    11496    11452    11446    11545    11751 
   11850    11762    11718    11747    11661    11561    11618    11634 
   11462    11264    11142    11190    11431    11630    11653    11605 
   11547    11488    11539    11701    11745    11703    11716    11646 
   11546    11572    11699    11919    12083    12082    12064    12066 
   12025    11894    11611    11368    11348    11377    11361    11488 
   11762    11956    12015    12006    11970    11931    11834    11622 
   11456    11472    11519    11520    11592    11704    11767    11800 
   11774    11703    11643    11507    11291    11187    11253    11403 
   11657    11956    12070    12006    11912    11767    11616    11508 
   11448    11433    11395    11331    11250    11159    11113    11153 
   11342    11605    11765    11858    11938    11848    11608    11476 
   11534    11680    11792    11754    11607    11533    11673    11996 
   12289    12478    12591    12441    12036    11735    11662    11669 
   11635    11547    11560    11739    11842    11777    11799    11844 
   11686    11372    10982    10648    10540    10619    10814    11183 
   11626    11921    12082    12164    12021    11684    11373    11178 
   11128    11240    11400    11535    11739    11977    11998    11835 
   11749    11784    11853    11978    12105    12067    11877    11615 
   11311    11099    11095    11279    11576    11944    12297    12445 
   12414    12343    12178    11927    11739    11647    11603    11597 
   11689    11907    12121    12226    12213    12063    11844    11697 
   11632    11581    11554    11543    11450    11318    11357    11565 
   11770    11892    11911    11797    11526    11192    10976    10936 
   11010    11145    11318    11535    11736    11750    11523    11225 
   11020    10922    10893    10928    11091    11318    11419    11429 
   11496    11672    11882    11959    11911    11850    11736    11622 
   11649    11708    11619    11452    11322    11295    11441    11685 
   11924    12172    12343    12337    12212    11944    11605    11438 
   11379    11261    11179    11207    11276    11391    11620    11836 
   11912    11940    11997    12098    12212    12195    11998    11813 
   11792    11838    11862    11871    11927    12067    12249    12433 
   12560    12625    12672    12599    12390    12210    12074    11905 
   11781    11799    11820    11749    11778    11950    12105    12212 
   12191    12040    11905    11739    11520    11406    11400    11445 
   11546    11704    11869    11917    11846    11765    11666    11512 
   11383    11298    11213    11205    11353    11565    11726    11861 
   11947    11920    11800    11603    11481    11535    11527    11419 
   11435    11522    11518    11399    11172    10943    10889    11007 
   11190    11479    11873    12204    12374    12355    12205    11988 
   11627    11175    10852    10758    10756    10740    10893    11313 
   11740    11939    11934    11884    11823    11603    11283    11063 
   10986    11091    11272    11357    11507    11832    12090    12152 
   12104    11990    11842    11622    11364    11286    11361    11348 
   11240    11180    11221    11373    11622    11911    12233    12464 
   12475    12368    12193    11956    11736    11530    11435    11549 
   11803    12151    12514    12712    12672    12463    12197    11911 
   11659    11550    11480    11357    11303    11280    11256    11394 
   11654    11908    12163    12266    12054    11650    11233    10952 
   10922    11070    11259    11456    11642    11724    11695    11705 
   11781    11800    11848    12025    12101    11974    11901    11961 
   11998    11921    11703    11410    11250    11291    11387    11468 
   11518    11551    11693    11892    11943    11792    11551    11331 
   11121    11003    11095    11325    11616    11936    12213    12405 
   12442    12167    11583    10997    10642    10573    10866    11365 
   11777    11988    11942    11666    11388    11326    11425    11560 
   11778    11965    11997    11990    11859    11541    11322    11338 
   11502    11708    11793    11723    11600    11426    11184    10960 
   10849    10935    11229    11589    11896    12064    12029    11908 
   11832    11811    11772    11655    11564    11576    11627    11666 
   11704    11757    11749    11635    11479    11380    11496    11757 
   11900    11967    12102    12236    12294    12302    12322    12386 
   12384    12286    12244    12217    12091    12001    12020    12096 
   12274    12488    12533    12442    12316    12094    11816    11578 
   11446    11507    11681    11781    11762    11751    11861    12090 
   12411    12641    12568    12321    12086    11827    11472    11160 
   11071    11091    11114    11263    11587    11996    12236    12136 
   11873    11561    11206    10952    10837    10868    11074    11296 
   11412    11503    11564    11537    11480    11335    11013    10655 
   10469    10517    10822    11381    11904    12152    12172    11886 
   11391    11059    10894    10701    10557    10596    10706    10791 
   10924    11153    11529    12004    12314    12359    12405    12523 
   12413    12062    11762    11584    11496    11429    11296    11304 
   11537    11722    11809    11880    11847    11704    11461    11225 
   11269    11431    11419    11456    11720    12063    12440    12765 
   12766    12474    12156    11842    11519    11304    11168    11145 
   11406    11813    12044    12105    12113    11881    11333    10843 
   10731    10943    11194    11284    11295    11414    11661    11874 
   11979    12058    12086    12029    11932    11804    11689    11523 
   11286    11337    11762    12055    12027    11962    11921    11815 
   11691    11583    11576    11769    11978    12013    12010    12054 
   11981    11731    11492    11550    11854    12067    12197    12341 
   12307    12028    11658    11406    11342    11349    11404    11550 
   11701    11749    11699    11639    11541    11489    11597    11651 
   11526    11313    11087    11001    11098    11195    11281    11481 
   11673    11722    11722    11728    11699    11546    11173    10789 
   10793    11164    11545    11875    12236    12461    12442    12236 
   11908    11662    11591    11502    11454    11565    11619    11647 
   11801    11966    12178    12415    12494    12503    12488    12329 
   12121    12046    12074    12055    12000    11992    12016    11985 
   11789    11503    11315    11241    11272    11441    11668    11809 
   11719    11481    11360    11394    11535    11762    11931    11962 
   11916    11784    11491    11130    10827    10609    10627    10959 
   11365    11587    11596    11520    11477    11454    11450    11549 
   11720    11784    11502    10989    10768    11010    11469    12016 
   12476    12636    12525    12252    11902    11672    11670    11811 
   12043    12312    12496    12451    12127    11723    11476    11491 
   11674    11769    11785    11870    11877    11689    11388    11087 
   10925    10975    11259    11665    11877    11831    11688    11454 
   11298    11349    11275    11026    10889    10763    10642    10824 
   11253    11657    11959    12035    11813    11619    11561    11438 
   11441    11607    11641    11595    11587    11628    11708    11639 
   11385    11215    11329    11711    12239    12698    12901    12896 
   12787    12517    12260    12267    12231    11911    11651    11642 
   11803    12148    12533    12623    12425    12117    11661    11276 
   11286    11488    11715    11986    12113    12062    12008    11911 
   11700    11561    11520    11477    11534    11665    11807    12037 
   12202    12128    11839    11489    11350    11503    11761    11943 
   11939    11724    11430    11151    10887    10789    10920    11070 
   11138    11205    11232    11221    11330    11443    11353    11180 
   11099    11098    11233    11612    12027    12202    12163    11963 
   11753    11781    11823    11573    11265    11080    10949    10936 
   11075    11406    11830    11982    11889    11835    11835    11884 
   11935    11909    11882    11942    12044    12054    11985    11975 
   12094    12376    12681    12741    12602    12429    11998    11256 
   10790    10844    11024    11182    11377    11530    11577    11461 
   11313    11506    11889    11915    11662    11402    11064    10816 
   10864    11060    11323    11583    11659    11664    11716    11763 
   11857    12008    12139    12179    12059    11901    11911    11961 
   11835    11584    11314    11124    11159    11485    11931    12236 
   12322    12151    11812    11565    11394    11226    11242    11360 
   11341    11317    11419    11550    11735    11952    12017    11969 
   11939    11928    11912    11890    11962    12160    12275    12199 
   11967    11670    11558    11601    11491    11318    11226    11079 
   10937    10957    11124    11367    11664    11907    11992    12124 
   12326    12259    11940    11628    11442    11438    11592    11846 
   12032    12037    11890    11534    11218    11195    11211    11168 
   11236    11391    11461    11456    11589    11817    11893    11857 
   11817    11659    11453    11523    11905    12309    12542    12488 
   12187    11943    11874    11834    11754    11642    11495    11377 
   11304    11249    11292    11438    11479    11473    11642    11772 
   11740    11762    11808    11778    11703    11518    11279    11226 
   11344    11452    11610    11769    11776    11731    11664    11538 
   11515    11705    11967    12055    11934    11716    11434    11257 
   11407    11769    12054    12108    12031    11948    11826    11716 
   11620    11558    11696    11854    11869    11905    12031    12156 
   12137    12055    12091    12140    12067    11943    11897    11901 
   11866    11763    11578    11495    11584    11589    11423    11254 
   11167    11171    11214    11122    10903    10793    10805    10854 
   11002    11140    11151    11214    11362    11418    11426    11562 
   11792    11982    12123    12106    11857    11520    11076    10612 
   10466    10608    10825    11088    11333    11465    11435    11233 
   10987    10945    11194    11632    12147    12634    12964    13042 
   12923    12772    12699    12606    12361    12019    11701    11450 
   11295    11412    11777    12137    12588    13197    13520    13296 
   12833    12411    12027    11722    11481    11279    11330    11530 
   11492    11423    11607    11740    11669    11704    11925    12089 
   12147    12097    11897    11661    11392    11067    10889    10917 
   10999    11030    11049    11156    11234    11190    11203    11252 
   11173    11126    11241    11437    11622    11705    11774    12025 
   12368    12465    12172    11796    11550    11371    11273    11271 
   11394    11507    11426    11385    11508    11635    11680    11614 
   11592    11649    11704    11907    12204    12355    12316    12213 
   12159    12031    11840    11796    11807    11738    11556    11280 
   11133    11137    11113    11114    11256    11523    11703    11600 
   11437    11465    11622    11732    11607    11307    11136    11183 
   11286    11419    11750    12133    12198    12023    11861    11767 
   11793    11958    12239    12525    12629    12507    12274    12051 
   11898    11827    11761    11604    11454    11403    11313    11279 
   11479    11730    11965    12293    12523    12383    11917    11353 
   10881    10532    10247    10238    10694    11253    11626    11928 
   12114    12063    11854    11611    11481    11442    11394    11468 
   11665    11847    12009    12069    11946    11743    11669    11846 
   12100    12100    11753    11389    11295    11335    11372    11524 
   11815    12016    12182    12442    12552    12496    12406    12078 
   11589    11321    11229    11203    11433    11753    11793    11658 
   11547    11457    11508    11758    11944    11924    11866    11866 
   11900    12032    12189    12144    11934    11727    11519    11379 
   11499    11769    11940    11952    11742    11348    11067    10976 
   10921    10937    11052    11156    11356    11692    11859    11758 
   11661    11696    11731    11727    11770    11808    11676    11349 
   11126    11242    11496    11697    11820    11848    11847    11753 
   11538    11369    11267    11192    11184    11230    11314    11391 
   11437    11483    11608    11878    12213    12595    12918    12869 
   12461    11880    11199    10727    10714    11047    11489    11890 
   12158    12190    12144    12231    12290    12235    12059    11677 
   11294    11106    11065    11121    11253    11438    11578    11612 
   11572    11434    11244    11064    10993    11141    11392    11596 
   11719    11781    11934    12191    12321    12216    12037    11948 
   11805    11495    11296    11326    11360    11369    11441    11519 
   11573    11689    11940    12372    12883    13088    12895    12552 
   12117    11724    11622    11743    11880    11929    11902    11790 
   11564    11445    11619    11855    11967    11992    11923    11816 
   11680    11364    11065    11105    11229    11268    11407    11476 
   11313    11180    11130    10967    10773    10692    10693    10849 
   11175    11461    11682    11927    12060    11977    11857    11827 
   11834    11816    11757    11724    11732    11558    11221    11210 
   11614    11923    11888    11749    11716    11655    11578    11786 
   12272    12722    12802    12532    12285    12117    11965    12031 
   12240    12386    12545    12546    12220    11846    11541    11306 
   11271    11318    11300    11222    11125    11097    11206    11414 
   11678    12024    12199    11946    11506    11137    10906    10872 
   10893    10887    11001    11128    11014    10837    10889    11094 
   11361    11658    11840    11843    11746    11653    11615    11665 
   11892    12283    12577    12663    12638    12379    11882    11443 
   11098    10916    11106    11454    11738    11996    12125    12102 
   12028    11893    11777    11769    11808    11804    11734    11650 
   11550    11489    11569    11735    11950    12147    12136    12036 
   12067    12050    11777    11352    11020    11003    11292    11630 
   11846    11936    11923    11797    11669    11742    11858    11735 
   11560    11453    11260    11106    11084    11098    11227    11493 
   11836    12262    12576    12557    12321    12079    11780    11383 
   11198    11431    11740    11854    11839    11718    11693    11882 
   11917    11707    11488    11238    10976    10967    11242    11562 
   11838    12021    11967    11728    11506    11349    11252    11286 
   11398    11479    11627    11835    11855    11658    11421    11241 
   11161    11180    11296    11537    11746    11758    11681    11624 
   11541    11346    11097    11142    11538    11835    11865    11846 
   11869    11898    11923    11896    11819    11789    11736    11593 
   11560    11682    11796    11909    12105    12297    12364    12367 
   12421    12457    12353    12101    11804    11646    11691    11889 
   12175    12316    12140    11778    11543    11635    11844    11939 
   11963    11904    11781    11680    11479    11273    11433    11718 
   11655    11519    11495    11303    11124    11200    11399    11674 
   11904    11902    11839    11826    11576    11091    10868    11009 
   11180    11361    11674    11951    12025    11959    11830    11736 
   11800    11875    11815    11765    11790    11796    11776    11755 
   11747    11850    12039    12067    11885    11678    11442    11165 
   10974    10953    11175    11469    11597    11631    11642    11657 
   11724    11711    11614    11587    11503    11311    11202    11113 
   11003    11006    11079    11161    11217    11267    11457    11696 
   11869    12082    12194    12043    11827    11678    11637    11803 
   12040    12167    12325    12556    12638    12550    12364    12160 
   12059    11943    11754    11620    11572    11615    11716    11826 
   11952    12056    12118    12063    11820    11628    11716    11997 
