Origin Time       2024/04/02 04:24:00
Lat.              40.133
Long.             141.712
Depth. (km)       71
Mag.              6.0
Station Code      FKS014
Station Lat.      36.8864
Station Long.     140.4166
Station Height(m) 163
Record Time       2024/04/02 04:26:08
Sampling Freq(Hz) 100Hz
Duration Time(s)  67
Dir.              N-S
Scale Factor      7845(gal)/8223790
Max. Acc. (gal)   2.513
Last Correction   2024/04/02 04:26:08
Memo.             
[...]
    9398     9201     9036     8920     8978     9126     9277     9495 
    9679     9682     9528     9350     9204     9032     8978     9197 
    9458     9525     9455     9273     8999     8822     8842     8986 
    9208     9471     9648     9633     9443     9144     8800     8629 
    8773     9022     9215     9443     9682     9744     9591     9418 
    9362     9374     9386     9331     9196     9046     8961     9003 
    9077     9011     8911     9036     9340     9612     9753     9713 
    9517     9252     8954     8726     8714     8914     9186     9443 
    9626     9621     9437     9224     9074     9023     9067     9182 
    9358     9481     9425     9282     9224     9312     9447     9472 
    9406     9323     9216     9148     9166     9273     9440     9524 
    9489     9427     9316     9173     9096     9109     9201     9321 
    9433     9516     9504     9424     9343     9225     9089     9023 
    9061     9150     9200     9208     9209     9175     9100     8997 
    8916     8985     9205     9436     9645     9782     9660     9359 
    9150     9012     8895     8957     9181     9383     9447     9335 
    9202     9204     9251     9267     9283     9313     9332     9308 
    9242     9151     9085     9146     9312     9416     9360     9197 
    9009     8928     9067     9286     9421     9568     9761     9828 
    9697     9471     9255     9081     8977     9009     9153     9308 
    9448     9547     9567     9535     9475     9436     9439     9423 
    9400     9386     9310     9163     9020     8992     9090     9201 
    9310     9425     9514     9587     9559     9356     9023     8708 
    8633     8784     8969     9170     9431     9617     9583     9343 
    9073     9035     9254     9421     9397     9331     9261     9140 
    9045     9053     9147     9215     9198     9159     9142     9148 
    9200     9275     9277     9159     8989     8861     8912     9175 
    9440     9598     9655     9583     9417     9205     9066     9107 
    9240     9364     9470     9529     9486     9346     9182     9115 
    9228     9401     9466     9455     9348     9093     8866     8881 
    9127     9424     9622     9703     9622     9352     9061     8920 
    8984     9204     9385     9475     9566     9648     9695     9674 
    9549     9413     9324     9236     9143     9055     9004     9067 
    9259     9437     9490     9493     9516     9452     9256     9059 
    8945     8978     9177     9348     9377     9327     9293     9339 
    9389     9359     9292     9220     9157     9112     9074     9031 
    9023     9097     9251     9414     9491     9510     9521     9400 
    9066     8746     8683     8833     9053     9302     9504     9595 
    9653     9632     9431     9169     8959     8802     8762     8876 
    9072     9248     9336     9337     9294     9265     9248     9177 
    9077     8984     8873     8819     8900     9124     9375     9498 
    9575     9663     9625     9479     9288     9004     8734     8653 
    8776     8984     9169     9328     9485     9614     9616     9495 
    9396     9352     9308     9246     9224     9290     9360     9414 
    9501     9509     9428     9408     9409     9362     9332     9309 
    9247     9190     9182     9204     9256     9386     9495     9416 
    9228     9089     8995     8984     9050     9069     9093     9211 
    9306     9370     9495     9578     9513     9408     9327     9201 
    9022     8962     9174     9481     9660     9718     9651     9512 
    9369     9151     8986     9082     9346     9520     9427     9200 
    9109     9155     9263     9367     9346     9265     9211     9078 
    8910     8892     9066     9331     9552     9651     9595     9429 
    9309     9255     9239     9373     9570     9629     9509     9309 
    9163     9085     9076     9162     9198     9127     9076     9066 
    9028     9009     9112     9286     9393     9397     9270     9076 
    9027     9116     9140     9077     9103     9243     9344     9381 
    9385     9358     9383     9432     9414     9328     9146     8950 
    8838     8793     8864     9066     9343     9634     9782     9730 
    9572     9300     9073     9107     9221     9281     9375     9439 
    9428     9391     9328     9313     9367     9389     9373     9369 
    9391     9386     9267     9140     9142     9166     9150     9178 
    9248     9333     9416     9431     9400     9400     9406     9323 
    9108     8985     9127     9267     9235     9208     9315     9498 
    9570     9486     9360     9205     9015     8837     8762     8881 
    9086     9269     9468     9614     9621     9552     9467     9427 
    9439     9445     9416     9325     9171     8972     8802     8846 
    9107     9342     9548     9760     9755     9517     9221     8924 
    8687     8633     8851     9208     9520     9756     9786     9520 
    9119     8785     8679     8820     9146     9510     9710     9710 
    9536     9238     9030     9003     9084     9227     9394     9518 
    9464     9209     8973     8926     9005     9135     9320     9508 
    9536     9317     9023     8914     9035     9246     9425     9601 
    9711     9566     9247     8989     8893     9040     9274     9360 
    9382     9427     9400     9267     9184     9294     9491     9644 
    9699     9548     9235     9008     8962     8993     9112     9410 
    9728     9826     9684     9397     9097     8874     8762     8889 
    9261     9606     9724     9617     9313     8927     8707     8773 
    9074     9472     9791     9879     9653     9238     8854     8623 
    8681     9039     9466     9756     9787     9524     9142     8874 
    8841     8996     9126     9154     9266     9460     9555     9477 
    9328     9305     9339     9223     9099     9069     8993     8888 
    8833     8868     9090     9466     9786     9892     9810     9612 
    9319     8997     8766     8702     8819     9076     9360     9587 
    9745     9747     9529     9246     9043     8954     9020     9204 
    9397     9468     9381     9285     9227     9146     9120     9213 
    9355     9435     9331     9069     8900     8996     9228     9444 
    9591     9579     9408     9231     9100     8980     9001     9229 
    9437     9472     9433     9352     9174     9024     9063     9192 
    9283     9378     9416     9367     9356     9373     9333     9248 
    9157     9124     9117     9090     9132     9211     9290     9416 
    9472     9432     9397     9379     9409     9485     9501     9416 
    9275     9190     9211     9266     9373     9528     9580     9498 
    9327     9128     9003     8954     8949     8968     9003     9085 
    9216     9305     9293     9350     9537     9622     9572     9504 
    9390     9207     9001     8857     8845     9034     9393     9699 
    9775     9659     9439     9182     8959     8753     8595     8599 
    8716     8850     8985     9190     9517     9786     9826     9683 
    9475     9356     9321     9215     9043     8911     8845     8820 
    8827     8899     9062     9275     9397     9343     9232     9058 
    8749     8498     8409     8456     8685     9067     9532     9950 
   10172    10241    10187     9969     9690     9466     9301     9154 
    9054     9036     9054     9062     9063     9113     9238     9325 
    9333     9329     9331     9350     9343     9270     9170     9061 
    9067     9288     9614     9911    10049     9999     9890     9680 
    9369     9171     9081     9013     9009     9027     9175     9513 
    9756     9711     9421     9109     9001     9011     9103     9323 
    9427     9286     9103     9015     9007     9001     9051     9320 
    9674     9805     9763     9774     9768     9614     9440     9312 
    9255     9400     9634     9774     9817     9726     9528     9274 
    9013     8927     9134     9463     9532     9312     9143     8978 
    8687     8533     8667     9051     9576     9952    10038    10003 
    9930     9698     9342     9051     8777     8483     8341     8343 
    8433     8712     9084     9332     9471     9529     9370     9081 
    8992     9024     8854     8642     8669     8773     8823     8993 
    9293     9516     9566     9479     9312     9135     9018     8810 
    8452     8344     8637     9054     9477     9810     9946     9944 
    9815     9568     9346     9269     9319     9413     9481     9425 
    9239     9047     8872     8689     8661     8904     9279     9606 
    9795     9779     9551     9266     9154     9312     9626     9898 
    9975     9825     9571     9310     9013     8793     8769     8819 
    8954     9192     9238     9070     8992     9061     9113     9055 
    9034     9234     9591     9877     9857     9620     9410     9112 
    8712     8449     8429     8753     9224     9522     9769    10039 
   10139    10038     9926     9899     9833     9709     9598     9393 
    9076     8721     8359     8214     8421     8780     9151     9494 
    9761     9940     9990     9929     9747     9358     8846     8428 
    8378     8793     9428    10092    10631    10758    10424     9863 
    9331     8945     8700     8673     8803     8841     8838     8981 
    9173     9297     9470     9775    10021    10026     9810     9400 
    8930     8708     8870     9279     9705    10025    10145     9919 
    9366     8654     8016     7777     8062     8641     9198     9539 
    9618     9479     9250     9092     9063     9127     9161     9003 
    8654     8209     7765     7620     7993     8667     9386     9958 
   10075     9674     9024     8425     8132     8166     8365     8714 
    9173     9675    10145    10422    10413    10058     9423     8734 
    8182     8009     8341     8943     9567    10057    10272    10251 
   10130     9958     9853     9952    10012     9678     9200     9001 
    9128     9512     9977    10385    10723    10836    10593    10083 
    9471     8951     8718     8792     9084     9479     9722     9664 
    9379     9024     8915     9139     9445     9747     9896     9761 
    9490     9161     8922     8949     9123     9340     9563     9728 
    9887    10049    10061     9752     9067     8279     7847     7915 
    8253     8621     8922     9121     9181     9154     9123     9101 
    9221     9532     9599     9120     8499     8136     7965     7898 
    8012     8372     8880     9339     9686     9914     9984     9938 
    9841     9636     9356     9150     8955     8650     8303     8037 
    7987     8185     8552     9155    10004    10858    11348    11157 
   10305     9092     7956     7389     7473     7919     8537     9288 
   10087    10714    10887    10638    10354    10195     9981     9518 
    8885     8478     8356     8287     8406     8899     9633    10269 
   10409    10096     9703     9273     8730     8235     8037     8262 
    8745     9267     9737    10061    10143    10077    10072    10018 
    9622     8955     8398     8151     8041     8051     8434     9054 
    9589     9983    10253    10300     9963     9370     8856     8526 
    8424     8696     9390    10257    10689    10264     9360     8689 
    8611     9062     9728    10258    10370     9953     9161     8271 
    7717     7982     9055    10233    10817    10673     9972     9051 
    8383     8278     8637     9134     9593     9857     9752     9358 
    8953     8850     9263     9975    10498    10621    10392     9841 
    9038     8267     7943     8235     8916     9556     9792     9593 
    9265     9050     8937     8954     9197     9467     9477     9139 
    8511     7978     7916     8172     8557     9127     9841    10498 
   10763    10444     9693     8783     8024     7609     7588     7965 
    8513     8973     9445    10026    10489    10584    10282     9794 
    9358     9050     9039     9436     9948    10305    10453    10272 
    9725     9000     8422     8248     8530     9147     9826    10264 
   10370    10237     9883     9413     9027     8838     8916     9135 
    9256     9227     9039     8685     8279     8010     8075     8523 
    9163     9733    10084    10143     9909     9485     8928     8371 
    8104     8128     8183     8271     8510     8870     9312     9788 
   10123    10095     9629     8851     8068     7666     7940     8856 
    9872    10353    10220     9810     9373     9143     9305     9749 
   10044     9828     9285     8748     8329     8290     8762     9420 
    9996    10393    10466    10058     9278     8656     8537     8864 
    9451     9892    10008     9990     9867     9583     9189     8899 
    8973     9333     9540     9238     8745     8658     8924     9194 
    9412     9626     9790     9720     9344     8934     8734     8814 
    9155     9529     9751     9836     9717     9360     8881     8344 
    7963     8086     8669     9390    10061    10517    10520     9948 
    9101     8668     8816     9028     9143     9416     9780     9892 
    9525     8910     8596     8723     8959     9197     9724    10465 
   10806    10503     9895     9288     8803     8644     8955     9462 
    9852    10153    10368    10431    10373    10172     9825     9522 
    9329     9092     8807     8532     8233     8168     8635     9356 
    9850    10061    10115     9907     9352     8756     8561     8934 
    9672    10237    10081     9285     8502     8131     8110     8436 
    9157     9973    10355     9999     9042     7889     6976     6632 
    6952     7839     9007     9944    10417    10588    10592    10442 
   10096     9679     9360     8889     8064     7353     7344     8064 
    9131    10218    11053    11277    10763     9672     8307     7254 
    6999     7472     8368     9344    10087    10550    10675    10214 
    9258     8452     8329     8679     8951     9126     9486     9892 
    9949     9562     8993     8542     8336     8344     8403     8379 
    8340     8453     8823     9378     9979    10509    10817    10855 
   10654    10164     9505     8969     8676     8534     8522     8640 
    8687     8568     8421     8316     8345     8645     9182     9836 
   10427    10733    10589    10084     9661     9671     9948    10131 
   10107     9930     9586     9100     8622     8364     8575     9159 
    9595     9564     9310     9358     9798    10251    10557    10701 
   10590    10169     9502     8868     8604     8924     9664    10288 
   10486    10285     9667     8758     7989     7686     7906     8668 
    9751    10494    10420     9686     8757     8043     7857     8322 
    9169     9931    10307    10107     9336     8429     7944     8079 
    8540     8961     9343     9636     9404     8576     7816     7657 
    7978     8375     8695     9126     9509     9204     8229     7514 
    7647     8394     9269     9975    10390    10405    10022     9495 
    9135     9201     9688    10219    10438    10085     9204     8417 
    8127     8208     8554     9080     9726    10369    10613    10307 
    9679     9193     9235     9491     9675    10071    10601    10829 
   10656    10218     9713     9354     9092     8733     8388     8355 
    8671     9148     9580     9944    10291    10521    10539    10354 
   10018     9572     9054     8552     8264     8509     9196     9742 
    9957     9911     9382     8391     7399     6943     7269     8125 
    9078     9779     9938     9556     8977     8572     8550     8938 
    9521     9934     9999     9742     9364     9320     9683    10145 
   10644    10899    10416     9298     8047     7157     6910     7298 
    8294     9625    10743    11354    11271    10504     9491     8523 
    7686     7214     7261     7834     8768     9671    10297    10666 
   10783    10725    10558    10265     9896     9470     9030     8704 
    8534     8522     8615     8696     8780     8901     8922     8722 
    8452     8399     8672     9009     9153     9331     9656     9794 
    9728     9694     9730     9757     9579     9092     8476     7986 
    7947     8522     9413    10104    10269     9953     9358     8627 
    8079     8156     8838     9571     9945     9941     9506     8598 
    7635     7203     7495     8367     9416    10184    10589    10659 
   10320     9680     9009     8468     8106     8019     8295     8916 
    9790    10693    11313    11507    11325    10916    10458     9940 
    9254     8575     8297     8517     8982     9485     9919    10199 
   10226     9964     9624     9475     9494     9525     9344     8764 
    8112     7974     8552     9568    10540    11192    11300    10621 
    9386     8118     7244     7094     7688     8652     9567    10165 
   10206     9720     9040     8410     8166     8540     9224     9867 
   10064     9514     8627     7950     7762     8270     9293    10197 
   10500    10212     9549     8824     8343     8266     8707     9418 
    9946    10073     9769     9270     8787     8367     8225     8496 
    9175    10089    10708    10800    10536     9927     9032     8168 
    7740     7985     8631     9278     9819    10242    10478    10482 
   10254     9906     9664     9626     9702     9914    10239    10436 
   10380    10019     9379     8797     8598     8889     9474     9838 
    9714     9121     8178     7257     6872     7439     8815    10153 
   10793    10590     9639     8370     7391     7074     7485     8480 
    9729    10725    10975    10353     9174     7970     7217     7048 
    7407     8144     8892     9378     9543     9340     8920     8530 
    8328     8476     8957     9468     9802    10017    10158    10156 
   10045     9899     9830     9845     9691     9436     9356     9383 
    9432     9653     9977    10075     9927     9798     9805     9984 
   10215    10277    10196    10008     9599     9027     8680     8957 
    9738    10373    10357     9838     9209     8681     8392     8338 
    8591     9265     9941    10143     9837     9151     8413     7838 
    7450     7530     8117     8750     9115     9115     8789     8406 
    8118     7906     7935     8334     8760     8860     8822     8851 
    8953     9154     9410     9725    10073    10376    10692    10894 
   10752    10404    10076     9803     9491     9119     8932     9092 
    9417     9711     9918     9958     9713     9265     8864     8777 
    9181     9887    10454    10694    10747    10693    10461     9977 
    9281     8752     8773     9167     9455     9450     9389     9445 
    9381     9073     8783     8688     8726     8750     8625     8472 
    8629     9157     9859    10396    10366     9842     9215     8646 
    8290     8301     8645     9101     9324     9108     8592     8147 
    8001     8093     8313     8645     9018     9310     9421     9246 
    8874     8495     8121     7861     7973     8518     9232     9725 
    9904     9902     9768     9605     9486     9417     9452     9572 
    9705     9726     9504     9109     8804     8807     9113     9612 
   10165    10507    10498    10222     9738     9073     8326     7827 
    7848     8356     9185     9985    10498    10743    10602    10058 
    9451     9109     9090     9105     8922     8770     8918     9259 
    9564     9811    10066    10158     9826     9111     8384     7971 
