Origin Time       2024/04/02 04:24:00
Lat.              40.133
Long.             141.712
Depth. (km)       71
Mag.              6.0
Station Code      FKS004
Station Lat.      37.6798
Station Long.     140.7342
Station Height(m) 488
Record Time       2024/04/02 04:25:25
Sampling Freq(Hz) 100Hz
Duration Time(s)  94
Dir.              N-S
Scale Factor      7845(gal)/8223790
Max. Acc. (gal)   6.466
Last Correction   2024/04/02 04:25:26
Memo.             
[...]
    5969     6700     7468     6970     7071     7794     7256     6062 
    6106     6833     6743     6281     6509     6743     6096     6112 
    7542     8232     7753     7622     7506     6567     5674     5945 
    6847     7203     7114     6979     6666     6498     6619     6656 
    6450     6204     6804     8001     8005     7036     6552     6274 
    5865     6000     6438     6396     6727     7828     8059     7329 
    6883     6420     5844     6070     6798     7079     7198     7555 
    7692     7283     6477     5975     6330     6610     6210     6411 
    7281     7109     6312     6366     6361     5940     6494     7209 
    6987     7068     7177     6648     7269     8375     7497     6330 
    6556     6276     5412     5898     7159     7331     6385     5663 
    6114     7115     7233     6859     7005     6790     6068     6151 
    6782     6936     6879     7086     7250     7226     7334     7187 
    6362     6143     7186     7604     6860     6608     6731     6232 
    6145     6879     6658     5938     6771     7468     6728     6682 
    6951     6471     6775     7230     6446     6115     7040     7044 
    5919     6443     8112     7622     6046     6571     7869     7632 
    7142     7149     6589     5964     6087     6523     6831     6883 
    6910     7042     6953     6663     6650     6899     6605     5911 
    6181     6913     6535     6138     6822     7056     6906     7663 
    7700     6539     6714     7626     6832     5687     6195     7145 
    7114     6806     6713     6150     5760     6705     7782     7537 
    6743     6623     7206     7703     7503     6905     6729     7003 
    6795     6070     5958     6556     6786     6600     7078     7689 
    6887     6145     7091     7531     6466     5729     5710     6107 
    7021     7477     6982     6569     6600     6798     7506     8100 
    7314     6095     6031     6581     6718     6654     6791     6979 
    6910     6546     6461     7025     7172     6482     6151     6280 
    6555     7306     7786     7501     7101     6812     6925     7306 
    6759     5782     6010     6890     7002     6812     7362     7569 
    6578     6022     6454     6744     6596     6172     6064     6586 
    7022     7276     7385     6899     6432     6701     7015     6849 
    6983     7472     7049     6162     6462     6849     5756     5265 
    6744     7882     7543     7249     7581     7129     5872     5931 
    7099     7244     6485     5983     5926     6332     7022     7358 
    7044     6480     6199     6355     6924     7711     7734     6895 
    6920     7765     7411     5969     5822     7172     7245     6262 
    7006     8163     7268     6085     6565     7168     6372     5514 
    5945     6592     6547     6436     6552     6866     7258     7233 
    7352     8202     8419     7244     6336     6916     7838     7711 
    6728     5748     5448     6110     7129     7415     6581     5706 
    5973     7078     7946     7476     5988     5518     6199     6509 
    6570     6438     5872     6149     7110     7400     7497     7388 
    6909     7384     7987     7003     5930     6427     7199     6585 
    5945     7033     7994     7338     6328     5601     5598     6637 
    7530     7599     7102     6250     5869     6639     7376     6839 
    6332     7117     7925     7568     6689     6288     6401     6538 
    6562     6693     6890     6889     6875     7045     6804     6021 
    5740     6075     6301     6592     6984     7437     8116     8113 
    7244     6727     6567     6427     6914     7466     6910     5998 
    6122     6970     7294     6627     5665     5437     5908     6266 
    6534     7311     7971     7146     5836     6243     7184     6313 
    5151     6299     8294     8311     7241     7001     6893     6351 
    6353     6975     7279     7176     6984     6362     5833     6538 
    7438     7341     7221     7240     6670     6276     6521     6342 
    5683     5783     6507     6944     7080     7049     7065     7101 
    6928     7084     7128     6183     5605     6138     6531     6687 
    7200     7669     7558     7111     6833     6424     5927     6066 
    6238     5792     5748     6520     6820     6264     6258     6968 
    6879     6320     6697     7118     6821     6899     7260     7252 
    7069     6601     6161     6407     7001     7393     7534     7150 
    6208     5892     6624     7057     6929     7126     7429     7462 
    7622     7788     7546     7123     6656     6303     6610     7036 
    6972     7177     7354     6658     6396     7435     7906     6953 
    6408     6804     6820     6573     6760     6924     7026     7059 
    6330     6018     7407     8166     6767     6016     6891     6818 
    6222     7128     7624     6446     6363     7680     7420     6222 
    6494     7072     7105     7726     8055     7215     6380     6097 
    6123     6245     6386     6725     6905     6643     6345     5933 
    5447     5703     6377     6677     7364     8208     7599     6396 
    6412     6879     6528     6027     6417     6994     6604     6245 
    7013     7511     6700     5967     6502     7296     7034     6382 
    6431     6629     6289     5994     6469     7450     7597     6604 
    6442     7686     8098     7128     6670     7037     7145     7183 
    7503     7430     6721     6180     6369     6818     6860     6373 
    5894     6366     7407     7279     6401     6870     7912     7342 
    5984     5956     7114     7632     6820     6245     6712     6798 
    6164     5908     6300     6794     6681     6350     7010     7736 
    6886     6004     7001     7873     6675     5645     6501     7141 
    6351     6031     6844     6921     6110     5960     6334     6809 
    7290     6751     6008     6794     7501     6840     6735     7526 
    7576     6921     6714     7145     7314     6785     6513     7123 
    7215     6072     5706     6466     6353     6043     6756     7180 
    7294     7470     6477     5375     6026     7283     7749     7655 
    7358     6997     6840     6832     6731     6897     7472     7736 
    7321     6527     5981     6556     7647     6990     5073     4838 
    5850     6158     6570     7497     7807     7541     7225     6936 
    6728     6469     6388     6558     6559     6616     6740     6829 
    7225     7099     6311     6450     7473     7994     7813     7470 
    7042     6754     6961     6739     6014     6313     6802     6277 
    6427     7515     7379     6077     5618     6045     6270     6777 
    7732     7981     7233     6505     6744     7102     6574     6247 
    6463     6457     6698     7260     7330     6929     6413     5694 
    5098     5552     6551     6804     7310     8360     7893     6656 
    6548     6482     6224     7109     8271     8548     8635     8460 
    7557     7123     7317     6864     6205     5894     5408     5516 
    6466     6882     6826     6968     6615     5684     5397     5915 
    6027     5961     6853     7487     6818     6643     7676     7859 
    6651     6779     8495     8251     6473     6420     7056     6552 
    5991     5913     5965     6161     6046     5829     6382     7002 
    6831     6845     7329     7123     6345     6053     6662     7497 
    7526     7372     7798     7996     7815     7199     5950     5691 
    6515     6332     6034     7037     7199     6002     6053     6772 
    5684     4703     6301     7898     7191     6532     7551     8397 
    8252     8059     7547     6804     6991     7568     7508     7368 
    7318     6606     5749     5890     6072     5155     4768     5718 
    6011     5348     5445     6257     6515     6223     6548     7740 
    8415     7900     7384     7697     8068     7551     6786     7190 
    7989     7464     6498     6409     6434     6064     6072     6718 
    6940     5960     5221     6061     7021     7053     7180     7439 
    7237     6944     6642     6156     6293     7558     8571     8059 
    6970     6417     6019     5629     5485     5366     5967     7431 
    7766     6882     6976     7911     8043     7496     7125     6891 
    6539     6008     5590     6002     6714     6554     6430     6974 
    6943     6868     7798     7855     6313     5887     7090     7295 
    6184     5775     6710     7674     7392     6623     6693     7101 
    6806     6338     6594     6872     6588     6385     6378     6546 
    6949     7051     6983     7101     6922     6944     7865     8233 
    7280     6577     6559     6015     5256     5571     6421     6999 
    7514     7612     7499     7740     7366     6385     6370     6952 
    6573     5641     5441     5962     6459     6578     6863     7371 
    6818     5768     6091     7010     7198     7082     6998     7160 
    7614     7531     6970     6875     7191     7268     7149     7076 
    6278     5196     5972     7558     7379     6736     7142     7078 
    6401     6713     7497     7603     7122     6332     6034     6647 
    6934     6471     6496     7030     6945     6488     6675     7306 
    7245     6528     6529     7165     6779     5456     5325     6646 
    7034     6389     6767     7472     7067     6682     7369     7979 
    7204     5913     5845     6895     7240     6336     6050     6943 
    7115     6457     6615     7150     6802     6343     6539     6384 
    5746     6184     7311     6945     5868     6080     6600     7140 
    8498     8510     6787     6934     8939     9157     7535     6492 
    5869     5005     5394     6858     6914     6156     6489     6394 
    5618     6781     8671     7919     5972     6143     7383     7263 
    6939     7622     7551     6129     5616     6824     7520     6991 
    7144     7946     7653     6540     5854     5375     5154     6235 
    7572     7423     6967     7132     6660     5998     6605     7395 
    7155     7030     7360     6778     6035     6816     7561     6995 
    6712     6434     5859     6982     8004     6561     5795     6876 
    6902     6369     6705     6292     5676     6629     7285     6697 
    6527     6700     6790     7364     7663     7078     6984     7699 
    7846     7884     8621     8379     6635     5672     5968     5957 
    5476     5166     5562     6554     7010     6714     6392     6639 
    7393     7348     6558     6732     7165     6462     6015     6694 
    7080     6644     6072     5896     6323     6702     6550     6562 
    6922     7314     7862     7946     7261     6685     6215     5930 
    6517     7136     6894     6470     6602     7128     7117     6577 
    6841     7742     7960     7317     6297     5738     5904     5931 
    6004     6627     6632     5815     6007     7256     7460     6473 
    5871     5935     6513     7331     7285     6670     6793     7210 
    7091     7331     8127     7862     7200     7943     8294     6944 
    6203     6700     6512     5626     5532     6210     6799     7165 
    7310     7111     6615     5971     5671     6057     6579     6593 
    6304     6567     7568     8233     7954     7183     6644     6714 
    6789     6697     6627     6230     6544     7866     8162     7263 
    6621     6485     6658     6612     5913     5508     6359     7391 
    6922     6033     6744     7669     7003     6608     7488     7210 
    5999     6642     7761     6974     6004     6011     5949     6170 
    6817     6907     6964     7400     7160     6589     7002     7491 
    6540     5562     6475     7699     6914     5738     6690     8055 
    7496     6669     7323     7966     7125     5867     5973     7331 
    7919     6994     6458     7029     6745     5674     6255     7381 
    6286     5131     6432     7618     7191     7105     7011     5887 
    5719     6795     6984     6528     6372     6457     7280     8237 
    8004     7207     6966     7236     7479     7199     6752     6620 
    6253     5834     6043     6211     6080     6156     6242     6450 
    6777     6455     5994     6577     7481     7361     7095     7832 
    8268     7773     7923     8803     8681     7591     7538     8351 
    7736     6062     5251     5050     4661     4399     4592     5329 
    6511     7302     7161     6921     7222     7022     6008     6323 
    7982     8067     7025     7372     7917     6632     5197     5795 
    7207     7697     7813     7989     7014     4603     3148     4106 
    5485     6189     7425     8469     8074     7596     7539     6598 
    5540     5817     6293     5813     5391     5625     5977     6683 
    7815     8424     8274     7830     7107     6220     5366     4537 
    4268     4750     5267     5899     7057     8082     8793     9714 
    9842     8351     6870     6022     4662     3858     4977     6431 
    7082     7533     7759     8098     8781     8854     8621     8700 
    8197     7036     6203     5736     5325     5622     6465     6284 
    5289     5022     5737     6990     7396     5972     4438     3784 
    3780     5817     9238    11377    12633    13520    12052     8495 
    5440     3511     2887     4143     5790     6397     6165     5620 
    5756     6804     7584     7770     7608     6408     5059     6255 
    8878     9301     8542     8704     8063     6690     6805     7422 
    7014     6384     5663     4418     3983     5424     7410     8124 
    7510     6797     6114     4901     4758     6808     8861     9663 
   10211    10328     9142     6616     2953        2      885     4750 
    7728     9270    10201     9417     7807     7742     7965     6573 
    5279     5587     6523     7654     8783     8163     5896     5031 
    5886     5668     4699     5267     6316     6477     7060     8116 
    8517     8878     9275     8280     6239     5167     5250     5247 
    5184     5572     6054     6219     6189     6408     7487     9123 
    9620     8534     7183     6335     6642     7815     7476     5373 
    4139     4391     5103     6470     8206     9250     9466     8667 
    7195     6234     5437     4594     4691     5049     4962     5687 
    7647     9597     9949     8429     6905     6490     6245     5798 
    5850     6318     6488     6390     6480     7036     8187     9113 
    8503     6793     5803     5702     4837     3480     3811     5289 
    5965     6451     7819     9364     9999     9591     8186     5262 
    1950     1436     4635     8353     9582     9223     9952    11500 
   10801     8124     6505     5386     3742     2879     2565     2929 
    5256     8085     9437    10123    10635     9699     7437     4900 
    2857     3105     5494     7565     8951     9697     9058     7983 
    7245     6660     7051     8496     8887     7134     5143     4446 
    4369     4606     5644     7053     8113     8618     8425     7227 
    4692     2191     2574     5117     6328     6785     8766    10277 
    9626     9142     9466     8476     5881     3142     1102      225 
    1957     6193     9456    10146     9324     7408     6394     7538 
    7716     6168     6350     8221     8519     7007     6166     6943 
    7600     6921     6123     5892     5306     5190     7518    10694 
   11659    10920     9563     6825     3547     2008     2987     5169 
    6480     7159     8235     8109     6895     6921     7399     7258 
    7229     6625     5162     4556     5683     7302     8056     8056 
    7848     7414     6399     5416     5863     7229     8340     9297 
    8872     6324     4750     5566     5819     4726     4784     6187 
    6762     6520     7088     7946     8060     7994     7499     6385 
    6196     6781     6586     6616     7758     7690     5516     3627 
    3653     5482     7354     7295     6878     8221     9607     9340 
    9297    10898    11707     9886     7360     5641     4025     2878 
    3233     4176     4909     6177     7546     7553     6984     7443 
    7828     7236     6912     6235     4147     2722     3609     6239 
    9572    11700    11346     9478     7330     5703     5589     6326 
    5776     4210     3731     4796     6538     7792     7911     7133 
    5779     5641     7819     9416     9132     8762     7803     5860 
    4772     4453     4110     5140     7438     8464     7658     6345 
    5205     4660     5124     6543     7967     7894     6482     5522 
    5417     5767     7214     9254    10503    11411    12124    11276 
    8748     5498     2560     1493     3010     6027     8172     8012 
    7388     7406     6227     5027     6494     8181     7200     5368 
    4808     5229     5379     4584     4259     6068     9073    11389 
   12190    10814     7271     4568     4831     4777     3678     5602 
    8749     8978     8494     8757     7578     6139     6544     6524 
    5031     4963     6498     6986     6440     6276     6251     6115 
    6319     6343     5863     6347     8893    11106     9391     5640 
    4336     4689     5043     6339     7753     8672     9531     8748 
    6205     4571     4598     4918     5672     7708     9405     8961 
    7465     6138     4927     4456     4876     5544     6732     7727 
    6949     6088     7712     9803     9617     8752     8201     5636 
    2097     1935     4224     4858     5117     7195     8900     9724 
   10800    10346     7839     5755     4773     3893     3825     5277 
    6744     7568     8797     9961     9705     8594     7881     7249 
    6354     5918     6143     6566     6642     6264     5786     5597 
    6439     7911     8270     7531     6691     5636     5036     5678 
    6289     6243     6698     7677     7763     7088     7304     7491 
    5892     4762     5586     5985     5671     6222     7290     8529 
    9942    10349     9209     8148     8418     8436     6712     4785 
    4209     4511     5235     6322     7311     7458     6309     4882 
    4722     5471     6220     7005     7257     6342     5063     4824 
    6192     8365     9706     9134     7966     7959     7726     5913 
    4561     5562     7597     8122     6905     5949     6106     6494 
    7018     8101     8522     7335     5744     4594     4267     5710 
    7753     7562     5420     4953     7148     8523     7642     7113 
    7514     7231     7090     7476     6448     5391     6878     8309 
    7254     6043     6296     6579     6089     5832     6361     6858 
    6786     6802     6856     6359     6903     9155    10054     8498 
    6910     6026     5679     6868     8559     9027     8910     7690 
    4414     1652     1337     2614     5090     7663     8424     7950 
    8044     8387     7985     7728     7888     6883     5617     6601 
    8536     8734     7542     6543     6204     5867     5485     5867 
    6139     5483     4977     4673     4706     6242     7840     8203 
    8839     8819     6435     4488     5367     7215     7896     7631 
    7877     8945     9309     7580     5054     4671     6393     7202 
    6081     5150     6454     9551    11219     9258     6521     6150 
    6619     5629     4086     4459     6042     6385     6677     7955 
    8270     7493     6994     6733     5954     5054     5738     7757 
    8926     8700     7720     6766     6637     6237     4471     3368 
    4324     5724     6664     7164     7222     8055     9090     7786 
