Origin Time       2024/04/02 04:24:00
Lat.              40.133
Long.             141.712
Depth. (km)       71
Mag.              6.0
Station Code      FKS005
Station Lat.      37.6389
Station Long.     140.9853
Station Height(m) 17
Record Time       2024/04/02 04:25:42
Sampling Freq(Hz) 100Hz
Duration Time(s)  94
Dir.              E-W
Scale Factor      7845(gal)/8223790
Max. Acc. (gal)   5.067
Last Correction   2024/04/02 04:25:42
Memo.             
[...]
   -1597    -2573    -3069    -2712    -2263    -2168    -1890    -1309 
   -1233    -1575    -1634    -1566    -1539    -1464    -1468    -1480 
   -1522    -1763    -2112    -2376    -2272    -2056    -2205    -1896 
    -895     -878    -1980    -2587    -2467    -2088    -1449    -1129 
   -1660    -2259    -1965    -1271    -1347    -2197    -2740    -2438 
   -1798    -1331    -1189    -1356    -1524    -1476    -1485    -1834 
   -2211    -2038    -1448    -1165    -1493    -1884    -1679    -1358 
   -1683    -2066    -1815    -1305    -1146    -1534    -2083    -2297 
   -2139    -1903    -1856    -2038    -2334    -2443    -2083    -1517 
   -1333    -1629    -1941    -1934    -1827    -1860    -1804    -1687 
   -1798    -1833    -1510    -1193    -1221    -1478    -1579    -1476 
   -1618    -1971    -2077    -2015    -1976    -1931    -1895    -1710 
   -1371    -1225    -1464    -1900    -2042    -1860    -1869    -1968 
   -1721    -1248    -1005    -1243    -1579    -1744    -1972    -2006 
   -1683    -1522    -1568    -1526    -1576    -1961    -2370    -2266 
   -1775    -1548    -1657    -1640    -1428    -1308    -1281    -1232 
   -1379    -1690    -1711    -1702    -2077    -2317    -2112    -1925 
   -2012    -2118    -2060    -2149    -2425    -2386    -1968    -1579 
   -1501    -1651    -1559    -1074     -687     -800    -1374    -1807 
   -1501    -1054    -1208    -1638    -1983    -2061    -1908    -2108 
   -2469    -2276    -2000    -2162    -2208    -1929    -1892    -2181 
   -2200    -1710    -1188    -1167    -1541    -1857    -2066    -2228 
   -2180    -1980    -1810    -1583    -1359    -1663    -2551    -3017 
   -2421    -1570    -1345    -1587    -1651    -1271    -1008    -1347 
   -1710    -1447    -1004    -1335    -2268    -2529    -2076    -1960 
   -2123    -2047    -1811    -1408     -990    -1177    -2012    -2604 
   -2239    -1445    -1409    -2157    -2509    -2093    -1692    -1815 
   -2122    -2242    -2266    -2068    -1613    -1429    -1593    -1634 
   -1395    -1105     -915     -726     -619     -858    -1350    -1703 
   -1869    -2166    -2404    -2227    -1975    -1938    -1930    -1787 
   -1529    -1381    -1489    -1676    -1667    -1490    -1583    -1991 
   -2065    -1756    -1642    -1728    -1931    -2254    -2307    -2145 
   -2029    -1698    -1220    -1062    -1186    -1318    -1424    -1525 
   -1761    -2118    -2216    -2099    -1971    -1629    -1294    -1282 
   -1321    -1341    -1444    -1534    -1532    -1329    -1279    -1887 
   -2675    -2909    -2505    -1799    -1414    -1611    -2004    -2284 
   -2238    -1796    -1347    -1179    -1081     -950    -1102    -1493 
   -1717    -1879    -2259    -2616    -2516    -2039    -1814    -1987 
   -2031    -1892    -1895    -1811    -1487    -1459    -2022    -2504 
   -2160    -1463    -1406    -1887    -2365    -2805    -2853    -2334 
   -2068    -2212    -1960    -1372    -1134    -1243    -1258    -1129 
   -1098    -1182    -1441    -1906    -2054    -1674    -1634    -2338 
   -2596    -1844    -1262    -1437    -1721    -1857    -2087    -2238 
   -1921    -1590    -1821    -1983    -1788    -1922    -2296    -2350 
   -2046    -1603    -1364    -1416    -1526    -1660    -1825    -2020 
   -2080    -1745    -1462    -1601    -1755    -1802    -1833    -1728 
   -1669    -1885    -2255    -2421    -1879     -826     -564    -1474 
   -2062    -1571    -1154    -1583    -2096    -1971    -1547    -1240 
   -1169    -1518    -2178    -2614    -2452    -2042    -1856    -1683 
   -1385    -1370    -1771    -2107    -1919    -1471    -1513    -1979 
   -1868    -1112     -881    -1345    -1418     -977     -854    -1139 
   -1358    -1474    -1672    -1834    -1977    -2363    -2516    -1953 
   -1553    -1984    -2482    -2373    -1958    -1821    -1948    -1803 
   -1459    -1521    -1957    -2218    -2025    -1713    -1718    -1864 
   -1842    -1707    -1472    -1301    -1560    -2034    -2157    -1892 
   -1652    -1688    -1696    -1485    -1444    -1509    -1294    -1201 
   -1460    -1478    -1274    -1417    -1857    -2157    -1979    -1590 
   -1633    -1926    -1875    -1591    -1553    -1837    -2180    -2305 
   -2138    -1993    -2015    -1829    -1495    -1439    -1628    -1884 
   -2050    -1881    -1382     -988    -1131    -1499    -1647    -1912 
   -2303    -2131    -1614    -1561    -1858    -1908    -1748    -1861 
   -2196    -2095    -1518    -1200    -1418    -1937    -2435    -2484 
   -2181    -1998    -1857    -1636    -1459    -1367    -1579    -1898 
   -1745    -1386    -1337    -1590    -1998    -2168    -2030    -2101 
   -2309    -2332    -2376    -2304    -1853    -1290     -963    -1143 
   -1485    -1227     -670     -735    -1528    -2207    -2108    -1867 
   -2064    -2197    -2128    -2204    -2304    -2261    -2231    -2273 
   -2123    -1570    -1050    -1156    -1587    -1746    -1829    -2066 
   -2046    -1676    -1409    -1196     -899    -1044    -1687    -2077 
   -1980    -1857    -1803    -1501    -1325    -1657    -1798    -1630 
   -1802    -2062    -1993    -1653    -1263    -1313    -1755    -1998 
   -2006    -2058    -2241    -2328    -2020    -1618    -1513    -1613 
   -1996    -2471    -2316    -1772    -1629    -1767    -1777    -1605 
   -1395    -1517    -2088    -2701    -2889    -2311    -1251     -864 
   -1522    -2199    -2066    -1347    -1001    -1412    -1902    -2064 
   -1890    -1692    -1993    -2242    -1844    -1530    -1695    -1860 
   -1919    -1927    -1683    -1109     -556     -787    -1768    -2270 
   -1935    -1521    -1163     -895    -1217    -2008    -2500    -2251 
   -1800    -1942    -2319    -2295    -2120    -1902    -1372     -908 
   -1248    -2327    -2986    -2450    -1582    -1387    -1549    -1314 
    -793     -828    -1532    -2041    -1971    -1773    -1750    -1698 
   -1794    -2282    -2461    -1984    -1539    -1339    -1113    -1084 
   -1533    -1944    -1740    -1510    -1894    -2208    -1850    -1451 
   -1555    -1895    -2116    -2301    -2436    -2099    -1626    -1640 
   -1687    -1590    -1806    -1979    -1572    -1081    -1227    -1668 
   -1594    -1289    -1517    -2023    -2272    -2259    -2011    -1597 
   -1470    -1872    -2378    -2632    -2571    -2103    -1449    -1053 
   -1138    -1606    -2004    -2087    -2037    -1860    -1601    -1514 
   -1391    -1023     -981    -1556    -2165    -2367    -1981    -1003 
    -298     -675    -1624    -2211    -2209    -2111    -2112    -1738 
   -1262    -1382    -1668    -1719    -1879    -2133    -2354    -2419 
   -1993    -1360    -1084    -1188    -1503    -1888    -2060    -1807 
   -1545    -1784    -2081    -2025    -2099    -2409    -2326    -1776 
   -1352    -1273    -1314    -1467    -1941    -2509    -2469    -1744 
   -1278    -1567    -1852    -1588    -1309    -1534    -2037    -2328 
   -2373    -2311    -2042    -1840    -1939    -2000    -1966    -1759 
   -1301    -1174    -1302    -1156     -992     -977    -1217    -1972 
   -2575    -2265    -1539    -1247    -1402    -1437    -1285    -1474 
   -1926    -2020    -1786    -1656    -1726    -1810    -1672    -1482 
   -1938    -2901    -3067    -2127    -1325    -1452    -2127    -2628 
   -2577    -2269    -2160    -2246    -2192    -1823    -1356    -1063 
   -1223    -1771    -2019    -1931    -2083    -1965    -1162     -823 
   -1472    -1956    -1651    -1331    -1710    -2304    -2172    -1537 
   -1364    -1755    -2170    -2320    -2155    -1840    -1653    -1652 
   -1745    -1881    -1948    -1991    -2061    -1966    -1930    -2076 
   -1800    -1142     -795     -839    -1192    -1852    -2222    -1899 
   -1409    -1161    -1152    -1498    -2026    -2319    -2253    -1942 
   -1705    -1759    -1961    -2205    -2268    -1881    -1503    -1671 
   -2029    -2092    -2012    -1993    -1929    -1869    -1915    -1775 
   -1405    -1200    -1225    -1425    -1682    -1498     -908     -639 
    -970    -1422    -1431    -1281    -1390    -1262    -1000    -1452 
   -2135    -1934    -1148    -1051    -1768    -2027    -1763    -2072 
   -2540    -2365    -2169    -2276    -2101    -1710    -1699    -2103 
   -2443    -2434    -2142    -1622    -1036     -943    -1545    -1996 
   -1779    -1525    -1659    -1954    -1949    -1408    -1043    -1529 
   -2307    -2556    -2223    -1699    -1247     -966    -1003    -1464 
   -2150    -2532    -2324    -2000    -2133    -2389    -2242    -1995 
   -1950    -1829    -1618    -1613    -1534    -1023     -753    -1275 
   -1806    -1810    -1587    -1200     -855     -911    -1251    -1736 
   -2155    -2169    -1976    -1900    -1898    -1973    -2029    -1931 
   -1881    -1833    -1714    -1884    -2151    -2035    -1775    -1775 
   -2088    -2317    -2188    -2173    -2335    -2211    -2081    -2250 
   -2250    -1830    -1435    -1479    -1873    -2205    -2003    -1221 
    -773    -1582    -2828    -2829    -1794    -1323    -1649    -1834 
   -1606    -1467    -1798    -2292    -2355    -1996    -1570    -1244 
   -1328    -1868    -2263    -2222    -1987    -1834    -1868    -1800 
   -1586    -1480    -1463    -1611    -1810    -1703    -1628    -1725 
   -1417     -834     -834    -1498    -2099    -2357    -2389    -2084 
   -1698    -1815    -2246    -2343    -2137    -1939    -1737    -1752 
   -2168    -2222    -1283     -356     -581    -1391    -1825    -1987 
   -2022    -1599     -973     -901    -1364    -1605    -1482    -1557 
   -1846    -1780    -1314    -1023    -1192    -1502    -1630    -1663 
   -1722    -1714    -1638    -1541    -1447    -1557    -1910    -2197 
   -2127    -1714    -1363    -1448    -1787    -1858    -1567    -1443 
   -1710    -1937    -1694    -1035     -643     -847    -1104    -1308 
   -1647    -1655    -1462    -1678    -1880    -1669    -1356    -1135 
   -1286    -2033    -2801    -2803    -2263    -2049    -2313    -2631 
   -2794    -2571    -1912    -1530    -1831    -2074    -1776    -1503 
   -1744    -2033    -1908    -1819    -2103    -2366    -2258    -1952 
   -1814    -1852    -1885    -1930    -1998    -1944    -1640    -1426 
   -1702    -2042    -1980    -1879    -1984    -1949    -1782    -1912 
   -2223    -2273    -2154    -2203    -2340    -2134    -1568    -1239 
   -1445    -1831    -1884    -1418    -1096    -1548    -2197    -2407 
   -2241    -1796    -1462    -1729    -2299    -2492    -2169    -1728 
   -1437    -1165     -861     -733     -711     -537     -567    -1136 
   -1424     -935     -633     -966    -1198    -1040     -970    -1281 
   -1657    -1607    -1374    -1482    -1672    -1752    -1914    -1871 
   -1606    -1533    -1556    -1475    -1312    -1297    -1806    -2405 
   -2320    -1900    -1811    -1815    -1567    -1452    -1971    -2712 
   -2830    -2455    -2450    -3032    -3562    -3538    -3181    -2964 
   -2992    -2930    -2424    -1622    -1227    -1651    -2116    -1922 
   -1752    -2178    -2758    -3014    -2798    -2502    -2776    -3407 
   -3720    -3586    -3204    -2875    -2654    -2219    -1676    -1512 
   -1899    -2404    -2153    -1235     -704     -422      225      642 
     600      646      572      132     -396     -946    -1611    -2494 
   -3397    -3738    -3385    -2695    -1910    -1242     -966    -1044 
   -1139    -1213    -1293     -653     1111     2849     3168     2016 
     361    -1124    -2586    -4032    -4677    -4147    -3318    -2902 
   -2533    -1911    -1402    -1074     -723     -676     -981     -896 
    -106      858     1444     1516     1039      160     -583     -803 
    -422      253      332     -660    -2096    -3253    -3990    -4286 
   -4174    -4055    -4122    -3904    -3168    -2524    -2550    -2932 
   -2929    -2336    -1655    -1215     -811     -503     -930    -2297 
   -3755    -4557    -4672    -4167    -3564    -3424    -3142    -2088 
   -1178    -1605    -2732    -3090    -2847    -2893    -2902    -2525 
   -2567    -3643    -5024    -5212    -3541    -1178      218      132 
   -1178    -2876    -3267    -1803     -303      112      376      908 
    1073      444     -727    -1682    -2447    -3550    -4136    -3539 
   -2899    -2793    -2397    -1204      440     1495     1287      448 
    -479    -1620    -2759    -3640    -4180    -3991    -2952    -1648 
    -982    -1169    -1263     -855     -511     -307     -199     -600 
   -1772    -3639    -5283    -5286    -3809    -2235    -1098     -405 
    -175      -66       51       31      -58     -409    -1047    -1277 
   -1128    -1674    -3167    -4526    -4899    -4819    -5074    -5115 
   -3894    -1597      599     1921     2416     2369     2137     1981 
    1534      271    -1593    -3507    -5136    -5926    -5428    -4070 
   -2498    -1256     -918    -1250    -1304     -812     -479     -864 
   -1791    -2686    -2902    -2003     -183     1300      865    -1197 
   -2825    -3079    -2689    -2158    -1645    -1594    -2104    -2659 
   -2801    -2947    -3732    -4503    -4378    -3663    -2934    -2390 
   -2249    -2636    -2875    -2160    -1001     -271       40      395 
    1005     1134      -55    -2295    -4715    -5665    -3676     -321 
    1410     1042      -78    -1073    -1933    -2833    -3306    -3091 
   -2562    -1536       18     1239     1490      618     -861    -1644 
   -1167     -182      487      560      476      689      425     -791 
   -1786    -1846    -1432    -1248    -2211    -4321    -6145    -6513 
   -5321    -2770      629     3268     3558     1975       81    -1560 
   -2839    -2843    -1255      446     1082      600    -1236    -3812 
   -5216    -4757    -3566    -2731    -2536    -2889    -3461    -3734 
   -3439    -2884    -2390    -1611     -211     1009      915      -63 
    -446       39      595      754      159    -1410    -3547    -5551 
   -6372    -5212    -2928    -1478    -2008    -3862    -5132    -4614 
   -2798     -517     1638     2605     2031      799     -627    -2062 
   -2953    -3252    -3326    -3609    -4523    -5656    -5991    -5170 
   -3879    -3519    -4729    -6006    -5574    -3890    -2532    -2192 
   -2652    -3447    -4220    -4243    -2678     -450      275     -936 
   -2641    -3430    -2797    -1350     -155      294      207       39 
    -508    -2107    -3973    -4483    -3385    -1857     -870     -162 
     931     2188     2631     1763      390     -622    -1494    -2259 
   -2334    -1861    -1838    -2651    -3258    -2496     -625     1162 
    1883     1132     -841    -3163    -4594    -4172    -2135     -120 
     567      368     -137    -1061    -1846    -1807    -1013      363 
    1588     1163    -1325    -4244    -5544    -4877    -3449    -2191 
   -1435    -1506    -2266    -3176    -3874    -4044    -3539    -2772 
   -2362    -2270    -2011    -1814    -2216    -2737    -2284     -761 
     685     1431     1960     2278     1498     -670    -2893    -3510 
   -2712    -1865    -1517    -1124     -207      531      352       22 
     199      224     -332    -1154    -1822    -1825     -943      243 
     623     -214     -996     -453      669      785     -518    -2590 
   -4622    -5665    -4981    -3150    -1455     -403      -76     -608 
   -1829    -3304    -4529    -4857    -3898    -2516    -2124    -2620 
   -2736    -1881     -730     -409     -919    -1435    -1827    -2155 
   -2178    -2262    -3028    -4094    -4572    -4657    -5100    -5503 
   -4826    -3202    -1965    -1864    -2276    -2390    -2201    -2084 
   -2000    -1593     -762      -21     -201    -1374    -2609    -3083 
   -2690    -1827     -953     -292     -353    -1836    -4272    -5950 
   -5977    -5312    -5088    -5031    -4220    -2631    -1119     -126 
     457      510      171      220      792      984      193    -1175 
   -2153    -2276    -2232    -2589    -2862    -2872    -3126    -3392 
   -3021    -2266    -1518     -564      503     1132     1048      746 
    1019     1397      666     -774    -1576    -1588    -1553    -1771 
   -1989    -2177    -2508    -2760    -2650    -2353    -2134    -1705 
    -847     -622    -1868    -2959    -2035      -49      961      375 
   -1232    -2987    -4336    -4819    -3979    -2629    -2197    -2625 
   -3098    -3383    -3441    -3277    -3003    -2686    -2442    -2286 
   -1813     -797     -125     -662    -1637    -2014    -1948    -1628 
    -970     -511     -903    -1788    -2124    -1757    -1412    -1301 
   -1300    -1479    -1794    -1852    -1063      548     2015     2396 
    1597      226    -1190    -2415    -3199    -3528    -3171    -1470 
     743     1375      236     -965    -1107     -217     1023     2015 
    2632     2538     1171    -1170    -3096    -3630    -3214    -2567 
   -2074    -2149    -2840    -3940    -5377    -6528    -6405    -4860 
   -2852    -1827    -2255    -2965    -2972    -2802    -3080    -3327 
   -2770    -1329       36      175     -841    -2177    -3186    -3350 
   -2720    -2077    -1989    -2224    -2061    -1046      163      356 
    -697    -2168    -2940    -2347    -1166     -877    -1620    -2544 
   -3164    -3311    -3154    -2997    -2633    -1810     -618      756 
    1626     1217      -95    -1331    -1687     -839      172      141 
    -661    -1647    -2937    -4596    -5756    -5366    -3966    -3044 
   -2909    -2970    -3284    -4444    -6108    -6511    -4577    -1821 
    -340     -291     -831    -1428    -1908    -2646    -3599    -3661 
   -2288     -556        1     -799    -1680    -2053    -2438    -2674 
   -2164     -985      271      774      384     -295    -1360    -2837 
   -3769    -3545    -2386     -886      272      637       76     -954 
   -1777    -2409    -2957    -2820    -1679     -201      830     1165 
     938      280     -719    -1552    -1733    -1615    -1695    -1777 
   -1709    -1925    -2542    -2847    -2312    -1391     -727     -465 
    -747    -1551    -2215    -2010     -947      -14      -55     -723 
   -1336    -1618    -1547    -1459    -1734    -2053    -1991    -1749 
   -1441    -1027     -676     -459     -465     -758    -1023     -969 
    -800     -918     -963      -56     1320     1652      654     -761 
   -1822    -2443    -3176    -4116    -4576    -4326    -3618    -2421 
   -1163     -810    -1317    -1815    -2038    -2127    -1948    -1320 
    -656     -805    -1984    -3604    -4860    -5078    -4237    -2929 
   -1684    -1039    -1571    -3177    -5040    -6350    -6629    -5836 
   -4429    -3127    -2469    -2592    -3184    -3744    -3912    -3157 
   -1490     -187      -35     -684    -1956    -3497    -4469    -4425 
   -3410    -2068    -1522    -2134    -3194    -3770    -3473    -2793 
   -2107     -897      943     2293     2263     1139     -209     -889 
    -504      611     1887     2848     2916     1598     -594    -2405 
   -3198    -3114    -2835    -3227    -3852    -3504    -2384    -1305 
    -421       97      -33     -583     -900     -684     -125      510 
     812      464     -303    -1073    -1794    -2798    -4048    -4753 
   -4540    -4186    -4332    -4546    -4102    -3040    -1976    -1220 
    -750     -594     -800    -1209    -1379    -1088     -562     -167 
     -62      -83     -149     -406     -959    -1759    -2312    -2041 
   -1291    -1181    -2116    -3360    -4045    -3631    -2081     -425 
