Origin Time       2024/04/02 04:24:00
Lat.              40.133
Long.             141.712
Depth. (km)       71
Mag.              6.0
Station Code      FKS009
Station Lat.      37.2796
Station Long.     140.6344
Station Height(m) 430
Record Time       2024/04/02 04:25:57
Sampling Freq(Hz) 100Hz
Duration Time(s)  68
Dir.              U-D
Scale Factor      7845(gal)/8223790
Max. Acc. (gal)   2.082
Last Correction   2024/04/02 04:25:57
Memo.             
[...]
   15469    15276    14998    15180    15595    15379    14793    14681 
   14716    14639    14868    15248    15425    15329    14999    14634 
   14405    14696    15426    15452    15002    15221    15294    14801 
   14665    14809    15047    15250    15090    15068    15014    14710 
   15026    15315    15072    15279    15233    14551    14578    14995 
   14967    15066    15272    15145    15056    15172    15304    15273 
   15018    14952    15049    14854    14816    15246    15421    15109 
   14844    14951    15333    15500    15137    14740    14758    14941 
   15103    15215    15192    15075    15026    15088    14897    14669 
   14904    15029    14958    15075    15021    15072    15408    15110 
   14519    14744    15168    15064    14879    14844    14932    14939 
   14921    15226    15037    14467    14796    15207    15205    15515 
   15364    14774    14901    15299    15280    14989    14779    14895 
   15020    15117    15201    14983    15028    15273    14949    14648 
   14824    14941    14739    14447    14571    14982    15098    15174 
   15234    15007    15151    15533    15253    14890    15079    15233 
   14998    14747    14881    15176    15259    15303    15417    15256 
   14762    14520    14797    15060    15078    15179    15388    15304 
   14812    14585    14949    15133    15120    15408    15317    14926 
   15180    15237    14608    14584    14991    15032    15267    15557 
   15246    14719    14617    14829    14791    14791    15240    15465 
   15344    15183    14760    14658    15134    15182    14829    14748 
   15001    15457    15414    14902    14851    14879    14770    15012 
   15012    14893    15408    15568    15012    15025    15178    14555 
   14230    14737    15264    15504    15529    15299    15076    15087 
   15083    14985    14878    14890    15136    15090    14937    15203 
   15043    14646    14922    14968    14727    15002    14862    14472 
   14955    15349    15093    14953    14987    14979    15005    15078 
   15088    14956    14841    14959    15102    15110    15213    15252 
   15048    14980    15053    14882    14685    14941    15264    15036 
   14748    14929    15053    14912    14966    15129    15047    14963 
   15049    15051    15148    15541    15657    15271    15053    15006 
   14770    14868    15327    15552    15425    15025    14617    14547 
   14928    15284    15025    14733    14948    15037    14967    15128 
   15033    14770    14890    15020    15111    15372    15128    14562 
   14832    15298    15047    14951    15093    14982    14916    14932 
   15037    15048    14899    14943    14947    14989    15367    15500 
   15167    14759    14509    14793    15259    15113    15030    15299 
   15082    14994    15342    15244    15174    15210    14593    14260 
   14814    15303    15309    15133    15250    15531    15207    14698 
   14964    15226    14937    15167    15564    15142    14740    14860 
   15028    15132    15192    15037    14922    15223    15398    15300 
   15286    14962    14604    14744    14917    15047    15182    14939 
   14782    14901    14770    14771    14908    14937    15325    15600 
   15309    14993    15037    15223    14968    14665    14924    15039 
   14771    14690    14875    15232    15453    15215    14766    14535 
   14727    15053    14983    14667    14760    15148    15066    14794 
   15049    15114    14589    14451    14759    14976    15202    15222 
   15076    15118    14960    14670    14862    15007    14631    14565 
   14922    15195    15608    15633    14924    14661    14812    14623 
   14725    15178    15491    15781    15580    14916    14747    14945 
   14875    14824    15199    15462    15304    15121    14635    14272 
   14902    15415    15217    15240    15473    15280    14655    14428 
   14675    14782    15213    15556    15053    14852    15175    14953 
   14569    14779    15005    14867    14972    15263    15237    14955 
   14752    14751    14517    14392    14994    15385    15198    15290 
   15353    14871    14519    14575    14608    14717    15192    15498 
   15186    14993    15117    14985    15076    15552    15554    15110 
   14929    15130    15088    14920    15217    15121    14602    14877 
   15302    15153    15198    15292    14851    14538    14847    15209 
   15110    14979    15110    14958    14883    15151    14832    14492 
   14947    15315    15460    15658    15566    15449    15319    14929 
   14798    14959    14894    14634    14420    14504    14943    15246 
   15145    14805    14607    14968    15472    15446    15070    14802 
   14797    15055    15380    15225    14651    14593    14989    14979 
   14958    15291    15140    14740    14850    14902    14804    14947 
   15412    16187    16093    15141    15160    15499    15072    14998 
   15086    14816    15053    15292    14921    14737    14922    15196 
   15484    15782    15900    15518    15299    15341    14917    14832 
   15178    15022    14982    14975    14615    15041    15660    15198 
   15020    15533    15268    14750    14736    14300    13875    14524 
   15137    15025    15205    15434    15099    14964    15157    15276 
   15367    15013    14355    14288    14785    15387    15660    15264 
   14763    14575    14477    14445    14530    14813    15203    15298 
   15093    15017    15153    15178    14839    14108    13620    14050 
   14752    15115    15620    16345    16761    16580    15967    15007 
   13888    13668    14343    14530    14308    14478    14955    15584 
   16129    16112    15280    14122    13740    14346    15164    15880 
   16042    15088    14064    14080    14543    14998    15437    15391 
   15304    15859    16241    15996    15568    14890    14226    14150 
   14256    14234    14505    14789    14804    15190    16024    16545 
   16063    15043    14771    15022    15017    15024    14771    14138 
   14200    15084    15851    15993    15360    14647    14632    14719 
   14669    14889    15044    15149    15169    14647    14332    14581 
   14808    15136    15257    15272    16054    16842    16742    15900 
   14679    13946    13801    13572    13671    14469    15060    15117 
   15269    15620    15950    15947    15537    15182    14867    14455 
   14378    14420    13909    13597    14485    15664    16113    16090 
   15739    15129    14740    14764    15066    15209    14762    14434 
   14674    14700    15040    16015    15982    15340    15102    14332 
   13818    14268    14413    14688    15246    15034    14983    15323 
   14859    14370    14767    15210    15133    15149    15826    16414 
   15988    15048    14492    14663    15326    15269    14119    13686 
   14643    15480    15701    15552    15052    14850    15071    15157 
   15026    14963    14835    14432    14431    15153    15919    16193 
   15817    15223    14872    14604    14578    14837    14823    14805 
   15134    15277    15252    15298    15384    15689    15562    14740 
   14415    14507    14395    14716    15323    15579    15742    15862 
   15593    15093    14872    15067    15241    15183    15172    15206 
   15253    15434    15408    14756    14056    14391    15072    15039 
   15032    15319    15377    15269    15033    14427    13959    14586 
   15322    15125    15061    15384    15715    16193    16119    15264 
   14482    13937    13797    14357    14719    14874    15373    15263 
   14800    14786    14692    14793    15057    14920    15003    15423 
   15687    15824    15437    14520    14258    14800    15344    15525 
   14991    14373    14358    14486    14897    15537    15816    15741 
   15157    14130    13568    14115    14953    15219    15537    15897 
   15600    15423    15603    15051    14293    14477    14872    14904 
   15107    15365    15390    15415    15646    15742    15153    14331 
   13957    13934    14027    14202    14670    15264    15418    15206 
   14878    14663    15025    15358    14917    14589    14692    14613 
   14679    14995    15277    15387    15076    14840    14918    14716 
   14683    15384    15691    15250    15310    15425    14952    15106 
   15530    15141    14773    14655    14485    14824    15469    15812 
   15696    15094    14478    14193    14191    14497    14995    15622 
   16263    16360    15688    14990    14805    14804    14754    14678 
   14708    14723    14391    14230    14567    15106    15822    16077 
   15635    15253    14863    14494    14683    15153    15531    15581 
   15079    14585    14534    14764    15412    15915    15689    15437 
   15107    14611    14999    15820    15727    15018    14260    13656 
   14172    15460    15687    15153    14885    14463    14459    15348 
   15762    15438    15245    14944    14465    14605    15250    15252 
   14524    14350    15020    15761    16267    16164    15294    14427 
   14130    14283    14624    14759    14516    14513    15159    15774 
   15723    15064    14476    14509    14693    15106    15831    15616 
   14891    14866    14790    14528    14644    14759    14951    15244 
   15137    14924    14852    14928    15466    15930    15672    15256 
   14870    14373    14613    15373    15471    15426    15674    15223 
   14635    15122    15314    14449    14149    14489    14841    15584 
   15662    14424    13714    14283    15159    15846    15812    15214 
   14904    14683    14493    14763    15172    15538    15889    15493 
   14504    14098    13984    13805    14158    15072    16140    16407 
   16019    16028    15433    14192    14054    14438    14623    15596 
   16320    15410    14736    15142    15012    14634    14747    14627 
   14461    14891    15708    16282    15882    14944    14571    14710 
   15153    15638    15307    14609    14634    15124    15614    15741 
   15098    14426    14409    14735    14941    14659    14404    14756 
   15174    15476    15788    15566    14790    14037    13670    14233 
   15502    16320    16425    15641    13998    13008    13477    14500 
   15034    15030    15039    15061    15125    15338    15377    15260 
   15048    14862    15002    14960    14616    14640    14916    15230 
   15622    15727    15579    15403    14962    14717    15136    15122 
   14600    14755    15095    15255    15755    15788    14966    14307 
   14376    15226    16217    16305    15417    14335    14332    15493 
   16333    16424    15751    14283    13451    13986    14953    15573 
   15569    15288    15061    14862    15066    15334    14885    14512 
   14978    15520    15318    14671    14546    14673    14675    15279 
   15627    14881    14609    15223    15261    14978    15261    15268 
   14904    14793    14605    14693    15059    14920    14604    14762 
   15403    16093    16391    15728    14265    13736    14261    14424 
   14451    14589    14704    15198    15381    14899    14782    15049 
   15284    15585    15746    15888    15724    14769    14208    14377 
   14692    15554    15907    15105    14717    14831    14796    15075 
   15418    15036    14287    14092    14531    15097    15249    14932 
   14719    14654    14868    15545    15461    14609    14588    15136 
   15368    15475    15593    15565    15188    14902    15326    15704 
   15271    14898    14947    14650    14366    14843    15626    16104 
   15851    14716    13999    14604    15114    14806    14573    14635 
   14963    15348    15140    14769    14878    15128    15242    15071 
   14665    14683    15163    15259    15056    15168    14881    13890 
   13575    14192    14770    15388    15824    15630    15927    16390 
   15354    14431    15106    15326    14686    14833    15148    14921 
   15117    15367    15043    15115    15587    15554    15179    14791 
   14539    14759    15149    15145    14990    14831    14530    14663 
   15242    15402    15207    15052    14904    15064    15329    15048 
   14631    14470    14420    14739    14995    14845    15099    15169 
   14328    13923    14524    15525    16266    15993    15317    14908 
   14423    14280    14388    14439    15072    15577    15209    14847 
   14872    14839    14674    14709    14783    14958    15751    16322 
   15782    14960    14693    14809    14813    14910    15502    15862 
   15838    15993    15849    15371    14891    14469    14654    15016 
   14936    15055    15167    14783    14774    15199    15223    15246 
   15338    14845    14585    15300    15870    15498    14802    14337 
   14088    13910    13956    14378    14689    14891    15392    15763 
   15978    15939    14821    13741    14006    14562    15256    16168 
   15977    15122    14746    14879    15431    15499    14850    14559 
   14696    15134    15681    15376    14859    14978    14620    14192 
   14632    15067    15770    16301    15523    14980    14998    14940 
   15574    15850    15037    14341    13936    13895    14485    15345 
   16140    16263    15796    15329    14563    14061    14512    14781 
   14482    14374    14420    14793    15570    15796    15398    15259 
   15306    15095    14897    14972    14997    14817    14943    15364 
   15174    14462    14296    14411    14420    15202    16017    15442 
   14601    14686    14848    14616    14759    15167    15226    15203 
   15020    14477    14216    14817    15676    15701    15334    15369 
   15352    15052    14586    14042    13894    14138    14611    15430 
   16324    17139    17208    15718    14146    13915    14008    14203 
   15032    15493    15445    15653    15562    14882    14349    14358 
   14424    14435    15255    16069    15319    14507    15233    15923 
   15506    15138    14870    14067    13775    14403    15066    15646 
   15901    15360    14773    14777    15032    15566    16156    15870 
   14813    13941    13598    13830    14771    15677    15704    15327 
   14828    14181    14224    14855    15309    15646    15665    15429 
   15421    15356    15160    15165    15279    15267    15165    15240 
   15526    15874    16009    15477    14428    13662    13875    14820 
   15364    15356    15331    15172    14935    14864    14905    14948 
   15043    15241    15236    15214    15249    14642    14196    14696 
   15051    15145    15360    15203    15087    15537    15823    15510 
   15268    15206    14735    14443    14858    14824    14150    14056 
   14508    14779    14791    14856    15144    15184    14841    14725 
   14746    14554    14800    15492    15387    14724    14585    14628 
   14866    15584    15989    15819    15569    15452    15368    15066 
   14644    14477    14586    14840    15064    15141    15049    14812 
   14993    15800    16295    15754    14662    13948    13583    13782 
   15322    16572    15873    14736    14482    14891    15449    15498 
   15039    14600    14742    15653    16336    15873    14983    14566 
   14399    14386    14561    14547    14789    15341    15165    14899 
   15460    15491    14592    14164    14256    14492    15048    15364 
   15290    15230    15437    16051    16299    15739    14863    13940 
   13725    14555    15199    15010    14669    14790    15388    15700 
   15068    14183    14095    15060    16262    16229    15145    14378 
   13706    13062    13398    14237    14821    15152    15168    15450 
   15947    15781    15106    14179    13756    14629    15373    15174 
   14962    14708    14486    14945    15635    15836    15372    14877 
   15133    15410    15495    15986    15938    15372    15392    15334 
   14759    14555    14916    15263    15446    15619    15884    16173 
   15878    15082    14755    14943    15172    15327    15109    14656 
   14901    15535    15468    15167    15001    14983    15722    16132 
   15466    15188    15057    14246    14014    14577    14855    15002 
   15102    14526    13860    14266    15175    15368    15198    15300 
   15260    15124    15363    15292    14440    13961    14458    15191 
   15471    14955    14179    13954    14295    14985    15336    15063 
   14985    15080    14931    14739    14751    15013    14935    14517 
   14486    14427    14395    15110    15650    15603    15635    15346 
   14862    14794    14978    15201    15176    15313    15678    15310 
   14762    14666    14440    14362    14566    14588    14850    15624 
   16141    15768    14899    14424    14439    14503    14689    14854 
   14705    14913    15518    15491    14918    14489    14108    14056 
   14825    15600    15812    15986    15788    14955    14739    15450 
   15844    15681    15458    15238    15306    15666    15730    15317 
   14828    14685    14912    15144    15120    15061    15074    14904 
   14802    15007    15113    15074    15160    15074    14787    14972 
   15438    15450    15299    15102    14515    14411    15211    15673 
   15484    15385    15280    15009    14960    14804    14392    14384 
   14524    14712    15159    15071    14944    15649    15924    15238 
   14682    14578    14747    15160    15268    14926    14824    14771 
   14277    14142    14702    15269    15947    16281    15411    14781 
   15142    15017    14710    15030    15003    14697    14885    15064 
   15118    15369    15348    15072    15101    15346    15642    15711 
   15174    14565    14365    14270    14296    14623    14990    15198 
   15402    15561    15302    14899    14812    14617    14399    14728 
   15333    15796    15880    15364    14482    14054    14585    15375 
   15753    15653    15034    14378    14125    14119    14447    14899 
   14921    14755    14850    15148    15306    15052    14932    15352 
   15696    15678    15391    14813    14312    14146    14323    14859 
   15499    15695    15142    14677    14859    14904    14801    14809 
   14489    14419    14786    14692    14709    15546    16013    15449 
   14933    15009    15167    15390    15700    15603    15022    14555 
   14466    14273    14183    14770    15384    15615    15782    15504 
   14881    14850    15284    15615    15697    15410    15128    15034 
   14782    14640    14783    14827    14854    14989    14955    14976 
   15329    15518    15334    15165    15129    15095    15144    15326 
   15294    15149    15138    14790    14594    15256    15743    15642 
   15574    15186    14453    14370    15044    15670    15911    15971 
   15890    15373    14683    14558    14732    14715    14839    14968 
   14775    14871    15525    15718    15115    14883    15106    14671 
   13725    13313    13836    14839    15520    15658    15554    15159 
   14640    14527    14620    14810    15441    15920    15526    14901 
   14771    14773    14681    14794    15020    15041    14850    14770 
   14855    14709    14391    14466    15039    15431    15138    14674 
   14628    14769    14978    15371    15384    14802    14409    14299 
   14072    14341    15128    15345    15006    14947    15067    14710 
   14557    15650    16522    16097    15672    15168    14288    14104 
   14369    14719    15369    15773    15862    15489    14512    14084 
   14458    14956    15431    15419    15099    15199    15205    14874 
   14773    14976    15296    15292    15140    15415    15407    14840 
   14412    14208    14473    15145    15226    14898    14886    14740 
