Origin Time       2024/04/02 04:24:00
Lat.              40.133
Long.             141.712
Depth. (km)       71
Mag.              6.0
Station Code      FKS001
Station Lat.      37.7946
Station Long.     140.9192
Station Height(m) 7
Record Time       2024/04/02 04:25:18
Sampling Freq(Hz) 100Hz
Duration Time(s)  118
Dir.              N-S
Scale Factor      7845(gal)/8223790
Max. Acc. (gal)   7.167
Last Correction   2024/04/02 04:25:17
Memo.             
[...]
    1645      461     -114      672     1763     1763      638     -697 
   -1321     -984     -124      838      974     -145     -903      -97 
    1414     2355     2162     1375      980      757       85      -72 
     776     1017      283     -122     -182     -318      -51      407 
     160     -457    -1128    -2396    -3080    -1829     -148      268 
    -303     -870     -635       55      120     -195        8       72 
    -711     -996      -99      506      464      407        5     -442 
    -275     -244     -793     -940     -472     -490    -1039     -826 
     274      990      741      -81     -635     -114      896     1086 
     538      141      275      579      453      234      437      549 
     307      410     1058     1305      622     -205     -213      429 
     908     1194     1402     1472     1634     1354      737     1128 
    1784     1335      464     -292     -774     -518      -93     -386 
    -903     -648     -178     -147      567     1775     1436     -137 
    -939     -544      112      122      -60      228       95     -359 
    -206      -67      164     1048     1242       36    -1243    -1436 
    -842     -422     -434     -882    -1503    -1406    -1066    -1339 
   -1217       58     1437     1490      415     -391     -585     -198 
     218     -893    -2365    -1802     -477     -290     -383      352 
    1073      584     -410    -1062    -1402     -774      480      980 
     884      125    -1347    -1520     -171      621      479      -83 
    -345      484     1290      977      141     -418     -117      371 
    -145     -556      592     1985     1912     1301     1363     1393 
    1229     1270     1185     1561     2270     1737      527      -91 
    -450     -780    -1275    -1609    -1119     -945    -1360     -935 
    -253     -305     -363      -14      345      224      -76      122 
     399      549     1011     1557     1756     1264      221     -344 
      49      621      793      742      118    -1043    -1242      -85 
     727      260     -641    -1355    -1962    -1921     -600     1061 
    1209     -125    -1215    -1626    -1359      272     1939     1414 
    -419    -1518    -1732     -907      961     1753      480     -981 
   -1254     -600      236      973     1386      588     -561       74 
    1737     2772     3327     2862     1216      170      525     1458 
    1881     1368      507     -575    -1748    -1838     -822      -91 
    -437    -1711    -2782    -2174     -373      492       90     -299 
    -660    -1250    -1308     -569      229      -54    -1381    -1860 
   -1047     -564     -656     -751     -768     -149      600      510 
     622     1244      913     -238     -776     -193      670      580 
    -286     -822     -762     -167      585      653      460      328 
    -834    -1769     -303     1532     1397      557      278      623 
    1717     2974     3136     1852      502      453     1070     1017 
     714     1297     1717      769      -58      -13     -137     -128 
     102     -211     -496     -513     -457      159      873     1082 
    1038     1000     1243     1278      510     -149       76      426 
     112     -456     -951    -1657    -2424    -3231    -3763    -3169 
   -2246    -2029    -1903    -1240      166     1718     2022     1062 
     -20     -418       54      402       82       31      295      452 
     765     1085     1308     1248      571      148      402       54 
    -756     -477      172       33      -79      -49     -168       49 
     153     -118     -144      -89     -276     -398      -79     1005 
    2605     3578     3167     1574     -523    -2266    -3132    -2929 
   -1507      679     2282     2214      974     -299    -1028     -877 
    -217      441     1070      803     -184      171     1742     2790 
    2600      729    -2065    -3858    -3642    -1992     -957    -1663 
   -2641    -2509    -1548     -226     1004      891     -568    -1048 
     232     1487     1998     2551     3433     4210     4464     4390 
    4496     4468     3441     1337    -1131    -2849    -3095    -2413 
   -1437     -747    -1016    -1844    -2920    -4062    -3967    -2494 
   -1194     -858    -1274    -1842    -1387      535     2155     2420 
    2972     4135     4515     4465     4617     4048     1900    -1055 
   -2893    -2605    -1692    -2103    -2637    -1891    -1984    -3769 
   -4604    -3689    -2758    -1941     -727      -99       31      616 
    1151     1395     1853     2038     1420      857     1177     1393 
     433     -886    -1560    -1599    -1314    -1113     -934     -160 
    1263     2660     3094     2222      892     -108     -881    -1117 
      45     1858     2501     2458     2984     2824     1069     -666 
   -1155     -792     -631    -1684    -3238    -3275    -1860     -672 
     -17      369      299       67     -495    -1829    -2384     -460 
    3113     5854     5440     2741     1707     3337     4147     2335 
    -364    -2718    -3477    -1093     2263     3068     1498     -155 
    -508      -41     -383    -1289     -322     2776     5024     4151 
     490    -3430    -4101    -1121     1787     2303     1146     -969 
   -2674    -2663    -2497    -3542    -4544    -4203    -2574     -992 
    -367     1158     4567     6581     5260     3019     1516      595 
     583     1543     2845     3505     2802     1275     -174    -1328 
   -2320    -3150    -3885    -4760    -5355    -5152    -4565    -4267 
   -4780    -5498    -4441    -1243     1894     3196     2983     2273 
    1879     2736     4766     5867     4344     1721     1057     2601 
    3396     2023      -31    -1996    -3844    -4689    -4399    -3608 
   -2562    -1958    -2533    -4074    -5084    -3333      630     3472 
    3896     3014     1941     1021     -121    -1030     -727      105 
     595     1216     1939     1931     1081     -135    -1493    -2709 
   -3329    -3269    -2060      174     1102     -199    -1634    -1688 
    -445      564     -179    -1171     -452     1062     1744     1278 
     282     -475     -523      -56      197      436     1098      959 
    -194     -141     1686     3257     3281     2511     2377     2497 
    1289      299     2096     4568     4048      896    -1857    -2725 
   -2269    -1217     -396      -67       93     -328     -881     -483 
     143       22     -507     -918     -762      531     2974     5648 
    7371     7047     4272      676    -1309    -1096      172      907 
     325     -383     -176      -27     -660    -1899    -3829    -6057 
   -7373    -6340    -2992       51      977      882     1026     1634 
    2219     1792      853     1193     2947     4185     3701     2498 
    1478      460     -286     -580     -803    -1146    -2003    -3276 
   -4148    -4492    -3865    -1800     -114     -126     -353      541 
    2092     3041     3188     3268     2544      328    -1926    -2457 
    -877     1171     1370     -476    -2506    -3072    -2253    -1377 
   -1402    -1918    -1559       78     1841     2836     2980     2700 
    2957     3619     3662     3262     2933     3102     3547     2479 
    -170    -2506    -3492    -2118      903     2166      375    -2797 
   -5576    -6655    -5772    -4278    -3346    -2185      153     2208 
    1957      286      -68     1302     2315     1953      877       44 
     730     2528     2130    -1367    -3978    -3153    -1155     -735 
   -1555    -2154    -2481    -2651    -2224    -1614    -1443    -1116 
    -279      523     1706     3370     3600     2151     1601     2532 
    2855     1894     1201     1794     2786     3019     2286      862 
    -409     -688     -453     -448     -130     1008     1726      773 
    -595     -847     -920    -1902    -2825    -2836    -2754    -2261 
     103     2982     3954     2891      521    -1806    -2181     -820 
     608     1644     2139     1794     1236      850      654     1287 
    2454     2728     1480     -437    -1651    -2128    -2771    -3433 
   -3273    -2018     -607     -693    -2330    -3250    -2409    -1684 
   -1738     -997     -183     -982    -1386      675     3365     4652 
    4527     2982      684      402     2619     3530     1784      183 
    -132     -508    -1140     -581     1034     1513      108    -1607 
   -2208    -2241    -2525    -2569    -2685    -3329    -3285    -1914 
     357     2593     2728      432    -1093     -109     1517     2830 
    4220     4772     3688     1602       99     1019     3534     4118 
    2254      607     -365    -1080     -797     -641    -1552    -1865 
   -1109     -638    -1165    -2196    -2436    -1867    -1579     -946 
    1048     3431     4573     4419     4268     4241     3445     2407 
    1993     1566      432     -476     -230     -359    -2101    -3140 
   -1782     -218     -562    -2424    -4534    -5310    -3942    -2508 
   -3237    -4275    -3159    -1356     -476      626     2160     2907 
    2886     2619     2108     1309       98    -1097    -1225     -564 
    -515     -881     -561      -67      102      603      824     -394 
   -2959    -5590    -5610    -2552     -136     -236    -1013    -1093 
     -55     1950     3547     3843     3244     1949      422      203 
    1559     2781     3154     3238     2540      546    -1143    -1046 
    -225      -16     -492    -1312     -980     1383     3223     2301 
     387     -373     -353      -62      851     2099     2767     2172 
     722     -247     -639    -1242    -1863    -2547    -3226    -2953 
   -2442    -2897    -3346    -2513     -715      641     1050      990 
      76    -1271    -1483     -727      382     2128     3685     3747 
    2598     1615     1209      537     -797    -1980    -1792     -326 
     604      -89    -1109     -976     -236       41     -498    -1354 
   -1223     -442     -475     -645      309     2052     3663     3865 
    1871     -710    -1520     -328     1437     2500     2290     1019 
     -28      340     1575     2031      959     -390     -773     -911 
   -1424    -1695    -1409    -1043     -918     -330     1073     2305 
    2695     2403     1335     -904    -3291    -3326    -1085      257 
    -363    -1027    -1294    -2120    -2296     -730      353     -608 
   -1977    -2602    -2416     -641     2243     3991     3669     2837 
    3026     3427     2979     2057      785     -557     -873       40 
    1314     2273     2490     1150    -1393    -2667    -1764     -751 
   -1040    -1844    -2097    -1976    -2189    -2440    -1755     -217 
    1115     1803     2130     2569     3372     3842     3495     2820 
    2104     1823     2311     2862     2947     2450     1358       62 
   -1300    -3230    -5468    -6274    -5159    -4041    -4226    -4695 
   -3781    -2158    -1622    -1471     -548     1065     3379     5184 
    5089     3913     2956     2565     2382     2112     1632      679 
     174      777      949     -155    -1813    -3402    -4401    -4942 
   -5132    -3956    -1301      837      810     -292    -1070    -2123 
   -2632     -816     1687     2943     3539     3676     3110     1948 
     599      179       93     -841    -1306     -934    -1142    -1737 
   -2288    -3457    -5211    -6643    -6914    -5382    -2362      210 
     912      868     1728     3277     4405     4712     4464     3627 
    2157     1401     2516     4604     6280     6166     3495     -232 
   -2639    -2602    -1316    -1123    -2269    -3257    -2886     -969 
     652     -245    -2686    -3119    -1132     -217     -552      297 
    1208      908     1165     3040     4855     4712     3597     3190 
    2600     1590     1772     2135     1053      623     2371     3932 
    2957      288    -1927    -3203    -3928    -4072    -3645    -2324 
    -132     1456      974    -1356    -3784    -4585    -3586    -1931 
    -747      290     1861     2816     2544     2197     2303     3206 
    4297     3766     2806     3267     3291     1906      935      895 
    1053      756     -645    -1998    -1667    -1081    -2042    -3402 
   -3670    -3018    -2139    -1723    -2054    -2446    -2377    -1825 
    -801     -468    -1359    -1281      595     1964     1871     1221 
     195     -548      214     1949     3407     3900     2722      494 
   -1077    -1486    -1074     -394     -336    -1129    -2038    -2088 
    -757     1123     1625      186    -1503    -1773     -668      429 
     648      217     -346       51     1682     2659     2160     1719 
    1791     1301      195    -1175    -2681    -2801     -878      670 
     251    -1107    -2304    -3030    -3176    -2702    -2095    -1900 
   -1815    -1314     -849    -1105    -1228     -278      742     1066 
    1216      835     -423     -916      577     2497     2733     1437 
     268       56      -32     -610     -679     -311     -946    -2192 
   -2574    -1576     -160     -286    -2037    -2991    -1917     -213 
    1024     1752     1533     1228     2153     2826     2035     1756 
    3522     5220     3912      545    -1358     -681      715     1341 
    1532     1642     1501     1197      481     -637    -1413    -1696 
   -1512     -724     -101     -326     -352      864     1471     -364 
   -2311    -1548      756     1933     1483      589        6      -48 
     533      773     -355    -1413     -275     2417     4294     4321 
    3156     1529      136      415     2400     3570     2717     1629 
    1858     2640     2457     1298     -530    -3627    -6810    -7441 
   -5360    -2315      -35     -247    -2485    -3688    -2273      233 
    1669     1282       66       62     2165     4861     5918     4846 
    3254     2652     2898     2720     1057     -982    -1140     -149 
    -700    -2797    -4417    -4048    -1891     -588    -1537    -2951 
   -3770    -3935    -2953    -1517     -940    -1185     -938      560 
    1921     1374     -217     -691        5      666     1085     1447 
    1753     1718     1264     1112     1547     1908     1208     -421 
    -940      287     1271     1053      405     -143      -37      900 
    1494     1080      584      267    -1089    -3244    -3871    -2177 
    -122      174    -1263    -2505    -2273    -1219     -274      -59 
   -1089    -2006     -766     1503     2280     1154     -819    -2033 
   -1895    -1588    -1202       54     1347     1624      606    -1838 
   -4126    -3915    -1699      314     1075      966     1433     3140 
    4290     3073      407    -1686    -2212    -1219      155      588 
      64     -857    -1784    -1973    -1061      234     1283     1775 
    1074     -579    -1553     -850     1003     2911     4044     4275 
    4124     4294     4830     4935     3782     1155    -1833    -3366 
   -2893    -1235      565     1768     1911      708    -1081    -2076 
   -2432    -2802    -2681    -1750     -368      988     2002     2798 
    3150     2551     1764     1674     1296      -71    -1185    -1163 
    -450      137       -1     -596    -1053    -1536    -2162    -2168 
   -1358    -1055    -1876    -2409    -1721     -576      561     2061 
    3403     3364     1988      696      807     2010     2451     1188 
    -815    -1987    -1208      787     1669      778     -589    -1952 
   -3464    -4461    -4143    -2764    -1463     -723     -306     -704 
   -1516    -1013      284      739      810     1525     2952     3966 
    3392     2126     1366     1057     1147     1159      673      724 
    2025     3283     2848     1163     -124     -683     -577      459 
    1397     1062      -12     -589     -332     -303    -1242    -2014 
   -1243     1139     3559     3464      591    -1877    -1737     -618 
    -843    -1703    -1192      182      774      687      369     -351 
    -764     -121      758     1004     1007     1312     1625     1525 
    1030       12    -1278    -2022    -2388    -2992    -3439    -3322 
   -2803    -2340    -2497    -2830    -2409    -1543    -1383    -1837 
   -1275      765     2808     3734     3564     3011     2999     3420 
    3134     1611     -346    -1510    -1416     -429      854     1335 
      12    -2123    -3045    -2431    -1530    -1275    -1642    -2033 
   -1497      440     2700     3678     3331     2990     3122     2762 
    1509      221     -276      163      773      544      -93     -112 
     -58    -1237    -3538    -5200    -5201    -4468    -3389    -1814 
   -1367    -2412    -2093      186     1364      561     -257      -22 
    1223     2990     4445     4853     3759     2099     1634     1906 
    1584     1409     1350      283     -895    -1626    -2524    -2482 
    -851      461      253     -430     -411      221      639      658 
     290     -816    -1382     -175      842      432      511     1552 
    1501      -97    -1271     -638     1039     2150     1872      615 
    -272       36      681      191    -1567    -2841    -2390    -1328 
    -795     -639     -858    -1479    -2421    -4017    -5479    -5306 
   -3863    -2205     -727      -97     -342     -383      337     1109 
     815     -388    -1016     -187     1742     3746     4565     3700 
    1872      330       17      873     1490      699     -322      124 
    1489     2191     2026     1925     1984     1648     1312     1229 
     904     1039     2313     3385     3373     3109     3418     4492 
    5371     4386     1665     -290      255     2232     3568     3292 
    2286     1776     1075     -531    -2097    -2897    -3001    -2802 
   -2733    -2473    -1406      -52      326     -741    -2685    -4217 
   -3785    -1340      785      625    -1210    -3115    -3646    -1958 
     800     2305     1885     1054      889      924      876      583 
    -433    -1597    -1899    -1667    -1896    -2289    -1899    -1117 
    -521        2      144     -238     -573     -403     -229     -816 
   -1436     -966       99      847     1194     1441     1668     1497 
     931      649      738      716      201     -851    -1424     -843 
       1      392      321       86       89      221      375      531 
     461      222     -130     -236      572     1526     1740     1813 
    1570      567      -54      230      303     -514    -1441    -1485 
    -846     -257      164      783     1553     1706     1057      376 
      85        2     -225     -683     -653      326     1355     1512 
    1129      657     -395    -2056    -2679    -1509     -584    -1362 
   -2621    -3127    -2710    -1505     -386     -233     -406       39 
     502      270      128      508      639      598      820      557 
    -226     -537     -433     -112      554      827      556      630 
     961      564     -904    -2234    -1642      110      454     -329 
      31     1478     2486     2365     1192      105      278     1293 
    2542     3931     4945     5235     4758     3549     2224     1174 
     214     -542     -961     -986     -633     -730    -1783    -2826 
   -3311    -4075    -5292    -5877    -5632    -5223    -4266    -2614 
   -1701    -2128    -2436    -1463     -263     -128     -319      -55 
     102       43      102      160      280      733     1220      959 
     -62     -704     -467       68      712     1318     1482     1530 
    1730     1625     1254     1223     1053     -210    -1267     -236 
