Origin Time       2024/04/02 04:24:00
Lat.              40.133
Long.             141.712
Depth. (km)       71
Mag.              6.0
Station Code      FKS023
Station Lat.      37.4775
Station Long.     139.9309
Station Height(m) 219
Record Time       2024/04/02 04:25:44
Sampling Freq(Hz) 100Hz
Duration Time(s)  109
Dir.              U-D
Scale Factor      7845(gal)/8223790
Max. Acc. (gal)   0.595
Last Correction   2024/04/02 04:25:43
Memo.             
[...]
    2818     2844     2926     3014     3079     3109     3071     2974 
    2866     2782     2737     2721     2724     2743     2768     2787 
    2779     2764     2775     2802     2818     2832     2835     2828 
    2835     2860     2883     2887     2876     2879     2884     2870 
    2851     2841     2839     2855     2886     2917     2956     2994 
    3006     2974     2899     2812     2754     2752     2799     2862 
    2907     2928     2934     2944     2957     2953     2909     2836 
    2771     2744     2762     2809     2845     2835     2775     2704 
    2664     2662     2664     2654     2632     2614     2627     2674 
    2739     2793     2810     2779     2716     2662     2654     2709 
    2830     2975     3087     3133     3115     3071     3034     3010 
    2982     2952     2930     2917     2899     2867     2837     2841 
    2882     2916     2922     2906     2878     2856     2853     2856 
    2851     2841     2826     2816     2824     2840     2843     2835 
    2817     2793     2791     2826     2884     2952     3010     3030 
    2999     2934     2855     2787     2752     2755     2783     2816 
    2836     2839     2833     2832     2836     2844     2859     2882 
    2918     2964     2983     2947     2878     2816     2778     2764 
    2768     2791     2829     2875     2933     2999     3038     3026 
    2967     2893     2825     2776     2763     2782     2809     2836 
    2867     2902     2941     2982     3017     3041     3044     3014 
    2956     2897     2851     2830     2855     2910     2968     3002 
    2995     2960     2936     2945     2974     2983     2948     2883 
    2814     2755     2727     2733     2782     2864     2953     3017 
    3052     3056     3015     2944     2874     2829     2810     2795 
    2775     2759     2759     2781     2808     2818     2809     2783 
    2743     2704     2686     2678     2664     2647     2637     2643 
    2652     2655     2663     2681     2713     2759     2802     2837 
    2868     2884     2879     2860     2839     2820     2801     2778 
    2756     2752     2770     2809     2866     2926     2965     2952 
    2891     2806     2724     2668     2644     2641     2656     2687 
    2743     2833     2941     3032     3080     3071     3014     2949 
    2920     2929     2964     3001     2997     2941     2866     2808 
    2795     2841     2936     3052     3157     3211     3186     3090 
    2955     2820     2718     2667     2655     2667     2702     2744 
    2775     2806     2853     2907     2948     2947     2905     2841 
    2783     2749     2737     2739     2741     2741     2760     2803 
    2852     2903     2967     3025     3046     3015     2943     2862 
    2805     2789     2812     2862     2910     2932     2918     2893 
    2890     2921     2974     3018     3013     2940     2818     2687 
    2590     2548     2560     2616     2693     2772     2841     2895 
    2924     2913     2855     2776     2724     2724     2770     2835 
    2882     2891     2889     2903     2941     2995     3059     3113 
    3141     3137     3106     3044     2948     2817     2678     2575 
    2524     2525     2577     2667     2770     2849     2886     2874 
    2826     2778     2763     2786     2826     2867     2883     2866 
    2835     2814     2829     2878     2928     2948     2934     2909 
    2905     2933     2965     2965     2928     2876     2829     2793 
    2790     2836     2916     2995     3041     3049     3017     2937 
    2829     2727     2651     2609     2597     2602     2635     2693 
    2745     2783     2824     2864     2889     2909     2938     2970 
    2968     2920     2851     2797     2785     2840     2944     3049 
    3119     3145     3127     3079     3009     2928     2849     2786 
    2737     2700     2679     2686     2716     2755     2803     2856 
    2910     2952     2970     2959     2922     2867     2810     2771 
    2760     2775     2797     2802     2794     2794     2818     2870 
    2949     3022     3053     3044     3001     2945     2910     2901 
    2889     2864     2830     2787     2759     2774     2825     2901 
    2970     2998     2974     2909     2822     2751     2724     2748 
    2808     2866     2880     2862     2852     2878     2926     2979 
    3005     2983     2934     2889     2868     2879     2903     2907 
    2871     2794     2704     2655     2685     2781     2901     2999 
    3029     2972     2859     2740     2675     2687     2745     2809 
    2844     2830     2794     2766     2744     2741     2779     2851 
    2929     2990     3002     2948     2848     2745     2686     2686 
    2727     2782     2829     2859     2878     2886     2860     2795 
    2712     2644     2624     2654     2716     2799     2882     2940 
    2970     2979     2982     2988     2997     2987     2945     2878 
    2817     2789     2786     2794     2803     2822     2872     2940 
    2995     3018     2988     2910     2836     2805     2810     2828 
    2849     2868     2875     2864     2836     2802     2776     2767 
    2775     2793     2813     2840     2868     2887     2902     2928 
    2956     2963     2938     2894     2845     2802     2785     2798 
    2830     2870     2889     2864     2803     2729     2681     2690 
    2756     2833     2882     2893     2874     2843     2825     2828 
    2862     2910     2943     2943     2913     2864     2820     2808 
    2826     2847     2848     2833     2812     2797     2799     2821 
    2845     2863     2867     2844     2795     2755     2749     2776 
    2824     2868     2883     2867     2841     2820     2813     2814 
    2814     2810     2810     2821     2851     2905     2961     2987 
    2975     2949     2934     2947     2979     3001     2983     2928 
    2849     2781     2759     2797     2878     2968     3028     3053 
    3071     3094     3111     3105     3055     2967     2870     2795 
    2760     2762     2783     2806     2833     2863     2867     2833 
    2789     2758     2752     2772     2786     2768     2722     2659 
    2608     2596     2619     2659     2710     2770     2837     2903 
    2943     2938     2891     2812     2731     2690     2731     2840 
    2965     3065     3119     3125     3095     3052     2997     2936 
    2882     2843     2817     2812     2821     2835     2849     2856 
    2862     2876     2894     2906     2911     2920     2941     2974 
    2995     2980     2932     2870     2822     2806     2816     2832 
    2844     2859     2884     2929     2974     2986     2955     2893 
    2810     2724     2652     2608     2590     2596     2617     2651 
    2713     2822     2964     3080     3119     3071     2957     2833 
    2756     2743     2764     2768     2727     2658     2617     2651 
    2768     2918     3026     3032     2921     2751     2620     2587 
    2643     2728     2779     2755     2668     2577     2556     2635 
    2781     2924     3005     3019     2990     2947     2918     2916 
    2924     2922     2901     2867     2848     2863     2910     2978 
    3046     3086     3067     3001     2917     2853     2826     2818 
    2818     2832     2843     2843     2844     2851     2868     2901 
    2928     2932     2909     2876     2862     2874     2893     2891 
    2870     2841     2833     2872     2952     3036     3084     3079 
    3019     2940     2875     2847     2851     2866     2871     2856 
    2844     2859     2899     2955     3006     3028     2999     2918 
    2814     2745     2737     2774     2812     2818     2778     2714 
    2660     2639     2664     2735     2814     2878     2918     2930 
    2922     2905     2883     2876     2893     2916     2925     2925 
    2924     2926     2930     2917     2870     2814     2791     2805 
    2840     2868     2864     2832     2794     2758     2729     2712 
    2693     2671     2648     2623     2610     2639     2708     2795 
    2889     2968     2998     2970     2918     2878     2857     2847 
    2810     2748     2685     2652     2667     2720     2789     2852 
    2895     2917     2920     2899     2863     2830     2824     2853 
    2911     2960     2968     2933     2870     2820     2826     2901 
    3009     3092     3105     3040     2928     2821     2760     2755 
    2789     2837     2866     2859     2835     2829     2857     2911 
    2967     2994     2972     2901     2806     2728     2677     2641 
    2623     2631     2673     2747     2839     2934     3011     3042 
    3019     2957     2887     2839     2812     2798     2791     2775 
    2744     2718     2725     2783     2872     2961     3034     3071 
    3051     2968     2848     2731     2651     2625     2654     2717 
    2781     2812     2806     2798     2810     2855     2930     3007 
    3033     2994     2917     2843     2787     2751     2744     2774 
    2837     2918     2997     3060     3098     3109     3086     3028 
    2955     2899     2860     2837     2840     2864     2903     2949 
    2986     3011     3033     3049     3052     3024     2967     2903 
    2857     2845     2868     2898     2909     2894     2859     2824 
    2812     2822     2837     2841     2826     2803     2799     2822 
    2845     2840     2801     2741     2689     2668     2691     2752 
    2828     2890     2921     2911     2870     2821     2783     2772 
    2803     2866     2925     2955     2941     2882     2798     2740 
    2732     2770     2821     2852     2849     2832     2826     2852 
    2907     2960     2986     2975     2938     2895     2866     2860 
    2878     2916     2956     2971     2945     2899     2872     2889 
    2938     2987     3006     2968     2882     2772     2667     2594 
    2575     2614     2689     2763     2805     2812     2802     2790 
    2778     2763     2744     2722     2706     2700     2706     2716 
    2714     2689     2651     2636     2666     2744     2859     2986 
    3083     3113     3078     3005     2922     2855     2816     2809 
    2822     2833     2830     2824     2828     2844     2876     2921 
    2952     2953     2916     2837     2743     2656     2593     2569 
    2585     2633     2710     2806     2907     3010     3090     3113 
    3073     2986     2890     2824     2797     2798     2820     2849 
    2875     2886     2894     2910     2934     2965     3001     3025 
    3007     2928     2803     2678     2601     2598     2639     2667 
    2656     2635     2639     2691     2779     2867     2913     2906 
    2870     2830     2809     2818     2856     2911     2980     3040 
    3067     3049     2990     2909     2825     2744     2677     2632 
    2624     2656     2725     2810     2878     2913     2926     2932 
    2945     2965     2964     2921     2843     2747     2668     2640 
    2660     2710     2772     2822     2862     2894     2914     2925 
    2929     2917     2898     2887     2891     2911     2943     2960 
    2956     2936     2913     2906     2933     2997     3080     3159 
    3194     3164     3087     2999     2936     2913     2910     2895 
    2845     2775     2732     2745     2803     2872     2911     2905 
    2868     2812     2759     2743     2751     2759     2758     2752 
    2759     2785     2822     2867     2921     2980     3036     3078 
    3103     3098     3061     3001     2928     2870     2852     2889 
    2960     3030     3063     3038     2974     2893     2822     2774 
    2748     2748     2762     2779     2812     2862     2921     2980 
    3024     3032     3009     2974     2949     2941     2941     2940 
    2925     2883     2824     2778     2770     2806     2867     2913 
    2909     2851     2770     2716     2709     2745     2810     2880 
    2930     2943     2926     2902     2889     2895     2922     2956 
    2975     2974     2956     2921     2874     2821     2775     2745 
    2740     2748     2754     2745     2722     2701     2701     2725 
    2763     2790     2787     2758     2725     2705     2712     2751 
    2809     2857     2874     2847     2795     2744     2716     2727 
    2776     2843     2899     2936     2945     2926     2889     2845 
    2824     2833     2863     2898     2924     2937     2943     2930 
    2911     2891     2863     2826     2803     2799     2818     2863 
    2926     2994     3051     3080     3084     3082     3083     3095 
    3113     3117     3091     3033     2940     2844     2786     2778 
    2794     2806     2799     2776     2752     2736     2721     2697 
    2655     2617     2612     2654     2739     2829     2882     2887 
    2849     2795     2755     2745     2758     2768     2759     2727 
    2679     2640     2621     2632     2673     2735     2790     2818 
    2808     2749     2675     2620     2594     2598     2614     2613 
    2593     2569     2569     2606     2659     2701     2722     2725 
    2721     2714     2704     2685     2663     2640     2621     2609 
    2608     2628     2670     2728     2790     2837     2853     2836 
    2790     2735     2708     2724     2759     2793     2814     2820 
    2802     2764     2728     2708     2710     2741     2806     2887 
    2957     2999     3011     3006     2997     2978     2955     2952 
    2979     3036     3117     3207     3291     3343     3350     3323 
    3303     3327     3391     3457     3478     3443     3376     3298 
    3235     3204     3202     3222     3258     3288     3289     3262 
    3204     3114     3005     2903     2843     2830     2849     2875 
    2895     2906     2906     2891     2856     2816     2791     2790 
    2798     2803     2806     2817     2841     2879     2929     2975 
    3002     3006     2987     2952     2914     2887     2871     2857 
    2839     2812     2790     2779     2762     2733     2689     2635 
    2598     2609     2654     2712     2762     2793     2801     2794 
    2791     2816     2849     2853     2805     2708     2585     2482 
    2448     2508     2646     2802     2894     2875     2786     2685 
    2610     2589     2613     2648     2671     2678     2677     2682 
    2700     2722     2733     2717     2668     2612     2577     2581 
    2627     2691     2740     2766     2771     2768     2785     2829 
    2891     2934     2928     2871     2797     2745     2749     2802 
    2870     2905     2878     2808     2748     2735     2771     2833 
    2884     2895     2862     2805     2759     2749     2783     2835 
    2879     2898     2884     2852     2836     2863     2909     2949 
    2971     2968     2960     2964     2984     3015     3032     3022 
    2994     2967     2961     2980     3006     3019     3006     2963 
    2898     2826     2774     2772     2832     2925     3005     3041 
    3034     3001     2956     2924     2920     2938     2970     2998 
    3015     3024     3025     3024     3018     3005     2986     2967 
    2955     2956     2957     2940     2898     2833     2747     2664 
    2605     2575     2579     2604     2637     2687     2744     2787 
    2816     2837     2845     2840     2825     2806     2786     2770 
    2766     2779     2828     2914     3021     3117     3176     3186 
    3159     3117     3087     3072     3067     3068     3048     2983 
    2884     2787     2735     2739     2793     2867     2924     2940 
    2924     2891     2859     2843     2843     2851     2870     2890 
    2903     2909     2905     2894     2875     2860     2870     2903 
    2947     2974     2961     2907     2818     2712     2605     2529 
    2512     2555     2639     2733     2789     2781     2725     2658 
    2610     2597     2610     2623     2621     2617     2620     2644 
    2701     2782     2864     2928     2955     2944     2911     2880 
    2853     2824     2785     2740     2714     2729     2782     2862 
    2943     2995     2999     2956     2890     2841     2837     2864 
    2882     2862     2790     2686     2605     2604     2685     2798 
    2872     2878     2843     2810     2821     2883     2955     2987 
    2956     2872     2767     2704     2713     2781     2878     2975 
    3037     3049     3030     3002     2976     2959     2956     2964 
    2974     2968     2941     2913     2905     2926     2972     3021 
    3057     3068     3052     3018     2982     2959     2947     2928 
    2889     2833     2775     2732     2722     2754     2808     2866 
    2910     2928     2911     2866     2806     2744     2685     2637 
    2617     2635     2678     2718     2741     2751     2774     2826 
    2895     2947     2951     2889     2770     2646     2582     2614 
    2724     2851     2936     2949     2907     2864     2864     2905 
    2956     2988     2984     2960     2944     2948     2974     3013 
    3052     3082     3091     3088     3071     3037     2999     2960 
    2925     2901     2876     2849     2821     2789     2762     2751 
    2760     2791     2836     2871     2889     2890     2889     2909 
    2963     3033     3095     3118     3086     3009     2922     2868 
    2866     2906     2964     2991     2957     2874     2760     2643 
    2560     2521     2519     2554     2614     2678     2731     2755 
    2745     2721     2713     2752     2840     2947     3028     3028 
    2932     2774     2608     2505     2500     2574     2682     2776 
    2820     2812     2781     2766     2783     2820     2856     2866 
    2845     2817     2797     2779     2776     2801     2843     2878 
    2909     2945     2967     2964     2941     2920     2918     2932 
    2944     2944     2926     2894     2857     2837     2844     2871 
    2905     2934     2956     2960     2956     2948     2925     2876 
    2809     2755     2749     2794     2862     2925     2965     2965 
    2920     2841     2754     2682     2652     2667     2708     2755 
    2781     2751     2675     2600     2566     2587     2666     2776 
    2886     2961     2984     2948     2855     2737     2644     2617 
    2674     2781     2878     2926     2929     2901     2863     2832 
    2814     2801     2797     2809     2848     2922     3006     3060 
    3057     2999     2913     2844     2825     2860     2933     2998 
    3018     2999     2948     2878     2818     2787     2781     2799 
    2837     2887     2937     2965     2965     2936     2889     2849 
    2836     2852     2895     2945     2975     2980     2971     2952 
    2945     2971     3026     3088     3129     3136     3125     3126 
    3152     3195     3229     3210     3118     2986     2874     2825 
    2851     2916     2972     2995     2976     2926     2871     2844 
    2867     2918     2951     2934     2880     2829     2805     2791 
    2772     2745     2716     2702     2724     2770     2802     2791 
    2740     2682     2647     2635     2628     2614     2587     2544 
    2508     2519     2590     2687     2764     2797     2771     2705 
    2640     2606     2610     2644     2678     2701     2709     2702 
    2700     2725     2779     2851     2922     2986     3042     3076 
    3064     3007     2917     2818     2764     2793     2899     3036 
