Origin Time       2024/04/02 04:24:00
Lat.              40.133
Long.             141.712
Depth. (km)       71
Mag.              6.0
Station Code      FKS016
Station Lat.      37.1232
Station Long.     140.1910
Station Height(m) 375
Record Time       2024/04/02 04:26:04
Sampling Freq(Hz) 100Hz
Duration Time(s)  83
Dir.              U-D
Scale Factor      7845(gal)/8223790
Max. Acc. (gal)   1.240
Last Correction   2024/04/02 04:26:04
Memo.             
[...]
    1587     1186     1101     1350     1672     1864     1881     1753 
    1590     1582     1788     1996     1944     1690     1514     1510 
    1549     1582     1667     1748     1686     1479     1317     1325 
    1426     1501     1547     1598     1601     1561     1559     1522 
    1383     1293     1350     1410     1356     1277     1325     1479 
    1576     1598     1665     1776     1804     1738     1705     1741 
    1756     1744     1806     1948     2039     1989     1890     1877 
    1918     1865     1710     1564     1513     1634     1867     1946 
    1782     1615     1624     1748     1846     1864     1853     1853 
    1834     1802     1732     1563     1354     1246     1275     1395 
    1541     1656     1749     1858     1956     1927     1719     1480 
    1424     1561     1692     1664     1571     1580     1655     1640 
    1532     1443     1436     1499     1588     1659     1655     1543 
    1382     1339     1474     1634     1715     1729     1690     1668 
    1706     1718     1682     1657     1618     1498     1367     1378 
    1543     1721     1790     1680     1436     1279     1327     1502 
    1791     2099     2172     1977     1765     1722     1848     2006 
    2035     1888     1647     1444     1439     1725     2104     2154 
    1694     1078      880     1246     1761     1952     1732     1409 
    1300     1364     1420     1509     1722     1914     1877     1630 
    1387     1285     1297     1421     1590     1534     1186      928 
    1107     1580     1921     1899     1714     1675     1837     2026 
    2038     1848     1680     1684     1711     1632     1559     1669 
    1956     2218     2238     2015     1745     1599     1620     1717 
    1740     1628     1517     1544     1652     1698     1630     1543 
    1576     1734     1872     1846     1656     1474     1414     1371 
    1293     1304     1414     1497     1530     1583     1614     1525 
    1372     1347     1451     1478     1368     1296     1401     1552 
    1494     1308     1343     1576     1610     1359     1188     1343 
    1597     1575     1306     1159     1298     1552     1718     1705 
    1526     1323     1309     1534     1767     1771     1598     1471 
    1489     1580     1663     1680     1628     1613     1752     1975 
    2142     2251     2313     2249     2126     2069     1965     1752 
    1647     1742     1840     1795     1678     1629     1674     1682 
    1605     1568     1598     1556     1435     1405     1509     1545 
    1432     1395     1532     1620     1574     1564     1706     1921 
    2015     1898     1730     1652     1583     1476     1445     1534 
    1664     1809     1937     1918     1730     1571     1637     1876 
    2023     1902     1676     1645     1849     2070     2128     1993 
    1756     1552     1494     1641     1864     1834     1510     1283 
    1408     1680     1823     1837     1813     1750     1694     1668 
    1586     1474     1458     1560     1740     1833     1647     1291 
    1047     1081     1383     1698     1782     1733     1818     2149 
    2555     2729     2552     2083     1498     1178     1362     1826 
    2112     1922     1420     1139     1347     1806     2133     2158 
    1957     1691     1536     1594     1795     1941     1883     1705 
    1672     1854     2008     1954     1744     1498     1290     1178 
    1231     1444     1669     1717     1567     1414     1385     1417 
    1476     1640     1854     1885     1633     1285     1075     1116 
    1374     1620     1602     1347     1105     1043     1121     1229 
    1316     1399     1506     1561     1470     1323     1296     1424 
    1590     1615     1444     1256     1259     1502     1856     2093 
    2143     2126     2097     2026     1898     1719     1525     1377 
    1327     1379     1459     1483     1493     1575     1717     1875 
    2029     2073     1902     1636     1480     1464     1493     1509 
    1541     1599     1576     1458     1431     1541     1590     1480 
    1395     1544     1798     1873     1818     1867     2007     1973 
    1638     1300     1289     1502     1648     1591     1358     1100 
     977     1088     1489     2074     2492     2404     1925     1545 
    1518     1744     2064     2238     2068     1707     1444     1377 
    1455     1590     1620     1512     1487     1655     1844     1852 
    1644     1394     1301     1370     1490     1610     1696     1668 
    1491     1331     1333     1352     1329     1552     2061     2374 
    2169     1745     1552     1588     1551     1372     1269     1351 
    1482     1556     1638     1742     1736     1579     1458     1509 
    1579     1534     1520     1625     1710     1703     1692     1761 
    1902     2050     2131     2110     2018     1927     1892     1894 
    1841     1684     1490     1304     1170     1190     1264     1205 
    1105     1100     1109     1075     1102     1298     1603     1881 
    2054     2073     1931     1723     1571     1575     1702     1698 
    1464     1264     1351     1676     2015     2130     1922     1526 
    1210     1115     1219     1453     1719     1908     1987     1915 
    1691     1459     1331     1285     1286     1336     1516     1864 
    2191     2241     2025     1768     1655     1721     1938     2251 
    2508     2502     2204     1867     1768     1900     2037     1985 
    1737     1447     1300     1431     1875     2475     2887     2839 
    2389     1900     1718     1854     2066     2172     2115     1921 
    1729     1703     1867     2041     2053     1969     1903     1804 
    1580     1283     1132     1232     1354     1297     1219     1277 
    1367     1324     1193     1166     1200     1073      866      862 
    1088     1242     1109      923     1059     1413     1578     1501 
    1432     1460     1459     1305     1055      803      643      805 
    1323     1780     1876     1748     1598     1491     1394     1291 
    1317     1483     1568     1490     1460     1649     1961     2188 
    2195     1998     1787     1746     1809     1814     1795     1726 
    1394      958      934     1386     1880     2106     2089     1973 
    1814     1653     1620     1804     2106     2274     2191     1998 
    1865     1898     2145     2382     2277     1933     1749     1841 
    1941     1811     1534     1318     1198     1124     1262     1741 
    2165     2120     1760     1394     1227     1418     1791     1973 
    1873     1629     1366     1138     1019     1047     1113     1150 
    1189     1217     1305     1470     1486     1318     1306     1571 
    1768     1664     1506     1552     1688     1759     1823     1933 
    1966     1854     1756     1779     1773     1638     1495     1487 
    1617     1791     1914     1883     1709     1611     1709     1813 
    1680     1399     1325     1548     1741     1674     1493     1463 
    1694     2025     2133     1853     1278      761      803     1476 
    2127     2155     1695     1262     1104     1127     1235     1409 
    1559     1664     1795     1908     1929     1888     1830     1772 
    1668     1397     1047      997     1374     1798     1966     2015 
    2119     2196     2104     1877     1691     1624     1642     1746 
    1902     2000     1960     1837     1849     2012     1984     1649 
    1366     1393     1625     1868     2066     2191     2133     1949 
    1887     2033     2212     2215     2006     1733     1482     1181 
     892      801      954     1282     1593     1630     1428     1225 
    1165     1345     1721     2023     2011     1615     1023      665 
     853     1399     1776     1764     1661     1800     2107     2230 
    2014     1638     1364     1343     1551     1772     1800     1682 
    1587     1591     1629     1657     1844     2263     2567     2474 
    2184     1925     1687     1516     1533     1607     1560     1520 
    1622     1714     1649     1435     1163     1032     1113     1251 
    1302     1301     1406     1688     1948     1945     1756     1706 
    1925     2124     2042     1791     1559     1354     1266     1476 
    1881     2119     2026     1811     1773     1923     1977     1755 
    1383     1039      837      965     1409     1696     1486     1162 
    1310     1903     2332     2074     1262      572      515      977 
    1478     1715     1734     1703     1719     1768     1841     1988 
    2130     2049     1780     1640     1732     1836     1763     1580 
    1518     1719     2015     2106     1949     1688     1401     1204 
    1286     1641     1968     2003     1895     1917     2035     2068 
    1892     1575     1351     1296     1287     1294     1306     1248 
    1108      955     1023     1525     2232     2601     2309     1582 
    1046     1108     1530     1846     1864     1610     1287     1236 
    1493     1718     1676     1402     1125     1135     1443     1814 
    2004     1838     1462     1312     1462     1512     1336     1220 
    1212     1128     1073     1381     2111     2737     2567     1684 
     913      743      955     1196     1340     1424     1458     1453 
    1552     1761     1771     1417     1078     1204     1786     2440 
    2731     2502     2020     1598     1344     1344     1591     1814 
    1863     1919     2080     2158     2054     1869     1660     1440 
    1278     1281     1510     1803     1850     1657     1530     1603 
    1776     1927     1971     1833     1572     1466     1674     2027 
    2384     2623     2536     2199     1939     1975     2259     2439 
    2235     1900     1822     2006     2207     2269     2218     2085 
    1775     1331     1074     1178     1529     1879     1927     1661 
    1401     1282     1235     1309     1459     1389     1020      669 
     693     1131     1572     1533     1112      850      999     1398 
    1802     2008     1966     1796     1553     1205      905      878 
    1075     1206     1161     1209     1539     1879     1912     1678 
    1421     1317     1374     1549     1786     1879     1701     1470 
    1401     1456     1528     1568     1561     1478     1367     1335 
    1379     1408     1381     1402     1534     1621     1641     1761 
    1948     2084     2126     2079     2015     1937     1804     1706 
    1757     1953     2160     2200     2047     1873     1818     1956 
    2172     2130     1864     1746     1806     1864     1790     1529 
    1364     1624     2106     2363     2285     1981     1628     1443 
    1436     1494     1588     1651     1674     1750     1811     1657 
    1259      846      662      742      976     1210     1314     1291 
    1202     1143     1258     1610     2066     2327     2153     1771 
    1686     1883     1933     1775     1610     1443     1306     1413 
    1723     1861     1644     1347     1274     1409     1620     1861 
    2095     2227     2263     2262     2151     1818     1355     1058 
    1116     1418     1771     1993     1861     1387      978     1007 
    1441     1941     2226     2246     2087     1829     1561     1417 
    1491     1660     1744     1799     1942     2072     2004     1753 
    1487     1300     1232     1366     1610     1657     1386     1046 
     999     1331     1761     2050     2178     2103     1732     1212 
     976     1256     1698     1814     1615     1414     1320     1332 
    1559     1985     2305     2181     1617     1054      978     1370 
    1768     1857     1671     1413     1345     1617     2127     2559 
    2563     2087     1393      864      826     1262     1740     1836 
    1630     1602     1854     1985     1915     1919     1991     1900 
    1667     1624     1993     2407     2278     1675     1256     1352 
    1659     1884     2016     1968     1675     1410     1418     1602 
    1814     1949     1800     1318      896      911     1209     1468 
    1690     1958     2112     1935     1536     1236     1148     1129 
    1123     1205     1333     1325     1198     1215     1521     1912 
    2049     1873     1644     1518     1439     1409     1458     1452 
    1381     1472     1679     1657     1385     1169     1124     1156 
    1294     1568     1787     1726     1480     1408     1584     1675 
    1539     1416     1445     1513     1513     1516     1578     1572 
    1449     1444     1748     2201     2442     2286     1840     1320 
     981     1069     1524     1949     2064     1900     1580     1297 
    1321     1665     1984     1971     1652     1386     1471     1694 
    1696     1588     1659     1830     1769     1458     1287     1467 
    1810     2095     2200     2083     1833     1586     1528     1823 
    2320     2617     2521     2219     1992     1860     1696     1576 
    1594     1661     1723     1858     2104     2362     2493     2448 
    2268     1991     1675     1436     1333     1328     1422     1630 
    1818     1841     1749     1671     1607     1482     1318     1190 
    1174     1368     1732     2027     2070     1840     1490     1313 
    1418     1613     1698     1615     1374     1017      764      936 
    1518     2046     2116     1769     1345     1073      996     1163 
    1467     1636     1624     1571     1530     1544     1651     1767 
    1806     1722     1501     1278     1210     1267     1412     1642 
    1738     1491     1140     1124     1466     1711     1556     1274 
    1331     1841     2532     2936     2744     2135     1517     1185 
    1240     1510     1696     1683     1553     1425     1408     1595 
    1954     2290     2448     2405     2196     1887     1529     1186 
    1046     1233     1633     1989     2104     1989     1798     1605 
    1472     1534     1804     2083     2095     1732     1225      874 
     715      723     1015     1582     2035     1966     1537     1255 
    1382     1813     2196     2170     1723     1189      903      923 
    1057     1175     1320     1470     1480     1294     1148     1335 
    1668     1717     1540     1487     1580     1648     1640     1601 
    1536     1421     1271     1220     1414     1745     1960     2016 
    1969     1827     1663     1602     1725     1941     2019     1842 
    1501     1223     1275     1653     2029     2131     1975     1809 
    1877     2096     2196     2170     2160     2101     1902     1682 
    1584     1591     1618     1611     1524     1385     1337     1502 
    1838     2160     2261     2120     1925     1848     1925     2091 
    2214     2150     1860     1566     1634     2053     2346     2270 
    2081     1977     1821     1536     1397     1618     1912     1880 
    1555     1263     1208     1273     1248     1127     1017      986 
    1050     1113     1067     1005     1071     1229     1393     1502 
    1494     1385     1314     1374     1536     1750     1912     1875 
    1699     1606     1647     1628     1348      926      764     1003 
    1310     1429     1493     1632     1698     1620     1656     1976 
    2304     2311     1984     1547     1293     1352     1544     1665 
    1752     1903     2080     2103     1883     1624     1605     1787 
    1975     2201     2533     2710     2454     1953     1696     1887 
    2201     2211     1908     1651     1661     1748     1686     1614 
    1641     1575     1406     1383     1568     1719     1571     1208 
    1028     1162     1240      940      481      384      850     1494 
    1810     1800     1806     1875     1831     1669     1506     1422 
    1440     1453     1354     1258     1389     1694     1921     1917 
    1668     1320     1169     1359     1676     1852     1860     1818 
    1780     1719     1726     1998     2398     2506     2165     1586 
    1086      915     1117     1540     1907     1952     1655     1345 
    1352     1584     1669     1493     1291     1259     1333     1389 
    1410     1485     1606     1607     1417     1229     1277     1555 
    1842     1918     1777     1634     1682     1856     1891     1705 
    1574     1755     2124     2296     2097     1796     1618     1474 
    1389     1557     1923     2195     2177     1875     1516     1333 
    1281     1294     1533     1902     1948     1571     1188     1170 
    1568     2047     2191     2066     2054     2185     2214     2084 
    1930     1831     1748     1661     1630     1676     1730     1710 
    1618     1552     1567     1615     1630     1571     1498     1503 
    1526     1499     1525     1698     1977     2188     2120     1784 
    1422     1215     1169     1224     1312     1393     1437     1398 
    1298     1225     1242     1378     1601     1800     1850     1698 
    1513     1502     1595     1607     1587     1696     1912     2031 
    1914     1701     1622     1675     1738     1794     1777     1607 
    1409     1389     1537     1648     1547     1316     1178     1174 
    1243     1443     1742     1925     1860     1605     1317     1224 
    1405     1629     1695     1634     1533     1468     1505     1624 
    1733     1750     1695     1705     1845     2016     2088     1988 
    1737     1458     1279     1289     1487     1705     1718     1561 
    1514     1753     2139     2350     2195     1848     1628     1656 
    1838     2042     2146     2015     1669     1417     1539     1921 
    2208     2150     1815     1521     1459     1584     1846     2146 
    2238     1998     1610     1297     1109     1054     1116     1173 
    1156     1213     1474     1783     1849     1641     1456     1524 
    1691     1656     1453     1382     1424     1310     1101     1038 
    1128     1204     1162     1088     1081     1080     1051     1075 
    1193     1390     1521     1397     1174     1173     1336     1412 
    1421     1513     1678     1819     1902     1998     2166     2297 
    2257     2114     1944     1682     1374     1228     1379     1771 
    2172     2367     2373     2263     2081     2029     2259     2562 
    2656     2485     2168     1890     1807     1937     2096     2046 
    1768     1470     1366     1522     1788     1946     1960     1917 
    1821     1648     1497     1541     1788     1998     1956     1686 
    1372     1190     1217     1426     1680     1833     1836     1702 
    1487     1363     1426     1624     1868     2035     1972     1705 
    1406     1200     1177     1355     1582     1696     1688     1625 
    1584     1621     1698     1664     1462     1235     1120     1093 
    1090     1119     1221     1350     1399     1421     1553     1745 
    1799     1665     1471     1324     1213     1152     1236     1422 
    1505     1451     1399     1363     1259     1139     1121     1173 
    1189     1244     1433     1641     1706     1620     1532     1563 
    1651     1701     1729     1746     1725     1682     1655     1659 
    1687     1725     1745     1718     1665     1647     1691     1742 
    1715     1661     1742     1915     1956     1876     1879     1925 
    1849     1769     1946     2270     2332     2014     1618     1452 
    1549     1732     1850     1891     1860     1756     1653     1691 
    1885     2011     1941     1856     1888     1958     1998     2060 
    2146     2074     1726     1293     1080     1217     1578     1857 
