Origin Time       2024/04/02 04:24:00
Lat.              40.133
Long.             141.712
Depth. (km)       71
Mag.              6.0
Station Code      FKS006
Station Lat.      37.5022
Station Long.     140.7593
Station Height(m) 471
Record Time       2024/04/02 04:25:50
Sampling Freq(Hz) 100Hz
Duration Time(s)  73
Dir.              N-S
Scale Factor      7845(gal)/8223790
Max. Acc. (gal)   9.852
Last Correction   2024/04/02 04:25:50
Memo.             
[...]
    2045     3052     3761     3269     1896      621      172      799 
    1939     2227     1035     -510     -969       91     2002     3392 
    3510     2768     1989     2083     3117     3924     3879     3480 
    3153     2832     2315     1663     1061      584      205     -174 
    -365      -76      591     1548     2727     3384     3014     2513 
    2739     3402     4043     4287     3793     2775     1895     1472 
    1173      905      854      693      480      761     1142     1186 
    1572     2386     2990     3472     3609     2845     1827     1399 
    1412     1501     1705     1852     1620     1487     1861     2162 
    2101     1902     1447      901      943     1487     1853     1991 
    2008     1841     1863     1993     1823     1892     2500     3056 
    3159     2632     1742     1274     1343     1445     1748     2355 
    2316     1485     1158     1769     2470     2544     1899     1108 
     741      899     1792     2948     3192     2609     2050     1807 
    1965     2423     2845     2848     2060     1024     1086     2097 
    2435     1864     1410     1227     1312     1903     2203     1795 
    1688     2195     2536     2330     1779     1331     1595     2828 
    3927     3568     2273     1352     1278     1826     2224     1794 
     847      222      247      688     1266     1822     2273     2637 
    2818     2744     2735     2905     2902     2606     2177     1768 
    1618     1756     1780     1348      731      634     1067     1354 
    1522     1941     2161     1821     1621     1987     2397     2743 
    3045     2928     2609     2243     1684     1405     1534     1441 
     857      317      591     1651     2639     2845     2272     1651 
    1579     2008     2802     3470     3073     1753      920     1015 
    1169     1278     1688     2177     2833     3437     3227     2443 
    1610      946     1019     1698     2274     2477     2079     1448 
    1109      688      378      808     1640     2365     2821     3003 
    2994     2725     2189     1705     1771     2366     2821     2907 
    2898     2679     1900      900      621     1065     1208      899 
    1066     2065     3086     3304     2905     2317     1613     1170 
    1290     1803     2567     2851     1942      764      313      388 
     893     1737     2388     2727     2999     3304     3400     3076 
    2614     2165     1806     1888     2154     1898     1271      988 
    1075     1456     2234     2563     1945     1259     1074     1416 
    2182     2721     2712     2420     1880     1471     1803     2505 
    2782     2570     2265     1892     1305      803      604      688 
    1237     1906     2070     1958     1883     1763     1698     1898 
    2498     3064     3018     2835     2933     2828     2316     1611 
    1019      769      580      550     1088     1672     1787     1529 
    1098     1093     1767     2590     3260     3672     3654     3207 
    2567     2427     3069     3414     2528     1008      -89     -256 
     407     1312     2095     2631     2338     1317      723     1078 
    1921     2489     2365     1630      718      780     2288     3716 
    3781     2810     1516      819     1493     2754     3083     2137 
     573     -702     -691      742     2322     2921     2452     1399 
     812     1279     2343     3596     4500     4395     3609     3006 
    2868     2686     1977      955      -37     -638     -334      623 
    1483     2003     1971     1108      187      469     1880     3531 
    4865     5057     3879     2575     2096     2511     3352     3489 
    2351      857      135      237      646      837      425     -280 
    -540      120     1414     2508     3240     3754     3646     3052 
    2794     3231     3871     3916     3314     2481     1651     1262 
    1333     1178      475     -585    -1375    -1148     -121     1138 
    2435     3183     3148     3200     3913     4711     4923     4662 
    3898     2536     1526     1464     1659     1475      776     -178 
    -818     -922     -495      519     1602     2147     2346     2424 
    2479     2905     3576     3874     3726     3389     2878     2228 
    1718     1414     1030      638      604      954     1417     1507 
    1105      805      842     1198     2154     3226     3570     3218 
    2682     2552     2895     2995     2569     2027     1663     1540 
    1684     1954     1919     1294      529      334      675     1009 
    1115     1177     1564     2238     2789     3137     3312     3527 
    4079     4245     3385     2326     1729     1359     1093      675 
     -12      -36      957     1590     1250      976     1054     1271 
    2228     3447     3638     3235     3145     3248     3291     2891 
    1999     1514     1602     1368     1119     1701     2020      989 
     -81        5      837     1993     2650     2035     1397     1773 
    2218     2469     3144     3565     2982     2249     2288     2571 
    2262     1386      584      427      691      788      822     1026 
    1209     1412     1723     1954     2220     2700     3152     3476 
    3500     2772     1749     1436     1806     2037     1821     1732 
    1907     1664     1271     1575     2199     2300     1883     1642 
    2085     2666     2678     2581     2502     1854     1196     1198 
    1566     1912     1545      352     -264      287     1263     2521 
    3597     3289     2096     1518     1669     2070     2585     2805 
    2397     1696     1166      932      942     1111     1212     1070 
    1251     2054     2308     1764     1899     2859     3596     3797 
    3312     2423     2104     2404     2621     2570     2133     1008 
    -189     -183      842     1509     1552     1345      981      958 
    1433     2008     2791     3534     3516     2947     2459     2317 
    2544     2875     3186     3397     3068     2250     1615     1447 
    1593     1672     1432     1179     1127     1289     1996     2991 
    3329     2798     1757      498     -378     -445       93     1038 
    2122     2772     2754     2380     2106     2133     2324     2690 
    3180     3242     2664     1844      942      114     -332     -754 
   -1402    -1422     -145     1995     4082     5188     5032     4229 
    3395     2871     2866     3122     2921     1871      708      519 
    1111     1493     1341      913      588      689     1301     2492 
    4023     4981     4733     3681     2598     1979     2099     2833 
    3447     3362     2466      631    -1486    -2380    -1694     -500 
     488     1440     2606     3788     4491     4511     3894     2663 
    1251      392      338      616      712      797     1177     1617 
    1771     1621     1435     1748     2984     4865     6380     6199 
    4180     1929      291     -926    -1182     -517      199     1111 
    2145     2562     3078     4221     4398     3064     1887     1665 
    1953     2697     3789     4298     3628     2571     1973     1756 
    1998     2650     2787     1853      130    -2019    -3811    -4171 
   -3177    -2026    -1401     -626     1305     4444     7785     9661 
    9269     7746     6195     4783     3856     3123     1638      -97 
    -845     -974    -1505    -2050    -1899    -1410     -846      -28 
     634      959     1536     2350     2899     3312     3807     4267 
    4448     4171     3693     3115     2195     1337     1282     2016 
    2795     2934     2717     2926     3294     2960     2131     1389 
     784      669     1200     1671     1818     1769      896     -920 
   -2567    -3495    -3507    -1911      893     3524     5208     5567 
    4733     3686     3280     3577     3811     3011     1370      369 
    1220     3322     4812     4683     3218     1125     -386      -44 
    1919     3512     3102     1308     -256    -1024    -1337    -1291 
    -710      -36      166      326     1386     3730     6486     8163 
    8297     7211     5367     4137     4533     5089     3824      959 
   -2008    -3662    -3214    -1337      885     2921     3973     3700 
    2936     2307     1476      -44    -1586    -1842     -878      633 
    2538     4141     4758     4567     3888     3030     2151     1350 
    1368     2612     3478     1860    -1252    -2712    -1962     -909 
    -352        2      372     1385     3369     5143     5309     3909 
    2227     2035     3966     5981     5837     4164     2594     1278 
      28     -650     -550     -591    -1645    -2924    -2893    -1115 
    1209     2128     1651     1999     3692     5269     6539     7960 
    8591     7484     5356     3485     2116      368    -2033    -3333 
   -2376     -822     -225     -101       39      110      602     1811 
    3086     3766     3585     3132     3902     6038     7630     7229 
    5441     3460     1498     -155    -1058    -2039    -3955    -5957 
   -6636    -5707    -3635     -749     2376     4990     6968     8557 
    9971    11338    12179    11518     9162     5846     2033    -1688 
   -4001    -4862    -5633    -6519    -6700    -5719    -3584     -904 
    1362     2529     3082     4662     7572    10143    11221    10750 
    9138     7176     5462     4152     2963     1032    -1900    -4392 
   -5202    -5251    -5432    -4706    -2620     -612      718     2424 
    4819     7071     8444     8287     6501     4172     2278     1297 
    1846     3273     3499     2012      448     -190     -346     -140 
     662     1013     -338    -2324    -2633     -823     1586     3067 
    3237     3100     3550     4579     6303     8081     8499     7425 
    5223     2033     -967    -2756    -3836    -4845    -5755    -6411 
   -6488    -5335    -2620     1084     4546     6886     8402     9699 
   10361     9964     9045     7565     4811     1617     -271     -810 
   -1039    -1320    -1661    -2223    -3080    -4194    -4887    -4008 
   -1784      538     2797     5236     7443     9313    10839    11302 
   10183     7912     5194     2458      -37    -2208    -3879    -4507 
   -4326    -4657    -5363    -4804    -3246    -1749      436     3480 
    6259     8326     9672    10574    11198    10636     8229     4999 
    2393      132    -2617    -4618    -4804    -4623    -5120    -5354 
   -4392    -2423     -313     1526     3416     5406     7102     8024 
    8260     8638     9175     8985     7728     5609     3079      761 
   -1003    -2212    -2971    -3708    -5053    -6012    -4672    -1763 
     433     1333     1696     2187     2700     3045     3800     5273 
    6826     7569     7480     7188     6465     5134     4124     3275 
    1314    -1305    -2874    -2802    -1857    -1198    -1043     -588 
      45      184      511     1871     3647     4641     4363     3379 
    2921     3690     4966     5575     4704     2039    -1067    -2582 
   -2411    -1625    -1047    -1209    -1314     -113     2056     4476 
    6502     6644     4687     2604     2062     3261     4931     4980 
    3090      820     -616     -519      768     1344      314     -878 
    -923       35     1868     4159     5283     4595     3138     1757 
     961     1050     1676     2569     3434     3531     2593     1108 
     -39      -43      828     1512     1560     1270     1201     1923 
    2934     3123     2498     1633     1151     1814     3130     4024 
    4600     4846     4106     2945     2602     2505     1178     -508 
    -608      587     1765     2124     1271      125     -423     -961 
   -1089      414     2538     3750     4637     5764     6336     6034 
    5289     4070     2290      594     -500     -886     -360      562 
     683     -261    -1553    -2411    -2093     -556      764      711 
     513     1821     4375     6887     8147     8020     7389     6122 
    4271     3604     4085     3032     -446    -4131    -5559    -4581 
   -3225    -2874    -2889    -1966      446     3426     5695     6951 
    6920     5907     5686     6561     6694     5549     3981     2651 
    1921      805    -1630    -4013    -5198    -5772    -5637    -4058 
   -1258     1591     3065     3441     4878     7962    10756    11411 
    9971     7933     6106     4276     2554      683    -1755    -3777 
   -4106    -3196    -2874    -3813    -4638    -4413    -3183     -697 
    2631     5640     7620     8209     7766     7319     6916     6156 
    5367     4099     1580     -804    -1134     -144     -193    -1989 
   -4110    -5238    -4931    -3032     -176     2394     4041     5127 
    6756     8992    10359    10347     9605     8442     6777     4351 
    1501    -1270    -4031    -5894    -5841    -4857    -4143    -3678 
   -3240    -2289      -70     3153     6049     7186     6623     6621 
    8409     9991     9686     8263     6261     3403      576    -1194 
   -2531    -4186    -5474    -5186    -3325    -1699    -1769    -2142 
    -625     2138     4376     6200     7703     8043     7549     7067 
    6797     6390     4695     1548    -1178    -2308    -2492    -2683 
   -3508    -4696    -4996    -3882    -1935      399     2670     4357 
    5644     6787     7582     8043     8059     7240     6021     4828 
    3303     2084     1984     1815      137    -2872    -5805    -6941 
   -5865    -3970    -2660    -1595      276     2612     4896     7350 
    9274    10065     9985     9135     8465     8380     6945     3480 
     -55    -2597    -4807    -6735    -7514    -7159    -6836    -6866 
   -5837    -2894      903     4351     7365    10216    12217    12247 
   10702     8930     7333     5644     3873     2141      249    -1680 
   -2602    -2269    -2227    -3279    -4367    -4398    -2961     -475 
    2018     4163     6133     7404     7557     7257     6964     6527 
    6050     5228     3495     1105    -1468    -3829    -5443    -5927 
   -5058    -3217    -1340      457     2619     4618     5427     4916 
    4144     3970     3840     3520     3875     4425     4147     3796 
    4032     4097     3226     1780     1061     1364     1547      830 
    -677    -2385    -3685    -3902    -2280      445     2420     3038 
    3022     3264     4174     5428     6405     6747     6354     5401 
    4079     2451     1154      603     -109    -1486    -2658    -2843 
   -2131    -1304    -1036     -824      302     1948     3161     4001 
    4579     4819     5270     6378     7242     6407     4202     2046 
     538      128      630      724       76     -558     -990    -1175 
    -712      349     1386     2216     3126     3654     3531     3665 
    4000     3640     3168     3253     3281     2916     2425     1821 
    1154      529     -602    -2164    -2808    -2421    -1686     -133 
    1740     2791     3626     4459     4687     4955     5200     4102 
    2334     1873     2706     3316     3180     2829     2236      926 
    -670    -1467    -1074     -105      595     1050     1979     3272 
    4268     4909     4872     3896     3281     3901     4392     3813 
    3242     3146     2253      205    -1606    -2166    -1634     -642 
     287     1229     2068     2166     2031     2602     3217     3029 
    2506     2408     2783     3048     2648     1715     1205     1321 
    1108      734      812      918      915      938     1077     1597 
    2382     3144     3349     2641     1665      928      650     1274 
    2602     3875     4163     3052     1517      824     1201     1679 
    1512     1557     2178     2424     2488     3014     3319     2853 
    2150     1887     2142     2471     2840     3635     4093     2974 
    1094       66     -276     -707    -1053     -477     1148     2362 
    2192     1653     1825     2451     2386     1405     1104     2309 
    3731     4094     3304     1857      471     -135      137      776 
    1678     2956     3890     3689     2579     1221      -44     -811 
    -413      947     2326     3514     4545     5038     5039     4734 
    4023     3136     2061      693       -8      526     1277     1067 
    -278    -1954    -3303    -4113    -3505     -961     2330     4905 
    6372     7150     7549     7186     5949     4630     3778     3334 
    3364     3474     2533      301    -2080    -3570    -4010    -3748 
   -3065    -1741      417     2787     4839     6804     8221     7811 
    5791     4222     4085     4345     4218     3767     2920     1093 
   -2072    -5143    -6212    -5367    -3627    -1773      -71     2149 
    4607     5688     5491     5293     4953     4293     4180     4739 
    5120     4908     4202     2855      696    -1694    -3113    -2960 
   -2066    -1513     -831     1117     3800     5518     5849     5802 
    5898     5579     4595     3424     2220      685     -986    -2208 
   -3042    -3715    -3593    -2085      414     2664     3550     3827 
    5109     6660     6812     6149     5736     5059     3727     2434 
    1687     1161      268    -1178    -2459    -2675    -2300    -2022 
   -1235       86     1046     1707     2547     3566     4768     5819 
    5806     4469     3078     2953     3469     3157     2304     2424 
    3700     4502     3503     1189    -1120    -2716    -3420    -2772 
    -673     1054      691     -114     1019     3357     4833     4819 
    4378     4557     4594     3870     3485     4147     5084     4780 
    3036     1328     -369    -2776    -4556    -4648    -3289     -945 
     909     1690     2766     4384     5910     7225     7452     6288 
    5200     4676     3866     2886     2153     1146     -716    -3353 
   -5397    -4860    -1906      958     2335     3113     3707     3396 
    2484     2070     2370     2866     3181     3410     4104     5370 
    6118     5620     4510     3177     1362     -510    -1634    -1918 
   -1669    -1476    -1880    -2077    -1177     -197       95      926 
    3202     6211     8645     9576     9323     8662     7326     4776 
    1387    -1632    -3102    -3260    -3516    -4564    -5494    -5147 
   -3905    -2346      172     3195     5170     6259     7535     9035 
   10112    10297     9680     8367     6203     3530      912    -1741 
   -4633    -6943    -7466    -6515    -5522    -4846    -3744    -1811 
     769     3653     6654     9335    10778    10795    10164     9124 
    7273     4768     2272      -71    -2619    -4822    -5263    -4158 
   -3415    -3373    -2812    -1664     -568      638     2277     4118 
    6030     8116    10046    11226    10797     8066     4176     1144 
    -919    -2862    -4182    -4303    -3823    -3183    -2442    -1574 
    -400      433      642     1830     4440     6600     7470     7611 
    7369     7130     7202     7237     6188     3423      189    -1711 
   -2025    -1788    -2043    -2808    -3361    -3165    -1813      410 
    2143     2705     2901     3742     5378     6743     6683     5613 
    4780     4473     4183     3591     2473     1096      373      125 
    -508     -996     -778     -716    -1220    -1269      -62     1468 
    1622      484     -152      441     1582     3138     5498     7782 
    8066     6366     5335     5919     5757     3597      868    -1098 
   -2087    -2543    -2835    -2943    -3360    -4117    -3789    -1868 
     531     2675     4450     6021     7735     9132     9308     8545 
    7427     6030     4941     3908     1453    -2115    -4945    -6191 
