Origin Time       2024/04/02 04:24:00
Lat.              40.133
Long.             141.712
Depth. (km)       71
Mag.              6.0
Station Code      FKS004
Station Lat.      37.6798
Station Long.     140.7342
Station Height(m) 488
Record Time       2024/04/02 04:25:25
Sampling Freq(Hz) 100Hz
Duration Time(s)  94
Dir.              U-D
Scale Factor      7845(gal)/8223790
Max. Acc. (gal)   2.517
Last Correction   2024/04/02 04:25:26
Memo.             
[...]
  -26515   -26519   -26449   -26877   -27253   -26646   -26407   -27388 
  -27508   -26400   -25956   -26200   -26217   -26133   -26581   -27403 
  -27309   -26372   -26312   -27190   -27422   -26573   -25829   -25921 
  -26104   -25963   -26022   -26624   -27494   -27692   -27089   -26620 
  -26415   -26369   -26509   -26650   -26786   -26505   -26150   -26524 
  -26632   -26025   -25928   -26478   -26801   -26856   -27295   -27691 
  -26998   -25758   -25153   -25481   -26304   -26536   -26157   -26437 
  -27160   -27286   -27234   -27657   -27800   -26867   -25678   -25289 
  -25598   -26235   -26761   -26562   -26142   -26526   -27094   -26866 
  -26461   -26507   -26719   -26921   -26786   -26127   -25952   -26484 
  -26385   -25937   -26407   -26943   -26693   -26569   -26715   -26740 
  -27082   -27353   -27028   -26775   -26492   -25701   -25439   -26308 
  -26902   -26468   -26144   -26461   -27048   -27692   -27603   -26588 
  -25871   -26061   -26523   -26501   -26449   -27014   -27265   -26786 
  -26235   -25953   -26484   -27313   -27301   -26856   -26304   -25833 
  -25986   -26140   -26202   -26724   -27314   -27742   -27371   -25995 
  -25408   -26009   -26526   -26978   -27280   -26808   -26208   -26096 
  -26254   -26744   -27206   -26952   -26362   -25884   -25516   -25929 
  -27068   -27438   -26898   -26649   -26573   -26134   -25748   -25674 
  -25951   -26670   -27162   -26913   -26522   -26447   -26507   -26720 
  -27032   -26720   -25824   -25489   -25998   -26773   -27314   -27506 
  -27577   -26983   -25701   -25195   -25741   -26649   -27510   -27469 
  -26654   -26239   -26466   -26717   -26542   -26492   -26970   -27037 
  -26443   -25833   -25564   -26009   -26730   -27031   -27218   -27263 
  -26765   -26158   -26117   -26427   -26512   -26611   -26778   -26599 
  -26470   -26551   -26441   -26306   -26121   -25933   -26041   -26131 
  -26339   -26858   -26978   -26632   -26288   -26277   -26890   -27189 
  -26430   -25847   -25996   -26096   -26229   -26685   -27043   -27133 
  -27099   -26862   -26565   -26558   -26345   -25758   -25968   -26748 
  -26738   -26365   -26308   -26326   -26576   -26943   -26947   -27036 
  -27383   -27009   -26029   -25822   -26638   -27286   -26740   -25864 
  -26187   -26994   -27211   -27310   -27356   -27187   -26875   -26368 
  -26260   -26584   -26623   -26534   -26466   -26358   -26433   -26433 
  -26568   -27093   -27017   -26630   -27207   -27656   -26815   -26133 
  -26500   -26784   -26495   -26252   -26372   -26593   -26644   -26688 
  -26856   -27125   -27197   -26689   -26212   -26249   -26296   -26254 
  -26346   -26678   -27076   -26989   -26572   -26273   -26195   -26399 
  -26395   -26144   -26322   -26570   -26464   -26465   -26796   -27171 
  -26863   -25891   -25628   -26345   -26777   -26518   -26319   -26613 
  -26866   -26682   -26757   -27255   -26967   -25791   -25168   -25617 
  -26694   -27490   -27209   -26838   -26682   -25601   -24861   -25720 
  -26661   -27093   -27367   -27338   -27391   -27031   -25870   -25573 
  -26615   -27642   -27935   -27141   -26010   -26111   -26582   -26221 
  -26381   -27287   -27314   -26553   -26183   -26261   -26358   -26650 
  -27147   -27179   -26617   -26202   -26360   -26852   -27091   -26723 
  -26360   -26505   -26368   -25558   -25344   -26373   -27256   -27094 
  -26784   -26937   -26790   -26040   -25891   -26484   -26584   -26399 
  -26480   -26349   -26195   -26434   -26751   -26998   -27020   -26549 
  -26121   -26307   -26600   -26450   -26257   -26472   -26639   -26427 
  -26330   -26507   -26747   -26920   -26554   -25963   -26257   -26905 
  -26817   -26727   -27032   -26929   -26592   -26196   -25423   -25323 
  -26252   -26680   -26620   -26867   -26792   -26433   -26360   -26326 
  -26337   -26426   -26358   -26622   -27202   -26854   -25924   -25956 
  -26561   -26971   -27217   -27052   -27021   -27403   -27122   -26478 
  -26341   -26026   -25710   -26117   -26414   -26428   -26896   -27226 
  -26738   -26161   -26192   -26547   -27005   -27318   -27040   -26603 
  -26325   -26040   -26272   -26773   -26644   -26496   -26874   -27206 
  -27515   -27741   -27399   -27116   -26951   -26082   -25408   -25712 
  -26125   -26314   -26312   -26300   -26757   -27071   -26842   -26671 
  -26635   -26819   -27152   -26950   -26408   -26065   -25941   -26148 
  -26277   -26075   -26411   -27136   -27097   -26717   -26647   -26393 
  -26007   -25760   -25731   -26194   -26485   -26208   -26084   -26257 
  -26720   -27114   -26839   -26711   -26817   -26501   -26827   -27830 
  -28008   -27321   -26237   -25375   -25683   -26308   -26325   -26746 
  -27444   -27170   -26667   -26727   -26696   -26759   -26993   -26512 
  -25947   -26092   -25926   -25448   -25910   -26771   -26889   -26924 
  -27660   -28054   -27168   -26130   -25926   -25898   -25508   -25230 
  -25839   -26855   -26919   -26415   -26627   -27284   -27280   -26441 
  -25852   -26179   -26716   -26940   -26939   -26751   -26577   -26550 
  -26531   -26433   -26503   -26932   -27279   -27414   -27641   -27429 
  -26438   -25748   -25996   -26123   -25704   -25956   -26894   -27396 
  -27340   -26612   -25554   -25510   -26268   -26666   -26789   -26943 
  -27033   -27186   -27097   -26302   -25833   -26416   -26704   -26418 
  -26617   -27017   -27155   -27022   -26406   -25868   -25951   -26184 
  -26275   -26249   -26187   -26254   -26246   -26130   -26337   -26765 
  -26923   -26929   -26959   -26696   -26330   -26383   -26707   -26775 
  -26179   -25564   -25861   -26234   -26223   -26705   -27268   -27425 
  -27376   -26833   -26300   -26283   -26472   -26906   -27098   -26724 
  -26353   -26173   -26453   -27017   -27114   -26863   -26588   -26620 
  -27106   -27093   -26601   -26769   -27117   -26600   -25508   -25029 
  -25868   -26964   -27045   -26626   -26882   -27681   -27650   -26779 
  -26373   -26307   -26028   -25583   -25110   -25465   -26509   -26779 
  -26427   -26401   -26572   -26812   -27043   -26689   -26206   -26628 
  -27174   -26886   -26272   -25805   -26098   -27028   -27118   -26715 
  -27010   -27145   -26501   -25976   -26238   -27117   -27565   -26778 
  -25836   -25907   -26347   -26300   -25921   -25942   -26489   -26829 
  -26940   -27221   -27523   -27764   -27473   -26442   -25910   -26194 
  -26229   -26234   -26680   -27048   -27085   -26767   -26500   -26812 
  -27067   -26781   -26478   -26299   -26133   -26134   -26003   -25654 
  -25830   -26424   -26734   -27013   -27272   -27186   -27025   -26740 
  -26466   -26663   -26921   -27000   -26720   -25847   -25412   -25585 
  -25845   -26748   -27261   -26635   -26655   -27210   -26855   -26428 
  -26730   -26869   -26482   -26122   -26014   -26428   -27261   -27345 
  -26597   -26376   -26698   -26584   -26325   -26407   -26428   -26416 
  -26484   -26505   -26866   -27203   -26854   -26586   -26511   -25812 
  -25265   -25564   -26230   -27081   -27533   -27307   -26997   -26626 
  -26532   -26824   -26708   -26511   -26372   -25874   -25821   -26211 
  -26584   -27423   -27577   -26315   -25794   -26470   -26817   -26968 
  -26977   -26248   -25558   -25751   -26454   -26821   -26611   -26458 
  -26354   -26109   -26519   -27174   -26929   -26592   -26958   -27275 
  -26933   -26050   -25465   -25736   -26176   -26292   -26468   -27017 
  -27513   -27162   -26235   -26176   -27261   -27608   -26708   -26445 
  -27079   -27299   -26716   -25848   -25814   -26442   -26430   -26389 
  -27149   -27641   -27209   -26547   -26293   -26343   -26302   -25852 
  -25293   -25697   -26856   -27442   -27550   -27677   -27423   -26485 
  -25207   -24754   -25720   -27086   -27627   -27021   -26431   -26742 
  -26647   -25890   -25995   -26455   -26404   -26740   -26929   -26320 
  -26482   -27214   -27085   -26905   -26815   -25949   -25363   -25537 
  -25575   -26011   -27160   -27614   -27153   -26929   -26790   -26450 
  -26545   -26615   -26283   -26338   -26715   -26881   -26794   -26661 
  -26784   -26770   -26087   -25442   -25821   -26947   -27729   -27561 
  -26839   -26437   -26476   -26238   -25890   -26538   -27626   -27376 
  -26276   -26140   -26974   -27583   -27120   -25975   -25608   -25986 
  -25840   -25698   -26518   -27430   -27648   -27326   -26592   -26237 
  -26881   -27210   -26334   -25550   -25728   -26457   -27253   -27359 
  -26781   -26433   -26107   -25712   -26180   -27004   -26897   -26288 
  -26087   -26049   -25868   -25880   -25971   -26015   -26617   -27468 
  -27481   -26870   -26381   -26138   -26381   -26808   -26441   -25909 
  -26218   -26138   -25583   -26657   -28372   -28239   -27211   -26697 
  -26509   -26302   -25620   -25390   -26358   -26719   -26077   -26169 
  -26955   -27363   -27136   -26663   -26499   -26387   -25956   -25848 
  -26596   -27298   -26967   -26532   -26694   -26640   -26574   -26797 
  -26735   -26704   -26697   -26142   -25608   -25772   -26642   -27672 
  -27700   -26634   -25902   -26084   -26337   -26223   -26268   -26936 
  -27787   -27676   -26519   -25764   -26179   -26773   -26447   -26059 
  -26801   -27382   -26877   -26611   -26806   -26758   -26570   -26141 
  -25809   -26276   -26808   -26739   -26781   -27082   -26901   -26345 
  -26341   -26936   -27102   -26497   -26119   -26442   -26508   -26253 
  -26796   -27569   -27241   -26373   -26171   -26838   -27504   -26836 
  -25473   -25713   -27047   -26936   -25776   -25743   -26688   -27039 
  -26859   -26993   -27075   -27004   -27122   -26902   -26519   -26555 
  -26484   -26156   -25936   -26106   -26785   -27120   -26862   -26796 
  -26692   -26414   -26399   -26325   -26401   -26990   -27226   -26851 
  -26329   -25801   -26021   -26959   -27014   -26380   -26512   -27032 
  -27278   -27459   -27400   -26816   -26063   -25880   -26195   -26391 
  -26786   -27468   -27577   -27083   -26650   -26530   -26469   -26049 
  -25659   -25988   -26580   -26379   -25686   -25955   -26820   -26835 
  -26334   -26272   -26832   -27164   -26377   -25602   -25822   -26115 
  -26226   -26653   -27252   -27656   -27238   -26262   -26222   -26754 
  -26358   -25732   -26131   -27060   -27286   -26701   -26501   -26797 
  -26481   -25901   -26006   -26404   -26721   -26933   -26528   -25953 
  -26133   -26099   -25159   -24745   -25501   -26515   -27276   -27976 
  -28665   -28617   -27427   -26287   -26052   -25853   -25122   -24460 
  -24447   -25146   -26131   -26887   -27579   -28294   -28358   -27708 
  -26977   -26318   -25821   -25625   -25635   -25705   -25852   -26501 
  -27407   -27711   -27745   -27801   -27382   -26698   -25656   -24344 
  -24367   -25759   -26497   -26360   -26701   -27148   -26775   -26496 
  -26701   -26666   -26604   -26462   -26190   -26545   -26833   -26468 
  -26590   -26956   -26670   -26365   -26144   -25631   -25710   -26757 
  -27669   -27851   -27278   -26184   -25758   -26096   -26261   -26654 
  -27306   -27448   -27207   -26512   -25490   -25459   -26751   -27796 
  -27769   -28004   -28887   -28705   -27340   -26126   -25393   -25501 
  -26203   -26353   -26418   -27052   -27210   -26446   -25726   -25807 
  -26492   -26762   -26063   -25335   -25394   -25706   -25948   -26766 
  -28239   -29177   -28836   -28001   -27592   -27348   -26261   -24618 
  -24158   -24942   -25655   -26123   -26543   -26959   -27279   -26993 
  -26404   -26194   -26110   -26160   -26758   -27600   -28246   -28082 
  -26811   -25843   -25722   -25007   -24270   -25188   -26738   -27450 
  -27351   -26828   -26627   -26635   -25938   -25270   -25848   -26875 
  -27013   -26806   -27179   -27584   -27704   -27907   -27842   -27055 
  -26118   -25702   -25447   -25182   -25494   -26207   -26565   -26546 
  -26734   -27345   -27714   -27456   -27006   -26592   -26451   -26302 
  -25454   -25119   -26001   -26308   -26019   -26565   -27329   -27560 
  -27405   -26711   -25893   -25871   -26469   -26665   -26360   -26388 
  -26541   -26061   -25813   -26708   -27953   -28748   -28807   -27955 
  -27002   -26572   -25898   -24938   -25027   -26310   -27086   -26721 
  -26802   -27873   -28247   -27206   -25952   -25417   -25664   -26273 
  -26642   -27012   -27391   -26855   -25990   -26145   -26989   -27554 
  -27557   -27167   -26497   -25797   -25620   -25762   -25544   -25168 
  -25200   -25586   -26333   -27722   -28838   -28540   -27409   -26333 
  -25520   -24993   -25016   -26468   -28310   -28155   -27037   -26898 
  -27074   -26823   -25918   -24991   -25408   -26308   -26389   -26366 
  -26647   -26978   -27049   -26138   -24773   -24468   -25381   -26805 
  -28017   -28067   -27071   -26088   -25276   -24872   -25633   -26973 
  -27672   -27481   -26727   -25778   -25124   -25261   -26055   -26998 
  -27823   -28007   -27167   -26233   -26391   -26843   -26395   -25982 
  -26185   -26019   -25177   -24374   -24877   -26901   -28391   -28090 
  -27180   -26890   -26855   -26121   -25324   -25901   -27151   -27495 
  -27148   -27029   -27209   -27367   -27375   -27178   -26919   -26824 
  -26495   -25755   -25369   -25587   -25848   -26010   -26576   -27602 
  -28300   -27966   -26831   -26072   -26284   -26904   -27692   -28260 
  -27738   -26419   -25579   -25693   -25952   -25678   -25508   -26368 
  -27706   -28084   -27653   -27649   -27819   -27218   -26080   -25432 
  -25658   -25818   -25635   -26061   -26758   -26909   -26963   -26964 
  -26484   -25994   -26029   -26353   -26678   -26983   -27114   -27207 
  -27491   -27278   -26468   -25917   -25605   -25655   -26350   -26986 
  -27591   -28209   -27922   -27078   -26349   -25135   -23928   -24144 
  -25101   -25539   -25979   -26882   -27849   -28570   -28746   -27986 
  -26400   -25212   -25147   -25299   -25365   -26122   -27290   -27635 
  -26703   -25647   -25816   -26624   -26725   -26423   -26932   -27738 
  -27396   -26072   -24710   -24331   -25552   -27143   -28144   -28950 
  -28999   -27827   -26626   -26133   -25843   -25608   -25632   -25721 
  -25978   -26376   -26229   -26146   -27097   -27518   -26416   -25920 
  -26924   -27853   -28015   -27507   -26613   -26262   -26331   -26121 
  -26098   -26210   -25791   -25369   -25741   -27039   -28621   -29120 
  -28005   -26350   -25515   -25855   -26495   -26075   -24854   -24857 
  -26218   -27180   -27527   -27679   -27380   -26646   -25512   -24802 
  -25876   -27658   -28192   -27861   -27218   -26068   -25226   -25083 
  -25174   -25929   -27626   -28873   -28367   -27136   -26257   -25097 
  -24340   -25114   -26426   -27472   -28236   -28433   -28040   -26798 
  -24981   -24268   -25114   -26141   -27005   -28138   -28653   -27580 
  -26002   -25513   -25879   -26377   -26929   -27132   -27070   -27275 
  -27326   -27039   -26890   -26923   -26960   -26704   -26188   -26269 
  -27044   -27356   -26590   -25458   -25010   -25336   -25978   -27029 
  -27893   -27252   -26086   -26396   -27268   -27216   -26680   -25898 
  -25408   -25910   -26485   -26844   -27184   -26659   -25462   -24727 
  -25230   -26563   -27230   -27328   -27517   -27075   -26416   -26547 
  -27062   -27290   -26870   -26104   -25505   -25077   -25128   -25685 
  -26485   -27606   -28298   -27791   -26713   -25818   -25506   -26003 
  -26289   -25663   -25667   -26898   -27633   -27503   -27533   -27827 
  -27977   -27483   -26512   -26122   -26264   -26214   -26098   -25964 
  -25887   -26246   -26449   -26021   -26084   -27125   -27778   -27298 
  -26426   -26005   -26152   -26180   -26017   -26435   -27112   -27054 
  -26383   -25860   -25645   -25554   -25651   -25898   -26304   -27094 
  -27904   -27920   -27178   -26669   -26549   -26095   -25698   -25893 
  -26100   -26265   -26568   -26613   -26804   -27483   -27769   -27324 
  -26635   -26055   -25905   -25907   -25621   -25790   -27020   -28433 
  -28930   -28167   -26653   -25401   -25046   -25687   -26692   -27009 
  -26650   -26167   -25897   -26268   -26843   -27190   -27807   -28075 
  -27132   -26059   -26122   -26724   -26462   -25620   -25591   -26214 
  -26673   -27029   -27221   -27160   -26890   -26322   -26225   -26833 
  -26824   -26198   -25731   -25370   -26003   -27353   -27172   -25999 
  -25841   -25898   -25389   -25635   -26908   -28016   -28277   -27608 
  -26846   -26927   -26893   -26061   -25732   -26122   -26113   -25866 
  -26361   -27364   -27510   -26666   -25774   -24968   -24883   -26154 
  -27576   -28264   -28325   -27715   -26808   -25845   -25024   -25200 
  -26265   -27005   -27159   -27409   -27730   -27607   -27044   -26249 
  -25766   -26017   -26261   -26277   -26782   -27117   -26354   -25500 
  -25697   -26491   -27037   -27174   -27174   -27302   -27336   -26900 
  -26395   -26234   -26119   -26117   -26185   -25739   -25294   -25632 
  -26342   -26894   -27099   -27199   -27579   -27707   -26937   -25709 
  -25193   -25937   -26727   -26295   -25627   -26050   -26975   -27330 
  -26964   -26617   -27082   -27608   -27175   -26504   -26334   -26457 
  -26450   -25983   -26029   -27380   -28640   -28714   -27787   -26202 
  -25074   -25092   -25490   -26087   -27067   -27479   -27031   -26739 
  -26865   -26788   -26204   -25556   -25500   -25844   -25972   -25984 
  -26620   -27884   -28468   -27935   -27052   -25891   -24958   -25135 
  -25704   -26005   -26396   -26743   -26993   -27409   -27508   -26766 
  -25839   -25818   -26527   -27103   -27330   -26989   -26204   -25687 
  -25076   -24397   -25200   -27108   -28304   -28764   -28536   -27237 
  -25953   -25481   -25313   -25417   -26122   -27037   -27407   -27255 
  -26821   -25861   -25493   -26570   -27299   -26886   -26207   -25645 
  -25620   -25713   -25818   -26950   -28069   -28066   -27905   -27788 
  -27546   -27012   -25853   -25496   -26497   -27143   -27022   -26951 
  -27020   -26859   -26299   -25610   -25338   -25986   -26684   -26293 
  -26156   -27116   -27440   -26647   -25936   -25728   -26095   -26995 
  -27521   -27108   -26565   -26071   -25153   -25201   -26727   -27571 
  -27421   -27414   -27311   -27234   -26993   -25857   -24977   -25385 
  -26096   -26133   -25654   -25386   -25937   -27145   -27886   -27676 
  -27534   -27749   -27544   -26829   -26065   -26203   -27432   -27669 
  -26325   -25359   -24945   -24896   -26083   -27500   -28013   -27939 
  -27486   -27064   -26788   -26119   -25558   -26080   -27058   -26948 
  -25629   -24718   -25339   -26659   -27544   -27814   -27711   -27633 
  -27190   -25980   -25458   -26271   -26739   -26392   -26310   -26599 
  -26735   -26593   -26465   -26750   -27066   -26715   -26299   -26573 
  -26851   -26590   -26446   -26887   -27263   -26832   -26152   -26065 
  -26368   -26879   -27159   -26295   -25427   -25814   -26300   -26685 
  -27469   -27522   -26806   -26383   -25799   -24848   -24733   -25851 
  -26939   -27039   -26682   -26435   -26437   -26956   -27546   -27572 
  -27264   -26923   -26561   -26068   -25551   -25556   -26192   -26848 
  -27121   -27294   -27313   -26731   -26152   -25805   -25096   -24943 
  -25979   -27028   -27581   -27797   -27904   -28337   -28158   -26595 
  -25041   -24495   -24842   -25763   -26339   -26423   -26554   -26557 
  -26638   -27055   -27017   -26491   -26482   -26828   -26688   -26553 
  -27081   -27525   -27166   -26358   -26030   -26588   -26836   -26158 
  -25851   -25953   -25793   -26296   -27465   -28067   -27672   -26505 
  -25668   -25987   -26553   -26546   -26554   -26962   -26551   -25326 
