Origin Time       2024/04/02 04:24:00
Lat.              40.133
Long.             141.712
Depth. (km)       71
Mag.              6.0
Station Code      FKS010
Station Lat.      37.2338
Station Long.     141.0018
Station Height(m) 43
Record Time       2024/04/02 04:25:55
Sampling Freq(Hz) 100Hz
Duration Time(s)  80
Dir.              U-D
Scale Factor      7845(gal)/8223790
Max. Acc. (gal)   2.200
Last Correction   2024/04/02 04:25:54
Memo.             
[...]
   19029    18962    18850    18661    18488    18489    18566    18539 
   18513    18509    18360    18095    17982    18134    18287    18135 
   17794    17643    17809    18080    18374    18616    18600    18540 
   18739    18860    18519    18126    18334    18839    18878    18561 
   18532    18839    18871    18517    18396    18644    18773    18630 
   18594    18949    19364    19406    19195    18855    18362    18179 
   18567    18912    18881    18827    18858    18798    18679    18671 
   18750    18802    18937    19143    19186    19140    19211    19276 
   19202    19070    18875    18585    18422    18562    18706    18512 
   18208    18227    18328    18108    18048    18569    19219    19495 
   19338    19240    19583    19785    19508    19327    19376    19210 
   18804    18509    18516    18708    18682    18277    18042    18285 
   18530    18613    18789    18873    18632    18297    18180    18436 
   18935    19140    18783    18407    18436    18562    18625    18793 
   18958    19040    19118    19043    18733    18428    18260    18149 
   18095    18042    17876    17836    18157    18523    18550    18380 
   18362    18509    18621    18678    18787    18817    18549    18214 
   18191    18378    18431    18360    18493    18775    18801    18759 
   19057    19392    19413    19206    18948    18894    19101    19259 
   19168    18951    18792    18594    18322    18439    18972    19184 
   18806    18323    18121    18199    18370    18345    18149    18256 
   18636    18794    18836    19130    19422    19282    19030    19174 
   19365    19213    18918    18620    18523    18733    18751    18451 
   18312    18331    18239    18126    18164    18285    18237    17952 
   17809    18084    18392    18416    18482    18796    19086    19128 
   19091    19251    19388    19137    18781    18721    18685    18374 
   18100    18091    18141    18121    18079    18067    18238    18612 
   18810    18665    18605    18858    19094    19051    18883    18898 
   19063    19032    18746    18597    18850    19267    19402    19078 
   18759    18893    19121    19062    18820    18567    18517    18740 
   18873    18679    18434    18380    18499    18713    18847    18862 
   18873    18696    18327    18234    18476    18628    18558    18523 
   18758    19099    19248    19206    18928    18478    18401    18743 
   18719    18296    18264    18586    18671    18458    18184    18037 
   18015    18121    18473    18775    18713    18578    18689    18885 
   18848    18607    18478    18592    18798    18895    18817    18705 
   18675    18650    18635    18828    19143    19255    19225    19207 
   19082    18882    18763    18729    18765    18827    18879    18925 
   18823    18615    18613    18700    18574    18364    18192    18139 
   18334    18492    18407    18374    18513    18628    18553    18345 
   18338    18477    18511    18631    18698    18608    18828    19111 
   19012    18931    18986    18920    18870    18997    19224    19300 
   19116    18937    18909    18894    19018    19341    19411    19106 
   18877    18913    19107    19203    19036    18917    18918    18879 
   18989    18975    18642    18640    18835    18547    18177    18161 
   18289    18405    18458    18592    18771    18603    18303    18345 
   18427    18175    17770    17610    17942    18392    18438    18338 
   18432    18426    18146    17871    17880    18198    18566    18793 
   18879    18783    18658    18725    18742    18536    18312    18165 
   18249    18617    18800    18573    18462    18746    18976    18945 
   18987    19174    19303    19363    19315    19049    18725    18570 
   18523    18470    18496    18705    18898    18821    18648    18708 
   18875    18763    18526    18553    18515    18330    18590    18986 
   18792    18405    18485    18881    19111    18920    18542    18445 
   18549    18535    18493    18573    18777    19021    19116    19089 
   19113    19128    19035    18901    18742    18577    18644    18975 
   19118    18914    18765    18711    18503    18306    18301    18420 
   18569    18642    18717    18881    18945    18922    18962    18908 
   18731    18655    18719    18717    18496    18346    18640    19070 
   19168    19126    19288    19530    19552    19249    18719    18185 
   18057    18461    18751    18635    18721    19048    19107    18960 
   18836    18868    19047    18955    18569    18391    18396    18299 
   18203    18223    18387    18639    18744    18712    18727    18642 
   18377    18144    18064    18152    18324    18504    18663    18644 
   18463    18420    18557    18563    18493    18704    18975    19002 
   19005    18851    18449    18415    18775    18858    18549    18227 
   18269    18571    18584    18449    18743    19089    18881    18495 
   18481    18688    18658    18458    18503    18589    18401    18339 
   18609    18802    18692    18523    18704    19211    19414    19035 
   18662    18700    18836    18698    18300    18188    18569    18702 
   18430    18389    18554    18646    18628    18360    18162    18434 
   18686    18566    18500    18562    18405    18195    18230    18341 
   18400    18555    18796    18948    18970    18998    19151    19252 
   19060    18912    19184    19384    19138    18964    19111    19226 
   19180    19103    19111    19251    19291    18990    18588    18451 
   18445    18179    17867    18050    18365    18208    18134    18647 
   19111    19002    18628    18484    18644    18787    18821    18835 
   18731    18634    18739    18767    18600    18632    18981    19192 
   18867    18320    18311    18868    19145    18824    18532    18611 
   18779    18832    18762    18623    18484    18515    18789    18913 
   18743    18670    18796    18982    19018    18751    18574    18743 
   18936    18866    18534    18300    18540    19006    19079    18697 
   18492    18740    18914    18623    18181    18057    18274    18611 
   18868    18913    18883    18989    19236    19449    19354    18908 
   18351    18129    18474    18702    18297    18029    18324    18524 
   18252    17899    18025    18501    18597    18307    18280    18544 
   18712    18758    18824    18771    18473    18287    18520    18873 
   18998    18921    18736    18557    18512    18627    18886    19076 
   18974    18779    18681    18520    18245    18095    18300    18624 
   18669    18615    18742    18905    18920    18762    18635    18640 
   18373    17887    17950    18558    18955    18989    18862    18601 
   18481    18616    18631    18500    18539    18729    19017    19394 
   19402    18792    18153    18044    18366    18732    18797    18677 
   18715    18708    18531    18536    18565    18457    18589    18756 
   18769    18913    18885    18624    18677    18895    18956    19005 
   18955    18607    18374    18775    19380    19257    18462    18183 
   18785    19206    19032    18867    19074    19549    19683    19246 
   18975    18995    18836    18704    18736    18628    18339    17875 
   17450    17709    18441    18523    17986    17852    18156    18283 
   18235    18512    19106    19129    18436    18145    18501    18652 
   18454    18358    18431    18585    18771    18987    19325    19554 
   19360    18947    18731    18841    19099    19242    19064    18642 
   18499    18870    19238    19110    18647    18451    18682    18696 
   18272    18030    18239    18588    18783    18769    18759    18898 
   19060    19134    18909    18364    18129    18424    18665    18817 
   19224    19408    19152    19075    19114    18851    18630    18700 
   18879    18963    18806    18561    18439    18405    18424    18430 
   18285    18177    18366    18566    18495    18399    18465    18628 
   18729    18708    18755    18786    18636    18621    18779    18640 
   18245    18072    18229    18543    18867    18955    18697    18582 
   19008    19342    19148    19041    19136    18900    18397    17983 
   17803    17890    18148    18345    18292    18225    18489    18955 
   19133    18779    18400    18480    18755    19132    19503    19387 
   19153    19290    19202    18719    18536    18851    19197    19098 
   18669    18544    18812    18860    18531    18245    18285    18551 
   18673    18634    18955    19450    19408    19032    18773    18636 
   18516    18204    17886    17847    17775    17602    17574    17682 
   18013    18516    18904    19116    19039    18797    18948    19379 
   19376    18873    18426    18387    18431    18054    17644    17856 
   18296    18461    18562    18712    18912    19213    19195    18512 
   17729    17767    18536    18936    18654    18532    18817    18955 
   18882    18944    19060    18854    18422    18364    18736    18936 
   18929    19144    19310    18998    18651    18777    19002    18927 
   18839    19016    19283    19307    18945    18551    18729    19264 
   19163    18431    18215    18864    19546    19693    19695    19704 
   19255    18716    18763    18999    18922    18592    18308    18412 
   18824    19151    19132    18882    18882    19074    18912    18654 
   18732    18821    18833    18976    19043    18912    18738    18692 
   18787    18644    18264    18241    18582    18881    19045    19039 
   18796    18418    18226    18355    18570    18932    19408    19349 
   18854    18671    18544    18249    18477    18925    18670    18152 
   18065    18364    18863    19145    19074    19122    19342    19234 
   18636    18088    18148    18416    18175    17842    18277    19028 
   19124    18775    18669    18790    18621    18103    18115    18922 
   19531    19512    19207    18941    18941    19006    18862    18519 
   18154    18068    18094    18002    18115    18409    18454    18257 
   18145    18284    18562    18808    18851    18684    18651    18886 
   18905    18439    18099    18351    18754    18947    19117    19323 
   19268    18729    18130    18198    18720    18648    17976    17953 
   18667    18937    18771    18701    18441    18130    18079    18227 
   18738    19109    18576    17810    17722    17953    18046    18076 
   18157    18513    19020    19242    19261    19251    19310    19515 
   19448    18999    18728    18696    18698    18809    18819    18702 
   18832    18910    18674    18670    18944    19025    18998    19109 
   19386    19627    19375    18661    18114    17934    17833    17675 
   17550    17809    18692    19558    19813    19923    20061    19708 
   18978    18351    17988    17968    18308    18844    19226    19233 
   19075    18786    18229    17991    18238    18103    17739    17798 
   17867    17888    18166    18285    18172    18180    18323    18636 
   18816    18512    18380    18562    18164    17601    17936    18720 
   19140    19228    19309    19418    19252    18823    18555    18304 
   17833    17678    17811    17652    17599    18071    18700    19121 
   19124    18854    18766    19094    19564    19418    18423    17466 
   17274    17608    18158    18917    19446    19426    19359    19286 
   18855    18616    18717    18291    17413    17135    17795    18836 
   19444    19306    18929    18685    18463    18339    18277    18100 
   18115    18553    19014    19184    19233    19252    19168    19116 
   19178    19184    19030    18785    18588    18615    18785    18720 
   18311    17940    17917    18189    18652    19171    19460    19477 
   19523    19743    20025    20198    20029    19477    18895    18462 
   18061    17887    18195    18682    18901    18847    18682    18418 
   18203    18216    18141    17699    17404    17678    18310    18966 
   19255    19155    19097    19094    18966    18829    18688    18571 
   18720    18827    18361    17797    17907    18492    18881    18657 
   18094    18139    18797    18963    18550    18459    18920    19333 
   19282    19176    19394    19408    18840    18206    18073    18399 
   18774    18922    18860    18806    18997    19302    19426    19457 
   19577    19600    19321    19006    18916    18850    18706    18582 
   18601    18962    19448    19519    19163    18935    19145    19334 
   19082    18693    18555    18804    19345    19660    19614    19753 
   19954    19500    18542    17932    17988    18202    18215    18459 
   19018    19197    18999    19026    19182    19076    18675    18081 
   17601    17648    17992    17888    17409    17369    17783    18198 
   18732    19323    19485    19311    19201    18964    18414    17963 
   17996    18395    18617    18276    17871    18021    18420    18601 
   18696    18846    18960    19067    19359    19919    20289    19938 
   19179    18677    18711    19219    19687    19395    18392    17744 
   18133    18760    18728    18387    18316    18400    18401    18198 
   17768    17458    17691    18393    18786    18419    18053    18261 
   18578    18643    18517    18310    18220    18419    18596    18041 
   17082    17022    17810    18245    17975    17710    18133    18708 
   18404    17729    17786    18123    18087    18083    18049    17817 
   17961    18293    18362    18507    18800    19315    20069    20283 
   19881    19533    19337    19187    18885    18400    18378    18831 
   18890    18586    18732    19238    19421    19278    19188    19299 
   19244    18517    17703    17562    17795    18220    18778    19364 
   20301    20989    20717    20221    19685    18806    18341    18436 
   18384    18374    18916    19615    19836    19549    19024    18469 
   18056    17940    18037    17783    17073    16605    16491    16503 
   17178    18509    19446    19831    20174    20160    19822    19916 
   20177    19969    19691    19773    19824    19356    18648    18445 
   18611    18404    18102    18415    18940    19041    19124    19519 
   19531    18756    18019    17918    17928    17766    17896    18326 
   18528    18588    18922    19221    19264    19407    19359    19026 
   19290    19953    20050    19699    19218    18596    18134    18044 
   18115    18196    18381    18488    18068    17455    17363    17475 
   17161    16777    16985    17834    18785    19211    19035    18731 
   18623    18688    18920    19172    19144    18982    19133    19587 
   19742    19194    18287    17791    18225    19048    19098    18284 
   17644    17547    17458    17452    18036    18856    19353    19573 
   19502    19168    19102    19411    19410    18829    18446    18933 
   19743    20112    20170    20025    19604    19272    18878    17983 
   17208    17265    17838    18246    18121    17902    18318    19047 
   19283    18998    18685    18814    19386    19772    19467    18627 
   17706    17091    17076    17632    18360    18781    18674    18420 
   18312    18222    18362    18639    18454    18117    18366    18981 
   19291    19271    19174    18897    18496    18144    17794    17923 
   18750    19094    18449    17976    18129    18337    18505    18716 
   18966    19170    19067    18913    19026    19106    19175    19404 
   19240    18534    18146    18360    18534    18357    18168    18273 
   18430    18497    18801    19242    19364    19056    18439    17587 
   16715    16398    16823    17390    17604    17639    18075    18910 
   19503    19890    20302    20124    19110    18084    18049    19117 
   20024    19738    18975    18719    18762    18484    18068    18354 
   19236    19602    19276    19057    19496    20429    20772    20088 
   19414    19111    18736    18530    18686    18997    19406    19564 
   19188    18832    18852    18839    18585    18365    18337    18268 
   18189    18759    19818    19946    18759    17743    17788    17913 
   17278    16699    16923    17231    17145    17253    17710    18215 
   18631    18798    18952    19354    19631    19504    19052    18496 
   18107    17952    18133    18577    18835    18848    18999    19413 
   19673    19256    18395    18079    18847    19831    19867    19303 
   19268    19712    19742    19352    19240    19325    19160    18867 
   18694    18831    19060    18701    17857    17325    17471    18072 
   18567    18806    19205    19677    19881    20090    20240    19711 
   18832    18431    18338    18148    17994    17961    18084    18327 
   18409    18306    18241    18432    18936    19068    18288    17334 
   17064    17442    18033    18504    18947    19507    19696    19136 
   18414    18243    18454    18592    18634    18670    18684    18590 
   18384    18397    18723    18839    18472    18069    18279    19079 
   19618    19479    19136    18881    18750    18981    19438    19450 
   18787    18115    18018    18315    18706    19076    19186    19120 
   19149    18976    18387    17899    17983    18308    18203    17776 
   17821    18443    19176    19738    19786    19219    18617    18540 
   18886    19152    19062    18711    18245    17730    17255    16962 
   16962    17293    17929    18698    19318    19546    19377    19075 
   18931    18904    18640    18165    17911    18037    18377    18543 
   18227    17793    17640    17779    18281    18829    18881    18712 
   18781    18958    19111    19253    19294    19206    19055    19010 
   19120    19110    18920    18615    18094    17747    18049    18713 
   19292    19710    20024    20218    20367    20429    20002    19263 
   18837    18796    18994    19097    18719    18237    18107    18153 
   18148    18183    18265    18253    18354    18619    18505    17964 
   17672    18034    18748    19215    19260    19152    18972    18601 
   18123    17847    17950    18235    18403    18612    19053    19241 
   18887    18551    18558    18779    19260    19714    19726    19631 
   19770    19842    19508    18976    18777    18891    18860    18634 
   18408    18214    17963    17698    17558    17597    17932    18447 
   18713    18613    18436    18455    18563    18451    18246    18300 
   18559    18814    19071    19283    19299    19099    18735    18373 
   18258    18314    18370    18623    19171    19573    19467    19144 
   18832    18327    17821    17702    17845    18063    18463    18905 
   18987    18810    18835    19080    19195    19032    18850    18785 
   18765    18960    19074    18470    17647    17490    17921    18535 
   19032    19082    18748    18496    18666    19113    19429    19450 
   19292    19184    19267    19229    18786    18423    18512    18593 
   18355    17971    17729    18017    18558    18625    18461    18659 
   19062    19251    18959    18351    18106    18285    18090    17575 
   17664    18206    18472    18686    19026    18917    18534    18634 
   18851    18705    18704    18972    19207    19480    19680    19599 
   19457    19485    19507    19157    18611    18511    18762    18621 
   18223    18469    19224    19461    19191    19168    19426    19656 
   19685    19269    18582    18157    17994    17784    17581    17653 
   18022    18343    18408    18354    18353    18519    18862    19122 
   19067    18805    18640    18739    19006    19090    18728    18231 
   18129    18349    18419    18215    18114    18465    18937    19029 
   18962    19044    19052    18956    19037    19186    19191    19210 
