Origin Time       2024/04/02 04:24:00
Lat.              40.133
Long.             141.712
Depth. (km)       71
Mag.              6.0
Station Code      FKS017
Station Lat.      37.2844
Station Long.     140.3689
Station Height(m) 259
Record Time       2024/04/02 04:25:49
Sampling Freq(Hz) 100Hz
Duration Time(s)  102
Dir.              U-D
Scale Factor      7845(gal)/8223790
Max. Acc. (gal)   1.620
Last Correction   2024/04/02 04:25:48
Memo.             
[...]
   20235    20223    20595    20629    19994    19596    19831    20075 
   20081    20214    20549    20727    20641    20493    20252    19836 
   19597    19693    19705    19634    19831    19942    19693    19623 
   19894    20086    20123    19998    19689    19611    19818    19872 
   19807    19711    19507    19518    19804    19903    19830    19978 
   20308    20548    20621    20564    20461    20328    20158    20086 
   20197    20301    20331    20432    20568    20725    20891    20691 
   20078    19695    19823    20092    20158    20040    19989    19948 
   19743    19676    19903    20048    20061    20175    20169    19904 
   19773    19811    19726    19735    20021    20131    20058    20420 
   20942    20904    20564    20478    20648    20715    20467    20409 
   20904    21068    20460    20071    20174    19978    19606    19724 
   20070    20167    20217    20457    20795    21016    20945    20799 
   20837    20698    20267    20232    20736    21170    21114    20574 
   20214    20281    19965    19306    19068    19178    19363    19689 
   20090    20333    20274    20034    19831    19704    19518    19489 
   20000    20460    20235    19930    19962    19816    19323    19002 
   19152    19460    19607    19669    19819    19888    19523    19155 
   19557    20151    19982    19739    20245    20776    20580    20092 
   20000    20155    19808    19122    19072    19556    19805    19904 
   20266    20763    20977    20885    20808    20684    20295    19857 
   19672    19649    19575    19526    19549    19641    20016    20420 
   20441    20382    20399    20335    20241    20044    19780    19550 
   19321    19253    19349    19575    19942    20052    19930    20013 
   20148    20081    19953    19953    20160    20470    20696    20837 
   20842    20571    20328    20511    20715    20488    20108    19931 
   20058    20355    20525    20556    20702    20916    20999    20991 
   20926    20844    21004    21130    20695    20502    21100    21312 
   20826    20584    20675    20731    20637    20355    20097    20109 
   20173    20059    20146    20506    20595    20513    20794    21100 
   20923    20814    21096    21051    20713    20760    20822    20464 
   20213    20247    20075    19726    19599    19596    19545    19656 
   19878    19940    20071    20367    20289    19861    19858    20360 
   20561    20173    19997    20376    20452    19989    19483    18939 
   18677    18983    19016    18655    18874    19465    19761    20088 
   20563    20817    20823    20636    20289    19971    19862    19969 
   19920    19461    19141    19317    19541    19620    19583    19369 
   19365    19607    19523    19271    19449    19782    19618    19273 
   19473    19836    19766    19815    20251    20332    19967    19867 
   20220    20497    20379    20316    20594    20737    20474    20140 
   19938    19835    19942    20185    20194    20094    20397    20725 
   20329    19661    19488    19646    19827    19939    20169    20772 
   21181    21003    20725    20439    20056    19838    19784    19765 
   19715    19735    20040    20515    20962    21011    20406    19959 
   20200    20398    20205    20062    20123    20267    20506    20682 
   20609    20660    20943    20818    20341    20183    20136    19880 
   19831    20070    20174    20071    20044    20102    19920    19548 
   19572    20148    20402    19881    19669    20196    20301    19977 
   20119    20216    19791    19446    19523    20008    20520    20575 
   20622    20934    20815    20277    20028    19974    19704    19581 
   19865    20032    19986    20117    20326    20478    20607    20667 
   20734    20746    20609    20445    20147    19627    19238    19210 
   19321    19444    19932    20738    21142    21132    21232    21324 
   21231    21024    20676    20260    19746    19306    19441    19711 
   19491    19429    19824    20059    20052    19904    19557    19500 
   19830    19867    19917    20591    20898    20347    20152    20561 
   20854    21062    21276    21421    21627    21541    21027    20808 
   20812    20375    19880    19715    19727    19892    19845    19577 
   19726    20108    20321    20563    20614    20375    20374    20476 
   20240    19994    20038    20039    19847    19654    19357    18886 
   18752    19170    19415    19218    19241    19506    19638    19846 
   20008    19816    19642    19772    20009    20119    20008    19747 
   19408    19165    19140    19160    19278    19697    20289    20736 
   20788    20653    20579    20316    19982    19962    20001    19959 
   20082    20259    20313    20445    20626    20529    20383    20387 
   20218    20173    20592    20784    20422    20090    19980    19909 
   19904    19996    20244    20617    20853    20752    20503    20544 
   20749    20610    20170    19801    19793    20036    20071    20171 
   20683    20783    20186    19769    19677    19587    19641    19712 
   19716    20012    20456    20545    20271    20112    20270    20352 
   20281    20355    20483    20590    20709    20691    20588    20471 
   20112    19631    19662    20110    20039    19562    19533    19658 
   19495    19356    19330    19569    20227    20579    20322    20179 
   20322    20484    20661    20652    20457    20437    20507    20518 
   20714    21074    21286    21385    21421    21096    20425    19911 
   19855    20020    19881    19508    19687    20440    20844    20644 
   20511    20736    20710    20231    20151    20634    20744    20363 
   20136    20133    20227    20463    20667    20683    20583    20331 
   19928    19755    19904    19726    19053    18732    19075    19531 
   19795    19908    20063    20305    20390    20374    20212    19577 
   18890    18771    18921    18833    18756    19207    19989    20376 
   20289    20258    20229    19901    19619    19568    19438    19315 
   19612    20295    20702    20551    20433    20561    20530    20229 
   19816    19608    19849    20201    20056    19427    19165    19611 
   19938    19809    19943    20632    21180    21014    20646    20649 
   20638    20418    20416    20574    20505    20495    20898    21066 
   20513    19959    20017    20189    19869    19449    19553    19885 
   19849    19589    19577    19623    19315    19121    19519    19836 
   19651    19608    19920    20194    20290    20341    20630    20799 
   20278    19855    20167    20439    20370    20359    20437    20599 
   20711    20522    20371    20503    20549    20426    20263    20092 
   20167    20484    20633    20460    20152    19927    19917    20078 
   20074    19869    20027    20605    21003    20996    20773    20677 
   20700    20525    20368    20474    20488    20304    20360    20636 
   20679    20545    20310    19890    19635    19626    19575    19674 
   20005    20209    20286    20294    20140    20147    20447    20667 
   20752    20757    20584    20544    20788    20835    20449    19951 
   19624    19400    19307    19673    20204    20217    19873    19508 
   19192    19329    19750    19830    19959    20478    20758    20511 
   20021    19637    19664    19974    20248    20507    20773    20841 
   20578    20248    20142    20032    19719    19485    19708    20182 
   20313    20154    20160    20264    20235    20186    20272    20402 
   20448    20526    20750    20703    20083    19507    19368    19267 
   19191    19368    19437    19349    19646    20032    19782    19302 
   19218    19188    18964    19037    19579    20058    20363    20850 
   21142    20683    20127    20210    20429    20333    20178    20048 
   20023    20191    20267    20244    20252    19816    19195    19402 
   19882    19651    19365    19642    20025    20147    20208    20499 
   20799    20683    20461    20683    21142    21396    21409    21282 
   21154    21115    20889    20371    20110    20325    20457    20405 
   20652    20919    20680    20507    20704    20439    19769    19435 
   19086    18628    18902    19735    20298    20652    20941    20969 
   20925    20906    20750    20383    19641    18850    18621    18662 
   18550    18538    18709    18959    19325    19742    20239    20898 
   21375    21324    21049    20968    20922    20571    20104    20039 
   20283    20158    19859    20306    20889    20332    19691    20189 
   20434    19966    20155    20432    20054    20287    21015    21006 
   20737    20727    20609    20418    20201    19978    19997    20059 
   20059    20241    20480    20655    20698    20424    20061    19899 
   19803    19527    19091    18968    19449    20146    20646    20845 
   20679    20329    20209    20260    20013    19561    19507    19867 
   20167    20412    20711    20694    20243    19807    19731    19832 
   19737    19614    19747    19851    19743    19569    19464    19616 
   19828    19602    19180    19192    19302    18862    18503    18881 
   19287    19360    19507    19724    20001    20317    20518    20957 
   21564    21663    21362    21097    20935    20907    20785    20451 
   20305    20339    20121    19903    20054    20182    20104    20213 
   20518    20634    20434    20186    20034    19826    19778    20294 
   21023    21328    21438    21720    21809    21725    21720    21253 
   20279    19645    19411    19114    19020    19429    19962    20250 
   20297    20245    20214    20034    19668    19608    19692    19454 
   19434    19703    19695    19712    19890    19950    20017    19982 
   19742    19777    20200    20407    20237    20133    20024    19722 
   19616    19881    20272    20690    20999    20838    20436    20455 
   20506    20009    19635    19928    20274    20233    20270    20555 
   20514    20127    19971    20013    19851    19633    19739    20011 
   20034    19885    19858    19931    19908    19822    19946    20274 
   20313    19909    19710    19919    19900    19712    19934    20206 
   20117    20190    20490    20351    20154    20513    20642    20267 
   20291    20524    20231    19838    19854    20152    20601    21084 
   21435    21419    20927    20370    20237    20310    19959    19292 
   18979    19141    19465    19712    19799    19836    19905    19886 
   19754    19637    19508    19379    19453    19643    19610    19363 
   19167    19110    19133    19229    19414    19781    20240    20479 
   20579    20842    21266    21504    21161    20574    20301    20193 
   20254    20522    20578    20626    21007    21312    21320    21195 
   21084    21018    20875    20812    20970    21010    20753    20606 
   20907    21108    20679    20275    20363    20313    20009    20227 
   20956    21092    20487    20293    20324    19637    19083    19299 
   19294    18904    18894    19226    19433    19480    19593    19761 
   19820    19851    19832    19488    19044    19078    19518    19747 
   19696    19886    20127    19901    19726    19996    20205    20115 
   19990    20073    20074    19647    19322    19458    19587    19580 
   19726    20096    20547    20796    20673    20351    20209    20379 
   20502    20379    20440    20908    21213    20974    20729    20752 
   20640    20475    20561    20655    20665    20688    20483    20082 
   19849    19774    19777    20021    20421    20575    20434    20345 
   20359    20177    19723    19298    19194    19313    19431    19507 
   19627    19901    20250    20544    20696    20617    20538    20606 
   20541    20410    20440    20488    20418    20343    20412    20416 
   20213    19989    19587    19188    19434    19861    19835    19827 
   19953    19808    19543    19492    19765    20105    20109    19926 
   19866    19876    19836    19827    20044    20287    20224    20225 
   20548    20749    20741    20856    20935    20700    20541    20614 
   20378    20160    20575    20891    20740    20750    20827    20788 
   20898    20929    20700    20385    20137    20096    20039    19939 
   20198    20534    20336    19847    19703    19909    19978    19934 
   20187    20532    20460    20009    19666    19472    18972    18474 
   18531    18802    19087    19456    19610    19731    20228    20675 
   20603    20390    20414    20433    20281    20183    20263    20385 
   20324    20102    20133    20418    20372    20032    19981    20024 
   19619    19138    19049    19045    19109    19573    20077    20270 
   20343    20302    20200    20260    20399    20457    20402    20279 
   20302    20594    20907    20995    20980    20987    20810    20376 
   20096    20252    20564    20679    20671    20709    20618    20318 
   20031    19739    19433    19319    19390    19481    19426    19359 
   19668    20090    20259    20439    20660    20580    20279    20255 
   20368    19982    19438    19398    19511    19458    19669    20297 
   20869    21091    21062    20838    20498    20289    20267    20297 
   20393    20511    20609    20833    21047    21078    21003    20595 
   19970    19719    19612    19288    19237    19502    19529    19487 
   19784    20128    20252    20422    20764    21072    21163    21062 
   20981    20935    20675    20439    20582    20611    20116    19685 
   19769    19870    19664    19697    20007    19897    19642    20036 
   20677    20741    20475    20505    20656    20495    20143    19962 
   20081    20270    20251    20125    20067    19958    19696    19294 
   18779    18442    18569    18933    19241    19552    19889    20067 
   19917    19576    19413    19515    19606    19461    19340    19572 
   19696    19419    19408    19727    19789    19813    20059    20175 
   20144    20182    20213    20052    19793    19850    20125    20100 
   20058    20480    20899    20819    20668    20858    21023    21003 
   21097    21092    20698    20159    19739    19448    19273    19433 
   19932    20320    20476    20634    20656    20559    20691    20763 
   20391    20042    20075    20137    19892    19697    20090    20721 
   20908    20673    20382    20316    20403    20310    20137    20224 
   20456    20520    20487    20626    20765    20533    20002    19542 
   19384    19359    19263    19350    19770    20236    20564    20775 
   20935    21010    20907    20752    20579    20314    20236    20424 
   20451    20353    20580    20983    21057    20823    20784    20952 
   20895    20830    20930    20665    20155    20015    20139    20106 
   19977    20132    20528    20736    20752    20826    20952    21027 
   21035    20931    20475    19780    19553    19665    19327    18939 
   19128    19400    19302    19043    18904    18978    19079    19082 
   19176    19330    19408    19433    19188    18945    19383    19958 
   19944    19940    20317    20513    20370    20139    19932    19973 
   20171    20059    19731    19561    19562    19661    19755    19735 
   19692    19699    19772    20024    20371    20528    20476    20397 
   20356    20328    20371    20534    20691    20753    20777    20723 
   20579    20606    20857    20872    20540    20343    20405    20412 
   20356    20382    20351    20262    20216    20048    19815    19764 
   19776    19777    19950    20179    20245    20248    20331    20414 
   20317    20233    20471    20650    20355    19926    19714    19645 
   19638    19612    19404    19138    19236    19629    19711    19361 
   19002    18995    19407    19723    19572    19548    19977    20326 
   20449    20463    20212    20038    20092    19805    19512    19778 
   19872    19680    20005    20405    20272    20125    20163    20144 
   20206    20425    20688    20887    20879    20838    21034    21134 
   20810    20499    20582    20557    20036    19651    19815    19912 
   19676    19626    19878    20017    20044    20198    20340    20385 
   20414    20352    20355    20656    21065    21363    21362    20991 
   20785    20912    20864    20744    20784    20738    20578    20356 
   20196    20379    20633    20487    20115    19961    20067    20036 
   19811    19849    20052    19993    19923    20025    19961    19780 
   19781    19930    20071    20062    19978    20100    20243    20071 
   19811    19633    19287    18922    18986    19319    19576    19936 
   20478    20785    20613    20223    20116    20394    20493    20098 
   19761    19880    20096    20144    20159    20245    20497    20839 
   20938    20842    20926    21101    21078    20915    20704    20451 
   20279    20198    20058    19913    19924    19930    19801    19723 
   19799    20016    20201    20110    19959    19935    19873    19866 
   19984    19971    19812    19669    19558    19572    19591    19263 
   18966    19192    19562    19728    19818    20016    20402    20619 
   20407    20227    20309    20317    20239    20191    20094    20163 
   20472    20522    20220    19986    19943    20027    20123    20117 
   20206    20395    20329    20105    20040    19963    19764    19739 
   19947    20212    20414    20471    20617    20850    20730    20579 
   20794    20802    20472    20279    20191    20117    20067    19896 
   19781    19916    20012    19861    19672    19624    19546    19383 
   19286    19199    19294    19737    19947    19708    19666    19977 
   20146    19977    19872    20120    20290    20217    20313    20394 
   20236    20175    20155    20074    20135    20216    20241    20363 
   20511    20622    20684    20618    20609    20744    20717    20574 
   20591    20682    20734    20657    20353    20185    20421    20603 
   20426    20237    20237    20209    20065    19870    19784    19865 
   19774    19572    19700    19981    20171    20395    20630    20835 
   20947    20794    20466    20213    20100    20162    20341    20494 
   20609    20563    20347    20212    20086    19780    19476    19292 
   19084    18945    19153    19548    19749    19811    19967    20193 
   20440    20549    20317    20071    20102    20013    19618    19326 
   19319    19322    19245    19267    19348    19475    19793    20021 
   20017    20200    20452    20437    20552    20865    20856    20721 
   20865    20902    20561    20263    20272    20399    20506    20557 
   20582    20752    20896    20752    20672    20834    20962    21050 
   21001    20795    20911    21174    21001    20721    20628    20416 
   20260    20328    20174    19953    20074    20042    19776    19907 
   20083    19824    19715    19921    19980    20046    20282    20344 
   20264    20380    20551    20459    20266    20121    19836    19565 
   19591    19730    19684    19450    19284    19213    18952    18732 
   19003    19359    19311    19287    19618    19931    19985    19885 
   19786    19894    20132    20131    19953    19973    20096    20070 
   20027    20117    20233    20096    19700    19568    19799    19836 
   19658    19743    19974    19977    19846    19772    19842    20069 
   20241    20324    20536    20746    20749    20727    20711    20551 
   20403    20337    20196    20181    20494    20814    20844    20726 
   20761    20883    20699    20436    20555    20655    20451    20360 
   20335    20052    19812    19872    19961    19913    19885    20021 
   20205    20200    20081    20036    20002    19973    20039    20178 
