Origin Time       2024/04/02 04:24:00
Lat.              40.133
Long.             141.712
Depth. (km)       71
Mag.              6.0
Station Code      FKS011
Station Lat.      37.0917
Station Long.     140.9031
Station Height(m) 162
Record Time       2024/04/02 04:25:52
Sampling Freq(Hz) 100Hz
Duration Time(s)  83
Dir.              E-W
Scale Factor      7845(gal)/8223790
Max. Acc. (gal)   2.591
Last Correction   2024/04/02 04:25:52
Memo.             
[...]
   -6247    -6184    -6305    -6381    -6203    -6052    -6091    -6224 
   -6421    -6621    -6758    -6929    -7060    -6891    -6539    -6405 
   -6543    -6616    -6485    -6416    -6493    -6378    -6145    -6326 
   -6793    -6941    -6686    -6421    -6359    -6350    -6357    -6527 
   -6714    -6635    -6423    -6470    -6727    -6731    -6462    -6340 
   -6407    -6486    -6648    -6709    -6346    -5832    -5567    -5541 
   -5730    -6077    -6372    -6478    -6359    -6102    -5913    -5865 
   -5910    -5952    -5803    -5591    -5742    -6245    -6702    -6945 
   -7022    -6939    -6717    -6454    -6099    -5647    -5486    -5860 
   -6319    -6400    -6269    -6215    -6249    -6381    -6627    -6822 
   -6696    -6243    -5830    -5694    -5857    -6366    -6975    -7241 
   -7101    -6728    -6301    -6003    -5836    -5684    -5609    -5764 
   -6115    -6502    -6847    -6994    -6778    -6358    -5945    -5647 
   -5795    -6359    -6702    -6633    -6624    -6844    -6916    -6694 
   -6494    -6434    -6346    -6264    -6313    -6409    -6465    -6486 
   -6465    -6501    -6675    -6697    -6361    -6096    -6226    -6465 
   -6593    -6521    -6226    -6166    -6589    -6916    -6690    -6219 
   -6007    -6089    -6072    -5871    -5921    -6397    -6922    -7128 
   -6983    -6621    -6200    -6000    -6102    -6151    -6061    -6187 
   -6488    -6577    -6558    -6682    -6756    -6637    -6407    -6041 
   -5746    -5904    -6228    -6220    -6181    -6428    -6586    -6613 
   -6786    -6677    -6096    -5837    -6150    -6419    -6515    -6670 
   -6673    -6461    -6393    -6438    -6268    -6014    -6057    -6354 
   -6527    -6453    -6291    -6162    -6180    -6264    -6135    -5971 
   -6095    -6187    -6050    -6138    -6369    -6270    -6093    -6106 
   -6108    -6189    -6492    -6700    -6592    -6393    -6286    -6316 
   -6536    -6708    -6559    -6362    -6319    -6110    -5753    -5702 
   -5927    -6066    -6018    -5921    -5949    -6122    -6304    -6355 
   -6169    -5964    -6129    -6466    -6529    -6426    -6378    -6358 
   -6407    -6578    -6696    -6651    -6539    -6331    -6087    -6162 
   -6609    -6980    -6968    -6647    -6157    -5710    -5649    -6064 
   -6478    -6401    -6077    -6031    -6197    -6326    -6453    -6544 
   -6555    -6633    -6771    -6814    -6791    -6752    -6706    -6806 
   -7063    -7175    -6988    -6777    -6743    -6624    -6292    -6151 
   -6373    -6660    -6862    -6851    -6480    -6045    -5930    -6097 
   -6349    -6632    -6824    -6538    -5825    -5529    -6008    -6582 
   -6763    -6656    -6331    -5946    -5848    -5987    -6126    -6369 
   -6670    -6597    -6223    -6164    -6446    -6592    -6548    -6385 
   -6035    -5872    -6285    -6770    -6685    -6334    -6224    -6207 
   -6095    -6060    -6195    -6319    -6222    -6003    -5930    -6018 
   -6156    -6286    -6245    -6034    -5917    -5876    -5892    -6246 
   -6778    -6984    -6693    -6081    -5641    -5737    -5995    -6064 
   -6154    -6264    -6151    -5980    -6042    -6249    -6369    -6408 
   -6334    -6116    -6043    -6227    -6426    -6504    -6409    -6212 
   -6299    -6710    -6922    -6812    -6625    -6323    -6062    -6220 
   -6535    -6463    -6185    -6147    -6262    -6335    -6423    -6490 
   -6485    -6627    -6924    -7032    -6825    -6450    -6192    -6327 
   -6691    -6845    -6589    -6153    -5941    -5996    -6165    -6475 
   -6771    -6739    -6498    -6378    -6399    -6411    -6436    -6610 
   -6812    -6840    -6801    -6739    -6494    -6092    -5814    -5946 
   -6266    -6234    -6022    -6195    -6594    -6652    -6289    -5892 
   -5715    -5738    -5994    -6474    -6844    -6885    -6716    -6284 
   -5649    -5413    -5865    -6566    -6921    -6689    -6184    -5895 
   -5934    -6085    -6184    -6235    -6289    -6451    -6758    -6924 
   -6736    -6424    -6223    -6135    -6280    -6644    -6793    -6543 
   -6242    -6069    -6004    -6326    -6885    -6944    -6635    -6589 
   -6574    -6259    -5908    -5717    -5652    -5794    -6181    -6524 
   -6540    -6385    -6312    -6291    -6241    -6188    -6131    -6042 
   -6026    -6320    -6848    -7206    -7285    -7242    -7003    -6382 
   -5621    -5401    -5852    -6351    -6687    -6959    -6995    -6867 
   -6705    -6258    -5529    -5107    -5366    -5872    -6165    -6324 
   -6313    -6157    -6270    -6586    -6610    -6520    -6608    -6527 
   -6269    -6309    -6481    -6296    -5973    -5948    -6165    -6397 
   -6474    -6338    -6131    -5973    -5794    -5643    -5806    -6292 
   -6728    -6972    -7203    -7423    -7433    -7049    -6289    -5603 
   -5490    -5864    -6289    -6586    -6882    -7165    -7191    -6998 
   -6843    -6579    -6085    -5733    -5675    -5827    -6354    -7022 
   -7288    -7269    -7304    -7175    -6650    -5895    -5117    -4650 
   -4827    -5437    -6011    -6420    -6783    -7072    -7028    -6651 
   -6228    -5872    -5794    -6110    -6326    -6254    -6332    -6608 
   -6745    -6678    -6561    -6432    -6122    -5657    -5526    -5952 
   -6423    -6519    -6381    -6131    -5844    -5768    -5800    -5676 
   -5678    -6072    -6438    -6336    -6124    -6407    -6862    -6870 
   -6686    -6569    -6443    -6538    -6721    -6615    -6604    -7007 
   -7200    -6698    -5871    -5231    -4927    -4924    -5274    -5887 
   -6307    -6326    -6250    -6363    -6716    -7032    -6986    -6675 
   -6255    -5975    -6278    -6767    -6741    -6596    -6764    -6898 
   -6766    -6511    -6259    -5964    -5718    -5895    -6403    -6809 
   -7010    -6967    -6743    -6666    -6839    -7042    -7111    -7198 
   -7495    -7581    -7056    -6380    -5962    -5742    -5756    -5841 
   -5630    -5274    -5294    -5802    -6440    -6841    -6833    -6548 
   -6259    -6273    -6844    -7549    -7663    -7307    -6932    -6662 
   -6594    -6582    -6465    -6512    -6658    -6581    -6469    -6463 
   -6319    -6052    -6004    -6291    -6504    -6280    -5861    -5502 
   -5163    -5019    -5162    -5383    -5728    -6350    -7118    -7830 
   -8156    -7929    -7504    -6957    -6204    -5741    -5802    -5981 
   -6118    -6280    -6496    -6809    -6936    -6725    -6660    -6821 
   -6586    -5800    -4986    -4569    -4515    -4631    -4909    -5329 
   -5871    -6480    -6706    -6417    -6257    -6482    -6721    -6791 
   -6737    -6679    -6700    -6619    -6308    -6060    -6139    -6349 
   -6354    -6200    -6274    -6613    -6756    -6693    -6979    -7523 
   -7653    -7300    -6831    -6440    -6243    -6218    -6340    -6625 
   -6844    -6893    -6894    -6820    -6667    -6432    -6076    -5745 
   -5602    -5722    -6114    -6500    -6600    -6624    -6932    -7408 
   -7479    -6706    -5606    -5159    -5468    -6030    -6566    -6852 
   -6771    -6447    -6010    -5782    -5979    -6245    -6197    -5815 
   -5385    -5340    -5702    -6162    -6454    -6307    -5780    -5235 
   -4819    -4558    -4533    -4845    -5343    -5657    -5962    -6543 
   -6894    -6681    -6273    -5918    -5641    -5416    -5356    -5791 
   -6571    -7168    -7474    -7589    -7418    -6831    -6027    -5566 
   -5622    -5842    -6002    -6143    -6444    -6934    -7325    -7393 
   -7013    -6331    -5945    -6145    -6802    -7701    -8383    -8548 
   -8399    -8159    -7836    -7368    -6598    -5562    -4761    -4600 
   -4806    -4989    -5364    -5969    -6165    -5899    -5648    -5412 
   -5287    -5551    -6106    -6766    -7284    -7366    -7198    -7121 
   -7186    -7369    -7416    -6840    -5714    -4783    -4557    -4837 
   -5262    -5760    -6245    -6543    -6478    -5894    -5132    -4818 
   -4911    -5082    -5571    -6582    -7578    -8051    -8125    -8021 
   -7798    -7530    -7161    -6724    -6727    -7280    -7738    -7954 
   -8266    -8374    -7774    -6763    -6102    -6027    -6084    -5927 
   -5752    -5783    -5888    -5915    -6035    -6484    -7040    -7086 
   -6419    -5683    -5559    -5949    -6550    -7213    -7527    -7372 
   -7033    -6357    -5370    -4895    -5314    -6188    -6918    -6739 
   -5562    -4606    -4658    -5305    -6099    -6696    -6631    -5973 
   -5260    -4764    -4557    -4982    -6123    -7195    -7519    -7257 
   -6617    -5626    -4720    -4602    -5358    -6300    -6976    -7361 
   -7318    -6945    -6462    -5718    -4932    -4769    -5263    -5923 
   -6700    -7728    -8433    -8085    -6998    -6087    -5807    -6243 
   -7199    -7998    -8338    -8571    -8667    -8233    -7329    -6457 
   -5988    -5806    -5725    -6045    -6880    -7565    -7539    -6991 
   -6216    -5297    -4507    -4147    -4093    -4286    -4850    -5462 
   -5746    -5805    -5767    -5709    -5714    -5629    -5340    -5109 
   -5325    -6103    -7014    -7315    -6777    -5973    -5321    -4839 
   -4841    -5406    -5973    -6307    -6501    -6399    -6091    -6095 
   -6480    -6700    -6585    -6444    -6377    -6413    -6701    -7152 
   -7553    -7840    -8005    -8027    -7763    -7198    -6767    -6721 
   -6778    -6808    -7026    -7526    -7923    -7755    -7272    -6936 
   -6635    -6361    -6528    -7049    -7449    -7749    -8013    -7946 
   -7591    -7196    -6677    -6058    -5887    -6532    -7318    -7458 
   -7306    -7227    -6832    -6205    -5823    -5535    -5179    -4927 
   -4881    -5198    -5811    -6265    -6212    -5713    -5292    -5467 
   -6084    -6600    -6964    -7398    -7555    -6949    -5933    -5383 
   -5535    -5903    -5930    -5329    -4584    -4533    -5120    -5575 
   -5567    -5374    -5285    -5331    -5421    -5652    -6099    -6498 
   -6675    -6682    -6515    -6443    -6682    -6664    -6038    -5614 
   -5964    -6625    -7361    -8068    -8094    -7406    -6740    -6178 
   -5479    -5004    -4997    -5341    -6106    -7037    -7600    -7704 
   -7399    -6536    -5319    -4504    -4449    -4754    -5193    -5699 
   -5854    -5614    -5528    -5590    -5483    -5589    -6038    -6238 
   -6092    -5988    -5976    -6046    -6192    -6195    -6054    -5938 
   -5752    -5460    -5277    -5331    -5553    -5926    -6372    -6423 
   -6033    -5940    -6274    -6520    -6669    -6801    -6652    -6426 
   -6610    -6912    -6856    -6876    -7380    -7825    -7789    -7641 
   -7551    -7132    -6382    -6008    -6388    -7034    -7510    -7807 
   -7859    -7831    -7916    -7669    -6952    -6497    -6551    -6624 
   -6855    -7551    -8064    -7912    -7549    -7180    -6696    -6502 
   -6786    -6922    -6736    -6836    -7165    -7082    -6906    -7198 
   -7357    -6936    -6574    -6536    -6413    -6230    -6231    -6274 
   -6312    -6542    -6710    -6390    -5819    -5408    -5188    -5325 
   -6034    -6907    -7321    -7115    -6610    -6354    -6345    -5998 
   -5459    -5421    -5849    -6311    -6609    -6539    -6120    -5794 
   -5721    -5653    -5524    -5551    -5829    -6060    -6045    -5991 
   -5917    -5590    -5178    -5050    -5154    -5182    -5067    -5023 
   -5333    -6088    -6685    -6509    -6224    -6535    -6793    -6631 
   -6589    -6498    -5821    -5034    -4897    -5319    -5880    -6511 
   -6995    -6956    -6710    -6752    -6756    -6367    -5984    -5937 
   -5873    -5576    -5512    -5999    -6691    -7203    -7373    -7017 
   -6185    -5348    -5086    -5602    -6428    -6918    -6925    -6666 
   -6251    -5655    -5094    -5070    -5660    -6361    -6818    -7037 
   -7094    -6926    -6573    -6401    -6292    -5771    -5300    -5354 
   -5391    -5232    -5343    -5605    -5755    -6234    -7149    -7696 
   -7616    -7399    -7025    -6519    -6498    -6978    -7453    -7952 
   -8418    -8181    -7138    -6161    -5765    -5630    -5497    -5597 
   -6149    -6698    -6623    -6245    -6228    -6432    -6394    -6019 
   -5466    -5130    -5359    -6043    -6874    -7685    -8390    -8780 
   -8540    -7682    -6691    -5981    -5730    -6054    -6574    -6628 
   -6319    -6282    -6508    -6582    -6571    -6473    -5971    -5308 
   -4997    -5158    -5792    -6696    -7362    -7516    -7141    -6490 
   -6042    -5898    -5938    -6174    -6523    -6880    -7133    -7091 
   -6781    -6305    -5764    -5425    -5414    -5568    -5818    -6153 
   -6328    -6226    -6197    -6396    -6496    -6480    -6605    -6818 
   -7072    -7507    -7842    -7595    -6952    -6403    -5996    -5682 
   -5598    -5742    -5929    -6049    -6070    -5890    -5587    -5467 
   -5439    -5274    -5270    -5521    -5671    -5729    -5881    -6075 
   -6254    -6467    -6748    -6957    -6891    -6752    -6696    -6366 
   -5846    -5741    -6004    -6168    -6262    -6430    -6505    -6500 
   -6635    -6967    -7349    -7392    -6844    -6150    -5908    -6027 
   -6234    -6612    -7114    -7572    -7977    -8128    -7758    -6856 
   -5647    -4731    -4467    -4531    -4779    -5306    -5879    -6288 
   -6436    -6164    -5605    -5084    -4953    -5472    -6315    -7148 
   -8047    -8525    -8137    -7553    -7337    -7156    -6732    -6218 
   -5796    -5579    -5733    -6274    -6948    -7441    -7329    -6488 
   -5568    -5020    -4623    -4483    -4876    -5621    -6577    -7395 
   -7349    -6594    -6085    -6193    -6610    -7020    -7263    -7238 
   -6876    -6335    -5918    -5752    -5940    -6559    -7199    -7461 
   -7616    -7819    -7750    -7430    -7291    -7547    -8050    -8521 
   -8704    -8394    -7550    -6270    -4807    -3753    -3631    -4399 
   -5694    -7003    -7588    -7052    -5869    -4780    -4082    -3870 
   -4325    -5320    -6407    -7381    -8087    -8176    -7690    -6990 
   -6262    -5691    -5456    -5409    -5247    -4993    -4889    -4957 
   -5028    -4927    -4617    -4445    -4792    -5336    -5562    -5570 
   -5587    -5564    -5532    -5606    -5923    -6548    -7171    -7487 
   -7480    -7055    -6439    -6249    -6493    -6759    -6917    -6910 
   -6810    -6843    -6993    -7011    -6685    -6156    -5826    -5776 
   -5969    -6477    -6949    -7036    -6901    -6632    -6118    -5559 
   -5448    -5933    -6535    -6907    -7221    -7519    -7546    -7222 
   -6602    -5899    -5638    -6072    -6601    -6617    -6353    -6126 
   -5840    -5601    -5657    -5861    -5972    -6058    -6104    -5915 
   -5620    -5390    -5178    -5175    -5607    -6173    -6567    -6809 
   -6817    -6741    -6878    -6959    -6824    -6880    -7176    -7263 
   -7186    -7345    -7561    -7466    -7204    -7017    -6878    -6875 
   -7210    -7619    -7701    -7620    -7724    -7821    -7585    -7221 
   -6986    -6774    -6540    -6407    -6428    -6494    -6439    -6291 
   -6208    -6214    -6268    -6438    -6651    -6691    -6552    -6320 
   -6093    -6161    -6521    -6772    -6901    -7176    -7353    -6993 
   -6218    -5553    -5305    -5454    -5807    -6068    -6162    -6218 
   -6115    -5738    -5285    -5017    -5065    -5408    -5836    -6083 
   -6151    -6284    -6563    -6872    -7096    -7049    -6724    -6579 
   -6829    -7164    -7358    -7279    -6864    -6451    -6330    -6293 
   -6058    -5730    -5487    -5144    -4739    -4700    -5012    -5439 
   -5921    -6191    -5977    -5341    -4652    -4275    -4301    -4866 
   -5958    -6902    -7163    -6968    -6574    -5887    -5044    -4463 
   -4303    -4428    -4765    -5324    -5985    -6556    -6867    -6903 
   -6883    -6928    -6859    -6517    -6200    -6331    -6770    -7161 
   -7468    -7560    -7184    -6517    -5999    -5697    -5489    -5529 
   -5972    -6689    -7307    -7474    -7238    -6899    -6652    -6601 
   -6735    -6909    -7111    -7346    -7372    -7281    -7506    -7865 
   -7740    -7152    -6647    -6421    -6328    -6324    -6359    -6380 
   -6508    -6708    -6662    -6372    -6230    -6351    -6484    -6639 
   -6995    -7238    -6979    -6467    -6091    -5772    -5400    -5120 
   -4949    -4807    -4895    -5362    -5950    -6411    -6651    -6501 
   -6026    -5726    -5856    -6070    -6170    -6363    -6732    -7132 
   -7391    -7464    -7461    -7402    -7292    -7253    -7292    -7300 
   -7156    -6763    -6176    -5575    -5142    -5119    -5603    -6304 
   -6714    -6459    -5763    -5320    -5421    -5768    -6030    -6124 
   -6114    -6176    -6446    -6670    -6579    -6399    -6407    -6538 
   -6640    -6662    -6619    -6466    -6118    -5796    -5800    -5961 
   -6034    -6068    -6100    -6066    -5949    -5726    -5375    -5208 
   -5620    -6382    -6929    -7047    -6732    -6189    -5896    -5979 
   -6119    -6205    -6158    -5772    -5225    -4966    -5143    -5526 
   -5869    -6177    -6438    -6482    -6439    -6598    -6897    -7186 
   -7480    -7670    -7542    -7240    -7122    -7237    -7466    -7692 
   -7650    -7318    -7005    -6867    -6828    -6821    -6793    -6678 
   -6535    -6413    -6173    -5815    -5587    -5537    -5549    -5541 
   -5535    -5748    -6178    -6538    -6772    -6875    -6720    -6508 
   -6434    -6268    -6053    -6281    -6890    -7248    -7256    -7256 
   -7099    -6573    -6087    -6033    -6326    -6849    -7503    -7919 
   -7740    -7083    -6362    -5686    -5020    -4711    -5020    -5715 
   -6471    -6930    -6740    -6122    -5529    -4995    -4648    -4841 
   -5402    -5865    -6099    -6170    -6076    -5898    -5784    -5713 
   -5699    -5967    -6374    -6496    -6455    -6462    -6307    -6131 
   -6249    -6486    -6756    -7218    -7692    -7948    -8066    -7956 
   -7327    -6358    -5683    -5576    -5742    -5883    -5995    -6022 
   -5729    -5171    -4706    -4430    -4293    -4453    -4945    -5572 
   -6227    -6777    -7001    -6893    -6725    -6743    -6868    -6963 
   -7119    -7456    -7850    -8006    -7789    -7333    -6793    -6424 
   -6451    -6567    -6446    -6313    -6232    -6062    -6054    -6420 
   -6795    -6652    -6108    -5883    -6196    -6532    -6724    -7061 
   -7431    -7549    -7441    -7088    -6504    -6088    -6154    -6459 
   -6631    -6636    -6536    -6332    -6238    -6432    -6664    -6718 
   -6658    -6411    -5894    -5352    -5181    -5571    -6305    -6955 
   -7254    -7152    -6694    -6035    -5448    -5163    -5275    -5729 
   -6289    -6752    -7049    -7038    -6640    -6053    -5490    -5053 
   -4888    -5188    -5917    -6691    -7175    -7423    -7438    -7133 
   -6781    -6490    -6073    -5783    -5888    -6073    -6166    -6458 
   -7028    -7515    -7591    -7276    -6782    -6307    -5981    -5707 
   -5378    -5244    -5485    -5845    -6060    -6029    -5692    -5273 
   -5283    -5884    -6689    -7146    -6899    -6114    -5383    -5101 
   -5175    -5427    -5827    -6232    -6393    -6297    -6111    -5895 
   -5564    -5084    -4731    -4776    -5024    -5313    -5690    -5985 
   -6069    -6008    -5773    -5416    -5192    -5346    -5958    -6648 
   -6940    -6916    -6829    -6739    -6690    -6662    -6616    -6677 
   -6874    -6976    -6837    -6579    -6330    -6126    -6100    -6357 
   -6698    -6909    -6993    -6995    -6947    -6849    -6764    -6795 
   -6862    -6875    -6924    -7146    -7592    -7962    -7956    -7738 
   -7499    -7267    -7138    -7015    -6779    -6704    -6957    -7402 
   -7858    -8070    -7990    -7808    -7609    -7438    -7260    -7007 
