Origin Time       2024/04/02 04:24:00
Lat.              40.133
Long.             141.712
Depth. (km)       71
Mag.              6.0
Station Code      FKS012
Station Lat.      36.9066
Station Long.     140.7928
Station Height(m) 3
Record Time       2024/04/02 04:26:05
Sampling Freq(Hz) 100Hz
Duration Time(s)  84
Dir.              U-D
Scale Factor      7845(gal)/8223790
Max. Acc. (gal)   1.451
Last Correction   2024/04/02 04:26:04
Memo.             
[...]
   -3003    -2976    -2855    -2926    -2979    -2767    -2702    -2899 
   -2971    -2984    -3145    -3203    -3040    -2943    -3067    -3150 
   -3003    -3007    -3296    -3310    -3084    -3257    -3538    -3248 
   -2754    -2592    -2547    -2538    -2754    -2990    -3079    -3136 
   -3046    -2829    -2872    -3057    -2943    -2889    -3253    -3426 
   -3183    -3115    -3150    -2929    -2983    -3445    -3389    -2798 
   -2729    -3221    -3388    -3094    -2821    -2830    -3037    -3087 
   -2856    -2716    -2783    -2848    -2867    -2748    -2632    -2909 
   -3146    -2855    -2706    -2998    -3030    -2859    -3065    -3337 
   -3203    -2992    -2991    -2983    -2970    -3149    -3257    -2975 
   -2651    -2663    -2648    -2432    -2577    -3057    -3090    -2693 
   -2539    -2702    -2901    -3009    -2907    -2754    -2909    -3199 
   -3226    -3075    -2901    -2749    -2791    -2882    -2783    -2698 
   -2778    -2874    -2897    -2876    -2903    -2964    -2924    -2836 
   -2770    -2635    -2443    -2425    -2743    -3095    -3094    -2991 
   -3106    -3110    -2936    -3025    -3242    -3165    -3013    -3059 
   -3115    -3196    -3373    -3242    -2921    -3048    -3219    -2826 
   -2440    -2475    -2598    -2754    -2884    -2778    -2702    -2786 
   -2678    -2450    -2427    -2513    -2581    -2724    -2933    -2995 
   -2859    -2855    -3057    -3033    -2799    -2926    -3325    -3392 
   -3149    -2934    -2848    -3038    -3396    -3426    -3154    -3087 
   -3219    -3218    -3109    -3037    -2925    -2771    -2722    -2743 
   -2762    -2922    -3142    -3059    -2760    -2722    -2907    -2884 
   -2724    -2845    -3146    -3169    -2970    -2964    -2991    -2674 
   -2438    -2710    -2943    -2793    -2837    -3098    -3030    -2976 
   -3191    -3038    -2716    -2901    -3200    -3191    -3073    -2982 
   -3001    -3096    -3055    -2917    -2887    -3044    -3211    -3136 
   -3030    -3208    -3345    -3105    -2797    -2810    -3049    -3132 
   -3026    -3014    -2965    -2700    -2601    -2658    -2436    -2349 
   -2794    -3028    -2740    -2733    -3060    -2956    -2609    -2656 
   -2759    -2598    -2817    -3304    -3106    -2741    -3210    -3626 
   -3272    -3202    -3569    -3298    -2810    -3034    -3141    -2505 
   -2278    -2864    -2941    -2381    -2556    -3265    -3198    -2685 
   -2721    -3003    -2868    -2590    -2671    -2893    -2951    -3071 
   -3234    -3049    -2783    -2961    -3171    -2872    -2581    -2822 
   -3059    -2789    -2467    -2455    -2567    -2817    -3233    -3420 
   -3225    -3115    -3321    -3321    -2894    -2793    -3304    -3456 
   -2868    -2523    -2705    -2628    -2405    -2694    -3015    -2801 
   -2582    -2710    -2712    -2446    -2405    -2717    -2855    -2686 
   -2729    -3126    -3392    -3240    -2955    -2870    -2944    -3002 
   -2882    -2652    -2895    -3576    -3541    -2764    -2705    -3403 
   -3543    -3141    -3083    -3252    -3175    -3079    -3257    -3391 
   -3122    -2866    -3069    -3163    -2767    -2690    -3110    -3025 
   -2511    -2636    -3082    -2910    -2641    -2909    -3019    -2670 
   -2567    -2690    -2521    -2367    -2571    -2709    -2493    -2209 
   -2058    -2026    -2251    -2625    -2721    -2685    -3013    -3399 
   -3229    -2907    -3130    -3462    -3287    -3091    -3314    -3466 
   -3308    -3262    -3433    -3366    -2903    -2593    -2697    -2640 
   -2390    -2609    -2953    -2821    -2902    -3456    -3445    -2945 
   -3149    -3703    -3439    -2894    -2964    -3125    -3026    -3046 
   -2999    -2701    -2613    -2857    -3030    -2895    -2690    -2866 
   -3249    -3095    -2528    -2462    -2806    -2810    -2691    -2871 
   -2944    -2732    -2695    -2884    -2836    -2637    -2872    -3206 
   -2926    -2694    -3223    -3601    -3102    -2563    -2732    -3119 
   -3198    -3272    -3492    -3418    -3136    -3123    -3142    -2920 
   -2862    -3068    -3048    -2725    -2566    -2675    -2539    -2158 
   -2347    -2898    -2737    -2334    -2681    -3051    -2868    -2894 
   -3132    -2976    -2740    -2789    -2899    -2924    -2899    -2916 
   -2955    -2940    -2972    -3021    -3006    -3144    -3415    -3461 
   -3252    -3152    -3210    -3015    -2739    -2970    -3235    -2902 
   -2741    -3230    -3505    -3356    -3306    -3190    -2987    -3192 
   -3451    -3137    -2812    -3100    -3375    -3072    -2799    -2894 
   -2709    -2315    -2498    -2864    -2623    -2293    -2393    -2438 
   -2331    -2519    -2826    -2766    -2524    -2614    -2782    -2535 
   -2334    -2519    -2535    -2423    -2681    -2936    -2879    -2951 
   -3109    -2992    -2863    -2984    -3122    -3088    -2957    -2961 
   -3264    -3499    -3233    -2848    -2830    -2928    -2928    -2983 
   -3051    -3098    -3227    -3276    -3088    -2814    -2590    -2596 
   -2960    -3172    -2867    -2749    -3125    -3237    -2987    -2943 
   -3042    -3114    -3186    -3055    -2897    -3030    -3079    -2941 
   -3075    -3298    -3177    -2970    -3125    -3377    -3061    -2431 
   -2369    -2749    -2809    -2592    -2627    -2913    -3033    -2889 
   -2808    -2978    -3142    -3033    -2868    -3024    -3296    -3337 
   -3376    -3462    -3223    -2922    -2964    -2965    -2764    -2883 
   -3296    -3380    -3150    -3146    -3233    -2936    -2632    -2767 
   -2794    -2488    -2554    -2880    -2698    -2427    -2778    -3137 
   -2857    -2548    -2651    -2701    -2623    -2783    -3051    -3138 
   -3076    -2956    -2806    -2710    -2725    -2791    -2795    -2679 
   -2590    -2766    -3072    -3053    -2727    -2716    -3119    -3277 
   -2995    -2728    -2650    -2664    -2809    -2952    -2833    -2647 
   -2833    -3254    -3325    -3059    -2968    -3015    -2955    -2959 
   -3053    -3132    -3235    -3180    -3053    -3299    -3434    -2925 
   -2602    -2832    -2758    -2471    -2656    -2816    -2636    -2848 
   -3252    -2916    -2285    -2322    -2635    -2551    -2411    -2600 
   -2849    -2956    -2999    -2909    -2689    -2643    -2806    -2843 
   -2731    -2701    -2759    -2909    -3141    -3199    -3126    -3262 
   -3370    -3206    -3240    -3406    -3106    -2756    -3006    -3446 
   -3584    -3589    -3694    -3802    -3770    -3630    -3368    -3005 
   -2859    -3048    -3168    -2874    -2454    -2570    -3049    -2998 
   -2671    -2879    -3165    -3057    -3065    -3159    -2887    -2587 
   -2548    -2524    -2528    -2648    -2660    -2536    -2535    -2744 
   -2907    -2712    -2392    -2555    -2998    -2933    -2543    -2656 
   -3117    -3094    -2682    -2594    -2786    -2836    -2799    -2760 
   -2601    -2434    -2512    -2762    -2826    -2729    -2876    -3159 
   -3069    -2814    -2987    -3379    -3356    -3060    -3113    -3334 
   -3071    -2821    -3339    -3674    -3084    -2798    -3163    -2979 
   -2563    -2991    -3609    -3404    -2764    -2639    -2986    -3015 
   -2829    -2965    -3076    -2953    -2995    -3046    -2760    -2525 
   -2772    -3087    -2911    -2646    -2847    -3107    -3049    -2951 
   -2839    -2612    -2543    -2698    -2814    -2825    -2828    -2870 
   -2994    -3145    -3099    -2943    -3038    -3194    -3032    -2849 
   -2937    -2980    -2733    -2570    -2818    -3041    -2899    -2880 
   -3121    -2994    -2569    -2621    -2928    -2741    -2521    -2883 
   -3096    -2690    -2493    -2790    -2883    -2731    -2731    -2713 
   -2709    -2914    -2925    -2805    -3153    -3580    -3415    -2968 
   -2844    -3078    -3173    -2887    -2686    -2893    -3175    -3175 
   -2987    -2951    -3006    -2879    -2776    -2867    -2964    -3057 
   -3056    -2918    -3095    -3483    -3402    -3078    -2937    -2660 
   -2431    -2803    -3300    -3272    -3088    -3235    -3423    -3149 
   -2587    -2432    -2779    -3087    -3167    -3059    -2871    -3061 
   -3465    -3319    -2949    -3078    -3272    -3080    -2933    -3067 
   -3102    -2893    -2793    -2897    -2978    -3011    -2902    -2559 
   -2280    -2220    -2305    -2535    -2621    -2523    -2745    -3045 
   -2883    -2862    -3196    -3087    -2770    -2884    -2871    -2631 
   -2925    -3388    -3195    -2836    -2990    -3092    -2635    -2338 
   -2708    -3030    -2767    -2450    -2667    -3076    -3051    -2787 
   -2833    -2987    -2844    -2764    -3025    -3152    -3033    -3036 
   -3022    -2830    -2781    -2820    -2681    -2679    -2917    -2934 
   -2871    -3207    -3520    -3300    -3072    -3169    -3036    -2695 
   -2818    -3194    -3121    -2736    -2533    -2554    -2619    -2628 
   -2616    -2652    -2735    -2878    -3059    -3117    -3007    -2984 
   -3229    -3361    -3064    -2853    -3160    -3457    -3240    -3036 
   -3396    -3526    -2903    -2772    -3385    -3277    -2724    -2944 
   -3188    -2844    -2871    -3269    -3045    -2511    -2567    -2866 
   -2755    -2689    -3001    -3114    -3002    -3202    -3412    -3186 
   -2970    -3010    -2867    -2663    -2683    -2613    -2616    -2951 
   -2956    -2597    -2708    -3022    -2718    -2239    -2470    -3060 
   -3025    -2524    -2497    -2767    -2682    -2713    -3179    -3352 
   -3134    -3198    -3404    -3276    -3029    -2982    -3195    -3483 
   -3343    -2933    -2974    -3084    -2559    -2139    -2498    -2903 
   -2879    -2893    -3056    -3103    -3173    -3246    -2944    -2547 
   -2736    -3163    -3057    -2783    -2988    -3334    -3330    -3159 
   -3152    -3181    -2992    -2826    -2893    -2818    -2614    -2812 
   -3056    -2716    -2425    -2778    -3106    -2994    -2817    -2786 
   -3018    -3362    -3191    -2775    -3029    -3364    -2855    -2428 
   -2781    -2832    -2324    -2390    -2978    -3107    -2886    -2785 
   -2681    -2656    -2763    -2667    -2586    -2855    -2999    -2798 
   -2803    -3040    -3015    -3041    -3568    -3862    -3362    -3046 
   -3392    -3346    -2840    -2947    -3306    -3082    -2988    -3370 
   -3265    -2826    -3014    -3240    -2821    -2650    -3003    -2990 
   -2867    -3202    -3171    -2532    -2328    -2602    -2610    -2450 
   -2482    -2617    -2724    -2721    -2559    -2446    -2552    -2664 
   -2674    -2863    -3253    -3435    -3271    -3142    -3312    -3474 
   -3395    -3406    -3503    -3302    -3160    -3388    -3283    -2659 
   -2317    -2421    -2513    -2567    -2709    -2770    -2647    -2490 
   -2500    -2582    -2357    -2120    -2444    -2714    -2525    -2671 
   -3063    -2967    -2789    -3056    -3345    -3154    -2803    -2910 
   -3194    -3057    -2825    -2798    -2574    -2282    -2481    -2736 
   -2404    -2226    -2913    -3491    -3245    -3041    -3299    -3357 
   -3059    -2841    -2868    -3100    -3388    -3410    -3225    -3275 
   -3424    -3215    -2997    -3306    -3622    -3365    -3125    -3364 
   -3329    -2740    -2597    -3063    -3138    -2903    -3181    -3572 
   -3375    -3132    -3311    -3223    -2674    -2505    -2689    -2560 
   -2496    -2836    -2914    -2617    -2619    -2951    -3036    -2740 
   -2528    -2643    -2697    -2466    -2351    -2411    -2196    -2050 
   -2527    -2971    -2924    -3045    -3276    -2920    -2560    -3006 
   -3472    -3331    -3300    -3441    -3010    -2482    -2709    -3018 
   -2623    -2413    -3041    -3264    -2632    -2604    -3134    -2937 
   -2623    -2844    -2741    -2385    -2596    -3114    -3262    -2917 
   -2562    -2643    -2731    -2365    -2255    -2979    -3505    -2971 
   -2361    -2546    -2964    -3237    -3415    -3196    -2822    -2936 
   -3215    -3069    -2812    -3088    -3746    -3792    -2986    -2536 
   -2938    -3063    -2648    -2691    -3001    -2852    -2826    -3141 
   -3140    -3059    -3084    -2863    -2929    -3339    -3140    -2756 
   -3099    -3411    -3032    -2727    -2856    -2805    -2558    -2656 
   -2941    -3064    -3207    -3302    -3083    -2886    -3007    -3195 
   -3154    -2909    -2816    -2902    -2714    -2390    -2502    -2853 
   -2920    -2930    -3314    -3721    -3615    -3225    -2957    -2631 
   -2308    -2559    -2955    -2573    -2133    -2795    -3574    -3200 
   -2760    -3041    -2772    -2030    -2139    -2432    -2062    -2145 
   -3009    -3183    -2585    -2793    -3657    -3581    -2922    -3105 
   -3657    -3570    -3299    -3322    -3314    -3284    -3368    -3176 
   -2918    -3329    -3765    -3202    -2558    -2844    -3024    -2479 
   -2520    -3315    -3456    -3208    -3477    -3277    -2363    -2380 
   -3250    -3169    -2303    -2295    -2971    -2992    -2663    -2918 
   -3055    -2573    -2678    -3488    -3578    -3100    -3277    -3659 
   -3215    -2613    -2729    -2795    -2307    -2297    -3073    -3348 
   -2679    -2177    -2300    -2380    -2191    -1987    -1875    -2101 
   -2663    -2938    -2762    -2722    -3026    -3163    -2899    -2812 
   -3264    -3584    -3408    -3430    -3712    -3642    -3388    -3285 
   -3154    -2964    -2893    -3022    -3218    -3171    -2899    -2821 
   -3022    -3111    -2828    -2502    -2712    -3113    -2909    -2525 
   -2581    -2555    -2323    -2586    -3187    -3281    -2855    -2790 
   -3493    -3927    -3196    -2479    -2925    -3426    -3033    -2682 
   -2867    -2772    -2405    -2608    -3109    -3048    -2705    -2759 
   -2860    -2454    -2042    -2362    -3041    -3140    -2758    -2724 
   -2957    -3013    -3321    -4109    -4446    -3797    -3181    -3377 
   -3511    -2945    -2550    -2813    -3011    -2801    -2695    -2879 
   -2911    -2736    -2779    -2932    -2974    -3321    -3844    -3653 
   -2941    -2880    -3280    -3098    -2889    -3399    -3608    -3142 
   -2934    -2866    -2594    -2527    -2401    -2025    -2002    -2172 
   -2114    -2243    -2519    -2419    -2285    -2594    -2964    -3037 
   -3122    -3342    -3300    -3034    -3123    -3456    -3272    -2551 
   -2150    -2528    -3033    -2871    -2513    -2810    -3271    -3235 
   -3057    -2759    -2268    -2305    -2783    -2879    -2876    -3257 
   -3492    -3192    -2879    -3046    -3190    -2663    -2197    -2563 
   -2801    -2315    -2182    -2656    -2781    -2586    -2789    -3191 
   -3245    -3118    -3164    -3172    -3025    -3160    -3402    -3175 
   -2911    -2906    -2582    -2178    -2353    -2736    -2743    -2575 
   -2876    -3331    -3095    -2979    -3746    -4004    -3416    -3441 
   -3897    -3645    -3060    -2992    -3196    -2994    -2461    -2180 
   -2331    -2586    -2698    -2894    -3202    -3157    -2972    -3123 
   -3115    -2882    -3106    -3361    -3095    -3111    -3730    -3892 
   -3214    -2590    -2488    -2455    -2135    -1825    -2130    -2779 
   -2768    -2411    -2925    -3981    -4348    -3905    -3289    -2967 
   -3127    -3412    -3249    -2940    -3037    -3013    -2515    -2243 
   -2308    -2284    -2390    -2496    -2111    -1879    -2450    -2916 
   -2601    -2496    -3190    -3661    -3277    -2887    -3137    -3388 
   -3078    -2706    -2721    -2833    -2862    -2984    -3149    -3208 
   -3179    -2988    -2863    -3279    -3865    -3967    -3848    -3659 
   -3163    -2762    -2767    -2943    -3206    -3364    -3330    -3343 
   -3275    -3040    -2779    -2496    -2529    -2758    -2470    -2270 
   -2883    -3461    -3586    -3615    -3488    -3356    -3287    -3117 
   -3156    -3250    -2914    -2540    -2421    -2313    -2477    -2928 
   -2849    -2361    -2361    -2444    -1984    -1686    -1857    -1941 
   -2157    -2857    -3426    -3323    -2857    -2631    -2710    -2532 
   -2079    -2168    -2828    -3102    -2798    -2717    -3235    -3646 
   -3261    -2685    -2640    -2637    -2324    -2197    -2366    -2637 
   -2984    -3059    -2863    -3030    -3532    -3576    -2844    -2243 
   -2706    -3349    -2956    -2319    -2528    -2992    -2867    -2520 
   -2714    -3302    -3372    -2876    -3071    -4054    -4222    -3496 
   -3397    -3879    -3770    -3314    -3495    -3969    -3852    -3478 
   -3310    -2971    -2623    -2640    -2577    -2411    -2581    -2762 
   -2809    -3302    -3929    -3709    -3102    -3053    -2808    -1933 
   -1876    -2705    -2720    -2207    -2484    -2833    -2562    -2652 
   -3204    -3150    -2728    -2893    -3137    -2740    -2513    -2748 
   -2563    -2354    -2713    -2893    -2917    -3173    -2991    -2609 
   -2824    -2853    -2351    -2581    -3357    -3171    -2525    -2612 
   -2727    -2397    -2601    -3399    -3640    -3051    -2547    -2679 
   -2936    -2739    -2415    -2556    -2911    -2911    -2882    -3389 
   -3863    -3588    -3179    -3179    -3145    -3069    -3245    -3408 
   -3306    -2874    -2328    -2303    -2646    -2529    -2281    -2552 
   -2708    -2506    -2749    -3061    -2660    -2357    -2648    -2639 
   -2384    -2697    -3156    -3176    -3068    -2833    -2382    -2369 
   -2889    -3078    -2907    -3129    -3558    -3538    -3284    -3370 
   -3692    -3673    -3280    -3121    -3310    -3389    -3245    -2893 
   -2420    -2431    -3046    -3519    -3569    -3600    -3889    -4240 
   -4021    -3187    -2670    -2805    -2924    -2701    -2498    -2650 
   -2938    -3022    -3063    -3175    -3221    -3262    -3202    -2799 
   -2349    -2378    -2849    -3265    -3423    -3480    -3504    -3414 
   -3099    -2633    -2315    -2145    -1964    -1971    -2093    -2064 
   -2439    -3337    -3476    -2774    -2756    -3275    -3084    -2736 
   -3102    -3585    -3721    -3709    -3570    -3469    -3491    -3218 
   -2681    -2462    -2579    -2502    -2176    -2224    -2666    -2509 
   -1922    -2300    -3234    -3331    -3191    -3532    -3522    -3256 
   -3592    -3928    -3585    -3204    -3237    -3268    -2994    -2712 
   -2824    -3134    -3277    -3280    -3056    -2818    -3154    -3457 
   -2816    -2160    -2484    -2883    -2604    -2304    -2324    -2285 
   -2222    -2273    -2201    -2147    -2563    -3111    -3149    -3042 
   -3462    -3913    -3551    -2770    -2463    -2592    -2673    -2574 
   -2393    -2394    -2646    -2733    -2609    -2728    -2957    -2913 
   -2775    -2640    -2436    -2562    -3091    -3164    -2612    -2581 
   -3203    -3253    -2744    -2650    -2883    -2901    -2710    -2509 
   -2343    -2336    -2682    -3001    -2880    -2940    -3424    -3341 
   -2756    -2944    -3477    -2991    -2254    -2602    -3200    -2864 
   -2293    -2382    -2600    -2458    -2384    -2528    -2548    -2370 
   -2222    -2340    -2667    -2880    -2917    -3033    -3169    -3010 
   -2733    -2698    -2718    -2606    -2741    -3318    -3649    -3346 
   -3144    -3330    -3387    -3518    -4013    -4257    -4032    -3904 
   -4060    -4020    -3466    -3064    -3368    -3507    -2995    -2774 
   -3021    -3029    -2887    -2878    -2848    -2843    -2876    -2839 
   -2945    -3240    -3388    -3395    -3450    -3469    -3362    -3265 
   -3215    -2963    -2604    -2637    -2833    -2602    -2427    -2889 
   -3292    -3245    -3493    -3861    -3318    -2435    -2551    -3051 
   -2632    -2119    -2666    -3288    -3078    -2853    -3069    -3132 
   -2925    -2809    -2825    -2821    -2781    -2891    -3217    -3362 
   -3041    -2751    -3018    -3106    -2376    -2010    -2600    -2795 
