Origin Time       2024/04/02 04:24:00
Lat.              40.133
Long.             141.712
Depth. (km)       71
Mag.              6.0
Station Code      FKS014
Station Lat.      36.8864
Station Long.     140.4166
Station Height(m) 163
Record Time       2024/04/02 04:26:08
Sampling Freq(Hz) 100Hz
Duration Time(s)  67
Dir.              E-W
Scale Factor      7845(gal)/8223790
Max. Acc. (gal)   3.807
Last Correction   2024/04/02 04:26:08
Memo.             
[...]
    7789     7628     7500     7526     7630     7723     7835     7982 
    8131     8154     8001     7821     7713     7726     7828     7847 
    7758     7693     7684     7704     7747     7808     7892     7989 
    7971     7763     7601     7639     7719     7817     8009     8147 
    8109     7967     7790     7569     7423     7496     7676     7847 
    8036     8216     8286     8183     8017     7870     7674     7531 
    7500     7545     7739     7900     7808     7682     7663     7684 
    7705     7596     7481     7639     7831     7852     7897     7963 
    7993     8082     8190     8222     8074     7697     7307     7165 
    7292     7537     7753     8005     8334     8402     7971     7453 
    7323     7524     7757     7947     8193     8364     8194     7780 
    7411     7249     7354     7618     7931     8276     8498     8395 
    7978     7535     7306     7265     7373     7578     7838     8124 
    8186     7906     7649     7666     7727     7650     7674     7954 
    8155     8091     8005     7927     7778     7696     7665     7592 
    7589     7696     7836     8008     8160     8139     7947     7843 
    7859     7770     7646     7668     7792     7889     7901     7939 
    8060     8140     8059     7821     7628     7557     7476     7535 
    7815     8008     7969     7839     7750     7690     7605     7588 
    7680     7776     7808     7753     7658     7636     7726     7835 
    7851     7782     7712     7661     7682     7776     7784     7730 
    7743     7755     7767     7896     8075     8137     7975     7676 
    7483     7496     7677     7900     8020     8062     8005     7754 
    7510     7469     7541     7685     7902     7986     7871     7750 
    7677     7690     7855     8000     8023     8029     7959     7762 
    7596     7534     7566     7738     8000     8189     8164     7981 
    7835     7789     7823     7932     8000     7974     7981     8021 
    7977     7832     7701     7688     7726     7744     7842     8021 
    8159     8208     8159     8064     7929     7647     7449     7569 
    7735     7884     8158     8212     7877     7584     7527     7491 
    7456     7595     7873     8087     8128     8058     8028     8002 
    7811     7568     7466     7464     7558     7792     8004     8083 
    8112     8125     8058     7874     7646     7535     7538     7523 
    7599     7794     7836     7735     7788     8001     8106     8041 
    7998     8000     7858     7520     7210     7203     7496     7857 
    8139     8284     8191     7898     7655     7576     7565     7596 
    7712     7869     7950     7897     7767     7723     7828     7932 
    7952     7983     8016     7965     7846     7744     7770     7851 
    7834     7794     7738     7523     7321     7377     7697     8091 
    8257     8160     8019     7852     7630     7492     7547     7701 
    7784     7859     8047     8158     8008     7690     7464     7535 
    7746     7816     7838     7939     7933     7700     7526     7619 
    7830     8020     8102     8106     8175     8197     8074     7971 
    7929     7800     7578     7415     7331     7325     7522     7813 
    7894     7762     7634     7604     7614     7628     7726     7944 
    8148     8221     8125     7928     7755     7615     7580     7754 
    8005     8181     8252     8105     7641     7119     6891     6955 
    7260     7805     8320     8556     8495     8135     7688     7396 
    7252     7307     7631     8095     8415     8351     8066     7848 
    7711     7649     7716     7825     7794     7608     7437     7358 
    7377     7542     7813     8064     8182     8118     7928     7709 
    7588     7608     7695     7824     8004     8190     8253     8097 
    7933     7942     8025     8176     8283     8178     8063     7987 
    7778     7608     7620     7692     7727     7668     7592     7565 
    7534     7549     7582     7628     7847     8064     8106     8159 
    8175     8001     7740     7503     7418     7565     7781     8021 
    8370     8546     8344     8199     8317     8307     8114     7935 
    7789     7762     7759     7555     7365     7399     7372     7118 
    6971     7094     7302     7593     7824     7717     7519     7462 
    7446     7547     7900     8330     8596     8685     8534     7997 
    7384     7052     6943     7187     7875     8571     8916     8874 
    8452     7794     7184     6824     6816     7234     7928     8444 
    8534     8325     7862     7230     6943     7303     7844     8195 
    8604     9127     9355     9092     8464     7672     7080     6824 
    6723     6914     7387     7688     7705     7570     7323     7171 
    7291     7599     7954     8220     8187     7850     7465     7194 
    6991     6862     6924     7211     7582     7893     8128     8255 
    8286     8365     8490     8419     8054     7578     7198     7047 
    7200     7429     7526     7712     7952     7962     7915     8019 
    8259     8671     9088     9204     8910     8262     7387     6620 
    6494     7087     8009     8964     9510     9418     8977     8235 
    7404     7080     7238     7626     8235     8676     8475     7746 
    6978     6511     6579     7292     8248     8941     9161     8746 
    7830     6893     6285     6319     7117     8229     9018     9184 
    8765     7898     6940     6574     7067     7892     8429     8437 
    8086     7522     6683     5881     5714     6389     7626     8908 
    9795     9977     9313     8144     7055     6265     5890     6307 
    7515     8644     8853     8193     7184     6318     6025     6547 
    7736     8974     9695     9726     8981     7674     6515     6112 
    6538     7337     8036     8565     8838     8540     7709     6939 
    6704     6837     7068     7414     7755     7844     7635     7276 
    7133     7493     8159     8880     9413     9192     8077     6739 
    5775     5485     6122     7578     9369    10702    10750     9445 
    7634     6273     5760     6173     7491     9077    10053    10062 
    9139     7808     6886     6681     7159     8208     9321     9877 
    9674     8806     7511     6419     6126     6589     7592     8904 
    9923    10162     9610     8646     7786     7253     7113     7456 
    8082     8627     8856     8753     8718     8912     8700     7862 
    6995     6428     6272     6570     7114     7852     8583     8837 
    8565     8040     7599     7477     7587     7842     8183     8306 
    8000     7518     7294     7446     7865     8514     9220     9489 
    8961     7738     6292     5332     5347     6196     7387     8401 
    8802     8475     7572     6485     5908     6116     6725     7383 
    7947     8390     8649     8515     8114     7923     8009     8005 
    7809     7546     7213     6879     6755     6905     7176     7385 
    7582     7867     8001     7727     7349     7430     7928     8230 
    8058     7628     7163     6833     6812     7138     7708     8349 
    8788     8702     8010     7095     6507     6393     6617     7092 
    7680     8152     8252     7966     7670     7736     8205     8746 
    8900     8669     8483     8461     8337     8001     7688     7670 
    7867     7962     7935     8110     8559     8951     9001     8560 
    7684     6771     6376     6793     7608     8225     8583     8648 
    8282     7727     7454     7634     7925     8008     7892     7612 
    7317     7248     7489     8056     8752     9054     8656     7763 
    6870     6448     6794     7878     9192    10096    10289     9699 
    8348     6635     5456     5529     6713     8338     9821    10729 
   10709     9779     8371     6948     5998     5914     6655     7805 
    8714     8924     8677     8307     7677     6891     6538     6885 
    7484     7719     7668     7747     7812     7686     7705     7996 
    8214     8074     7538     6920     6706     6879     7110     7358 
    7589     7630     7458     7223     7144     7323     7672     7997 
    8021     7704     7404     7456     7828     8064     7861     7511 
    7242     6983     6929     7341     8190     9196     9722     9378 
    8488     7321     6046     5389     5914     7300     8810     9823 
   10031     9513     8611     7681     7021     6895     7369     8131 
    8789     9153     9072     8596     7981     7430     7229     7472 
    7809     7981     7955     7744     7381     6997     6984     7646 
    8503     8838     8657     8260     7688     7257     7547     8542 
    9640    10135     9560     8087     6394     5248     5309     6609 
    8371     9784    10393     9877     8371     6682     5655     5598 
    6338     7433     8418     8943     8768     7834     6457     5529 
    5788     6902     8037     8687     8610     7809     6658     5884 
    6026     6829     7755     8442     8665     8530     8174     7676 
    7403     7465     7680     8140     8804     9208     9046     8490 
    7724     6918     6489     6527     6814     7345     8013     8626 
    9007     8849     8132     7173     6376     6288     7061     8208 
    9324    10188    10481     9964     8646     6982     5802     5664 
    6528     7928     9131     9585     9377     8765     7835     6895 
    6392     6573     7322     8074     8352     8260     8027     7635 
    7217     7187     7680     8313     8630     8414     7735     6878 
    6220     6210     7160     8830    10200    10323     9390     8016 
    6461     5270     5252     6585     8568    10050    10235     9331 
    7981     6528     5348     4989     5667     7207     9228    10964 
   11448    10411     8596     6833     5346     4302     4330     5760 
    7815     9427    10173     9953     8765     7083     5810     5710 
    6767     8140     8984     9067     8577     7789     7055     6851 
    7434     8514     9439     9730     9478     8862     7852     6777 
    6241     6428     7079     7838     8322     8185     7491     6682 
    6070     6015     6893     8398     9751    10266     9472     7734 
    6247     5741     6106     7084     8406     9522     9837     9219 
    8001     6798     6216     6350     6990     8000     8938     9175 
    8613     7727     7041     6733     6822     7375     8218     8864 
    8847     8178     7511     7338     7491     7889     8642     9408 
    9656     9277     8407     7321     6666     6974     8089     9379 
   10110     9855     8757     7315     6134     5686     6178     7527 
    9170    10197     9899     8305     6264     4911     4901     6129 
    7978     9674    10642    10678     9660     7765     5985     5294 
    5574     6247     7145     8239     9074     9128     8532     7877 
    7595     7569     7528     7495     7261     6602     6138     6504 
    7284     7747     7871     7948     7865     7429     6925     6880 
    7437     8101     8336     8229     8209     8244     7948     7468 
    7366     7672     7924     7993     8145     8409     8383     8036 
    7809     7800     7901     8148     8334     8187     7770     7314 
    7083     7213     7497     7743     8017     8305     8451     8418 
    8293     8141     7979     7877     7882     7873     7879     8125 
    8491     8715     8716     8498     8314     8289     8046     7526 
    7138     7045     7110     7321     7823     8311     8198     7646 
    7163     6939     7218     7925     8463     8500     8028     7203 
    6620     6721     7167     7589     8074     8604     8958     8928 
    8473     7827     7160     6556     6293     6600     7395     8333 
    9020     9166     8765     8071     7122     6073     5663     6386 
    7832     9000     9185     8702     8208     7863     7641     7631 
    7894     8222     8174     7700     7288     7034     6619     6459 
    7179     8293     9101     9513     9383     8699     7843     7161 
    6813     6725     6778     6974     7346     7986     8629     8824 
    8775     8708     8472     8179     7933     7742     7815     8127 
    8488     8905     9215     9031     8141     6863     5960     5786 
    6158     7042     8310     9414     9722     9001     7774     6786 
    6316     6389     6922     7728     8594     9154     9100     8530 
    7711     6907     6535     6804     7422     8144     8876     9224 
    8784     7732     6810     6471     6515     6783     7256     7696 
    7917     7842     7524     7223     7001     6794     6735     6948 
    7371     7871     8374     8641     8332     7693     7339     7333 
    7622     8402     9406    10080    10081     9273     8100     7308 
    7038     7134     7750     8725     9282     9011     8214     7410 
    7071     7213     7391     7460     7473     7225     6655     6095 
    5995     6592     7731     8954     9845    10228     9945     8941 
    7608     6457     5809     5840     6482     7530     8517     8762 
    8148     7202     6597     6729     7457     8550     9709    10204 
    9679     8588     7408     6358     5749     5972     7196     8970 
   10088     9915     9096     8117     7082     6489     6647     7425 
    8330     8680     8523     8453     8384     7850     7192     7018 
    7265     7742     8448     9121     9225     8527     7480     6686 
    6273     6079     6165     6747     7557     8278     9086     9734 
    9494     8235     6446     4827     4136     4877     6995     9494 
   10990    10926     9468     7095     4919     4182     5274     7632 
   10189    11803    11762    10088     7623     5757     5256     5821 
    7086     8683     9771     9711     8702     7425     6351     5784 
    6093     7037     7781     7983     7816     7535     7420     7549 
    7939     8699     9494     9556     8668     7426     6430     5810 
    5647     6170     7254     8367     9100     9381     9315     8903 
    8271     7724     7215     6702     6590     7015     7666     8382 
    9166     9930    10378    10116     9236     8353     7595     6772 
    6469     7134     8230     9247     9992    10181     9648     8444 
    6840     5603     5451     6156     7068     7844     8256     8216 
    7770     7052     6492     6451     6897     7577     8090     8185 
    7983     7582     7007     6655     6887     7489     8021     8217 
    8228     8343     8414     8384     8499     8587     8338     7763 
    7057     6667     6878     7357     7700     7970     8341     8554 
    8199     7461     7061     7372     7854     7982     8127     8559 
    8748     8220     7288     6770     6864     7186     7804     8785 
    9537     9510     8797     7879     7030     6346     6208     6840 
    7771     8320     8384     8384     8372     8040     7501     7096 
    6844     6654     6685     7078     7665     8089     8127     7838 
    7420     7172     7331     7840     8434     8702     8386     7634 
    6678     5800     5459     5957     7227     8710     9490     9337 
    8893     8505     8101     7724     7387     7091     6883     6844 
    7109     7650     8283     8733     8841     8714     8376     7933 
    7819     8118     8480     8816     9143     9192     8726     7908 
    7186     6887     7086     7785     8698     9329     9370     8822 
    8122     7661     7495     7794     8464     8878     8676     7971 
    6928     5899     5530     6232     7723     9263    10058     9693 
    8418     6879     5724     5472     6320     7789     8995     9506 
    9323     8505     7426     6571     6311     6841     7722     8478 
    9116     9487     9316     8590     7623     6990     6867     6866 
    6847     7029     7315     7456     7573     7862     8266     8600 
    8587     8093     7447     7003     6733     6613     6853     7627 
    8604     9215     9274     8842     8021     7080     6471     6647 
    7574     8641     9190     9070     8511     7623     6686     6431 
    7155     8276     9028     9065     8398     7214     6056     5656 
    6215     7264     8131     8397     8164     7739     7365     7217 
    7306     7495     7457     7042     6691     6735     7037     7480 
    7963     8367     8642     8627     8229     7736     7481     7362 
    7165     7115     7473     7940     8195     8392     8708     9131 
    9443     9292     8649     7763     6859     6211     6150     6848 
    7994     8938     9400     9420     8985     8274     7531     6875 
    6642     7041     7720     8301     8561     8294     7746     7456 
    7635     8224     9011     9672     9850     9208     7904     6635 
    6043     6436     7582     8884     9891    10285     9877     8851 
    7622     6633     6222     6417     6867     7225     7561     7942 
    8121     8102     8097     8120     8151     8075     7703     7096 
    6639     6755     7337     7916     8344     8495     8187     7630 
    7113     6878     7194     7920     8584     8847     8606     8043 
    7585     7477     7605     7886     8330     8714     8641     7973 
    7133     6658     6604     6822     7169     7508     7858     8118 
    7924     7271     6808     7009     7600     8090     8317     8395 
    8376     8164     7913     7893     7920     7678     7337     7319 
    7684     8202     8718     9016     8850     8240     7447     6817 
    6617     6980     7917     9038     9612     9301     8329     7190 
    6462     6475     7187     8224     9081     9402     9072     8195 
    7024     6108     6011     6602     7492     8459     9130     9194 
    8669     7792     6939     6354     6045     6069     6507     7188 
    7717     7923     8032     8091     7898     7588     7369     7209 
    7183     7304     7315     7248     7352     7549     7761     8154 
    8679     8985     8845     8398     7843     7150     6488     6272 
    6681     7574     8495     8976     9022     8772     8170     7388 
    6929     7118     7827     8708     9400     9626     9364     8681 
    7600     6578     6212     6405     6905     7716     8564     9063 
    9127     8753     8101     7480     7005     6856     7360     8352 
    9154     9289     8903     8275     7443     6717     6635     7341 
    8499     9440     9682     9319     8599     7777     7138     6778 
    6821     7268     7728     7946     8004     7990     7879     7803 
    8058     8525     8729     8513     8067     7533     6926     6480 
    6616     7283     7962     8337     8357     7982     7234     6507 
    6330     6663     7167     7636     7769     7453     7044     6944 
    7226     7724     8345     8953     9171     8758     7962     7372 
    7187     7096     7133     7634     8375     8727     8428     7712 
    7010     6685     6809     7237     7835     8338     8434     8109 
    7574     7106     7029     7518     8442     9379     9914     9842 
    9119     7958     6880     6484     7044     8178     9289    10058 
   10166     9440     8206     6988     6305     6496     7296     8220 
    9013     9362     9061     8248     7188     6257     5854     6219 
    7210     8294     9026     9232     8893     8140     7299     6835 
    6793     6794     6867     7217     7555     7522     7263     7223 
    7400     7446     7435     7695     8176     8467     8368     8217 
    8220     8116     7838     7639     7572     7399     7001     6736 
    7033     7808     8586     8955     8883     8482     7823     7133 
