Origin Time       2024/04/02 04:24:00
Lat.              40.133
Long.             141.712
Depth. (km)       71
Mag.              6.0
Station Code      FKS007
Station Lat.      37.4061
Station Long.     140.9632
Station Height(m) 70
Record Time       2024/04/02 04:25:52
Sampling Freq(Hz) 100Hz
Duration Time(s)  78
Dir.              U-D
Scale Factor      3920(gal)/6182761
Max. Acc. (gal)   2.237
Last Correction   2024/04/02 04:25:52
Memo.             
[...]
   12379    12943    12963    12181    12183    12816    12674    12817 
   13567    13292    12741    13113    13323    12898    12425    12282 
   12774    13148    12660    12654    13509    13302    12160    11876 
   12154    12046    11937    12274    12482    12182    12526    13349 
   12729    12025    13189    13808    12857    12931    13630    12986 
   12632    13585    13781    12923    12674    12627    11739    11727 
   12969    12881    12495    13523    13343    12370    13093    13296 
   12278    12335    12879    12937    12830    12685    12839    13026 
   13138    13018    12290    12361    13013    12274    11666    12265 
   11921    11269    11908    12051    11352    11454    11970    11904 
   11477    11822    12847    12565    11673    12349    12959    12533 
   12820    13130    12768    12999    13240    12814    12626    12315 
   11737    12207    12995    12883    12919    13274    13173    12800 
   12578    13165    14048    13856    13275    13476    13851    13569 
   12866    12372    12170    12232    12380    11891    11727    12930 
   13538    13247    13675    13835    13254    13178    13206    12801 
   12821    13328    13625    13613    13120    12434    12462    12718 
   12405    12300    12607    12155    11518    12267    13201    12790 
   12541    13228    12763    11227    11174    12275    12722    12125 
   11168    11747    13165    12795    12142    12541    12498    12327 
   12436    12565    12698    12074    11582    11786    11296    11098 
   11736    11515    11263    11748    11943    12393    13028    12712 
   12267    12354    12443    13074    13841    13215    12676    13720 
   14265    13432    13145    13979    14105    12867    12417    13050 
   12801    12542    13428    13612    12573    12280    13026    13178 
   12609    12653    13267    13066    12088    12049    12935    12947 
   12478    12986    13302    12465    12634    14179    14266    13104 
   12920    13017    12502    12207    12401    12432    12057    11977 
   12339    12075    11306    11879    13327    12773    11128    11470 
   12462    11954    11440    11996    12396    12537    12939    12797 
   12437    12749    12930    12783    12875    12997    13273    13358 
   12601    12283    13121    13575    13073    12715    13125    13403 
   12765    12322    12744    12804    12331    12632    13092    12238 
   11525    12250    12382    11503    11855    12637    11747    10868 
   11767    12740    12693    12916    13552    13588    13035    12429 
   12543    13329    13687    13567    13060    12391    12740    13193 
   12547    12360    12734    12401    12431    13204    13205    12631 
   12434    12186    11997    12498    13016    12925    12604    12241 
   11931    11913    11973    11965    12050    12119    12264    12486 
   12339    12315    12979    13665    13742    13107    12536    12778 
   12935    12652    12713    12931    13012    12864    12320    12313 
   13093    13478    13481    13350    12568    12280    12881    12309 
   11453    12673    13995    13352    12779    13380    13064    11770 
   11864    13056    13195    12360    12219    13055    13346    12281 
   11832    13158    13508    12494    12769    12958    12210    12722 
   13210    12761    12758    12571    12874    13541    12307    11752 
   13074    12662    11703    12461    13268    13437    12773    11912 
   12459    12597    11470    11672    12576    12598    12550    12256 
   11979    12326    12479    12399    12349    12539    13069    13140 
   13140    13396    13102    13031    13394    12917    12265    12584 
   13058    12858    12479    12210    12172    12656    12887    12819 
   13100    12842    12198    11977    11596    11671    12192    11516 
   10819    11462    11950    11627    11528    12545    13543    12851 
   12318    13257    13275    12016    11763    12786    13197    12190 
   11537    12262    12615    12246    12841    13522    12938    12665 
   12981    12580    12311    12996    13656    13253    12145    12126 
   13247    13467    13092    13456    13294    12337    12490    13392 
   13497    13389    13740    13893    13642    13137    12495    12456 
   13053    13442    13475    13351    13266    13266    12895    12437 
   12428    12477    12482    12235    11705    12266    13761    13993 
   12768    12033    12258    12175    12097    12746    12772    12073 
   12188    12803    12819    12532    12483    12387    12255    12322 
   12208    12115    12282    12035    11530    11573    11822    11308 
   10833    11770    12522    12141    12433    12920    12564    12434 
   12782    13473    13842    13159    12741    12672    12241    12373 
   12412    11846    12225    12907    12840    12984    13106    12942 
   13126    12821    12007    11989    12280    12372    13088    13912 
   13769    13307    13278    13209    13020    13111    12908    12386 
   12908    13746    12877    12022    13013    13174    11961    12134 
   12797    12181    11624    12070    12750    12790    12565    12872 
   12882    12404    12788    13449    13053    12493    12662    12735 
   12508    12755    13027    12775    12575    12682    13045    13232 
   12985    12882    12606    12124    12354    12720    12430    11793 
   11236    11516    12466    12356    11365    11492    12368    12676 
   12907    13439    13552    13037    12885    13430    13530    12726 
   11968    12161    12723    12674    12506    12474    12347    12324 
   12281    12751    13169    12392    12275    12538    11202    10801 
   11996    12265    12382    12924    13094    13175    12685    12019 
   12154    12743    13826    14468    14085    14199    14189    13258 
   13205    13639    12879    12047    12213    12413    12204    12258 
   12323    11801    11909    12933    12854    12092    12542    13324 
   13224    12627    12558    13240    13100    12480    12979    12906 
   11769    11693    12266    12465    12540    12366    12382    12730 
   12709    12542    12357    12021    12081    12360    12059    11705 
   12600    13653    13054    12460    12896    12503    11956    12605 
   13021    13151    13979    14460    13832    12740    12495    13515 
   13644    12391    12032    12262    12135    12526    13124    13331 
   13026    12323    12459    12733    11625    11090    12156    12632 
   12129    12180    12896    13175    12644    12316    12886    13236 
   13017    13090    12735    12127    12639    12922    12203    12302 
   12980    12665    11946    11952    12229    11915    11753    12490 
   12635    11899    12166    12815    12464    12472    13053    12464 
   11402    11939    13112    12802    12218    12978    13567    13098 
   12861    13163    13222    12949    12718    12501    12046    11796 
   12332    13021    13340    13453    13010    12546    13111    13504 
   12542    12030    12783    12760    12298    12983    13198    12469 
   12679    13161    12780    12835    13752    13895    12836    12462 
   13228    13092    12235    12665    13193    12256    11826    12756 
   12804    11860    12443    13716    12791    11373    11686    11732 
   11187    11781    12348    12116    12529    13318    13284    12526 
   12234    13207    13516    12212    12203    13818    14315    13717 
   13172    12447    11745    11951    12743    12708    12265    12823 
   13011    11696    11337    12414    12271    11543    12121    12628 
   12225    12179    12988    13801    13489    13053    13578    13011 
   12100    13379    13943    12678    13008    13695    12578    12104 
   12728    12616    12357    12614    12764    12702    12416    12053 
   12162    12452    12271    11978    12729    13700    12898    12315 
   13458    13542    12667    12645    12857    13000    12610    12209 
   13013    13271    12510    12375    12353    12273    12609    12385 
   11968    12493    12897    12621    12660    12877    12850    12942 
   13149    13143    12931    12973    13188    12590    11565    11894 
   12935    12749    12545    13396    13462    12849    12934    12805 
   12193    12151    12505    12463    12193    12333    12530    12011 
   11251    11290    11966    12408    12205    11760    12112    12741 
   12237    11874    12748    13008    12305    12344    13079    13422 
   13275    13310    13530    12937    12214    12777    13003    12161 
   12312    12697    11846    11411    11485    10809    11009    12554 
   12979    12274    12252    12589    12286    12027    12692    13202 
   12686    12571    13458    13764    13052    12559    12850    13426 
   13291    12444    12218    12504    12434    12488    12399    12056 
   12459    12683    12355    12596    12753    12944    13418    12854 
   12687    13590    13170    12936    14199    13996    13055    13520 
   13408    12631    13124    13600    13239    13494    13936    13537 
   12680    12045    12335    12531    11598    11669    12938    12889 
   12477    13070    13061    12283    11745    11321    11259    11750 
   12323    12705    12737    12808    12909    12169    11674    12492 
   12615    11837    12222    12855    12684    12735    12545    11760 
   11651    12129    11963    11414    11732    12482    12600    12357 
   11792    11298    11705    12039    11877    12261    13020    13478 
   13420    13331    13670    13771    14025    14390    13630    13202 
   13542    12738    11855    12077    12116    11888    12228    12549 
   12725    13478    13582    12653    12413    12126    11254    11707 
   12907    13002    12495    12369    12305    11553    11200    12345 
   12718    11981    12877    13639    12370    12247    13547    13501 
   12598    12199    12488    13055    13265    13760    14279    13765 
   13316    13407    13462    13684    13426    12963    13487    13610 
   12671    12495    12947    12788    12659    13034    12991    12745 
   13486    14277    13595    12762    13525    14193    13128    12472 
   12976    12636    11985    12096    12073    11935    12008    12458 
   13026    12126    11129    12207    12968    12040    11671    12368 
   12403    11761    11928    11981    10723    10113    10555    10382 
   10621    12179    13224    12921    12949    14060    14436    13367 
   12385    11942    11134    10209    10541    11992    12719    12115 
   11617    12264    13246    13453    12930    12438    12459    12229 
   11467    12038    13619    13817    13675    13948    13219    13150 
   14727    15002    13696    13774    14821    14469    14089    14985 
   14970    14462    15402    15732    14793    14573    14180    12991 
   12542    12277    11456    11091    10736    10543    11992    13297 
   13050    12890    12894    13251    14136    13614    12675    12442 
   11369    11063    12006    11666    11709    13121    12724    11237 
   11654    12797    12811    12232    12134    12700    12533    11896 
   13012    13985    12835    12331    12874    12548    11821    11362 
   11631    12198    11101     9479    10200    11629    11162    10163 
   10637    12027    12504    12278    12845    13546    13343    12524 
   11542    11234    11600    12055    12935    13318    12303    11135 
   10440    10825    12900    13857    12503    12954    15030    14126 
   11910    12442    14451    14606    12812    12609    14313    14240 
   13396    13605    12529    11374    12333    13040    12990    13488 
   13672    13462    13280    12505    11690    11910    12822    13334 
   12930    12667    13488    13977    13716    14344    14557    12871 
   11684    11801    11611    11194    11046    11484    12417    12539 
   12566    13527    13593    12856    13094    13632    13480    12919 
   12488    11996    11123    11013    12223    13085    12836    12862 
   13206    12523    11753    12072    12602    13366    14245    13715 
   12521    12415    12538    11653    10756    11484    12774    12544 
   12060    12725    13356    13681    13937    13368    12278    11982 
   12395    12630    12975    13276    12826    12205    11585    11174 
   11918    12677    12572    12589    12560    12800    13286    12365 
   11871    13394    13593    11964    11668    12598    12737    11799 
   11273    12871    15089    14973    14138    14715    14301    12812 
   12792    12582    11307    11846    13465    13189    12463    12850 
   12313    10930    10704    11314    11913    12344    12237    11445 
   11265    12814    14074    13314    12584    13579    14806    14781 
   14224    13547    12311    11703    11983    11691    11556    11920 
   11461    10993    11491    12334    12840    12863    13233    13359 
   12535    12056    11537    11140    11665    11425    11472    13146 
   13662    13012    13218    13112    12516    12754    12592    11506 
   11878    13710    13896    12343    12050    13198    13581    13227 
   13095    12839    12746    12555    11541    11797    13171    12211 
   10282    10317    11313    12661    13835    13369    12846    13522 
   13481    12786    13098    13812    13702    12613    11241    10843 
   11381    12112    12909    12962    12735    13616    14290    14089 
   14548    15337    15199    14089    12832    12688    12695    11511 
   11465    13105    13832    13946    13880    12888    12732    13566 
   13316    12990    13547    13378    12457    11885    11733    11805 
   12201    13152    13764    13638    13794    13402    11980    11415 
   11473    10416     9109     9447    10889    11466    11068    10863 
   10981    10999    11172    11725    12262    12775    13492    14155 
   14035    12960    12262    12606    13208    13708    13641    12958 
   13365    14388    13246    11426    12063    13491    13389    13048 
   13539    13604    13049    12935    12950    12660    12301    11891 
   11791    11934    11844    11991    12474    12807    12605    11581 
   11237    12035    11806    11763    13339    13278    12223    13802 
   14704    12371    11536    12752    11934    10828    12270    14021 
   14181    13719    13677    13217    11946    11800    12598    12331 
   11749    11612    11133    10837    10899    10710    11221    12162 
   11915    11641    12666    13863    14464    14196    13187    12755 
   12908    12920    13227    13537    13635    13930    13867    13662 
   14124    14641    14725    14573    14257    13943    13702    13990 
   14541    13825    12701    12864    13258    13656    14069    12681 
   11522    12890    12887    10794    11041    12875    12991    12066 
   11753    11794    11227    11039    12009    11553    10062    10867 
   11796    11031    11532    12552    12078    12305    13288    12985 
   12269    11867    11817    12182    11576    10889    11625    12094 
   12329    13228    13332    13266    13820    13262    12355    12589 
   12956    12902    12697    12758    12851    12743    13641    14303 
   13106    12572    13071    12260    11109    11508    12743    12433 
   10949    11847    13561    12222    11267    13306    14263    13298 
   13505    14588    14544    13940    13660    12735    11935    12815 
   13503    13067    13374    13818    13256    13248    13585    12990 
   12885    13608    14033    14005    13740    14269    14242    12469 
   12565    13744    12380    11885    13467    13131    11952    11945 
   11618    11387    11361    10906    11726    12556    11334    10866 
   11756    11680    11499    11599    11542    12278    12377    11881 
   13238    14015    12709    12611    13540    13515    12927    12239 
   12079    12242    12049    12088    12101    11989    12391    12448 
   11857    11340    10874    10959    11992    12266    11555    12646 
   14274    13390    12875    14147    14287    13805    13934    13796 
   13623    13405    12723    12292    12150    12036    12272    12218 
   11778    12110    12823    13127    13596    14017    13559    13003 
   13192    13053    12723    13603    13874    12599    12371    12466 
   11398    11473    12485    12317    11843    11345    10515    10916 
   11873    11513    11133    11942    12674    12122    11579    12636 
   13225    12452    13083    14212    13145    12245    13423    13484 
   11515    10754    11348    11615    11657    11218    11208    12367 
   12700    12598    13150    12896    12934    14318    14839    14447 
   14508    14147    12928    12181    12681    13626    13272    11996 
   12544    13753    12658    11566    11881    11131    10576    11839 
   12547    12699    14034    15130    14498    13467    13694    14355 
   13546    12660    14231    15742    14102    12107    12264    12209 
   11187    11482    12579    12575    11965    11503    11560    12545 
   13164    12494    11840    11881    12511    13311    13295    13202 
   13325    13030    13440    13574    12668    13339    14114    12517 
   10975    10535    10927    11954    11490    10727    11848    12780 
   12934    13625    14465    14794    14169    13273    13388    13377 
   12060    11523    12719    12878    11516    11358    11826    10771 
   10195    11302    11140    10096    11229    12936    13412    14124 
   15022    15119    14130    13020    13207    12879    12026    12772 
   12710    11760    12383    12342    11254    11382    12371    13664 
   14255    13669    13841    14618    14276    13646    13833    13703 
   12597    12339    13368    13118    11750    11990    12787    12090 
   11496    11534    10861    10571    10993    10795    10769    11489 
   12322    12902    12555    12055    12750    13643    13461    13153 
   14084    15049    14484    13338    12739    12592    12128    11435 
   11736    12554    13057    13661    13560    12414    11817    11639 
   11027    11038    11545    11764    12439    13077    13004    13011 
   12972    13103    14008    14468    14126    13973    13873    13791 
   14260    14747    13962    12365    11996    12526    12686    13196 
   13591    12892    12269    12296    12006    11233    10945    11202 
   11196    11212    11990    13103    13164    12360    11936    11137 
   10561    11555    11500    10244    10687    11313    11544    13316 
   14815    14999    15027    13996    12532    12233    12002    11848 
   12303    12343    12692    13610    13456    12526    12191    12830 
   13302    12375    11788    12274    11645    10954    12318    13233 
   12206    12354    13776    13698    13559    14078    13416    13572 
   14738    13534    11966    12566    12595    11534    11639    11981 
   11568    12205    13404    13522    14135    14914    13973    13718 
   15003    15205    14361    13054    11680    11450    11255    11162 
   12573    13009    11821    11969    12628    12223    11737    11302 
   11418    12164    12427    12938    13474    12774    12022    11636 
   11254    11554    11964    12089    12324    12406    12565    12706 
   11759    10479    11165    12724    12661    12491    13230    13363 
   13064    12866    12680    12688    12898    13261    13164    12488 
   12042    12486    13822    14220    13483    13857    14126    13114 
   12847    13026    13195    13740    12941    12152    13534    14162 
   13306    13319    13055    11937    11833    12852    13831    13127 
   11351    12032    13781    12921    12367    14073    14461    13132 
