Origin Time       2024/04/02 04:24:00
Lat.              40.133
Long.             141.712
Depth. (km)       71
Mag.              6.0
Station Code      HKD099
Station Lat.      43.0736
Station Long.     142.8392
Station Height(m) 177
Record Time       2024/04/02 04:25:59
Sampling Freq(Hz) 100Hz
Duration Time(s)  68
Dir.              N-S
Scale Factor      7845(gal)/8223790
Max. Acc. (gal)   2.395
Last Correction   2024/04/02 04:25:59
Memo.             
[...]
   -5822    -5792    -5842    -5949    -5929    -5836    -5842    -5857 
   -5810    -5837    -5911    -5892    -5861    -5894    -5869    -5796 
   -5834    -5890    -5775    -5611    -5572    -5649    -5772    -5907 
   -6018    -5985    -5849    -5834    -5919    -5953    -5941    -5956 
   -6000    -5950    -5786    -5745    -5836    -5837    -5786    -5802 
   -5837    -5883    -6018    -6147    -6079    -5918    -5883    -5903 
   -5907    -5969    -6012    -6002    -6049    -6102    -6100    -6106 
   -6065    -5983    -6011    -6068    -6021    -6006    -6057    -6104 
   -6166    -6192    -6112    -5960    -5788    -5628    -5551    -5601 
   -5599    -5447    -5281    -5208    -5301    -5503    -5617    -5671 
   -5751    -5823    -5946    -6035    -5938    -5784    -5679    -5562 
   -5494    -5513    -5587    -5761    -5911    -5931    -5854    -5603 
   -5289    -5206    -5351    -5525    -5638    -5687    -5690    -5732 
   -5903    -6123    -6207    -6134    -6026    -5887    -5748    -5759 
   -5805    -5813    -5952    -6107    -6219    -6366    -6286    -5992 
   -5833    -5786    -5823    -6023    -6156    -6116    -6118    -6207 
   -6262    -6237    -6160    -5995    -5825    -5883    -6048    -6053 
   -5975    -5927    -5911    -5903    -5868    -5848    -5809    -5740 
   -5763    -5822    -5745    -5549    -5398    -5332    -5270    -5313 
   -5514    -5648    -5697    -5794    -5868    -5957    -6081    -6084 
   -6066    -6089    -5983    -5925    -5999    -5929    -5817    -5813 
   -5802    -5879    -6085    -6274    -6295    -6008    -5634    -5449 
   -5432    -5611    -5879    -5976    -6027    -6151    -6115    -5923 
   -5738    -5560    -5532    -5694    -5871    -6053    -6134    -5964 
   -5722    -5633    -5648    -5648    -5764    -5971    -6016    -6031 
   -6146    -6158    -6056    -6003    -6025    -6048    -6064    -6093 
   -6060    -5923    -5752    -5611    -5579    -5655    -5724    -5771 
   -5819    -5830    -5825    -5818    -5848    -5914    -5868    -5742 
   -5711    -5744    -5764    -5742    -5656    -5544    -5481    -5514 
   -5665    -5914    -6115    -6183    -6191    -6060    -5746    -5482 
   -5417    -5491    -5557    -5595    -5710    -5814    -5852    -6018 
   -6276    -6342    -6168    -5977    -5927    -5953    -5952    -5900 
   -5830    -5761    -5713    -5730    -5790    -5795    -5709    -5651 
   -5732    -5873    -5984    -6043    -6004    -5913    -5872    -5848 
   -5868    -5915    -5813    -5710    -5760    -5815    -5929    -6131 
   -6265    -6231    -6037    -5873    -5802    -5806    -5965    -6114 
   -6142    -6106    -5977    -5806    -5695    -5678    -5706    -5676 
   -5621    -5637    -5715    -5881    -6103    -6193    -6157    -6048 
   -5817    -5699    -5779    -5769    -5698    -5668    -5636    -5710 
   -5900    -6022    -5987    -5881    -5868    -5887    -5791    -5656 
   -5535    -5466    -5535    -5668    -5814    -5940    -6011    -6111 
   -6173    -6143    -6119    -6000    -5765    -5638    -5643    -5633 
   -5621    -5645    -5651    -5603    -5548    -5575    -5698    -5768 
   -5744    -5741    -5717    -5655    -5714    -5836    -5857    -5879 
   -5972    -6039    -6116    -6204    -6106    -5922    -5868    -5888 
   -6014    -6135    -6021    -5923    -5981    -5923    -5871    -5911 
   -5787    -5659    -5722    -5822    -5957    -6066    -5968    -5752 
   -5586    -5556    -5695    -5922    -6039    -5942    -5859    -5896 
   -5807    -5568    -5431    -5516    -5755    -6056    -6389    -6558 
   -6447    -6340    -6330    -6235    -6068    -5884    -5756    -5772 
   -5753    -5644    -5672    -5768    -5791    -5844    -5937    -6031 
   -6042    -5830    -5553    -5379    -5248    -5258    -5375    -5386 
   -5455    -5713    -5904    -5948    -5975    -5985    -5940    -5921 
   -6011    -6103    -6048    -5991    -6107    -6232    -6232    -6130 
   -5957    -5917    -5984    -5923    -5852    -5746    -5413    -5142 
   -5121    -5134    -5216    -5448    -5578    -5584    -5701    -5834 
   -5949    -6224    -6421    -6401    -6444    -6417    -6280    -6300 
   -6265    -6107    -6049    -6041    -5989    -5807    -5572    -5429 
   -5325    -5350    -5445    -5431    -5491    -5705    -5880    -5998 
   -6072    -6065    -5972    -5898    -6000    -6138    -6168    -6251 
   -6420    -6478    -6362    -6151    -5927    -5807    -5842    -5846 
   -5737    -5644    -5606    -5575    -5564    -5611    -5641    -5606 
   -5651    -5771    -5757    -5624    -5548    -5516    -5524    -5617 
   -5688    -5786    -5942    -6095    -6291    -6349    -6196    -6092 
   -6034    -5984    -5995    -5961    -5933    -6004    -5996    -5854 
   -5799    -5883    -5925    -5877    -5826    -5684    -5524    -5570 
   -5620    -5548    -5652    -5860    -5908    -6011    -6208    -6122 
   -5827    -5632    -5520    -5517    -5617    -5765    -6018    -6119 
   -5953    -5822    -5698    -5548    -5514    -5506    -5574    -5688 
   -5705    -5809    -5883    -5725    -5667    -5763    -5832    -5942 
   -6038    -6100    -6200    -6218    -6102    -6007    -6049    -6095 
   -6075    -6149    -6146    -5962    -5929    -5914    -5730    -5702 
   -5771    -5783    -5949    -6073    -5918    -5737    -5578    -5387 
   -5472    -5768    -5946    -6122    -6239    -6015    -5744    -5738 
   -5786    -5790    -5899    -6068    -6133    -6080    -5938    -5674 
   -5431    -5377    -5490    -5745    -5981    -6041    -6056    -6100 
   -6092    -6019    -5969    -6014    -5994    -5805    -5709    -5803 
   -5896    -5945    -5821    -5571    -5516    -5571    -5617    -5661 
   -5544    -5370    -5367    -5486    -5613    -5644    -5682    -5914 
   -6178    -6265    -6280    -6353    -6311    -6126    -6154    -6285 
   -6238    -6238    -6289    -6266    -6274    -6278    -6242    -6077 
   -5757    -5508    -5401    -5483    -5684    -5761    -5845    -5964 
   -5925    -5822    -5657    -5449    -5512    -5803    -5933    -5910 
   -5964    -5962    -5871    -5880    -5836    -5695    -5692    -5765 
   -5809    -5822    -5765    -5746    -5776    -5617    -5440    -5499 
   -5551    -5607    -5810    -5973    -6156    -6247    -5996    -5742 
   -5628    -5598    -5826    -6114    -6257    -6265    -6095    -5856 
   -5645    -5544    -5529    -5394    -5308    -5498    -5705    -5755 
   -5776    -5859    -5980    -6088    -6184    -6118    -5883    -5837 
   -5911    -5923    -5980    -5907    -5742    -5825    -6007    -6068 
   -6181    -6291    -6141    -6010    -6083    -5946    -5698    -5698 
   -5726    -5730    -5787    -5724    -5668    -5764    -5827    -5821 
   -5771    -5564    -5413    -5687    -6068    -6107    -6133    -6245 
   -6102    -6038    -6208    -6120    -5917    -5803    -5536    -5422 
   -5610    -5621    -5597    -5703    -5575    -5539    -5811    -5864 
   -5848    -5960    -5849    -5725    -5668    -5468    -5549    -5910 
   -6030    -6058    -6197    -6262    -6277    -6272    -6170    -6039 
   -5894    -5676    -5539    -5655    -5873    -5911    -5821    -5837 
   -5800    -5679    -5778    -5836    -5647    -5606    -5695    -5643 
   -5532    -5386    -5246    -5336    -5607    -5923    -6327    -6651 
   -6682    -6540    -6320    -6115    -6153    -6262    -6224    -6235 
   -6227    -6033    -5844    -5753    -5702    -5688    -5670    -5589 
   -5490    -5424    -5367    -5350    -5416    -5544    -5756    -5871 
   -5713    -5564    -5560    -5551    -5590    -5649    -5633    -5678 
   -5830    -5914    -5888    -5957    -5999    -5795    -5648    -5799 
   -6070    -6210    -6162    -6120    -6149    -6259    -6382    -6268 
   -6151    -6207    -6134    -6060    -6058    -5952    -5898    -5845 
   -5763    -5805    -5822    -5759    -5613    -5482    -5616    -5676 
   -5555    -5638    -5765    -5930    -6137    -6089    -6110    -6197 
   -5992    -5841    -5906    -5957    -6023    -6106    -6039    -5846 
   -5763    -5859    -5962    -5996    -6012    -6007    -5919    -5818 
   -5826    -5823    -5663    -5535    -5621    -5778    -5837    -5788 
   -5610    -5408    -5413    -5516    -5526    -5626    -5730    -5616 
   -5583    -5792    -5952    -5968    -6029    -6134    -6095    -6019 
   -6052    -6076    -6083    -6010    -5790    -5695    -5668    -5489 
   -5476    -5614    -5548    -5557    -5845    -6099    -6177    -6087 
   -5881    -5761    -5714    -5579    -5505    -5638    -5752    -5737 
   -5805    -5806    -5576    -5583    -5922    -6084    -6116    -6170 
   -6003    -5753    -5591    -5455    -5529    -5809    -6006    -6135 
   -6234    -6118    -5964    -6026    -6027    -5917    -5979    -6107 
   -6149    -6192    -6174    -5958    -5660    -5517    -5599    -5733 
   -5752    -5841    -6124    -6257    -6149    -6108    -6080    -6004 
   -6070    -6150    -6041    -5861    -5842    -6048    -6170    -6137 
   -6245    -6222    -5940    -5806    -5624    -5362    -5425    -5634 
   -5872    -6108    -5973    -5570    -5364    -5337    -5293    -5304 
   -5366    -5456    -5652    -5867    -6062    -6235    -6241    -6042 
   -5791    -5624    -5532    -5598    -5780    -5755    -5683    -5761 
   -5771    -5833    -6006    -6145    -6226    -6103    -6018    -6138 
   -6054    -5881    -5857    -5953    -6197    -6191    -5891    -5765 
   -5732    -5724    -5748    -5598    -5462    -5467    -5520    -5715 
   -6021    -6323    -6531    -6494    -6241    -5907    -5648    -5530 
   -5447    -5447    -5663    -5915    -6081    -6262    -6320    -6164 
   -5987    -5821    -5719    -5768    -5765    -5780    -5942    -5971 
   -5849    -5665    -5381    -5228    -5247    -5341    -5518    -5522 
   -5424    -5448    -5378    -5321    -5440    -5599    -5856    -6142 
   -6386    -6542    -6358    -6085    -6038    -5960    -5880    -6026 
   -6247    -6428    -6534    -6544    -6517    -6420    -6281    -6079 
   -5763    -5610    -5611    -5526    -5529    -5661    -5822    -6080 
   -6293    -6334    -6181    -5894    -5703    -5535    -5343    -5408 
   -5670    -5988    -6374    -6542    -6324    -5999    -5799    -5732 
   -5782    -5913    -5961    -5883    -5791    -5717    -5775    -5949 
   -5992    -5935    -5871    -5647    -5364    -5351    -5533    -5709 
   -5873    -5957    -6150    -6536    -6604    -6377    -6158    -5778 
   -5513    -5506    -5394    -5309    -5277    -5154    -5163    -5158 
   -4977    -5065    -5521    -6007    -6431    -6597    -6320    -5895 
   -5441    -4992    -4818    -4854    -5096    -5599    -5922    -6016 
   -6246    -6521    -6735    -6871    -6763    -6463    -6011    -5367 
   -4955    -5100    -5593    -6116    -6264    -5938    -5540    -5340 
   -5400    -5598    -5879    -6308    -6546    -6428    -6222    -6029 
   -5940    -5811    -5459    -5228    -5277    -5613    -6269    -6806 
   -6939    -6648    -6046    -5660    -5566    -5460    -5487    -5594 
   -5609    -5651    -5676    -5630    -5590    -5653    -5941    -6303 
   -6497    -6570    -6616    -6609    -6457    -6169    -5942    -6023 
   -6407    -6693    -6782    -6691    -5992    -4976    -4441    -4318 
   -4511    -5082    -5516    -5574    -5628    -5805    -5803    -5535 
   -5427    -5584    -5695    -5892    -6184    -6239    -6226    -6199 
   -6150    -6278    -6118    -5660    -5535    -5472    -5389    -5676 
   -6037    -6212    -6342    -6411    -6318    -6083    -5848    -5622 
   -5335    -5124    -5101    -5358    -5837    -6124    -6110    -5880 
   -5400    -5121    -5382    -5784    -6197    -6686    -6787    -6389 
   -6129    -6124    -5952    -5655    -5472    -5537    -6080    -7036 
   -7902    -8166    -7670    -6632    -5483    -4665    -4287    -4306 
   -4596    -4807    -4949    -5235    -5352    -5217    -5310    -5734 
   -6284    -6785    -7017    -6891    -6285    -5431    -5082    -5227 
   -5495    -6007    -6259    -5802    -5258    -4950    -4946    -5518 
   -6362    -7167    -7730    -7530    -6621    -5437    -4244    -3596 
   -3763    -4391    -5383    -6644    -7554    -7805    -7658    -7192 
   -6424    -5688    -5177    -5027    -5363    -5814    -6096    -6147 
   -5842    -5472    -5271    -5213    -5377    -5390    -5140    -5167 
   -5458    -5709    -5998    -6295    -6463    -6505    -6426    -6227 
   -5871    -5448    -5310    -5659    -6254    -6562    -6328    -5682 
   -4873    -4477    -4681    -5116    -5760    -6448    -6691    -6388 
   -5825    -5329    -4800    -4190    -4055    -4604    -5526    -6733 
   -7851    -8132    -7572    -6778    -6076    -5530    -5216    -5301 
   -5822    -6555    -7258    -7662    -7516    -6845    -5892    -5031 
   -4490    -4174    -4178    -4653    -5186    -5703    -6574    -7466 
   -7979    -8172    -7994    -7558    -7047    -6373    -5633    -4904 
   -4178    -3840    -4163    -4827    -5456    -5980    -6347    -6475 
   -6516    -6527    -6396    -6284    -6176    -5921    -5725    -5522 
   -5094    -4681    -4592    -4907    -5516    -6242    -6808    -6943 
   -6833    -6674    -6270    -5717    -5347    -5201    -5248    -5339 
   -5239    -5142    -5233    -5398    -5591    -5724    -5698    -5598 
   -5470    -5360    -5418    -5601    -5656    -5580    -5560    -5549 
   -5424    -5278    -5279    -5483    -5791    -6070    -6241    -6156 
   -5768    -5340    -5206    -5412    -5738    -6231    -6982    -7550 
   -7456    -6667    -5582    -4743    -4326    -4487    -5432    -6731 
   -7785    -8364    -8286    -7379    -5895    -4692    -4426    -4972 
   -5817    -6396    -6500    -6214    -5722    -5394    -5262    -5236 
   -5427    -5537    -5528    -5814    -6084    -5987    -5860    -5678 
   -5190    -4764    -4773    -5104    -5552    -5977    -6185    -6303 
   -6654    -6880    -6570    -5949    -5236    -4881    -5238    -5814 
   -6303    -6671    -6655    -6475    -6409    -6165    -5875    -5991 
   -6006    -5432    -4892    -4715    -4715    -4980    -5305    -5622 
   -6230    -6760    -6832    -6627    -6134    -5536    -5385    -5711 
   -6060    -6173    -6127    -6131    -6339    -6601    -6636    -6570 
   -6706    -6871    -6941    -7082    -6955    -6394    -5872    -5435 
   -5146    -5377    -5775    -5880    -5780    -5563    -5521    -5745 
   -5749    -5575    -5455    -5085    -4718    -4881    -5198    -5339 
   -5386    -5090    -4747    -4919    -5443    -6434    -7615    -7969 
   -7618    -7009    -5953    -4931    -4689    -5088    -5721    -6413 
   -6748    -6430    -5914    -5683    -5652    -5752    -5973    -6006 
   -5664    -5117    -4671    -4602    -4803    -5105    -5597    -6037 
   -6201    -6412    -6647    -6571    -6300    -6041    -5896    -5892 
   -5844    -5737    -5644    -5413    -5229    -5389    -5625    -5682 
   -5776    -6016    -6104    -5883    -5564    -5232    -4918    -4974 
   -5494    -6030    -6326    -6515    -6702    -6697    -6380    -6180 
   -6232    -6129    -6097    -6566    -7060    -6994    -6492    -5961 
   -5486    -5051    -5043    -5537    -5935    -6072    -6111    -6062 
   -6021    -5842    -5445    -5182    -5112    -5067    -5163    -5449 
   -5844    -6320    -6600    -6426    -6058    -5838    -5817    -5881 
   -5949    -5969    -5926    -5976    -6184    -6316    -6254    -6176 
   -6169    -5937    -5513    -5436    -5490    -5181    -5074    -5425 
   -5549    -5451    -5591    -5872    -6069    -6247    -6465    -6478 
   -6183    -5826    -5559    -5389    -5293    -5294    -5377    -5316 
   -5089    -4923    -4990    -5190    -5273    -5439    -5595    -5285 
   -4993    -5105    -5277    -5557    -5867    -5937    -6029    -6380 
   -6887    -7254    -7176    -6783    -6462    -6327    -6330    -6632 
   -7121    -7257    -7109    -7041    -6778    -6157    -5499    -4946 
   -4639    -4822    -5348    -5880    -6239    -6377    -6377    -6316 
   -6231    -6166    -5940    -5513    -5220    -5179    -5458    -6065 
   -6619    -6781    -6477    -6045    -5796    -5499    -5301    -5383 
   -5452    -5787    -6415    -6700    -6474    -5744    -4862    -4359 
   -4118    -4135    -4459    -4820    -5185    -5570    -5946    -6185 
   -6107    -6061    -6432    -6997    -7348    -7288    -6812    -6007 
   -5049    -4260    -3917    -4001    -4469    -5270    -6095    -6708 
   -7018    -6916    -6482    -6060    -5961    -6145    -6370    -6511 
   -6489    -6323    -6177    -6169    -6222    -6205    -6122    -5948 
   -5732    -5783    -6034    -6107    -6184    -6372    -6187    -5643 
   -5248    -5098    -5023    -5053    -5132    -5024    -4901    -4999 
   -5185    -5454    -5663    -5529    -5278    -5104    -5023    -5287 
   -5773    -6057    -6087    -6081    -6170    -6223    -6220    -6274 
   -6303    -6350    -6399    -6264    -6080    -6072    -6347    -6836 
   -7214    -7312    -7229    -6964    -6405    -5692    -5081    -4595 
   -4432    -4770    -5364    -6038    -6604    -6766    -6756    -6666 
   -6097    -5460    -5505    -5907    -6196    -6543    -6744    -6463 
   -6050    -5714    -5393    -5323    -5427    -5441    -5495    -5557 
   -5409    -5221    -5337    -5679    -5769    -5548    -5327    -5061 
   -4857    -5127    -5794    -6534    -7088    -7145    -6687    -5980 
   -5309    -4962    -5067    -5521    -6111    -6569    -6596    -6204 
   -5701    -5202    -4897    -4949    -5088    -5127    -5173    -5339 
   -5525    -5660    -5902    -6149    -6227    -6313    -6474    -6601 
   -6542    -6201    -5967    -6173    -6581    -7036    -7361    -7277 
   -7011    -6772    -6558    -6355    -5952    -5528    -5413    -5404 
   -5391    -5373    -5089    -4590    -4218    -4102    -4297    -4812 
   -5378    -5827    -6220    -6555    -6777    -6721    -6296    -5850 
   -5764    -5914    -6112    -6369    -6489    -6385    -6288    -6259 
   -6239    -6187    -5962    -5601    -5250    -4877    -4560    -4513 
   -4629    -4708    -4920    -5440    -6100    -6577    -6635    -6322 
   -5949    -5867    -5988    -5900    -5768    -5890    -6008    -6153 
   -6490    -6686    -6694    -6728    -6578    -6385    -6457    -6538 
   -6473    -6178    -5510    -4838    -4372    -4041    -4064    -4309 
   -4529    -5020    -5701    -6031    -6000    -5796    -5427    -5151 
   -5202    -5406    -5568    -5606    -5598    -5691    -5753    -5730 
   -5888    -6173    -6358    -6574    -6791    -6795    -6805    -6880 
   -6740    -6581    -6685    -6990    -7257    -7091    -6534    -5973 
   -5540    -5401    -5665    -6204    -6740    -6845    -6471    -6061 
   -5794    -5579    -5574    -5740    -5749    -5626    -5522    -5410 
   -5278    -5186    -5142    -5119    -5279    -5594    -5759    -5938 
   -6153    -5941    -5736    -6069    -6542    -6994    -7308    -7172 
   -6640    -5679    -4618    -4125    -4135    -4315    -4537    -4800 
   -5289    -5826    -5973    -5698    -5335    -5165    -5157    -5242 
   -5395    -5460    -5587    -5903    -6145    -6326    -6465    -6463 
   -6643    -6979    -7032    -6882    -6698    -6459    -6258    -6018 
   -5803    -5745    -5402    -4753    -4398    -4329    -4360    -4634 
   -5098    -5454    -5539    -5734    -6219    -6624    -7018    -7276 
   -6966    -6523    -6250    -5919    -5728    -5764    -5849    -5962 
   -6075    -6141    -6069    -5913    -5948    -6096    -6160    -6138 
