Origin Time       2024/04/02 04:24:00
Lat.              40.133
Long.             141.712
Depth. (km)       71
Mag.              6.0
Station Code      HKD079
Station Lat.      43.3034
Station Long.     144.5998
Station Height(m) 32
Record Time       2024/04/02 04:26:16
Sampling Freq(Hz) 100Hz
Duration Time(s)  62
Dir.              E-W
Scale Factor      7845(gal)/8223790
Max. Acc. (gal)   4.319
Last Correction   2024/04/02 04:26:16
Memo.             
[...]
    8313     8125     8036     8054     8202     8371     8321     8106 
    8025     8158     8329     8303     8087     8062     8409     8730 
    8664     8330     8064     8109     8438     8704     8581     8174 
    7902     8023     8353     8536     8442     8260     8236     8340 
    8380     8333     8295     8341     8495     8667     8687     8506 
    8256     8135     8230     8421     8469     8329     8214     8291 
    8506     8688     8622     8270     7986     8068     8332     8449 
    8321     8074     8013     8255     8429     8332     8249     8370 
    8583     8657     8418     8131     8149     8309     8383     8446 
    8453     8370     8309     8224     8116     8167     8383     8571 
    8567     8359     8125     8029     8037     8039     8066     8168 
    8252     8320     8415     8391     8194     7994     7979     8289 
    8714     8765     8433     8154     8070     8127     8360     8626 
    8726     8618     8324     8105     8216     8407     8398     8284 
    8235     8343     8507     8441     8205     8162     8295     8320 
    8131     7870     7915     8422     8877     8727     8167     7784 
    7946     8518     8908     8780     8436     8245     8245     8302 
    8284     8205     8213     8341     8475     8529     8399     8093 
    7884     7943     8175     8518     8811     8681     8178     7850 
    8004     8456     8785     8698     8379     8209     8298     8463 
    8464     8256     8063     8163     8483     8603     8386     8189 
    8264     8465     8538     8399     8268     8388     8550     8436 
    8156     7997     8121     8437     8584     8424     8183     8100 
    8272     8476     8379     8181     8240     8424     8446     8267 
    8120     8268     8510     8426     8110     7951     8095     8414 
    8579     8410     8175     8140     8216     8283     8380     8549 
    8722     8721     8375     7875     7770     8221     8691     8692 
    8318     7993     8037     8338     8453     8233     8012     8087 
    8401     8637     8526     8194     8008     8132     8475     8769 
    8719     8348     8019     8068     8438     8692     8554     8217 
    7992     8028     8266     8478     8529     8460     8284     8137 
    8226     8401     8387     8251     8210     8322     8457     8433 
    8243     8050     7967     8048     8266     8446     8446     8314 
    8283     8455     8542     8336     8066     8033     8272     8521 
    8495     8278     8151     8203     8334     8375     8303     8314 
    8479     8621     8552     8252     8005     8168     8652     8947 
    8715     8148     7790     7967     8476     8872     8864     8525 
    8131     7908     7986     8259     8455     8525     8541     8415 
    8194     8109     8235     8541     8924     9018     8598     7987 
    7697     7989     8602     8926     8625     7948     7530     7763 
    8320     8683     8723     8510     8186     7973     7924     8047 
    8379     8698     8658     8251     7824     7765     8073     8409 
    8542     8451     8252     8141     8174     8245     8283     8344 
    8426     8378     8194     8083     8175     8394     8514     8399 
    8205     8182     8317     8371     8183     7901     7965     8496 
    8889     8610     8024     7870     8283     8738     8710     8228 
    7839     7927     8255     8441     8432     8395     8483     8604 
    8553     8415     8388     8398     8333     8213     8066     8027 
    8162     8325     8453     8533     8433     8122     7777     7742 
    8272     9043     9358     8946     8230     7838     8025     8484 
    8719     8619     8402     8206     8102     8132     8190     8240 
    8379     8488     8334     8037     7847     7813     7994     8368 
    8644     8683     8604     8446     8267     8152     8047     8028 
    8248     8505     8550     8463     8348     8208     8155     8244 
    8391     8608     8792     8679     8297     7987     8017     8290 
    8456     8317     8109     8160     8391     8549     8592     8500 
    8279     8139     8205     8414     8676     8789     8561     8100 
    7735     7785     8249     8679     8711     8463     8240     8253 
    8478     8650     8584     8336     8087     8036     8167     8253 
    8236     8279     8415     8451     8257     8037     8136     8521 
    8762     8607     8306     8203     8266     8332     8360     8356 
    8425     8556     8517     8340     8344     8532     8568     8295 
    7929     7834     8182     8668     8658     8083     7744     8151 
    8756     8804     8259     7781     7998     8684     8997     8575 
    7844     7495     7879     8592     8904     8649     8275     8189 
    8313     8368     8336     8310     8251     8121     8017     8063 
    8243     8395     8413     8340     8217     8041     7939     8101 
    8451     8671     8637     8418     8033     7722     7871     8384 
    8776     8820     8627     8351     8079     7944     8086     8417 
    8662     8654     8444     8264     8317     8467     8419     8222 
    8172     8320     8440     8382     8181     8008     8035     8260 
    8563     8729     8488     7981     7735     7943     8325     8548 
    8505     8343     8260     8306     8364     8306     8182     8129 
    8222     8426     8564     8514     8414     8311     8151     8152 
    8409     8613     8579     8328     8070     8139     8406     8459 
    8249     8027     8027     8260     8511     8575     8418     8197 
    8152     8409     8716     8652     8201     7770     7701     8079 
    8627     8783     8421     8087     8140     8380     8533     8480 
    8322     8255     8198     8108     8260     8572     8559     8186 
    7813     7817     8375     8947     8878     8452     8176     8068 
    8118     8236     8252     8343     8575     8681     8594     8345 
    7962     7740     7901     8270     8675     8942     8770     8241 
    7825     7757     7956     8239     8422     8519     8554     8330 
    7939     7834     8113     8498     8785     8884     8876     8884 
    8733     8325     8005     7981     8124     8411     8769     8872 
    8586     8117     7784     7867     8297     8631     8652     8529 
    8457     8397     8199     7986     8052     8270     8297     8185 
    8141     8289     8633     8819     8635     8463     8430     8278 
    8062     7965     8047     8355     8698     8691     8271     7865 
    7867     8152     8407     8498     8406     8249     8125     8067 
    8247     8600     8719     8540     8343     8252     8249     8290 
    8344     8438     8544     8492     8248     8058     8066     8151 
    8272     8370     8303     8243     8334     8407     8388     8363 
    8472     8723     8723     8283     7785     7646     7973     8473 
    8688     8483     8104     7916     8036     8213     8380     8640 
    8694     8353     7960     7851     8108     8522     8649     8424 
    8179     8125     8257     8382     8360     8375     8564     8681 
    8452     7982     7685     7898     8537     9018     8797     8128 
    7715     7819     8251     8576     8429     8163     8297     8580 
    8538     8163     7773     7773     8249     8706     8718     8451 
    8228     8249     8500     8679     8622     8544     8503     8224 
    7824     7874     8415     8912     8953     8488     7956     7900 
    8208     8387     8395     8444     8592     8738     8575     8101 
    7817     7952     8283     8519     8521     8422     8230     7902 
    7850     8266     8707     8846     8672     8256     7990     8235 
    8658     8758     8560     8314     8140     8079     8081     8102 
    8221     8426     8507     8302     7971     7744     7781     8206 
    8683     8708     8406     8050     7786     7879     8324     8815 
    9162     9132     8569     7886     7762     8299     8916     8995 
    8576     8172     8025     7993     7870     7771     8067     8619 
    8784     8363     7830     7758     8203     8594     8488     8143 
    8012     8289     8822     9085     8791     8276     7959     8001 
    8255     8344     8222     8191     8322     8460     8495     8294 
    7933     7894     8306     8702     8856     8872     8594     8032 
    7825     8287     8915     9085     8456     7414     7086     7915 
    8973     9221     8567     7811     7820     8391     8646     8433 
    8206     8224     8410     8448     8202     7987     8086     8394 
    8537     8282     7909     7865     8190     8623     8903     8895 
    8583     8044     7630     7703     8122     8549     8764     8622 
    8290     8035     7886     7920     8222     8596     8841     8903 
    8640     7939     7227     7327     8334     9277     9297     8513 
    7662     7473     8083     8910     9348     9238     8695     8066 
    7740     7780     7986     8233     8445     8549     8530     8276 
    7809     7611     7948     8418     8579     8356     8019     8019 
    8445     8856     8847     8355     7709     7591     8201     8915 
    9117     8702     8093     8050     8657     8939     8340     7589 
    7578     8321     9035     8895     8031     7456     7784     8596 
    8989     8662     8176     8073     8363     8800     9053     8895 
    8461     8106     8008     8156     8424     8507     8171     7740 
    7805     8326     8734     8683     8361     8268     8553     8820 
    8710     8293     7958     8037     8451     8688     8320     7577 
    7203     7686     8721     9404     9178     8379     7803     7977 
    8662     9057     8694     7990     7635     7744     8070     8386 
    8405     8191     8239     8638     8830     8383     7701     7542 
    8079     8885     9282     8781     7798     7368     7893     8784 
    9089     8405     7497     7497     8415     9174     9043     8347 
    7831     7897     8317     8673     8841     8758     8487     8425 
    8671     8768     8441     7970     7821     8118     8505     8684 
    8662     8451     8113     7954     8217     8708     8924     8519 
    7817     7601     8025     8513     8637     8386     8062     8067 
    8364     8483     8367     8422     8708     8970     9042     8780 
    8244     7792     7546     7506     7852     8276     8262     8012 
    8033     8391     8595     8035     7014     6875     8131     9504 
    9682     8671     7466     7121     7626     8136     8272     8322 
    8457     8379     8047     7897     7973     8140     8502     8810 
    8783     8640     8644     8783     8789     8534     8421     8737 
    9185     9364     9045     8378     7921     7956     8221     8353 
    8162     7808     7746     8073     8418     8545     8387     8002 
    7655     7516     7677     8181     8679     8710     8270     7920 
    8224     8899     9161     8808     8299     8168     8626     9420 
   10061    10169     9572     8411     7323     6995     7360     7801 
    7998     7989     7850     7793     7902     7897     7736     7674 
    7759     7877     7950     8114     8554     9004     9046     8707 
    8471     8654     8810     8406     7761     7412     7423     7838 
    8739     9682     9869     8878     7199     6258     7188     9239 
   10363     9798     8644     7874     7770     8259     8473     8043 
    7585     7144     6806     7140     8039     9012     9521     9250 
    8675     8260     8019     7952     7997     8041     8098     8205 
    8448     8986     9512     9329     8503     7677     7337     7874 
    8899     9637    10181    10639    10544     9630     8239     6955 
    6234     6502     7551     8421     8698     8426     7611     6968 
    7329     8280     8973     9178     8835     8028     7225     6781 
    6847     7565     8672     9354     9020     8106     7723     8347 
    9215     9342     8795     8438     8698     9225     9398     8753 
    7623     6903     6871     7254     7974     8785     9136     8811 
    8140     7650     7747     8448     9410    10297    10859    10624 
    9178     7071     5753     6111     7461     8479     8525     7898 
    7438     7636     8218     8700     8753     8359     8014     8159 
    8658     9078     8977     8274     7484     7265     7813     8668 
    9242     9428     9185     8415     7592     7263     7427     7955 
    8510     8545     8023     7589     8028     9269    10108     9668 
    8469     7545     7321     7495     7446     6975     6743     7434 
    8662     9495     9667     9445     9181     9337     9667     9217 
    8158     7600     7630     7500     6960     6497     6829     7925 
    8757     8625     8041     8047     9142    10687    11350    10525 
    8918     7584     7014     7188     7924     8850     9598     9913 
    9417     8212     7172     6993     7707     8764     9161     8351 
    7082     6654     7416     8476     8721     7884     6883     7076 
    8835    10879    11457    10007     7435     5567     5768     7587 
    9585    10629    10293     9302     8556     7879     7210     7196 
    7824     8259     7960     7246     7190     8426    10099    10793 
    9992     8407     7229     7146     8155     9559    10029     8716 
    6308     4488     4580     6578     9213    10794    10426     8827 
    7438     7091     7794     8829     9352     9227     8735     8221 
    8048     8282     8625     8452     7530     6902     7460     8599 
    9364     9290     8615     8325     8818     9256     8883     7947 
    7427     8136     9459     9559     7684     5113     3792     4766 
    7161     8989     9227     8375     7573     7561     8190     8839 
    9116     9301     9801    10235    10034     9201     8054     7052 
    6583     6906     8195     9979    11314    11674    11021     9574 
    7955     6809     6396     7049     8756    10357    10543     9146 
    7065     5683     5837     7011     8141     8669     8700     8842 
    9332     9628     9154     7890     6561     6039     6486     7568 
    8856     9868    10277     9892     8796     7797     7839     8708 
    9232     8968     8523     8368     8779     9666     9868     8611 
    6929     6201     6673     7755     8569     8472     7805     7622 
    8257     8799     8459     7503     6755     6948     8085     9514 
   10559    10400     8721     6573     5248     5278     6567     8410 
    9706     9740     8816     8041     8240     9242    10210    10417 
    9732     8673     8109     8415     9151     9406     8361     6257 
    4471     4280     5837     8073     9682    10093     9440     8181 
    7109     7240     8684    10120    10446     9853     8746     7465 
    6867     7302     7958     8259     8343     8306     8595     9620 
   10682    10650     9057     6835     5992     7338     9405    10243 
    9319     7723     7009     7736     9162     9952     9362     8183 
    7720     8382     9859    11092    10924     9694     8010     5871 
    4344     4590     6191     8073     9188     9132     8565     8279 
    8490     8947     9435     9910     9909     9061     7921     7107 
    6878     7344     7878     7784     7377     7231     7843     9250 
   10091     9553     8692     8159     7842     7808     7800     7792 
    7942     7840     7587     7774     8267     8707     9058     9138 
    8926     8893     9139     9051     8216     7047     6579     7462 
    8972     9790     9478     8484     7491     7098     7379     8008 
    8602     8653     8311     8437     9020     9315     9103     8324 
    6991     6033     6407     7635     8631     9063     9105     8946 
    8807     8725     8415     7840     7485     7689     8208     8625 
    8839     9047     9282     9240     8723     7951     7496     7888 
    8880     9585     9460     8554     7244     6224     6273     7555 
    9109     9605     8865     7924     7809     8685     9505     9154 
    8149     7680     7901     8438     8897     8680     7843     7294 
    7551     8341     8891     8584     7888     7790     8776    10362 
   11022     9795     7728     6643     7344     9192    10548     9933 
    7454     4901     3977     4815     6619     8613     9910     9798 
    8704     7896     8067     8860     9575     9798     9366     8560 
    7996     7731     7595     7959     8750     9270     9432     9358 
    8905     8517     8503     8440     8140     7651     7204     7222 
    7611     7924     7881     7570     7372     7560     8225     8877 
    8718     8028     7677     7996     9063    10345    10686     9788 
    8526     7701     7645     8328     9027     9101     8781     8421 
    8163     8135     8217     8187     8089     7906     7414     6862 
    6839     7396     8233     8858     8708     8156     8060     8556 
    9462    10174     9857     8947     8353     7962     7560     7331 
    7245     7379     7933     8567     8995     9162     8739     7933 
    7362     7304     8008     9208    10054    10015     9150     8141 
    7491     6978     6528     6293     6650     7919     9328     9805 
    9261     8359     7831     7886     8152     8469     9107     9659 
    9377     8430     7414     6936     7462     8503     9107     8958 
    8441     8257     8660     9294     9752     9614     8708     7419 
    6497     6593     7587     8715     9279     8915     7989     7395 
    7468     8013     8841     9279     8802     7994     7469     7441 
    8052     8660     8529     8085     7978     8218     8725     9331 
    9560     9358     9209     9120     8800     8303     7677     7118 
    6893     6723     6544     6918     8008     9529    10922    11141 
    9922     8282     7095     6799     7570     8764     9464     9544 
    9258     8722     8268     8066     7800     7373     7153     7447 
    7996     8217     8014     7682     7605     8178     9066     9344 
    8849     8189     7851     8218     9213     9841     9470     8734 
    8259     7933     7620     7360     7474     8307     9173     9107 
    8135     7015     6632     7047     7639     8063     8299     8677 
    9063     8839     8429     8479     8807     9072     8873     8274 
    7858     7842     8189     8692     8870     8719     8646     8372 
    7620     7109     7353     8179     9045     9013     7909     6671 
    6417     7712     9845    11383    11406    10077     8564     7808 
    7863     8309     8220     7123     6003     5969     7036     8444 
    9200     8803     7753     7032     7365     8685    10196    11079 
   10808     9466     8035     7300     7207     7609     8352     8992 
    9011     8167     6993     6412     6862     8112     9350     9752 
    9271     8577     8436     8835     9020     8563     7735     7204 
    7546     8498     9130     8966     8384     7896     7757     8226 
    9001     9069     8375     7794     7535     7511     7754     7890 
    7726     7643     7928     8572     9317     9720     9676     9389 
    8816     7924     7253     7480     8502     9590    10127     9759 
    8814     8203     7847     7123     6551     6602     6943     7491 
    8010     7997     7663     7607     8012     8579     8904     8931 
    8873     8885     8962     9023     9001     8829     8568     8457 
    8403     8101     7790     7599     7098     6799     7528     8580 
    9096     9096     8700     8415     8773     9404     9539     8885 
