Origin Time       2024/04/02 04:24:00
Lat.              40.133
Long.             141.712
Depth. (km)       71
Mag.              6.0
Station Code      HKD066
Station Lat.      43.6619
Station Long.     145.1307
Station Height(m) 3
Record Time       2024/04/02 04:26:29
Sampling Freq(Hz) 100Hz
Duration Time(s)  70
Dir.              U-D
Scale Factor      7845(gal)/8223790
Max. Acc. (gal)   1.735
Last Correction   2024/04/02 04:26:29
Memo.             
[...]
    1552     1499     1489     1467     1410     1354     1379     1526 
    1690     1753     1744     1726     1696     1620     1497     1383 
    1329     1341     1395     1445     1502     1597     1702     1765 
    1745     1637     1514     1444     1440     1467     1494     1525 
    1549     1536     1499     1501     1556     1587     1564     1553 
    1579     1603     1624     1647     1656     1638     1571     1460 
    1390     1421     1522     1611     1675     1749     1764     1640 
    1439     1294     1270     1355     1475     1567     1632     1688 
    1728     1734     1703     1645     1586     1555     1529     1439 
    1291     1200     1235     1345     1440     1497     1584     1726 
    1834     1822     1701     1560     1467     1390     1321     1350 
    1494     1669     1783     1807     1764     1676     1555     1428 
    1300     1223     1291     1494     1678     1719     1653     1601 
    1594     1583     1557     1530     1512     1509     1506     1503 
    1505     1480     1405     1314     1294     1366     1470     1570 
    1653     1678     1603     1467     1354     1324     1375     1463 
    1539     1580     1629     1718     1788     1753     1618     1480 
    1409     1360     1294     1251     1264     1355     1524     1702 
    1802     1791     1702     1594     1485     1363     1236     1144 
    1190     1409     1661     1819     1891     1910     1877     1767 
    1588     1426     1375     1432     1506     1532     1524     1517 
    1509     1490     1485     1513     1548     1574     1594     1599 
    1568     1495     1417     1386     1429     1517     1586     1614 
    1621     1632     1647     1620     1497     1314     1219     1293 
    1435     1530     1614     1737     1836     1815     1696     1582 
    1530     1520     1506     1462     1390     1344     1390     1499 
    1576     1602     1655     1752     1825     1825     1748     1588 
    1401     1291     1285     1313     1348     1439     1591     1733 
    1773     1705     1617     1587     1566     1470     1347     1318 
    1413     1530     1591     1609     1606     1576     1530     1489 
    1470     1512     1595     1637     1630     1624     1586     1486 
    1406     1432     1532     1641     1705     1653     1522     1448 
    1433     1379     1314     1364     1552     1755     1849     1848 
    1821     1792     1703     1541     1397     1345     1359     1382 
    1433     1541     1634     1651     1638     1614     1552     1476 
    1441     1466     1513     1525     1505     1489     1490     1495 
    1449     1360     1343     1444     1587     1645     1603     1584 
    1651     1710     1674     1563     1455     1398     1395     1452 
    1590     1764     1875     1865     1737     1534     1372     1341 
    1377     1387     1433     1593     1752     1725     1510     1293 
    1227     1313     1435     1472     1437     1467     1632     1787 
    1749     1539     1359     1375     1529     1622     1603     1601 
    1676     1717     1625     1479     1382     1364     1417     1491 
    1551     1613     1648     1618     1552     1502     1483     1476 
    1472     1460     1410     1352     1371     1472     1572     1591 
    1533     1498     1549     1632     1661     1614     1525     1444 
    1404     1413     1453     1505     1566     1611     1606     1553 
    1507     1544     1651     1714     1696     1661     1618     1522 
    1383     1290     1323     1453     1594     1675     1690     1695 
    1705     1636     1485     1382     1377     1405     1468     1595 
    1711     1745     1710     1595     1422     1305     1301     1348 
    1383     1413     1464     1540     1656     1750     1705     1526 
    1362     1327     1443     1613     1688     1648     1568     1501 
    1468     1487     1544     1602     1628     1641     1668     1679 
    1636     1556     1512     1588     1741     1814     1737     1587 
    1471     1422     1405     1390     1377     1382     1413     1444 
    1475     1530     1570     1540     1453     1378     1374     1453 
    1587     1688     1674     1574     1525     1590     1688     1694 
    1595     1522     1566     1657     1680     1609     1524     1529 
    1603     1634     1575     1509     1490     1475     1435     1412 
    1453     1543     1602     1568     1490     1460     1493     1534 
    1568     1609     1626     1595     1567     1561     1551     1526 
    1470     1397     1377     1417     1489     1576     1656     1707 
    1741     1738     1657     1509     1386     1352     1379     1397 
    1363     1312     1312     1366     1432     1518     1632     1713 
    1729     1721     1699     1657     1591     1487     1387     1360 
    1401     1458     1497     1522     1552     1578     1587     1598 
    1598     1547     1472     1474     1597     1744     1759     1615 
    1474     1455     1506     1533     1534     1566     1622     1632 
    1591     1567     1544     1498     1475     1495     1534     1580 
    1628     1644     1593     1482     1385     1385     1485     1576 
    1561     1505     1521     1575     1557     1466     1372     1358 
    1443     1536     1545     1551     1657     1795     1823     1741 
    1630     1497     1352     1309     1385     1451     1455     1470 
    1541     1632     1669     1628     1551     1502     1505     1502 
    1466     1432     1422     1445     1495     1530     1540     1543 
    1533     1543     1625     1734     1764     1676     1540     1451 
    1432     1443     1472     1563     1680     1688     1590     1560 
    1628     1634     1529     1393     1333     1409     1547     1618 
    1587     1547     1551     1557     1559     1551     1498     1444 
    1475     1587     1680     1682     1624     1598     1674     1759 
    1679     1483     1381     1420     1506     1561     1555     1537 
    1547     1513     1413     1339     1381     1530     1695     1788 
    1792     1728     1613     1470     1355     1328     1364     1406 
    1440     1483     1567     1684     1755     1692     1528     1378 
    1312     1321     1364     1410     1470     1561     1645     1682 
    1690     1676     1611     1514     1462     1482     1518     1537 
    1536     1517     1521     1548     1553     1556     1593     1638 
    1632     1570     1524     1533     1537     1460     1327     1254 
    1312     1426     1503     1545     1597     1656     1684     1653 
    1571     1466     1393     1433     1587     1722     1707     1578 
    1487     1506     1575     1609     1572     1526     1564     1634 
    1574     1372     1212     1216     1336     1475     1594     1665 
    1694     1714     1706     1636     1533     1432     1341     1298 
    1367     1520     1633     1637     1607     1636     1690     1651 
    1521     1402     1313     1258     1309     1459     1603     1656 
    1633     1622     1669     1729     1702     1567     1453     1470 
    1539     1549     1503     1464     1468     1520     1593     1630 
    1605     1568     1566     1561     1528     1516     1572     1645 
    1624     1487     1378     1432     1590     1688     1683     1618 
    1555     1555     1580     1568     1561     1607     1676     1701 
    1644     1539     1452     1428     1468     1528     1545     1518 
    1485     1462     1437     1409     1414     1489     1587     1628 
    1575     1487     1435     1395     1339     1312     1356     1455 
    1552     1610     1656     1692     1674     1622     1626     1674 
    1665     1594     1539     1533     1537     1486     1358     1242 
    1263     1432     1645     1799     1841     1769     1629     1472 
    1350     1296     1304     1352     1441     1566     1674     1711 
    1665     1563     1458     1436     1505     1555     1502     1401 
    1352     1382     1468     1564     1624     1672     1755     1861 
    1926     1863     1676     1472     1355     1372     1487     1588 
    1613     1613     1638     1665     1636     1545     1417     1289 
    1254     1366     1543     1665     1695     1668     1637     1620 
    1587     1510     1431     1443     1559     1655     1629     1537 
    1478     1432     1374     1362     1422     1522     1621     1665 
    1640     1591     1548     1509     1479     1470     1485     1513 
    1537     1549     1528     1503     1541     1598     1601     1571 
    1570     1599     1605     1557     1510     1520     1568     1603 
    1614     1599     1544     1472     1428     1405     1378     1372 
    1420     1472     1505     1543     1574     1566     1524     1455 
    1404     1456     1597     1679     1653     1628     1638     1613 
    1549     1502     1467     1452     1482     1543     1621     1691 
    1678     1543     1371     1301     1364     1478     1561     1593 
    1555     1456     1363     1335     1374     1453     1548     1640 
    1725     1813     1864     1811     1659     1467     1298     1217 
    1277     1441     1607     1703     1713     1667     1620     1586 
    1555     1532     1526     1549     1614     1682     1691     1618 
    1513     1429     1371     1336     1345     1386     1455     1564 
    1649     1638     1597     1587     1572     1516     1426     1362 
    1382     1474     1572     1625     1626     1605     1575     1547 
    1532     1529     1543     1590     1663     1706     1675     1567 
    1448     1386     1399     1464     1522     1533     1517     1501 
    1494     1524     1601     1703     1780     1753     1605     1431 
    1316     1267     1283     1371     1493     1574     1594     1613 
    1676     1736     1740     1692     1610     1494     1382     1336 
    1340     1345     1371     1422     1452     1459     1495     1568 
    1618     1626     1621     1595     1548     1534     1544     1489 
    1366     1306     1387     1549     1683     1710     1651     1603 
    1605     1598     1544     1480     1462     1530     1684     1799 
    1719     1495     1358     1408     1549     1678     1740     1709 
    1595     1452     1337     1286     1323     1436     1539     1591 
    1675     1817     1880     1744     1487     1333     1404     1582 
    1648     1552     1453     1509     1672     1745     1620     1394 
    1233     1221     1340     1516     1676     1752     1719     1634 
    1559     1487     1397     1286     1198     1237     1485     1848 
    2080     2003     1710     1467     1394     1393     1332     1240 
    1297     1536     1715     1651     1451     1327     1377     1522 
    1637     1682     1715     1806     1891     1811     1568     1336 
    1212     1170     1173     1247     1453     1764     2034     2065 
    1810     1452     1181     1032     1005     1146     1458     1853 
    2189     2346     2270     2002     1648     1297     1031      966 
    1089     1258     1399     1559     1723     1772     1663     1524 
    1451     1420     1418     1447     1468     1471     1460     1417 
    1316     1227     1278     1435     1555     1655     1854     2149 
    2344     2250     1872     1366      966      838      918     1084 
    1305     1593     1944     2305     2539     2454     2003     1382 
     854      581      604      845     1139     1382     1610     1881 
    2103     2092     1838     1548     1412     1433     1528     1609 
    1633     1626     1580     1452     1305     1233     1251     1348 
    1536     1765     1896     1826     1647     1514     1453     1432 
    1471     1606     1798     1903     1845     1722     1603     1443 
    1233     1055     1020     1220     1584     1868     1926     1883 
    1899     1934     1853     1614     1312     1096      996      901 
     757      670      783     1117     1552     1925     2204     2452 
    2633     2583     2220     1656     1108      814      881     1132 
    1321     1464     1692     1957     2092     2012     1767     1493 
    1316     1217     1120     1055     1086     1220     1439     1664 
    1779     1761     1692     1618     1564     1614     1763     1833 
    1701     1462     1269     1185     1198     1279     1387     1460 
    1486     1532     1655     1830     1991     2043     1934     1678 
    1354     1094     1046     1263     1651     2010     2196     2165 
    1885     1370      855      676      869     1201     1521     1836 
    2107     2195     1968     1444      838      463      490      846 
    1385     2035     2686     3114     3087     2582     1877     1309 
     994      862      880     1075     1389     1660     1711     1431 
     958      633      673     1030     1502     1892     2112     2174 
    2123     1956     1602     1084      637      557      939     1576 
    2138     2420     2448     2369     2273     2153     1968     1719 
    1485     1348     1343     1433     1525     1499     1273      930 
     680      631      738      936     1217     1540     1819     2026 
    2126     2069     1944     1907     2042     2316     2524     2386 
    1873     1296      940      796      706      616      618      850 
    1320     1794     2010     1935     1698     1401     1102      923 
     976     1197     1391     1444     1394     1352     1385     1467 
    1514     1513     1578     1807     2089     2184     2007     1653 
    1270     1061     1113     1278     1441     1734     2242     2754 
    2945     2700     2141     1429      668        0     -282       59 
     857     1644     2146     2419     2562     2521     2204     1684 
    1213     1011     1069     1267     1530     1746     1811     1760 
    1691     1679     1802     2010     2116     2072     1971     1809 
    1468      945      434      195      353      800     1291     1659 
    1841     1818     1644     1490     1543     1776     1964     2026 
    2097     2250     2396     2384     2095     1530      783       60 
    -226      164      939     1578     1888     2020     2089     2083 
    2034     2010     1989     1903     1761     1607     1422     1179 
     901      626      429      467      826     1409     2050     2583 
    2905     3014     2853     2322     1568      919      558      542 
     891     1462     1984     2332     2479     2300     1795     1208 
     777      645      850     1210     1412     1393     1385     1447 
    1345     1012      766      957     1513     2046     2281     2259 
    2166     2049     1827     1575     1509     1710     2087     2444 
    2559     2332     1891     1418      911      324     -106      -66 
     415      997     1432     1755     2050     2245     2172     1786 
    1297     1012     1032     1294     1742     2272     2670     2741 
    2478     2054     1630     1262      950      753      830     1217 
    1647     1829     1695     1354     1027      888      903      981 
    1134     1362     1557     1597     1475     1279     1104     1034 
    1138     1491     2119     2776     3127     3098     2781     2253 
    1637     1154      954     1009     1204     1406     1537     1653 
    1818     1965     2004     1942     1809     1557     1189      830 
     589      511      610      865     1194     1449     1582     1718 
    1904     2008     1931     1745     1602     1529     1404     1229 
    1192     1406     1810     2223     2448     2403     2103     1659 
    1279     1119     1124     1127     1046      976     1090     1424 
    1742     1767     1532     1370     1479     1691     1695     1412 
    1090      996     1117     1271     1409     1649     2039     2435 
    2624     2532     2258     1923     1593     1289     1024      811 
     627      475      472      702     1012     1220     1402     1717 
    2089     2313     2308     2119     1854     1669     1602     1564 
    1582     1756     2011     2076     1868     1629     1516     1382 
    1125      870      761      859     1219     1760     2135     2047 
    1675     1494     1713     2065     2187     1999     1647     1296 
    1036      935     1040     1316     1590     1667     1514     1329 
    1306     1363     1291     1097     1000     1179     1526     1746 
    1787     1871     2039     2047     1788     1458     1266     1209 
    1140      993      958     1254     1722     1952     1846     1725 
    1881     2241     2477     2419     2192     1999     1888     1744 
    1397      872      418      263      430      765     1058     1242 
    1432     1706     2016     2296     2517     2614     2502     2262 
    2103     2091     2070     1898     1563     1181      961     1038 
    1243     1260     1058      873      880      993     1020      915 
     795      778      885     1054     1235     1431     1688     2053 
    2451     2725     2781     2679     2586     2566     2517     2363 
    2104     1705     1193      787      696      891     1117     1139 
     977      893     1086     1412     1561     1456     1263     1189 
    1301     1498     1636     1651     1587     1510     1486     1603 
    1803     1836     1645     1458     1425     1478     1502     1491 
    1467     1379     1205     1011      932     1057     1278     1418 
    1463     1514     1672     1965     2282     2421     2330     2169 
    2083     2010     1858     1659     1452     1290     1298     1526 
    1780     1830     1664     1339      942      714      789     1020 
    1224     1378     1532     1691     1769     1676     1462     1308 
    1347     1507     1640     1669     1614     1532     1472     1466 
    1471     1417     1300     1229     1297     1467     1613     1652 
    1632     1661     1788     1971     2076     2029     1930     1906 
    1931     1907     1779     1544     1290     1213     1426     1800 
    2119     2212     1966     1483     1040      783      631      556 
     658      977     1366     1597     1530     1270     1077     1132 
    1366     1543     1556     1553     1711     1979     2097     1858 
    1359      893      715      926     1401     1923     2378     2718 
    2853     2689     2231     1645     1132      878      938     1142 
    1337     1528     1672     1684     1599     1540     1567     1651 
    1744     1849     1971     1971     1710     1327     1088     1032 
     994      940     1047     1409     1848     2081     1983     1667 
    1329     1021      727      565      722     1212     1803     2251 
    2539     2705     2656     2289     1702     1202     1023     1115 
    1283     1405     1502     1645     1817     1950     2031     2050 
    1948     1721     1478     1279     1054      746      446      360 
     616     1100     1582     1965     2234     2324     2241     2116 
    2066     2080     2081     1985     1788     1628     1586     1514 
    1314     1144     1171     1341     1493     1502     1327     1024 
     743      603      642      849     1147     1475     1854     2293 
    2678     2814     2567     2039     1551     1321     1351     1509 
    1692     1836     1813     1548     1136      700      378      326 
     594     1046     1512     1904     2180     2255     2092     1818 
    1652     1659     1692     1610     1497     1560     1813     2002 
    1919     1656     1455     1431     1512     1566     1536     1483 
