Origin Time       2024/04/02 04:24:00
Lat.              40.133
Long.             141.712
Depth. (km)       71
Mag.              6.0
Station Code      HKD071
Station Lat.      43.2326
Station Long.     145.2604
Station Height(m) 38
Record Time       2024/04/02 04:26:21
Sampling Freq(Hz) 100Hz
Duration Time(s)  60
Dir.              E-W
Scale Factor      7845(gal)/8223790
Max. Acc. (gal)   5.050
Last Correction   2024/04/02 04:26:22
Memo.             
[...]
    3273     3377     3414     3299     3159     3098     2995     2844 
    2826     2907     2914     2860     2855     2949     3096     3210 
    3256     3237     3142     2913     2628     2529     2635     2830 
    3056     3159     3090     3033     3087     3161     3160     3098 
    2982     2810     2681     2682     2803     2986     3048     2924 
    2839     2897     2986     3079     3199     3323     3379     3312 
    3177     3034     2921     2855     2835     2911     3005     2961 
    2870     2891     2960     2948     2897     2897     2933     2976 
    3026     3056     3034     2951     2860     2867     3001     3152 
    3165     3006     2797     2754     2930     3133     3240     3257 
    3202     3141     3048     2853     2677     2677     2839     3038 
    3206     3310     3283     3117     2870     2631     2575     2735 
    2905     3044     3221     3280     3150     3024     2921     2698 
    2494     2569     2903     3283     3493     3458     3275     3053 
    2875     2835     2936     3042     3045     2937     2821     2874 
    3105     3281     3188     2897     2740     2810     2918     3073 
    3237     3213     3075     3001     2955     2902     2930     2988 
    2926     2801     2760     2906     3176     3246     2980     2641 
    2492     2644     3068     3469     3595     3522     3376     3207 
    3092     2982     2808     2705     2693     2651     2640     2741 
    2924     3082     3072     2914     2798     2795     2825     2886 
    3017     3184     3296     3261     3134     3033     2976     2964 
    2990     3055     3219     3423     3406     3132     2860     2714 
    2690     2716     2662     2644     2776     2871     2829     2779 
    2837     3038     3325     3515     3469     3260     3049     2975 
    3059     3111     3045     2971     2921     2960     3092     3082 
    2922     2829     2816     2820     2841     2874     2901     2943 
    2988     2967     2860     2759     2847     3146     3333     3225 
    3033     2890     2791     2749     2756     2852     3061     3231 
    3273     3322     3327     3181     3037     2937     2814     2789 
    2925     3053     3025     2879     2743     2733     2841     2880 
    2839     2929     3142     3310     3433     3493     3334     2970 
    2673     2617     2767     2999     3159     3125     2926     2767 
    2789     2914     3003     3013     2959     2864     2794     2871 
    3049     3069     2941     2995     3208     3322     3397     3387 
    3015     2512     2359     2624     3075     3393     3400     3269 
    3150     3034     2990     3013     3003     2982     2959     2855 
    2737     2805     2959     2940     2872     2956     3068     3061 
    2955     2814     2808     3013     3122     2933     2709     2647 
    2728     2975     3254     3385     3519     3649     3480     3136 
    2913     2779     2697     2693     2721     2747     2779     2845 
    2961     3180     3349     3234     3055     3005     2882     2717 
    2714     2805     2862     2857     2781     2718     2856     3161 
    3418     3585     3670     3515     3113     2724     2515     2443 
    2497     2822     3381     3709     3539     3198     3018     2980 
    2921     2772     2632     2608     2673     2743     2806     2907 
    3032     3091     3056     3029     3086     3160     3191     3163 
    3044     2887     2871     3051     3249     3276     3176     3114 
    3076     2992     2876     2745     2629     2540     2551     2744 
    2941     2991     2983     2968     3003     3144     3250     3204 
    3115     3115     3141     3126     3180     3298     3280     3137 
    3024     2929     2836     2775     2805     2930     2924     2717 
    2548     2575     2840     3173     3292     3207     3010     2762 
    2700     2905     3165     3329     3377     3312     3136     2978 
    2972     3046     3136     3207     3137     2952     2845     2810 
    2720     2605     2524     2470     2547     2802     3049     3176 
    3235     3198     3168     3294     3341     3198     3075     2984 
    2945     3049     3095     2994     2979     3010     2955     2959 
    3002     3003     3065     3078     2961     2897     2785     2547 
    2552     2891     3238     3451     3438     3229     3082     2918 
    2567     2309     2397     2714     3021     3256     3410     3298 
    3057     3094     3321     3461     3458     3249     2913     2674 
    2602     2629     2716     2882     3059     3123     3156     3225 
    3203     3095     2920     2617     2439     2540     2716     2956 
    3210     3261     3186     3084     2971     2998     3088     3030 
    2924     2901     2903     2910     3025     3275     3411     3242 
    2909     2664     2712     2967     3110     3117     3157     3223 
    3208     3121     3064     2994     2822     2656     2578     2627 
    2821     2984     3005     3018     3065     3022     2953     2961 
    2920     2862     2965     3122     3204     3208     3052     2903 
    3044     3295     3364     3285     3208     3229     3235     3018 
    2666     2430     2322     2365     2720     3150     3272     3285 
    3280     2978     2562     2380     2479     2824     3302     3639 
    3557     3136     2733     2492     2434     2652     3059     3443 
    3726     3851     3735     3358     2855     2485     2458     2701 
    2943     3067     3149     3091     2810     2608     2704     2953 
    3117     3079     3010     3001     2903     2787     2737     2662 
    2710     3038     3389     3465     3314     3110     2882     2640 
    2573     2793     3134     3419     3532     3353     3011     2759 
    2716     2957     3245     3264     3118     2924     2689     2612 
    2812     3150     3372     3257     2883     2658     2759     2863 
    2835     2867     2932     2978     3001     2924     2964     3218 
    3357     3329     3287     3171     3014     2945     2911     2864 
    2917     3064     3136     3090     2930     2736     2758     2952 
    3040     3086     3211     3280     3207     2980     2650     2400 
    2331     2523     2998     3415     3476     3273     2978     2795 
    2879     2992     2964     3055     3273     3327     3246     3084 
    2802     2627     2687     2891     3215     3504     3469     3106 
    2745     2609     2513     2331     2424     2943     3427     3488 
    3176     2826     2697     2783     2937     2955     2899     2992 
    3144     3245     3299     3289     3281     3252     3161     3041 
    2840     2632     2624     2787     2938     3011     2991     2953 
    2959     2978     3076     3252     3372     3411     3319     3029 
    2689     2515     2593     2859     3048     3053     3042     2984 
    2835     2754     2799     2911     2988     2991     3024     3076 
    3015     2928     2965     3042     3121     3280     3329     3068 
    2847     2970     3091     3003     2948     2987     3064     3107 
    2986     2776     2670     2681     2729     2825     2999     3126 
    3187     3277     3222     2917     2590     2415     2566     3042 
    3434     3488     3323     3100     2949     2926     2913     2868 
    3021     3387     3585     3435     3130     2814     2623     2732 
    2978     3152     3279     3245     3083     3003     2914     2806 
    2856     2965     2936     2766     2596     2466     2330     2269 
    2354     2567     2895     3234     3554     3831     3873     3746 
    3545     3202     2924     2775     2562     2376     2447     2764 
    3117     3369     3478     3456     3407     3292     3076     2941 
    2844     2687     2659     2855     3088     3117     2887     2640 
    2616     2700     2754     3028     3618     4086     4035     3520 
    2822     2151     1726     1749     2234     2936     3411     3495 
    3426     3391     3458     3476     3106     2419     2019     2141 
    2343     2439     2650     2897     3014     3127     3334     3584 
    3782     3705     3289     2914     2928     3252     3492     3377 
    3041     2714     2565     2720     3049     3478     4047     4259 
    3708     2951     2613     2581     2544     2523     2631     2856 
    3150     3358     3257     2844     2258     1665     1378     1611 
    2253     3067     3816     4234     4129     3577     2926     2475 
    2282     2263     2324     2435     2650     3059     3624     4097 
    4212     4112     4074     3881     3476     3233     3059     2809 
    2718     2666     2466     2351     2388     2413     2454     2667 
    3204     3919     4286     4014     3175     1950      832      441 
    1135     2712     4217     4924     5044     4907     4446     3546 
    2407     1561     1314     1487     1950     2741     3611     3997 
    3688     3117     2913     3342     4008     4287     3902     2899 
    1674      793      591     1156     2305     3580     4372     4495 
    4519     4699     4549     3842     2801     1834     1470     1794 
    2239     2366     2340     2567     3319     4468     5545     6199 
    6038     4712     2701     1005       91     -205      -20      664 
    1665     2664     3373     3820     4236     4449     4256     3767 
    2938     1908     1104      754     1024     2029     3519     4914 
    5567     5402     5086     4889     4279     3075     1787      930 
     700     1057     2030     3465     4450     4405     4040     3928 
    3680     3194     2743     2270     1923     1919     2037     2235 
    2713     3422     4027     4267     4359     4444     4332     3894 
    2930     1453       21     -824     -665      689     2685     4396 
    5235     5242     4934     4446     3416     2054     1161     1007 
    1235     1668     2446     3716     5410     6766     6725     5375 
    3655     2060      857      324      553     1516     2515     2635 
    2282     2587     3753     5044     5620     5224     4376     3537 
    2621     1645      870      494      646     1255     2285     3925 
    5678     6292     5265     3402     1867     1331     1838     2902 
    3888     4442     4229     2955     1237      364      642     1448 
    2654     4261     5645     6141     5516     4158     2853     2080 
    1904     2033     2016     1980     2234     2616     2953     3335 
    3851     4329     4386     3994     3561     3306     2968     2288 
    1791     2176     3072     3547     3190     2319     1636     1464 
    1587     1900     2539     3424     4095     4139     3828     3773 
    3831     3466     2691     1890     1642     2416     3739     4635 
    4746     4336     3712     3030     2317     1779     1876     2417 
    2729     3017     3580     3643     2609     1062      179      965 
    3177     5179     5778     4996     3407     2035     1522     1556 
    2154     3458     4603     4965     4920     4635     3943     2789 
    1424      892     1833     3179     3721     3258     1954      399 
    -210      901     2979     4436     4571     3690     2548     2100 
    2752     4077     5255     5432     4341     2725     1773     2137 
    3415     4607     4973     4380     3184     1996     1309     1212 
    1509     1869     1950     1907     2043     1937     1525     1782 
    3168     5296     7322     7997     6967     4970     2656      637 
    -649    -1260    -1171      -48     2280     5197     7508     8247 
    7067     4571     1971      222     -267      167      959     1969 
    2899     3487     3850     3662     2847     2313     2748     4047 
    5559     6118     4873     2300     -184    -1421     -913     1104 
    3663     5908     7368     7372     5915     3994     2120      589 
      83      492     1247     2284     3342     3997     4267     4110 
    3358     2297     1605     1902     3144     4307     4353     3526 
    2866     2650     2610     2857     3144     2740     1769     1089 
    1372     3015     5274     6322     5655     4325     3200     2933 
    3356     3168     2087     1148     1081     1853     2678     2716 
    2247     2020     2200     2849     4009     5117     5395     4303 
    2089      184     -280      533     1965     3333     4371     5109 
    5309     5086     4892     4630     3798     2431     1641     2180 
    3067     3007     2016     1016      743     1405     2743     3850 
    3852     3005     2170     1802     2139     3186     4303     5096 
    5686     5961     5877     5193     3647     2351     2257     2555 
    2493     2158     1439      144    -1161    -1626     -896     1059 
    3545     5398     6220     5940     4774     3636     2887     2230 
    1777     1960     2822     3784     4511     5105     5223     4634 
    3881     3537     3603     3496     2731     1638      985     1028 
    1345     1559     2000     3145     4429     4924     4594     3735 
    2658     2010     2079     2330     2500     2999     3537     3370 
    2598     1794     1540     1917     2400     2963     3798     4506 
    4689     4367     3723     2822     1930     1769     2581     3905 
    5248     5834     4981     3051      854     -739     -830      363 
    1791     2891     3373     3368     3415     3565     3966     4992 
    5877     5479     3986     2401     1586     2080     3339     3983 
    3761     3558     3550     3380     3028     2435     1687     1228 
    1204     1300     1368     1769     2359     2053     1019     1116 
    2906     5348     7553     8284     6660     3805     1355       89 
     433     1902     3149     3495     3204     2803     2805     3439 
    4360     4812     4507     4000     3672     3341     3119     3009 
    2359     1317      922     1244     1611     2047     2751     3127 
    2613     1597      866     1134     2617     4402     5441     5722 
    5394     4279     2768     1800     2030     3365     4989     6033 
    6081     5127     3408     1289     -317     -216     1460     3211 
    3832     3129     1676      383       47     1051     2817     4399 
    5634     6137     5096     3146     1860     1711     2070     2255 
    2134     2254     3005     3932     4556     4684     3883     2367 
    1436     1946     3431     4471     4101     3146     2648     2293 
    1977     2444     3696     4810     4788     3217     1291      761 
    1632     2640     3055     3145     3231     3002     2659     3013 
    3759     3844     3010     1841     1354     2069     3267     4108 
    4456     4333     3747     3040     2909     3341     3530     3530 
    3620     3443     3431     3871     3805     2794     1417      487 
     519     1372     2512     3146     2848     2057     1312     1048 
    1776     3449     5186     6216     6511     5994     4689     3384 
    2482     1807     1595     2097     3055     3735     3458     2558 
    1833     1659     2273     3489     4572     5076     4731     3330 
    1416      -64     -433      471     2169     3936     4936     4830 
    4383     4128     3898     3692     3365     2814     2255     1611 
     889      661     1213     2042     2783     3658     4448     4621 
    4409     4315     4359     4320     4025     3242     1995     1142 
    1306     2089     3141     4198     4850     4924     4239     3109 
    2474     2369     2203     1961     1601     1169     1179     1580 
    2330     3798     5108     5124     4367     3284     1744      900 
    1540     2349     2604     3003     3514     3736     3782     3819 
    4029     4112     3689     3462     4023     4841     5097     4293 
    2577      703     -518     -704      252     2304     4415     5451 
    5448     4537     2972     1555      592      402     1443     3005 
    4291     5067     4546     2874     1532     1046     1503     3161 
    5130     6227     6014     4426     2191      735      862     1991 
    3057     3793     4228     4056     3404     2790     2556     2743 
    2884     2679     2671     3246     3917     4016     3368     2165 
     884      355      789     1478     2003     2286     2439     2902 
    3580     4083     4488     4877     5158     5121     4594     3936 
    3628     3395     2884     2440     2316     2448     2675     2867 
    3176     3276     2633     1675     1173     1271     1607     1952 
    2311     2690     3103     3439     3523     3476     3681     4122 
    4487     4784     4653     3573     2272     1841     2350     3221 
    3933     4310     4363     3942     3069     2500     2674     2691 
    1881      934      454      487     1028     1757     2620     3870 
    5009     5562     5695     5323     4500     3599     2459     1433 
    1529     2259     2488     2459     2627     2770     2597     2042 
    1755     2555     4140     5447     5817     5185     3771     2251 
    1386     1192     1462     1961     2142     2092     2462     3316 
    4170     4498     3997     2918     2118     2066     2353     2843 
    3549     3794     3511     3407     3523     3483     3014     1952 
     842      540     1220     2624     4156     4860     4490     3758 
    3404     3808     4591     4897     4618     3993     3060     2270 
    1926     1695     1462     1451     1732     2401     3504     4334 
    4122     3163     2096     1375     1453     2100     2446     2259 
    2201     2500     2712     3028     3778     4307     4071     3501 
    3254     3624     4295     4676     4703     4603     4437     4209 
    3665     2821     2196     1679     1066      872     1206     1717 
    2207     2286     1912     1719     1938     2382     3068     3846 
    4233     4009     3537     3171     2898     2833     3298     4321 
    5306     5595     5188     4333     3173     1983     1063      595 
     625     1047     1680     2350     3125     4054     4583     4282 
    3578     3088     3055     3396     3751     3522     2473     1310 
     950     1555     2646     3636     4149     4120     3935     3892 
    3780     3568     3149     2303     1749     2088     2733     3107 
    2940     2123     1355     1601     2731     3766     4256     4233 
    3734     3149     2886     2970     3206     3161     2731     2400 
    2473     2929     3719     4405     4372     3769     3168     2820 
    2945     3384     3312     2691     2111     1621     1306     1277 
    1574     2353     3092     3315     3275     3029     2814     3114 
    3665     4047     4279     4206     3634     2682     1786     1552 
    2211     3429     4456     4672     4348     3997     3603     3319 
    3431     3646     3589     3294     2783     2114     1761     1772 
    1399      760      880     1927     3110     3840     4203     4282 
    3807     2961     2425     2365     2511     3002     3888     4549 
    4558     4143     3568     2829     2066     1645     1867     2822 
    3877     4186     3910     3330     2303     1227      621      635 
    1267     2111     2825     3488     4164     4641     4410     3640 
    3360     3820     4453     4820     4540     3580     2413     1518 
    1310     1939     3010     3824     3878     3268     2571     2207 
    2081     2070     2303     2776     3330     3694     3397     2508 
    1790     1533     1829     2994     4507     5483     5564     4621 
    3105     1744      739      203      433     1475     2747     3655 
