Origin Time       2024/04/02 04:24:00
Lat.              40.133
Long.             141.712
Depth. (km)       71
Mag.              6.0
Station Code      HKD073
Station Lat.      43.3327
Station Long.     145.6003
Station Height(m) 36
Record Time       2024/04/02 04:26:26
Sampling Freq(Hz) 100Hz
Duration Time(s)  60
Dir.              U-D
Scale Factor      3920(gal)/6182761
Max. Acc. (gal)   1.169
Last Correction   2024/04/02 04:26:26
Memo.             
[...]
  -15522   -15274   -15207   -15343   -15383   -15332   -15424   -15577 
  -15564   -15413   -15278   -15246   -15299   -15341   -15362   -15462 
  -15613   -15602   -15363   -15164   -15200   -15344   -15470   -15576 
  -15599   -15445   -15168   -14981   -15048   -15278   -15445   -15526 
  -15615   -15666   -15597   -15389   -15116   -15039   -15282   -15561 
  -15631   -15615   -15574   -15384   -15206   -15302   -15476   -15416 
  -15214   -15166   -15341   -15523   -15568   -15547   -15461   -15298 
  -15220   -15331   -15441   -15306   -15087   -15149   -15454   -15648 
  -15565   -15361   -15262   -15285   -15327   -15398   -15515   -15543 
  -15442   -15405   -15494   -15504   -15333   -15173   -15176   -15256 
  -15322   -15408   -15536   -15619   -15538   -15358   -15279   -15363 
  -15456   -15397   -15315   -15391   -15488   -15521   -15582   -15570 
  -15414   -15231   -15054   -14977   -15174   -15503   -15672   -15629 
  -15524   -15498   -15501   -15335   -15069   -15060   -15346   -15538 
  -15491   -15445   -15470   -15450   -15432   -15409   -15259   -15088 
  -15086   -15233   -15404   -15501   -15543   -15619   -15625   -15409 
  -15127   -15049   -15180   -15368   -15553   -15722   -15779   -15627 
  -15343   -15149   -15179   -15334   -15409   -15363   -15355   -15479 
  -15581   -15503   -15285   -15007   -14849   -15115   -15605   -15744 
  -15570   -15486   -15467   -15406   -15388   -15412   -15394   -15307 
  -15208   -15168   -15304   -15667   -15868   -15552   -15078   -14905 
  -15054   -15389   -15682   -15709   -15580   -15518   -15482   -15346 
  -15205   -15201   -15303   -15420   -15490   -15486   -15425   -15376 
  -15384   -15397   -15406   -15421   -15343   -15248   -15300   -15410 
  -15437   -15412   -15412   -15395   -15333   -15419   -15654   -15661 
  -15369   -15167   -15187   -15199   -15196   -15360   -15607   -15703 
  -15612   -15465   -15346   -15274   -15221   -15172   -15196   -15320 
  -15454   -15514   -15567   -15654   -15585   -15344   -15223   -15245 
  -15292   -15409   -15484   -15412   -15365   -15376   -15300   -15197 
  -15226   -15386   -15521   -15555   -15586   -15600   -15487   -15306 
  -15108   -14974   -15094   -15439   -15773   -15869   -15593   -15162 
  -14990   -15128   -15335   -15463   -15483   -15462   -15499   -15516 
  -15392   -15275   -15303   -15338   -15284   -15317   -15549   -15721 
  -15593   -15373   -15280   -15236   -15214   -15340   -15559   -15620 
  -15466   -15318   -15346   -15445   -15385   -15179   -15067   -15206 
  -15522   -15747   -15688   -15457   -15300   -15244   -15127   -15079 
  -15357   -15679   -15636   -15405   -15359   -15464   -15458   -15369 
  -15409   -15486   -15386   -15200   -15177   -15358   -15496   -15440 
  -15385   -15486   -15579   -15455   -15261   -15264   -15300   -15232 
  -15306   -15477   -15535   -15530   -15461   -15323   -15291   -15394 
  -15415   -15344   -15388   -15463   -15476   -15628   -15795   -15616 
  -15198   -14932   -14932   -15073   -15360   -15765   -15914   -15640 
  -15325   -15274   -15435   -15550   -15345   -15014   -14968   -15111 
  -15252   -15522   -15867   -15980   -15741   -15333   -15054   -15037 
  -15186   -15302   -15331   -15448   -15639   -15659   -15553   -15491 
  -15361   -15156   -15117   -15247   -15393   -15528   -15560   -15438 
  -15307   -15239   -15250   -15384   -15531   -15526   -15346   -15146 
  -15178   -15383   -15472   -15466   -15521   -15579   -15581   -15515 
  -15323   -15072   -15030   -15309   -15570   -15544   -15419   -15334 
  -15183   -15078   -15221   -15468   -15606   -15595   -15387   -15130 
  -15103   -15274   -15466   -15612   -15659   -15517   -15213   -15046 
  -15167   -15313   -15404   -15613   -15786   -15724   -15508   -15152 
  -14810   -14934   -15528   -15959   -15842   -15513   -15261   -15016 
  -15007   -15332   -15478   -15393   -15477   -15570   -15469   -15408 
  -15398   -15337   -15369   -15491   -15570   -15589   -15504   -15294 
  -15034   -14924   -15108   -15413   -15690   -15811   -15505   -15029 
  -14971   -15212   -15375   -15543   -15728   -15705   -15514   -15356 
  -15256   -15252   -15396   -15483   -15392   -15395   -15555   -15510 
  -15217   -15109   -15317   -15487   -15522   -15601   -15556   -15265 
  -15071   -15131   -15273   -15460   -15637   -15630   -15438   -15257 
  -15190   -15200   -15278   -15381   -15468   -15582   -15617   -15426 
  -15161   -15147   -15389   -15501   -15374   -15313   -15393   -15429 
  -15383   -15402   -15515   -15567   -15526   -15484   -15427   -15327 
  -15263   -15282   -15300   -15273   -15322   -15446   -15475   -15427 
  -15404   -15353   -15299   -15371   -15497   -15544   -15568   -15534 
  -15315   -15139   -15274   -15502   -15582   -15584   -15552   -15408 
  -15236   -15290   -15484   -15438   -15224   -15230   -15479   -15612 
  -15409   -15160   -15152   -15296   -15479   -15605   -15608   -15561 
  -15468   -15305   -15186   -15191   -15277   -15401   -15541   -15585 
  -15440   -15298   -15391   -15571   -15649   -15662   -15542   -15221 
  -14974   -15014   -15134   -15165   -15277   -15554   -15784   -15759 
  -15515   -15242   -15083   -15121   -15323   -15456   -15431   -15411 
  -15424   -15386   -15376   -15437   -15447   -15425   -15500   -15535 
  -15292   -14936   -14920   -15313   -15741   -15926   -15810   -15520 
  -15287   -15132   -15004   -14963   -15004   -15167   -15525   -15825 
  -15801   -15600   -15417   -15274   -15159   -15066   -15156   -15502 
  -15706   -15484   -15211   -15271   -15450   -15471   -15446   -15463 
  -15438   -15360   -15301   -15322   -15374   -15305   -15172   -15213 
  -15498   -15789   -15658   -15142   -14912   -15199   -15553   -15760 
  -15821   -15606   -15242   -15032   -15021   -15135   -15303   -15453 
  -15581   -15675   -15689   -15505   -15114   -14895   -15121   -15512 
  -15737   -15740   -15555   -15313   -15247   -15368   -15435   -15456 
  -15612   -15668   -15426   -15216   -15212   -15209   -15233   -15425 
  -15585   -15524   -15391   -15305   -15231   -15210   -15249   -15259 
  -15335   -15572   -15727   -15668   -15513   -15309   -15153   -15212 
  -15442   -15615   -15604   -15449   -15262   -15151   -15130   -15198 
  -15369   -15517   -15522   -15534   -15698   -15738   -15470   -15220 
  -15172   -15217   -15298   -15336   -15335   -15386   -15432   -15423 
  -15449   -15559   -15658   -15625   -15491   -15380   -15313   -15261 
  -15273   -15296   -15260   -15307   -15438   -15404   -15223   -15187 
  -15419   -15677   -15646   -15410   -15297   -15391   -15493   -15494 
  -15469   -15385   -15249   -15237   -15319   -15303   -15221   -15221 
  -15247   -15220   -15346   -15623   -15686   -15513   -15299   -15068 
  -15035   -15429   -15914   -15995   -15675   -15261   -14940   -14822 
  -14992   -15334   -15556   -15580   -15548   -15471   -15340   -15308 
  -15381   -15422   -15447   -15443   -15343   -15313   -15367   -15207 
  -14941   -15053   -15564   -15961   -15906   -15568   -15300   -15194 
  -15143   -15232   -15499   -15656   -15539   -15228   -14935   -14953 
  -15239   -15440   -15435   -15422   -15528   -15648   -15603   -15317 
  -15072   -15168   -15324   -15289   -15325   -15514   -15618   -15606 
  -15592   -15518   -15277   -15012   -14963   -15181   -15544   -15811 
  -15765   -15532   -15382   -15272   -15122   -15195   -15533   -15652 
  -15396   -15174   -15210   -15371   -15490   -15504   -15459   -15425 
  -15424   -15363   -15195   -15103   -15192   -15320   -15436   -15599 
  -15695   -15576   -15356   -15280   -15416   -15578   -15530   -15365 
  -15357   -15464   -15494   -15415   -15284   -15227   -15332   -15507 
  -15572   -15479   -15376   -15444   -15540   -15371   -15137   -15192 
  -15347   -15375   -15471   -15661   -15658   -15518   -15489   -15488 
  -15355   -15113   -15001   -15245   -15573   -15651   -15585   -15443 
  -15198   -15036   -15122   -15427   -15732   -15811   -15735   -15611 
  -15417   -15305   -15281   -15094   -14906   -15062   -15356   -15482 
  -15629   -15862   -15777   -15332   -15004   -14957   -15029   -15209 
  -15410   -15456   -15561   -15883   -15931   -15457   -15050   -15066 
  -15190   -15270   -15387   -15485   -15531   -15495   -15368   -15351 
  -15532   -15709   -15726   -15487   -15046   -14796   -14934   -15193 
  -15373   -15510   -15528   -15388   -15347   -15507   -15584   -15519 
  -15598   -15721   -15479   -15105   -15191   -15517   -15442   -15107 
  -15066   -15329   -15592   -15726   -15653   -15451   -15373   -15359 
  -15237   -15188   -15272   -15328   -15467   -15733   -15814   -15638 
  -15450   -15307   -15150   -15098   -15229   -15375   -15379   -15346 
  -15423   -15530   -15623   -15746   -15698   -15363   -15085   -15122 
  -15270   -15358   -15422   -15427   -15428   -15470   -15390   -15210 
  -15100   -15073   -15141   -15340   -15553   -15598   -15522   -15492 
  -15470   -15369   -15305   -15375   -15373   -15192   -15151   -15366 
  -15498   -15447   -15427   -15444   -15396   -15359   -15364   -15382 
  -15418   -15343   -15197   -15245   -15387   -15472   -15660   -15721 
  -15355   -15012   -15027   -15183   -15453   -15755   -15792   -15644 
  -15449   -15204   -15057   -15046   -15142   -15431   -15697   -15614 
  -15353   -15135   -14931   -14987   -15400   -15733   -15872   -16017 
  -16046   -15808   -15310   -14725   -14520   -14869   -15375   -15774 
  -15981   -15838   -15556   -15438   -15331   -15131   -14947   -14757 
  -14650   -14835   -15307   -15840   -16226   -16400   -16318   -15926 
  -15279   -14620   -14369   -14555   -14606   -14470   -14889   -15916 
  -16677   -16759   -16296   -15468   -14811   -14695   -14782   -14965 
  -15508   -16003   -15978   -15904   -16021   -15691   -14872   -14543 
  -15086   -15594   -15498   -15331   -15252   -14951   -14948   -15707 
  -16461   -16443   -15885   -15327   -14937   -14567   -14297   -14543 
  -15376   -16205   -16387   -15879   -15172   -14661   -14429   -14570 
  -15129   -15763   -16008   -15800   -15587   -15791   -16179   -16152 
  -15658   -15240   -15005   -14590   -14245   -14508   -15133   -15497 
  -15546   -15582   -15505   -15037   -14508   -14564   -15289   -16166 
  -16612   -16418   -15781   -15030   -14559   -14801   -15687   -16428 
  -16406   -15905   -15554   -15397   -15093   -14707   -14591   -14832 
  -15242   -15640   -15811   -15527   -15123   -15236   -15815   -16304 
  -16204   -15451   -14836   -15110   -15752   -15828   -15417   -15131 
  -15112   -15160   -15199   -15368   -15580   -15448   -15031   -14852 
  -15033   -15154   -14989   -14879   -15173   -15575   -15610   -15434 
  -15428   -15503   -15576   -15700   -15584   -15233   -15165   -15365 
  -15353   -14990   -14539   -14394   -14822   -15760   -16653   -16817 
  -16368   -15923   -15621   -15553   -15840   -15882   -15147   -14265 
  -14215   -14954   -15589   -15700   -15608   -15547   -15480   -15402 
  -15471   -15657   -15461   -14740   -14255   -14598   -15429   -16192 
  -16748   -17021   -16697   -15717   -14615   -13956   -13874   -14270 
  -14925   -15446   -15560   -15376   -15232   -15403   -15834   -16245 
  -16337   -15836   -14865   -14050   -13888   -14375   -15137   -15741 
  -16135   -16477   -16576   -16196   -15450   -14566   -13993   -14189 
  -14978   -15827   -16190   -15825   -15359   -15378   -15562   -15796 
  -16321   -16674   -16271   -15349   -14536   -14258   -14660   -15522 
  -16125   -15804   -15058   -14952   -15241   -15050   -14727   -15007 
  -15666   -16047   -15986   -15762   -15506   -15299   -15313   -15486 
  -15777   -16095   -15990   -15370   -14740   -14574   -14932   -15334 
  -15476   -15615   -15696   -15464   -15051   -14563   -14278   -14633 
  -15416   -16278   -17098   -17206   -16205   -15007   -14479   -14455 
  -14599   -14843   -15047   -15083   -15027   -14980   -14982   -15188 
  -15779   -16441   -16529   -16156   -15994   -15887   -15220   -14382 
  -14329   -14899   -15191   -15359   -15753   -15695   -15094   -14793 
  -15019   -15494   -15926   -15945   -15726   -15973   -16507   -16262 
  -15167   -14246   -14023   -14306   -14921   -15844   -16564   -16217 
  -15021   -14249   -14478   -15249   -15961   -16111   -15750   -15468 
  -15239   -14924   -14897   -14992   -15224   -16199   -17176   -16779 
  -15329   -14115   -13785   -14151   -14673   -15287   -16191   -16805 
  -16439   -15402   -14469   -14180   -14761   -15840   -16463   -16134 
  -15388   -14927   -14812   -14681   -14562   -14913   -15630   -16088 
  -16118   -15958   -15776   -15573   -15351   -15381   -15780   -15917 
  -15172   -14173   -14115   -15022   -15958   -16358   -16150   -15587 
  -15335   -15597   -15618   -15135   -14963   -15321   -15456   -15266 
  -15451   -16055   -16176   -15425   -14777   -15012   -15433   -15205 
  -14639   -14486   -14921   -15477   -15671   -15616   -15687   -15923 
  -16082   -15807   -15171   -14852   -14968   -15087   -15353   -15794 
  -15796   -15431   -15324   -15319   -15130   -15084   -15361   -15721 
  -15782   -15508   -15323   -15266   -15096   -14954   -15069   -15422 
  -15512   -15088   -15002   -15649   -16151   -16033   -15822   -15963 
  -16014   -15552   -15045   -14670   -14250   -14394   -15297   -15895 
  -15709   -15509   -15668   -15775   -15628   -15369   -15280   -15475 
  -15579   -15438   -15463   -15609   -15273   -14619   -14524   -15093 
  -15641   -15765   -15512   -15020   -14458   -14186   -14656   -15715 
  -16573   -16920   -16747   -15623   -14029   -13544   -14550   -15860 
  -16533   -16647   -16562   -16258   -15729   -15202   -14815   -14685 
  -14915   -15383   -15724   -15563   -14935   -14273   -14255   -15350 
  -16672   -16781   -15897   -15176   -14843   -14643   -14764   -15424 
  -15997   -15681   -14968   -14911   -15399   -15623   -15490   -15396 
  -15392   -15542   -15944   -16067   -15522   -14765   -14280   -14326 
  -14925   -15530   -15772   -15762   -15494   -15312   -15721   -16205 
  -16000   -15386   -15002   -14941   -14914   -14778   -14761   -15155 
  -15961   -16614   -16440   -15801   -15547   -15518   -15023   -14334 
  -14493   -15413   -15807   -15451   -15205   -15368   -15739   -16056 
  -16071   -15799   -15401   -14983   -14699   -14765   -15069   -15155 
  -14966   -14989   -15572   -16318   -16309   -15386   -14691   -14949 
  -15365   -15281   -15125   -15321   -15738   -15997   -15922   -15608 
  -15113   -14755   -14975   -15551   -15888   -15800   -15603   -15564 
  -15562   -15442   -15198   -14930   -14865   -15022   -15218   -15447 
  -15648   -15745   -15855   -15884   -15688   -15364   -14885   -14387 
  -14342   -14783   -15183   -15295   -15589   -16393   -16935   -16452 
  -15419   -14524   -13946   -13953   -14649   -15485   -16029   -16468 
  -16872   -16817   -15990   -14875   -14501   -14849   -14870   -14690 
  -15154   -15767   -15622   -15033   -14854   -15159   -15456   -15865 
  -16620   -16850   -15814   -14446   -14073   -14720   -15459   -15660 
  -15494   -15427   -15498   -15304   -14873   -14862   -15399   -15927 
  -16178   -16081   -15536   -14840   -14501   -14727   -15315   -15787 
  -15727   -15215   -14823   -15034   -15688   -16094   -15921   -15595 
  -15442   -15255   -15016   -15054   -15343   -15517   -15398   -15098 
  -15126   -15796   -16425   -16401   -15897   -15059   -14325   -14455 
  -15217   -15777   -15926   -15804   -15498   -15246   -15297   -15473 
  -15371   -15180   -15386   -15785   -15862   -15623   -15387   -15204 
  -14885   -14685   -15101   -15853   -16222   -16058   -15690   -15335 
  -14986   -14752   -14904   -15406   -15767   -15556   -14885   -14489 
  -14995   -15861   -16013   -15473   -15213   -15596   -16003   -15901 
  -15427   -15044   -14967   -15002   -15155   -15601   -15932   -15675 
  -15189   -15067   -15333   -15620   -15633   -15461   -15288   -15055 
  -14908   -14974   -14970   -14989   -15221   -15331   -15338   -15481 
  -15551   -15624   -15837   -15733   -15150   -14630   -14572   -14826 
  -15058   -15222   -15495   -15788   -15796   -15680   -15898   -16224 
  -16012   -15391   -14985   -14786   -14629   -14782   -15203   -15526 
  -15725   -15971   -16226   -16080   -15219   -14260   -14258   -15185 
  -15964   -15971   -15613   -15589   -15849   -15770   -15437   -15356 
  -15319   -15000   -14743   -15069   -15765   -16017   -15655   -15328 
  -15441   -15778   -15814   -15361   -15000   -15216   -15642   -15642 
  -15133   -14789   -14934   -14947   -14746   -14864   -15254   -15796 
  -16400   -16496   -15876   -15203   -15100   -15306   -15292   -15202 
  -15305   -15435   -15376   -15253   -15345   -15465   -15366   -15353 
  -15455   -15285   -14965   -14932   -15231   -15646   -16004   -16157 
  -15984   -15656   -15547   -15510   -15075   -14561   -14663   -15239 
  -15663   -15725   -15561   -15321   -15138   -15100   -15225   -15487 
  -15869   -16109   -15855   -15401   -15142   -14837   -14524   -14728 
  -15493   -16302   -16510   -15847   -14902   -14557   -15003   -15652 
  -15885   -15784   -15750   -15703   -15487   -15314   -15163   -14741 
  -14336   -14630   -15555   -16280   -16265   -15835   -15575   -15405 
  -14957   -14495   -14564   -15116   -15481   -15369   -15324   -15634 
  -15848   -15776   -15729   -15800   -15764   -15506   -15185   -15051 
  -15112   -15229   -15300   -15114   -14811   -14950   -15417   -15664 
  -15689   -15612   -15493   -15442   -15287   -14985   -14892   -15177 
  -15610   -15823   -15717   -15516   -15334   -15234   -15382   -15606 
  -15538   -15451   -15811   -15979   -15148   -14182   -14384   -15466 
  -16425   -16864   -16591   -15572   -14510   -14227   -14562   -14794 
  -14915   -15352   -15826   -15850   -15644   -15481   -15275   -15244 
  -15541   -15661   -15442   -15321   -15365   -15411   -15456   -15387 
  -15187   -15162   -15438   -15669   -15652   -15603   -15477   -15168 
  -14990   -15126   -15444   -15795   -15990   -15853   -15434   -15142 
  -15133   -14952   -14705   -15036   -15564   -15592   -15399   -15248 
  -15061   -15129   -15412   -15428   -15337   -15498   -15615   -15464 
  -15374   -15513   -15616   -15525   -15424   -15457   -15442   -15296 
  -15268   -15305   -15155   -15079   -15405   -15857   -15931   -15540 
  -15141   -15176   -15365   -15209   -15027   -15379   -15868   -15728 
  -15213   -15103   -15295   -15348   -15389   -15375   -15098   -14927 
  -15162   -15569   -15830   -15724   -15438   -15407   -15494   -15353 
  -15155   -15111   -15082   -15069   -15312   -15637   -15598   -15345 
  -15347   -15556   -15682   -15612   -15278   -15051   -15425   -15852 
  -15619   -15170   -15163   -15456   -15510   -15327   -15441   -15645 
  -15325   -15028   -15432   -15833   -15576   -15229   -15329   -15634 
  -15758   -15625   -15341   -14944   -14605   -14643   -14994   -15459 
  -16028   -16276   -15887   -15388   -15131   -15017   -15245   -15753 
  -15911   -15557   -15218   -15142   -15122   -15146   -15327   -15484 
  -15455   -15350   -15336   -15418   -15448   -15405   -15436   -15475 
  -15277   -14866   -14718   -15223   -15926   -16021   -15611   -15436 
  -15525   -15243   -14695   -14832   -15764   -16405   -16118   -15454 
  -15167   -15238   -15170   -15055   -15327   -15590   -15356   -15147 
  -15316   -15346   -15109   -15094   -15396   -15713   -15803   -15430 
