Origin Time       2024/04/02 04:24:00
Lat.              40.133
Long.             141.712
Depth. (km)       71
Mag.              6.0
Station Code      HKD080
Station Lat.      43.5077
Station Long.     144.4485
Station Height(m) 140
Record Time       2024/04/02 04:26:17
Sampling Freq(Hz) 100Hz
Duration Time(s)  69
Dir.              N-S
Scale Factor      7845(gal)/8223790
Max. Acc. (gal)   8.190
Last Correction   2024/04/02 04:26:17
Memo.             
[...]
    4889     4862     4577     4191     3933     3939     4156     4390 
    4521     4499     4363     4423     4729     4823     4725     4801 
    4845     4575     4239     4140     4267     4472     4700     4819 
    4684     4519     4568     4703     4791     4785     4657     4546 
    4488     4395     4401     4506     4511     4502     4533     4356 
    4070     4093     4364     4494     4348     4143     4297     4666 
    4630     4438     4584     4676     4646     4816     4770     4309 
    4037     4194     4488     4688     4698     4573     4409     4321 
    4398     4549     4730     4781     4450     4091     4218     4707 
    5174     5224     4703     4125     4059     4340     4426     4329 
    4428     4607     4608     4553     4472     4291     4222     4471 
    4877     5015     4808     4707     4730     4448     4056     4122 
    4511     4673     4577     4419     4202     4180     4482     4727 
    4768     4664     4515     4604     4706     4413     4087     4132 
    4378     4610     4716     4618     4371     4095     3905     3901 
    4220     4822     5262     5243     4918     4526     4320     4328 
    4288     4294     4541     4761     4656     4234     3862     4033 
    4585     4914     4891     4664     4310     4118     4268     4503 
    4668     4735     4607     4353     4082     4000     4419     5022 
    5074     4553     4085     4095     4483     4838     4950     4806 
    4411     4093     4194     4581     4907     4878     4602     4440 
    4245     3883     3867     4324     4696     4710     4571     4522 
    4558     4637     4727     4572     4253     4275     4587     4664 
    4351     4027     4143     4565     4791     4787     4747     4645 
    4490     4455     4648     4811     4603     4291     4230     4352 
    4592     4760     4575     4282     4320     4650     4911     4962 
    4923     4806     4545     4252     4176     4441     4785     4787 
    4401     4009     3889     3929     4035     4361     4714     4560 
    4045     3831     4121     4625     4934     4914     4911     5105 
    5174     5023     4824     4588     4371     4282     4272     4340 
    4540     4666     4490     4333     4579     4861     4784     4617 
    4507     4288     4158     4342     4654     4870     4888     4638 
    4197     3786     3730     4203     4842     5070     4718     4047 
    3667     3943     4394     4617     4824     4973     4768     4352 
    4179     4322     4398     4419     4700     4947     4851     4650 
    4456     4239     4147     4203     4388     4669     4666     4328 
    4222     4426     4537     4514     4380     4095     3994     4349 
    4789     4810     4330     3643     3271     3570     4332     5105 
    5537     5391     4835     4322     4085     4182     4533     4834 
    4911     4851     4784     4722     4604     4402     4206     4237 
    4453     4617     4800     4992     4845     4344     3861     3719 
    4021     4487     4780     4843     4676     4423     4428     4660 
    4819     4855     4791     4561     4186     3973     4274     4806 
    5012     4881     4658     4499     4496     4575     4602     4573 
    4491     4376     4367     4410     4325     4290     4542     4860 
    4899     4715     4525     4344     4170     4098     4302     4793 
    5147     5115     4880     4422     3882     3866     4390     4796 
    4905     4911     4683     4320     4183     4125     4106     4392 
    4565     4359     4359     4507     4359     4337     4623     4769 
    4824     4970     4982     4779     4468     4158     3979     3936 
    4004     4348     4882     5077     4903     4806     4629     4195 
    4043     4218     4163     4141     4461     4617     4662     4891 
    4807     4418     4233     4097     4006     4375     4887     4912 
    4557     4226     4105     4152     4180     4253     4584     4918 
    4811     4453     4367     4463     4411     4324     4206     4044 
    4132     4487     4864     5044     4843     4490     4355     4342 
    4276     4213     4172     4229     4592     5150     5332     4885 
    4371     4325     4550     4662     4502     4253     4361     4714 
    4815     4785     4826     4712     4673     4885     4776     4418 
    4382     4352     4112     4158     4556     4869     4750     4245 
    3846     3931     4386     4943     5281     5047     4491     4191 
    4098     4070     4328     4660     4573     4221     4170     4433 
    4549     4477     4437     4396     4479     4849     5170     5074 
    4568     4054     4202     4818     4949     4598     4356     4195 
    4001     3979     4152     4342     4581     4858     4826     4511 
    4341     4390     4544     4657     4515     4313     4349     4402 
    4272     4160     4260     4585     4845     4801     4768     4849 
    4731     4515     4419     4278     4087     4118     4284     4322 
    4491     4901     4835     4213     3977     4221     4407     4611 
    4692     4291     3993     4344     4770     4837     4793     4656 
    4519     4828     5236     4966     4341     4132     4257     4365 
    4396     4403     4591     4779     4492     4187     4433     4745 
    4780     4795     4746     4496     4263     4294     4449     4396 
    4306     4592     4988     4945     4583     4428     4580     4683 
    4600     4542     4390     3978     3732     3838     4133     4729 
    5243     4974     4160     3600     3766     4396     4635     4374 
    4330     4548     4689     4797     4758     4553     4509     4587 
    4531     4376     4325     4414     4464     4394     4205     4128 
    4645     5275     4978     4194     3998     4340     4806     5158 
    5008     4515     4384     4635     4695     4511     4405     4315 
    4117     3955     4051     4514     5040     5143     4841     4369 
    3944     4020     4638     5028     4741     4322     4252     4340 
    4522     4710     4504     4222     4320     4434     4646     5139 
    5096     4471     4153     4129     4202     4534     4766     4635 
    4511     4687     4995     5081     4888     4629     4407     4249 
    4241     4403     4517     4349     4153     4278     4484     4652 
    4812     4482     3906     3947     4247     4468     5001     5333 
    4891     4275     4189     4666     5142     5067     4648     4298 
    4083     4139     4510     4835     4758     4201     3643     3754 
    4245     4452     4504     4671     4722     4519     4375     4396 
    4301     4214     4294     4345     4537     4850     4774     4387 
    4183     4334     4646     4791     4704     4568     4480     4464 
    4463     4433     4438     4401     4186     3986     4059     4425 
    4905     5152     4807     4016     3585     3915     4509     5051 
    5502     5497     5055     4672     4449     4340     4428     4530 
    4511     4518     4452     4234     4213     4326     4153     3942 
    3971     3986     4183     4725     4810     4390     4564     5205 
    5112     4274     3709     3758     4133     4800     5541     5670 
    4911     4018     3825     3969     3932     4194     4803     4923 
    4503     4279     4419     4627     4638     4483     4654     4993 
    4768     4401     4450     4444     4461     4914     5117     4665 
    4326     4325     4261     4372     4635     4563     4487     4541 
    4191     3977     4494     4812     4509     4291     4112     3983 
    4635     5532     5512     4861     4276     3802     3658     4010 
    4409     4645     4810     4641     4226     4120     4191     4129 
    4251     4444     4302     4206     4407     4526     4688     5144 
    5374     5188     4961     4594     4094     3925     4085     4193 
    4261     4575     4892     4626     4102     4271     4931     4970 
    4401     4141     4201     4252     4646     5182     5094     4737 
    4804     4787     4278     3971     4240     4595     4565     4209 
    4128     4576     4882     4750     4824     5171     5069     4550 
    4336     4585     4834     4770     4581     4345     3917     3712 
    4078     4538     4804     5026     4982     4414     3694     3585 
    4193     4656     4679     4769     4749     4356     4156     4391 
    4606     4585     4519     4522     4611     4677     4392     3979 
    4091     4533     4772     4857     4668     4086     3747     4045 
    4542     4876     5067     5069     4814     4483     4272     4318 
    4649     4958     5016     4834     4442     4125     3967     3666 
    3619     4225     4827     5077     5211     5016     4554     4382 
    4338     4077     4162     4720     4757     4175     3906     4044 
    4288     4707     5019     4870     4372     3978     4207     4850 
    5178     5124     4861     4384     4051     3952     3874     4125 
    4630     4696     4480     4541     4652     4629     4860     5178 
    4935     4360     4132     4248     4315     4232     4256     4461 
    4542     4619     4904     4868     4406     4221     4418     4680 
    4942     4946     4563     4229     4243     4460     4676     4669 
    4471     4472     4706     4893     5105     5235     4846     4164 
    3963     4329     4534     4190     3736     3623     3828     4299 
    5049     5560     5171     4270     3712     3586     3815     4526 
    5200     5240     5030     4876     4486     4160     4374     4641 
    4560     4526     4642     4484     4050     3829     4008     4314 
    4521     4598     4646     4693     4472     4072     4035     4245 
    4282     4359     4685     5013     4988     4711     4757     4885 
    4467     4148     4414     4442     4063     4077     4529     4619 
    4058     3626     3875     4264     4503     4877     5173     5070 
    4631     4136     4012     4279     4808     5670     6122     5485 
    4720     4573     4333     3863     3703     3534     3145     3242 
    4086     4935     5086     4833     5011     5618     5900     5684 
    5209     4345     3366     3111     3565     3929     3839     3519 
    3341     3381     3657     4438     5528     6054     5757     5428 
    5429     5104     4467     4328     4318     3724     3291     3623 
    4159     4630     5135     5378     5078     4554     4457     4664 
    4473     4170     4228     4140     3736     3645     3983     4110 
    3678     3330     3740     4716     5751     6328     6222     5929 
    5557     4835     4384     4622     4947     5047     4969     4590 
    4108     3844     3677     3684     4314     5198     5239     4255 
    3453     3712     4396     4973     5833     6416     5680     4291 
    3403     2934     2581     2713     3696     4865     5142     4741 
    4365     3697     3018     3746     5894     7738     8109     7068 
    4839     2056      508     1377     3643     5567     6281     5832 
    4869     4139     3986     4390     5084     5487     5178     4461 
    3906     3886     4594     5590     5633     4317     3188     3522 
    4561     5182     4958     3677     1989     1702     3676     6516 
    8263     8102     6377     4298     3300     3964     5676     7257 
    7468     5644     2597       98     -488     1120     3646     5243 
    5663     5908     6328     6417     5711     4503     3701     3743 
    4114     4149     3967     4105     4510     4773     4789     4687 
    4467     3962     3133     2143     1610     2560     5105     7722 
    8540     7260     5624     5202     5286     4329     2470     1132 
    1216     2860     5458     7221     6593     4299     2539     2678 
    4234     5458     5281     4395     3875     4240     5205     5482 
    4448     3250     2821     3064     4187     6191     7912     8109 
    6407     3403      842      571     2508     4862     6137     5756 
    4522     4808     7354     9355     8340     5042     1443     -805 
    -577     1683     4338     6328     6889     5578     3682     3028 
    4078     5884     6755     5890     4213     3264     3861     5348 
    6273     5931     4783     3796     3720     4785     6241     6419 
    4796     2833     1802     1804     2663     3825     4429     4492 
    4665     5327     6666     7959     7661     5601     3046      838 
    -406      137     2377     5135     6887     6624     5066     3836 
    3515     3978     4904     5607     6068     6612     6677     5894 
    4608     3045     1881     2258     4249     6439     6851     4414 
     523    -1429      689     5328     8993     9597     7334     3939 
    1675     1767     3642     5543     5895     4509     2250      515 
    1102     4526     8824    11252    10285     6436     2401     1264 
    3245     5428     5877     5614     5522     4791     2829      530 
     -45     2157     5769     8939    10342     8911     5367     1890 
    -553    -2018    -1656     1324     5223     7372     7701     7484 
    6571     5279     5687     7969     9189     7784     4720      939 
   -1651     -159     4981     9364     9428     5582      688    -2532 
   -2357     1532     7159    10925    10359     6199     1621     -500 
     849     4924     8991     9815     7327     4698     4079     4641 
    5059     5093     4448     3033     1661      595     -133      828 
    4259     8316    10092     8202     4071      928      897     3481 
    6889     9487     9948     7902     4541     1553      283     1378 
    3870     5082     3387     1233     2621     7435    11244    10339 
    5092     -958    -4089    -2554     2876     8812    11061     8784 
    5185     3497     4423     6249     6146     3192     -178     -988 
    1345     4976     7438     7912     7204     5759     4176     3904 
    4789     4916     3847     3230     4091     5452     5864     5225 
    4675     4758     4820     4692     4837     4853     4293     3960 
    4347     4271     2971     1813     2312     4248     6524     8104 
    8032     6165     3693     1968     1397     1796     3073     5258 
    7416     7692     5736     3275     2164     3348     6088     8048 
    7857     6362     4513     2112     -623    -1987     -325     3609 
    6983     8039     7503     6644     5914     5378     4500     2521 
     692     1375     3886     5464     5525     4930     3905     3203 
    4099     6095     7115     6195     4261     2810     3021     5296 
    8302     9267     7006     3781     2176     1841     1713     2624 
    4892     6328     5121     2258      349     1460     5059     8060 
    8147     6061     4233     4090     4993     5687     5871     5752 
    4918     3060     1348     1402     3310     5854     7942     8711 
    7245     3915      824     -351      471     2527     4954     6775 
    6876     5463     4216     3875     4330     5761     7059     6261 
    3578     1563     2191     4515     6004     5853     4850     3256 
    1251      -99      513     3434     7177     9445     9223     7200 
    4869     3562     3496     3821     4220     5063     5679     5023 
    3558     2420     1803     1372     1795     4081     7435     9552 
    8892     6173     3654     3069     4446     6077     6141     4941 
    3933     3312     2903     3658     5779     7304     6480     4010 
    1744      772     1644     4074     6304     7025     6729     6014 
    4861     3727     3200     3285     3662     3789     3605     4027 
    5466     6461     5155     2189      596     2188     4977     5528 
    3888     3067     3775     4284     4047     3581     3291     4148 
    6601     8914     8907     6567     4058     3267     3785     4291 
    4282     3531     2251     1652     2713     4814     6065     5205 
    3138     2349     4475     8409    10976     9576     4828      216 
   -1444      156     3871     7893     9910     8565     5171     2583 
    2446     4168     5794     5942     5101     4418     4322     4722 
    4788     3723     2600     2930     4171     4662     4041     3974 
    5769     7916     8230     6574     4110     2278     2030     3052 
    4309     5000     5224     5216     4241     2562     2170     3284 
    3848     3042     2108     2312     3634     5159     6340     7346 
    7927     7528     6511     5212     3523     2155     2049     3546 
    5935     6963     5378     2806     1236     1306     3029     5860 
    8406     9135     7659     4834     2025      934     2320     4488 
    5144     4180     3177     2990     3113     3267     3770     4491 
    5225     5884     5871     5142     4673     4757     4806     4752 
    4893     5005     4769     4264     3813     3952     4869     5788 
    5917     5487     4909     4279     4521     6079     6606     3798 
    -494    -2413     -950     2193     5633     8536     9688     8549 
    6123     3734     2397     2982     4885     6068     5672     4965 
    5197     5787     5509     4504     3800     3500     2867     1779 
    1185     2263     4843     7068     7310     6064     5424     6039 
    6099     4666     3003     2227     2493     3511     4641     5190 
    4626     3152     2154     2458     3272     3975     4577     4803 
    4668     4654     4868     4878     4573     4745     5900     7310 
    8033     7510     5819     4171     3802     4567     5255     4989 
    3977     2852     1919     1251      897     1274     3007     5304 
    6296     5734     5134     5557     6613     7411     7476     6571 
    5286     4866     5189     5254     5022     4422     2926     1161 
     683     1998     3967     5036     4619     3524     3096     3834 
    5111     6027     6216     5911     5370     4606     3825     3759 
    4830     6151     6552     5871     4565     3411     3017     2771 
    2107     2242     4040     5973     6373     5385     4036     3090 
    2812     3392     4850     6571     7673     7290     5208     2857 
    1921     2521     3788     4923     5933     7377     8858     8780 
    6211     2349     -621    -1425      132     3349     6628     8406 
    8077     6115     4031     3491     4530     5400     4945     3986 
    3751     4195     4409     3942     3111     2424     2265     2583 
    3041     3986     6031     8475     9707     8927     6651     3944 
    1580      257      530     1760     2606     2957     3974     5918 
    7495     7843     7030     5108     2972     2281     3481     5265 
    5911     4995     3566     2924     3789     5547     6502     6161 
    5560     5201     4953     4924     4911     4423     3640     3253 
    3388     3624     3758     3654     3161     2632     2616     3392 
    4872     6295     6678     5949     5035     4857     5351     5587 
    4995     4158     3996     4612     5054     4441     3572     3666 
    3947     3184     2353     2952     4423     5575     6242     6234 
    5302     4291     4120     4374     4626     5331     6010     5371 
    3754     2835     3524     5274     6571     6469     5562     4804 
    4348     3862     3134     2242     1683     2336     4324     6312 
    6867     5798     4179     3283     3473     4502     5894     6685 
    5945     4078     2820     3172     4492     5942     6797     6031 
    3794     1713      575      -86       59     2011     5192     7711 
    8451     7484     5726     4363     4014     4930     6582     7392 
    6519     4506     2546     2097     3515     5490     6589     6345 
