Origin Time       2024/04/02 04:24:00
Lat.              40.133
Long.             141.712
Depth. (km)       71
Mag.              6.0
Station Code      HKD078
Station Lat.      43.1488
Station Long.     144.4976
Station Height(m) 25
Record Time       2024/04/02 04:25:52
Sampling Freq(Hz) 100Hz
Duration Time(s)  96
Dir.              U-D
Scale Factor      7845(gal)/8223790
Max. Acc. (gal)   5.185
Last Correction   2024/04/02 04:25:52
Memo.             
[...]
    7473     7699     7765     7960     8145     8005     7557     7026 
    6583     6380     6458     6685     6887     6941     6970     7218 
    7535     7593     7520     7522     7518     7416     7114     6771 
    6805     7128     7356     7315     7044     6870     6984     7227 
    7497     7666     7541     7310     7260     7192     6917     6812 
    7155     7537     7512     7280     7172     7109     7017     7025 
    7128     7195     7195     7192     7150     7060     7179     7558 
    7807     7699     7377     7017     6651     6407     6559     6984 
    7256     7344     7388     7352     7306     7369     7446     7389 
    7186     6966     6777     6556     6470     6632     6885     7213 
    7580     7722     7646     7573     7512     7272     6779     6421 
    6546     6928     7271     7547     7692     7604     7356     7142 
    7065     6997     6860     6906     7198     7342     7211     7113 
    7101     6984     6864     6990     7244     7281     7099     7041 
    7263     7476     7447     7366     7327     7180     7015     7009 
    7160     7368     7439     7371     7312     7263     7134     6863 
    6674     6808     6963     6930     6909     6972     7128     7323 
    7415     7346     7155     6991     6906     6831     7003     7450 
    7678     7642     7608     7447     7094     6809     6735     6723 
    6619     6605     6759     6762     6706     7061     7704     8089 
    8010     7649     7339     7319     7466     7469     7144     6592 
    6139     5992     6242     6949     7750     8198     8243     7947 
    7542     7250     6963     6732     6717     6797     6876     6967 
    6984     6868     6764     7005     7555     7896     7781     7437 
    7182     7161     7180     7044     6928     6993     7087     7096 
    7180     7350     7425     7496     7678     7753     7560     7199 
    6936     6862     6790     6855     7156     7263     7095     6932 
    6820     6813     6860     6902     7107     7400     7591     7747 
    7873     7884     7755     7412     6926     6596     6554     6633 
    6712     6921     7352     7643     7430     7080     7142     7461 
    7558     7333     7153     7277     7460     7430     7183     6786 
    6419     6353     6681     7133     7288     7186     7164     7252 
    7339     7385     7333     7195     7026     6990     7258     7605 
    7642     7341     7099     7215     7426     7419     7252     6941 
    6532     6361     6569     6856     6968     7006     7192     7500 
    7753     7850     7647     7256     7084     7179     7287     7144 
    6750     6500     6497     6617     6862     6957     6872     7057 
    7553     7966     8087     8041     7920     7689     7403     7036 
    6621     6409     6525     6897     7258     7368     7277     7122 
    7075     7211     7254     7068     6910     6909     6936     7002 
    7210     7348     7172     6957     7017     7136     7095     7113 
    7319     7480     7462     7345     7209     7176     7165     7011 
    6926     7013     6990     6863     6866     7040     7256     7377 
    7533     7811     7846     7516     7284     7285     7176     6926 
    6759     6539     6189     6049     6319     6914     7636     8075 
    8035     7836     7712     7581     7414     7237     7042     6864 
    6669     6457     6465     6775     7248     7709     7830     7566 
    7360     7407     7550     7578     7329     6925     6683     6687 
    6706     6670     6754     6932     7114     7365     7638     7780 
    7730     7547     7384     7279     7150     7006     6926     6805 
    6473     6197     6393     6944     7395     7496     7365     7263 
    7304     7493     7732     7821     7682     7410     7144     6956 
    6902     7013     7107     6909     6528     6394     6667     7157 
    7485     7314     6899     6930     7439     7777     7711     7542 
    7408     7296     7257     7296     7249     6966     6681     6578 
    6512     6639     7114     7546     7657     7581     7435     7203 
    6988     7063     7508     7909     7886     7701     7566     7308 
    6994     6813     6783     6836     6885     6901     6863     6856 
    7007     7156     7121     7078     7273     7500     7523     7636 
    7908     7842     7271     6679     6573     6843     6978     6744 
    6393     6372     6779     7164     7246     7430     7897     8105 
    7867     7631     7499     7261     7034     6851     6435     6100 
    6440     6987     6970     6702     6708     6906     7260     7657 
    7659     7321     7128     7238     7423     7379     7206     7227 
    7311     7387     7584     7457     6848     6596     6986     7254 
    7044     6768     6825     7169     7504     7601     7408     7146 
    7149     7346     7414     7344     7292     7168     6988     7028 
    7244     7366     7186     6677     6293     6547     7257     7719 
    7553     7198     7203     7426     7433     7195     7014     7091 
    7335     7377     7028     6655     6643     6922     7342     7744 
    7736     7184     6577     6326     6382     6697     7245     7766 
    8002     7948     7732     7485     7281     7121     6991     6855 
    6693     6613     6613     6608     6737     7033     7230     7244 
    7238     7221     7125     7155     7527     7982     8071     7863 
    7763     7735     7446     6955     6602     6500     6500     6597 
    6901     7145     7025     6806     6907     7230     7420     7461 
    7419     7281     7365     7750     7867     7423     6806     6507 
    6617     6905     7219     7307     6939     6624     6956     7526 
    7680     7597     7650     7651     7385     6939     6438     6243 
    6679     7366     7763     7857     7798     7626     7342     6943 
    6447     6079     6253     6880     7277     7283     7354     7604 
    7770     7743     7631     7480     7090     6424     5957     6141 
    6917     7788     8284     8294     7850     7285     6953     6701 
    6566     6598     6413     6223     6516     7186     7932     8332 
    8120     7692     7488     7560     7570     7005     6150     5844 
    6170     6754     7350     7763     8025     8122     7920     7658 
    7503     7319     7164     7028     6718     6308     6083     6274 
    6895     7545     7762     7596     7506     7582     7404     7010 
    6797     6625     6474     6809     7495     7774     7447     7183 
    7356     7596     7736     7770     7566     7281     6947     6462 
    6049     5845     5900     6366     7126     7885     8419     8586 
    8310     7677     7083     6848     6783     6772     6901     6880 
    6635     6752     7399     7933     7807     7300     6971     6674 
    6307     6305     6602     6862     7078     7248     7464     7804 
    7993     7801     7335     6997     7061     7186     7030     6740 
    6438     6291     6604     7211     7584     7524     7453     7797 
    8124     7870     7353     6889     6461     6349     6594     6901 
    7167     7249     7117     7115     7464     7836     7740     7253 
    6832     6570     6350     6265     6453     6845     7372     7888 
    8039     7866     7658     7438     7283     7186     7061     7006 
    6875     6598     6513     6826     7312     7481     7234     7090 
    7260     7288     7063     7033     7304     7684     8035     7979 
    7396     6802     6685     7136     7608     7384     6750     6367 
    6331     6612     7267     8178     8752     8496     7933     7596 
    7167     6617     6457     6705     6856     6675     6525     6624 
    6759     7052     7500     7628     7508     7407     7213     7168 
    7488     7722     7420     6677     6145     6307     6779     6994 
    6875     6879     7449     8203     8491     8239     7623     6898 
    6485     6690     7213     7283     6782     6405     6513     6980 
    7569     7722     7221     6713     6658     6863     7102     7288 
    7443     7576     7491     7252     7233     7291     7114     6955 
    7047     7276     7307     6993     6897     7264     7524     7535 
    7573     7549     7273     7001     7026     7099     7065     7094 
    7092     6959     6739     6660     6972     7437     7755     7873 
    7750     7456     7132     7034     7322     7564     7226     6397 
    5800     6127     7011     7487     7402     7144     6949     7056 
    7527     8017     8198     8073     7684     6991     6204     5919 
    6223     6366     6277     6644     7314     7750     7906     7786 
    7503     7304     7184     7063     6966     6951     7078     7358 
    7703     7919     7798     7319     6679     6166     6022     6205 
    6574     7175     7759     7824     7518     7283     7187     7317 
    7605     7569     7095     6740     7076     7830     7923     7038 
    6102     5768     5981     6559     7160     7439     7452     7469 
    7572     7611     7589     7676     7677     7276     6787     6677 
    6793     6731     6396     6200     6698     7734     8409     8170 
    7545     7358     7635     7902     7873     7468     6917     6642 
    6747     6936     6868     6412     5940     6116     7024     7971 
    8232     7902     7541     7209     7017     7209     7534     7804 
    7916     7681     7198     6624     6312     6480     6633     6496 
    6400     6659     7253     7777     8012     8148     8162     7952 
    7636     7276     6878     6448     5953     5549     5744     6855 
    8190     8676     8299     7819     7692     7732     7512     7219 
    7055     6489     5624     5398     6023     6822     7360     7893 
    8451     8540     8314     8105     7506     6789     6696     6596 
    5927     5599     6242     7291     7884     7750     7473     7523 
    7693     7701     7290     6550     6216     6662     7335     7434 
    6871     6651     7252     7655     7333     7014     6984     6795 
    6394     6403     7115     7780     7932     8033     7911     7256 
    6817     6984     7308     7366     6975     6432     6286     6741 
    7541     8112     8097     7813     7734     7624     7078     6345 
    6006     6227     6544     6797     7258     7871     8507     8752 
    8166     7434     7248     7327     7245     6671     5711     5070 
    5232     6161     7406     8181     7951     7303     7503     8623 
    9300     8607     6994     5575     5136     5664     6508     6883 
    6755     6943     7709     8402     8584     8257     7587     6922 
    6434     6183     6566     7499     7874     7192     6544     6795 
    7276     7288     7067     6821     6612     6644     7053     7771 
    8322     8183     7468     6887     6920     7362     7862     7878 
    6980     5729     5054     5529     6864     7716     7481     7126 
    7465     8240     8704     8611     8183     7257     6207     6120 
    6629     6448     5790     5814     6701     7473     7777     8394 
    9050     8444     6786     5556     5443     6257     7531     8338 
    8124     7724     8009     8257     7496     6511     6338     6451 
    6434     6637     6797     6639     6755     7419     7992     8087 
    8010     8031     8132     8118     7657     6729     6053     6079 
    6127     6087     6720     7722     8264     8255     7950     7626 
    7327     7101     6856     6156     5540     5795     6303     6552 
    6937     7707     8580     8757     7923     6894     6381     6417 
    6714     6941     7398     8317     8657     7788     6786     6570 
    6766     6809     6947     7434     7889     8236     8438     7971 
    6783     5528     5220     6012     6544     6342     6376     7028 
    7977     8638     8452     7669     7153     7349     7852     8019 
    7565     6682     6073     6195     6548     6601     6608     6774 
    6920     7265     7915     8483     8926     9027     8183     6577 
    5030     4091     3987     4726     6176     8140     9890    10540 
   10359    10146     9657     8191     6200     4800     4081     3709 
    3917     4542     5289     6409     7975     9636    10682    10710 
   10131     9131     7566     5873     4648     4159     4666     5738 
    6397     7040     8398     9319     8850     8232     8298     7861 
    6656     6068     6143     5976     5746     6118     7001     7681 
    8114     8662     8742     7900     6739     5724     5179     5771 
    7411     9027     9637     8989     7504     5886     5138     5611 
    5944     5502     5336     5802     6903     8571     9983    10552 
   10116     9031     7928     6979     6569     6637     6164     5061 
    4116     3850     4731     6644     8773    10461    11415    11695 
   10974     8714     5687     3235     2011     2405     4055     5927 
    7650     9169    10201    10625    10350     9491     8334     6669 
    4712     3989     5262     7160     8067     7638     6619     6056 
    6378     7321     8122     8122     7798     7939     8376     8378 
    7404     5907     5313     6457     8226     8506     7263     6413 
    6261     6023     6030     6311     6168     5713     5703     6544 
    8233    10404    11834    11422     9853     8390     7076     5429 
    3804     3369     4344     5556     6507     7582     8606     8991 
    8583     7786     6976     6427     6523     6951     7099     7601 
    9005    10061     9567     8201     7148     6165     4572     3015 
    2515     3231     4698     6012     6848     7956     9586    11271 
   12549    12600    11183     9288     7569     5838     4164     3037 
    2570     2481     3041     5036     8101    10389    10739     9882 
    9259     9292     8827     6845     4253     3017     4117     6654 
    9061    10380     9999     8434     7433     7468     7287     5971 
    4359     4133     5285     6474     7353     8355     9670    10663 
   10065     7878     5863     5335     5857     6181     5898     6093 
    7497     9090     9675     8899     7230     5902     5571     5753 
    5877     6092     6770     7496     7773     7948     8355     8799 
    8866     8409     7807     7149     6285     5610     5387     5320 
    5313     5757     7009     8483     8888     7711     5792     4703 
    5348     7083     8567     8680     7465     6613     7279     8661 
    9566     9524     8854     8113     7200     6142     5751     5998 
    5935     5566     5421     5626     6227     7222     8537     9722 
   10037     9285     7950     6956     6544     5771     4642     4334 
    4927     5809     6890     7919     8475     8517     8361     8469 
    8482     7917     7599     7697     7141     6277     6647     8282 
    9382     8766     7013     5125     3915     3824     4464     5084 
    5530     6424     7952     9520    10696    11157    10848     9975 
    8363     6228     4267     2866     2442     3235     5238     8121 
   10276    10444     9769     9622     9495     8360     6498     5324 
    5536     6241     6586     6689     6647     6485     6507     6976 
    7929     8762     8827     8413     7715     6525     5377     5024 
    5557     6517     7337     7878     8248     8411     8262     8074 
    8132     7731     6700     6574     7573     7842     6845     5818 
    5800     7006     8590     9495     9414     8305     6403     4496 
    3350     3258     4310     6519     9103    10516     9953     8388 
    7298     6642     6019     6102     6670     6471     5653     5663 
    7165     9011     9849     9737     9148     8483     7989     7052 
    5529     4654     5186     6214     6416     5981     6114     6798 
    7391     8244     9288     9348     7912     5586     3640     3653 
    5907     8808    10512    10493     9408     8027     7105     6976 
    7071     7011     6747     6335     6168     6026     5643     5587 
    6376     8009     9398     9283     8279     7762     8016     8193 
    7473     6241     5190     4727     5412     6643     7033     6778 
    7026     8159     9296     8839     6860     5499     5972     7426 
    8532     8787     8383     7811     7535     7107     5818     4063 
    3034     4048     7136    10180    11144    10378     9721     9699 
    9202     7709     5864     4722     4684     4699     4112     3940 
    4963     6758     8468     9467     9767     9576     8997     8305 
    7681     7188     6789     6292     5653     4990     4777     5255 
    5652     5985     7458     9779    11376    11537    10304     7950 
    5228     3450     3667     5609     7755     8591     8147     7770 
    7959     7803     6625     5057     4070     3894     4564     6048 
    7580     8564     9683    11352    12249    11439     9749     7653 
    5231     3694     3820     4644     4931     4877     5548     7105 
    9065    10636    10737     9740     8842     8008     6671     5128 
    4622     5629     6802     7013     6528     6007     5948     6619 
    7758     8367     8143     8149     8567     8699     8434     7627 
    6515     5945     5960     5971     5834     5832     6093     6516 
    7272     8583     9922    10327     9377     7485     5805     5250 
    5451     6037     7030     7732     7877     7911     7785     7400 
    6694     5948     5838     5913     5556     5499     6218     7196 
    8083     8946     9738    10108     9667     8460     6956     5714 
    5283     5756     6574     7200     7275     6743     6392     6627 
    6574     6037     5927     6625     7813     8831     9352     9741 
    9617     8309     6721     6033     6192     6677     6825     6412 
    6243     6720     7341     7952     8351     7801     6458     5671 
    5989     6330     5946     5714     6455     7666     8745     9381 
    8943     7659     6702     6505     6828     7111     6720     6068 
    6060     6737     7553     8070     8163     7636     6365     5219 
    5340     6420     7117     6847     6512     7065     7913     8515 
    9224     9375     8320     7168     6960     7123     6724     6154 
    6087     6157     6104     5896     5481     5614     6808     8343 
    9435    10096    10631    10625     9583     8442     8037     7360 
    5698     4101     3545     3804     4518     5859     7487     8564 
    9012     9096     8730     7847     6926     6816     7207     7042 
    6577     6474     6825     7824     9062     9286     7923     6029 
    5232     5544     5710     5476     5335     5498     6234     7611 
    8981     9493     9148     8648     8070     7036     5968     5586 
    5644     5671     6060     6794     7210     7615     8464     9332 
    9764     9601     8892     7851     6825     6095     5595     5381 
    5664     6307     7030     7765     8348     8361     7604     6270 
    5012     4806     5880     7639     9192     9336     7712     5815 
    5505     6720     7778     7816     7258     6675     6632     7477 
    8417     8480     8183     8024     7488     6674     6114     5941 
    6162     6681     7204     7306     7302     7851     8337     7952 
    7079     6426     6305     6583     7064     7736     8464     8630 
    7688     6369     5886     6176     6408     6421     6793     7611 
    8212     8378     8225     7519     6351     5395     5224     6049 
    7592     9077     9834     9645     8750     7636     6697     6134 
    5679     5116     5177     6197     7099     7063     6685     6831 
