Origin Time       2024/04/02 04:24:00
Lat.              40.133
Long.             141.712
Depth. (km)       71
Mag.              6.0
Station Code      HKD056
Station Lat.      43.6705
Station Long.     143.5781
Station Height(m) 229
Record Time       2024/04/02 04:26:17
Sampling Freq(Hz) 100Hz
Duration Time(s)  60
Dir.              U-D
Scale Factor      7845(gal)/8223790
Max. Acc. (gal)   0.423
Last Correction   2024/04/02 04:26:18
Memo.             
   -6378    -6404    -6442    -6494    -6511    -6435    -6331    -6316 
   -6381    -6436    -6470    -6501    -6494    -6440    -6394    -6389 
   -6366    -6292    -6272    -6376    -6462    -6411    -6358    -6432 
   -6508    -6446    -6346    -6339    -6365    -6350    -6347    -6401 
   -6467    -6490    -6465    -6454    -6492    -6507    -6447    -6408 
   -6423    -6378    -6292    -6305    -6382    -6397    -6393    -6455 
   -6508    -6470    -6426    -6446    -6462    -6416    -6350    -6311 
   -6285    -6281    -6350    -6474    -6558    -6540    -6477    -6458 
   -6439    -6330    -6239    -6300    -6393    -6388    -6389    -6451 
   -6440    -6385    -6444    -6543    -6527    -6442    -6401    -6408 
   -6397    -6324    -6242    -6249    -6324    -6358    -6362    -6426 
   -6511    -6512    -6463    -6470    -6497    -6446    -6372    -6362 
   -6384    -6399    -6439    -6485    -6482    -6454    -6462    -6480 
   -6421    -6304    -6242    -6304    -6426    -6475    -6408    -6334 
   -6355    -6423    -6448    -6419    -6376    -6365    -6396    -6431 
   -6430    -6401    -6373    -6353    -6361    -6409    -6442    -6411 
   -6378    -6413    -6470    -6481    -6463    -6430    -6392    -6413 
   -6482    -6477    -6389    -6358    -6426    -6467    -6409    -6309 
   -6234    -6228    -6338    -6496    -6534    -6431    -6358    -6409 
   -6475    -6448    -6349    -6272    -6284    -6386    -6494    -6500 
   -6431    -6432    -6507    -6523    -6466    -6413    -6381    -6376 
   -6405    -6411    -6334    -6268    -6311    -6382    -6373    -6335 
   -6342    -6392    -6478    -6540    -6507    -6436    -6424    -6448 
   -6451    -6432    -6420    -6421    -6436    -6446    -6428    -6407 
   -6409    -6409    -6393    -6415    -6459    -6444    -6396    -6388 
   -6386    -6369    -6385    -6416    -6392    -6377    -6451    -6513 
   -6484    -6442    -6419    -6366    -6349    -6431    -6454    -6304 
   -6174    -6249    -6397    -6426    -6372    -6376    -6470    -6562 
   -6562    -6513    -6498    -6478    -6386    -6289    -6254    -6241 
   -6246    -6311    -6366    -6359    -6390    -6513    -6598    -6534 
   -6416    -6423    -6550    -6588    -6466    -6384    -6427    -6443 
   -6390    -6370    -6381    -6378    -6397    -6427    -6408    -6389 
   -6430    -6465    -6428    -6382    -6417    -6508    -6542    -6454 
   -6330    -6300    -6362    -6413    -6404    -6370    -6380    -6438 
   -6458    -6404    -6359    -6388    -6439    -6444    -6394    -6346 
   -6340    -6345    -6331    -6311    -6309    -6358    -6426    -6436 
   -6412    -6438    -6473    -6443    -6400    -6411    -6447    -6471 
   -6446    -6366    -6320    -6355    -6400    -6388    -6338    -6318 
   -6353    -6390    -6381    -6365    -6399    -6446    -6430    -6366 
   -6347    -6380    -6365    -6313    -6330    -6420    -6482    -6484 
   -6481    -6494    -6485    -6444    -6404    -6412    -6453    -6438 
   -6378    -6377    -6451    -6505    -6507    -6498    -6471    -6424 
   -6416    -6411    -6345    -6295    -6313    -6336    -6358    -6412 
   -6453    -6448    -6438    -6426    -6399    -6384    -6412    -6443 
   -6427    -6411    -6423    -6408    -6367    -6377    -6442    -6496 
   -6498    -6450    -6376    -6328    -6324    -6320    -6300    -6296 
   -6335    -6388    -6400    -6361    -6313    -6315    -6373    -6434 
   -6447    -6448    -6484    -6507    -6508    -6528    -6529    -6516 
   -6562    -6598    -6507    -6358    -6286    -6299    -6347    -6390 
   -6381    -6328    -6313    -6392    -6494    -6500    -6409    -6335 
   -6342    -6376    -6388    -6396    -6392    -6370    -6377    -6397 
   -6389    -6394    -6448    -6511    -6538    -6523    -6485    -6459 
   -6447    -6436    -6417    -6392    -6389    -6438    -6498    -6508 
   -6481    -6470    -6462    -6451    -6458    -6420    -6299    -6270 
   -6417    -6507    -6417    -6338    -6382    -6420    -6372    -6336 
   -6336    -6320    -6324    -6367    -6370    -6351    -6397    -6431 
   -6367    -6339    -6439    -6504    -6421    -6312    -6312    -6376 
   -6407    -6389    -6377    -6392    -6399    -6367    -6330    -6332 
   -6373    -6397    -6416    -6482    -6525    -6454    -6359    -6361 
   -6384    -6316    -6226    -6250    -6381    -6497    -6502    -6440 
   -6438    -6516    -6569    -6536    -6488    -6473    -6442    -6376 
   -6351    -6388    -6405    -6367    -6354    -6407    -6440    -6407 
   -6367    -6388    -6430    -6417    -6351    -6309    -6340    -6404 
   -6424    -6407    -6415    -6475    -6525    -6470    -6351    -6339 
   -6444    -6466    -6345    -6269    -6359    -6486    -6481    -6372 
   -6326    -6392    -6428    -6367    -6313    -6327    -6361    -6376 
   -6376    -6359    -6347    -6363    -6372    -6354    -6347    -6357 
   -6378    -6423    -6457    -6462    -6474    -6508    -6523    -6488 
   -6442    -6447    -6478    -6475    -6439    -6432    -6469    -6477 
   -6434    -6388    -6377    -6411    -6459    -6458    -6399    -6389 
   -6469    -6492    -6411    -6351    -6357    -6345    -6300    -6301 
   -6372    -6439    -6435    -6381    -6362    -6397    -6427    -6432 
   -6428    -6439    -6482    -6492    -6427    -6388    -6439    -6457 
   -6384    -6343    -6390    -6450    -6462    -6423    -6366    -6342 
   -6359    -6367    -6318    -6278    -6338    -6446    -6489    -6448 
   -6384    -6353    -6358    -6369    -6374    -6388    -6399    -6392 
   -6404    -6451    -6469    -6427    -6363    -6315    -6297    -6330 
   -6397    -6421    -6365    -6300    -6324    -6409    -6442    -6397 
   -6366    -6434    -6578    -6648    -6543    -6415    -6431    -6507 
   -6496    -6446    -6440    -6450    -6436    -6413    -6382    -6355 
   -6372    -6412    -6416    -6399    -6435    -6474    -6416    -6345 
   -6400    -6484    -6451    -6385    -6423    -6513    -6525    -6450 
   -6377    -6349    -6362    -6386    -6367    -6319    -6297    -6304 
   -6346    -6415    -6428    -6374    -6366    -6435    -6482    -6457 
   -6389    -6345    -6373    -6446    -6478    -6431    -6378    -6388 
   -6396    -6330    -6270    -6320    -6412    -6426    -6373    -6363 
   -6430    -6473    -6435    -6407    -6444    -6478    -6453    -6399 
   -6388    -6453    -6524    -6509    -6469    -6467    -6416    -6318 
   -6323    -6407    -6427    -6388    -6350    -6327    -6358    -6428 
   -6412    -6338    -6382    -6493    -6478    -6369    -6323    -6358 
   -6399    -6385    -6340    -6381    -6527    -6589    -6485    -6396 
   -6444    -6515    -6461    -6335    -6297    -6362    -6424    -6420 
   -6381    -6397    -6455    -6446    -6374    -6365    -6417    -6435 
   -6428    -6435    -6416    -6380    -6401    -6462    -6473    -6440 
   -6423    -6420    -6428    -6453    -6443    -6382    -6374    -6424 
   -6394    -6311    -6305    -6327    -6307    -6343    -6462    -6489 
   -6412    -6427    -6519    -6493    -6365    -6291    -6320    -6420 
   -6482    -6400    -6295    -6343    -6432    -6386    -6284    -6268 
   -6334    -6396    -6400    -6374    -6380    -6431    -6470    -6436 
   -6378    -6380    -6408    -6394    -6374    -6400    -6451    -6493 
   -6494    -6428    -6363    -6403    -6462    -6435    -6415    -6471 
   -6475    -6377    -6331    -6393    -6431    -6404    -6409    -6458 
   -6489    -6481    -6465    -6455    -6457    -6470    -6459    -6389 
   -6331    -6347    -6386    -6411    -6438    -6450    -6419    -6385 
   -6397    -6393    -6323    -6269    -6311    -6372    -6367    -6354 
   -6388    -6427    -6446    -6458    -6443    -6404    -6399    -6463 
   -6538    -6525    -6469    -6482    -6490    -6365    -6218    -6224 
   -6346    -6438    -6440    -6388    -6343    -6359    -6412    -6405 
   -6320    -6291    -6400    -6516    -6485    -6378    -6361    -6432 
   -6459    -6393    -6319    -6309    -6369    -6458    -6492    -6461 
   -6463    -6486    -6442    -6412    -6471    -6516    -6492    -6459 
   -6427    -6392    -6381    -6382    -6361    -6358    -6420    -6473 
   -6453    -6416    -6417    -6453    -6524    -6558    -6471    -6351 
   -6327    -6362    -6362    -6323    -6288    -6296    -6377    -6451 
   -6400    -6303    -6330    -6428    -6444    -6405    -6405    -6426 
   -6438    -6447    -6420    -6346    -6308    -6336    -6365    -6382 
   -6401    -6382    -6355    -6393    -6448    -6442    -6413    -6415 
   -6435    -6459    -6465    -6436    -6426    -6454    -6471    -6459 
   -6453    -6448    -6423    -6407    -6434    -6471    -6459    -6408 
   -6396    -6420    -6424    -6405    -6385    -6361    -6347    -6345 
   -6328    -6338    -6396    -6407    -6328    -6288    -6343    -6394 
   -6404    -6440    -6478    -6439    -6396    -6432    -6473    -6462 
   -6454    -6486    -6543    -6573    -6502    -6370    -6338    -6413 
   -6415    -6308    -6265    -6362    -6465    -6447    -6384    -6382 
   -6420    -6435    -6393    -6327    -6318    -6362    -6403    -6415 
   -6413    -6426    -6436    -6409    -6377    -6400    -6431    -6370 
   -6272    -6281    -6385    -6424    -6354    -6301    -6339    -6413 
   -6448    -6428    -6434    -6512    -6561    -6509    -6442    -6419 
   -6394    -6354    -6345    -6357    -6350    -6336    -6340    -6381 
   -6466    -6521    -6484    -6450    -6532    -6640    -6621    -6500 
   -6407    -6404    -6444    -6444    -6374    -6326    -6385    -6466 
   -6440    -6373    -6362    -6385    -6411    -6447    -6453    -6377 
   -6295    -6307    -6369    -6373    -6342    -6340    -6355    -6373 
   -6381    -6355    -6326    -6358    -6431    -6458    -6426    -6408 
   -6434    -6444    -6396    -6316    -6289    -6349    -6416    -6392 
   -6300    -6288    -6397    -6462    -6384    -6338    -6465    -6589 
   -6516    -6377    -6388    -6496    -6527    -6440    -6332    -6309 
   -6378    -6440    -6434    -6417    -6451    -6486    -6474    -6450 
   -6444    -6442    -6428    -6408    -6385    -6357    -6328    -6301 
   -6297    -6343    -6420    -6461    -6438    -6419    -6469    -6513 
   -6462    -6377    -6372    -6413    -6407    -6366    -6376    -6435 
   -6451    -6412    -6404    -6448    -6470    -6426    -6365    -6354 
   -6399    -6454    -6457    -6394    -6347    -6355    -6366    -6357 
   -6358    -6367    -6393    -6416    -6353    -6262    -6313    -6448 
   -6467    -6415    -6451    -6497    -6415    -6330    -6365    -6397 
   -6359    -6367    -6458    -6532    -6532    -6493    -6451    -6427 
   -6446    -6478    -6458    -6384    -6349    -6393    -6426    -6394 
   -6380    -6434    -6478    -6453    -6420    -6420    -6409    -6377 
   -6357    -6377    -6419    -6439    -6420    -6393    -6374    -6350 
   -6340    -6377    -6420    -6401    -6359    -6386    -6446    -6419 
   -6301    -6223    -6295    -6451    -6512    -6444    -6400    -6434 
   -6454    -6420    -6400    -6411    -6435    -6498    -6566    -6519 
   -6389    -6351    -6415    -6428    -6384    -6373    -6374    -6322 
   -6274    -6295    -6336    -6350    -6367    -6423    -6480    -6497 
   -6478    -6448    -6427    -6432    -6455    -6470    -6461    -6423 
   -6393    -6399    -6417    -6415    -6359    -6295    -6299    -6338 
   -6335    -6353    -6447    -6502    -6457    -6415    -6442    -6504 
   -6546    -6535    -6481    -6442    -6459    -6500    -6492    -6430 
   -6390    -6407    -6417    -6377    -6340    -6373    -6421    -6400 
   -6373    -6417    -6459    -6458    -6493    -6556    -6562    -6489 
   -6420    -6404    -6411    -6396    -6366    -6376    -6397    -6350 
   -6259    -6231    -6259    -6280    -6291    -6315    -6335    -6350 
   -6384    -6427    -6451    -6474    -6524    -6567    -6579    -6569 
   -6540    -6500    -6477    -6461    -6408    -6346    -6322    -6286 
   -6214    -6173    -6193    -6228    -6250    -6243    -6232    -6324 
   -6507    -6612    -6606    -6623    -6669    -6655    -6589    -6504 
   -6411    -6354    -6318    -6238    -6195    -6291    -6436    -6474 
   -6384    -6269    -6254    -6349    -6412    -6382    -6381    -6475 
   -6551    -6523    -6466    -6481    -6562    -6615    -6546    -6401 
   -6322    -6312    -6247    -6139    -6137    -6247    -6336    -6359 
   -6397    -6490    -6542    -6502    -6451    -6421    -6423    -6496 
   -6585    -6578    -6484    -6403    -6393    -6407    -6381    -6330 
   -6320    -6403    -6480    -6388    -6204    -6153    -6247    -6315 
   -6323    -6374    -6474    -6531    -6524    -6498    -6484    -6502 
   -6548    -6574    -6559    -6524    -6469    -6392    -6332    -6335 
   -6367    -6345    -6255    -6223    -6316    -6417    -6417    -6373 
   -6374    -6415    -6457    -6489    -6505    -6502    -6500    -6484 
   -6439    -6416    -6430    -6382    -6264    -6212    -6268    -6305 
   -6269    -6261    -6339    -6424    -6463    -6480    -6473    -6438 
   -6397    -6384    -6404    -6448    -6521    -6633    -6747    -6786 
   -6732    -6640    -6556    -6470    -6384    -6327    -6295    -6231 
   -6106    -5985    -5964    -6054    -6212    -6367    -6432    -6443 
   -6538    -6659    -6643    -6540    -6502    -6502    -6459    -6409 
   -6394    -6390    -6396    -6394    -6349    -6313    -6345    -6370 
   -6339    -6322    -6340    -6350    -6373    -6438    -6474    -6453 
   -6448    -6489    -6497    -6446    -6401    -6388    -6365    -6335 
   -6335    -6347    -6330    -6276    -6235    -6254    -6297    -6311 
   -6342    -6423    -6493    -6508    -6523    -6589    -6674    -6718 
   -6728    -6740    -6739    -6670    -6519    -6353    -6228    -6131 
   -6042    -6007    -6080    -6223    -6358    -6426    -6420    -6396 
   -6404    -6419    -6416    -6436    -6502    -6561    -6540    -6469 
   -6408    -6358    -6308    -6265    -6193    -6135    -6232    -6427 
   -6490    -6442    -6376    -6257    -6200    -6291    -6435    -6569 
   -6627    -6579    -6439    -6336    -6354    -6311    -6203    -6222 
   -6340    -6453    -6489    -6461    -6455    -6485    -6469    -6374 
   -6281    -6257    -6284    -6384    -6552    -6650    -6602    -6556 
   -6606    -6652    -6628    -6605    -6654    -6712    -6674    -6559 
   -6432    -6305    -6192    -6153    -6230    -6343    -6351    -6286 
   -6296    -6390    -6469    -6486    -6505    -6555    -6567    -6492 
   -6377    -6319    -6358    -6440    -6497    -6535    -6558    -6512 
   -6424    -6409    -6475    -6474    -6340    -6246    -6335    -6457 
   -6444    -6372    -6318    -6266    -6273    -6367    -6427    -6397 
   -6397    -6470    -6485    -6374    -6250    -6224    -6284    -6350 
   -6374    -6376    -6394    -6412    -6407    -6399    -6382    -6354 
   -6323    -6303    -6330    -6421    -6496    -6480    -6446    -6467 
   -6490    -6497    -6523    -6508    -6428    -6411    -6490    -6507 
   -6404    -6309    -6284    -6308    -6343    -6320    -6286    -6380 
   -6525    -6550    -6478    -6427    -6378    -6289    -6199    -6183 
   -6295    -6486    -6596    -6573    -6551    -6586    -6609    -6578 
   -6496    -6417    -6444    -6519    -6459    -6312    -6274    -6322 
   -6327    -6315    -6322    -6299    -6308    -6399    -6434    -6363 
   -6307    -6322    -6386    -6484    -6561    -6532    -6450    -6428 
   -6462    -6469    -6404    -6318    -6250    -6189    -6154    -6176 
   -6242    -6286    -6313    -6384    -6457    -6427    -6331    -6305 
   -6376    -6461    -6486    -6440    -6390    -6444    -6588    -6678 
   -6651    -6586    -6536    -6477    -6382    -6272    -6228    -6299 
   -6401    -6458    -6459    -6388    -6266    -6180    -6219    -6377 
   -6492    -6477    -6455    -6502    -6548    -6555    -6532    -6524 
   -6573    -6602    -6523    -6400    -6345    -6355    -6354    -6308 
   -6265    -6280    -6349    -6397    -6353    -6286    -6331    -6412 
   -6407    -6376    -6366    -6323    -6284    -6334    -6432    -6505 
   -6562    -6592    -6571    -6567    -6613    -6592    -6455    -6335 
   -6295    -6273    -6246    -6222    -6189    -6188    -6257    -6350 
   -6411    -6453    -6480    -6465    -6413    -6381    -6419    -6498 
   -6548    -6563    -6555    -6475    -6354    -6315    -6327    -6289 
   -6235    -6231    -6265    -6332    -6453    -6590    -6663    -6651 
   -6621    -6637    -6651    -6556    -6365    -6228    -6255    -6374 
   -6462    -6466    -6432    -6443    -6494    -6482    -6385    -6335 
   -6407    -6509    -6521    -6446    -6378    -6369    -6367    -6316 
   -6257    -6312    -6505    -6633    -6521    -6308    -6234    -6305 
   -6384    -6419    -6419    -6393    -6392    -6417    -6404    -6338 
   -6261    -6230    -6308    -6469    -6552    -6511    -6481    -6509 
   -6484    -6426    -6450    -6482    -6400    -6296    -6296    -6347 
   -6328    -6257    -6259    -6367    -6461    -6469    -6439    -6411 
   -6392    -6444    -6548    -6534    -6328    -6126    -6091    -6172 
   -6257    -6307    -6340    -6428    -6577    -6660    -6623    -6577 
   -6565    -6493    -6361    -6280    -6288    -6334    -6384    -6419 
   -6413    -6393    -6397    -6388    -6327    -6273    -6286    -6340 
   -6373    -6389    -6446    -6505    -6490    -6436    -6431    -6461 
   -6424    -6303    -6218    -6249    -6354    -6455    -6512    -6551 
   -6615    -6670    -6650    -6585    -6550    -6521    -6435    -6339 
   -6332    -6363    -6313    -6243    -6253    -6300    -6322    -6359 
   -6435    -6477    -6470    -6470    -6459    -6416    -6416    -6473 
   -6486    -6424    -6347    -6303    -6289    -6289    -6284    -6266 
   -6265    -6339    -6466    -6529    -6484    -6405    -6401    -6471 
   -6516    -6473    -6412    -6392    -6378    -6338    -6304    -6320 
   -6385    -6440    -6439    -6423    -6455    -6496    -6463    -6401 
   -6390    -6412    -6426    -6446    -6462    -6439    -6417    -6462 
   -6536    -6577    -6608    -6639    -6602    -6509    -6459    -6442 
   -6415    -6399    -6369    -6304    -6276    -6277    -6214    -6124 
   -6131    -6199    -6226    -6245    -6331    -6465    -6563    -6570 
   -6494    -6415    -6393    -6407    -6404    -6409    -6457    -6484 
   -6415    -6318    -6320    -6392    -6386    -6324    -6342    -6400 
   -6392    -6366    -6385    -6393    -6355    -6300    -6249    -6235 
   -6303    -6400    -6440    -6458    -6527    -6617    -6662    -6648 
   -6596    -6542    -6532    -6535    -6489    -6430    -6419    -6408 
   -6342    -6304    -6358    -6401    -6355    -6293    -6284    -6303 
   -6331    -6376    -6421    -6475    -6539    -6571    -6567    -6570 
   -6571    -6532    -6478    -6459    -6455    -6431    -6405    -6385 
   -6342    -6301    -6305    -6316    -6304    -6322    -6374    -6393 
   -6370    -6354    -6347    -6309    -6243    -6201    -6228    -6296 
   -6346    -6372    -6431    -6542    -6609    -6594    -6567    -6554 
   -6539    -6523    -6475    -6385    -6307    -6246    -6187    -6169 
   -6200    -6211    -6193    -6207    -6274    -6367    -6461    -6538 
   -6598    -6647    -6662    -6636    -6602    -6566    -6493    -6431 
   -6447    -6489    -6481    -6454    -6444    -6388    -6278    -6205 
   -6216    -6274    -6349    -6448    -6547    -6573    -6543    -6539 
