Origin Time       2024/04/02 04:24:00
Lat.              40.133
Long.             141.712
Depth. (km)       71
Mag.              6.0
Station Code      HKD097
Station Lat.      42.6181
Station Long.     143.4210
Station Height(m) 33
Record Time       2024/04/02 04:25:53
Sampling Freq(Hz) 100Hz
Duration Time(s)  76
Dir.              U-D
Scale Factor      7845(gal)/8223790
Max. Acc. (gal)   1.059
Last Correction   2024/04/02 04:25:37
Memo.             
[...]
   -3339    -3488    -3585    -3564    -3742    -3835    -3659    -3555 
   -3519    -3314    -3157    -3241    -3339    -3435    -3596    -3618 
   -3505    -3429    -3387    -3376    -3354    -3361    -3483    -3555 
   -3505    -3499    -3558    -3631    -3649    -3519    -3346    -3338 
   -3446    -3468    -3399    -3385    -3454    -3473    -3370    -3283 
   -3366    -3510    -3522    -3489    -3484    -3461    -3480    -3426 
   -3260    -3280    -3403    -3422    -3527    -3662    -3604    -3457 
   -3381    -3450    -3565    -3524    -3464    -3518    -3553    -3551 
   -3507    -3435    -3485    -3497    -3366    -3411    -3577    -3547 
   -3446    -3445    -3487    -3518    -3518    -3500    -3430    -3333 
   -3399    -3628    -3703    -3535    -3466    -3565    -3541    -3420 
   -3445    -3608    -3727    -3669    -3547    -3569    -3635    -3543 
   -3407    -3381    -3427    -3527    -3585    -3418    -3204    -3285 
   -3449    -3376    -3284    -3326    -3406    -3523    -3522    -3380 
   -3399    -3526    -3535    -3461    -3377    -3338    -3379    -3456 
   -3491    -3430    -3445    -3612    -3599    -3377    -3366    -3545 
   -3561    -3473    -3532    -3711    -3815    -3754    -3615    -3558 
   -3549    -3481    -3461    -3505    -3503    -3499    -3460    -3312 
   -3241    -3335    -3437    -3423    -3329    -3315    -3462    -3542 
   -3443    -3468    -3677    -3763    -3740    -3728    -3605    -3474 
   -3510    -3580    -3677    -3836    -3802    -3588    -3495    -3450 
   -3352    -3377    -3433    -3341    -3338    -3469    -3441    -3346 
   -3376    -3365    -3346    -3483    -3564    -3519    -3559    -3640 
   -3577    -3415    -3377    -3487    -3499    -3419    -3466    -3566 
   -3582    -3554    -3470    -3383    -3414    -3469    -3470    -3539 
   -3570    -3483    -3523    -3611    -3468    -3271    -3241    -3322 
   -3456    -3474    -3335    -3395    -3613    -3508    -3258    -3311 
   -3404    -3288    -3265    -3404    -3532    -3727    -3874    -3699 
   -3487    -3586    -3651    -3462    -3437    -3572    -3453    -3323 
   -3435    -3391    -3161    -3188    -3419    -3507    -3480    -3505 
   -3497    -3456    -3491    -3447    -3389    -3592    -3755    -3613 
   -3514    -3538    -3430    -3296    -3307    -3352    -3460    -3686 
   -3735    -3549    -3445    -3437    -3423    -3426    -3356    -3310 
   -3407    -3372    -3187    -3234    -3437    -3504    -3559    -3615 
   -3580    -3651    -3712    -3518    -3357    -3352    -3299    -3295 
   -3369    -3333    -3295    -3406    -3515    -3545    -3581    -3601 
   -3566    -3577    -3628    -3588    -3484    -3412    -3397    -3426 
   -3427    -3418    -3427    -3316    -3215    -3437    -3666    -3518 
   -3389    -3547    -3593    -3402    -3295    -3333    -3376    -3465 
   -3541    -3527    -3549    -3534    -3406    -3387    -3492    -3538 
   -3580    -3647    -3600    -3495    -3446    -3391    -3349    -3365 
   -3350    -3391    -3539    -3519    -3353    -3419    -3628    -3639 
   -3557    -3578    -3612    -3555    -3442    -3420    -3580    -3674 
   -3565    -3500    -3528    -3503    -3450    -3420    -3441    -3508 
   -3547    -3596    -3627    -3526    -3419    -3419    -3433    -3476 
   -3557    -3543    -3437    -3384    -3429    -3480    -3476    -3458 
   -3492    -3565    -3636    -3654    -3589    -3595    -3688    -3630 
   -3493    -3511    -3589    -3545    -3303    -3087    -3234    -3438 
   -3370    -3429    -3649    -3603    -3511    -3551    -3372    -3179 
   -3388    -3643    -3581    -3470    -3561    -3639    -3554    -3538 
   -3632    -3632    -3601    -3566    -3434    -3414    -3551    -3557 
   -3457    -3410    -3388    -3406    -3372    -3252    -3342    -3572 
   -3489    -3315    -3454    -3597    -3539    -3507    -3468    -3372 
   -3416    -3568    -3605    -3545    -3545    -3586    -3559    -3430 
   -3298    -3376    -3541    -3514    -3538    -3704    -3638    -3476 
   -3488    -3402    -3299    -3464    -3547    -3406    -3373    -3410 
   -3416    -3488    -3484    -3418    -3520    -3639    -3620    -3616 
   -3569    -3430    -3434    -3537    -3505    -3478    -3569    -3557 
   -3470    -3487    -3469    -3434    -3561    -3613    -3503    -3542 
   -3676    -3632    -3500    -3470    -3520    -3539    -3491    -3415 
   -3403    -3466    -3441    -3318    -3277    -3318    -3362    -3360 
   -3233    -3142    -3253    -3400    -3402    -3311    -3316    -3484 
   -3565    -3449    -3445    -3618    -3670    -3613    -3638    -3651 
   -3580    -3562    -3580    -3522    -3461    -3429    -3438    -3551 
   -3592    -3485    -3429    -3395    -3316    -3341    -3438    -3480 
   -3505    -3528    -3546    -3566    -3508    -3429    -3453    -3454 
   -3385    -3356    -3343    -3356    -3415    -3399    -3339    -3338 
   -3345    -3392    -3541    -3651    -3700    -3805    -3828    -3630 
   -3519    -3613    -3559    -3412    -3450    -3491    -3408    -3357 
   -3393    -3500    -3550    -3480    -3420    -3318    -3195    -3248 
   -3312    -3253    -3321    -3519    -3591    -3553    -3557    -3591 
   -3628    -3646    -3565    -3485    -3514    -3510    -3445    -3458 
   -3495    -3496    -3501    -3434    -3360    -3493    -3697    -3717 
   -3628    -3561    -3555    -3550    -3439    -3379    -3460    -3460 
   -3397    -3414    -3372    -3323    -3389    -3391    -3369    -3512 
   -3618    -3487    -3331    -3357    -3400    -3388    -3504    -3645 
   -3609    -3557    -3549    -3439    -3376    -3516    -3549    -3375 
   -3322    -3376    -3352    -3365    -3485    -3593    -3591    -3528 
   -3551    -3618    -3604    -3624    -3744    -3688    -3419    -3353 
   -3518    -3527    -3433    -3474    -3532    -3462    -3368    -3303 
   -3272    -3306    -3345    -3384    -3535    -3688    -3613    -3477 
   -3543    -3607    -3522    -3516    -3510    -3435    -3561    -3707 
   -3603    -3500    -3514    -3505    -3470    -3433    -3379    -3362 
   -3458    -3539    -3493    -3488    -3511    -3441    -3468    -3535 
   -3400    -3334    -3468    -3414    -3260    -3375    -3528    -3510 
   -3499    -3493    -3389    -3310    -3353    -3422    -3449    -3457 
   -3420    -3403    -3519    -3595    -3449    -3284    -3389    -3623 
   -3628    -3472    -3485    -3538    -3341    -3191    -3315    -3384 
   -3389    -3515    -3568    -3657    -3879    -3734    -3387    -3458 
   -3541    -3391    -3546    -3750    -3558    -3446    -3705    -3937 
   -3855    -3674    -3630    -3591    -3470    -3397    -3424    -3484 
   -3477    -3422    -3403    -3358    -3303    -3338    -3404    -3427 
   -3369    -3277    -3264    -3256    -3265    -3397    -3531    -3551 
   -3505    -3456    -3465    -3496    -3541    -3657    -3689    -3603 
   -3631    -3674    -3522    -3377    -3379    -3353    -3272    -3303 
   -3369    -3307    -3280    -3348    -3249    -3079    -3156    -3369 
   -3541    -3717    -3792    -3661    -3561    -3645    -3639    -3470 
   -3492    -3623    -3483    -3306    -3426    -3555    -3518    -3538 
   -3527    -3437    -3554    -3697    -3607    -3534    -3485    -3389 
   -3446    -3522    -3522    -3665    -3712    -3441    -3316    -3499 
   -3555    -3430    -3429    -3554    -3578    -3442    -3303    -3223 
   -3257    -3524    -3746    -3638    -3508    -3551    -3559    -3578 
   -3696    -3662    -3476    -3457    -3543    -3535    -3566    -3596 
   -3458    -3358    -3404    -3418    -3438    -3541    -3511    -3330 
   -3348    -3546    -3500    -3294    -3349    -3449    -3299    -3308 
   -3589    -3707    -3685    -3676    -3558    -3446    -3338    -3156 
   -3230    -3508    -3595    -3608    -3681    -3640    -3505    -3438 
   -3423    -3365    -3346    -3414    -3397    -3275    -3260    -3369 
   -3352    -3253    -3391    -3538    -3450    -3485    -3519    -3253 
   -3176    -3504    -3731    -3630    -3487    -3545    -3589    -3373 
   -3204    -3376    -3588    -3555    -3451    -3507    -3618    -3562 
   -3431    -3457    -3550    -3565    -3608    -3611    -3470    -3434 
   -3466    -3400    -3449    -3526    -3514    -3659    -3811    -3744 
   -3686    -3661    -3547    -3472    -3449    -3403    -3451    -3520 
   -3400    -3345    -3466    -3402    -3277    -3392    -3511    -3493 
   -3485    -3518    -3496    -3364    -3264    -3350    -3557    -3744 
   -3717    -3464    -3307    -3288    -3164    -3084    -3265    -3489 
   -3550    -3561    -3613    -3585    -3439    -3400    -3496    -3523 
   -3520    -3512    -3472    -3558    -3619    -3450    -3422    -3620 
   -3551    -3353    -3500    -3632    -3420    -3256    -3322    -3435 
   -3488    -3500    -3601    -3728    -3707    -3580    -3408    -3419 
   -3748    -3812    -3511    -3555    -3763    -3608    -3450    -3499 
   -3538    -3550    -3564    -3632    -3690    -3499    -3287    -3304 
   -3291    -3298    -3512    -3599    -3442    -3388    -3568    -3730 
   -3578    -3230    -3159    -3415    -3511    -3343    -3240    -3268 
   -3385    -3514    -3435    -3191    -3068    -3141    -3273    -3407 
   -3591    -3754    -3740    -3647    -3577    -3430    -3380    -3576 
   -3721    -3677    -3676    -3721    -3566    -3358    -3357    -3375 
   -3388    -3561    -3636    -3523    -3530    -3624    -3520    -3319 
   -3395    -3630    -3542    -3271    -3383    -3738    -3778    -3597 
   -3580    -3728    -3831    -3682    -3559    -3667    -3481    -3217 
   -3406    -3477    -3368    -3618    -3802    -3514    -3276    -3393 
   -3485    -3451    -3472    -3461    -3514    -3630    -3477    -3271 
   -3302    -3265    -3154    -3260    -3327    -3241    -3400    -3611 
   -3478    -3397    -3557    -3555    -3465    -3537    -3501    -3314 
   -3362    -3476    -3275    -3121    -3373    -3680    -3684    -3516 
   -3485    -3554    -3451    -3348    -3566    -3809    -3678    -3422 
   -3419    -3553    -3596    -3577    -3501    -3419    -3538    -3647 
   -3427    -3207    -3196    -3136    -3226    -3650    -3809    -3542 
   -3512    -3701    -3559    -3285    -3240    -3214    -3129    -3227 
   -3389    -3411    -3489    -3588    -3480    -3422    -3484    -3373 
   -3300    -3451    -3515    -3511    -3638    -3650    -3453    -3449 
   -3649    -3596    -3404    -3445    -3503    -3426    -3469    -3657 
   -3731    -3651    -3581    -3496    -3377    -3419    -3504    -3442 
   -3465    -3512    -3260    -3057    -3229    -3342    -3230    -3285 
   -3557    -3680    -3595    -3595    -3645    -3505    -3373    -3449 
   -3558    -3557    -3526    -3535    -3495    -3411    -3410    -3424 
   -3454    -3555    -3477    -3314    -3537    -3804    -3527    -3199 
   -3396    -3661    -3600    -3545    -3603    -3632    -3681    -3705 
   -3650    -3522    -3391    -3372    -3361    -3366    -3454    -3464 
   -3519    -3595    -3419    -3396    -3699    -3755    -3507    -3306 
   -3299    -3466    -3420    -3203    -3426    -3716    -3547    -3468 
   -3495    -3213    -3125    -3396    -3488    -3462    -3581    -3688 
   -3616    -3438    -3408    -3543    -3542    -3403    -3429    -3600 
   -3631    -3531    -3535    -3689    -3704    -3303    -2974    -3252 
   -3518    -3358    -3364    -3569    -3499    -3345    -3354    -3318 
   -3366    -3624    -3584    -3322    -3450    -3626    -3477    -3488 
   -3719    -3724    -3638    -3751    -3751    -3527    -3538    -3669 
   -3500    -3330    -3360    -3387    -3554    -3740    -3630    -3603 
   -3788    -3643    -3338    -3375    -3407    -3257    -3350    -3570 
   -3649    -3805    -3959    -3740    -3342    -3223    -3322    -3260 
   -3227    -3531    -3684    -3469    -3348    -3325    -3275    -3288 
   -3241    -3164    -3271    -3485    -3528    -3372    -3424    -3834 
   -3981    -3651    -3524    -3793    -3990    -3892    -3603    -3439 
   -3531    -3530    -3370    -3408    -3527    -3407    -3262    -3352 
   -3418    -3319    -3434    -3713    -3580    -3264    -3380    -3535 
   -3265    -3086    -3350    -3697    -3828    -3753    -3672    -3690 
   -3673    -3682    -3689    -3473    -3341    -3399    -3231    -3068 
   -3214    -3376    -3570    -3781    -3634    -3483    -3666    -3604 
   -3262    -3318    -3620    -3631    -3576    -3738    -3748    -3460 
   -3296    -3318    -3240    -3219    -3388    -3514    -3581    -3531 
   -3186    -2930    -3065    -3130    -3055    -3330    -3721    -3785 
   -3651    -3408    -3229    -3280    -3331    -3439    -3753    -4044 
   -4171    -3921    -3361    -3183    -3420    -3412    -3217    -3265 
   -3349    -3215    -3223    -3384    -3225    -3195    -3754    -3967 
   -3528    -3464    -3721    -3538    -3312    -3456    -3481    -3300 
   -3177    -3082    -3273    -3669    -3597    -3472    -3835    -3750 
   -3069    -2999    -3388    -3360    -3234    -3254    -3118    -3156 
   -3528    -3611    -3447    -3627    -3761    -3410    -3152    -3287 
   -3507    -3788    -3996    -3882    -3801    -3906    -3739    -3376 
   -3257    -3342    -3364    -3299    -3453    -3835    -3948    -3815 
   -3794    -3700    -3499    -3477    -3511    -3615    -4031    -4209 
   -3794    -3577    -3672    -3348    -3009    -3221    -3372    -3292 
   -3391    -3302    -2992    -3080    -3256    -3087    -3065    -3354 
   -3554    -3578    -3443    -3253    -3304    -3469    -3412    -3348 
   -3601    -3862    -3740    -3561    -3531    -3262    -3021    -3373 
   -3713    -3470    -3299    -3431    -3198    -2601    -2369    -2717 
   -3142    -3315    -3555    -3970    -4095    -3916    -3828    -3827 
   -3744    -3535    -3326    -3349    -3407    -3231    -3218    -3599 
   -3842    -3738    -3712    -3851    -3906    -3978    -4109    -4072 
   -3946    -3735    -3393    -3445    -3856    -3758    -3381    -3618 
   -3993    -3798    -3627    -3786    -3738    -3470    -3184    -2847 
   -2677    -2710    -2785    -3082    -3520    -3584    -3393    -3557 
   -3894    -3832    -3619    -3692    -3684    -3342    -3122    -3126 
   -3059    -3080    -3283    -3427    -3600    -3711    -3461    -3279 
   -3396    -3364    -3218    -3144    -3009    -2982    -3161    -3325 
   -3474    -3609    -3669    -3784    -3831    -3730    -3782    -3817 
   -3654    -3634    -3592    -3361    -3443    -3738    -3720    -3557 
   -3437    -3210    -3078    -3171    -3184    -3291    -3748    -4075 
   -4113    -4179    -4083    -3753    -3574    -3651    -3697    -3508 
   -3337    -3423    -3537    -3497    -3532    -3917    -4290    -4004 
   -3483    -3434    -3369    -2971    -2886    -3257    -3528    -3424 
   -3194    -3141    -3146    -3040    -3067    -3396    -3730    -3866 
   -3985    -4072    -3848    -3414    -3199    -3326    -3487    -3441 
   -3397    -3497    -3391    -2992    -2797    -3068    -3460    -3647 
   -3827    -4054    -3923    -3532    -3379    -3396    -3267    -3051 
   -3024    -3119    -3064    -2897    -2843    -3073    -3512    -3777 
   -3751    -3639    -3496    -3319    -3221    -3342    -3581    -3743 
   -3927    -4043    -3813    -3588    -3755    -4010    -4006    -3861 
   -3789    -3692    -3535    -3497    -3412    -3173    -2970    -2821 
   -2797    -2976    -3258    -3569    -3769    -3827    -3885    -3813 
   -3596    -3586    -3631    -3381    -3252    -3487    -3554    -3258 
   -2984    -2932    -3060    -3168    -3013    -2937    -3360    -3821 
   -3771    -3457    -3335    -3330    -3221    -3186    -3326    -3458 
   -3576    -3730    -3798    -3846    -3973    -3952    -3747    -3654 
   -3608    -3316    -2998    -3079    -3392    -3524    -3501    -3476 
   -3474    -3408    -3242    -3345    -3854    -4162    -4055    -3994 
   -3904    -3542    -3438    -3680    -3615    -3245    -3021    -3111 
   -3311    -3376    -3489    -3620    -3507    -3264    -2947    -2771 
   -3003    -3223    -3365    -3778    -3959    -3690    -3577    -3574 
   -3403    -3365    -3516    -3559    -3538    -3601    -3535    -3234 
   -3132    -3326    -3269    -3091    -3397    -3819    -3908    -4000 
   -4090    -3975    -3909    -3813    -3424    -3078    -3011    -3026 
   -3140    -3420    -3732    -3959    -4075    -4120    -4016    -3734 
   -3586    -3690    -3693    -3554    -3591    -3680    -3450    -3105 
   -3106    -3381    -3465    -3186    -2983    -3291    -3603    -3361 
   -3046    -3167    -3472    -3487    -3264    -3349    -3499    -3258 
   -3203    -3397    -3335    -3412    -3670    -3609    -3427    -3296 
   -3237    -3337    -3276    -3154    -3473    -3870    -3904    -3905 
   -3948    -3807    -3672    -3640    -3501    -3273    -3246    -3505 
   -3574    -3295    -3316    -3688    -3793    -3701    -3627    -3373 
   -3130    -3168    -3176    -3003    -3068    -3431    -3550    -3383 
   -3422    -3596    -3562    -3484    -3441    -3373    -3603    -3967 
   -3867    -3546    -3400    -3237    -3096    -3134    -3227    -3311 
   -3380    -3437    -3400    -3316    -3600    -3906    -3627    -3492 
   -3912    -3964    -3584    -3454    -3446    -3361    -3385    -3478 
   -3534    -3461    -3271    -3300    -3496    -3362    -3111    -3272 
   -3532    -3451    -3364    -3574    -3723    -3499    -3326    -3615 
   -3905    -3831    -3802    -3882    -3685    -3464    -3546    -3534 
   -3468    -3777    -3790    -3231    -3102    -3264    -3025    -2992 
   -3291    -3319    -3387    -3717    -3762    -3543    -3572    -3667 
   -3470    -3242    -3235    -3175    -2930    -2879    -3038    -3245 
   -3586    -3707    -3618    -3900    -4131    -3800    -3420    -3362 
   -3427    -3380    -3279    -3387    -3643    -3678    -3550    -3623 
   -3728    -3561    -3489    -3773    -3902    -3667    -3510    -3414 
   -3246    -3269    -3306    -3219    -3429    -3735    -3684    -3688 
   -3844    -3539    -3119    -3312    -3573    -3273    -2968    -3163 
   -3311    -3096    -3164    -3535    -3523    -3337    -3504    -3839 
   -3927    -3642    -3406    -3504    -3407    -3186    -3488    -3846 
   -3824    -3854    -3928    -3948    -4009    -3839    -3546    -3578 
   -3812    -3896    -3809    -3680    -3578    -3546    -3565    -3512 
   -3402    -3377    -3314    -3171    -3153    -3111    -2976    -2987 
   -3033    -3065    -3245    -3342    -3310    -3449    -3582    -3528 
   -3566    -3557    -3292    -3130    -3195    -3372    -3611    -3597 
   -3383    -3464    -3678    -3685    -3688    -3613    -3333    -3273 
   -3427    -3356    -3257    -3489    -3748    -3640    -3412    -3346 
   -3296    -3253    -3308    -3438    -3627    -3681    -3558    -3531 
   -3542    -3473    -3515    -3746    -3951    -3885    -3682    -3673 
   -3848    -3885    -3678    -3726    -4063    -3927    -3462    -3408 
   -3450    -3119    -2934    -3272    -3500    -3289    -3294    -3584 
   -3580    -3576    -3901    -3994    -3724    -3539    -3528    -3538 
   -3478    -3410    -3449    -3591    -3666    -3483    -3233    -3159 
   -3049    -2918    -3046    -3230    -3187    -3087    -3142    -3235 
   -3233    -3238    -3298    -3393    -3568    -3676    -3626    -3620 
   -3684    -3573    -3348    -3376    -3555    -3546    -3586    -3734 
   -3541    -3241    -3307    -3393    -3268    -3245    -3339    -3396 
   -3468    -3530    -3543    -3609    -3697    -3558    -3195    -3113 
