Origin Time       2024/04/02 04:24:00
Lat.              40.133
Long.             141.712
Depth. (km)       71
Mag.              6.0
Station Code      HKD098
Station Lat.      42.4985
Station Long.     143.2790
Station Height(m) 81
Record Time       2024/04/02 04:25:53
Sampling Freq(Hz) 100Hz
Duration Time(s)  66
Dir.              U-D
Scale Factor      7845(gal)/8223790
Max. Acc. (gal)   1.759
Last Correction   2024/04/02 04:25:54
Memo.             
[...]
  -14742   -15094   -15534   -15607   -15651   -15849   -15734   -15345 
  -15257   -15480   -15597   -15516   -15395   -15367   -15385   -15195 
  -14762   -14399   -14478   -15041   -15556   -15522   -15179   -15049 
  -15141   -15126   -14967   -14779   -14493   -14218   -14289   -14582 
  -14698   -14602   -14445   -14440   -14739   -15067   -15148   -14983 
  -14755   -14898   -15341   -15425   -15286   -15466   -15596   -15113 
  -14420   -14323   -14794   -15163   -15233   -15272   -15400   -15492 
  -15250   -14763   -14609   -14735   -14596   -14343   -14324   -14435 
  -14566   -14701   -14798   -14841   -14855   -15014   -15363   -15649 
  -15643   -15353   -15115   -15169   -15259   -15218   -15219   -15263 
  -15202   -15075   -15057   -15248   -15462   -15529   -15557   -15587 
  -15450   -15175   -15128   -15414   -15576   -15458   -15466   -15677 
  -15843   -15874   -15646   -15141   -14673   -14455   -14451   -14611 
  -14787   -14831   -14866   -15037   -15144   -14979   -14769   -14860 
  -15125   -15103   -14828   -14847   -15182   -15276   -15039   -14931 
  -15097   -15091   -14694   -14415   -14625   -14890   -14863   -14827 
  -14925   -14920   -14821   -14875   -14967   -14825   -14608   -14655 
  -15033   -15438   -15371   -14936   -14754   -14858   -14894   -14806 
  -14682   -14611   -14519   -14326   -14389   -14769   -14902   -14855 
  -15225   -15804   -15965   -15820   -15769   -15623   -15229   -14978 
  -15060   -15176   -15148   -15176   -15458   -15819   -15966   -15847 
  -15452   -14983   -14835   -14810   -14554   -14534   -15125   -15677 
  -15627   -15336   -15179   -15172   -15350   -15566   -15649   -15715 
  -15809   -15901   -15947   -15777   -15381   -14863   -14362   -14161 
  -14241   -14288   -14291   -14481   -14823   -15025   -15041   -15006 
  -14928   -14812   -14651   -14507   -14598   -14782   -14778   -14818 
  -14989   -15026   -15056   -15198   -15155   -14929   -14789   -14700 
  -14644   -14647   -14500   -14226   -14180   -14392   -14517   -14543 
  -14825   -15241   -15350   -15228   -15110   -14986   -14955   -15125 
  -15394   -15660   -15861   -15973   -16044   -16023   -15795   -15525 
  -15601   -15878   -15823   -15681   -15930   -16042   -15553   -15060 
  -15033   -15199   -15196   -14902   -14503   -14372   -14561   -14751 
  -14754   -14696   -14727   -14779   -14804   -14866   -14914   -14935 
  -14960   -14931   -14924   -15029   -15129   -15148   -15079   -14952 
  -14877   -14879   -14995   -15273   -15422   -15313   -15356   -15639 
  -15722   -15454   -15134   -14980   -14935   -14831   -14644   -14555 
  -14675   -14850   -14913   -14894   -14852   -14935   -15284   -15631 
  -15638   -15422   -15286   -15333   -15414   -15448   -15600   -15808 
  -15738   -15425   -15178   -15056   -14937   -14827   -14910   -15198 
  -15406   -15457   -15516   -15483   -15253   -15098   -15114   -15078 
  -14998   -14987   -14993   -14980   -14933   -14836   -14801   -14835 
  -14813   -14871   -15124   -15209   -14887   -14575   -14675   -15005 
  -15218   -15249   -15160   -14972   -14785   -14702   -14647   -14505 
  -14427   -14682   -15115   -15228   -15083   -15152   -15290   -15132 
  -14918   -14924   -15003   -15080   -15217   -15354   -15444   -15391 
  -15079   -14682   -14500   -14513   -14504   -14513   -14810   -15395 
  -15803   -15689   -15399   -15391   -15518   -15565   -15666   -15831 
  -15898   -15778   -15480   -15273   -15315   -15319   -15130   -15012 
  -15134   -15282   -15261   -15222   -15283   -15280   -15134   -15117 
  -15460   -15807   -15757   -15607   -15596   -15426   -15110   -14943 
  -14833   -14608   -14343   -14123   -14096   -14396   -14777   -14940 
  -15045   -15211   -15252   -15134   -14982   -14881   -14958   -15188 
  -15311   -15202   -15025   -14902   -14824   -14821   -14882   -14971 
  -15039   -15014   -14999   -15088   -15176   -15211   -15117   -14854 
  -14814   -15132   -15294   -15172   -15144   -15322   -15543   -15630 
  -15471   -15217   -15087   -15021   -14956   -15028   -15257   -15477 
  -15527   -15493   -15630   -15804   -15768   -15738   -15816   -15736 
  -15560   -15449   -15234   -14937   -14889   -15045   -14985   -14697 
  -14651   -14914   -15113   -15149   -15132   -15117   -15230   -15431 
  -15473   -15361   -15188   -15002   -14990   -15066   -14979   -14933 
  -15079   -15110   -14883   -14565   -14357   -14431   -14654   -14702 
  -14524   -14280   -14127   -14076   -13972   -13923   -14230   -14666 
  -14742   -14628   -14747   -14936   -14937   -14877   -14931   -15141 
  -15336   -15304   -15219   -15330   -15545   -15637   -15511   -15348 
  -15367   -15466   -15464   -15373   -15294   -15273   -15236   -15155 
  -15072   -14939   -14789   -14706   -14716   -14877   -15057   -15134 
  -15313   -15593   -15668   -15504   -15290   -15095   -14945   -14777 
  -14478   -14185   -14080   -14164   -14528   -15099   -15477   -15568 
  -15471   -15184   -14970   -14948   -14862   -14798   -14959   -15138 
  -15165   -15168   -15292   -15492   -15576   -15522   -15441   -15342 
  -15265   -15256   -15195   -15002   -14720   -14422   -14297   -14442 
  -14643   -14737   -14785   -14843   -14905   -14933   -14933   -14936 
  -14932   -15041   -15372   -15642   -15616   -15522   -15535   -15481 
  -15315   -15207   -15106   -14925   -14810   -14816   -14854   -14874 
  -14835   -14697   -14624   -14845   -15137   -15044   -14756   -14797 
  -15045   -15118   -15017   -14897   -14895   -15010   -15025   -15006 
  -15279   -15732   -15938   -15807   -15592   -15460   -15408   -15375 
  -15317   -15302   -15319   -15149   -14887   -14959   -15269   -15340 
  -15115   -14867   -14777   -14890   -15145   -15383   -15421   -15338 
  -15496   -15948   -16308   -16405   -16406   -16298   -15888   -15307 
  -14962   -14882   -14759   -14544   -14415   -14454   -14577   -14628 
  -14601   -14540   -14445   -14436   -14511   -14465   -14428   -14575 
  -14673   -14678   -14813   -14928   -14802   -14674   -14786   -14993 
  -15029   -14835   -14612   -14501   -14388   -14270   -14261   -14357 
  -14543   -14704   -14682   -14605   -14661   -14821   -15001   -15151 
  -15259   -15318   -15234   -14963   -14736   -14817   -15102   -15275 
  -15295   -15423   -15641   -15647   -15531   -15611   -15788   -15781 
  -15574   -15383   -15344   -15296   -15080   -14845   -14709   -14438 
  -13967   -13840   -14311   -14715   -14625   -14494   -14632   -14702 
  -14484   -14322   -14527   -14906   -15155   -15236   -15287   -15419 
  -15607   -15758   -15805   -15682   -15510   -15547   -15772   -15878 
  -15763   -15635   -15573   -15493   -15550   -15789   -15826   -15566 
  -15419   -15514   -15493   -15172   -14859   -14810   -14804   -14605 
  -14492   -14712   -14931   -14958   -15090   -15311   -15399   -15384 
  -15363   -15415   -15493   -15404   -15236   -15294   -15589   -15846 
  -15893   -15866   -15977   -16125   -16046   -15842   -15749   -15628 
  -15442   -15493   -15786   -16052   -16229   -16387   -16553   -16622 
  -16545   -16519   -16437   -15977   -15427   -15226   -15160   -14879 
  -14528   -14455   -14715   -15020   -15067   -14887   -14728   -14623 
  -14478   -14404   -14520   -14683   -14663   -14442   -14303   -14539 
  -15036   -15360   -15333   -15240   -15327   -15488   -15560   -15570 
  -15556   -15465   -15263   -15014   -14917   -15084   -15325   -15371 
  -15259   -15164   -15078   -14976   -14893   -14750   -14569   -14511 
  -14543   -14631   -14783   -14827   -14728   -14585   -14372   -14191 
  -14138   -14131   -14158   -14192   -14176   -14176   -14181   -14162 
  -14162   -14060   -13861   -13784   -13741   -13709   -13911   -14193 
  -14362   -14500   -14486   -14350   -14435   -14701   -14862   -14935 
  -15021   -15082   -15178   -15361   -15507   -15542   -15558   -15665 
  -15799   -15782   -15685   -15646   -15520   -15302   -15218   -15205 
  -15053   -14825   -14677   -14621   -14601   -14604   -14688   -14871 
  -15016   -15017   -14975   -15080   -15345   -15592   -15715   -15784 
  -15885   -15919   -15692   -15349   -15159   -14963   -14638   -14427 
  -14339   -14299   -14497   -14742   -14671   -14540   -14627   -14851 
  -15175   -15395   -15276   -15120   -15240   -15390   -15354   -15380 
  -15623   -15813   -15720   -15529   -15473   -15415   -15276   -15252 
  -15298   -15333   -15458   -15481   -15344   -15390   -15527   -15479 
  -15410   -15367   -15275   -15331   -15465   -15350   -15147   -15253 
  -15583   -15722   -15585   -15504   -15649   -15716   -15519   -15349 
  -15369   -15345   -15111   -14812   -14651   -14588   -14567   -14778 
  -15194   -15535   -15677   -15619   -15481   -15410   -15338   -15292 
  -15438   -15627   -15541   -15218   -14948   -14863   -14874   -14947 
  -15130   -15264   -15196   -15126   -15184   -15163   -14980   -14837 
  -14773   -14727   -14742   -14773   -14818   -14989   -15088   -14968 
  -14922   -14995   -14995   -15106   -15348   -15396   -15213   -14953 
  -14654   -14397   -14342   -14389   -14231   -13923   -13822   -13987 
  -14284   -14585   -14690   -14662   -14796   -15105   -15363   -15417 
  -15326   -15264   -15249   -15165   -15048   -15055   -15088   -14870 
  -14488   -14287   -14314   -14385   -14393   -14303   -14181   -14235 
  -14494   -14701   -14820   -15090   -15398   -15461   -15437   -15480 
  -15438   -15406   -15577   -15828   -15963   -15928   -15820   -15777 
  -15866   -16050   -16154   -16102   -16063   -16060   -15979   -15831 
  -15653   -15506   -15498   -15561   -15487   -15336   -15353   -15442 
  -15408   -15341   -15294   -15182   -15036   -14909   -14804   -14746 
  -14732   -14727   -14671   -14613   -14635   -14558   -14268   -14115 
  -14291   -14481   -14544   -14592   -14598   -14561   -14534   -14435 
  -14274   -14206   -14246   -14376   -14651   -14962   -15075   -15005 
  -14998   -15110   -15147   -15057   -14991   -14985   -14944   -14848 
  -14770   -14806   -15022   -15318   -15527   -15646   -15727   -15813 
  -15959   -16113   -16217   -16332   -16445   -16475   -16437   -16389 
  -16332   -16251   -16186   -16141   -16078   -15974   -15811   -15619 
  -15485   -15438   -15415   -15327   -15294   -15531   -15838   -15835 
  -15650   -15557   -15496   -15433   -15408   -15361   -15302   -15191 
  -14878   -14496   -14307   -14242   -14173   -14162   -14235   -14266 
  -14135   -13933   -13852   -13914   -13983   -13937   -13818   -13832 
  -13959   -13969   -13895   -13886   -13918   -13923   -13941   -14094 
  -14310   -14409   -14515   -14723   -14828   -14800   -14755   -14617 
  -14420   -14358   -14376   -14264   -14107   -14160   -14400   -14597 
  -14646   -14608   -14611   -14739   -14944   -15056   -15045   -15086 
  -15248   -15419   -15588   -15774   -15800   -15599   -15400   -15291 
  -15199   -15223   -15404   -15533   -15498   -15437   -15493   -15593 
  -15614   -15574   -15500   -15379   -15260   -15196   -15137   -14963 
  -14723   -14658   -14809   -15034   -15309   -15537   -15556   -15499 
  -15520   -15508   -15426   -15373   -15342   -15315   -15396   -15654 
  -15904   -15912   -15795   -15755   -15780   -15884   -16033   -15997 
  -15813   -15784   -15781   -15515   -15230   -15215   -15187   -14940 
  -14752   -14727   -14743   -14790   -14835   -14864   -14928   -15032 
  -15196   -15298   -15229   -15165   -15226   -15325   -15381   -15379 
  -15379   -15425   -15469   -15484   -15493   -15565   -15754   -15981 
  -16066   -15979   -15932   -15988   -16019   -16050   -16133   -16135 
  -15965   -15718   -15511   -15321   -15029   -14667   -14405   -14334 
  -14426   -14575   -14625   -14573   -14569   -14580   -14474   -14355 
  -14345   -14339   -14269   -14299   -14509   -14694   -14758   -14841 
  -14967   -15013   -15003   -15003   -14964   -14924   -14933   -14851 
  -14605   -14443   -14550   -14700   -14658   -14481   -14318   -14292 
  -14345   -14316   -14337   -14515   -14643   -14683   -14796   -14891 
  -14881   -14877   -14874   -14816   -14808   -14856   -14832   -14773 
  -14797   -14854   -14850   -14833   -14889   -14910   -14809   -14770 
  -14916   -15076   -15132   -15102   -15034   -15071   -15342   -15697 
  -15880   -15873   -15776   -15618   -15533   -15681   -15897   -15931 
  -15778   -15591   -15550   -15685   -15788   -15697   -15471   -15256 
  -15171   -15171   -15217   -15379   -15460   -15265   -15099   -15106 
  -15020   -14878   -14937   -15106   -15113   -14959   -14885   -14886 
  -14817   -14828   -14924   -14895   -14902   -15063   -15179   -15268 
  -15406   -15464   -15533   -15801   -16090   -16136   -16112   -16233 
  -16270   -16083   -15940   -15896   -15720   -15426   -15241   -15288 
  -15475   -15496   -15188   -14891   -14908   -14925   -14658   -14374 
  -14287   -14212   -14048   -13895   -13794   -13709   -13697   -13864 
  -14141   -14326   -14453   -14616   -14612   -14427   -14337   -14342 
  -14299   -14206   -14076   -13961   -13994   -14183   -14412   -14608 
  -14766   -14941   -15130   -15182   -15102   -15114   -15164   -14991 
  -14754   -14717   -14777   -14882   -15037   -15017   -14858   -14827 
  -14859   -14855   -14886   -14893   -14825   -14794   -14856   -14972 
  -15099   -15252   -15477   -15705   -15830   -15873   -15892   -15888 
  -15859   -15851   -15855   -15747   -15547   -15417   -15329   -15202 
  -15110   -15067   -15026   -15030   -15080   -15206   -15438   -15610 
  -15631   -15669   -15788   -15903   -16038   -16254   -16464   -16528 
  -16506   -16625   -16862   -16930   -16810   -16672   -16478   -16202 
  -15950   -15711   -15493   -15367   -15317   -15283   -15272   -15340 
  -15323   -15014   -14659   -14607   -14706   -14694   -14658   -14750 
  -14885   -14887   -14794   -14858   -15064   -15063   -14817   -14640 
  -14619   -14615   -14617   -14670   -14716   -14723   -14728   -14740 
  -14739   -14736   -14693   -14569   -14469   -14467   -14457   -14373 
  -14335   -14458   -14654   -14775   -14825   -14791   -14625   -14446 
  -14365   -14341   -14315   -14227   -14080   -13926   -13759   -13667 
  -13716   -13795   -13975   -14251   -14332   -14242   -14235   -14342 
  -14488   -14629   -14746   -14832   -14914   -15055   -15178   -15186 
  -15238   -15464   -15715   -15863   -15939   -16000   -16089   -16175 
  -16150   -15954   -15662   -15456   -15396   -15271   -15064   -15014 
  -15041   -15020   -15055   -15033   -14827   -14704   -14813   -14890 
  -14814   -14798   -14863   -14906   -15087   -15456   -15714   -15727 
  -15701   -15761   -15792   -15784   -15790   -15718   -15584   -15487 
  -15333   -15105   -14926   -14839   -14864   -14943   -14951   -14936 
  -14943   -14889   -14855   -14956   -15059   -14995   -14835   -14778 
  -14866   -14891   -14806   -14832   -14971   -14974   -14812   -14654 
  -14590   -14619   -14685   -14752   -14813   -14864   -14913   -14953 
  -14962   -14881   -14750   -14781   -14952   -15082   -15242   -15488 
  -15697   -15776   -15696   -15580   -15584   -15661   -15709   -15705 
  -15695   -15727   -15727   -15628   -15579   -15727   -16006   -16158 
  -16042   -15924   -16052   -16185   -16058   -15865   -15832   -15792 
  -15529   -15249   -15206   -15237   -15191   -15164   -15163   -15167 
  -15244   -15287   -15188   -15061   -14945   -14747   -14492   -14350 
  -14369   -14370   -14247   -14172   -14292   -14445   -14503   -14616 
  -14793   -14800   -14682   -14685   -14787   -14854   -14841   -14806 
  -14882   -15078   -15213   -15186   -15128   -15228   -15367   -15271 
  -15028   -14929   -14962   -14929   -14779   -14592   -14494   -14563 
  -14650   -14602   -14555   -14624   -14742   -14874   -15017   -15152 
  -15256   -15310   -15383   -15495   -15549   -15554   -15565   -15546 
  -15500   -15446   -15400   -15442   -15569   -15676   -15769   -15878 
  -15944   -15988   -16033   -16012   -15925   -15813   -15573   -15186 
  -14870   -14725   -14639   -14589   -14561   -14476   -14462   -14611 
  -14701   -14625   -14561   -14511   -14366   -14331   -14554   -14764 
  -14777   -14764   -14847   -14941   -14999   -15066   -15103   -15051 
  -14999   -15009   -15001   -14959   -14885   -14769   -14654   -14550 
  -14457   -14386   -14361   -14455   -14571   -14493   -14392   -14580 
  -14906   -15120   -15311   -15519   -15615   -15622   -15649   -15688 
  -15655   -15503   -15325   -15269   -15311   -15294   -15169   -15021 
  -14932   -14921   -14918   -14928   -15080   -15295   -15340   -15288 
  -15369   -15526   -15553   -15473   -15471   -15519   -15434   -15264 
  -15176   -15117   -14986   -14827   -14787   -14864   -14844   -14697 
  -14632   -14679   -14679   -14596   -14520   -14496   -14450   -14382 
  -14436   -14636   -14840   -15001   -15175   -15326   -15354   -15275 
  -15190   -15109   -15036   -15017   -15045   -15105   -15219   -15356 
  -15403   -15300   -15199   -15310   -15522   -15623   -15661   -15759 
  -15904   -15954   -15777   -15534   -15452   -15435   -15365   -15290 
  -15240   -15229   -15211   -15114   -15021   -15034   -15194   -15423 
  -15527   -15498   -15462   -15414   -15423   -15530   -15484   -15257 
  -15153   -15180   -15136   -15048   -15021   -15057   -15124   -15161 
  -15133   -15039   -14909   -14791   -14698   -14679   -14786   -14813 
  -14607   -14428   -14512   -14740   -14883   -14901   -15025   -15306 
  -15473   -15462   -15419   -15349   -15240   -15207   -15256   -15234 
  -15141   -15132   -15229   -15302   -15240   -15083   -14994   -15075 
  -15179   -15055   -14778   -14642   -14597   -14534   -14628   -14802 
  -14789   -14659   -14594   -14646   -14763   -14798   -14764   -14810 
  -14905   -15018   -15140   -15142   -15102   -15214   -15384   -15466 
  -15453   -15342   -15253   -15286   -15283   -15169   -15087   -15133 
  -15241   -15252   -15165   -15120   -15161   -15265   -15302   -15199 
  -15090   -15017   -14949   -14921   -14890   -14843   -14817   -14727 
  -14605   -14625   -14735   -14833   -14995   -15168   -15246   -15340 
  -15460   -15461   -15417   -15472   -15525   -15469   -15444   -15558 
  -15658   -15549   -15341   -15290   -15357   -15310   -15144   -14987 
  -14832   -14662   -14559   -14565   -14617   -14640   -14671   -14746 
  -14747   -14640   -14607   -14671   -14702   -14750   -14862   -14936 
  -14966   -15033   -15114   -15145   -15174   -15195   -15121   -15014 
  -14964   -14899   -14856   -14945   -15036   -14997   -14936   -14994 
  -15124   -15187   -15188   -15219   -15267   -15246   -15099   -14859 
  -14683   -14636   -14617   -14589   -14631   -14789   -14948   -14963 
  -14906   -14926   -14970   -14901   -14748   -14624   -14570   -14557 
  -14584   -14690   -14817   -14837   -14770   -14739   -14786   -14866 
  -14912   -14928   -14953   -14929   -14847   -14859   -14945   -14972 
  -15003   -15068   -15074   -15043   -15047   -15080   -15128   -15168 
  -15157   -15171   -15345   -15523   -15507   -15480   -15589   -15691 
  -15715   -15676   -15585   -15572   -15658   -15684   -15653   -15707 
  -15799   -15824   -15808   -15804   -15882   -15988   -15866   -15553 
  -15391   -15404   -15381   -15240   -15056   -15009   -15111   -15183 
  -15171   -15138   -15141   -15192   -15260   -15352   -15460   -15511 
  -15554   -15622   -15618   -15601   -15647   -15634   -15507   -15384 
  -15325   -15284   -15217   -15144   -15060   -14920   -14796   -14797 
