Origin Time       2024/04/02 04:24:00
Lat.              40.133
Long.             141.712
Depth. (km)       71
Mag.              6.0
Station Code      HKD096
Station Lat.      42.6977
Station Long.     143.1357
Station Height(m) 192
Record Time       2024/04/02 04:25:54
Sampling Freq(Hz) 100Hz
Duration Time(s)  60
Dir.              N-S
Scale Factor      7845(gal)/8223790
Max. Acc. (gal)   1.816
Last Correction   2024/04/02 04:25:54
Memo.             
[...]
  -16934   -17061   -17113   -17082   -17030   -16957   -16945   -17020 
  -17028   -16906   -16927   -17091   -17097   -17103   -17284   -17371 
  -17305   -17323   -17297   -16999   -16737   -16839   -17104   -17180 
  -16978   -16711   -16657   -16856   -17057   -17026   -16926   -16999 
  -17091   -17016   -17037   -17308   -17347   -17058   -16977   -17051 
  -16969   -17018   -17300   -17334   -17113   -17059   -17115   -17078 
  -17011   -17061   -17238   -17392   -17428   -17271   -16919   -16765 
  -17134   -17435   -17124   -16858   -17107   -17236   -17028   -16966 
  -17046   -17003   -17027   -17290   -17440   -17228   -17118   -17350 
  -17379   -17058   -16912   -17043   -17124   -17147   -17154   -17051 
  -17046   -17315   -17451   -17145   -16946   -17231   -17381   -17107 
  -17020   -17324   -17432   -17140   -16850   -16764   -16956   -17321 
  -17369   -16989   -16727   -16915   -17208   -17201   -17064   -17054 
  -17073   -17034   -16974   -16996   -17091   -17011   -16850   -16966 
  -17165   -17037   -16829   -16941   -17242   -17460   -17464   -17297 
  -17162   -17116   -17149   -17300   -17386   -17238   -17109   -17122 
  -16941   -16695   -16842   -17120   -17184   -17258   -17367   -17253 
  -17032   -17059   -17247   -17246   -17095   -17039   -17066   -17069 
  -17047   -16933   -16806   -17020   -17421   -17425   -17023   -16748 
  -16895   -17224   -17358   -17209   -17054   -17163   -17323   -17220 
  -17012   -16985   -17149   -17342   -17442   -17325   -17038   -16972 
  -17177   -17235   -17126   -17103   -17034   -16850   -16864   -17072 
  -17172   -17182   -17230   -17230   -17073   -16835   -16752   -16900 
  -17053   -17093   -17159   -17215   -17159   -17088   -17096   -17169 
  -17180   -17113   -17166   -17311   -17281   -17082   -16954   -16879 
  -16788   -16881   -17091   -17101   -17003   -17031   -17124   -17232 
  -17371   -17305   -16915   -16645   -16912   -17301   -17209   -16951 
  -17003   -17097   -17053   -17122   -17194   -17058   -17039   -17219 
  -17146   -16881   -16869   -17047   -17140   -17150   -17037   -16831 
  -16907   -17250   -17386   -17289   -17188   -17147   -17277   -17412 
  -17238   -16924   -16903   -17100   -17073   -16926   -17020   -17126 
  -16977   -16912   -17080   -17057   -16845   -16829   -16918   -16945 
  -17088   -17381   -17412   -17073   -16900   -16974   -16962   -16985 
  -17193   -17348   -17342   -17450   -17571   -17227   -16795   -16978 
  -17405   -17325   -16966   -16981   -17143   -17064   -17069   -17261 
  -17182   -16860   -16946   -17379   -17450   -17270   -17265   -17313 
  -17361   -17410   -17205   -16810   -16741   -17032   -17091   -16838 
  -16865   -17166   -17220   -17065   -17134   -17405   -17408   -17112 
  -17037   -17300   -17405   -17196   -16987   -16807   -16713   -16862 
  -16968   -16872   -16872   -17041   -17042   -16962   -17189   -17388 
  -17231   -17154   -17336   -17331   -16933   -16625   -16812   -17145 
  -17215   -17097   -16988   -16995   -17159   -17396   -17466   -17236 
  -17000   -17119   -17383   -17311   -17001   -16923   -17043   -17120 
  -17200   -17213   -17085   -17101   -17301   -17316   -17093   -16897 
  -16877   -16999   -17147   -17240   -17172   -16903   -16810   -17180 
  -17512   -17346   -17099   -17130   -17119   -16895   -16802   -17001 
  -17136   -17024   -16985   -17128   -17215   -17126   -17054   -17149 
  -17150   -17028   -17112   -17255   -17238   -17262   -17267   -17023 
  -16783   -16853   -17042   -17101   -17132   -17215   -17173   -17147 
  -17388   -17374   -16904   -16726   -16978   -17227   -17335   -17271 
  -17115   -16964   -16884   -16970   -17146   -17271   -17255   -17082 
  -16924   -16910   -16941   -16972   -17119   -17190   -16924   -16669 
  -16800   -17128   -17313   -17277   -17103   -16869   -16839   -17161 
  -17483   -17462   -17138   -16825   -16777   -16902   -17059   -17181 
  -17153   -17050   -17088   -17217   -17089   -16814   -16846   -17074 
  -17135   -17039   -17018   -17070   -17076   -17170   -17334   -17163 
  -16717   -16745   -17274   -17440   -17200   -17155   -17188   -17086 
  -17234   -17543   -17361   -16825   -16777   -17220   -17355   -17132 
  -17131   -17421   -17599   -17421   -17123   -16946   -16938   -17238 
  -17653   -17636   -17246   -17069   -17086   -17001   -16977   -17115 
  -17185   -17077   -17062   -17358   -17620   -17496   -17158   -16999 
  -17072   -17097   -17027   -17030   -17080   -17103   -17088   -17027 
  -17022   -17103   -17066   -16937   -17030   -17262   -17343   -17316 
  -17126   -16945   -17151   -17298   -17022   -16734   -16664   -16710 
  -16803   -16857   -16819   -16933   -17300   -17424   -17024   -16615 
  -16741   -17196   -17471   -17439   -17180   -16930   -16903   -16899 
  -16783   -16769   -16911   -17081   -17342   -17604   -17464   -16988 
  -16812   -17142   -17416   -17325   -17177   -17005   -16744   -16769 
  -17096   -17199   -17037   -17015   -17042   -16787   -16621   -16919 
  -17213   -17200   -17196   -17265   -17109   -16746   -16573   -16860 
  -17356   -17512   -17254   -16900   -16603   -16744   -17362   -17563 
  -17043   -16688   -16991   -17375   -17415   -17371   -17350   -17123 
  -16857   -17015   -17324   -17105   -16644   -16731   -17207   -17329 
  -17097   -17032   -17254   -17471   -17451   -17284   -17180   -17092 
  -17031   -17157   -17290   -17224   -17128   -17147   -17143   -17078 
  -17095   -17054   -16760   -16598   -17015   -17568   -17585   -17323 
  -17248   -17255   -17397   -17721   -17663   -17069   -16741   -17068 
  -17302   -16889   -16482   -16810   -17459   -17672   -17340   -16865 
  -16802   -17159   -17285   -17082   -17034   -17078   -17047   -17078 
  -17054   -16885   -16730   -16684   -16926   -17385   -17408   -16903 
  -16725   -17138   -17370   -17041   -16872   -17269   -17460   -17128 
  -16912   -16929   -16922   -17037   -17232   -17258   -17194   -17054 
  -16795   -16760   -17103   -17421   -17354   -17072   -16957   -17046 
  -17204   -17280   -17119   -16806   -16773   -17311   -17744   -17297 
  -16644   -16750   -17257   -17456   -17223   -16804   -16711   -17058 
  -17288   -17061   -16688   -16636   -17092   -17691   -17683   -17046 
  -16683   -16968   -17328   -17304   -17100   -17093   -17316   -17474 
  -17277   -16880   -16690   -16784   -17004   -17178   -17226   -17174 
  -16947   -16715   -16865   -17261   -17497   -17451   -17193   -16864 
  -16779   -17062   -17280   -17167   -17042   -17126   -17219   -17108 
  -16837   -16636   -16818   -17270   -17423   -17244   -17041   -16927 
  -17113   -17447   -17427   -17054   -16812   -16999   -17317   -17298 
  -17065   -17199   -17622   -17547   -17045   -16930   -17145   -17180 
  -17128   -17154   -17108   -17037   -17065   -17020   -16773   -16625 
  -16849   -17184   -17320   -17289   -17266   -17284   -17176   -17055 
  -17262   -17679   -17869   -17560   -16962   -16673   -16916   -17278 
  -17373   -17205   -16924   -16775   -16970   -17255   -17307   -17196 
  -17012   -16865   -16978   -17280   -17419   -17278   -17116   -17107 
  -17043   -16854   -16868   -17165   -17451   -17486   -17019   -16383 
  -16565   -17419   -17668   -17177   -16885   -16900   -16821   -16773 
  -16995   -17339   -17425   -17221   -17016   -16837   -16754   -16983 
  -17236   -17104   -16831   -16818   -17068   -17378   -17432   -17145 
  -16821   -16725   -16869   -17039   -17095   -17285   -17555   -17382 
  -16945   -16726   -16607   -16729   -17216   -17355   -16946   -16864 
  -17289   -17362   -17019   -16957   -17054   -16984   -17076   -17278 
  -17100   -16889   -17184   -17466   -17194   -16776   -16772   -17055 
  -17197   -17203   -17239   -17288   -17293   -17239   -17169   -17097 
  -17047   -17042   -16964   -16960   -17226   -17297   -16968   -16802 
  -16980   -17105   -17068   -17059   -17022   -16941   -17251   -17721 
  -17433   -16852   -17095   -17483   -17095   -16823   -17165   -17176 
  -16873   -17089   -17533   -17502   -17203   -17161   -17167   -16896 
  -16708   -16869   -17038   -16961   -16946   -17177   -17203   -16924 
  -16927   -17224   -17410   -17550   -17478   -16961   -16638   -17026 
  -17496   -17358   -16920   -16726   -16823   -17051   -17212   -17197 
  -17253   -17394   -17217   -16811   -16679   -16929   -17248   -17336 
  -17127   -16895   -16933   -17004   -17072   -17429   -17647   -17248 
  -16752   -16804   -17196   -17410   -17396   -17315   -17165   -16930 
  -16916   -17149   -17091   -16862   -17178   -17729   -17533   -16972 
  -17072   -17325   -16961   -16816   -17288   -17331   -17022   -17201 
  -17433   -17221   -16987   -16995   -17004   -16911   -16964   -17226 
  -17288   -17045   -17100   -17363   -17185   -16947   -17107   -17335 
  -17385   -17269   -17107   -17041   -17100   -17158   -17095   -16889 
  -16564   -16517   -16899   -17004   -16758   -16920   -17247   -16995 
  -16722   -17088   -17335   -17126   -17103   -17082   -16745   -16632 
  -16902   -16970   -16783   -16876   -17031   -16737   -16464   -16838 
  -17397   -17416   -17208   -17266   -17352   -17324   -17312   -17219 
  -16942   -16784   -16991   -17274   -17286   -17073   -16926   -17037 
  -17215   -17159   -17059   -17167   -17208   -17184   -17370   -17390 
  -17111   -17174   -17572   -17579   -17154   -16934   -17064   -17151 
  -17282   -17656   -17757   -17280   -16838   -16935   -17184   -17070 
  -16742   -16791   -17320   -17556   -17049   -16409   -16406   -16924 
  -17105   -16888   -16999   -17285   -17261   -17208   -17329   -17329 
  -17197   -17176   -17211   -17182   -17100   -16945   -16796   -16916 
  -17161   -17028   -16719   -16765   -17032   -17192   -17190   -16976 
  -16769   -16920   -17155   -17184   -17166   -17115   -17035   -16999 
  -16892   -16960   -17494   -17736   -17150   -16765   -17224   -17586 
  -17192   -16757   -16946   -17371   -17644   -17689   -17375   -16972 
  -16922   -17223   -17435   -17255   -17109   -17340   -17437   -16995 
  -16600   -16792   -17072   -17096   -17294   -17618   -17477   -17173 
  -17348   -17467   -17184   -17107   -17140   -16821   -16677   -17105 
  -17227   -16721   -16582   -16970   -17298   -17477   -17328   -16803 
  -16602   -17101   -17444   -17016   -16599   -16777   -17004   -16891 
  -16756   -16692   -16564   -16752   -17390   -17698   -17393   -17130 
  -17139   -17151   -17101   -17076   -16989   -16831   -16964   -17293 
  -17335   -17217   -17042   -16686   -16413   -16425   -16745   -17412 
  -17933   -17751   -17228   -16924   -16908   -17112   -17466   -17863 
  -18045   -17896   -17527   -16850   -16279   -16480   -16869   -16669 
  -16422   -16565   -16605   -16584   -16848   -16926   -16857   -17346 
  -17950   -17891   -17552   -17494   -17474   -17193   -16981   -16977 
  -16903   -16903   -17108   -17147   -16958   -16903   -16984   -17076 
  -17286   -17305   -16920   -16829   -17170   -17130   -16839   -16983 
  -17018   -16438   -16208   -16858   -17491   -17647   -17570   -17134 
  -16767   -17289   -18112   -18276   -18112   -18003   -17470   -16623 
  -16398   -16767   -16957   -17072   -17327   -17199   -16861   -17035 
  -17288   -17005   -16695   -16900   -17217   -17105   -16912   -17059 
  -17263   -17288   -17339   -17496   -17466   -17217   -17080   -17115 
  -17019   -16642   -16407   -16602   -16623   -16274   -16480   -17451 
  -18087   -17836   -17415   -17416   -17602   -17714   -17591   -17064 
  -16463   -16328   -16575   -16690   -16474   -16212   -16526   -17417 
  -17855   -17491   -17211   -17625   -18172   -17884   -17072   -16803 
  -16957   -16684   -16090   -15927   -16340   -17047   -17494   -17213 
  -16943   -17371   -17683   -17290   -17041   -17605   -18237   -17944 
  -16943   -16275   -16372   -16752   -16931   -17007   -17147   -17092 
  -16802   -16872   -17375   -17479   -17143   -17278   -17849   -17863 
  -16910   -15732   -15292   -15789   -16841   -17658   -17621   -17464 
  -17917   -18061   -17405   -17140   -17757   -18100   -17574   -16926 
  -16664   -16679   -16885   -17169   -17428   -17702   -17956   -17806 
  -17076   -16506   -16715   -17151   -17122   -16839   -16641   -16456 
  -16337   -16283   -16235   -16568   -17446   -18276   -18549   -18477 
  -18256   -17730   -17217   -17186   -17459   -17581   -17207   -16537 
  -16333   -16561   -16455   -16114   -16120   -16452   -16684   -16772 
  -17261   -18103   -18480   -18087   -17270   -16515   -16271   -16638 
  -17074   -17051   -16636   -16094   -15819   -16032   -16453   -16961 
  -17567   -17810   -17550   -17562   -18150   -18489   -17987   -17003 
  -16397   -16656   -17297   -17601   -17385   -17047   -17032   -17200 
  -17242   -17344   -17892   -18466   -18225   -17444   -16915   -16696 
  -16579   -16433   -16204   -16043   -15928   -15781   -15893   -16303 
  -16636   -16922   -17328   -17581   -17593   -17417   -16937   -16699 
  -17266   -17923   -17745   -17092   -16910   -17157   -17207   -17180 
  -17269   -17059   -16681   -16752   -17244   -17724   -17786   -17356 
  -16831   -16530   -16671   -17302   -17925   -17914   -17285   -16621 
  -16329   -16390   -16825   -17783   -18561   -18210   -17412   -16951 
  -16488   -16371   -17130   -17915   -17806   -17296   -17238   -17394 
  -17253   -17004   -16924   -16788   -16510   -16621   -16980   -16811 
  -16479   -16795   -17508   -17892   -17730   -17247   -16892   -17093 
  -17609   -18023   -18256   -18111   -17625   -17038   -16240   -15369 
  -15199   -15928   -16638   -16788   -16741   -16667   -16422   -16268 
  -16498   -16856   -17211   -17767   -18249   -18218   -17964   -17784 
  -17275   -16538   -16487   -17189   -17628   -17304   -16942   -17068 
  -17088   -16857   -17023   -17509   -17494   -16899   -16563   -16653 
  -16686   -16722   -16950   -17076   -17050   -17230   -17309   -16956 
  -16796   -17086   -17293   -17267   -17278   -17347   -17371   -17412 
  -17462   -17227   -16542   -16117   -16789   -17882   -18056   -17570 
  -17428   -17405   -16970   -16519   -16634   -17082   -17024   -16501 
  -16426   -16943   -17338   -17331   -17282   -17271   -17176   -17142 
  -17143   -16908   -16532   -16298   -15904   -15458   -15989   -17316 
  -17942   -17378   -16626   -16745   -17568   -18146   -18171   -18010 
  -17733   -17165   -16578   -16397   -16470   -16451   -16596   -17108 
  -17317   -16935   -16779   -17163   -17505   -17595   -17685   -17764 
  -17664   -17424   -17031   -16492   -16190   -16256   -16283   -16325 
  -16908   -17786   -18119   -17798   -17440   -17317   -17190   -17112 
  -17334   -17667   -17810   -17591   -16947   -16522   -16896   -17320 
  -17203   -17177   -17329   -16977   -16476   -16757   -17513   -17786 
  -17587   -17374   -17123   -16892   -16950   -17265   -17470   -17532 
  -17821   -18091   -17838   -17293   -16852   -16621   -16757   -17158 
  -17323   -17146   -17023   -17154   -17248   -17111   -17192   -17572 
  -17674   -17572   -17680   -17631   -17027   -16387   -16399   -16752 
  -16725   -16545   -16699   -16812   -16584   -16549   -17077   -17737 
  -17899   -17504   -17163   -17231   -17381   -17285   -16873   -16511 
  -16794   -17408   -17298   -16436   -16042   -16625   -17246   -17158 
  -16942   -17232   -17420   -16938   -16461   -16555   -16731   -16672 
  -16707   -16939   -17292   -17813   -18241   -18168   -17772   -17631 
  -17585   -17235   -17103   -17381   -17238   -16573   -16214   -16222 
  -16133   -16368   -17309   -18149   -18139   -17647   -17302   -17034 
  -16681   -16621   -16849   -16937   -16861   -16745   -16599   -16611 
  -17005   -17649   -18172   -18243   -17797   -17204   -16964   -17189 
  -17474   -17528   -17721   -18061   -17887   -17347   -17336   -17774 
  -17764   -17301   -17124   -17163   -16812   -16209   -15863   -15873 
  -16123   -16521   -16792   -16752   -16814   -17211   -17435   -17217 
  -17016   -17170   -17332   -16997   -16233   -15606   -15541   -16081 
  -16896   -17250   -16897   -16704   -17162   -17398   -17074   -17128 
  -17566   -17450   -17024   -17016   -17115   -17039   -17150   -17269 
  -17030   -16856   -17130   -17509   -17652   -17702   -17751   -17582 
  -17184   -16856   -16646   -16426   -16513   -17038   -17389   -17319 
  -17250   -17437   -17591   -17416   -17340   -17759   -18084   -17748 
  -17135   -16806   -16740   -16665   -16565   -16622   -16765   -16911 
  -17343   -17936   -17961   -17428   -17219   -17409   -17217   -16694 
  -16403   -16259   -16002   -15830   -15962   -16213   -16459   -16835 
  -17223   -17382   -17363   -17311   -17398   -17840   -18258   -18006 
  -17304   -16933   -17099   -17251   -16891   -16317   -16298   -16956 
  -17497   -17505   -17493   -17701   -17632   -17105   -16740   -16968 
  -17405   -17578   -17567   -17469   -17170   -16887   -17034   -17448 
  -17485   -17072   -16900   -17226   -17410   -17143   -16938   -16930 
  -16815   -16842   -17250   -17439   -17220   -17401   -17950   -18065 
  -17942   -18022   -17879   -17300   -16850   -16780   -16816   -16899 
  -17018   -17112   -17213   -17235   -17189   -17142   -16958   -16775 
  -16962   -17386   -17425   -16956   -16599   -16610   -16555   -16274 
  -16228   -16761   -17598   -18233   -18274   -17759   -17346   -17342 
  -17329   -17277   -17551   -17879   -17548   -16687   -16254   -16522 
  -16866   -16981   -17020   -16992   -16969   -17057   -16951   -16710 
  -16950   -17346   -17092   -16625   -16598   -16644   -16513   -16555 
  -16722   -16757   -16850   -16999   -16861   -16664   -16719   -16592 
  -16254   -16351   -16646   -16553   -16533   -17012   -17415   -17307 
  -17109   -17140   -17138   -17057   -17194   -17374   -17375   -17479 
  -17423   -16803   -16359   -16699   -17213   -17340   -17301   -17309 
  -17226   -17100   -17153   -17162   -16989   -17103   -17486   -17455 
  -16981   -16715   -16600   -16114   -15727   -16021   -16576   -16906 
  -17051   -17228   -17487   -17617   -17454   -17336   -17446   -17332 
  -16899   -16568   -16610   -16869   -17012   -17034   -17035   -17011 
  -17008   -17049   -17065   -17077   -17227   -17382   -17381   -17204 
  -16920   -16918   -17263   -17450   -17280   -17092   -17074   -17151 
  -17456   -17813   -17772   -17531   -17448   -17243   -16752   -16559 
  -16823   -16978   -17041   -17313   -17562   -17614   -17606   -17508 
  -17323   -17250   -17221   -17163   -17435   -17990   -17999   -17415 
  -17088   -17022   -16966   -17199   -17544   -17659   -17608   -17614 
  -17701   -17560   -17215   -17086   -17277   -17555   -17747   -17791 
  -17759   -17810   -17714   -17054   -16254   -16129   -16591   -17016 
  -17138   -17062   -17005   -17096   -17325   -17504   -17490   -17509 
  -17587   -17371   -17016   -17047   -17320   -17312   -16987   -16703 
  -16695   -16807   -16850   -16943   -17082   -17068   -16989   -16972 
  -16950   -17011   -17082   -16926   -16773   -16946   -17172   -17080 
  -16889   -16974   -17242   -17392   -17216   -16738   -16433   -16706 
  -17293   -17544   -17257   -16922   -16787   -16551   -16326   -16546 
  -17037   -17122   -16722   -16436   -16464   -16656   -16973   -17178 
  -17050   -16904   -17120   -17423   -17428   -17243   -17074   -16943 
  -16753   -16525   -16471   -16626   -16808   -16866   -16695   -16487 
  -16649   -17080   -17257   -17093   -17030   -17296   -17493   -17317 
