Origin Time       2024/04/02 04:24:00
Lat.              40.133
Long.             141.712
Depth. (km)       71
Mag.              6.0
Station Code      HKD056
Station Lat.      43.6705
Station Long.     143.5781
Station Height(m) 229
Record Time       2024/04/02 04:26:17
Sampling Freq(Hz) 100Hz
Duration Time(s)  60
Dir.              E-W
Scale Factor      7845(gal)/8223790
Max. Acc. (gal)   1.409
Last Correction   2024/04/02 04:26:18
Memo.             
[...]
    1161     1155     1201     1190     1183     1259     1335     1305 
    1220     1194     1209     1170     1109     1125     1196     1220 
    1216     1262     1333     1356     1359     1371     1329     1210 
    1116     1105     1123     1109     1093     1120     1182     1239 
    1296     1340     1320     1229     1148     1129     1127     1109 
    1128     1194     1223     1220     1278     1375     1372     1271 
    1213     1217     1175     1090     1067     1121     1166     1188 
    1255     1362     1413     1358     1270     1232     1213     1147 
    1101     1147     1205     1200     1205     1277     1324     1279 
    1225     1213     1171     1093     1084     1177     1270     1298 
    1306     1324     1301     1215     1134     1127     1182     1247 
    1273     1248     1189     1129     1086     1061     1074     1138 
    1201     1224     1239     1289     1327     1291     1224     1175 
    1127     1081     1082     1132     1188     1248     1317     1345 
    1305     1269     1289     1293     1227     1154     1140     1154 
    1161     1171     1170     1134     1109     1158     1255     1318 
    1323     1318     1336     1329     1259     1177     1139     1128 
    1115     1125     1186     1244     1251     1244     1262     1256 
    1182     1101     1086     1124     1171     1215     1237     1256 
    1279     1269     1220     1182     1163     1154     1167     1198 
    1224     1239     1267     1294     1278     1228     1198     1182 
    1142     1105     1120     1170     1210     1233     1236     1237 
    1254     1242     1190     1162     1170     1178     1212     1290 
    1323     1266     1223     1260     1282     1200     1105     1116 
    1179     1174     1127     1140     1217     1258     1215     1165 
    1170     1179     1165     1198     1291     1350     1347     1341 
    1314     1196     1053     1030     1107     1132     1111     1189 
    1344     1397     1327     1281     1278     1219     1129     1123 
    1178     1193     1154     1134     1140     1144     1165     1209 
    1232     1220     1223     1259     1277     1256     1232     1217 
    1201     1170     1132     1125     1162     1224     1298     1368 
    1385     1331     1260     1200     1120     1042     1031     1100 
    1197     1281     1355     1408     1389     1309     1247     1208 
    1147     1086     1075     1116     1174     1217     1235     1244 
    1267     1291     1298     1289     1263     1229     1196     1158 
    1138     1162     1206     1231     1244     1267     1297     1310 
    1283     1229     1196     1177     1144     1111     1105     1148 
    1231     1300     1324     1331     1327     1273     1165     1066 
    1028     1054     1111     1174     1246     1318     1360     1351 
    1312     1266     1204     1144     1128     1163     1208     1220 
    1229     1263     1274     1240     1220     1231     1223     1205 
    1232     1281     1287     1264     1244     1209     1155     1121 
    1129     1171     1219     1243     1266     1297     1301     1273 
    1248     1231     1208     1190     1183     1185     1198     1231 
    1248     1228     1205     1220     1229     1206     1196     1204 
    1181     1134     1117     1125     1121     1135     1188     1229 
    1236     1250     1264     1246     1210     1205     1229     1248 
    1244     1229     1201     1147     1107     1124     1167     1196 
    1220     1236     1216     1167     1121     1088     1077     1107 
    1148     1170     1197     1251     1293     1306     1308     1273 
    1186     1143     1192     1213     1155     1142     1220     1250 
    1177     1150     1217     1248     1204     1197     1259     1314 
    1339     1340     1306     1250     1202     1155     1109     1116 
    1189     1246     1217     1175     1227     1323     1320     1224 
    1165     1179     1166     1089     1074     1171     1247     1208 
    1163     1204     1224     1174     1177     1270     1327     1283 
    1201     1162     1186     1223     1219     1192     1192     1213 
    1198     1143     1125     1159     1177     1196     1291     1391 
    1359     1251     1210     1228     1225     1212     1225     1254 
    1262     1224     1181     1186     1223     1239     1225     1196 
    1190     1231     1259     1232     1200     1217     1246     1213 
    1135     1117     1192     1263     1287     1312     1344     1335 
    1275     1206     1146     1100     1101     1152     1205     1240 
    1269     1281     1259     1209     1154     1125     1139     1169 
    1206     1264     1314     1336     1324     1267     1188     1138 
    1123     1113     1121     1178     1263     1325     1324     1266 
    1209     1189     1169     1135     1138     1219     1331     1367 
    1293     1200     1156     1101     1011     1007     1124     1228 
    1255     1287     1352     1362     1282     1196     1159     1155 
    1148     1136     1147     1201     1278     1341     1375     1359 
    1270     1159     1100     1092     1111     1158     1239     1300 
    1293     1247     1217     1206     1189     1169     1159     1166 
    1185     1194     1183     1192     1244     1285     1274     1248 
    1244     1242     1224     1192     1146     1111     1127     1177 
    1206     1225     1256     1278     1252     1193     1156     1173 
    1215     1235     1210     1179     1188     1221     1235     1224 
    1225     1260     1294     1283     1247     1220     1212     1194 
    1151     1132     1179     1215     1175     1158     1220     1264 
    1258     1285     1340     1318     1212     1116     1075     1074 
    1108     1170     1217     1231     1221     1194     1170     1178 
    1192     1185     1190     1236     1296     1317     1274     1196 
    1159     1194     1232     1210     1178     1200     1243     1227 
    1170     1165     1220     1243     1220     1233     1300     1332 
    1278     1198     1165     1155     1125     1109     1170     1251 
    1247     1205     1223     1273     1296     1301     1297     1262 
    1197     1155     1174     1235     1297     1332     1314     1247 
    1183     1162     1148     1116     1127     1220     1321     1344 
    1321     1323     1306     1193     1032      957     1003     1085 
    1146     1215     1296     1317     1243     1128     1073     1102 
    1159     1206     1262     1325     1351     1308     1237     1181 
    1125     1080     1092     1163     1242     1298     1341     1366 
    1352     1291     1201     1143     1155     1177     1166     1190 
    1255     1270     1242     1255     1313     1304     1193     1108 
    1132     1177     1165     1146     1178     1212     1156     1050 
    1048     1173     1264     1262     1274     1340     1370     1336 
    1300     1266     1206     1169     1197     1239     1255     1264 
    1262     1227     1188     1166     1150     1147     1162     1179 
    1198     1231     1231     1156     1067     1044     1075     1127 
    1208     1309     1379     1375     1306     1225     1150     1073 
    1021     1043     1139     1260     1335     1344     1324     1289 
    1228     1161     1127     1125     1134     1171     1263     1336 
    1328     1291     1263     1209     1132     1100     1127     1181 
    1243     1304     1340     1325     1283     1267     1260     1209 
    1134     1112     1152     1200     1231     1260     1270     1236 
    1186     1161     1154     1159     1198     1240     1225     1181 
    1183     1217     1209     1154     1135     1193     1258     1271 
    1255     1263     1298     1285     1194     1121     1127     1159 
    1192     1250     1318     1344     1314     1255     1201     1159 
    1113     1088     1123     1208     1294     1354     1368     1344 
    1289     1201     1116     1066     1040     1048     1111     1186 
    1224     1221     1208     1212     1236     1243     1213     1202 
    1255     1333     1385     1389     1344     1267     1209     1196 
    1213     1239     1247     1209     1155     1144     1158     1148 
    1161     1219     1237     1177     1125     1151     1200     1212 
    1212     1228     1227     1196     1186     1240     1300     1286 
    1220     1200     1229     1242     1224     1232     1264     1247 
    1182     1140     1124     1111     1128     1174     1202     1198 
    1188     1182     1174     1174     1188     1178     1125     1096 
    1128     1169     1185     1212     1252     1270     1248     1220 
    1246     1306     1290     1177     1100     1119     1121     1073 
    1090     1215     1316     1308     1269     1282     1290     1220 
    1135     1129     1179     1217     1247     1293     1350     1390 
    1374     1301     1225     1201     1198     1138     1057     1075 
    1192     1285     1296     1287     1308     1306     1223     1100 
    1039     1047     1048     1058     1155     1289     1335     1309 
    1291     1269     1215     1169     1170     1223     1312     1386 
    1374     1291     1236     1220     1163     1071     1047     1108 
    1165     1181     1212     1267     1318     1348     1354     1323 
    1244     1161     1142     1194     1250     1266     1279     1321 
    1335     1278     1200     1146     1123     1144     1198     1232 
    1223     1196     1183     1165     1128     1129     1201     1285 
    1316     1293     1252     1236     1240     1215     1177     1200 
    1282     1327     1278     1204     1171     1139     1061     1013 
    1073     1179     1229     1219     1219     1271     1328     1306 
    1208     1123     1089     1081     1105     1185     1269     1291 
    1259     1196     1131     1094     1101     1132     1183     1267 
    1359     1368     1270     1171     1155     1156     1115     1097 
    1174     1291     1344     1328     1318     1312     1254     1169 
    1121     1120     1154     1206     1255     1282     1309     1327 
    1274     1158     1082     1098     1150     1173     1182     1233 
    1323     1352     1290     1239     1271     1301     1244     1186 
    1215     1246     1212     1217     1314     1358     1267     1186 
    1188     1161     1082     1069     1136     1189     1208     1244 
    1271     1237     1197     1220     1267     1266     1231     1204 
    1158     1071     1016     1067     1161     1189     1178     1197 
    1216     1173     1117     1134     1178     1169     1159     1250 
    1393     1449     1405     1352     1310     1209     1085     1067 
    1170     1279     1310     1286     1266     1259     1223     1173 
    1174     1202     1205     1223     1266     1264     1221     1229 
    1289     1308     1267     1228     1216     1213     1232     1289 
    1354     1389     1386     1355     1290     1198     1108     1038 
    1003     1005     1042     1123     1247     1344     1366     1355 
    1336     1252     1120     1063     1112     1147     1135     1177 
    1283     1345     1321     1271     1231     1174     1094     1038 
    1026     1013      996     1008     1038     1063     1125     1242 
    1355     1408     1432     1466     1456     1379     1317     1325 
    1329     1256     1165     1132     1116     1048      997     1066 
    1177     1188     1140     1181     1287     1314     1244     1210 
    1258     1314     1378     1497     1617     1660     1625     1529 
    1366     1139      892      697      621      661      760      891 
    1047     1171     1194     1140     1088     1082     1124     1220 
    1385     1572     1671     1644     1566     1489     1354     1139 
     940      843      837      876      943     1046     1169     1279 
    1359     1381     1332     1263     1244     1285     1367     1502 
    1653     1715     1629     1412     1115      819      619      545 
     610      826     1127     1358     1431     1404     1354     1279 
    1167     1074     1078     1171     1275     1372     1490     1591 
    1594     1493     1358     1221     1092     1000      961      935 
     884      839      882     1040     1223     1340     1404     1441 
    1386     1202     1015      973     1073     1206     1321     1426 
    1489     1452     1341     1208     1055      881      716      602 
     580      654      801     1012     1289     1576     1791     1885 
    1875     1765     1536     1205      876      719      854     1221 
    1634     1925     2006     1869     1552     1154      845      754 
     841      978     1125     1286     1398     1405     1339     1251 
    1124      911      623      349      202      282      625     1185 
    1807     2270     2427     2290     1937     1459     1012      747 
     685      738      847     1008     1178     1294     1339     1327 
    1290     1316     1471     1691     1852     1918     1906     1744 
    1371      909      542      324      241      305      507      841 
    1290     1760     2107     2228     2073     1645     1043      450 
      78       90      495     1101     1668     2043     2176     2085 
    1811     1386      918      583      502      691     1115     1640 
    2006     1995     1607     1048      546      241      229      546 
    1085     1633     2016     2176     2084     1695     1065      444 
      94       68      255      612     1175     1837     2367     2644 
    2689     2513     2091     1468      851      468      376      454 
     589      743      878      927      851      720      625      584 
     650      884     1260     1705     2076     2231     2133     1834 
    1431     1017      719      653      800     1107     1472     1755 
    1896     1865     1652     1327      993      791      785      853 
     859      843      873      926     1001     1165     1409     1598 
    1615     1466     1198      885      661      683      972     1331 
    1507     1417     1163      888      719      815     1227     1730 
    2052     2133     2008     1649     1089      548      298      448 
     885     1405     1833     2060     2023     1695     1136      521 
      68      -83       86      537     1154     1721     2045     2124 
    2043     1783     1316      778      365      203      346      773 
    1362     1911     2235     2265     2041     1651     1206      881 
     846     1109     1502     1814     1912     1784     1502     1161 
     864      700      688      788      982     1223     1371     1359 
    1273     1166      986      758      569      445      413      552 
     884     1320     1711     1937     1976     1860     1583     1197 
     905      888     1134     1503     1857     2091     2106     1821 
    1270      650      198       31      143      491     1000     1480 
    1728     1705     1544     1372     1210     1032      870      827 
     954     1188     1421     1607     1721     1691     1470     1150 
     909      800      735      715      849     1152     1522     1880 
    2160     2254     2120     1784     1306      849      602      616 
     827     1162     1462     1580     1587     1602     1561     1372 
    1111      909      822      866     1030     1224     1328     1279 
    1117      957      885      876      857      834      876     1000 
    1190     1408     1552     1528     1360     1163      996      862 
     827      930     1065     1134     1177     1236     1263     1254 
    1298     1435     1548     1503     1329     1154     1020      895 
     803      835     1005     1210     1368     1505     1630     1683 
    1588     1335      994      684      517      556      826     1281 
    1771     2131     2241     2053     1645     1219      923      761 
     749      974     1401     1822     2038     1976     1640     1112 
     599      319      319      507      818     1170     1406     1449 
    1410     1389     1363     1297     1212     1112     1021     1021 
    1178     1463     1783     2018     2043     1813     1420     1028 
     702      426      255      303      569      880     1077     1140 
    1136     1144     1201     1312     1449     1537     1498     1316 
    1082      945      976     1115     1252     1310     1267     1120 
     912      783      870     1175     1544     1787     1865     1911 
    1960     1881     1641     1366     1156     1007      899      842 
     827      843      920     1085     1285     1391     1309     1070 
     807      638      610      727      977     1285     1556     1759 
    1888     1890     1729     1468     1217      985      723      517 
     550      841     1229     1595     1880     1958     1749     1393 
    1116     1021     1082     1239     1417     1513     1476     1363 
    1258     1204     1175     1127     1061     1008      972      949 
     981     1085     1196     1254     1270     1243     1120      945 
     859      920     1054     1204     1360     1478     1495     1452 
    1439     1448     1405     1312     1266     1281     1237     1097 
     955      911      967     1074     1181     1274     1348     1378 
    1348     1297     1270     1247     1196     1174     1216     1235 
    1161     1070     1065     1082     1017      926      930      997 
    1005      972     1009     1112     1201     1296     1420     1468 
    1383     1306     1328     1344     1283     1212     1162     1112 
    1084     1134     1236     1312     1337     1331     1252     1071 
     903      909     1084     1274     1417     1553     1655     1591 
    1336     1039      828      710      706      884     1209     1533 
    1756     1863     1825     1599     1252      924      685      552 
     571      773     1094     1429     1714     1934     2037     1952 
    1690     1356     1057      859      816      935     1175     1425 
    1532     1412     1138      820      545      399      456      681 
     938     1113     1209     1300     1429     1549     1560     1455 
    1348     1306     1300     1337     1456     1574     1525     1279 
     982      749      608      611      814     1166     1524     1772 
    1877     1822     1587     1255      967      791      743      888 
    1212     1528     1636     1545     1413     1318     1283     1347 
    1467     1520     1470     1402     1371     1327     1216     1058 
     918      828      772      722      719      837     1043     1227 
    1339     1404     1385     1246     1074      990     1023     1156 
    1358     1544     1647     1651     1537     1327     1090      913 
     846      903     1058     1251     1395     1429     1358     1250 
    1198     1242     1314     1328     1260     1144     1017      904 
     839      881     1019     1183     1352     1501     1552     1456 
    1244      999      807      707      730      907     1208     1528 
    1769     1891     1890     1752     1517     1302     1185     1147 
    1173     1232     1252     1196     1125     1115     1151     1179 
    1204     1227     1200     1123     1055     1032     1057     1113 
    1175     1231     1267     1252     1212     1216     1304     1431 
    1494     1426     1260     1104     1077     1220     1444     1626 
    1692     1641     1509     1320     1084      824      614      538 
