Origin Time       2024/04/02 04:24:00
Lat.              40.133
Long.             141.712
Depth. (km)       71
Mag.              6.0
Station Code      HKD090
Station Lat.      43.1213
Station Long.     143.6183
Station Height(m) 65
Record Time       2024/04/02 04:26:03
Sampling Freq(Hz) 100Hz
Duration Time(s)  62
Dir.              N-S
Scale Factor      7845(gal)/8223790
Max. Acc. (gal)   4.727
Last Correction   2024/04/02 04:26:04
Memo.             
[...]
  -15082   -15195   -15095   -14928   -14866   -14868   -14825   -14773 
  -14825   -14978   -15136   -15255   -15333   -15310   -15126   -14864 
  -14658   -14521   -14463   -14539   -14671   -14747   -14785   -14845 
  -14971   -15182   -15345   -15314   -15171   -15066   -14985   -14868 
  -14786   -14813   -14898   -14947   -14925   -14860   -14845   -14953 
  -15133   -15248   -15230   -15120   -15059   -15159   -15287   -15198 
  -14867   -14513   -14378   -14478   -14601   -14662   -14740   -14793 
  -14828   -14971   -15145   -15190   -15141   -15132   -15168   -15137 
  -14953   -14733   -14705   -14812   -14829   -14831   -14993   -15178 
  -15206   -15140   -15075   -14991   -14879   -14759   -14650   -14621 
  -14712   -14829   -14920   -15002   -15014   -14925   -14852   -14908 
  -15026   -15118   -15229   -15338   -15314   -15159   -14968   -14755 
  -14540   -14423   -14415   -14470   -14670   -15001   -15207   -15191 
  -15114   -15037   -14952   -14947   -15030   -15055   -14978   -14929 
  -14975   -14987   -14839   -14604   -14497   -14573   -14686   -14827 
  -15094   -15396   -15564   -15620   -15649   -15596   -15383   -15102 
  -14921   -14848   -14783   -14659   -14500   -14418   -14463   -14550 
  -14634   -14762   -14929   -15076   -15175   -15248   -15309   -15327 
  -15294   -15202   -15048   -14872   -14713   -14601   -14623   -14787 
  -14937   -14912   -14742   -14625   -14708   -14895   -14972   -14962 
  -15079   -15307   -15411   -15334   -15201   -15041   -14835   -14671 
  -14631   -14643   -14611   -14615   -14812   -15113   -15259   -15222 
  -15209   -15249   -15159   -14874   -14550   -14341   -14310   -14432 
  -14642   -14899   -15140   -15248   -15218   -15156   -15118   -15060 
  -14893   -14720   -14781   -14978   -15026   -14995   -15055   -15075 
  -14978   -14943   -15059   -15137   -15070   -15053   -15213   -15317 
  -15160   -14910   -14782   -14679   -14505   -14461   -14638   -14813 
  -14843   -14835   -14956   -15211   -15398   -15371   -15257   -15188 
  -15064   -14818   -14607   -14535   -14512   -14469   -14497   -14709 
  -15056   -15322   -15360   -15300   -15311   -15349   -15287   -15079 
  -14821   -14662   -14616   -14547   -14423   -14422   -14659   -15014 
  -15326   -15537   -15587   -15454   -15222   -15025   -14918   -14814 
  -14627   -14397   -14234   -14226   -14409   -14689   -14932   -15133 
  -15309   -15419   -15480   -15542   -15549   -15396   -15115   -14862 
  -14700   -14542   -14362   -14291   -14365   -14431   -14470   -14683 
  -15118   -15523   -15693   -15712   -15745   -15738   -15516   -15068 
  -14597   -14326   -14268   -14239   -14172   -14250   -14555   -14871 
  -15049   -15182   -15321   -15345   -15179   -14980   -14943   -15059 
  -15179   -15196   -15151   -15082   -14958   -14809   -14705   -14671 
  -14702   -14725   -14717   -14778   -14893   -14914   -14856   -14918 
  -15106   -15176   -15067   -14976   -14985   -14967   -14854   -14767 
  -14836   -14962   -15014   -15066   -15153   -15125   -14952   -14833 
  -14832   -14781   -14677   -14747   -15012   -15156   -15070   -14990 
  -14998   -14916   -14720   -14619   -14733   -14922   -14980   -14929 
  -14898   -14908   -14937   -14976   -14978   -14910   -14848   -14887 
  -14976   -14951   -14809   -14748   -14845   -14997   -15101   -15133 
  -15099   -15025   -14940   -14870   -14860   -14949   -15044   -15067 
  -15156   -15346   -15381   -15157   -14931   -14840   -14728   -14578 
  -14520   -14484   -14389   -14420   -14724   -15115   -15310   -15280 
  -15249   -15360   -15550   -15664   -15562   -15260   -14901   -14590 
  -14364   -14265   -14342   -14540   -14725   -14866   -15032   -15219 
  -15350   -15299   -15044   -14843   -14932   -15133   -15179   -15111 
  -15057   -14976   -14816   -14651   -14538   -14473   -14520   -14697 
  -14910   -15098   -15192   -15160   -15126   -15214   -15311   -15284 
  -15228   -15190   -15041   -14805   -14661   -14608   -14528   -14484 
  -14632   -14921   -15111   -15110   -15057   -15036   -14968   -14856 
  -14841   -14922   -14868   -14702   -14774   -15060   -15148   -15043 
  -15043   -15040   -14777   -14473   -14531   -14831   -14972   -14958 
  -15067   -15319   -15449   -15310   -15040   -14867   -14840   -14837 
  -14844   -14893   -14918   -14966   -15130   -15252   -15145   -14989 
  -14998   -15022   -14905   -14875   -15083   -15265   -15257   -15182 
  -15056   -14864   -14779   -14840   -14836   -14683   -14566   -14632 
  -14812   -14982   -15090   -15132   -15102   -15028   -15030   -15136 
  -15102   -14870   -14728   -14700   -14594   -14566   -14771   -14933 
  -14854   -14844   -15132   -15369   -15238   -14991   -14944   -15025 
  -15024   -14895   -14715   -14567   -14561   -14719   -14898   -14943 
  -14868   -14879   -15098   -15311   -15238   -14971   -14797   -14746 
  -14709   -14713   -14777   -14875   -15056   -15252   -15315   -15292 
  -15269   -15194   -15045   -14843   -14636   -14593   -14797   -15075 
  -15171   -15034   -14898   -14978   -15132   -15051   -14759   -14613 
  -14751   -14924   -14877   -14607   -14332   -14304   -14570   -14956 
  -15273   -15427   -15414   -15315   -15238   -15156   -14980   -14808 
  -14779   -14773   -14678   -14692   -14889   -15051   -15087   -15115 
  -15203   -15298   -15325   -15265   -15098   -14843   -14667   -14632 
  -14569   -14450   -14467   -14669   -14872   -14970   -15029   -15155 
  -15296   -15295   -15178   -15118   -15029   -14715   -14369   -14331 
  -14497   -14617   -14843   -15336   -15799   -15900   -15750   -15597 
  -15419   -15043   -14530   -14234   -14326   -14528   -14651   -14848 
  -15067   -15071   -15018   -15105   -15084   -14818   -14640   -14781 
  -15045   -15167   -15087   -14932   -14790   -14597   -14434   -14515 
  -14739   -14859   -14925   -15052   -15132   -15099   -15164   -15375 
  -15411   -15180   -15025   -15049   -14914   -14494   -14153   -14208 
  -14562   -14936   -15211   -15407   -15525   -15568   -15522   -15319 
  -14921   -14461   -14193   -14243   -14450   -14566   -14608   -14731 
  -14941   -15209   -15476   -15538   -15326   -15101   -15034   -14997 
  -14886   -14740   -14601   -14530   -14589   -14760   -14980   -15136 
  -15138   -15121   -15294   -15531   -15515   -15246   -14983   -14785 
  -14558   -14440   -14559   -14742   -14814   -14863   -15001   -15174 
  -15261   -15252   -15211   -15134   -14967   -14785   -14782   -14905 
  -14883   -14806   -14926   -15118   -15167   -15122   -15063   -14980 
  -14914   -14905   -14870   -14755   -14688   -14760   -14859   -14871 
  -14816   -14756   -14833   -15090   -15279   -15276   -15287   -15327 
  -15217   -14985   -14770   -14539   -14312   -14250   -14374   -14619 
  -15029   -15465   -15610   -15461   -15234   -14966   -14663   -14515 
  -14566   -14612   -14693   -15034   -15457   -15615   -15498   -15269 
  -15102   -15155   -15286   -15134   -14702   -14396   -14400   -14472 
  -14434   -14440   -14609   -14791   -14916   -15136   -15412   -15435 
  -15196   -15037   -15057   -15053   -14980   -14960   -14982   -14909 
  -14754   -14740   -14909   -14980   -14856   -14810   -14926   -14937 
  -14773   -14686   -14754   -14805   -14767   -14755   -14882   -15109 
  -15282   -15307   -15268   -15259   -15226   -15111   -14914   -14651 
  -14461   -14547   -14813   -14920   -14816   -14773   -14901   -15002 
  -14899   -14724   -14787   -15130   -15390   -15396   -15410   -15430 
  -15179   -14850   -14806   -14829   -14600   -14361   -14418   -14662 
  -14905   -15107   -15245   -15330   -15334   -15155   -14862   -14635 
  -14530   -14542   -14678   -14839   -14913   -14989   -15115   -15110 
  -14960   -14827   -14756   -14824   -15055   -15230   -15199   -15068 
  -14944   -14898   -15037   -15202   -15079   -14778   -14619   -14596 
  -14567   -14580   -14725   -14959   -15183   -15371   -15496   -15493 
  -15300   -14975   -14683   -14467   -14280   -14230   -14428   -14736 
  -14976   -15134   -15169   -15032   -14886   -14921   -15075   -15191 
  -15190   -15057   -14936   -15028   -15259   -15325   -15120   -14804 
  -14554   -14472   -14534   -14632   -14723   -14783   -14820   -14970 
  -15169   -15133   -14910   -14840   -14943   -14982   -14926   -14921 
  -14987   -15041   -15028   -14976   -14949   -14931   -14864   -14779 
  -14769   -14870   -15052   -15276   -15429   -15338   -15106   -15030 
  -15088   -14983   -14735   -14701   -14964   -15191   -15201   -15201 
  -15205   -14944   -14532   -14436   -14662   -14793   -14812   -15087 
  -15534   -15591   -15214   -15048   -15287   -15306   -14774   -14261 
  -14274   -14575   -14829   -14999   -15039   -14982   -14990   -15047 
  -15020   -14937   -14941   -15043   -15076   -14983   -14891   -14828 
  -14705   -14546   -14482   -14613   -14940   -15309   -15484   -15383 
  -15093   -14802   -14750   -14886   -14914   -14796   -14759   -14891 
  -15109   -15315   -15434   -15406   -15229   -14987   -14837   -14831 
  -14817   -14692   -14638   -14844   -15107   -15107   -14985   -15043 
  -15105   -14908   -14667   -14602   -14531   -14400   -14459   -14752 
  -15051   -15219   -15326   -15492   -15599   -15376   -14937   -14710 
  -14728   -14709   -14689   -14848   -15024   -14956   -14786   -14821 
  -14979   -14953   -14798   -14797   -14905   -14886   -14813   -14883 
  -15002   -15033   -15040   -15072   -15114   -15178   -15232   -15172 
  -14956   -14698   -14519   -14457   -14527   -14648   -14735   -14823 
  -14940   -15097   -15267   -15311   -15218   -15153   -15151   -15063 
  -14848   -14721   -14774   -14787   -14760   -14945   -15218   -15272 
  -15242   -15319   -15245   -14871   -14497   -14384   -14544   -14786 
  -14863   -14883   -15138   -15485   -15576   -15411   -15141   -14808 
  -14598   -14719   -14955   -14979   -14809   -14635   -14620   -14781 
  -14924   -14953   -14952   -14951   -14951   -15021   -15183   -15314 
  -15269   -15105   -14999   -14999   -14983   -14804   -14457   -14181 
  -14185   -14327   -14380   -14484   -14782   -15018   -15107   -15330 
  -15670   -15739   -15441   -15087   -14882   -14750   -14602   -14538 
  -14675   -14875   -14937   -14974   -15093   -15093   -14885   -14700 
  -14732   -14937   -15129   -15244   -15394   -15545   -15449   -15098 
  -14705   -14335   -13995   -13805   -13896   -14324   -14928   -15387 
  -15585   -15662   -15734   -15788   -15741   -15549   -15226   -14750 
  -14215   -13911   -13940   -14122   -14284   -14485   -14904   -15457 
  -15865   -16079   -16159   -16048   -15719   -15272   -14786   -14277 
  -13922   -13963   -14224   -14293   -14168   -14189   -14507   -14931 
  -15229   -15410   -15577   -15697   -15730   -15720   -15619   -15372 
  -15128   -14944   -14665   -14361   -14292   -14462   -14635   -14589 
  -14270   -13868   -13682   -13896   -14430   -15014   -15529   -16141 
  -16981   -17716   -17697   -16756   -15477   -14482   -13878   -13456 
  -13143   -13197   -13910   -15087   -16039   -16235   -15774   -15084 
  -14509   -14245   -14268   -14373   -14485   -14740   -15174   -15646 
  -16012   -16135   -15982   -15736   -15489   -15005   -14260   -13609 
  -13223   -13088   -13267   -13710   -14254   -14841   -15462   -15974 
  -16160   -15927   -15290   -14497   -14065   -14216   -14638   -15106 
  -15673   -16216   -16452   -16320   -15876   -15141   -14380   -13932 
  -13830   -13991   -14407   -14948   -15337   -15423   -15303   -15084 
  -14764   -14409   -14330   -14867   -15921   -16853   -17068   -16522 
  -15574   -14553   -13668   -13154   -13171   -13578   -14073   -14481 
  -14793   -15084   -15307   -15210   -14775   -14449   -14562   -14941 
  -15435   -16077   -16610   -16696   -16332   -15516   -14195   -12802 
  -12024   -11965   -12191   -12588   -13537   -15167   -16935   -18107 
  -18418   -18200   -17768   -16924   -15406   -13505   -11951   -11425 
  -12172   -13765   -15392   -16475   -16835   -16540   -15805   -14727 
  -13375   -12299   -12216   -13317   -15263   -17313   -18553   -18620 
  -17871   -16722   -15365   -14037   -13028   -12536   -12672   -13406 
  -14422   -15141   -15060   -14251   -13413   -13258   -13973   -15261 
  -16594   -17474   -17717   -17324   -16129   -14188   -12352   -11623 
  -12136   -13304   -14666   -16114   -17289   -17552   -16856   -15925 
  -15344   -14883   -14142   -13387   -13120   -13440   -14237   -15198 
  -15750   -15612   -15066   -14562   -14354   -14432   -14674   -15034 
  -15610   -16266   -16509   -16214   -15838   -15576   -15169   -14531 
  -13863   -13320   -13008   -13008   -13209   -13558   -14297   -15558 
  -17076   -18370   -18806   -18009   -16459   -14894   -13470   -12186 
  -11375   -11298   -11961   -13306   -15094   -16772   -17759   -17888 
  -17463   -16881   -16258   -15383   -14249   -13351   -13041   -13146 
  -13443   -13848   -14266   -14608   -14732   -14701   -15002   -15831 
  -16642   -16995   -17096   -17078   -16667   -15785   -14702   -13549 
  -12322   -11381   -11330   -12285   -13705   -15063   -16303   -17471 
  -18171   -18026   -17294   -16374   -15313   -14145   -13181   -12798 
  -13176   -14156   -15165   -15564   -15283   -14743   -14284   -14118 
  -14458   -15298   -16237   -16877   -17116   -16941   -16212   -14855 
  -13219   -11996   -11620   -12032   -13066   -14577   -15974   -16460 
  -16069   -15414   -14604   -13729   -13518   -14407   -15957   -17404 
  -18126   -18002   -17481   -16704   -15147   -12833   -10852   -10120 
  -10613   -12006   -14192   -16842   -19056   -19894   -19122   -17323 
  -15314   -13531   -12229   -11794   -12313   -13427   -14829   -16308 
  -17379   -17456   -16371   -14677   -13269   -12695   -12942   -13801 
  -15034   -16137   -16534   -16116   -15190   -14148   -13327   -12874 
  -12893   -13608   -14964   -16433   -17447   -17767   -17404   -16522 
  -15502   -14688   -14166   -13973   -14116   -14436   -14806   -15039 
  -14791   -14127   -13579   -13505   -13899   -14484   -14816   -14814 
  -14987   -15670   -16403   -16691   -16808   -16960   -16591   -15414 
  -14073   -13360   -13379   -13711   -14161   -14858   -15676   -16147 
  -16043   -15611   -15067   -14374   -13718   -13358   -13197   -13323 
  -14127   -15469   -16702   -17328   -17095   -16054   -14640   -13351 
  -12582   -12571   -13104   -13767   -14698   -16276   -17926   -18438 
  -17543   -16036   -14598   -13429   -12676   -12484   -12749   -13240 
  -13942   -14945   -15988   -16578   -16775   -17070   -17329   -16961 
  -16090   -15334   -14742   -13999   -13227   -12841   -12943   -13177 
  -13184   -13185   -13760   -14890   -15789   -15962   -15754   -15669 
  -15834   -16140   -16425   -16540   -16384   -15893   -15125   -14377 
  -13914   -13689   -13648   -13963   -14651   -15369   -15915   -16417 
  -16677   -16104   -14797   -13771   -13639   -13883   -13944   -14098 
  -14644   -15222   -15379   -15086   -14686   -14554   -14751   -15161 
  -15619   -15774   -15329   -14527   -14038   -14129   -14403   -14519 
  -14515   -14504   -14679   -15241   -16000   -16432   -16274   -15812 
  -15480   -15325   -15021   -14385   -13765   -13772   -14413   -14856 
  -14519   -13830   -13498   -13755   -14477   -15464   -16448   -17177 
  -17481   -17208   -16390   -15322   -14312   -13471   -12806   -12403 
  -12568   -13614   -15321   -16881   -17693   -17809   -17466   -16692 
  -15627   -14621   -13711   -12684   -11777   -11538   -11974   -12614 
  -13386   -14686   -16413   -17755   -18065   -17482   -16663   -16117 
  -15843   -15437   -14561   -13505   -12955   -13120   -13548   -13859 
  -14085   -14397   -14953   -15774   -16492   -16605   -16042   -15252 
  -14640   -14191   -13782   -13568   -13757   -14223   -14728   -15333 
  -16038   -16519   -16719   -16895   -16987   -16665   -15789   -14490 
  -13088   -12015   -11538   -11646   -12228   -13261   -14744   -16398 
  -17639   -18193   -18345   -18256   -17652   -16456   -15040   -13786 
  -12972   -12708   -12735   -12704   -12640   -12872   -13602   -14642 
  -15546   -16101   -16488   -16853   -17101   -16965   -16297   -15385 
  -14659   -14253   -13998   -13566   -12958   -12695   -13085   -13830 
  -14604   -15414   -16177   -16650   -16819   -16745   -16332   -15576 
  -14716   -13986   -13431   -13073   -13107   -13764   -14925   -16048 
  -16656   -16713   -16488   -16248   -16006   -15538   -14685   -13635 
  -12847   -12696   -13153   -13818   -14357   -14905   -15669   -16438 
  -16974   -17196   -16892   -16116   -15483   -15294   -15041   -14297 
  -13354   -12745   -12704   -13081   -13552   -14040   -14790   -15766 
  -16418   -16403   -16013   -15687   -15576   -15529   -15291   -14943 
  -14787   -14700   -14361   -13856   -13447   -13221   -13220   -13508 
  -14031   -14640   -15348   -16191   -17008   -17540   -17590   -17226 
  -16703   -16096   -15377   -14677   -14154   -13921   -14008   -14196 
  -14237   -14153   -14046   -13990   -14166   -14708   -15381   -15795 
  -15903   -15892   -15723   -15261   -14535   -13718   -13073   -12901 
  -13366   -14185   -14881   -15412   -15946   -16329   -16386   -16168 
  -15832   -15485   -15056   -14490   -14042   -14034   -14442   -14958 
  -15341   -15549   -15504   -15156   -14809   -14716   -14624   -14332 
  -14069   -14035   -14237   -14652   -15071   -15165   -14962   -14662 
  -14245   -13892   -14127   -15040   -16198   -17315   -18171   -18266 
  -17377   -15931   -14469   -13234   -12268   -11614   -11542   -12370 
  -13846   -15229   -16059   -16478   -16722   -16634   -16096   -15583 
  -15523   -15650   -15556   -15175   -14632   -14089   -13621   -13217 
  -13004   -13220   -13894   -14774   -15538   -15957   -16066   -16171 
  -16428   -16648   -16650   -16526   -16297   -15688   -14643   -13535 
  -12636   -12009   -11843   -12318   -13294   -14435   -15541   -16553 
  -17397   -17853   -17564   -16551   -15465   -14818   -14492   -14251 
  -14094   -14152   -14611   -15329   -15688   -15322   -14544   -13837 
  -13535   -13780   -14292   -14670   -14912   -15198   -15429   -15375 
  -15101   -14939   -15076   -15444   -15917   -16351   -16517   -16294 
  -15808   -15191   -14415   -13545   -12839   -12583   -12928   -13745 
  -14631   -15202   -15417   -15504   -15618   -15703   -15618   -15364 
  -15226   -15354   -15387   -14966   -14368   -14150   -14385   -14728 
  -15029   -15329   -15522   -15504   -15350   -15196   -15115   -15082 
  -15093   -15133   -14983   -14485   -13917   -13656   -13714   -13890 
  -14168   -14656   -15257   -15788   -16278   -16656   -16610   -16009 
  -15045   -14083   -13471   -13273   -13285   -13404   -13713   -14234 
  -14808   -15298   -15699   -15951   -16008   -16063   -16286   -16465 
  -16359   -16079   -15858   -15626   -15138   -14378   -13609   -13085 
  -12854   -12870   -13217   -13936   -14829   -15688   -16395   -16838 
  -16991   -16884   -16397   -15453   -14312   -13389   -12916   -12922 
  -13385   -14183   -15055   -15796   -16299   -16448   -16159   -15465 
  -14634   -14054   -13836   -13774   -13810   -14133   -14751   -15379 
  -15867   -16229   -16212   -15635   -14941   -14752   -15047   -15310 
  -15334   -15310   -15318   -15222   -14860   -14296   -13925   -14046 
  -14423   -14658   -14710   -14778   -14960   -15229   -15522   -15832 
  -16120   -16224   -15977   -15429   -14796   -14191   -13684   -13450 
