Origin Time       2024/04/02 04:24:00
Lat.              40.133
Long.             141.712
Depth. (km)       71
Mag.              6.0
Station Code      HKD066
Station Lat.      43.6619
Station Long.     145.1307
Station Height(m) 3
Record Time       2024/04/02 04:26:29
Sampling Freq(Hz) 100Hz
Duration Time(s)  70
Dir.              E-W
Scale Factor      7845(gal)/8223790
Max. Acc. (gal)   4.033
Last Correction   2024/04/02 04:26:29
Memo.             
[...]
    5162     5113     5061     5055     5107     5151     5139     5084 
    5053     5078     5090     5074     5103     5173     5224     5225 
    5185     5143     5111     5076     5059     5054     5036     5039 
    5055     5054     5046     5035     5011     4968     4903     4854 
    4834     4819     4827     4866     4928     5020     5098     5148 
    5212     5273     5302     5305     5285     5293     5341     5382 
    5390     5351     5278     5232     5208     5161     5094     5022 
    4959     4916     4869     4830     4810     4797     4803     4830 
    4865     4888     4893     4916     4978     5062     5136     5161 
    5146     5142     5143     5130     5121     5117     5093     5070 
    5088     5113     5094     5054     5032     5022     5004     5004 
    5040     5088     5113     5128     5177     5263     5328     5331 
    5301     5293     5309     5302     5274     5239     5194     5136 
    5071     5036     5013     4927     4811     4779     4853     4958 
    5015     5030     5069     5123     5166     5197     5196     5189 
    5215     5224     5209     5188     5139     5085     5044     5007 
    4977     4955     4954     4972     4947     4893     4878     4897 
    4909     4914     4941     4997     5031     5046     5086     5127 
    5138     5140     5135     5139     5175     5216     5221     5201 
    5202     5215     5198     5186     5208     5235     5242     5213 
    5162     5128     5111     5111     5130     5132     5124     5128 
    5128     5120     5090     5044     5032     5073     5128     5142 
    5111     5107     5148     5163     5139     5120     5132     5184 
    5220     5206     5182     5143     5049     4928     4853     4853 
    4874     4889     4923     4950     4946     4947     4959     4949 
    4918     4928     5019     5116     5143     5144     5166     5189 
    5174     5101     5036     5032     5044     5057     5077     5092 
    5112     5121     5113     5125     5139     5125     5120     5135 
    5158     5188     5219     5256     5285     5290     5294     5287 
    5254     5224     5219     5223     5197     5123     5042     4982 
    4908     4811     4722     4656     4627     4650     4722     4818 
    4928     5012     5049     5100     5178     5196     5144     5085 
    5054     5054     5035     4993     4986     5023     5086     5151 
    5161     5136     5123     5107     5081     5047     5012     5009 
    5034     5063     5103     5108     5076     5066     5069     5067 
    5076     5084     5115     5169     5198     5219     5247     5240 
    5197     5167     5188     5211     5171     5130     5146     5171 
    5154     5113     5107     5139     5150     5119     5062     4985 
    4923     4930     4973     4984     4977     4996     5019     5011 
    4995     4999     5015     5059     5166     5290     5336     5294 
    5236     5211     5196     5144     5062     5007     5001     5012 
    5005     5004     5051     5134     5181     5196     5238     5277 
    5269     5229     5174     5124     5100     5055     4963     4872 
    4833     4837     4828     4811     4830     4866     4918     4997 
    5054     5094     5201     5320     5343     5289     5247     5252 
    5248     5206     5179     5171     5162     5166     5162     5171 
    5235     5286     5285     5286     5304     5281     5212     5146 
    5101     5058     5026     5044     5088     5103     5088     5050 
    4985     4920     4858     4783     4725     4714     4735     4776 
    4811     4864     4980     5111     5185     5216     5236     5296 
    5377     5393     5343     5290     5239     5186     5140     5090 
    5034     4999     5024     5051     4989     4912     4916     4911 
    4835     4770     4765     4801     4846     4880     4912     4957 
    5047     5189     5290     5302     5270     5223     5196     5182 
    5131     5080     5097     5163     5215     5216     5208     5220 
    5219     5188     5139     5069     5005     4973     4977     5042 
    5154     5239     5267     5279     5274     5224     5142     5080 
    5063     5059     5026     4992     5011     5059     5089     5094 
    5090     5089     5109     5147     5173     5159     5116     5074 
    5040     5019     4990     4941     4914     4926     4909     4873 
    4857     4846     4827     4803     4803     4850     4884     4887 
    4888     4903     5003     5162     5252     5290     5350     5378 
    5347     5323     5343     5366     5352     5343     5354     5350 
    5343     5339     5297     5228     5158     5067     4963     4905 
    4869     4815     4768     4753     4787     4868     4942     5012 
    5125     5263     5383     5436     5398     5327     5251     5167 
    5121     5116     5134     5192     5251     5285     5302     5259 
    5159     5063     4999     4981     4981     4946     4897     4837 
    4768     4750     4780     4820     4860     4874     4884     4928 
    4990     5053     5104     5150     5204     5229     5227     5243 
    5266     5258     5221     5170     5143     5154     5154     5103 
    5043     5046     5117     5171     5147     5084     5058     5089 
    5112     5094     5093     5125     5135     5109     5093     5113 
    5161     5189     5170     5155     5190     5213     5185     5130 
    5067     5044     5066     5065     5062     5098     5134     5142 
    5119     5059     5003     4973     4950     4916     4880     4858 
    4864     4893     4938     4963     4984     5053     5139     5189 
    5217     5224     5194     5154     5121     5089     5065     5028 
    4970     4919     4888     4866     4873     4923     5015     5112 
    5166     5179     5158     5089     5016     4984     4978     5005 
    5036     5024     5022     5077     5127     5140     5125     5111 
    5135     5138     5073     5034     5058     5105     5155     5217 
    5297     5331     5275     5213     5185     5148     5101     5057 
    5030     5022     4974     4892     4845     4851     4891     4934 
    4996     5100     5204     5254     5221     5117     5023     4996 
    5004     5007     5030     5103     5184     5239     5301     5354 
    5323     5221     5155     5152     5157     5147     5155     5196 
    5246     5283     5301     5294     5262     5221     5171     5089 
    4981     4885     4823     4808     4850     4918     4969     4996 
    5007     5023     5057     5089     5094     5078     5092     5139 
    5140     5115     5134     5151     5119     5073     5036     5024 
    5040     5059     5076     5092     5124     5163     5161     5131 
    5098     5047     5020     5053     5076     5022     4928     4873 
    4888     4951     4985     4962     4955     4992     5030     5054 
    5050     5016     5012     5070     5165     5269     5374     5481 
    5555     5568     5537     5470     5394     5340     5285     5235 
    5193     5108     4981     4858     4757     4696     4683     4704 
    4756     4846     4968     5062     5090     5117     5163     5201 
    5256     5319     5340     5339     5328     5270     5163     5055 
    4955     4834     4734     4707     4714     4738     4797     4861 
    4912     4970     5026     5038     5022     5038     5070     5073 
    5067     5085     5148     5239     5289     5285     5287     5320 
    5354     5347     5309     5275     5221     5138     5063     5005 
    4966     4955     4982     5080     5208     5297     5324     5279 
    5193     5130     5077     4996     4915     4893     4924     4932 
    4889     4845     4816     4797     4808     4827     4837     4873 
    4945     5004     5030     5049     5077     5080     5038     5016 
    5073     5138     5127     5101     5128     5179     5209     5212 
    5208     5215     5213     5193     5158     5119     5076     5011 
    4954     4972     5036     5104     5175     5251     5312     5301 
    5208     5130     5084     5015     4968     4984     5028     5067 
    5065     5043     5065     5094     5098     5130     5196     5254 
    5282     5293     5314     5335     5305     5201     5073     5000 
    4997     5004     4992     4976     4969     4980     5003     5028 
    5062     5092     5092     5093     5138     5173     5159     5121 
    5084     5066     5051     4995     4951     4976     5012     5038 
    5076     5131     5201     5242     5224     5209     5202     5139 
    5044     5009     5031     5047     5053     5059     5046     5019 
    4992     4949     4912     4909     4938     4995     5080     5173 
    5256     5333     5416     5476     5487     5441     5363     5304 
    5267     5211     5154     5125     5086     5009     4934     4882 
    4828     4772     4756     4770     4796     4847     4899     4942 
    5000     5071     5138     5185     5190     5198     5254     5323 
    5359     5350     5310     5255     5185     5128     5098     5058 
    5017     4996     4973     4980     5039     5085     5090     5080 
    5080     5104     5113     5077     5023     4980     4966     4974 
    4949     4899     4904     4959     4970     4926     4892     4908 
    4953     5007     5076     5157     5213     5246     5263     5247 
    5213     5181     5151     5134     5096     4990     4870     4819 
    4850     4903     4939     5003     5108     5185     5200     5188 
    5184     5196     5184     5150     5134     5147     5215     5323 
    5412     5458     5463     5435     5382     5314     5250     5185 
    5121     5077     5016     4897     4780     4704     4645     4627 
    4693     4807     4880     4901     4916     4927     4915     4876 
    4835     4849     4945     5085     5196     5271     5359     5429 
    5416     5360     5320     5266     5169     5078     5051     5062 
    5084     5128     5166     5173     5174     5148     5092     5074 
    5074     5053     5046     5063     5096     5134     5154     5173 
    5194     5192     5166     5124     5074     5032     4986     4930 
    4888     4846     4795     4791     4860     4938     4988     5043 
    5123     5212     5282     5282     5221     5189     5215     5236 
    5208     5154     5112     5070     5031     5016     5023     5031 
    5005     4946     4892     4843     4804     4800     4838     4958 
    5125     5239     5310     5378     5406     5374     5273     5136 
    5038     4992     4989     5011     5026     5043     5090     5151 
    5193     5193     5178     5174     5120     4990     4843     4731 
    4696     4742     4849     5012     5175     5277     5319     5309 
    5250     5179     5127     5061     4977     4945     4981     5034 
    5098     5204     5325     5393     5386     5375     5348     5259 
    5175     5139     5105     5071     5065     5076     5097     5119 
    5123     5104     5085     5069     5017     4947     4915     4924 
    4981     5084     5163     5178     5182     5221     5256     5219 
    5117     5013     4947     4920     4903     4877     4837     4833 
    4934     5070     5161     5248     5329     5354     5317     5256 
    5239     5229     5144     5039     4989     5008     5077     5119 
    5112     5103     5088     5085     5078     5013     4955     4943 
    4928     4928     4946     4963     5017     5105     5206     5320 
    5406     5472     5503     5435     5293     5182     5144     5134 
    5093     5008     4924     4905     4936     4908     4789     4688 
    4688     4764     4858     4946     5024     5111     5262     5448 
    5552     5568     5575     5582     5544     5427     5259     5107 
    5005     4951     4889     4816     4837     4943     5016     5036 
    5026     4988     4953     4930     4911     4881     4819     4745 
    4677     4617     4612     4675     4757     4865     5024     5194 
    5278     5252     5197     5147     5077     5026     5017     5019 
    5044     5134     5242     5278     5220     5143     5077     4959 
    4810     4712     4681     4673     4691     4752     4831     4949 
    5119     5266     5340     5368     5378     5379     5379     5412 
    5447     5431     5429     5471     5489     5476     5462     5440 
    5390     5302     5197     5070     4888     4714     4634     4634 
    4675     4764     4901     5077     5282     5428     5409     5247 
    5039     4838     4672     4596     4623     4681     4730     4822 
    4973     5109     5196     5240     5240     5202     5125     5077 
    5131     5219     5250     5250     5270     5336     5440     5506 
    5428     5206     5000     4877     4712     4457     4206     4041 
    3997     4050     4153     4336     4652     5089     5549     5918 
    6164     6305     6394     6486     6563     6624     6714     6817 
    6914     6983     6879     6494     5910     5217     4448     3681 
    3069     2728     2651     2778     3026     3292     3532     3758 
    3974     4206     4428     4561     4645     4811     5051     5256 
    5404     5509     5551     5522     5441     5320     5167     5061 
    5116     5347     5664     5972     6212     6335     6320     6164 
    5871     5517     5209     5026     4962     4947     4938     4923 
    4877     4819     4826     4907     4997     5127     5390     5697 
    5836     5771     5632     5533     5513     5576     5730     5967 
    6268     6585     6791     6741     6403     5840     5077     4091 
    2953     1900     1174      858      942     1408     2188     3118 
    4051     4942     5710     6291     6779     7254     7677     8013 
    8253     8398     8442     8376     8186     7811     7213     6494 
    5751     4973     4164     3375     2679     2195     1980     1987 
    2154     2471     2929     3519     4162     4707     5071     5287 
    5452     5617     5740     5809     5853     5900     6007     6178 
    6281     6218     6041     5784     5398     4889     4321     3754 
    3304     3082     3060     3149     3329     3538     3650     3612 
    3458     3257     3123     3119     3234     3450     3798     4383 
    5243     6243     7229     8081     8679     8946     8883     8519 
    7862     6960     6003     5174     4571     4241     4201     4384 
    4683     5040     5364     5479     5375     5209     5009     4739 
    4471     4280     4133     4028     4143     4608     5324     6108 
    6839     7438     7875     8006     7658     6959     6219     5602 
    5035     4415     3861     3569     3499     3458     3360     3242 
    3119     2970     2833     2747     2667     2666     2882     3335 
    4012     4915     5935     6918     7740     8318     8621     8633 
    8334     7781     7167     6710     6459     6268     6007     5701 
    5346     4841     4213     3582     2994     2479     2123     2006 
    2192     2579     2994     3470     4149     4963     5703     6270 
    6725     7075     7218     7171     7014     6718     6296     5903 
    5687     5653     5670     5625     5472     5163     4688     4075 
    3389     2778     2297     1930     1753     1857     2293     3088 
    4164     5358     6492     7383     7839     7738     7217     6551 
    5815     5003     4245     3693     3423     3454     3682     3973 
    4344     4928     5686     6334     6727     7084     7574     7963 
    7983     7724     7422     7169     6855     6346     5757     5298 
    5000     4811     4637     4387     4095     3863     3790     3882 
    4012     4170     4465     4806     4953     4847     4673     4619 
    4660     4711     4774     4880     5005     5053     4946     4774 
    4622     4464     4353     4360     4467     4595     4649     4614 
    4561     4530     4473     4315     4077     3858     3739     3802 
    4144     4750     5471     6199     6878     7379     7584     7450 
    6966     6251     5510     4893     4560     4622     4974     5404 
    5794     6077     6138     5875     5374     4862     4506     4406 
    4548     4776     5026     5273     5395     5367     5250     5065 
    4808     4492     4191     3958     3715     3375     3059     2941 
    2995     3176     3593     4297     5161     5929     6420     6714 
    6912     6955     6825     6608     6401     6231     6045     5814 
    5575     5337     5073     4710     4225     3748     3388     3159 
    3063     3118     3387     3901     4514     5109     5736     6392 
    6937     7200     7142     6959     6860     6812     6720     6670 
    6782     6972     7005     6728     6197     5570     4966     4436 
    3963     3543     3242     3082     3006     3041     3262     3653 
    4121     4672     5412     6270     6970     7318     7263     6879 
    6408     5938     5321     4552     3852     3400     3149     3009 
    3096     3464     3886     4261     4693     5143     5422     5474 
    5435     5374     5271     5224     5292     5298     5047     4545 
    3985     3537     3258     3190     3395     3855     4410     4901 
    5273     5543     5776     6002     6154     6262     6430     6617 
    6733     6747     6654     6516     6413     6281     6003     5575 
    5094     4625     4183     3788     3454     3223     3154     3237 
    3458     3905     4572     5232     5630     5756     5802     5896 
    6025     6170     6304     6355     6261     6007     5644     5232 
    4807     4418     4149     4068     4141     4278     4455     4718 
    5042     5312     5483     5599     5644     5539     5270     4926 
    4561     4183     3885     3716     3581     3477     3539     3827 
    4278     4796     5343     5922     6451     6853     7167     7388 
    7453     7389     7225     6883     6359     5780     5358     5274 
    5456     5622     5595     5352     4915     4299     3631     3140 
    2897     2810     2829     2932     3127     3469     3947     4531 
    5302     6246     7125     7682     7767     7406     6781     6041 
    5240     4460     3850     3476     3237     3038     2934     2978 
    3110     3316     3650     4079     4550     5035     5516     6015 
    6544     7049     7499     7877     8071     7925     7426     6735 
    6031     5409     4877     4390     3931     3600     3526     3688 
    3929     4187     4494     4812     5085     5300     5366     5228 
    5067     5107     5377     5760     6110     6363     6513     6540 
    6474     6339     6092     5684     5074     4313     3589     3044 
    2694     2524     2544     2789     3246     3773     4229     4644 
    5100     5636     6199     6659     6968     7144     7118     6859 
    6501     6203     5961     5628     5186     4787     4453     4141 
    3932     3877     3951     4189     4553     4957     5356     5678 
    5821     5736     5471     5189     4943     4644     4321     4139 
    4218     4563     5024     5448     5734     5809     5711     5544 
    5292     4900     4438     4064     3917     4055     4417     4893 
    5400     5881     6330     6689     6840     6771     6570     6280 
    5937     5524     4935     4213     3541     3013     2617     2376 
    2388     2728     3350     4145     5024     5927     6721     7191 
    7298     7146     6740     6052     5233     4498     3956     3611 
    3412     3327     3380     3572     3823     4075     4356     4718 
