Origin Time       2024/04/02 04:24:00
Lat.              40.133
Long.             141.712
Depth. (km)       71
Mag.              6.0
Station Code      HKD087
Station Lat.      43.1502
Station Long.     143.8916
Station Height(m) 170
Record Time       2024/04/02 04:26:07
Sampling Freq(Hz) 100Hz
Duration Time(s)  60
Dir.              E-W
Scale Factor      7845(gal)/8223790
Max. Acc. (gal)   2.160
Last Correction   2024/04/02 04:26:07
Memo.             
[...]
    1831     1626     1475     1440     1497     1638     1830     1968 
    1971     1888     1786     1657     1539     1532     1652     1818 
    1984     2123     2153     2025     1822     1663     1584     1587 
    1656     1757     1872     1973     1996     1938     1861     1764 
    1617     1487     1476     1588     1760     1892     1894     1784 
    1678     1641     1661     1715     1771     1796     1783     1759 
    1784     1846     1833     1705     1564     1528     1603     1711 
    1783     1831     1880     1892     1850     1794     1726     1626 
    1560     1594     1657     1695     1737     1749     1699     1684 
    1768     1836     1809     1769     1757     1703     1617     1611 
    1690     1742     1760     1813     1836     1765     1705     1745 
    1821     1831     1776     1710     1671     1659     1664     1701 
    1771     1821     1790     1694     1602     1557     1574     1660 
    1791     1900     1906     1796     1672     1615     1615     1678 
    1811     1950     1989     1891     1707     1560     1520     1534 
    1549     1602     1703     1813     1921     1999     1946     1765 
    1621     1613     1674     1717     1706     1682     1722     1819 
    1867     1809     1728     1713     1718     1714     1775     1888 
    1945     1948     1961     1968     1921     1834     1741     1664 
    1601     1548     1537     1617     1755     1848     1852     1810 
    1780     1763     1715     1661     1645     1665     1718     1802 
    1852     1837     1804     1742     1634     1553     1559     1613 
    1680     1798     1957     2042     1993     1875     1717     1551 
    1512     1626     1755     1823     1877     1892     1822     1755 
    1768     1771     1696     1659     1725     1783     1746     1683 
    1674     1714     1753     1744     1676     1606     1598     1671 
    1779     1856     1864     1833     1807     1787     1734     1667 
    1669     1773     1884     1904     1838     1729     1622     1570 
    1583     1614     1634     1687     1792     1869     1854     1804 
    1771     1721     1645     1624     1687     1733     1699     1676 
    1722     1760     1759     1777     1810     1807     1776     1737 
    1709     1709     1741     1804     1872     1834     1664     1540 
    1607     1769     1838     1798     1761     1756     1732     1692 
    1676     1683     1710     1746     1772     1821     1919     1979 
    1906     1784     1756     1790     1787     1741     1678     1588 
    1525     1564     1672     1742     1757     1769     1791     1802 
    1815     1831     1827     1788     1711     1621     1574     1587 
    1637     1672     1687     1738     1830     1881     1860     1798 
    1718     1651     1683     1849     2006     1993     1838     1676 
    1593     1561     1539     1584     1741     1883     1888     1792 
    1703     1651     1629     1664     1750     1826     1852     1821 
    1760     1713     1682     1683     1757     1846     1829     1763 
    1807     1907     1899     1809     1756     1719     1640     1593 
    1675     1829     1941     1979     1925     1757     1574     1528 
    1610     1687     1711     1734     1780     1823     1795     1656 
    1525     1572     1718     1769     1759     1794     1806     1732 
    1660     1667     1709     1756     1818     1849     1780     1674 
    1688     1827     1900     1842     1803     1838     1827     1734 
    1652     1614     1586     1595     1692     1814     1831     1753 
    1692     1671     1651     1674     1773     1880     1918     1900 
    1849     1742     1621     1598     1713     1850     1879     1787 
    1679     1660     1695     1665     1597     1645     1826     1980 
    2008     1926     1798     1734     1764     1786     1709     1557 
    1467     1534     1696     1860     1987     1996     1856     1696 
    1617     1594     1647     1760     1823     1800     1740     1656 
    1599     1663     1799     1836     1753     1667     1640     1687 
    1775     1822     1802     1767     1749     1740     1726     1728 
    1755     1745     1675     1629     1659     1687     1686     1705 
    1746     1800     1850     1848     1803     1761     1699     1624 
    1640     1775     1883     1875     1852     1868     1842     1784 
    1782     1786     1765     1799     1844     1779     1659     1601 
    1588     1580     1597     1672     1798     1892     1860     1748 
    1695     1736     1792     1780     1684     1606     1622     1672 
    1718     1765     1769     1744     1780     1871     1912     1877 
    1825     1786     1759     1736     1719     1694     1633     1578 
    1624     1765     1873     1853     1765     1733     1773     1764 
    1640     1556     1682     1898     1950     1844     1795     1853 
    1860     1769     1703     1702     1709     1694     1676     1651 
    1602     1584     1667     1783     1814     1771     1734     1725 
    1742     1794     1831     1788     1682     1601     1614     1695 
    1777     1830     1826     1765     1742     1776     1729     1594 
    1557     1651     1740     1761     1717     1648     1659     1773 
    1873     1880     1840     1787     1714     1669     1710     1796 
    1810     1692     1532     1475     1568     1745     1927     2041 
    2037     1972     1927     1896     1846     1760     1651     1617 
    1695     1763     1745     1707     1675     1649     1684     1780 
    1883     1931     1858     1699     1607     1652     1740     1768 
    1736     1687     1634     1591     1593     1657     1761     1831 
    1784     1641     1576     1686     1826     1838     1773     1749 
    1803     1898     1942     1860     1726     1679     1738     1811 
    1819     1776     1776     1845     1864     1729     1545     1518 
    1678     1833     1845     1771     1702     1668     1694     1759 
    1783     1733     1675     1705     1791     1837     1833     1791 
    1722     1715     1798     1841     1772     1668     1595     1549 
    1540     1595     1671     1696     1718     1800     1861     1818 
    1771     1815     1867     1846     1802     1784     1791     1822 
    1879     1960     2022     1958     1765     1597     1553     1593 
    1637     1684     1780     1872     1815     1638     1549     1638 
    1771     1794     1736     1761     1877     1900     1794     1687 
    1599     1505     1479     1543     1628     1723     1831     1896 
    1879     1807     1742     1726     1748     1752     1719     1664 
    1606     1615     1722     1818     1827     1814     1804     1753 
    1682     1682     1755     1783     1692     1590     1594     1626 
    1607     1637     1792     1945     1938     1852     1844     1872 
    1834     1803     1837     1837     1806     1834     1836     1718 
    1595     1599     1702     1814     1863     1817     1729     1690 
    1707     1741     1769     1779     1757     1667     1522     1483 
    1647     1872     1944     1840     1749     1796     1853     1763 
    1625     1628     1761     1849     1831     1775     1696     1615 
    1621     1702     1703     1628     1655     1802     1912     1944 
    1958     1942     1841     1719     1680     1703     1692     1641 
    1598     1590     1614     1621     1570     1551     1679     1873 
    1971     1941     1856     1802     1786     1703     1526     1420 
    1482     1611     1715     1803     1865     1869     1852     1854 
    1806     1660     1557     1618     1733     1756     1691     1613 
    1575     1645     1813     1935     1919     1837     1798     1819 
    1844     1792     1675     1582     1553     1615     1757     1881 
    1941     1996     2029     1949     1810     1757     1784     1787 
    1767     1768     1761     1705     1636     1617     1638     1676 
    1717     1723     1715     1800     1977     2064     1942     1706 
    1553     1607     1755     1782     1691     1665     1742     1800 
    1773     1706     1669     1696     1769     1818     1776     1688 
    1665     1723     1792     1821     1771     1667     1617     1651 
    1699     1749     1811     1802     1715     1691     1771     1804 
    1678     1494     1497     1723     1881     1807     1732     1829 
    1927     1884     1814     1821     1813     1702     1618     1691 
    1814     1846     1825     1852     1903     1834     1626     1480 
    1541     1719     1845     1842     1750     1674     1661     1642 
    1605     1652     1769     1830     1841     1854     1837     1815 
    1873     1930     1838     1668     1622     1748     1884     1875 
    1753     1705     1776     1818     1748     1659     1618     1620 
    1659     1680     1642     1663     1826     1945     1840     1659 
    1641     1769     1860     1830     1763     1746     1772     1773 
    1717     1630     1571     1560     1582     1617     1682     1788 
    1861     1827     1759     1765     1831     1848     1715     1509 
    1460     1632     1829     1872     1767     1655     1626     1665 
    1779     1956     1995     1784     1572     1613     1764     1777 
    1679     1653     1761     1885     1899     1809     1702     1656 
    1706     1780     1784     1729     1695     1745     1834     1827 
    1688     1566     1575     1692     1853     1958     1918     1777 
    1633     1497     1421     1468     1563     1656     1777     1853 
    1827     1840     1933     1938     1822     1734     1692     1617 
    1584     1690     1800     1779     1723     1786     1930     1956 
    1795     1651     1696     1856     1929     1787     1563     1499 
    1580     1661     1771     1903     1942     1915     1910     1876 
    1806     1771     1722     1626     1617     1729     1836     1894 
    1948     1966     1898     1783     1722     1750     1818     1833 
    1769     1714     1737     1787     1768     1671     1575     1549 
    1574     1611     1723     1910     1981     1852     1657     1551 
    1591     1719     1818     1825     1777     1761     1837     1960 
    1995     1867     1644     1466     1489     1725     1935     1906 
    1728     1622     1625     1633     1626     1647     1663     1661 
    1709     1780     1767     1730     1787     1821     1713     1587 
    1564     1603     1664     1734     1800     1900     2007     1985 
    1807     1675     1730     1798     1721     1651     1713     1752 
    1669     1632     1723     1798     1822     1845     1752     1547 
    1486     1642     1775     1773     1799     1899     1926     1831 
    1719     1655     1587     1522     1572     1691     1730     1760 
    1865     1912     1837     1776     1776     1780     1783     1768 
    1773     1877     1996     2030     2004     1922     1771     1661 
    1667     1684     1651     1645     1678     1710     1755     1757 
    1651     1532     1545     1667     1767     1799     1834     1863 
    1786     1647     1610     1705     1875     2049     2066     1883 
    1718     1709     1725     1701     1717     1750     1728     1723 
    1767     1744     1683     1705     1742     1694     1609     1575 
    1641     1792     1933     2020     2118     2141     1921     1520 
    1140      926     1046     1505     1973     2191     2224     2191 
    2070     1841     1522     1208     1165     1518     1954     2164 
    2169     2053     1827     1603     1521     1514     1410     1323 
    1486     1786     1904     1823     1765     1768     1719     1660 
    1709     1803     1827     1833     1907     1983     1953     1784 
    1483     1194     1147     1386     1806     2284     2600     2605 
    2396     2052     1611     1235     1003      882      963     1286 
    1672     1966     2133     2160     2108     2047     1966     1894 
    1821     1655     1489     1505     1686     1966     2269     2324 
    2008     1637     1498     1529     1630     1748     1717     1435 
    1059      854      918     1243     1875     2721     3388     3456 
    2829     1787      781      216      274      810     1401     1667 
    1634     1610     1663     1655     1625     1726     1946     2138 
    2196     2076     1714     1219      942     1061     1387     1782 
    2326     2928     3202     2907     2247     1611     1169      828 
     585      583      835     1248     1819     2536     3191     3576 
    3642     3343     2610     1575      623      199      438      996 
    1480     1873     2285     2606     2673     2548     2344     2026 
    1695     1598     1687     1729     1771     1937     2092     2087 
    1941     1642     1219      963     1129     1594     2047     2251 
    2115     1715     1228      845      664      625      708     1101 
    1845     2594     3018     3088     2816     2188     1418      831 
     580      599      724      831      927     1166     1665     2269 
    2616     2486     2043     1684     1580     1660     1933     2388 
    2795     2926     2701     2100     1279      595      311      476 
     978     1568     2038     2323     2381     2290     2261     2339 
    2331     2080     1680     1381     1351     1578     1948     2338 
    2569     2528     2389     2388     2416     2191     1706     1209 
     855      668      604      522      463      795     1575     2288 
    2582     2625     2629     2621     2550     2251     1567      602 
    -245     -519      -56      884     1880     2581     2794     2647 
    2535     2577     2416     1788      942      390      471     1086 
    1818     2396     2793     3017     3091     2987     2587     1852 
     955      287      206      724     1574     2420     2948     2889 
    2224     1405      974     1051     1399     1802     2123     2234 
    2143     2007     1923     1964     2201     2501     2523     2058 
    1277      535        8     -222      114     1148     2404     3207 
    3326     2921     2365     2018     1791     1331      756      598 
    1024     1595     1864     1864     1821     1777     1726     1799 
    2072     2323     2273     1895     1356      961     1048     1594 
    2192     2613     2897     2999     2787     2297     1741     1370 
    1270     1243     1112     1005     1085     1239     1321     1485 
    1980     2633     2882     2498     1858     1406     1302     1479 
    1672     1630     1398     1193     1085     1131     1549     2335 
    3030     3206     2820     2097     1327      754      550      726 
    1102     1516     1923     2231     2250     1976     1647     1466 
    1522     1846     2241     2374     2239     2122     2168     2353 
    2543     2482     2116     1715     1377      932      433      268 
     675     1352     1765     1776     1634     1483     1321     1316 
    1690     2331     2785     2735     2301     1760     1266      958 
     976     1301     1825     2444     2897     2810     2116     1224 
     765     1061     1726     2106     2065     1904     1776     1726 
    1934     2378     2666     2539     2157     1782     1493     1221 
     950      770      772      932     1181     1433     1620     1791 
    2035     2193     1991     1594     1478     1737     2030     2123 
    2118     2139     2049     1744     1422     1251     1081      778 
     600      916     1686     2442     2717     2462     2033     1841 
    2033     2367     2517     2496     2450     2277     1856     1362 
    1013      869      939     1188     1489     1745     1926     2003 
    1949     1772     1557     1497     1695     1977     2114     2146 
    2230     2311     2292     2241     2150     1877     1505     1324 
    1395     1512     1502     1370     1233     1286     1549     1777 
    1837     1819     1732     1620     1696     1885     1836     1540 
    1325     1337     1433     1468     1541     1841     2261     2469 
    2382     2145     1777     1366     1193     1343     1580     1692 
    1653     1541     1513     1719     2093     2346     2326     2161 
    1976     1802     1732     1810     1887     1853     1755     1618 
    1456     1378     1420     1467     1502     1648     1883     2027 
    1998     1829     1586     1433     1521     1696     1644     1377 
    1273     1541     1954     2236     2419     2558     2477     2124 
    1840     1879     2061     2158     2223     2342     2390     2188 
    1714     1163      816      822     1111     1471     1676     1652 
    1495     1289     1070     1005     1252     1637     1876     1953 
    1915     1713     1456     1414     1642     1917     2023     1957 
    1865     1864     1908     1948     2022     2089     2042     1961 
    2016     2130     2103     1931     1719     1530     1433     1456 
    1537     1659     1788     1803     1709     1687     1791     1871 
    1879     1891     1896     1809     1633     1486     1482     1663 
    1934     2091     2002     1705     1366     1127     1051     1179 
    1499     1842     2061     2137     2027     1702     1377     1317 
    1462     1574     1614     1678     1780     1875     1933     2022 
    2211     2384     2335     2010     1520     1119     1100     1470 
    1842     1891     1692     1475     1321     1296     1520     1968 
    2381     2492     2247     1838     1534     1397     1283     1161 
    1158     1408     1939     2606     3063     3005     2501     1911 
    1507     1368     1362     1264     1067      966     1065     1374 
    1880     2430     2810     2890     2664     2316     2043     1861 
    1753     1736     1719     1638     1514     1323     1101     1012 
    1116     1377     1821     2339     2544     2196     1502      886 
     666      807      999     1151     1458     1869     2076     1995 
    1849     1848     1965     2069     2068     1912     1665     1525 
    1570     1629     1606     1649     1849     2061     2127     1989 
    1694     1475     1487     1524     1435     1408     1530     1663 
    1871     2335     2840     2955     2605     2047     1545     1344 
    1598     2093     2428     2419     2141     1776     1536     1517 
    1630     1794     2011     2212     2242     2064     1723     1275 
     854      699      936     1337     1498     1374     1282     1390 
    1607     1827     2015     2184     2305     2251     1944     1507 
    1206     1269     1682     2100     2166     1902     1588     1432 
    1418     1439     1505     1672     1795     1784     1863     2119 
    2247     2101     1914     1831     1701     1440     1270     1354 
    1521     1549     1387     1113      945     1113     1564     2025 
    2357     2648     2979     3165     2920     2286     1642     1232 
    1067     1143     1416     1718     1899     1910     1827     1830 
    1935     1975     1896     1755     1525     1282     1201     1242 
    1258     1291     1433     1601     1667     1713     1922     2277 
    2585     2716     2641     2386     2058     1718     1358     1139 
    1262     1575     1800     1930     2030     2041     1921     1672 
    1372     1233     1397     1741     2030     2124     2049     1890 
    1675     1417     1162      994     1046     1339     1703     1968 
    2074     1981     1719     1455     1356     1540     1971     2398 
