Origin Time       2024/04/02 04:24:00
Lat.              40.133
Long.             141.712
Depth. (km)       71
Mag.              6.0
Station Code      HKD098
Station Lat.      42.4985
Station Long.     143.2790
Station Height(m) 81
Record Time       2024/04/02 04:25:53
Sampling Freq(Hz) 100Hz
Duration Time(s)  66
Dir.              N-S
Scale Factor      7845(gal)/8223790
Max. Acc. (gal)   2.236
Last Correction   2024/04/02 04:25:54
Memo.             
[...]
   -9873    -9809    -9711    -9657    -9686    -9760    -9803    -9737 
   -9618    -9599    -9618    -9508    -9374    -9383    -9471    -9560 
   -9693    -9815    -9791    -9655    -9607    -9755    -9957   -10068 
  -10111   -10145   -10176   -10150   -10044   -10026   -10181   -10220 
  -10018    -9938   -10098   -10116    -9890    -9730    -9784    -9845 
   -9717    -9544    -9580    -9742    -9753    -9599    -9504    -9541 
   -9606    -9694    -9819    -9871    -9828    -9811    -9879    -9931 
   -9871    -9810    -9860    -9904    -9872    -9833    -9821    -9795 
   -9702    -9537    -9339    -9159    -9128    -9250    -9363    -9413 
   -9456    -9543    -9710    -9937   -10089   -10031    -9940   -10057 
  -10220   -10220   -10158   -10150   -10098    -9942    -9852    -9880 
   -9913    -9954    -9995    -9956    -9872    -9780    -9679    -9657 
   -9741    -9722    -9508    -9358    -9472    -9613    -9572    -9547 
   -9693    -9860    -9953   -10017   -10004    -9907    -9894    -9969 
   -9929    -9832    -9898   -10033   -10056   -10000    -9933    -9853 
   -9811    -9778    -9603    -9285    -9031    -9001    -9130    -9266 
   -9410    -9533    -9516    -9471    -9590    -9756    -9806    -9826 
   -9904    -9945    -9899    -9904    -9991   -10002    -9876    -9722 
   -9666    -9667    -9568    -9420    -9421    -9553    -9651    -9670 
   -9705    -9792    -9865    -9910    -9895    -9803    -9744    -9764 
   -9837    -9944   -10018   -10027   -10002    -9929    -9802    -9686 
   -9670    -9761    -9873    -9946    -9944    -9875    -9882   -10057 
  -10212   -10119    -9830    -9601    -9602    -9710    -9678    -9472 
   -9274    -9286    -9490    -9637    -9671    -9717    -9767    -9729 
   -9618    -9605    -9799   -10021   -10000    -9780    -9633    -9701 
   -9829    -9815    -9666    -9468    -9348    -9494    -9788    -9869 
   -9728    -9649    -9756    -9879    -9859    -9786    -9802    -9875 
   -9886    -9837    -9837    -9919    -9919    -9768    -9748    -9913 
   -9896    -9709    -9694    -9837    -9890    -9774    -9705    -9857 
  -10079   -10219   -10231   -10026    -9737    -9661    -9832   -10002 
   -9996    -9919    -9925   -10011   -10064    -9976    -9884    -9983 
  -10045    -9798    -9478    -9462    -9699    -9868    -9919   -10019 
  -10126   -10083    -9983   -10002   -10011    -9815    -9610    -9691 
   -9940   -10061   -10011    -9865    -9636    -9396    -9271    -9301 
   -9447    -9678    -9863    -9830    -9614    -9458    -9580    -9849 
   -9900    -9732    -9589    -9563    -9647    -9769    -9864    -9927 
   -9906    -9779    -9614    -9479    -9410    -9424    -9506    -9520 
   -9358    -9128    -9031    -9185    -9463    -9668    -9736    -9702 
   -9703    -9728    -9656    -9617    -9684    -9749    -9796    -9841 
   -9917   -10058   -10115    -9971    -9767    -9699    -9863   -10069 
   -9975    -9701    -9675    -9934   -10138   -10066    -9965   -10058 
  -10046    -9761    -9513    -9582    -9877   -10012    -9890    -9792 
   -9742    -9644    -9720   -10006   -10165   -10072    -9991   -10123 
  -10304   -10346   -10330   -10303   -10191   -10010    -9856    -9811 
   -9876    -9950    -9976    -9985    -9906    -9630    -9323    -9215 
   -9255    -9235    -9150    -9196    -9337    -9366    -9347    -9375 
   -9352    -9288    -9294    -9336    -9344    -9445    -9737    -9967 
   -9958    -9981   -10145   -10165    -9984    -9855    -9882    -9960 
   -9961    -9856    -9841   -10023   -10099    -9879    -9567    -9464 
   -9732   -10029    -9980    -9836    -9815    -9809    -9877   -10099 
  -10257   -10164    -9923    -9757    -9722    -9730    -9693    -9601 
   -9533    -9560    -9603    -9657    -9940   -10330   -10284    -9779 
   -9383    -9337    -9389    -9418    -9598    -9888    -9983    -9882 
   -9855    -9930   -10061   -10265   -10396   -10336   -10153    -9987 
   -9936    -9915    -9898    -9958    -9944    -9724    -9456    -9239 
   -9081    -9096    -9302    -9451    -9352    -9205    -9273    -9439 
   -9505    -9567    -9709    -9760    -9571    -9274    -9165    -9336 
   -9536    -9591    -9597    -9605    -9570    -9544    -9597    -9678 
   -9684    -9633    -9645    -9764    -9890    -9975   -10080   -10131 
  -10014    -9867    -9844    -9840    -9798    -9840    -9923    -9925 
   -9922    -9979    -9992    -9871    -9715    -9740    -9844    -9815 
   -9836   -10031   -10154   -10138   -10177   -10381   -10584   -10531 
  -10295   -10139   -10106   -10044    -9936    -9859    -9720    -9490 
   -9369    -9444    -9580    -9520    -9302    -9342    -9678    -9899 
   -9865    -9833    -9927    -9894    -9625    -9450    -9456    -9350 
   -9182    -9283    -9605    -9846    -9941    -9940    -9823    -9660 
   -9563    -9605    -9829   -10008    -9856    -9502    -9267    -9301 
   -9540    -9740    -9756    -9667    -9667    -9931   -10242   -10127 
   -9742    -9691    -9892    -9783    -9502    -9644   -10069   -10170 
  -10077   -10299   -10612   -10600   -10380   -10153   -10065   -10072 
   -9819    -9421    -9301    -9362    -9412    -9479    -9529    -9540 
   -9533    -9597    -9837   -10092   -10064    -9774    -9556    -9498 
   -9489    -9595    -9796    -9909    -9871    -9709    -9514    -9456 
   -9643    -9865    -9796    -9532    -9321    -9224    -9406    -9748 
   -9782    -9558    -9424    -9493    -9703    -9825    -9825    -9837 
   -9788    -9819   -10080   -10254   -10191   -10120   -10120    -9973 
   -9590    -9387    -9637    -9925    -9941    -9922   -10069   -10241 
  -10216   -10031    -9936   -10011   -10018    -9795    -9671    -9863 
   -9991    -9828    -9698    -9856   -10099   -10112    -9941    -9791 
   -9595    -9396    -9501    -9799    -9811    -9435    -9073    -9108 
   -9463    -9850   -10131   -10266   -10251   -10038    -9675    -9505 
   -9753   -10119   -10116    -9742    -9505    -9645    -9834    -9799 
   -9664    -9647    -9806    -9911    -9823    -9810    -9952   -10006 
   -9740    -9281    -9158    -9423    -9643    -9759    -9861    -9981 
  -10126   -10061    -9748    -9568    -9603    -9529    -9356    -9348 
   -9528    -9720    -9666    -9429    -9387    -9579    -9805    -9894 
   -9794    -9844   -10098    -9990    -9539    -9389    -9661   -10019 
  -10153    -9992    -9856    -9911    -9953    -9950    -9894    -9780 
   -9818    -9921    -9883    -9732    -9462    -9325    -9359    -9212 
   -9109    -9317    -9535    -9433    -9157    -9356   -10029   -10287 
  -10007    -9923   -10127   -10037    -9737    -9817   -10011    -9755 
   -9382    -9369    -9597    -9823    -9915    -9850    -9651    -9452 
   -9452    -9518    -9509    -9564    -9706    -9769    -9742    -9845 
  -10062   -10107   -10129   -10309   -10365   -10287   -10322   -10400 
  -10342   -10179   -10123   -10195   -10201   -10122    -9973    -9786 
   -9663    -9648    -9757    -9775    -9459    -9256    -9580    -9830 
   -9645    -9664    -9898    -9876    -9810    -9814    -9846    -9904 
   -9830    -9641    -9342    -9161    -9378    -9572    -9618    -9848 
   -9814    -9410    -9614   -10326   -10451    -9968    -9559    -9539 
   -9625    -9612    -9953   -10347   -10037    -9783   -10087   -10075 
   -9647    -9359    -9359    -9648    -9904    -9651    -9323    -9624 
  -10012    -9903    -9718    -9834   -10077    -9909    -9497    -9634 
   -9941    -9714    -9603   -10115   -10412    -9899    -9263    -9470 
  -10180   -10195    -9768    -9774    -9780    -9467    -9332    -9656 
  -10114   -10111    -9832    -9830    -9753    -9354    -9225    -9636 
  -10019    -9783    -9290    -9389    -9833    -9794    -9653    -9798 
   -9711    -9647    -9923    -9923    -9612    -9618    -9784    -9595 
   -9397    -9579    -9707    -9435    -9374    -9949   -10282   -10008 
   -9757    -9834   -10029    -9709    -9424    -9853    -9819    -9298 
   -9510   -10118   -10210    -9907    -9883   -10131   -10021    -9709 
   -9992   -10380   -10222   -10251   -10300    -9764    -9528    -9886 
  -10378   -10597   -10075    -9807   -10084    -9792    -9533    -9805 
   -9811    -9455    -9346    -9558    -9504    -9200    -8961    -9038 
   -9471    -9494    -9151    -9270    -9676    -9894    -9813    -9644 
   -9792    -9877    -9684    -9811    -9815    -9397    -9506    -9853 
   -9540    -9085    -9247    -9687    -9709    -9722   -10035   -10069 
   -9942    -9921    -9922    -9844    -9575    -9706   -10272   -10219 
   -9572    -9432    -9813    -9791    -9192    -8912    -9599   -10137 
   -9728    -9363    -9428    -9648    -9628    -9289    -9356    -9647 
   -9725    -9753    -9886   -10264   -10435   -10474   -10994   -11437 
  -11160   -10424    -9992   -10438   -10943   -10597   -10201   -10106 
   -9779    -9512    -9270    -8976    -9050    -9070    -8878    -9084 
   -9437    -9375    -9344    -9667    -9625    -9077    -8922    -9491 
  -10025   -10044   -10012    -9817    -9140    -8854    -9121    -9155 
   -9182    -9701   -10300   -10373   -10224   -10363   -10330    -9914 
   -9612    -9553    -9734    -9884    -9717    -9702    -9845    -9760 
   -9767    -9938   -10004    -9890    -9626    -9436    -9198    -8866 
   -8969    -9501    -9836    -9778    -9751   -10146   -10771   -11007 
  -10960   -11049   -10867   -10638   -10566    -9938    -9298    -9175 
   -9072    -9142    -9337    -9383    -9514    -9563    -9297    -9035 
   -9121    -9423    -9624    -9780    -9848    -9806   -10057   -10557 
  -10863   -10912   -10816   -10554   -10120    -9882   -10134   -10450 
  -10280    -9757    -9331    -8860    -8376    -8738    -9688   -10145 
  -10156    -9801    -9279    -9207    -9111    -9009    -9378    -9333 
   -9076    -9486    -9934   -10172   -10242    -9925    -9699    -9602 
   -9373    -9383    -9725    -9906    -9703    -9567    -9779   -10060 
  -10143    -9988    -9810    -9864   -10134   -10293   -10022    -9566 
   -9296    -9099    -8949    -9182    -9882   -10489   -10492   -10161 
   -9949    -9904    -9815    -9454    -9003    -8899    -9096    -9142 
   -9030    -9275    -9929   -10413   -10447   -10262   -10103   -10130 
  -10424   -10813   -11160   -11510   -11588   -11037   -10172    -9521 
   -9189    -9136    -9301    -9506    -9636    -9690    -9656    -9555 
   -9400    -9219    -9221    -9516    -9806    -9869    -9759    -9508 
   -9171    -8993    -9178    -9610    -9919    -9942    -9917   -10077 
  -10342   -10435   -10181    -9823    -9745    -9771    -9585    -9321 
   -9053    -8799    -8818    -9135    -9535    -9738    -9574    -9379 
   -9612   -10089   -10277   -10168   -10181   -10319   -10296   -10111 
   -9994   -10035   -10029    -9803    -9586    -9790   -10401   -10910 
  -11017   -10777   -10311    -9917    -9882   -10000    -9752    -9151 
   -8851    -9096    -9362    -9202    -8842    -8769    -9121    -9759 
  -10400   -10597   -10243    -9809    -9653    -9632    -9528    -9418 
   -9440    -9525    -9526    -9459    -9439    -9468    -9418    -9247 
   -9143    -9220    -9408    -9655    -9895   -10088   -10235   -10332 
  -10469   -10465   -10049    -9470    -9026    -8731    -8626    -8758 
   -9130    -9447    -9298    -8908    -8772    -8943    -9383   -10069 
  -10694   -10932   -10751   -10386   -10112   -10057   -10160   -10270 
  -10366   -10436   -10315   -10164   -10486   -11210   -11651   -11570 
  -11288   -10925   -10455   -10069    -9842    -9648    -9478    -9373 
   -9288    -9190    -9174    -9339    -9683   -10131   -10412   -10204 
   -9645    -9266    -9313    -9532    -9585    -9455    -9427    -9595 
   -9768    -9825    -9718    -9452    -9185    -9074    -9189    -9409 
   -9509    -9601    -9846   -10014   -10045   -10223   -10466   -10335 
   -9779    -9333    -9436    -9818   -10060   -10234   -10465   -10539 
  -10397   -10315   -10339   -10311   -10289   -10322   -10226    -9841 
   -9225    -8726    -8561    -8356    -7912    -7735    -8095    -8688 
   -9192    -9491    -9701    -9859    -9840    -9802    -9958   -10156 
  -10184   -10039    -9925   -10127   -10601   -10872   -10663   -10285 
  -10023    -9717    -9393    -9289    -9305    -9204    -8982    -9026 
   -9548   -10080   -10185    -9917    -9508    -9194    -9045    -9030 
   -9150    -9308    -9371    -9270    -9158    -9358    -9910   -10535 
  -10967   -11002   -10655   -10195    -9923    -9975   -10102   -10008 
   -9760    -9510    -9313    -9306    -9628   -10166   -10659   -10933 
  -10899   -10543    -9923    -9153    -8425    -7983    -7970    -8249 
   -8576    -8945    -9398    -9747    -9813    -9659    -9540    -9567 
   -9545    -9560    -9919   -10361   -10492   -10527   -10845   -11244 
  -11202   -10775   -10492   -10497   -10507   -10345   -10149   -10120 
  -10189   -10173   -10147   -10239   -10293   -10103    -9684    -9158 
   -8725    -8583    -8681    -8775    -8716    -8726    -9121    -9755 
  -10206   -10239    -9904    -9528    -9343    -9246    -9227    -9410 
   -9640    -9710    -9729    -9919   -10361   -10767   -10616    -9865 
   -9165    -9043    -9333    -9636    -9900   -10122    -9998    -9381 
   -8687    -8428    -8618    -9022    -9490    -9779    -9778    -9769 
   -9845    -9856    -9849    -9945   -10208   -10555   -10673   -10400 
  -10068   -10135   -10496   -10651   -10565   -10449   -10145    -9628 
   -9308    -9416    -9744   -10058   -10314   -10530   -10692   -10686 
  -10474   -10336   -10538   -10832   -10706   -10120    -9626    -9606 
   -9760    -9528    -8762    -7873    -7425    -7668    -8293    -8738 
   -8710    -8437    -8554    -9343   -10208   -10528   -10396   -10139 
   -9844    -9543    -9387    -9400    -9305    -8957    -8614    -8572 
   -8835    -9278    -9788   -10241   -10548   -10752   -10922   -10982 
  -10782   -10385   -10029    -9887    -9985   -10158   -10157    -9958 
   -9790    -9779    -9711    -9355    -8847    -8480    -8483    -8927 
   -9553   -10045   -10266   -10288   -10341   -10462   -10523   -10476 
  -10269    -9921    -9518    -9240    -9390    -9949   -10496   -10689 
  -10509   -10188    -9927    -9779    -9745    -9761    -9729    -9633 
   -9555    -9620    -9753    -9734    -9556    -9416    -9445    -9570 
   -9630    -9686    -9801    -9765    -9447    -9003    -8660    -8550 
   -8699    -9117    -9769   -10368   -10503   -10139    -9640    -9231 
   -8856    -8591    -8675    -9130    -9643    -9946   -10127   -10359 
  -10611   -10793   -10905   -10962   -10916   -10735   -10498   -10261 
  -10096   -10185   -10466   -10612   -10559   -10648   -11053   -11458 
  -11608   -11520   -11227   -10860   -10577   -10319   -10046    -9864 
   -9738    -9525    -9306    -9274    -9344    -9360    -9414    -9467 
   -9216    -8721    -8479    -8712    -9175    -9593    -9844    -9915 
   -9856    -9755    -9715    -9775    -9975   -10320   -10476   -10133 
   -9591    -9315    -9327    -9462    -9648    -9756    -9610    -9271 
   -9039    -9127    -9506   -10031   -10528   -10848   -10849   -10377 
   -9613    -9108    -9162    -9556    -9879    -9918    -9807    -9796 
   -9922   -10003   -10050   -10239   -10462   -10454   -10207    -9904 
   -9688    -9474    -9135    -8791    -8631    -8829    -9375    -9860 
  -10031   -10099   -10223   -10461   -10839   -11214   -11367   -11025 
  -10145    -9211    -8827    -9020    -9274    -9315    -9269    -9163 
   -9016    -8977    -9140    -9447    -9725    -9906    -9968    -9795 
   -9490    -9313    -9279    -9255    -9217    -9293    -9547    -9799 
   -9907    -9891    -9724    -9506    -9518    -9801   -10068   -10125 
  -10049    -9971    -9875    -9610    -9227    -8982    -8862    -8673 
   -8514    -8631    -9077    -9580    -9849    -9941   -10014    -9999 
   -9883    -9880   -10093   -10288   -10206    -9886    -9564    -9437 
   -9416    -9288    -9120    -9062    -9128    -9359    -9772   -10196 
  -10346   -10149    -9784    -9393    -9178    -9406    -9860   -10023 
   -9869    -9796    -9961   -10176   -10326   -10488   -10594   -10442 
  -10129   -10006   -10197   -10482   -10611   -10584   -10466   -10219 
   -9856    -9541    -9477    -9606    -9629    -9575    -9745   -10065 
  -10335   -10667   -11124   -11441   -11341   -10871   -10342    -9919 
   -9498    -9082    -8895    -9003    -9234    -9510    -9895   -10246 
  -10327   -10206   -10064    -9925    -9806    -9763    -9778    -9818 
   -9852    -9860    -9792    -9540    -9190    -9063    -9251    -9470 
   -9448    -9278    -9229    -9406    -9701    -9971   -10146   -10177 
  -10041    -9880    -9876   -10084   -10357   -10386   -10066    -9633 
   -9340    -9157    -8889    -8613    -8571    -8708    -8787    -8711 
   -8606    -8660    -8861    -9009    -8985    -8843    -8714    -8704 
   -8842    -9113    -9509    -9855    -9933    -9934   -10188   -10562 
  -10644   -10296    -9776    -9339    -8988    -8695    -8487    -8451 
   -8618    -8841    -9049    -9255    -9336    -9269    -9266    -9427 
   -9620    -9778   -10046   -10517   -10886   -10758   -10173    -9564 
   -9270    -9232    -9247    -9231    -9157    -9020    -8823    -8553 
   -8291    -8141    -8087    -8019    -7947    -8117    -8642    -9317 
   -9856   -10045    -9927    -9715    -9603    -9780   -10308   -10949 
  -11260   -11136   -11014   -11053   -10949   -10682   -10540   -10620 
  -10770   -10940   -11242   -11580   -11707   -11566   -11272   -10960 
  -10690   -10485   -10353   -10243   -10087    -9911    -9923   -10338 
  -10967   -11365   -11443   -11480   -11592   -11539   -11241   -11037 
  -11095   -11222   -11290   -11215   -10947   -10617   -10440   -10471 
  -10563   -10619   -10624   -10508   -10292   -10030    -9663    -9234 
   -8939    -8895    -8978    -9013    -9034    -9119    -9165    -9058 
   -8842    -8603    -8376    -8241    -8317    -8546    -8721    -8739 
   -8618    -8376    -8106    -7900    -7770    -7743    -7877    -8203 
   -8527    -8575    -8498    -8563    -8631    -8519    -8386    -8533 
   -8943    -9289    -9512    -9753    -9934    -9981   -10014   -10142 
  -10323   -10388   -10315   -10268   -10311   -10396   -10444   -10320 
  -10031    -9805    -9734    -9693    -9607    -9495    -9459    -9595 
   -9802   -10003   -10220   -10381   -10420   -10377   -10386   -10542 
  -10675   -10547   -10208    -9931    -9873    -9981   -10184   -10423 
  -10608   -10705   -10777   -10987   -11388   -11762   -11865   -11701 
  -11520   -11485   -11508   -11516   -11510   -11446   -11294   -11036 
  -10724   -10493   -10322   -10021    -9489    -8838    -8357    -8249 
   -8343    -8359    -8322    -8284    -8156    -8091    -8401    -9054 
   -9691   -10012   -10008    -9906    -9859    -9869    -9921    -9923 
   -9788    -9594    -9458    -9418    -9497    -9711    -9961   -10091 
  -10138   -10281   -10548   -10689   -10492   -10207   -10143   -10162 
  -10088    -9991    -9965   -10008   -10021   -10012   -10089   -10162 
  -10050    -9733    -9312    -8907    -8603    -8449    -8503    -8766 
   -9130    -9436    -9605    -9644    -9659    -9850   -10242   -10544 
  -10535   -10368   -10369   -10574   -10793   -11028   -11244   -11229 
  -10975   -10597   -10195    -9886    -9599    -9235    -8942    -8857 
   -8857    -8757    -8592    -8549    -8631    -8698    -8706    -8677 
   -8581    -8437    -8340    -8380    -8599    -8937    -9139    -8935 
