Origin Time       2024/04/02 04:24:00
Lat.              40.133
Long.             141.712
Depth. (km)       71
Mag.              6.0
Station Code      HKD086
Station Lat.      42.8542
Station Long.     143.8579
Station Height(m) 9
Record Time       2024/04/02 04:26:02
Sampling Freq(Hz) 100Hz
Duration Time(s)  78
Dir.              U-D
Scale Factor      3920(gal)/6182761
Max. Acc. (gal)   3.963
Last Correction   2024/04/02 04:26:02
Memo.             
[...]
  -12311   -12236   -12528   -12932   -13056   -12841   -12646   -12716 
  -12996   -13355   -13440   -13312   -13402   -13402   -13249   -13425 
  -13654   -13724   -13833   -13702   -13422   -13490   -13556   -13299 
  -13152   -13023   -12589   -12312   -12489   -12882   -13397   -13864 
  -13896   -13546   -13275   -13224   -13132   -12898   -12773   -12862 
  -12934   -12934   -13015   -13135   -13336   -13765   -13932   -13485 
  -13157   -13213   -13234   -13464   -13933   -14076   -13864   -13657 
  -13621   -13602   -13398   -13191   -13118   -13022   -12900   -12841 
  -12861   -13100   -13599   -13948   -13835   -13478   -13093   -12811 
  -12795   -12800   -12663   -12802   -13188   -13290   -13075   -12729 
  -12440   -12586   -13167   -13570   -13395   -12991   -12853   -13071 
  -13328   -13312   -13168   -13020   -13050   -13538   -13834   -13360 
  -12708   -12366   -12343   -12597   -13024   -13438   -13510   -13277 
  -13132   -13189   -13345   -13436   -13491   -13566   -13482   -13462 
  -13555   -13336   -13133   -13317   -13514   -13626   -13714   -13598 
  -13359   -13197   -13078   -13032   -13104   -13122   -13221   -13396 
  -13206   -13014   -13078   -12919   -12871   -13199   -13405   -13492 
  -13628   -13754   -13853   -13836   -13726   -13426   -12851   -12567 
  -12802   -13046   -13274   -13589   -13582   -13305   -13195   -13240 
  -13297   -13356   -13361   -13227   -12972   -12887   -13041   -12996 
  -12622   -12200   -11926   -12031   -12518   -12988   -13266   -13422 
  -13455   -13419   -13282   -13073   -13069   -13171   -13214   -13509 
  -13844   -13725   -13528   -13502   -13335   -13261   -13401   -13314 
  -13167   -13254   -13281   -13240   -13367   -13567   -13643   -13555 
  -13383   -13107   -12703   -12432   -12489   -12783   -13208   -13529 
  -13503   -13314   -13153   -12991   -13068   -13470   -13839   -14060 
  -14211   -14255   -14153   -13774   -13130   -12601   -12362   -12202 
  -12135   -12394   -12847   -13223   -13553   -13759   -13666   -13411 
  -13103   -12815   -12788   -13079   -13465   -13675   -13714   -13708 
  -13586   -13327   -13031   -12852   -12926   -13135   -13360   -13516 
  -13348   -12931   -12794   -13093   -13480   -13772   -13978   -13959 
  -13570   -13049   -12785   -12680   -12493   -12350   -12342   -12527 
  -12998   -13414   -13560   -13743   -13867   -13829   -13879   -13744 
  -13418   -13399   -13457   -13292   -13054   -12751   -12557   -12651 
  -12748   -12555   -12234   -12184   -12573   -13383   -14204   -14389 
  -14085   -13714   -13321   -13195   -13276   -13106   -12845   -12684 
  -12551   -12651   -12859   -12890   -13053   -13488   -13764   -13478 
  -12867   -12707   -13011   -13247   -13512   -13695   -13384   -12979 
  -13065   -13502   -13777   -13669   -13486   -13434   -13346   -13183 
  -12969   -12726   -12691   -12909   -13133   -13356   -13518   -13236 
  -12700   -12451   -12348   -12268   -12457   -12699   -12793   -13014 
  -13430   -14013   -14744   -15113   -14771   -14106   -13531   -13210 
  -13213   -13254   -12954   -12449   -12220   -12510   -12955   -13029 
  -12766   -12715   -13160   -13558   -13542   -13428   -13191   -12838 
  -12832   -13124   -13268   -13236   -13269   -13414   -13517   -13408 
  -13129   -12950   -12910   -12949   -13237   -13556   -13575   -13546 
  -13452   -13113   -13070   -13384   -13388   -13211   -13277   -13325 
  -13169   -12978   -12759   -12631   -12861   -13138   -13158   -13157 
  -13105   -13010   -13138   -13401   -13761   -14092   -14080   -13959 
  -13864   -13605   -13333   -13182   -13095   -12905   -12560   -12431 
  -12726   -13180   -13435   -13401   -13239   -12923   -12617   -12699 
  -13060   -13429   -13651   -13601   -13227   -12793   -12885   -13230 
  -13138   -12952   -12948   -13084   -13628   -13984   -13512   -12976 
  -12986   -13242   -13595   -13870   -13697   -13479   -13867   -14340 
  -14169   -13542   -12659   -11945   -12375   -13531   -14135   -14255 
  -13997   -13166   -12710   -13011   -13066   -12720   -12528   -12228 
  -11872   -12081   -12599   -13135   -13687   -13976   -14023   -13601 
  -12766   -12315   -12228   -12354   -12807   -13187   -13542   -14003 
  -14209   -14087   -13797   -13583   -13592   -13696   -13749   -13552 
  -13239   -13189   -13176   -13009   -12856   -12702   -12782   -13168 
  -13451   -13455   -13036   -12428   -12250   -12485   -12901   -13381 
  -13725   -14017   -14166   -13855   -13419   -13246   -13262   -13615 
  -14049   -13960   -13704   -13589   -13296   -12921   -12637   -12509 
  -12621   -12901   -13326   -13661   -13615   -13319   -13039   -12929 
  -12956   -12955   -12832   -12713   -12831   -13086   -13145   -13048 
  -13180   -13434   -13332   -13149   -13128   -12878   -12715   -13129 
  -13624   -13620   -13186   -12824   -12994   -13542   -13978   -14086 
  -13787   -13259   -13019   -13103   -13140   -12946   -12646   -12741 
  -13248   -13484   -13450   -13585   -13771   -13820   -13498   -12666 
  -11960   -11827   -12115   -12776   -13470   -13702   -13423   -12950 
  -12804   -13080   -13378   -13555   -13673   -13850   -14136   -14168 
  -13742   -13218   -12836   -12509   -12390   -12780   -13284   -13406 
  -13503   -13587   -13084   -12398   -12326   -12693   -13132   -13653 
  -14016   -13983   -13777   -13588   -13234   -12666   -12355   -12509 
  -12870   -13360   -13657   -13512   -13486   -13687   -13533   -13068 
  -12710   -12587   -12732   -13280   -14107   -14441   -13940   -13440 
  -13390   -13321   -13391   -13799   -13707   -13026   -12641   -12681 
  -12895   -13130   -13218   -13391   -13858   -14232   -13889   -12877 
  -12092   -12035   -12589   -13454   -13799   -13344   -12730   -12200 
  -12141   -12802   -13364   -13608   -13776   -13505   -12966   -12486 
  -12176   -12609   -13592   -14186   -14327   -14300   -13943   -13307 
  -12852   -12971   -13482   -13659   -13386   -13246   -13285   -13313 
  -13399   -13294   -12858   -12635   -12944   -13250   -13186   -13151 
  -13373   -13523   -13340   -12988   -12813   -12902   -13166   -13474 
  -13462   -13096   -12927   -13089   -13173   -13044   -12845   -12752 
  -12971   -13441   -13771   -13824   -13713   -13392   -13178   -13350 
  -13455   -13525   -13733   -13554   -13283   -13358   -13102   -12529 
  -12419   -12686   -13031   -13560   -13859   -13569   -13219   -12829 
  -12176   -11998   -12439   -13031   -13893   -14480   -13980   -13127 
  -12867   -12861   -12827   -12974   -13063   -12970   -12847   -12597 
  -12371   -12442   -12912   -13665   -14178   -14137   -13597   -12795 
  -12261   -12394   -13172   -13924   -14011   -13791   -13482   -13007 
  -13141   -13896   -14116   -13792   -13456   -13213   -13337   -13419 
  -13210   -13315   -13415   -13291   -13415   -13289   -12724   -12456 
  -12524   -12661   -12751   -12523   -12226   -12389   -12821   -13080 
  -13288   -13578   -13698   -13663   -13619   -13504   -13433   -13357 
  -13132   -13205   -13612   -13543   -13123   -13160   -13430   -13595 
  -13642   -13199   -12514   -12252   -12444   -12925   -13218   -12909 
  -12810   -13334   -13505   -13332   -13453   -13466   -13444   -13736 
  -13814   -13624   -13510   -13382   -13153   -12862   -12825   -13049 
  -13215   -13499   -13722   -13565   -13323   -13115   -13051   -13118 
  -12994   -12945   -12985   -12581   -12326   -13176   -14417   -14719 
  -14291   -13958   -13597   -13335   -13403   -13080   -12542   -12671 
  -13139   -13640   -13941   -13324   -12803   -13542   -14049   -13491 
  -12898   -12410   -12193   -12727   -13208   -13232   -13292   -13148 
  -12939   -13304   -13635   -13273   -12691   -12520   -12997   -13697 
  -14003   -13710   -12695   -11616   -11783   -12991   -13933   -14310 
  -14266   -13684   -13068   -12914   -13074   -13488   -13817   -13722 
  -13473   -13159   -12804   -12562   -12601   -13008   -13339   -13513 
  -13673   -13429   -12969   -12722   -12539   -12309   -12154   -12346 
  -12945   -13630   -14183   -14494   -14177   -13225   -12475   -12342 
  -12745   -13522   -13931   -13794   -13358   -12176   -11019   -11602 
  -13537   -14996   -15104   -14183   -13053   -12510   -12748   -13094 
  -13193   -13598   -14297   -14473   -13881   -13081   -12582   -12699 
  -13591   -14318   -13751   -12644   -12124   -12068   -12514   -13603 
  -14418   -14269   -13818   -13612   -13242   -12766   -12845   -13245 
  -13166   -12522   -12107   -12722   -13656   -13769   -13564   -13389 
  -13031   -13207   -13739   -13663   -13248   -13080   -13301   -13511 
  -13255   -12947   -12702   -12232   -11967   -12271   -13064   -13826 
  -13784   -13255   -13026   -13093   -13145   -13069   -13349   -14025 
  -14066   -13458   -13090   -13034   -12897   -12523   -12379   -12758 
  -13048   -13093   -13410   -13740   -13722   -13926   -14072   -13352 
  -12875   -13474   -13659   -12793   -12273   -12697   -13219   -13587 
  -14133   -14324   -13620   -12808   -12806   -13183   -13422   -13753 
  -13607   -12801   -12712   -13117   -12651   -12018   -12108   -12202 
  -12099   -12682   -13685   -13981   -13974   -14115   -13604   -12928 
  -13035   -13181   -13168   -13297   -13074   -13168   -13956   -14073 
  -13503   -13079   -12447   -11865   -12343   -13230   -13318   -13380 
  -14040   -14166   -13755   -13692   -13433   -12822   -12677   -13007 
  -13140   -12728   -12555   -13148   -13546   -13357   -12902   -12242 
  -12010   -12775   -14314   -15673   -15429   -13795   -12515   -12248 
  -12751   -13556   -13895   -13795   -13666   -13301   -12789   -12516 
  -12294   -12103   -12362   -13137   -14007   -14331   -13827   -13037 
  -12670   -12497   -12277   -12732   -13763   -14386   -14434   -14082 
  -13394   -12730   -12742   -13525   -14288   -14615   -14414   -13323 
  -11848   -11224   -11573   -12133   -12745   -13339   -13503   -13102 
  -12523   -12668   -13264   -13358   -13679   -14293   -14124   -13751 
  -13760   -13558   -13107   -12745   -12609   -12684   -12573   -12379 
  -12551   -12879   -13431   -14237   -14471   -13593   -12188   -11850 
  -12969   -13866   -14201   -14481   -13789   -12696   -12826   -13295 
  -13013   -12742   -12667   -12256   -11872   -12175   -13217   -14217 
  -14504   -14310   -13600   -12712   -12461   -12367   -12513   -13352 
  -13936   -14087   -13749   -12504   -11575   -11857   -13006   -14285 
  -14535   -13983   -13861   -14182   -13918   -12736   -12124   -12697 
  -13188   -13528   -13660   -13078   -12995   -13598   -13630   -13112 
  -12499   -12438   -13323   -14264   -14766   -14805   -14099   -13112 
  -12431   -12247   -12734   -13573   -14326   -14402   -13551   -12971 
  -13081   -13247   -13673   -13665   -12526   -11906   -12701   -13660 
  -13960   -13609   -13086   -13140   -13318   -12856   -12603   -12860 
  -12672   -12556   -13181   -13893   -14386   -14359   -13817   -13467 
  -13197   -13101   -13400   -13128   -12445   -12480   -12910   -13168 
  -13204   -12974   -12770   -12699   -12751   -12954   -12950   -12855 
  -12985   -13280   -13822   -14062   -13492   -12756   -12556   -13176 
  -14146   -14428   -13959   -13234   -12452   -12037   -12250   -12740 
  -13157   -13641   -14093   -13945   -13700   -13777   -13043   -12036 
  -12295   -12655   -12567   -13337   -13996   -13652   -13662   -13730 
  -12828   -12065   -12225   -12773   -13548   -14228   -14309   -14008 
  -13259   -12289   -12258   -13034   -13693   -14027   -13855   -13598 
  -13728   -13569   -13106   -13220   -13416   -12725   -12070   -12581 
  -13518   -13912   -13791   -13481   -13237   -13023   -12869   -13169 
  -13474   -12824   -12001   -12182   -12609   -12911   -14015   -15222 
  -15099   -14156   -13165   -12120   -11692   -12076   -12355   -12408 
  -12405   -12158   -12312   -13378   -14506   -14747   -14318   -13921 
  -13436   -12617   -12155   -12444   -12726   -12653   -12908   -13268 
  -12981   -12894   -13365   -13548   -13838   -14084   -13485   -12976 
  -12994   -12997   -13146   -13431   -13439   -12780   -11913   -12332 
  -14002   -14989   -14589   -13766   -12842   -12169   -12797   -13932 
  -14083   -13755   -13575   -13317   -13096   -13188   -13496   -13682 
  -13816   -13860   -13057   -11727   -10991   -10752   -11013   -12271 
  -13854   -14752   -15121   -15533   -15515   -14614   -13432   -12283 
  -11370   -11048   -11234   -12350   -14101   -14932   -15051   -15209 
  -14432   -12887   -12253   -12660   -13108   -13376   -13343   -12679 
  -12261   -12777   -13273   -13426   -13727   -13867   -13727   -13672 
  -13723   -13709   -13406   -12915   -12451   -11743   -11280   -12087 
  -13505   -14392   -14823   -14624   -13645   -12616   -11632   -10971 
  -11672   -13294   -14497   -14647   -13659   -12519   -12440   -13028 
  -13268   -13170   -13308   -13918   -14636   -14769   -14369   -13707 
  -12408   -11466   -11997   -12693   -12782   -12898   -13297   -13881 
  -14109   -14188   -14638   -14783   -14470   -14322   -14260   -13880 
  -13180   -12349   -11722   -11840   -12480   -12735   -12570   -12660 
  -13084   -13559   -14090   -14207   -13277   -11951   -11302   -11316 
  -11545   -11874   -12372   -13102   -13827   -14439   -15017   -14931 
  -14170   -13805   -13599   -12837   -11913   -11089   -10934   -12460 
  -14968   -16523   -16364   -15247   -14099   -13230   -12583   -11982 
  -11333   -10970   -11082   -11115   -10831   -10836   -11648   -13533 
  -16197   -18291   -18863   -18258   -16942   -15004   -12537    -9851 
   -7751    -6967    -7480    -9045   -11151   -13376   -15921   -18031 
  -18288   -16743   -14477   -12728   -12348   -12932   -13335   -13092 
  -12770   -12569   -12367   -12879   -13894   -14105   -13592   -12839 
  -12005   -11904   -12405   -12821   -13247   -13298   -13107   -13444 
  -13847   -13901   -13796   -13825   -14060   -13604   -12791   -12910 
  -13322   -13504   -13935   -14347   -14339   -13589   -12545   -12197 
  -11887   -11161   -10768   -10589   -10929   -12504   -14339   -15351 
  -15709   -15396   -14170   -12706   -11835   -11645   -11977   -12589 
  -13446   -14399   -14791   -14914   -15076   -14377   -13116   -12279 
  -11571   -10908   -11088   -12158   -13246   -14341   -15607   -16078 
  -15732   -15266   -14094   -12513   -11936   -11673   -10729    -9860 
   -9429    -9818   -11348   -12995   -14090   -14645   -15101   -15996 
  -16707   -16701   -15687   -13475   -11467   -10663   -10299    -9906 
   -9914   -10976   -12763   -14142   -14963   -15235   -15055   -15349 
  -15527   -14518   -13188   -12193   -11449   -11130   -11109   -11709 
  -13379   -15032   -15747   -15774   -14877   -13959   -14405   -14368 
  -12716   -11617   -11588   -11686   -12078   -12154   -11297   -10606 
  -10824   -12159   -14681   -16905   -17483   -17116   -16881   -16534 
  -15498   -14106   -12367   -10381    -9633   -10363   -11273   -12443 
  -13958   -14735   -14857   -14798   -14019   -12767   -11856   -11538 
  -11749   -11945   -12089   -12555   -13208   -14238   -15254   -15127 
  -14193   -13286   -12397   -11646   -10920   -10168   -10320   -11615 
  -13378   -15387   -16950   -16892   -15597   -14499   -13682   -12512 
  -11497   -11167   -11095   -11090   -11537   -12525   -13513   -14210 
  -14707   -14565   -13716   -12932   -12461   -12310   -12516   -12708 
  -12883   -12992   -13157   -14277   -15612   -15904   -15866   -15477 
  -14234   -13313   -13297   -13227   -12268   -10816    -9883    -9748 
  -10424   -11841   -13209   -13802   -13881   -13993   -14101   -14289 
  -14384   -13675   -12554   -11855   -12033   -13579   -15953   -17676 
  -17855   -16872   -15187   -12962   -11405   -10948   -10926   -11591 
  -12410   -12215   -11301   -10533   -10650   -11741   -12736   -13111 
  -13367   -13658   -13838   -13920   -14084   -14281   -14198   -14145 
  -14298   -14420   -14644   -14548   -13834   -13030   -12245   -11627 
  -10873    -9357    -8404    -8915    -9713   -10833   -12906   -14966 
  -16149   -16575   -16107   -15051   -14846   -15303   -15203   -15324 
  -15480   -14445   -13700   -13766   -12853   -11874   -12204   -12303 
  -11966   -12692   -13727   -14057   -14306   -14323   -13976   -13956 
  -13683   -13083   -13408   -14069   -13630   -12331   -11389   -11495 
  -12049   -12707   -13904   -14519   -13537   -12477   -12291   -12473 
  -12734   -12556   -12161   -12345   -12734   -13049   -13717   -14359 
  -14341   -14211   -14526   -14581   -13864   -13024   -12567   -12195 
  -12041   -12832   -14060   -14367   -14109   -14570   -15018   -14361 
  -13623   -13072   -11897   -10853   -10390   -10111   -10266   -10869 
  -11839   -13157   -14591   -16043   -16932   -16867   -16176   -14869 
  -13485   -12739   -12092   -11416   -11462   -12269   -13026   -13411 
  -13858   -13915   -13238   -12724   -12603   -12526   -12575   -12936 
  -13609   -14364   -15180   -15726   -15392   -14586   -13671   -12208 
  -10566    -9727    -9982   -10990   -12400   -13906   -14685   -14192 
  -13140   -12328   -11976   -11902   -11616   -11415   -11828   -12630 
  -13898   -15191   -15543   -15582   -15799   -15190   -13675   -12148 
  -11010   -10453   -10547   -11000   -11663   -12752   -14162   -15350 
  -15898   -15474   -14542   -14234   -14341   -14011   -13467   -12943 
  -12231   -11633   -11641   -11954   -12090   -12488   -13351   -13967 
  -14209   -14380   -14223   -13481   -12424   -11745   -11647   -11623 
  -11689   -12071   -12542   -13125   -13737   -13924   -13645   -13118 
  -12267   -11330   -11472   -13192   -15100   -16101   -16432   -16234 
  -15666   -15255   -15088   -14514   -13379   -12602   -12528   -12817 
  -13091   -12590   -11565   -11191   -11371   -11461   -11707   -12407 
  -13393   -14294   -14698   -14620   -14211   -13466   -12855   -12554 
  -12038   -11507   -11350   -11334   -11690   -12599   -13499   -14031 
  -14471   -15387   -16581   -17222   -17125   -16319   -15015   -13762 
  -12726   -12224   -12106   -11559   -11129   -11653   -12401   -12501 
  -12122   -11778   -11468   -11053   -10927   -11327   -11732   -12010 
  -12938   -14180   -14386   -13987   -13944   -13719   -13392   -13737 
  -14423   -14815   -14909   -14848   -14397   -13862   -14064   -14344 
  -13631   -12523   -11882   -11929   -12789   -13792   -13816   -12928 
  -12059   -11504   -11150   -11192   -11550   -11965   -12523   -13171 
  -13854   -14639   -15066   -14777   -14235   -13925   -13805   -13534 
  -13072   -12793   -12647   -12546   -12686   -12897   -13342   -14200 
  -14895   -15295   -15502   -15245   -14554   -13489   -12189   -11020 
  -10265   -10324   -11069   -11909   -12713   -13358   -13695   -13987 
  -14236   -14014   -13384   -12858   -12672   -12865   -13295   -13709 
  -14029   -14128   -13996   -13807   -13857   -14206   -13846   -12624 
  -12134   -12475   -12764   -13314   -13616   -12924   -12417   -12703 
  -13159   -13896   -14356   -13509   -12199   -11533   -11281   -11399 
  -12081   -12456   -11891   -11448   -11868   -12306   -12634   -13530 
  -14422   -15043   -16234   -17556   -17882   -17326   -16545   -15625 
  -14413   -13302   -12498   -11640   -10959   -10688   -10426   -10458 
  -11254   -12300   -13243   -13934   -13759   -12914   -12231   -11659 
  -11122   -11141   -11801   -12912   -14216   -15266   -15893   -16039 
  -15714   -15214   -14937   -14972   -14793   -14023   -12901   -11928 
