Origin Time       2024/04/02 04:24:00
Lat.              40.133
Long.             141.712
Depth. (km)       71
Mag.              6.0
Station Code      HKD089
Station Lat.      43.2436
Station Long.     143.5544
Station Height(m) 90
Record Time       2024/04/02 04:26:07
Sampling Freq(Hz) 100Hz
Duration Time(s)  60
Dir.              U-D
Scale Factor      7845(gal)/8223790
Max. Acc. (gal)   2.055
Last Correction   2024/04/02 04:26:08
Memo.             
[...]
   10316    10243    10328    10395    10295    10115     9934     9961 
   10365    10774    10615     9979     9680    10099    10602    10632 
   10368    10139    10076    10169    10245    10137    10056    10326 
   10723    10766    10415    10003     9840    10066    10485    10659 
   10480    10216    10073    10127    10366    10563    10503    10242 
    9985     9914    10027    10099    10075    10135    10323    10465 
   10345    10049    10015    10370    10609    10255     9667     9609 
   10092    10563    10762    10679    10330     9904     9848    10287 
   10714    10755    10470     9960     9579     9815    10476    10881 
   10741    10301     9883     9725     9941    10366    10648    10598 
   10373    10181    10019     9910     9941    10048    10080     9931 
    9643     9543     9950    10623    10951    10733    10272     9914 
    9875    10145    10419    10463    10368    10295    10320    10381 
   10381    10380    10382    10245    10049     9981    10042    10173 
   10272    10311    10463    10577    10268     9807     9828    10346 
   10848    10882    10413     9957    10012    10399    10528    10269 
   10014     9949     9973    10069    10166    10165    10087    10002 
   10061    10331    10590    10552    10173     9844    10025    10570 
   10899    10706    10184     9759     9742    10038    10220    10168 
   10230    10486    10525    10095     9605     9688    10237    10516 
   10315    10050     9930     9981    10293    10689    10813    10521 
   10064     9911    10216    10611    10646    10268     9837     9742 
   10035    10358    10324    10026     9942    10312    10804    10836 
   10372     9957    10012    10436    10724    10567    10245    10138 
   10207    10241    10332    10565    10551    10069     9598     9684 
   10242    10658    10561    10293    10264    10401    10484    10407 
   10191     9961     9841     9930    10187    10416    10459    10196 
    9783     9733    10169    10592    10585    10265    10023    10027 
   10239    10573    10733    10521    10131     9845     9814    10166 
   10845    11257    10843    10027     9649     9876    10357    10692 
   10597    10154     9787     9815    10161    10494    10524    10223 
    9922     9977    10309    10593    10640    10444    10146    10008 
   10196    10381    10185     9896     9907    10112    10341    10530 
   10532    10336    10152    10122    10211    10241    10103     9975 
   10045    10214    10260    10158    10143    10277    10255    10042 
    9967    10123    10312    10345    10176     9894     9747     9985 
   10395    10546    10474    10377    10223    10125    10326    10685 
   10795    10467     9887     9643    10089    10616    10521    10060 
    9909    10242    10693    10817    10470     9941     9671     9786 
   10095    10345    10395    10234     9933     9828    10164    10646 
   10901    10820    10485    10152    10007    10048    10292    10677 
   10760    10254     9621     9472     9853    10458    10920    10886 
   10399     9937     9867    10166    10569    10704    10423    10083 
   10042    10168    10210    10080     9963    10237    10706    10696 
   10133     9694     9938    10557    10737    10304     9791     9682 
   10021    10443    10544    10247     9871     9910    10332    10467 
   10099     9807     9949    10260    10430    10424    10376    10341 
   10254    10220    10422    10547    10177     9693     9802    10372 
   10716    10642    10359    10064    10031    10289    10397    10089 
    9709     9768    10323    10872    10867    10258     9558     9451 
   10088    10798    10941    10573    10156    10029    10066    10123 
   10395    10782    10783    10312     9829     9633     9744    10234 
   10889    11063    10569     9903     9590     9838    10427    10716 
   10301     9626     9482    10031    10752    11009    10559     9876 
    9580     9761    10220    10681    10746    10260     9593     9369 
    9891    10751    11133    10731    10049     9659     9605     9821 
   10428    11053    10901    10068     9516     9742    10380    10698 
   10400    10012    10095    10423    10516    10400    10299    10184 
   10095    10223    10566    10882    10901    10501     9944     9722 
   10010    10453    10646    10571    10309     9834     9526     9875 
   10539    10902    10827    10358     9828     9844    10444    10949 
   10855    10234     9593     9593    10207    10638    10476     9944 
    9482     9486     9909    10374    10551    10324     9937     9740 
    9850    10176    10493    10647    10658    10501    10158     9819 
    9760    10149    10778    11083    10781    10191     9818     9973 
   10528    11009    11020    10459     9734     9567    10072    10609 
   10679    10378    10126    10147    10292    10295    10054     9883 
   10112    10432    10507    10493    10336     9914     9636     9861 
   10363    10679    10573    10174     9919    10142    10589    10716 
   10400     9958     9752     9841    10048    10270    10374    10255 
   10166    10231    10218    10133    10176    10323    10415    10346 
   10083     9805     9911    10404    10741    10629    10181     9724 
    9710    10123    10463    10467    10226     9981     9987    10272 
   10531    10385     9960     9836    10288    10948    11076    10415 
    9659     9504     9954    10659    11074    10840    10250     9757 
    9617     9927    10373    10585    10577    10342     9933     9761 
   10046    10482    10670    10476    10098     9861     9886    10044 
   10254    10507    10606    10296     9765     9709    10400    11086 
   10924    10025     9193     9236    10185    11040    11006    10403 
    9841     9599     9921    10755    11298    10881     9977     9508 
    9787    10530    11037    10725     9933     9431     9518    10075 
   10744    10993    10519     9776     9524     9753    10081    10516 
   10841    10589     9937     9547     9844    10624    11115    10762 
    9946     9490     9661    10181    10746    11059    10797     9972 
    9270     9472    10500    11438    11445    10532     9591     9445 
   10100    10932    11146    10486     9659     9540    10104    10701 
   10929    10702    10079     9517     9585    10239    10876    10875 
   10149     9363     9238     9806    10558    10930    10808    10498 
   10123     9729     9779    10457    10993    10767    10220     9929 
    9904    10087    10382    10532    10486    10326    10064     9917 
   10141    10531    10571    10077     9540     9525    10023    10574 
   10697    10365     9971     9778     9802    10112    10710    11072 
   10566     9551     9097     9605    10465    10817    10370     9691 
    9579    10138    10701    10756    10552    10400    10125     9709 
    9663    10309    11001    10852    10022     9385     9537    10315 
   10844    10683    10373    10246    10071     9898    10066    10571 
   10940    10763    10156     9649     9711    10250    10648    10562 
   10288    10189    10237    10237    10231    10319    10411    10362 
   10111     9967    10288    10713    10773    10505    10008     9585 
    9724    10239    10534    10480    10222     9942     9984    10354 
   10628    10640    10477    10158     9896     9992    10266    10385 
   10386    10200     9832     9790    10206    10648    10802    10498 
    9954     9718     9900    10193    10409    10443    10212     9882 
    9763    10000    10471    10793    10678    10346    10216    10366 
   10501    10388    10123     9883     9836    10231    10845    10979 
   10536    10045     9892    10222    10716    10825    10554    10206 
    9929     9888    10119    10399    10515    10401    10123     9904 
    9969    10233    10374    10308    10215    10127    10008     9981 
   10125    10404    10605    10370     9753     9377     9730    10547 
   10989    10665    10079     9759     9761    10002    10161    10012 
    9944    10197    10446    10507    10370    10108    10083    10411 
   10643    10489    10212    10056    10008    10126    10349    10449 
   10454    10476    10427    10223     9915     9803    10145    10681 
   10902    10646    10139     9648     9383     9562    10103    10597 
   10650    10218     9809     9964    10558    11007    10976    10565 
   10057     9811     9942    10112    10162    10343    10525    10327 
   10056    10260    10767    11002    10731    10195     9813     9805 
   10102    10443    10579    10415     9995     9583     9510     9728 
    9981    10188    10322    10343    10200     9994    10056    10440 
   10724    10593    10322    10309    10436    10516    10655    10678 
   10305     9840     9850    10322    10650    10505    10038     9612 
    9778    10623    11334    11113    10068     9065     8901     9629 
   10544    10829    10403     9909     9817    10104    10532    10805 
   10762    10400     9918     9753    10116    10608    10575    10038 
    9756     9991    10255    10272    10272    10424    10349     9856 
    9659    10230    11071    11357    10631     9541     9397    10207 
   10696    10392     9945     9695     9644    10061    10791    11034 
   10517     9745     9329     9672    10577    11261    11072    10114 
    9302     9401    10199    10949    11125    10721    10058     9447 
    9250     9761    10746    11520    11566    10856     9814     9242 
    9690    10566    10740    10083     9479     9630    10481    11256 
   11256    10748    10332    10211    10428    10751    10697    10192 
    9593     9309     9728    10760    11491    11222    10349     9606 
    9404     9778    10260    10361    10146     9983    10023    10089 
   10027     9934     9985    10184    10332    10307    10219    10282 
   10602    10833    10374     9355     8722     9147    10376    11391 
   11237    10061     8992     9007    10054    11107    11349    10967 
   10465    10158    10206    10400    10372    10138     9976     9946 
    9980    10154    10358    10373    10385    10606    10801    10617 
   10146     9911    10152    10434    10343    10007     9801    10008 
   10586    11060    10881     9942     8988     8981     9837    10755 
   11308    11404    10986    10291     9869     9911     9909     9478 
    9093     9490    10417    10759    10226     9718     9934    10766 
   11506    11403    10569     9760     9391     9460     9849    10359 
   10692    10581    10187    10056    10280    10314     9961     9724 
    9895    10265    10631    10781    10642    10605    10787    10640 
    9999     9418     9405    10065    10910    11097    10469     9738 
    9563    10071    10901    11383    11082    10293     9737     9736 
    9930     9931     9767     9632     9801    10378    10750    10297 
    9603     9648    10389    11059    11064    10399     9691     9477 
    9690    10158    10620    10586    10110     9787     9864    10197 
   10505    10521    10237     9864     9819    10250    10602    10449 
   10056     9814     9882    10184    10546    10814    10790    10486 
   10172     9910     9759     9915    10327    10663    10542    10017 
    9726    10033    10646    10974    10597     9867     9551     9873 
   10453    10712    10342     9828     9903    10497    11017    11250 
   11163    10639     9922     9440     9313     9558    10127    10619 
   10532     9941     9547     9795    10399    10955    11207    10868 
   10011     9263     9289    10131    11061    11241    10534     9583 
    9207     9651    10374    10658    10424    10207    10336    10624 
   10724    10551    10403    10420    10304    10084    10200    10574 
   10604    10108     9636     9732    10239    10565    10430    10206 
   10409    10943    11242    10979    10233     9536     9528    10087 
   10548    10596    10282     9904     9784     9842     9960    10268 
   10601    10639    10488    10361    10180     9833     9517     9663 
   10330    10929    10932    10346     9526     9062     9320     9931 
   10327    10430    10377    10152     9861     9788    10116    10860 
   11612    11680    10871     9702     9004     9294    10239    11070 
   11253    10806    10390    10486    10679    10519    10277    10211 
   10068     9745     9512     9553     9818    10100    10332    10579 
   10639    10351     9973     9668     9553     9999    10740    10762 
    9972     9545    10184    11241    11662    11011     9880     9362 
    9714    10200    10215     9948    10096    10794    11196    10687 
    9675     9018     9333    10332    10872    10484     9787     9305 
    9296     9880    10663    11118    11057    10478     9613     9119 
    9486    10319    10897    11026    10854    10528    10204     9973 
    9936    10164    10436    10384     9942     9520     9624    10269 
   10998    11260    10596     9302     8694     9652    11379    12290 
   11763    10494     9495     9355     9992    10628    10687    10328 
    9764     9366     9764    10655    10914    10361     9856     9728 
    9702     9810    10052    10130    10006     9952    10241    10833 
   11306    11321    10902    10258     9702     9679    10372    11173 
   11153    10262     9385     9278    10029    11083    11523    10909 
    9822     9197     9418    10210    10978    11167    10705    10066 
    9734     9891    10278    10288     9763     9410    10003    11217 
   11761    10910     9343     8430     9012    10597    11728    11367 
    9890     8699     8885    10278    11794    12395    11681    10145 
    8830     8399     8934    10156    11241    11272    10297     9401 
    9433    10103    10723    11001    10820    10322     9936     9887 
   10165    10574    10746    10602    10372    10230    10260    10307 
   10061     9571     9313     9634    10353    10895    10827    10270 
    9886    10197    10839    11011    10567     9957     9585     9575 
    9855    10282    10531    10358    10107    10065     9981     9811 
    9857    10161    10438    10528    10458    10165     9761     9664 
   10092    10759    10979    10432     9651     9360     9844    10832 
   11576    11497    10658     9535     8903     9319    10378    11160 
   11084    10203     9198     8866     9371    10242    10871    10939 
   10548    10084     9973    10237    10511    10589    10465    10150 
    9848     9998    10712    11331    11076    10050     9185     9147 
    9744    10440    10863    10813    10396    10034    10110    10579 
   10967    10837    10235     9632     9536    10048    10573    10450 
    9929     9767    10089    10498    10802    10952    10875    10666 
   10347     9857     9598     9994    10581    10613    10007     9364 
    9379    10042    10732    11040    10887    10295     9628     9495 
   10041    10674    10767    10362     9956     9933    10308    10690 
   10735    10578    10465    10403    10226     9876     9599     9595 
    9769     9926     9934     9914    10030    10219    10435    10678 
   10735    10453    10080     9950    10125    10462    10750    10754 
   10435    10098    10029    10080     9917     9598     9607    10153 
   10841    11151    10814     9953     9159     8982     9347     9919 
   10569    11119    11230    10760    10068     9680     9805    10285 
   10687    10616    10254    10111    10269    10373    10287    10222 
   10251    10295    10304    10133     9933    10142    10528    10451 
   10019     9954    10469    10875    10679    10246     9952     9842 
   10019    10361    10494    10417    10382    10405    10427    10480 
   10467    10212     9805     9599     9822    10365    10831    10775 
   10251     9801     9763    10080    10542    10847    10658     9969 
    9381     9533    10332    11090    11206    10555     9602     9146 
    9540    10396    11122    11195    10397     9294     8912     9625 
   10768    11381    10987     9969     9328     9617    10530    11371 
   11381    10461     9591     9578    10099    10485    10508    10272 
    9949     9783     9976    10463    10974    11114    10597     9748 
    9381     9911    10854    11264    10786     9998     9605     9771 
   10193    10449    10347    10050     9838     9914    10309    10778 
   10874    10330     9394     8814     9139    10095    10970    11267 
   10886    10172     9795    10138    10783    11022    10651     9990 
    9514     9548    10034    10681    11115    10930    10195     9552 
    9470     9899    10503    10918    10889    10292     9525     9386 
    9977    10543    10563    10201     9803     9637     9896    10411 
   10758    10763    10478    10093    10019    10434    10885    10758 
   10052     9483     9672    10396    10868    10686    10189     9900 
    9950    10161    10392    10566    10528    10174     9728     9614 
    9921    10308    10498    10393     9988     9529     9437     9880 
   10540    10898    10747    10235     9675     9533    10060    10748 
   10858    10420    10058    10183    10683    11043    10856    10237 
    9580     9252     9414     9909    10397    10629    10513    10118 
    9772     9817    10152    10420    10435    10230     9996    10008 
   10343    10768    10989    10808    10301     9956    10116    10519 
   10764    10789    10640    10380    10189    10168    10293    10480 
   10517    10347    10176    10191    10351    10331     9927     9505 
    9555    10061    10539    10573    10251     9976     9942    10050 
   10158    10233    10260    10227    10211    10235    10295    10435 
   10459    10170     9937    10089    10331    10377    10326    10316 
   10370    10393    10292    10169    10218    10451    10640    10543 
   10177     9910    10054    10351    10373    10309    10578    11070 
   11315    11049    10507    10165    10231    10536    10778    10783 
   10600    10362    10147     9948     9809     9867    10119    10345 
   10327    10085     9817     9694     9869    10330    10632    10453 
   10131     9980     9845     9661     9567     9591     9776    10157 
   10534    10611    10365    10044     9825     9721     9772    10007 
   10304    10462    10470    10511    10596    10540    10288     9991 
    9888    10050    10251    10261    10084     9922     9948    10123 
   10285    10355    10426    10517    10422    10139    10022    10165 
   10319    10370    10382    10407    10520    10693    10720    10465 
   10038     9753     9809    10065    10278    10384    10469    10547 
   10480    10261    10149    10289    10404    10247    10026     9936 
   10023    10422    10939    11047    10575     9869     9401     9389 
    9752    10235    10447    10253    10011    10031    10226    10353 
   10222     9892     9616     9603     9938    10322    10320    10021 
    9776     9790    10087    10450    10658    10710    10706    10697 
   10605    10427    10327    10301    10201    10021     9910    10007 
   10197    10246    10193    10195    10219    10193    10147    10157 
   10193    10142     9963     9715     9589     9788    10195    10449 
   10453    10389    10405    10496    10611    10795    11026    11137 
   11014    10697    10384    10251    10231    10184    10075     9950 
    9894     9907     9969    10118    10258    10219    10064    10071 
   10374    10682    10575    10025     9418     9293     9855    10561 
