Origin Time       2024/04/02 04:24:00
Lat.              40.133
Long.             141.712
Depth. (km)       71
Mag.              6.0
Station Code      HKD085
Station Lat.      42.9581
Station Long.     144.0698
Station Height(m) 5
Record Time       2024/04/02 04:26:04
Sampling Freq(Hz) 100Hz
Duration Time(s)  73
Dir.              N-S
Scale Factor      7845(gal)/8223790
Max. Acc. (gal)   2.761
Last Correction   2024/04/02 04:26:05
Memo.             
[...]
    2766     2857     2970     3040     3030     2952     2845     2741 
    2627     2523     2482     2500     2575     2712     2812     2766 
    2617     2489     2465     2562     2754     2992     3213     3345 
    3352     3246     3115     3046     3033     3024     3005     2974 
    2933     2874     2774     2662     2614     2666     2770     2870 
    2945     2988     2978     2934     2916     2929     2960     2986 
    2964     2875     2758     2670     2652     2724     2848     2922 
    2891     2793     2693     2639     2677     2799     2918     2957 
    2934     2886     2832     2820     2883     2976     3033     3018 
    2932     2786     2647     2601     2678     2826     2972     3051 
    3040     2978     2910     2839     2770     2749     2768     2756 
    2698     2662     2705     2820     2933     2986     2990     2987 
    2976     2929     2864     2849     2894     2960     3026     3083 
    3106     3096     3082     3044     2972     2898     2837     2776 
    2739     2760     2808     2825     2840     2898     2968     3001 
    2997     2986     2982     2994     3017     3011     2948     2830 
    2713     2668     2708     2770     2801     2793     2778     2793 
    2836     2890     2953     3024     3065     3048     3002     2975 
    2968     2960     2943     2930     2944     2960     2903     2748 
    2579     2479     2448     2467     2524     2592     2643     2695 
    2768     2848     2905     2909     2864     2841     2902     2991 
    3021     3014     3029     3057     3061     3022     2952     2897 
    2887     2891     2867     2826     2806     2806     2798     2783 
    2805     2866     2913     2899     2825     2720     2647     2647 
    2712     2793     2845     2874     2916     2965     2991     2968 
    2914     2883     2917     2980     3001     2934     2799     2648 
    2547     2548     2646     2774     2848     2825     2744     2685 
    2705     2795     2893     2934     2886     2781     2690     2647 
    2652     2709     2791     2840     2839     2840     2889     2968 
    3028     3030     2991     2960     2952     2933     2901     2902 
    2930     2920     2860     2789     2733     2714     2741     2801 
    2875     2952     3017     3044     3017     2967     2940     2972 
    3046     3096     3075     3022     3007     3007     2956     2841 
    2736     2745     2860     2951     2940     2891     2886     2903 
    2857     2759     2740     2871     3052     3132     3079     2994 
    2936     2879     2802     2749     2798     2947     3059     3019 
    2893     2799     2760     2716     2647     2605     2644     2747 
    2841     2897     2949     3028     3082     3056     2982     2925 
    2909     2913     2895     2880     2928     2995     2988     2907 
    2862     2907     2990     3019     2984     2928     2884     2841 
    2781     2735     2759     2802     2774     2700     2660     2685 
    2778     2905     2986     2972     2893     2779     2640     2508 
    2455     2492     2570     2650     2704     2752     2818     2879 
    2905     2906     2893     2845     2767     2709     2724     2839 
    2988     3038     2959     2852     2813     2829     2843     2843 
    2859     2899     2938     2905     2754     2565     2471     2498 
    2596     2732     2890     3025     3088     3073     2995     2890 
    2837     2889     3010     3132     3184     3140     3049     2978 
    2944     2955     2998     3017     2964     2871     2826     2863 
    2920     2953     2984     3009     3003     2971     2921     2867 
    2867     2937     2987     2953     2894     2891     2944     3007 
    3056     3068     3017     2914     2810     2733     2683     2664 
    2651     2617     2597     2609     2623     2604     2571     2575 
    2646     2779     2959     3134     3250     3250     3117     2913 
    2756     2725     2810     2957     3113     3234     3308     3346 
    3318     3180     2982     2852     2836     2872     2917     2937 
    2883     2767     2683     2701     2794     2893     2903     2789 
    2654     2639     2727     2795     2816     2814     2775     2671 
    2560     2551     2674     2839     2926     2898     2795     2685 
    2612     2594     2593     2559     2515     2517     2583     2678 
    2756     2810     2863     2934     3006     3048     3049     3015 
    2944     2852     2803     2866     3032     3207     3294     3269 
    3177     3068     2975     2916     2884     2889     2921     2937 
    2909     2851     2797     2776     2809     2884     2997     3138 
    3258     3254     3122     2948     2793     2700     2705     2770 
    2798     2754     2698     2687     2708     2743     2799     2868 
    2910     2907     2887     2902     2983     3099     3164     3125 
    2988     2799     2658     2670     2821     2947     2899     2708 
    2524     2462     2496     2575     2682     2771     2779     2695 
    2571     2477     2425     2408     2451     2571     2713     2801 
    2826     2840     2897     2997     3082     3121     3159     3210 
    3198     3069     2880     2732     2686     2764     2947     3121 
    3165     3069     2902     2740     2663     2698     2797     2906 
    3026     3138     3175     3095     2933     2778     2724     2805 
    2937     3001     2978     2936     2922     2898     2820     2737 
    2733     2805     2883     2899     2845     2786     2779     2822 
    2862     2868     2871     2902     2957     3041     3141     3214 
    3211     3102     2901     2728     2686     2736     2791     2818 
    2786     2686     2609     2613     2646     2673     2736     2851 
    2961     2999     2968     2926     2917     2938     2979     3015 
    3033     3036     3026     2988     2917     2874     2924     3036 
    3136     3191     3175     3098     3053     3080     3095     3036 
    2955     2891     2814     2735     2708     2751     2853     2971 
    3029     3010     2934     2799     2659     2616     2662     2702 
    2706     2710     2741     2802     2871     2926     2982     3064 
    3127     3087     2974     2899     2875     2832     2760     2694 
    2647     2623     2639     2701     2767     2772     2687     2546 
    2425     2393     2484     2677     2905     3096     3203     3195 
    3069     2874     2690     2594     2619     2722     2814     2820 
    2744     2636     2540     2484     2517     2709     3011     3230 
    3227     3061     2840     2652     2589     2633     2679     2705 
    2768     2848     2890     2913     2952     2947     2844     2704 
    2609     2605     2728     2926     3055     3057     3015     3006 
    3041     3091     3102     3091     3134     3221     3273     3252 
    3154     3028     2934     2902     2964     3107     3219     3203 
    3055     2835     2627     2496     2474     2548     2689     2844 
    2920     2863     2772     2752     2771     2763     2735     2740 
    2801     2855     2810     2683     2594     2600     2670     2752 
    2840     2970     3110     3150     3030     2826     2686     2700 
    2797     2855     2832     2764     2721     2733     2732     2677 
    2662     2787     3024     3219     3249     3154     3053     3007 
    3015     3032     3019     3010     3029     3036     2976     2851 
    2728     2673     2708     2826     2961     2999     2925     2852 
    2822     2770     2710     2733     2816     2864     2851     2818 
    2810     2844     2899     2926     2918     2929     2937     2853 
    2687     2571     2600     2735     2878     2933     2880     2814 
    2841     2945     3045     3113     3145     3113     3029     2974 
    2975     2984     2970     2944     2905     2855     2830     2843 
    2851     2832     2825     2848     2863     2849     2843     2847 
    2808     2698     2577     2531     2612     2799     2941     2894 
    2751     2744     2948     3177     3240     3138     2990     2868 
    2799     2779     2818     2949     3102     3100     2891     2629 
    2504     2556     2700     2818     2853     2826     2776     2689 
    2571     2527     2641     2847     2988     3002     2970     3003 
    3087     3115     3048     2936     2837     2771     2747     2775 
    2847     2936     3010     2986     2818     2619     2567     2687 
    2802     2801     2785     2875     3030     3111     3106     3117 
    3180     3231     3176     3029     2970     3098     3256     3268 
    3183     3129     3095     2999     2840     2729     2756     2851 
    2849     2689     2455     2276     2230     2335     2520     2666 
    2716     2724     2743     2768     2803     2882     2983     3033 
    2982     2872     2775     2756     2828     2878     2810     2694 
    2639     2659     2724     2782     2810     2835     2867     2855 
    2763     2690     2747     2880     2998     3095     3184     3238 
    3246     3233     3200     3119     3030     3025     3105     3141 
    3046     2882     2776     2740     2689     2623     2612     2674 
    2760     2806     2793     2779     2790     2760     2652     2532 
    2519     2662     2878     3017     3007     2925     2868     2810 
    2717     2655     2675     2744     2809     2824     2758     2660 
    2628     2675     2764     2907     3071     3137     3086     2984 
    2875     2817     2837     2862     2867     2936     3087     3206 
    3181     3045     2910     2844     2818     2793     2793     2883 
    3022     3078     2971     2758     2590     2583     2706     2860 
    2987     3057     3071     3034     2953     2847     2760     2764 
    2907     3111     3206     3138     3028     2990     2984     2924 
    2856     2890     3002     3073     3048     2951     2883     2932 
    3061     3146     3096     2905     2654     2482     2489     2631 
    2744     2751     2713     2694     2706     2770     2859     2913 
    2922     2901     2864     2870     2913     2902     2829     2779 
    2718     2593     2501     2529     2627     2731     2802     2806 
    2776     2808     2918     3010     3030     3044     3061     3015 
    2918     2862     2866     2879     2864     2809     2735     2686 
    2689     2756     2878     2997     3056     3057     3051     3030 
    2947     2821     2733     2705     2706     2701     2702     2756 
    2806     2748     2621     2562     2647     2847     3048     3167 
    3167     3013     2762     2562     2471     2488     2620     2802 
    2921     2938     2884     2826     2820     2870     2963     3042 
    3049     3029     3078     3186     3237     3188     3102     2991 
    2822     2616     2382     2151     2056     2195     2498     2852 
    3142     3235     3094     2837     2629     2562     2651     2875 
    3176     3446     3522     3280     2840     2528     2548     2821 
    3164     3393     3396     3229     2952     2501     1973     1694 
    1837     2311     2932     3430     3543     3315     3010     2749 
    2556     2547     2766     3071     3356     3653     3963     4195 
    4230     4020     3685     3407     3204     2922     2513     2157 
    1991     2003     2158     2462     2913     3407     3734     3742 
    3485     3196     3057     3037     3061     3137     3181     3036 
    2697     2308     2014     1953     2192     2565     2770     2702 
    2515     2305     2041     1831     1857     2096     2430     2771 
    3036     3221     3406     3577     3588     3365     3013     2654 
    2400     2398     2697     3163     3596     3816     3688     3152 
    2273     1318      681      594     1057     1939     2991     3936 
    4584     4831     4679     4274     3858     3603     3511     3470 
    3362     3132     2785     2347     1903     1601     1572     1864 
    2371     2849     3076     3019     2771     2462     2290     2380 
    2632     2903     3183     3524     3917     4278     4475     4378 
    4002     3504     2961     2394     1921     1701     1752     1975 
    2236     2417     2551     2767     2968     2920     2639     2398 
    2409     2687     3061     3326     3415     3356     3165     2898 
    2728     2801     3080     3414     3605     3422     2830     2084 
    1432     1023     1035     1557     2416     3260     3754     3750 
    3395     3030     2907     3052     3342     3584     3618     3449 
    3238     3173     3303     3483     3520     3298     2782     2079 
    1417      988      808      827     1050     1478     2052     2749 
    3558     4338     4884     5067     4904     4511     4037     3562 
    3079     2643     2416     2434     2519     2506     2405     2340 
    2400     2515     2558     2546     2577     2627     2612     2546 
    2523     2613     2812     3079     3360     3537     3538     3430 
    3272     3032     2743     2515     2388     2313     2231     2141 
    2150     2425     2991     3649     4113     4190     3838     3229 
    2740     2652     2906     3223     3331     3117     2689     2272 
    2069     2204     2648     3215     3647     3761     3550     3117 
    2658     2488     2772     3281     3592     3424     2799     2037 
    1574     1644     2108     2635     2901     2683     2061     1491 
    1459     2030     2907     3746     4294     4382     3956     3167 
    2363     1819     1594     1694     2076     2575     2959     3019 
    2762     2447     2351     2616     3276     4252     5240     5759 
    5510     4656     3596     2640     1914     1467     1412     1788 
    2388     2924     3267     3418     3423     3376     3380     3451 
    3492     3399     3141     2785     2440     2181     2060     2103 
    2238     2340     2350     2292     2227     2196     2238     2381 
    2582     2743     2824     2887     2992     3096     3136     3127 
    3127     3107     3002     2839     2695     2559     2350     2080 
    1900     2007     2492     3254     4039     4548     4575     4112 
    3366     2663     2274     2320     2690     3160     3593     3933 
    4102     4036     3744     3306     2847     2512     2351     2315 
    2339     2355     2332     2313     2281     2128     1869     1696 
    1815     2282     2971     3615     3940     3882     3601     3283 
    3032     2882     2751     2516     2242     2085     2058     2111 
    2253     2451     2606     2656     2624     2635     2895     3460 
    4078     4445     4494     4313     3950     3451     2952     2581 
    2396     2401     2515     2566     2469     2312     2200     2124 
    2039     1945     1887     1911     2029     2211     2407     2508 
    2407     2119     1857     1957     2567     3410     4047     4259 
    4067     3586     2980     2470     2297     2621     3322     3981 
    4217     4004     3601     3303     3261     3415     3565     3581 
    3416     3041     2602     2394     2532     2867     3179     3334 
    3365     3385     3442     3478     3406     3215     2967     2671 
    2397     2317     2443     2606     2755     2883     2875     2691 
    2470     2347     2394     2647     2975     3129     3003     2602 
    1912     1026      259      -22      341     1227     2290     3154 
    3611     3639     3349     3005     2998     3577     4580     5486 
    5744     5150     3978     2745     1937     1786     2157     2702 
    3094     3113     2762     2285     1984     2047     2474     3092 
    3678     4021     4010     3751     3466     3312     3300     3303 
    3171     2844     2350     1807     1426     1363     1628     2116 
    2667     3076     3195     3006     2619     2253     2141     2386 
    2947     3654     4251     4540     4480     4117     3570     3048 
    2758     2768     2955     3090     2992     2612     2060     1543 
    1210     1131     1372     1876     2371     2667     2818     2934 
    3080     3310     3666     4102     4440     4430     3942     3096 
    2220     1645     1476     1598     1877     2197     2394     2361 
    2131     1883     1879     2222     2743     3211     3546     3731 
    3662     3275     2756     2488     2758     3510     4345     4804 
    4672     4037     3153     2384     2069     2293     2802     3223 
    3323     3118     2855     2791     2997     3422     3950     4342 
    4376     4006     3381     2741     2293     2135     2254     2552 
    2868     2984     2790     2340     1750     1175      858      959 
    1414     2076     2787     3353     3638     3669     3632     3694 
    3794     3742     3429     2890     2307     1912     1814     1933 
    2061     2029     1879     1814     1957     2307     2840     3445 
    3901     4082     4009     3724     3299     2867     2596     2633 
    3036     3654     4170     4290     3958     3354     2728     2303 
    2243     2513     2848     2938     2677     2219     1822     1651 
    1784     2215     2814     3442     3958     4225     4239     4074 
    3751     3323     2947     2697     2498     2250     1944     1707 
    1671     1857     2215     2578     2714     2566     2320     2187 
    2235     2502     3005     3592     4002     4087     3940     3767 
    3694     3719     3766     3794     3823     3834     3738     3488 
    3122     2731     2401     2168     2010     1944     2025     2220 
    2398     2463     2330     1973     1557     1335     1468     1988 
    2721     3356     3623     3391     2762     2035     1512     1321 
    1443     1834     2432     3052     3484     3731     3963     4203 
    4311     4239     4089     3982     3963     3939     3751     3350 
    2874     2515     2373     2447     2693     3030     3341     3578 
    3771     3879     3820     3640     3454     3275     3076     2901 
    2790     2697     2551     2382     2265     2242     2338     2512 
    2656     2744     2794     2739     2523     2231     2041     2046 
    2160     2254     2305     2369     2512     2708     2808     2741 
    2683     2818     3092     3306     3354     3298     3208     3049 
    2756     2373     2064     1992     2177     2458     2633     2629 
    2533     2524     2732     3119     3510     3709     3596     3195 
    2725     2424     2385     2598     2960     3262     3361     3277 
    3122     3014     3005     3073     3159     3213     3237     3238 
    3175     3024     2856     2775     2839     3042     3272     3388 
    3369     3262     3082     2852     2640     2490     2409     2425 
    2598     2948     3384     3771     4008     4047     3906     3649 
    3330     2970     2585     2224     1957     1873     2023     2334 
    2639     2794     2779     2698     2660     2644     2558     2386 
    2149     1861     1602     1458     1381     1323     1377     1615 
    1996     2457     2913     3268     3514     3682     3770     3805 
    3928     4247     4641     4833     4692     4283     3723     3110 
    2548     2160     2045     2172     2374     2524     2646     2806 
    2949     2959     2916     2983     3111     3160     3169     3207 
    3186     3015     2772     2602     2577     2608     2551     2357 
    2119     1939     1782     1555     1321     1251     1421     1764 
    2165     2556     2879     3063     3126     3222     3470     3802 
