Origin Time       2024/04/02 04:24:00
Lat.              40.133
Long.             141.712
Depth. (km)       71
Mag.              6.0
Station Code      HKD096
Station Lat.      42.6977
Station Long.     143.1357
Station Height(m) 192
Record Time       2024/04/02 04:25:54
Sampling Freq(Hz) 100Hz
Duration Time(s)  60
Dir.              U-D
Scale Factor      7845(gal)/8223790
Max. Acc. (gal)   1.254
Last Correction   2024/04/02 04:25:54
Memo.             
   -1069    -1417    -1587    -1418    -1129    -1017    -1171    -1499 
   -1790    -1644     -997     -603     -880    -1192    -1063     -892 
   -1004    -1209    -1428    -1595    -1514    -1441    -1560    -1429 
    -954     -753    -1159    -1540    -1335    -1059    -1185    -1416 
   -1475    -1510    -1601    -1421     -993     -904    -1251    -1445 
   -1312    -1248    -1216     -957     -781     -953    -1194    -1343 
   -1591    -1800    -1586    -1321    -1551    -1842    -1617    -1147 
   -1094    -1404    -1431    -1271    -1431    -1602    -1314     -976 
   -1009    -1089    -1115    -1320    -1362    -1071    -1094    -1575 
   -1733    -1221     -661     -638    -1009    -1354    -1491    -1413 
   -1205    -1192    -1505    -1741    -1607    -1275    -1042    -1062 
   -1185    -1100     -943    -1101    -1350    -1215     -897     -966 
   -1408    -1471     -965     -812    -1351    -1788    -1655    -1318 
   -1206    -1304    -1347    -1242    -1242    -1474    -1580    -1426 
   -1358    -1470    -1541    -1445    -1225     -974     -892    -1115 
   -1296    -1121     -955    -1200    -1521    -1314     -884    -1077 
   -1634    -1663    -1254    -1154    -1410    -1439    -1286    -1331 
   -1345    -1250    -1310    -1425    -1296    -1008    -1047    -1422 
   -1567    -1440    -1366    -1286    -1152    -1210    -1391    -1347 
   -1293    -1464    -1431    -1066     -896    -1140    -1356    -1270 
   -1115    -1090    -1318    -1574    -1420    -1183    -1362    -1559 
   -1414    -1282    -1379    -1417    -1210    -1104    -1308    -1429 
   -1282    -1178    -1198    -1179    -1204    -1269    -1136     -989 
   -1183    -1478    -1453    -1204    -1129    -1358    -1479    -1229 
    -967    -1116    -1560    -1709    -1391    -1159    -1332    -1520 
   -1275     -957    -1124    -1489    -1453    -1089    -1016    -1422 
   -1721    -1536    -1173    -1069    -1260    -1382    -1250    -1104 
   -1190    -1377    -1345    -1183    -1216    -1409    -1452    -1237 
   -1026    -1061    -1340    -1613    -1532    -1173     -978    -1092 
   -1167    -1113    -1220    -1370    -1302    -1202    -1320    -1458 
   -1355    -1235    -1232    -1177    -1170    -1370    -1525    -1359 
   -1121    -1192    -1409    -1513    -1543    -1394    -1071    -1071 
   -1514    -1684    -1194     -837    -1162    -1367    -1073    -1027 
   -1256    -1161    -1011    -1162    -1244    -1194    -1260    -1204 
    -939     -942    -1291    -1482    -1375    -1343    -1475    -1425 
   -1217    -1260    -1448    -1355    -1071    -1031    -1135    -1119 
   -1285    -1632    -1637    -1343    -1171    -1142    -1044    -1097 
   -1513    -1745    -1449    -1212    -1462    -1796    -1611    -1113 
   -1017    -1252    -1304    -1121    -1038    -1189    -1329    -1347 
   -1321    -1270    -1146    -1035    -1124    -1219    -1193    -1360 
   -1620    -1503    -1236    -1405    -1764    -1702    -1402    -1285 
   -1329    -1445    -1517    -1408    -1233    -1175    -1123     -945 
    -893    -1057    -1053     -830     -803    -1144    -1475    -1404 
   -1135    -1139    -1456    -1777    -1883    -1679    -1290    -1123 
   -1312    -1440    -1217     -981    -1074    -1221    -1108     -949 
   -1027    -1270    -1422    -1370    -1192    -1032    -1005    -1193 
   -1460    -1420    -1143    -1174    -1540    -1750    -1698    -1590 
   -1409    -1202    -1232    -1463    -1526    -1291    -1116    -1256 
   -1426    -1314    -1124    -1174    -1316    -1290    -1291    -1480 
   -1559    -1359    -1166    -1117    -1094    -1155    -1248    -1124 
   -1039    -1352    -1606    -1390    -1202    -1255    -1069     -826 
   -1140    -1601    -1578    -1497    -1549    -1235     -847     -985 
   -1248    -1183    -1140    -1177     -993     -931    -1247    -1517 
   -1483    -1293    -1165    -1228    -1317    -1209    -1085    -1213 
   -1341    -1171     -984    -1125    -1443    -1534    -1386    -1273 
   -1229    -1316    -1507    -1580    -1603    -1568    -1325    -1073 
   -1121    -1449    -1669    -1534    -1337    -1412    -1514    -1368 
   -1418    -1723    -1517     -932     -901    -1312    -1350    -1166 
   -1258    -1205     -885     -923    -1192    -1089     -866    -1183 
   -1702    -1630    -1194     -978    -1074    -1340    -1463    -1221 
    -861     -950    -1547    -1831    -1359     -932    -1186    -1441 
   -1205    -1078    -1293    -1462    -1602    -1732    -1601    -1252 
   -1047    -1154    -1273    -1274    -1318    -1291    -1100    -1024 
   -1297    -1524    -1355    -1167    -1082     -935    -1077    -1610 
   -1796    -1352    -1067    -1278    -1448    -1378    -1290    -1225 
   -1131    -1183    -1405    -1406    -1179    -1175    -1462    -1714 
   -1683    -1466    -1324    -1247    -1154    -1156    -1266    -1233 
   -1061    -1146    -1394    -1275     -924     -823    -1040    -1404 
   -1571    -1285     -938    -1127    -1599    -1618    -1278    -1254 
   -1584    -1714    -1354     -945    -1069    -1425    -1413    -1202 
   -1174    -1223    -1286    -1463    -1435    -1108    -1102    -1506 
   -1597    -1251    -1128    -1264    -1219    -1267    -1544    -1548 
   -1389    -1489    -1725    -1750    -1452    -1148    -1059    -1030 
    -986     -985    -1062    -1142    -1113     -999     -912     -953 
   -1035     -986     -868    -1050    -1524    -1567    -1121     -919 
   -1111    -1404    -1460    -1219    -1134    -1318    -1451    -1354 
   -1264    -1494    -1598    -1258    -1048    -1198    -1310    -1279 
   -1345    -1467    -1409    -1185     -957     -930    -1217    -1618 
   -1715    -1259     -823    -1042    -1478    -1628    -1610    -1524 
   -1260     -938     -994    -1320    -1452    -1516    -1687    -1703 
   -1468    -1301    -1431    -1514    -1229    -1070    -1260    -1165 
    -951    -1429    -2053    -1734     -969     -830    -1181    -1374 
   -1305    -1242    -1237    -1196    -1339    -1710    -1598     -824 
    -558    -1142    -1468    -1309    -1339    -1480    -1287    -1012 
   -1075    -1355    -1525    -1417    -1206    -1192    -1333    -1456 
   -1520    -1559    -1470    -1152     -939    -1098    -1397    -1501 
   -1441    -1540    -1729    -1621    -1256     -936     -850    -1004 
   -1154    -1109     -959    -1046    -1439    -1620    -1248     -689 
    -645    -1198    -1637    -1483    -1094    -1219    -1733    -1825 
   -1526    -1294    -1101     -997    -1100    -1181    -1115    -1013 
    -935    -1061    -1323    -1205     -847     -962    -1470    -1629 
   -1383    -1285    -1331    -1216    -1053     -943     -815     -835 
   -1224    -1713    -1707    -1264    -1101    -1243    -1159    -1042 
   -1290    -1560    -1451    -1178    -1147    -1395    -1572    -1518 
   -1370    -1192    -1151    -1351    -1506    -1494    -1486    -1502 
   -1435    -1317    -1294    -1417    -1540    -1591    -1706    -1632 
   -1044     -510     -788    -1503    -1594    -1107     -934    -1194 
   -1499    -1541    -1232    -1071    -1412    -1665    -1344     -891 
    -766     -908    -1181    -1417    -1479    -1445    -1309    -1140 
   -1216    -1563    -1809    -1645    -1439    -1452    -1283    -1051 
   -1229    -1444    -1279    -1094    -1147    -1121     -841     -681 
    -961    -1251    -1032     -704     -881    -1428    -1852    -1822 
   -1502    -1497    -1759    -1637    -1235    -1080    -1135    -1159 
   -1181    -1377    -1652    -1572    -1224    -1277    -1687    -1695 
   -1175     -758     -816    -1104    -1354    -1506    -1397    -1115 
   -1179    -1449    -1237     -912    -1282    -1900    -1865    -1282 
    -862     -962    -1383    -1564    -1312    -1107    -1035     -886 
    -965    -1279    -1356    -1209    -1269    -1532    -1630    -1466 
   -1186    -1089    -1277    -1405    -1459    -1637    -1513     -846 
    -391     -849    -1602    -1552     -936     -735    -1098    -1494 
   -1470    -1158    -1075    -1389    -1636    -1364     -935     -908 
   -1254    -1647    -1671    -1242     -988    -1341    -1840    -1849 
   -1381     -876     -720    -1026    -1375    -1490    -1552    -1439 
   -1094     -940    -1166    -1413    -1389    -1277    -1144    -1048 
   -1344    -1802    -1763    -1274     -911    -1040    -1576    -1911 
   -1494     -961    -1125    -1378    -1269    -1402    -1715    -1476 
    -783     -565    -1206    -2016    -2227    -1844    -1321     -872 
    -679    -1111    -1734    -1539     -854     -803    -1139    -1086 
   -1019    -1391    -1698    -1545    -1166     -788     -696    -1078 
   -1537    -1653    -1476    -1336    -1412    -1529    -1483    -1200 
    -966    -1092    -1240    -1260    -1429    -1487    -1146     -888 
   -1129    -1421    -1210     -801     -926    -1626    -2093    -1811 
   -1232     -955     -936     -868     -858    -1081    -1350    -1433 
   -1321    -1402    -1773    -1767    -1242     -954    -1119    -1182 
   -1181    -1590    -1853    -1233     -687    -1254    -1892    -1528 
    -859     -696    -1039    -1618    -1895    -1556    -1139    -1150 
   -1335    -1321    -1085     -942    -1182    -1449    -1316    -1148 
   -1429    -1807    -1517     -758     -711    -1507    -1791    -1053 
    -430     -730    -1296    -1421    -1340    -1171     -873     -984 
   -1545    -1621    -1105    -1173    -1904    -2039    -1539    -1223 
   -1008     -824    -1140    -1583    -1458    -1296    -1459    -1302 
   -1035    -1278    -1499    -1224    -1026    -1351    -1684    -1559 
   -1345    -1312    -1309    -1323    -1282    -1057     -861    -1075 
   -1453    -1285     -936    -1237    -1610    -1425    -1298    -1460 
   -1300    -1003    -1254    -1513    -1254    -1277    -1678    -1548 
   -1092    -1242    -1620    -1374    -1036    -1163    -1231    -1120 
   -1290    -1555    -1379    -1082    -1275    -1455    -1003     -711 
   -1138    -1463    -1212     -909     -946    -1198    -1485    -1501 
   -1156     -992    -1188    -1220    -1092    -1213    -1453    -1516 
   -1251     -897     -972    -1379    -1560    -1594    -1910    -2124 
   -1772    -1221    -1050    -1414    -1802    -1730    -1364    -1023 
    -954    -1136    -1152     -857     -796    -1371    -1634     -823 
    -448    -1483    -2106    -1412     -918    -1074    -1035    -1035 
   -1440    -1529    -1352    -1620    -1782    -1250     -689     -776 
   -1136    -1208    -1128    -1215    -1451    -1534    -1474    -1521 
   -1425    -1212    -1220    -1097     -712     -796    -1545    -1826 
   -1131     -680    -1017    -1294    -1240    -1324    -1607    -1769 
   -1745    -1667    -1634    -1663    -1624    -1494    -1235     -851 
    -799    -1085    -1159    -1105    -1394    -1737    -1377     -797 
    -986    -1412    -1262    -1016    -1227    -1485    -1474    -1428 
   -1264     -990    -1023    -1175    -1074    -1050    -1285    -1426 
   -1371    -1339    -1485    -1667    -1487     -967     -855    -1379 
   -1534    -1047    -1034    -1509    -1393    -1038    -1281    -1522 
   -1275    -1162    -1382    -1458    -1358    -1242    -1163    -1198 
   -1044     -761    -1098    -1841    -1848    -1161     -807    -1016 
   -1391    -1705    -1699    -1337    -1047    -1158    -1540    -1869 
   -1803    -1225     -822    -1117    -1541    -1782    -1810    -1232 
    -610     -997    -1795    -1803    -1306    -1190    -1466    -1582 
   -1304    -1035    -1305    -1846    -1690     -834     -600    -1363 
   -1711    -1121     -766    -1078    -1418    -1429    -1286    -1215 
   -1026     -670     -598     -888    -1205    -1472    -1607    -1193 
    -383     -149     -738    -1341    -1426    -1185     -915     -810 
   -1139    -1753    -2012    -1566     -928     -955    -1432    -1664 
   -1775    -1861    -1582    -1306    -1664    -2020    -1711    -1362 
   -1335    -1163     -878    -1082    -1574    -1715    -1719    -1478 
    -739     -567    -1390    -1910    -1530    -1093    -1042    -1201 
   -1588    -1845    -1433     -823     -774    -1071    -1178    -1208 
   -1439    -1606    -1347     -980    -1048    -1360    -1366    -1263 
   -1474    -1652    -1485    -1189    -1062    -1129    -1061     -931 
   -1065    -1302    -1312     -972     -672     -897    -1339    -1420 
   -1179    -1001    -1071    -1302    -1382    -1225    -1135    -1115 
   -1125    -1183     -946     -745    -1228    -1759    -1587    -1221 
   -1225    -1193     -924    -1084    -1575    -1579    -1294    -1420 
   -1852    -1956    -1587    -1377    -1680    -1989    -1706    -1129 
   -1105    -1468    -1267     -635     -544     -846     -787     -807 
   -1379    -1723    -1483    -1248    -1185    -1050    -1009    -1363 
   -1763    -1792    -1695    -1741    -1818    -1707    -1390    -1209 
   -1308    -1286     -962     -788    -1054    -1289    -1228    -1335 
   -1615    -1360     -803    -1134    -2014    -1922    -1163    -1281 
   -1926    -1414     -126       33     -999    -1625    -1290    -1004 
   -1278    -1378    -1069    -1013    -1170     -932     -626     -785 
   -1055    -1248    -1680    -2045    -1756    -1143    -1123    -1624 
   -1617    -1119    -1012    -1345    -1584    -1514    -1324    -1336 
   -1642    -1876    -1678    -1223     -922    -1016    -1293    -1348 
   -1204    -1007     -953    -1170    -1274    -1175    -1320    -1680 
   -1736    -1525    -1691    -1949    -1543    -1011    -1055    -1078 
    -676     -729    -1583    -2137    -1723    -1092    -1051    -1474 
   -1597    -1178     -912    -1282    -1842    -1850    -1409    -1213 
   -1439    -1669    -1351     -631     -544    -1301    -1551     -673 
    -264    -1252    -2083    -1780    -1293    -1166    -1054     -891 
    -932    -1089    -1115    -1121    -1036     -916    -1252    -1775 
   -1690    -1015     -616     -963    -1432    -1436    -1169    -1043 
   -1115    -1225    -1467    -1755    -1733    -1408    -1019     -762 
    -895    -1321    -1445    -1173    -1156    -1463    -1483    -1200 
   -1067    -1200    -1385    -1455    -1389    -1374    -1675    -2072 
   -1977    -1449    -1034    -1047    -1632    -2219    -1898     -993 
    -722    -1345    -1726    -1282     -838     -927    -1093    -1071 
   -1279    -1652    -1545    -1061     -805     -953    -1363    -1794 
   -1706     -993     -642    -1215    -1825    -1624     -888     -556 
    -942    -1512    -1892    -1908    -1447     -769     -384     -638 
   -1251    -1560    -1337     -913     -761    -1031    -1368    -1462 
   -1347    -1252    -1320    -1371    -1359    -1452    -1433    -1039 
    -808    -1223    -1621    -1466    -1345    -1669    -1891    -1607 
   -1193    -1061    -1223    -1470    -1520    -1406    -1340    -1212 
    -928     -753    -1062    -1873    -2205    -1318     -429     -793 
   -1769    -1985    -1242     -788    -1158    -1397    -1100    -1047 
   -1408    -1449    -1266    -1270    -1127     -837     -892    -1382 
   -1752    -1641    -1514    -1487    -1332    -1260    -1282    -1151 
    -792     -625     -940    -1134    -1055    -1217    -1447    -1236 
    -807     -976    -1733    -2026    -1486    -1048    -1418    -1906 
   -1605     -765     -376     -953    -1873    -2092    -1486    -1067 
   -1382    -1602    -1178     -951    -1269    -1273     -904     -961 
   -1399    -1421    -1035    -1102    -1494    -1366    -1059    -1297 
   -1630    -1350     -945    -1212    -1614    -1514    -1320    -1170 
    -804     -719    -1513    -2149    -1468     -616     -889    -1412 
   -1182     -819     -869     -951    -1015    -1173    -1205    -1256 
   -1549    -1664    -1259     -719     -704    -1350    -1899    -1694 
   -1217    -1200    -1445    -1476    -1378    -1382    -1490    -1444 
   -1159    -1067    -1298    -1525    -1551    -1420    -1344    -1408 
   -1722    -2052    -1738    -1102    -1003    -1167    -1066    -1219 
   -1680    -1452     -699     -558    -1036    -1393    -1437    -1264 
    -938     -822    -1093    -1381    -1493    -1416    -1197    -1262 
   -1563    -1505    -1236    -1375    -1633    -1327     -869     -886 
   -1070    -1170    -1271    -1188     -997    -1162    -1489    -1351 
    -996    -1043    -1374    -1618    -1648    -1395    -1108    -1082 
   -1163    -1139    -1044    -1012     -967     -965    -1339    -1880 
   -1923    -1490    -1383    -1799    -1755     -980     -746    -1433 
   -1888    -1867    -2018    -2047    -1695    -1584    -1663    -1405 
   -1127    -1277    -1445    -1274    -1185    -1351    -1532    -1679 
   -1696    -1363     -886     -800     -974     -940    -1081    -1664 
   -1737     -909     -564    -1294    -1672    -1019     -533    -1001 
   -1556    -1449    -1213    -1150     -873     -583     -622     -850 
   -1259    -1695    -1647    -1100     -899    -1510    -2072    -1819 
   -1302    -1293    -1599    -1463     -881     -665     -878     -851 
    -778    -1204    -1640    -1418    -1000    -1053    -1304    -1329 
   -1240    -1196    -1134    -1205    -1625    -1912    -1676    -1512 
   -1702    -1710    -1475    -1547    -1761    -1393     -799     -909 
   -1441    -1505    -1182    -1098    -1198    -1285    -1547    -1722 
   -1387    -1065    -1410    -1736    -1332    -1026    -1339    -1498 
   -1105     -699     -846    -1328    -1547    -1352    -1086    -1167 
   -1224     -738     -440    -1050    -1672    -1405     -992    -1129 
   -1291    -1209    -1251    -1328    -1125     -922    -1097    -1358 
   -1355    -1402    -1490    -1142     -722    -1009    -1688    -1699 
   -1124    -1039    -1540    -1842    -1827    -1844    -1706    -1296 
   -1221    -1644    -1768    -1328    -1004    -1065    -1182    -1294 
   -1474    -1448    -1165    -1112    -1329    -1317    -1215    -1385 
   -1363     -994     -959    -1217    -1135     -919    -1233    -1765 
   -1570    -1007    -1221    -1749    -1390     -629     -634    -1128 
   -1308    -1232    -1148     -947     -707     -886    -1381    -1506 
   -1324    -1293    -1278    -1206    -1408    -1919    -2265    -1952 
   -1304    -1227    -1621    -1518    -1046    -1159    -1687    -1718 
   -1471    -1560    -1618    -1564    -1823    -2023    -1694    -1278 
   -1251    -1312    -1259    -1236    -1121    -1007    -1198    -1417 
   -1213     -785     -681    -1089    -1652    -1752    -1348    -1082 
   -1139    -1231    -1270    -1242    -1063     -938    -1166    -1534 
   -1597    -1340    -1128    -1101    -1089     -934     -757     -909 
   -1278    -1201     -677     -440     -583     -745     -989    -1223 
   -1003     -607     -830    -1354    -1201     -653     -830    -1567 
   -1711    -1308    -1085     -962     -972    -1460    -2008    -1991 
   -1578    -1246    -1042     -928    -1155    -1574    -1480     -751 
    -303     -811    -1630    -1850    -1521    -1227    -1355    -1768 
   -1890    -1501    -1229    -1557    -1863    -1474     -900     -954 
   -1356    -1289     -911     -899    -1120    -1023     -704     -822 
   -1385    -1648    -1391    -1019     -793     -876    -1227    -1310 
    -982     -969    -1393    -1445    -1042     -803     -783     -720 
    -673     -769    -1105    -1533    -1467     -893     -706    -1159 
   -1526    -1479    -1258     -976     -877    -1256    -1745    -1912 
