Origin Time       2024/04/02 04:24:00
Lat.              40.133
Long.             141.712
Depth. (km)       71
Mag.              6.0
Station Code      HKD094
Station Lat.      43.1692
Station Long.     143.2410
Station Height(m) 204
Record Time       2024/04/02 04:26:07
Sampling Freq(Hz) 100Hz
Duration Time(s)  60
Dir.              E-W
Scale Factor      7845(gal)/8223790
Max. Acc. (gal)   1.532
Last Correction   2024/04/02 04:26:07
Memo.             
  -13934   -13905   -13778   -13687   -13605   -13509   -13605   -13837 
  -13830   -13664   -13765   -13996   -13959   -13844   -13953   -14096 
  -14106   -14085   -14040   -13921   -13876   -13960   -13991   -13944 
  -13936   -13922   -13913   -13992   -14034   -13936   -13888   -13988 
  -14027   -13930   -13872   -13884   -13833   -13748   -13734   -13755 
  -13753   -13752   -13728   -13745   -13863   -13879   -13775   -13826 
  -13967   -13976   -13938   -13911   -13863   -13900   -13988   -13952 
  -13882   -13929   -13998   -13984   -13961   -13998   -14029   -13980 
  -13900   -13841   -13810   -13860   -13922   -13900   -13879   -13838 
  -13736   -13720   -13791   -13794   -13821   -13905   -13875   -13829 
  -13898   -13906   -13842   -13880   -13915   -13825   -13753   -13791 
  -13834   -13841   -13917   -14041   -14025   -13903   -13864   -13859 
  -13841   -13907   -13950   -13826   -13725   -13792   -13849   -13782 
  -13713   -13751   -13860   -13967   -13967   -13833   -13729   -13743 
  -13814   -13888   -13913   -13888   -13833   -13798   -13868   -13953 
  -13891   -13817   -13863   -13917   -13940   -13930   -13883   -13903 
  -13944   -13883   -13826   -13832   -13763   -13695   -13795   -13942 
  -13979   -13990   -14057   -14049   -13922   -13887   -13946   -13913 
  -13888   -13991   -13983   -13807   -13760   -13853   -13872   -13802 
  -13678   -13536   -13612   -13891   -13968   -13834   -13799   -13818 
  -13807   -13868   -13938   -13913   -13840   -13782   -13795   -13886 
  -13945   -13949   -13934   -13911   -13945   -13964   -13813   -13714 
  -13872   -13971   -13905   -13965   -14031   -13895   -13784   -13840 
  -13964   -14035   -13968   -13896   -13934   -13937   -13905   -13957 
  -13991   -13965   -13984   -14002   -14004   -14042   -14019   -13905 
  -13853   -13909   -13964   -13936   -13875   -13918   -13963   -13824 
  -13714   -13792   -13818   -13784   -13869   -13910   -13810   -13797 
  -13837   -13732   -13591   -13576   -13632   -13717   -13895   -14027 
  -13873   -13648   -13678   -13837   -13960   -14077   -14094   -13934 
  -13821   -13949   -14123   -14125   -14145   -14277   -14242   -14056 
  -13953   -13846   -13721   -13767   -13895   -13937   -13963   -13940 
  -13711   -13478   -13502   -13609   -13605   -13652   -13845   -13965 
  -13940   -13949   -13977   -13869   -13759   -13838   -13919   -13846 
  -13807   -13842   -13810   -13819   -14008   -14219   -14245   -14108 
  -13882   -13683   -13747   -13975   -14037   -14003   -14058   -14017 
  -13809   -13720   -13825   -13919   -13918   -13941   -14054   -14125 
  -14014   -13855   -13830   -13799   -13639   -13603   -13830   -14058 
  -14073   -13980   -13941   -13942   -13905   -13830   -13821   -13909 
  -13929   -13776   -13655   -13671   -13599   -13455   -13537   -13721 
  -13656   -13539   -13683   -13848   -13810   -13786   -13902   -14013 
  -14072   -14068   -13900   -13703   -13702   -13788   -13834   -13950 
  -14060   -13925   -13745   -13819   -13952   -13965   -14014   -14081 
  -14008   -13944   -14025   -14049   -13883   -13730   -13732   -13747 
  -13699   -13652   -13632   -13710   -13891   -13934   -13770   -13678 
  -13738   -13772   -13770   -13747   -13675   -13703   -13879   -13965 
  -13930   -13980   -14038   -13906   -13779   -13906   -14134   -14231 
  -14224   -14206   -14044   -13684   -13485   -13666   -13911   -13992 
  -14014   -13980   -13938   -13992   -13925   -13717   -13714   -13833 
  -13829   -13888   -14057   -14133   -14110   -14030   -13891   -13810 
  -13809   -13787   -13806   -13930   -14000   -13905   -13841   -14010 
  -14185   -14064   -13867   -13873   -13890   -13818   -13863   -14019 
  -14127   -14122   -14025   -13915   -13782   -13662   -13734   -13925 
  -13999   -13998   -14000   -13902   -13720   -13603   -13574   -13672 
  -13891   -14015   -13945   -13921   -14052   -14031   -13871   -13968 
  -14119   -13973   -13857   -13945   -13950   -13917   -13972   -13979 
  -13944   -13938   -13938   -14010   -14096   -14021   -13869   -13859 
  -13983   -14034   -13934   -13829   -13799   -13791   -13791   -13815 
  -13830   -13842   -13838   -13776   -13732   -13737   -13682   -13616 
  -13635   -13641   -13666   -13821   -13972   -13936   -13817   -13855 
  -13980   -13965   -13954   -14060   -14010   -13848   -13882   -13996 
  -13917   -13738   -13697   -13753   -13721   -13663   -13747   -13840 
  -13821   -13840   -13903   -13857   -13797   -13807   -13734   -13609 
  -13620   -13713   -13756   -13802   -13861   -13774   -13610   -13694 
  -13887   -13778   -13676   -13991   -14239   -14126   -14115   -14189 
  -13972   -13767   -13890   -13999   -13929   -13976   -14110   -14006 
  -13819   -13809   -13832   -13834   -13863   -13774   -13662   -13770 
  -13883   -13782   -13705   -13795   -13855   -13790   -13786   -13942 
  -14095   -14104   -14035   -13988   -13975   -13949   -13941   -14045 
  -14123   -14049   -14025   -14098   -14107   -14062   -14008   -13934 
  -13861   -13792   -13729   -13713   -13792   -13952   -14030   -13927 
  -13809   -13797   -13811   -13869   -13987   -13986   -13886   -13917 
  -13946   -13813   -13807   -14014   -14050   -13880   -13840   -13867 
  -13763   -13757   -13915   -13867   -13641   -13648   -13802   -13837 
  -13878   -13941   -13902   -13883   -13896   -13813   -13771   -13868 
  -13965   -14029   -14050   -13918   -13710   -13636   -13709   -13830 
  -13946   -14031   -14091   -14067   -13895   -13724   -13711   -13720 
  -13625   -13583   -13760   -14015   -14046   -13911   -13911   -13972 
  -13865   -13772   -13942   -14165   -14157   -14007   -13895   -13855 
  -13899   -13906   -13751   -13722   -13892   -13810   -13603   -13751 
  -13929   -13774   -13682   -13863   -13973   -13915   -13919   -13991 
  -13954   -13861   -13852   -13926   -14080   -14195   -14025   -13761 
  -13824   -13975   -13832   -13726   -13886   -13842   -13579   -13660 
  -13914   -13764   -13527   -13675   -13768   -13597   -13747   -14067 
  -13918   -13713   -13937   -14121   -14077   -14141   -14099   -13782 
  -13694   -13921   -13927   -13732   -13803   -13949   -13756   -13622 
  -13791   -13759   -13652   -13949   -14157   -13952   -13860   -13906 
  -13801   -13807   -13926   -13851   -13863   -14116   -14125   -13894 
  -13936   -14084   -13922   -13764   -13894   -13999   -13994   -14044 
  -13996   -13841   -13774   -13728   -13711   -13882   -14029   -13940 
  -13830   -13917   -13992   -13836   -13707   -13841   -13957   -13899 
  -13929   -14054   -14027   -13957   -14035   -14119   -14115   -14080 
  -13999   -13891   -13890   -13977   -13976   -13886   -13826   -13763 
  -13693   -13775   -13921   -13834   -13664   -13792   -14044   -14013 
  -13836   -13801   -13826   -13830   -13873   -13895   -13871   -13907 
  -13926   -13825   -13805   -13898   -13828   -13690   -13855   -14094 
  -13960   -13780   -13926   -14007   -13871   -13896   -13987   -13848 
  -13784   -13936   -13895   -13720   -13830   -13988   -13856   -13779 
  -13884   -13779   -13602   -13772   -13986   -13905   -13896   -14041 
  -13940   -13756   -13784   -13782   -13711   -13849   -14029   -13979 
  -13941   -14111   -14098   -13856   -13948   -14180   -13969   -13733 
  -13865   -13914   -13841   -13959   -13900   -13560   -13540   -13779 
  -13721   -13624   -13884   -14004   -13747   -13705   -13867   -13709 
  -13518   -13776   -14072   -14035   -14049   -14204   -14102   -13791 
  -13657   -13690   -13693   -13745   -13861   -13851   -13824   -13919 
  -13813   -13464   -13394   -13601   -13659   -13689   -13922   -14081 
  -13968   -13848   -13909   -13977   -13940   -13945   -14038   -14080 
  -14067   -14033   -13907   -13791   -13895   -14091   -14156   -14168 
  -14157   -14060   -14045   -14091   -13922   -13703   -13709   -13706 
  -13641   -13795   -13965   -13842   -13740   -13852   -13844   -13718 
  -13829   -13983   -13842   -13730   -13895   -13961   -13819   -13815 
  -13898   -13772   -13644   -13771   -13923   -13968   -14025   -14013 
  -13887   -13857   -13849   -13655   -13555   -13848   -14108   -13977 
  -13895   -14027   -13940   -13774   -13963   -14168   -14010   -13914 
  -14081   -14096   -13929   -13871   -13895   -13853   -13833   -13882 
  -13822   -13710   -13717   -13662   -13531   -13643   -13828   -13730 
  -13675   -13811   -13738   -13554   -13637   -13805   -13830   -13865 
  -13948   -13988   -14026   -14092   -14127   -14071   -13961   -13925 
  -13971   -13999   -14029   -14089   -14010   -13767   -13612   -13606 
  -13602   -13598   -13691   -13875   -14065   -14135   -13991   -13805 
  -13848   -13964   -13909   -13844   -13902   -13945   -13876   -13830 
  -13994   -14137   -13988   -13922   -14044   -13869   -13610   -13716 
  -13886   -13940   -14040   -14029   -13903   -13937   -14034   -14006 
  -13967   -13990   -14017   -14061   -14100   -14007   -13860   -13909 
  -14030   -13952   -13833   -13865   -13880   -13857   -13953   -13927 
  -13675   -13680   -13981   -14060   -13981   -14019   -13918   -13714 
  -13837   -14056   -13927   -13810   -14007   -14015   -13686   -13582 
  -13717   -13690   -13695   -13914   -13945   -13737   -13724   -13805 
  -13670   -13643   -13895   -13941   -13726   -13757   -13976   -13975 
  -13900   -13953   -13899   -13770   -13884   -14045   -13879   -13687 
  -13830   -13911   -13709   -13729   -13959   -13930   -13875   -14053 
  -14092   -13909   -13879   -13965   -13861   -13747   -13883   -13977 
  -13846   -13833   -13913   -13741   -13564   -13693   -13822   -13868 
  -14040   -14083   -13848   -13736   -13882   -13954   -13851   -13836 
  -14029   -14138   -13992   -13905   -13986   -13992   -13953   -13919 
  -13787   -13717   -13815   -13852   -13779   -13790   -13869   -13811 
  -13655   -13656   -13763   -13740   -13705   -13819   -13878   -13748 
  -13686   -13817   -13926   -13957   -13992   -13927   -13794   -13802 
  -13794   -13737   -13941   -14112   -13865   -13655   -13740   -13738 
  -13663   -13787   -13898   -13829   -13876   -14033   -13923   -13702 
  -13768   -13864   -13697   -13645   -13819   -13790   -13721   -14033 
  -14281   -14081   -13873   -13807   -13649   -13667   -14033   -14262 
  -14207   -14235   -14133   -13633   -13375   -13667   -13873   -13815 
  -14011   -14364   -14278   -13946   -13876   -13849   -13687   -13788 
  -14081   -14061   -13936   -14018   -13965   -13748   -13838   -14157 
  -14278   -14291   -14338   -14131   -13687   -13528   -13714   -13794 
  -13714   -13768   -13879   -13898   -14008   -14060   -13722   -13441 
  -13585   -13716   -13828   -14324   -14755   -14569   -14177   -14049 
  -13923   -13651   -13689   -14045   -14129   -13872   -13586   -13297 
  -13223   -13621   -14061   -14156   -14114   -13980   -13713   -13736 
  -14185   -14451   -14274   -14188   -14362   -14230   -13667   -13302 
  -13396   -13628   -13879   -14046   -13861   -13591   -13663   -13865 
  -14107   -14530   -14651   -14264   -14068   -14141   -13984   -13959 
  -14343   -14445   -14096   -13857   -13630   -13147   -12916   -13230 
  -13490   -13455   -13636   -14104   -14355   -14351   -14380   -14293 
  -13946   -13635   -13562   -13591   -13643   -13829   -14098   -14200 
  -14072   -13798   -13505   -13498   -13871   -14126   -13930   -13555 
  -13144   -12741   -12800   -13508   -14292   -14554   -14251   -13687 
  -13131   -12889   -13211   -13775   -14067   -14125   -14162   -14088 
  -13976   -14081   -14227   -14094   -13784   -13500   -13281   -13329 
  -13706   -13996   -13941   -13709   -13535   -13591   -13926   -14310 
  -14386   -14208   -14303   -14806   -15075   -14777   -14305   -13906 
  -13581   -13332   -13047   -12923   -13248   -13667   -13918   -14284 
  -14565   -14372   -14079   -14057   -14011   -13786   -13676   -13741 
  -13759   -13755   -13865   -13934   -13875   -13844   -13724   -13477 
  -13575   -13977   -14021   -13815   -13896   -14046   -13936   -13629 
  -13230   -12996   -13140   -13527   -14006   -14350   -14148   -13562 
  -13317   -13617   -14054   -14318   -14381   -14289   -14068   -13883 
  -13946   -14088   -14017   -13842   -13814   -13987   -14314   -14532 
  -14346   -13923   -13525   -13123   -12846   -12966   -13332   -13568 
  -13680   -13745   -13564   -13370   -13819   -14760   -15361   -15357 
  -14979   -14512   -14322   -14372   -14239   -13944   -13815   -13732 
  -13501   -13444   -13733   -14027   -14238   -14636   -15022   -14793 
  -14064   -13535   -13174   -12596   -12298   -12773   -13543   -14204 
  -14659   -14570   -14069   -13819   -14061   -14623   -15142   -15083 
  -14399   -13672   -13328   -13327   -13392   -13383   -13467   -13617 
  -13610   -13477   -13340   -13360   -13749   -14315   -14673   -14808 
  -14692   -14258   -13898   -13593   -12872   -12359   -12893   -13778 
  -14188   -14486   -14732   -14359   -13846   -13975   -14080   -13676 
  -13649   -14123   -14220   -13968   -13784   -13544   -13444   -13849 
  -14251   -14052   -13683   -13680   -13832   -13859   -13795   -13778 
  -13969   -14380   -14667   -14457   -13848   -13305   -13181   -13356 
  -13527   -13826   -14276   -14312   -13918   -13652   -13419   -12942 
  -12667   -12919   -13317   -13468   -13512   -13684   -13867   -14142 
  -14732   -15098   -14731   -14035   -13378   -12857   -12876   -13405 
  -13825   -14076   -14396   -14467   -14046   -13549   -13473   -13730 
  -13898   -13942   -14102   -14243   -14160   -13969   -13786   -13732 
  -13891   -14060   -14038   -13934   -13909   -13952   -13961   -13945 
  -14065   -14247   -14341   -14416   -14301   -13822   -13312   -12997 
  -12858   -13103   -13648   -14006   -14196   -14428   -14384   -13898 
  -13473   -13436   -13510   -13701   -14226   -14515   -14107   -13626 
  -13455   -13360   -13524   -13996   -14181   -13944   -13806   -14088 
  -14667   -15210   -15484   -15348   -14723   -13813   -12912   -12391 
  -12667   -13419   -13921   -14166   -14246   -13937   -13574   -13493 
  -13323   -13039   -13155   -13626   -14062   -14553   -15129   -15334 
  -15044   -14588   -14091   -13695   -13743   -14139   -14339   -14179 
  -13968   -13811   -13518   -13050   -12679   -12644   -12792   -12941 
  -13208   -13635   -13976   -14108   -14050   -13725   -13246   -13073 
  -13485   -14256   -14994   -15344   -15098   -14562   -14145   -13805 
  -13624   -13875   -14257   -14258   -13898   -13333   -12719   -12532 
  -12920   -13324   -13437   -13686   -14211   -14416   -14204   -14154 
  -14172   -13900   -13747   -13919   -14044   -14069   -14184   -14341 
  -14353   -13994   -13333   -12915   -13065   -13346   -13367   -13504 
  -14060   -14557   -14573   -14300   -13942   -13664   -13763   -14098 
  -14355   -14709   -15163   -15299   -15125   -14901   -14538   -13992 
  -13562   -13491   -13714   -13926   -13817   -13470   -13346   -13408 
  -13231   -12946   -12860   -12826   -12807   -13138   -13770   -14158 
  -14264   -14455   -14644   -14655   -14667   -14665   -14478   -14293 
  -14157   -13861   -13620   -13738   -13959   -13883   -13687   -13636 
  -13437   -13039   -12974   -13286   -13595   -13983   -14472   -14594 
  -14322   -14175   -14207   -14103   -14111   -14500   -14706   -14350 
  -13945   -13813   -13706   -13629   -13757   -13832   -13760   -14011 
  -14524   -14635   -14353   -14107   -13898   -13838   -14044   -14083 
  -13767   -13541   -13671   -13859   -13792   -13666   -13725   -13859 
  -14021   -14138   -13898   -13436   -13174   -13105   -13230   -13630 
  -13884   -13680   -13464   -13609   -13857   -13921   -13848   -13872 
  -14162   -14569   -14682   -14295   -13729   -13387   -13293   -13289 
  -13359   -13612   -13983   -14152   -13880   -13479   -13544   -13950 
  -14027   -13818   -13755   -13687   -13452   -13284   -13230   -13227 
  -13375   -13651   -13810   -13738   -13572   -13517   -13760   -14187 
  -14249   -13910   -13803   -14014   -14154   -14354   -14739   -14881 
  -14669   -14416   -14061   -13541   -13355   -13679   -13950   -13946 
  -13953   -13891   -13728   -13822   -14026   -13873   -13599   -13653 
  -13851   -13915   -14052   -14292   -14296   -14189   -14310   -14295 
  -13930   -13734   -13782   -13637   -13413   -13555   -13949   -14103 
  -13936   -13757   -13630   -13533   -13680   -13948   -14015   -13991 
  -13986   -13948   -13949   -13973   -13896   -13771   -13717   -13724 
  -13797   -13959   -14183   -14445   -14531   -14146   -13545   -13246 
  -13200   -13239   -13547   -13950   -13960   -13760   -13837   -14061 
  -14165   -14268   -14401   -14347   -14138   -13983   -13849   -13778 
  -13932   -14188   -14427   -14617   -14538   -14077   -13493   -13162 
  -13277   -13525   -13433   -13132   -13065   -13424   -14104   -14679 
  -14878   -14825   -14403   -13582   -12981   -12860   -12854   -13059 
  -13716   -14372   -14571   -14413   -14034   -13487   -13058   -12978 
  -13196   -13683   -14339   -14665   -14238   -13394   -12847   -12773 
  -12846   -13004   -13474   -14073   -14338   -14243   -14058   -13819 
  -13493   -13378   -13655   -13918   -13941   -13987   -14045   -13996 
  -14050   -14115   -13860   -13529   -13552   -13698   -13547   -13370 
  -13605   -14000   -14211   -14397   -14463   -14006   -13483   -13522 
  -13659   -13510   -13444   -13516   -13603   -13882   -14176   -14011 
  -13581   -13531   -13852   -13980   -13941   -14170   -14439   -14413 
  -14357   -14319   -14153   -14029   -13888   -13502   -13178   -13215 
  -13379   -13632   -14135   -14585   -14544   -14129   -13803   -13640 
  -13417   -13309   -13564   -13891   -14025   -14062   -13878   -13531 
  -13567   -13937   -14099   -14018   -13925   -13957   -14189   -14470 
  -14523   -14284   -13906   -13614   -13529   -13601   -13697   -13602 
  -13281   -13096   -13189   -13282   -13392   -13806   -14362   -14559 
  -14288   -13959   -13848   -13846   -13930   -14103   -14200   -14347 
  -14778   -15152   -15061   -14654   -14115   -13497   -13120   -13234 
  -13541   -13784   -14156   -14635   -14897   -14885   -14566   -14041 
  -13954   -14427   -14670   -14485   -14397   -14453   -14361   -14118 
  -13861   -13671   -13593   -13683   -13905   -14081   -14153   -14199 
  -14211   -14222   -14243   -14062   -13713   -13601   -13817   -14095 
  -14280   -14382   -14408   -14364   -14277   -14143   -13972   -13909 
  -14038   -14233   -14386   -14463   -14434   -14319   -14076   -13756 
  -13621   -13603   -13389   -13169   -13271   -13520   -13756   -14107 
  -14435   -14449   -14276   -14123   -13867   -13602   -13585   -13574 
  -13428   -13477   -13630   -13591   -13636   -13888   -13941   -13752 
  -13703   -13832   -13896   -13910   -14030   -14176   -14102   -13710 
  -13231   -13011   -13124   -13421   -13837   -14251   -14384   -14195 
  -13934   -13737   -13614   -13705   -14099   -14409   -14183   -13644 
  -13251   -13155   -13428   -13873   -14030   -13914   -13930   -14125 
  -14281   -14347   -14322   -14134   -13973   -14091   -14256   -14223 
  -14191   -14277   -14380   -14382   -14040   -13333   -12803   -12756 
  -12907   -13112   -13333   -13359   -13313   -13522   -13778   -13643 
  -13282   -13232   -13574   -13948   -14152   -14202   -14176   -14162 
  -14099   -13880   -13670   -13705   -13925   -14110   -14176   -14110 
  -13898   -13752   -13906   -14154   -14100   -13794   -13667   -13699 
