Origin Time       2024/04/02 04:24:00
Lat.              40.133
Long.             141.712
Depth. (km)       71
Mag.              6.0
Station Code      HKD070
Station Lat.      43.3852
Station Long.     145.2840
Station Height(m) 6
Record Time       2024/04/02 04:26:25
Sampling Freq(Hz) 100Hz
Duration Time(s)  71
Dir.              N-S
Scale Factor      7845(gal)/8223790
Max. Acc. (gal)   5.335
Last Correction   2024/04/02 04:26:26
Memo.             
[...]
    -355     -395     -492     -581     -579     -517     -523     -600 
    -621     -545     -480     -514     -572     -560     -491     -390 
    -299     -283     -291     -256     -240     -283     -338     -394 
    -473     -591     -723     -816     -816     -727     -646     -656 
    -666     -577     -500     -538     -584     -538     -457     -398 
    -346     -305     -298     -288     -238     -218     -276     -344 
    -369     -417     -535     -634     -616     -571     -602     -623 
    -548     -491     -544     -584     -514     -441     -464     -510 
    -508     -514     -526     -507     -506     -519     -468     -407 
    -456     -541     -513     -434     -438     -484     -491     -486 
    -494     -518     -557     -565     -492     -394     -368     -403 
    -426     -437     -475     -511     -508     -494     -468     -376 
    -279     -283     -357     -425     -445     -440     -471     -517 
    -506     -463     -481     -548     -573     -549     -533     -545 
    -568     -583     -552     -480     -465     -564     -669     -666 
    -616     -650     -699     -589     -391     -286     -268     -252 
    -237     -268     -365     -484     -562     -571     -515     -473 
    -494     -530     -530     -513     -517     -541     -534     -496 
    -479     -492     -517     -513     -465     -473     -606     -700 
    -614     -487     -488     -533     -483     -399     -372     -371 
    -400     -464     -438     -299     -226     -298     -380     -384 
    -395     -464     -511     -498     -479     -461     -441     -521 
    -700     -784     -715     -654     -657     -622     -511     -395 
    -340     -329     -341     -387     -456     -525     -584     -612 
    -581     -510     -459     -406     -338     -333     -414     -495 
    -469     -373     -364     -453     -467     -403     -426     -538 
    -600     -580     -549     -519     -479     -498     -569     -564 
    -477     -461     -540     -596     -589     -544     -484     -472 
    -511     -508     -427     -384     -463     -550     -545     -531 
    -538     -468     -342     -261     -222     -228     -313     -398 
    -379     -326     -384     -513     -571     -573     -580     -556 
    -499     -465     -465     -465     -444     -457     -503     -457 
    -332     -294     -380     -452     -452     -477     -599     -715 
    -724     -684     -685     -711     -677     -549     -406     -338 
    -325     -291     -243     -248     -355     -499     -552     -521 
    -525     -572     -569     -476     -365     -363     -432     -405 
    -283     -230     -309     -403     -417     -444     -610     -814 
    -865     -772     -695     -697     -707     -660     -533     -359 
    -256     -305     -387     -379     -349     -373     -399     -399 
    -382     -329     -279     -321     -414     -434     -388     -421 
    -534     -573     -533     -573     -722     -822     -805     -793 
    -842     -811     -650     -508     -442     -384     -330     -342 
    -426     -499     -521     -581     -684     -684     -565     -464 
    -413     -328     -220     -194     -234     -257     -311     -387 
    -367     -328     -419     -535     -548     -561     -664     -739 
    -677     -562     -519     -500     -437     -384     -375     -365 
    -369     -415     -427     -384     -414     -545     -630     -615 
    -602     -602     -554     -535     -576     -527     -391     -322 
    -326     -318     -297     -324     -425     -561     -675     -675 
    -558     -492     -510     -457     -349     -319     -386     -487 
    -553     -544     -507     -510     -527     -502     -465     -483 
    -523     -510     -461     -456     -460     -429     -429     -437 
    -402     -413     -521     -611     -625     -662     -749     -729 
    -589     -513     -522     -464     -329     -260     -294     -371 
    -423     -382     -298     -318     -438     -508     -465     -403 
    -414     -426     -378     -372     -475     -596     -687     -762 
    -814     -842     -855     -810     -668     -500     -382     -268 
    -143     -130     -253     -375     -446     -500     -514     -492 
    -480     -479     -441     -355     -264     -195     -132     -101 
    -132     -184     -221     -284     -402     -527     -600     -608 
    -594     -595     -633     -656     -587     -507     -533     -592 
    -639     -681     -699     -741     -783     -711     -557     -445 
    -436     -479     -465     -387     -360     -423     -452     -380 
    -332     -418     -550     -571     -487     -444     -507     -584 
    -530     -384     -355     -457     -487     -419     -433     -567 
    -699     -753     -753     -712     -629     -564     -554     -576 
    -634     -670     -594     -469     -445     -500     -499     -419 
    -383     -405     -391     -315     -230     -151      -83      -85 
    -152     -186     -220     -384     -615     -730     -681     -607 
    -608     -630     -643     -660     -634     -587     -585     -576 
    -499     -376     -310     -368     -460     -490     -479     -465 
    -490     -553     -577     -486     -336     -272     -322     -386 
    -414     -456     -558     -675     -702     -637     -556     -527 
    -534     -481     -352     -244     -230     -306     -395     -426 
    -472     -604     -753     -812     -747     -631     -575     -561 
    -537     -517     -531     -611     -703     -679     -554     -467 
    -441     -415     -369     -306     -244     -243     -314     -340 
    -251     -206     -330     -475     -500     -461     -461     -519 
    -575     -576     -525     -465     -454     -495     -514     -486 
    -496     -565     -596     -595     -614     -573     -471     -432 
    -491     -571     -581     -553     -604     -724     -753     -612 
    -460     -465     -495     -396     -309     -305     -255     -159 
    -164     -307     -467     -545     -602     -700     -777     -764 
    -675     -596     -594     -573     -422     -286     -318     -392 
    -388     -391     -446     -467     -440     -407     -345     -283 
    -284     -294     -280     -334     -461     -507     -430     -365 
    -382     -399     -410     -464     -542     -648     -769     -803 
    -708     -591     -529     -465     -351     -251     -232     -286 
    -348     -361     -373     -473     -614     -665     -633     -635 
    -677     -657     -575     -504     -464     -475     -558     -615 
    -522     -384     -380     -419     -364     -299     -294     -261 
    -220     -268     -359     -411     -495     -660     -777     -751 
    -681     -627     -526     -427     -429     -422     -310     -263 
    -402     -542     -527     -517     -662     -810     -793     -699 
    -643     -588     -522     -531     -598     -598     -527     -475 
    -446     -388     -334     -325     -305     -253     -270     -364 
    -421     -422     -454     -531     -584     -596     -598     -589 
    -589     -652     -723     -669     -513     -427     -461     -491 
    -471     -459     -496     -591     -699     -715     -618     -577 
    -668     -666     -448     -237     -220     -321     -433     -494 
    -495     -530     -638     -706     -661     -573     -538     -535 
    -475     -368     -309     -305     -337     -415     -463     -405 
    -319     -299     -322     -348     -364     -395     -483     -560 
    -484     -325     -299     -391     -396     -321     -333     -454 
    -537     -510     -473     -471     -461     -483     -510     -456 
    -440     -522     -554     -503     -490     -508     -448     -365 
    -395     -434     -368     -341     -432     -477     -433     -434 
    -513     -581     -650     -727     -727     -665     -631     -625 
    -594     -531     -463     -399     -396     -479     -521     -461 
    -421     -456     -496     -511     -534     -556     -525     -465 
    -442     -450     -442     -423     -423     -402     -369     -402 
    -410     -288     -139      -95     -156     -238     -283     -328 
    -427     -585     -715     -681     -531     -471     -549     -658 
    -711     -654     -503     -410     -452     -500     -426     -306 
    -302     -415     -508     -557     -629     -673     -638     -573 
    -483     -359     -333     -423     -453     -434     -525     -630 
    -594     -523     -565     -623     -580     -530     -530     -498 
    -433     -400     -378     -340     -342     -446     -583     -611 
    -530     -449     -429     -486     -580     -616     -550     -472 
    -476     -530     -529     -437     -324     -286     -329     -341 
    -278     -238     -297     -406     -481     -503     -498     -472 
    -452     -471     -457     -379     -369     -452     -464     -390 
    -425     -592     -712     -745     -770     -773     -726     -642 
    -529     -418     -391     -433     -422     -349     -373     -507 
    -579     -553     -507     -475     -477     -537     -602     -581 
    -526     -548     -595     -558     -502     -537     -630     -641 
    -556     -507     -523     -504     -423     -353     -324     -286 
    -233     -232     -319     -475     -622     -700     -727     -741 
    -735     -664     -530     -450     -434     -380     -287     -233 
    -263     -338     -410     -495     -560     -523     -421     -334 
    -311     -353     -391     -433     -537     -626     -637     -646 
    -693     -731     -714     -646     -534     -414     -376     -353 
    -252     -233     -415     -630     -687     -653     -707     -788 
    -722     -583     -510     -494     -487     -444     -351     -283 
    -353     -508     -562     -508     -457     -409     -383     -398 
    -348     -209     -102     -112     -187     -248     -284     -332 
    -422     -548     -642     -683     -719     -768     -792     -750 
    -638     -540     -526     -535     -473     -361     -294     -295 
    -349     -437     -519     -594     -677     -707     -615     -475 
    -386     -355     -317     -230     -199     -333     -503     -567 
    -612     -722     -770     -675     -552     -514     -472     -333 
    -198     -179     -226     -274     -355     -494     -625     -724 
    -824     -882     -796     -546     -261     -103      -70      -76 
    -148     -321     -513     -615     -611     -572     -540     -507 
    -498     -514     -542     -562     -550     -562     -645     -724 
    -789     -900    -1005    -1019     -977     -891     -730     -577 
    -503     -415     -229      -60      -39     -130     -249     -328 
    -309     -191      -71      -29      -49      -95     -194     -382 
    -614     -784     -835     -827     -819     -812     -807     -784 
    -734     -689     -666     -614     -487     -295     -125     -102 
    -194     -240     -303     -529     -770     -841     -791     -727 
    -629     -459     -321     -341     -467     -602     -712     -760 
    -741     -742     -769     -683     -446     -248     -164      -55 
     168      340      218     -147     -519     -803     -970     -978 
    -824     -454       12      194       -9     -234     -263     -326 
    -554     -664     -507     -348     -364     -461     -535     -492 
    -325     -206     -205     -137       48        8     -421     -846 
   -1030    -1166    -1259    -1082     -688     -359     -168       21 
     183      160        0     -149     -333     -681    -1121    -1390 
   -1372    -1183     -924     -608     -267       14      175      144 
    -139     -558     -907    -1151    -1325    -1347    -1107     -638 
    -133      257      544      712      666      363     -145     -742 
   -1290    -1675    -1780    -1597    -1242     -739     -109      465 
     797      791      468       31     -315     -538     -715     -842 
    -773     -463     -152      -89     -163     -140      -37       -4 
     -78     -282     -635    -1062    -1480    -1848    -1984    -1636 
    -838       97      951     1622     1981     1960     1584      881 
    -114    -1255    -2309    -3052    -3356    -3248    -2813    -2119 
   -1231     -234      696     1286     1339      947      450       60 
    -315     -718     -881     -626     -210       59      271      622 
     994     1089      738      -18     -959    -1755    -2312    -2806 
   -3214    -3325    -3164    -2841    -2342    -1755    -1335    -1267 
   -1476    -1771    -2066    -2330    -2450    -2263    -1582     -384 
     993     2080     2748     3240     3627     3677     3346     2868 
    2401     1914     1264      328     -803    -1760    -2265    -2520 
   -2847    -3186    -3362    -3392    -3312    -3051    -2496    -1683 
    -743      290     1335     2174     2774     3240     3438     3105 
    2262     1192       60    -1108    -2203    -3114    -3790    -4040 
   -3759    -3231    -2722    -2169    -1472     -699       31      595 
     903      999      992      761      101     -847    -1728    -2323 
   -2604    -2617    -2417    -1971    -1237     -363      430     1044 
    1444     1634     1544      934     -157    -1244    -1925    -2047 
   -1586     -665      442     1404     2010     2268     2145     1679 
    1165      837      650      413      -52     -699    -1200    -1266 
    -997     -846    -1057    -1328    -1262     -911     -615     -487 
    -409     -280       44      635     1305     1833     2135     2110 
    1466        1    -1933    -3761    -5217    -6072    -5989    -4957 
   -3395    -1717      -45     1354     1977     1864     1551     1260 
     958      700      522      302      -99     -637    -1171    -1659 
   -1948    -1780    -1197     -595     -342     -639    -1441    -2338 
   -2889    -3095    -3150    -2922    -2110     -769      724     2065 
    3129     3813     3902     3234     2006      766        4     -310 
    -452     -372       36      537      724      391     -241     -841 
   -1316    -1576    -1444     -958     -367      103      409      600 
     739      931     1115     1055      791      457     -126    -1219 
   -2666    -3921    -4675    -5116    -5341    -5131    -4434    -3458 
   -2328    -1124     -174      164       10     -256     -517     -704 
    -510      191      923     1161     1062     1054     1192     1379 
    1559     1598     1421     1073      616      120     -326     -643 
    -745     -619     -456     -433     -456     -432     -498     -772 
   -1158    -1385    -1210     -716     -229        6     -141     -689 
   -1371    -1881    -2246    -2547    -2613    -2355    -1927    -1379 
    -688      -56      287      405      483      611      810     1150 
    1640     2043     2061     1537      454     -877    -1869    -2222 
   -2151    -1977    -1761    -1467    -1260    -1325    -1570    -1786 
   -1838    -1655    -1165     -473       17       79      -59     -167 
    -279     -406     -392      -79      519     1170     1514     1309 
     765      386      206     -272    -1113    -1764    -2029    -2266 
   -2547    -2420    -1767    -1074     -630     -307      -44      240 
     768     1462     1881     1759     1190      361     -511    -1232 
   -1786    -2168    -2250    -2018    -1672    -1399    -1205     -955 
    -562       10      666     1067      978      523      -56     -585 
    -866     -761     -363       47      205      -45     -702    -1428 
   -1710    -1437     -949     -499     -152       33       99      166 
     229      228      172       -1     -456    -1179    -1896    -2344 
   -2478    -2315    -1838    -1271     -996     -958     -789     -469 
    -164      164      527      693      506      248      315      619 
     799      783      824     1105     1383     1293      943      747 
     799      766      348     -361    -1038    -1555    -2042    -2552 
   -2876    -2824    -2473    -2050    -1675    -1275     -797     -340 
      14      230      234       99      103      365      610      515 
     130     -303     -664     -953    -1183    -1228     -827       25 
     935     1447     1343      627     -518    -1723    -2608    -3040 
   -3127    -3021    -2739    -2173    -1397     -747     -356       18 
     531      950      932      519       83      -91       -5      140 
     244      450      820     1115      972      286     -575    -1196 
   -1586    -1991    -2440    -2617    -2259    -1537     -768      -44 
     649     1194     1328      990      403     -279    -1001    -1618 
   -2012    -2182    -2133    -1813    -1208     -410      477     1332 
    1975     2319     2363     2126     1625      899       94     -608 
   -1150    -1586    -2020    -2473    -2749    -2701    -2431    -2054 
   -1495     -707       56      418      264     -187     -599     -807 
    -897     -922     -842     -584      -54      580      943     1001 
    1070     1204     1015      301     -598    -1301    -1749    -1973 
   -2031    -2069    -2118    -2000    -1563    -1028     -799     -837 
    -783     -550     -336     -225     -136      -87     -238     -595 
    -970    -1237    -1352    -1246     -912     -494     -116      252 
     604      804      839      796      557       -5     -571     -630 
    -202      213      391      650     1236     1765     1637      834 
    -141     -892    -1359    -1690    -1969    -2088    -1945    -1642 
   -1437    -1460    -1499    -1343    -1058     -756     -496     -449 
    -662     -919    -1030    -1020     -973     -878     -703     -529 
    -511     -666     -791     -722     -554     -423     -313     -174 
     -24      103      201      291      387      453      537      729 
     866      710      340        8     -268     -588     -896    -1120 
   -1344    -1597    -1830    -2037    -2150    -2011    -1567    -1005 
    -606     -373      -14      548     1089     1551     1903     1836 
    1200      264     -670    -1455    -1960    -2073    -1771    -1170 
    -487        8       62     -274     -660     -976    -1368    -1821 
   -2116    -2137    -1898    -1452     -876     -299      148      567 
    1102     1528     1514     1162      734      290     -191     -710 
   -1251    -1696    -1834    -1594    -1150     -658     -128      400 
     816     1055     1096      972      785      546      114     -464 
    -919    -1155    -1312    -1494    -1587    -1397     -999     -654 
    -526     -637     -838     -932     -927     -949    -1015    -1030 
    -970     -905     -881     -930    -1090    -1294    -1391    -1371 
   -1302    -1108     -731     -355      -93      197      542      785 
     851      734      463      178      -33     -211     -376     -452 
    -302       68      436      695      939     1112     1004      579 
     -24     -724    -1490    -2204    -2670    -2725    -2413    -1992 
   -1626    -1229     -669      -48      373      486      361       79 
    -292     -677    -1092    -1582    -2026    -2151    -1842    -1279 
    -726     -267      147      473      550      322     -110     -645 
   -1111    -1277    -1074     -610       13      703     1282     1530 
    1348      789       -5     -822    -1447    -1872    -2278    -2705 
   -2941    -2801    -2327    -1755    -1251     -718      -79      467 
     768      885      901      869      853      812      619      321 
