Origin Time       2024/04/02 04:24:00
Lat.              40.133
Long.             141.712
Depth. (km)       71
Mag.              6.0
Station Code      HKD086
Station Lat.      42.8542
Station Long.     143.8579
Station Height(m) 9
Record Time       2024/04/02 04:26:02
Sampling Freq(Hz) 100Hz
Duration Time(s)  78
Dir.              N-S
Scale Factor      3920(gal)/6182761
Max. Acc. (gal)   5.614
Last Correction   2024/04/02 04:26:02
Memo.             
[...]
   -2778    -2744    -2580    -2475    -2560    -2795    -3041    -3238 
   -3376    -3404    -3267    -2954    -2528    -2108    -1852    -1832 
   -1943    -2140    -2465    -2773    -2815    -2558    -2169    -1800 
   -1576    -1625    -1886    -2086    -2034    -1879    -1988    -2465 
   -2966    -3110    -2954    -2828    -2787    -2609    -2315    -2165 
   -2238    -2414    -2630    -2951    -3344    -3582    -3557    -3409 
   -3258    -3092    -2974    -3031    -3193    -3258    -3144    -2982 
   -2987    -3143    -3197    -2989    -2668    -2506    -2524    -2551 
   -2505    -2391    -2196    -1971    -1938    -2225    -2608    -2788 
   -2710    -2470    -2136    -1786    -1606    -1721    -1984    -2152 
   -2210    -2297    -2376    -2262    -1908    -1500    -1323    -1545 
   -2091    -2746    -3311    -3713    -4064    -4380    -4384    -3977 
   -3428    -2948    -2550    -2173    -1797    -1536    -1537    -1817 
   -2241    -2614    -2832    -2971    -3126    -3230    -3180    -3004 
   -2805    -2633    -2451    -2246    -2035    -1865    -1820    -1942 
   -2164    -2284    -2151    -1860    -1588    -1511    -1827    -2480 
   -3040    -3191    -3112    -3171    -3420    -3620    -3603    -3406 
   -3133    -2890    -2771    -2787    -2864    -2931    -2954    -2936 
   -2904    -2806    -2528    -2079    -1588    -1159     -931    -1051 
   -1454    -1973    -2536    -3062    -3467    -3701    -3675    -3383 
   -2929    -2395    -1894    -1623    -1663    -1790    -1786    -1800 
   -2059    -2471    -2805    -3049    -3213    -3143    -2863    -2600 
   -2411    -2225    -2184    -2474    -2851    -2917    -2731    -2639 
   -2722    -2746    -2674    -2722    -2857    -2883    -2829    -2827 
   -2930    -3026    -2868    -2418    -1969    -1772    -1811    -1969 
   -2192    -2448    -2659    -2783    -2858    -2944    -3043    -3118 
   -3199    -3291    -3291    -3110    -2737    -2364    -2240    -2296 
   -2354    -2387    -2348    -2190    -1994    -1931    -2121    -2424 
   -2516    -2284    -2052    -2181    -2545    -2758    -2693    -2541 
   -2508    -2609    -2829    -3122    -3341    -3421    -3324    -3051 
   -2849    -2967    -3345    -3654    -3574    -3157    -2804    -2750 
   -2741    -2454    -2081    -2098    -2593    -3117    -3165    -2719 
   -2222    -2026    -2025    -1971    -1805    -1581    -1472    -1697 
   -2200    -2616    -2644    -2274    -1769    -1510    -1608    -1879 
   -2219    -2522    -2571    -2367    -2312    -2737    -3390    -3905 
   -4162    -4083    -3785    -3534    -3414    -3316    -3131    -2895 
   -2696    -2633    -2730    -2775    -2596    -2270    -1927    -1676 
   -1609    -1679    -1712    -1600    -1404    -1304    -1448    -1771 
   -2062    -2286    -2560    -2785    -2748    -2478    -2245    -2283 
   -2570    -2966    -3438    -3915    -4148    -4005    -3708    -3430 
   -3072    -2673    -2452    -2465    -2525    -2439    -2258    -2126 
   -2081    -2025    -1837    -1711    -1966    -2491    -2882    -3008 
   -3125    -3377    -3494    -3277    -2971    -2892    -2991    -3022 
   -2859    -2545    -2273    -2176    -2196    -2183    -1955    -1460 
    -980     -939    -1438    -2147    -2720    -3072    -3244    -3317 
   -3432    -3656    -3768    -3401    -2530    -1636    -1184    -1150 
   -1363    -1815    -2347    -2616    -2529    -2344    -2370    -2584 
   -2705    -2646    -2571    -2593    -2734    -3007    -3363    -3593 
   -3492    -3177    -3011    -3183    -3509    -3647    -3402    -2830 
   -2136    -1587    -1367    -1482    -1748    -1922    -2027    -2234 
   -2444    -2474    -2415    -2489    -2666    -2748    -2759    -2887 
   -3234    -3699    -3996    -3832    -3170    -2416    -2091    -2184 
   -2201    -1882    -1594    -1812    -2440    -3091    -3639    -4081 
   -4265    -4033    -3527    -2998    -2435    -1812    -1354    -1166 
   -1054     -922     -897    -1080    -1456    -1874    -2153    -2258 
   -2296    -2475    -2893    -3291    -3350    -3084    -2771    -2631 
   -2556    -2386    -2272    -2408    -2817    -3440    -4067    -4385 
   -4184    -3614    -3104    -2825    -2634    -2498    -2547    -2792 
   -2920    -2604    -2078    -1851    -1909    -1828    -1539    -1417 
   -1672    -2049    -2221    -2249    -2341    -2442    -2463    -2459 
   -2461    -2434    -2324    -2124    -1813    -1450    -1371    -1772 
   -2313    -2561    -2553    -2699    -3194    -3775    -4102    -4157 
   -4136    -4118    -3971    -3531    -2885    -2434    -2346    -2262 
   -1976    -1740    -1715    -1878    -2277    -2879    -3400    -3611 
   -3645    -3669    -3576    -3241    -2772    -2419    -2254    -2119 
   -1891    -1557    -1298    -1363    -1621    -1755    -1756    -1760 
   -1720    -1660    -1850    -2293    -2611    -2618    -2523    -2665 
   -2984    -3035    -2772    -2635    -2785    -2962    -3035    -3089 
   -3094    -2984    -2751    -2454    -2331    -2572    -3136    -3781 
   -4185    -4206    -3910    -3450    -3037    -2845    -2825    -2683 
   -2180    -1446     -897     -803     -992    -1130    -1154    -1297 
   -1715    -2293    -2870    -3327    -3572    -3677    -3799    -3866 
   -3550    -2803    -2166    -2047    -2098    -1857    -1540    -1671 
   -2199    -2586    -2630    -2632    -2889    -3264    -3412    -3389 
   -3509    -3696    -3569    -3052    -2464    -2082    -1996    -2156 
   -2379    -2518    -2653    -2952    -3281    -3409    -3529    -3838 
   -3959    -3486    -2706    -2197    -2068    -1982    -1657    -1196 
    -992    -1248    -1774    -2210    -2456    -2825    -3399    -3800 
   -3755    -3280    -2667    -2263    -2060    -1857    -1640    -1562 
   -1597    -1491    -1283    -1387    -1907    -2418    -2673    -2974 
   -3515    -3932    -3865    -3468    -3119    -2897    -2681    -2504 
   -2381    -2207    -2112    -2341    -2711    -2785    -2655    -2861 
   -3454    -3843    -3664    -3159    -2630    -2111    -1719    -1664 
   -1704    -1439    -1174    -1573    -2612    -3560    -3897    -3873 
   -3941    -4092    -4050    -3636    -2912    -2182    -1750    -1685 
   -1859    -2131    -2340    -2336    -2229    -2279    -2622    -3134 
   -3466    -3344    -2779    -2107    -1660    -1474    -1617    -2014 
   -2245    -2228    -2387    -2958    -3498    -3480    -3037    -2540 
   -2125    -1833    -1734    -1899    -2292    -2708    -2807    -2508 
   -2172    -2047    -2017    -1945    -1973    -2332    -2829    -3025 
   -2877    -2682    -2694    -2930    -3214    -3347    -3121    -2544 
   -2091    -2248    -2811    -3048    -2705    -2335    -2510    -3078 
   -3320    -2989    -2648    -2636    -2612    -2312    -2020    -2099 
   -2466    -2790    -2881    -2783    -2770    -2967    -2967    -2472 
   -1962    -1974    -2186    -1949    -1438    -1368    -1802    -2237 
   -2417    -2412    -2356    -2282    -2259    -2484    -2916    -3245 
   -3212    -2780    -2246    -1975    -2001    -2138    -2296    -2560 
   -2980    -3416    -3685    -3756    -3714    -3568    -3142    -2528 
   -2272    -2491    -2599    -2328    -2181    -2408    -2450    -2031 
   -1742    -2016    -2477    -2701    -2894    -3149    -3061    -2597 
   -2222    -2169    -2257    -2304    -2315    -2280    -2239    -2272 
   -2287    -2275    -2438    -2686    -2619    -2233    -2010    -2193 
   -2622    -3050    -3187    -2992    -2828    -2872    -2906    -2862 
   -2936    -3166    -3470    -3867    -4270    -4450    -4361    -4071 
   -3465    -2567    -1789    -1445    -1401    -1313    -1146    -1185 
   -1494    -1887    -2288    -2698    -2918    -2715    -2325    -2265 
   -2544    -2788    -2888    -2871    -2690    -2413    -2251    -2385 
   -2781    -3113    -2989    -2453    -2007    -1959    -2168    -2468 
   -2856    -3120    -2905    -2384    -2193    -2558    -2921    -2639 
   -1912    -1469    -1592    -2144    -2942    -3654    -3717    -2985 
   -2308    -2447    -2932    -2906    -2417    -2233    -2535    -2732 
   -2489    -2087    -1917    -1953    -1912    -1803    -1919    -2331 
   -2796    -3130    -3146    -2656    -2025    -2023    -2859    -3756 
   -3875    -3307    -2694    -2491    -2622    -2705    -2737    -3086 
   -3634    -3615    -2874    -2177    -1955    -1989    -2007    -2001 
   -2189    -2716    -3414    -3752    -3277    -2309    -1739    -1961 
   -2478    -2764    -2857    -2935    -2967    -2914    -2845    -2633 
   -2106    -1567    -1447    -1723    -2087    -2355    -2467    -2373 
   -2277    -2568    -3276    -4072    -4475    -4137    -3315    -2605 
   -2327    -2312    -2219    -1864    -1359    -1140    -1436    -2055 
   -2793    -3260    -3090    -2548    -2147    -2013    -1881    -1734 
   -2017    -2625    -2769    -2312    -2003    -2272    -2672    -2733 
   -2635    -2691    -2892    -3060    -3065    -2905    -2669    -2557 
   -2613    -2508    -2124    -2000    -2697    -3953    -4929    -5050 
   -4441    -3795    -3499    -3228    -2783    -2467    -2545    -2815 
   -2710    -1967    -1100     -959    -1797    -2798    -2914    -2228 
   -1818    -2195    -2737    -2794    -2490    -2178    -1810    -1407 
   -1395    -1780    -2034    -1943    -1719    -1624    -1797    -2290 
   -3043    -3644    -3614    -3048    -2595    -2640    -2814    -2668 
   -2319    -2123    -2173    -2302    -2386    -2499    -2720    -2946 
   -3086    -3112    -2942    -2723    -2846    -3333    -3761    -3918 
   -4003    -4070    -3870    -3387    -2838    -2123    -1140     -402 
    -534    -1389    -2219    -2589    -2663    -2695    -2696    -2616 
   -2515    -2450    -2447    -2469    -2501    -2678    -3016    -3071 
   -2464    -1681    -1411    -1595    -2006    -2653    -3294    -3560 
   -3392    -2840    -1955    -1102     -687     -713    -1048    -1625 
   -2362    -3098    -3455    -3071    -2229    -1706    -1708    -1781 
   -1846    -2216    -2901    -3627    -4218    -4670    -4743    -4047 
   -2874    -2068    -1814    -1453     -710     -193     -264     -528 
    -972    -2166    -3852    -4950    -5147    -5116    -5334    -5542 
   -5264    -4488    -3612    -2837    -2082    -1400     -956     -734 
    -792    -1475    -2822    -4248    -5237    -5727    -5500    -4322 
   -2823    -1869    -1483    -1278    -1217    -1688    -2751    -3598 
   -3513    -2732    -2023    -1805    -1858    -1985    -2111    -1891 
   -1207     -598     -684    -1335    -2040    -2700    -3096    -2719 
   -1585     -286      677     1289     1568     1118     -276    -2044 
   -3368    -4089    -4653    -5183    -5416    -5379    -5212    -4800 
   -4004    -3066    -2511    -2365    -2188    -1775    -1011       29 
     546     -499    -3199    -6207    -7980    -8339    -7868    -6676 
   -4703    -2337     -323      653      349     -829    -2110    -3100 
   -3836    -4171    -3881    -3104    -2117    -1234     -815     -752 
    -543     -179     -256    -1086    -2441    -4116    -5691    -6140 
   -5023    -3290    -2028    -1547    -1622    -1797    -1901    -2113 
   -2426    -2615    -2636    -2784    -3326    -4023    -4322    -3943 
   -3054    -1916     -706      137      153     -644    -1916    -3170 
   -3998    -4186    -3692    -2994    -2772    -3003    -2979    -2527 
   -2325    -2378    -1968    -1221     -988    -1477    -2169    -2892 
   -3749    -4202    -3434    -1578       81      475     -272    -1372 
   -2180    -2766    -3671    -4943    -6080    -6601    -6242    -5151 
   -3634    -1577      972     3056     3460     1845     -963    -3960 
   -6692    -8582    -8758    -7135    -4667    -2437     -913        2 
     324     -246    -1666    -3177    -4041    -4276    -4212    -3815 
   -2938    -1819     -997     -817    -1031     -942      -20     1472 
    2276     1228    -1275    -3529    -3988    -2606    -1025     -909 
   -2305    -4025    -5142    -5632    -5767    -5420    -4385    -3121 
   -2368    -2155    -1830     -977      -93     -169    -1438    -2935 
   -3808    -4242    -4865    -6048    -7525    -8562    -8536    -7098 
   -4478    -1536      809     2118     2665     2915     3060     2974 
    2045     -149    -2939    -4859    -4908    -3661    -2507    -2156 
   -2512    -3152    -3600    -3836    -4558    -6177    -7688    -7552 
   -5537    -2880     -953     -101      224      435      372     -507 
   -2676    -5774    -8459    -9309    -7671    -3913      502     3496 
    3653     1032    -2917    -5947    -6688    -5777    -4519    -3285 
   -1809     -346      298     -220    -1394    -2387    -2791    -2725 
   -2282    -1493     -612     -163     -721    -2315    -4020    -4697 
   -4125    -2872    -1754    -1427    -1764    -2313    -2893    -3131 
   -2392     -665      698      226    -1912    -4447    -6299    -6926 
   -6241    -4597    -2955    -2466    -3245    -3831    -2761     -572 
    1064     1500     1066      -47    -1998    -4694    -6994    -7290 
   -5364    -2883    -1557    -1390    -1352     -894     -455     -981 
   -2694    -4681    -5875    -5957    -5350    -4607    -3889    -2949 
   -1676     -195     1278     2128     1821      449    -1544    -3585 
   -5377    -6796    -7294    -6478    -4731    -2763    -1287     -806 
   -1197    -2149    -3462    -4532    -4677    -3879    -2680    -1385 
     183     1936     3274     3531     2342      -59    -2810    -5044 
   -6596    -7584    -7711    -6517    -3933     -544     2665     5027 
    6282     5864     3198    -1108    -5447    -8387    -9508    -9539 
   -9234    -8430    -6902    -5088    -3384    -1699      -18     1244 
    1476      259    -2146    -4709    -6205    -5983    -4540    -2930 
   -1530     -123     1200     1848     1397      291     -665    -1397 
   -2508    -4205    -5846    -6598    -6202    -5012    -3538    -2229 
   -1387    -1150    -1725    -3381    -5768    -7546    -7620    -6277 
   -4373    -2363     -404     1262     2405     3019     3010     1920 
    -666    -4113    -6986    -8579    -8848    -7780    -5789    -3711 
   -2152    -1008      200     1766     3667     5339     5797     4508 
    1942     -917    -3503    -5720    -7223    -7589    -7220    -6887 
   -6649    -6003    -4597    -2634     -872       58      208       25 
    -282     -951    -2207    -3966    -5874    -7354    -8079    -8248 
   -8137    -7523    -5951    -3793    -1886     -439      404      259 
    -785    -2171    -3188    -3269    -2460    -1327     -343      280 
     466      299     -214    -1159    -2405    -3554    -3881    -3060 
   -1941    -1309     -949     -348      612     1304     1131      397 
    -379    -1145    -2104    -3625    -5866    -7878    -8336    -7351 
   -6239    -5759    -5480    -4720    -3553    -2407    -1169      465 
    2075     2676     1735     -583    -3577    -5832    -6165    -5013 
   -3675    -2851    -2603    -2691    -2964    -3308    -3357    -3311 
   -3608    -4011    -4412    -4796    -4551    -3240    -1430      -39 
     672      875      752      440     -369    -1868    -3461    -4569 
   -4780    -3946    -2722    -1773    -1513    -1980    -2553    -3026 
   -3447    -3614    -3681    -3758    -3615    -2968    -1812     -667 
      66      352      108     -741    -2050    -3262    -3800    -3581 
   -2642    -1091      618     1816     1964     1070     -737    -3516 
   -6678    -8791    -8775    -7123    -5356    -4136    -2880    -1084 
     699     1234      -20    -2360    -4614    -6047    -6591    -6395 
   -5603    -4534    -3442    -2314    -1289     -554        4      364 
     394       87     -500    -1060    -1528    -2266    -3268    -4110 
   -4389    -4174    -3916    -3660    -3215    -2705    -2407    -2479 
   -2835    -3116    -2812    -1841     -813     -201       14     -190 
   -1038    -2557    -4211    -5243    -5211    -4205    -2963    -2465 
   -3090    -4283    -4893    -4196    -2855    -2116    -2187    -2323 
   -2064    -1517     -904     -593     -933    -1766    -2564    -2982 
   -3301    -4002    -4824    -4992    -4202    -2858    -1588     -883 
   -1056    -1999    -2924    -2909    -2034    -1206     -839     -854 
   -1308    -2077    -2712    -2885    -2708    -2682    -2998    -3311 
   -3626    -4308    -5132    -5300    -4302    -2537     -809      534 
    1510     2074     1825      349    -2049    -4400    -5786    -6127 
   -5989    -5540    -4644    -3539    -2608    -2074    -2151    -2833 
   -3500    -3621    -3668    -4082    -4196    -3199    -1266      455 
     932       34    -1791    -3831    -5438    -6180    -5695    -4179 
   -2523    -1408     -875     -776    -1058    -1511    -1690    -1471 
   -1028     -358      332      569      164     -842    -2137    -3061 
   -3336    -3444    -3861    -4258    -3821    -2488    -1264     -984 
   -1460    -1959    -2049    -1957    -2267    -3206    -4222    -4641 
   -4527    -4378    -4482    -4772    -5034    -5190    -5262    -5287 
   -5113    -4408    -3443    -2992    -3202    -3450    -3088    -2024 
    -752      118      446      497      377      -42     -907    -2112 
   -3193    -3914    -4384    -4492    -3937    -2623     -977      331 
    1000     1025      393     -889    -2589    -4230    -5259    -5225 
   -4177    -2682    -1335     -539     -337     -469     -889    -1682 
   -2643    -3545    -4476    -5481    -6381    -7143    -7622    -7296 
   -6074    -4460    -2634     -404     1871     3226     3280     2411 
    1037     -207     -767     -828     -926    -1405    -2080    -2403 
   -2344    -2569    -3537    -4894    -6029    -6862    -7616    -8215 
   -8372    -7757    -6273    -4611    -3797    -3944    -4187    -3714 
   -2467    -1097      -21     1032     2187     3110     3405     2846 
    1549     -159    -1755    -2645    -2679    -2257    -1990    -2208 
   -2962    -4115    -5106    -5472    -5241    -4507    -3200    -1318 
     577     1660     1710      944     -603    -2844    -5074    -6528 
   -7305    -7719    -7672    -7098    -6021    -4649    -3391    -2223 
    -872      326      746      410     -282    -1303    -2654    -3883 
   -4519    -4625    -4343    -3373    -1606      302     1519     1713 
     867     -794    -2624    -3956    -4588    -4805    -4884    -4702 
   -4189    -3455    -2531    -1778    -1818    -2682    -3601    -3881 
   -3541    -2976    -2606    -2526    -2322    -1641     -734     -118 
     -77     -706    -1917    -3253    -4226    -4683    -4716    -4657 
   -4670    -4334    -3289    -1798     -497       88     -350    -1944 
   -4124    -5768    -6338    -6058    -5345    -4476    -3496    -2337 
   -1054       29      700     1039     1089      813      183     -799 
   -2106    -3553    -4722    -5431    -5826    -5806    -4974    -3269 
   -1420     -310     -135     -585    -1355    -2288    -3155    -3606 
   -3555    -3215    -2866    -2633    -2390    -2037    -1824    -2253 
   -3424    -4635    -5040    -4365    -2964    -1362      164     1292 
    1598     1006     -271    -1894    -3260    -3842    -3749    -3610 
   -3846    -4202    -4204    -3793    -3283    -2987    -2902    -2747 
   -2599    -3046    -4234    -5412    -5728    -4998    -3785    -2901 
   -2604    -2453    -2035    -1548    -1448    -1828    -2493    -3331 
   -4354    -5427    -6104    -5916    -4724    -2748     -653      675 
