Origin Time       2024/04/02 04:24:00
Lat.              40.133
Long.             141.712
Depth. (km)       71
Mag.              6.0
Station Code      HKD085
Station Lat.      42.9581
Station Long.     144.0698
Station Height(m) 5
Record Time       2024/04/02 04:26:04
Sampling Freq(Hz) 100Hz
Duration Time(s)  73
Dir.              E-W
Scale Factor      7845(gal)/8223790
Max. Acc. (gal)   2.794
Last Correction   2024/04/02 04:26:05
Memo.             
[...]
     338      336      303      240      182      145      125      118 
     116       90       16      -83     -132      -59      124      318 
     438      479      471      446      417      373      341      337 
     352      368      387      409      414      372      292      230 
     220      237      249      260      275      288      328      419 
     526      577      527      399      286      270      332      379 
     359      315      321      371      391      345      260      172 
      98       54       70      135      176      162      133      122 
     136      183      243      243      140      -29     -163     -179 
     -67      120      303      415      445      445      465      480 
     438      357      291      255      230      233      264      297 
     351      446      535      554      499      394      251       99 
      -4      -28        4       39       33      -14      -39       32 
     209      430      603      675      649      542      378      203 
      90       86      199      379      523      515      348      145 
      41       82      222      360      419      395      317      232 
     198      233      298      348      353      309      268      276 
     295      265      191      140      152      176      153       99 
      74      110      195      307      426      487      454      384 
     330      290      257      255      280      307      321      302 
     237      172      189      305      432      488      491      483 
     452      388      329      324      360      376      349      310 
     284      280      303      340      355      348      373      449 
     503      464      348      244      226      284      348      369 
     333      236      101      -31     -117     -106       20      186 
     278      253      153       58       37      124      288      467 
     580      549      345       49     -202     -317     -261      -81 
     110      229      261      230      199      247      382      526 
     585      548      472      379      270      197      229      359 
     459      434      348      310      329      363      402      436 
     441      403      332      249      189      168      186      220 
     251      267      229      112      -40     -151     -151      -12 
     194      355      402      325      172       35      -27        5 
     114      222      230      103      -75     -171     -121       48 
     268      477      634      688      598      422      284      278 
     414      602      704      661      519      359      261      282 
     400      502      476      344      172       -4     -120      -98 
      39      186      253      240      194      163      178      240 
     321      395      440      422      313      114      -85     -148 
      -5      299      635      845      838      661      445      314 
     298      345      387      340      180      -20     -157     -164 
     -70       55      167      261      315      299      217      128 
     109      198      353      477      513      468      361      243 
     182      226      357      503      573      526      382      228 
     174      241      326      332      276      222      206      234 
     311      406      438      390      344      360      382      344 
     260      168       98       87      132      168      153      112 
      68       35       25       39       59       64       66       99 
     176      245      228      151      132      209      294      315 
     276      217      202      267      375      463      488      468 
     471      548      676      764      722      573      434      372 
     345      301      244      199      168      129      103      151 
     251      336      388      430      487      558      589      499 
     295       78      -40      -14      116      251      307      283 
     224      168      143      148      174      207      205      141 
      94      145      256      329      328      279      233      216 
     217      257      352      449      479      415      280      116 
       2        8       98      170      179      155      128      143 
     244      396      506      523      488      456      452      460 
     459      442      436      487      575      600      510      352 
     213      159      206      301      345      283      130      -45 
    -163     -167      -93        0      117      279      415      436 
     340      214      121       74       62       59       63      121 
     221      288      291      224      108       18      -29      -56 
     -16      101      214      278      299      280      252      253 
     257      216      172      222      365      504      550      486 
     392      355      324      236      157      171      237      280 
     294      306      338      391      426      392      282      171 
     159      233      282      274      282      341      387      368 
     338      324      298      299      345      376      340      265 
     232      278      332      307      247      240      268      264 
     224      178      145      137      153      148       87       31 
      52      147      260      351      407      444      436      357 
     283      294      369      427      422      371      303      236 
     217      290      414      490      457      361      279      232 
     238      310      373      336      217      125      139      259 
     406      481      446      376      360      380      383      355 
     310      276      280      301      280      218      149       90 
      72      155      317      473      542      473      309      183 
     199      341      494      508      315       22     -184     -218 
    -109       37      118       90       25       36      141      217 
     160       10      -70       29      220      321      278      157 
      72      130      311      503      629      675      625      476 
     257       28     -125     -128       21      234      383      388 
     282      144       28      -27       27      198      384      441 
     359      249      198      193      184      175      221      336 
     472      538      438      234      136      241      452      611 
     600      446      301      259      321      441      535      571 
     588      589      534      441      379      378      409      436 
     418      353      288      251      210      164      152      171 
     156       82      -28     -136     -164      -75       43       82 
      55       29       35       76      162      261      321      309 
     236      162      155      240      391      553      668      676 
     580      484      473      511      527      514      495      464 
     387      260      113        5       14      143      271      286 
     229      214      222      164      106      195      386      500 
     461      292       48     -137     -116       78      264      365 
     421      432      384      321      306      342      368      357 
     341      310      275      310      430      550      591      557 
     510      463      379      251      102      -52     -174     -168 
     -25      139      222      249      251      182       55        6 
     125      321      438      396      218       13      -67       59 
     298      457      471      425      392      340      257      237 
     319      409      422      348      194       33        0      128 
     295      373      344      251      135       33       10       98 
     233      315      315      294      275      216      155      203 
     364      535      629      627      572      486      399      363 
     382      426      499      619      707      654      491      334 
     213      118       93      143      175      148      132      140 
     113       72       68       89       79       -5     -135     -237 
    -268     -218     -120      -35       -6      -22      -18       48 
     144      243      334      367      295      157       72      130 
     249      299      311      376      488      606      715      762 
     673      473      309      236      186      129       68        0 
     -54      -63       10      166      303      318      210      110 
     166      380      608      712      683      604      557      571 
     625      665      684      697      677      623      595      576 
     487      345      274      359      549      699      688      486 
     178      -79     -160      -43      171      332      378      349 
     276      151      -25     -172     -157        0      128      132 
      41      -79     -155     -121       10      179      315      395 
     409      344      211       51      -47      -16       94      205 
     278      294      252      211      202      203      218      290 
     432      569      571      421      283      287      425      596 
     656      540      333      155       59       62      103      105 
      74       58       13      -99     -178      -91      156      468 
     684      665      437      184       62       85      167      261 
     399      581      692      649      545      492      472      449 
     437      425      380      309      237      160       86       83 
     174      280      330      325      309      302      294      313 
     378      414      324      148       20      -13       43      225 
     448      514      364      144       33       82      221      351 
     392      330      222      122       70       95      198      357 
     525      588      498      356      248      151       63       41 
     135      297      454      537      477      321      195      151 
     155      179      198      220      274      326      382      537 
     762      892      853      706      510      292       86      -51 
     -59       87      321      473      432      225      -86     -413 
    -606     -591     -442     -244      -29      156      240      216 
     153       94       63      109      195      252      286      330 
     372      352      218       71       52       89       31      -66 
     -47      106      306      481      607      649      564      382 
     217      162      187      286      558      957     1208     1128 
     776      310      -76     -176       85      588     1098     1358 
    1183      652       32     -460     -708     -607     -198      286 
     615      680      518      328      280      356      499      729 
     972     1053      904      557       72     -359     -523     -481 
    -441     -480     -607     -808     -962     -936     -741     -479 
    -251      -93       74      368      766     1101     1296     1412 
    1471     1385     1028      400     -280     -702     -618      -45 
     700     1308     1652     1680     1371      849      359       94 
     103      280      394      238     -126     -368     -198      357 
    1028     1502     1594     1258      525     -403    -1142    -1340 
    -931     -167      541      837      591      -29     -661     -940 
    -695      -43      654     1032      918      341     -487    -1213 
   -1503    -1237     -545      244      766      899      795      646 
     549      535      656      943     1278     1422     1201      626 
     -39     -418     -390     -186      -32       79      191      270 
     360      577      861      962      720      183     -426     -780 
    -654     -160      433      959     1366     1607     1610     1309 
     773      236     -129     -341     -461     -537     -622     -646 
    -449      -72      243      364      284        6     -321     -415 
    -121      487     1080     1237      869      274     -171     -207 
     195      811     1271     1277      810      113     -554    -1028 
   -1182     -923     -309      388      814      746      282     -198 
    -282      207     1081     1906     2303     2130     1489      672 
     101      106      672     1414     1934     2046     1705      993 
     153     -618    -1250    -1668    -1798    -1614    -1174     -611 
     -17      569     1023     1166      997      688      318     -159 
    -676    -1026    -1024     -641     -113      211      197      -48 
    -282     -241       94      480      757      984     1182     1278 
    1256     1182     1058      834      541      278       72     -116 
    -283     -413     -550     -734     -897     -892     -615      -83 
     594     1210     1579     1591     1200      496     -279     -843 
    -934     -469      367     1243     1809     1892     1548      958 
     368      -32     -270     -479     -668     -692     -460      -51 
     384      699      739      507      248      160      184      184 
      67     -193     -444     -376      145      888     1470     1671 
    1505     1067      406     -396    -1148    -1663    -1852    -1661 
   -1074     -207      680     1363     1782     1983     1996     1800 
    1366      774      230     -102     -255     -426     -770    -1250 
   -1679    -1813    -1424     -513      592     1437     1787     1740 
    1501     1138      677      319      348      803     1379     1672 
    1480      918      353      136      345      774     1062      927 
     322     -587    -1452    -1857    -1579     -720      436     1570 
    2361     2569     2119     1165       64     -734     -918     -494 
     159      490      133     -857    -2010    -2663    -2404    -1375 
     -60     1104     1815     1892     1436      818      352      144 
     167      336      515      608      579      386       59     -190 
    -140      163      423      392      108     -193     -337     -218 
     252      972     1647     2019     1944     1409      650       29 
    -252     -247     -130      -78     -251     -660    -1034    -1007 
    -486      303      973     1259     1216     1048      835      567 
     267       -6     -206     -288     -190      141      630     1036 
    1192     1124      924      623      199     -351     -912    -1247 
   -1151     -648       -5      446      521      230     -238     -625 
    -731     -540     -189      164      460      641      599      313 
     -44     -234     -129      213      648     1026     1189     1086 
     864      712      684      739      878     1112     1363     1468 
    1235      562     -464    -1528    -2166    -2052    -1204       33 
    1201     1998     2390     2442     2208     1829     1460     1112 
     669       79     -576    -1155    -1587    -1844    -1817    -1441 
    -843     -276      102      278      261      129       16      -59 
    -163     -268     -228       78      571     1051     1389     1525 
    1356      847      203     -270     -465     -446     -243       51 
     214      139      -37     -125      -59      135      476      961 
    1410     1622     1543     1231      820      487      378      604 
    1119     1669     2007     2025     1756     1302      761      260 
      -2       24      105       18     -176     -325     -383     -396 
    -419     -500     -665     -896    -1081    -1043     -704     -221 
     124      101     -344     -966    -1348    -1302     -954     -465 
      59      492      747      851      818      611      276       -5 
     -59      135      481      857     1124     1150      854      332 
    -186     -523     -606     -400       36      534      938     1232 
    1428     1416     1088      521      -59     -395     -290      284 
    1196     2158     2793     2837     2284     1279       93     -911 
   -1453    -1493    -1181     -718     -245      135      355      457 
     535      596      573      406      108     -213     -373     -166 
     487     1398     2160     2357     1877      992      160     -298 
    -396     -364     -411     -619     -958    -1297    -1436    -1267 
    -861     -326      303      931     1372     1498     1235      611 
    -128     -630     -703     -421       -9      332      544      653 
     633      417       10     -519    -1054    -1413    -1441    -1132 
    -580       91      704     1086     1223     1174      947      649 
     517      641      878     1104     1275     1364     1381     1378 
    1420     1476     1418     1166      797      504      441      557 
     649      553      243     -174     -556     -838    -1032    -1135 
   -1073     -807     -444     -176     -137     -319     -576     -749 
    -707     -318      373     1100     1575     1648     1329      781 
     255      -68     -179     -125       51      252      376      388 
     303      209      256      487      742      820      677      483 
     450      654     1051     1499     1749     1615     1167      660 
     278       62      -21      -16       21       36      -41     -256 
    -544     -764     -800     -670     -513     -399     -290     -160 
     -59      -36      -78      -99      -41       91      286      504 
     668      712      594      291     -114     -459     -637     -660 
    -569     -309      175      758     1233     1520     1668     1748 
    1814     1840     1718     1389      920      498      257      121 
     -52     -194     -145       78      379      707      963      996 
     770      396      -16     -419     -729     -804     -630     -344 
     -59      205      410      450      288       24     -240     -461 
    -608     -675     -710     -743     -741     -684     -626     -608 
    -596     -514     -351     -186      -45      160      529     1026 
    1468     1655     1549     1313     1120      980      768      418 
      24     -309     -545     -618     -442      -52      437      907 
    1251     1425     1441     1327     1113      803      388      -20 
    -209      -78      248      560      668      514      263      148 
     209      238       31     -365     -679     -618      -58      822 
    1599     1887     1583      908      180     -352     -548     -483 
    -387     -371     -353     -217       62      378      565      583 
     518      472      490      545      589      633      702      723 
     541      106     -379     -572     -253      491     1262     1582 
    1270      575     -102     -483     -490     -232       75      238 
     198       63       24      157      365      538      637      633 
     492      214     -167     -583     -934    -1075     -913     -537 
    -163       31       63      120      325      606      823      901 
     814      576      292      129      195      475      878     1337 
    1761     2010     1968     1583      862      -85    -1017    -1672 
   -1896    -1755    -1444    -1086     -714     -376     -130       35 
     164      233      210      210      403      776     1127     1227 
     997      623      396      445      683      901      899      649 
     353      220      288      473      621      602      441      337 
     495      888     1225     1235      913      499      190        8 
     -82     -114     -148     -220     -291     -338     -386     -463 
    -568     -629     -503     -202       91      265      363      467 
     603      745      834      842      789      720      707      758 
     769      673      535      436      388      360      322      291 
