Origin Time       2024/04/02 04:24:00
Lat.              40.133
Long.             141.712
Depth. (km)       71
Mag.              6.0
Station Code      HKD074
Station Lat.      43.3680
Station Long.     145.8026
Station Height(m) 16
Record Time       2024/04/02 04:26:29
Sampling Freq(Hz) 100Hz
Duration Time(s)  68
Dir.              E-W
Scale Factor      7845(gal)/8223790
Max. Acc. (gal)   6.090
Last Correction   2024/04/02 04:26:29
Memo.             
[...]
  -12622   -12735   -12883   -12938   -12946   -12984   -13066   -13127 
  -13101   -13031   -12980   -12972   -12978   -12887   -12692   -12590 
  -12681   -12795   -12768   -12775   -12981   -13193   -13228   -13196 
  -13173   -13108   -12962   -12771   -12656   -12690   -12734   -12669 
  -12667   -12873   -13070   -13080   -13022   -12982   -13003   -13082 
  -13080   -12958   -12853   -12808   -12756   -12672   -12672   -12872 
  -13174   -13284   -13027   -12625   -12457   -12675   -13115   -13419 
  -13289   -12862   -12638   -12803   -13054   -13154   -13041   -12744 
  -12529   -12591   -12806   -13012   -13149   -13177   -13073   -12914 
  -12858   -12891   -12927   -13035   -13205   -13270   -13099   -12733 
  -12409   -12309   -12421   -12667   -12942   -13149   -13279   -13329 
  -13176   -12856   -12733   -12941   -13169   -13197   -13054   -12869 
  -12785   -12831   -12865   -12773   -12679   -12668   -12679   -12814 
  -13104   -13277   -13189   -12989   -12881   -12989   -13192   -13220 
  -13031   -12791   -12583   -12459   -12486   -12590   -12695   -12881 
  -13109   -13204   -13146   -13104   -13171   -13198   -13041   -12812 
  -12679   -12663   -12696   -12734   -12834   -13020   -13144   -13135 
  -13095   -13036   -12923   -12864   -12961   -13109   -13131   -12997 
  -12842   -12749   -12695   -12679   -12735   -12831   -12858   -12802 
  -12822   -12988   -13127   -13086   -12933   -12846   -12927   -13132 
  -13293   -13246   -13005   -12734   -12572   -12573   -12664   -12773 
  -12927   -13069   -13119   -13101   -12999   -12847   -12816   -12896 
  -12977   -13095   -13243   -13262   -13096   -12843   -12569   -12383 
  -12433   -12710   -13024   -13136   -13078   -13034   -12941   -12769 
  -12677   -12764   -13011   -13252   -13275   -13070   -12768   -12568 
  -12630   -12842   -12955   -12876   -12715   -12644   -12729   -12950 
  -13165   -13205   -13099   -12974   -12912   -12972   -13126   -13211 
  -13158   -13053   -12938   -12807   -12646   -12533   -12636   -12877 
  -13041   -13030   -12856   -12722   -12812   -13026   -13215   -13288 
  -13220   -13095   -12987   -12888   -12733   -12590   -12598   -12694 
  -12777   -12888   -13045   -13124   -13023   -12896   -12941   -13107 
  -13224   -13159   -12972   -12852   -12823   -12818   -12802   -12704 
  -12537   -12503   -12738   -13084   -13262   -13170   -12996   -12937 
  -12924   -12896   -13007   -13178   -13084   -12799   -12669   -12722 
  -12854   -12985   -12987   -12918   -12899   -12827   -12695   -12738 
  -13024   -13278   -13242   -12977   -12737   -12723   -12923   -13061 
  -12953   -12827   -12885   -12955   -12903   -12829   -12827   -12877 
  -12933   -12984   -12964   -12870   -12860   -12989   -13116   -13058 
  -12854   -12738   -12766   -12831   -12888   -12954   -13018   -12957 
  -12742   -12599   -12739   -13057   -13223   -13132   -12997   -12907 
  -12807   -12810   -12933   -12987   -12918   -12869   -12914   -12993 
  -13023   -12914   -12762   -12785   -12880   -12800   -12653   -12685 
  -12876   -13049   -13143   -13159   -13116   -13069   -13014   -12960 
  -12964   -13024   -13112   -13126   -12997   -12858   -12798   -12730 
  -12637   -12653   -12764   -12792   -12806   -12918   -13005   -13024 
  -13074   -13149   -13146   -13066   -13014   -12970   -12864   -12733 
  -12687   -12757   -12752   -12660   -12768   -13024   -13194   -13262 
  -13169   -12924   -12746   -12765   -12982   -13284   -13398   -13186 
  -12823   -12564   -12449   -12357   -12361   -12603   -12918   -13082 
  -13088   -13043   -13050   -13104   -13122   -13066   -12966   -12891 
  -12893   -12966   -13073   -13138   -13031   -12769   -12590   -12658 
  -12876   -13011   -13026   -13008   -12955   -12887   -12860   -12922 
  -13034   -12996   -12815   -12777   -12943   -13090   -13046   -12858 
  -12737   -12791   -12931   -12992   -12900   -12737   -12618   -12626 
  -12834   -13171   -13409   -13432   -13213   -12798   -12538   -12679 
  -12941   -13023   -12920   -12791   -12779   -12789   -12710   -12675 
  -12791   -12987   -13157   -13181   -13051   -12908   -12820   -12785 
  -12818   -12923   -13049   -13093   -13038   -12982   -12957   -12969 
  -13015   -12924   -12725   -12700   -12825   -12881   -12910   -12945 
  -12884   -12811   -12892   -13049   -13089   -12951   -12748   -12741 
  -13028   -13324   -13358   -13180   -12914   -12646   -12572   -12739 
  -12918   -13005   -13058   -13027   -12888   -12738   -12726   -12895 
  -13085   -13089   -12947   -12838   -12765   -12685   -12734   -12941 
  -13045   -12883   -12677   -12710   -12916   -13063   -13107   -13086 
  -13016   -13009   -13131   -13166   -12973   -12772   -12735   -12835 
  -12991   -13057   -13011   -12964   -12900   -12750   -12577   -12583 
  -12885   -13219   -13212   -12955   -12769   -12746   -12920   -13211 
  -13332   -13197   -12999   -12920   -12934   -12897   -12833   -12764 
  -12664   -12609   -12626   -12681   -12781   -12908   -13001   -13001 
  -12946   -12911   -12901   -12976   -13138   -13219   -13135   -12946 
  -12780   -12762   -12872   -13011   -13046   -12927   -12791   -12737 
  -12748   -12811   -12943   -13080   -13039   -12869   -12771   -12757 
  -12816   -12992   -13134   -13078   -12942   -12919   -12969   -12993 
  -12981   -12966   -13014   -13085   -13039   -12901   -12827   -12846 
  -12904   -12922   -12822   -12669   -12630   -12757   -12900   -12899 
  -12800   -12783   -12946   -13167   -13227   -13158   -13082   -12946 
  -12762   -12725   -12884   -13095   -13161   -12974   -12672   -12550 
  -12718   -12962   -13050   -12989   -12931   -12965   -13008   -12976 
  -12937   -12945   -12961   -12949   -12918   -12849   -12715   -12596 
  -12550   -12613   -12876   -13176   -13221   -13116   -13107   -13100 
  -13014   -13012   -13055   -13004   -12974   -13028   -13058   -13036 
  -12927   -12654   -12407   -12393   -12511   -12664   -12880   -13074 
  -13135   -13146   -13178   -13196   -13220   -13189   -13028   -12901 
  -12941   -13030   -12972   -12725   -12444   -12303   -12402   -12679 
  -12965   -13166   -13213   -13116   -13022   -13049   -13176   -13258 
  -13196   -12992   -12766   -12725   -12792   -12684   -12487   -12507 
  -12730   -12935   -13063   -13139   -13151   -13136   -13123   -13061 
  -12912   -12807   -12884   -12992   -12945   -12837   -12758   -12679 
  -12726   -12950   -13088   -13081   -13069   -12966   -12765   -12619 
  -12579   -12663   -12908   -13198   -13282   -13105   -12903   -12837 
  -12895   -13063   -13194   -13096   -12915   -12885   -12964   -13043 
  -13070   -12966   -12787   -12696   -12642   -12567   -12707   -13045 
  -13188   -13078   -12926   -12804   -12785   -12942   -13151   -13205 
  -13042   -12795   -12663   -12664   -12684   -12769   -12958   -13076 
  -13047   -12981   -12938   -12923   -12910   -12861   -12827   -12892 
  -13058   -13171   -13000   -12602   -12409   -12667   -13180   -13602 
  -13625   -13209   -12725   -12514   -12619   -12916   -13149   -13076 
  -12808   -12621   -12610   -12685   -12712   -12727   -12883   -13072 
  -13057   -12914   -12931   -13055   -12996   -12853   -12910   -13058 
  -13072   -13007   -12989   -13005   -13024   -13007   -12943   -12923 
  -12888   -12771   -12748   -12895   -13042   -13072   -13050   -13046 
  -13028   -12961   -12839   -12746   -12746   -12781   -12811   -12826 
  -12795   -12765   -12764   -12737   -12756   -12989   -13321   -13482 
  -13381   -13062   -12718   -12611   -12726   -12915   -13105   -13130 
  -12881   -12584   -12501   -12634   -12853   -13034   -13089   -13090 
  -13177   -13209   -12973   -12660   -12676   -13003   -13227   -13138 
  -12873   -12587   -12395   -12445   -12726   -13042   -13223   -13207 
  -13122   -13147   -13150   -12955   -12749   -12749   -12884   -12949 
  -12930   -12978   -13062   -13055   -12953   -12807   -12688   -12691 
  -12869   -13076   -13050   -12826   -12725   -12854   -13031   -13130 
  -13080   -12884   -12744   -12783   -12843   -12830   -12862   -12992 
  -13069   -12973   -12769   -12657   -12773   -12992   -13074   -13019 
  -13008   -13055   -13063   -13092   -13085   -12866   -12617   -12617 
  -12793   -12951   -12997   -12923   -12807   -12818   -12937   -12884 
  -12696   -12700   -12901   -13105   -13247   -13286   -13173   -12973 
  -12814   -12812   -13004   -13132   -12966   -12719   -12634   -12725 
  -12957   -13099   -12888   -12591   -12603   -12769   -12850   -12937 
  -13070   -13212   -13311   -13251   -13111   -13116   -13238   -13220 
  -12958   -12618   -12405   -12343   -12376   -12542   -12816   -13073 
  -13201   -13154   -12997   -12883   -12887   -12953   -13072   -13263 
  -13362   -13197   -12873   -12592   -12467   -12556   -12798   -12987 
  -13004   -12954   -12926   -12864   -12853   -13061   -13238   -13042 
  -12723   -12671   -12826   -12934   -12883   -12735   -12656   -12779 
  -12982   -13051   -13050   -13119   -13201   -13274   -13328   -13223 
  -12885   -12536   -12434   -12563   -12731   -12776   -12768   -12973 
  -13257   -13223   -12955   -12825   -12895   -12980   -12974   -12930 
  -12947   -13008   -12988   -12899   -12870   -12914   -13008   -13151 
  -13130   -12789   -12479   -12499   -12656   -12745   -12785   -12838 
  -12924   -13023   -13146   -13188   -12987   -12823   -13042   -13347 
  -13300   -12982   -12754   -12712   -12725   -12758   -12837   -12877 
  -12831   -12768   -12807   -12964   -13023   -12856   -12739   -12899 
  -13167   -13329   -13346   -13266   -13072   -12773   -12611   -12704 
  -12814   -12758   -12625   -12533   -12583   -12816   -13142   -13414 
  -13487   -13236   -12804   -12546   -12660   -13068   -13427   -13404 
  -13070   -12646   -12317   -12348   -12676   -12910   -12919   -12889 
  -12954   -13055   -13086   -13081   -13095   -13104   -13053   -12910 
  -12860   -13057   -13259   -13217   -12914   -12519   -12411   -12675 
  -12914   -12881   -12744   -12692   -12683   -12735   -12968   -13146 
  -13057   -12996   -13045   -12950   -12938   -13166   -13212   -12981 
  -12880   -13030   -13165   -13072   -12760   -12410   -12387   -12799 
  -13190   -13204   -12982   -12776   -12696   -12760   -12857   -12830 
  -12785   -12991   -13329   -13451   -13356   -13239   -13057   -12756 
  -12518   -12452   -12495   -12559   -12579   -12690   -12934   -13072 
  -13112   -13243   -13347   -13298   -13122   -12923   -12928   -13095 
  -13111   -12904   -12603   -12383   -12397   -12577   -12691   -12677 
  -12779   -13082   -13325   -13404   -13347   -13159   -12993   -12900 
  -12810   -12799   -12827   -12788   -12754   -12752   -12711   -12623 
  -12571   -12687   -12982   -13275   -13340   -13243   -13209   -13169 
  -13047   -13018   -13089   -13043   -12789   -12460   -12252   -12312 
  -12548   -12712   -12847   -13128   -13367   -13394   -13474   -13747 
  -13898   -13632   -13004   -12502   -12529   -12792   -12806   -12563 
  -12363   -12337   -12285   -12112   -12102   -12474   -13151   -13803 
  -14061   -13954   -13743   -13586   -13517   -13371   -13004   -12548 
  -12194   -12089   -12272   -12403   -12127   -11685   -11526   -11875 
  -12750   -13707   -14250   -14343   -14062   -13497   -13031   -12957 
  -13034   -12949   -12771   -12619   -12476   -12356   -12367   -12637 
  -13015   -13108   -12949   -12842   -12775   -12730   -12866   -13144 
  -13501   -13871   -13819   -13127   -12318   -12012   -12274   -12738 
  -13078   -13182   -13036   -12831   -12933   -13312   -13490   -13248 
  -12758   -12260   -12137   -12540   -12999   -13227   -13402   -13491 
  -13366   -13147   -13015   -12912   -12679   -12437   -12410   -12680 
  -13105   -13262   -13031   -12827   -12969   -13219   -13103   -12638 
  -12260   -12276   -12665   -13096   -13311   -13211   -12829   -12644 
  -13035   -13545   -13671   -13549   -13460   -13417   -13325   -13066 
  -12611   -12120   -11765   -11777   -12189   -12544   -12631   -12590 
  -12343   -12071   -12275   -13041   -13933   -14566   -14912   -15002 
  -14808   -14280   -13317   -12137   -11304   -11105   -11458   -12096 
  -12541   -12433   -11901   -11538   -11821   -12610   -13505   -14115 
  -14139   -13759   -13421   -13424   -13851   -14499   -14870   -14411 
  -13101   -11576   -10413    -9702    -9491   -10060   -11358   -12833 
  -13815   -14069   -14061   -14258   -14435   -14019   -12923   -11863 
  -11649   -12436   -13752   -14735   -14651   -13784   -13147   -13100 
  -13311   -13566   -13699   -13447   -12784   -11859   -10832   -10053 
   -9809   -10193   -11356   -12930   -14065   -14513   -14538   -14349 
  -14103   -13672   -12914   -12324   -12457   -13107   -13818   -14388 
  -14616   -14326   -13570   -12665   -12012   -11867   -12287   -12937 
  -13182   -12970   -12826   -12972   -13259   -13468   -13301   -12623 
  -11753   -11267   -11476   -12179   -12993   -13725   -14343   -14908 
  -15466   -15785   -15611   -14989   -13896   -12540   -11834   -12236 
  -12826   -12409   -10902    -9467    -9196    -9825   -10428   -10806 
  -11385   -12448   -13886   -15111   -15466   -15157   -14929   -15037 
  -15476   -16206   -16717   -16174   -14162   -11394    -9170    -8025 
   -7728    -8019    -8602    -9067    -9244    -9509   -10359   -12016 
  -14289   -16282   -17231   -17586   -17948   -18050   -17583   -16849 
  -16213   -15384   -13698   -11109    -8405    -6737    -7074    -9285 
  -11823   -13166   -13252   -12919   -12811   -13360   -14769   -16602 
  -18088   -18682   -17888   -15410   -11966    -8999    -7250    -6534 
   -6934    -8810   -11692   -14678   -17026   -17807   -16687   -14879 
  -14071   -14642   -15358   -14717   -12499   -10153    -9181    -9383 
   -9552    -9451   -10199   -12298   -14289   -14505   -13161   -11732 
  -11119   -11448   -12587   -13853   -14515   -14673   -14862   -15157 
  -14958   -14087   -13551   -13965   -14265   -13306   -11286    -9040 
   -7650    -7948    -9441   -11105   -12831   -14878   -16694   -17194 
  -16012   -14077   -13039   -13826   -15454   -15885   -14343   -12291 
  -11453   -11719   -12199   -12544   -12123   -10524    -9155    -9591 
  -11348   -13024   -13709   -13301   -12901   -13686   -15430   -17174 
  -18033   -17074   -14200   -11067    -9652   -10193   -11352   -11765 
  -11049    -9979    -9678   -10605   -12191   -13360   -13842   -14391 
  -15427   -16308   -16120   -15110   -14397   -14359   -14526   -14270 
  -12973   -10800    -8910    -8079    -8494   -10089   -12000   -13383 
  -14029   -13756   -13109   -13159   -13956   -14878   -15489   -15426 
  -14655   -13609   -12685   -12174   -12384   -13278   -14133   -14077 
  -12973   -11591   -10767   -10477   -10339   -10532   -11441   -13165 
  -15273   -16671   -16447   -14926   -13401   -12727   -12679   -12577 
  -11767   -10369    -9829   -11051   -12919   -13996   -14119   -13851 
  -13666   -13926   -14451   -14299   -13193   -11738   -10228    -9193 
   -9559   -11261   -13050   -13737   -13413   -13365   -14584   -16541 
  -17680   -17049   -15159   -13474   -12920   -12853   -12245   -11198 
  -10342    -9753    -9202    -9039   -10045   -12082   -14017   -15228 
  -15670   -15080   -13625   -12357   -12360   -13797   -15543   -16191 
  -15498   -14203   -12924   -11924   -11338   -10921   -10160    -9130 
   -8739    -9911   -12596   -15471   -16749   -15647   -13281   -11803 
  -12322   -13911   -14898   -14806   -14327   -13925   -13552   -13165 
  -12645   -11840   -11102   -11149   -12139   -13282   -13672   -13304 
  -12665   -11859   -10920   -10141   -10108   -11539   -14191   -16580 
  -17459   -16834   -15357   -13536   -11785   -10480    -9971   -10423 
  -11434   -12152   -12129   -11927   -12438   -14041   -16559   -18729 
  -18453   -15175   -10930    -8256    -7892    -8815    -9850   -10531 
  -11014   -11794   -12943   -14014   -14790   -15487   -16285   -16903 
  -16833   -16102   -15388   -14958   -13968   -11727    -9147    -8052 
   -9115   -10887   -11539   -10800    -9745    -9791   -11473   -13806 
  -15492   -16330   -17086   -18058   -18215   -16779   -14558   -12525 
  -10964   -10119    -9849    -9525    -9097    -9028    -9351    -9879 
  -10789   -12347   -14399   -16104   -16671   -16329   -15742   -15298 
  -15041   -14540   -13451   -12251   -11885   -12475   -12996   -12754 
  -11997   -11099   -10354   -10081   -10323   -10716   -11133   -11929 
  -13194   -14418   -14829   -14281   -13837   -14304   -15025   -14995 
  -14048   -12949   -12598   -12915   -13074   -12631   -11904   -11627 
  -12241   -13174   -13339   -12696   -12476   -13248   -14154   -14548 
  -14327   -13366   -12301   -12110   -12599   -12781   -12375   -11923 
  -11711   -11631   -11584   -11608   -12147   -13319   -14335   -14737 
  -14937   -15296   -15630   -15481   -14578   -12985   -11111    -9504 
   -8657    -8927   -10071   -11461   -12903   -14308   -15001   -14426 
  -13420   -13629   -15250   -16490   -15965   -14365   -13077   -12573 
  -12393   -11905   -10976    -9941    -9618   -10705   -12490   -13512 
  -13397   -12849   -12407   -12330   -12947   -13983   -14732   -14991 
  -14744   -14069   -13582   -13594   -13718   -13783   -13659   -12988 
  -11971   -11167   -10886   -11092   -11399   -11597   -11750   -11979 
  -12541   -13425   -14242   -14562   -14328   -13996   -13697   -13266 
  -12911   -12777   -12748   -12611   -12028   -10976   -10112   -10199 
  -11256   -12606   -13598   -14373   -15638   -17062   -17100   -15129 
  -12529   -11318   -12086   -13497   -13869   -12765   -11002    -9882 
  -10185   -11437   -12515   -12649   -12181   -12382   -13467   -14326 
  -14619   -14895   -15242   -15091   -14138   -12957   -12228   -12021 
  -11913   -11352   -10548   -10716   -12360   -14280   -15117   -14685 
  -13699   -13003   -12595   -11905   -11186   -11140   -11776   -12572 
  -12841   -12109   -10949   -10762   -12147   -14339   -16248   -17111 
  -16592   -15215   -14110   -13510   -12746   -11917   -11495   -11259 
  -10964   -10739   -10831   -11408   -12259   -12847   -12978   -13247 
  -14202   -15325   -15666   -14870   -13205   -11449   -10640   -11253 
  -12667   -13674   -13582   -12676   -12004   -12402   -13232   -13344 
  -12869   -12649   -12926   -13400   -13927   -14338   -14065   -12984 
  -11751   -11094   -11469   -12753   -14176   -15071   -15184   -14342 
  -12727   -11230   -10778   -11389   -12286   -13103   -13826   -13891 
  -12987   -11796   -11245   -11832   -13273   -14555   -14744   -13809 
  -12540   -11786   -11859   -12451   -13077   -13402   -13406   -13266 
  -12772   -11774   -11118   -11786   -13378   -14412   -14075   -13059 
  -12559   -12830   -13184   -13127   -12981   -13258   -13883   -14480 
  -14640   -13929   -12610   -11452   -10767   -10737   -11549   -12845 
  -13932   -14212   -13722   -13247   -13431   -14345   -15466   -15684 
  -14395   -12307   -10542    -9634    -9798   -10940   -12166   -12660 
  -12545   -12237   -12162   -12802   -13932   -14644   -14777   -14982 
  -15164   -14669   -13535   -12220   -11186   -10959   -11534   -12306 
  -12935   -13374   -13343   -12717   -11977   -11707   -12040   -12768 
  -13466   -13647   -13277   -13012   -13535   -14499   -14704   -13868 
  -12923   -12417   -12093   -11743   -11533   -11476   -11499   -11799 
  -12329   -12883   -13359   -13527   -13529   -13948   -14789   -15203 
