Origin Time       2024/04/02 04:24:00
Lat.              40.133
Long.             141.712
Depth. (km)       71
Mag.              6.0
Station Code      HKD095
Station Lat.      42.9311
Station Long.     143.2137
Station Height(m) 35
Record Time       2024/04/02 04:25:59
Sampling Freq(Hz) 100Hz
Duration Time(s)  75
Dir.              E-W
Scale Factor      3920(gal)/6182761
Max. Acc. (gal)   3.027
Last Correction   2024/04/02 04:25:59
Memo.             
[...]
   40527    40068    39223    38399    38138    38359    38574    38755 
   39045    39250    39270    39344    39504    39459    39159    38915 
   38948    39074    38898    38442    38143    38164    38508    39291 
   40097    40200    39759    39417    39150    38866    38906    39121 
   39065    39076    39473    39692    39527    39514    39588    39184 
   38539    38477    39032    39485    39769    40278    40598    40325 
   40069    40117    39895    39323    38897    38642    38334    38405 
   39424    40697    41125    40944    40666    40146    39672    39484 
   39045    38316    37966    38245    38862    39281    39069    38450 
   38033    38005    38119    38191    38291    38557    38890    39208 
   39653    40085    40296    40360    40144    39494    38682    38162 
   38337    39063    39562    39544    39586    40031    40561    40879 
   40982    40808    40088    38937    38048    37675    37494    37563 
   37974    38346    38532    38634    38591    38503    38666    39115 
   39607    40039    40361    40261    39618    38764    38074    37929 
   38622    39816    40711    40969    40868    40713    40559    40269 
   39702    38866    38020    37759    38324    38977    39006    38643 
   38399    38397    38538    38746    38979    39239    39365    39085 
   38601    38385    38568    39113    39866    40399    40433    40103 
   39545    38712    37745    37133    37357    38382    39640    40616 
   41031    40710    39974    39475    39360    39511    39971    40454 
   40421    39831    39018    38207    37675    37831    38572    39064 
   38921    38670    38466    37963    37338    37025    37261    38242 
   39763    41160    41970    41974    41100    39745    38434    37424 
   36941    37171    38044    39323    40607    41455    41865    42223 
   42459    41902    40396    38549    36791    35408    34966    35790 
   37614    39795    41593    42571    42678    41858    40213    38497 
   37643    37828    38431    38924    39277    39366    38951    38285 
   38063    38520    39100    39584    40282    40751    40322    39586 
   39462    39763    39901    39805    39609    39473    39605    39771 
   39473    38894    38542    38294    38037    38143    38546    38877 
   39261    39786    40193    40509    40744    40414    39301    38005 
   37366    37713    38686    39590    39969    39849    39541    39313 
   39102    38907    39127    39561    39455    39084    39025    38770 
   38196    38273    39057    39575    39682    39789    39803    39603 
   39467    39570    39643    39618    39823    40080    39940    39571 
   39180    38755    38640    38856    38807    38410    37955    37513 
   37452    38029    38834    39508    39828    39776    39970    40606 
   40975    40687    39899    38703    37348    36570    36834    37730 
   38761    39899    40987    41609    41552    40811    39657    38616 
   37798    37128    36986    37482    38167    38863    39607    39970 
   39513    38788    38809    39521    39898    39613    39260    39154 
   39230    39395    39435    39213    38742    38014    37204    36837 
   37352    38507    39686    40685    41218    40583    39254    38775 
   39235    39471    39278    39115    38803    38180    37812    38161 
   38980    39814    40456    41021    41632    41904    41411    40487 
   39614    38784    37995    37481    37632    38657    39862    40344 
   40326    40253    39815    39190    39154    39650    40105    40302 
   40084    39401    38505    37593    36995    37249    38072    38598 
   39032    40092    41304    41836    41700    41023    39768    38529 
   38116    38484    39035    39386    39466    39385    39163    38687 
   38088    37808    38094    38606    38955    39294    39612    39402 
   38816    38673    38946    38839    38303    37934    37866    38151 
   39095    40326    41046    41060    40329    38801    37246    36487 
   36401    36780    37639    38577    39124    39411    39823    40190 
   39972    39327    38969    38956    38963    39243    39966    40631 
   40748    40307    39718    39342    38989    38372    37816    37943 
   38734    39515    39897    39991    39753    38997    38119    37918 
   38576    39526    40282    40923    41605    41899    41344    40116 
   38616    37288    36693    37047    37840    38262    38207    38310 
   39025    40277    41406    41639    41117    40485    39915    39608 
   39898    40510    41027    41391    41355    40503    38870    37105 
   36046    35975    36464    37090    37931    39234    40658    41402 
   41216    40343    38961    37598    37068    37683    39049    40423 
   41216    41306    41027    40917    41210    41391    40751    39509 
   38398    37671    37404    37558    37859    38363    39192    39995 
   40455    40747    40947    40570    39559    38744    38274    37431 
   36593    36857    37948    38969    39940    40885    41229    40786 
   40052    39446    38842    38036    37266    36974    37289    37913 
   38606    39492    40550    41349    41547    41282    40807    40097 
   39236    38580    38283    38215    38329    38743    39367    39649 
   39260    38605    38167    38197    38814    39680    40370    40707 
   40394    39562    38999    38852    38562    38259    38420    38717 
   38693    38616    38733    38706    38460    38492    38888    39232 
   39483    39886    40371    40557    40201    39574    39102    38825 
   38672    38765    39140    39653    40084    40231    40175    40151 
   40104    39832    39366    38885    38401    37946    37914    38453 
   39024    39395    39902    40339    40095    39371    38907    38886 
   38982    38987    38899    38821    38956    39310    39628    39847 
   40082    40330    40463    40317    39976    39722    39595    39469 
   39345    39241    39032    38681    38452    38397    38169    37763 
   37485    37353    37287    37370    37600    37887    38317    39054 
   40031    40816    40979    40813    40882    40891    40350    39773 
   39872    40342    40518    40404    40265    40075    39837    39769 
   40004    40392    40580    40435    40285    40476    40855    41017 
   40913    40610    40036    39490    39363    39548    39763    39788 
   39562    39349    39422    39719    39965    39892    39400    38701 
   38180    38136    38654    39421    40005    40328    40499    40570 
   40452    40041    39381    38526    37765    37587    38066    38822 
   39380    39543    39359    38804    38127    37852    37913    37828 
   37739    38021    38496    39107    39939    40575    40650    40002 
   38631    37186    36437    36516    37013    37375    37302    36917 
   36535    36413    36732    37439    38041    38190    38205    38409 
   38591    38640    38966    39541    39638    39331    39328    39376 
   38894    38139    37452    36820    36549    37031    37942    38551 
   38630    38492    38285    37914    37637    37849    38426    38938 
   39175    39215    39129    38864    38590    38624    38871    38996 
   38928    38745    38501    38336    38354    38357    38085    37733 
   37774    38411    39462    40391    40646    40276    39849    39665 
   39415    38795    38024    37566    37554    37776    38176    38719 
   39026    38997    39096    39487    39599    39064    38588    39058 
   40229    41178    41541    41453    40999    40596    40705    40856 
   40466    39834    39374    39180    39272    39339    38861    37890 
   37108    36958    37304    38076    39359    40572    40816    40204 
   39468    38919    38786    39286    40158    40875    41095    40929 
   40609    40106    39462    38872    38480    38465    38807    39244 
   39852    40874    41848    41989    41416    40821    40301    39707 
   39380    39444    39394    39136    39185    39672    40256    40614 
   40485    39949    39376    38931    38734    38763    38553    38063 
   38036    38821    39938    40719    40751    40269    39938    39964 
   40171    40447    40482    39986    39228    38615    38157    37763 
   37744    38454    39607    40712    41681    42329    42337    41757 
   40744    39547    38652    38188    38051    38316    38892    39680 
   40617    41390    41913    42132    41631    40497    39282    38121 
   37171    36813    36908    37221    37929    38954    39923    40596 
   40871    40954    41138    41282    41142    40818    40399    39872 
   39501    39423    39175    38473    37816    37751    38156    38633 
   39031    39255    39175    38975    38892    38682    38146    37724 
   37845    38424    39219    40046    40774    41267    41452    41441 
   41247    40831    40374    39937    39449    39031    38639    37934 
   37112    36856    37080    37249    37660    38740    39936    40596 
   41015    41594    41887    41544    41076    40795    40291    39365 
   38446    38003    38021    38284    38865    39702    40238    40159 
   39804    39447    38871    38002    37303    37060    37026    37087 
   37424    37920    38284    38579    38853    38834    38546    38336 
   38234    38223    38641    39358    39617    39308    38962    38686 
   38485    38633    39079    39357    39209    39050    39325    39680 
   39741    39653    39275    38471    37934    38181    38648    38804 
   38832    38819    38670    38688    39257    40174    40930    41375 
   41541    41308    40644    39718    38631    37436    36399    35839 
   35779    36032    36560    37411    38342    39088    39869    40792 
   41219    40753    39825    38749    37603    36861    37075    38195 
   39565    40632    41265    41371    40995    40350    39353    38045 
   37151    37261    38021    38722    39234    39863    40589    41160 
   41527    41505    40841    39977    39616    39724    39775    39457 
   38914    38505    38431    38630    38757    38513    37995    37423 
   36974    36841    37046    37466    38037    38601    38825    38601 
   38304    38404    38824    39069    39179    39588    40146    40302 
   39792    38928    38388    38427    38744    39166    39652    39931 
   39838    39636    39538    39454    39371    39356    39252    38880 
   38393    37936    37395    36865    36732    37119    37629    37764 
   37508    37155    36905    36973    37503    38258    38754    38679 
   38284    38224    38589    38749    38424    38074    38211    38824 
   39515    39994    40252    40365    40476    40888    41571    41908 
   41496    40647    39896    39468    39317    39443    39908    40725 
   41760    42578    42708    42086    41006    39948    39281    38971 
   38769    38585    38599    38887    39157    39188    39127    39217 
   39470    39711    39845    39783    39411    38964    38748    38640 
   38571    38715    38937    39166    39609    39918    39679    39263 
   39114    39392    40145    40986    41454    41585    41624    41508 
   40752    39340    38159    37678    37592    37887    38622    39314 
   39636    39901    40246    40238    39677    38911    38227    37680 
   37415    37599    38048    38478    38897    39387    39963    40602 
   41107    41336    41490    41630    41401    40733    39994    39413 
   39127    39236    39602    39962    40106    40073    40139    40349 
   40365    39986    39471    39132    39002    38969    39052    39384 
   39764    39856    39784    39761    39754    39857    40133    40362 
   40320    39920    39191    38313    37531    37040    37019    37507 
   38270    39046    39735    40265    40521    40488    40184    39567 
   38896    38652    38717    38632    38546    38704    38779    38469 
   37992    37688    37590    37592    37761    38073    38238    38214 
   38220    38223    38243    38564    39151    39681    40056    40314 
   40329    40023    39674    39637    39807    39730    39183    38339 
   37603    37293    37195    36876    36404    36192    36476    37293 
   38651    40243    41398    41777    41601    41143    40556    39977 
   39437    38984    38787    38841    39036    39475    40182    40731 
   40698    40194    39477    38616    37883    37614    37672    37707 
   37689    37798    37983    38181    38642    39322    39782    39965 
   40064    40058    39887    39493    38817    38065    37704    38043 
   38916    39912    40692    40989    40778    40368    40005    39779 
   39813    40003    39964    39566    39102    38835    38686    38504 
   38416    38532    38691    38841    38948    38785    38405    38235 
   38613    39474    40346    40746    40612    40268    40032    39931 
   39883    40066    40593    41120    41366    41392    41104    40360 
   39506    39042    38963    38916    38660    38229    37967    38128 
   38543    39100    39957    41008    41910    42522    42719    42285 
   41270    40095    39202    38635    38268    38253    38704    39227 
   39338    39109    38833    38445    37850    37406    37509    37910 
   38182    38421    38635    38455    38028    37877    37975    38011 
   37966    37872    37675    37513    37619    37864    37893    37870 
   38221    38694    38818    38733    38583    38159    37699    37767 
   38214    38488    38683    38996    39047    38736    38501    38434 
   38253    37878    37501    37309    37377    37745    38387    39148 
   39773    40165    40486    40712    40594    40273    40086    39925 
   39676    39549    39511    39425    39455    39618    39733    39748 
   39665    39654    39915    40249    40279    39914    39356    38975 
   39083    39662    40590    41873    43221    43990    43870    43016 
   41639    40177    39291    39091    39112    39054    38898    38642 
   38313    38001    37714    37386    37136    37212    37585    38032 
   38466    38829    38995    38960    38952    39097    39168    39065 
   38946    38724    38256    37909    38141    38767    39299    39643 
   39916    40122    40249    40221    39942    39523    39140    38822 
   38612    38569    38617    38725    38975    39263    39301    38980 
   38591    38489    38532    38431    38374    38595    38957    39258 
   39460    39550    39458    39341    39543    40031    40446    40626 
   40554    40250    39890    39487    38969    38722    39020    39443 
   39674    39894    40253    40556    40542    40326    40138    39964 
   39961    40362    41005    41507    41501    40948    40356    40068 
   39822    39487    39180    38788    38310    38020    38057    38344 
   38664    38904    39234    39655    39835    39617    39167    38687 
   38274    37968    37863    38035    38290    38439    38647    39004 
   39198    39016    38739    38630    38547    38487    38679    39067 
   39373    39428    39277    39161    39199    39225    39135    39008 
   38840    38516    38104    37887    38005    38278    38424    38391 
   38349    38370    38422    38600    39025    39595    40052    40369 
   40649    40707    40425    40081    39839    39517    39070    38795 
   38861    39049    39012    38673    38367    38328    38464    38873 
   39662    40361    40502    40336    40279    40240    40048    39851 
   39857    40115    40402    40478    40436    40370    40128    39685 
   39173    38647    38294    38288    38365    38283    38186    38121 
   38086    38304    38748    39064    39240    39570    40018    40259 
   40215    40072    39875    39478    38885    38269    37683    37180 
   37060    37485    38112    38551    38839    39128    39291    39249 
   39178    39171    39173    39044    38651    38232    38120    38235 
   38423    38627    38659    38463    38294    38370    38719    39195 
   39549    39634    39336    38665    38065    37876    37987    38341 
   38856    39269    39539    39733    39733    39524    39275    39111 
   39057    39051    38962    38629    38058    37674    37806    38134 
   38330    38541    38932    39415    39735    39721    39530    39509 
   39831    40341    40673    40500    39830    39035    38497    38350 
   38529    38827    39036    39126    39129    39030    38815    38514 
   38350    38543    38847    38943    38988    39156    39371    39646 
   39904    39896    39716    39654    39683    39731    39941    40294 
   40521    40626    40810    40864    40506    39988    39616    39332 
   39153    39400    40203    41148    41769    41971    41717    40980 
   40011    39215    38808    38772    39034    39522    40060    40323 
   40123    39713    39356    39033    38798    38705    38651    38656 
   38844    39169    39377    39248    38938    38879    39265    39843 
   40201    40207    40144    40316    40634    40904    41062    40897 
   40275    39511    38926    38469    38106    38130    38725    39595 
   40335    40748    40649    40033    39351    38947    38715    38552 
   38533    38706    38977    39189    39337    39531    39685    39633 
   39344    38684    37609    36502    35661    35182    35309    36082 
   37166    38233    38999    39194    38837    38281    37937    38112 
   38868    39921    40825    41248    41131    40658    40031    39412 
   39003    38917    39069    39217    39230    39255    39418    39670 
   39991    40319    40478    40426    40228    39929    39682    39657 
   39867    40153    40287    40198    39982    39699    39438    39346 
   39427    39583    39748    39806    39682    39473    39324    39279 
   39217    39040    38941    39149    39605    40113    40573    40953 
   41114    40912    40581    40428    40277    39997    39946    40151 
   40081    39635    39228    39011    38869    38812    38823    38770 
   38721    38764    38671    38292    37776    37240    36790    36657 
   37006    37712    38413    38838    39002    38969    38822    38821 
   39064    39311    39316    39071    38853    38915    39174    39418 
   39421    38970    38241    37686    37465    37452    37581    37852 
   38205    38587    38961    39148    38999    38702    38514    38425 
   38419    38619    39032    39434    39628    39749    39945    40041 
   39976    39903    39763    39462    39120    38833    38631    38603 
   38844    39303    39728    39914    39792    39297    38544    37807 
   37274    37139    37562    38414    39375    40169    40639    40746 
   40566    40258    39977    39847    39986    40343    40626    40662 
   40497    40186    39824    39520    39289    39142    39121    39275 
   39491    39461    39183    38953    38726    38362    38117    38143 
   38172    38079    38117    38389    38715    39032    39363    39570 
   39528    39300    39048    38972    39111    39237    39227    39187 
   39145    39027    38770    38422    38256    38372    38469    38430 
   38440    38434    38235    37995    37890    37854    37875    38078 
   38432    38736    38924    39152    39441    39605    39606    39563 
   39578    39683    39728    39533    39111    38654    38466    38744 
   39297    39676    39675    39573    39704    39938    39932    39730 
   39577    39433    39232    39040    38771    38411    38226    38375 
   38746    39118    39327    39384    39351    39208    38861    38278 
   37671    37384    37514    37834    38195    38583    38848    38854 
   38709    38597    38517    38426    38517    38882    39296    39724 
   40237    40613    40730    40791    40864    40833    40805    40978 
   41243    41396    41490    41588    41558    41314    40929    40455 
