Origin Time       2024/04/02 04:24:00
Lat.              40.133
Long.             141.712
Depth. (km)       71
Mag.              6.0
Station Code      HKD089
Station Lat.      43.2436
Station Long.     143.5544
Station Height(m) 90
Record Time       2024/04/02 04:26:07
Sampling Freq(Hz) 100Hz
Duration Time(s)  60
Dir.              E-W
Scale Factor      7845(gal)/8223790
Max. Acc. (gal)   5.210
Last Correction   2024/04/02 04:26:08
Memo.             
[...]
   -2374    -2196    -1914    -1960    -2189    -2330    -2412    -2492 
   -2531    -2470    -2371    -2419    -2592    -2671    -2571    -2400 
   -2349    -2486    -2619    -2542    -2326    -2161    -2107    -2158 
   -2308    -2446    -2482    -2501    -2562    -2646    -2785    -2897 
   -2782    -2513    -2327    -2214    -2103    -2060    -2066    -2053 
   -2106    -2327    -2602    -2749    -2712    -2600    -2620    -2681 
   -2435    -2058    -2072    -2401    -2629    -2705    -2706    -2566 
   -2295    -2083    -2087    -2235    -2359    -2440    -2535    -2590 
   -2539    -2436    -2470    -2716    -2832    -2533    -2174    -2180 
   -2431    -2555    -2401    -2120    -1949    -2030    -2331    -2677 
   -2957    -3088    -2960    -2744    -2706    -2710    -2546    -2305 
   -2054    -1746    -1583    -1827    -2349    -2768    -2874    -2774 
   -2652    -2548    -2516    -2563    -2457    -2134    -1837    -1757 
   -2060    -2629    -2910    -2776    -2716    -2795    -2668    -2353 
   -2112    -2056    -2115    -2157    -2246    -2443    -2519    -2442 
   -2513    -2747    -2853    -2727    -2516    -2412    -2428    -2334 
   -2018    -1804    -2011    -2428    -2624    -2623    -2775    -3037 
   -3076    -2862    -2569    -2326    -2216    -2192    -2146    -2201 
   -2484    -2786    -2883    -2813    -2747    -2764    -2612    -2115 
   -1714    -1852    -2300    -2562    -2490    -2365    -2489    -2748 
   -2822    -2706    -2538    -2278    -1988    -1857    -1875    -1995 
   -2195    -2358    -2489    -2646    -2849    -3113    -3257    -3055 
   -2538    -1972    -1701    -1854    -2211    -2421    -2315    -2153 
   -2270    -2539    -2677    -2710    -2704    -2551    -2293    -2207 
   -2462    -2866    -3040    -2918    -2731    -2547    -2292    -2101 
   -2208    -2439    -2413    -2158    -1992    -2089    -2386    -2648 
   -2691    -2648    -2710    -2745    -2590    -2408    -2339    -2246 
   -2080    -2022    -2085    -2101    -2095    -2236    -2567    -2921 
   -3069    -2876    -2531    -2506    -2762    -2650    -2150    -1899 
   -2081    -2443    -2752    -2785    -2578    -2459    -2490    -2459 
   -2259    -2065    -2231    -2623    -2566    -2047    -1790    -2043 
   -2446    -2720    -2809    -2755    -2695    -2768    -2953    -3024 
   -2727    -2196    -1935    -2112    -2377    -2470    -2427    -2284 
   -2172    -2286    -2442    -2346    -2232    -2415    -2651    -2609 
   -2447    -2454    -2532    -2450    -2246    -2050    -1964    -2166 
   -2679    -3119    -3087    -2662    -2222    -2033    -2104    -2204 
   -2165    -2153    -2309    -2463    -2471    -2430    -2454    -2529 
   -2597    -2655    -2686    -2596    -2459    -2458    -2465    -2277 
   -2034    -2033    -2328    -2686    -2862    -2832    -2712    -2644 
   -2671    -2668    -2474    -2101    -1788    -1773    -2015    -2223 
   -2269    -2320    -2486    -2659    -2727    -2631    -2359    -2101 
   -2209    -2583    -2667    -2344    -2029    -2042    -2350    -2604 
   -2535    -2326    -2398    -2801    -3002    -2637    -2045    -1772 
   -1834    -1867    -1923    -2300    -2824    -3078    -2945    -2683 
   -2627    -2766    -2809    -2597    -2263    -2054    -2116    -2403 
   -2627    -2610    -2577    -2654    -2650    -2517    -2454    -2531 
   -2604    -2474    -2196    -2174    -2493    -2604    -2300    -2123 
   -2338    -2528    -2374    -2139    -2180    -2363    -2378    -2305 
   -2334    -2473    -2790    -3208    -3335    -3037    -2679    -2583 
   -2535    -2172    -1674    -1555    -1925    -2355    -2478    -2494 
   -2783    -3183    -3254    -3009    -2754    -2458    -1999    -1598 
   -1448    -1582    -1987    -2438    -2697    -2783    -2767    -2728 
   -2762    -2818    -2714    -2462    -2268    -2145    -2008    -2000 
   -2192    -2317    -2241    -2335    -2835    -3268    -3233    -2910 
   -2519    -2173    -2050    -2173    -2370    -2516    -2621    -2758 
   -2835    -2727    -2519    -2224    -1849    -1667    -1767    -1907 
   -2073    -2417    -2839    -3119    -3161    -3030    -2899    -2785 
   -2521    -2181    -2012    -2015    -2002    -1833    -1632    -1848 
   -2505    -3009    -3161    -3211    -3150    -2955    -2733    -2465 
   -2166    -1929    -1652    -1351    -1320    -1664    -2238    -2793 
   -3048    -3037    -2965    -2837    -2685    -2555    -2315    -2070 
   -2095    -2313    -2516    -2636    -2700    -2733    -2658    -2462 
   -2338    -2367    -2366    -2239    -2162    -2288    -2478    -2442 
   -2265    -2354    -2636    -2706    -2583    -2641    -2972    -3086 
   -2569    -1877    -1777    -2309    -2821    -2793    -2440    -2415 
   -2731    -2741    -2419    -2347    -2531    -2509    -2214    -1995 
   -2087    -2346    -2497    -2470    -2373    -2278    -2270    -2413 
   -2578    -2681    -2660    -2358    -1988    -1922    -2122    -2431 
   -2663    -2616    -2486    -2516    -2536    -2415    -2312    -2334 
   -2332    -2253    -2301    -2447    -2411    -2247    -2228    -2411 
   -2612    -2652    -2574    -2624    -2956    -3245    -3046    -2594 
   -2371    -2289    -2188    -2196    -2200    -2012    -1939    -2330 
   -2852    -2933    -2668    -2610    -2837    -2897    -2598    -2305 
   -2377    -2609    -2562    -2254    -2107    -2268    -2397    -2272 
   -2236    -2497    -2636    -2508    -2502    -2727    -2898    -2806 
   -2532    -2262    -1991    -1723    -1695    -1973    -2289    -2525 
   -2697    -2641    -2436    -2380    -2388    -2286    -2172    -2077 
   -1996    -2019    -2153    -2346    -2496    -2481    -2467    -2668 
   -2918    -2948    -2713    -2304    -1948    -1877    -2015    -2128 
   -2197    -2253    -2343    -2582    -2837    -2945    -3110    -3262 
   -3022    -2596    -2388    -2247    -2052    -2061    -2276    -2354 
   -2259    -2288    -2551    -2848    -2879    -2546    -2174    -2104 
   -2187    -2146    -2131    -2307    -2385    -2257    -2296    -2646 
   -2965    -2914    -2597    -2458    -2548    -2471    -2160    -1969 
   -2072    -2299    -2424    -2388    -2363    -2504    -2691    -2716 
   -2527    -2299    -2239    -2351    -2436    -2367    -2272    -2308 
   -2434    -2565    -2605    -2467    -2209    -1956    -1935    -2371 
   -2992    -3164    -2817    -2474    -2398    -2428    -2371    -2208 
   -2197    -2416    -2567    -2623    -2705    -2631    -2436    -2393 
   -2386    -2289    -2307    -2498    -2690    -2758    -2668    -2548 
   -2474    -2386    -2386    -2488    -2454    -2327    -2288    -2296 
   -2365    -2501    -2558    -2620    -2725    -2594    -2332    -2328 
   -2504    -2610    -2652    -2627    -2436    -2180    -2099    -2145 
   -2103    -2052    -2164    -2394    -2633    -2876    -3094    -3044 
   -2583    -2100    -2039    -2276    -2390    -2282    -2265    -2504 
   -2783    -2967    -2974    -2714    -2443    -2323    -2138    -1926 
   -1934    -2104    -2290    -2485    -2612    -2614    -2566    -2500 
   -2415    -2386    -2513    -2702    -2718    -2508    -2222    -2066 
   -2128    -2259    -2369    -2469    -2493    -2544    -2774    -2952 
   -2824    -2594    -2492    -2413    -2354    -2431    -2552    -2559 
   -2431    -2231    -2122    -2169    -2222    -2253    -2382    -2467 
   -2430    -2519    -2776    -2983    -3065    -3018    -2740    -2250 
   -1852    -1830    -2010    -1937    -1620    -1536    -1823    -2272 
   -2817    -3258    -3327    -3188    -3063    -2805    -2332    -1938 
   -1956    -2259    -2335    -2023    -1823    -2126    -2639    -2847 
   -2693    -2579    -2620    -2438    -2073    -1987    -2126    -2126 
   -2038    -2153    -2512    -2875    -3029    -2953    -2635    -2107 
   -1779    -2074    -2697    -2932    -2633    -2331    -2303    -2286 
   -2250    -2419    -2600    -2481    -2304    -2339    -2405    -2373 
   -2332    -2315    -2450    -2778    -2964    -2852    -2681    -2587 
   -2529    -2397    -2084    -1733    -1610    -1757    -2006    -2207 
   -2447    -2860    -3254    -3353    -3138    -2740    -2412    -2331 
   -2222    -1912    -1752    -1871    -2045    -2214    -2351    -2462 
   -2737    -3046    -3011    -2821    -2825    -2789    -2475    -2165 
   -2153    -2286    -2251    -2076    -2142    -2582    -2886    -2635 
   -2270    -2336    -2573    -2554    -2392    -2336    -2347    -2297 
   -2174    -2074    -2126    -2380    -2678    -2760    -2633    -2502 
   -2423    -2371    -2403    -2434    -2272    -2097    -2230    -2536 
   -2812    -2971    -2740    -2147    -1815    -2161    -2822    -3100 
   -2818    -2473    -2424    -2450    -2342    -2281    -2417    -2617 
   -2631    -2335    -1999    -2104    -2543    -2656    -2370    -2205 
   -2315    -2436    -2497    -2600    -2716    -2735    -2575    -2263 
   -2029    -2184    -2578    -2620    -2313    -2377    -2874    -3026 
   -2597    -2224    -2334    -2650    -2701    -2335    -2014    -2332 
   -2963    -2999    -2421    -2046    -2178    -2455    -2616    -2597 
   -2397    -2241    -2401    -2678    -2573    -2243    -2208    -2274 
   -2155    -2073    -2126    -2369    -2833    -3073    -2906    -2697 
   -2538    -2378    -2369    -2394    -2234    -2074    -2174    -2369 
   -2353    -2239    -2344    -2494    -2376    -2222    -2398    -2716 
   -2659    -2263    -2088    -2268    -2439    -2409    -2286    -2224 
   -2272    -2450    -2727    -2859    -2704    -2511    -2513    -2555 
   -2447    -2232    -1992    -1848    -1926    -2130    -2330    -2508 
   -2635    -2724    -2737    -2652    -2632    -2559    -2268    -2093 
   -2058    -1902    -2034    -2606    -2829    -2489    -2326    -2560 
   -2693    -2496    -2274    -2419    -2799    -2844    -2497    -2258 
   -2322    -2415    -2305    -2247    -2540    -2847    -2760    -2519 
   -2444    -2434    -2358    -2238    -2142    -2187    -2367    -2594 
   -2791    -2789    -2565    -2431    -2498    -2419    -2089    -1934 
   -2076    -2134    -2118    -2417    -2878    -2987    -2825    -2806 
   -2883    -2745    -2381    -2087    -2146    -2423    -2521    -2358 
   -2199    -2301    -2562    -2586    -2330    -2164    -2317    -2635 
   -2764    -2562    -2280    -2231    -2370    -2505    -2652    -2736 
   -2523    -2106    -1966    -2332    -2745    -2673    -2297    -2093 
   -2112    -2122    -2029    -2029    -2299    -2650    -2857    -2994 
   -3048    -2884    -2589    -2332    -2197    -2214    -2282    -2366 
   -2579    -2806    -2758    -2400    -2057    -2114    -2435    -2551 
   -2509    -2647    -2748    -2470    -2006    -1707    -1706    -1842 
   -1875    -2047    -2667    -3362    -3708    -3705    -3431    -2998 
   -2560    -2097    -1514    -1061    -1175    -1748    -2290    -2698 
   -3190    -3778    -4114    -3766    -2791    -1921    -1741    -1868 
   -1675    -1458    -1736    -2157    -2277    -2340    -2623    -2911 
   -2889    -2740    -2853    -3055    -2920    -2473    -2043    -1783 
   -1668    -1798    -2095    -2247    -2354    -2729    -3152    -3249 
   -3098    -2884    -2579    -2158    -1852    -2006    -2511    -2745 
   -2373    -1760    -1587    -2122    -2771    -2870    -2697    -2671 
   -2502    -2249    -2462    -2926    -3042    -2887    -2760    -2739 
   -2820    -2878    -2694    -2153    -1347     -679     -669    -1402 
   -2378    -3076    -3491    -3958    -4422    -4345    -3555    -2416 
   -1273     -440     -120     -163     -538    -1553    -3065    -4263 
   -4735    -4770    -4503    -3865    -3038    -2205    -1348     -579 
    -187     -317     -831    -1541    -2335    -3064    -3603    -3788 
   -3450    -2921    -2698    -2613    -2400    -2277    -2312    -2297 
   -2250    -2203    -1999    -1734    -1741    -2120    -2766    -3481 
   -3870    -3609    -2841    -2058    -1633    -1587    -1750    -2016 
   -2405    -2729    -2621    -2124    -1709    -1637    -1749    -1962 
   -2552    -3535    -4453    -4893    -4677    -3917    -2887    -1759 
    -706       55      372      135     -696    -1991    -3516    -4946 
   -5806    -5776    -4990    -3824    -2475     -985      247      672 
     340     -288    -1057    -2203    -3674    -4635    -4546    -4090 
   -3943    -3804    -3423    -2995    -2374    -1381     -363      252 
     256     -279    -1065    -1962    -2813    -3454    -4050    -4530 
   -4490    -3990    -3323    -2637    -2261    -2389    -2660    -2533 
   -1741     -573      206      -39    -1244    -2783    -3886    -4082 
   -3709    -3501    -3635    -3831    -3723    -2970    -1696     -556 
      -6       33     -325    -1151    -2246    -3138    -3771    -4591 
   -5620    -6230    -5926    -4695    -2822     -832      720     1545 
    1578      877     -353    -1904    -3643    -5278    -6359    -6535 
   -5648    -3906    -1969     -452      531     1035      866      -44 
   -1267    -2305    -3167    -3944    -4402    -4488    -4411    -4090 
   -3352    -2401    -1611    -1128     -828     -615     -685    -1316 
   -2330    -3129    -3373    -3289    -3206    -3161    -3028    -2763 
   -2469    -2251    -2088    -1972    -2154    -2853    -3597    -3472 
   -2334    -1107     -660     -961    -1471    -1952    -2613    -3500 
   -4220    -4531    -4581    -4243    -3078    -1350     -170     -197 
    -932    -1548    -1667    -1363    -1132    -1696    -3148    -4672 
   -5599    -5895    -5628    -4803    -3353    -1254      927     2394 
    3026     2929     1713     -891    -4120    -6604    -7649    -7580 
   -6909    -5788    -4131    -2069     -290      436      148     -257 
    -195     -276    -1192    -2477    -3531    -4406    -4938    -4854 
   -4526    -4288    -3913    -3204    -2278    -1266     -286      270 
      -4     -876    -1644    -1912    -1887    -2052    -2704    -3662 
   -4332    -4330    -4004    -3781    -3491    -2847    -1900     -936 
    -324     -122     -157     -480    -1208    -2242    -3360    -4332 
   -5049    -5441    -5244    -4290    -2910    -1634     -814     -535 
    -394       87      434     -245    -1822    -3397    -4455    -5040 
   -5285    -5047    -4209    -3046    -1822     -622      253      534 
     136     -990    -2436    -3568    -4386    -4966    -4868    -4082 
   -3118    -2069    -1123     -986    -1678    -2358    -2710    -2959 
   -3025    -2744    -2209    -1605    -1120     -992    -1424    -2389 
   -3481    -4083    -4066    -4016    -4318    -4581    -4163    -2891 
   -1237      194     1092     1221      348    -1323    -3002    -3950 
   -4225    -4523    -5044    -5116    -4263    -2859    -1522     -583 
     -83       14     -407    -1379    -2373    -2903    -3258    -3800 
   -4197    -4004    -3312    -2393    -1409     -760     -905    -1768 
   -2725    -3118    -2717    -1965    -1486    -1356    -1383    -1806 
   -2907    -4121    -4523    -4214    -4041    -4013    -3384    -2218 
   -1405    -1236    -1196    -1032    -1067    -1432    -1822    -2072 
   -2358    -2874    -3657    -4634    -5471    -5529    -4432    -2594 
    -693      984     2182     2342     1125     -981    -2997    -4507 
   -5695    -6288    -5815    -4602    -3362    -2273    -1148     -253 
     -68     -392     -664     -865    -1406    -2401    -3412    -3983 
   -4288    -4702    -4926    -4426    -3408    -2490    -1900    -1491 
   -1190     -988     -661     -170     -168    -1212    -2791    -3935 
   -4318    -4139    -3620    -3010    -2540    -2307    -2253    -2155 
   -1915    -1875    -2249    -2421    -1871    -1215    -1274    -1980 
   -2825    -3559    -4158    -4564    -4784    -4777    -4171    -2791 
   -1200      -91      398      284     -600    -1922    -2871    -3076 
   -2778    -2562    -2956    -3754    -4162    -3859    -3213    -2438 
   -1524     -765     -490     -727    -1391    -2350    -3312    -3862 
   -3829    -3493    -3123    -2751    -2428    -2432    -2704    -2481 
   -1467     -477     -240     -688    -1471    -2255    -2756    -2920 
   -2893    -2905    -3141    -3447    -3543    -3537    -3576    -3397 
   -2724    -1798    -1120     -824     -831    -1279    -2116    -2778 
   -2785    -2281    -1904    -2255    -3238    -4081    -4249    -3875 
   -3196    -2357    -1740    -1687    -2101    -2574    -2717    -2560 
   -2650    -3252    -3813    -3707    -2997    -2065    -1059     -183 
      55     -615    -1838    -3119    -4247    -4860    -4409    -3181 
   -2139    -1559    -1228    -1293    -1746    -2212    -2579    -3015 
   -3489    -3716    -3376    -2485    -1733    -1819    -2424    -2809 
   -2916    -2970    -2847    -2488    -2146    -2029    -2069    -2030 
   -1792    -1549    -1614    -2187    -3078    -3707    -3765    -3279 
   -2327    -1397    -1085    -1362    -1973    -2816    -3601    -3986 
   -3936    -3492    -2694    -1807    -1116     -648     -491     -849 
   -1552    -2185    -2616    -2862    -2887    -2851    -3080    -3627 
   -4086    -3964    -3246    -2381    -1665    -1142     -908    -1055 
   -1532    -2257    -3156    -3990    -4361    -4035    -3163    -2209 
   -1651    -1607    -1883    -2166    -2157    -1857    -1648    -1846 
   -2270    -2446    -2280    -2131    -2297    -2695    -2933    -2766 
   -2365    -1971    -1649    -1540    -1852    -2398    -2728    -2808 
   -2886    -2891    -2693    -2442    -2250    -2047    -1922    -2064 
   -2471    -2971    -3420    -3639    -3306    -2531    -1966    -1765 
   -1487    -1023     -756    -1039    -1744    -2498    -3311    -4234 
   -4831    -4762    -4252    -3596    -2808    -1845     -959     -722 
   -1302    -2047    -2393    -2625    -3078    -3349    -3115    -2814 
   -2825    -2972    -2976    -2673    -1966     -928       33      305 
    -334    -1385    -2246    -2775    -3091    -3393    -3888    -4422 
   -4550    -4101    -3252    -2286    -1597    -1421    -1555    -1676 
   -1653    -1440    -1119    -1063    -1597    -2506    -3257    -3570 
   -3532    -3269    -2890    -2704    -2907    -3125    -2868    -2228 
   -1791    -1907    -2158    -2056    -1819    -1810    -1948    -2126 
   -2398    -2755    -3063    -3079    -2694    -2292    -2243    -2292 
   -2103    -1923    -2178    -2835    -3397    -3469    -3048    -2326 
   -1641    -1385    -1467    -1401    -1197    -1320    -1918    -2797 
   -3696    -4329    -4459    -3981    -3067    -2199    -1776    -1733 
   -1663    -1408    -1370    -1853    -2571    -3202    -3686    -3942 
   -3821    -3271    -2408    -1486     -669      -79      -54     -745 
   -1715    -2551    -3229    -3704    -3883    -3801    -3476    -2905 
   -2211    -1593    -1223    -1189    -1475    -1961    -2427    -2721 
   -2906    -3099    -3202    -2999    -2425    -1561     -615       29 
      37     -707    -2030    -3456    -4533    -5140    -5351    -5182 
   -4572    -3578    -2380    -1189     -314      -36     -279     -697 
   -1185    -1977    -3059    -4008    -4527    -4633    -4436    -4029 
   -3400    -2434    -1309     -661     -882    -1636    -2436    -3010 
   -3229    -3275    -3326    -3114    -2509    -1950    -1796    -1929 
   -2166    -2592    -3202    -3653    -3620    -3084    -2289    -1607 
   -1274    -1341    -1765    -2284    -2571    -2617    -2681    -2868 
   -2957    -2797    -2640    -2675    -2613    -2164    -1483     -939 
