Origin Time       2024/04/02 04:24:00
Lat.              40.133
Long.             141.712
Depth. (km)       71
Mag.              6.0
Station Code      HKD083
Station Lat.      43.2329
Station Long.     144.3251
Station Height(m) 35
Record Time       2024/04/02 04:26:11
Sampling Freq(Hz) 100Hz
Duration Time(s)  68
Dir.              U-D
Scale Factor      7845(gal)/8223790
Max. Acc. (gal)   2.254
Last Correction   2024/04/02 04:26:11
Memo.             
[...]
   -6003    -6173    -6336    -6471    -6469    -6154    -5850    -5989 
   -6347    -6532    -6435    -6193    -6116    -6219    -6250    -6224 
   -6231    -6169    -6016    -5960    -6091    -6176    -6150    -6257 
   -6278    -5949    -5809    -6141    -6458    -6627    -6721    -6507 
   -6174    -6158    -6335    -6417    -6407    -6361    -6243    -6057 
   -5962    -6130    -6497    -6767    -6678    -6347    -6118    -6133 
   -6340    -6542    -6454    -6195    -6119    -6164    -6207    -6369 
   -6496    -6407    -6268    -6169    -6162    -6384    -6497    -6192 
   -5925    -6019    -6197    -6301    -6326    -6322    -6389    -6393 
   -6299    -6220    -6145    -6246    -6520    -6548    -6330    -6183 
   -6097    -6050    -6104    -6200    -6324    -6435    -6346    -6157 
   -6142    -6197    -6166    -6147    -6061    -5902    -6064    -6430 
   -6423    -6226    -6228    -6153    -5941    -5940    -6161    -6442 
   -6600    -6413    -6131    -6246    -6567    -6655    -6480    -6043 
   -5648    -5857    -6396    -6624    -6539    -6300    -6056    -6002 
   -6066    -6210    -6416    -6440    -6370    -6424    -6369    -6191 
   -6174    -6216    -6220    -6277    -6288    -6258    -6261    -6220 
   -6196    -6203    -6181    -6253    -6359    -6303    -6184    -6135 
   -6166    -6254    -6249    -6141    -6154    -6235    -6199    -6161 
   -6220    -6205    -6084    -6066    -6200    -6272    -6207    -6164 
   -6161    -6139    -6166    -6193    -6185    -6277    -6362    -6313 
   -6358    -6480    -6392    -6193    -6100    -6141    -6370    -6593 
   -6482    -6220    -6164    -6286    -6457    -6540    -6355    -6042 
   -5960    -6156    -6412    -6453    -6149    -5817    -5830    -6203 
   -6702    -6843    -6396    -5948    -6018    -6312    -6463    -6474 
   -6340    -6107    -6011    -6114    -6230    -6285    -6331    -6355 
   -6311    -6237    -6199    -6200    -6197    -6180    -6184    -6168 
   -6143    -6315    -6540    -6349    -5923    -5841    -6041    -6266 
   -6621    -6793    -6323    -5859    -6076    -6385    -6386    -6423 
   -6359    -6080    -6011    -6195    -6354    -6448    -6405    -6222 
   -6106    -6178    -6400    -6486    -6228    -5983    -6037    -6246 
   -6528    -6543    -5999    -5625    -5937    -6269    -6334    -6390 
   -6284    -6149    -6288    -6318    -6133    -6151    -6332    -6432 
   -6380    -6208    -6168    -6370    -6609    -6646    -6386    -6072 
   -6018    -6141    -6288    -6389    -6239    -6004    -6120    -6404 
   -6502    -6458    -6195    -5833    -5971    -6527    -6723    -6435 
   -6085    -5863    -5902    -6239    -6561    -6570    -6323    -6130 
   -6099    -6066    -6107    -6351    -6500    -6284    -5945    -5880 
   -6170    -6544    -6655    -6363    -5935    -5802    -6149    -6778 
   -7044    -6532    -5860    -5814    -6277    -6655    -6647    -6340 
   -5968    -5836    -6116    -6457    -6458    -6324    -6289    -6192 
   -6019    -6008    -6138    -6178    -6157    -6184    -6174    -6188 
   -6335    -6365    -6160    -5976    -5907    -5953    -6183    -6404 
   -6392    -6215    -5991    -5922    -6192    -6523    -6586    -6550 
   -6502    -6268    -6069    -6222    -6426    -6359    -6166    -5976 
   -5945    -6276    -6686    -6710    -6390    -6100    -6062    -6246 
   -6457    -6459    -6183    -5926    -6022    -6309    -6451    -6424 
   -6315    -6170    -6120    -6192    -6261    -6280    -6250    -6243 
   -6334    -6393    -6367    -6353    -6300    -6180    -6135    -6269 
   -6412    -6307    -6165    -6224    -6177    -6065    -6226    -6346 
   -6262    -6264    -6241    -6145    -6223    -6297    -6218    -6239 
   -6345    -6373    -6367    -6366    -6370    -6322    -6211    -6138 
   -6088    -6116    -6230    -6191    -6068    -6064    -6102    -6234 
   -6438    -6480    -6481    -6481    -6210    -5896    -5945    -6224 
   -6469    -6573    -6454    -6215    -6166    -6365    -6494    -6331 
   -6077    -6124    -6408    -6428    -6127    -5927    -5954    -6035 
   -6104    -6189    -6358    -6601    -6633    -6289    -5935    -5941 
   -6207    -6504    -6561    -6293    -6124    -6164    -6134    -6242 
   -6488    -6451    -6292    -6205    -6004    -5941    -6212    -6446 
   -6507    -6416    -6012    -5590    -5719    -6269    -6521    -6297 
   -6075    -5994    -6041    -6461    -6844    -6531    -6003    -5984 
   -6245    -6450    -6624    -6662    -6407    -6052    -5980    -6149 
   -6295    -6515    -6727    -6531    -5946    -5501    -5737    -6462 
   -6813    -6562    -6127    -5827    -5988    -6411    -6413    -6166 
   -6149    -6168    -6180    -6288    -6227    -6046    -6004    -6108 
   -6369    -6571    -6365    -5962    -5833    -6061    -6380    -6501 
   -6439    -6345    -6238    -6201    -6268    -6176    -5985    -6156 
   -6551    -6647    -6523    -6399    -6120    -5827    -5930    -6253 
   -6361    -6353    -6462    -6448    -6153    -5996    -6156    -6235 
   -6183    -6185    -6065    -5929    -6156    -6529    -6697    -6675 
   -6431    -6021    -5780    -5914    -6335    -6663    -6601    -6413 
   -6359    -6355    -6450    -6501    -6241    -6075    -6212    -6168 
   -6060    -6265    -6420    -6331    -6192    -5976    -5942    -6403 
   -6786    -6532    -6061    -5817    -5783    -6093    -6662    -6851 
   -6471    -6162    -6227    -6243    -6158    -6331    -6477    -6285 
   -6142    -6142    -6137    -6313    -6428    -6111    -5819    -5953 
   -6288    -6637    -6845    -6598    -6016    -5753    -6006    -6293 
   -6417    -6399    -6131    -5954    -6234    -6552    -6467    -6203 
   -6054    -6050    -6160    -6238    -6135    -6072    -6318    -6559 
   -6354    -5954    -5944    -6296    -6540    -6461    -6151    -5890 
   -6003    -6403    -6586    -6326    -5923    -5784    -5991    -6285 
   -6416    -6377    -6270    -6249    -6492    -6718    -6500    -6173 
   -6133    -6183    -6304    -6365    -6030    -5800    -6134    -6439 
   -6324    -6081    -5890    -5956    -6458    -6817    -6481    -5976 
   -5938    -6297    -6714    -6728    -6214    -5892    -6200    -6538 
   -6475    -6257    -6068    -5956    -6042    -6327    -6590    -6605 
   -6488    -6411    -6223    -6084    -6227    -6215    -5985    -6035 
   -6207    -6246    -6328    -6264    -6081    -6251    -6446    -6255 
   -6126    -6165    -6222    -6471    -6521    -6139    -6053    -6340 
   -6319    -6048    -5888    -5880    -6164    -6547    -6535    -6261 
   -6043    -5995    -6281    -6496    -6328    -6372    -6531    -6215 
   -6034    -6342    -6369    -6147    -6154    -6122    -6115    -6384 
   -6513    -6439    -6432    -6354    -6230    -6222    -6205    -6139 
   -6102    -6099    -6104    -6123    -6226    -6300    -6146    -6007 
   -6106    -6211    -6309    -6435    -6265    -5964    -6031    -6296 
   -6462    -6567    -6511    -6261    -6073    -6053    -6151    -6411 
   -6728    -6870    -6718    -6304    -5919    -5814    -5956    -6296 
   -6550    -6343    -6008    -5961    -6075    -6346    -6609    -6343 
   -5787    -5729    -6185    -6592    -6656    -6388    -6093    -6232 
   -6542    -6361    -6045    -6120    -6100    -5969    -6295    -6633 
   -6520    -6305    -6066    -5940    -6227    -6440    -6251    -6043 
   -5973    -6166    -6612    -6718    -6428    -6211    -6080    -6096 
   -6276    -6231    -6076    -6131    -6162    -6116    -6270    -6447 
   -6376    -6269    -6231    -6095    -6166    -6629    -6785    -6382 
   -6027    -5914    -6018    -6322    -6353    -6052    -5968    -6158 
   -6457    -6820    -6837    -6396    -5964    -5714    -5744    -6286 
   -6829    -6629    -6115    -6080    -6296    -6372    -6446    -6377 
   -6037    -5794    -5772    -5900    -6266    -6556    -6428    -6197 
   -6216    -6362    -6443    -6338    -5984    -5715    -6045    -6700 
   -6868    -6527    -6239    -6157    -6212    -6304    -6096    -5792 
   -6057    -6602    -6627    -6166    -5717    -5547    -5802    -6343 
   -6658    -6505    -6122    -5815    -5944    -6470    -6806    -6775 
   -6516    -6050    -5765    -5876    -6016    -6181    -6619    -7078 
   -7065    -6439    -5737    -5674    -6083    -6369    -6372    -6084 
   -5844    -6099    -6361    -6160    -6065    -6424    -6820    -6759 
   -6153    -5544    -5599    -6369    -7134    -6912    -5859    -5282 
   -5595    -6172    -6592    -6546    -6216    -6346    -6767    -6654 
   -5998    -5485    -5606    -6212    -6739    -6804    -6430    -6065 
   -6189    -6501    -6471    -6350    -6374    -6335    -6215    -6021 
   -5854    -6049    -6442    -6759    -6956    -6596    -5842    -5686 
   -5952    -6049    -6320    -6538    -6289    -6211    -6288    -5991 
   -5931    -6384    -6566    -6417    -6268    -5968    -5957    -6624 
   -6963    -6444    -6015    -6016    -6010    -6203    -6628    -6628 
   -6276    -6054    -5838    -5861    -6467    -6878    -6484    -5872 
   -5647    -5790    -6149    -6563    -6663    -6319    -6069    -6157 
   -6249    -6409    -6628    -6436    -6042    -5971    -6223    -6674 
   -6916    -6548    -5926    -5551    -5764    -6697    -7453    -6947 
   -5647    -5030    -5705    -6754    -7030    -6488    -5860    -5790 
   -6178    -6301    -5994    -5825    -6066    -6538    -6802    -6494 
   -6061    -6045    -6177    -6269    -6280    -6050    -6093    -6609 
   -6743    -6343    -5914    -5698    -6170    -6928    -6787    -6135 
   -5802    -5683    -6061    -6691    -6601    -6295    -6307    -5979 
   -5784    -6417    -6887    -6623    -6201    -5908    -5872    -6085 
   -6241    -6184    -5908    -5722    -5987    -6297    -6339    -6524 
   -6673    -6161    -5616    -5933    -6466    -6440    -6293    -6262 
   -6043    -5961    -6390    -6794    -6620    -6164    -5973    -6204 
   -6652    -6790    -6285    -5810    -5985    -6145    -5853    -5755 
   -6083    -6494    -6737    -6538    -6046    -5942    -6386    -6674 
   -6359    -5979    -5950    -6015    -6266    -6763    -6848    -6346 
   -5834    -5722    -6172    -6824    -6824    -6087    -5529    -5734 
   -6308    -6750    -6980    -6787    -6195    -5957    -6166    -6118 
   -5988    -6297    -6750    -6974    -6818    -6212    -5532    -5401 
   -6004    -6664    -6783    -6737    -6617    -6146    -5850    -5907 
   -5949    -6212    -6556    -6408    -6131    -6172    -6150    -5875 
   -5848    -6366    -6797    -6532    -6111    -6068    -5973    -5691 
   -5822    -6411    -6723    -6407    -5948    -5922    -6339    -6729 
   -6570    -6002    -5853    -6328    -6745    -6894    -6768    -6168 
   -5807    -6126    -6169    -5994    -6444    -6835    -6475    -5994 
   -5867    -6010    -6264    -6426    -6386    -6347    -6365    -5969 
   -5451    -5892    -6824    -7009    -6770    -6507    -6104    -6146 
   -6480    -6261    -5915    -5950    -6166    -6651    -6987    -6517 
   -5798    -5468    -5424    -5741    -6389    -7056    -7385    -6709 
   -5282    -4604    -5182    -6301    -7272    -7366    -6581    -5888 
   -5575    -5452    -5877    -6675    -7014    -6623    -5890    -5571 
   -6039    -6542    -6489    -6328    -6264    -6232    -6633    -7203 
   -6868    -5742    -5205    -5763    -6643    -7099    -6852    -6146 
   -5740    -5946    -6403    -6725    -6435    -5709    -5643    -6254 
   -6627    -6600    -6188    -5649    -5927    -6929    -7470    -6944 
   -5746    -5184    -5934    -6808    -6909    -6632    -6173    -5734 
   -5772    -6102    -6349    -6426    -6087    -5524    -5525    -6070 
   -6520    -6669    -6384    -5806    -5648    -6072    -6627    -7137 
   -7234    -6430    -5305    -4862    -5274    -6247    -7145    -7136 
   -6417    -5989    -6184    -6640    -6906    -6697    -6088    -5574 
   -5886    -6798    -7013    -6362    -5722    -5503    -5921    -6659 
   -6987    -6871    -6442    -5814    -5540    -5917    -6527    -6436 
   -5518    -5138    -5776    -6407    -6521    -6187    -5999    -6517 
   -6748    -6238    -6062    -6192    -6130    -6088    -6087    -6500 
   -7298    -7254    -6102    -4796    -4368    -5589    -7508    -7982 
   -6660    -5294    -5382    -6550    -7462    -7530    -6606    -5220 
   -5044    -6102    -6466    -6137    -6247    -6416    -6505    -6874 
   -6979    -6740    -6523    -5859    -5009    -5162    -6313    -7557 
   -8078    -7238    -5412    -4101    -4473    -6103    -7453    -7504 
   -6334    -5193    -5660    -7101    -7407    -6243    -4954    -5022 
   -6600    -7680    -7061    -6153    -5895    -5913    -6139    -6196 
   -5860    -5973    -6432    -6322    -6150    -6446    -6516    -6246 
   -6196    -6276    -6195    -5988    -5780    -5853    -6300    -6723 
   -6829    -6697    -6489    -6369    -6242    -6003    -6147    -6682 
   -6563    -5672    -5169    -5548    -6285    -6874    -7068    -6758 
   -6210    -6029    -6466    -6898    -6583    -5744    -5193    -5456 
   -6431    -7087    -6637    -5923    -5913    -6366    -6690    -6588 
   -6332    -6327    -6226    -5884    -5896    -6212    -6126    -5645 
   -5494    -6019    -6704    -6839    -6332    -5807    -5929    -6569 
   -7107    -7153    -6459    -5347    -4760    -5077    -6178    -7588 
   -7978    -6921    -5724    -5285    -5472    -6170    -7017    -7164 
   -6377    -5404    -4872    -5062    -6214    -7596    -7680    -6316 
   -5163    -5425    -6462    -6889    -6366    -5705    -5528    -6160 
   -7665    -8614    -7384    -5062    -4129    -5059    -6556    -7545 
   -7462    -6605    -6099    -6114    -6068    -6212    -6424    -5972 
   -5485    -5729    -6010    -6093    -6512    -6762    -6340    -6041 
   -5995    -5536    -5710    -7257    -8066    -6922    -5521    -5370 
   -6342    -7227    -6906    -5800    -5150    -5431    -6131    -6470 
   -6404    -6385    -6507    -6670    -6675    -6400    -6052    -5705 
   -5614    -6234    -6939    -6872    -6540    -6538    -6501    -6095 
   -5610    -5557    -6018    -6505    -6332    -5537    -5382    -6424 
   -7345    -7188    -6473    -5961    -6066    -6540    -6539    -6115 
   -6204    -6567    -6502    -6450    -6288    -5493    -5192    -6004 
   -6548    -6193    -5670    -5601    -6227    -6775    -6419    -6084 
   -6257    -6007    -5814    -6193    -6126    -6054    -6818    -7215 
   -6829    -6397    -5841    -5625    -6432    -7307    -7155    -6097 
   -5058    -5121    -5998    -6421    -6475    -6739    -6736    -6335 
   -5979    -5529    -5378    -6335    -7375    -7196    -6473    -5742 
   -5163    -5869    -7055    -6546    -5532    -5813    -6210    -6285 
   -6777    -6913    -6535    -6384    -5846    -5084    -5508    -6571 
   -7013    -7056    -6743    -6008    -5787    -6257    -6562    -6585 
   -6489    -6008    -5421    -5474    -6246    -6882    -6492    -5614 
   -5692    -6500    -6709    -6438    -6122    -5594    -5773    -6910 
   -7086    -6232    -6158    -6323    -6130    -6605    -6735    -5521 
   -4788    -5431    -6709    -7997    -7954    -6253    -4865    -4957 
   -5896    -6960    -7488    -6852    -5455    -4688    -5169    -6162 
   -7119    -7720    -7153    -5647    -4799    -5512    -7175    -8326 
   -8032    -6662    -5135    -4450    -5090    -6178    -6511    -6054 
   -5790    -6343    -7069    -7052    -6512    -6081    -5826    -5860 
   -6223    -6624    -6972    -6932    -6403    -6000    -5644    -5456 
   -6222    -6856    -6262    -5927    -6497    -6768    -6710    -6561 
   -5890    -5412    -5663    -5854    -6180    -7025    -7356    -6982 
   -6577    -6122    -5957    -6178    -5953    -5643    -5976    -6157 
   -6002    -6430    -7010    -6882    -6547    -6184    -5309    -4571 
   -4777    -5652    -6856    -7894    -7827    -6874    -6178    -5887 
   -5849    -6313    -6461    -5583    -5076    -6064    -7298    -7190 
   -6041    -5414    -6085    -7362    -8059    -7506    -6129    -5005 
   -4554    -4692    -5506    -6486    -6894    -6710    -6011    -5279 
   -5752    -7269    -7940    -7084    -5751    -4861    -5051    -6403 
   -7612    -7380    -6062    -4988    -5007    -5953    -7071    -7585 
   -6976    -5655    -4977    -5525    -6589    -7385    -7420    -6538 
   -5422    -5065    -5578    -6231    -6471    -6461    -6536    -6466 
   -6018    -5827    -6374    -6782    -6139    -5310    -5703    -6991 
   -7705    -7057    -5787    -5336    -5749    -6220    -6636    -6362 
   -5329    -5451    -6713    -7071    -6720    -6440    -5952    -6007 
   -6698    -6547    -5614    -5067    -5474    -6948    -7985    -7098 
   -5842    -5879    -6427    -6712    -6575    -5891    -5460    -5807 
   -6170    -6394    -6924    -7210    -6813    -6357    -6178    -6142 
   -6227    -6153    -5957    -5971    -5707    -5254    -5601    -6278 
   -6435    -6519    -6502    -6212    -6475    -7150    -7137    -6399 
   -5697    -5728    -6462    -6758    -6097    -5478    -5553    -6079 
   -6669    -6691    -6076    -5840    -6338    -6871    -6899    -6259 
   -5734    -6215    -6706    -6359    -6151    -6286    -6258    -6311 
   -6062    -5397    -5526    -6397    -6767    -6628    -6376    -6070 
   -6188    -6519    -6123    -5579    -5894    -6108    -5548    -5563 
   -6538    -7048    -6790    -6826    -7199    -6925    -5972    -5306 
   -5236    -5572    -6486    -7468    -7287    -6031    -5132    -5374 
   -6316    -7230    -7599    -6971    -5551    -4687    -5252    -6432 
   -7196    -7348    -6790    -5803    -5443    -5996    -6529    -6515 
   -6237    -5984    -5879    -6039    -6374    -6485    -6106    -5499 
   -5352    -6138    -7264    -7596    -7105    -6642    -6355    -6134 
   -6247    -6200    -5495    -4947    -4904    -5093    -6097    -7668 
   -8316    -7778    -6717    -5752    -5809    -6762    -7200    -6552 
   -5279    -4419    -4981    -6230    -7048    -7493    -7173    -6191 
   -5946    -6278    -6018    -5502    -5421    -5609    -5706    -5795 
   -6245    -6875    -7279    -7445    -7211    -6588    -6025    -5657 
   -5503    -5701    -6016    -6142    -6284    -6635    -6605    -6045 
   -5886    -6088    -5881    -5548    -5266    -4904    -5224    -6373 
   -7240    -7276    -6594    -5726    -5875    -7014    -7581    -7078 
   -6123    -5220    -5233    -6353    -7080    -6741    -6469    -6605 
   -6450    -6093    -5898    -5667    -5490    -5914    -6785    -6991 
   -6124    -5421    -5908    -6766    -6852    -6409    -6131    -6246 
   -6883    -7465    -6785    -5306    -4833    -5559    -6299    -6571 
   -6577    -6451    -6257    -6212    -6628    -7294    -7454    -6789 
   -5745    -5050    -5005    -5105    -5201    -5964    -7021    -7353 
   -7353    -7487    -7136    -6278    -5495    -5105    -5543    -6496 
   -6744    -6191    -5798    -5900    -6282    -6701    -6798    -6235 
   -5332    -5134    -5983    -6824    -6966    -6872    -6691    -6370 
   -6415    -6582    -6272    -6085    -6253    -6204    -6205    -6358 
   -6188    -5969    -5841    -5605    -5683    -5975    -6000    -6066 
   -6203    -6207    -6442    -6650    -6126    -5325    -5348    -6245 
   -7117    -7323    -6768    -5983    -5818    -6297    -7018    -7936 
   -8345    -7474    -6124    -5196    -4714    -5013    -5998    -6652 
   -6700    -6579    -6380    -6083    -5971    -6151    -6397    -6667 
