Origin Time       2024/04/02 04:24:00
Lat.              40.133
Long.             141.712
Depth. (km)       71
Mag.              6.0
Station Code      HKD053
Station Lat.      43.7849
Station Long.     143.6072
Station Height(m) 208
Record Time       2024/04/02 04:26:20
Sampling Freq(Hz) 100Hz
Duration Time(s)  60
Dir.              E-W
Scale Factor      7845(gal)/8223790
Max. Acc. (gal)   1.450
Last Correction   2024/04/02 04:26:20
Memo.             
[...]
    1752     1825     1903     1908     1780     1617     1580     1637 
    1675     1688     1698     1678     1661     1692     1742     1780 
    1807     1821     1804     1799     1864     1923     1891     1827 
    1798     1779     1761     1744     1717     1726     1782     1800 
    1759     1723     1738     1786     1833     1849     1799     1741 
    1772     1844     1826     1750     1755     1837     1838     1734 
    1690     1734     1723     1668     1683     1723     1717     1699 
    1715     1745     1775     1792     1783     1771     1784     1807 
    1844     1877     1848     1777     1765     1821     1869     1865 
    1854     1899     1908     1780     1611     1588     1690     1732 
    1684     1664     1705     1733     1736     1773     1809     1761 
    1729     1796     1860     1873     1904     1937     1908     1807 
    1683     1603     1601     1665     1755     1811     1830     1840 
    1826     1760     1715     1783     1900     1949     1915     1875 
    1879     1842     1705     1572     1541     1580     1641     1687 
    1710     1729     1746     1790     1856     1871     1827     1831 
    1896     1899     1799     1713     1713     1740     1723     1680 
    1691     1775     1846     1856     1853     1871     1863     1826 
    1803     1776     1706     1656     1723     1830     1845     1823 
    1841     1837     1760     1669     1678     1795     1877     1864 
    1815     1757     1707     1692     1711     1769     1849     1895 
    1877     1837     1815     1794     1768     1790     1815     1738 
    1609     1557     1572     1588     1603     1645     1726     1841 
    1956     2011     1980     1925     1904     1867     1792     1759 
    1780     1786     1744     1687     1661     1669     1684     1671 
    1625     1601     1632     1688     1756     1848     1929     1941 
    1898     1863     1852     1827     1788     1811     1896     1914 
    1834     1764     1750     1760     1744     1706     1698     1734 
    1780     1811     1807     1763     1705     1668     1668     1709 
    1763     1780     1791     1826     1817     1723     1655     1687 
    1771     1831     1852     1834     1796     1780     1768     1691 
    1605     1651     1782     1825     1782     1784     1844     1864 
    1822     1775     1761     1796     1868     1910     1917     1912 
    1856     1737     1649     1647     1692     1726     1728     1714 
    1728     1771     1790     1792     1838     1864     1806     1748 
    1734     1713     1709     1780     1860     1850     1786     1761 
    1779     1782     1742     1683     1679     1759     1856     1923 
    1961     1931     1827     1755     1737     1678     1591     1591 
    1695     1773     1738     1684     1713     1775     1806     1826 
    1849     1834     1809     1864     1969     1989     1881     1737 
    1655     1636     1659     1722     1761     1725     1705     1741 
    1740     1679     1661     1745     1845     1853     1818     1845 
    1890     1842     1763     1765     1819     1837     1849     1887 
    1884     1819     1768     1742     1699     1660     1680     1745 
    1790     1782     1755     1725     1691     1679     1688     1692 
    1703     1738     1790     1825     1829     1827     1834     1819 
    1790     1756     1733     1777     1854     1850     1796     1806 
    1837     1818     1780     1756     1732     1730     1769     1814 
    1840     1854     1842     1788     1737     1750     1818     1875 
    1875     1821     1767     1730     1665     1593     1610     1719 
    1803     1800     1780     1806     1830     1823     1819     1831 
    1833     1837     1867     1865     1788     1713     1687     1660 
    1630     1633     1651     1674     1721     1782     1841     1894 
    1925     1914     1877     1858     1854     1818     1745     1676 
    1657     1694     1745     1776     1788     1791     1787     1768 
    1756     1782     1827     1842     1821     1818     1813     1718 
    1593     1595     1717     1799     1790     1753     1736     1736 
    1769     1829     1826     1746     1721     1791     1853     1829 
    1756     1730     1779     1818     1800     1791     1827     1849 
    1798     1707     1661     1686     1726     1738     1753     1780 
    1777     1772     1818     1857     1840     1823     1830     1809 
    1768     1765     1750     1678     1628     1652     1691     1707 
    1726     1772     1854     1931     1961     1922     1836     1792 
    1841     1881     1827     1718     1645     1664     1733     1769 
    1790     1854     1891     1842     1794     1780     1763     1760 
    1764     1736     1730     1752     1718     1648     1641     1696 
    1730     1721     1734     1806     1903     1956     1903     1790 
    1710     1696     1715     1761     1845     1922     1926     1898 
    1888     1869     1817     1756     1722     1719     1732     1755 
    1772     1769     1776     1784     1717     1609     1579     1653 
    1713     1691     1676     1717     1734     1713     1711     1744 
    1790     1813     1815     1840     1872     1861     1814     1783 
    1798     1825     1815     1783     1779     1803     1809     1794 
    1798     1817     1810     1788     1784     1775     1772     1819 
    1873     1858     1807     1792     1794     1740     1684     1729 
    1817     1818     1749     1703     1668     1620     1613     1688 
    1786     1804     1749     1728     1757     1756     1718     1692 
    1679     1688     1756     1865     1944     1950     1953     1985 
    1976     1906     1830     1780     1755     1729     1699     1679 
    1684     1717     1719     1686     1702     1761     1777     1752 
    1745     1786     1865     1934     1935     1884     1848     1858 
    1863     1818     1784     1787     1764     1713     1698     1736 
    1749     1686     1605     1566     1549     1540     1575     1668 
    1782     1860     1872     1846     1853     1908     1953     1937 
    1891     1860     1845     1825     1802     1803     1803     1741 
    1655     1633     1660     1669     1668     1709     1791     1854 
    1872     1900     1975     2062     2093     2026     1912     1840 
    1803     1767     1744     1734     1718     1706     1703     1690 
    1638     1583     1593     1680     1772     1804     1810     1845 
    1873     1842     1802     1821     1848     1800     1744     1794 
    1887     1894     1809     1709     1653     1657     1669     1661 
    1674     1711     1742     1761     1769     1736     1655     1574 
    1571     1653     1759     1868     2014     2141     2165     2107 
    2022     1895     1737     1630     1598     1576     1574     1653 
    1772     1802     1707     1583     1482     1410     1459     1698 
    2010     2207     2224     2120     1957     1782     1621     1514 
    1517     1626     1768     1875     1885     1804     1711     1644 
    1586     1545     1541     1602     1737     1877     1935     1912 
    1871     1830     1713     1483     1320     1405     1657     1873 
    1992     2084     2145     2084     1921     1787     1702     1593 
    1485     1476     1590     1759     1917     2004     1975     1881 
    1838     1894     2011     2147     2224     2126     1845     1575 
    1501     1609     1779     1919     1957     1827     1551     1282 
    1161     1216     1440     1819     2274     2664     2860     2825 
    2593     2212     1783     1435     1221     1129     1111     1150 
    1240     1297     1248     1146     1078     1059     1090     1229 
    1571     2087     2574     2856     2934     2849     2610     2309 
    2091     1962     1800     1574     1390     1313     1305     1296 
    1247     1173     1134     1237     1557     2037     2521     2849 
    2905     2662     2188     1640     1236     1108     1208     1404 
    1618     1848     2091     2281     2331     2228     2039     1858 
    1772     1807     1903     1973     1921     1694     1375     1128 
    1034     1084     1263     1534     1829     2050     2110     2046 
    2033     2120     2146     1992     1806     1799     1887     1833 
    1656     1549     1537     1495     1470     1598     1802     1915 
    1948     2006     2058     1921     1533     1119      858      715 
     699      969     1575     2305     2884     3188     3231     3033 
    2673     2289     1902     1467     1089      912      920     1013 
    1158     1401     1763     2150     2377     2335     2066     1637 
    1112      658      531      841     1445     2057     2408     2392 
    2137     1877     1761     1863     2208     2632     2853     2766 
    2475     2066     1514      850      338      290      734     1432 
    2123     2617     2791     2589     2120     1671     1452     1466 
    1626     1841     1996     2006     1868     1649     1401     1159 
    1016     1082     1408     1964     2616     3095     3171     2822 
    2226     1622     1233     1166     1374     1698     1929     1919 
    1686     1351     1080     1016     1147     1345     1584     1904 
    2234     2400     2274     1877     1397     1093     1163     1624 
    2292     2889     3138     2862     2146     1329      710      390 
     390      737     1306     1787     1980     1962     1876     1815 
    1902     2201     2578     2793     2725     2515     2322     2127 
    1887     1655     1514     1512     1634     1844     2122     2386 
    2484     2305     1875     1371     1044     1015     1169     1304 
    1424     1706     2123     2390     2285     1865     1372     1005 
     854      957     1267     1648     1958     2147     2246     2288 
    2227     1973     1568     1266     1302     1624     2004     2249 
    2227     1952     1618     1441     1448     1483     1493     1593 
    1807     2019     2169     2254     2214     2019     1768     1613 
    1595     1629     1701     1869     2095     2218     2111     1873 
    1729     1715     1680     1594     1609     1763     1852     1737 
    1524     1367     1350     1448     1530     1545     1605     1768 
    1960     2142     2371     2632     2739     2516     2064     1710 
    1641     1752     1872     1904     1795     1526     1229     1108 
    1182     1297     1344     1347     1385     1468     1534     1559 
    1539     1466     1393     1418     1567     1775     2035     2330 
    2474     2311     2019     1881     1879     1817     1702     1730 
    1917     2003     1887     1788     1809     1764     1567     1378 
    1358     1475     1611     1725     1836     1968     2142     2316 
    2412     2444     2452     2335     1995     1543     1189     1016 
     963     1031     1290     1657     1935     2052     2081     2089 
    2107     2208     2409     2550     2484     2285     2038     1661 
    1204      945      951      982      934      967     1210     1620 
    2033     2281     2332     2293     2272     2290     2316     2262 
    2068     1822     1678     1624     1514     1336     1205     1150 
    1142     1204     1364     1633     1984     2289     2382     2245 
    2000     1757     1578     1518     1551     1572     1539     1445 
    1312     1231     1339     1656     2014     2220     2269     2224 
    2039     1763     1674     1922     2307     2598     2727     2619 
    2235     1750     1433     1409     1588     1790     1917     1952 
    1877     1741     1634     1579     1499     1306      986      683 
     606      876     1408     1914     2134     2050     1822     1675 
    1772     2089     2420     2574     2609     2682     2747     2671 
    2452     2158     1831     1512     1281     1248     1393     1509 
    1471     1398     1428     1534     1651     1802     2054     2346 
    2477     2373     2168     1953     1651     1208      777      614 
     785     1131     1489     1800     2019     2064     1906     1669 
    1526     1514     1580     1687     1848     2104     2381     2469 
    2289     1975     1657     1429     1391     1567     1830     1958 
    1821     1490     1162     1026     1166     1521     1957     2340 
    2555     2531     2338     2143     1979     1717     1371     1179 
    1291     1632     2041     2411     2635     2579     2235     1790 
    1436     1166      934      857     1036     1337     1582     1755 
    1873     1887     1779     1647     1615     1709     1837     1904 
    1918     1934     1930     1885     1895     2011     2164     2304 
    2448     2532     2438     2138     1749     1449     1293     1209 
    1132     1042      972     1044     1304     1629     1914     2106 
    2124     1956     1733     1621     1660     1759     1873     2045 
    2188     2174     2096     2092     2096     1966     1713     1524 
    1539     1644     1688     1765     1980     2177     2131     1873 
    1671     1711     1948     2201     2295     2178     1956     1740 
    1530     1277     1077     1115     1339     1516     1576     1611 
    1683     1790     1873     1918     1969     2015     2000     1933 
    1845     1755     1711     1742     1786     1779     1719     1653 
    1644     1686     1722     1760     1825     1875     1853     1748 
    1610     1490     1399     1358     1383     1490     1695     1964 
    2220     2463     2702     2843     2768     2529     2313     2207 
    2107     1912     1625     1256      834      461      255      270 
     517      981     1572     2139     2554     2731     2646     2409 
    2200     2099     2064     2026     1958     1915     1954     1972 
    1841     1632     1456     1258     1026      951     1169     1516 
    1723     1771     1856     2027     2151     2181     2224     2373 
    2552     2538     2209     1746     1382     1144     1000     1007 
    1186     1455     1687     1844     2015     2224     2313     2224 
    2076     1961     1868     1755     1640     1580     1529     1343 
    1055      922     1121     1544     1958     2247     2413     2492 
    2498     2409     2209     1971     1753     1545     1383     1344 
    1418     1539     1679     1800     1844     1814     1765     1736 
    1741     1777     1853     1973     2069     2072     1988     1877 
    1800     1777     1788     1806     1813     1788     1745     1729 
    1729     1674     1571     1506     1540     1672     1846     1973 
    1993     1891     1702     1524     1475     1602     1850     2101 
    2242     2218     2043     1796     1578     1460     1426     1424 
    1480     1656     1890     2026     2012     1935     1877     1825 
    1737     1653     1620     1618     1652     1734     1818     1863 
    1921     2052     2220     2304     2242     2154     2150     2123 
    1922     1651     1513     1502     1487     1399     1247     1111 
    1073     1123     1243     1466     1773     2039     2127     2058 
    1971     1919     1858     1796     1792     1844     1899     1948 
    2002     2045     2054     2033     1996     1931     1837     1757 
    1734     1756     1776     1784     1767     1684     1534     1339 
    1135     1007     1042     1273     1642     2011     2272     2427 
    2477     2362     2095     1803     1626     1574     1566     1590 
    1706     1892     2019     1977     1761     1471     1270     1259 
    1377     1536     1777     2093     2299     2257     2050     1852 
    1726     1637     1584     1629     1745     1804     1742     1632 
    1524     1390     1223     1115     1175     1409     1715     1954 
    2029     2007     1991     1956     1869     1815     1853     1926 
    1960     1965     1992     2039     2007     1786     1468     1308 
    1391     1566     1684     1753     1849     1956     1954     1813 
    1672     1668     1760     1838     1865     1872     1876     1853 
    1772     1674     1641     1692     1772     1823     1815     1817 
    1915     2034     2056     1998     1896     1745     1598     1528 
    1524     1557     1615     1640     1575     1510     1597     1803 
    1948     1987     2050     2181     2242     2155     2065     2101 
    2165     2107     1957     1815     1686     1541     1414     1356 
    1350     1340     1332     1333     1298     1243     1277     1422 
    1617     1825     1996     2042     1985     1957     1984     1966 
    1898     1858     1857     1850     1823     1796     1788     1791 
    1757     1684     1653     1742     1941     2146     2245     2219 
    2138     2045     1937     1861     1888     1991     2042     1961 
    1815     1734     1759     1807     1800     1756     1745     1771 
    1784     1773     1769     1775     1737     1637     1533     1498 
    1549     1637     1699     1680     1555     1375     1270     1340 
    1567     1825     2011     2091     2079     2046     2054     2072 
    2054     2006     1937     1854     1763     1688     1664     1683 
    1713     1709     1663     1644     1691     1737     1713     1641 
    1575     1540     1512     1458     1444     1559     1734     1861 
    1946     2031     2111     2165     2174     2165     2201     2257 
    2181     1903     1605     1507     1586     1640     1609     1611 
    1714     1826     1858     1852     1912     2068     2224     2290 
    2284     2247     2143     1944     1755     1702     1782     1845 
    1773     1615     1475     1371     1321     1381     1522     1618 
    1610     1571     1595     1682     1749     1765     1787     1826 
    1837     1813     1802     1825     1864     1906     1923     1873 
    1772     1695     1657     1595     1526     1536     1613     1659 
    1680     1746     1804     1765     1687     1657     1686     1761 
    1898     2029     2058     1968     1823     1715     1676     1675 
    1692     1734     1783     1780     1715     1655     1648     1699 
    1821     2006     2166     2216     2165     2060     1912     1730 
    1552     1431     1395     1445     1534     1617     1695     1798 
    1911     1980     1976     1945     1956     1979     1922     1794 
    1690     1648     1655     1682     1690     1647     1561     1471 
    1467     1614     1840     2000     2023     1898     1676     1509 
    1497     1614     1800     1987     2092     2068     1950     1842 
    1782     1707     1617     1609     1703     1798     1848     1879 
    1838     1660     1414     1277     1313     1402     1475     1633 
    1902     2124     2177     2097     1989     1887     1802     1786 
    1841     1906     1930     1922     1915     1911     1884     1827 
    1780     1768     1783     1800     1814     1846     1876     1819 
    1667     1530     1483     1487     1498     1529     1597     1641 
    1593     1493     1456     1510     1586     1641     1707     1791 
    1858     1902     1944     1988     2034     2066     2039     1930 
    1794     1718     1723     1734     1687     1603     1545     1529 
    1544     1605     1721     1838     1904     1937     1960     1971 
    1957     1925     1903     1912     1914     1861     1776     1736 
    1769     1807     1771     1698     1683     1749     1840     1906 
    1934     1921     1849     1719     1588     1524     1532     1587 
