Origin Time       2024/04/02 04:24:00
Lat.              40.133
Long.             141.712
Depth. (km)       71
Mag.              6.0
Station Code      HKD072
Station Lat.      43.1948
Station Long.     145.5209
Station Height(m) 46
Record Time       2024/04/02 04:26:25
Sampling Freq(Hz) 100Hz
Duration Time(s)  60
Dir.              E-W
Scale Factor      3920(gal)/6182761
Max. Acc. (gal)   6.172
Last Correction   2024/04/02 04:26:25
Memo.             
[...]
  -19324   -19377   -19423   -19450   -19453   -19419   -19347   -19268 
  -19207   -19153   -19070   -18944   -18826   -18772   -18774   -18800 
  -18831   -18847   -18847   -18858   -18898   -18970   -19081   -19211 
  -19318   -19406   -19498   -19586   -19629   -19594   -19500   -19374 
  -19228   -19075   -18923   -18761   -18612   -18521   -18495   -18522 
  -18590   -18695   -18836   -19019   -19220   -19408   -19572   -19711 
  -19804   -19819   -19749   -19618   -19470   -19311   -19124   -18919 
  -18732   -18589   -18493   -18442   -18443   -18500   -18601   -18744 
  -18941   -19183   -19419   -19598   -19711   -19757   -19714   -19608 
  -19503   -19417   -19315   -19178   -19013   -18850   -18745   -18712 
  -18719   -18750   -18791   -18827   -18862   -18913   -18986   -19074 
  -19138   -19154   -19159   -19195   -19269   -19349   -19402   -19419 
  -19425   -19444   -19472   -19471   -19401   -19261   -19085   -18919 
  -18804   -18753   -18720   -18664   -18601   -18571   -18604   -18704 
  -18859   -19040   -19206   -19335   -19434   -19516   -19588   -19642 
  -19659   -19628   -19550   -19431   -19276   -19084   -18884   -18719 
  -18608   -18556   -18571   -18650   -18750   -18829   -18888   -18949 
  -19028   -19125   -19225   -19310   -19375   -19397   -19364   -19307 
  -19254   -19214   -19191   -19181   -19177   -19183   -19199   -19191 
  -19109   -18964   -18828   -18761   -18768   -18828   -18910   -18972 
  -19005   -19053   -19152   -19277   -19371   -19402   -19383   -19338 
  -19294   -19271   -19254   -19210   -19139   -19067   -19013   -18987 
  -18984   -18983   -18955   -18908   -18901   -18996   -19160   -19295 
  -19349   -19340   -19310   -19288   -19273   -19254   -19225   -19170 
  -19079   -18960   -18839   -18747   -18709   -18737   -18820   -18933 
  -19052   -19161   -19238   -19269   -19276   -19299   -19337   -19360 
  -19343   -19295   -19229   -19142   -19043   -18976   -18960   -18967 
  -18977   -18995   -19006   -18989   -18965   -18973   -19006   -19042 
  -19085   -19142   -19186   -19196   -19189   -19186   -19176   -19152 
  -19122   -19107   -19128   -19166   -19169   -19131   -19096   -19088 
  -19074   -19020   -18951   -18922   -18946   -18982   -19003   -19048 
  -19139   -19235   -19300   -19327   -19328   -19327   -19320   -19278 
  -19203   -19109   -18989   -18860   -18778   -18769   -18801   -18840 
  -18892   -18973   -19088   -19209   -19288   -19307   -19300   -19301 
  -19301   -19282   -19246   -19203   -19162   -19127   -19104   -19086 
  -19063   -19053   -19065   -19066   -19037   -18991   -18939   -18905 
  -18912   -18962   -19023   -19065   -19095   -19125   -19138   -19131 
  -19140   -19186   -19231   -19241   -19240   -19260   -19286   -19300 
  -19285   -19220   -19124   -19054   -19032   -19025   -19007   -18980 
  -18955   -18929   -18915   -18937   -18995   -19062   -19104   -19107 
  -19094   -19101   -19143   -19203   -19238   -19222   -19174   -19141 
  -19152   -19189   -19213   -19219   -19211   -19196   -19182   -19169 
  -19160   -19143   -19100   -19036   -18974   -18929   -18907   -18905 
  -18918   -18948   -18999   -19078   -19183   -19293   -19363   -19380 
  -19356   -19301   -19220   -19138   -19087   -19064   -19036   -18982 
  -18923   -18888   -18868   -18859   -18874   -18915   -18983   -19083 
  -19194   -19281   -19334   -19356   -19350   -19323   -19277   -19212 
  -19120   -19003   -18886   -18808   -18793   -18840   -18922   -19004 
  -19063   -19102   -19160   -19249   -19342   -19405   -19411   -19360 
  -19279   -19188   -19085   -18985   -18918   -18904   -18938   -19010 
  -19101   -19168   -19174   -19130   -19085   -19073   -19081   -19089 
  -19102   -19122   -19122   -19087   -19056   -19083   -19163   -19239 
  -19264   -19217   -19130   -19070   -19044   -19004   -18950   -18938 
  -18979   -19021   -19025   -19008   -18995   -18993   -19003   -19038 
  -19110   -19210   -19310   -19384   -19422   -19411   -19368   -19327 
  -19271   -19163   -19025   -18909   -18825   -18757   -18725   -18744 
  -18776   -18791   -18817   -18873   -18954   -19063   -19199   -19350 
  -19488   -19596   -19665   -19684   -19645   -19553   -19413   -19233 
  -19039   -18872   -18752   -18666   -18607   -18575   -18582   -18658 
  -18782   -18903   -19019   -19150   -19283   -19396   -19481   -19542 
  -19584   -19595   -19572   -19511   -19400   -19221   -18984   -18748 
  -18563   -18420   -18320   -18311   -18406   -18568   -18781   -19042 
  -19310   -19525   -19684   -19825   -19947   -19997   -19927   -19743 
  -19484   -19208   -18960   -18754   -18574   -18424   -18346   -18360 
  -18434   -18540   -18670   -18816   -18971   -19147   -19335   -19512 
  -19662   -19755   -19753   -19669   -19554   -19436   -19321   -19217 
  -19100   -18921   -18711   -18556   -18505   -18545   -18640   -18770 
  -18922   -19044   -19101   -19122   -19132   -19138   -19165   -19251 
  -19395   -19546   -19651   -19666   -19571   -19391   -19200   -19054 
  -18937   -18820   -18712   -18632   -18595   -18619   -18710   -18849 
  -18999   -19140   -19260   -19358   -19433   -19495   -19548   -19565 
  -19522   -19453   -19379   -19290   -19180   -19045   -18902   -18799 
  -18762   -18784   -18837   -18886   -18893   -18870   -18878   -18957 
  -19085   -19210   -19290   -19315   -19306   -19289   -19287   -19301 
  -19313   -19300   -19251   -19189   -19140   -19105   -19067   -19021 
  -18973   -18928   -18890   -18865   -18853   -18869   -18936   -19026 
  -19093   -19154   -19232   -19297   -19331   -19354   -19379   -19403 
  -19412   -19403   -19373   -19303   -19171   -19003   -18860   -18757 
  -18675   -18619   -18609   -18653   -18732   -18813   -18888   -18986 
  -19125   -19287   -19460   -19619   -19714   -19722   -19669   -19571 
  -19438   -19278   -19099   -18916   -18767   -18672   -18628   -18633 
  -18671   -18703   -18727   -18786   -18903   -19052   -19188   -19272 
  -19318   -19383   -19477   -19560   -19587   -19543   -19442   -19307 
  -19172   -19067   -18987   -18904   -18828   -18777   -18748   -18739 
  -18765   -18818   -18883   -18970   -19064   -19140   -19207   -19281 
  -19356   -19407   -19420   -19425   -19459   -19505   -19508   -19431 
  -19281   -19088   -18883   -18706   -18592   -18556   -18576   -18623 
  -18696   -18791   -18884   -18975   -19083   -19208   -19330   -19440 
  -19536   -19593   -19595   -19559   -19491   -19378   -19251   -19152 
  -19067   -18942   -18785   -18664   -18610   -18598   -18620   -18674 
  -18730   -18801   -18928   -19107   -19292   -19471   -19643   -19754 
  -19763   -19686   -19557   -19400   -19240   -19113   -19031   -18966 
  -18885   -18785   -18685   -18607   -18572   -18596   -18691   -18845 
  -19007   -19133   -19239   -19361   -19487   -19580   -19623   -19607 
  -19539   -19438   -19307   -19150   -18983   -18839   -18752   -18717 
  -18695   -18666   -18646   -18652   -18703   -18837   -19048   -19252 
  -19365   -19405   -19440   -19475   -19478   -19474   -19483   -19455 
  -19365   -19274   -19219   -19153   -19012   -18798   -18597   -18494 
  -18507   -18598   -18714   -18812   -18904   -19013   -19125   -19225 
  -19324   -19424   -19529   -19647   -19750   -19785   -19725   -19599 
  -19442   -19258   -19037   -18815   -18644   -18532   -18467   -18446 
  -18476   -18563   -18692   -18826   -18955   -19107   -19301   -19511 
  -19672   -19749   -19755   -19709   -19602   -19429   -19224   -19045 
  -18923   -18854   -18805   -18761   -18743   -18767   -18810   -18856 
  -18914   -18988   -19075   -19159   -19191   -19146   -19068   -19035 
  -19077   -19164   -19258   -19348   -19404   -19403   -19368   -19347 
  -19354   -19330   -19220   -19071   -18936   -18799   -18674   -18619 
  -18624   -18648   -18703   -18832   -19031   -19238   -19396   -19501 
  -19571   -19601   -19573   -19483   -19341   -19176   -19038   -18957 
  -18923   -18912   -18918   -18920   -18893   -18877   -18936   -19052 
  -19153   -19197   -19195   -19171   -19138   -19093   -19038   -18987 
  -18947   -18947   -19013   -19120   -19224   -19312   -19385   -19440 
  -19475   -19476   -19411   -19271   -19112   -18984   -18878   -18785 
  -18721   -18680   -18645   -18629   -18677   -18816   -19025   -19248 
  -19426   -19555   -19639   -19638   -19561   -19467   -19382   -19276 
  -19133   -18998   -18908   -18839   -18777   -18740   -18739   -18790 
  -18880   -18973   -19049   -19109   -19161   -19211   -19257   -19292 
  -19309   -19320   -19324   -19291   -19209   -19107   -19026   -18989 
  -18995   -19019   -19033   -19030   -19019   -19014   -19029   -19061 
  -19098   -19123   -19131   -19124   -19108   -19088   -19070   -19063 
  -19091   -19152   -19218   -19243   -19198   -19106   -19035   -19017 
  -19013   -18997   -18978   -18974   -19007   -19076   -19158   -19236 
  -19296   -19299   -19229   -19139   -19096   -19101   -19096   -19055 
  -19038   -19099   -19175   -19160   -19051   -18903   -18787   -18775 
  -18887   -19063   -19228   -19340   -19391   -19404   -19411   -19430 
  -19447   -19411   -19287   -19127   -18994   -18858   -18682   -18523 
  -18460   -18501   -18608   -18772   -18980   -19179   -19344   -19494 
  -19634   -19739   -19773   -19724   -19578   -19332   -19041   -18772 
  -18548   -18387   -18325   -18364   -18450   -18552   -18679   -18843 
  -19033   -19213   -19367   -19503   -19605   -19662   -19684   -19659 
  -19561   -19412   -19256   -19090   -18894   -18708   -18595   -18556 
  -18570   -18652   -18818   -19028   -19204   -19311   -19356   -19349 
  -19297   -19217   -19137   -19095   -19099   -19105   -19074   -19037 
  -19052   -19123   -19197   -19244   -19285   -19338   -19371   -19349 
  -19296   -19249   -19190   -19111   -19045   -19030   -19051   -19057 
  -19036   -19022   -19035   -19054   -19070   -19088   -19091   -19060 
  -19018   -19004   -19044   -19150   -19308   -19478   -19609   -19631 
  -19501   -19269   -19023   -18809   -18641   -18524   -18472   -18523 
  -18696   -18942   -19186   -19399   -19598   -19794   -19935   -19940 
  -19811   -19631   -19457   -19290   -19156   -19075   -19006   -18897 
  -18754   -18601   -18453   -18365   -18422   -18625   -18892   -19182 
  -19517   -19885   -20189   -20343   -20358   -20299   -20183   -19997 
  -19752   -19451   -19060   -18579   -18096   -17724   -17541   -17576 
  -17792   -18085   -18377   -18672   -18987   -19255   -19435   -19583 
  -19748   -19910   -20024   -20051   -19934   -19650   -19288   -18980 
  -18763   -18552   -18272   -17950   -17651   -17429   -17361   -17515 
  -17882   -18395   -18986   -19620   -20255   -20788   -21106   -21146 
  -20883   -20348   -19660   -18961   -18342   -17839   -17471   -17265 
  -17236   -17385   -17687   -18067   -18448   -18809   -19168   -19511 
  -19763   -19862   -19820   -19713   -19600   -19515   -19507   -19589 
  -19683   -19693   -19558   -19259   -18816   -18309   -17873   -17610 
  -17554   -17728   -18119   -18629   -19140   -19572   -19886   -20072 
  -20119   -20019   -19790   -19454   -19058   -18704   -18491   -18456 
  -18569   -18763   -18983   -19231   -19538   -19905   -20262   -20497 
  -20546   -20436   -20232   -19981   -19750   -19620   -19637   -19791 
  -20010   -20163   -20121   -19798   -19175   -18360   -17541   -16866 
  -16427   -16283   -16460   -16961   -17753   -18749   -19805   -20741 
  -21398   -21676   -21587   -21257   -20836   -20423   -20081   -19834 
  -19629   -19390   -19079   -18680   -18198   -17680   -17190   -16816 
  -16651   -16737   -17039   -17501   -18105   -18856   -19762   -20798 
  -21871   -22826   -23510   -23793   -23542   -22685   -21286   -19514 
  -17612   -15868   -14520   -13702   -13500   -13951   -14943   -16187 
  -17406   -18558   -19743   -20973   -22215   -23469   -24656   -25569 
  -25996   -25789   -24887   -23389   -21501   -19406   -17238   -15151 
  -13328   -11904   -10986   -10704   -11166   -12403   -14357   -16825 
  -19507   -22152   -24521   -26337   -27399   -27638   -27063   -25757 
  -23868   -21551   -18980   -16417   -14182   -12516   -11489   -11087 
  -11287   -12043   -13273   -14843   -16647   -18653   -20769   -22774 
  -24480   -25758   -26434   -26357   -25540   -24141   -22381   -20469 
  -18524   -16619   -14852   -13359   -12331   -11937   -12219   -13161 
  -14710   -16699   -18885   -21054   -23031   -24639   -25708   -26141 
  -25935   -25171   -24001   -22607   -21112   -19548   -17965   -16481 
  -15194   -14133   -13312   -12783   -12676   -13136   -14188   -15732 
  -17612   -19608   -21485   -23106   -24403   -25254   -25489   -25021 
  -23939   -22456   -20789   -19101   -17530   -16216   -15258   -14670 
  -14398   -14373   -14570   -15010   -15667   -16485   -17473   -18651 
  -19943   -21203   -22319   -23246   -23979   -24487   -24659   -24369 
  -23561   -22242   -20509   -18576   -16685   -15068   -13920   -13341 
  -13303   -13672   -14364   -15383   -16657   -18042   -19429   -20790 
  -22139   -23418   -24462   -25053   -25065   -24559   -23679   -22530 
  -21182   -19678   -18022   -16262   -14541   -13080   -12126   -11831 
  -12186   -13129   -14613   -16542   -18772   -21149   -23479   -25523 
  -27063   -27886   -27827   -26877   -25165   -22899   -20345   -17784 
  -15468   -13611   -12328   -11604   -11387   -11642   -12382   -13671 
  -15488   -17695   -20154   -22683   -24988   -26763   -27800   -28038 
  -27515   -26278   -24387   -21962   -19190   -16326   -13687   -11524 
  -10003    -9369    -9847   -11351   -13519   -16023   -18664   -21182 
  -23259   -24753   -25695   -26088   -25894   -25156   -24043   -22737 
  -21362   -20013   -18718   -17470   -16314   -15330   -14593   -14175 
  -14142   -14535   -15327   -16379   -17563   -18838   -20157   -21402 
  -22391   -22961   -23082   -22850   -22396   -21859   -21340   -20815 
  -20155   -19250   -18162   -17127   -16386   -16020   -15969   -16126 
  -16360   -16602   -16897   -17320   -17898   -18623   -19460   -20389 
  -21397   -22349   -23038   -23350   -23271   -22787   -21899   -20686 
  -19318   -17980   -16760   -15704   -14941   -14584   -14614   -15015 
  -15842   -17013   -18305   -19578   -20813   -21949   -22887   -23591 
  -23994   -23910   -23187   -21881   -20222   -18507   -17011   -15884 
  -15122   -14672   -14559   -14841   -15518   -16518   -17733   -19042 
  -20324   -21476   -22430   -23133   -23493   -23439   -23007   -22282 
  -21326   -20164   -18813   -17340   -15893   -14709   -14068   -14175 
  -14989   -16211   -17512   -18750   -19935   -21043   -21948   -22535 
  -22774   -22687   -22351   -21837   -21163   -20358   -19496   -18630 
  -17785   -17000   -16305   -15700   -15217   -14971   -15093   -15651 
  -16649   -18006   -19535   -21044   -22375   -23332   -23695   -23417 
  -22710   -21848   -20986   -20149   -19288   -18399   -17596   -17033 
  -16790   -16794   -16874   -16949   -17083   -17346   -17738   -18248 
  -18858   -19451   -19874   -20130   -20344   -20577   -20782   -20840 
  -20653   -20264   -19818   -19432   -19175   -19050   -18970   -18844 
  -18689   -18584   -18544   -18501   -18367   -18106   -17828   -17711 
  -17821   -18075   -18339   -18583   -18873   -19282   -19880   -20655 
  -21385   -21778   -21741   -21412   -20919   -20241   -19328   -18221 
  -17094   -16215   -15792   -15884   -16418   -17235   -18160   -19040 
  -19804   -20462   -20993   -21315   -21389   -21261   -21052   -20804 
  -20430   -19905   -19295   -18614   -17889   -17263   -16870   -16716 
  -16742   -16936   -17308   -17797   -18365   -19032   -19756   -20414 
  -20932   -21290   -21425   -21259   -20815   -20207   -19560   -18985 
  -18573   -18353   -18276   -18250   -18212   -18148   -18074   -18011 
  -17965   -17954   -18020   -18198   -18506   -18948   -19487   -20057 
  -20591   -20990   -21160   -21084   -20794   -20319   -19694   -18979 
  -18280   -17753   -17527   -17623   -17940   -18323   -18633   -18800 
  -18873   -18972   -19174   -19453   -19707   -19884   -20010   -20091 
  -20086   -19982   -19818   -19641   -19414   -19053   -18561   -18039 
  -17573   -17178   -16911   -16928   -17294   -17931   -18712   -19497 
  -20185   -20721   -21059   -21206   -21205   -21048   -20703   -20205 
  -19668   -19172   -18707   -18251   -17843   -17558   -17424   -17429 
  -17581   -17902   -18345   -18804   -19201   -19520   -19771   -19968 
  -20122   -20211   -20206   -20110   -19922   -19637   -19297   -18980 
  -18725   -18554   -18485   -18494   -18520   -18537   -18580   -18678 
  -18806   -18944   -19083   -19174   -19212   -19255   -19316   -19368 
  -19414   -19461   -19493   -19529   -19602   -19702   -19749   -19624 
  -19286   -18830   -18415   -18182   -18200   -18422   -18710   -18934 
  -19096   -19298   -19533   -19649   -19566   -19369   -19166   -19008 
  -18899   -18823   -18756   -18669   -18617   -18732   -19022   -19339 
  -19524   -19502   -19291   -18991   -18761   -18700   -18796   -19009 
  -19294   -19581   -19809   -19968   -20050   -20022   -19838   -19516 
  -19112   -18649   -18149   -17727   -17541   -17645   -17959   -18363 
  -18769   -19140   -19474   -19752   -19940   -20034   -20052   -20017 
  -19951   -19856   -19724   -19572   -19446   -19389   -19373   -19291 
  -19058   -18694   -18293   -17939   -17709   -17682   -17850   -18114 
  -18401   -18692   -18967   -19220   -19477   -19768   -20073   -20325 
  -20454   -20413   -20169   -19726   -19190   -18730   -18435   -18298 
  -18300   -18390   -18482   -18532   -18593   -18717   -18871   -18997 
  -19086   -19172   -19305   -19516   -19786   -20045   -20202   -20208 
  -20104   -19941   -19724   -19475   -19251   -19039   -18809   -18596 
  -18427   -18307   -18258   -18267   -18281   -18270   -18236   -18206 
  -18204   -18242   -18359   -18616   -19042   -19618   -20281   -20942 
  -21466   -21691   -21498   -20899   -20046   -19114   -18216   -17429 
  -16830   -16507   -16509   -16803   -17313   -17974   -18699   -19377 
  -19931   -20347   -20618   -20737   -20750   -20725   -20658   -20453 
  -20037   -19481   -18975   -18646   -18456   -18328   -18265   -18268 
  -18289   -18329   -18437   -18608   -18775   -18908   -19052   -19201 
  -19288   -19309   -19287   -19211   -19105   -19000   -18885   -18775 
  -18739   -18840   -19053   -19321   -19628   -19928   -20141   -20222 
  -20190   -20060   -19792   -19367   -18901   -18540   -18327   -18235 
  -18223   -18268   -18369   -18562   -18911   -19381   -19806   -20049 
  -20118   -20088   -19998   -19829   -19565   -19231   -18891   -18601 
  -18346   -18095   -17890   -17819   -17930   -18191   -18538   -18937 
  -19365   -19775   -20120   -20380   -20526   -20509   -20318   -20005 
  -19628   -19236   -18896   -18627   -18368   -18090   -17847   -17708 
  -17721   -17875   -18102   -18356   -18630   -18921   -19220   -19497 
  -19705   -19806   -19803   -19732   -19617   -19486   -19408   -19401 
  -19415   -19443   -19507   -19568   -19556   -19430   -19191   -18868 
  -18529   -18265   -18109   -18047   -18107   -18334   -18708   -19176 
  -19672   -20108   -20409   -20525   -20440   -20190   -19815   -19365 
  -18925   -18534   -18172   -17848   -17621   -17527   -17564   -17761 
  -18127   -18607   -19162   -19780   -20404   -20939   -21270   -21313 
  -21099   -20715   -20230   -19696   -19143   -18544   -17893   -17287 
