Origin Time       2024/04/02 04:24:00
Lat.              40.133
Long.             141.712
Depth. (km)       71
Mag.              6.0
Station Code      HKD091
Station Lat.      42.8088
Station Long.     143.6590
Station Height(m) 16
Record Time       2024/04/02 04:25:24
Sampling Freq(Hz) 100Hz
Duration Time(s)  113
Dir.              E-W
Scale Factor      7845(gal)/8223790
Max. Acc. (gal)   9.064
Last Correction   2024/04/02 04:25:25
Memo.             
[...]
  -12064   -12031   -12262   -12638   -12957   -13051   -12942   -12839 
  -12920   -13146   -13396   -13606   -13744   -13783   -13740   -13621 
  -13402   -13096   -12757   -12463   -12287   -12210   -12094   -11880 
  -11672   -11576   -11569   -11566   -11574   -11678   -11862   -11975 
  -11955   -11928   -12005   -12125   -12201   -12202   -12162   -12174 
  -12307   -12529   -12725   -12772   -12722   -12731   -12834   -12942 
  -12957   -12861   -12760   -12729   -12749   -12777   -12758   -12637 
  -12425   -12235   -12178   -12239   -12328   -12339   -12247   -12187 
  -12251   -12355   -12428   -12510   -12667   -12911   -13217   -13567 
  -13868   -13937   -13716   -13312   -12830   -12395   -12137   -12047 
  -12058   -12189   -12503   -12954   -13305   -13352   -13097   -12671 
  -12252   -12002   -11966   -12090   -12285   -12460   -12579   -12668 
  -12775   -12833   -12730   -12533   -12402   -12380   -12387   -12366 
  -12380   -12492   -12640   -12769   -12876   -12914   -12858   -12739 
  -12594   -12484   -12496   -12629   -12731   -12664   -12483   -12279 
  -12054   -11844   -11745   -11770   -11863   -11982   -12121   -12241 
  -12263   -12201   -12154   -12163   -12268   -12534   -12924   -13297 
  -13504   -13429   -13138   -12872   -12756   -12703   -12637   -12568 
  -12550   -12586   -12575   -12476   -12374   -12298   -12216   -12185 
  -12293   -12519   -12823   -13149   -13377   -13473   -13518   -13483 
  -13263   -12934   -12702   -12660   -12721   -12800   -12923   -13063 
  -13139   -13135   -13084   -12981   -12765   -12428   -12067   -11777 
  -11674   -11851   -12213   -12591   -12892   -13020   -12969   -12884 
  -12845   -12773   -12592   -12336   -12098   -11948   -11921   -12019 
  -12172   -12347   -12594   -12916   -13186   -13263   -13117   -12814 
  -12441   -12112   -11871   -11724   -11732   -11858   -11967   -12059 
  -12162   -12217   -12202   -12152   -12131   -12205   -12337   -12409 
  -12405   -12422   -12541   -12745   -12962   -13126   -13236   -13354 
  -13482   -13571   -13635   -13663   -13593   -13429   -13259   -13132 
  -13065   -13063   -13031   -12833   -12509   -12216   -12020   -11908 
  -11865   -11854   -11882   -11989   -12212   -12586   -13047   -13404 
  -13525   -13446   -13266   -13123   -13069   -12982   -12773   -12509 
  -12239   -11983   -11858   -11948   -12166   -12383   -12573   -12710 
  -12731   -12676   -12609   -12509   -12348   -12158   -12035   -12042 
  -12098   -12069   -11967   -11967   -12177   -12503   -12791   -12989 
  -13090   -13034   -12795   -12552   -12548   -12768   -12953   -12946 
  -12812   -12618   -12337   -11988   -11662   -11421   -11298   -11376 
  -11699   -12143   -12507   -12688   -12768   -12901   -13104   -13243 
  -13221   -12934   -12370   -11807   -11550   -11628   -11921   -12352 
  -12838   -13244   -13531   -13794   -14071   -14229   -14179   -13999 
  -13810   -13652   -13473   -13217   -12897   -12541   -12166   -11844 
  -11692   -11728   -11776   -11662   -11449   -11299   -11300   -11527 
  -11992   -12503   -12833   -12960   -13045   -13155   -13147   -12885 
  -12511   -12333   -12422   -12596   -12784   -13027   -13247   -13339 
  -13335   -13335   -13375   -13360   -13162   -12819   -12510   -12316 
  -12160   -11973   -11730   -11480   -11335   -11337   -11421   -11542 
  -11707   -11904   -12109   -12301   -12557   -12973   -13454   -13787 
  -13948   -14033   -14000   -13751   -13321   -12849   -12484   -12334 
  -12343   -12357   -12324   -12290   -12290   -12305   -12345   -12433 
  -12468   -12341   -12175   -12163   -12287   -12428   -12565   -12727 
  -12904   -13072   -13190   -13228   -13217   -13171   -13092   -13024 
  -12977   -12865   -12610   -12258   -11952   -11813   -11840   -11935 
  -12009   -12031   -12002   -12004   -12159   -12488   -12914   -13352 
  -13705   -13848   -13761   -13563   -13308   -12941   -12526   -12252 
  -12129   -12001   -11874   -11939   -12279   -12776   -13240   -13544 
  -13635   -13483   -13077   -12519   -12031   -11780   -11715   -11680 
  -11670   -11826   -12182   -12576   -12819   -12910   -12947   -12907 
  -12699   -12405   -12232   -12239   -12260   -12181   -12121   -12253 
  -12549   -12816   -12903   -12785   -12555   -12318   -12128   -12039 
  -12123   -12314   -12457   -12560   -12721   -12861   -12887   -12892 
  -12960   -13026   -12993   -12756   -12320   -11924   -11821   -12002 
  -12325   -12698   -13082   -13414   -13575   -13454   -13084   -12679 
  -12459   -12472   -12594   -12625   -12519   -12418   -12430   -12591 
  -12888   -13180   -13288   -13227   -13161   -13144   -13045   -12775 
  -12460   -12241   -12118   -12097   -12231   -12432   -12517   -12402 
  -12110   -11722   -11408   -11331   -11470   -11668   -11796   -11804 
  -11782   -11894   -12131   -12367   -12584   -12779   -12877   -12853 
  -12799   -12864   -13101   -13404   -13639   -13714   -13610   -13377 
  -13088   -12831   -12683   -12614   -12487   -12225   -11970   -11958 
  -12166   -12258   -12094   -11943   -12067   -12456   -12924   -13300 
  -13549   -13676   -13616   -13366   -13080   -12924   -12862   -12707 
  -12425   -12212   -12258   -12541   -12906   -13238   -13413   -13321 
  -13062   -12834   -12676   -12550   -12449   -12302   -12069   -11894 
  -11915   -12027   -12085   -12171   -12352   -12505   -12630   -12895 
  -13251   -13425   -13292   -13008   -12784   -12595   -12297   -11973 
  -11831   -11866   -11925   -11881   -11736   -11688   -11824   -11985 
  -12109   -12336   -12696   -13032   -13193   -13117   -12854   -12590 
  -12469   -12463   -12522   -12690   -12997   -13358   -13579   -13552 
  -13419   -13374   -13396   -13378   -13359   -13360   -13262   -12982 
  -12577   -12144   -11743   -11395   -11119   -11006   -11153   -11562 
  -12104   -12555   -12785   -12893   -12951   -12896   -12800   -12792 
  -12811   -12746   -12588   -12374   -12233   -12329   -12579   -12714 
  -12642   -12442   -12181   -11981   -11983   -12179   -12424   -12606 
  -12753   -12885   -12957   -13054   -13286   -13559   -13736   -13729 
  -13404   -12753   -12050   -11647   -11661   -11920   -12228   -12538 
  -12837   -13049   -13184   -13284   -13297   -13157   -12864   -12499 
  -12222   -12113   -12027   -11834   -11708   -11892   -12312   -12746 
  -13112   -13315   -13239   -12961   -12640   -12314   -12060   -11971 
  -11982   -12010   -12112   -12357   -12706   -13018   -13147   -13065 
  -12819   -12478   -12136   -11920   -11942   -12216   -12598   -12865 
  -12923   -12880   -12746   -12312   -11583   -10955   -10755   -10978 
  -11477   -12096   -12672   -13090   -13366   -13582   -13752   -13856 
  -13909   -13948   -13986   -13957   -13798   -13489   -13051   -12594 
  -12260   -12152   -12324   -12691   -13015   -13180   -13269   -13219 
  -12865   -12329   -11823   -11394   -11119   -11115   -11368   -11804 
  -12316   -12788   -13186   -13436   -13428   -13178   -12816   -12459 
  -12181   -12069   -12236   -12660   -13069   -13163   -12888   -12424 
  -12016   -11788   -11658   -11530   -11462   -11503   -11546   -11460 
  -11299   -11287   -11519   -11854   -12220   -12758   -13535   -14211 
  -14350   -13996   -13560   -13262   -13084   -13034   -13142   -13289 
  -13296   -13123   -12820   -12476   -12258   -12213   -12168   -12062 
  -12132   -12503   -12915   -13170   -13359   -13525   -13605   -13594 
  -13471   -13232   -12946   -12615   -12253   -12056   -12193   -12533 
  -12827   -12993   -13085   -13197   -13362   -13447   -13351   -13128 
  -12780   -12339   -11983   -11819   -11751   -11682   -11610   -11549 
  -11518   -11499   -11402   -11236   -11192   -11410   -11812   -12252 
  -12694   -13078   -13248   -13170   -12972   -12771   -12661   -12698 
  -12789   -12872   -13008   -13138   -13074   -12880   -12811   -12906 
  -12978   -13001   -13059   -13063   -12908   -12671   -12468   -12359 
  -12260   -12015   -11646   -11385   -11371   -11529   -11736   -11946 
  -12206   -12576   -12984   -13301   -13516   -13664   -13755   -13807 
  -13844   -13882   -13934   -13936   -13833   -13699   -13532   -13230 
  -12860   -12550   -12255   -11912   -11630   -11596   -11878   -12245 
  -12383   -12267   -12043   -11766   -11542   -11593   -11913   -12259 
  -12517   -12783   -13171   -13606   -13819   -13701   -13335   -12745 
  -12073   -11624   -11484   -11529   -11732   -12051   -12328   -12530 
  -12719   -12761   -12483   -12016   -11662   -11564   -11632   -11792 
  -12069   -12336   -12407   -12449   -12753   -13224   -13552   -13582 
  -13333   -12960   -12685   -12595   -12568   -12460   -12244   -12019 
  -11898   -11923   -12091   -12349   -12549   -12602   -12590   -12613 
  -12657   -12664   -12615   -12588   -12731   -13131   -13689   -14146 
  -14273   -14038   -13621   -13240   -12982   -12771   -12476   -12117 
  -11882   -11951   -12312   -12725   -12955   -12957   -12800   -12580 
  -12374   -12206   -12031   -11773   -11531   -11624   -12166   -12823 
  -13251   -13413   -13437   -13413   -13333   -13181   -13084   -13174 
  -13261   -13089   -12854   -12916   -13140   -13089   -12680   -12179 
  -11780   -11543   -11504   -11546   -11499   -11419   -11483   -11750 
  -12148   -12509   -12712   -12754   -12645   -12471   -12378   -12294 
  -12085   -11865   -11774   -11804   -12001   -12387   -12787   -13068 
  -13217   -13126   -12765   -12405   -12201   -11997   -11796   -11797 
  -11979   -12236   -12602   -13030   -13390   -13637   -13767   -13792 
  -13763   -13668   -13494   -13246   -12888   -12484   -12226   -12120 
  -12033   -12028   -12270   -12699   -13024   -13055   -12930   -12868 
  -12816   -12636   -12409   -12301   -12337   -12467   -12579   -12553 
  -12455   -12486   -12672   -12833   -12877   -12885   -12888   -12816 
  -12735   -12847   -13154   -13346   -13143   -12683   -12388   -12433 
  -12634   -12792   -12812   -12661   -12386   -12074   -11808   -11701 
  -11807   -12008   -12166   -12280   -12399   -12488   -12492   -12398 
  -12228   -12037   -11928   -11967   -12100   -12274   -12514   -12795 
  -12995   -13038   -13014   -12953   -12733   -12420   -12275   -12413 
  -12735   -13031   -13151   -13146   -13096   -12987   -12781   -12467 
  -12079   -11745   -11639   -11804   -12102   -12438   -12788   -13077 
  -13258   -13346   -13362   -13311   -13096   -12668   -12241   -11967 
  -11745   -11588   -11650   -11892   -12158   -12441   -12823   -13305 
  -13748   -13975   -13942   -13794   -13710   -13675   -13517   -13204 
  -12815   -12383   -11967   -11681   -11611   -11715   -11838   -11943 
  -12120   -12367   -12656   -12976   -13177   -13122   -12942   -12810 
  -12648   -12395   -12210   -12160   -12108   -12032   -12098   -12414 
  -12854   -13144   -13123   -12912   -12771   -12780   -12810   -12758 
  -12657   -12614   -12725   -12928   -12999   -12784   -12374   -11925 
  -11537   -11364   -11495   -11722   -11846   -11925   -12059   -12267 
  -12559   -12820   -12889   -12771   -12603   -12488   -12469   -12538 
  -12692   -12901   -13012   -12946   -12858   -12888   -12969   -12942 
  -12712   -12425   -12374   -12584   -12771   -12752   -12606   -12486 
  -12447   -12430   -12383   -12343   -12343   -12397   -12613   -13027 
  -13429   -13591   -13513   -13331   -13166   -13093   -13153   -13338 
  -13548   -13616   -13427   -12970   -12432   -12098   -11977   -11861 
  -11682   -11504   -11495   -11839   -12444   -12995   -13294   -13355 
  -13293   -13238   -13159   -12903   -12523   -12289   -12259   -12220 
  -11975   -11491   -10894   -10417   -10230   -10413   -11002   -11874 
  -12810   -13655   -14269   -14416   -13944   -13032   -12094   -11434 
  -11075   -10863   -10756   -10875   -11327   -12062   -12819   -13315 
  -13481   -13379   -12997   -12363   -11745   -11519   -11815   -12415 
  -13014   -13482   -13879   -14210   -14401   -14461   -14424   -14278 
  -14042   -13755   -13433   -13117   -12823   -12653   -12918   -13810 
  -15072   -16158   -16588   -16155   -14994   -13535   -12195   -11064 
  -10019    -9105    -8602    -8807    -9813   -11452   -13414   -15236 
  -16332   -16409   -15635   -14384   -13016   -11704   -10424    -9333 
   -8791    -8924    -9607   -10677   -11890   -12930   -13591   -13794 
  -13491   -12731   -11577   -10029    -8318    -7014    -6617    -7214 
   -8580   -10374   -12159   -13398   -13726   -13273   -12456   -11558 
  -10760   -10370   -10620   -11415   -12495   -13643   -14689   -15525 
  -15993   -15880   -15230   -14432   -13884   -13861   -14465   -15499 
  -16610   -17595   -18384   -18805   -18654   -17945   -16868   -15496 
  -13888   -12318   -11002    -9890    -9012    -8726    -9402   -11053 
  -13236   -15323   -16973   -18004   -18022   -16781   -14555   -11835 
   -9138    -7030    -5960    -6068    -7119    -8560    -9805   -10540 
  -10821   -10964   -11292   -11830   -12282   -12418   -12237   -11781 
  -11271   -11138   -11539   -12132   -12440   -12248   -11713   -11190 
  -10941   -10987   -11134   -11126   -10855   -10494   -10404   -10881 
  -11890   -13084   -14044   -14470   -14216   -13429   -12586   -12212 
  -12546   -13398   -14368   -15275   -16085   -16511   -16233   -15356 
  -14220   -13012   -11929   -11222   -11005   -11360   -12375   -13918 
  -15660   -17235   -18319   -18663   -18215   -17194   -15855   -14247 
  -12345   -10319    -8478    -7056    -6262    -6312    -7304    -9171 
  -11730   -14601   -17189   -18956   -19620   -19130   -17652   -15472 
  -12779    -9752    -6770    -4380    -3088    -3096    -4249    -6378 
   -9475   -13324   -17232   -20306   -21907   -21864   -20412   -18006 
  -15210   -12487    -9925    -7411    -5150    -3672    -3414    -4417 
   -6299    -8534   -10858   -13277   -15660   -17636   -18848   -19022 
  -18081   -16283   -14022   -11730    -9909    -8851    -8584    -9085 
  -10201   -11697   -13356   -14710   -15213   -14845   -14029   -13043 
  -11975   -10968   -10276   -10112   -10405   -10800   -11045   -11241 
  -11692   -12669   -14099   -15510   -16463   -16795   -16440   -15461 
  -14157   -12841   -11735   -11064   -11049   -11807   -13265   -15095 
  -16762   -17828   -18189   -17909   -17111   -16060   -14962   -13809 
  -12610   -11481   -10550    -9888    -9540    -9576   -10019   -10694 
  -11348   -11844   -12290   -12842   -13406   -13791   -13999   -14123 
  -14115   -13710   -12629   -10836    -8571    -6219    -4241    -3171 
   -3426    -5032    -7646   -10674   -13356   -15192   -16206   -16514 
  -16055   -14974   -13684   -12334   -10694    -8687    -6763    -5611 
   -5584    -6640    -8640   -11267   -13834   -15707   -16783   -17355 
  -17771   -18249   -18663   -18654   -18123   -17300   -16416   -15614 
  -15024   -14700   -14574   -14431   -14003   -13217   -12266   -11395 
  -10866   -10959   -11713   -12914   -14353   -15797   -16957   -17747 
  -18156   -18050   -17470   -16648   -15654   -14428   -13015   -11574 
  -10358    -9728    -9934   -10813   -11854   -12591   -12803   -12455 
  -11615   -10494    -9346    -8280    -7339    -6527    -5794    -5220 
   -5054    -5428    -6165    -6988    -7767    -8499    -9229   -10015 
  -10863   -11695   -12445   -13127   -13714   -14034   -13925   -13531 
  -13196   -13078   -13070   -13011   -12842   -12599   -12399   -12492 
  -13124   -14237   -15508   -16702   -17702   -18301   -18241   -17392 
  -15974   -14546   -13566   -13076   -12978   -13251   -13803   -14482 
  -15155   -15726   -16281   -16916   -17424   -17547   -17243   -16518 
  -15429   -14238   -13215   -12460   -11920   -11504   -11226   -11271 
  -11835   -12772   -13556   -13713   -13077   -11763   -10110    -8544 
   -7352    -6616    -6273    -6184    -6227    -6385    -6704    -7199 
   -7847    -8707    -9945   -11616   -13541   -15434   -16960   -17726 
  -17574   -16853   -16013   -15113   -14094   -13068   -12125   -11254 
  -10446    -9728    -9185    -8842    -8580    -8311    -8163    -8394 
   -9121   -10322   -11993   -14022   -16087   -17751   -18597   -18436 
  -17417   -15966   -14661   -13856   -13413   -13020   -12567   -12054 
  -11562   -11349   -11627   -12294   -13074   -13767   -14288   -14534 
  -14315   -13494   -12348   -11530   -11407   -11794   -12397   -13057 
  -13601   -13815   -13655   -13265   -12826   -12483   -12332   -12409 
  -12777   -13574   -14785   -16070   -16988   -17300   -16964   -16002 
  -14455   -12495   -10446    -8594    -7113    -6199    -6114    -7009 
   -8644   -10469   -12073   -13409   -14619   -15682   -16372   -16573 
  -16320   -15566   -14264   -12673   -11263   -10342    -9913    -9774 
   -9676    -9521    -9400    -9462    -9733   -10076   -10463   -11060 
  -11839   -12568   -13177   -13657   -13720   -12999   -11533    -9805 
   -8399    -7731    -7969    -9043   -10706   -12583   -14277   -15519 
  -16256   -16599   -16731   -16823   -16945   -17007   -16758   -16031 
  -14989   -13944   -13076   -12447   -12096   -11986   -12029   -12266 
  -12806   -13549   -14300   -14943   -15377   -15603   -15750   -15844 
  -15668   -14924   -13510   -11681    -9927    -8729    -8372    -8824 
   -9757   -10870   -12054   -13193   -14135   -14791   -15005   -14548 
  -13513   -12364   -11584   -11452   -11974   -12787   -13288   -12999 
  -11843   -10125    -8336    -6997    -6427    -6612    -7426    -8788 
  -10515   -12340   -13938   -14980   -15288   -14801   -13552   -11767 
   -9919    -8588    -8056    -8183    -8773    -9742   -11052   -12681 
  -14563   -16479   -18071   -18936   -18806   -17752   -16177   -14494 
  -12943   -11716   -11006   -10906   -11403   -12378   -13647   -14971 
  -16025   -16556   -16578   -16341   -16121   -15994   -15904   -15828 
  -15718   -15410   -14760   -13797   -12663   -11461   -10345    -9583 
   -9281    -9362    -9826   -10627   -11549   -12434   -13225   -13743 
  -13761   -13257   -12436   -11545   -10670    -9825    -9178    -8932 
   -9034    -9294    -9659   -10143   -10628   -10913   -10974   -10926 
  -10774   -10457   -10000    -9529    -9292    -9497   -10041   -10617 
  -10987   -11097   -11075   -11079   -11260   -11790   -12700   -13825 
  -14993   -16035   -16744   -17046   -17034   -16808   -16483   -16159 
  -15871   -15635   -15461   -15291   -15005   -14573   -14143   -13864 
  -13741   -13838   -14287   -14944   -15476   -15693   -15580   -15187 
  -14620   -13990   -13416   -13014   -12723   -12360   -11835   -11132 
  -10359    -9882   -10033   -10818   -12013   -13316   -14358   -14860 
  -14785   -14219   -13257   -12063   -10849    -9711    -8704    -7933 
   -7460    -7302    -7526    -8043    -8572    -8997    -9406    -9834 
  -10273   -10758   -11310   -11917   -12587   -13207   -13513   -13390 
  -13019   -12656   -12411   -12252   -12181   -12297   -12599   -13005 
  -13479   -13914   -14104   -13930   -13510   -13144   -13081   -13296 
  -13532   -13602   -13616   -13760   -14061   -14497   -14970   -15199 
  -15053   -14727   -14459   -14424   -14679   -15043   -15198   -14939 
  -14265   -13412   -12714   -12305   -12033   -11772   -11565   -11418 
  -11342   -11508   -12001   -12590   -12993   -13215   -13410   -13664 
  -13948   -14095   -13882   -13286   -12538   -11851   -11232   -10669 
  -10238    -9906    -9566    -9289    -9236    -9412    -9760   -10246 
  -10723   -11053   -11365   -11861   -12496   -13065   -13487   -13829 
