Origin Time       2024/04/02 04:24:00
Lat.              40.133
Long.             141.712
Depth. (km)       71
Mag.              6.0
Station Code      HKD072
Station Lat.      43.1948
Station Long.     145.5209
Station Height(m) 46
Record Time       2024/04/02 04:26:25
Sampling Freq(Hz) 100Hz
Duration Time(s)  60
Dir.              U-D
Scale Factor      3920(gal)/6182761
Max. Acc. (gal)   0.980
Last Correction   2024/04/02 04:26:25
Memo.             
[...]
   -7689    -7783    -7782    -7780    -7873    -8014    -8097    -8048 
   -7900    -7778    -7755    -7776    -7782    -7795    -7857    -7935 
   -7970    -7961    -7941    -7920    -7914    -7933    -7941    -7903 
   -7853    -7851    -7889    -7890    -7830    -7781    -7807    -7882 
   -7932    -7895    -7800    -7745    -7768    -7826    -7876    -7892 
   -7877    -7869    -7871    -7852    -7808    -7784    -7840    -7948 
   -8002    -7978    -7949    -7917    -7857    -7804    -7798    -7842 
   -7913    -7947    -7902    -7827    -7807    -7858    -7892    -7832 
   -7729    -7689    -7749    -7856    -7910    -7878    -7861    -7939 
   -8021    -7985    -7865    -7801    -7851    -7939    -7986    -7983 
   -7961    -7952    -7955    -7933    -7866    -7787    -7756    -7785 
   -7827    -7841    -7807    -7749    -7746    -7838    -7954    -7976 
   -7892    -7807    -7794    -7821    -7815    -7764    -7739    -7778 
   -7835    -7871    -7900    -7938    -7967    -7946    -7870    -7805 
   -7817    -7879    -7921    -7922    -7897    -7858    -7823    -7811 
   -7832    -7880    -7924    -7919    -7846    -7750    -7726    -7819 
   -7944    -7980    -7918    -7844    -7836    -7885    -7933    -7918 
   -7833    -7774    -7828    -7940    -7982    -7904    -7795    -7795 
   -7930    -8068    -8056    -7880    -7686    -7632    -7738    -7905 
   -8000    -7959    -7864    -7846    -7886    -7877    -7798    -7732 
   -7774    -7913    -8027    -8040    -7962    -7867    -7867    -7971 
   -8015    -7875    -7676    -7660    -7853    -8021    -7977    -7805 
   -7717    -7799    -7936    -7958    -7840    -7726    -7768    -7947 
   -8075    -8035    -7918    -7875    -7922    -7955    -7894    -7765 
   -7687    -7738    -7863    -7935    -7905    -7850    -7897    -8040 
   -8097    -7977    -7820    -7779    -7853    -7947    -7979    -7938 
   -7886    -7898    -7981    -8018    -7892    -7672    -7551    -7621 
   -7793    -7934    -8012    -8056    -8040    -7909    -7717    -7624 
   -7728    -7922    -8039    -8046    -7996    -7943    -7895    -7830 
   -7763    -7731    -7748    -7821    -7915    -7954    -7917    -7869 
   -7878    -7931    -7935    -7836    -7703    -7645    -7701    -7803 
   -7853    -7873    -7942    -8017    -7997    -7889    -7809    -7840 
   -7948    -8033    -8053    -7999    -7876    -7764    -7734    -7740 
   -7710    -7663    -7687    -7837    -8047    -8178    -8157    -7994 
   -7767    -7610    -7608    -7731    -7874    -7950    -7957    -7952 
   -7946    -7883    -7748    -7635    -7679    -7877    -8066    -8102 
   -7981    -7823    -7736    -7731    -7770    -7827    -7887    -7949 
   -7991    -7956    -7844    -7762    -7817    -7978    -8082    -8017 
   -7846    -7714    -7690    -7741    -7801    -7853    -7922    -8012 
   -8084    -8053    -7881    -7681    -7605    -7689    -7852    -7989 
   -8040    -8010    -7962    -7946    -7892    -7728    -7586    -7650 
   -7893    -8092    -8093    -7982    -7926    -7948    -7958    -7865 
   -7685    -7563    -7637    -7876    -8074    -8060    -7893    -7758 
   -7752    -7827    -7873    -7844    -7840    -7968    -8153    -8196 
   -8030    -7785    -7638    -7680    -7827    -7899    -7855    -7830 
   -7907    -8009    -8006    -7871    -7738    -7752    -7897    -8027 
   -8012    -7882    -7790    -7791    -7794    -7746    -7706    -7736 
   -7819    -7914    -7991    -7994    -7910    -7825    -7804    -7820 
   -7849    -7890    -7927    -7946    -7922    -7838    -7743    -7720 
   -7783    -7857    -7877    -7886    -7954    -8021    -7968    -7830 
   -7793    -7939    -8123    -8141    -7961    -7734    -7654    -7772 
   -7938    -7969    -7874    -7819    -7879    -7955    -7914    -7745 
   -7588    -7609    -7803    -7978    -7983    -7908    -7935    -8035 
   -7995    -7756    -7527    -7528    -7741    -7968    -8059    -8020 
   -7944    -7916    -7928    -7910    -7846    -7802    -7856    -7961 
   -7983    -7896    -7803    -7791    -7832    -7837    -7792    -7777 
   -7836    -7930    -7970    -7916    -7858    -7882    -7946    -7943 
   -7832    -7697    -7691    -7870    -8103    -8180    -8038    -7834 
   -7739    -7755    -7798    -7840    -7904    -7998    -8084    -8088 
   -7948    -7749    -7699    -7849    -8006    -8000    -7875    -7785 
   -7799    -7857    -7853    -7736    -7602    -7644    -7893    -8133 
   -8155    -8004    -7882    -7909    -8013    -8025    -7879    -7688 
   -7586    -7608    -7710    -7833    -7926    -7945    -7899    -7851 
   -7822    -7775    -7720    -7755    -7924    -8086    -8074    -7934 
   -7841    -7854    -7876    -7810    -7703    -7683    -7815    -8009 
   -8063    -7907    -7734    -7730    -7829    -7862    -7809    -7814 
   -7933    -8033    -7998    -7860    -7738    -7739    -7837    -7906 
   -7899    -7899    -7969    -8047    -8013    -7838    -7649    -7614 
   -7755    -7935    -8009    -7927    -7756    -7666    -7761    -7911 
   -7903    -7767    -7745    -7894    -8026    -8000    -7878    -7805 
   -7849    -7945    -7972    -7862    -7707    -7704    -7901    -8091 
   -8047    -7812    -7668    -7764    -7935    -7969    -7864    -7798 
   -7894    -8082    -8174    -8047    -7779    -7617    -7684    -7833 
   -7891    -7871    -7868    -7920    -7966    -7945    -7882    -7792 
   -7690    -7686    -7847    -8061    -8164    -8128    -8073    -8059 
   -8007    -7884    -7744    -7634    -7601    -7713    -7932    -8052 
   -7950    -7784    -7745    -7796    -7824    -7820    -7842    -7894 
   -7913    -7903    -7919    -7947    -7959    -7951    -7923    -7917 
   -7962    -7992    -7928    -7804    -7748    -7842    -7993    -8038 
   -7951    -7847    -7812    -7817    -7800    -7787    -7843    -7941 
   -8004    -8013    -7965    -7839    -7692    -7667    -7789    -7906 
   -7900    -7830    -7842    -7967    -8037    -7907    -7669    -7551 
   -7642    -7799    -7848    -7781    -7721    -7781    -7951    -8083 
   -8055    -7920    -7815    -7811    -7877    -7913    -7872    -7830 
   -7842    -7859    -7817    -7722    -7677    -7767    -7934    -8032 
   -7995    -7904    -7882    -7925    -7938    -7873    -7783    -7760 
   -7824    -7915    -7967    -7967    -7945    -7935    -7941    -7949 
   -7944    -7930    -7924    -7914    -7877    -7846    -7868    -7906 
   -7896    -7846    -7809    -7794    -7781    -7804    -7877    -7910 
   -7877    -7880    -7926    -7895    -7751    -7604    -7590    -7728 
   -7919    -8030    -8005    -7912    -7849    -7811    -7763    -7749 
   -7798    -7870    -7931    -7970    -7985    -7970    -7925    -7895 
   -7944    -8043    -8090    -8039    -7933    -7839    -7800    -7808 
   -7816    -7813    -7877    -8027    -8114    -8018    -7816    -7695 
   -7764    -7915    -7943    -7811    -7693    -7741    -7898    -7978 
   -7886    -7724    -7689    -7833    -7992    -7998    -7848    -7701 
   -7715    -7857    -7958    -7941    -7857    -7818    -7899    -8006 
   -7969    -7805    -7718    -7802    -7902    -7874    -7805    -7805 
   -7834    -7853    -7879    -7893    -7871    -7863    -7899    -7892 
   -7784    -7685    -7736    -7897    -8002    -7967    -7843    -7731 
   -7702    -7771    -7881    -7937    -7922    -7923    -7992    -8047 
   -7977    -7824    -7774    -7897    -8003    -7919    -7751    -7684 
   -7739    -7845    -7943    -8024    -8104    -8154    -8119    -7952 
   -7705    -7547    -7567    -7670    -7775    -7881    -7970    -8007 
   -7990    -7942    -7873    -7783    -7710    -7701    -7754    -7836 
   -7922    -7996    -8051    -8021    -7844    -7657    -7673    -7869 
   -8024    -8008    -7890    -7808    -7819    -7857    -7799    -7651 
   -7601    -7751    -7953    -8009    -7929    -7882    -7940    -8015 
   -7997    -7869    -7715    -7664    -7762    -7892    -7911    -7856 
   -7872    -7980    -8045    -7927    -7692    -7606    -7803    -8084 
   -8163    -7988    -7774    -7742    -7906    -8057    -7976    -7752 
   -7703    -7903    -8066    -7955    -7682    -7545    -7664    -7910 
   -8082    -8085    -7983    -7905    -7916    -7929    -7827    -7666 
   -7623    -7743    -7907    -7989    -7990    -7998    -8011    -7930 
   -7764    -7660    -7724    -7890    -8011    -8045    -8034    -7983 
   -7902    -7825    -7751    -7700    -7738    -7888    -8043    -8066 
   -7992    -7973    -8019    -8000    -7866    -7745    -7778    -7942 
   -8063    -7997    -7815    -7724    -7807    -7947    -7974    -7848 
   -7711    -7709    -7860    -8061    -8153    -8074    -7913    -7800 
   -7784    -7813    -7839    -7866    -7881    -7874    -7836    -7737 
   -7628    -7631    -7792    -8017    -8142    -8093    -7950    -7784 
   -7619    -7532    -7577    -7697    -7823    -7929    -7981    -7954 
   -7866    -7799    -7868    -8050    -8181    -8142    -7946    -7737 
   -7654    -7680    -7737    -7784    -7807    -7827    -7819    -7734 
   -7640    -7658    -7823    -8030    -8118    -8075    -8012    -7972 
   -7933    -7884    -7828    -7781    -7766    -7795    -7843    -7849 
   -7809    -7809    -7914    -8057    -8096    -7980    -7810    -7762 
   -7881    -8006    -7983    -7853    -7779    -7847    -7967    -7975 
   -7825    -7660    -7662    -7833    -7990    -7989    -7917    -7960 
   -8077    -8050    -7836    -7613    -7538    -7629    -7815    -7974 
   -7992    -7901    -7840    -7844    -7846    -7822    -7793    -7816 
   -7942    -8111    -8184    -8119    -8005    -7941    -7929    -7898 
   -7816    -7709    -7651    -7739    -7917    -7994    -7929    -7874 
   -7910    -7948    -7899    -7811    -7769    -7798    -7877    -7916 
   -7840    -7716    -7691    -7814    -7954    -7955    -7847    -7787 
   -7869    -8003    -7987    -7818    -7757    -7934    -8131    -8095 
   -7872    -7695    -7671    -7724    -7749    -7739    -7768    -7872 
   -8011    -8114    -8098    -7941    -7737    -7593    -7596    -7789 
   -8041    -8159    -8122    -7995    -7794    -7564    -7434    -7509 
   -7760    -8040    -8211    -8216    -8063    -7841    -7679    -7605 
   -7577    -7668    -7936    -8190    -8195    -7989    -7796    -7746 
   -7802    -7874    -7881    -7796    -7716    -7751    -7864    -7952 
   -7993    -8044    -8130    -8170    -8068    -7848    -7618    -7516 
   -7633    -7859    -7984    -7940    -7861    -7905    -8020    -8005 
   -7838    -7707    -7746    -7896    -7962    -7853    -7713    -7731 
   -7926    -8121    -8130    -7968    -7809    -7745    -7724    -7682 
   -7631    -7636    -7739    -7915    -8088    -8148    -8030    -7838 
   -7770    -7873    -7969    -7883    -7702    -7620    -7671    -7773 
   -7843    -7834    -7772    -7740    -7797    -7917    -7981    -7908 
   -7796    -7823    -7987    -8083    -7968    -7741    -7640    -7735 
   -7862    -7900    -7905    -7952    -8014    -8021    -7941    -7805 
   -7672    -7585    -7580    -7696    -7936    -8194    -8300    -8203 
   -8009    -7845    -7750    -7691    -7635    -7629    -7759    -8041 
   -8327    -8328    -7955    -7552    -7497    -7760    -8038    -8140 
   -8119    -8084    -8043    -7970    -7857    -7710    -7617    -7700 
   -7913    -8068    -8051    -7898    -7748    -7700    -7772    -7932 
   -8033    -7939    -7779    -7745    -7781    -7767    -7751    -7855 
   -8049    -8137    -8071    -7985    -7906    -7815    -7774    -7812 
   -7894    -7982    -8078    -8189    -8231    -8136    -7955    -7745 
   -7593    -7609    -7762    -7882    -7827    -7707    -7807    -8114 
   -8299    -8206    -7959    -7750    -7711    -7849    -8074    -8209 
   -8146    -8043    -8064    -8096    -7981    -7772    -7673    -7772 
   -7924    -7984    -7947    -7845    -7747    -7715    -7738    -7769 
   -7795    -7845    -7922    -7954    -7893    -7817    -7840    -7930 
   -7965    -7928    -7903    -7938    -7993    -7991    -7897    -7769 
   -7697    -7667    -7566    -7415    -7374    -7500    -7716    -7922 
   -8065    -8156    -8157    -8023    -7860    -7790    -7815    -7904 
   -8047    -8191    -8238    -8107    -7787    -7426    -7300    -7467 
   -7664    -7704    -7664    -7655    -7680    -7685    -7647    -7666 
   -7863    -8179    -8405    -8345    -7972    -7523    -7276    -7281 
   -7441    -7627    -7718    -7734    -7759    -7776    -7719    -7580 
   -7469    -7503    -7685    -7939    -8133    -8158    -8049    -7912 
   -7832    -7839    -7829    -7716    -7626    -7710    -7927    -8106 
   -8108    -7956    -7812    -7790    -7825    -7798    -7712    -7733 
   -8026    -8506    -8864    -8869    -8628    -8481    -8520    -8420 
   -7948    -7357    -7085    -7294    -7750    -8056    -8046    -7924 
   -7937    -7995    -7812    -7393    -7131    -7360    -7981    -8589 
   -8813    -8562    -8010    -7436    -7090    -7058    -7277    -7668 
   -8151    -8578    -8727    -8405    -7672    -6904    -6516    -6663 
   -7191    -7818    -8316    -8571    -8555    -8278    -7813    -7380 
   -7276    -7651    -8330    -8904    -9067    -8835    -8428    -8005 
   -7616    -7342    -7247    -7277    -7372    -7591    -7991    -8435 
   -8664    -8566    -8317    -8186    -8228    -8296    -8312    -8348 
   -8461    -8581    -8525    -8125    -7463    -6905    -6785    -7039 
   -7258    -7180    -7000    -7069    -7425    -7819    -7992    -7882 
   -7658    -7551    -7704    -8122    -8612    -8921    -9021    -9031 
   -8856    -8269    -7373    -6618    -6325    -6461    -6841    -7345 
   -7878    -8276    -8377    -8166    -7836    -7698    -7890    -8221 
   -8427    -8465    -8487    -8563    -8536    -8216    -7683    -7309 
   -7373    -7682    -7800    -7598    -7349    -7285    -7359    -7450 
   -7552    -7711    -7987    -8441    -8916    -9037    -8688    -8210 
   -7962    -7901    -7707    -7277    -6908    -6882    -7124    -7358 
   -7424    -7423    -7544    -7770    -7924    -7876    -7663    -7498 
   -7561    -7783    -7945    -7959    -7995    -8198    -8450    -8613 
   -8691    -8675    -8486    -8094    -7621    -7294    -7249    -7422 
   -7594    -7599    -7470    -7379    -7471    -7678    -7831    -7946 
   -8159    -8448    -8598    -8439    -8061    -7748    -7684    -7835 
   -8019    -8073    -7962    -7729    -7434    -7129    -6903    -6859 
   -7015    -7367    -7825    -8173    -8359    -8495    -8557    -8467 
   -8284    -8131    -8092    -8145    -8256    -8376    -8305    -7944 
   -7585    -7531    -7675    -7714    -7591    -7526    -7609    -7661 
   -7562    -7461    -7581    -7975    -8439    -8656    -8526    -8284 
   -8212    -8309    -8310    -8095    -7899    -7955    -8117    -8024 
   -7539    -6955    -6744    -7079    -7715    -8252    -8491    -8567 
   -8650    -8594    -8193    -7581    -7130    -7126    -7604    -8299 
   -8796    -8824    -8480    -8092    -7805    -7483    -7111    -6985 
   -7340    -7976    -8383    -8283    -7890    -7561    -7421    -7372 
   -7394    -7696    -8353    -8983    -9108    -8665    -8025    -7628 
   -7589    -7644    -7520    -7305    -7342    -7753    -8220    -8321 
   -7983    -7525    -7328    -7463    -7689    -7848    -8069    -8475 
   -8875    -8961    -8618    -7965    -7303    -7018    -7277    -7836 
   -8283    -8410    -8257    -7946    -7568    -7210    -7004    -7055 
   -7389    -7946    -8488    -8646    -8273    -7668    -7281    -7331 
   -7713    -8099    -8225    -8118    -7989    -7925    -7839    -7700 
   -7636    -7735    -7866    -7811    -7556    -7311    -7276    -7494 
   -7833    -8102    -8210    -8188    -8109    -7985    -7739    -7408 
   -7271    -7570    -8179    -8690    -8730    -8264    -7633    -7166 
   -6963    -7013    -7221    -7478    -7739    -7950    -8079    -8143 
   -8116    -7992    -7849    -7790    -7894    -8128    -8325    -8309 
   -8043    -7718    -7550    -7449    -7123    -6627    -6464    -6932 
   -7691    -8234    -8421    -8427    -8455    -8520    -8440    -8125 
   -7785    -7731    -8023    -8414    -8617    -8511    -8144    -7692 
   -7349    -7205    -7286    -7575    -7940    -8178    -8212    -8122 
   -8015    -7902    -7705    -7422    -7194    -7218    -7628    -8286 
   -8763    -8711    -8202    -7611    -7279    -7262    -7367    -7459 
   -7622    -7990    -8471    -8736    -8559    -8081    -7581    -7235 
   -7195    -7517    -8000    -8317    -8317    -8146    -8041    -8041 
   -8028    -7914    -7735    -7642    -7737    -7951    -8107    -8093 
   -7936    -7742    -7632    -7633    -7603    -7503    -7555    -7869 
   -8259    -8467    -8398    -8146    -7828    -7561    -7461    -7503 
   -7679    -8068    -8534    -8713    -8364    -7679    -7148    -7084 
   -7451    -7998    -8414    -8578    -8570    -8430    -8148    -7805 
   -7547    -7468    -7589    -7876    -8162    -8213    -7996    -7739 
   -7663    -7738    -7784    -7784    -7887    -8113    -8256    -8156 
   -7919    -7747    -7652    -7519    -7398    -7514    -7900    -8311 
   -8545    -8581    -8421    -8059    -7610    -7303    -7268    -7486 
   -7866    -8196    -8307    -8245    -8124    -7986    -7819    -7636 
   -7513    -7513    -7658    -7922    -8162    -8178    -7949    -7696 
   -7620    -7664    -7711    -7798    -7990    -8239    -8390    -8290 
   -7946    -7544    -7310    -7325    -7501    -7700    -7838    -7968 
   -8165    -8298    -8187    -7876    -7593    -7531    -7669    -7830 
   -7941    -8068    -8197    -8194    -8008    -7723    -7444    -7266 
   -7300    -7591    -8039    -8438    -8595    -8456    -8145    -7845 
   -7656    -7617    -7727    -7883    -7934    -7878    -7859    -7902 
   -7877    -7761    -7652    -7558    -7438    -7370    -7473    -7687 
   -7849    -7924    -7949    -7911    -7792    -7640    -7566    -7674 
   -7959    -8276    -8392    -8135    -7611    -7181    -7123    -7411 
   -7811    -8115    -8339    -8583    -8725    -8536    -8098    -7766 
   -7747    -7903    -7989    -7923    -7780    -7672    -7689    -7800 
   -7841    -7728    -7589    -7551    -7568    -7561    -7588    -7782 
   -8147    -8430    -8310    -7773    -7226    -7135    -7496    -7921 
   -8172    -8305    -8428    -8463    -8220    -7725    -7301    -7250 
   -7545    -7894    -8078    -8099    -8042    -7986    -7947    -7853 
   -7663    -7474    -7468    -7721    -8053    -8222    -8226    -8238 
   -8300    -8285    -8113    -7857    -7691    -7715    -7900    -8165 
   -8345    -8243    -7909    -7604    -7466    -7428    -7435    -7570 
   -7882    -8241    -8478    -8482    -8215    -7800    -7461    -7291 
   -7254    -7368    -7679    -8119    -8456    -8487    -8266    -7922 
   -7517    -7247    -7299    -7574    -7868    -8077    -8196    -8263 
   -8297    -8247    -8024    -7685    -7504    -7641    -7919    -8085 
   -8090    -8021    -7943    -7869    -7807    -7760    -7715    -7715 
   -7879    -8188    -8409    -8363    -8054    -7641    -7349    -7265 
   -7300    -7413    -7651    -7999    -8320    -8442    -8296    -7991 
   -7743    -7707    -7849    -7967    -7881    -7678    -7623    -7802 
   -8003    -7971    -7727    -7599    -7733    -7863    -7774    -7614 
   -7587    -7680    -7763    -7810    -7889    -7962    -7925    -7842 
   -7863    -7988    -8095    -8087    -8004    -7967    -7993    -7998 
