Origin Time       2024/04/02 04:24:00
Lat.              40.133
Long.             141.712
Depth. (km)       71
Mag.              6.0
Station Code      HKD070
Station Lat.      43.3852
Station Long.     145.2840
Station Height(m) 6
Record Time       2024/04/02 04:26:25
Sampling Freq(Hz) 100Hz
Duration Time(s)  71
Dir.              U-D
Scale Factor      7845(gal)/8223790
Max. Acc. (gal)   1.945
Last Correction   2024/04/02 04:26:26
Memo.             
[...]
   12189    12010    11971    12060    12091    12129    12168    12160 
   12276    12340    12081    11920    12120    12241    12120    12075 
   12183    12241    12212    12154    11986    11820    11967    12305 
   12380    12155    11997    12106    12226    12097    11948    12031 
   12174    12135    11961    11948    12135    12175    12047    11947 
   11827    11838    12108    12274    12171    12044    11990    11975 
   11942    11905    12029    12245    12289    12043    11754    11947 
   12503    12592    12158    11990    12235    12295    12032    11803 
   11735    11824    12090    12263    12116    11951    12083    12267 
   12182    11973    11904    11946    11997    12096    12158    12017 
   11916    12178    12455    12293    12015    12039    12155    12104 
   12043    12108    12123    12020    11998    12124    12248    12202 
   12043    12008    12105    12228    12302    12186    11988    11978 
   12117    12145    11885    11645    11951    12413    12259    11917 
   12073    12287    12186    12159    12233    12055    11834    11963 
   12182    12118    12029    12208    12401    12372    12214    11963 
   11784    11942    12168    12085    11888    11874    11989    12059 
   12108    12263    12384    12245    12015    11946    12033    12218 
   12351    12208    11943    11894    12027    12075    12025    12123 
   12376    12475    12341    12220    12255    12317    12226    12075 
   12000    11888    11788    11942    12204    12209    12044    12089 
   12287    12237    11900    11727    11996    12321    12264    11986 
   11877    12071    12310    12249    12013    11974    12151    12218 
   12025    11878    11985    12145    12163    12010    11870    11998 
   12205    12060    11807    11996    12394    12339    11858    11599 
   11850    12186    12128    11871    11917    12206    12357    12302 
   12096    11907    12027    12305    12247    11908    11877    12137 
   12214    12166    12143    11996    11901    12128    12322    12060 
   11785    12058    12333    12037    11809    12106    12367    12237 
   11970    11985    12322    12359    11992    11981    12237    12093 
   11830    11950    12279    12402    12204    12070    12125    12040 
   12033    12330    12421    12051    11704    11751    11877    11865 
   12066    12299    12155    12147    12455    12344    11925    11944 
   12209    12162    11908    11894    12151    12212    12004    11970 
   12136    12267    12356    12280    11965    11770    11981    12306 
   12345    12247    12297    12225    11961    11988    12186    12106 
   11970    12039    12116    12000    11793    11765    11971    12148 
   12023    11731    11726    12096    12394    12299    12040    11948 
   12008    12123    12239    12151    11983    12082    12197    12148 
   12307    12461    12155    11803    11850    12025    12037    11979 
   12012    12069    12085    12202    12309    12123    11898    12015 
   12231    12189    12081    12282    12580    12414    11907    11699 
   11940    12268    12286    11969    11765    11901    12194    12393 
   12272    12029    11983    11905    11750    11881    12164    12247 
   12224    12190    12128    12191    12291    12102    11774    11774 
   11974    11921    11871    12117    12252    12181    12194    12151 
   11982    12046    12235    12150    11996    12029    12148    12310 
   12372    12301    12309    12321    12214    12163    12193    12135 
   11963    11789    11735    11931    12271    12251    11804    11642 
   11939    12220    12398    12394    12205    12268    12361    12027 
   11762    11924    12148    12302    12324    12128    12089    12266 
   12158    11850    11826    12031    12133    12090    12066    12137 
   12232    12193    11974    11861    12063    12216    12005    11853 
   12083    12287    12183    12060    12108    12143    12110    12154 
   12185    12179    12316    12340    12055    11893    12089    12291 
   12172    11859    11711    11859    12096    12154    12106    12067 
   12000    12124    12324    12106    11828    12001    12251    12133 
   11793    11745    12091    12314    12310    12309    12218    12162 
   12208    12100    12010    12123    12151    12074    12052    11948 
   11811    11890    12093    12282    12348    12116    11920    12140 
   12374    12222    11896    11707    11754    11886    11877    11870 
   12094    12361    12472    12436    12289    12155    12162    12216 
   12087    11767    11627    11840    12118    12260    12271    12231 
   12295    12326    12101    11867    11866    11985    12019    11828 
   11680    11904    12243    12393    12409    12334    12233    12249 
   12318    12124    11731    11661    11935    12123    12104    11958 
   11916    12172    12436    12425    12275    12069    11875    11885 
   11905    11782    11832    11975    12002    12205    12409    12221 
   12036    12166    12266    12174    11985    11811    12002    12514 
   12583    12121    11967    12171    12044    11803    11973    12109 
   11813    11581    11828    12231    12306    12064    11955    12216 
   12523    12467    12197    12177    12347    12229    11907    11901 
   12170    12181    11916    11847    11974    12008    12090    12253 
   12262    12251    12209    11909    11820    12212    12422    12206 
   12036    12094    12185    12167    12086    12013    12063    12316 
   12433    12105    11747    11831    12083    12197    12260    12167 
   11909    11881    12009    11929    11873    12110    12307    12168 
   12031    12164    12241    12135    12102    12078    11962    12004 
   12148    12052    11886    12029    12263    12174    11978    12085 
   12249    12123    11993    12101    12167    12048    12028    12185 
   12177    12004    12029    12139    12017    11923    12121    12209 
   11997    12029    12374    12301    11751    11604    12050    12340 
   12252    12241    12359    12221    11992    12191    12518    12391 
   12109    12052    12029    11962    12040    12270    12337    12125 
   12023    12043    11807    11650    11916    12129    12073    12009 
   11996    12040    12174    12299    12282    11986    11691    12006 
   12607    12548    12002    11734    11786    11950    12160    12121 
   11847    11969    12355    12137    11655    11815    12251    12371 
   12344    12239    12051    12129    12421    12424    12133    11982 
   12051    12043    11870    11781    11859    11950    12143    12407 
   12299    11993    12071    12321    12356    12295    12213    12167 
   12243    12120    11678    11561    12046    12406    12225    11916 
   11847    12016    12171    12172    12201    12216    12113    12097 
   12054    11882    12013    12256    12109    12012    12199    12124 
   11840    11907    12278    12421    12206    12064    12108    11931 
   11664    11811    12143    12244    12187    11997    11763    11774 
   11973    12159    12295    12244    11969    11882    12205    12509 
   12418    12087    11892    11962    12043    12052    12096    12055 
   12002    12100    12256    12433    12484    12278    12063    11942 
   11908    12079    12152    11893    11767    11981    12162    12137 
   12013    11892    11898    12139    12407    12278    11923    11916 
   12220    12452    12476    12248    11905    11869    12185    12286 
   11932    11677    11880    12127    12167    12212    12264    12186 
   12071    12055    12085    12147    12330    12356    11967    11734 
   12063    12280    11983    11781    11943    12090    12181    12301 
   12218    12010    11983    12055    12139    12241    12259    12333 
   12426    12183    11877    11948    12181    12324    12318    12063 
   11727    11661    11944    12272    12255    11996    11961    12221 
   12376    12178    11885    11788    11834    11935    11981    11916 
   11952    12109    12253    12424    12410    12168    12210    12356 
   11935    11466    11696    12082    12025    11840    11882    12075 
   12253    12325    12237    12159    12270    12279    11935    11776 
   12189    12544    12414    12154    11993    12031    12280    12368 
   12167    11979    11924    12025    12194    12096    11877    12060 
   12383    12231    11867    11904    12216    12305    12155    12043 
   11921    11720    11722    11950    12150    12313    12411    12366 
   12330    12347    12206    11850    11658    11923    12199    12090 
   11861    11832    12043    12235    12220    12220    12222    12029 
   11886    12031    12321    12355    11958    11789    12091    12071 
   11826    12067    12349    12154    11881    11803    11830    12069 
   12426    12399    12077    12114    12451    12459    12078    11855 
   12002    12074    11888    11790    11862    11989    12141    12114 
   11927    11948    12158    12214    12112    12055    12051    12074 
   12253    12447    12258    11907    11934    12164    12345    12575 
   12530    12105    11894    11921    11816    11862    12121    12135 
   12060    12166    12152    12109    12313    12402    12190    12004 
   11916    11838    11797    11739    11745    12005    12314    12321 
   12164    12178    12287    12291    12175    11944    11870    12135 
   12075    11496    11353    11817    12071    12056    12293    12631 
   12622    12347    12136    12051    11944    11786    11709    11692 
   11665    11838    12260    12602    12671    12515    12337    12405 
   12471    12144    11832    11959    12163    12143    12016    11909 
   11977    12205    12324    12371    12494    12425    12079    11993 
   12275    12191    11654    11452    11631    11776    12010    12220 
   12071    12043    12387    12367    11920    11805    12016    12117 
   12150    12125    11915    11770    11963    12298    12503    12519 
   12340    12051    11923    12016    12104    12137    12205    12144 
   11931    11927    12116    12177    12248    12339    12106    11709 
   11607    11785    11813    11684    11898    12266    12282    12244 
   12426    12671    12868    12807    12530    12475    12511    12159 
   11715    11595    11587    11696    11893    11610    11171    11539 
   12305    12461    12028    11627    11665    11925    12017    12048 
   12177    12360    12495    12245    11886    12337    13170    13000 
   12141    11950    12241    12019    11556    11637    12158    12622 
   12609    12087    11747    11977    12270    12101    11600    11499 
   11940    12064    11867    12010    12054    11742    11862    12361 
   12476    12231    12029    12083    12252    12040    11662    11901 
   12417    12352    12035    12075    12260    12285    12113    11851 
   11766    11888    12029    12074    11901    11742    11909    12069 
   12098    12375    12680    12573    12301    12152    11961    11765 
   11785    11913    12050    12077    11882    11936    12434    12664 
   12494    12441    12436    12420    12542    12378    11716    11329 
   11784    12488    12619    12217    11851    11800    11807    11685 
   11645    11659    11553    11577    11853    12051    12239    12756 
   13192    12966    12459    12258    12158    11875    11747    11912 
   11892    11542    11288    11572    12393    12951    12692    12249 
   12205    12380    12536    12403    11881    11460    11472    11569 
   11462    11375    11793    12644    12865    12272    12274    13090 
   13304    12669    12162    11963    11785    11792    11809    11448 
   11338    11986    12494    12360    12266    12271    12029    11978 
   12332    12607    12590    12287    11704    11240    11306    11726 
   12110    12236    12222    12507    12872    12637    12075    11724 
   11450    11211    11095    11057    11275    11915    12718    13154 
   13089    13008    13047    12773    12225    11846    11700    11596 
   11526    11678    11911    11800    11533    11574    11758    11851 
   12052    12348    12395    12204    12229    12563    12707    12671 
   12768    12604    12155    12106    12391    12464    12360    12202 
   11871    11699    11934    11853    11283    11155    11583    11873 
   11853    11866    12262    12904    13333    13258    12725    12268 
   12168    12143    12112    11862    11357    11371    11765    11645 
   11375    11600    12123    12495    12440    12258    12232    12113 
   12050    12233    12259    12113    12006    11909    12128    12649 
   12711    12124    11547    11412    11529    11510    11182    11006 
   11546    12410    12947    13116    12964    12590    12290    12287 
   12440    12285    11882    11595    11259    11121    11784    12618 
   12645    12393    12799    13304    13024    12626    12637    12097 
   10979    10494    10446    10177    10485    11708    12883    13464 
   13581    13501    13406    13180    12675    11846    10967    10805 
   11504    12118    12229    12468    12966    13055    12591    12085 
   11847    11681    11186    10600    10582    10831    10793    10871 
   11465    12456    13451    13925    13763    13338    13271    13641 
   13327    12035    11074    10868    10820    10918    11260    11610 
   12112    12800    12965    12282    11538    11286    11133    10955 
   11287    12212    13014    13150    13007    13092    12999    12370 
   11816    11797    11873    11682    11676    12087    12237    11893 
   11886    12569    13012    12564    12143    12541    13082    13275 
   13263    12757    11823    11074    10473    10053    10354    11083 
   11711    12529    13293    13285    12954    12839    12465    11948 
   11947    12060    11835    11650    11487    11065    10716    10736 
   11144    11915    12684    13149    13535    13744    13343    12785 
   12621    12216    11439    11244    11470    11225    10677    10508 
   11009    11901    12596    13007    13219    13084    12901    12838 
   12555    12403    12845    13099    12505    11766    11479    11452 
   11592    11817    11935    11850    11396    10924    11271    12098 
   12366    12343    12583    12734    12807    12950    12746    12299 
   12082    12083    11938    11323    10940    11587    12217    11882 
   11611    12102    12530    12334    12001    12059    12224    12027 
   11934    12283    12307    11925    11870    11788    11315    11254 
   11740    12155    12579    12950    12892    12773    12837    12708 
   12357    12127    12175    12120    11522    10971    11128    11344 
   11232    11469    12063    12529    12947    13103    12650    12160 
   12085    11994    11847    12039    12322    12380    12258    11880 
   11547    11813    12399    12452    11830    11330    11421    11770 
   12205    12661    13001    13370    13509    13051    12413    11727 
   10991    10971    11618    11905    11545    11014    10763    10858 
   11303    12091    12718    12896    13003    13103    12904    12537 
   12326    12148    11963    12249    12888    13015    12507    12069 
   11889    11699    11535    11337    11061    11084    11403    11762 
   12164    12307    12102    12155    12537    12668    12533    12525 
   12657    12739    12656    12478    12364    12263    12058    11807 
   11685    11851    12187    12272    11938    11604    11524    11368 
   11124    11068    11126    11361    11858    12127    11985    12021 
   12364    12407    12183    12409    13057    13359    13190    12858 
   12395    12132    12252    12185    11657    11132    11186    11754 
   12121    12077    12102    12448    12783    12546    11877    11639 
   11961    12202    12262    12421    12502    12208    11874    12025 
   12533    12887    12776    12297    11884    11817    11854    11587 
   11263    11423    11805    12001    12182    12258    12033    11971 
   12324    12533    12270    11981    12059    12251    12217    12069 
   12012    12123    12163    11767    11367    11623    12141    12098 
   11556    11348    11691    11963    12199    12553    12433    12252 
   12907    13506    13032    12166    11809    11855    11719    11349 
   11323    11826    12437    12810    12908    12800    12479    12202 
   12199    11977    11422    11340    11842    12172    12044    11869 
   11990    12158    12074    12139    12576    12621    12032    11745 
   12016    12032    11727    11853    12159    11997    11986    12530 
   12787    12367    11855    11746    11909    11881    11583    11466 
   11751    12094    12086    11592    11082    11271    11923    12253 
   12081    11790    11920    12499    12900    12892    12833    12823 
   12698    12526    12341    11969    11691    11959    12320    12145 
   11728    11561    11676    11851    11915    12133    12730    13099 
   12683    11981    11738    11948    12132    12112    12058    12062 
   12031    11811    11534    11677    12210    12452    12371    12532 
   12677    12397    12155    12178    12190    12256    12341    12174 
   11889    11677    11496    11422    11462    11562    11742    11664 
   11250    11227    11793    12437    13043    13520    13478    12996 
   12588    12532    12569    12224    11670    11466    11325    10939 
   10829    11109    11391    11739    12418    13269    13764    13852 
   13851    13441    12410    11489    11144    11080    11145    11389 
   11587    11659    11931    12313    12422    12403    12387    12143 
   11743    11565    11820    12303    12623    12656    12456    12390 
   12779    13014    12722    12455    12283    11962    11632    11296 
   11022    11149    11446    11425    11388    11749    12270    12656 
   12760    12529    12221    12063    12001    12052    12144    12042 
   11896    11979    12199    12305    12152    11956    11966    11969 
   11940    12137    12325    12270    12222    12155    11858    11578 
   11661    11890    11834    11734    11998    12275    12347    12544 
   12704    12442    12112    12070    12013    11862    11867    11961 
   12077    12356    12631    12521    12218    12259    12445    12283 
   11997    11997    12141    12102    11901    11811    11830    11776 
   11734    11740    11585    11288    11180    11595    12295    12587 
   12602    12893    13062    12761    12496    12459    12351    12218 
   12145    11855    11477    11572    12004    12114    11781    11465 
   11535    11861    12145    12351    12518    12702    12826    12510 
   11850    11496    11373    11044    11014    11619    12147    12325 
   12503    12660    12741    12773    12619    12347    12171    12123 
   12089    11955    11815    11950    12268    12361    12253    12147 
   11923    11647    11537    11512    11574    11800    12141    12509 
   12486    12027    11966    12375    12436    12206    12205    12229 
   12059    11970    12117    12334    12487    12488    12198    11885 
   12025    12294    12290    12279    12316    12209    11975    11689 
   11557    11704    11836    11711    11618    11785    11882    11639 
   11481    11921    12399    12247    12195    12626    12657    12297 
   12337    12509    12262    12047    12191    12163    11850    11716 
   11807    12004    12301    12464    12301    11979    11874    12079 
   12133    11828    11781    12217    12542    12591    12588    12445 
   12185    12052    12042    12070    12081    11977    11896    11952 
