Origin Time       2024/04/02 04:24:00
Lat.              40.133
Long.             141.712
Depth. (km)       71
Mag.              6.0
Station Code      HKD076
Station Lat.      43.0509
Station Long.     144.8498
Station Height(m) 2
Record Time       2024/04/02 04:26:17
Sampling Freq(Hz) 100Hz
Duration Time(s)  60
Dir.              E-W
Scale Factor      7845(gal)/8223790
Max. Acc. (gal)   2.057
Last Correction   2024/04/02 04:26:18
Memo.             
     205      176      193      217      221      178       99       63 
      71       49       10        9       25       52      148      299 
     390      375      344      336      295      222      164      126 
     129      178      214      205      180      164      172      213 
     251      268      299      353      376      337      265      195 
     147      145      198      275      346      384      376      329 
     249      149       89      110      176      220      217      209 
     218      224      218      221      248      310      400      467 
     487      486      477      469      465      430      379      357 
     348      332      319      313      322      349      356      344 
     348      341      328      355      387      363      324      340 
     378      365      282      191      168      164      125       95 
     116      170      225      265      287      267      194      141 
     162      194      195      190      182      180      193      178 
     125       64       24       33       87      125      116      103 
     129      182      221      206      160      147      184      245 
     299      301      211      122      121      176      241      284 
     288      279      256      203      164      166      163      162 
     176      180      187      221      259      251      184      130 
     147      198      232      241      226      199      193      222 
     283      355      415      464      507      522      483      415 
     345      255      152       93       95      141      214      287 
     338      360      341      301      292      326      379      440 
     480      469      415      341      295      299      295      268 
     257      245      210      183      149       98       72       98 
     167      251      305      348      414      456      444      386 
     287      191      125       78       83      152      209      198 
     156      122      124      197      291      303      218      106 
      62      120      225      324      407      453      444      398 
     337      302      276      194      110      128      183      175 
     132      106      105      139      228      340      382      330 
     257      217      209      224      255      274      261      264 
     309      326      280      243      263      301      307      294 
     286      260      203      133       95      124      172      211 
     268      306      257      187      171      162      144      171 
     225      274      302      279      234      244      298      328 
     311      272      225      171      108       56       59      167 
     360      544      641      629      537      415      299      226 
     218      245      267      247      187      133       90       63 
     103      189      255      307      371      430      437      359 
     247      170      144      147      160      155      114       86 
     110      176      268      337      333      286      249      245 
     256      256      244      243      280      319      284      193 
     129      140      213      295      333      328      302      295 
     311      310      301      325      348      341      315      256 
     198      194      190      139      110      149      194      191 
     180      203      213      172      151      193      244      288 
     345      349      257      145       81       86      145      180 
     183      214      240      205      168      175      199      249 
     313      305      216      159      209      311      365      337 
     259      168      140      195      238      221      224      260 
     271      256      236      201      182      222      283      311 
     294      260      267      297      309      342      388      372 
     324      303      299      301      298      274      236      193 
     176      214      261      291      328      340      298      259 
     243      210      184      197      243      325      417      460 
     434      348      259      248      301      364      417      427 
     367      256      128       18      -10       59      171      257 
     282      244      217      265      299      259      221      206 
     183      180      205      225      229      232      245      216 
     121       71      147      265      306      251      183      129 
      59       25       91      178      191      167      164      156 
     143      172      217      232      249      295      353      407 
     407      333      261      265      317      369      407      415 
     367      283      232      201      156      147      195      241 
     263      274      265      253      248      234      220      225 
     236      240      256      276      276      264      272      276 
     233      167      156      210      274      306      307      294 
     255      209      217      253      263      264      276      271 
     214      125      106      199      305      357      372      359 
     321      257      203      211      233      233      263      287 
     229      155      141      168      218      287      330      315 
     272      275      344      399      383      349      341      314 
     234      156      114       91       87      105      137      162 
     164      162      166      162      159      195      274      337 
     341      314      292      245      175      187      297      395 
     434      426      359      260      180      139      163      248 
     321      326      279      210      149      148      222      336 
     433      463      423      361      301      252      230      193 
     110       33      -13      -36        6      106      203      292 
     363      372      322      260      194      105       37       60 
     147      228      294      329      288      211      189      234 
     306      364      402      411      363      259      163      103 
      85      139      236      313      356      352      271      162 
     121      175      249      307      383      467      503      461 
     359      255      202      214      244      243      236      259 
     256      201      178      210      249      306      364      375 
     382      407      402      359      278      168      133      189 
     225      263      360      436      422      336      248      211 
     193      160      125       99      129      228      309      330 
     297      197      101       91      113       93       78      143 
     255      344      386      359      295      279      307      334 
     353      353      326      297      243      128       22       35 
     129      178      149      110       87       62       47      102 
     207      278      326      383      391      313      216      167 
     153      151      171      220      267      301      328      334 
     324      326      332      324      306      261      193      159 
     180      210      206      170      141      149      164      186 
     234      301      352      364      330      257      170      135 
     221      372      477      503      448      337      233      191 
     210      230      206      189      244      329      341      275 
     186      108       93      139      156      114       81      101 
     176      270      311      321      379      454      450      375 
     321      302      271      210      128       54       52      124 
     218      283      271      210      205      243      211      135 
     139      220      259      244      243      263      302      388 
     453      409      326      295      290      295      333      365 
     355      315      257      191      157      210      322      405 
     409      328      205      140      176      249      268      206 
     118       66       63      106      178      243      270      268 
     255      190       55      -14       97      271      351      338 
     297      279      303      342      378      379      333      282 
     207       91       36       81      148      233      326      361 
     329      261      190      155      152      143      114       98 
     130      194      230      221      206      195      184      209 
     286      363      398      380      287      170      132      193 
     292      368      394      403      441      464      434      376 
     288      174       87       48       82      218      367      421 
     391      328      261      197      151      179      272      333 
     344      348      344      332      318      314      326      325 
     309      294      257      202      187      201      164       93 
      71      124      199      257      276      249      222      207 
     174      132      128      151      168      176      195      260 
     364      465      544      548      461      360      259      128 
      29      -16      -54      -63       -4       90      195      306 
     396      459      484      445      359      276      232      186 
      89       43      109      112       10       -8      130      334 
     488      498      373      222      124      105      162      253 
     341      405      429      382      272      149       44       -8 
       2       47      151      314      417      383      294      230 
     184      164      190      198      148      140      202      233 
     253      348      436      423      426      538      668      723 
     692      567      355      116      -45      -78      -45        4 
     141      361      541      639      692      677      550      318 
      68      -76     -120     -151     -130        8      176      314 
     445      517      468      352      255      207      156       44 
     -68      -70       43      190      342      479      537      513 
     457      367      176     -109     -338     -395     -309      -99 
     197      415      502      564      587      499      382      315 
     302      329      326      206       36      -24       93      303 
     459      506      472      346      124     -124     -288     -294 
    -174        6      267      606      868      908      773      591 
     384      160      -18     -153     -279     -338     -302     -226 
    -155      -37      202      507      730      858      907      742 
     325     -149     -454     -494     -329      -66      211      368 
     392      475      673      842      905      850      641      336 
      67      -93     -117       -8      163      337      473      503 
     413      302      268      290      257      140       58      109 
     241      379      529      652      700      711      695      642 
     572      430      171     -118     -310     -305     -114      109 
     248      340      495      711      842      778      560      245 
    -132     -396     -363     -147       62      253      481      803 
    1169     1367     1263      942      546      152     -206     -522 
    -772     -808     -471      113      579      719      550      141 
    -341     -669     -749     -623     -309      139      541      765 
     797      634      355      147       91      122      197      328 
     440      371      148        0        2       35       54       70 
      43       37      199      477      629      486      118     -218 
    -357     -344     -279     -167       32      340      684      845 
     645      178     -263     -432     -270       44      295      448 
     610      859     1116     1196     1000      576       29     -484 
    -783     -778     -503      -32      449      724      783      745 
     637      518      538      660      662      433       12     -440 
    -691     -615     -278      184      664     1096     1414     1575 
    1595     1435     1078      777      733      812      803      533 
     -31     -591     -793     -642     -410     -315     -321     -251 
     -40      297      745     1162     1318     1138      837      656 
     526      267      -79     -357     -533     -587     -414      -40 
     313      494      510      433      324      190       18      -97 
     -90      -58      -28       66      128       75       20       17 
      43      125      180       85      -33       33      310      637 
     760      619      445      432      577      751      784      646 
     479      340      128     -187     -468     -518     -255      183 
     552      727      814      989     1179     1016      286     -687 
   -1298    -1233     -657       25      399      222     -426    -1201 
   -1692    -1671    -1148     -311      533     1031      946      355 
    -324     -618     -292      587     1671     2398     2371     1588 
     364     -801    -1460    -1502    -1059     -230      827     1715 
    1985     1489      517     -388     -859     -938     -857     -718 
    -479      -97      360      799     1212     1553     1763     1930 
    2118     2172     1927     1412      805      338      149      151 
      87     -164     -469     -569     -342       93      538      896 
    1150     1255     1048      414     -475    -1305    -1787    -1678 
    -981     -103      491      711      741      753      781      745 
     579      313       87       91      318      556      673      737 
     857     1069     1306     1416     1233      738      101     -446 
    -761     -859     -820     -645     -336       59      513      955 
    1235     1246     1001      569       76     -272     -361     -272 
    -105      112      229      124       33      194      454      573 
     409      -39     -491     -664     -631     -642     -831    -1127 
   -1310    -1228     -932     -618     -503     -614     -630     -232 
     463     1005     1019      508      -55     -102      463     1254 
    1806     1868     1514      984      450       12     -315     -584 
    -754     -711     -473     -193       36      233      403      471 
     417      382      550      955     1389     1537     1244      665 
     157      -43       -2      125      278      444      562      523 
     252     -157     -507     -515       85     1161     2100     2401 
    2074     1433      807      384      174       44     -159     -394 
    -399      -45      491      900      993      911      936     1070 
    1070      762      167     -486     -849     -742     -263      357 
     838      954      751      568      723     1174     1533     1456 
     864      -82    -1008    -1561    -1695    -1580    -1360    -1124 
    -900     -679     -553     -579     -584     -365      116      746 
    1290     1575     1642     1522     1139      579       51     -287 
    -270      176      816     1282     1278      722      -75     -660 
    -853     -661     -155      448      827      762      295     -322 
    -810    -1001     -927     -723     -434      -64      319      650 
     876      939      761      328     -221     -729    -1116    -1267 
   -1085     -587      116      758     1031      889      564      276 
      70     -102     -175      -56      153      305      355      295 
     186      137      149      180      260      413      623      845 
    1028     1140     1197     1282     1444     1549     1429     1128 
     818      641      630      677      661      523      213     -271 
    -729     -920     -893     -810     -641     -287      236      803 
    1177     1129      693      116     -367     -572     -346      301 
    1050     1470     1432     1077      535      -16     -329     -307 
     -37      355      716      873      761      453      112      -75 
     -71      -22      -33      -35      141      591     1120     1329 
    1108      849      953     1332     1516     1167      429     -272 
    -703     -909     -984    -1024    -1138    -1232    -1028     -514 
     -25      297      631     1021     1282     1285     1015      569 
     178      -21     -130     -282     -461     -565     -527     -414 
    -395     -573     -889    -1189    -1302    -1131     -737     -244 
     236      562      576      253     -180     -406     -363     -247 
    -226     -297     -265       78      680     1219     1475     1528 
    1517     1437     1242      945      565      113     -325     -580 
    -484       31      847     1645     2115     2191     2000     1644 
    1193      766      398       52     -259     -519     -668     -622 
    -477     -356     -167      137      494      892     1231     1286 
    1040      702      422      261      218      253      328      398 
     423      310       24     -216     -241     -249     -352     -328 
     -27      456      938     1236     1320     1348     1413     1378 
    1065      514       -2     -187       10      322      422      213 
    -118     -322     -326     -232     -160     -153     -179     -278 
    -576    -1061    -1553    -1827    -1665    -1043     -261      302 
     546      633      695      684      548      409      383      367 
     201      -74     -318     -419     -326      -95      153      351 
     450      445      460      583      692      664      557      481 
     432      361      322      481      903     1399     1692     1614 
    1224      751      360       82     -122     -352     -595     -662 
    -471     -205      -87     -113     -178     -267     -440     -711 
    -903     -715      -94      618     1066     1150      931      541 
     163      -56     -129     -207     -314     -256       74      495 
     718      614      325      155      257      540      843     1051 
    1150     1316     1668     1999     1971     1480      738      144 
     -16      159      310      228       74       86      213      211 
     -13     -253     -194      195      600      739      665      572 
     507      456      471      522      500      383      180      -99 
    -356     -452     -395     -325     -375     -591     -911    -1150 
   -1116     -877     -642     -394      -48      238      356      459 
     639      815      965     1124     1200     1080      880      784 
     770      714      525      230       45       90      102     -176 
    -580     -803     -751     -515     -324     -380     -554     -544 
    -318      -31      287      598      765      799      835      816 
     535      -28     -641    -1027    -1062     -788     -345      125 
     552      881     1030      989      868      769      712      681 
     668      656      642      646      681      707      697      689 
     660      499      190     -139     -321     -226      112      513 
     878     1167     1200      888      427       60      -90       28 
     351      676      818      764      635      490      309      118 
     -68     -229     -256     -167     -132     -159     -106       37 
      99      -63     -302     -303        2      441      877     1186 
    1248     1132     1012      909      716      379      -10     -278 
    -341     -271      -97      157      326      305      191       49 
     -97     -159     -116      -37       49      151      209      205 
     201      209      152       14      -90     -124     -144     -162 
    -214     -353     -472     -446     -302      -89      217      567 
