Origin Time       2024/04/02 04:24:00
Lat.              40.133
Long.             141.712
Depth. (km)       71
Mag.              6.0
Station Code      HKD084
Station Lat.      43.1141
Station Long.     144.1230
Station Height(m) 30
Record Time       2024/04/02 04:26:12
Sampling Freq(Hz) 100Hz
Duration Time(s)  60
Dir.              E-W
Scale Factor      3920(gal)/6182761
Max. Acc. (gal)   2.771
Last Correction   2024/04/02 04:26:12
Memo.             
[...]
    9939    10025     9982     9948     9944     9977    10093    10169 
   10162    10275    10464    10428    10140     9817     9579     9424 
    9366     9429     9506     9479     9430     9454     9494     9539 
    9672     9832     9889     9870     9783     9613     9491     9494 
    9562     9628     9621     9536     9477     9487     9552     9699 
    9923    10124    10159     9996     9770     9584     9402     9224 
    9176     9294     9459     9593     9661     9655     9609     9505 
    9366     9318     9383     9476     9569     9629     9665     9759 
    9840     9782     9664     9614     9651     9736     9855    10019 
   10127    10065     9878     9701     9629     9650     9721     9829 
    9884     9815     9703     9613     9526     9449     9357     9221 
    9158     9251     9389     9502     9625     9710     9670     9562 
    9505     9500     9498     9501     9510     9532     9617     9788 
   10001    10163    10201    10153    10138    10163    10126    10044 
    9967     9847     9760     9802     9864     9877     9909     9909 
    9788     9630     9544     9521     9451     9288     9210     9328 
    9476     9606     9801     9944     9938     9925     9993    10051 
   10001     9833     9611     9381     9178     9088     9127     9189 
    9207     9198     9223     9387     9644     9775     9724     9583 
    9342     9078     9028     9191     9356     9525     9792    10030 
   10073     9909     9609     9304     9193     9325     9546     9798 
   10037    10059     9822     9551     9409     9408     9478     9534 
    9584     9673     9758     9775     9713     9637     9643     9713 
    9799     9924    10047    10084    10072    10081    10073     9976 
    9864     9869     9903     9863     9803     9680     9535     9559 
    9608     9448     9324     9471     9656     9740     9802     9774 
    9669     9662     9787     9957    10052    10023     9958     9845 
    9628     9392     9208     9096     9133     9293     9424     9488 
    9513     9444     9348     9375     9386     9209     9057     9161 
    9382     9459     9376     9334     9459     9637     9672     9581 
    9492     9386     9332     9518     9853    10100    10241    10350 
   10411    10386    10274    10117     9911     9639     9409     9375 
    9629    10035    10252    10219    10085     9817     9482     9313 
    9273     9243     9359     9643     9758     9575     9413     9423 
    9500     9675     9889     9927     9823     9699     9545     9391 
    9285     9204     9121     9089     9201     9442     9676     9808 
    9789     9555     9207     9049     9205     9572    10016    10325 
   10330    10085     9817     9789    10000    10160    10100     9901 
    9635     9293     9048     9133     9323     9343     9393     9564 
    9672     9776     9925     9929     9788     9760     9904     9959 
    9856     9856     9975     9920     9658     9468     9490     9622 
    9742     9763     9590     9332     9269     9403     9554     9673 
    9692     9581     9458     9379     9346     9430     9621     9783 
    9852     9847     9800     9881    10098    10131     9964     9834 
    9664     9507     9643     9863     9830     9716     9658     9466 
    9243     9361     9688     9857     9944     9952     9660     9249 
    8980     8780     8657     8750     8998     9272     9571     9818 
    9819     9663     9653     9763     9729     9645     9781     9970 
   10029    10213    10537    10615    10439    10278    10085     9848 
    9864    10082    10092     9924     9846     9754     9468     9103 
    8867     8833     8862     8781     8675     8768     9064     9355 
    9439     9324     9229     9286     9442     9561     9548     9590 
    9978    10564    10934    10910    10685    10583    10643    10612 
   10341     9932     9594     9408     9305     9195     8957     8652 
    8553     8625     8678     8856     9176     9402     9536     9583 
    9493     9490     9733    10074    10359    10485    10312     9973 
    9848     9875     9743     9578     9567     9702     9925     9960 
    9664     9313     9076     8961     9078     9340     9445     9466 
    9713    10020    10038     9883     9753     9659     9729     9990 
   10152    10071    10002    10120    10184    10020     9780     9576 
    9465     9423     9291     9122     9131     9290     9358     9216 
    9038     8996     9090     9362     9750     9989    10036    10109 
   10254    10287    10142     9960     9760     9507     9435     9588 
    9664     9656     9702     9728     9719     9693     9611     9545 
    9536     9536     9604     9799     9924     9767     9544     9539 
    9543     9442     9518     9660     9593     9637     9982    10233 
   10202    10004     9659     9365     9444     9789    10040    10134 
   10100     9864     9557     9346     9141     8972     9067     9377 
    9679     9928    10105    10112     9924     9665     9546     9596 
    9579     9425     9377     9473     9479     9445     9557     9632 
    9538     9536     9767    10066    10272    10289    10065     9660 
    9255     9185     9519     9787     9736     9604     9472     9313 
    9274     9323     9196     9001     9126     9409     9484     9506 
    9621     9741     9940    10266    10486    10316     9910     9663 
    9594     9651     9815     9765     9459     9265     9320     9517 
    9833    10295    10589    10394    10127    10139    10036     9741 
    9593     9471     9189     9023     9178     9359     9399     9511 
    9576     9443     9392     9387     9261     9288     9475     9540 
    9588     9812     9993     9791     9376     9135     9096     9236 
    9529     9765     9839     9725     9544     9514     9485     9314 
    9299     9558     9772     9790     9861    10019     9916     9575 
    9407     9514     9746    10003    10199    10264    10170    10014 
    9875     9661     9456     9417     9432     9462     9608     9699 
    9526     9281     9219     9301     9444     9611     9758     9916 
    9981     9821     9706     9817     9875     9806     9788     9837 
    9932    10010     9993     9956     9874     9659     9456     9443 
    9544     9614     9753    10065    10283    10163     9862     9533 
    9218     9048     9082     9269     9459     9432     9223     9077 
    9098     9272     9596     9945    10067     9936     9773     9706 
    9729     9676     9482     9409     9492     9565     9752    10005 
    9978     9667     9341     9175     9238     9426     9513     9544 
    9762     9951     9769     9423     9098     8849     8955     9336 
    9616     9753     9858     9938     9937     9907     9983    10061 
   10004     9949    10027    10131    10061     9858     9654     9352 
    9053     9017     9193     9565    10061    10328    10281    10047 
    9627     9224     9156     9375     9647     9912    10228    10547 
   10588    10211     9809     9715     9821    10035    10217    10124 
    9818     9465     9102     8822     8760     8968     9211     9255 
    9224     9158     9018     8955     8935     8918     9108     9377 
    9399     9321     9309     9236     9233     9535     9985    10345 
   10587    10688    10564    10265     9974     9771     9605     9556 
    9769    10100    10277    10205     9910     9584     9493     9640 
    9808     9989    10372    10791    10831    10462     9911     9341 
    8922     8767     8804     8886     9023     9325     9655     9731 
    9601     9554     9688    10033    10598    11067    11084    10677 
   10039     9364     8849     8550     8428     8515     8819     9164 
    9369     9593     9944    10121    10004     9754     9455     9329 
    9431     9455     9342     9292     9407     9638     9843     9987 
   10063    10026     9938     9812     9626     9541     9663     9826 
    9864     9772     9502     9166     9095     9134     8916     8691 
    8673     8634     8512     8450     8593     9043     9688    10277 
   10655    10882    11022    10992    10759    10311     9676     9196 
    9153     9314     9484     9738     9769     9363     9187     9772 
   10688    11437    11778    11326    10092     8832     8201     8257 
    8694     9073     9236     9376     9504     9501     9491     9517 
    9489     9513     9692     9898     9932     9738     9498     9347 
    9159     8874     8670     8670     8839     9055     9192     9331 
    9511     9523     9417     9469     9779    10301    10781    10861 
   10449     9717     9008     8725     8890     9081     9106     9170 
    9359     9577     9917    10528    11138    11338    11321    11465 
   11533    11193    10613    10118     9958    10145    10278     9921 
    9167     8502     8167     8233     8815     9488     9646     9403 
    9114     8995     9299     9913    10346    10364    10080     9692 
    9417     9293     9065     8649     8449     8804     9504    10204 
   10744    11060    11177    11028    10614    10306    10224     9992 
    9452     8852     8617     8890     9157     8951     8458     8024 
    8039     8936    10456    11690    12086    11655    10575     9304 
    8501     8341     8468     8594     8654     8728     9025     9614 
   10136    10066     9457     9098     9610    10734    11706    11995 
   11417    10125     8817     8207     8306     8712     9184     9638 
    9940    10089    10251    10360    10232    10005     9886     9826 
    9798     9849     9871     9718     9484     9353     9282     9158 
    8974     8750     8640     8875     9525    10462    11413    11898 
   11426    10189     9046     8552     8574     8677     8642     8673 
    8902     9048     8980     8942     9105     9531    10213    10884 
   11199    10960    10138     8990     7971     7380     7238     7426 
    7861     8557     9411    10124    10535    10756    10815    10675 
   10532    10520    10526    10608    10827    10940    10770    10557 
   10504    10151     9259     8678     9066     9922    10430    10254 
    9441     8272     7472     7635     8498     9544    10433    10743 
   10545    10690    11382    11590    10848     9964     9451     9090 
    9020     9536    10184    10571    11007    11240    10592     9449 
    8525     7830     7435     7415     7322     7169     7607     8564 
    9336     9702     9860     9926     9898     9823     9984    10567 
   11079    10885    10132     9344     8706     8306     8324     8774 
    9376     9772     9936    10123    10349    10363    10130     9850 
    9650     9671    10061    10705    11253    11387    11100    10739 
   10551    10361    10015     9672     9406     9142     8937     8878 
    9000     9348     9872    10245     9960     8945     7924     7711 
    8276     8918     9294     9596     9778     9652     9562     9957 
   10757    11552    11809    11226    10296     9635     9103     8458 
    7942     7817     8276     9434    10776    11380    10940     9987 
    9113     8399     7846     7707     8029     8498     8972     9576 
   10102    10209     9998     9538     8854     8387     8513     9164 
    9830     9950     9641     9323     9195     9402     9768     9945 
   10098    10536    11125    11613    11862    11791    11466    11091 
   10829    10713    10815    11239    11685    11779    11518    10752 
    9419     8040     7009     6359     6231     6697     7601     8770 
    9779    10027     9525     8931     8787     9259    10110    10821 
   11110    10881     9970     8672     7784     7853     8894    10496 
   11952    12671    12421    11350     9957     8563     7086     5845 
    5520     6168     7429     9034    10488    11288    11377    10924 
   10159     9496     9425    10182    11478    12472    12433    11459 
   10194     9198     8753     8735     8907     9294     9900    10474 
   10744    10597    10200     9900     9844     9687     8946     7853 
    7221     7263     7565     7871     8079     8235     8630     9360 
   10282    11270    12021    11997    11134    10219     9935    10104 
   10147     9771     9164     8672     8552     8850     9150     9057 
    8834     8930     9451    10264    10956    10915    10052     9191 
    9099     9676    10501    11185    11311    10795     9939     9170 
    8840     9029     9415     9456     9101     8872     9002     9224 
    9245     9206     9559    10208    10619    10690    10562    10238 
    9766     9324     9193     9407     9667     9842     9878     9702 
    9608     9783     9791     9335     8862     8936     9428     9743 
    9664     9556     9883    10604    11053    10703     9851     9192 
    8987     9028     9240     9609     9868     9891     9651     9043 
    8449     8272     8145     7770     7497     7726     8479     9470 
   10274    10458    10115    10162    11044    11852    11693    10697 
    9515     8800     8835     9372    10061    10783    11368    11357 
   10458     8943     7357     6346     6565     7952     9713    11355 
   12568    12637    11371     9850     9239     9515     9998    10342 
   10378     9955     9405     9220     9279     9123     8640     8130 
    8074     8681     9518     9953     9791     9403     9326     9631 
   10061    10427    10468    10108     9696     9610    10061    10946 
   11821    12233    11907    11029    10116     9351     8782     8562 
    8598     8732     8889     9020     9153     9000     8185     7010 
    6105     5883     6753     8805    11215    13003    13956    14020 
   13115    11796    10599     9496     8700     8603     8925     9033 
    8806     8573     8644     9255    10315    11321    11879    11918 
   11521    10838    10027     9198     8317     7458     7165     7851 
    9071    10027    10289     9843     9144     8922     9406    10096 
   10365     9938     8967     7953     7435     7550     8066     8741 
    9425    10076    10630    10898    10792    10377     9779     9270 
    9139     9373     9733    10298    11187    11864    11833    11266 
   10346     9197     8181     7541     7264     7338     7844     8738 
    9689    10292    10485    10627    10901    11056    11027    11040 
   11185    11312    11032    10214     9384     9020     9018     9107 
    9162     9103     8933     8749     8591     8511     8658     9049 
    9481     9704     9661     9565     9555     9517     9436     9491 
    9797    10290    10745    10918    10691    10117     9528     9326 
    9499     9643     9510     9383     9583     9954    10303    10559 
   10499    10202    10014     9850     9538     9225     8948     8680 
    8702     9147     9541     9456     9140     8972     9064     9523 
   10181    10472    10131     9599     9507     9832     9971     9616 
    8790     7684     6821     6514     6767     7799     9479    10970 
   11679    11690    11346    10949    10658    10453    10233     9963 
    9696     9455     9244     9104     8996     8938     9243     9997 
   10791    11260    11089    10058     8586     7465     7243     7963 
    9284    10695    11358    10775     9656     8897     8807     9620 
   11081    12265    12690    12490    11707    10490     9505     9217 
    9295     9419     9591     9614     9397     9146     8932     8787 
    8912     9391     9949    10141     9800     9232     8796     8419 
    8002     7883     8311     9079     9834    10164     9852     9174 
    8442     7820     7631     8065     9033    10414    11778    12357 
   11862    10722     9552     8839     8755     9042     9301     9396 
    9614    10229    10919    11122    10747    10082     9476     9083 
    8733     8428     8582     9272     9984    10351    10379    10111 
    9772     9728     9914    10015     9940     9707     9455     9479 
    9836    10162    10015     9337     8588     8388     8833     9384 
    9666     9841    10078    10447    11046    11611    11729    11421 
   10790     9884     9113     8832     8897     8971     8609     7668 
    6998     7570     9128    10613    11282    11089    10602    10496 
   10829    11074    10828    10061     8960     8029     7834     8342 
    8995     9353     9349     9155     9061     9358     9979    10357 
   10105     9453     8780     8462     8878     9813    10567    10857 
   10926    10978    10987    10866    10532     9988     9376     8752 
    8157     7959     8400     9209    10000    10513    10688    10701 
   10616    10352     9972     9588     9166     8650     8068     7499 
    7191     7501     8398     9433    10212    10456    10178     9913 
   10105    10653    11168    11262    10907    10306     9500     8668 
    8148     7991     8156     8683     9460    10260    10887    11160 
   10898    10135     9299     8894     9158     9965    10743    10815 
   10012     8887     8346     8760     9713    10597    10875    10381 
    9585     8898     8327     7992     7962     7982     8078     8619 
    9560    10489    11242    11781    12014    12073    12123    11963 
   11390    10537     9568     8633     8016     7972     8496     9176 
    9620     9801     9641     9185     8828     8627     8419     8390 
    8659     9010     9248     9397     9582     9876    10303    10839 
   11272    11337    10935    10096     9151     8611     8556     8755 
    9118     9480     9579     9385     9292     9855    10859    11409 
   11342    11205    11133    10901    10411     9792     9367     9380 
    9734    10008     9998    10040    10172     9963     9499     9073 
    8432     7579     7028     6857     6732     6630     6846     7560 
    8666     9929    11014    11653    11942    12013    11768    11180 
   10399     9604     8929     8625     8931     9454     9488     9049 
    8722     8810     9142     9315     9047     8568     8391     8580 
    8805     9099     9714    10507    11220    11875    12321    12197 
   11594    10932    10485    10406    10563    10545    10173     9615 
    9023     8391     7809     7577     7809     8275     8710     8984 
    9200     9605    10130    10490    10573    10457    10407    10600 
   10768    10611    10273    10086    10184    10516    10895    10925 
   10330     9355     8534     8232     8426     8829     9254     9541 
    9468     9114     8748     8592     8915     9704    10488    10933 
   11130    11185    10895    10067     8973     8132     7749     7798 
    8233     8845     9419     9949    10324    10327    10041     9691 
    9346     9190     9572    10394    11031    11147    10989    10770 
   10484    10216    10106    10157    10323    10551    10721    10770 
   10683    10361     9787     9114     8577     8451     8820     9409 
    9754     9465     8598     7687     7333     7749     8634     9661 
   10636    11163    11111    10884    10552     9897     9217     8823 
    8634     8829     9619    10461    10611    10119     9570     9235 
    9017     8917     9042     9264     9292     9027     8565     8034 
    7539     7165     7130     7669     8637     9714    10826    11827 
   12253    11814    10837     9988     9664     9774    10045    10295 
   10464    10624    10904    11279    11566    11701    11732    11597 
   11312    10954    10367     9407     8211     7147     6661     6870 
    7470     8100     8473     8488     8448     8716     9151     9421 
