Origin Time       2024/04/02 04:24:00
Lat.              40.133
Long.             141.712
Depth. (km)       71
Mag.              6.0
Station Code      HKD072
Station Lat.      43.1948
Station Long.     145.5209
Station Height(m) 46
Record Time       2024/04/02 04:26:25
Sampling Freq(Hz) 100Hz
Duration Time(s)  60
Dir.              N-S
Scale Factor      3920(gal)/6182761
Max. Acc. (gal)   3.823
Last Correction   2024/04/02 04:26:25
Memo.             
[...]
   13897    13934    13928    13900    13845    13750    13626    13485 
   13333    13201    13133    13113    13099    13079    13059    13043 
   13062    13159    13323    13492    13619    13711    13785    13838 
   13878    13898    13866    13764    13625    13489    13374    13288 
   13226    13178    13151    13170    13221    13281    13365    13475 
   13568    13623    13662    13684    13684    13670    13649    13634 
   13635    13646    13649    13622    13537    13420    13329    13274 
   13225    13167    13121    13125    13184    13267    13343    13405 
   13465    13547    13652    13746    13801    13817    13797    13743 
   13669    13584    13502    13438    13382    13308    13216    13135 
   13096    13120    13202    13288    13337    13387    13491    13624 
   13760    13883    13957    13974    13961    13925    13836    13657 
   13405    13170    13027    12980    13004    13057    13119    13185 
   13241    13292    13378    13515    13654    13735    13746    13728 
   13734    13784    13845    13865    13809    13669    13484    13328 
   13223    13146    13097    13074    13066    13084    13131    13192 
   13272    13391    13536    13677    13794    13882    13939    13960 
   13949    13898    13803    13668    13496    13317    13173    13089 
   13064    13094    13150    13193    13225    13271    13342    13436 
   13545    13646    13722    13787    13855    13927    13975    13954 
   13851    13696    13537    13400    13301    13237    13192    13148 
   13096    13031    12979    12996    13090    13205    13309    13427 
   13564    13697    13826    13952    14040    14062    14021    13916 
   13740    13509    13261    13055    12942    12937    13007    13098 
   13184    13275    13367    13450    13524    13572    13610    13672 
   13729    13738    13712    13675    13630    13593    13577    13556 
   13488    13376    13281    13229    13198    13167    13156    13195 
   13269    13345    13420    13502    13581    13663    13755    13836 
   13879    13878    13850    13772    13625    13436    13260    13139 
   13099    13127    13170    13190    13193    13206    13239    13301 
   13384    13470    13569    13688    13798    13868    13883    13850 
   13806    13763    13686    13567    13430    13313    13249    13236 
   13248    13269    13283    13283    13297    13342    13384    13399 
   13408    13442    13478    13493    13526    13603    13682    13713 
   13683    13600    13502    13443    13428    13414    13394    13402 
   13442    13478    13488    13490    13494    13486    13462    13437 
   13439    13470    13516    13553    13555    13515    13474    13472 
   13487    13485    13479    13494    13517    13547    13599    13641 
   13647    13639    13610    13503    13340    13218    13183    13212 
   13259    13303    13360    13439    13534    13621    13664    13632 
   13552    13472    13426    13421    13453    13507    13544    13528 
   13461    13379    13335    13365    13434    13484    13502    13509 
   13522    13534    13530    13506    13461    13412    13382    13387 
   13418    13445    13452    13453    13460    13465    13475    13485 
   13469    13437    13435    13463    13495    13538    13585    13598 
   13566    13531    13530    13555    13582    13586    13550    13476 
   13414    13405    13420    13409    13367    13326    13309    13320 
   13340    13356    13381    13434    13512    13588    13643    13672 
   13664    13601    13506    13438    13418    13440    13477    13511 
   13531    13519    13481    13449    13419    13363    13291    13236 
   13227    13287    13404    13523    13590    13615    13649    13703 
   13732    13710    13651    13567    13455    13330    13247    13233 
   13263    13310    13333    13326    13332    13384    13460    13539 
   13596    13618    13620    13612    13592    13576    13587    13601 
   13593    13582    13567    13515    13427    13358    13336    13347 
   13395    13474    13537    13547    13515    13458    13379    13299 
   13273    13331    13431    13503    13521    13524    13551    13584 
   13596    13586    13569    13559    13556    13529    13457    13363 
   13277    13227    13217    13239    13299    13405    13536    13648 
   13719    13755    13771    13751    13704    13663    13630    13579 
   13516    13452    13379    13283    13166    13063    13011    13017 
   13082    13193    13327    13459    13595    13747    13866    13896 
   13857    13803    13739    13645    13539    13482    13495    13541 
   13567    13516    13379    13230    13139    13103    13100    13127 
   13188    13283    13382    13470    13560    13640    13688    13709 
   13726    13746    13760    13730    13645    13550    13490    13468 
   13474    13506    13532    13519    13478    13439    13409    13362 
   13262    13124    13037    13059    13171    13315    13436    13537 
   13647    13786    13918    13975    13956    13890    13776    13641 
   13534    13454    13389    13319    13205    13069    12978    12964 
   13021    13126    13225    13304    13404    13545    13714    13867 
   13947    13938    13891    13843    13777    13674    13543    13407 
   13285    13194    13142    13123    13120    13132    13173    13224 
   13288    13398    13525    13611    13659    13682    13675    13665 
   13684    13726    13748    13710    13623    13533    13461    13398 
   13347    13306    13260    13218    13215    13265    13341    13420 
   13483    13515    13540    13582    13622    13629    13611    13577 
   13526    13448    13344    13244    13181    13153    13136    13134 
   13173    13264    13400    13554    13679    13745    13785    13806 
   13797    13779    13772    13765    13727    13629    13480    13344 
   13274    13248    13218    13168    13119    13096    13133    13223 
   13333    13469    13638    13812    13947    14002    13979    13916 
   13814    13672    13542    13433    13322    13226    13167    13125 
   13090    13092    13163    13278    13383    13480    13570    13623 
   13653    13693    13724    13708    13669    13645    13632    13619 
   13597    13556    13498    13444    13397    13359    13303    13193 
   13071    13024    13083    13210    13350    13479    13609    13722 
   13771    13770    13768    13758    13723    13688    13653    13593 
   13509    13416    13327    13254    13210    13209    13225    13229 
   13244    13292    13349    13426    13534    13634    13698    13720 
   13695    13641    13592    13568    13567    13563    13531    13469 
   13389    13319    13275    13245    13230    13259    13342    13464 
   13600    13689    13697    13658    13608    13534    13441    13389 
   13392    13410    13417    13417    13396    13350    13304    13285 
   13295    13321    13375    13465    13563    13625    13630    13596 
   13576    13605    13641    13623    13555    13470    13403    13381 
   13403    13444    13491    13566    13662    13723    13709    13650 
   13572    13460    13323    13217    13173    13178    13223    13276 
   13296    13273    13257    13308    13415    13543    13694    13864 
   14004    14077    14057    13928    13726    13518    13357    13255 
   13212    13232    13279    13294    13277    13245    13171    13079 
   13059    13140    13273    13428    13597    13725    13773    13757 
   13739    13759    13799    13820    13792    13726    13649    13567 
   13439    13252    13060    12918    12845    12833    12887    13009 
   13188    13395    13609    13829    14039    14188    14225    14137 
   13961    13781    13641    13517    13405    13304    13182    13028 
   12875    12792    12834    12962    13117    13292    13459    13591 
   13706    13808    13884    13937    13965    13947    13878    13774 
   13659    13548    13445    13371    13320    13248    13143    13055 
   13027    13077    13183    13308    13444    13583    13694    13745 
   13742    13734    13748    13766    13760    13716    13630    13514 
   13396    13303    13258    13255    13273    13298    13320    13330 
   13328    13330    13367    13457    13546    13570    13547    13539 
   13566    13614    13656    13650    13604    13569    13577    13613 
   13644    13646    13613    13535    13383    13193    13069    13039 
   13061    13104    13172    13273    13410    13564    13707    13818 
   13879    13873    13793    13682    13583    13492    13407    13354 
   13317    13249    13156    13088    13075    13114    13211    13353 
   13480    13565    13631    13691    13726    13719    13689    13668 
   13657    13649    13659    13656    13605    13529    13478    13463 
   13438    13370    13273    13180    13128    13130    13165    13244 
   13396    13564    13665    13703    13714    13696    13638    13557 
   13480    13435    13448    13506    13553    13560    13519    13434 
   13339    13256    13201    13201    13248    13318    13404    13486 
   13539    13571    13576    13546    13498    13447    13428    13465 
   13545    13637    13692    13638    13486    13367    13331    13314 
   13310    13367    13445    13479    13479    13470    13461    13463 
   13495    13552    13597    13594    13561    13525    13473    13396 
   13327    13288    13266    13265    13303    13358    13410    13469 
   13563    13695    13789    13781    13693    13559    13397    13273 
   13218    13219    13296    13434    13536    13523    13417    13307 
   13280    13342    13426    13502    13591    13688    13765    13801 
   13761    13630    13459    13295    13160    13060    12982    12925 
   12926    12991    13101    13272    13490    13708    13895    14034 
   14114    14154    14169    14136    14046    13891    13683    13454 
   13238    13075    12996    12981    12992    13042    13149    13274 
   13370    13430    13481    13542    13606    13676    13777    13905 
   14016    14069    14036    13919    13741    13528    13309    13144 
   13079    13095    13151    13210    13262    13311    13389    13533 
   13718    13894    14034    14131    14147    14060    13904    13729 
   13542    13326    13082    12826    12591    12453    12488    12665 
   12891    13121    13347    13573    13779    13955    14144    14343 
   14475    14523    14510    14387    14127    13784    13444    13154 
   12899    12680    12515    12409    12390    12482    12649    12820 
   12952    13057    13204    13456    13849    14352    14836    15163 
   15287    15225    14978    14529    13924    13282    12695    12237 
   11989    11960    12078    12260    12488    12785    13143    13550 
   13989    14371    14589    14639    14579    14494    14429    14317 
   14081    13706    13229    12749    12407    12273    12291    12383 
   12529    12750    13042    13370    13697    13985    14207    14370 
   14509    14615    14658    14649    14577    14386    14081    13735 
   13378    13008    12644    12316    12069    11938    11921    12029 
   12285    12620    12966    13335    13717    14094    14486    14854 
   15097    15186    15145    14957    14605    14160    13710    13281 
   12896    12562    12262    12005    11805    11663    11604    11692 
   11971    12417    12920    13359    13717    14030    14343    14713 
   15132    15499    15688    15577    15113    14372    13467    12513 
   11622    10883    10401    10289    10578    11164    11884    12584 
   13155    13561    13853    14118    14418    14790    15196    15543 
   15766    15858    15810    15592    15170    14528    13713    12855 
   12105    11558    11211    11045    11127    11522    12157    12864 
   13466    13845    14018    14084    14098    14067    14045    14109 
   14260    14417    14505    14539    14530    14410    14134    13789 
   13493    13256    12999    12642    12139    11549    11048    10798 
   10857    11227    11882    12739    13671    14600    15474    16172 
   16578    16670    16477    16045    15478    14884    14300    13750 
   13320    13061    12878    12613    12165    11536    10831    10267 
   10112    10520    11462    12754    14146    15420    16433    17097 
   17349    17189    16702    15997    15158    14281    13404    12481 
   11530    10632     9838     9227     8968     9230    10086    11411 
   12915    14373    15650    16638    17290    17642    17753    17634 
   17191    16322    15131    13837    12574    11451    10562     9892 
    9387     9083     9085     9506    10353    11507    12844    14228 
   15516    16627    17493    18041    18262    18152    17654    16774 
   15602    14251    12849    11545    10441     9564     8983     8849 
    9221     9981    10978    12101    13237    14283    15189    15961 
   16563    16899    16929    16657    16043    15100    13950    12743 
   11678    10959    10694    10898    11488    12273    13017    13558 
   13855    13945    13899    13804    13714    13671    13732    13928 
   14230    14525    14648    14505    14067    13377    12590    11899 
   11462    11390    11684    12256    13050    13975    14831    15460 
   15845    15995    15897    15547    14918    14030    13012    12012 
   11121    10419    10003     9945    10292    11074    12227    13552 
   14834    15903    16615    16874    16691    16207    15551    14821 
   14175    13652    13102    12440    11718    11004    10415    10077 
   10008    10147    10478    11131    12289    13922    15751    17457 
   18779    19503    19494    18733    17350    15548    13520    11479 
    9678     8331     7627     7687     8430     9639    11088    12580 
   13936    15009    15787    16396    16914    17261    17343    17152 
   16682    15908    14854    13576    12116    10583     9205     8230 
    7831     8138     9191    10807    12657    14467    16105    17486 
   18465    18880    18690    18027    17052    15819    14372    12865 
   11499    10373     9475     8804     8473     8611     9252    10341 
   11773    13407    15045    16471    17524    18148    18357    18203 
   17768    17065    16032    14651    13025    11408    10121     9309 
    8909     8878     9253    10005    11071    12430    13953    15375 
   16521    17346    17793    17772    17246    16300    15117    13882 
   12738    11815    11125    10555    10074     9770     9701     9934 
   10615    11768    13189    14612    15838    16729    17241    17451 
   17410    17068    16400    15434    14170    12681    11195     9990 
    9284     9158     9515    10167    10974    11869    12822    13833 
   14881    15889    16754    17406    17781    17780    17332    16432 
   15123    13582    12098    10854     9946     9512     9604    10140 
   11005    12044    13081    14015    14773    15280    15544    15615 
   15529    15314    14978    14518    13949    13293    12561    11761 
   10983    10476    10477    10966    11751    12713    13777    14790 
   15639    16253    16534    16448    16041    15371    14550    13779 
   13230    12901    12634    12308    11930    11567    11314    11245 
   11352    11599    12003    12542    13112    13660    14204    14755 
   15270    15669    15886    15878    15643    15260    14827    14351 
   13793    13138    12387    11593    10895    10464    10384    10611 
   11020    11481    11924    12397    13007    13777    14634    15495 
   16283    16873    17097    16832    16096    15066    13993    13092 
   12455    12035    11762    11604    11529    11523    11645    11911 
   12251    12649    13168    13827    14546    15215    15713    15924 
   15801    15416    14876    14267    13691    13249    12941    12677 
   12418    12247    12213    12257    12318    12410    12556    12750 
   12954    13116    13230    13316    13398    13527    13761    14074 
   14347    14483    14496    14478    14474    14440    14342    14227 
   14127    13942    13524    12844    12067    11428    11069    11031 
   11352    11984    12729    13445    14110    14680    15102    15353 
   15425    15319    15078    14782    14504    14254    14017    13796 
   13529    13147    12680    12231    11891    11727    11774    12022 
   12451    13012    13624    14188    14587    14735    14679    14562 
   14496    14508    14503    14333    13940    13368    12728    12147 
   11696    11386    11260    11394    11814    12489    13313    14089 
   14654    14991    15134    15110    14958    14688    14305    13885 
   13561    13385    13302    13260    13280    13391    13519    13572 
   13541    13446    13285    13063    12820    12658    12706    12954 
   13226    13377    13390    13282    13095    12938    12905    13046 
   13376    13833    14248    14459    14438    14277    14107    13962 
   13789    13559    13287    12981    12681    12460    12360    12398 
   12578    12851    13139    13371    13514    13593    13685    13812 
   13928    14046    14235    14484    14652    14592    14298    13884 
   13441    13036    12717    12451    12217    12111    12248    12614 
   13118    13696    14270    14739    15027    15089    14908    14566 
   14214    13914    13601    13237    12864    12532    12310    12263 
   12353    12491    12661    12843    12951    12969    13009    13220 
   13676    14317    14963    15419    15600    15505    15183    14700 
   14090    13401    12725    12115    11554    11080    10810    10854 
   11251    11935    12815    13810    14785    15583    16125    16365 
   16247    15805    15166    14425    13626    12884    12360    12104 
   11997    11897    11768    11658    11664    11894    12365    12976 
   13610    14232    14803    15188    15319    15313    15255    15099 
   14828    14422    13840    13130    12419    11771    11228    10888 
   10845    11096    11553    12153    12860    13618    14356    15005 
   15491    15768    15844    15756    15551    15257    14851    14322 
   13737    13184    12680    12190    11719    11339    11138    11161 
   11389    11772    12265    12817    13389    13959    14506    14994 
   15378    15632    15742    15678    15439    15069    14645    14234 
   13818    13304    12721    12214    11846    11588    11439    11402 
   11439    11527    11702    12055    12640    13395    14164    14775 
   15157    15355    15381    15211    14895    14510    14101    13731 
   13422    13152    12933    12779    12674    12598    12577    12643 
   12761    12863    12935    12969    13009    13172    13457    13730 
   13904    13967    13954    13957    14048    14203    14357    14459 
   14478    14374    14120    13769    13410    13076    12751    12439 
   12175    12002    11956    12037    12209    12463    12819    13271 
   13800    14369    14891    15301    15562    15619    15420    14976 
   14347    13654    13029    12497    12066    11795    11675    11637 
   11683    11830    12077    12469    13001    13575    14111    14607 
   15094    15557    15926    16114    16042    15679    15094    14375 
   13605    12911    12389    12039    11792    11571    11320    11082 
   10985    11127    11534    12199    13071    14006    14840    15496 
   15927    16088    16005    15761    15390    14909    14338    13694 
   13006    12338    11790    11447    11335    11411    11619    11925 
   12305    12737    13186    13616    13999    14359    14745    15103 
