Origin Time       2024/04/02 04:24:00
Lat.              40.133
Long.             141.712
Depth. (km)       71
Mag.              6.0
Station Code      HKD182
Station Lat.      42.9721
Station Long.     141.5161
Station Height(m) 56
Record Time       2024/04/02 04:25:56
Sampling Freq(Hz) 100Hz
Duration Time(s)  69
Dir.              E-W
Scale Factor      7845(gal)/8223790
Max. Acc. (gal)   3.622
Last Correction   2024/04/02 04:25:57
Memo.             
[...]
    3603     3613     3596     3565     3538     3518     3495     3458 
    3397     3307     3213     3146     3133     3179     3271     3403 
    3558     3697     3762     3719     3592     3450     3361     3325 
    3299     3260     3218     3186     3152     3119     3121     3176 
    3250     3306     3325     3316     3299     3304     3360     3449 
    3516     3538     3562     3647     3770     3862     3889     3855 
    3781     3681     3549     3377     3179     3014     2944     2960 
    2997     3015     3022     3021     3022     3052     3138     3280 
    3434     3530     3549     3530     3497     3460     3446     3478 
    3542     3616     3686     3734     3736     3693     3616     3518 
    3403     3269     3117     2965     2837     2741     2687     2689 
    2745     2840     2960     3106     3275     3469     3678     3866 
    4004     4051     3981     3831     3658     3504     3418     3411 
    3453     3492     3500     3458     3366     3258     3179     3152 
    3177     3234     3273     3267     3229     3202     3206     3244 
    3312     3396     3476     3526     3514     3442     3330     3210 
    3130     3132     3215     3375     3593     3805     3910     3855 
    3669     3429     3215     3086     3048     3083     3149     3194 
    3206     3213     3238     3291     3365     3434     3481     3508 
    3523     3527     3526     3499     3431     3345     3269     3219 
    3221     3315     3499     3669     3728     3666     3505     3289 
    3115     3038     3022     3001     2961     2947     2983     3065 
    3190     3339     3481     3608     3728     3828     3883     3863 
    3778     3676     3588     3524     3473     3427     3397     3373 
    3329     3267     3190     3088     2995     2933     2878     2843 
    2880     2991     3134     3281     3423     3569     3711     3809 
    3846     3813     3692     3487     3246     3038     2911     2895 
    3003     3200     3407     3541     3574     3541     3487     3427 
    3365     3295     3211     3129     3069     3055     3092     3163 
    3223     3245     3208     3159     3173     3292     3511     3792 
    4045     4172     4131     3947     3700     3472     3326     3291 
    3330     3372     3375     3326     3238     3141     3072     3056 
    3088     3160     3271     3389     3469     3504     3520     3530 
    3549     3585     3635     3697     3735     3690     3557     3365 
    3167     3022     2964     3015     3142     3250     3300     3304 
    3273     3250     3273     3343     3442     3532     3566     3534 
    3478     3424     3369     3303     3213     3111     3049     3069 
    3173     3337     3510     3636     3694     3713     3719     3701 
    3651     3568     3461     3365     3277     3181     3115     3119 
    3179     3253     3318     3370     3404     3392     3323     3238 
    3203     3275     3451     3640     3757     3788     3758     3700 
    3638     3553     3418     3242     3067     2951     2910     2920 
    2959     3017     3075     3114     3157     3238     3337     3418 
    3503     3613     3731     3836     3919     3958     3942     3890 
    3800     3638     3410     3172     2994     2911     2913     2952 
    2992     3019     3048     3087     3152     3265     3414     3550 
    3647     3705     3738     3775     3834     3888     3909     3894 
    3836     3716     3531     3316     3102     2895     2724     2632 
    2647     2762     2928     3103     3285     3453     3553     3559 
    3496     3422     3395     3427     3488     3531     3505     3404 
    3273     3164     3118     3153     3230     3300     3353     3372 
    3335     3254     3177     3152     3208     3343     3515     3672 
    3751     3717     3592     3433     3292     3215     3217     3264 
    3321     3381     3445     3470     3423     3316     3207     3159 
    3190     3260     3323     3356     3352     3319     3271     3234 
    3240     3275     3323     3366     3388     3399     3415     3408 
    3337     3237     3186     3198     3258     3354     3442     3505 
    3570     3653     3746     3817     3815     3723     3588     3449 
    3318     3208     3127     3075     3071     3130     3207     3253 
    3281     3325     3384     3445     3499     3542     3589     3654 
    3717     3744     3721     3654     3582     3545     3535     3539 
    3542     3508     3419     3267     3052     2812     2602     2466 
    2413     2461     2617     2843     3088     3346     3609     3851 
    4021     4077     4031     3943     3866     3793     3703     3599 
    3487     3334     3126     2906     2743     2687     2736     2872 
    3061     3219     3300     3339     3349     3334     3341     3392 
    3447     3500     3570     3639     3680     3712     3763     3813 
    3823     3766     3642     3466     3287     3145     3051     2988 
    2947     2943     2998     3083     3149     3200     3264     3345 
    3435     3499     3500     3449     3385     3366     3406     3461 
    3496     3512     3522     3534     3546     3554     3557     3551 
    3514     3442     3375     3339     3346     3377     3387     3345 
    3264     3168     3098     3106     3190     3273     3314     3325 
    3321     3315     3329     3354     3361     3353     3357     3384 
    3414     3433     3464     3530     3607     3676     3727     3750 
    3744     3724     3704     3692     3665     3585     3470     3369 
    3329     3352     3407     3447     3420     3298     3094     2856 
    2664     2582     2628     2762     2917     3069     3226     3381 
    3522     3635     3712     3743     3731     3696     3666     3655 
    3662     3684     3708     3723     3711     3658     3586     3534 
    3491     3433     3353     3235     3094     2994     2991     3076 
    3171     3202     3164     3092     3011     2967     3011     3144 
    3308     3456     3561     3623     3655     3655     3612     3528 
    3414     3288     3173     3088     3063     3114     3202     3277 
    3341     3412     3510     3618     3713     3801     3893     3958 
    3951     3869     3732     3558     3376     3217     3092     3011 
    2968     2932     2886     2837     2798     2794     2863     3021 
    3241     3484     3709     3885     4004     4068     4077     4035 
    3967     3886     3774     3620     3456     3308     3171     3034 
    2909     2840     2882     3018     3175     3275     3281     3206 
    3095     3009     3003     3080     3163     3181     3163     3175 
    3244     3357     3481     3570     3613     3628     3607     3530 
    3406     3260     3122     3015     2955     2961     3045     3177 
    3333     3505     3680     3809     3823     3686     3449     3198 
    3002     2905     2909     2964     3040     3141     3275     3431 
    3595     3750     3852     3859     3780     3657     3519     3387 
    3283     3229     3230     3284     3370     3442     3450     3377 
    3262     3181     3173     3233     3335     3449     3539     3577 
    3578     3573     3581     3605     3623     3609     3557     3461 
    3289     3037     2764     2578     2550     2683     2928     3187 
    3358     3408     3377     3315     3254     3213     3207     3288 
    3470     3689     3855     3910     3828     3628     3381     3175 
    3100     3196     3406     3624     3773     3827     3790     3689 
    3576     3495     3449     3412     3364     3277     3121     2901 
    2671     2512     2497     2647     2913     3203     3449     3619 
    3699     3708     3708     3743     3808     3878     3933     3974 
    3987     3937     3825     3690     3569     3476     3403     3346 
    3304     3249     3153     3056     3021     3056     3127     3214 
    3296     3365     3437     3532     3609     3619     3574     3530 
    3510     3500     3489     3461     3403     3338     3314     3338 
    3353     3306     3217     3141     3113     3149     3244     3349 
    3407     3400     3354     3296     3254     3235     3222     3204 
    3192     3173     3136     3110     3160     3302     3488     3661 
    3761     3739     3601     3395     3181     3021     2971     3048 
    3211     3381     3480     3497     3481     3472     3478     3487 
    3492     3519     3577     3661     3763     3858     3912     3913 
    3882     3831     3744     3615     3449     3252     3036     2830 
    2646     2494     2407     2397     2465     2597     2779     3014 
    3277     3511     3680     3781     3817     3825     3871     3985 
    4136     4249     4247     4126     3939     3723     3511     3315 
    3122     2932     2762     2643     2602     2640     2754     2932 
    3123     3281     3395     3470     3523     3568     3612     3680 
    3774     3850     3867     3827     3767     3682     3527     3288 
    3006     2758     2596     2536     2562     2614     2655     2710 
    2817     2994     3249     3562     3866     4077     4139     4054 
    3866     3639     3399     3146     2934     2836     2855     2971 
    3171     3387     3495     3438     3283     3127     3049     3113 
    3312     3578     3847     4071     4199     4205     4118     3987 
    3874     3820     3794     3723     3557     3300     3014     2782 
    2677     2739     2948     3223     3484     3669     3736     3677 
    3526     3343     3188     3105     3144     3319     3542     3696 
    3716     3601     3389     3140     2932     2836     2874     3002 
    3154     3281     3354     3370     3379     3437     3553     3684 
    3778     3804     3738     3593     3422     3285     3217     3208 
    3261     3397     3592     3778     3909     3940     3834     3607 
    3331     3092     2963     2983     3132     3295     3329     3172 
    2917     2698     2597     2650     2845     3113     3369     3566 
    3711     3852     4028     4236     4448     4598     4642     4580 
    4394     4051     3562     2990     2430     1975     1699     1667 
    1885     2269     2679     3007     3225     3348     3424     3522 
    3676     3855     3970     3946     3775     3515     3238     3015 
    2897     2891     3005     3238     3555     3919     4294     4600 
    4745     4681     4440     4124     3832     3581     3362     3180 
    3013     2848     2706     2640     2705     2883     3080     3214 
    3242     3129     2876     2556     2285     2153     2197     2411 
    2736     3095     3431     3728     3981     4170     4282     4314 
    4313     4345     4440     4571     4650     4538     4153     3550 
    2872     2300     1960     1867     1954     2116     2253     2328 
    2357     2382     2452     2594     2826     3164     3577     4000 
    4334     4461     4295     3874     3343     2901     2710     2843 
    3235     3735     4189     4486     4571     4482     4352     4313 
    4379     4453     4403     4160     3735     3200     2664     2236 
    1999     1964     2065     2234     2434     2639     2825     3003 
    3196     3419     3663     3908     4139     4357     4563     4723 
    4766     4676     4504     4299     4082     3881     3681     3406 
    3025     2582     2139     1768     1533     1447     1490     1665 
    1969     2358     2745     3046     3217     3276     3296     3346 
    3458     3628     3798     3902     3939     3932     3878     3804 
    3778     3846     3989     4162     4313     4365     4264     4004 
    3588     3042     2454     1945     1651     1659     1922     2286 
    2619     2863     3034     3241     3626     4218     4905     5529 
    5931     5976     5613     4919     4063     3233     2577     2196 
    2080     2099     2066     1863     1478     1021      649      518 
     766     1441     2457     3649     4807     5699     6195     6313 
    6134     5738     5243     4735     4202     3570     2805     1938 
    1102      504      332      684     1539     2731     3993     5039 
    5674     5829     5533     4901     4105     3318     2689     2334 
    2311     2540     2832     3014     3026     2925     2845     2901 
    3078     3284     3461     3573     3611     3639     3748     3960 
    4226     4484     4691     4811     4833     4765     4598     4257 
    3684     2943     2201     1625     1347     1425     1807     2359 
    2906     3316     3562     3674     3731     3793     3842     3858 
    3832     3748     3616     3522     3569     3797     4137     4434 
    4522     4325     3900     3357     2799     2319     1973     1757 
    1665     1741     2015     2473     3061     3677     4205     4583 
    4811     4936     4993     4973     4846     4549     4059     3519 
    3163     3118     3326     3605     3767     3712     3476     3172 
    2930     2845     2921     3078     3214     3291     3362     3520 
    3808     4178     4525     4758     4838     4769     4579     4282 
    3861     3294     2605     1896     1308      935      797      854 
    1012     1120     1061      893      826     1027     1498     2100 
    2639     2970     3084     3132     3310     3726     4318     4919 
    5362     5567     5603     5591     5587     5587     5533     5321 
    4893     4249     3449     2648     2031     1667     1509     1459 
    1436     1410     1410     1482     1667     1964     2334     2716 
    3086     3504     4052     4708     5383     6008     6543     6945 
    7165     7117     6701     5879     4723     3433     2261     1406 
     940      850     1059     1449     1918     2417     2932     3453 
    3987     4531     5015     5341     5478     5455     5333     5174 
    5069     5098     5227     5325     5243     4842     4086     3102 
    2081     1174      477       35     -180     -253     -257     -201 
     -44      264      746     1389     2166     3040     3923     4749 
    5499     6122     6515     6648     6594     6431     6207     5962 
    5694     5331     4769     3964     3018     2114     1393      953 
     846     1055     1495     2025     2482     2749     2814     2749 
    2646     2613     2748     3017     3292     3489     3597     3662 
    3758     3950     4252     4618     4946     5135     5119     4878 
    4444     3897     3337     2843     2461     2214     2074     1969 
    1811     1593     1385     1291     1431     1861     2542     3337 
    4105     4758     5250     5548     5630     5482     5127     4672 
    4276     4058     3998     4004     3931     3643     3114     2463 
    1873     1470     1281     1254     1324     1475     1741     2089 
    2432     2768     3142     3577     4081     4604     5050     5351 
    5502     5530     5440     5201     4793     4268     3784     3523 
    3546     3773     4083     4360     4522     4533     4360     3955 
    3318     2538     1738     1048      634      626      984     1549 
    2160     2667     2994     3183     3308     3418     3547     3688 
    3809     3900     3946     3919     3829     3717     3585     3406 
    3195     3009     2853     2690     2511     2366     2339     2470 
    2721     3044     3391     3727     4060     4430     4845     5250 
    5536     5571     5282     4734     4047     3330     2727     2401 
    2431     2785     3353     3950     4368     4441     4070     3288 
    2288     1343      666      344      371      684     1170     1728 
    2320     2947     3581     4210     4800     5255     5482     5451 
    5192     4792     4361     3989     3734     3620     3638     3715 
    3739     3636     3400     3072     2706     2361     2089     1918 
    1854     1891     1989     2114     2249     2409     2612     2875 
    3221     3640     4070     4411     4568     4491     4213     3852 
    3584     3495     3551     3705     3910     4045     4016     3820 
    3505     3119     2700     2270     1873     1561     1360     1310 
    1510     2058     2922     3942     4947     5805     6392     6617 
    6444     5891     5058     4122     3267     2606     2143     1796 
    1524     1397     1517     1926     2575     3329     3986     4376 
    4415     4121     3600     3028     2600     2475     2701     3195 
    3801     4363     4742     4857     4750     4533     4297     4090 
    3942     3847     3763     3653     3520     3396     3283     3188 
    3137     3133     3165     3222     3245     3172     2971     2671 
    2403     2312     2442     2739     3146     3605     4010     4234 
    4209     3982     3677     3430     3300     3250     3200     3064 
    2772     2350     1919     1648     1679     2083     2808     3681 
    4468     5004     5243     5233     5065     4806     4509     4220 
    3973     3786     3647     3516     3346     3095     2774     2443 
    2170     1996     1927     1964     2122     2373     2617     2776 
    2886     3041     3307     3686     4120     4492     4696     4698 
    4537     4268     3956     3669     3462     3373     3433     3613 
    3808     3873     3708     3288     2681     2053     1610     1489 
    1691     2087     2481     2731     2840     2940     3152     3512 
    3963     4392     4668     4688     4425     3929     3326     2781 
    2436     2376     2589     2957     3326     3577     3676     3662 
    3631     3674     3873     4257     4765     5254     5575     5626 
    5360     4812     4102     3376     2720     2151     1695     1406 
    1327     1445     1690     1975     2278     2608     2940     3233 
    3462     3618     3688     3689     3669     3677     3726     3811 
    3910     3935     3758     3319     2647     1854     1119      646 
     576      930     1626     2532     3458     4230     4747     5012 
    5093     5085     5084     5108     5081     4914     4563     4012 
    3285     2466     1722     1294     1321     1737     2396     3129 
    3771     4225     4475     4552     4513     4442     4402     4392 
    4388     4367     4282     4090     3786     3399     2997     2716 
    2663     2825     3096     3366     3535     3550     3430     3237 
    3021     2826     2700     2678     2785     3025     3364     3692 
    3874     3848     3673     3446     3234     3078     2997     2987 
    3032     3122     3271     3469     3693     3935     4193     4446 
    4644     4730     4711     4639     4552     4471     4399     4345 
    4287     4140     3807     3237     2454     1617      961      654 
     731     1113     1652     2199     2663     3044     3372     3685 
    4023     4425     4870     5254     5467     5456     5197     4715 
    4129     3601     3233     3042     2992     3011     3040     3024 
    2916     2705     2447     2228     2128     2181     2366     2632 
    2906     3157     3406     3654     3859     3989     4025     3977 
    3873     3735     3559     3349     3114     2871     2689     2693 
    2975     3524     4222     4857     5242     5293     4989     4376 
    3585     2798     2200     1946     2064     2443     2889     3199 
    3248     3040     2694     2370     2195     2231     2469     2817 
    3172     3439     3537     3431     3161     2841     2613     2552 
    2671     2964     3385     3827     4172     4351     4348     4193 
    3901     3515     3138     2876     2762     2772     2868     3003 
