Origin Time       2024/04/02 04:24:00
Lat.              40.133
Long.             141.712
Depth. (km)       71
Mag.              6.0
Station Code      HKD136
Station Lat.      42.5901
Station Long.     140.6441
Station Height(m) 4
Record Time       2024/04/02 04:25:50
Sampling Freq(Hz) 100Hz
Duration Time(s)  60
Dir.              E-W
Scale Factor      7845(gal)/8223790
Max. Acc. (gal)   2.045
Last Correction   2024/04/02 04:25:50
Memo.             
[...]
   -3396    -3424    -3449    -3501    -3561    -3569    -3510    -3438 
   -3384    -3335    -3319    -3375    -3464    -3524    -3550    -3562 
   -3546    -3493    -3441    -3403    -3329    -3217    -3138    -3148 
   -3218    -3289    -3308    -3254    -3183    -3172    -3219    -3250 
   -3238    -3208    -3167    -3113    -3065    -3022    -2995    -3034 
   -3138    -3231    -3276    -3330    -3442    -3558    -3577    -3497 
   -3411    -3342    -3279    -3260    -3296    -3329    -3339    -3360 
   -3376    -3358    -3330    -3310    -3283    -3244    -3173    -3069 
   -2998    -2997    -2994    -2932    -2855    -2840    -2922    -3078 
   -3235    -3335    -3410    -3510    -3612    -3670    -3647    -3550 
   -3460    -3450    -3514    -3582    -3609    -3589    -3530    -3458 
   -3422    -3407    -3366    -3312    -3295    -3304    -3273    -3195 
   -3118    -3049    -2994    -2994    -3051    -3107    -3137    -3172 
   -3269    -3433    -3578    -3635    -3619    -3546    -3400    -3227 
   -3121    -3111    -3165    -3253    -3354    -3434    -3485    -3539 
   -3577    -3543    -3470    -3441    -3446    -3407    -3279    -3092 
   -2922    -2841    -2883    -2982    -3030    -3048    -3145    -3319 
   -3423    -3366    -3241    -3191    -3237    -3307    -3341    -3329 
   -3294    -3265    -3254    -3254    -3249    -3244    -3261    -3318 
   -3412    -3532    -3645    -3690    -3649    -3566    -3478    -3377 
   -3285    -3231    -3186    -3156    -3215    -3343    -3416    -3403 
   -3380    -3391    -3424    -3434    -3358    -3210    -3072    -2986 
   -2941    -2972    -3090    -3217    -3285    -3326    -3385    -3465 
   -3557    -3651    -3719    -3739    -3703    -3599    -3435    -3272 
   -3188    -3195    -3238    -3277    -3265    -3196    -3144    -3140 
   -3130    -3119    -3154    -3190    -3198    -3240    -3287    -3253 
   -3146    -3044    -3006    -3076    -3241    -3407    -3505    -3537 
   -3519    -3478    -3427    -3373    -3357    -3408    -3450    -3412 
   -3350    -3311    -3264    -3207    -3187    -3211    -3253    -3291 
   -3316    -3319    -3312    -3326    -3352    -3334    -3281    -3241 
   -3194    -3113    -3045    -3045    -3115    -3240    -3354    -3380 
   -3366    -3426    -3526    -3582    -3600    -3569    -3461    -3330 
   -3237    -3187    -3191    -3227    -3252    -3265    -3288    -3316 
   -3299    -3183    -3019    -2902    -2848    -2830    -2849    -2893 
   -2933    -2987    -3080    -3199    -3331    -3462    -3545    -3553 
   -3528    -3546    -3627    -3700    -3665    -3535    -3416    -3354 
   -3322    -3287    -3222    -3161    -3186    -3285    -3342    -3300 
   -3206    -3100    -3026    -3030    -3096    -3164    -3215    -3288 
   -3393    -3454    -3443    -3454    -3547    -3650    -3676    -3609 
   -3481    -3360    -3283    -3230    -3192    -3169    -3164    -3165 
   -3173    -3223    -3329    -3416    -3431    -3420    -3429    -3406 
   -3314    -3207    -3156    -3172    -3238    -3310    -3329    -3285 
   -3226    -3218    -3276    -3318    -3304    -3303    -3346    -3392 
   -3396    -3346    -3265    -3219    -3242    -3283    -3285    -3264 
   -3250    -3249    -3272    -3334    -3415    -3465    -3472    -3481 
   -3504    -3485    -3420    -3373    -3385    -3415    -3391    -3306 
   -3229    -3211    -3253    -3312    -3352    -3373    -3407    -3466 
   -3511    -3489    -3406    -3303    -3194    -3078    -3015    -3061 
   -3169    -3252    -3288    -3300    -3277    -3211    -3117    -3028 
   -3002    -3073    -3215    -3356    -3426    -3395    -3311    -3273 
   -3302    -3337    -3354    -3365    -3370    -3402    -3457    -3449 
   -3361    -3311    -3325    -3292    -3180    -3059    -2990    -2995 
   -3052    -3129    -3215    -3284    -3294    -3271    -3273    -3298 
   -3323    -3375    -3457    -3535    -3586    -3589    -3531    -3437 
   -3346    -3283    -3235    -3184    -3138    -3149    -3191    -3199 
   -3210    -3300    -3424    -3472    -3418    -3315    -3234    -3234 
   -3304    -3358    -3343    -3306    -3308    -3365    -3445    -3484 
   -3453    -3411    -3410    -3422    -3400    -3345    -3288    -3249 
   -3199    -3121    -3055    -3013    -2980    -2992    -3098    -3253 
   -3352    -3345    -3277    -3194    -3102    -3026    -3011    -3073 
   -3199    -3348    -3480    -3569    -3586    -3518    -3406    -3311 
   -3246    -3208    -3200    -3226    -3265    -3296    -3308    -3296 
   -3268    -3248    -3237    -3238    -3260    -3300    -3338    -3342 
   -3323    -3350    -3441    -3522    -3542    -3535    -3551    -3589 
   -3595    -3530    -3412    -3283    -3196    -3208    -3310    -3400 
   -3407    -3342    -3257    -3176    -3096    -3028    -3009    -3056 
   -3141    -3267    -3430    -3554    -3581    -3522    -3414    -3331 
   -3304    -3288    -3256    -3227    -3233    -3291    -3380    -3424 
   -3373    -3248    -3117    -3071    -3136    -3230    -3253    -3203 
   -3154    -3146    -3165    -3196    -3260    -3381    -3543    -3654 
   -3646    -3557    -3460    -3408    -3396    -3361    -3272    -3192 
   -3187    -3227    -3245    -3237    -3231    -3227    -3208    -3196 
   -3206    -3214    -3235    -3318    -3430    -3487    -3480    -3473 
   -3497    -3518    -3518    -3516    -3520    -3510    -3456    -3366 
   -3281    -3227    -3213    -3203    -3141    -3021    -2926    -2920 
   -2975    -3045    -3115    -3175    -3221    -3249    -3250    -3250 
   -3273    -3314    -3369    -3441    -3485    -3474    -3437    -3391 
   -3345    -3306    -3280    -3296    -3368    -3433    -3434    -3393 
   -3341    -3269    -3187    -3110    -3057    -3056    -3090    -3119 
   -3130    -3129    -3127    -3157    -3225    -3314    -3429    -3535 
   -3564    -3511    -3447    -3399    -3357    -3331    -3307    -3267 
   -3235    -3242    -3271    -3300    -3341    -3419    -3546    -3659 
   -3700    -3684    -3619    -3480    -3330    -3288    -3335    -3338 
   -3248    -3144    -3082    -3052    -3049    -3065    -3046    -2987 
   -2960    -2997    -3083    -3196    -3280    -3299    -3283    -3254 
   -3210    -3153    -3105    -3107    -3194    -3334    -3439    -3472 
   -3461    -3430    -3396    -3389    -3412    -3457    -3510    -3531 
   -3478    -3372    -3271    -3192    -3115    -3051    -3045    -3106 
   -3186    -3237    -3275    -3350    -3461    -3539    -3528    -3447 
   -3356    -3265    -3167    -3103    -3145    -3289    -3466    -3601 
   -3661    -3643    -3574    -3505    -3474    -3472    -3488    -3489 
   -3431    -3341    -3258    -3142    -2995    -2897    -2879    -2906 
   -2964    -3060    -3159    -3217    -3245    -3295    -3358    -3370 
   -3362    -3433    -3530    -3555    -3559    -3597    -3595    -3512 
   -3402    -3276    -3123    -3010    -3002    -3076    -3171    -3217 
   -3208    -3233    -3325    -3450    -3558    -3543    -3380    -3202 
   -3113    -3090    -3069    -3034    -3018    -3065    -3190    -3333 
   -3420    -3427    -3422    -3464    -3496    -3445    -3322    -3208 
   -3173    -3213    -3291    -3388    -3481    -3557    -3620    -3658 
   -3613    -3468    -3294    -3172    -3115    -3092    -3073    -3068 
   -3099    -3150    -3207    -3287    -3366    -3404    -3400    -3366 
   -3321    -3312    -3345    -3365    -3348    -3321    -3323    -3348 
   -3341    -3298    -3300    -3385    -3499    -3593    -3639    -3585 
   -3430    -3260    -3130    -3026    -2961    -2979    -3069    -3149 
   -3175    -3181    -3181    -3129    -3032    -2982    -3052    -3210 
   -3370    -3451    -3393    -3230    -3083    -3048    -3103    -3180 
   -3264    -3362    -3458    -3530    -3557    -3515    -3450    -3434 
   -3464    -3493    -3503    -3466    -3369    -3265    -3217    -3226 
   -3248    -3250    -3284    -3403    -3531    -3550    -3438    -3273 
   -3164    -3140    -3145    -3145    -3159    -3192    -3215    -3204 
   -3173    -3177    -3262    -3395    -3483    -3487    -3460    -3427 
   -3356    -3218    -3056    -2976    -3014    -3094    -3167    -3267 
   -3393    -3489    -3523    -3522    -3514    -3499    -3445    -3333 
   -3196    -3107    -3113    -3183    -3237    -3231    -3217    -3238 
   -3262    -3256    -3240    -3218    -3153    -3053    -2971    -2920 
   -2872    -2808    -2743    -2728    -2803    -2983    -3214    -3376 
   -3439    -3492    -3573    -3639    -3681    -3743    -3812    -3804 
   -3688    -3541    -3420    -3303    -3183    -3134    -3183    -3229 
   -3208    -3190    -3223    -3256    -3275    -3338    -3435    -3472 
   -3404    -3271    -3134    -3060    -3076    -3159    -3260    -3357 
   -3461    -3573    -3658    -3667    -3596    -3504    -3446    -3389 
   -3275    -3133    -3032    -2992    -2994    -3007    -3021    -3045 
   -3115    -3238    -3360    -3446    -3514    -3586    -3640    -3645 
   -3620    -3586    -3535    -3488    -3481    -3505    -3518    -3474 
   -3377    -3281    -3256    -3319    -3389    -3389    -3333    -3281 
   -3265    -3250    -3199    -3146    -3141    -3167    -3192    -3237 
   -3318    -3400    -3472    -3553    -3609    -3601    -3581    -3597 
   -3628    -3624    -3573    -3510    -3478    -3466    -3426    -3338 
   -3218    -3102    -3033    -3007    -3005    -3051    -3152    -3227 
   -3194    -3098    -3022    -2972    -2963    -3029    -3165    -3303 
   -3375    -3381    -3365    -3334    -3312    -3357    -3487    -3616 
   -3639    -3538    -3391    -3275    -3245    -3284    -3300    -3235 
   -3100    -2963    -2890    -2883    -2876    -2844    -2829    -2897 
   -3063    -3242    -3345    -3408    -3493    -3534    -3477    -3420 
   -3447    -3518    -3559    -3593    -3662    -3728    -3713    -3616 
   -3504    -3415    -3330    -3241    -3129    -2979    -2860    -2830 
   -2832    -2816    -2828    -2901    -3030    -3207    -3391    -3516 
   -3586    -3667    -3775    -3882    -3986    -4091    -4155    -4143 
   -4090    -4039    -3973    -3869    -3751    -3642    -3532    -3404 
   -3234    -3001    -2712    -2382    -2066    -1865    -1806    -1800 
   -1813    -1915    -2139    -2459    -2839    -3198    -3484    -3744 
   -3983    -4139    -4199    -4190    -4137    -4072    -4010    -3966 
   -3932    -3854    -3719    -3565    -3387    -3176    -2934    -2632 
   -2296    -2046    -1944    -1930    -1984    -2147    -2396    -2690 
   -3063    -3499    -3897    -4214    -4487    -4718    -4877    -4973 
   -5030    -5049    -4997    -4831    -4587    -4317    -4016    -3693 
   -3396    -3122    -2862    -2658    -2525    -2401    -2257    -2191 
   -2312    -2601    -2937    -3240    -3505    -3750    -3946    -4037 
   -3983    -3824    -3665    -3562    -3516    -3511    -3496    -3437 
   -3334    -3190    -2990    -2695    -2328    -1979    -1741    -1669 
   -1729    -1819    -1887    -1985    -2196    -2548    -2999    -3466 
   -3865    -4141    -4279    -4275    -4141    -3916    -3661    -3470 
   -3403    -3443    -3531    -3599    -3581    -3442    -3167    -2760 
   -2266    -1804    -1487    -1325    -1273    -1332    -1525    -1871 
   -2373    -2943    -3477    -3955    -4382    -4747    -5017    -5134 
   -5078    -4930    -4761    -4550    -4287    -4066    -3959    -3940 
   -3958    -3978    -3973    -3921    -3801    -3530    -3022    -2378 
   -1848    -1583    -1559    -1714    -2047    -2562    -3199    -3862 
   -4417    -4761    -4872    -4769    -4509    -4216    -3993    -3840 
   -3731    -3645    -3523    -3353    -3213    -3199    -3346    -3591 
   -3798    -3882    -3850    -3690    -3352    -2907    -2558    -2425 
   -2462    -2565    -2679    -2799    -2945    -3156    -3412    -3630 
   -3721    -3673    -3546    -3426    -3342    -3304    -3346    -3441 
   -3491    -3472    -3416    -3298    -3106    -2947    -2917    -3002 
   -3130    -3234    -3256    -3179    -3045    -2894    -2736    -2601 
   -2520    -2500    -2502    -2496    -2519    -2671    -2975    -3343 
   -3672    -3885    -3971    -4027    -4093    -4058    -3866    -3632 
   -3456    -3353    -3298    -3200    -2982    -2690    -2485    -2525 
   -2805    -3129    -3366    -3564    -3682    -3555    -3195    -2879 
   -2818    -2988    -3260    -3483    -3546    -3504    -3488    -3537 
   -3592    -3634    -3728    -3894    -4039    -4052    -3950    -3847 
   -3780    -3701    -3608    -3489    -3329    -3223    -3237    -3242 
   -3107    -2879    -2658    -2489    -2401    -2396    -2478    -2697 
   -3063    -3489    -3820    -3946    -3917    -3839    -3720    -3547 
   -3375    -3273    -3233    -3176    -3036    -2837    -2689    -2682 
   -2832    -3094    -3360    -3539    -3603    -3532    -3349    -3192 
   -3190    -3346    -3635    -4023    -4399    -4625    -4630    -4429 
   -4101    -3765    -3557    -3541    -3580    -3468    -3187    -2879 
   -2621    -2389    -2215    -2212    -2424    -2731    -2937    -2918 
   -2725    -2554    -2573    -2795    -3150    -3607    -4136    -4622 
   -4897    -4841    -4442    -3817    -3173    -2674    -2317    -2025 
   -1826    -1814    -1973    -2212    -2505    -2822    -3071    -3219 
   -3316    -3353    -3291    -3156    -2988    -2806    -2627    -2511 
   -2524    -2687    -2978    -3334    -3682    -3946    -4072    -4048 
   -3892    -3662    -3427    -3233    -3118    -3094    -3065    -2972 
   -2914    -3032    -3333    -3735    -4199    -4706    -5167    -5444 
   -5443    -5154    -4598    -3855    -3163    -2794    -2806    -3005 
   -3167    -3213    -3195    -3225    -3388    -3631    -3785    -3744 
   -3519    -3144    -2693    -2331    -2174    -2196    -2377    -2727 
   -3163    -3546    -3798    -3885    -3824    -3685    -3527    -3393 
   -3304    -3276    -3338    -3478    -3580    -3546    -3433    -3304 
   -3078    -2662    -2143    -1756    -1741    -2181    -2906    -3570 
   -3896    -3883    -3727    -3537    -3295    -3034    -2882    -2914 
   -3032    -3025    -2795    -2490    -2357    -2513    -2889    -3331 
   -3726    -4013    -4164    -4140    -3944    -3699    -3569    -3615 
   -3761    -3905    -4023    -4141    -4243    -4217    -4000    -3693 
   -3468    -3412    -3535    -3701    -3657    -3300    -2828    -2519 
   -2473    -2577    -2693    -2835    -3115    -3528    -3904    -4094 
   -4077    -3889    -3615    -3339    -3069    -2839    -2744    -2797 
   -2902    -2994    -3067    -3122    -3180    -3310    -3554    -3832 
   -3993    -3937    -3666    -3256    -2814    -2465    -2307    -2347 
   -2538    -2859    -3265    -3566    -3569    -3315    -3021    -2857 
   -2883    -3048    -3195    -3208    -3107    -2976    -2893    -2925 
   -3099    -3357    -3580    -3704    -3774    -3867    -3989    -4058 
   -4008    -3839    -3570    -3227    -2894    -2671    -2570    -2574 
   -2655    -2739    -2781    -2880    -3195    -3681    -4075    -4209 
   -4151    -4072    -4077    -4097    -3970    -3616    -3132    -2702 
   -2451    -2358    -2305    -2242    -2254    -2442    -2752    -3051 
   -3231    -3302    -3323    -3288    -3144    -2980    -3005    -3300 
   -3730    -4071    -4207    -4163    -4050    -3977    -3960    -3919 
   -3758    -3500    -3292    -3198    -3060    -2745    -2398    -2307 
   -2574    -3059    -3520    -3813    -3974    -4102    -4194    -4182 
   -4094    -4044    -4050    -4029    -3928    -3767    -3622    -3539 
   -3420    -3137    -2751    -2459    -2365    -2409    -2467    -2475 
   -2535    -2810    -3294    -3771    -4056    -4090    -3901    -3593 
   -3304    -3095    -2968    -2970    -3175    -3561    -3994    -4293 
   -4306    -4055    -3738    -3518    -3383    -3234    -3056    -2922 
   -2862    -2798    -2685    -2604    -2652    -2776    -2832    -2748 
   -2575    -2459    -2501    -2643    -2816    -3015    -3218    -3362 
   -3410    -3331    -3160    -3003    -2974    -3126    -3462    -3909 
   -4336    -4607    -4600    -4260    -3740    -3330    -3176    -3173 
   -3159    -3059    -2871    -2654    -2504    -2438    -2405    -2409 
   -2533    -2801    -3109    -3331    -3354    -3159    -2907    -2802 
   -2893    -3118    -3360    -3514    -3566    -3520    -3358    -3179 
   -3161    -3315    -3468    -3501    -3495    -3623    -3952    -4342 
   -4585    -4591    -4419    -4140    -3793    -3443    -3138    -2891 
   -2774    -2856    -3087    -3383    -3688    -3923    -3962    -3743 
   -3392    -3133    -3080    -3191    -3379    -3570    -3678    -3616 
   -3412    -3177    -2970    -2763    -2552    -2436    -2525    -2768 
   -2990    -3055    -2959    -2779    -2601    -2516    -2587    -2764 
   -2947    -3129    -3385    -3743    -4116    -4363    -4394    -4225 
   -3996    -3897    -3978    -4094    -4081    -3905    -3658    -3410 
   -3133    -2809    -2524    -2393    -2459    -2701    -3007    -3200 
   -3241    -3202    -3065    -2825    -2629    -2647    -2897    -3221 
   -3412    -3437    -3472    -3631    -3819    -3869    -3704    -3407 
   -3204    -3242    -3454    -3657    -3750    -3761    -3721    -3572 
   -3289    -2974    -2732    -2582    -2509    -2516    -2662    -2956 
   -3269    -3433    -3373    -3171    -3018    -3030    -3118    -3156 
   -3130    -3078    -3056    -3159    -3377    -3551    -3573    -3561 
   -3713    -4029    -4334    -4540    -4626    -4537    -4239    -3778 
   -3260    -2825    -2569    -2482    -2486    -2578    -2835    -3235 
   -3603    -3817    -3947    -4085    -4152    -4006    -3661    -3246 
   -2879    -2668    -2716    -3002    -3329    -3478    -3427    -3304 
   -3198    -3102    -3040    -3045    -3075    -3072    -3033    -2971 
   -2872    -2710    -2517    -2409    -2484    -2728    -3068    -3429 
   -3712    -3861    -3944    -4059    -4151    -4120    -4014    -3948 
   -3936    -3920    -3877    -3812    -3672    -3370    -2937    -2535 
   -2339    -2390    -2565    -2690    -2687    -2604    -2559    -2593 
   -2640    -2655    -2662    -2729    -2921    -3169    -3306    -3269 
   -3188    -3244    -3496    -3836    -4137    -4394    -4608    -4712 
   -4648    -4402    -4054    -3751    -3537    -3333    -3141    -3038 
   -3042    -3118    -3237    -3372    -3528    -3680    -3686    -3469 
   -3137    -2814    -2551    -2397    -2358    -2389    -2479    -2687 
   -3049    -3477    -3813    -3964    -3933    -3757    -3511    -3272 
   -3052    -2917    -3017    -3375    -3816    -4122    -4168    -3971 
   -3642    -3256    -2855    -2516    -2334    -2349    -2529    -2772 
   -2922    -2913    -2839    -2816    -2899    -3090    -3325    -3530 
   -3719    -3940    -4174    -4326    -4303    -4077    -3731    -3439 
   -3335    -3414    -3514    -3499    -3404    -3348    -3345    -3327 
   -3294    -3304    -3397    -3580    -3773    -3834    -3700    -3464 
   -3276    -3194    -3114    -2978    -2909    -3017    -3218    -3360 
   -3396    -3388    -3361    -3242    -2999    -2720    -2532    -2538 
   -2771    -3141    -3456    -3619    -3666    -3632    -3537    -3433 
   -3376    -3357    -3342    -3294    -3168    -2998    -2876    -2849 
   -2894    -2988    -3106    -3187    -3219    -3244    -3273    -3284 
   -3242    -3154    -3073    -3032    -3010    -2967    -2894    -2848 
   -2909    -3059    -3190    -3242    -3248    -3256    -3276    -3296 
