Origin Time       2024/04/02 04:24:00
Lat.              40.133
Long.             141.712
Depth. (km)       71
Mag.              6.0
Station Code      HKD167
Station Lat.      42.1297
Station Long.     139.9813
Station Height(m) 21
Record Time       2024/04/02 04:25:15
Sampling Freq(Hz) 100Hz
Duration Time(s)  94
Dir.              U-D
Scale Factor      7845(gal)/8223790
Max. Acc. (gal)   1.470
Last Correction   2024/04/02 04:25:16
Memo.             
[...]
    8425     8413     8409     8417     8426     8422     8413     8411 
    8418     8429     8430     8418     8409     8413     8422     8425 
    8419     8421     8425     8421     8418     8417     8414     8418 
    8426     8430     8422     8413     8411     8421     8425     8415 
    8415     8429     8433     8421     8413     8415     8419     8415 
    8417     8422     8424     8424     8425     8419     8411     8417 
    8422     8421     8414     8417     8430     8430     8411     8403 
    8415     8433     8436     8419     8405     8407     8421     8429 
    8422     8415     8418     8426     8429     8419     8409     8413 
    8425     8428     8422     8418     8415     8415     8419     8422 
    8422     8422     8418     8415     8417     8421     8421     8419 
    8419     8417     8417     8422     8425     8422     8415     8413 
    8414     8414     8419     8425     8421     8417     8414     8419 
    8428     8426     8418     8418     8419     8421     8419     8409 
    8409     8422     8425     8417     8415     8422     8429     8424 
    8410     8409     8417     8424     8425     8419     8415     8422 
    8428     8424     8418     8418     8422     8428     8421     8410 
    8413     8422     8425     8424     8418     8414     8419     8426 
    8425     8421     8422     8425     8419     8418     8419     8417 
    8414     8418     8424     8424     8417     8414     8417     8421 
    8428     8429     8424     8417     8413     8414     8417     8413 
    8417     8429     8433     8419     8409     8413     8419     8421 
    8419     8418     8421     8424     8422     8417     8414     8419 
    8426     8425     8419     8417     8414     8409     8413     8424 
    8429     8426     8421     8415     8417     8421     8417     8415 
    8417     8417     8418     8419     8417     8418     8422     8424 
    8419     8415     8419     8419     8411     8410     8419     8424 
    8418     8415     8418     8421     8419     8418     8415     8417 
    8419     8422     8424     8421     8414     8410     8415     8424 
    8426     8424     8419     8414     8415     8424     8424     8418 
    8417     8419     8421     8417     8413     8415     8421     8424 
    8425     8422     8422     8425     8421     8413     8407     8410 
    8419     8424     8419     8417     8419     8422     8425     8424 
    8419     8417     8415     8415     8415     8417     8415     8417 
    8422     8426     8421     8413     8411     8417     8424     8426 
    8424     8419     8417     8414     8414     8418     8421     8419 
    8419     8419     8417     8415     8422     8426     8422     8415 
    8411     8419     8428     8417     8405     8413     8425     8424 
    8417     8415     8425     8434     8429     8415     8407     8406 
    8418     8430     8422     8410     8417     8426     8422     8415 
    8421     8425     8419     8418     8426     8425     8410     8402 
    8413     8429     8430     8424     8422     8419     8415     8417 
    8418     8417     8424     8430     8422     8409     8409     8418 
    8428     8422     8413     8418     8422     8417     8415     8417 
    8419     8429     8426     8415     8413     8414     8418     8422 
    8421     8422     8424     8419     8414     8415     8422     8429 
    8426     8417     8413     8418     8422     8422     8419     8418 
    8419     8422     8421     8422     8419     8415     8417     8425 
    8429     8424     8415     8415     8418     8424     8426     8419 
    8407     8410     8425     8432     8425     8414     8407     8417 
    8429     8425     8415     8414     8413     8415     8419     8424 
    8428     8426     8419     8415     8414     8413     8417     8421 
    8418     8418     8425     8424     8414     8414     8414     8411 
    8418     8430     8432     8418     8402     8402     8417     8432 
    8432     8422     8413     8415     8422     8419     8413     8411 
    8418     8425     8425     8421     8415     8410     8414     8425 
    8430     8424     8417     8414     8409     8410     8428     8438 
    8429     8410     8403     8411     8422     8425     8419     8411 
    8411     8424     8434     8428     8415     8407     8407     8419 
    8433     8429     8407     8402     8417     8433     8434     8419 
    8403     8402     8414     8432     8437     8422     8406     8409 
    8419     8429     8429     8417     8406     8407     8422     8436 
    8430     8415     8409     8411     8421     8430     8429     8413 
    8402     8411     8428     8429     8421     8415     8418     8422 
    8424     8425     8424     8417     8410     8414     8426     8429 
    8421     8409     8407     8419     8430     8425     8414     8410 
    8417     8428     8429     8421     8411     8413     8419     8428 
    8428     8424     8418     8415     8414     8417     8424     8428 
    8425     8419     8417     8421     8424     8422     8418     8415 
    8421     8428     8424     8417     8414     8419     8428     8430 
    8426     8415     8409     8414     8424     8424     8418     8419 
    8424     8422     8419     8418     8414     8417     8422     8425 
    8424     8419     8417     8417     8414     8414     8418     8421 
    8426     8426     8418     8414     8414     8418     8425     8422 
    8413     8415     8428     8429     8421     8413     8411     8418 
    8428     8424     8417     8415     8417     8417     8422     8425 
    8419     8417     8419     8424     8424     8422     8419     8419 
    8421     8422     8419     8415     8414     8415     8422     8429 
    8426     8421     8418     8418     8422     8422     8417     8415 
    8418     8419     8424     8425     8422     8418     8415     8417 
    8422     8424     8417     8413     8415     8419     8426     8426 
    8418     8414     8414     8418     8422     8418     8417     8421 
    8428     8424     8415     8415     8421     8425     8424     8418 
    8417     8419     8419     8419     8421     8422     8422     8422 
    8421     8417     8418     8418     8417     8417     8418     8419 
    8421     8425     8425     8419     8415     8417     8422     8422 
    8413     8410     8414     8419     8425     8426     8422     8415 
    8417     8426     8428     8419     8413     8417     8421     8419 
    8415     8415     8419     8421     8421     8421     8421     8425 
    8425     8419     8417     8418     8419     8421     8418     8414 
    8417     8428     8430     8424     8418     8418     8421     8422 
    8419     8418     8421     8419     8417     8419     8425     8425 
    8418     8419     8428     8428     8417     8411     8414     8418 
    8421     8424     8421     8415     8421     8428     8424     8418 
    8418     8418     8415     8414     8415     8419     8425     8425 
    8422     8421     8418     8415     8418     8419     8417     8419 
    8419     8417     8418     8421     8421     8419     8422     8424 
    8418     8414     8414     8415     8421     8424     8419     8421 
    8424     8419     8415     8415     8414     8414     8421     8424 
    8422     8422     8418     8417     8421     8421     8418     8417 
    8418     8419     8421     8421     8419     8422     8425     8418 
    8414     8421     8424     8418     8415     8419     8422     8424 
    8424     8421     8414     8415     8421     8422     8419     8419 
    8421     8419     8418     8422     8425     8425     8419     8411 
    8418     8428     8421     8413     8414     8421     8428     8425 
    8421     8417     8414     8414     8418     8422     8425     8421 
    8414     8415     8424     8425     8417     8409     8415     8428 
    8432     8425     8417     8415     8419     8419     8422     8425 
    8417     8410     8417     8424     8421     8419     8421     8418 
    8419     8428     8425     8417     8410     8411     8418     8419 
    8418     8421     8422     8421     8422     8425     8428     8421 
    8410     8407     8415     8424     8426     8424     8417     8411 
    8419     8425     8417     8413     8419     8426     8428     8421 
    8414     8414     8414     8415     8419     8421     8421     8421 
    8424     8426     8424     8418     8414     8415     8421     8425 
    8424     8418     8417     8424     8429     8421     8414     8417 
    8424     8422     8417     8415     8418     8424     8425     8421 
    8419     8421     8417     8414     8419     8421     8415     8418 
    8422     8421     8419     8421     8422     8421     8418     8419 
    8419     8415     8417     8422     8426     8426     8424     8421 
    8419     8418     8415     8415     8419     8424     8424     8421 
    8421     8422     8425     8424     8419     8417     8418     8418 
    8417     8417     8421     8424     8421     8415     8414     8415 
    8419     8422     8417     8419     8430     8429     8417     8411 
    8417     8424     8422     8417     8413     8417     8424     8425 
    8421     8414     8411     8417     8424     8428     8421     8407 
    8409     8424     8432     8430     8421     8407     8410     8425 
    8428     8413     8402     8411     8428     8436     8429     8414 
    8411     8419     8424     8424     8418     8411     8411     8419 
    8428     8426     8421     8414     8414     8419     8424     8424 
    8419     8415     8415     8418     8424     8424     8421     8419 
    8418     8417     8417     8414     8411     8421     8428     8421 
    8415     8417     8418     8418     8421     8421     8417     8415 
    8418     8422     8424     8419     8414     8419     8426     8421 
    8414     8413     8415     8422     8425     8418     8414     8418 
    8424     8424     8418     8415     8418     8419     8417     8418 
    8421     8418     8413     8413     8421     8425     8421     8422 
    8421     8417     8419     8421     8415     8419     8426     8421 
    8417     8417     8414     8417     8422     8421     8419     8424 
    8425     8421     8417     8414     8413     8413     8418     8424 
    8425     8425     8424     8419     8414     8413     8419     8426 
    8424     8414     8410     8415     8425     8426     8421     8415 
    8413     8413     8418     8424     8421     8415     8414     8417 
    8424     8429     8424     8415     8415     8418     8415     8415 
    8419     8415     8413     8419     8426     8428     8419     8411 
    8413     8418     8422     8424     8415     8410     8417     8424 
    8421     8418     8419     8419     8421     8421     8415     8413 
    8414     8421     8426     8425     8417     8410     8413     8421 
    8425     8421     8417     8413     8414     8424     8425     8417 
    8417     8421     8418     8417     8421     8421     8419     8417 
    8413     8417     8424     8424     8415     8409     8411     8415 
    8419     8421     8422     8422     8419     8418     8419     8415 
    8410     8411     8418     8424     8428     8424     8419     8419 
    8421     8422     8418     8414     8415     8419     8421     8421 
    8419     8421     8424     8421     8415     8415     8415     8417 
    8422     8421     8414     8415     8425     8428     8424     8421 
    8419     8417     8414     8415     8421     8422     8417     8419 
    8428     8426     8417     8411     8411     8418     8425     8424 
    8415     8411     8417     8422     8422     8414     8414     8419 
    8421     8418     8421     8424     8419     8413     8415     8418 
    8415     8417     8425     8426     8419     8417     8418     8419 
    8419     8419     8419     8419     8418     8418     8419     8419 
    8421     8421     8421     8419     8413     8410     8422     8424 
    8414     8415     8421     8421     8421     8419     8418     8418 
    8418     8417     8415     8417     8417     8417     8419     8424 
    8428     8424     8419     8421     8418     8414     8413     8415 
    8419     8424     8421     8419     8415     8414     8419     8425 
    8424     8417     8407     8410     8425     8433     8426     8415 
    8407     8410     8426     8433     8421     8407     8410     8419 
    8426     8422     8417     8411     8414     8424     8425     8421 
    8415     8414     8419     8425     8418     8409     8407     8407 
    8405     8401     8399     8399     8401     8398     8392     8391 
    8395     8398     8390     8388     8406     8425     8425     8413 
    8411     8415     8409     8399     8390     8371     8348     8334 
    8324     8305     8286     8279     8282     8293     8307     8333 
    8370     8417     8465     8518     8572     8607     8619     8617 
    8592     8541     8479     8402     8297     8172     8052     7939 
    7832     7740     7685     7686     7736     7821     7950     8129 
    8352     8590     8804     8991     9150     9273     9350     9382 
    9370     9312     9205     9067     8915     8764     8634     8527 
    8442     8378     8325     8248     8139     8023     7928     7862 
    7828     7836     7894     7997     8128     8256     8352     8406 
    8407     8384     8397     8473     8594     8712     8784     8789 
    8748     8658     8499     8279     8051     7857     7723     7661 
    7662     7699     7730     7743     7767     7825     7938     8118 
    8376     8689     9013     9300     9514     9663     9774     9856 
    9904     9938     9960     9940     9856     9740     9655     9629 
    9622     9583     9495     9351     9146     8883     8586     8299 
    8058     7854     7692     7608     7632     7724     7777     7713 
    7555     7368     7234     7249     7429     7688     7901     7979 
    7954     7924     7890     7786     7597     7368     7200     7195 
    7345     7545     7681     7703     7670     7690     7786     7920 
    8093     8344     8700     9092     9371     9445     9333     9142 
    8986     8914     8899     8874     8845     8880     9008     9148 
    9158     8947     8580     8198     7908     7716     7568     7408 
    7245     7180     7333     7711     8194     8646     8993     9262 
    9509     9733     9882     9899     9749     9477     9166     8862 
    8577     8303     8021     7773     7628     7568     7537     7541 
    7605     7743     7921     8035     8001     7882     7807     7850 
    7992     8136     8208     8255     8367     8549     8757     8985 
    9221     9394     9418     9320     9202     9105     9000     8915 
    8893     8887     8835     8745     8642     8549     8451     8299 
    8090     7900     7830     7932     8206     8554     8785     8789 
    8684     8699     8912     9167     9281     9213     9028     8796 
    8573     8395     8276     8191     8054     7852     7686     7623 
    7616     7580     7504     7465     7470     7483     7564     7762 
    8001     8203     8359     8409     8313     8154     8075     8168 
    8395     8611     8683     8618     8546     8545     8598     8703 
    8885     9084     9198     9227     9193     9063     8797     8442 
    8151     8040     8098     8247     8402     8519     8621     8727 
    8845     8993     9144     9219     9200     9127     9024     8914 
    8814     8695     8480     8122     7727     7472     7446     7597 
    7789     7894     7871     7782     7732     7743     7763     7746 
    7666     7516     7372     7384     7631     8044     8495     8865 
    9107     9258     9374     9462     9458     9285     8974     8652 
    8464     8499     8656     8739     8688     8529     8293     8052 
    7912     7942     8160     8507     8824     8968     8941     8846 
    8750     8689     8708     8815     8957     9078     9178     9266 
    9286     9194     9026     8792     8503     8252     8133     8152 
    8263     8380     8403     8279     8082     7915     7800     7700 
    7577     7430     7288     7182     7141     7211     7383     7580 
    7720     7794     7885     8052     8271     8482     8660     8802 
    8892     8907     8868     8804     8700     8540     8397     8376 
    8517     8726     8835     8812     8781     8830     8945     9072 
    9146     9108     8984     8889     8865     8826     8698     8491 
    8353     8465     8819     9200     9358     9235     9009     8815 
    8591     8289     7971     7754     7736     7904     8104     8124 
    7878     7526     7292     7253     7368     7538     7704     7919 
    8225     8557     8797     8815     8560     8135     7731     7519 
    7535     7673     7828     7955     8014     8012     8005     8032 
    8104     8222     8363     8502     8656     8887     9225     9566 
    9737     9671     9390     8982     8622     8428     8380     8463 
    8680     8995     9317     9518     9535     9447     9370     9294 
    9097     8714     8245     7873     7736     7867     8121     8287 
    8297     8248     8249     8309     8359     8333     8193     7982 
    7857     7942     8182     8413     8490     8383     8199     8075 
    8067     8120     8181     8291     8453     8598     8646     8515 
    8206     7865     7658     7678     7855     8010     8073     8098 
    8195     8426     8681     8802     8800     8777     8775     8770 
    8741     8735     8780     8849     8957     9078     9099     8980 
    8800     8652     8564     8471     8280     7994     7749     7700 
    7863     8120     8326     8384     8318     8267     8353     8559 
    8741     8766     8644     8499     8432     8476     8646     8881 
    9062     9115     9011     8783     8565     8483     8537     8603 
    8556     8388     8198     8117     8213     8409     8534     8471 
    8255     8039     7959     8008     8085     8116     8074     8031 
    8086     8212     8283     8230     8108     8048     8108     8220 
    8307     8332     8328     8380     8486     8530     8464     8372 
    8374     8496     8657     8719     8606     8388     8226     8208 
    8260     8266     8216     8198     8303     8536     8768     8856 
    8753     8506     8262     8181     8282     8472     8646     8719 
    8671     8569     8484     8445     8487     8611     8739     8775 
    8692     8568     8480     8453     8473     8491     8469     8418 
    8357     8316     8321     8343     8313     8217     8114     8055 
    8036     8070     8186     8374     8529     8553     8496     8487 
    8573     8694     8757     8742     8696     8653     8599     8549 
    8527     8495     8415     8341     8344     8406     8471     8480 
    8426     8356     8279     8152     7994     7850     7769     7821 
    8010     8239     8417     8517     8541     8541     8599     8698 
    8722     8629     8509     8490     8606     8729     8695     8503 
    8325     8279     8355     8473     8525     8438     8259     8097 
    8009     7959     7912     7913     8037     8301     8592     8727 
    8625     8397     8230     8235     8371     8527     8637     8677 
    8661     8648     8656     8594     8359     8017     7796     7851 
    8124     8430     8581     8523     8370     8240     8187     8217 
    8264     8274     8275     8345     8491     8595     8561     8461 
    8438     8572     8838     9131     9333     9409     9404     9329 
