Origin Time       2024/04/02 04:24:00
Lat.              40.133
Long.             141.712
Depth. (km)       71
Mag.              6.0
Station Code      HKD161
Station Lat.      41.6800
Station Long.     140.4329
Station Height(m) 4
Record Time       2024/04/02 04:25:32
Sampling Freq(Hz) 100Hz
Duration Time(s)  82
Dir.              E-W
Scale Factor      7845(gal)/8223790
Max. Acc. (gal)   5.320
Last Correction   2024/04/02 04:25:32
Memo.             
[...]
    2200     1760     1386     1028      627      191     -201     -453 
    -534     -500     -417     -330     -252     -137       70      406 
     847     1320     1732     2016     2127     2037     1764     1370 
     931      558      367      388      569      797      938      899 
     681      379      120      -14       -9      140      427      820 
    1281     1787     2316     2835     3276     3555     3636     3595 
    3558     3623     3835     4185     4563     4806     4797     4530 
    4118     3727     3453     3318     3326     3457     3631     3754 
    3784     3715     3553     3345     3154     2998     2878     2778 
    2652     2470     2242     1965     1633     1271      922      611 
     340       85     -183     -468     -708     -835     -838     -747 
    -616     -495     -369     -174      137      561     1048     1528 
    1942     2273     2536     2760     2949     3091     3177     3164 
    2983     2633     2177     1701     1298     1026      893      881 
     939     1023     1108     1186     1270     1386     1561     1825 
    2201     2682     3218     3743     4218     4626     4927     5071 
    5024     4779     4396     3979     3592     3246     2967     2787 
    2717     2739     2793     2799     2708     2509     2212     1850 
    1494     1254     1209     1358     1651     2037     2463     2849 
    3113     3200     3105     2848     2450     1953     1452     1032 
     718      496      351      260      230      278      382      534 
     747      988     1206     1409     1609     1791     1921     1956 
    1864     1625     1263      891      669      687      899     1147 
    1274     1212      996      724      508      425      502      719 
    1024     1379     1757     2108     2404     2641     2795     2802 
    2614     2204     1628     1036      572      283      174      218 
     342      475      587      654      683      715      769      864 
    1089     1532     2176     2924     3654     4279     4816     5336 
    5815     6151     6273     6161     5861     5493     5159     4904 
    4734     4606     4421     4098     3632     3056     2443     1912 
    1530     1266     1078      963      895      846      810      745 
     621      484      383      325      314      336      351      324 
     247      148       82       83      110       79      -45     -240 
    -444     -589     -616     -488     -183      279      826     1366 
    1853     2307     2735     3113     3397     3586     3689     3707 
    3667     3616     3586     3592     3595     3532     3376     3115 
    2768     2385     2027     1744     1587     1622     1887     2353 
    2926     3516     4035     4382     4491     4376     4093     3701 
    3250     2755     2242     1767     1343      934      492      -17 
    -576    -1102    -1513    -1750    -1775    -1582    -1220     -753 
    -230      306      834     1328     1741     2025     2164     2191 
    2168     2145     2149     2181     2234     2286     2289     2209 
    2083     1938     1782     1622     1453     1283     1196     1290 
    1624     2192     2905     3607     4167     4523     4681     4680 
    4545     4282     3875     3325     2695     2097     1610     1260 
    1035      911      872      940     1162     1549     2049     2571 
    3033     3370     3562     3636     3655     3676     3713     3700 
    3545     3230     2808     2340     1876     1433     1004      576 
     152     -230     -515     -661     -704     -712     -691     -580 
    -311      125      648     1162     1615     1969     2180     2245 
    2216     2153     2104     2083     2029     1888     1679     1463 
    1302     1294     1512     1937     2505     3132     3713     4183 
    4506     4639     4588     4409     4121     3715     3240     2767 
    2313     1903     1601     1437     1379     1399     1478     1586 
    1707     1788     1776     1721     1723     1834     2042     2281 
    2469     2563     2586     2577     2540     2463     2326     2087 
    1741     1355     1019      791      683      664      684      704 
     702      680      660      650      652      703      876     1190 
    1598     2033     2469     2913     3318     3615     3781     3813 
    3731     3607     3516     3489     3532     3635     3786     4008 
    4267     4453     4469     4241     3701     2899     2012     1205 
     573      186       48       54       90      162      355      704 
    1151     1593     1988     2373     2754     3090     3373     3613 
    3732     3599     3150     2459     1692      999      432      -10 
    -352     -616     -807     -905     -885     -735     -460      -86 
     348      818     1281     1691     2012     2207     2241     2142 
    1996     1891     1867     1903     1935     1895     1787     1676 
    1648     1788     2151     2678     3214     3646     3939     4104 
    4182     4216     4228     4205     4108     3921     3680     3430 
    3200     3026     2943     2907     2812     2606     2344     2080 
    1845     1684     1626     1645     1664     1580     1351     1030 
     691      355       37     -195     -265     -166       40      279 
     498      656      743      800      869      939      988     1016 
    1063     1185     1440     1848     2361     2897     3365     3680 
    3788     3708     3484     3177     2845     2498     2127     1725 
    1309      928      637      490      554      839     1259     1692 
    2058     2316     2455     2508     2505     2448     2324     2137 
    1888     1620     1394     1237     1135     1080     1115     1296 
    1607     1946     2218     2398     2494     2517     2529     2613 
    2782     2956     3038     2971     2782     2587     2485     2493 
    2569     2639     2625     2508     2343     2201     2108     2052 
    2026     2015     1971     1867     1709     1521     1351     1248 
    1220     1254     1335     1426     1486     1512     1539     1613 
    1728     1806     1771     1610     1401     1252     1229     1331 
    1555     1904     2355     2845     3322     3742     4044     4167 
    4087     3838     3512     3206     2953     2745     2577     2435 
    2311     2197     2100     2015     1946     1896     1849     1792 
    1749     1767     1865     2035     2261     2535     2826     3079 
    3221     3194     2984     2614     2118     1529      897      284 
    -244     -629     -826     -838     -707     -502     -290     -105 
      64      264      507      765     1000     1231     1534     1937 
    2362     2686     2830     2787     2586     2281     1941     1652 
    1495     1499     1621     1822     2089     2388     2659     2876 
    3084     3352     3674     3981     4218     4372     4455     4503 
    4557     4608     4611     4541     4438     4341     4225     4051 
    3827     3593     3349     3065     2732     2380     2053     1792 
    1637     1628     1736     1836     1794     1576     1210      746 
     252     -206     -594     -876    -1055    -1170    -1237    -1225 
   -1108     -893     -635     -411     -267     -220     -248     -292 
    -282     -170       36      306      642     1026     1393     1701 
    1958     2180     2366     2517     2625     2679     2708     2770 
    2886     3014     3090     3088     3046     3003     2949     2864 
    2749     2620     2475     2316     2178     2091     2025     1937 
    1806     1651     1529     1493     1567     1761     2042     2332 
    2583     2799     3014     3250     3499     3734     3931     4036 
    3982     3763     3443     3094     2739     2367     2016     1775 
    1692     1761     1908     2070     2265     2535     2856     3177 
    3466     3703     3873     3955     3912     3732     3434     3060 
    2636     2149     1641     1200      859      604      414      270 
     162       66      -72     -274     -481     -645     -729     -704 
    -583     -423     -291     -234     -272     -387     -546     -693 
    -770     -707     -452      -36      453      934     1362     1736 
    2087     2440     2806     3180     3530     3808     3994     4091 
    4129     4136     4124     4105     4078     4023     3962     3954 
    3991     4016     3981     3909     3862     3875     3937     4004 
    4029     3998     3917     3813     3728     3674     3619     3478 
    3167     2678     2080     1426      750       86     -522    -1026 
   -1397    -1661    -1848    -1915    -1802    -1513    -1113     -660 
    -194      252      660      989     1229     1426     1611     1757 
    1840     1865     1857     1815     1719     1584     1463     1402 
    1420     1543     1776     2088     2488     3011     3615     4203 
    4720     5120     5358     5413     5293     5036     4745     4515 
    4348     4193     4020     3793     3480     3084     2644     2196 
    1787     1472     1278     1192     1181     1179     1112      934 
     673      395      137      -78     -253     -398     -511     -564 
    -515     -351      -97      172      379      469      425      284 
     160      164      324      614     1021     1516     2043     2527 
    2862     2983     2914     2729     2509     2320     2185     2083 
    1973     1852     1738     1649     1636     1753     2015     2398 
    2874     3393     3888     4299     4618     4870     5103     5337 
    5555     5706     5757     5725     5633     5445     5111     4639 
    4086     3492     2886     2289     1733     1237      788      356 
     -60     -438     -742     -953    -1063    -1063     -938     -727 
    -526     -410     -380     -434     -573     -751     -889     -939 
    -907     -820     -708     -591     -477     -396     -360     -349 
    -355     -367     -353     -265      -72      217      603     1102 
    1715     2386     3041     3639     4180     4684     5148     5559 
    5892     6134     6278     6316     6231     6037     5764     5436 
    5080     4731     4441     4249     4179     4225     4333     4417 
    4421     4349     4260     4205     4147     4017     3831     3655 
    3508     3358     3173     2920     2562     2066     1447      801 
     247     -166     -480     -766    -1054    -1318    -1522    -1637 
   -1640    -1529    -1350    -1138     -881     -548     -143      283 
     672      977     1156     1188     1097      962      862      814 
     789      756      679      544      357      167       59       95 
     292      656     1174     1807     2492     3130     3612     3915 
    4128     4367     4688     5077     5479     5819     6043     6145 
    6150     6096     6015     5891     5679     5374     4996     4553 
    4078     3640     3275     2963     2654     2301     1903     1502 
    1132      814      558      369      216       44     -172     -425 
    -670     -850     -932     -942     -908     -818     -654     -426 
    -139      179      465      665      760      754      703      689 
     757      900     1066     1183     1220     1188     1112     1007 
     861      693      546      436      348      275      234      263 
     390      618      913     1256     1660     2114     2555     2940 
    3288     3655     4037     4386     4680     4934     5105     5105 
    4905     4595     4306     4090     3886     3609     3241     2805 
    2363     2016     1860     1907     2077     2273     2440     2558 
    2616     2614     2550     2428     2241     1965     1599     1158 
     672      178     -313     -804    -1235    -1529    -1669    -1703 
   -1682    -1626    -1533    -1379    -1132     -746     -206      402 
     966     1452     1898     2347     2841     3393     3973     4506 
    4909     5125     5169     5115     5047     5000     4965     4926 
    4850     4700     4452     4147     3898     3781     3774     3821 
    3892     3998     4135     4245     4268     4178     4006     3805 
    3601     3400     3194     2948     2621     2201     1729     1271 
     905      683      596      595      622      645      664      650 
     561      399      209       51      -20       22      182      430 
     706      903      939      827      657      510      436      469 
     629      886     1173     1397     1520     1551     1499     1364 
    1178     1009      913      881      880      920     1039     1243 
    1485     1671     1723     1632     1445     1259     1179     1237 
    1383     1576     1815     2107     2454     2864     3333     3824 
    4309     4741     5061     5238     5274     5186     4995     4761 
    4565     4460     4440     4469     4502     4486     4369     4124 
    3755     3316     2875     2457     2046     1628     1202      778 
     387       70     -166     -342     -490     -630     -772     -908 
   -1013    -1050    -1016     -953     -888     -820     -734     -622 
    -476     -257       68      475      870     1150     1244     1166 
     990      810      719      788     1031     1413     1852     2245 
    2512     2628     2646     2650     2706     2835     3038     3334 
    3734     4216     4723     5192     5578     5848     5979     5971 
    5869     5746     5647     5571     5517     5491     5486     5448 
    5304     5028     4626     4118     3565     3046     2617     2268 
    1952     1620     1235      788      306     -160     -589     -992 
   -1391    -1821    -2280    -2717    -3071    -3294    -3370    -3330 
   -3233    -3159    -3188    -3337    -3512    -3607    -3574    -3414 
   -3145    -2772    -2284    -1680     -985     -216      618     1489 
    2355     3171     3910     4542     5032     5395     5705     6022 
    6382     6791     7175     7438     7537     7474     7285     7026 
    6750     6492     6250     5976     5648     5297     4951     4617 
    4295     3998     3730     3484     3252     3022     2794     2559 
    2274     1919     1530     1151      805      511      282      113 
      -2      -94     -211     -391     -631     -884    -1104    -1282 
   -1429    -1532    -1552    -1433    -1177     -857     -565     -351 
    -232     -203     -226     -261     -297     -314     -283     -187 
     -16      251      583      903     1159     1360     1557     1798 
    2091     2407     2713     2991     3231     3443     3645     3851 
    4075     4324     4599     4897     5194     5441     5616     5733 
    5815     5864     5854     5772     5645     5518     5408     5314 
    5233     5151     5040     4895     4716     4518     4310     4083 
    3809     3466     3075     2663     2277     1957     1695     1439 
    1134      747      282     -209     -641     -950    -1125    -1185 
   -1162    -1101    -1028     -935     -824     -714     -633     -587 
    -553     -484     -349     -148       81      309      527      720 
     861      928      905      780      553      248      -75     -318 
    -383     -222      143      623     1101     1501     1822     2104 
    2373     2619     2840     3060     3281     3487     3673     3842 
    3970     4047     4079     4079     4071     4079     4105     4141 
    4167     4148     4078     3987     3924     3889     3870     3866 
    3844     3748     3576     3350     3082     2789     2486     2176 
    1869     1583     1320     1089      928      857      850      842 
     766      616      430      240       49     -133     -303     -461 
    -610     -741     -827     -839     -766     -619     -411     -163 
     105      372      635      911     1208     1520     1838     2154 
    2454     2739     3001     3213     3362     3451     3469     3397 
    3267     3149     3105     3133     3187     3207     3167     3083 
    2978     2851     2717     2620     2585     2602     2652     2735 
    2875     3079     3314     3515     3631     3659     3627     3574 
    3511     3406     3226     2983     2728     2524     2409     2365 
    2344     2315     2255     2166     2076     1992     1895     1768 
    1595     1359     1070      783      557      400      276      175 
     116      117      172      261      351      419      456      452 
     417      402      450      557      689      841     1009     1183 
    1358     1545     1753     1954     2099     2168     2192     2222 
    2280     2353     2419     2455     2443     2378     2297     2222 
    2133     2007     1853     1709     1628     1651     1777     1989 
    2253     2527     2802     3106     3442     3774     4041     4216 
    4295     4278     4168     4012     3862     3743     3631     3472 
    3233     2910     2524     2145     1854     1691     1641     1644 
    1648     1647     1655     1669     1679     1682     1668     1618 
    1499     1269      897      405     -139     -633    -1003    -1235 
   -1359    -1440    -1533    -1648    -1753    -1799    -1752    -1601 
   -1343     -967     -487       58      619     1162     1675     2150 
    2571     2940     3268     3550     3780     3966     4122     4263 
    4396     4533     4677     4833     5013     5221     5447     5683 
    5915     6122     6272     6336     6288     6123     5884     5645 
    5449     5283     5096     4849     4534     4132     3627     3041 
    2421     1814     1235      688      197     -202     -492     -680 
    -804     -908    -1013    -1139    -1297    -1485    -1674    -1811 
   -1856    -1826    -1756    -1653    -1509    -1312    -1066     -784 
    -490     -222        0      182      322      434      537      633 
     735      872     1059     1316     1641     1989     2286     2492 
    2610     2686     2801     3040     3429     3913     4405     4860 
    5285     5699     6116     6528     6887     7117     7150     6986 
    6678     6296     5894     5493     5082     4656     4222     3802 
    3427     3117     2863     2652     2490     2376     2272     2120 
    1887     1557     1129      619       83     -402     -780    -1058 
   -1305    -1587    -1927    -2319    -2724    -3078    -3319    -3411 
   -3360    -3198    -2947    -2614    -2188    -1660    -1067     -461 
     130      688     1167     1552     1864     2150     2455     2789 
    3140     3491     3816     4067     4216     4282     4309     4318 
    4315     4317     4372     4511     4707     4908     5097     5281 
    5444     5537     5524     5387     5135     4773     4324     3839 
    3377     2959     2552     2130     1694     1269      872      522 
     244       37     -116     -214     -257     -278     -294     -299 
    -284     -253     -217     -187     -175     -178     -194     -205 
    -170      -70       72      232      395      549      679      764 
     812      855      932     1070     1274     1541     1875     2266 
    2678     3067     3411     3719     3991     4226     4415     4538 
    4602     4642     4677     4707     4735     4753     4754     4722 
    4619     4433     4189     3910     3611     3316     3056     2841 
    2659     2466     2231     1962     1682     1421     1216     1075 
     977      881      747      571      379      213       91        9 
     -41      -66      -93     -156     -249     -363     -477     -561 
    -603     -603     -564     -514     -467     -405     -303     -137 
     108      422      772     1117     1421     1669     1867     2045 
