Origin Time       2024/04/02 04:24:00
Lat.              40.133
Long.             141.712
Depth. (km)       71
Mag.              6.0
Station Code      HKD181
Station Lat.      43.1161
Station Long.     141.5462
Station Height(m) 8
Record Time       2024/04/02 04:25:59
Sampling Freq(Hz) 100Hz
Duration Time(s)  70
Dir.              U-D
Scale Factor      7845(gal)/8223790
Max. Acc. (gal)   1.389
Last Correction   2024/04/02 04:26:00
Memo.             
[...]
   14914    14936    14971    15024    15091    15153    15171    15120 
   15030    14953    14910    14910    14945    14985    14991    14937 
   14835    14739    14709    14750    14840    14959    15068    15117 
   15097    15047    14999    14972    14966    14932    14843    14724 
   14607    14523    14534    14644    14793    14947    15080    15156 
   15190    15225    15249    15249    15246    15228    15172    15084 
   15002    14967    14987    15024    15044    15057    15079    15095 
   15091    15063    15028    15003    14976    14917    14837    14782 
   14758    14762    14812    14908    15006    15074    15114    15122 
   15086    15014    14943    14891    14872    14889    14918    14955 
   15010    15084    15140    15161    15168    15161    15111    15010 
   14881    14764    14700    14705    14767    14852    14933    14983 
   14989    14962    14933    14920    14918    14922    14913    14870 
   14808    14770    14796    14904    15068    15214    15290    15304 
   15299    15283    15244    15183    15109    15040    14989    14945 
   14897    14855    14841    14862    14905    14955    14990    15005 
   15003    14978    14932    14889    14860    14837    14832    14866 
   14926    14993    15041    15048    15032    15017    15012    15001 
   14970    14906    14812    14729    14717    14779    14866    14937 
   14989    15044    15122    15215    15292    15323    15291    15205 
   15105    15044    15029    15024    15001    14974    14979    15020 
   15048    15029    14962    14872    14800    14754    14742    14777 
   14841    14904    14951    14987    15018    15047    15064    15048 
   14995    14926    14852    14782    14746    14773    14844    14925 
   14995    15053    15106    15149    15169    15164    15130    15056 
   14951    14858    14800    14764    14746    14759    14817    14902 
   14971    14986    14959    14939    14947    14959    14953    14943 
   14943    14947    14936    14928    14959    15033    15103    15151 
   15184    15210    15240    15283    15314    15299    15246    15171 
   15087    15016    14972    14956    14944    14916    14866    14796 
   14724    14683    14685    14719    14775    14851    14931    14989 
   15017    15017    14995    14978    14990    15020    15017    14968 
   14905    14866    14864    14889    14918    14948    14975    14986 
   14971    14937    14906    14899    14922    14964    14985    14967 
   14947    14951    14974    15007    15057    15120    15167    15194 
   15188    15128    15018    14912    14824    14763    14740    14742 
   14758    14791    14825    14835    14810    14775    14740    14706 
   14721    14823    14997    15198    15375    15485    15518    15468 
   15333    15151    14968    14791    14621    14489    14435    14490 
   14656    14872    15059    15206    15329    15404    15403    15322 
   15182    15030    14914    14824    14746    14706    14746    14844 
   14966    15088    15201    15292    15352    15371    15344    15265 
   15157    15036    14894    14750    14636    14580    14604    14709 
   14847    14970    15060    15132    15187    15205    15164    15052 
   14864    14644    14488    14461    14553    14702    14881    15074 
   15256    15399    15465    15417    15255    15021    14764    14546 
   14418    14411    14513    14669    14821    14952    15071    15186 
   15291    15353    15345    15283    15205    15132    15068    15006 
   14939    14866    14828    14860    14932    15001    15067    15130 
   15155    15118    15044    14968    14913    14885    14909    15005 
   15148    15277    15350    15345    15267    15121    14926    14748 
   14635    14580    14554    14553    14557    14538    14484    14428 
   14424    14499    14651    14878    15137    15364    15507    15531 
   15441    15288    15160    15121    15151    15196    15221    15207 
   15161    15094    14990    14852    14712    14590    14507    14501 
   14575    14681    14775    14832    14837    14813    14797    14824 
   14914    15057    15225    15367    15433    15402    15309    15215 
   15151    15102    15057    15029    15036    15080    15128    15132 
   15091    15032    14939    14801    14681    14639    14669    14746 
   14859    14970    15039    15071    15078    15060    15024    14978 
   14924    14886    14877    14879    14879    14883    14920    15016 
   15152    15287    15396    15466    15461    15377    15241    15052 
   14817    14594    14457    14426    14482    14590    14705    14808 
   14916    15009    15045    15034    15006    14978    14945    14905 
   14848    14781    14733    14719    14728    14733    14709    14652 
   14582    14531    14535    14593    14646    14661    14671    14728 
   14877    15114    15375    15587    15715    15732    15628    15437 
   15230    15060    14913    14764    14643    14608    14663    14758 
   14850    14936    15029    15136    15250    15361    15453    15510 
   15526    15530    15554    15577    15538    15411    15222    15028 
   14863    14689    14469    14250    14094    14023    14067    14219 
   14415    14597    14760    14924    15106    15303    15469    15534 
   15479    15346    15190    15043    14935    14866    14817    14756 
   14678    14611    14562    14532    14534    14561    14570    14543 
   14500    14486    14554    14725    14963    15191    15357    15442 
   15457    15433    15411    15398    15356    15268    15151    15051 
   15013    15014    15003    14979    14990    15066    15194    15350 
   15507    15626    15662    15614    15510    15365    15206    15074 
   14979    14891    14804    14750    14754    14820    14948    15122 
   15311    15488    15631    15704    15669    15510    15246    14964 
   14767    14688    14685    14701    14708    14671    14554    14331 
   14052    13837    13801    13959    14246    14577    14886    15117 
   15226    15187    15017    14766    14490    14265    14170    14242 
   14465    14756    14997    15124    15159    15160    15175    15234 
   15361    15562    15803    16009    16114    16096    15986    15819 
   15631    15491    15433    15410    15357    15265    15167    15068 
   14936    14752    14575    14490    14520    14621    14756    14914 
   15080    15232    15333    15363    15333    15280    15240    15238 
   15283    15338    15346    15253    15044    14754    14428    14121 
   13898    13805    13826    13905    13972    14006    14050    14145 
   14262    14365    14459    14593    14809    15091    15384    15611 
   15738    15782    15765    15708    15649    15612    15600    15608 
   15600    15520    15333    15072    14818    14634    14523    14453 
   14397    14359    14351    14396    14496    14619    14746    14872 
   15002    15129    15225    15259    15241    15202    15161    15118 
   15052    14941    14817    14743    14737    14754    14736    14692 
   14670    14706    14827    15021    15255    15492    15687    15761 
   15691    15518    15299    15084    14914    14794    14709    14658 
   14646    14666    14683    14654    14562    14442    14337    14265 
   14216    14188    14199    14265    14380    14511    14636    14759 
   14894    15039    15168    15260    15310    15330    15341    15340 
   15331    15344    15392    15461    15539    15623    15712    15808 
   15904    15958    15936    15849    15720    15591    15507    15475 
   15462    15425    15340    15246    15180    15118    15007    14829 
   14611    14408    14292    14292    14385    14527    14673    14796 
   14899    14972    14976    14898    14783    14706    14671    14624 
   14523    14389    14285    14249    14268    14335    14459    14634 
   14817    14968    15075    15175    15302    15444    15561    15620 
   15601    15500    15342    15176    15033    14912    14796    14706 
   14677    14712    14777    14831    14872    14932    14991    14998 
   14947    14889    14858    14848    14847    14844    14836    14831 
   14824    14806    14812    14887    15043    15240    15410    15471 
   15380    15183    14983    14872    14882    14993    15169    15372 
   15565    15720    15803    15801    15739    15643    15529    15403 
   15284    15196    15161    15186    15250    15298    15277    15184 
   15045    14906    14789    14671    14531    14370    14200    14052 
   13963    13956    14035    14170    14323    14481    14631    14750 
   14844    14912    14913    14837    14706    14553    14432    14389 
   14408    14461    14538    14615    14671    14710    14760    14843 
   14975    15152    15330    15475    15585    15670    15732    15776 
   15803    15816    15812    15763    15660    15506    15317    15114 
   14922    14739    14561    14384    14218    14102    14096    14211 
   14393    14566    14688    14773    14855    14939    14978    14929 
   14816    14673    14508    14346    14235    14193    14197    14208 
   14191    14138    14095    14106    14176    14289    14447    14652 
   14871    15086    15325    15599    15867    16077    16202    16264 
   16291    16289    16244    16155    16047    15943    15832    15695 
   15543    15403    15237    15007    14729    14440    14161    13917 
   13741    13668    13725    13925    14227    14542    14797    14982 
   15130    15288    15462    15619    15722    15762    15742    15688 
   15634    15581    15512    15400    15222    15001    14808    14713 
   14760    14958    15244    15514    15676    15707    15645    15530 
   15379    15201    15003    14809    14650    14530    14436    14365 
   14327    14334    14389    14486    14604    14701    14746    14731 
   14677    14590    14485    14400    14380    14459    14644    14890 
   15128    15314    15450    15523    15502    15381    15205    15036 
   14904    14804    14736    14702    14715    14758    14786    14794 
   14832    14916    15032    15174    15334    15475    15549    15549 
   15500    15422    15319    15209    15111    15026    14958    14909 
   14881    14882    14935    15041    15171    15275    15317    15282 
   15174    15018    14862    14732    14639    14571    14515    14462 
   14411    14366    14339    14354    14431    14565    14746    14966 
   15201    15404    15531    15569    15554    15533    15514    15475 
   15406    15314    15209    15053    14829    14575    14353    14219 
   14204    14295    14447    14612    14742    14821    14871    14910 
   14940    14960    15010    15137    15333    15527    15653    15681 
   15593    15379    15061    14717    14431    14256    14215    14326 
   14566    14872    15172    15400    15498    15449    15311    15156 
   15030    14964    14964    15012    15094    15187    15259    15300 
   15317    15303    15276    15249    15236    15228    15184    15095 
   14989    14891    14796    14689    14565    14431    14307    14219 
   14185    14203    14261    14357    14492    14665    14852    15016 
   15125    15188    15240    15304    15384    15469    15560    15654 
   15727    15728    15626    15429    15161    14840    14485    14164 
   13960    13903    13975    14135    14353    14582    14770    14879 
   14909    14895    14889    14899    14910    14917    14935    14945 
   14936    14933    14958    14999    15044    15079    15087    15068 
   15032    14982    14929    14898    14904    14920    14925    14935 
   14968    15024    15087    15168    15263    15349    15412    15461 
   15491    15472    15395    15302    15244    15226    15221    15178 
   15067    14895    14708    14554    14469    14472    14570    14773 
   15066    15406    15714    15919    15993    15944    15796    15577 
   15326    15086    14893    14763    14693    14654    14605    14531 
   14445    14353    14254    14162    14099    14111    14224    14409 
   14616    14818    15018    15203    15346    15427    15435    15357 
   15205    15025    14877    14793    14782    14816    14860    14897 
   14914    14918    14926    14960    15044    15159    15249    15284 
   15264    15209    15121    14995    14847    14727    14678    14719 
   14828    14975    15132    15277    15387    15448    15460    15430 
   15372    15321    15304    15325    15350    15330    15218    15043 
   14878    14758    14683    14685    14790    14964    15152    15307 
   15408    15464    15484    15477    15450    15415    15358    15268 
   15148    15024    14906    14783    14638    14463    14278    14115 
   14007    13973    14006    14091    14226    14386    14534    14656 
   14778    14904    15014    15097    15145    15161    15164    15180 
   15228    15292    15354    15398    15391    15309    15159    14991 
   14872    14836    14875    14971    15097    15215    15307    15381 
   15445    15479    15462    15404    15336    15275    15213    15141 
   15071    14995    14909    14820    14725    14631    14535    14449 
   14388    14349    14324    14315    14304    14284    14268    14281 
   14324    14381    14440    14521    14650    14831    15055    15302 
   15541    15731    15840    15855    15785    15651    15445    15164 
   14845    14553    14334    14230    14262    14416    14638    14859 
   15040    15171    15248    15272    15265    15248    15242    15246 
   15236    15214    15228    15284    15365    15460    15534    15565 
   15558    15499    15361    15140    14843    14496    14152    13856 
   13633    13514    13522    13660    13906    14211    14521    14801 
   15047    15260    15430    15519    15539    15552    15600    15697 
   15835    15962    16035    16056    16023    15912    15723    15475 
   15190    14890    14593    14316    14091    13960    13929    13971 
   14044    14118    14179    14227    14276    14338    14438    14598 
   14825    15120    15456    15776    16019    16147    16160    16086 
   15961    15819    15682    15558    15435    15302    15147    14966 
   14782    14631    14539    14504    14499    14503    14521    14580 
   14696    14855    15028    15198    15348    15480    15599    15685 
   15726    15720    15657    15522    15333    15138    14972    14832 
   14713    14627    14567    14511    14449    14385    14355    14386 
   14466    14586    14743    14899    15014    15079    15102    15107 
   15115    15124    15142    15202    15319    15465    15580    15606 
   15523    15380    15225    15080    14968    14899    14852    14809 
   14771    14733    14698    14689    14713    14755    14791    14810 
   14812    14812    14843    14913    15002    15079    15121    15122 
   15076    14990    14885    14774    14654    14520    14411    14369 
   14413    14520    14640    14746    14828    14894    14964    15045 
   15121    15175    15217    15236    15209    15134    15024    14885 
   14747    14659    14628    14625    14619    14592    14546    14492 
   14419    14314    14208    14162    14196    14289    14416    14554 
   14693    14848    15024    15188    15331    15454    15554    15635 
   15689    15692    15643    15577    15525    15502    15502    15508 
   15508    15485    15425    15303    15137    14972    14852    14809 
   14845    14945    15083    15240    15391    15510    15579    15584 
   15515    15385    15222    15071    14959    14856    14721    14542 
   14332    14131    13972    13864    13828    13890    14048    14278 
   14539    14782    14985    15167    15342    15492    15593    15642 
   15634    15562    15431    15256    15053    14860    14712    14621 
   14586    14584    14588    14607    14654    14710    14752    14764 
   14758    14774    14847    14956    15072    15183    15272    15325 
   15348    15340    15300    15240    15172    15103    15039    14976 
   14921    14860    14783    14690    14602    14551    14547    14588 
   14655    14731    14797    14841    14877    14918    14964    14999 
   15009    15006    15012    15030    15055    15103    15196    15322 
   15433    15499    15514    15487    15421    15311    15174    15029 
   14899    14824    14835    14920    15024    15099    15120    15093 
   15039    14958    14847    14716    14592    14494    14442    14432 
   14449    14466    14484    14531    14636    14804    15017    15238 
   15427    15564    15624    15600    15518    15403    15264    15121 
   14998    14905    14862    14877    14917    14940    14929    14897 
   14856    14821    14808    14827    14882    14952    15013    15052 
   15063    15052    15033    15006    14966    14922    14893    14906 
   14979    15094    15206    15279    15298    15268    15190    15078 
   14959    14858    14790    14767    14767    14773    14764    14735 
   14694    14654    14627    14611    14585    14569    14605    14696 
   14813    14939    15057    15160    15234    15267    15255    15199 
   15101    14990    14895    14827    14806    14845    14913    15003 
   15124    15256    15373    15458    15492    15464    15361    15190 
   14964    14712    14474    14284    14157    14121    14183    14326 
   14515    14725    14937    15125    15259    15345    15412    15471 
   15515    15550    15570    15558    15507    15421    15314    15210 
   15128    15060    15002    14970    14970    14990    15018    15041 
   15033    15001    14964    14928    14902    14905    14928    14945 
   14963    14987    15009    15010    14987    14936    14863    14791 
   14750    14777    14895    15078    15279    15465    15595    15643 
   15585    15414    15165    14885    14596    14330    14115    13983 
   13961    14042    14180    14334    14492    14654    14817    14968 
   15094    15199    15299    15373    15399    15379    15342    15317 
   15307    15309    15304    15271    15202    15111    15002    14877 
   14751    14650    14585    14571    14625    14742    14917    15132 
   15322    15425    15395    15242    15017    14762    14515    14319 
   14204    14179    14256    14423    14646    14885    15101    15269 
   15390    15457    15468    15426    15352    15263    15178    15103 
   15034    14978    14963    15003    15084    15179    15253    15269 
   15217    15120    15003    14885    14785    14724    14705    14729 
   14793    14885    14987    15068    15113    15114    15064    14982 
   14906    14866    14874    14920    14980    15036    15072    15082 
   15066    15043    15017    14971    14914    14887    14902    14943 
   14989    15030    15082    15147    15202    15245    15284    15302 
   15284    15236    15159    15064    14959    14867    14821    14832 
   14878    14922    14955    14980    15010    15039    15060    15091 
   15145    15218    15290    15338    15348    15334    15310    15261 
   15179    15060    14908    14751    14617    14517    14447    14382 
   14319    14270    14254    14280    14339    14427    14557    14720 
   14883    15025    15134    15206    15261    15306    15329    15348 
   15387    15445    15516    15596    15653    15662    15626    15539 
   15414    15284    15172    15083    15017    14978    14953    14921 
   14867    14793    14698    14586    14466    14365    14308    14311 
   14370    14472    14600    14748    14902    15041    15165    15271 
   15354    15425    15477    15480    15430    15352    15248    15128 
