Origin Time       2024/04/02 04:24:00
Lat.              40.133
Long.             141.712
Depth. (km)       71
Mag.              6.0
Station Code      HKD155
Station Lat.      42.0438
Station Long.     140.8064
Station Height(m) 4
Record Time       2024/04/02 04:25:13
Sampling Freq(Hz) 100Hz
Duration Time(s)  93
Dir.              E-W
Scale Factor      7845(gal)/8223790
Max. Acc. (gal)   2.606
Last Correction   2024/04/02 04:25:13
Memo.             
[...]
    5463     5686     5737     5583     5377     5238     5193     5120 
    4958     4884     5007     5220     5424     5530     5490     5460 
    5520     5520     5452     5439     5490     5611     5803     5918 
    5881     5810     5751     5640     5520     5497     5607     5757 
    5857     5957     6029     5938     5806     5795     5733     5464 
    5224     5243     5358     5389     5429     5479     5387     5304 
    5513     5848     5972     5917     5834     5738     5618     5475 
    5278     5100     5112     5281     5386     5356     5348     5537 
    5817     5911     5829     5761     5769     5853     5872     5610 
    5266     5216     5382     5462     5382     5246     5184     5254 
    5351     5347     5306     5373     5489     5529     5483     5416 
    5464     5676     5876     5890     5787     5740     5755     5749 
    5783     5887     5849     5659     5616     5695     5659     5605 
    5651     5664     5555     5367     5147     4955     4953     5192 
    5390     5297     5096     5077     5260     5521     5741     5803 
    5713     5701     5872     5953     5769     5568     5556     5622 
    5675     5763     5823     5836     5881     5856     5679     5502 
    5373     5275     5260     5256     5286     5486     5702     5769 
    5814     5853     5757     5597     5572     5683     5721     5636 
    5647     5780     5783     5609     5512     5610     5732     5763 
    5736     5624     5489     5541     5695     5626     5381     5332 
    5513     5572     5448     5385     5373     5278     5217     5285 
    5428     5602     5697     5645     5567     5541     5570     5709 
    5857     5784     5578     5564     5784     5996     6061     6027 
    5962     5903     5844     5692     5432     5267     5343     5427 
    5339     5292     5360     5317     5170     5155     5211     5170 
    5188     5395     5549     5451     5270     5228     5323     5470 
    5575     5537     5474     5603     5884     6084     6107     6064 
    6038     6004     5923     5783     5637     5587     5684     5838 
    5887     5737     5474     5258     5096     4945     4835     4792 
    4923     5243     5497     5549     5525     5497     5487     5532 
    5553     5486     5454     5553     5680     5751     5833     5976 
    6088     6049     5854     5622     5478     5528     5813     6092 
    6080     5940     5957     6000     5829     5574     5501     5582 
    5626     5613     5566     5422     5265     5242     5274     5255 
    5239     5314     5479     5579     5520     5436     5456     5489 
    5441     5413     5483     5566     5636     5765     5917     6008 
    6072     6139     6120     5926     5652     5514     5576     5691 
    5705     5582     5418     5323     5287     5251     5193     5220 
    5387     5506     5486     5433     5377     5306     5263     5228 
    5155     5069     5042     5088     5173     5240     5244     5269 
    5429     5657     5836     5971     6077     6068     5890     5691 
    5606     5564     5539     5578     5594     5505     5420     5466 
    5601     5670     5557     5333     5157     5124     5217     5314 
    5355     5402     5466     5503     5520     5513     5456     5398 
    5433     5556     5709     5891     6056     6083     5967     5826 
    5729     5659     5602     5528     5449     5466     5611     5767 
    5778     5622     5441     5391     5503     5578     5425     5269 
    5374     5532     5495     5387     5333     5344     5482     5706 
    5822     5757     5665     5657     5661     5629     5614     5651 
    5695     5718     5756     5722     5529     5408     5491     5595 
    5671     5787     5865     5859     5895     5994     5971     5784 
    5609     5559     5591     5670     5790     5872     5856     5763 
    5616     5476     5394     5336     5277     5217     5127     4993 
    4931     5057     5247     5309     5282     5271     5287     5405 
    5659     5917     6054     6076     6000     5840     5701     5695 
    5786     5834     5782     5751     5807     5849     5846     5833 
    5764     5632     5483     5359     5362     5545     5719     5668 
    5468     5320     5270     5283     5360     5502     5661     5760 
    5807     5922     6116     6220     6130     5933     5718     5466 
    5235     5186     5278     5286     5194     5228     5451     5657 
    5733     5711     5535     5269     5206     5379     5513     5521 
    5517     5526     5487     5358     5206     5138     5147     5205 
    5287     5274     5135     5094     5301     5620     5865     5921 
    5783     5644     5683     5840     5937     5894     5710     5444 
    5269     5319     5458     5559     5657     5663     5528     5498 
    5670     5784     5705     5541     5368     5204     5144     5309 
    5636     5853     5852     5818     5857     5861     5830     5886 
    5980     5949     5782     5621     5593     5645     5632     5545 
    5402     5184     5031     5078     5167     5157     5194     5377 
    5562     5711     5915     6093     6083     5931     5841     5871 
    5871     5768     5705     5751     5764     5643     5455     5340 
    5370     5391     5258     5107     5108     5250     5435     5516 
    5395     5194     5082     5109     5219     5321     5390     5455 
    5490     5521     5621     5698     5674     5668     5643     5468 
    5316     5350     5413     5360     5258     5189     5142     5105 
    5132     5267     5436     5589     5757     5935     6123     6326 
    6470     6504     6432     6304     6166     5977     5703     5440 
    5279     5224     5263     5368     5449     5435     5368     5327 
    5332     5368     5432     5532     5616     5601     5510     5470 
    5503     5508     5444     5394     5437     5578     5780     5999 
    6087     5994     5883     5798     5659     5530     5464     5402 
    5363     5436     5530     5471     5346     5377     5578     5776 
    5833     5787     5752     5768     5836     5888     5844     5741 
    5695     5787     5942     5960     5833     5807     5907     5863 
    5667     5606     5714     5738     5567     5355     5278     5335 
    5397     5401     5402     5436     5472     5431     5217     4950 
    4908     5080     5223     5368     5684     6026     6193     6226 
    6169     6023     5935     5985     5989     5751     5364     5077 
    4946     4842     4768     4824     4970     5162     5463     5717 
    5703     5597     5640     5688     5553     5382     5389     5505 
    5521     5485     5570     5688     5674     5560     5445     5413 
    5501     5574     5510     5416     5427     5463     5440     5456 
    5530     5529     5431     5305     5221     5244     5298     5267 
    5215     5223     5285     5400     5533     5590     5530     5464 
    5570     5822     5935     5784     5607     5617     5718     5796 
    5864     5871     5825     5849     5907     5930     5958     5911 
    5745     5672     5783     5836     5678     5506     5521     5572 
    5537     5578     5686     5652     5579     5613     5552     5313 
    5121     5094     5150     5202     5223     5217     5242     5343 
    5490     5624     5729     5865     6015     6029     5919     5856 
    5864     5836     5729     5555     5337     5198     5250     5390 
    5470     5467     5463     5505     5528     5449     5306     5247 
    5336     5499     5694     5861     5968     6127     6257     6088 
    5709     5471     5464     5478     5363     5219     5197     5298 
    5400     5429     5490     5703     5935     6023     6029     6011 
    5960     5937     5995     6079     6050     5832     5613     5548 
    5443     5220     5139     5259     5377     5437     5501     5521 
    5472     5424     5350     5243     5251     5377     5418     5348 
    5329     5355     5367     5572     6054     6453     6458     6199 
    5927     5717     5532     5332     5140     5012     4973     5062 
    5251     5409     5475     5479     5458     5466     5495     5490 
    5451     5412     5402     5385     5239     4995     4901     5080 
    5271     5231     5196     5425     5690     5699     5535     5352 
    5212     5227     5337     5265     5020     5003     5305     5595 
    5657     5587     5594     5756     5949     6046     6069     6114 
    6246     6400     6362     6075     5834     5853     5930     5809 
    5564     5460     5568     5721     5771     5772     5830     5880 
    5922     5918     5738     5633     5784     5913     5879     5760 
    5643     5533     5366     5283     5389     5482     5478     5486 
    5521     5545     5599     5664     5603     5391     5219     5198 
    5155     5044     5111     5400     5624     5584     5400     5255 
    5243     5340     5445     5462     5367     5312     5440     5599 
    5629     5614     5614     5621     5660     5675     5599     5548 
    5657     5786     5763     5756     5879     5938     5841     5794 
    5825     5624     5265     5220     5454     5536     5479     5535 
    5637     5648     5601     5535     5460     5452     5602     5821 
    5900     5856     5879     5964     5876     5602     5379     5147 
    4968     5151     5302     5082     5024     5298     5543     5684 
    5702     5526     5355     5387     5594     5782     5710     5485 
    5486     5674     5698     5551     5514     5652     5779     5875 
    5981     5977     5918     5975     6103     6177     6106     5929 
    5805     5756     5698     5594     5417     5316     5406     5455 
    5391     5517     5825     5972     5913     5863     5738     5359 
    5093     5286     5491     5366     5321     5580     5734     5572 
    5436     5548     5657     5562     5460     5487     5441     5266 
    5109     4955     4758     4660     4699     4742     4800     4986 
    5293     5625     5815     5746     5512     5282     5200     5292 
    5323     5107     4877     4905     5028     5031     5071     5316 
    5626     5825     5944     6085     6232     6307     6270     6153 
    6037     5957     5908     5876     5867     5938     6025     5984 
    5887     5877     5910     5799     5524     5358     5470     5711 
    5861     5822     5752     5764     5798     5751     5497     5248 
    5266     5317     5227     5152     5194     5323     5463     5582 
    5638     5609     5586     5640     5759     5836     5819     5899 
    6043     5994     5763     5499     5375     5521     5702     5647 
    5583     5764     5904     5740     5493     5367     5340     5335 
    5208     4973     4838     4847     4892     5003     5269     5594 
    5810     5886     5857     5803     5818     5849     5779     5621 
    5499     5474     5464     5424     5359     5211     4980     4816 
    4908     5197     5354     5302     5362     5732     6184     6313 
    6072     5868     5933     5979     5840     5755     5802     5795 
    5638     5397     5244     5223     5139     5007     5085     5356 
    5618     5734     5602     5385     5416     5609     5671     5706 
    5886     6076     6178     6235     6246     6265     6340     6393 
    6339     6096     5784     5724     5822     5671     5262     4951 
    4977     5189     5293     5270     5217     5178     5255     5456 
    5621     5553     5298     5235     5495     5678     5598     5547 
    5661     5746     5651     5594     5872     6304     6439     6178 
    5873     5805     5859     5830     5703     5570     5539     5651 
    5751     5737     5845     6205     6477     6490     6504     6646 
    6756     6670     6498     6381     6154     5881     5837     5821 
    5651     5665     5969     6102     5900     5730     5746     5744 
    5694     5745     5805     5775     5836     5987     6014     5914 
    5794     5647     5401     5170     5147     5239     5293     5325 
    5238     4922     4533     4248     4031     3801     3627     3688 
    4006     4330     4441     4363     4221     4075     3940     3831 
    3742     3753     4002     4456     5022     5616     5968     5899 
    5617     5385     5282     5240     5161     5163     5385     5626 
    5690     5667     5570     5298     5043     5027     5117     5221 
    5471     5915     6465     6898     7045     7037     7018     7045 
    7196     7329     7265     7161     7113     6947     6588     6154 
    5815     5647     5540     5397     5271     5196     5177     5298 
    5572     5806     5881     5927     6011     6079     6096     5934 
    5510     5104     5004     5138     5309     5427     5505     5568 
    5552     5435     5286     5089     4808     4558     4498     4600 
    4650     4504     4253     4016     3740     3433     3280     3289 
    3241     3227     3558     4117     4500     4573     4511     4459 
    4386     4337     4368     4371     4456     4833     5337     5778 
    6230     6717     7029     7095     7106     7121     7068     6968 
    6848     6713     6544     6334     6211     6293     6512     6718 
    6856     6986     7130     7187     7144     7206     7491     7842 
    8059     8087     7959     7700     7446     7323     7153     6820 
    6567     6465     6218     5767     5524     5695     5989     6165 
    6241     6187     5910     5568     5532     5800     6006     6093 
    6357     6798     7074     6986     6651     6237     5814     5382 
    4954     4612     4380     4116     3697     3204     2857     2832 
    3087     3372     3443     3338     3341     3694     4337     4963 
    5323     5424     5410     5348     5262     5282     5472     5744 
    5987     6056     5841     5441     5054     4846     4757     4492 
    4008     3670     3694     3809     3789     3893     4336     4897 
    5339     5638     5817     5890     5994     6242     6446     6448 
    6458     6600     6704     6685     6662     6658     6547     6363 
    6282     6218     5883     5412     5186     5093     4847     4580 
    4428     4291     4226     4367     4557     4693     4985     5444 
    5834     6120     6490     7032     7487     7624     7551     7283 
    6727     6137     5806     5706     5746     5860     5938     5961 
    5859     5490     5028     4781     4689     4525     4317     4170 
    4087     4216     4675     5248     5628     5709     5648     5698 
    5891     6139     6424     6629     6666     6723     6868     6848 
    6581     6319     6139     5814     5379     5131     5055     5001 
    4995     5066     5162     5227     5347     5634     5981     6216 
    6327     6345     6312     6339     6512     6770     6986     7034 
    6748     6131     5467     4943     4614     4530     4579     4530 
    4401     4409     4530     4627     4722     4816     4874     4853 
    4795     4868     5104     5385     5601     5674     5611     5486 
    5317     5135     5040     5047     5058     5032     5001     4930 
    4850     5003     5433     5799     5829     5586     5283     5066 
    4915     4769     4699     4793     5089     5574     6012     6153 
    6138     6220     6303     6204     5994     5806     5699     5813 
    6258     6770     6961     6968     7184     7557     7693     7446 
    7075     6771     6439     6073     5795     5582     5332     4993 
    4639     4514     4834     5431     5803     5752     5614     5672 
    5769     5680     5498     5340     5113     4873     4841     4981 
    5082     5115     5219     5355     5290     5082     5061     5223 
    5202     4838     4299     3835     3627     3720     3916     3990 
    4083     4479     5057     5491     5784     6135     6493     6667 
    6664     6527     6162     5664     5387     5445     5613     5860 
    6266     6551     6466     6269     6166     5962     5595     5360 
    5320     5152     4861     4857     5173     5418     5435     5428 
    5571     5871     6304     6795     7191     7442     7619     7753 
    7720     7396     6926     6621     6561     6565     6448     6157 
    5779     5495     5410     5343     5073     4785     4747     4811 
    4735     4549     4363     4228     4252     4588     5140     5634 
    5980     6211     6270     6100     5773     5514     5467     5552 
    5664     5836     6118     6448     6633     6473     5989     5402 
    4893     4515     4294     4278     4382     4465     4630     4986 
    5287     5386     5445     5452     5296     5115     5066     5139 
    5267     5510     5985     6462     6528     6312     6247     6242 
    5967     5589     5441     5421     5370     5448     5717     6052 
    6405     6640     6561     6319     6212     6191     5976     5582 
    5297     5109     4799     4499     4476     4648     4870     5266 
    5761     5988     5980     6093     6296     6296     6043     5625 
    5078     4529     4195     4082     3993     3932     4064     4457 
    4973     5394     5661     5760     5620     5308     4941     4598 
    4502     4820     5456     6203     6872     7329     7551     7524 
    7218     6714     6102     5414     4777     4272     3855     3589 
    3638     3960     4355     4696     4958     5146     5296     5537 
    5933     6280     6340     6158     5975     5958     6062     6122 
    6037     5849     5713     5698     5687     5628     5575     5494 
    5362     5352     5564     5803     5904     5946     6058     6222 
    6336     6516     6832     7005     6893     6612     6143     5495 
    4893     4425     4001     3751     3888     4338     4887     5337 
    5636     5914     6173     6228     6048     5757     5405     5069 
    4932     4932     4837     4703     4734     4941     5267     5617 
    5751     5514     5103     4851     4776     4680     4703     5134 
    5751     6108     6243     6359     6324     6048     5800     5809 
    5958     6018     5930     5822     5805     5915     6058     6012 
    5798     5644     5582     5530     5487     5468     5482     5598 
    5933     6377     6597     6502     6330     6261     6308     6397 
    6372     6118     5815     5741     5776     5626     5364     5163 
    5062     5190     5513     5661     5547     5555     5857     6183 
    6308     6247     6046     5722     5397     5200     5067     4955 
    5023     5293     5506     5533     5567     5661     5598     5316 
    4961     4695     4706     5035     5474     5787     5890     5778 
    5428     4873     4326     4068     4159     4434     4780     5186 
    5605     5972     6315     6619     6743     6605     6304     5981 
    5728     5618     5688     5833     5879     5815     5790     5848 
    5879     5833     5809     5864     5973     6087     6157     6156 
    5996     5579     5044     4766     4943     5431     5987     6465 
    6806     6899     6608     6102     5655     5238     4839     4680 
    4789     4919     4963     5038     5066     4876     4677     4700 
    4745     4627     4529     4602     4730     4854     5028     5170 
    5219     5317     5562     5821     5958     5992     5956     5751 
    5355     5007     4922     5017     5100     5177     5356     5529 
    5528     5387     5134     4796     4626     4789     5128     5468 
    5772     5991     6077     6089     6097     6037     5818     5595 
