Origin Time       2024/04/02 04:24:00
Lat.              40.133
Long.             141.712
Depth. (km)       71
Mag.              6.0
Station Code      HKD171
Station Lat.      41.6490
Station Long.     139.9979
Station Height(m) 31
Record Time       2024/04/02 04:25:10
Sampling Freq(Hz) 100Hz
Duration Time(s)  92
Dir.              U-D
Scale Factor      7845(gal)/8223790
Max. Acc. (gal)   1.237
Last Correction   2024/04/02 04:25:10
Memo.             
[...]
    -329     -311     -342     -336     -313     -332     -344     -330 
    -330     -334     -321     -314     -334     -351     -318     -297 
    -345     -365     -315     -311     -344     -317     -306     -355 
    -363     -322     -330     -345     -311     -314     -342     -317 
    -306     -353     -365     -329     -318     -315     -291     -309 
    -359     -357     -330     -340     -349     -325     -310     -307 
    -310     -344     -367     -341     -317     -322     -319     -305 
    -319     -356     -355     -336     -336     -321     -313     -333 
    -325     -302     -332     -373     -356     -310     -297     -318 
    -341     -351     -334     -325     -333     -317     -297     -318 
    -346     -368     -372     -322     -283     -303     -317     -333 
    -367     -360     -325     -313     -318     -325     -333     -332 
    -305     -301     -361     -388     -338     -303     -310     -311 
    -311     -328     -357     -378     -348     -286     -283     -351 
    -373     -326     -302     -322     -338     -346     -342     -328 
    -321     -324     -326     -322     -318     -338     -361     -351 
    -326     -309     -297     -317     -355     -352     -333     -325 
    -314     -328     -352     -333     -310     -326     -351     -334 
    -303     -322     -355     -341     -324     -325     -310     -317 
    -359     -348     -309     -325     -340     -322     -324     -338 
    -344     -340     -330     -309     -306     -337     -351     -334 
    -337     -344     -309     -302     -345     -344     -326     -348 
    -340     -313     -319     -319     -325     -368     -363     -298 
    -290     -330     -344     -345     -341     -313     -317     -356 
    -338     -299     -318     -332     -328     -364     -360     -310 
    -324     -340     -291     -292     -361     -376     -344     -337 
    -309     -283     -328     -353     -336     -348     -359     -317 
    -288     -302     -313     -348     -392     -353     -294     -306 
    -329     -326     -330     -338     -333     -328     -328     -329 
    -333     -333     -330     -326     -317     -325     -338     -342 
    -336     -317     -315     -334     -334     -332     -337     -326 
    -328     -345     -318     -301     -352     -369     -324     -313 
    -325     -313     -326     -353     -340     -325     -336     -334 
    -313     -306     -344     -359     -322     -322     -340     -330 
    -338     -337     -313     -317     -334     -345     -349     -328 
    -324     -337     -307     -310     -351     -336     -340     -353 
    -299     -299     -361     -340     -292     -321     -357     -353 
    -337     -315     -309     -324     -344     -344     -313     -307 
    -341     -351     -338     -330     -315     -313     -319     -329 
    -360     -349     -295     -310     -357     -336     -313     -325 
    -329     -337     -348     -333     -314     -319     -332     -324 
    -317     -338     -341     -314     -318     -342     -328     -306 
    -336     -365     -345     -305     -297     -334     -357     -322 
    -319     -367     -355     -311     -301     -280     -295     -367 
    -379     -344     -346     -329     -286     -284     -305     -348 
    -390     -373     -325     -294     -299     -334     -338     -324 
    -345     -340     -307     -336     -348     -298     -303     -346 
    -352     -352     -332     -292     -313     -351     -337     -326 
    -341     -322     -310     -348     -344     -303     -325     -353 
    -330     -315     -330     -328     -303     -311     -353     -373 
    -356     -310     -271     -291     -345     -375     -371     -340 
    -301     -287     -309     -332     -341     -334     -340     -364 
    -334     -279     -291     -322     -351     -384     -353     -301 
    -315     -334     -313     -321     -348     -336     -315     -324 
    -341     -341     -333     -333     -309     -302     -346     -346 
    -319     -361     -373     -299     -275     -324     -346     -346 
    -346     -332     -314     -317     -333     -328     -326     -349 
    -338     -314     -330     -329     -314     -352     -357     -301 
    -307     -344     -334     -333     -334     -310     -309     -336 
    -348     -326     -315     -340     -341     -318     -322     -334 
    -337     -346     -336     -302     -313     -356     -351     -307 
    -307     -345     -346     -317     -319     -333     -324     -318 
    -341     -348     -305     -310     -369     -349     -305     -329 
    -328     -302     -346     -373     -333     -315     -313     -298 
    -324     -365     -363     -330     -307     -303     -313     -340 
    -351     -329     -332     -348     -324     -315     -342     -321 
    -306     -360     -371     -315     -294     -321     -342     -321 
    -313     -351     -359     -324     -314     -330     -338     -336 
    -313     -310     -353     -353     -318     -315     -329     -345 
    -336     -297     -309     -361     -365     -336     -313     -297 
    -315     -356     -351     -325     -338     -352     -326     -302 
    -315     -336     -338     -341     -340     -319     -322     -338 
    -306     -298     -372     -382     -310     -290     -313     -338 
    -364     -342     -302     -321     -348     -322     -318     -353 
    -359     -322     -290     -311     -356     -345     -319     -325 
    -317     -332     -361     -318     -291     -352     -361     -318 
    -324     -336     -319     -332     -348     -330     -314     -328 
    -338     -319     -313     -349     -355     -324     -321     -313 
    -298     -333     -375     -368     -336     -303     -292     -315 
    -352     -363     -340     -317     -317     -329     -326     -315 
    -329     -357     -348     -305     -302     -334     -344     -342 
    -341     -325     -322     -341     -322     -295     -333     -376 
    -345     -299     -303     -324     -345     -357     -333     -311 
    -314     -322     -340     -344     -326     -337     -345     -309 
    -305     -338     -346     -344     -340     -322     -314     -321 
    -322     -325     -345     -360     -326     -287     -318     -359 
    -344     -324     -309     -311     -355     -351     -309     -326 
    -342     -317     -321     -342     -338     -325     -324     -330 
    -336     -336     -329     -318     -328     -355     -346     -311 
    -315     -337     -328     -324     -348     -342     -315     -325 
    -332     -315     -332     -345     -328     -333     -344     -328 
    -324     -324     -306     -310     -340     -359     -337     -315 
    -329     -330     -321     -337     -337     -321     -332     -334 
    -319     -336     -346     -325     -315     -317     -340     -364 
    -338     -318     -330     -307     -294     -340     -361     -337 
    -338     -334     -305     -310     -334     -332     -330     -352 
    -357     -321     -302     -317     -317     -330     -357     -341 
    -321     -328     -319     -310     -333     -357     -342     -318 
    -311     -321     -348     -357     -325     -305     -311     -326 
    -352     -359     -337     -328     -317     -295     -313     -345 
    -361     -376     -332     -272     -297     -328     -332     -365 
    -365     -326     -313     -313     -314     -324     -341     -356 
    -332     -306     -340     -352     -310     -309     -333     -330 
    -346     -348     -310     -302     -326     -349     -346     -326 
    -340     -334     -294     -319     -352     -329     -344     -356 
    -307     -295     -330     -338     -340     -352     -333     -315 
    -325     -325     -321     -332     -333     -324     -329     -355 
    -355     -322     -318     -317     -288     -309     -364     -364 
    -337     -333     -326     -307     -309     -324     -322     -330 
    -364     -371     -330     -301     -305     -299     -301     -349 
    -386     -361     -328     -306     -292     -309     -334     -340 
    -340     -341     -340     -337     -321     -309     -326     -321 
    -301     -334     -364     -355     -348     -317     -268     -286 
    -353     -386     -363     -334     -310     -279     -305     -367 
    -360     -322     -328     -326     -328     -341     -318     -302 
    -330     -333     -325     -348     -353     -332     -309     -295 
    -324     -357     -346     -332     -329     -317     -314     -321 
    -328     -340     -349     -340     -319     -313     -319     -328 
    -332     -341     -344     -329     -325     -329     -317     -317 
    -332     -344     -342     -319     -309     -329     -341     -338 
    -328     -315     -319     -325     -326     -345     -355     -321 
    -291     -306     -349     -361     -329     -319     -328     -315 
    -322     -349     -342     -318     -314     -328     -338     -345 
    -345     -314     -298     -336     -349     -322     -341     -352 
    -303     -302     -341     -330     -326     -356     -351     -317 
    -309     -321     -324     -334     -360     -348     -313     -311 
    -322     -329     -338     -333     -329     -341     -322     -303 
    -333     -351     -326     -325     -348     -332     -299     -322 
    -357     -341     -324     -326     -315     -321     -342     -338 
    -332     -329     -310     -317     -344     -346     -336     -328 
    -325     -336     -337     -314     -306     -332     -357     -355 
    -338     -322     -294     -288     -332     -363     -352     -336 
    -324     -325     -334     -322     -311     -333     -349     -337 
    -328     -342     -341     -301     -287     -340     -368     -334 
    -314     -317     -326     -344     -336     -318     -321     -330 
    -346     -345     -322     -322     -328     -317     -326     -344 
    -333     -322     -338     -348     -332     -299     -287     -325 
    -373     -373     -338     -310     -311     -319     -324     -337 
    -351     -338     -325     -332     -334     -324     -318     -325 
    -330     -332     -338     -338     -326     -328     -338     -330 
    -314     -311     -330     -352     -359     -342     -314     -305 
    -322     -337     -338     -342     -332     -313     -313     -321 
    -334     -353     -352     -328     -302     -311     -338     -334 
    -329     -341     -333     -319     -325     -328     -322     -334 
    -352     -334     -313     -321     -336     -326     -314     -329 
    -337     -336     -351     -344     -310     -311     -326     -321 
    -333     -346     -333     -334     -345     -325     -298     -305 
    -336     -351     -348     -340     -314     -303     -330     -341 
    -333     -334     -321     -322     -341     -337     -326     -322 
    -315     -332     -351     -332     -319     -336     -338     -329 
    -315     -307     -325     -348     -345     -325     -321     -341 
    -338     -315     -318     -325     -332     -348     -342     -328 
    -332     -336     -328     -306     -307     -348     -365     -352 
    -334     -301     -290     -324     -345     -337     -345     -348 
    -317     -299     -311     -328     -340     -348     -357     -334 
    -291     -299     -336     -352     -349     -332     -322     -322 
    -315     -315     -334     -355     -353     -319     -295     -318 
    -352     -345     -322     -326     -337     -334     -321     -314 
    -333     -357     -348     -314     -305     -317     -329     -340 
    -336     -329     -338     -332     -310     -313     -321     -333 
    -356     -348     -326     -336     -329     -302     -305     -333 
    -351     -351     -349     -333     -299     -301     -322     -319 
    -345     -386     -357     -306     -284     -290     -337     -382 
    -361     -319     -315     -337     -328     -295     -319     -361 
    -346     -337     -348     -322     -295     -307     -324     -344 
    -367     -351     -315     -309     -328     -338     -332     -337 
    -348     -328     -306     -310     -315     -329     -351     -363 
    -357     -328     -297     -291     -307     -340     -368     -373 
    -352     -314     -291     -303     -324     -330     -341     -365 
    -351     -310     -309     -317     -319     -340     -344     -328 
    -336     -346     -325     -318     -340     -330     -311     -344 
    -369     -338     -322     -345     -359     -355     -352     -349 
    -348     -353     -363     -372     -371     -349     -317     -287 
    -282     -290     -259     -221     -236     -256     -264     -302 
    -341     -376     -471     -573     -573     -508     -453     -399 
    -336     -302     -333     -396     -459     -525     -580     -548 
    -413     -267     -147      -20       51       32       -6      -52 
    -117     -182     -275     -441     -630     -751     -770     -695 
    -550     -442     -438     -479     -508     -502     -402     -244 
    -145     -122     -141     -241     -376     -445     -452     -373 
    -166      116      398      610      668      526      191     -259 
    -711    -1098    -1347    -1416    -1377    -1293    -1188    -1061 
    -845     -519     -194       54      232      334      321      197 
       5     -199     -383     -525     -577     -506     -346     -133 
      93      224      197       27     -234     -419     -427     -325 
    -209     -201     -364     -611     -849     -977     -900     -607 
    -117      459      868      967      796      403      -64     -376 
    -440     -259       85      356      351       55     -442    -1004 
   -1409    -1455    -1134     -621     -125      199      263       99 
    -148     -356     -448     -467     -540     -684     -868    -1032 
   -1030     -827     -623     -540     -481     -301       59      525 
     913      955      511     -211     -866    -1279    -1386    -1215 
    -972     -878     -967    -1111    -1125     -924     -589     -240 
      74      329      508      599      479       56     -492     -891 
    -992     -783     -411     -105       10      -75     -309     -523 
    -507     -292     -132     -137     -263     -513     -769     -756 
    -441      -55      220      241      -22     -388     -661     -731 
    -556     -288     -145     -157     -307     -604     -935    -1147 
   -1151     -912     -498      -64      241      301       43     -360 
    -545     -395     -108      137      267      257      152       24 
     -62      -99     -187     -405     -699     -923     -954     -909 
   -1023    -1252    -1401    -1374    -1104     -549      141      657 
     780      576      207     -226     -599     -726     -544     -183 
     145      276      149     -167     -502     -621     -382       75 
     368      237     -175     -531     -618     -473     -278     -149 
     -97      -97     -126     -112        5      140      178      156 
     108      -48     -365     -780    -1189    -1452    -1422    -1086 
    -580     -128      -31     -355     -730     -855     -795     -630 
    -380     -117       93      214      210       -2     -426     -837 
    -967     -750     -355      -13      193      243      118      -32 
     -33       49      108      139      118       29     -144     -446 
    -820    -1121    -1213    -1024     -676     -429     -417     -554 
    -660     -616     -433     -141      171      298      118     -268 
    -691     -959     -961     -722     -333       -9       44      -87 
    -238     -415     -612     -708     -643     -468     -240      -14 
     110       83      -67     -241     -313     -202       22      144 
      13     -311     -699     -986    -1021     -776     -337       82 
     237      109     -159     -473     -729     -814     -723     -483 
    -106      315      554      378     -120     -550     -735     -737 
    -541     -182      101       76     -268     -727    -1077    -1233 
   -1135     -746     -205      252      446      272     -210     -675 
    -789     -584     -301      -91      -44     -186     -441     -677 
    -801     -812     -760     -672     -567     -515     -517     -452 
    -272      -44      184      363      360      160      -68     -224 
    -356     -473     -546     -625     -664     -546     -328     -129 
       0       59       41     -110     -405     -662     -750     -742 
    -642     -342       17      178      102     -149     -472     -614 
    -484     -271      -75      113      191       40     -306     -666 
    -866     -850     -703     -568     -486     -454     -614     -893 
    -953     -706     -402     -199     -108     -172     -357     -419 
    -238       78      383      496      291      -86     -367     -495 
    -521     -467     -432     -454     -407     -286     -202     -108 
      -2      -62     -286     -503     -611     -592     -537     -515 
    -442     -295     -209     -248     -337     -440     -535     -514 
    -294       43      291      270       40     -243     -527     -739 
    -724     -487     -238     -140     -184     -369     -658     -878 
    -908     -766     -465     -117       21      -81     -257     -441 
    -571     -538     -398     -283     -216     -164     -171     -247 
    -271     -214     -198     -236     -278     -356     -445     -492 
    -477     -368     -234     -211     -278     -306     -232     -118 
    -101     -225     -414     -540     -527     -426     -328     -330 
    -519     -773     -827     -645     -418     -276     -229     -233 
    -249     -255     -178      -44      -22     -114     -187     -220 
    -252     -274     -251     -189      -94       13       31     -114 
    -351     -530     -544     -415     -336     -367     -345     -243 
    -194     -245     -368     -564     -758     -749     -464      -91 
     140      118     -139     -492     -720     -723     -587     -465 
    -441     -476     -517     -527     -448     -342     -353     -454 
    -494     -380     -224     -222     -367     -492     -550     -535 
    -409     -228     -108     -113     -245     -409     -467     -365 
    -167       20      125       67     -191     -530     -792     -903 
    -812     -481      -71      155      162       37     -178     -388 
    -526     -581     -491     -243       20       99      -55     -310 
    -550     -734     -762     -584     -313     -125      -90     -144 
    -194     -217     -255     -372     -549     -607     -456     -237 
    -114     -126     -217     -309     -427     -588     -660     -541 
    -305     -102      -56     -197     -410     -545     -585     -575 
    -508     -361     -174      -71      -97     -178     -345     -602 
    -715     -572     -349     -172      -66     -125     -348     -548 
    -625     -621     -522     -299      -35      125       68     -189 
    -468     -625     -676     -629     -400      -89       41      -24 
    -139     -274     -365     -313     -172      -39       14      -82 
    -291     -483     -602     -612     -450     -159       83      162 
     129       12     -233     -490     -571     -490     -390     -328 
    -309     -352     -461     -607     -715     -730     -675     -553 
    -380     -287     -356     -457     -432     -342     -322     -372 
    -422     -356     -163        2       67       21     -179     -463 
