Origin Time       2024/04/02 04:24:00
Lat.              40.133
Long.             141.712
Depth. (km)       71
Mag.              6.0
Station Code      HKD184
Station Lat.      42.7898
Station Long.     141.6008
Station Height(m) 69
Record Time       2024/04/02 04:25:24
Sampling Freq(Hz) 100Hz
Duration Time(s)  101
Dir.              E-W
Scale Factor      7845(gal)/8223790
Max. Acc. (gal)   6.664
Last Correction   2024/04/02 04:25:24
Memo.             
[...]
   -3635    -3434    -3083    -2806    -2648    -2386    -1985    -1674 
   -1595    -1694    -1933    -2274    -2614    -2949    -3350    -3769 
   -4044    -4033    -3693    -3154    -2706    -2538    -2516    -2425 
   -2254    -2138    -2203    -2389    -2573    -2810    -3146    -3368 
   -3281    -3036    -2894    -2826    -2673    -2519    -2544    -2714 
   -2789    -2574    -2295    -2358    -2662    -2808    -2845    -2992 
   -3136    -3145    -3125    -3106    -2971    -2716    -2488    -2376 
   -2389    -2539    -2745    -2907    -3072    -3275    -3364    -3140 
   -2644    -2176    -1890    -1738    -1737    -1914    -2187    -2425 
   -2524    -2578    -2794    -3055    -3156    -3241    -3366    -3268 
   -2925    -2617    -2457    -2308    -2085    -1860    -1675    -1520 
   -1532    -1818    -2176    -2434    -2716    -3086    -3453    -3828 
   -4174    -4248    -3947    -3538    -3283    -3068    -2724    -2393 
   -2246    -2189    -2119    -2103    -2230    -2466    -2677    -2797 
   -2868    -2918    -2883    -2756    -2681    -2720    -2736    -2693 
   -2686    -2747    -2890    -3126    -3380    -3577    -3672    -3578 
   -3276    -2882    -2573    -2504    -2604    -2575    -2332    -2083 
   -1915    -1807    -1877    -2128    -2309    -2295    -2317    -2594 
   -2956    -3106    -2979    -2714    -2552    -2685    -3088    -3527 
   -3699    -3438    -2928    -2565    -2512    -2551    -2450    -2246 
   -2033    -1836    -1863    -2315    -2898    -3163    -3137    -3115 
   -3126    -3091    -3138    -3252    -3106    -2687    -2427    -2493 
   -2722    -3006    -3153    -2841    -2139    -1567    -1420    -1564 
   -1834    -2227    -2759    -3238    -3447    -3618    -4033    -4341 
   -4083    -3464    -2903    -2536    -2405    -2457    -2501    -2448 
   -2281    -2062    -1984    -2054    -2064    -1991    -2047    -2211 
   -2255    -2235    -2373    -2681    -3115    -3631    -3960    -3888 
   -3597    -3391    -3299    -3136    -2803    -2432    -2155    -1987 
   -2030    -2326    -2570    -2490    -2258    -2165    -2241    -2448 
   -2786    -3072    -3088    -2967    -2951    -3051    -3295    -3655 
   -3672    -3063    -2247    -1698    -1529    -1706    -2126    -2617 
   -2934    -2943    -2924    -3198    -3550    -3566    -3300    -3119 
   -3152    -3300    -3484    -3565    -3285    -2535    -1629    -1065 
   -1077    -1552    -2154    -2529    -2664    -2853    -3202    -3516 
   -3569    -3307    -2897    -2533    -2296    -2262    -2454    -2633 
   -2558    -2335    -2284    -2520    -2828    -3018    -3076    -2964 
   -2798    -2898    -3241    -3441    -3339    -2967    -2354    -1821 
   -1744    -1927    -1937    -1831    -1914    -2184    -2473    -2766 
   -3098    -3403    -3532    -3396    -3126    -3015    -3167    -3343 
   -3331    -3276    -3373    -3466    -3414    -3316    -3136    -2754 
   -2235    -1740    -1490    -1599    -1783    -1788    -1842    -2149 
   -2583    -3013    -3362    -3555    -3542    -3327    -3083    -2983 
   -2947    -2847    -2799    -2907    -2975    -2887    -2826    -2744 
   -2477    -2251    -2177    -2074    -2074    -2257    -2338    -2317 
   -2463    -2691    -2763    -2732    -2786    -2968    -3204    -3393 
   -3497    -3570    -3595    -3492    -3312    -3137    -2925    -2660 
   -2409    -2147    -1877    -1664    -1418    -1169    -1228    -1630 
   -2049    -2363    -2619    -2775    -2880    -3034    -3244    -3483 
   -3689    -3711    -3539    -3500    -3672    -3630    -3273    -2968 
   -2795    -2608    -2459    -2363    -2126    -1723    -1368    -1262 
   -1533    -2064    -2465    -2577    -2612    -2702    -2774    -2844 
   -3021    -3235    -3298    -3184    -3059    -3078    -3221    -3343 
   -3431    -3449    -3237    -2909    -2686    -2528    -2531    -2805 
   -2988    -2833    -2532    -2214    -1979    -1933    -1946    -1926 
   -2025    -2286    -2601    -2947    -3250    -3319    -3176    -3088 
   -3237    -3505    -3654    -3589    -3299    -2824    -2393    -2228 
   -2327    -2479    -2458    -2270    -2035    -1741    -1456    -1466 
   -1911    -2523    -3001    -3329    -3505    -3569    -3769    -4121 
   -4298    -4174    -3925    -3618    -3153    -2506    -1818    -1343 
   -1090     -896     -959    -1424    -1907    -2185    -2479    -2857 
   -3181    -3430    -3566    -3491    -3319    -3196    -3024    -2797 
   -2701    -2743    -2801    -2841    -2901    -3010    -3084    -2949 
   -2604    -2220    -1872    -1595    -1543    -1780    -2164    -2459 
   -2558    -2529    -2498    -2624    -3011    -3542    -4013    -4251 
   -4153    -3951    -3888    -3747    -3366    -2895    -2366    -1817 
   -1445    -1343    -1480    -1790    -2130    -2430    -2774    -3238 
   -3631    -3686    -3465    -3118    -2647    -2251    -2197    -2396 
   -2555    -2493    -2296    -2307    -2600    -2903    -3136    -3281 
   -3156    -2832    -2635    -2702    -2965    -3229    -3200    -2763 
   -2188    -1883    -1926    -2096    -2270    -2470    -2589    -2575 
   -2667    -3017    -3423    -3640    -3601    -3337    -2918    -2421 
   -1919    -1598    -1621    -1865    -2178    -2660    -3241    -3522 
   -3395    -3171    -3007    -2880    -2794    -2673    -2451    -2246 
   -2185    -2230    -2255    -2241    -2290    -2434    -2631    -2909 
   -3203    -3289    -3042    -2677    -2563    -2749    -2968    -3114 
   -3179    -3091    -2960    -2959    -3040    -3042    -2789    -2376 
   -2245    -2525    -2856    -3018    -2997    -2760    -2432    -2222 
   -2261    -2583    -2932    -2978    -2825    -2756    -2883    -3210 
   -3530    -3573    -3403    -3235    -3141    -3103    -3053    -2857 
   -2454    -1927    -1497    -1414    -1692    -2000    -2081    -2008 
   -1946    -2064    -2540    -3208    -3627    -3731    -3763    -3789 
   -3750    -3609    -3289    -2799    -2297    -1892    -1605    -1452 
   -1368    -1227    -1085    -1138    -1510    -2188    -3069    -3950 
   -4536    -4656    -4446    -4190    -4021    -3850    -3549    -3094 
   -2552    -2085    -1799    -1586    -1387    -1293    -1316    -1455 
   -1848    -2544    -3240    -3538    -3468    -3369    -3410    -3592 
   -3937    -4298    -4342    -3985    -3434    -2848    -2331    -2007 
   -1873    -1823    -1753    -1668    -1675    -1776    -1927    -2203 
   -2606    -2976    -3208    -3323    -3396    -3499    -3557    -3427 
   -3152    -2913    -2741    -2560    -2374    -2231    -2153    -2119 
   -2060    -1976    -1969    -2038    -2091    -2220    -2552    -2875 
   -2972    -2914    -2793    -2718    -2802    -2955    -3132    -3362 
   -3484    -3356    -3057    -2745    -2556    -2502    -2479    -2532 
   -2782    -3063    -3145    -3071    -2926    -2735    -2596    -2513 
   -2331    -2130    -2110    -2188    -2230    -2351    -2695    -3211 
   -3658    -3852    -3855    -3682    -3260    -2793    -2521    -2367 
   -2228    -2089    -1922    -1834    -1915    -2099    -2371    -2689 
   -2891    -2982    -3110    -3260    -3244    -3005    -2747    -2643 
   -2658    -2766    -3007    -3240    -3179    -2809    -2393    -2041 
   -1746    -1695    -2011    -2458    -2767    -2947    -3014    -2899 
   -2721    -2706    -2909    -3194    -3358    -3368    -3337    -3244 
   -3067    -2995    -3087    -3098    -2914    -2644    -2322    -2027 
   -1914    -1906    -1848    -1826    -1927    -2012    -2103    -2357 
   -2687    -2997    -3316    -3553    -3697    -3856    -3943    -3890 
   -3809    -3603    -3149    -2727    -2578    -2482    -2208    -1819 
   -1441    -1178    -1161    -1425    -1846    -2309    -2721    -2926 
   -2955    -3032    -3199    -3318    -3329    -3268    -3125    -2932 
   -2832    -2878    -2990    -3087    -2988    -2582    -2169    -2103 
   -2301    -2427    -2320    -2146    -2165    -2370    -2601    -2898 
   -3269    -3523    -3657    -3736    -3607    -3281    -2941    -2586 
   -2281    -2265    -2488    -2619    -2596    -2565    -2398    -2023 
   -1846    -2111    -2511    -2841    -3172    -3419    -3495    -3523 
   -3530    -3391    -3088    -2667    -2222    -1944    -1922    -2031 
   -2095    -2033    -1939    -2029    -2353    -2767    -3134    -3381 
   -3426    -3311    -3237    -3269    -3329    -3388    -3396    -3246 
   -2929    -2532    -2174    -1973    -1954    -2019    -2157    -2413 
   -2677    -2836    -2878    -2748    -2504    -2376    -2512    -2816 
   -3080    -3152    -3026    -2879    -2856    -2916    -2994    -3025 
   -2934    -2803    -2598    -2189    -1815    -1759    -1921    -2182 
   -2519    -2798    -2953    -2951    -2709    -2438    -2392    -2401 
   -2388    -2605    -2997    -3267    -3429    -3601    -3700    -3538 
   -3100    -2637    -2401    -2349    -2257    -2080    -1911    -1736 
   -1632    -1837    -2380    -3059    -3615    -3782    -3557    -3252 
   -3146    -3214    -3229    -3150    -3096    -2872    -2357    -1985 
   -2020    -2195    -2355    -2466    -2516    -2708    -3019    -3103 
   -2945    -2771    -2585    -2432    -2535    -2876    -3163    -3210 
   -3057    -2820    -2652    -2641    -2718    -2797    -2890    -3029 
   -3102    -2929    -2581    -2296    -2039    -1678    -1435    -1571 
   -1971    -2417    -2793    -2964    -2905    -2799    -2866    -3137 
   -3532    -3889    -3944    -3593    -3117    -2860    -2837    -2841 
   -2783    -2778    -2874    -2893    -2791    -2728    -2640    -2359 
   -1998    -1757    -1726    -2020    -2559    -2914    -2855    -2633 
   -2586    -2806    -3146    -3469    -3736    -3815    -3624    -3404 
   -3360    -3348    -3195    -2932    -2614    -2228    -1846    -1603 
   -1501    -1549    -1792    -2010    -2107    -2366    -2778    -3040 
   -3037    -2771    -2408    -2281    -2583    -3222    -3809    -3948 
   -3626    -3061    -2496    -2133    -1984    -1933    -1950    -2042 
   -2124    -2138    -2226    -2463    -2605    -2542    -2527    -2708 
   -3001    -3304    -3435    -3240    -2937    -2867    -3037    -3268 
   -3476    -3611    -3561    -3258    -2743    -2118    -1513    -1169 
   -1287    -1617    -1788    -1844    -1960    -2197    -2546    -2862 
   -2947    -2763    -2590    -2709    -2952    -3091    -3253    -3438 
   -3395    -3194    -3117    -3103    -2984    -2856    -2762    -2512 
   -2114    -1906    -2008    -2103    -2023    -1946    -1899    -1802 
   -1833    -2184    -2697    -3041    -3240    -3596    -4075    -4403 
   -4522    -4375    -3881    -3237    -2678    -2312    -2231    -2284 
   -2197    -2002    -1887    -1918    -2046    -2212    -2349    -2336 
   -2181    -2088    -2195    -2462    -2875    -3456    -4051    -4402 
   -4519    -4564    -4482    -4190    -3809    -3387    -2825    -2181 
   -1672    -1485    -1688    -2127    -2501    -2708    -2867    -2990 
   -2893    -2652    -2651    -2822    -2771    -2683    -2925    -3300 
   -3580    -3831    -4006    -3951    -3712    -3481    -3296    -3065 
   -2812    -2583    -2382    -2289    -2398    -2594    -2691    -2663 
   -2528    -2293    -2037    -1891    -1894    -1960    -2092    -2388 
   -2821    -3322    -3874    -4361    -4590    -4450    -3962    -3353 
   -2856    -2403    -1931    -1586    -1372    -1128     -850     -729 
    -913    -1386    -2062    -2911    -3854    -4630    -4989    -4914 
   -4550    -4110    -3680    -3208    -2749    -2405    -2200    -2083 
   -1927    -1703    -1607    -1850    -2382    -2909    -3196    -3199 
   -2803    -1908     -819       13      448      517      265     -194 
    -762    -1437    -2241    -3221    -4522    -6065    -7339    -7902 
   -7697    -6737    -5233    -3736    -2517    -1421     -453      261 
     758     1058     1082      843      372     -405    -1456    -2644 
   -3888    -5074    -5971    -6393    -6323    -5772    -4857    -3927 
   -3161    -2548    -2164    -1898    -1570    -1281    -1117    -1036 
   -1036    -1146    -1429    -1775    -2042    -2490    -3179    -3685 
   -3886    -3815    -3408    -2976    -2863    -3078    -3515    -3823 
   -3674    -3223    -2706    -2322    -2355    -2695    -2943    -3055 
   -3130    -3157    -3217    -3314    -3361    -3273    -2957    -2550 
   -2161    -1719    -1201     -557       71      367      301     -155 
   -1213    -2629    -3970    -5278    -6303    -6442    -5872    -5076 
   -4194    -3429    -2902    -2562    -2376    -2127    -1656    -1152 
    -764     -479     -375     -637    -1332    -2220    -2980    -3503 
   -3888    -4336    -4791    -4997    -5035    -5015    -4756    -4189 
   -3354    -2315    -1277     -409      251      554      270     -630 
   -1782    -2747    -3431    -3835    -3778    -3312    -2790    -2550 
   -2802    -3331    -3565    -3289    -2739    -2216    -2064    -2370 
   -2852    -3237    -3333    -3107    -2813    -2538    -2096    -1413 
    -807     -967    -2122    -3599    -4715    -5217    -5032    -4515 
   -4210    -4164    -4145    -4014    -3694    -3257    -2968    -3048 
   -3365    -3618    -3693    -3626    -3549    -3697    -4101    -4496 
   -4631    -4425    -3974    -3450    -3010    -2857    -3007    -3169 
   -3129    -2857    -2440    -2004    -1641    -1408    -1255    -1101 
    -916     -691     -426     -164      -97     -288     -596    -1121 
   -2020    -3134    -4131    -4826    -5301    -5595    -5657    -5711 
   -6087    -6519    -6280    -4990    -2872     -564     1341     2789 
    3829     4271     4099     3524     2562     1121     -514    -1899 
   -3078    -4232    -5275    -6158    -6818    -6978    -6515    -5732 
   -4958    -4214    -3515    -2999    -2614    -2204    -1790    -1455 
   -1109     -567      145      895     1583     1969     1894     1310 
     224    -1067    -2282    -3380    -4357    -5211    -5850    -6130 
   -6018    -5564    -4828    -4094    -3765    -3869    -4186    -4452 
   -4337    -3805    -3082    -2371    -1830    -1449    -1109     -611 
     153      774      733      195     -367     -718     -760     -826 
   -1493    -2733    -4174    -5455    -6161    -6324    -6328    -6280 
   -6116    -5682    -4862    -3955    -3354    -3121    -3001    -2598 
   -1772     -762       44      202     -406    -1300    -2100    -2666 
   -2907    -3087    -3442    -3931    -4471    -4727    -4401    -3773 
   -3206    -2749    -2466    -2413    -2516    -2822    -3438    -4095 
   -4525    -4903    -5252    -5393    -5391    -5242    -4842    -4280 
   -3707    -3090    -2284    -1389     -627     -122       94      166 
     105     -321    -1067    -1911    -2875    -3964    -5000    -5906 
   -6674    -7176    -7304    -7148    -6835    -6224    -5065    -3523 
   -1995     -569      781     1917     2706     3204     3352     2941 
    1977      445    -1613    -3897    -6077    -7641    -8193    -7956 
   -7361    -6575    -5636    -4657    -3705    -2836    -1966     -876 
     190      839     1070      947      619      334       76     -317 
    -876    -1566    -2239    -2666    -2744    -2558    -2458    -2749 
   -3167    -3370    -3316    -3072    -2901    -2964    -3092    -3169 
   -3191    -3075    -2853    -2651    -2443    -2230    -1962    -1567 
   -1287    -1341    -1539    -1664    -1702    -1726    -1903    -2284 
   -2775    -3388    -4081    -4644    -5023    -5262    -5194    -4661 
   -3700    -2474    -1379     -873     -934    -1217    -1579    -2099 
   -2735    -3195    -3338    -3375    -3424    -3310    -2793    -1900 
   -1042     -560     -486     -934    -1991    -3234    -4093    -4419 
   -4419    -4293    -4243    -4407    -4467    -3971    -3019    -2026 
   -1127     -201      639     1024      869      263     -816    -2165 
   -3434    -4506    -5425    -6145    -6512    -6573    -6529    -6415 
   -6120    -5509    -4548    -3341    -2045     -930     -221       83 
       5     -364     -799    -1310    -1938    -2446    -2790    -3150 
   -3569    -4032    -4536    -4996    -5306    -5341    -5019    -4441 
   -3746    -2971    -2254    -1741    -1458    -1495    -1841    -2143 
   -2133    -1984    -1996    -2182    -2504    -3017    -3500    -3613 
   -3308    -2801    -2396    -2224    -2111    -1962    -1945    -2025 
   -2004    -2026    -2384    -3184    -4229    -5054    -5559    -5837 
   -5601    -4854    -3874    -2548     -986      373     1304     1493 
     758     -394    -1252    -1555    -1606    -1795    -2172    -2748 
   -3569    -4434    -5147    -5521    -5302    -4671    -4054    -3469 
   -2733    -1877    -1193    -1054    -1355    -1649    -1891    -2031 
   -1827    -1553    -1549    -1810    -2346    -2893    -3169    -3361 
   -3449    -3284    -3159    -3237    -3354    -3523    -3697    -3604 
   -3207    -2739    -2463    -2473    -2660    -3025    -3532    -3885 
   -3996    -3950    -3651    -3177    -2779    -2663    -2826    -2875 
   -2573    -2037    -1205     -167      460      338     -295    -1227 
   -2196    -2956    -3604    -4054    -4255    -4519    -4816    -5016 
   -5184    -5136    -4793    -4221    -3465    -2743    -2089    -1344 
    -646     -166      210      525      696      757      567     -122 
   -1240    -2646    -4209    -5535    -6417    -6972    -7125    -6754 
   -6096    -5420    -4815    -4459    -4311    -3867    -2790    -1267 
     403     1896     2821     3094     2787     1873      629     -660 
   -2046    -3348    -4241    -4803    -5206    -5401    -5444    -5555 
   -5645    -5467    -5055    -4490    -3751    -2932    -2158    -1597 
   -1333    -1074     -585       67      818     1395     1379      704 
    -294    -1255    -2126    -2906    -3485    -3920    -4324    -4722 
   -5086    -5289    -5277    -5202    -5100    -4895    -4671    -4384 
   -3834    -3044    -2222    -1568    -1155     -930     -870     -885 
    -828     -895    -1364    -2135    -2956    -3495    -3515    -3258 
   -3114    -3204    -3449    -3605    -3493    -3300    -3352    -3620 
   -3906    -4202    -4565    -4907    -5105    -5185    -5098    -4572 
   -3516    -2222     -986      -32      548      885      895      418 
    -325    -1177    -2080    -2835    -3532    -4260    -4747    -4996 
   -5121    -5023    -4754    -4379    -3765    -2960    -2184    -1601 
   -1389    -1622    -2095    -2536    -2806    -2907    -2890    -2683 
   -2323    -1977    -1649    -1298    -1048    -1024    -1183    -1568 
   -2289    -3159    -3956    -4660    -5173    -5375    -5286    -5036 
   -4830    -4780    -4646    -4145    -3376    -2559    -1749    -1021 
    -434        6      230      279       97     -511    -1451    -2570 
   -3744    -4725    -5510    -6195    -6654    -6802    -6762    -6523 
   -5844    -4714    -3434    -2299    -1455     -826     -172      670 
    1543     2188     2543     2370     1482      278     -940    -2235 
   -3412    -4369    -5236    -5809    -6066    -6277    -6176    -5537 
   -4614    -3655    -2863    -2061     -888      384     1289     1645 
    1286      405     -419    -1070    -1684    -2118    -2396    -2654 
   -2847    -3045    -3368    -3813    -4342    -4880    -5205    -5054 
   -4444    -3595    -2712    -2120    -1969    -1895    -1694    -1570 
   -1420    -1185    -1190    -1367    -1455    -1567    -1783    -2049 
   -2382    -2764    -3117    -3356    -3539    -3920    -4595    -5323 
