Origin Time       2024/04/02 04:24:00
Lat.              40.133
Long.             141.712
Depth. (km)       71
Mag.              6.0
Station Code      HKD125
Station Lat.      42.7609
Station Long.     142.1344
Station Height(m) 69
Record Time       2024/04/02 04:25:52
Sampling Freq(Hz) 100Hz
Duration Time(s)  67
Dir.              N-S
Scale Factor      7845(gal)/8223790
Max. Acc. (gal)   3.102
Last Correction   2024/04/02 04:25:52
Memo.             
[...]
   -3391    -3551    -3686    -3769    -3784    -3744    -3673    -3574 
   -3462    -3348    -3235    -3132    -3026    -2901    -2762    -2641 
   -2573    -2573    -2640    -2751    -2866    -2949    -3007    -3051 
   -3088    -3133    -3198    -3276    -3350    -3395    -3385    -3321 
   -3208    -3057    -2886    -2727    -2606    -2548    -2555    -2598 
   -2629    -2624    -2606    -2621    -2690    -2813    -2974    -3133 
   -3252    -3323    -3349    -3337    -3300    -3248    -3168    -3045 
   -2898    -2752    -2619    -2511    -2439    -2401    -2394    -2427 
   -2486    -2565    -2656    -2748    -2847    -2948    -3026    -3087 
   -3164    -3257    -3338    -3384    -3396    -3383    -3361    -3337 
   -3289    -3192    -3040    -2855    -2663    -2492    -2371    -2313 
   -2300    -2300    -2292    -2268    -2232    -2230    -2293    -2424 
   -2619    -2868    -3142    -3411    -3657    -3846    -3939    -3927 
   -3827    -3653    -3450    -3280    -3173    -3127    -3137    -3180 
   -3226    -3246    -3237    -3195    -3119    -3019    -2897    -2744 
   -2585    -2467    -2424    -2448    -2508    -2575    -2624    -2637 
   -2629    -2629    -2654    -2709    -2775    -2816    -2822    -2818 
   -2822    -2844    -2883    -2928    -2960    -2972    -2976    -2995 
   -3048    -3114    -3165    -3202    -3229    -3250    -3273    -3306 
   -3327    -3296    -3198    -3057    -2903    -2751    -2598    -2451 
   -2332    -2257    -2215    -2200    -2226    -2286    -2358    -2408 
   -2439    -2479    -2567    -2705    -2876    -3076    -3296    -3505 
   -3662    -3748    -3784    -3792    -3774    -3730    -3654    -3554 
   -3445    -3341    -3254    -3192    -3153    -3115    -3036    -2899 
   -2732    -2560    -2392    -2245    -2168    -2176    -2254    -2382 
   -2527    -2646    -2721    -2766    -2803    -2859    -2933    -3001 
   -3048    -3092    -3152    -3235    -3339    -3446    -3541    -3619 
   -3673    -3699    -3709    -3704    -3649    -3523    -3333    -3100 
   -2871    -2697    -2598    -2552    -2513    -2448    -2382    -2342 
   -2326    -2330    -2347    -2370    -2396    -2435    -2500    -2601 
   -2731    -2870    -2994    -3082    -3129    -3153    -3165    -3159 
   -3132    -3083    -3019    -2972    -2968    -3003    -3040    -3044 
   -3013    -2957    -2876    -2793    -2733    -2694    -2678    -2704 
   -2786    -2910    -3046    -3179    -3315    -3438    -3524    -3564 
   -3555    -3501    -3420    -3329    -3219    -3094    -2965    -2864 
   -2805    -2779    -2771    -2766    -2745    -2701    -2639    -2565 
   -2481    -2409    -2388    -2413    -2459    -2519    -2593    -2681 
   -2781    -2890    -2992    -3079    -3156    -3230    -3296    -3343 
   -3348    -3304    -3248    -3204    -3183    -3190    -3223    -3256 
   -3253    -3194    -3076    -2899    -2674    -2431    -2201    -2015 
   -1914    -1937    -2087    -2340    -2644    -2936    -3173    -3339 
   -3446    -3530    -3616    -3688    -3717    -3717    -3703    -3658 
   -3569    -3424    -3225    -2998    -2789    -2636    -2540    -2488 
   -2466    -2454    -2421    -2374    -2332    -2300    -2296    -2357 
   -2513    -2728    -2928    -3072    -3152    -3167    -3142    -3118 
   -3119    -3159    -3231    -3323    -3393    -3402    -3329    -3196 
   -3045    -2913    -2806    -2709    -2647    -2658    -2735    -2837 
   -2926    -2979    -2988    -2955    -2899    -2841    -2786    -2735 
   -2705    -2701    -2740    -2844    -2986    -3125    -3245    -3350 
   -3429    -3474    -3508    -3524    -3476    -3356    -3199    -3026 
   -2828    -2605    -2380    -2170    -2008    -1930    -1950    -2068 
   -2258    -2469    -2652    -2799    -2929    -3057    -3181    -3298 
   -3410    -3520    -3627    -3726    -3796    -3808    -3744    -3623 
   -3470    -3299    -3121    -2955    -2810    -2686    -2592    -2531 
   -2494    -2461    -2423    -2393    -2397    -2462    -2583    -2716 
   -2824    -2901    -2967    -3030    -3088    -3154    -3244    -3346 
   -3433    -3480    -3480    -3424    -3300    -3105    -2860    -2621 
   -2435    -2322    -2276    -2295    -2365    -2462    -2567    -2673 
   -2776    -2875    -2972    -3048    -3082    -3091    -3106    -3117 
   -3102    -3076    -3072    -3092    -3125    -3160    -3190    -3194 
   -3161    -3102    -3060    -3059    -3075    -3078    -3063    -3045 
   -3038    -3030    -3001    -2951    -2916    -2907    -2907    -2911 
   -2951    -3022    -3087    -3122    -3150    -3188    -3225    -3250 
   -3271    -3288    -3285    -3238    -3138    -3005    -2866    -2747 
   -2668    -2643    -2650    -2648    -2632    -2625    -2647    -2693 
   -2736    -2737    -2708    -2674    -2639    -2602    -2577    -2575 
   -2593    -2625    -2674    -2740    -2809    -2852    -2849    -2822 
   -2817    -2849    -2906    -2971    -3029    -3052    -3025    -2965 
   -2907    -2871    -2843    -2801    -2756    -2739    -2755    -2791 
   -2829    -2853    -2868    -2875    -2867    -2866    -2909    -3006 
   -3130    -3257    -3370    -3461    -3512    -3512    -3464    -3400 
   -3361    -3364    -3387    -3399    -3387    -3360    -3315    -3240 
   -3114    -2940    -2741    -2552    -2413    -2344    -2326    -2334 
   -2370    -2428    -2490    -2539    -2578    -2620    -2658    -2685 
   -2701    -2712    -2724    -2749    -2789    -2832    -2880    -2957 
   -3068    -3208    -3350    -3449    -3477    -3461    -3437    -3415 
   -3396    -3384    -3379    -3375    -3357    -3319    -3265    -3190 
   -3084    -2952    -2816    -2694    -2590    -2509    -2465    -2447 
   -2444    -2471    -2546    -2670    -2824    -2960    -3046    -3095 
   -3123    -3132    -3109    -3063    -3015    -2980    -2967    -2975 
   -2991    -3005    -3009    -2992    -2941    -2848    -2727    -2624 
   -2598    -2673    -2809    -2967    -3134    -3285    -3372    -3368 
   -3298    -3204    -3119    -3042    -2970    -2921    -2933    -3010 
   -3111    -3179    -3168    -3068    -2897    -2698    -2529    -2407 
   -2324    -2280    -2273    -2289    -2320    -2378    -2459    -2556 
   -2673    -2816    -2972    -3126    -3268    -3377    -3429    -3430 
   -3400    -3346    -3280    -3219    -3171    -3142    -3125    -3092 
   -3029    -2928    -2793    -2647    -2535    -2506    -2575    -2700 
   -2812    -2882    -2921    -2956    -3014    -3092    -3161    -3202 
   -3210    -3183    -3129    -3052    -2953    -2845    -2748    -2679 
   -2635    -2601    -2563    -2511    -2443    -2374    -2326    -2308 
   -2311    -2346    -2452    -2640    -2884    -3167    -3453    -3692 
   -3854    -3928    -3913    -3816    -3666    -3499    -3342    -3214 
   -3121    -3061    -3015    -2972    -2933    -2891    -2829    -2747 
   -2674    -2651    -2685    -2740    -2787    -2818    -2829    -2808 
   -2752    -2674    -2593    -2539    -2542    -2608    -2728    -2872 
   -3005    -3107    -3187    -3256    -3321    -3370    -3404    -3435 
   -3470    -3493    -3496    -3480    -3430    -3334    -3191    -3011 
   -2817    -2623    -2440    -2281    -2155    -2084    -2074    -2120 
   -2214    -2346    -2505    -2671    -2843    -3010    -3156    -3264 
   -3326    -3360    -3391    -3460    -3589    -3739    -3842    -3865 
   -3796    -3643    -3445    -3240    -3029    -2799    -2566    -2366 
   -2236    -2204    -2281    -2421    -2547    -2620    -2671    -2737 
   -2841    -2984    -3142    -3294    -3445    -3603    -3744    -3820 
   -3789    -3651    -3437    -3187    -2968    -2841    -2818    -2851 
   -2884    -2864    -2755    -2573    -2367    -2184    -2031    -1899 
   -1811    -1795    -1867    -2019    -2226    -2469    -2767    -3132 
   -3542    -3958    -4322    -4579    -4703    -4698    -4577    -4376 
   -4133    -3858    -3538    -3190    -2860    -2575    -2336    -2154 
   -2020    -1911    -1831    -1790    -1779    -1803    -1888    -2052 
   -2290    -2604    -2979    -3381    -3765    -4064    -4241    -4309 
   -4295    -4216    -4062    -3842    -3589    -3337    -3102    -2897 
   -2741    -2633    -2536    -2415    -2249    -2054    -1865    -1709 
   -1594    -1525    -1497    -1505    -1564    -1707    -1953    -2292 
   -2716    -3234    -3835    -4452    -4977    -5308    -5373    -5147 
   -4680    -4081    -3454    -2887    -2434    -2119    -1938    -1877 
   -1931    -2070    -2227    -2328    -2330    -2227    -2069    -1938 
   -1906    -2006    -2234    -2555    -2930    -3334    -3726    -4035 
   -4198    -4212    -4129    -4005    -3855    -3696    -3553    -3427 
   -3289    -3126    -2941    -2749    -2581    -2442    -2322    -2214 
   -2123    -2058    -2052    -2131    -2296    -2523    -2787    -3061 
   -3304    -3477    -3582    -3657    -3720    -3766    -3769    -3697 
   -3547    -3325    -3030    -2685    -2324    -1980    -1674    -1413 
   -1215    -1104    -1097    -1196    -1398    -1699    -2077    -2496 
   -2920    -3334    -3724    -4041    -4222    -4241    -4131    -3925 
   -3645    -3307    -2949    -2619    -2373    -2249    -2268    -2425 
   -2670    -2922    -3141    -3335    -3508    -3632    -3670    -3609 
   -3450    -3210    -2951    -2752    -2674    -2725    -2867    -3038 
   -3188    -3287    -3311    -3260    -3132    -2930    -2695    -2482 
   -2309    -2197    -2169    -2195    -2238    -2300    -2392    -2512 
   -2651    -2790    -2903    -2971    -2986    -2961    -2905    -2841 
   -2818    -2855    -2970    -3186    -3474    -3775    -4044    -4247 
   -4330    -4268    -4090    -3865    -3616    -3352    -3095    -2857 
   -2632    -2416    -2193    -1946    -1686    -1478    -1395    -1462 
   -1647    -1894    -2147    -2381    -2598    -2808    -3015    -3218 
   -3381    -3460    -3438    -3346    -3226    -3092    -2930    -2737 
   -2535    -2380    -2340    -2440    -2627    -2828    -2960    -2971 
   -2887    -2798    -2771    -2836    -2995    -3210    -3416    -3569 
   -3646    -3651    -3604    -3512    -3360    -3144    -2897    -2674 
   -2500    -2366    -2257    -2203    -2235    -2330    -2440    -2540 
   -2623    -2722    -2893    -3167    -3555    -4040    -4569    -5059 
   -5416    -5548    -5386    -4909    -4199    -3396    -2643    -2049 
   -1682    -1541    -1567    -1648    -1687    -1675    -1645    -1632 
   -1674    -1798    -2007    -2285    -2583    -2843    -3003    -3002 
   -2820    -2539    -2300    -2218    -2334    -2614    -2988    -3396 
   -3788    -4099    -4282    -4340    -4305    -4209    -4077    -3913 
   -3709    -3472    -3210    -2930    -2627    -2312    -2042    -1906 
   -1954    -2169    -2479    -2818    -3144    -3431    -3649    -3769 
   -3800    -3773    -3730    -3696    -3669    -3613    -3495    -3289 
   -3019    -2724    -2415    -2096    -1795    -1552    -1416    -1412 
   -1537    -1772    -2091    -2466    -2887    -3348    -3842    -4326 
   -4741    -5015    -5115    -5034    -4764    -4325    -3790    -3254 
   -2790    -2427    -2178    -2029    -1942    -1880    -1809    -1707 
   -1597    -1524    -1514    -1574    -1696    -1864    -2043    -2241 
   -2500    -2837    -3217    -3577    -3855    -4020    -4072    -4037 
   -3952    -3854    -3753    -3645    -3534    -3419    -3284    -3142 
   -3048    -3038    -3129    -3307    -3535    -3755    -3894    -3894 
   -3753    -3524    -3277    -3063    -2906    -2814    -2778    -2778 
   -2798    -2805    -2770    -2677    -2512    -2280    -2016    -1791 
   -1667    -1695    -1883    -2188    -2535    -2829    -2998    -3028 
   -2949    -2808    -2655    -2532    -2458    -2462    -2563    -2732 
   -2914    -3026    -2997    -2826    -2581    -2362    -2280    -2393 
   -2708    -3194    -3789    -4413    -4990    -5459    -5765    -5864 
   -5732    -5377    -4839    -4176    -3454    -2766    -2228    -1898 
   -1692    -1528    -1441    -1447    -1470    -1489    -1487    -1471 
   -1490    -1540    -1610    -1749    -1989    -2331    -2772    -3310 
   -3925    -4575    -5200    -5724    -6065    -6143    -5918    -5402 
   -4657    -3769    -2857    -2025    -1347     -893     -707     -739 
    -880    -1046    -1200    -1313    -1370    -1404    -1468    -1593 
   -1773    -1989    -2212    -2413    -2581    -2737    -2921    -3167 
   -3493    -3856    -4170    -4357    -4384    -4255    -3997    -3689 
   -3443    -3352    -3430    -3627    -3836    -3946    -3908    -3757 
   -3557    -3385    -3306    -3343    -3472    -3640    -3794    -3854 
   -3755    -3499    -3122    -2681    -2246    -1899    -1702    -1663 
   -1718    -1780    -1796    -1769    -1728    -1702    -1721    -1814 
   -2004    -2296    -2683    -3148    -3622    -4000    -4197    -4201 
   -4081    -3937    -3817    -3709    -3596    -3460    -3271    -3014 
   -2694    -2344    -2026    -1806    -1706    -1707    -1787    -1904 
   -2022    -2124    -2204    -2259    -2300    -2365    -2498    -2732 
   -3069    -3476    -3867    -4139    -4197    -4025    -3681    -3267 
   -2890    -2635    -2519    -2516    -2602    -2762    -2961    -3164 
   -3339    -3449    -3470    -3426    -3350    -3272    -3214    -3191 
   -3206    -3268    -3381    -3530    -3669    -3775    -3839    -3832 
   -3720    -3489    -3176    -2836    -2494    -2172    -1898    -1671 
   -1468    -1281    -1104     -939     -791     -689     -672     -774 
   -1016    -1390    -1858    -2390    -2987    -3639    -4303    -4934 
   -5486    -5911    -6156    -6189    -6029    -5692    -5194    -4576 
   -3894    -3196    -2524    -1903    -1352     -886     -538     -336 
    -291     -421     -730    -1194    -1753    -2332    -2855    -3267 
   -3551    -3724    -3816    -3869    -3893    -3858    -3748    -3597 
   -3442    -3294    -3161    -3041    -2911    -2756    -2592    -2451 
   -2363    -2328    -2332    -2354    -2369    -2370    -2393    -2462 
   -2574    -2720    -2889    -3072    -3280    -3511    -3744    -3963 
   -4159    -4324    -4438    -4461    -4349    -4093    -3738    -3379 
   -3113    -2976    -2952    -3001    -3071    -3136    -3194    -3244 
   -3264    -3217    -3088    -2891    -2643    -2362    -2089    -1858 
   -1679    -1545    -1460    -1439    -1499    -1679    -1999    -2432 
   -2925    -3414    -3851    -4190    -4407    -4529    -4584    -4580 
   -4504    -4357    -4141    -3865    -3553    -3237    -2910    -2567 
   -2255    -2007    -1841    -1780    -1827    -1976    -2219    -2520 
   -2835    -3114    -3291    -3303    -3141    -2871    -2585    -2363 
   -2265    -2296    -2398    -2513    -2600    -2639    -2633    -2597 
   -2539    -2484    -2463    -2513    -2647    -2853    -3114    -3391 
   -3635    -3813    -3921    -3985    -4045    -4112    -4159    -4155 
   -4062    -3862    -3577    -3241    -2891    -2573    -2326    -2182 
   -2153    -2203    -2269    -2299    -2280    -2227    -2166    -2122 
   -2110    -2165    -2336    -2633    -3028    -3472    -3902    -4237 
   -4398    -4360    -4172    -3919    -3682    -3504    -3385    -3303 
   -3235    -3159    -3068    -2965    -2859    -2758    -2674    -2631 
   -2643    -2685    -2709    -2678    -2579    -2428    -2270    -2155 
   -2122    -2176    -2295    -2435    -2575    -2705    -2825    -2956 
   -3106    -3280    -3462    -3623    -3736    -3784    -3748    -3613 
   -3353    -2957    -2446    -1873    -1321     -892     -676     -718 
   -1004    -1455    -1962    -2446    -2855    -3168    -3385    -3528 
   -3619    -3690    -3782    -3898    -4017    -4129    -4237    -4332 
   -4396    -4421    -4421    -4398    -4314    -4129    -3824    -3412 
   -2947    -2493    -2122    -1875    -1730    -1625    -1514    -1408 
   -1352    -1395    -1543    -1772    -2062    -2398    -2779    -3204 
   -3645    -4059    -4421    -4712    -4927    -5081    -5182    -5217 
   -5169    -5012    -4731    -4311    -3746    -3048    -2257    -1456 
    -751     -213      114      209       89     -197     -583     -984 
   -1339    -1645    -1946    -2299    -2722    -3211    -3723    -4174 
   -4482    -4608    -4561    -4390    -4151    -3897    -3678    -3496 
   -3322    -3125    -2884    -2617    -2355    -2127    -1962    -1881 
   -1904    -2056    -2346    -2763    -3248    -3712    -4075    -4287 
   -4334    -4237    -4028    -3736    -3372    -2952    -2529    -2176 
   -1938    -1818    -1783    -1776    -1742    -1678    -1624    -1636 
   -1771    -2047    -2430    -2860    -3288    -3666    -3950    -4116 
   -4159    -4110    -4023    -3929    -3861    -3832    -3821    -3767 
   -3628    -3393    -3084    -2744    -2421    -2158    -1972    -1899 
   -1958    -2123    -2362    -2627    -2863    -3048    -3207    -3346 
   -3457    -3537    -3576    -3546    -3410    -3167    -2868    -2570 
   -2308    -2100    -1950    -1872    -1857    -1868    -1881    -1883 
   -1877    -1911    -2038    -2274    -2619    -3046    -3504    -3928 
   -4257    -4448    -4476    -4364    -4179    -4002    -3870    -3775 
   -3692    -3593    -3456    -3260    -3010    -2733    -2479    -2315 
   -2295    -2430    -2681    -2961    -3187    -3300    -3292    -3194 
   -3052    -2907    -2799    -2762    -2803    -2910    -3022    -3063 
   -2994    -2845    -2695    -2617    -2656    -2806    -3007    -3173 
   -3242    -3192    -3042    -2832    -2589    -2349    -2157    -2049 
   -2049    -2172    -2409    -2716    -3025    -3276    -3438    -3503 
   -3473    -3373    -3229    -3065    -2916    -2813    -2776    -2798 
   -2837    -2852    -2837    -2813    -2813    -2866    -2961    -3056 
   -3115    -3119    -3086    -3056    -3069    -3140    -3262    -3414 
   -3573    -3736    -3879    -3960    -3923    -3726    -3380    -2938 
   -2486    -2115    -1883    -1807    -1880    -2050    -2251    -2435 
   -2570    -2624    -2609    -2575    -2571    -2629    -2763    -2967 
   -3223    -3505    -3755    -3919    -3973    -3917    -3775    -3595 
   -3411    -3217    -2991    -2745    -2493    -2253    -2058    -1946 
   -1938    -2047    -2285    -2625    -3007    -3364    -3639    -3792 
   -3813    -3740    -3624    -3507    -3414    -3364    -3353    -3358 
   -3356    -3321    -3226    -3037    -2743    -2384    -2034    -1763 
   -1601    -1545    -1584    -1688    -1833    -1998    -2161    -2309 
   -2451    -2616    -2825    -3069    -3323    -3549    -3707    -3781 
   -3800    -3802    -3807    -3804    -3777    -3696    -3534    -3283 
   -2960    -2594    -2230    -1925    -1745    -1726    -1871    -2169 
   -2571    -2995    -3361    -3620    -3747    -3735    -3601    -3385 
   -3145    -2956    -2863    -2841    -2855    -2876    -2878    -2836 
   -2748    -2647    -2583    -2596    -2690    -2852    -3037    -3194 
   -3279    -3287    -3238    -3161    -3076    -2999    -2945    -2924 
   -2930    -2949    -2957    -2944    -2921    -2917    -2947    -3013 
   -3122    -3264    -3395    -3472    -3483    -3438    -3360    -3273 
   -3196    -3123    -3032    -2897    -2727    -2552    -2412    -2339 
   -2355    -2438    -2542    -2641    -2731    -2810    -2887    -2982 
   -3113    -3285    -3505    -3785    -4109    -4436    -4710    -4884 
   -4924    -4820    -4579    -4229    -3816    -3373    -2933    -2528 
   -2188    -1934    -1763    -1661    -1611    -1584    -1570    -1574 
