Origin Time       2024/04/02 04:24:00
Lat.              40.133
Long.             141.712
Depth. (km)       71
Mag.              6.0
Station Code      HKD156
Station Lat.      41.8996
Station Long.     140.6960
Station Height(m) 84
Record Time       2024/04/02 04:25:11
Sampling Freq(Hz) 100Hz
Duration Time(s)  96
Dir.              U-D
Scale Factor      7845(gal)/8223790
Max. Acc. (gal)   1.606
Last Correction   2024/04/02 04:25:11
Memo.             
[...]
    5250     5109     4927     4818     4896     5152     5341     5256 
    4985     4781     4896     5274     5495     5324     4990     4874 
    5088     5410     5609     5587     5443     5455     5699     5895 
    5729     5212     4779     4818     5198     5543     5629     5472 
    5209     4951     4816     4868     4930     4780     4550     4577 
    4835     4935     4791     4653     4645     4800     5179     5647 
    5832     5637     5410     5379     5404     5358     5270     5254 
    5313     5294     5192     5192     5383     5613     5659     5535 
    5416     5239     4864     4521     4604     5020     5238     5086 
    4977     5146     5287     5251     5282     5431     5468     5329 
    5265     5424     5535     5374     5161     5192     5425     5517 
    5336     5186     5266     5347     5206     5016     5042     5147 
    5084     4939     4912     5026     5177     5258     5247     5186 
    5115     5035     4912     4768     4742     4962     5332     5517 
    5362     5197     5350     5590     5454     4976     4725     5004 
    5397     5402     5130     4999     5080     5184     5258     5321 
    5366     5395     5329     5163     5086     5166     5224     5053 
    4747     4692     4935     5127     5146     5154     5283     5439 
    5467     5431     5370     5273     5312     5482     5512     5314 
    5120     5144     5286     5379     5454     5464     5341     5219 
    5186     5189     5165     5155     5224     5243     5119     5054 
    5142     5167     4984     4727     4712     5020     5347     5398 
    5170     4930     4930     5094     5169     5084     4990     5027 
    5166     5271     5300     5296     5259     5189     5124     5115 
    5200     5263     5151     4999     5046     5238     5304     5136 
    4919     4831     4918     5174     5447     5532     5487     5494 
    5562     5582     5526     5464     5455     5474     5487     5536 
    5629     5636     5444     5162     5065     5225     5444     5547 
    5447     5209     5124     5246     5293     5225     5229     5290 
    5278     5188     5165     5185     5016     4762     4758     4926 
    4949     4752     4568     4676     4958     5034     4893     4827 
    4934     5089     5166     5159     5111     5003     4889     4895 
    5044     5297     5495     5454     5267     5215     5343     5391 
    5194     4999     5094     5360     5497     5418     5215     5054 
    5093     5281     5444     5521     5529     5433     5255     5144 
    5178     5227     5151     4989     4935     5070     5228     5320 
    5429     5503     5428     5254     5111     5081     5107     5051 
    5024     5193     5373     5331     5221     5289     5429     5373 
    5182     5120     5166     5103     4858     4629     4730     5162 
    5530     5529     5243     5004     4980     5077     5194     5281 
    5285     5233     5260     5381     5370     5090     4772     4699 
    4864     5105     5312     5417     5389     5251     5135     5190 
    5337     5363     5250     5134     5088     5092     5071     5003 
    4899     4776     4745     4897     5158     5362     5335     5103 
    4965     5105     5319     5397     5378     5335     5274     5217 
    5198     5215     5235     5283     5394     5452     5354     5248 
    5300     5466     5630     5691     5629     5522     5481     5471 
    5297     5009     4922     5005     5015     5015     5173     5324 
    5190     4882     4779     4950     5155     5248     5259     5248 
    5215     5130     5071     5101     5193     5290     5350     5429 
    5503     5463     5422     5479     5456     5238     4988     4950 
    5047     4972     4743     4639     4757     4938     4982     5003 
    5216     5471     5491     5269     5050     5062     5225     5359 
    5468     5528     5518     5520     5476     5304     5067     4962 
    5135     5429     5647     5807     5876     5751     5481     5224 
    5093     5051     4989     4942     5015     5084     4951     4714 
    4695     4997     5292     5251     5011     4927     5055     5136 
    5058     4939     4873     4945     5206     5463     5387     5062 
    4951     5140     5232     5071     4918     5003     5236     5343 
    5270     5163     5053     4916     4835     4918     5132     5305 
    5350     5306     5213     5163     5233     5340     5404     5427 
    5468     5555     5501     5217     4985     4995     5107     5123 
    5055     5101     5320     5535     5510     5135     4731     4768 
    5166     5443     5332     5071     5067     5260     5354     5390 
    5487     5535     5433     5254     5094     4916     4762     4803 
    4999     5219     5474     5671     5621     5363     5185     5250 
    5301     5059     4729     4671     4905     5123     5100     4962 
    4923     4996     5135     5273     5269     5109     4962     5042 
    5343     5535     5390     5074     4912     5113     5490     5617 
    5417     5189     5202     5412     5490     5277     4997     4897 
    4984     5127     5213     5219     5155     5088     5221     5572 
    5817     5782     5610     5479     5409     5327     5297     5402 
    5489     5416     5285     5244     5273     5201     4976     4779 
    4866     5163     5250     5128     5179     5323     5206     4950 
    4984     5301     5476     5455     5444     5337     5094     4984 
    5098     5231     5189     5073     5094     5152     5061     4919 
    4874     4912     4912     4820     4761     4868     5094     5202 
    5020     4849     5053     5417     5479     5217     5008     5065 
    5228     5333     5398     5424     5437     5505     5544     5435 
    5244     5223     5409     5416     5117     4931     5104     5371 
    5344     5034     4866     5012     5240     5444     5660     5697 
    5362     4950     4903     5123     5244     5194     5104     5030 
    4968     5011     5182     5259     5121     4990     5069     5155 
    4978     4718     4683     4873     5124     5283     5321     5255 
    5097     5019     5132     5294     5381     5422     5520     5607 
    5502     5242     5024     4982     5124     5274     5279     5162 
    4954     4754     4827     5256     5674     5656     5335     5236 
    5491     5664     5482     5215     5161     5260     5344     5397 
    5381     5221     5104     5269     5580     5705     5459     4989 
    4681     4754     5032     5119     4811     4348     4126     4320 
    4793     5197     5254     5089     5081     5329     5512     5329 
    4928     4699     4803     5109     5395     5440     5202     4931 
    4885     5116     5463     5675     5653     5553     5506     5447 
    5364     5383     5495     5567     5545     5458     5306     5130 
    5024     5013     5112     5308     5454     5487     5514     5547 
    5487     5341     5271     5378     5491     5416     5259     5250 
    5355     5368     5287     5351     5611     5799     5661     5221 
    4800     4665     4800     5059     5217     5107     4773     4426 
    4403     4808     5194     5131     4787     4623     4791     5038 
    5089     4912     4743     4842     5165     5417     5412     5211 
    5027     5092     5416     5711     5749     5640     5610     5633 
    5568     5493     5481     5448     5404     5443     5528     5502 
    5371     5267     5200     5162     5248     5432     5497     5371 
    5258     5302     5405     5449     5481     5528     5472     5281 
    5094     5003     4934     4787     4638     4716     5024     5240 
    5155     4916     4727     4619     4577     4621     4691     4738 
    4796     4843     4880     4954     5001     4990     5062     5289 
    5539     5609     5437     5146     4915     4862     4976     5112 
    5151     5206     5487     5844     5895     5616     5378     5422 
    5595     5634     5454     5167     4945     4841     4828     4932 
    5167     5418     5509     5370     5109     4895     4828     4955 
    5177     5263     5219     5262     5387     5420     5305     5165 
    5154     5275     5437     5533     5406     5111     4903     4843 
    4861     4965     5097     5166     5174     5228     5398     5510 
    5409     5167     4870     4665     4789     5188     5408     5184 
    4903     5031     5348     5359     5058     4868     4989     5157 
    5151     5161     5350     5494     5351     5128     5196     5479 
    5609     5481     5306     5240     5300     5485     5638     5526 
    5274     5265     5533     5692     5448     4928     4479     4371 
    4567     4735     4710     4712     5019     5509     5745     5564 
    5255     5120     5169     5263     5319     5294     5175     5053 
    5051     5192     5401     5541     5510     5410     5440     5599 
    5603     5239     4769     4649     4951     5328     5443     5282 
    5089     5093     5251     5317     5200     5109     5224     5393 
    5356     5143     5009     5046     5111     5069     4909     4706 
    4590     4635     4738     4784     4862     5082     5363     5545 
    5590     5530     5329     4972     4687     4738     5034     5254 
    5265     5201     5269     5454     5518     5436     5382     5360 
    5316     5352     5468     5454     5271     5142     5157     5186 
    5093     4889     4780     4949     5328     5697     5825     5644 
    5358     5227     5247     5219     5073     4945     4916     4927 
    4982     5170     5383     5394     5223     5151     5278     5394 
    5375     5300     5285     5387     5482     5435     5290     5165 
    5107     5065     5070     5259     5567     5768     5788     5706 
    5613     5526     5431     5300     5132     5007     4976     4980 
    4997     5103     5267     5293     5080     4843     4865     5161 
    5456     5490     5327     5260     5356     5416     5352     5274 
    5227     5159     5109     5158     5224     5167     5039     4981 
    5008     5093     5190     5190     5117     5148     5323     5416 
    5298     5116     4957     4812     4803     5036     5343     5466 
    5491     5634     5787     5752     5590     5464     5431     5456 
    5533     5651     5718     5656     5464     5235     5100     5063 
    5044     5078     5178     5166     4974     4807     4818     4934 
    5076     5310     5555     5522     5274     5146     5146     5081 
    4945     4834     4811     4911     5143     5323     5184     4819 
    4580     4623     4810     4851     4720     4702     4870     5022 
    5047     5000     4938     4861     4811     4884     5053     5140 
    4997     4753     4691     4820     4954     4950     4747     4495 
    4428     4584     4792     4868     4787     4699     4826     5255 
    5663     5686     5462     5283     5188     5140     5170     5302 
    5394     5239     4986     5028     5397     5661     5460     5008 
    4797     4870     4968     5057     5163     5161     4993     4915 
    5223     5672     5787     5620     5540     5605     5598     5506 
    5535     5647     5598     5386     5216     5146     5103     4978 
    4753     4603     4639     4747     4787     4749     4765     4885 
    4972     4920     4749     4602     4733     5171     5575     5633 
    5368     5061     4997     5125     5202     5175     5108     5009 
    4926     5009     5270     5432     5347     5240     5355     5576 
    5528     5155     4788     4611     4583     4695     4912     5117 
    5258     5347     5350     5332     5470     5733     5896     5895 
    5902     5979     6004     6002     6080     6107     5860     5452 
    5274     5393     5521     5553     5544     5439     5304     5360 
    5533     5556     5470     5548     5827     5976     5782     5510 
    5482     5562     5472     5341     5397     5413     5134     4772 
    4652     4769     4873     4877     4918     4992     5015     5063 
    5144     5128     5020     4965     5040     5090     4946     4754 
    4700     4753     4868     5061     5313     5479     5421     5269 
    5243     5370     5487     5429     5248     5159     5213     5188 
    4884     4484     4336     4496     4692     4719     4696     4819 
    5050     5289     5547     5825     6006     5973     5784     5618 
    5551     5487     5343     5148     5017     4974     4950     4916 
    4806     4622     4553     4622     4716     4841     4972     5013 
    4935     4870     5034     5329     5452     5422     5431     5416 
    5302     5320     5545     5601     5366     5200     5217     5163 
    4932     4712     4635     4627     4644     4743     4920     5117 
    5312     5537     5817     5999     5962     5809     5580     5223 
    4822     4610     4743     5058     5259     5347     5471     5545 
    5420     5197     5136     5262     5271     4955     4518     4314 
    4455     4699     4796     4791     4874     5092     5250     5179 
    5055     5163     5462     5682     5653     5416     5143     4982 
    4969     5067     5224     5379     5448     5408     5406     5566 
    5749     5706     5440     5293     5490     5714     5541     5169 
    5124     5417     5580     5391     5093     5036     5305     5661 
    5841     5778     5471     4982     4595     4608     4993     5483 
    5896     6185     6354     6420     6405     6270     5957     5544 
    5194     4978     4892     4892     4926     4978     5016     4914 
    4615     4303     4167     4091     3873     3601     3511     3620 
    3769     3944     4286     4747     5053     5016     4788     4714 
    4877     5049     5189     5501     5957     6188     5971     5557 
    5344     5373     5401     5363     5433     5652     5830     5836 
    5733     5706     5782     5773     5655     5620     5665     5559 
    5267     5116     5347     5782     6106     6168     6030     5948 
    6029     6042     5780     5292     4761     4469     4644     5179 
    5622     5610     5371     5374     5583     5670     5582     5467 
    5310     5043     4864     4903     4878     4604     4342     4391 
    4622     4712     4710     4838     4988     4881     4484     4135 
    4185     4580     5011     5242     5227     5085     4973     4993 
    5142     5310     5443     5535     5485     5189     4677     4117 
    3754     3777     4187     4779     5235     5387     5325     5220 
    5174     5175     5192     5292     5529     5814     5953     5818 
    5586     5578     5796     5911     5692     5324     5117     5097 
    5131     5228     5433     5657     5738     5703     5705     5714 
    5610     5401     5200     5081     4972     4828     4711     4615 
    4540     4521     4552     4653     4830     5023     5147     5152 
    5057     4947     4962     5144     5343     5413     5389     5472 
    5782     6095     6058     5692     5402     5436     5613     5647 
    5472     5179     4834     4527     4449     4679     4970     5104 
    5190     5242     5115     5054     5367     5791     5844     5520 
    5244     5220     5239     5179     5109     5157     5456     5902 
    6138     5935     5444     4947     4498     4114     4018     4275 
    4629     4815     4845     4974     5278     5493     5462     5389 
    5490     5651     5610     5363     5138     5084     5179     5331 
    5447     5482     5443     5323     5080     4801     4683     4826 
    5123     5292     5190     4990     4951     5135     5294     5281 
    5274     5393     5512     5456     5271     5205     5310     5406 
    5444     5479     5541     5616     5634     5536     5362     5319 
    5541     5811     5859     5651     5363     5216     5182     5067 
    4904     4931     5150     5243     5020     4698     4558     4579 
    4602     4660     4865     5130     5263     5236     5111     4864 
    4533     4317     4353     4513     4514     4313     4197     4352 
    4585     4653     4633     4769     4990     4999     4864     4835 
    4815     4614     4414     4611     5152     5503     5471     5449 
    5795     6335     6570     6332     5865     5410     5096     5007 
    5206     5598     5984     6299     6458     6345     6010     5663 
    5512     5505     5410     5225     5121     5186     5287     5193 
    4936     4801     4959     5252     5431     5499     5567     5611 
    5632     5633     5586     5517     5437     5346     5240     5101 
    4965     4857     4768     4737     4783     4862     4891     4764 
    4550     4499     4702     4914     4903     4764     4718     4819 
    4946     5005     5104     5383     5692     5733     5543     5358 
    5128     4722     4361     4394     4800     5216     5375     5304 
    5239     5354     5564     5670     5543     5224     4946     4897 
    5038     5235     5408     5505     5466     5360     5401     5670 
    5946     5899     5482     5127     5243     5648     5830     5574 
    5167     4950     4861     4753     4746     4962     5240     5332 
    5221     5135     5194     5302     5281     5084     4930     4978 
    5092     5105     5044     4984     4943     4934     5009     5227 
    5509     5675     5676     5595     5518     5524     5641     5780 
    5787     5645     5584     5738     5903     5869     5653     5385 
    5151     4930     4729     4611     4531     4496     4644     4943 
    5184     5242     5136     4927     4614     4332     4384     4747 
    5062     5181     5279     5501     5680     5593     5297     5055 
    5042     5182     5293     5352     5428     5445     5297     5028 
    4762     4617     4695     4932     5115     5200     5312     5456 
    5557     5589     5575     5503     5282     4931     4626     4496 
    4614     4915     5169     5247     5256     5328     5445     5512 
    5503     5471     5493     5603     5670     5503     5197     5034 
    5161     5459     5695     5695     5467     5208     5121     5190 
    5229     5125     4914     4708     4671     4846     5057     5076 
    4872     4665     4689     4966     5340     5572     5475     5146 
    4912     4872     4766     4509     4347     4441     4742     5167 
    5621     5931     5958     5767     5574     5459     5381     5335 
    5337     5389     5393     5259     5084     4946     4765     4545 
    4459     4607     4843     4973     4978     4916     4783     4672 
    4766     5089     5394     5451     5391     5533     5846     6006 
    5937     5854     5884     5967     5992     5904     5730     5545 
    5390     5274     5238     5216     5089     4914     4800     4787 
    4858     4966     5065     5127     5112     5013     4928     4938 
    4963     5005     5225     5512     5533     5298     5148     5293 
    5545     5648     5589     5414     5201     5124     5197     5220 
    5069     4843     4761     4857     4978     5020     4920     4725 
    4626     4706     4855     4961     4962     4922     4995     5204 
    5379     5352     5186     5088     5112     5184     5309     5428 
    5351     5105     4989     5151     5331     5294     5154     5084 
    5144     5263     5258     5144     5136     5348     5687     5880 
    5753     5451     5217     5144     5146     5080     4934     4812 
    4735     4696     4742     4911     5186     5385     5297     5008 
