Origin Time       2024/04/02 04:24:00
Lat.              40.133
Long.             141.712
Depth. (km)       71
Mag.              6.0
Station Code      HKD108
Station Lat.      42.2528
Station Long.     142.5643
Station Height(m) 42
Record Time       2024/04/02 04:25:41
Sampling Freq(Hz) 100Hz
Duration Time(s)  76
Dir.              E-W
Scale Factor      3920(gal)/6182761
Max. Acc. (gal)   3.466
Last Correction   2024/04/02 04:25:42
Memo.             
[...]
    6903     6915     6846     6673     6407     6100     5829     5669 
    5671     5861     6211     6612     6932     7112     7186     7198 
    7147     7012     6795     6539     6301     6113     6005     6016 
    6149     6365     6620     6887     7102     7181     7081     6839 
    6541     6274     6100     6059     6157     6361     6608     6820 
    6937     6952     6878     6708     6447     6140     5850     5653 
    5592     5654     5814     6035     6276     6520     6760     6990 
    7215     7411     7519     7485     7307     7055     6837     6716 
    6674     6661     6624     6524     6367     6194     6041     5912 
    5797     5691     5619     5633     5761     5973     6208     6419 
    6587     6730     6846     6900     6881     6828     6797     6806 
    6842     6896     6969     7046     7090     7072     6998     6886 
    6758     6651     6588     6556     6518     6445     6341     6231 
    6130     6069     6110     6302     6614     6918     7064     6985 
    6750     6493     6299     6172     6094     6056     6063     6141 
    6306     6533     6757     6895     6906     6842     6790     6784 
    6815     6864     6890     6848     6728     6562     6402     6294 
    6257     6260     6236     6151     6050     6009     6054     6144 
    6230     6310     6421     6588     6807     7062     7332     7562 
    7684     7677     7561     7359     7094     6798     6523     6319 
    6176     6041     5912     5821     5772     5740     5719     5722 
    5762     5846     5981     6168     6387     6590     6701     6681 
    6564     6428     6327     6295     6380     6591     6862     7102 
    7270     7366     7376     7284     7121     6950     6830     6786 
    6800     6841     6883     6896     6851     6761     6673     6629 
    6637     6651     6597     6435     6184     5904     5657     5484 
    5409     5437     5548     5704     5883     6083     6303     6529 
    6710     6796     6798     6774     6783     6864     7013     7174 
    7265     7230     7067     6826     6566     6327     6138     6033 
    6037     6117     6179     6155     6064     5977     5933     5941 
    6007     6126     6277     6443     6634     6850     7067     7273 
    7468     7641     7759     7768     7617     7291     6836     6341 
    5894     5543     5301     5174     5166     5302     5582     5984 
    6505     7117     7719     8174     8368     8254     7865     7284 
    6622     6009     5560     5339     5337     5501     5745     5990 
    6208     6397     6551     6668     6731     6715     6646     6585 
    6578     6652     6789     6925     7016     7055     7037     6957 
    6807     6586     6329     6101     5933     5829     5794     5858 
    6049     6351     6692     6977     7136     7153     7061     6929 
    6820     6756     6740     6781     6864     6928     6909     6789 
    6582     6317     6040     5821     5691     5628     5601     5623 
    5742     5963     6215     6402     6472     6451     6399     6365 
    6383     6465     6590     6725     6845     6945     7036     7118 
    7169     7161     7074     6879     6587     6298     6124     6097 
    6184     6335     6512     6705     6909     7100     7234     7264 
    7180     7010     6784     6526     6263     6047     5952     6014 
    6197     6421     6610     6743     6836     6901     6934     6917 
    6825     6653     6422     6185     5987     5849     5757     5697 
    5680     5736     5894     6169     6525     6886     7191     7413 
    7573     7709     7788     7740     7556     7273     6928     6548 
    6177     5902     5786     5817     5924     6018     6057     6074 
    6127     6253     6427     6580     6660     6663     6625     6594 
    6594     6627     6676     6698     6653     6541     6398     6267 
    6194     6217     6366     6641     6980     7281     7469     7539 
    7527     7468     7372     7230     7040     6813     6557     6287 
    6034     5836     5716     5680     5709     5781     5882     5994 
    6082     6130     6152     6180     6250     6387     6584     6822 
    7083     7328     7516     7619     7645     7623     7551     7397 
    7149     6843     6539     6259     5995     5785     5696     5746 
    5900     6095     6284     6441     6568     6689     6821     6921 
    6915     6784     6565     6305     6058     5903     5895     6015 
    6196     6384     6566     6743     6902     7000     6976     6813 
    6585     6407     6353     6438     6609     6760     6798     6705 
    6524     6309     6098     5939     5869     5854     5836     5826 
    5897     6076     6293     6469     6593     6687     6755     6782 
    6774     6757     6740     6710     6701     6777     6934     7086 
    7167     7171     7113     6987     6758     6427     6083     5825 
    5684     5652     5722     5844     5942     6000     6093     6292 
    6565     6806     6941     6961     6867     6667     6405     6154 
    6004     5998     6109     6306     6594     6941     7254     7456 
    7532     7508     7398     7193     6908     6595     6329     6171 
    6124     6139     6156     6146     6116     6092     6089     6107 
    6157     6265     6440     6627     6742     6744     6649     6492 
    6316     6178     6130     6179     6282     6389     6470     6496 
    6434     6305     6194     6176     6245     6327     6374     6395 
    6403     6399     6383     6365     6365     6404     6488     6633 
    6851     7098     7266     7236     6979     6595     6203     5853 
    5574     5409     5381     5486     5716     6053     6452     6830 
    7081     7140     7033     6852     6685     6568     6494     6463 
    6494     6572     6647     6700     6751     6812     6849     6804 
    6672     6514     6400     6360     6376     6397     6376     6320 
    6313     6443     6706     6981     7138     7119     6960     6755 
    6587     6472     6385     6274     6079     5789     5470     5232 
    5187     5392     5815     6369     6967     7522     7966     8277 
    8433     8365     8031     7494     6904     6394     6008     5707 
    5438     5196     5047     5079     5335     5778     6298     6750 
    7025     7110     7082     7041     7029     6999     6882     6680 
    6484     6382     6383     6435     6468     6422     6255     5980 
    5683     5487     5472     5639     5942     6340     6798     7277 
    7740     8136     8411     8537     8503     8309     7971     7508 
    6932     6278     5643     5142     4841     4733     4808     5073 
    5483     5916     6270     6534     6777     7056     7349     7594 
    7730     7712     7541     7288     7064     6951     6950     6982 
    6935     6758     6510     6297     6187     6189     6282     6428 
    6569     6666     6742     6861     7037     7200     7222     7000 
    6531     5931     5393     5078     5024     5135     5266     5347 
    5459     5734     6215     6812     7388     7838     8109     8200 
    8147     7960     7586     7002     6291     5598     5083     4884 
    5076     5632     6402     7184     7859     8433     8930     9293 
    9386     9079     8358     7361     6329     5496     4983     4769 
    4737     4765     4802     4880     5035     5248     5454     5581 
    5596     5518     5417     5395     5545     5888     6383     6972 
    7570     8052     8301     8283     8072     7814     7627     7552 
    7559     7565     7481     7269     6936     6497     5982     5446 
    4986     4737     4809     5217     5846     6496     6984     7232 
    7272     7202     7113     7060     7038     6983     6818     6507 
    6084     5656     5351     5248     5385     5757     6291     6868 
    7365     7683     7787     7701     7502     7284     7095     6949 
    6872     6854     6795     6564     6102     5468     4794     4220 
    3837     3702     3867     4337     5054     5924     6823     7651 
    8339     8803     9003     9004     8888     8676     8367     7991 
    7641     7422     7358     7401     7501     7618     7675     7545 
    7119     6405     5544     4725     4102     3762     3707     3844 
    4057     4311     4650     5111     5665     6232     6732     7128 
    7434     7686     7904     8074     8149     8074     7842     7523 
    7204     6907     6598     6251     5891     5590     5458     5586 
    5999     6672     7561     8568     9530    10251    10582    10442 
    9777     8590     7023     5338     3814     2666     1992     1787 
    2009     2601     3472     4506     5598     6686     7708     8587 
    9235     9577     9569     9224     8604     7824     7035     6379 
    5928     5698     5676     5808     5999     6167     6268     6296 
    6265     6153     5917     5551     5120     4755     4596     4716 
    5086     5606     6139     6573     6871     7061     7198     7304 
    7344     7229     6883     6340     5755     5303     5093     5129 
    5342     5681     6151     6782     7572     8429     9175     9636 
    9751     9582     9228     8754     8218     7690     7207     6750 
    6309     5903     5544     5187     4761     4248     3708     3236 
    2920     2824     2981     3386     3970     4610     5219     5802 
    6414     7101     7875     8683     9414     9964    10265    10309 
   10139     9802     9295     8557     7569     6446     5405     4668 
    4360     4482     4934     5562     6208     6764     7171     7380 
    7336     6996     6379     5597     4786     4049     3475     3127 
    3072     3389     4089     5084     6236     7384     8363     9054 
    9426     9534     9445     9180     8744     8168     7503     6814 
    6172     5635     5221     4922     4733     4676     4780     5026 
    5368     5771     6200     6595     6900     7072     7109     7061 
    6993     6958     6977     7017     7019     6943     6800     6669 
    6631     6702     6830     6938     6999     7022     6987     6868 
    6645     6298     5839     5329     4861     4572     4564     4844 
    5413     6288     7434     8726     9949    10842    11195    10934 
   10137     8964     7592     6186     4882     3771     2921     2420 
    2358     2757     3534     4563     5724     6896     7950     8766 
    9245     9366     9213     8910     8519     8045     7526     7042 
    6664     6418     6310     6343     6503     6695     6796     6750 
    6576     6308     5952     5507     5022     4622     4423     4471 
    4745     5170     5631     6037     6382     6709     7020     7250 
    7301     7100     6655     6094     5588     5254     5146     5285 
    5680     6301     7059     7804     8373     8636     8531     8072 
    7354     6555     5910     5615     5729     6170     6779     7391 
    7902     8259     8411     8292     7856     7123     6210     5324 
    4690     4460     4658     5171     5826     6481     7081     7589 
    7931     8021     7806     7267     6446     5479     4596     4051 
    3999     4415     5150     6030     6921     7734     8389     8803 
    8878     8563     7904     7054     6207     5481     4885     4407 
    4076     3957     4112     4570     5320     6273     7226     7925 
    8202     8071     7685     7203     6747     6420     6269     6307 
    6558     7028     7639     8224     8581     8576     8214     7614 
    6935     6314     5807     5403     5064     4765     4535     4467 
    4647     5083     5701     6382     7004     7481     7769     7855 
    7750     7493     7136     6736     6373     6137     6099     6278 
    6584     6860     7006     7002     6852     6585     6274     6015 
    5911     6053     6490     7173     7931     8574     8999     9188 
    9148     8866     8299     7419     6274     4998     3764     2745 
    2073     1843     2100     2816     3885     5148     6440     7634 
    8645     9392     9800     9851     9588     9094     8427     7624 
    6777     6036     5516     5253     5230     5405     5743     6189 
    6671     7136     7549     7826     7847     7540     6936     6190 
    5533     5166     5200     5625     6289     6953     7388     7429 
    7006     6188     5188     4287     3681     3431     3527     3915 
    4500     5192     5931     6674     7372     7970     8451     8828 
    9098     9239     9210     8967     8495     7824     7050     6311 
    5747     5447     5396     5492     5644     5791     5916     6061 
    6304     6701     7254     7898     8514     8952     9067     8771 
    8064     7055     5949     4980     4318     4014     3983     4102 
    4293     4536     4833     5197     5664     6294     7081     7885 
    8488     8741     8658     8369     7982     7558     7150     6822 
    6613     6521     6502     6491     6458     6405     6352     6318 
    6305     6293     6265     6239     6253     6334     6468     6588 
    6630     6572     6438     6291     6208     6233     6339     6447 
    6499     6513     6546     6608     6657     6689     6780     7031 
    7473     8025     8507     8729     8599     8165     7554     6910 
    6343     5859     5366     4810     4246     3775     3447     3240 
    3111     3061     3128     3336     3713     4327     5222     6342 
    7529     8607     9500    10252    10880    11275    11281    10808 
    9883     8648     7312     6114     5275     4898     4948     5319 
    5881     6507     7066     7427     7514     7323     6884     6189 
    5215     4009     2744     1676     1062     1083     1807     3174 
    4997     6979     8809    10248    11138    11380    10958     9957 
    8568     7055     5669     4595     3925     3641     3631     3746 
    3888     4065     4353     4822     5500     6363     7355     8407 
    9431    10318    10948    11198    11000    10372     9417     8267 
    7001     5668     4367     3286     2656     2633     3245     4399 
    5887     7427     8757     9679    10084     9949     9313     8265 
    6967     5618     4384     3408     2833     2757     3176     3991 
    5055     6192     7222     8007     8446     8520     8290     7825 
    7186     6432     5618     4841     4256     4033     4271     4906 
    5731     6548     7241     7751     8062     8207     8236     8190 
    8100     8005     7962     7994     8045     7987     7705     7174 
    6486     5815     5316     5027     4890     4817     4750     4686 
    4658     4672     4700     4731     4776     4876     5088     5455 
    5977     6589     7201     7758     8245     8641     8928     9113 
    9221     9269     9245     9109     8802     8265     7472     6501 
    5543     4799     4397     4352     4581     4952     5360     5759 
    6131     6471     6783     7062     7288     7439     7496     7440 
    7273     7032     6777     6570     6440     6382     6381     6429 
    6523     6662     6848     7086     7369     7648     7843     7877 
    7687     7253     6640     5992     5456     5114     4999     5124 
    5464     5938     6444     6892     7209     7363     7359     7250 
    7142     7117     7147     7126     6941     6541     5980     5392 
    4937     4732     4813     5156     5697     6327     6912     7340 
    7557     7559     7371     7048     6671     6334     6099     5951 
    5833     5715     5636     5666     5845     6155     6537     6890 
    7088     7044     6741     6245     5722     5388     5389     5739 
    6343     7058     7719     8165     8296     8103     7678     7160 
    6656     6247     6019     6028     6277     6751     7413     8168 
    8864     9338     9520     9456     9206     8777     8158     7356 
    6380     5262     4095     3031     2264     1950     2105     2633 
    3401     4282     5178     6009     6694     7172     7434     7526 
    7526     7507     7514     7580     7716     7894     8090     8316 
    8580     8809     8854     8564     7877     6862     5682     4506 
    3473     2691     2253     2228     2655     3516     4730     6148 
    7563     8756     9594    10044    10117     9842     9276     8513 
    7689     6950     6414     6125     6033     6045     6101     6192 
    6321     6453     6515     6445     6240     5960     5674     5448 
    5329     5321     5390     5511     5670     5850     6028     6176 
    6281     6369     6495     6690     6933     7191     7430     7596 
    7601     7377     6937     6382     5832     5370     5051     4938 
    5077     5468     6063     6801     7595     8323     8876     9190 
    9267     9160     8925     8589     8148     7598     6979     6377 
    5878     5515     5267     5104     5011     5000     5109     5348 
    5662     5964     6209     6427     6682     6988     7277     7454 
    7433     7143     6562     5763     4920     4233     3820     3713 
    3914     4414     5164     6065     6983     7811     8498     8997 
    9244     9171     8724     7904     6827     5700     4740     4126 
    3951     4204     4785     5549     6347     7041     7537     7789 
    7793     7596     7287     6958     6692     6558     6595     6799 
    7125     7494     7832     8073     8133     7954     7542     6979 
    6383     5836     5361     4980     4726     4605     4603     4710 
    4912     5185     5511     5886     6315     6788     7267     7715 
    8113     8450     8700     8809     8723     8410     7842     7000 
    5948     4827     3798     3007     2588     2643     3210     4232 
    5556     7008     8392     9490    10123    10197     9730     8857 
    7764     6624     5597     4839     4472     4541     4971     5600 
    6248     6770     7081     7180     7132     7003     6843     6706 
    6644     6682     6836     7107     7444     7755     7940     7932 
    7732     7384     6928     6374     5738     5068     4432     3916 
    3589     3496     3654     4032     4548     5117     5698     6290 
    6887     7436     7862     8118     8199     8119     7897     7576 
    7224     6918     6704     6586     6536     6503     6445     6344 
    6198     5995     5733     5454     5244     5206     5405     5831 
    6418     7082     7716     8230     8571     8688     8533     8097 
    7426     6620     5804     5099     4620     4456     4655     5205 
    6005     6894     7717     8346     8694     8733     8492     8046 
    7495     6932     6442     6115     6016     6157     6477     6871 
    7202     7371     7372     7256     7061     6802     6478     6116 
    5757     5437     5205     5138     5286     5637     6123     6655 
    7160     7581     7856     7919     7745     7348     6763     6075 
    5423     4950     4744     4828     5183     5742     6414     7078 
    7599     7899     7998     7958     7819     7575     7214     6754 
    6269     5859     5610     5574     5752     6074     6443     6804 
    7147     7440     7629     7679     7595     7389     7067     6652 
    6206     5816     5534     5357     5253     5208     5229     5301 
    5406     5551     5727     5883     5972     5992     5984     5993 
    6051     6159     6301     6468     6658     6880     7145     7457 
    7809     8169     8462     8614     8580     8349     7944     7424 
    6868     6357     5943     5672     5597     5760     6163     6713 
    7233     7551     7606     7440     7119     6666     6067     5341 
