Origin Time       2024/04/02 04:24:00
Lat.              40.133
Long.             141.712
Depth. (km)       71
Mag.              6.0
Station Code      HKD112
Station Lat.      41.9370
Station Long.     143.2403
Station Height(m) 15
Record Time       2024/04/02 04:25:37
Sampling Freq(Hz) 100Hz
Duration Time(s)  66
Dir.              U-D
Scale Factor      7845(gal)/8223790
Max. Acc. (gal)   1.432
Last Correction   2024/04/02 04:25:37
Memo.             
   -9374    -9375    -9720    -9852    -9521    -9278    -9428    -9651 
   -9707    -9633    -9510    -9421    -9401    -9535    -9821    -9860 
   -9367    -8810    -8768    -9116    -9445    -9690    -9819    -9653 
   -9343    -9262    -9428    -9549    -9486    -9405    -9490    -9586 
   -9501    -9416    -9513    -9644    -9640    -9612    -9702    -9728 
   -9497    -9221    -9192    -9421    -9705    -9711    -9360    -9124 
   -9246    -9370    -9433    -9651    -9780    -9641    -9626    -9871 
   -9926    -9634    -9414    -9516    -9632    -9586    -9630    -9652 
   -9256    -8800    -8947    -9486    -9774    -9676    -9478    -9416 
   -9455    -9498    -9640    -9792    -9688    -9474    -9455    -9568 
   -9625    -9593    -9509    -9406    -9324    -9394    -9633    -9699 
   -9400    -9124    -9229    -9541    -9722    -9599    -9250    -9020 
   -9205    -9675    -9882    -9540    -9263    -9614    -9960    -9676 
   -9209    -9055    -9261    -9749   -10104    -9903    -9433    -9247 
   -9413    -9672    -9811    -9693    -9227    -8706    -8854    -9788 
  -10389    -9869    -9046    -8969    -9601   -10243   -10191    -9418 
   -8831    -9076    -9737   -10003    -9552    -8981    -9082    -9657 
   -9987    -9922    -9605    -9181    -9089    -9518    -9931    -9871 
   -9486    -9055    -8770    -8916    -9541   -10056    -9828    -9162 
   -9015    -9529    -9844    -9574    -9220    -9174    -9373    -9695 
  -10025   -10003    -9445    -8978    -9209    -9634    -9525    -9190 
   -9312    -9617    -9445    -9158    -9493   -10075   -10053    -9555 
   -9306    -9406    -9460    -9397    -9401    -9489    -9536    -9466 
   -9313    -9124    -8947    -9069    -9566    -9888    -9782    -9649 
   -9634    -9620    -9628    -9556    -9481    -9740   -10041    -9817 
   -9371    -9289    -9447    -9477    -9413    -9462    -9517    -9359 
   -9221    -9289    -9205    -9053    -9355    -9863    -9977    -9753 
   -9590    -9640    -9721    -9636    -9570    -9653    -9575    -9300 
   -9236    -9433    -9576    -9660    -9894    -9996    -9545    -9069 
   -9356    -9937    -9884    -9377    -9116    -9248    -9551    -9828 
   -9822    -9406    -9000    -9167    -9796   -10189    -9849    -9001 
   -8509    -9005    -9941   -10162    -9567    -9058    -9136    -9609 
  -10083   -10234    -9950    -9369    -8970    -9193    -9676    -9752 
   -9386    -8957    -8907    -9428   -10006   -10012    -9591    -9310 
   -9374    -9564    -9670    -9632    -9501    -9490    -9670    -9768 
   -9670    -9447    -9181    -9161    -9490    -9745    -9664    -9440 
   -9234    -9116    -9220    -9551    -9876    -9822    -9350    -9072 
   -9378    -9775    -9705    -9304    -9131    -9383    -9610    -9501 
   -9310    -9192    -9188    -9499    -9913    -9925    -9493    -9007 
   -8982    -9594   -10160    -9931    -9216    -8880    -9266    -9879 
   -9907    -9400    -9209    -9431    -9516    -9562    -9693    -9517 
   -9163    -9128    -9375    -9674    -9845    -9782    -9713    -9774 
   -9828    -9834    -9702    -9409    -9250    -9266    -9277    -9402 
   -9570    -9447    -9177    -9104    -9347    -9829   -10041    -9633 
   -9193    -9298    -9699    -9964    -9875    -9463    -9108    -9093 
   -9286    -9501    -9583    -9456    -9331    -9279    -9267    -9599 
  -10138   -10122    -9594    -9367    -9567    -9757    -9810    -9674 
   -9255    -8916    -9146    -9641    -9594    -9093    -9019    -9309 
   -9224    -9061    -9444    -9887    -9701    -9192    -9169    -9823 
  -10390   -10228    -9759    -9539    -9499    -9616    -9853    -9683 
   -9117    -8985    -9367    -9647    -9792    -9859    -9563    -9197 
   -9360    -9771    -9661    -9157    -9076    -9428    -9444    -9138 
   -9271    -9807    -9984    -9729    -9572    -9628    -9643    -9564 
   -9536    -9531    -9374    -9161    -9082    -9073    -9117    -9298 
   -9495    -9653    -9834    -9864    -9671    -9630    -9809    -9747 
   -9348    -9018    -8955    -9051    -9282    -9616    -9674    -9304 
   -9178    -9702   -10162    -9954    -9531    -9494    -9725    -9806 
   -9759    -9771    -9667    -9323    -9062    -9153    -9390    -9342 
   -8989    -8965    -9522    -9971    -9969    -9841    -9529    -9103 
   -9224    -9821   -10029    -9679    -9362    -9424    -9514    -9193 
   -8907    -9224    -9597    -9512    -9362    -9390    -9481    -9670 
   -9903    -9883    -9418    -8904    -9062    -9676    -9709    -9065 
   -8688    -9084    -9834   -10106    -9533    -8810    -8858    -9614 
  -10226   -10157    -9688    -9344    -9309    -9540    -9784    -9679 
   -9332    -9298    -9610    -9636    -9235    -9050    -9344    -9601 
   -9448    -9211    -9421   -10007   -10207    -9697    -9215    -9383 
   -9846    -9979    -9606    -9039    -8868    -9243    -9620    -9651 
   -9574    -9636    -9772    -9778    -9639    -9575    -9666    -9702 
   -9601    -9447    -9251    -9198    -9482    -9682    -9381    -9051 
   -9223    -9585    -9582    -9266    -9188    -9450    -9567    -9518 
   -9721    -9902    -9585    -9227    -9339    -9522    -9512    -9528 
   -9489    -9354    -9381    -9483    -9448    -9408    -9455    -9547 
   -9674    -9717    -9586    -9533    -9767   -10023   -10026    -9837 
   -9535    -9247    -9317    -9756    -9956    -9653    -9374    -9320 
   -9332    -9580    -9823    -9585    -9169    -8937    -8931    -9425 
  -10134   -10008    -8997    -8509    -9278   -10189   -10114    -9483 
   -9138    -9181    -9455    -9832    -9979    -9651    -9109    -8911 
   -9329    -9985   -10157    -9652    -9003    -8694    -8834    -9425 
  -10100   -10000    -8939    -8212    -8985   -10440   -10870   -10046 
   -9155    -8977    -9320    -9710    -9840    -9622    -9186    -8857 
   -9084    -9838   -10314   -10030    -9468    -9175    -9304    -9759 
  -10158   -10095    -9466    -8797    -8984    -9911   -10389    -9872 
   -8988    -8584    -9001    -9788   -10142    -9844    -9266    -8876 
   -9005    -9477    -9780    -9742    -9495    -9286    -9385    -9647 
   -9648    -9413    -9296    -9435    -9634    -9533    -9190    -9163 
   -9513    -9682    -9549    -9477    -9587    -9728    -9728    -9448 
   -9035    -8982    -9394    -9736    -9630    -9286    -9158    -9390 
   -9595    -9524    -9421    -9451    -9543    -9671    -9749    -9688 
   -9514    -9302    -9348    -9792   -10072    -9798    -9385    -9240 
   -9441    -9791    -9834    -9570    -9387    -9319    -9413    -9825 
   -9991    -9443    -8947    -9219    -9702    -9590    -9088    -9039 
   -9412    -9423    -9270    -9633   -10004    -9717    -9228    -9258 
   -9809   -10176    -9791    -9139    -8999    -9196    -9282    -9325 
   -9385    -9410    -9405    -9339    -9435    -9813   -10046   -10026 
  -10054    -9964    -9664    -9531    -9525    -9410    -9302    -9278 
   -9344    -9377    -9078    -8673    -8796    -9571   -10415   -10470 
   -9579    -8811    -9055    -9775   -10049    -9657    -8973    -8727 
   -9247    -9890    -9931    -9404    -8947    -9180    -9919   -10412 
  -10246    -9493    -8691    -8764    -9796   -10503    -9909    -8780 
   -8522    -9283   -10014   -10058    -9601    -9024    -8910    -9590 
  -10293   -10120    -9397    -9004    -9270    -9877   -10083    -9514 
   -8938    -9119    -9649    -9844    -9614    -9248    -9229    -9728 
  -10135    -9923    -9578    -9767   -10071    -9698    -9018    -8930 
   -9396    -9748    -9590    -9040    -8688    -8935    -9408    -9641 
   -9717    -9823    -9899    -9779    -9405    -9112    -9220    -9439 
   -9412    -9236    -9192    -9413    -9744    -9906    -9767    -9494 
   -9525    -9926   -10077    -9578    -8916    -8799    -9256    -9639 
   -9387    -8835    -8803    -9298    -9645    -9703    -9726    -9767 
   -9783    -9733    -9699    -9817    -9994   -10027    -9680    -9038 
   -8842    -9389    -9805    -9494    -9053    -9084    -9360    -9440 
   -9313    -9269    -9381    -9582    -9934   -10164    -9792    -9205 
   -9234    -9807   -10172    -9925    -9398    -9220    -9410    -9537 
   -9610    -9757    -9729    -9443    -9205    -9336    -9892   -10309 
   -9910    -9135    -8982    -9448    -9780    -9582    -9074    -8860 
   -9266    -9836    -9873    -9371    -8951    -8981    -9274    -9574 
   -9788    -9865    -9740    -9452    -9235    -9238    -9444    -9765 
   -9811    -9343    -8966    -9186    -9537    -9576    -9467    -9401 
   -9486    -9660    -9645    -9464    -9359    -9362    -9450    -9586 
   -9652    -9563    -9262    -8911    -8980    -9518    -9963    -9898 
   -9455    -9240    -9617    -9926    -9533    -9069    -9298    -9791 
   -9857    -9571    -9319    -9250    -9367    -9737   -10153    -9960 
   -9192    -8945    -9482    -9753    -9502    -9475    -9570    -9099 
   -8560    -9074   -10199   -10309    -9281    -8683    -9155    -9767 
   -9999   -10108    -9953    -9427    -9108    -9319    -9647    -9641 
   -9298    -8985    -8957    -9134    -9429    -9711    -9671    -9306 
   -9248   -10053   -11002   -10724    -9386    -8608    -9030    -9844 
  -10296   -10046    -9127    -8376    -8644    -9618   -10231    -9838 
   -8932    -8629    -9256    -9961    -9988    -9572    -9364    -9556 
   -9774    -9778    -9680    -9385    -8918    -8950    -9691   -10208 
   -9869    -9329    -9335    -9575    -9501    -9351    -9533    -9699 
   -9397    -9018    -9058    -9309    -9528    -9756    -9910    -9809 
   -9436    -9157    -9448    -9984    -9906    -9373    -9244    -9463 
   -9501    -9456    -9424    -9184    -8889    -9003    -9609   -10142 
   -9931    -9166    -8781    -9279   -10237   -10777   -10285    -9174 
   -8772    -9606   -10528   -10291    -9131    -8356    -8742    -9702 
  -10197    -9891    -9178    -8758    -9046    -9599    -9786    -9591 
   -9213    -8932    -9058    -9282    -9367    -9649    -9917    -9664 
   -9309    -9447    -9909   -10206    -9956    -9282    -8986    -9317 
   -9487    -9239    -9093    -9123    -9135    -9250    -9535    -9859 
  -10062    -9988    -9671    -9397    -9382    -9520    -9529    -9321 
   -9094    -9112    -9439    -9763    -9644    -9238    -9262    -9813 
  -10141    -9899    -9417    -9045    -9067    -9522    -9971   -10044 
   -9782    -9493    -9479    -9612    -9563    -9437    -9405    -9294 
   -9132    -9256    -9567    -9549    -9190    -9169    -9848   -10494 
  -10268    -9433    -8796    -8784    -9433   -10185    -9985    -8811 
   -8159    -8885   -10035   -10439   -10026    -9487    -9540   -10122 
  -10338    -9659    -8764    -8638    -9181    -9536    -9383    -9054 
   -8958    -9261    -9684    -9795    -9587    -9412    -9513    -9805 
   -9896    -9571    -9238    -9390    -9786    -9852    -9598    -9487 
   -9698    -9952    -9900    -9483    -9020    -8953    -9348    -9763 
   -9721    -9329    -9136    -9289    -9440    -9508    -9661    -9707 
   -9548    -9643    -9936    -9652    -8972    -9062    -9960   -10341 
   -9726    -9165    -9258    -9381    -9240    -9358    -9810    -9961 
   -9425    -8766    -8908    -9655    -9949    -9655    -9433    -9520 
   -9840    -9968    -9231    -8344    -8749    -9884   -10200    -9657 
   -9123    -9158    -9612    -9691    -9315    -9367    -9973   -10255 
   -9871    -9328    -9034    -9074    -9483    -9836    -9529    -8883 
   -8811    -9382    -9810    -9763    -9614    -9589    -9722   -10017 
   -9995    -9340    -8847    -9234    -9757    -9583    -9196    -9258 
   -9552    -9637    -9547    -9634    -9961    -9954    -9370    -9059 
   -9468    -9714    -9404    -9204    -9263    -9278    -9371    -9563 
   -9574    -9467    -9423    -9410    -9493    -9717    -9791    -9464 
   -9082    -9054    -9219    -9444    -9821    -9992    -9621    -9202 
   -9367    -9883   -10007    -9522    -9039    -9059    -9352    -9705 
  -10039   -10000    -9620    -9418    -9499    -9559    -9466    -9390 
   -9545    -9778    -9645    -9261    -9273    -9699    -9909    -9645 
   -9304    -9455   -10007   -10095    -9382    -8695    -8773    -9387 
   -9873    -9798    -9266    -8826    -8912    -9544   -10303   -10411 
   -9621    -8811    -8862    -9535    -9942    -9701    -9261    -9059 
   -9101    -9313    -9494    -9466    -9633   -10192   -10319    -9613 
   -9154    -9606   -10011    -9626    -9113    -9155    -9494    -9653 
   -9612    -9509    -9321    -9231    -9548    -9888    -9572    -8995 
   -9143    -9798    -9931    -9582    -9494    -9606    -9483    -9360 
   -9639    -9934    -9683    -9211    -9154    -9456    -9666    -9607 
   -9423    -9231    -9146    -9404    -9821    -9734    -9138    -8957 
   -9603   -10189    -9864    -9121    -8991    -9458    -9707    -9522 
   -9325    -9259    -9248    -9369    -9567    -9590    -9358    -9132 
   -9161    -9316    -9431    -9529    -9514    -9320    -9229    -9459 
   -9780    -9834    -9537    -9259    -9445    -9898   -10053    -9909 
   -9710    -9445    -9373    -9670    -9744    -9219    -8765    -9130 
   -9960   -10257    -9799    -9285    -9212    -9463    -9651    -9553 
   -9390    -9432    -9552    -9598    -9652    -9628    -9344    -9088 
   -9267    -9682    -9840    -9622    -9262    -9132    -9350    -9558 
   -9525    -9397    -9339    -9516    -9792    -9706    -9486    -9760 
  -10122    -9825    -9225    -9063    -9275    -9391    -9293    -9146 
   -9117    -9259    -9478    -9625    -9722    -9899   -10008    -9765 
   -9329    -9139    -9304    -9544    -9533    -9317    -9302    -9564 
   -9733    -9659    -9454    -9213    -9219    -9610    -9819    -9424 
   -9038    -9332    -9965   -10237   -10004    -9671    -9614    -9729 
   -9678    -9606    -9823    -9887    -9342    -8849    -9008    -9231 
   -9059    -8996    -9223    -9445    -9769   -10091    -9942    -9535 
   -9348    -9355    -9400    -9423    -9408    -9412    -9394    -9358 
   -9525    -9803    -9720    -9275    -9059    -9387    -9871    -9988 
   -9737    -9367    -8996    -8950    -9475   -10077   -10250   -10073 
   -9609    -9065    -9111    -9796   -10107    -9431    -8590    -8576 
   -9138    -9568    -9701    -9601    -9370    -9304    -9567    -9868 
   -9891    -9728    -9536    -9248    -9080    -9501   -10149    -9969 
   -9139    -9070    -9975   -10519   -10071    -9286    -8843    -8957 
   -9462    -9834    -9699    -9202    -8856    -9089    -9725   -10033 
   -9594    -8946    -8881    -9259    -9273    -8876    -8841    -9408 
   -9987   -10087    -9767    -9508    -9671    -9941    -9919    -9651 
   -9247    -9031    -9416    -9984   -10000    -9740    -9903   -10327 
  -10400    -9960    -9188    -8496    -8442    -9055    -9657    -9610 
   -8970    -8503    -9019   -10218   -10768   -10220    -9559    -9462 
   -9666    -9828    -9659    -8910    -8175    -8522    -9651   -10219 
   -9972    -9601    -9545    -9958   -10397   -10158    -9537    -9185 
   -8955    -8806    -9058    -9377    -9350    -9316    -9454    -9420 
   -9192    -9027    -9000    -9124    -9418    -9788    -9953    -9632 
   -9066    -8981    -9771   -10710   -10548    -9452    -8932    -9397 
   -9894    -9973    -9765    -9374    -9232    -9683   -10239   -10272 
   -9815    -9258    -9009    -9120    -9186    -9170    -9271    -9216 
   -8937    -8937    -9342    -9768    -9895    -9636    -9261    -9123 
   -9204    -9440    -9756    -9699    -9277    -9174    -9355    -9425 
   -9765   -10297   -10255    -9742    -9363    -9267    -9427    -9568 
   -9316    -8950    -9007    -9559   -10207   -10261    -9602    -9225 
   -9676    -9971    -9354    -8683    -8973    -9832   -10123    -9628 
   -9243    -9397    -9551    -9580    -9834    -9894    -9359    -9082 
   -9583    -9860    -9375    -9099    -9468    -9610    -9301    -9474 
  -10223   -10347    -9332    -8274    -8276    -8942    -9285    -9323 
   -9532    -9863   -10154   -10330   -10135    -9539    -9008    -8874 
   -8880    -8895    -9239    -9828   -10084    -9952    -9977   -10170 
   -9985    -9424    -8991    -8849    -8985    -9494   -10092   -10254 
  -10029    -9859    -9880    -9953    -9888    -9524    -8953    -8629 
   -8928    -9444    -9315    -8688    -8658    -9466   -10146   -10147 
   -9942    -9904    -9779    -9491    -9432    -9602    -9479    -9065 
   -9051    -9670   -10242   -10133    -9583    -9238    -9317    -9587 
   -9632    -9119    -8417    -8463    -9351   -10119   -10084    -9432 
   -8919    -9158    -9776   -10019    -9852    -9547    -9229    -9200 
   -9666   -10191   -10022    -9246    -8849    -9165    -9607    -9863 
   -9904    -9652    -9394    -9471    -9660    -9644    -9402    -9094 
   -9055    -9414    -9848   -10050    -9977    -9714    -9405    -9270 
   -9468    -9670    -9382    -8935    -8932    -9297    -9690    -9742 
   -9234    -8793    -9012    -9347    -9308    -9246    -9444    -9796 
  -10075   -10046    -9771    -9612    -9761    -9936    -9594    -8756 
   -8291    -8866    -9956   -10424    -9903    -9119    -8883    -9348 
  -10120   -10399    -9794    -9139    -9220    -9661    -9937    -9921 
   -9598    -9196    -8946    -8775    -8819    -9271    -9652    -9551 
   -9336    -9347    -9535    -9815    -9980    -9744    -9212    -8858 
   -9059    -9644    -9958    -9675    -9151    -8991    -9518   -10284 
  -10378    -9633    -8885    -8911    -9525    -9900    -9628    -9039 
   -8573    -8592    -9271   -10041   -10116    -9695    -9531    -9844 
  -10316   -10473    -9929    -8915    -8406    -8950    -9771    -9818 
   -9151    -8619    -8826    -9570    -9983    -9636    -9153    -9104 
   -9382    -9817   -10080    -9769    -9216    -9105    -9545   -10030 
   -9938    -9363    -9169    -9601    -9896    -9782    -9667    -9549 
   -9315    -9309    -9670    -9942    -9741    -9309    -9080    -9009 
   -8923    -9032    -9412    -9698    -9782    -9890    -9999    -9958 
   -9879    -9900    -9872    -9580    -9321    -9614   -10058    -9761 
   -9040    -8920    -9354    -9586    -9455    -9236    -8996    -8856 
   -9205    -9911   -10095    -9585    -9337    -9752   -10076    -9865 
   -9553    -9459    -9393    -9327    -9462    -9680    -9682    -9521 
   -9463    -9474    -9347    -9255    -9575   -10064   -10011    -9373 
   -8849    -8878    -9254    -9536    -9525    -9444    -9477    -9539 
   -9612    -9680    -9614    -9560    -9763    -9980    -9813    -9413 
   -9193    -9229    -9370    -9450    -9391    -9278    -9250    -9396 
   -9683    -9882    -9755    -9493    -9541    -9722    -9482    -9047 
   -8953    -9116    -9405    -9761    -9775    -9444    -9391    -9691 
   -9819    -9702    -9644    -9607    -9413    -9301    -9545    -9841 
   -9718    -9300    -8970    -8804    -8743    -8731    -8669    -8718 
   -9166    -9855   -10241   -10066    -9680    -9629    -9926    -9992 
   -9522    -8966    -8884    -9236    -9601    -9734    -9632    -9363 
   -9159    -9242    -9431    -9394    -9220    -9202    -9394    -9679 
   -9899    -9915    -9697    -9321    -9082    -9350   -10068   -10621 
  -10323    -9373    -9020    -9683   -10096    -9641    -9293    -9464 
   -9559    -9455    -9458    -9525    -9410    -9066    -8856    -9193 
   -9780    -9973    -9825    -9809   -10042   -10304   -10319   -10029 
   -9707    -9621    -9641    -9429    -9082    -9024    -9288    -9545 
