Origin Time       2024/04/02 04:24:00
Lat.              40.133
Long.             141.712
Depth. (km)       71
Mag.              6.0
Station Code      HKD185
Station Lat.      42.7756
Station Long.     141.4016
Station Height(m) 266
Record Time       2024/04/02 04:25:51
Sampling Freq(Hz) 100Hz
Duration Time(s)  66
Dir.              N-S
Scale Factor      7845(gal)/8223790
Max. Acc. (gal)   2.509
Last Correction   2024/04/02 04:25:51
Memo.             
[...]
    1549     1449     1383     1336     1255     1140     1048     1030 
    1096     1190     1262     1283     1227     1138     1107     1193 
    1417     1637     1684     1664     1763     1952     2093     2060 
    1842     1566     1422     1506     1594     1474     1289     1240 
    1379     1583     1671     1636     1489     1248     1113     1175 
    1318     1456     1552     1610     1696     1826     1883     1807 
    1767     1850     1903     1858     1830     1867     1891     1768 
    1551     1514     1772     2091     2147     1875     1505     1283 
    1279     1340     1243     1004      868      919     1032     1107 
    1121     1119     1201     1385     1611     1814     1867     1705 
    1452     1306     1354     1497     1591     1605     1574     1536 
    1572     1688     1729     1588     1379     1263     1247     1247 
    1233     1174     1032      955     1080     1254     1329     1375 
    1475     1614     1732     1782     1764     1741     1768     1752 
    1598     1435     1429     1549     1641     1676     1736     1765 
    1703     1599     1459     1301     1220     1287     1486     1683 
    1792     1875     1926     1879     1787     1757     1760     1674 
    1470     1262     1163     1190     1258     1305     1356     1390 
    1378     1382     1462     1610     1755     1836     1857     1830 
    1714     1518     1367     1344     1359     1298     1209     1235 
    1379     1476     1459     1418     1440     1530     1629     1674 
    1667     1649     1644     1603     1497     1404     1391     1429 
    1475     1520     1548     1541     1497     1460     1491     1555 
    1566     1528     1503     1526     1544     1502     1414     1316 
    1329     1520     1705     1721     1598     1433     1339     1317 
    1301     1402     1684     1966     2095     2046     1873     1679 
    1560     1570     1686     1786     1761     1642     1491     1359 
    1317     1312     1251     1165     1080     1027     1024     1044 
    1120     1252     1378     1548     1768     1880     1864     1858 
    1864     1814     1732     1637     1502     1358     1277     1277 
    1332     1445     1561     1568     1495     1459     1439     1379 
    1347     1395     1497     1606     1671     1678     1684     1718 
    1741     1730     1694     1642     1578     1453     1296     1208 
    1227     1309     1422     1505     1441     1277     1252     1387 
    1510     1668     1858     1873     1728     1626     1641     1750 
    1910     1972     1838     1626     1464     1290     1096      994 
     943      847      787      826      970     1255     1607     1826 
    1803     1667     1580     1576     1645     1733     1737     1651 
    1598     1630     1626     1561     1615     1834     1998     1904 
    1653     1495     1451     1374     1233     1156     1246     1406 
    1474     1416     1332     1414     1668     1790     1617     1305 
    1067     1040     1198     1395     1529     1591     1644     1661 
    1541     1368     1321     1449     1703     1984     2111     1954 
    1617     1329     1224     1352     1669     1950     2033     1938 
    1721     1451     1260     1278     1468     1582     1497     1404 
    1466     1607     1687     1640     1520     1398     1308     1341 
    1548     1806     1953     1880     1579     1204      988     1034 
    1204     1318     1375     1429     1476     1480     1371     1170 
    1042     1053     1158     1389     1661     1744     1653     1629 
    1721     1845     1948     1942     1826     1723     1653     1494 
    1225     1038     1092     1310     1501     1530     1467     1489 
    1588     1626     1557     1476     1553     1776     1939     1915 
    1714     1493     1448     1545     1605     1571     1537     1576 
    1579     1463     1332     1289     1382     1584     1696     1607 
    1476     1425     1363     1221     1093     1089     1227     1435 
    1611     1701     1699     1653     1583     1464     1324     1242 
    1267     1381     1455     1432     1449     1601     1850     2135 
    2336     2330     2143     1958     1803     1491     1043      711 
     687     1012     1439     1603     1448     1206     1132     1258 
    1437     1557     1599     1648     1732     1682     1414     1127 
    1075     1324     1671     1848     1822     1787     1857     1864 
    1640     1358     1282     1414     1521     1391     1111      981 
    1092     1206     1156     1082     1156     1325     1447     1471 
    1485     1584     1725     1827     1867     1852     1831     1753 
    1548     1381     1444     1728     2073     2254     2150     1926 
    1853     1995     2139     2076     1740     1213      776      715 
    1001     1379     1676     1767     1563     1248     1088     1067 
    1046     1019     1058     1158     1233     1278     1340     1382 
    1395     1474     1626     1744     1730     1624     1568     1603 
    1595     1502     1470     1570     1701     1741     1651     1497 
    1397     1413     1520     1638     1665     1588     1490     1459 
    1545     1690     1769     1722     1543     1375     1445     1695 
    1854     1794     1574     1360     1291     1289     1270     1344 
    1548     1714     1707     1587     1543     1613     1640     1571 
    1505     1506     1568     1606     1509     1300     1143     1102 
    1108     1150     1287     1480     1547     1386     1148     1027 
    1136     1444     1738     1927     2081     2168     2134     1977 
    1714     1475     1416     1555     1738     1788     1723     1630 
    1487     1313     1200     1185     1233     1278     1289     1293 
    1293     1296     1356     1486     1630     1773     1884     1854 
    1684     1557     1564     1571     1485     1366     1337     1433 
    1498     1449     1448     1556     1583     1460     1360     1366 
    1367     1318     1324     1447     1647     1863     1949     1819 
    1664     1580     1422     1232     1225     1456     1803     2018 
    1919     1624     1382     1274     1219     1194     1269     1418 
    1587     1755     1845     1857     1873     1838     1721     1576 
    1406     1252     1206     1228     1248     1316     1491     1671 
    1702     1601     1463     1347     1302     1298     1308     1428 
    1629     1668     1493     1297     1231     1385     1723     1983 
    1999     1826     1532     1266     1227     1359     1402     1290 
    1231     1366     1606     1777     1736     1520     1362     1399 
    1513     1545     1495     1432     1408     1472     1575     1571 
    1449     1331     1264     1248     1325     1479     1649     1844 
    2008     2046     1975     1837     1672     1555     1493     1464 
    1529     1730     1887     1748     1405     1135     1046     1111 
    1242     1424     1644     1706     1518     1316     1348     1571 
    1664     1456     1169     1105     1300     1590     1796     1807 
    1638     1494     1521     1637     1684     1571     1337     1209 
    1314     1533     1705     1734     1595     1398     1263     1206 
    1198     1190     1169     1220     1371     1560     1775     1938 
    1935     1788     1620     1591     1711     1756     1652     1545 
    1491     1420     1314     1237     1242     1337     1517     1657 
    1644     1587     1549     1472     1386     1371     1501     1757 
    1977     2030     1926     1738     1509     1341     1385     1532 
    1522     1344     1150     1073     1156     1269     1282     1246 
    1215     1175     1148     1205     1297     1283     1223     1309 
    1521     1661     1655     1559     1460     1428     1495     1657 
    1868     1984     1925     1765     1559     1332     1224     1289 
    1413     1557     1703     1723     1637     1570     1536     1539 
    1625     1733     1696     1462     1177     1057     1163     1347 
    1485     1637     1841     1941     1831     1632     1507     1449 
    1383     1340     1332     1359     1470     1601     1674     1710 
    1682     1597     1579     1659     1641     1385     1096     1003 
    1061     1182     1312     1420     1525     1567     1509     1476 
    1571     1645     1479     1140      915      935     1166     1518 
    1853     2041     2034     1864     1601     1290     1015      923 
    1047     1336     1759     2116     2145     1856     1483     1297 
    1436     1710     1800     1694     1607     1576     1459     1267 
    1201     1377     1699     1969     2042     1880     1634     1572 
    1692     1742     1707     1827     2147     2423     2412     2118 
    1790     1630     1547     1337     1007      720      623      733 
     903     1027     1198     1495     1730     1702     1498     1347 
    1320     1352     1414     1437     1391     1445     1638     1748 
    1723     1636     1399     1040      772      734      934     1239 
    1479     1641     1854     2164     2403     2443     2376     2272 
    2112     1904     1647     1410     1325     1385     1421     1285 
     986      683      616      919     1372     1653     1702     1613 
    1429     1177      965      984     1333     1799     2057     2116 
    2215     2313     2153     1687     1147      796      683      688 
     776      955     1175     1414     1669     1944     2269     2546 
    2613     2482     2218     1821     1354     1001      970     1273 
    1622     1787     1787     1709     1568     1348     1198     1345 
    1734     2096     2222     2074     1826     1664     1566     1421 
    1252     1147     1046      789      388      112      199      585 
    1040     1443     1779     2096     2366     2334     1867     1275 
     930      908     1112     1398     1590     1622     1614     1672 
    1706     1607     1414     1210     1043      976     1059     1262 
    1490     1648     1761     1958     2212     2349     2307     2143 
    1887     1588     1331     1189     1264     1483     1567     1435 
    1244     1113     1070     1078     1090     1140     1356     1809 
    2226     2212     1831     1506     1440     1529     1598     1574 
    1536     1575     1695     1845     1938     1926     1838     1709 
    1586     1491     1344     1050      706      589      838     1360 
    1966     2359     2396     2223     1922     1491     1075      907 
    1116     1456     1490     1192      955     1084     1495     1880 
    2080     2160     2177     2041     1707     1379     1271     1381 
    1567     1640     1603     1636     1696     1586     1331     1112 
     958      784      552      314      195      306      618     1008 
    1455     2041     2652     3019     2984     2558     1921     1344 
    1034     1012     1136     1339     1588     1733     1746     1790 
    1934     2096     2097     1818     1359      901      622      702 
    1196     1931     2523     2706     2546     2185     1695     1161 
     722      502      575      912     1264     1350     1210     1069 
    1054     1229     1574     1917     2065     1937     1528      999 
     662      707     1044     1544     2119     2533     2466     1896 
    1201      851     1115     1860     2581     2856     2705     2382 
    2047     1722     1453     1316     1228     1150     1212     1453 
    1721     1749     1490     1300     1377     1447     1161      494 
     -93     -151      189      587      989     1463     1950     2297 
    2346     2084     1769     1660     1653     1518     1323     1259 
    1246     1063      719      481      583      950     1420     1944 
    2354     2461     2400     2438     2609     2668     2490     2403 
    2621     2864     2843     2555     2165     1763     1296      861 
     703      845     1036     1038      904      849      815      564 
     103     -222      -95      445     1101     1563     1722     1741 
    1865     2195     2547     2620     2324     1883     1580     1467 
    1391     1291     1281     1355     1324     1081      753      579 
     669      934     1247     1533     1721     1792     1814     1853 
    1917     1996     2107     2216     2239     2126     1892     1647 
    1529     1520     1410     1077      689      569      793     1104 
    1193     1032      895     1013     1464     2180     2876     3230 
    3140     2847     2620     2369     2014     1733     1513     1183 
     820      687      943     1518     2196     2643     2513     1809 
     834      -75     -591     -542        2      828     1499     1632 
    1320      990      961     1181     1397     1597     1939     2438 
    3006     3427     3388     2863     2166     1686     1536     1391 
     985      446        4     -261     -248      263     1227     2118 
    2412     2085     1615     1424     1355     1121      851      754 
     801      926     1169     1584     2195     2859     3256     3231 
    2918     2475     2038     1764     1605     1359     1026      773 
     718      886     1251     1659     1933     2154     2470     2702 
    2616     2272     1938     1749     1541     1150      692      378 
     299      399      561      699      807     1017     1441     1888 
    2069     1981     1861     1923     2106     2119     1873     1580 
    1424     1306     1023      652      476      576      810      957 
     886      762      877     1289     1803     2241     2658     3218 
    3835     4140     3906     3333     2803     2454     2033     1250 
     238     -558     -872     -699     -195      338      695      932 
    1140     1228     1058      683      383      306      410      719 
    1166     1621     2134     2685     3056     3204     3292     3350 
    3213     2818     2269     1698     1229      908      702      662 
     839     1109     1313     1416     1424     1336     1208     1108 
    1028     1046     1362     1960     2496     2652     2386     1841 
    1263      897      797      930     1273     1556     1474     1194 
    1092     1250     1536     1827     2033     2087     1966     1756 
    1718     2049     2535     2714     2324     1499      653      108 
    -125     -126      163      757     1340     1597     1687     1884 
    2118     2311     2521     2675     2579     2112     1306      469 
     125      504     1301     2037     2381     2290     1996     1730 
    1514     1267     1053     1094     1412     1678     1605     1229 
     834      706      931     1344     1626     1571     1289     1046 
     958     1053     1375     1737     1858     1858     1842     1599 
    1139      743      654     1084     1926     2614     2681     2211 
    1699     1549     1771     2061     2037     1614     1173     1062 
    1250     1605     1979     2076     1756     1227      799      627 
     614      677     1046     1872     2833     3337     3068     2388 
    1891     1695     1576     1420     1386     1718     2222     2308 
    1763     1013      603      608      611      334       68      207 
     731     1250     1480     1544     1651     1815     1929     1890 
    1779     1717     1609     1358     1071      993     1254     1630 
    1819     1818     1811     1854     1773     1405      901      638 
     747      978     1074     1065     1085     1146     1175     1227 
    1413     1705     2029     2317     2458     2401     2196     1954 
    1848     1935     2079     2103     1968     1807     1729     1645 
    1432     1115      923     1105     1501     1726     1810     2038 
    2461     2879     2938     2385     1544     1055      990      845 
     454      153      205      530      808      842      743      616 
     506      556      834     1231     1588     1786     1873     2006 
    2270     2543     2552     2188     1548      850      432      495 
     892     1352     1702     1935     2160     2467     2833     3199 
    3551     3703     3383     2728     2076     1487      896      400 
     193      353      733     1062     1178     1102      947      773 
     608      573      830     1350     1853     2116     2154     2079 
    2043     2185     2423     2423     1869      936      244      117 
     317      544      754     1069     1529     1903     1937     1701 
    1509     1572     1837     2137     2336     2365     2262     2142 
    2042     1910     1732     1582     1501     1401     1119      584 
      21     -221      -48      403      997     1614     2134     2427 
    2357     1917     1372     1093     1260     1736     2182     2376 
    2315     2208     2280     2458     2474     2311     2162     2052 
    1802     1432     1209     1186     1143      993      780      510 
     279      180      225      515     1055     1533     1711     1722 
    1721     1642     1468     1347     1377     1526     1772     2080 
    2365     2494     2344     2007     1737     1615     1540     1436 
    1294     1102      869      661      537      467      398      371 
     531      928     1331     1561     1757     2039     2330     2536 
    2663     2790     2893     2786     2404     1983     1746     1628 
    1441     1154      965     1121     1517     1787     1788     1630 
    1467     1286      967      627      558      849     1351     1854 
    2245     2532     2635     2380     1876     1432     1139      885 
     527        0     -575     -976    -1075     -702      311     1702 
    2803     3146     2817     2270     1852     1642     1615     1640 
    1587     1524     1551     1549     1420     1355     1583     2015 
    2357     2370     2034     1637     1564     1852     2192     2371 
    2403     2312     2058     1591      974      475      434      945 
    1626     1917     1624     1057      650      558      594      568 
     616     1009     1690     2245     2362     2193     2116     2263 
    2442     2424     2201     1918     1647     1452     1437     1551 
    1614     1502     1270     1096     1084     1193     1323     1460 
    1696     1966     2030     1834     1580     1444     1424     1422 
    1320     1075      819      684      619      614      764      980 
    1107     1138     1121     1209     1543     2007     2365     2517 
    2516     2419     2145     1706     1425     1555     1929     2166 
    2053     1728     1479     1350     1165      869      688      881 
    1372     1822     1984     1892     1819     2000     2382     2610 
    2357     1791     1429     1404     1428     1367     1366     1544 
    1772     1875     1863     1707     1290      726      348      322 
     469      499      353      247      368      646      881     1092 
    1501     2070     2434     2363     2018     1748     1772     1992 
    2145     2162     2182     2199     2096     1895     1648     1417 
    1335     1406     1507     1529     1458     1404     1394     1354 
    1386     1641     2057     2408     2396     1848     1023      454 
     468      966     1636     2253     2690     2794     2484     1877 
    1150      418     -139     -279       56      602     1048     1358 
    1633     1876     2003     2022     2115     2369     2592     2554 
    2273     1992     1841     1683     1337      792      193     -260 
    -368      -82      314      483      449      476      743     1223 
