Origin Time       2024/04/02 04:24:00
Lat.              40.133
Long.             141.712
Depth. (km)       71
Mag.              6.0
Station Code      HKD158
Station Lat.      41.8349
Station Long.     141.1408
Station Height(m) 7
Record Time       2024/04/02 04:25:07
Sampling Freq(Hz) 100Hz
Duration Time(s)  142
Dir.              N-S
Scale Factor      7845(gal)/8223790
Max. Acc. (gal)   11.236
Last Correction   2024/04/02 04:25:07
Memo.             
[...]
   -5784    -5549    -5613    -5904    -6301    -6632    -6813    -6880 
   -6917    -7042    -7284    -7564    -7912    -8364    -8807    -9150 
   -9366    -9406    -9343    -9267    -9115    -8949    -8954    -9094 
   -9232    -9355    -9578    -9930   -10116    -9976    -9655    -9185 
   -8719    -8413    -7990    -7400    -7011    -6868    -6710    -6454 
   -6181    -5965    -5840    -5821    -5941    -6102    -6084    -5981 
   -6092    -6370    -6621    -6775    -6723    -6505    -6428    -6647 
   -7014    -7376    -7641    -7747    -7727    -7600    -7457    -7433 
   -7464    -7495    -7581    -7708    -7796    -7767    -7661    -7511 
   -7275    -7038    -6912    -6867    -6897    -7065    -7346    -7547 
   -7578    -7553    -7530    -7543    -7638    -7701    -7659    -7581 
   -7472    -7375    -7381    -7454    -7550    -7717    -7951    -8197 
   -8449    -8715    -8972    -9165    -9271    -9265    -9072    -8738 
   -8488    -8506    -8700    -8788    -8626    -8290    -7931    -7789 
   -8010    -8253    -8070    -7574    -7191    -7098    -7192    -7200 
   -6970    -6647    -6443    -6401    -6490    -6713    -6924    -6836 
   -6355    -5682    -5240    -5266    -5470    -5609    -5786    -6026 
   -6297    -6555    -6666    -6633    -6627    -6762    -7060    -7404 
   -7573    -7458    -7167    -6905    -6889    -7183    -7614    -7974 
   -8263    -8579    -8931    -9200    -9335    -9390    -9271    -8884 
   -8519    -8533    -8839    -9073    -8974    -8576    -8154    -7897 
   -7781    -7693    -7555    -7464    -7533    -7750    -8162    -8748 
   -9221    -9373    -9223    -8818    -8303    -7942    -7846    -7943 
   -8129    -8260    -8135    -7690    -7106    -6640    -6426    -6299 
   -6016    -5645    -5379    -5255    -5250    -5304    -5373    -5435 
   -5348    -5151    -5157    -5432    -5864    -6403    -6903    -7303 
   -7608    -7789    -8021    -8399    -8627    -8563    -8449    -8471 
   -8465    -8187    -7758    -7512    -7474    -7507    -7680    -8023 
   -8407    -8750    -8901    -8733    -8398    -8058    -7793    -7753 
   -7944    -8243    -8608    -8920    -8935    -8664    -8333    -8083 
   -7975    -7894    -7638    -7327    -7098    -6860    -6720    -6791 
   -6903    -6934    -6933    -6956    -7076    -7356    -7684    -7821 
   -7695    -7488    -7364    -7319    -7398    -7635    -7873    -7979 
   -7951    -7797    -7643    -7622    -7618    -7499    -7389    -7364 
   -7307    -7183    -6960    -6671    -6559    -6582    -6378    -6035 
   -5908    -5999    -6185    -6439    -6670    -6843    -7001    -7242 
   -7717    -8293    -8707    -8945    -8977    -8827    -8704    -8677 
   -8723    -8820    -8812    -8604    -8301    -8027    -7831    -7715 
   -7701    -7809    -7932    -8008    -8147    -8236    -7998    -7530 
   -7075    -6766    -6745    -6944    -7075    -7053    -6979    -6955 
   -7114    -7468    -7877    -8289    -8657    -8826    -8753    -8478 
   -7948    -7260    -6747    -6513    -6358    -6197    -6081    -5987 
   -5926    -5969    -6091    -6264    -6535    -6799    -6941    -7153 
   -7546    -7925    -8174    -8237    -8073    -7900    -7940    -8025 
   -7939    -7739    -7533    -7481    -7641    -7674    -7476    -7376 
   -7426    -7464    -7546    -7719    -7894    -7971    -7834    -7537 
   -7329    -7229    -7024    -6698    -6463    -6500    -6831    -7292 
   -7699    -7983    -8187    -8368    -8526    -8725    -9004    -9252 
   -9425    -9412    -9049    -8541    -8172    -7942    -7742    -7500 
   -7334    -7453    -7747    -7794    -7319    -6604    -6072    -5873 
   -6077    -6520    -6882    -7136    -7318    -7388    -7365    -7226 
   -6929    -6559    -6303    -6307    -6513    -6696    -6799    -7032 
   -7500    -8002    -8282    -8314    -8209    -8052    -7884    -7740 
   -7731    -7893    -8104    -8320    -8482    -8378    -8037    -7808 
   -7933    -8399    -8930    -9228    -9290    -9239    -9038    -8611 
   -8009    -7391    -6990    -6947    -7177    -7481    -7607    -7419 
   -7048    -6565    -5964    -5429    -5165    -5289    -5760    -6264 
   -6571    -6635    -6380    -5989    -5844    -6011    -6411    -7015 
   -7643    -8122    -8480    -8689    -8692    -8561    -8370    -8264 
   -8496    -9019    -9567    -9975   -10073    -9836    -9443    -8996 
   -8590    -8370    -8270    -8101    -7881    -7727    -7607    -7369 
   -6978    -6551    -6158    -5861    -5665    -5321    -4716    -4159 
   -3883    -3870    -4109    -4538    -4962    -5262    -5518    -5894 
   -6511    -7310    -8129    -8887    -9468    -9867   -10357   -11025 
  -11589   -11838   -11780   -11554   -11375   -11250   -10885   -10134 
   -9162    -8106    -7114    -6366    -5873    -5520    -5185    -4860 
   -4719    -4884    -5267    -5728    -6146    -6457    -6718    -7009 
   -7366    -7792    -8198    -8515    -8757    -8824    -8615    -8259 
   -7936    -7719    -7646    -7771    -8039    -8284    -8421    -8449 
   -8305    -7874    -7227    -6578    -6064    -5817    -5923    -6301 
   -6860    -7452    -7878    -8117    -8193    -7912    -7277    -6795 
   -6748    -6928    -7188    -7539    -7909    -8147    -8082    -7699 
   -7155    -6592    -6070    -5590    -5119    -4703    -4525    -4758 
   -5308    -5838    -6224    -6709    -7487    -8484    -9535   -10389 
  -10818   -10858   -10602   -10057    -9409    -8932    -8557    -8079 
   -7526    -6988    -6525    -6133    -5842    -5823    -6116    -6610 
   -7148    -7522    -7732    -7977    -8336    -8687    -8866    -8846 
   -8719    -8635    -8710    -8939    -9275    -9626    -9933   -10184 
  -10130    -9598    -8822    -7970    -7173    -6596    -6106    -5536 
   -5047    -4939    -5278    -5755    -6035    -6075    -5996    -5944 
   -6021    -6197    -6304    -6285    -6266    -6303    -6403    -6605 
   -6848    -7157    -7692    -8355    -8951    -9474    -9757    -9605 
   -9170    -8642    -8046    -7473    -7040    -6777    -6717    -6766 
   -6775    -6866    -7217    -7685    -8044    -8222    -8185    -8004 
   -7956    -8190    -8511    -8668    -8615    -8452    -8253    -8032 
   -7684    -7180    -6712    -6376    -6196    -6269    -6454    -6528 
   -6477    -6308    -6139    -6230    -6620    -7192    -7859    -8502 
   -9088    -9659   -10108   -10327   -10338   -10102    -9663    -9297 
   -9177    -9232    -9274    -9013    -8328    -7483    -6791    -6345 
   -6133    -6093    -6068    -5925    -5602    -5243    -5101    -5158 
   -5229    -5297    -5464    -5818    -6289    -6678    -6907    -6991 
   -6817    -6393    -5944    -5589    -5463    -5742    -6241    -6677 
   -7033    -7395    -7927    -8738    -9630   -10269   -10446   -10149 
   -9653    -9275    -9104    -9182    -9490    -9836   -10102   -10210 
  -10048    -9699    -9240    -8534    -7596    -6694    -5944    -5273 
   -4644    -4085    -3746    -3782    -4164    -4839    -5764    -6797 
   -7719    -8322    -8556    -8514    -8386    -8491    -8977    -9644 
  -10261   -10679   -10812   -10701   -10373    -9763    -8996    -8414 
   -8122    -7909    -7587    -7087    -6471    -5823    -5166    -4661 
   -4538    -4781    -5184    -5495    -5601    -5651    -5868    -6289 
   -6799    -7338    -7909    -8395    -8622    -8621    -8422    -8002 
   -7480    -6920    -6357    -6065    -6215    -6573    -6837    -6886 
   -6782    -6763    -7063    -7758    -8749    -9718   -10188    -9967 
   -9435    -9073    -9022    -9196    -9362    -9251    -8910    -8580 
   -8359    -8222    -8078    -7811    -7300    -6517    -5803    -5545 
   -5699    -5987    -6220    -6362    -6396    -6397    -6637    -7110 
   -7396    -7269    -6909    -6524    -6161    -5988    -6238    -6728 
   -7086    -7267    -7407    -7557    -7792    -8282    -8982    -9539 
   -9751    -9714    -9510    -9219    -9013    -8818    -8349    -7668 
   -7106    -6922    -7231    -7780    -8019    -7825    -7576    -7392 
   -7083    -6693    -6353    -6091    -6031    -6145    -6241    -6326 
   -6440    -6598    -6947    -7393    -7587    -7543    -7636    -8064 
   -8800    -9661   -10316   -10659   -10918   -11190   -11392   -11502 
  -11469   -11196   -10740   -10187    -9416    -8425    -7518    -6867 
   -6447    -6188    -5833    -5208    -4567    -4109    -3727    -3451 
   -3327    -3253    -3466    -4326    -5560    -6563    -7138    -7439 
   -7657    -7892    -8091    -8136    -7969    -7650    -7368    -7211 
   -7087    -6956    -6832    -6733    -6760    -6941    -7192    -7435 
   -7623    -7827    -8191    -8658    -8878    -8573    -7840    -6917 
   -5998    -5363    -5267    -5737    -6582    -7437    -8016    -8311 
   -8465    -8529    -8480    -8434    -8368    -8036    -7724    -8035 
   -8977   -10137   -11013   -11254   -11048   -10616    -9857    -8823 
   -7615    -6234    -4969    -4145    -3775    -3902    -4594    -5616 
   -6696    -7723    -8556    -9127    -9567    -9863    -9817    -9432 
   -8896    -8270    -7522    -6669    -5744    -4874    -4217    -3759 
   -3437    -3237    -3190    -3399    -4004    -5017    -6197    -7244 
   -8013    -8602    -9352   -10462   -11778   -13097   -14187   -14774 
  -14841   -14432   -13402   -11719    -9598    -7418    -5614    -4413 
   -3667    -3127    -2810    -2802    -2866    -2604    -1841     -873 
    -371     -810    -2103    -3877    -5811    -7615    -9049   -10080 
  -10704   -10936   -11028   -11061   -10852   -10525   -10432   -10717 
  -11261   -11713   -11831   -11832   -11997   -12241   -12339   -12236 
  -11855   -10951    -9564    -8127    -6949    -6033    -5096    -3964 
   -3029    -2797    -3241    -3855    -4109    -3877    -3585    -3753 
   -4440    -5389    -6382    -7342    -8293    -9165    -9825   -10092 
   -9791    -9142    -8553    -8182    -8174    -8553    -8995    -9279 
   -9471    -9630    -9748    -9711    -9223    -8195    -7177    -6728 
   -6768    -7018    -7264    -7389    -7576    -8071    -8928   -10002 
  -10939   -11299   -10856    -9895    -9015    -8546    -8260    -7750 
   -7086    -6642    -6434    -6165    -5489    -4194    -2471     -761 
     603     1374     1354      633     -332    -1096    -1737    -2751 
   -4480    -6785    -9202   -11259   -12742   -13875   -14968   -15981 
  -16619   -16702   -16391   -15951   -15345   -14382   -13016   -11321 
   -9458    -7560    -5674    -4009    -2953    -2581    -2490    -2343 
   -2119    -1958    -2072    -2523    -3130    -3823    -4704    -5656 
   -6397    -6899    -7384    -7861    -7997    -7724    -7437    -7443 
   -7759    -8060    -7835    -7020    -5888    -4536    -3109    -1926 
   -1355    -1748    -3173    -5379    -7927   -10192   -11742   -12708 
  -13387   -13749   -13707   -13446   -13228   -13194   -13385   -13772 
  -14250   -14551   -14265   -13122   -11206    -9074    -7366    -6160 
   -5320    -4942    -4873    -4899    -5228    -6038    -7311    -8780 
   -9620    -9294    -8229    -6929    -5498    -4136    -3159    -2629 
   -2454    -2501    -2662    -3118    -4222    -5937    -7712    -8923 
   -9346    -9283    -9030    -8537    -7777    -6882    -6104    -5775 
   -5987    -6480    -6879    -6902    -6529    -5926    -5229    -4653 
   -4330    -4048    -3792    -4032    -4887    -5834    -6397    -6427 
   -6211    -6376    -7261    -8683   -10069   -10795   -10874   -10858 
  -11169   -11944   -12919   -13448   -13080   -11963   -10732    -9953 
   -9526    -8877    -7773    -6451    -5150    -4160    -3921    -4615 
   -5895    -7142    -8028    -8679    -9279    -9822   -10102    -9856 
   -9099    -8151    -7446    -7580    -8953   -11246   -13564   -14955 
  -14920   -13630   -11551    -9066    -6535    -4236    -2339    -1189 
    -981    -1264    -1479    -1436    -1123     -672     -499    -1209 
   -2960    -4984    -6340    -6802    -6697    -6469    -6438    -6778 
   -7541    -8681   -10162   -11796   -13012   -13281   -12617   -11408 
   -9979    -8499    -7176    -6127    -5209    -4121    -2598     -897 
     213      413       70     -711    -2259    -4579    -7242    -9825 
  -11888   -13117   -13710   -14099   -14405   -14505   -14408   -14196 
  -13701   -12584   -10908    -9366    -8687    -9053   -10116   -11223 
  -11742   -11483   -10758    -9791    -8487    -7034    -5864    -5128 
   -5011    -5687    -6783    -7696    -8122    -8082    -7834    -7504 
   -6990    -6538    -6655    -7411    -8419    -9189    -9320    -8777 
   -7877    -6832    -5587    -4110    -2582    -1279     -453     -175 
    -176     -183     -344     -953    -1911    -2836    -3523    -4006 
   -4230    -4083    -3831    -4064    -5143    -6871    -8635    -9883 
  -10590   -11240   -12097   -12946   -13629   -14046   -13996   -13473 
  -12586   -11538   -10812   -10731   -11114   -11616   -12005   -12160 
  -12087   -11807   -11257   -10404    -9391    -8602    -8488    -9212 
  -10315   -10929   -10616    -9599    -8313    -7142    -6242    -5459 
   -4785    -4428    -4352    -4445    -4761    -5202    -5510    -5528 
   -5235    -4707    -3960    -3010    -2122    -1548    -1254    -1252 
   -1722    -2631    -3788    -5171    -6794    -8451    -9806   -10720 
  -11188   -10983    -9961    -8452    -6979    -5867    -5094    -4534 
   -4234    -4313    -4773    -5652    -7020    -8452    -9263    -9374 
   -9026    -8247    -7186    -6108    -5171    -4610    -4689    -5266 
   -5863    -6278    -6756    -7605    -8866   -10228   -11419   -12506 
  -13734   -15311   -17069   -18505   -19286   -19305   -18520   -17086 
  -15327   -13441   -11512    -9749    -8449    -7777    -7585    -7380 
   -6696    -5560    -4450    -3769    -3453    -3176    -2921    -2987 
   -3407    -3832    -3977    -3747    -3137    -2286    -1563    -1290 
   -1553    -2211    -2785    -2755    -2204    -1688    -1426    -1251 
   -1063     -889     -976    -1707    -3098    -4734    -6288    -7759 
   -9182   -10459   -11476   -12133   -12586   -13147   -13698   -13871 
  -13549   -12826   -11992   -11492   -11491   -11711   -11889   -11994 
  -11924   -11585   -11205   -10972   -10774   -10477   -10049    -9432 
   -8630    -7801    -7132    -6853    -7087    -7574    -8047    -8421 
   -8615    -8681    -8696    -8513    -7993    -7156    -6183    -5445 
   -5211    -5301    -5375    -5360    -5425    -5664    -5925    -6200 
   -6797    -7722    -8554    -8974    -8868    -8326    -7720    -7277 
   -6856    -6401    -6035    -5769    -5479    -5063    -4596    -4186 
   -3730    -3064    -2103     -892      311     1209     1653     1702 
    1368      437    -1205    -3233    -5140    -6787    -8351    -9950 
  -11550   -12822   -13392   -13520   -13807   -14301   -14651   -14789 
  -14848   -14839   -14721   -14544   -14331   -13953   -13339   -12721 
  -12295   -12019   -11916   -11888   -11584   -10972   -10300    -9661 
   -9074    -8654    -8550    -8739    -9009    -9117    -8842    -8085 
   -6976    -5749    -4544    -3469    -2551    -1663     -878     -549 
    -858    -1723    -2853    -3786    -4284    -4527    -4752    -5013 
   -5275    -5539    -5918    -6394    -6721    -6941    -7438    -8276 
   -9026    -9248    -8942    -8465    -8047    -7596    -7140    -6916 
   -6808    -6370    -5547    -4657    -3932    -3500    -3329    -3184 
   -2925    -2636    -2548    -2932    -3823    -4976    -6092    -6961 
   -7577    -8113    -8762    -9697   -10901   -12127   -13194   -14079 
  -14820   -15350   -15353   -14629   -13535   -12652   -12145   -11781 
  -11364   -10786   -10083    -9445    -8953    -8549    -8208    -7940 
   -7848    -8081    -8661    -9404   -10052   -10531   -10848   -10887 
  -10577   -10025    -9416    -8792    -8010    -7007    -5956    -5013 
   -4244    -3765    -3537    -3265    -2870    -2529    -2350    -2374 
   -2521    -2550    -2427    -2428    -2704    -3079    -3357    -3474 
   -3534    -3812    -4361    -4838    -5003    -4881    -4681    -4761 
   -5285    -6108    -7121    -8266    -9308    -9886    -9829    -9229 
   -8241    -7111    -6197    -5711    -5564    -5609    -5848    -6417 
   -7514    -9001   -10347   -11277   -11880   -12248   -12499   -12556 
  -12167   -11472   -10909   -10692   -10743   -10844   -10929   -11237 
  -11835   -12374   -12568   -12461   -12283   -12290   -12573   -13004 
  -13313   -13181   -12517   -11626   -10817   -10145    -9571    -9139 
   -8989    -9054    -8900    -8090    -6592    -4757    -2967    -1462 
    -276      785     1722     2273     2479     2639     2801     2728 
    2304     1691      963       25    -1132    -2492    -3960    -5323 
   -6552    -7642    -8451    -9103    -9861   -10759   -11767   -12764 
  -13427   -13613   -13486   -13205   -12842   -12316   -11353    -9909 
   -8418    -7371    -6768    -6230    -5543    -4935    -4812    -5370 
   -6408    -7476    -8291    -8932    -9537   -10084   -10478   -10539 
  -10312   -10289   -10677   -11182   -11483   -11260   -10407    -9332 
   -8594    -8509    -8964    -9467    -9748    -9929   -10033   -10026 
   -9980    -9707    -9007    -8133    -7419    -6885    -6417    -5852 
   -5050    -4163    -3495    -3180    -3061    -2884    -2673    -2677 
   -2991    -3441    -3893    -4402    -4868    -5078    -5198    -5580 
   -6204    -6801    -7230    -7538    -7897    -8422    -8962    -9297 
   -9358    -9050    -8284    -7276    -6297    -5382    -4696    -4518 
   -4884    -5722    -6926    -8401   -10100   -11762   -12991   -13566 
  -13381   -12572   -11488   -10284    -8892    -7250    -5464    -3796 
   -2485    -1678    -1463    -1838    -2772    -4212    -5923    -7645 
   -9310   -10746   -11615   -11793   -11414   -10736   -10017    -9333 
   -8633    -7940    -7636    -8033    -8695    -9007    -8991    -9072 
   -9413    -9656    -9474    -8961    -8263    -7680    -7626    -8017 
   -8537    -8982    -9072    -8806    -8652    -8831    -9109    -9229 
   -8851    -7758    -6349    -5077    -4052    -3456    -3311    -3392 
   -3790    -4743    -6057    -7303    -8151    -8361    -7960    -7242 
   -6450    -5725    -5216    -4941    -4617    -4005    -3429    -3370 
   -3780    -4194    -4367    -4529    -4966    -5670    -6561    -7684 
   -8972   -10108   -10889   -11352   -11599   -11739   -11807   -11692 
  -11315   -10843   -10594   -10737   -11056   -10984   -10309    -9479 
   -8924    -8706    -8708    -8853    -9207    -9682    -9896    -9562 
   -8773    -7915    -7379    -7231    -7163    -6882    -6459    -6224 
   -6435    -6940    -7256    -7067    -6490    -5772    -5073    -4538 
   -4229    -4156    -4345    -4749    -5312    -6011    -6743    -7327 
   -7597    -7717    -8170    -9036    -9880   -10276   -10039    -9347 
   -8749    -8618    -8776    -8851    -8661    -8314    -8009    -7709 
   -7242    -6502    -5516    -4484    -3731    -3491    -3711    -4139 
   -4603    -5057    -5466    -5779    -5999    -6335    -7013    -7917 
   -8752    -9337    -9570    -9404    -8969    -8526    -8279    -8260 
   -8380    -8490    -8472    -8418    -8527    -8807    -9035    -9036 
   -8806    -8413    -7948    -7538    -7414    -7739    -8374    -9074 
   -9618    -9853    -9915    -9875    -9548    -9018    -8471    -7811 
   -7123    -6659    -6312    -5863    -5313    -4800    -4565    -4746 
   -5171    -5663    -6241    -6926    -7585    -7985    -7986    -7692 
