Origin Time       2024/04/02 04:24:00
Lat.              40.133
Long.             141.712
Depth. (km)       71
Mag.              6.0
Station Code      HKD135
Station Lat.      42.5533
Station Long.     140.8864
Station Height(m) 63
Record Time       2024/04/02 04:25:19
Sampling Freq(Hz) 100Hz
Duration Time(s)  98
Dir.              E-W
Scale Factor      7845(gal)/8223790
Max. Acc. (gal)   3.482
Last Correction   2024/04/02 04:25:20
Memo.             
[...]
    3184     3186     3114     3098     3110     3100     3103     3117 
    3055     2945     2953     3069     3090     2994     2956     2970 
    2955     3007     3087     2995     2855     2880     2924     2844 
    2729     2596     2444     2380     2397     2377     2270     2155 
    2192     2420     2612     2633     2632     2654     2596     2539 
    2566     2571     2590     2713     2783     2691     2598     2627 
    2760     2933     3069     3168     3262     3315     3318     3306 
    3254     3188     3191     3234     3235     3187     3109     2971 
    2778     2648     2664     2704     2619     2457     2328     2245 
    2236     2362     2517     2601     2697     2817     2830     2762 
    2762     2830     2870     2839     2745     2616     2546     2620 
    2751     2766     2691     2677     2735     2821     2932     3018 
    3013     2965     2943     2945     2987     3069     3118     3110 
    3134     3191     3186     3115     3021     2921     2863     2832 
    2768     2675     2551     2409     2332     2332     2349     2363 
    2425     2565     2697     2731     2720     2733     2744     2752 
    2778     2799     2841     2933     2991     2990     3021     3075 
    3036     2913     2812     2758     2689     2585     2527     2577 
    2637     2610     2600     2646     2635     2614     2678     2698 
    2655     2733     2882     2930     2982     3115     3200     3242 
    3315     3275     3024     2745     2612     2566     2506     2432 
    2392     2431     2579     2790     2930     2940     2917     2926 
    2883     2783     2764     2851     2917     2922     2913     2895 
    2890     2914     2878     2767     2725     2803     2914     2979 
    2972     2918     2803     2620     2529     2659     2849     2943 
    2980     2987     2932     2928     3051     3134     3067     2987 
    2971     2971     2983     3006     3017     3007     2957     2859 
    2741     2632     2583     2652     2775     2818     2752     2678 
    2640     2587     2560     2631     2743     2853     2997     3129 
    3137     3028     2955     2979     2999     2938     2862     2835 
    2839     2839     2824     2736     2581     2535     2667     2803 
    2855     2872     2836     2762     2770     2828     2772     2627 
    2538     2450     2284     2169     2185     2251     2319     2334 
    2241     2141     2203     2444     2737     2974     3144     3244 
    3229     3188     3221     3252     3230     3196     3118     3010 
    3021     3169     3292     3260     3115     2994     2976     3037 
    3084     3003     2749     2474     2344     2296     2232     2265 
    2421     2540     2617     2772     2906     2887     2844     2874 
    2859     2802     2817     2829     2736     2624     2570     2566 
    2620     2710     2768     2802     2922     3149     3303     3258 
    3129     3055     3046     3049     3011     2924     2855     2866 
    2874     2764     2597     2558     2677     2778     2758     2679 
    2608     2569     2610     2724     2802     2822     2851     2862 
    2810     2736     2644     2578     2674     2886     3025     3079 
    3149     3237     3295     3283     3175     3019     2890     2745 
    2573     2506     2558     2556     2494     2475     2485     2506 
    2544     2521     2424     2382     2498     2686     2759     2720 
    2725     2812     2909     2965     2934     2808     2691     2694 
    2775     2837     2879     2907     2895     2880     2874     2833 
    2802     2835     2882     2902     2948     3059     3173     3218 
    3194     3133     3045     2975     2945     2934     2964     3029 
    3028     2926     2797     2674     2544     2436     2415     2455 
    2473     2474     2504     2539     2560     2598     2659     2716 
    2717     2655     2629     2687     2729     2714     2708     2737 
    2822     2988     3132     3150     3154     3241     3323     3334 
    3315     3292     3253     3208     3142     2998     2795     2667 
    2702     2818     2863     2790     2659     2577     2650     2821 
    2894     2801     2650     2554     2570     2667     2727     2709 
    2724     2766     2748     2782     2949     3092     3122     3103 
    3032     2884     2759     2698     2609     2505     2504     2574 
    2635     2749     2887     2899     2798     2677     2556     2506 
    2569     2602     2500     2359     2292     2305     2386     2477 
    2511     2581     2790     3005     3083     3100     3141     3204 
    3329     3481     3519     3427     3353     3318     3242     3163 
    3061     2836     2617     2594     2656     2629     2583     2628 
    2735     2805     2739     2550     2420     2454     2539     2527 
    2413     2326     2389     2579     2772     2909     2947     2844 
    2733     2760     2847     2898     2929     2921     2875     2866 
    2898     2911     2886     2799     2621     2455     2446     2527 
    2533     2521     2593     2663     2666     2641     2612     2624 
    2691     2741     2755     2802     2893     2940     2902     2907 
    3001     3079     3163     3240     3171     3014     2921     2864 
    2828     2853     2874     2793     2651     2578     2578     2550 
    2538     2635     2790     2918     2997     3063     3129     3136 
    3099     3088     3061     3009     3013     3006     2893     2822 
    2870     2826     2631     2525     2617     2733     2778     2791 
    2724     2575     2525     2609     2697     2813     3022     3172 
    3146     3064     3026     3017     3029     3044     2997     2889 
    2786     2732     2756     2862     3003     3111     3126     3060 
    2983     2932     2853     2651     2355     2141     2089     2112 
    2124     2181     2338     2498     2643     2882     3107     3146 
    3087     2987     2782     2581     2524     2583     2682     2764 
    2845     2992     3186     3318     3331     3254     3137     3033 
    2999     3021     2984     2828     2619     2484     2512     2635 
    2737     2821     2889     2940     3057     3217     3262     3188 
    3080     2917     2731     2679     2735     2693     2563     2521 
    2570     2643     2760     2870     2884     2867     2913     2983 
    2970     2857     2679     2532     2547     2698     2848     2948 
    2988     2964     2907     2806     2693     2689     2747     2708 
    2602     2547     2538     2558     2594     2516     2276     2110 
    2199     2385     2517     2650     2759     2806     2890     3019 
    3082     3040     2963     2925     2930     2941     2911     2798 
    2652     2581     2593     2636     2678     2687     2674     2709 
    2816     2917     2907     2764     2597     2479     2331     2128 
    2008     2015     2064     2142     2273     2427     2633     2924 
    3180     3307     3370     3433     3474     3538     3608     3578 
    3493     3483     3538     3618     3732     3765     3584     3299 
    3122     3071     3015     2875     2714     2633     2640     2691 
    2732     2659     2512     2511     2640     2654     2560     2540 
    2608     2716     2836     2891     2890     2938     3028     3040 
    2916     2764     2701     2679     2600     2462     2371     2404 
    2447     2432     2475     2593     2681     2714     2709     2710 
    2805     2937     2936     2801     2754     2886     3030     3071 
    3036     2911     2749     2725     2821     2816     2668     2544 
    2543     2647     2794     2909     2957     3015     3146     3250 
    3211     3075     2952     2849     2760     2743     2801     2874 
    2953     3018     3010     2975     2978     2949     2849     2809 
    2839     2787     2678     2631     2616     2601     2602     2567 
    2470     2365     2309     2293     2241     2122     2052     2118 
    2255     2385     2498     2613     2778     3022     3217     3196 
    3075     3086     3230     3377     3399     3200     2928     2829 
    2897     2986     3051     3082     3059     3045     3092     3084 
    2949     2833     2817     2843     2906     2997     3036     3057 
    3149     3233     3163     2955     2759     2660     2644     2659 
    2639     2560     2529     2629     2762     2774     2663     2574 
    2586     2648     2687     2633     2458     2284     2247     2331 
    2467     2629     2770     2845     2903     2978     3018     3005 
    2952     2887     2872     2874     2747     2512     2338     2323 
    2490     2736     2871     2924     3071     3233     3261     3211 
    3125     3010     3010     3114     3140     3107     3176     3300 
    3319     3235     3144     3037     2921     2848     2721     2475 
    2250     2111     1968     1868     1954     2196     2439     2609 
    2706     2694     2578     2478     2419     2311     2224     2289 
    2434     2586     2802     3042     3245     3416     3488     3393 
    3258     3213     3184     3087     2994     2976     3015     3100 
    3163     3087     2984     2998     3011     2964     2957     2937 
    2814     2690     2660     2702     2781     2847     2871     2907 
    2980     3036     3034     2970     2871     2803     2752     2660 
    2604     2674     2762     2736     2632     2497     2373     2353 
    2458     2601     2714     2787     2808     2799     2851     2914 
    2875     2835     2901     2945     2914     2887     2852     2809 
    2808     2826     2824     2837     2913     2991     2991     2979 
    3026     3028     2887     2713     2635     2598     2542     2552 
    2644     2681     2623     2587     2620     2658     2705     2762 
    2737     2679     2729     2781     2714     2721     2918     3141 
    3307     3439     3453     3342     3241     3145     2991     2878 
    2851     2775     2609     2434     2335     2404     2586     2687 
    2687     2712     2782     2878     2957     2886     2682     2567 
    2589     2602     2608     2650     2655     2628     2605     2516 
    2411     2398     2385     2309     2288     2328     2385     2496 
    2586     2550     2505     2608     2793     2938     3045     3130 
    3156     3159     3208     3257     3226     3169     3190     3280 
    3356     3383     3360     3295     3240     3175     3037     2925 
    2930     2949     2926     2933     2963     2979     3003     3021 
    3001     2955     2916     2863     2760     2685     2731     2851 
    2987     3141     3275     3310     3233     3196     3279     3312 
    3199     3063     2948     2814     2718     2728     2798     2875 
    2944     2970     2978     3045     3114     3063     2929     2801 
    2671     2542     2484     2523     2556     2478     2334     2259 
    2311     2431     2538     2608     2687     2837     3040     3154 
    3065     2890     2836     2932     3073     3148     3078     2907 
    2793     2781     2739     2592     2443     2350     2232     2100 
    2076     2130     2173     2265     2442     2578     2646     2760 
    2898     2920     2856     2855     2891     2855     2816     2871 
    2928     2952     3055     3218     3335     3396     3415     3372 
    3283     3222     3264     3377     3473     3503     3438     3306 
    3196     3090     2867     2524     2170     1825     1445     1100 
     903      842      873      972     1097     1259     1412     1390 
    1181      970      853      768      699      722      868     1112 
    1445     1795     2092     2347     2533     2627     2736     2922 
    3088     3161     3190     3275     3476     3757     4008     4202 
    4402     4538     4475     4297     4140     3943     3618     3226 
    2863     2601     2470     2421     2438     2552     2698     2767 
    2747     2718     2782     2960     3196     3430     3658     3915 
    4175     4380     4522     4568     4467     4336     4359     4518 
    4695     4847     4954     4985     4969     4916     4800     4606 
    4328     3977     3649     3414     3276     3310     3501     3591 
    3437     3180     2878     2538     2330     2220     1934     1512 
    1213     1065      990     1042     1171     1210     1171     1227 
    1399     1601     1813     2000     2143     2354     2677     2983 
    3171     3242     3262     3287     3277     3172     3036     2970 
    2974     2990     2978     3001     3160     3392     3487     3321 
    3051     2943     3048     3181     3109     2664     1961     1370 
    1082      934      724      433      166       91      294      641 
     953     1212     1541     1971     2350     2574     2760     3005 
    3219     3384     3605     3863     4060     4233     4430     4554 
    4527     4425     4365     4413     4583     4773     4815     4664 
    4432     4214     4001     3719     3302     2729     2046     1389 
    1004     1024     1267     1493     1657     1769     1825     1887 
    2020     2207     2398     2523     2525     2508     2625     2857 
    3102     3306     3348     3149     2925     2911     3037     3095 
    2999     2721     2330     2064     2042     2119     2160     2172 
    2165     2134     2089     2022     1933     1900     2020     2340 
    2801     3229     3477     3532     3499     3522     3711     4001 
    4186     4183     4083     3962     3819     3627     3337     2953 
    2681     2759     3114     3414     3438     3160     2654     2074 
    1539     1046      562       79     -367     -692     -845     -843 
    -706     -456     -141      259      791     1405     2022     2604 
    2976     2943     2695     2697     3127     3781     4395     4841 
    5090     5213     5321     5409     5381     5244     5040     4818 
    4718     4837     5044     5169     5215     5244     5175     4946 
    4671     4476     4388     4384     4401     4315     4031     3635 
    3289     2978     2648     2389     2222     2039     1787     1502 
    1285     1291     1598     2147     2789     3318     3677     3993 
    4301     4472     4494     4461     4383     4280     4257     4279 
    4240     4114     3862     3488     3134     2882     2694     2589 
    2586     2543     2257     1730     1170      730      430      237 
      90        9      139      496      847      967      896      834 
     862      911      957     1050     1117     1019      847      855 
    1123     1555     2023     2353     2451     2427     2400     2340 
    2235     2205     2292     2417     2578     2821     3133     3478 
    3723     3685     3496     3497     3740     4040     4295     4496 
    4685     4926     5201     5444     5605     5614     5379     4885 
    4298     3897     3775     3697     3483     3234     3064     2975 
    2940     2813     2435     1921     1587     1532     1609     1721 
    1854     1892     1752     1594     1611     1742     1852     1915 
    1850     1576     1354     1521     1917     2150     2204     2220 
    2211     2265     2488     2725     2771     2743     2883     3160 
    3411     3650     3947     4212     4299     4174     3900     3546 
    3203     2970     2860     2849     2922     2992     2948     2806 
    2720     2786     2922     2963     2824     2621     2559     2633 
    2647     2571     2609     2891     3329     3673     3770     3747 
    3759     3719     3495     3114     2694     2312     1977     1678 
    1428     1235     1094      949      738      538      484      648 
    1074     1640     2069     2305     2548     2910     3288     3526 
    3626     3748     3963     4187     4357     4503     4608     4571 
    4360     4113     3971     3962     4047     4178     4244     4083 
    3658     3105     2659     2578     2851     3068     2913     2570 
    2419     2575     2844     2909     2666     2427     2481     2725 
    2994     3231     3342     3362     3474     3661     3848     4121 
    4414     4471     4271     4029     3844     3707     3574     3315 
    2894     2488     2215     2037     1884     1749     1698     1768 
    1876     2010     2332     2848     3222     3191     2886     2574 
    2392     2331     2254     2061     1879     1787     1638     1364 
    1063      823      695      606      452      361      511      815 
    1086     1308     1579     1976     2520     3164     3734     4068 
    4179     4144     4033     3927     3831     3639     3316     3045 
    3046     3262     3411     3238     2704     2062     1630     1495 
    1572     1717     1760     1622     1367     1102      942     1007 
    1354     1821     2219     2575     2872     2960     2895     2798 
    2641     2471     2423     2496     2609     2809     3235     3874 
    4517     5001     5292     5395     5337     5147     4892     4654 
    4468     4380     4390     4368     4326     4456     4716     4824 
    4649     4260     3770     3348     3121     3045     2970     2816 
    2697     2783     3018     3149     3087     2994     2955     2837 
    2639     2508     2446     2424     2442     2276     1738     1085 
     695      649      857     1201     1534     1809     2124     2467 
    2652     2627     2570     2647     2859     3045     3022     2851 
    2791     2876     2902     2808     2673     2542     2479     2470 
    2416     2362     2455     2686     2901     2967     2933     3029 
    3337     3622     3626     3318     2802     2288     2095     2346 
    2797     3160     3381     3503     3539     3546     3605     3716 
    3821     3861     3828     3850     4072     4479     4862     4981 
    4789     4536     4473     4534     4487     4248     3890     3483 
    3014     2492     2043     1840     1836     1807     1638     1363 
    1003      579      176     -153     -442     -622     -575     -427 
    -406     -453     -360     -149       83      387      715      977 
    1318     1817     2243     2498     2818     3364     3996     4536 
    4938     5201     5355     5468     5468     5161     4567     3936 
    3441     3072     2810     2685     2718     2889     3127     3288 
    3227     3026     2924     2938     2903     2856     2961     3192 
    3422     3593     3657     3615     3541     3420     3187     2930 
    2809     2797     2812     2868     2976     3130     3353     3534 
    3503     3339     3235     3190     3107     3001     2907     2880 
    3005     3199     3204     2863     2272     1667     1208      864 
     581      449      494      598      711      815      835      832 
    1058     1524     1896     2045     2197     2505     2907     3261 
    3438     3505     3682     4075     4511     4652     4363     3839 
    3269     2756     2519     2733     3262     3782     4071     4083 
    3877     3600     3451     3493     3586     3654     3780     3987 
    4140     4074     3715     3106     2488     2216     2331     2479 
    2511     2540     2519     2398     2339     2398     2533     2781 
    3099     3402     3717     4024     4163     4116     3998     3852 
    3726     3677     3550     3207     2802     2477     2214     2025 
    1908     1819     1809     1894     1927     1802     1544     1212 
     936      843      853      897     1143     1601     1966     2100 
    2196     2384     2597     2781     2926     3046     3245     3588 
