Origin Time       2024/04/02 04:24:00
Lat.              40.133
Long.             141.712
Depth. (km)       71
Mag.              6.0
Station Code      HKD155
Station Lat.      42.0438
Station Long.     140.8064
Station Height(m) 4
Record Time       2024/04/02 04:25:13
Sampling Freq(Hz) 100Hz
Duration Time(s)  93
Dir.              U-D
Scale Factor      7845(gal)/8223790
Max. Acc. (gal)   1.155
Last Correction   2024/04/02 04:25:13
Memo.             
[...]
    3163     3208     3294     3333     3267     3154     3037     2920 
    2866     2949     3140     3322     3411     3372     3229     3080 
    2986     2909     2859     2921     3060     3167     3237     3271 
    3246     3235     3257     3264     3269     3291     3283     3260 
    3280     3314     3292     3217     3130     3072     3053     3052 
    3024     2978     2991     3087     3164     3191     3238     3306 
    3346     3372     3423     3549     3678     3661     3488     3296 
    3152     3051     3017     3048     3105     3211     3369     3496 
    3534     3483     3396     3327     3245     3121     3003     2924 
    2906     2998     3156     3268     3298     3283     3285     3329 
    3348     3315     3304     3352     3404     3404     3333     3213 
    3053     2889     2801     2820     2901     3017     3142     3222 
    3207     3096     2975     2975     3107     3223     3222     3154 
    3136     3230     3339     3303     3163     3072     3076     3126 
    3194     3280     3407     3551     3588     3468     3298     3202 
    3207     3284     3372     3435     3470     3431     3281     3072 
    2880     2762     2731     2762     2822     2901     2992     3072 
    3106     3088     3063     3084     3157     3233     3288     3322 
    3283     3119     2921     2828     2828     2832     2847     2947 
    3129     3325     3451     3402     3194     3040     3036     3111 
    3249     3411     3504     3519     3472     3343     3183     3098 
    3092     3094     3102     3161     3257     3342     3377     3302 
    3137     3003     2951     2963     3051     3156     3206     3229 
    3279     3368     3481     3582     3616     3557     3427     3283 
    3188     3177     3233     3321     3345     3192     2964     2884 
    2948     3036     3137     3230     3272     3303     3343     3360 
    3350     3308     3192     3041     2932     2924     3022     3118 
    3103     3048     3079     3195     3300     3331     3298     3268 
    3271     3250     3200     3179     3195     3235     3283     3285 
    3261     3285     3338     3284     3095     2925     2898     3011 
    3195     3300     3230     3095     3048     3071     3107     3154 
    3194     3190     3181     3229     3296     3319     3291     3264 
    3260     3208     3060     2906     2882     2991     3134     3254 
    3342     3329     3181     2983     2822     2729     2729     2821 
    2944     3075     3226     3370     3487     3557     3520     3383 
    3261     3246     3357     3496     3501     3379     3265     3202 
    3141     3068     2997     2995     3138     3343     3450     3433 
    3330     3179     3079     3094     3159     3258     3418     3555 
    3597     3569     3483     3352     3241     3141     3005     2913 
    2975     3152     3350     3493     3501     3365     3149     2925 
    2770     2751     2816     2875     2945     3021     3056     3090 
    3156     3192     3181     3195     3241     3275     3287     3268 
    3196     3075     2899     2744     2731     2863     3044     3222 
    3365     3423     3400     3375     3384     3392     3385     3388 
    3380     3353     3323     3246     3090     2933     2863     2866 
    2897     2959     3045     3133     3227     3310     3314     3238 
    3142     3090     3098     3132     3167     3200     3240     3294 
    3331     3312     3250     3173     3099     3082     3161     3269 
    3304     3269     3221     3188     3196     3229     3237     3225 
    3241     3326     3469     3557     3473     3238     3003     2901 
    2917     2949     2952     2976     3117     3369     3584     3619 
    3465     3250     3149     3176     3204     3179     3133     3129 
    3208     3299     3272     3142     3045     3040     3078     3103 
    3110     3100     3067     2967     2795     2694     2818     3103 
    3335     3439     3466     3424     3337     3272     3235     3204 
    3195     3238     3329     3422     3461     3399     3221     3009 
    2905     2930     2980     3019     3063     3096     3114     3132 
    3172     3238     3296     3307     3295     3307     3337     3350 
    3350     3326     3273     3219     3167     3127     3146     3246 
    3397     3555     3665     3661     3516     3277     3018     2789 
    2624     2529     2520     2641     2864     3055     3137     3126 
    3037     2910     2824     2835     2971     3215     3429     3481 
    3410     3298     3141     2967     2884     2952     3150     3387 
    3531     3578     3616     3604     3446     3206     3056     3063 
    3141     3194     3165     3079     3053     3154     3311     3427 
    3433     3319     3206     3226     3364     3478     3460     3356 
    3312     3366     3424     3430     3404     3403     3454     3489 
    3415     3244     3087     3025     3025     3029     3044     3103 
    3227     3399     3547     3573     3410     3122     2879     2802 
    2879     3001     3067     3088     3088     3057     3028     3040 
    3064     3061     3038     2994     2913     2832     2795     2799 
    2836     2930     3115     3357     3604     3815     3919     3863 
    3693     3495     3325     3210     3130     3056     2926     2731 
    2627     2724     2880     2949     2937     2906     2961     3113 
    3223     3265     3322     3388     3424     3443     3442     3392 
    3296     3206     3132     3083     3114     3219     3346     3469 
    3520     3430     3233     3051     3009     3110     3190     3138 
    3046     3009     3003     3005     3006     2986     2959     2988 
    3056     3068     3045     3084     3194     3323     3414     3396 
    3321     3307     3316     3276     3252     3246     3206     3181 
    3165     3044     2883     2867     2995     3154     3307     3414 
    3442     3446     3464     3465     3426     3312     3141     3011 
    2992     3034     3063     3099     3211     3361     3438     3408 
    3306     3192     3145     3160     3186     3219     3267     3308 
    3329     3314     3226     3073     2961     2997     3156     3307 
    3341     3271     3177     3134     3148     3168     3169     3164 
    3159     3173     3222     3288     3364     3429     3441     3422 
    3415     3403     3380     3410     3515     3584     3505     3322 
    3161     3068     3018     3022     3125     3264     3308     3199 
    2991     2790     2660     2575     2525     2578     2739     2910 
    3017     3045     3038     3069     3141     3159     3080     2999 
    2978     2975     2975     2998     3015     3026     3069     3117 
    3154     3256     3403     3480     3451     3383     3322     3295 
    3284     3208     3076     3010     3059     3168     3304     3433 
    3516     3550     3542     3487     3383     3276     3210     3190 
    3252     3385     3511     3616     3678     3618     3416     3126 
    2824     2625     2610     2743     2922     3086     3200     3265 
    3325     3377     3342     3242     3226     3298     3288     3106 
    2856     2710     2760     2979     3213     3316     3338     3396 
    3443     3414     3330     3203     3079     3019     3015     3040 
    3069     3076     3080     3141     3284     3411     3442     3433 
    3410     3384     3400     3383     3248     3080     2987     2984 
    3045     3123     3171     3179     3186     3217     3276     3345 
    3362     3331     3280     3190     3106     3084     3088     3113 
    3168     3213     3231     3223     3164     3068     3034     3106 
    3163     3096     2980     2921     2934     3028     3171     3272 
    3287     3225     3092     2951     2879     2866     2879     2945 
    3036     3067     3059     3061     3045     3028     3061     3088 
    3095     3206     3414     3566     3634     3639     3586     3551 
    3573     3577     3576     3661     3784     3834     3817     3765 
    3619     3356     3037     2758     2617     2659     2810     2956 
    3051     3094     3088     3075     3111     3206     3368     3613 
    3813     3761     3450     3094     2876     2833     2878     2882 
    2853     2902     3011     3082     3125     3169     3184     3227 
    3358     3476     3495     3446     3329     3176     3127     3215 
    3262     3200     3160     3172     3169     3172     3192     3202 
    3213     3202     3119     3037     3053     3115     3123     3107 
    3126     3188     3316     3487     3584     3535     3356     3122 
    2965     2955     3013     3040     3057     3150     3302     3385 
    3352     3310     3329     3318     3195     2988     2806     2744 
    2791     2852     2880     2917     3006     3059     2922     2640 
    2439     2469     2693     2971     3157     3214     3233     3261 
    3244     3200     3208     3311     3528     3755     3813     3724 
    3631     3518     3326     3164     3133     3190     3307     3468 
    3559     3530     3469     3397     3261     3154     3160     3146 
    3061     3034     3100     3164     3146     3010     2837     2798 
    2893     2974     2991     3019     3136     3334     3528     3623 
    3640     3640     3569     3368     3142     3026     3001     2999 
    2999     3017     3061     3129     3173     3115     2978     2897 
    2906     2970     3088     3227     3333     3383     3361     3312 
    3303     3329     3315     3223     3103     3025     3005     3011 
    3038     3132     3283     3384     3373     3358     3469     3620 
    3662     3569     3369     3142     3001     2957     2968     3046 
    3204     3415     3600     3623     3447     3217     3071     3002 
    2953     2918     2867     2790     2783     2862     2920     2965 
    3042     3115     3183     3208     3114     2970     2925     3009 
    3103     3082     2956     2859     2906     3106     3358     3557 
    3627     3572     3515     3514     3466     3342     3265     3288 
    3299     3210     3014     2743     2543     2523     2601     2712 
    2870     3059     3235     3341     3329     3202     3061     3052 
    3148     3231     3303     3361     3314     3159     3053     3121 
    3283     3404     3453     3445     3438     3474     3470     3376 
    3292     3299     3375     3403     3271     3056     2938     2990 
    3156     3372     3612     3816     3873     3738     3501     3284 
    3117     3014     2979     2956     2957     3069     3222     3252 
    3126     2906     2643     2440     2447     2682     3046     3422 
    3657     3712     3701     3699     3709     3735     3761     3782 
    3777     3661     3402     3109     2952     2943     2941     2947 
    3021     3095     3111     3102     3082     3060     3025     2947 
    2818     2667     2558     2551     2632     2771     2963     3149 
    3288     3423     3542     3549     3460     3429     3516     3612 
    3607     3527     3454     3423     3376     3292     3291     3415 
    3539     3562     3519     3500     3505     3441     3283     3146 
    3138     3229     3289     3229     3061     2875     2740     2698 
    2798     2972     3037     2992     2995     3084     3190     3268 
    3310     3342     3418     3499     3483     3372     3265     3203 
    3179     3210     3283     3370     3478     3547     3503     3410 
    3369     3331     3191     3014     2928     2932     2957     2987 
    3009     2978     2922     2920     2952     2984     3034     3009 
    2852     2766     2849     2933     2937     2901     2837     2853 
    3018     3164     3190     3235     3366     3499     3586     3580 
    3450     3298     3204     3164     3203     3326     3462     3543 
    3491     3283     3017     2828     2801     2913     3044     3153 
    3319     3592     3865     3928     3713     3392     3165     3044 
    2938     2864     2921     3091     3210     3221     3275     3462 
    3646     3662     3510     3299     3163     3106     3028     2944 
    2965     3082     3208     3281     3280     3248     3206     3119 
    3024     3006     3076     3163     3234     3281     3264     3165 
    3038     2930     2816     2744     2820     2953     3033     3114 
    3141     2994     2775     2613     2500     2492     2673     2994 
    3325     3534     3537     3388     3221     3075     2907     2766 
    2725     2748     2790     2883     2988     3045     3091     3132 
    3149     3191     3296     3416     3481     3481     3439     3333 
    3168     3037     3033     3121     3203     3291     3433     3601 
    3734     3673     3308     2855     2613     2616     2772     2994 
    3171     3284     3419     3600     3721     3662     3416     3146 
    3041     3113     3241     3311     3272     3199     3191     3181 
    3068     2910     2836     2876     2965     3030     3046     3030 
    3003     2998     3036     3078     3072     3032     3011     3037 
    3073     3076     3029     2938     2821     2733     2705     2736 
    2836     2964     3046     3123     3268     3404     3442     3430 
    3450     3503     3566     3599     3549     3458     3435     3461 
    3430     3350     3276     3206     3184     3223     3223     3175 
    3181     3226     3210     3157     3161     3245     3346     3415 
    3481     3580     3689     3721     3604     3392     3257     3316 
    3518     3758     4014     4229     4275     4153     3985     3836 
    3688     3500     3249     2951     2627     2296     2041     1977 
    2130     2373     2606     2897     3294     3670     3855     3808 
    3649     3547     3534     3473     3283     3030     2832     2735 
    2733     2767     2764     2710     2651     2647     2764     2965 
    3078     3034     2959     2909     2820     2698     2652     2768 
    3033     3341     3577     3721     3792     3758     3603     3383 
    3183     3052     3003     3030     3106     3192     3235     3210 
    3186     3238     3306     3285     3186     3040     2863     2745 
    2787     2978     3231     3429     3505     3562     3711     3882 
    3956     3943     3948     4020     4060     3940     3667     3404 
    3288     3271     3215     3109     3003     2922     2899     2945 
    2992     2991     3005     3137     3389     3661     3815     3742 
    3477     3160     2856     2577     2369     2322     2486     2786 
    3034     3142     3186     3213     3149     3018     2938     2932 
    2911     2812     2624     2413     2268     2216     2243     2328 
    2462     2640     2776     2818     2874     3022     3227     3443 
    3605     3650     3581     3418     3238     3190     3264     3298 
    3256     3150     2948     2741     2668     2724     2863     3040 
    3200     3373     3554     3684     3813     4001     4171     4248 
    4251     4194     4041     3825     3612     3395     3238     3267 
    3415     3520     3526     3446     3333     3269     3285     3312 
    3273     3192     3145     3169     3227     3208     3071     2947 
    2992     3214     3464     3574     3511     3346     3196     3144 
    3129     3086     3075     3041     2863     2635     2497     2484 
    2629     2883     3136     3356     3456     3329     3057     2814 
    2681     2694     2872     3086     3195     3241     3254     3138 
    2921     2718     2558     2501     2632     2875     3117     3311 
    3442     3526     3605     3715     3824     3858     3811     3712 
    3549     3326     3107     2968     2938     2987     3065     3150 
    3248     3352     3416     3423     3434     3461     3427     3308 
    3157     3053     3069     3145     3111     2986     2960     3087 
    3206     3206     3126     3025     2906     2751     2578     2488 
    2523     2577     2586     2621     2789     3110     3485     3773 
    3919     3985     4033     4018     3859     3570     3194     2810 
    2589     2636     2876     3140     3316     3458     3612     3676 
    3577     3387     3184     3003     2848     2655     2411     2276 
    2363     2560     2744     2960     3241     3480     3589     3565 
    3396     3125     2882     2778     2806     2909     3067     3289 
    3555     3774     3858     3832     3792     3781     3747     3607 
    3379     3215     3227     3348     3460     3559     3659     3678 
    3542     3284     2992     2735     2587     2600     2701     2781 
    2825     2890     3002     3110     3132     3099     3168     3427 
    3759     3946     3885     3677     3543     3584     3640     3588 
    3547     3616     3739     3878     3987     3923     3666     3408 
    3234     3069     2925     2845     2802     2816     2916     2998 
    2963     2856     2733     2623     2569     2536     2442     2362 
    2398     2517     2706     3005     3289     3396     3368     3331 
    3303     3284     3302     3303     3235     3133     2957     2671 
    2408     2326     2458     2786     3233     3622     3790     3761 
    3638     3434     3129     2799     2624     2720     3010     3299 
    3447     3426     3291     3149     3059     3048     3145     3252 
    3184     2930     2641     2443     2377     2465     2721     3068 
    3407     3696     3867     3844     3628     3249     2813     2536 
    2559     2799     3048     3177     3226     3307     3461     3596 
    3638     3640     3677     3712     3673     3518     3238     2940 
    2787     2822     2953     3064     3092     3065     3087     3207 
    3356     3443     3478     3542     3685     3856     3952     3952 
    3933     3973     4083     4206     4221     4040     3690     3271 
    2880     2609     2513     2583     2739     2938     3176     3396 
    3535     3591     3507     3227     2899     2760     2878     3167 
    3470     3627     3592     3443     3298     3280     3427     3636 
    3774     3739     3464     2976     2439     2069     1999     2220 
    2612     2999     3287     3470     3549     3511     3406     3292 
    3190     3115     3110     3183     3285     3319     3238     3113 
    3006     2889     2802     2880     3091     3279     3388     3372 
    3192     2964     2791     2708     2816     3142     3461     3545 
    3457     3397     3395     3339     3188     3024     2937     2937 
    3011     3188     3400     3492     3400     3167     2890     2732 
    2774     2940     3148     3357     3477     3408     3206     3056 
    3042     3121     3218     3242     3200     3202     3199     3083 
    2936     2837     2758     2717     2732     2704     2632     2677 
    2889     3154     3334     3353     3221     2997     2747     2554 
    2511     2660     2971     3283     3393     3287     3129     3022 
    2943     2901     2983     3204     3434     3542     3558     3601 
    3669     3626     3439     3245     3115     3037     3001     3006 
    3090     3267     3392     3338     3214     3194     3291     3426 
    3573     3750     3904     3913     3755     3562     3461     3395 
    3226     3001     2910     3014     3217     3408     3520     3549 
    3520     3429     3299     3183     3123     3138     3165     3181 
    3258     3368     3408     3365     3264     3160     3168     3283 
    3366     3368     3321     3235     3148     3141     3210     3291 
