Origin Time       2024/04/02 04:24:00
Lat.              40.133
Long.             141.712
Depth. (km)       71
Mag.              6.0
Station Code      HKD160
Station Lat.      41.7700
Station Long.     140.7383
Station Height(m) 4
Record Time       2024/04/02 04:25:12
Sampling Freq(Hz) 100Hz
Duration Time(s)  86
Dir.              E-W
Scale Factor      7845(gal)/8223790
Max. Acc. (gal)   6.381
Last Correction   2024/04/02 04:25:13
Memo.             
[...]
    3987     3654     3289     2890     2424     1972     1715     1829 
    2278     2802     3186     3381     3396     3223     2932     2710 
    2717     2916     3187     3473     3728     3873     3882     3843 
    3856     3902     3859     3645     3369     3242     3338     3549 
    3693     3630     3418     3308     3466     3775     4020     4098 
    4045     3964     3921     3863     3705     3523     3496     3597 
    3616     3489     3334     3265     3357     3585     3746     3638 
    3273     2830     2536     2523     2714     2943     3084     3091 
    2994     2913     2979     3194     3472     3761     4032     4228 
    4303     4276     4201     4102     4002     3962     4012     4108 
    4191     4220     4131     3871     3457     3026     2758     2690 
    2697     2612     2327     1857     1375     1109     1227     1683 
    2265     2835     3373     3863     4261     4519     4618     4617 
    4581     4495     4299     3979     3555     3026     2458     2046 
    1941     2097     2358     2539     2552     2469     2420     2521 
    2778     3042     3169     3146     3087     3110     3172     3159 
    3088     3049     3102     3268     3487     3663     3759     3719 
    3527     3307     3190     3176     3168     3136     3207     3501 
    3920     4229     4280     4105     3854     3659     3580     3639 
    3802     3973     4104     4230     4388     4515     4445     4083 
    3585     3190     2972     2882     2893     3030     3310     3643 
    3889     4001     4058     4091     4045     3896     3699     3527 
    3422     3388     3362     3231     2909     2390     1829     1453 
    1404     1746     2440     3213     3759     3954     3844     3627 
    3488     3407     3288     3219     3316     3489     3531     3314 
    2891     2473     2281     2411     2775     3149     3267     2998 
    2508     2128     2031     2139     2308     2474     2632     2767 
    2883     3059     3349     3667     3885     3954     3940     3901 
    3831     3780     3816     3869     3805     3537     3102     2733 
    2654     2801     2994     3169     3299     3275     3064     2808 
    2647     2604     2648     2785     3003     3223     3335     3343 
    3338     3343     3327     3341     3485     3736     3950     4010 
    3963     3958     4014     4024     3943     3805     3666     3523 
    3304     3052     2910     2891     2934     3045     3181     3229 
    3154     3022     2879     2695     2435     2212     2242     2565 
    2972     3295     3558     3809     3975     3958     3797     3624 
    3491     3412     3430     3530     3639     3730     3889     4179 
    4475     4544     4314     3913     3445     2957     2585     2455 
    2559     2791     3021     3165     3165     2995     2727     2512 
    2485     2668     3015     3446     3781     3865     3721     3457 
    3173     2968     2830     2745     2764     2893     3084     3310 
    3531     3717     3832     3793     3534     3125     2785     2677 
    2767     2967     3235     3492     3655     3708     3682     3642 
    3659     3730     3816     3901     3902     3751     3569     3512 
    3546     3557     3565     3643     3732     3743     3682     3634 
    3680     3746     3638     3339     3006     2673     2290     1906 
    1632     1587     1811     2180     2540     2872     3207     3519 
    3747     3829     3765     3608     3429     3321     3349     3430 
    3397     3234     3069     2980     2976     3094     3345     3711 
    4132     4419     4380     4064     3726     3589     3699     3942 
    4180     4359     4473     4531     4542     4415     4048     3554 
    3165     3010     3038     3095     3099     3057     2925     2641 
    2262     1931     1780     1868     2160     2532     2847     3028 
    3103     3168     3283     3407     3433     3314     3103     2934 
    2963     3169     3346     3360     3242     3102     3061     3133 
    3225     3289     3306     3241     3129     3034     2986     3002 
    3132     3334     3488     3573     3672     3805     3944     4077 
    4141     4009     3605     3055     2616     2485     2617     2818 
    2959     3026     2990     2874     2818     2833     2778     2614 
    2436     2376     2521     2810     3098     3326     3450     3411 
    3246     3092     3061     3195     3480     3878     4334     4731 
    4945     4901     4641     4310     4005     3743     3546     3434 
    3387     3353     3281     3169     3067     2976     2876     2837 
    2955     3272     3757     4232     4479     4406     4079     3653 
    3287     3078     3082     3296     3599     3798     3750     3493 
    3257     3190     3227     3272     3295     3258     3057     2674 
    2308     2158     2199     2311     2413     2470     2513     2635 
    2876     3207     3511     3619     3449     3065     2605     2219 
    2008     2015     2270     2740     3303     3821     4171     4272 
    4151     3940     3811     3840     4005     4237     4434     4525 
    4537     4523     4467     4333     4156     3950     3661     3298 
    2933     2581     2246     2043     2095     2355     2631     2747 
    2718     2782     3096     3553     3946     4156     4189     4113 
    3925     3537     2997     2466     2029     1729     1651     1837 
    2212     2577     2799     2924     3033     3190     3458     3831 
    4179     4303     4156     3886     3589     3260     2968     2829 
    2832     2899     2992     3095     3130     2994     2694     2374 
    2091     1811     1629     1755     2304     3099     3744     4023 
    4050     4040     4090     4143     4160     4225     4359     4446 
    4406     4260     4082     3866     3555     3225     3010     2916 
    2874     2872     2933     3075     3288     3512     3608     3481 
    3219     3005     2943     3032     3200     3393     3596     3769 
    3890     4023     4185     4272     4233     4128     3987     3790 
    3555     3369     3275     3211     3110     2957     2795     2674 
    2617     2631     2695     2795     2907     2991     3042     3051 
    2967     2833     2760     2793     2884     2934     2837     2589 
    2331     2274     2527     3019     3532     3850     3936     3910 
    3854     3742     3619     3619     3767     3948     4059     4075 
    3985     3762     3429     3111     2967     3022     3136     3192 
    3242     3354     3559     3875     4190     4306     4179     3920 
    3632     3325     3015     2843     2902     3150     3493     3798 
    3998     4149     4274     4309     4216     4044     3920     3913 
    3919     3785     3511     3226     3044     2968     2943     2899 
    2760     2512     2258     2114     2053     1965     1846     1798 
    1864     1930     1891     1811     1806     1961     2290     2693 
    3094     3430     3535     3380     3218     3306     3628     3954 
    4071     3927     3592     3222     3005     3041     3260     3472 
    3523     3418     3262     3194     3318     3572     3712     3623 
    3447     3380     3480     3658     3793     3813     3659     3321 
    2895     2555     2443     2583     2903     3284     3623     3874 
    4031     4122     4141     4032     3836     3638     3423     3173 
    2930     2720     2594     2664     2938     3300     3639     3878 
    3962     3847     3518     3037     2586     2362     2376     2442 
    2478     2532     2569     2560     2632     2878     3222     3489 
    3565     3474     3368     3356     3341     3163     2859     2623 
    2610     2847     3208     3551     3859     4239     4707     5108 
    5282     5189     4884     4461     4020     3669     3445     3235 
    2953     2681     2519     2440     2385     2394     2536     2758 
    2940     3032     3057     3110     3267     3438     3489     3418 
    3276     3121     3042     3132     3400     3754     4071     4295 
    4423     4456     4379     4193     3951     3669     3303     2886 
    2546     2373     2369     2492     2706     2984     3246     3435 
    3588     3739     3825     3798     3739     3740     3746     3631 
    3366     3063     2871     2844     2921     3028     3154     3285 
    3376     3446     3535     3627     3699     3731     3746     3788 
    3843     3883     3923     3931     3875     3789     3704     3626 
    3564     3501     3464     3524     3645     3692     3588     3341 
    3041     2770     2551     2440     2432     2366     2133     1861 
    1764     1880     2085     2315     2550     2728     2843     2941 
    3033     3130     3211     3190     3056     2909     2841     2906 
    3086     3322     3553     3707     3774     3794     3763     3665 
    3541     3457     3462     3516     3469     3237     2928     2706 
    2627     2685     2839     2943     2876     2710     2629     2736 
    2940     3117     3288     3507     3694     3739     3645     3503 
    3407     3416     3510     3588     3578     3518     3489     3511 
    3547     3630     3829     4101     4287     4342     4303     4143 
    3821     3435     3161     3018     2874     2747     2786     3005 
    3295     3504     3495     3311     3099     2916     2790     2764 
    2802     2843     2899     3025     3268     3616     3942     4079 
    4024     3886     3746     3684     3754     3873     3867     3638 
    3248     2824     2397     2006     1806     1949     2394     2906 
    3241     3296     3056     2600     2176     1979     1985     2139 
    2440     2860     3308     3665     3851     3902     3910     3900 
    3840     3812     3932     4131     4221     4117     3794     3283 
    2767     2475     2469     2594     2712     2856     3119     3483 
    3862     4229     4617     4961     5135     5119     4953     4665 
    4345     4090     3897     3690     3392     2980     2493     1981 
    1545     1344     1472     1888     2459     3001     3397     3651 
    3740     3615     3410     3372     3500     3581     3522     3415 
    3342     3242     3030     2830     2890     3250     3711     4101 
    4361     4421     4274     4079     4036     4214     4525     4793 
    4864     4737     4556     4438     4415     4446     4437     4318 
    4114     3811     3291     2585     1950     1622     1633     1844 
    2126     2492     2991     3569     4090     4442     4596     4540 
    4297     3981     3649     3215     2668     2216     2077     2222 
    2331     2151     1792     1476     1256     1121     1071     1055 
     992      830      625      544      700     1070     1557     2011 
    2309     2447     2434     2286     2099     1976     2003     2230 
    2606     3079     3569     3932     4186     4540     4997     5301 
    5293     5082     4900     4907     5150     5675     6490     7327 
    7755     7597     7052     6454     5975     5584     5220     4866 
    4545     4294     4112     3951     3805     3699     3624     3607 
    3736     4109     4765     5610     6416     7013     7358     7411 
    7102     6442     5460     4175     2674     1107     -332    -1452 
   -2216    -2674    -2876    -2916    -2863    -2682    -2312    -1767 
   -1144     -545       21      514      804      869      858      891 
     895      648       31     -807    -1625    -2231    -2413    -1973 
    -918      503     2004     3445     4675     5432     5609     5373 
    4968     4573     4299     4185     4220     4390     4700     5090 
    5494     5940     6469     7094     7747     8210     8310     8078 
    7674     7296     7063     6982     6957     6848     6654     6494 
    6369     6176     5883     5494     5054     4711     4634     4889 
    5395     5899     6088     5809     5117     4166     3123     2095 
    1154      399      -63     -163       71      521     1124     1869 
    2712     3635     4552     5243     5586     5634     5503     5314 
    5108     4881     4687     4511     4253     3780     2980     1956 
     935       43     -568     -734     -487       40      770     1613 
    2421     3005     3190     3022     2775     2662     2668     2691 
    2683     2651     2592     2494     2443     2569     2932     3485 
    4032     4287     4035     3231     2039      842       81       17 
     592     1499     2392     3084     3653     4247     4777     5007 
    4905     4598     4194     3835     3630     3546     3461     3277 
    2998     2668     2316     1964     1661     1501     1568     1810 
    2061     2251     2430     2685     3141     3850     4671     5401 
    5941     6339     6702     6997     7044     6771     6296     5788 
    5350     4962     4526     3989     3410     2910     2627     2562 
    2569     2538     2478     2497     2709     3113     3611     4023 
    4149     3971     3578     3025     2351     1529      456     -801 
   -1927    -2593    -2658    -2162    -1235      -43     1134     1927 
    2101     1680      870      -83     -912    -1254     -770      580 
    2504     4552     6285     7375     7661     7180     6104     4704 
    3296     2130     1331      886      693      646      658      753 
    1012     1399     1818     2203     2543     2887     3257     3554 
    3640     3666     4031     4854     5899     6940     7840     8428 
    8509     7990     6933     5517     3996     2610     1518      758 
     205     -330     -880    -1290    -1416    -1186     -530      568 
    2003     3646     5379     7037     8428     9409     9904     9977 
    9772     9342     8658     7784     6825     5859     4955     4175 
    3588     3295     3343     3674     4135     4591     4996     5247 
    5148     4650     3939     3283     2922     2921     3073     3087 
    2839     2394     1925     1659     1752     2204     2922     3755 
    4503     5050     5449     5844     6359     7007     7638     8037 
    8054     7653     6898     5925     4966     4303     4079     4264 
    4734     5320     5844     6203     6390     6376     6018     5231 
    4175     3138     2309     1740     1378     1162     1113     1232 
    1486     1863     2236     2324     1896     1000      -55     -940 
   -1416    -1371     -874     -113      608      918      691      136 
    -452     -770     -546      251     1377     2489     3370     4040 
    4604     5034     5171     4957     4544     4179     3960     3771 
    3429     2826     1989     1055      243     -222     -284      -83 
     202      503      823     1104     1254     1289     1351     1591 
    2128     3034     4232     5474     6440     6805     6407     5443 
    4334     3434     2961     2999     3410     3848     3952     3577 
    2887     2131     1537     1313     1551     2151     2922     3712 
    4472     5181     5752     6018     5845     5302     4610     3929 
    3288     2735     2390     2265     2158     1867     1468     1223 
    1220     1356     1532     1669     1696     1605     1513     1591 
    1935     2484     3114     3755     4326     4676     4662     4275 
    3728     3389     3499     3959     4440     4687     4615     4199 
    3496     2736     2222     2096     2247     2470     2693     2953 
    3184     3296     3377     3562     3817     4012     4133     4283 
    4477     4642     4745     4814     4807     4580     4060     3381 
    2733     2196     1769     1503     1560     2073     2914     3715 
    4163     4183     3921     3572     3249     3045     3068     3311 
    3662     4013     4324     4653     5061     5462     5714     5772 
    5641     5286     4737     4153     3662     3192     2614     1964 
    1478     1378     1652     2081     2521     3049     3755     4561 
    5344     6042     6569     6728     6338     5406     4094     2521 
     854     -537    -1313    -1362     -745      301     1418     2313 
    2860     3087     3225     3489     3846     4186     4548     5026 
    5590     6022     6035     5508     4585     3566     2722     2182 
    1921     1846     1949     2351     3150     4153     4986     5406 
    5344     4804     3894     2795     1737      993      799     1229 
    2177     3395     4610     5670     6554     7225     7523     7307 
    6644     5768     4954     4375     3989     3659     3312     2971 
    2768     2862     3321     4047     4803     5383     5742     5930 
    6007     5987     5776     5216     4305     3289     2478     2081 
    2160     2617     3184     3489     3264     2505     1443      330 
    -664    -1377    -1651    -1485    -1040     -440      276      945 
    1354     1453     1327     1121     1000      988      928      677 
     279      -81     -172      159      826     1599     2353     3068 
    3655     3946     3897     3634     3315     3049     2857     2752 
    2762     2833     2913     3040     3223     3442     3765     4288 
    5046     5976     6930     7728     8233     8290     7796     6837 
    5657     4618     4095     4183     4594     4824     4495     3631 
    2529     1459      679      405      645     1242     1980     2706 
    3449     4179     4679     4800     4536     3908     3084     2351 
    1934     1895     2137     2473     2685     2628     2344     2034 
    1838     1732     1679     1730     1935     2220     2371     2201 
    1750     1258     1039     1286     1921     2722     3420     3697 
    3433     2907     2593     2782     3431     4253     4986     5502 
    5686     5458     4922     4245     3557     3005     2689     2635 
    2907     3573     4548     5528     6153     6301     6106     5676 
    5020     4244     3643     3501     3836     4403     4891     5093 
    4972     4680     4442     4342     4324     4301     4195     3959 
    3596     3122     2606     2208     2072     2241     2648     3110 
    3431     3570     3626     3726     3944     4261     4599     4830 
    4770     4307     3527     2678     1999     1597     1445     1452 
    1525     1633     1782     1996     2327     2791     3303     3654 
    3658     3338     2899     2574     2517     2764     3312     4079 
    4788     5132     5051     4696     4294     4055     4040     4168 
    4349     4453     4367     4110     3789     3524     3379     3285 
    3175     3068     2999     2949     2828     2542     2119     1783 
    1775     2093     2498     2767     2857     2911     3117     3519 
    3964     4280     4461     4575     4634     4683     4779     4862 
    4799     4531     4106     3647     3285     3060     2957     2974 
    3036     3053     3028     2956     2721     2276     1841     1833 
    2435     3300     3892     3998     3753     3370     2972     2538 
    2062     1665     1456     1507     1903     2640     3572     4417 
    4868     4846     4585     4356     4183     4004     3883     3863 
    3863     3840     3805     3758     3724     3759     3936     4275 
    4596     4658     4457     4212     4039     3862     3588     3240 
    2882     2469     1881     1140      418     -144     -496     -646 
    -604     -375       39      660     1498     2451     3331     4024 
    4558     5000     5224     4990     4271     3342     2621     2359 
    2398     2403     2223     1954     1771     1786     2015     2403 
    2789     3009     3060     3073     3141     3240     3334     3411 
