Origin Time       2024/04/02 04:24:00
Lat.              40.133
Long.             141.712
Depth. (km)       71
Mag.              6.0
Station Code      HKD181
Station Lat.      43.1161
Station Long.     141.5462
Station Height(m) 8
Record Time       2024/04/02 04:25:59
Sampling Freq(Hz) 100Hz
Duration Time(s)  70
Dir.              N-S
Scale Factor      7845(gal)/8223790
Max. Acc. (gal)   2.175
Last Correction   2024/04/02 04:26:00
Memo.             
[...]
  -15142   -15172   -15233   -15303   -15353   -15377   -15377   -15357 
  -15338   -15348   -15391   -15442   -15479   -15512   -15534   -15506 
  -15429   -15315   -15159   -14956   -14735   -14524   -14347   -14239 
  -14204   -14208   -14229   -14272   -14338   -14408   -14476   -14538 
  -14588   -14646   -14719   -14796   -14871   -14953   -15040   -15125 
  -15195   -15253   -15295   -15319   -15341   -15367   -15390   -15400 
  -15396   -15377   -15348   -15315   -15302   -15315   -15336   -15341 
  -15321   -15275   -15219   -15184   -15176   -15178   -15175   -15180 
  -15201   -15211   -15198   -15164   -15111   -15040   -14974   -14943 
  -14952   -15002   -15075   -15137   -15169   -15176   -15172   -15137 
  -15066   -14986   -14924   -14883   -14870   -14875   -14871   -14851 
  -14836   -14820   -14797   -14781   -14781   -14794   -14832   -14904 
  -14998   -15099   -15192   -15276   -15349   -15411   -15465   -15504 
  -15518   -15508   -15485   -15441   -15368   -15265   -15149   -15030 
  -14917   -14817   -14747   -14724   -14750   -14800   -14851   -14899 
  -14941   -14959   -14951   -14928   -14899   -14894   -14928   -14989 
  -15057   -15128   -15192   -15248   -15298   -15348   -15388   -15404 
  -15387   -15330   -15248   -15172   -15126   -15098   -15072   -15059 
  -15063   -15053   -15017   -14970   -14932   -14916   -14926   -14968 
  -15032   -15093   -15140   -15171   -15160   -15110   -15059   -15032 
  -15025   -15047   -15110   -15202   -15290   -15346   -15360   -15319 
  -15225   -15105   -14997   -14902   -14808   -14727   -14682   -14674 
  -14697   -14746   -14816   -14889   -14944   -14989   -15034   -15088 
  -15147   -15195   -15223   -15240   -15245   -15230   -15186   -15128 
  -15088   -15091   -15120   -15153   -15184   -15214   -15225   -15213 
  -15186   -15145   -15093   -15037   -14986   -14955   -14951   -14964 
  -14986   -15007   -15022   -15032   -15047   -15068   -15082   -15076 
  -15055   -15030   -15025   -15049   -15094   -15140   -15176   -15195 
  -15190   -15164   -15125   -15068   -14999   -14935   -14879   -14843 
  -14831   -14843   -14897   -14991   -15097   -15176   -15223   -15236 
  -15217   -15190   -15164   -15133   -15102   -15080   -15067   -15057 
  -15055   -15059   -15061   -15053   -15033   -15007   -14982   -14959 
  -14935   -14904   -14872   -14850   -14840   -14839   -14840   -14839 
  -14835   -14844   -14866   -14877   -14859   -14817   -14770   -14732 
  -14708   -14704   -14744   -14844   -14983   -15134   -15273   -15388 
  -15476   -15543   -15580   -15580   -15543   -15473   -15369   -15250 
  -15149   -15097   -15103   -15157   -15223   -15279   -15311   -15325 
  -15331   -15322   -15287   -15226   -15141   -15036   -14929   -14848 
  -14806   -14796   -14796   -14797   -14800   -14806   -14805   -14782 
  -14743   -14716   -14720   -14750   -14791   -14843   -14890   -14924 
  -14953   -14995   -15040   -15086   -15152   -15229   -15284   -15314 
  -15325   -15311   -15264   -15201   -15151   -15129   -15141   -15174 
  -15209   -15221   -15194   -15133   -15061   -14998   -14943   -14905 
  -14902   -14948   -15036   -15133   -15194   -15210   -15191   -15145 
  -15095   -15064   -15063   -15093   -15147   -15198   -15233   -15245 
  -15219   -15151   -15051   -14941   -14841   -14773   -14742   -14740 
  -14760   -14802   -14860   -14929   -14998   -15041   -15051   -15041 
  -15016   -14982   -14962   -14976   -15026   -15105   -15206   -15313 
  -15404   -15464   -15487   -15479   -15454   -15426   -15391   -15348 
  -15304   -15261   -15234   -15218   -15198   -15174   -15149   -15125 
  -15095   -15056   -14998   -14918   -14821   -14713   -14616   -14558 
  -14544   -14559   -14589   -14629   -14681   -14754   -14847   -14955 
  -15067   -15159   -15219   -15253   -15276   -15294   -15311   -15336 
  -15358   -15373   -15381   -15384   -15377   -15346   -15282   -15190 
  -15087   -14980   -14882   -14813   -14789   -14809   -14860   -14931 
  -15001   -15043   -15053   -15041   -15006   -14966   -14931   -14883 
  -14825   -14797   -14818   -14868   -14931   -15013   -15109   -15179 
  -15206   -15213   -15223   -15241   -15261   -15294   -15337   -15390 
  -15450   -15503   -15519   -15481   -15415   -15336   -15234   -15115 
  -15014   -14953   -14931   -14933   -14951   -14972   -14998   -15021 
  -15022   -15001   -14987   -15012   -15066   -15117   -15144   -15144 
  -15115   -15070   -15028   -15002   -14991   -14999   -15026   -15066 
  -15114   -15172   -15229   -15260   -15259   -15225   -15155   -15055 
  -14962   -14898   -14860   -14844   -14844   -14839   -14818   -14791 
  -14766   -14744   -14728   -14717   -14721   -14746   -14794   -14845 
  -14875   -14881   -14877   -14877   -14894   -14932   -14976   -15025 
  -15076   -15115   -15134   -15141   -15165   -15221   -15303   -15404 
  -15515   -15611   -15682   -15726   -15735   -15699   -15622   -15516 
  -15390   -15252   -15122   -15020   -14951   -14913   -14897   -14878 
  -14847   -14810   -14766   -14723   -14705   -14717   -14736   -14760 
  -14793   -14816   -14816   -14817   -14850   -14894   -14924   -14936 
  -14935   -14939   -14968   -15024   -15084   -15137   -15188   -15245 
  -15291   -15317   -15327   -15322   -15300   -15263   -15199   -15114 
  -15018   -14929   -14862   -14814   -14789   -14793   -14816   -14836 
  -14855   -14887   -14943   -15014   -15091   -15169   -15244   -15322 
  -15398   -15441   -15446   -15427   -15410   -15399   -15385   -15373 
  -15357   -15326   -15291   -15256   -15209   -15148   -15084   -15024 
  -14967   -14935   -14941   -14956   -14958   -14960   -14967   -14941 
  -14867   -14779   -14704   -14629   -14571   -14553   -14563   -14589 
  -14632   -14688   -14735   -14767   -14796   -14813   -14816   -14833 
  -14885   -14963   -15068   -15188   -15296   -15371   -15417   -15450 
  -15454   -15415   -15357   -15295   -15221   -15137   -15070   -15026 
  -15005   -15012   -15039   -15066   -15094   -15130   -15164   -15191 
  -15217   -15244   -15263   -15272   -15277   -15287   -15294   -15292 
  -15284   -15257   -15207   -15159   -15122   -15095   -15084   -15075 
  -15048   -15009   -14971   -14936   -14901   -14863   -14825   -14791 
  -14769   -14778   -14820   -14875   -14936   -15005   -15078   -15140 
  -15188   -15225   -15245   -15246   -15246   -15252   -15261   -15284 
  -15322   -15357   -15371   -15354   -15306   -15221   -15110   -15002 
  -14916   -14866   -14862   -14901   -14976   -15072   -15159   -15222 
  -15252   -15238   -15201   -15159   -15118   -15061   -14990   -14914 
  -14854   -14808   -14771   -14736   -14700   -14662   -14613   -14555 
  -14517   -14511   -14528   -14574   -14646   -14725   -14817   -14935 
  -15064   -15188   -15310   -15430   -15527   -15595   -15634   -15638 
  -15604   -15553   -15508   -15477   -15446   -15418   -15400   -15387 
  -15372   -15356   -15318   -15242   -15157   -15087   -15024   -14968 
  -14947   -14963   -14982   -14986   -14991   -15003   -15012   -15018 
  -15021   -15002   -14959   -14917   -14889   -14863   -14840   -14828 
  -14813   -14787   -14764   -14751   -14751   -14778   -14835   -14893 
  -14928   -14931   -14916   -14901   -14898   -14924   -14983   -15053 
  -15121   -15184   -15236   -15269   -15296   -15319   -15331   -15323 
  -15304   -15292   -15292   -15298   -15295   -15287   -15275   -15250 
  -15218   -15194   -15178   -15149   -15093   -15001   -14886   -14782 
  -14719   -14693   -14694   -14724   -14769   -14816   -14855   -14891 
  -14929   -14955   -14952   -14925   -14895   -14871   -14860   -14874 
  -14909   -14959   -15025   -15098   -15145   -15152   -15138   -15124 
  -15113   -15103   -15087   -15059   -15024   -14998   -15009   -15057 
  -15120   -15188   -15263   -15334   -15391   -15429   -15449   -15434 
  -15381   -15315   -15267   -15240   -15236   -15242   -15242   -15228 
  -15207   -15169   -15107   -15032   -14958   -14895   -14852   -14827 
  -14814   -14809   -14797   -14787   -14796   -14820   -14840   -14845 
  -14833   -14812   -14812   -14851   -14908   -14959   -14994   -15018 
  -15039   -15049   -15057   -15076   -15103   -15137   -15184   -15240 
  -15275   -15279   -15263   -15223   -15153   -15064   -14985   -14935 
  -14921   -14937   -14979   -15045   -15134   -15233   -15307   -15329 
  -15304   -15263   -15225   -15198   -15190   -15223   -15299   -15373 
  -15415   -15418   -15387   -15334   -15276   -15210   -15121   -15018 
  -14924   -14837   -14760   -14709   -14700   -14717   -14731   -14729 
  -14716   -14694   -14674   -14670   -14690   -14735   -14808   -14909 
  -15007   -15080   -15129   -15164   -15187   -15196   -15201   -15203 
  -15206   -15215   -15228   -15236   -15240   -15242   -15237   -15222 
  -15192   -15145   -15098   -15063   -15040   -15028   -15026   -15032 
  -15039   -15045   -15059   -15079   -15093   -15101   -15109   -15101 
  -15076   -15048   -15013   -14972   -14941   -14926   -14922   -14936 
  -14972   -15021   -15066   -15106   -15140   -15157   -15168   -15175 
  -15179   -15187   -15210   -15249   -15296   -15331   -15348   -15354 
  -15342   -15298   -15229   -15155   -15091   -15055   -15047   -15061 
  -15093   -15126   -15142   -15122   -15068   -15005   -14948   -14906 
  -14881   -14881   -14916   -14978   -15044   -15093   -15121   -15133 
  -15137   -15138   -15141   -15153   -15191   -15245   -15288   -15313 
  -15323   -15319   -15296   -15244   -15168   -15084   -15012   -14948 
  -14893   -14847   -14814   -14804   -14821   -14864   -14925   -15016 
  -15129   -15226   -15264   -15241   -15190   -15129   -15064   -15007 
  -14970   -14955   -14967   -14994   -15024   -15052   -15075   -15087 
  -15074   -15029   -14980   -14958   -14958   -14971   -15006   -15071 
  -15159   -15256   -15350   -15423   -15475   -15515   -15537   -15523 
  -15479   -15419   -15360   -15309   -15276   -15265   -15256   -15238 
  -15211   -15161   -15084   -15013   -14974   -14959   -14951   -14936 
  -14916   -14895   -14878   -14862   -14847   -14836   -14832   -14823 
  -14797   -14769   -14755   -14759   -14790   -14841   -14890   -14912 
  -14901   -14871   -14832   -14794   -14766   -14758   -14773   -14812 
  -14866   -14924   -14978   -15033   -15079   -15107   -15124   -15134 
  -15124   -15080   -15016   -14931   -14831   -14747   -14710   -14728 
  -14779   -14851   -14922   -14967   -14979   -14968   -14966   -15001 
  -15075   -15161   -15236   -15276   -15284   -15268   -15228   -15175 
  -15137   -15118   -15124   -15159   -15217   -15287   -15361   -15429 
  -15461   -15438   -15381   -15303   -15202   -15111   -15083   -15103 
  -15126   -15142   -15142   -15129   -15138   -15190   -15269   -15356 
  -15434   -15481   -15492   -15456   -15380   -15288   -15188   -15091 
  -15016   -14959   -14914   -14889   -14872   -14821   -14712   -14566 
  -14409   -14253   -14125   -14075   -14130   -14280   -14493   -14720 
  -14910   -15039   -15099   -15080   -14991   -14867   -14742   -14627 
  -14551   -14531   -14554   -14609   -14685   -14777   -14872   -14953 
  -15016   -15072   -15124   -15192   -15306   -15454   -15610   -15749 
  -15857   -15923   -15944   -15913   -15820   -15680   -15522   -15375 
  -15245   -15148   -15113   -15140   -15198   -15268   -15350   -15435 
  -15500   -15514   -15462   -15367   -15253   -15138   -15043   -14980 
  -14944   -14917   -14883   -14855   -14851   -14870   -14883   -14878 
  -14850   -14804   -14742   -14675   -14625   -14611   -14642   -14727 
  -14885   -15099   -15315   -15506   -15660   -15751   -15749   -15650 
  -15475   -15260   -15066   -14953   -14940   -14987   -15051   -15088 
  -15067   -14986   -14863   -14713   -14534   -14338   -14149   -13969 
  -13809   -13707   -13697   -13763   -13882   -14029   -14160   -14256 
  -14316   -14355   -14408   -14513   -14698   -14968   -15300   -15646 
  -15963   -16235   -16447   -16599   -16696   -16744   -16752   -16735 
  -16713   -16695   -16679   -16649   -16603   -16548   -16463   -16317 
  -16114   -15880   -15624   -15376   -15184   -15063   -14983   -14914 
  -14831   -14693   -14462   -14145   -13792   -13467   -13235   -13140 
  -13180   -13306   -13481   -13664   -13792   -13813   -13725   -13572 
  -13406   -13271   -13236   -13352   -13610   -13949   -14295   -14588 
  -14806   -14947   -15029   -15114   -15267   -15508   -15839   -16231 
  -16622   -16965   -17217   -17328   -17267   -17070   -16814   -16559 
  -16326   -16112   -15909   -15705   -15476   -15187   -14829   -14442 
  -14100   -13860   -13759   -13824   -14049   -14372   -14706   -14995 
  -15223   -15395   -15525   -15649   -15803   -15998   -16220   -16429 
  -16590   -16676   -16668   -16538   -16289   -15967   -15628   -15317 
  -15066   -14877   -14725   -14589   -14445   -14289   -14158   -14084 
  -14081   -14153   -14266   -14374   -14447   -14465   -14432   -14385 
  -14365   -14389   -14492   -14705   -15024   -15406   -15782   -16070 
  -16197   -16128   -15881   -15518   -15121   -14762   -14509   -14377 
  -14326   -14316   -14334   -14361   -14389   -14409   -14407   -14385 
  -14354   -14326   -14342   -14435   -14615   -14879   -15194   -15511 
  -15797   -16033   -16212   -16333   -16386   -16359   -16281   -16187 
  -16114   -16083   -16085   -16082   -16050   -15978   -15873   -15754 
  -15645   -15560   -15491   -15418   -15314   -15161   -14964   -14731 
  -14454   -14139   -13819   -13525   -13281   -13090   -12953   -12862 
  -12810   -12784   -12789   -12834   -12920   -13039   -13192   -13402 
  -13693   -14058   -14462   -14863   -15219   -15491   -15646   -15695 
  -15689   -15674   -15689   -15768   -15917   -16113   -16322   -16517 
  -16667   -16760   -16803   -16811   -16789   -16742   -16668   -16561 
  -16434   -16299   -16154   -15994   -15824   -15658   -15502   -15352 
  -15201   -15056   -14914   -14756   -14597   -14470   -14396   -14370 
  -14385   -14431   -14508   -14628   -14798   -14983   -15125   -15176 
  -15132   -15018   -14893   -14804   -14755   -14729   -14700   -14644 
  -14551   -14423   -14280   -14184   -14191   -14299   -14474   -14683 
  -14893   -15070   -15195   -15280   -15367   -15484   -15627   -15774 
  -15896   -15959   -15947   -15869   -15753   -15633   -15535   -15472 
  -15431   -15383   -15296   -15169   -15024   -14905   -14864   -14914 
  -15037   -15205   -15380   -15529   -15610   -15595   -15475   -15277 
  -15053   -14863   -14756   -14746   -14804   -14878   -14909   -14836 
  -14652   -14396   -14129   -13919   -13818   -13830   -13933   -14118 
  -14368   -14646   -14914   -15157   -15363   -15510   -15589   -15615 
  -15608   -15595   -15592   -15597   -15587   -15537   -15444   -15310 
  -15156   -15002   -14852   -14719   -14608   -14515   -14438   -14377 
  -14330   -14295   -14276   -14260   -14229   -14173   -14111   -14075 
  -14064   -14050   -14004   -13922   -13834   -13799   -13873   -14085 
  -14430   -14852   -15277   -15654   -15969   -16217   -16414   -16571 
  -16688   -16769   -16819   -16845   -16865   -16887   -16889   -16850 
  -16754   -16582   -16360   -16131   -15912   -15716   -15550   -15396 
  -15242   -15107   -15012   -14955   -14924   -14898   -14844   -14754 
  -14646   -14530   -14399   -14258   -14127   -14018   -13932   -13855 
  -13780   -13722   -13720   -13783   -13876   -13965   -14033   -14061 
  -14052   -14034   -14042   -14096   -14197   -14312   -14391   -14434 
  -14499   -14634   -14856   -15169   -15564   -15993   -16376   -16648 
  -16788   -16807   -16726   -16576   -16376   -16166   -16019   -15994 
  -16083   -16236   -16413   -16568   -16645   -16619   -16505   -16318 
  -16083   -15816   -15526   -15226   -14935   -14675   -14458   -14283 
  -14145   -14037   -13956   -13907   -13894   -13918   -13992   -14119 
  -14284   -14451   -14597   -14725   -14840   -14936   -15003   -15047 
  -15068   -15067   -15044   -15007   -14964   -14918   -14863   -14802 
  -14736   -14661   -14581   -14515   -14485   -14507   -14582   -14713 
  -14887   -15072   -15242   -15369   -15433   -15421   -15329   -15163 
  -14955   -14755   -14597   -14484   -14413   -14388   -14388   -14404 
  -14419   -14397   -14326   -14212   -14089   -13995   -13960   -14011 
  -14170   -14431   -14755   -15097   -15414   -15695   -15952   -16183 
  -16383   -16571   -16761   -16942   -17088   -17176   -17192   -17130 
  -16999   -16835   -16669   -16507   -16357   -16206   -16021   -15795 
  -15550   -15311   -15094   -14916   -14786   -14669   -14508   -14280 
  -13999   -13718   -13498   -13392   -13425   -13575   -13801   -14057 
  -14303   -14513   -14677   -14796   -14883   -14935   -14947   -14922 
  -14862   -14752   -14607   -14457   -14338   -14280   -14310   -14427 
  -14596   -14769   -14912   -15010   -15067   -15084   -15087   -15109 
  -15164   -15236   -15300   -15334   -15327   -15273   -15164   -15009 
  -14835   -14685   -14602   -14615   -14716   -14868   -15040   -15207 
  -15350   -15449   -15498   -15527   -15593   -15746   -15994   -16309 
  -16636   -16902   -17038   -16980   -16703   -16236   -15674   -15145 
  -14747   -14519   -14455   -14503   -14586   -14644   -14638   -14561 
  -14445   -14335   -14277   -14297   -14403   -14582   -14809   -15034 
  -15202   -15279   -15271   -15191   -15057   -14902   -14759   -14638 
  -14553   -14521   -14555   -14654   -14806   -14994   -15202   -15412 
  -15587   -15680   -15681   -15595   -15431   -15228   -15041   -14925 
  -14906   -14980   -15113   -15246   -15330   -15350   -15321   -15252 
  -15153   -15059   -14985   -14933   -14904   -14882   -14850   -14804 
  -14740   -14671   -14613   -14589   -14611   -14648   -14658   -14634 
  -14601   -14590   -14644   -14786   -15002   -15264   -15522   -15722 
  -15827   -15827   -15712   -15496   -15221   -14933   -14690   -14532 
  -14494   -14594   -14805   -15059   -15300   -15480   -15553   -15507 
  -15379   -15223   -15082   -14991   -14997   -15120   -15350   -15653 
  -15966   -16218   -16364   -16387   -16302   -16151   -15971   -15792 
  -15614   -15415   -15184   -14921   -14631   -14345   -14100   -13936 
  -13867   -13873   -13936   -14042   -14172   -14305   -14439   -14561 
  -14651   -14717   -14785   -14881   -15013   -15168   -15322   -15446 
  -15512   -15483   -15349   -15130   -14847   -14520   -14208   -13992 
  -13944   -14106   -14459   -14939   -15439   -15836   -16036   -16002 
  -15766   -15411   -15028   -14698   -14478   -14388   -14396   -14450 
  -14503   -14528   -14515   -14459   -14376   -14305   -14301   -14391 
  -14578   -14850   -15160   -15456   -15703   -15882   -15993   -16051 
  -16097   -16155   -16217   -16260   -16282   -16281   -16263   -16227 
  -16168   -16093   -16000   -15878   -15723   -15539   -15338   -15134 
  -14937   -14737   -14536   -14342   -14148   -13956   -13794   -13687 
  -13651   -13695   -13814   -13988   -14192   -14395   -14557   -14667 
  -14747   -14829   -14944   -15102   -15290   -15495   -15699   -15877 
  -16013   -16097   -16113   -16047   -15896   -15678   -15434   -15210 
  -15037   -14939   -14908   -14925   -14962   -14993   -14989   -14947 
  -14889   -14839   -14808   -14804   -14847   -14951   -15110   -15292 
  -15473   -15641   -15768   -15832   -15831   -15772   -15670   -15539 
  -15379   -15179   -14937   -14661   -14382   -14148   -13988   -13923 
