Origin Time       2024/04/02 04:24:00
Lat.              40.133
Long.             141.712
Depth. (km)       71
Mag.              6.0
Station Code      HKD105
Station Lat.      42.4826
Station Long.     142.0538
Station Height(m) 7
Record Time       2024/04/02 04:25:45
Sampling Freq(Hz) 100Hz
Duration Time(s)  74
Dir.              U-D
Scale Factor      7845(gal)/8223790
Max. Acc. (gal)   1.573
Last Correction   2024/04/02 04:25:46
Memo.             
[...]
   -2860    -2790    -3030    -3468    -3846    -3960    -3759    -3354 
   -2974    -2812    -2947    -3316    -3693    -3823    -3654    -3337 
   -3063    -2963    -3075    -3330    -3553    -3568    -3365    -3117 
   -2990    -3022    -3122    -3165    -3133    -3106    -3121    -3156 
   -3173    -3149    -3103    -3082    -3098    -3145    -3242    -3387 
   -3501    -3492    -3325    -3088    -2964    -3046    -3252    -3410 
   -3415    -3335    -3314    -3364    -3396    -3393    -3404    -3430 
   -3438    -3460    -3539    -3605    -3546    -3343    -3078    -2868 
   -2849    -3053    -3329    -3472    -3422    -3260    -3102    -3053 
   -3167    -3393    -3578    -3580    -3410    -3200    -3069    -3076 
   -3208    -3383    -3500    -3512    -3445    -3357    -3315    -3357 
   -3426    -3410    -3279    -3115    -3038    -3082    -3167    -3202 
   -3154    -3072    -3071    -3207    -3396    -3527    -3561    -3504 
   -3358    -3187    -3109    -3159    -3257    -3294    -3213    -3098 
   -3079    -3164    -3257    -3287    -3254    -3196    -3138    -3125 
   -3188    -3288    -3370    -3408    -3379    -3275    -3133    -3011 
   -2947    -2941    -3014    -3159    -3277    -3248    -3037    -2772 
   -2659    -2779    -3017    -3218    -3308    -3287    -3180    -3056 
   -3003    -3090    -3277    -3414    -3391    -3296    -3275    -3327 
   -3353    -3306    -3210    -3115    -3109    -3235    -3379    -3365 
   -3159    -2895    -2772    -2880    -3142    -3393    -3504    -3433 
   -3260    -3169    -3275    -3487    -3630    -3593    -3358    -3014 
   -2728    -2643    -2778    -3042    -3318    -3497    -3524    -3438 
   -3330    -3267    -3258    -3276    -3285    -3257    -3192    -3137 
   -3157    -3256    -3352    -3331    -3160    -2926    -2795    -2840 
   -2970    -3022    -2983    -2987    -3098    -3237    -3314    -3312 
   -3237    -3096    -2967    -3013    -3321    -3747    -4016    -3963 
   -3659    -3343    -3248    -3419    -3666    -3738    -3532    -3181 
   -2907    -2843    -2971    -3176    -3306    -3252    -3068    -2918 
   -2921    -3080    -3298    -3426    -3383    -3223    -3086    -3073 
   -3195    -3349    -3395    -3316    -3231    -3244    -3357    -3527 
   -3682    -3735    -3636    -3427    -3248    -3223    -3331    -3429 
   -3418    -3303    -3132    -3014    -3087    -3358    -3665    -3800 
   -3694    -3443    -3176    -2967    -2824    -2778    -2889    -3141 
   -3385    -3478    -3397    -3229    -3100    -3094    -3188    -3281 
   -3277    -3164    -3029    -2987    -3086    -3291    -3505    -3592 
   -3481    -3275    -3167    -3250    -3460    -3673    -3817    -3824 
   -3624    -3264    -2926    -2771    -2814    -2974    -3156    -3303 
   -3380    -3354    -3242    -3140    -3129    -3165    -3130    -2997 
   -2879    -2895    -3022    -3159    -3272    -3376    -3426    -3368 
   -3246    -3199    -3321    -3549    -3738    -3767    -3589    -3284 
   -3028    -2955    -3071    -3277    -3446    -3465    -3310    -3102 
   -3022    -3144    -3370    -3534    -3532    -3429    -3360    -3368 
   -3353    -3215    -3011    -2891    -2910    -3011    -3114    -3150 
   -3084    -2988    -2986    -3137    -3346    -3431    -3331    -3199 
   -3199    -3307    -3373    -3322    -3208    -3150    -3213    -3334 
   -3381    -3302    -3140    -2968    -2875    -2937    -3106    -3260 
   -3308    -3230    -3068    -2922    -2879    -2955    -3121    -3319 
   -3472    -3528    -3481    -3346    -3198    -3157    -3273    -3447 
   -3545    -3522    -3419    -3295    -3165    -3015    -2901    -2924 
   -3094    -3296    -3410    -3412    -3339    -3215    -3083    -3010 
   -3038    -3132    -3191    -3145    -3049    -2998    -2982    -2964 
   -3009    -3208    -3504    -3699    -3663    -3483    -3350    -3338 
   -3354    -3314    -3227    -3134    -3041    -2965    -2984    -3146 
   -3403    -3609    -3612    -3423    -3238    -3225    -3379    -3580 
   -3699    -3651    -3411    -3041    -2716    -2616    -2782    -3072 
   -3310    -3422    -3423    -3358    -3298    -3279    -3271    -3241 
   -3200    -3157    -3122    -3138    -3218    -3323    -3391    -3368 
   -3250    -3130    -3146    -3343    -3605    -3754    -3694    -3461 
   -3186    -2990    -2910    -2938    -3061    -3230    -3356    -3362 
   -3273    -3198    -3222    -3326    -3391    -3348    -3273    -3287 
   -3375    -3438    -3420    -3329    -3187    -3055    -3009    -3087 
   -3260    -3418    -3416    -3229    -2967    -2781    -2766    -2913 
   -3098    -3192    -3199    -3168    -3113    -3045    -3046    -3163 
   -3310    -3375    -3337    -3269    -3226    -3231    -3283    -3373 
   -3496    -3581    -3526    -3361    -3234    -3210    -3230    -3249 
   -3298    -3395    -3493    -3524    -3451    -3277    -3082    -2970 
   -2971    -3033    -3078    -3061    -3028    -3063    -3171    -3279 
   -3316    -3288    -3276    -3333    -3406    -3380    -3217    -3037 
   -2986    -3057    -3119    -3069    -2945    -2926    -3133    -3473 
   -3742    -3827    -3739    -3545    -3342    -3244    -3299    -3437 
   -3512    -3450    -3306    -3202    -3187    -3184    -3127    -3055 
   -3029    -3078    -3160    -3164    -3053    -2943    -2959    -3115 
   -3341    -3584    -3792    -3862    -3726    -3454    -3213    -3137 
   -3260    -3484    -3634    -3578    -3342    -3109    -3049    -3173 
   -3353    -3438    -3388    -3258    -3094    -2928    -2843    -2880 
   -2990    -3069    -3080    -3078    -3102    -3126    -3137    -3219 
   -3446    -3712    -3788    -3580    -3245    -3029    -3044    -3177 
   -3252    -3198    -3075    -2984    -3010    -3180    -3384    -3451 
   -3364    -3245    -3165    -3099    -3014    -2916    -2843    -2875 
   -3046    -3273    -3411    -3400    -3300    -3219    -3213    -3291 
   -3446    -3608    -3647    -3497    -3248    -3075    -3068    -3204 
   -3426    -3643    -3767    -3747    -3553    -3249    -3032    -3049 
   -3227    -3358    -3346    -3242    -3118    -3029    -3010    -3040 
   -3079    -3105    -3099    -3063    -3032    -3040    -3123    -3284 
   -3447    -3535    -3569    -3581    -3491    -3202    -2866    -2751 
   -2910    -3148    -3237    -3107    -2913    -2880    -3061    -3311 
   -3504    -3597    -3550    -3357    -3122    -2968    -2934    -3018 
   -3196    -3396    -3496    -3416    -3215    -3075    -3129    -3331 
   -3527    -3566    -3379    -3055    -2832    -2880    -3140    -3373 
   -3350    -3033    -2623    -2434    -2652    -3168    -3643    -3794 
   -3566    -3150    -2840    -2828    -3080    -3366    -3473    -3411 
   -3364    -3473    -3684    -3793    -3673    -3381    -3079    -2918 
   -2963    -3144    -3345    -3461    -3424    -3258    -3073    -2999 
   -3086    -3260    -3377    -3308    -3051    -2778    -2704    -2902 
   -3254    -3564    -3669    -3516    -3229    -3029    -3063    -3325 
   -3673    -3889    -3816    -3449    -2952    -2625    -2729    -3229 
   -3767    -3929    -3576    -2943    -2457    -2440    -2891    -3508 
   -3916    -3894    -3519    -3118    -2990    -3160    -3399    -3466 
   -3294    -3032    -2930    -3078    -3308    -3431    -3414    -3334 
   -3298    -3364    -3480    -3577    -3646    -3667    -3597    -3431 
   -3241    -3114    -3088    -3156    -3284    -3414    -3466    -3364 
   -3122    -2884    -2785    -2802    -2826    -2787    -2728    -2760 
   -2925    -3141    -3292    -3330    -3312    -3335    -3424    -3569 
   -3759    -3950    -4050    -3978    -3750    -3477    -3276    -3177 
   -3140    -3092    -3007    -2905    -2840    -2853    -2944    -3076 
   -3215    -3316    -3325    -3233    -3140    -3159    -3268    -3335 
   -3271    -3115    -2960    -2848    -2791    -2825    -2987    -3240 
   -3451    -3515    -3485    -3514    -3640    -3739    -3690    -3485 
   -3164    -2818    -2612    -2693    -3029    -3379    -3488    -3358 
   -3175    -3068    -3056    -3144    -3334    -3534    -3584    -3414 
   -3113    -2844    -2733    -2803    -3011    -3307    -3611    -3796 
   -3767    -3573    -3366    -3264    -3241    -3218    -3177    -3153 
   -3141    -3094    -3018    -2988    -3061    -3188    -3306    -3419 
   -3505    -3496    -3376    -3208    -3073    -3045    -3153    -3321 
   -3396    -3295    -3083    -2903    -2879    -3056    -3342    -3562 
   -3566    -3325    -2955    -2670    -2631    -2844    -3164    -3377 
   -3348    -3160    -3040    -3126    -3396    -3728    -3933    -3885 
   -3639    -3395    -3299    -3357    -3488    -3586    -3542    -3333 
   -3083    -2956    -3034    -3250    -3431    -3433    -3242    -2998 
   -2874    -2971    -3258    -3572    -3712    -3599    -3337    -3117 
   -3096    -3322    -3651    -3831    -3740    -3477    -3210    -3060 
   -3063    -3156    -3254    -3311    -3302    -3223    -3110    -2997 
   -2872    -2755    -2724    -2821    -3006    -3176    -3265    -3303 
   -3319    -3307    -3294    -3322    -3411    -3542    -3692    -3815 
   -3848    -3758    -3576    -3381    -3242    -3199    -3261    -3360 
   -3338    -3138    -2899    -2767    -2751    -2787    -2832    -2862 
   -2906    -3048    -3308    -3580    -3720    -3681    -3538    -3439 
   -3457    -3522    -3522    -3393    -3179    -3045    -3103    -3260 
   -3346    -3325    -3256    -3161    -3024    -2863    -2749    -2751 
   -2863    -2999    -3095    -3136    -3125    -3087    -3075    -3133 
   -3308    -3612    -3863    -3782    -3381    -3017    -2952    -3129 
   -3342    -3416    -3318    -3153    -3038    -3006    -3037    -3078 
   -3033    -2852    -2619    -2500    -2601    -2893    -3222    -3446 
   -3550    -3569    -3485    -3331    -3215    -3213    -3316    -3454 
   -3570    -3638    -3597    -3393    -3100    -2906    -2937    -3149 
   -3370    -3445    -3321    -3078    -2868    -2798    -2875    -3057 
   -3260    -3370    -3329    -3202    -3134    -3175    -3261    -3310 
   -3285    -3226    -3211    -3302    -3460    -3550    -3519    -3472 
   -3519    -3651    -3751    -3663    -3310    -2786    -2369    -2326 
   -2654    -3076    -3310    -3295    -3208    -3262    -3487    -3740 
   -3865    -3767    -3472    -3136    -2937    -2926    -2994    -3002 
   -2926    -2893    -3060    -3392    -3613    -3531    -3218    -2872 
   -2641    -2589    -2716    -2959    -3173    -3240    -3204    -3221 
   -3364    -3578    -3736    -3761    -3684    -3565    -3431    -3321 
   -3310    -3410    -3519    -3515    -3369    -3188    -3107    -3148 
   -3237    -3335    -3419    -3426    -3302    -3080    -2883    -2824 
   -2917    -3118    -3362    -3554    -3589    -3450    -3275    -3253 
   -3406    -3539    -3473    -3206    -2894    -2745    -2893    -3300 
   -3778    -4071    -3987    -3562    -3045    -2694    -2647    -2902 
   -3311    -3613    -3599    -3294    -2937    -2775    -2914    -3253 
   -3572    -3701    -3595    -3312    -3025    -2925    -3041    -3230 
   -3361    -3395    -3352    -3302    -3323    -3430    -3549    -3580 
   -3424    -3079    -2716    -2556    -2700    -3099    -3554    -3792 
   -3703    -3416    -3150    -3041    -3090    -3194    -3225    -3129 
   -2948    -2812    -2863    -3110    -3381    -3451    -3284    -3102 
   -3137    -3381    -3654    -3780    -3707    -3493    -3246    -3076 
   -3078    -3265    -3531    -3707    -3713    -3619    -3528    -3472 
   -3438    -3433    -3447    -3393    -3176    -2882    -2740    -2841 
   -3014    -3051    -2926    -2782    -2748    -2832    -2979    -3152 
   -3330    -3468    -3493    -3389    -3221    -3090    -3073    -3150 
   -3227    -3275    -3350    -3514    -3750    -3971    -4062    -3951 
   -3657    -3288    -3013    -2930    -2992    -3067    -3045    -2911 
   -2756    -2717    -2847    -3051    -3218    -3356    -3489    -3564 
   -3531    -3395    -3171    -2933    -2829    -2905    -3065    -3233 
   -3381    -3485    -3516    -3505    -3542    -3655    -3735    -3631 
   -3339    -3021    -2829    -2828    -3029    -3302    -3415    -3306 
   -3136    -3110    -3304    -3601    -3789    -3743    -3503    -3203 
   -2975    -2906    -3006    -3180    -3294    -3280    -3186    -3132 
   -3161    -3181    -3137    -3080    -3013    -2876    -2710    -2681 
   -2889    -3213    -3368    -3183    -2802    -2563    -2673    -3071 
   -3561    -3935    -4116    -4175    -4198    -4207    -4244    -4340 
   -4371    -4104    -3493    -2799    -2366    -2370    -2671    -2936 
   -2959    -2808    -2682    -2697    -2825    -2951    -2983    -2934 
   -2882    -2932    -3186    -3588    -3888    -3866    -3580    -3311 
   -3281    -3468    -3669    -3678    -3450    -3105    -2806    -2663 
   -2651    -2656    -2608    -2542    -2517    -2528    -2544    -2605 
   -2745    -2898    -3001    -3071    -3136    -3241    -3460    -3821 
   -4241    -4550    -4612    -4410    -4031    -3630    -3337    -3192 
   -3152    -3099    -2972    -2806    -2648    -2527    -2486    -2566 
   -2727    -2876    -2940    -2897    -2812    -2833    -3053    -3360 
   -3550    -3547    -3456    -3466    -3676    -4005    -4287    -4365 
   -4166    -3784    -3473    -3420    -3542    -3622    -3553    -3357 
   -3119    -2913    -2748    -2609    -2529    -2569    -2708    -2878 
   -3049    -3214    -3346    -3400    -3370    -3360    -3520    -3866 
   -4233    -4473    -4563    -4487    -4212    -3755    -3244    -2851 
   -2685    -2704    -2733    -2614    -2305    -1915    -1629    -1594 
   -1842    -2281    -2733    -3018    -3079    -3061    -3180    -3538 
   -4070    -4581    -4830    -4695    -4293    -3878    -3628    -3551 
   -3557    -3508    -3295    -2940    -2581    -2363    -2344    -2462 
   -2589    -2623    -2550    -2423    -2363    -2511    -2914    -3488 
   -4064    -4475    -4619    -4522    -4336    -4214    -4194    -4197 
   -4068    -3682    -3068    -2444    -2103    -2161    -2428    -2637 
   -2735    -2793    -2814    -2741    -2569    -2381    -2317    -2443 
   -2686    -2972    -3267    -3497    -3584    -3527    -3441    -3433 
   -3507    -3578    -3543    -3391    -3230    -3142    -3148    -3241 
   -3384    -3527    -3650    -3769    -3824    -3680    -3312    -2905 
   -2670    -2659    -2760    -2886    -3040    -3195    -3273    -3242 
   -3165    -3119    -3118    -3168    -3289    -3477    -3670    -3788 
   -3793    -3709    -3568    -3419    -3337    -3364    -3519    -3753 
   -3937    -4008    -4004    -3947    -3778    -3501    -3234    -3051 
   -2925    -2778    -2571    -2389    -2303    -2299    -2390    -2636 
   -3005    -3376    -3651    -3784    -3773    -3712    -3688    -3704 
   -3755    -3836    -3893    -3890    -3842    -3766    -3643    -3423 
   -3106    -2843    -2813    -2978    -3122    -3163    -3138    -3049 
   -2902    -2743    -2644    -2683    -2868    -3137    -3383    -3578 
   -3786    -3969    -4001    -3848    -3577    -3306    -3090    -2909 
   -2793    -2820    -2992    -3175    -3254    -3269    -3280    -3325 
   -3393    -3372    -3180    -2911    -2714    -2664    -2718    -2791 
   -2825    -2872    -3064    -3429    -3820    -4020    -3894    -3558 
   -3262    -3172    -3335    -3613    -3726    -3501    -3064    -2752 
   -2808    -3136    -3461    -3592    -3493    -3191    -2783    -2482 
   -2500    -2839    -3268    -3576    -3689    -3600    -3337    -3001 
   -2713    -2589    -2673    -2870    -3059    -3213    -3377    -3581 
   -3790    -3962    -4033    -3915    -3626    -3285    -3025    -2940 
   -3018    -3191    -3418    -3654    -3800    -3790    -3649    -3450 
   -3267    -3106    -2933    -2766    -2671    -2646    -2602    -2493 
   -2401    -2479    -2747    -3068    -3268    -3223    -2997    -2828 
   -2940    -3365    -3878    -4144    -4001    -3570    -3130    -2934 
   -3041    -3279    -3415    -3338    -3107    -2895    -2874    -3038 
   -3219    -3279    -3207    -3036    -2798    -2597    -2565    -2772 
   -3168    -3580    -3817    -3792    -3550    -3261    -3129    -3227 
   -3426    -3520    -3420    -3183    -2947    -2802    -2752    -2805 
   -2925    -3014    -3041    -3091    -3231    -3445    -3658    -3786 
   -3793    -3731    -3724    -3861    -4075    -4183    -3998    -3489 
   -2867    -2454    -2419    -2693    -3079    -3376    -3446    -3277 
   -2976    -2695    -2552    -2517    -2516    -2596    -2829    -3175 
   -3523    -3820    -4010    -4014    -3825    -3550    -3341    -3299 
   -3412    -3580    -3677    -3622    -3423    -3144    -2905    -2830 
   -2920    -3052    -3084    -2967    -2810    -2779    -2897    -3044 
   -3123    -3125    -3052    -2918    -2801    -2802    -2933    -3079 
   -3114    -3018    -2906    -2934    -3137    -3400    -3609    -3754 
   -3878    -3987    -4040    -4004    -3910    -3786    -3626    -3442 
   -3289    -3208    -3200    -3241    -3271    -3230    -3144    -3044 
   -2899    -2745    -2728    -2906    -3136    -3214    -3123    -3046 
   -3150    -3456    -3821    -4044    -4017    -3774    -3412    -3042 
   -2774    -2674    -2764    -2975    -3171    -3299    -3385    -3420 
   -3384    -3314    -3254    -3214    -3186    -3163    -3146    -3172 
   -3284    -3465    -3615    -3634    -3507    -3306    -3164    -3218 
   -3469    -3728    -3777    -3520    -3064    -2664    -2538    -2713 
   -3064    -3373    -3447    -3249    -2917    -2693    -2744    -3056 
   -3442    -3676    -3639    -3397    -3122    -2984    -3068    -3323 
   -3609    -3804    -3840    -3731    -3562    -3435    -3403    -3457 
   -3532    -3534    -3430    -3294    -3167    -3034    -2917    -2832 
   -2751    -2689    -2714    -2867    -3117    -3389    -3569    -3570 
   -3439    -3310    -3264    -3310    -3376    -3337    -3127    -2835 
   -2652    -2717    -2999    -3337    -3531    -3491    -3319    -3190 
   -3207    -3360    -3527    -3585    -3496    -3314    -3141    -3076 
   -3153    -3280    -3321    -3319    -3427    -3651    -3832    -3809 
   -3555    -3210    -2982    -2949    -3030    -3148    -3275    -3383 
   -3446    -3457    -3404    -3280    -3123    -3032    -3084    -3245 
   -3404    -3445    -3308    -3073    -2893    -2874    -2997    -3136 
   -3180    -3142    -3126    -3213    -3373    -3469    -3357    -3049 
   -2759    -2724    -2951    -3235    -3373    -3308    -3154    -3132 
   -3387    -3861    -4318    -4514    -4349    -3939    -3518    -3280 
   -3269    -3334    -3260    -2984    -2640    -2415    -2420    -2629 
   -2863    -2917    -2772    -2602    -2575    -2732    -3007    -3279 
   -3414    -3388    -3379    -3611    -4094    -4545    -4675    -4449 
   -4040    -3646    -3380    -3219    -3080    -2940    -2843    -2801 
   -2767    -2700    -2621    -2575    -2569    -2593    -2659    -2752 
   -2813    -2817    -2851    -3011    -3245    -3375    -3333    -3277 
   -3396    -3731    -4144    -4402    -4360    -4070    -3711    -3481 
   -3462    -3520    -3410    -3028    -2542    -2239    -2286    -2594 
   -2906    -3034    -2992    -2889    -2814    -2860    -3072    -3335 
   -3483    -3503    -3474    -3429    -3375    -3342    -3372    -3453 
   -3512    -3505    -3435    -3323    -3186    -3018    -2841    -2751 
   -2837    -3088    -3385    -3604    -3684    -3634    -3496    -3310 
