Origin Time       2024/04/02 04:24:00
Lat.              40.133
Long.             141.712
Depth. (km)       71
Mag.              6.0
Station Code      HKD180
Station Lat.      43.1391
Station Long.     141.3513
Station Height(m) 3
Record Time       2024/04/02 04:26:00
Sampling Freq(Hz) 100Hz
Duration Time(s)  66
Dir.              N-S
Scale Factor      7845(gal)/8223790
Max. Acc. (gal)   1.879
Last Correction   2024/04/02 04:26:01
Memo.             
[...]
    8768     8710     8739     8838     8949     9040     9112     9142 
    9113     9082     9104     9151     9174     9162     9116     9053 
    9004     8993     9026     9078     9100     9085     9061     9035 
    9022     9022     9011     8988     8977     8992     9013     9012 
    9008     9032     9070     9090     9090     9081     9090     9123 
    9116     9034     8927     8861     8856     8895     8945     8988 
    9030     9084     9128     9143     9165     9211     9262     9281 
    9228     9121     9005     8907     8865     8881     8900     8916 
    8954     8988     9013     9073     9157     9216     9228     9204 
    9171     9147     9139     9130     9094     9062     9059     9045 
    8997     8965     8964     8988     9022     9027     9001     8984 
    8957     8887     8804     8764     8791     8896     9030     9121 
    9198     9316     9436     9513     9537     9497     9413     9356 
    9328     9274     9188     9085     8978     8881     8795     8726 
    8683     8665     8669     8683     8696     8706     8719     8757 
    8804     8808     8788     8799     8864     8962     9055     9096 
    9077     9023     8935     8835     8802     8860     8949     9020 
    9059     9057     9042     9066     9126     9173     9188     9194 
    9209     9219     9198     9144     9088     9054     9030     9003 
    8977     8950     8941     8965     9007     9045     9066     9066 
    9067     9084     9076     9020     8957     8928     8958     9035 
    9096     9119     9143     9173     9178     9171     9192     9248 
    9333     9414     9429     9359     9267     9216     9205     9194 
    9166     9128     9096     9070     9004     8878     8772     8733 
    8719     8692     8660     8641     8653     8691     8727     8758 
    8783     8806     8849     8923     8986     9007     9005     9013 
    9015     8991     8958     8927     8889     8866     8858     8829 
    8776     8735     8741     8802     8880     8928     8943     8950 
    8993     9074     9146     9177     9178     9158     9130     9109 
    9101     9112     9154     9202     9209     9162     9113     9108 
    9130     9147     9175     9217     9242     9247     9240     9211 
    9177     9178     9196     9189     9153     9103     9070     9080 
    9094     9082     9055     9005     8939     8903     8920     8980 
    9054     9105     9108     9073     9049     9078     9166     9273 
    9363     9437     9474     9456     9400     9319     9231     9166 
    9117     9077     9049     9001     8942     8912     8910     8911 
    8915     8922     8926     8920     8903     8901     8943     8995 
    9032     9042     8982     8880     8818     8810     8854     8957 
    9047     9088     9115     9143     9170     9198     9194     9144 
    9113     9138     9169     9147     9059     8947     8860     8807 
    8766     8731     8731     8810     8946     9051     9076     9059 
    9073     9127     9163     9161     9180     9258     9363     9436 
    9435     9405     9439     9521     9560     9526     9440     9364 
    9383     9458     9483     9441     9369     9273     9167     9055 
    8927     8824     8796     8792     8746     8677     8621     8581 
    8580     8619     8664     8710     8781     8864     8935     9001 
    9067     9123     9148     9132     9070     8982     8907     8853 
    8810     8766     8727     8692     8654     8625     8615     8607 
    8588     8568     8563     8579     8600     8615     8623     8638 
    8689     8781     8878     8966     9043     9111     9171     9212 
    9221     9221     9225     9207     9148     9076     8999     8945 
    8962     9053     9161     9247     9315     9354     9360     9331 
    9263     9173     9081     8995     8926     8900     8927     8973 
    9015     9058     9119     9196     9274     9335     9366     9377 
    9383     9412     9467     9509     9482     9378     9246     9132 
    9070     9046     9031     9003     8957     8911     8872     8824 
    8769     8729     8722     8737     8754     8766     8777     8816 
    8883     8919     8916     8923     8937     8924     8889     8858 
    8850     8878     8930     8973     8978     8935     8891     8896 
    8927     8943     8947     8965     8991     9004     8999     8973 
    8924     8877     8865     8884     8903     8922     8970     9049 
    9127     9184     9217     9270     9379     9499     9564     9590 
    9620     9660     9705     9736     9698     9590     9489     9433 
    9397     9344     9255     9147     9084     9066     9043     9009 
    8972     8922     8891     8897     8911     8911     8884     8819 
    8742     8694     8699     8750     8824     8885     8914     8911 
    8912     8947     8997     9027     9030     9020     9020     9043 
    9074     9086     9051     8981     8924     8889     8843     8788 
    8734     8679     8634     8618     8637     8683     8731     8749 
    8730     8730     8788     8905     9054     9174     9217     9193 
    9167     9198     9269     9312     9302     9266     9231     9197 
    9163     9138     9099     9023     8938     8866     8838     8887 
    9000     9112     9177     9201     9234     9300     9367     9408 
    9418     9414     9412     9414     9396     9319     9211     9127 
    9085     9085     9108     9128     9138     9157     9209     9290 
    9359     9381     9348     9306     9312     9332     9315     9273 
    9221     9150     9063     8982     8911     8850     8812     8789 
    8756     8702     8646     8623     8642     8691     8764     8866 
    8989     9099     9165     9169     9121     9069     9046     9040 
    9028     8995     8918     8812     8723     8653     8617     8648 
    8725     8792     8830     8850     8870     8899     8922     8931 
    8930     8914     8883     8847     8824     8819     8834     8872 
    8923     8959     8969     8958     8922     8887     8918     9005 
    9093     9170     9224     9239     9223     9201     9180     9157 
    9138     9131     9134     9134     9115     9074     9026     8985 
    8946     8903     8884     8915     8980     9040     9072     9076 
    9074     9080     9084     9063     9030     9004     8997     9009 
    9030     9040     9036     9013     9007     9055     9143     9232 
    9288     9300     9283     9247     9182     9105     9043     9001 
    8992     9008     9003     8984     8985     8992     8984     8968 
    8941     8911     8896     8876     8835     8803     8787     8789 
    8826     8870     8881     8856     8834     8870     8985     9146 
    9292     9371     9375     9339     9308     9329     9397     9450 
    9440     9371     9252     9126     9051     9026     9008     9005 
    9030     9053     9063     9077     9096     9115     9131     9135 
    9108     9074     9069     9066     9057     9065     9077     9069 
    9027     8942     8837     8762     8741     8754     8781     8816 
    8858     8901     8950     9004     9031     9003     8946     8915 
    8926     8976     9049     9105     9115     9094     9077     9061 
    9059     9090     9132     9155     9139     9074     8968     8865 
    8814     8820     8864     8941     9036     9124     9215     9313 
    9383     9414     9436     9455     9463     9456     9427     9381 
    9352     9358     9378     9369     9312     9234     9169     9150 
    9167     9185     9181     9157     9096     8999     8905     8847 
    8822     8824     8835     8827     8811     8812     8824     8831 
    8823     8815     8827     8851     8869     8889     8915     8947 
    8980     8985     8961     8946     8961     8996     9038     9051 
    9022     8995     9003     9024     9050     9084     9113     9127 
    9120     9116     9136     9154     9148     9119     9062     9003 
    8964     8919     8864     8831     8827     8815     8795     8789 
    8808     8861     8931     8955     8912     8866     8870     8911 
    8972     9020     9024     9013     9001     8951     8872     8808 
    8787     8820     8874     8897     8891     8881     8888     8934 
    8999     9039     9034     8991     8954     8969     9016     9053 
    9062     9016     8923     8846     8814     8816     8849     8878 
    8899     8934     8989     9065     9163     9262     9328     9343 
    9309     9283     9308     9347     9356     9331     9271     9216 
    9212     9228     9205     9157     9127     9136     9170     9212 
    9251     9274     9262     9197     9084     8989     8976     9024 
    9080     9094     9047     8981     8945     8928     8918     8919 
    8932     8966     9022     9088     9148     9202     9254     9305 
    9347     9366     9352     9304     9224     9138     9053     8985 
    8950     8927     8880     8808     8748     8725     8719     8691 
    8654     8672     8775     8911     9004     9028     9003     8969 
    8973     9011     9049     9093     9144     9186     9215     9242 
    9279     9327     9320     9224     9105     9059     9112     9211 
    9266     9248     9200     9163     9150     9146     9121     9065 
    8995     8932     8897     8893     8904     8910     8899     8884 
    8884     8893     8900     8915     8950     9001     9061     9104 
    9090     9022     8923     8815     8716     8644     8596     8584 
    8596     8604     8598     8606     8667     8764     8850     8918 
    8973     9040     9148     9262     9296     9247     9171     9097 
    9039     9012     9013     9039     9082     9111     9089     9020 
    8961     8980     9062     9147     9188     9182     9159     9142 
    9116     9073     9049     9065     9111     9151     9153     9124 
    9099     9084     9080     9090     9113     9123     9103     9080 
    9093     9151     9232     9321     9387     9396     9379     9397 
    9433     9444     9423     9385     9335     9261     9158     9063 
    9011     8969     8928     8905     8876     8816     8753     8716 
    8711     8731     8780     8849     8908     8945     8968     8995 
    9024     9045     9055     9082     9147     9197     9181     9121 
    9065     9031     9026     9036     9039     9023     8999     8996 
    9024     9055     9073     9100     9123     9111     9086     9076 
    9065     9049     9026     9015     9047     9104     9154     9197 
    9215     9196     9181     9193     9217     9217     9171     9111 
    9070     9051     9047     9047     9035     9031     9051     9088 
    9138     9167     9146     9104     9074     9050     9035     9020 
    8986     8938     8887     8831     8789     8792     8849     8938 
    9027     9090     9134     9165     9186     9188     9139     9032 
    8915     8847     8826     8808     8806     8849     8919     8955 
    8923     8857     8815     8830     8884     8916     8881     8800 
    8722     8664     8619     8617     8680     8797     8938     9054 
    9108     9128     9178     9252     9301     9302     9239     9138 
    9086     9126     9198     9255     9293     9331     9375     9400 
    9386     9340     9278     9207     9135     9085     9070     9070 
    9059     9022     8950     8865     8819     8829     8843     8845 
    8865     8907     8924     8888     8803     8712     8677     8730 
    8850     8991     9105     9177     9227     9263     9275     9248 
    9166     9038     8885     8719     8584     8510     8459     8406 
    8387     8406     8415     8392     8360     8340     8355     8433 
    8564     8714     8850     8955     9043     9116     9147     9138 
    9132     9150     9185     9228     9256     9240     9143     8959 
    8762     8648     8617     8635     8710     8820     8930     9036 
    9140     9205     9223     9224     9244     9306     9414     9537 
    9620     9628     9556     9431     9304     9217     9170     9166 
    9231     9346     9436     9464     9439     9383     9333     9301 
    9248     9175     9139     9146     9161     9169     9142     9066 
    8997     8985     8991     8965     8932     8914     8922     8974 
    9043     9080     9072     9032     8965     8899     8873     8900 
    8966     9053     9143     9212     9252     9270     9258     9212 
    9170     9173     9219     9254     9220     9100     8926     8756 
    8623     8536     8500     8530     8637     8834     9099     9364 
    9587     9756     9857     9888     9884     9873     9863     9841 
    9792     9688     9517     9300     9097     8957     8881     8860 
    8888     8964     9061     9166     9275     9381     9467     9505 
    9475     9413     9364     9363     9428     9537     9625     9617 
    9482     9242     8914     8544     8218     7986     7850     7807 
    7821     7844     7863     7896     7965     8101     8301     8507 
    8669     8779     8846     8857     8787     8633     8419     8195 
    8037     8014     8118     8280     8452     8644     8851     9054 
    9242     9402     9525     9617     9670     9702     9732     9725 
    9672     9630     9618     9617     9618     9602     9553     9479 
    9383     9255     9094     8923     8789     8729     8733     8783 
    8903     9093     9300     9481     9640     9783     9902     9973 
    9963     9853     9699     9616     9675     9852    10071    10253 
   10350    10361    10278    10069     9749     9389     9011     8610 
    8203     7804     7439     7177     7065     7105     7269     7518 
    7804     8108     8432     8769     9090     9356     9518     9548 
    9486     9387     9252     9063     8847     8641     8455     8309 
    8228     8203     8193     8156     8064     7909     7727     7577 
    7473     7400     7369     7422     7584     7836     8120     8364 
    8550     8712     8914     9196     9548     9941    10327    10636 
   10831    10921    10922    10874    10789    10643    10427    10181 
    9953     9742     9535     9337     9165     9030     8943     8883 
    8837     8833     8883     9001     9207     9478     9760     9985 
   10089    10041     9898     9768     9722     9737     9737     9659 
    9493     9281     9100     9026     9109     9333     9606     9821 
    9903     9818     9562     9189     8811     8523     8359     8289 
    8260     8236     8228     8270     8363     8487     8583     8602 
    8581     8573     8614     8741     8945     9157     9331     9454 
    9525     9543     9505     9409     9262     9082     8897     8722 
    8556     8415     8320     8256     8195     8117     8036     7994 
    8020     8125     8286     8421     8480     8496     8530     8631 
    8846     9165     9517     9822    10006    10026     9913     9725 
    9508     9302     9119     8939     8797     8758     8838     8995 
    9173     9313     9387     9425     9467     9522     9591     9660 
    9697     9679     9589     9401     9123     8815     8552     8340 
    8125     7902     7749     7747     7904     8152     8414     8648 
    8874     9154     9487     9788     9988    10099    10138    10083 
    9930     9705     9436     9181     8991     8856     8746     8661 
    8614     8606     8610     8581     8510     8421     8332     8247 
    8164     8109     8120     8222     8403     8614     8780     8842 
    8789     8664     8546     8517     8595     8756     8955     9117 
    9194     9247     9363     9544     9737     9903    10018    10066 
   10061    10022     9949     9857     9805     9830     9892     9900 
    9792     9582     9344     9169     9090     9085     9115     9142 
    9147     9186     9297     9454     9616     9745     9811     9791 
    9668     9468     9265     9099     8962     8849     8750     8679 
    8648     8646     8629     8540     8367     8179     8075     8120 
    8299     8522     8692     8777     8816     8864     8951     9054 
    9120     9107     9003     8845     8735     8758     8901     9077 
    9162     9082     8889     8700     8580     8560     8648     8810 
    9020     9285     9568     9822    10037    10195    10268    10235 
   10077     9807     9491     9186     8920     8696     8509     8372 
    8311     8329     8437     8625     8851     9092     9347     9612 
    9861    10033    10108    10147    10196    10246    10265    10200 
   10019     9763     9482     9213     8991     8810     8634     8457 
    8299     8193     8171     8240     8345     8406     8388     8320 
    8230     8129     8037     7947     7834     7708     7614     7569 
    7596     7712     7901     8116     8329     8527     8696     8845 
    8988     9094     9105     8999     8784     8514     8271     8143 
    8163     8301     8492     8677     8830     8957     9085     9242 
    9437     9640     9798     9886     9913     9891     9856     9844 
    9844     9818     9744     9636     9568     9603     9707     9806 
    9859     9861     9829     9786     9729     9624     9441     9175 
    8870     8611     8487     8533     8726     9024     9360     9632 
    9779     9799     9728     9639     9575     9522     9448     9335 
    9197     9072     8970     8888     8815     8745     8696     8699 
    8765     8881     9007     9082     9093     9070     9049     9050 
    9081     9119     9108     9008     8811     8534     8228     7986 
    7885     7882     7896     7916     7951     8000     8085     8220 
    8395     8635     8955     9313     9618     9783     9780     9639 
    9448     9312     9267     9283     9310     9315     9288     9251 
    9244     9298     9408     9516     9568     9558     9525     9541 
    9618     9680     9656     9514     9292     9074     8897     8730 
    8594     8541     8592     8746     8969     9162     9252     9243 
    9157     9030     8919     8847     8811     8799     8746     8607 
    8418     8241     8124     8104     8195     8370     8567     8743 
    8873     8942     8949     8934     8949     9016     9108     9177 
    9201     9202     9212     9236     9271     9296     9273     9193 
    9099     9042     9031     9036     9022     8928     8730     8478 
    8275     8199     8272     8478     8766     9065     9325     9539 
    9687     9756     9749     9703     9664     9640     9599     9491 
    9315     9119     8954     8872     8872     8903     8946     9018 
    9103     9186     9254     9282     9274     9251     9248     9308 
    9413     9502     9543     9531     9486     9451     9451     9475 
    9468     9383     9228     9042     8837     8622     8430     8260 
    8089     7919     7781     7711     7749     7904     8155     8460 
    8761     9015     9221     9385     9510     9620     9715     9790 
    9844     9849     9771     9607     9406     9216     9072     8989 
    8953     8934     8919     8889     8814     8694     8563     8442 
    8367     8390     8526     8741     8988     9209     9381     9537 
    9698     9856    10014    10152    10226    10222    10111     9868 
    9512     9096     8687     8345     8104     7970     7933     7967 
    8051     8195     8399     8635     8869     9066     9216     9354 
    9509     9664     9779     9844     9873     9872     9846     9795 
    9702     9579     9487     9464     9475     9431     9271     9023 
