Origin Time       2024/04/02 04:24:00
Lat.              40.133
Long.             141.712
Depth. (km)       71
Mag.              6.0
Station Code      HKD181
Station Lat.      43.1161
Station Long.     141.5462
Station Height(m) 8
Record Time       2024/04/02 04:25:59
Sampling Freq(Hz) 100Hz
Duration Time(s)  70
Dir.              E-W
Scale Factor      7845(gal)/8223790
Max. Acc. (gal)   2.442
Last Correction   2024/04/02 04:26:00
Memo.             
[...]
   -6606    -6609    -6597    -6566    -6502    -6421    -6350    -6312 
   -6318    -6347    -6377    -6389    -6374    -6340    -6297    -6246 
   -6191    -6145    -6124    -6147    -6201    -6257    -6305    -6361 
   -6427    -6498    -6566    -6629    -6690    -6740    -6777    -6809 
   -6840    -6878    -6933    -7005    -7075    -7126    -7140    -7105 
   -7021    -6901    -6767    -6632    -6501    -6393    -6328    -6309 
   -6324    -6347    -6347    -6309    -6247    -6170    -6093    -6031 
   -5998    -6004    -6060    -6156    -6266    -6373    -6486    -6619 
   -6740    -6817    -6847    -6852    -6826    -6768    -6702    -6643 
   -6601    -6579    -6574    -6582    -6598    -6613    -6624    -6617 
   -6577    -6509    -6439    -6384    -6345    -6316    -6292    -6262 
   -6226    -6199    -6184    -6180    -6191    -6222    -6278    -6369 
   -6485    -6604    -6706    -6783    -6826    -6833    -6813    -6779 
   -6740    -6710    -6704    -6717    -6751    -6789    -6795    -6755 
   -6679    -6582    -6482    -6394    -6323    -6266    -6228    -6212 
   -6215    -6238    -6274    -6304    -6318    -6331    -6346    -6354 
   -6366    -6394    -6438    -6494    -6565    -6654    -6766    -6878 
   -6970    -7030    -7056    -7049    -7003    -6920    -6828    -6762 
   -6723    -6706    -6710    -6709    -6681    -6617    -6528    -6421 
   -6304    -6181    -6062    -5972    -5935    -5957    -6023    -6096 
   -6160    -6220    -6281    -6345    -6401    -6440    -6478    -6527 
   -6589    -6664    -6737    -6795    -6831    -6840    -6818    -6767 
   -6694    -6610    -6532    -6467    -6408    -6361    -6340    -6351 
   -6388    -6442    -6502    -6570    -6627    -6647    -6624    -6571 
   -6493    -6399    -6332    -6328    -6372    -6431    -6486    -6534 
   -6583    -6623    -6636    -6640    -6647    -6643    -6624    -6601 
   -6583    -6570    -6563    -6571    -6597    -6616    -6621    -6625 
   -6628    -6629    -6635    -6628    -6589    -6528    -6463    -6396 
   -6335    -6295    -6280    -6277    -6273    -6257    -6224    -6195 
   -6192    -6222    -6278    -6362    -6471    -6593    -6700    -6770 
   -6801    -6794    -6760    -6713    -6655    -6596    -6566    -6575 
   -6589    -6589    -6593    -6610    -6616    -6585    -6535    -6493 
   -6466    -6450    -6435    -6408    -6373    -6342    -6322    -6311 
   -6301    -6301    -6316    -6334    -6346    -6359    -6376    -6396 
   -6423    -6448    -6471    -6497    -6524    -6543    -6555    -6561 
   -6556    -6556    -6575    -6623    -6686    -6748    -6806    -6860 
   -6893    -6891    -6867    -6832    -6795    -6770    -6762    -6758 
   -6747    -6728    -6701    -6664    -6628    -6582    -6527    -6478 
   -6447    -6421    -6400    -6390    -6389    -6378    -6362    -6339 
   -6300    -6254    -6226    -6227    -6253    -6286    -6313    -6338 
   -6359    -6377    -6397    -6423    -6465    -6531    -6598    -6644 
   -6660    -6631    -6551    -6451    -6354    -6257    -6172    -6123 
   -6126    -6157    -6197    -6246    -6296    -6343    -6392    -6444 
   -6486    -6513    -6525    -6539    -6571    -6617    -6663    -6708 
   -6766    -6839    -6901    -6932    -6934    -6905    -6848    -6778 
   -6720    -6690    -6685    -6690    -6701    -6705    -6701    -6709 
   -6733    -6754    -6747    -6725    -6712    -6702    -6685    -6679 
   -6683    -6679    -6656    -6615    -6559    -6493    -6420    -6345 
   -6276    -6228    -6208    -6196    -6189    -6196    -6220    -6249 
   -6288    -6346    -6409    -6451    -6467    -6473    -6471    -6475 
   -6502    -6543    -6567    -6555    -6513    -6451    -6380    -6328 
   -6316    -6334    -6373    -6426    -6473    -6505    -6532    -6551 
   -6551    -6519    -6467    -6409    -6353    -6309    -6292    -6305 
   -6328    -6353    -6380    -6392    -6397    -6413    -6435    -6458 
   -6490    -6529    -6563    -6590    -6617    -6636    -6654    -6679 
   -6714    -6759    -6824    -6907    -6987    -7034    -7033    -6995 
   -6937    -6880    -6841    -6813    -6779    -6748    -6727    -6691 
   -6640    -6583    -6528    -6462    -6388    -6319    -6262    -6218 
   -6184    -6162    -6158    -6170    -6178    -6178    -6180    -6187 
   -6200    -6212    -6231    -6265    -6301    -6334    -6367    -6403 
   -6431    -6462    -6501    -6527    -6515    -6470    -6417    -6373 
   -6335    -6300    -6277    -6270    -6286    -6332    -6400    -6481 
   -6567    -6633    -6671    -6682    -6671    -6655    -6650    -6652 
   -6664    -6687    -6708    -6727    -6751    -6779    -6808    -6826 
   -6810    -6752    -6679    -6617    -6566    -6527    -6515    -6517 
   -6525    -6538    -6551    -6554    -6542    -6508    -6462    -6419 
   -6386    -6354    -6318    -6293    -6292    -6320    -6373    -6434 
   -6498    -6565    -6612    -6636    -6652    -6659    -6659    -6669 
   -6697    -6740    -6795    -6849    -6879    -6859    -6794    -6704 
   -6597    -6488    -6400    -6339    -6293    -6270    -6276    -6307 
   -6359    -6408    -6434    -6432    -6417    -6393    -6362    -6327 
   -6307    -6316    -6346    -6390    -6432    -6454    -6446    -6426 
   -6423    -6440    -6470    -6486    -6465    -6428    -6403    -6394 
   -6411    -6461    -6540    -6624    -6685    -6714    -6716    -6687 
   -6639    -6578    -6521    -6484    -6461    -6444    -6434    -6438 
   -6455    -6481    -6508    -6521    -6525    -6525    -6527    -6524 
   -6519    -6512    -6502    -6492    -6484    -6481    -6498    -6544 
   -6605    -6659    -6696    -6710    -6697    -6667    -6631    -6588 
   -6542    -6508    -6488    -6486    -6504    -6531    -6548    -6536 
   -6484    -6401    -6324    -6277    -6259    -6255    -6258    -6269 
   -6292    -6326    -6359    -6386    -6403    -6409    -6411    -6411 
   -6417    -6444    -6494    -6561    -6643    -6721    -6764    -6767 
   -6747    -6731    -6727    -6739    -6741    -6710    -6655    -6597 
   -6551    -6527    -6516    -6511    -6504    -6485    -6457    -6431 
   -6420    -6419    -6427    -6444    -6463    -6485    -6505    -6523 
   -6539    -6550    -6539    -6519    -6502    -6497    -6500    -6509 
   -6534    -6582    -6636    -6669    -6666    -6631    -6569    -6482 
   -6382    -6299    -6251    -6238    -6251    -6286    -6336    -6396 
   -6454    -6493    -6509    -6513    -6529    -6569    -6633    -6710 
   -6793    -6871    -6933    -6968    -6975    -6955    -6924    -6880 
   -6821    -6754    -6689    -6628    -6571    -6524    -6480    -6435 
   -6396    -6362    -6330    -6301    -6277    -6255    -6239    -6228 
   -6234    -6269    -6320    -6367    -6404    -6439    -6475    -6517 
   -6569    -6623    -6669    -6700    -6696    -6667    -6644    -6629 
   -6621    -6619    -6609    -6592    -6578    -6575    -6581    -6598 
   -6635    -6678    -6708    -6710    -6679    -6624    -6567    -6531 
   -6519    -6511    -6500    -6490    -6482    -6485    -6508    -6540 
   -6561    -6556    -6520    -6454    -6378    -6312    -6262    -6242 
   -6261    -6328    -6440    -6565    -6663    -6728    -6759    -6751 
   -6701    -6627    -6540    -6448    -6367    -6305    -6262    -6259 
   -6303    -6358    -6397    -6403    -6357    -6269    -6162    -6053 
   -5967    -5931    -5948    -6006    -6092    -6193    -6299    -6390 
   -6457    -6501    -6534    -6563    -6598    -6636    -6682    -6747 
   -6832    -6914    -6972    -7006    -7020    -6995    -6902    -6744 
   -6556    -6369    -6205    -6085    -6031    -6064    -6172    -6319 
   -6458    -6559    -6610    -6616    -6585    -6527    -6461    -6420 
   -6426    -6475    -6558    -6667    -6801    -6939    -7034    -7053 
   -6990    -6874    -6743    -6619    -6524    -6461    -6420    -6413 
   -6444    -6498    -6559    -6616    -6658    -6663    -6615    -6515 
   -6380    -6218    -6039    -5872    -5755    -5709    -5726    -5791 
   -5888    -6003    -6122    -6232    -6336    -6436    -6540    -6648 
   -6763    -6886    -7001    -7092    -7161    -7192    -7165    -7084 
   -6972    -6853    -6736    -6616    -6511    -6453    -6444    -6482 
   -6565    -6650    -6697    -6691    -6643    -6577    -6512    -6451 
   -6400    -6354    -6308    -6277    -6288    -6358    -6475    -6613 
   -6747    -6848    -6893    -6885    -6839    -6764    -6662    -6556 
   -6478    -6447    -6458    -6494    -6539    -6577    -6586    -6555 
   -6486    -6401    -6323    -6259    -6216    -6205    -6222    -6239 
   -6246    -6247    -6250    -6259    -6292    -6347    -6401    -6434 
   -6442    -6424    -6380    -6318    -6254    -6220    -6238    -6312 
   -6427    -6571    -6741    -6928    -7109    -7254    -7356    -7415 
   -7437    -7422    -7385    -7331    -7252    -7142    -7007    -6872 
   -6743    -6613    -6471    -6296    -6085    -5873    -5665    -5468 
   -5317    -5243    -5263    -5383    -5594    -5861    -6131    -6372 
   -6574    -6720    -6781    -6752    -6675    -6602    -6552    -6520 
   -6513    -6531    -6565    -6619    -6689    -6763    -6816    -6806 
   -6697    -6508    -6308    -6161    -6099    -6130    -6250    -6447 
   -6694    -6967    -7246    -7510    -7732    -7894    -7962    -7904 
   -7711    -7426    -7107    -6812    -6590    -6463    -6413    -6416 
   -6443    -6474    -6501    -6515    -6492    -6409    -6266    -6103 
   -5983    -5949    -6008    -6154    -6349    -6520    -6619    -6616 
   -6484    -6210    -5838    -5451    -5104    -4827    -4646    -4596 
   -4696    -4954    -5346    -5806    -6253    -6652    -7001    -7284 
   -7499    -7653    -7755    -7817    -7873    -7962    -8085    -8213 
   -8316    -8353    -8290    -8109    -7811    -7415    -6966    -6527 
   -6141    -5827    -5613    -5490    -5435    -5410    -5381    -5339 
   -5293    -5258    -5240    -5232    -5220    -5206    -5205    -5216 
   -5246    -5316    -5441    -5620    -5848    -6119    -6417    -6731 
   -7069    -7410    -7692    -7875    -7955    -7944    -7867    -7728 
   -7535    -7325    -7130    -6987    -6922    -6937    -7017    -7132 
   -7240    -7308    -7323    -7288    -7200    -7060    -6876    -6671 
   -6448    -6191    -5899    -5620    -5412    -5301    -5281    -5329 
   -5439    -5602    -5796    -6000    -6176    -6303    -6384    -6442 
   -6507    -6625    -6826    -7088    -7362    -7595    -7754    -7847 
   -7874    -7796    -7604    -7358    -7122    -6951    -6880    -6895 
   -6951    -6986    -6948    -6818    -6623    -6392    -6165    -5984 
   -5865    -5784    -5699    -5590    -5466    -5350    -5251    -5161 
   -5055    -4916    -4750    -4581    -4449    -4388    -4413    -4511 
   -4665    -4881    -5177    -5555    -5998    -6461    -6874    -7179 
   -7346    -7357    -7222    -7010    -6806    -6670    -6621    -6663 
   -6798    -7041    -7392    -7812    -8218    -8526    -8688    -8691 
   -8572    -8418    -8307    -8279    -8326    -8406    -8492    -8568 
   -8629    -8695    -8731    -8669    -8486    -8189    -7805    -7362 
   -6879    -6381    -5933    -5617    -5470    -5456    -5508    -5564 
   -5587    -5553    -5437    -5235    -4996    -4785    -4650    -4618 
   -4712    -4927    -5212    -5512    -5788    -6029    -6208    -6303 
   -6299    -6195    -6038    -5910    -5845    -5827    -5837    -5842 
   -5836    -5842    -5894    -5992    -6097    -6160    -6165    -6129 
   -6064    -5992    -5945    -5948    -6004    -6111    -6247    -6363 
   -6413    -6373    -6232    -6018    -5788    -5601    -5491    -5472 
   -5529    -5621    -5711    -5792    -5876    -5988    -6150    -6373 
   -6663    -7006    -7348    -7628    -7847    -8029    -8195    -8337 
   -8430    -8457    -8410    -8302    -8198    -8136    -8118    -8137 
   -8159    -8141    -8064    -7893    -7615    -7265    -6893    -6551 
   -6266    -6041    -5871    -5733    -5606    -5490    -5413    -5400 
   -5444    -5537    -5671    -5840    -6033    -6231    -6405    -6539 
   -6627    -6670    -6670    -6640    -6594    -6525    -6399    -6192 
   -5938    -5710    -5555    -5476    -5474    -5521    -5578    -5626 
   -5663    -5701    -5771    -5900    -6096    -6357    -6651    -6939 
   -7179    -7349    -7464    -7542    -7592    -7607    -7574    -7497 
   -7411    -7371    -7414    -7522    -7638    -7728    -7793    -7844 
   -7892    -7927    -7931    -7915    -7886    -7805    -7641    -7396 
   -7082    -6713    -6304    -5854    -5402    -4997    -4676    -4473 
   -4387    -4398    -4460    -4521    -4548    -4533    -4483    -4417 
   -4359    -4348    -4414    -4572    -4819    -5146    -5526    -5910 
   -6241    -6484    -6655    -6791    -6912    -7045    -7225    -7476 
   -7782    -8104    -8378    -8548    -8596    -8519    -8314    -8004 
   -7618    -7179    -6748    -6397    -6170    -6096    -6151    -6255 
   -6338    -6370    -6370    -6365    -6367    -6385    -6408    -6417 
   -6401    -6363    -6313    -6258    -6199    -6137    -6091    -6084 
   -6126    -6216    -6358    -6554    -6795    -7056    -7280    -7447 
   -7572    -7655    -7692    -7688    -7632    -7526    -7389    -7253 
   -7122    -7011    -6939    -6876    -6791    -6663    -6497    -6340 
   -6238    -6203    -6238    -6342    -6501    -6683    -6851    -6988 
   -7092    -7136    -7069    -6878    -6594    -6284    -6022    -5869 
   -5840    -5881    -5914    -5840    -5610    -5258    -4862    -4490 
   -4189    -3997    -3954    -4078    -4357    -4768    -5273    -5818 
   -6346    -6829    -7257    -7607    -7862    -8035    -8160    -8270 
   -8365    -8448    -8513    -8548    -8542    -8461    -8270    -7954 
   -7519    -7011    -6527    -6146    -5918    -5859    -5946    -6138 
   -6376    -6592    -6732    -6777    -6731    -6620    -6485    -6357 
   -6251    -6172    -6118    -6077    -6023    -5933    -5787    -5591 
   -5378    -5194    -5088    -5090    -5215    -5444    -5734    -6038 
   -6328    -6579    -6774    -6912    -7026    -7141    -7253    -7360 
   -7446    -7488    -7483    -7452    -7402    -7310    -7134    -6855 
   -6478    -6041    -5591    -5179    -4861    -4695    -4707    -4858 
   -5080    -5308    -5487    -5576    -5578    -5543    -5533    -5579 
   -5682    -5844    -6066    -6349    -6705    -7133    -7592    -8031 
   -8409    -8676    -8795    -8756    -8564    -8257    -7902    -7569 
   -7327    -7206    -7121    -6975    -6758    -6505    -6274    -6126 
   -6070    -6104    -6222    -6389    -6582    -6783    -6963    -7098 
   -7191    -7229    -7187    -7040    -6783    -6459    -6131    -5846 
   -5629    -5493    -5433    -5436    -5483    -5549    -5626    -5725 
   -5849    -6008    -6218    -6473    -6759    -7056    -7325    -7518 
   -7608    -7591    -7474    -7271    -6997    -6690    -6400    -6162 
   -6000    -5929    -5938    -5998    -6075    -6119    -6093    -5992 
   -5844    -5721    -5694    -5778    -5962    -6228    -6536    -6836 
   -7095    -7300    -7443    -7526    -7551    -7526    -7469    -7402 
   -7331    -7272    -7238    -7231    -7256    -7311    -7369    -7399 
   -7371    -7260    -7059    -6778    -6463    -6168    -5931    -5772 
   -5706    -5740    -5854    -6012    -6185    -6365    -6544    -6720 
   -6893    -7051    -7168    -7226    -7198    -7067    -6835    -6500 
   -6064    -5571    -5085    -4668    -4383    -4266    -4288    -4405 
   -4575    -4792    -5059    -5344    -5609    -5836    -6025    -6201 
   -6404    -6643    -6897    -7138    -7341    -7500    -7623    -7697 
   -7693    -7573    -7321    -6943    -6484    -6037    -5710    -5587 
   -5706    -6029    -6481    -6960    -7353    -7588    -7631    -7503 
   -7272    -7001    -6729    -6494    -6335    -6277    -6328    -6473 
   -6679    -6901    -7072    -7123    -7020    -6772    -6423    -6065 
   -5810    -5726    -5822    -6056    -6386    -6782    -7200    -7581 
   -7869    -8043    -8102    -8044    -7861    -7570    -7209    -6831 
   -6486    -6196    -5949    -5741    -5568    -5437    -5359    -5317 
   -5290    -5275    -5285    -5331    -5427    -5580    -5794    -6041 
   -6284    -6480    -6609    -6659    -6613    -6478    -6293    -6103 
   -5949    -5842    -5771    -5715    -5672    -5668    -5741    -5907 
   -6151    -6442    -6748    -7057    -7361    -7635    -7836    -7928 
   -7916    -7824    -7684    -7533    -7398    -7279    -7211    -7242 
   -7349    -7483    -7589    -7600    -7492    -7298    -7061    -6826 
   -6627    -6474    -6351    -6247    -6165    -6107    -6072    -6052 
   -6043    -6053    -6091    -6162    -6288    -6489    -6748    -7017 
   -7249    -7410    -7477    -7435    -7284    -7048    -6752    -6430 
   -6124    -5869    -5670    -5501    -5337    -5181    -5049    -4958 
   -4912    -4914    -4965    -5065    -5215    -5413    -5649    -5903 
   -6157    -6407    -6648    -6859    -7021    -7134    -7192    -7195 
   -7145    -7047    -6905    -6725    -6524    -6342    -6238    -6245 
   -6367    -6571    -6802    -7013    -7182    -7299    -7366    -7385 
   -7369    -7339    -7315    -7285    -7240    -7183    -7125    -7072 
   -7034    -7020    -7020    -7011    -6961    -6860    -6721    -6569 
   -6431    -6342    -6311    -6315    -6326    -6336    -6346    -6365 
   -6407    -6497    -6632    -6777    -6866    -6836    -6675    -6415 
   -6107    -5803    -5564    -5437    -5424    -5478    -5537    -5549 
   -5503    -5429    -5364    -5335    -5350    -5417    -5539    -5698 
   -5891    -6118    -6355    -6554    -6679    -6727    -6717    -6685 
   -6666    -6669    -6686    -6705    -6696    -6637    -6554    -6469 
   -6405    -6388    -6430    -6523    -6656    -6798    -6910    -6980 
   -7013    -7009    -6980    -6952    -6959    -7021    -7125    -7231 
   -7307    -7322    -7268    -7163    -7032    -6895    -6770    -6671 
   -6615    -6615    -6682    -6806    -6948    -7053    -7065    -6957 
   -6754    -6516    -6285    -6065    -5861    -5698    -5607    -5611 
   -5695    -5841    -6038    -6286    -6583    -6903    -7195    -7404 
   -7510    -7518    -7461    -7384    -7312    -7240    -7161    -7080 
   -7006    -6939    -6848    -6706    -6507    -6262    -5998    -5751 
   -5545    -5395    -5302    -5277    -5329    -5467    -5679    -5938 
   -6212    -6477    -6706    -6885    -7002    -7060    -7057    -6990 
   -6855    -6662    -6435    -6196    -5960    -5755    -5620    -5567 
   -5566    -5571    -5582    -5637    -5767    -5965    -6187    -6366 
   -6453    -6448    -6409    -6400    -6467    -6612    -6793    -6974 
   -7134    -7263    -7352    -7385    -7342    -7253    -7180    -7146 
   -7140    -7134    -7098    -7037    -6961    -6858    -6720    -6567 
   -6430    -6339    -6297    -6280    -6264    -6246    -6245    -6280 
   -6359    -6458    -6528    -6546    -6513    -6457    -6401    -6358 
   -6319    -6278    -6246    -6245    -6276    -6326    -6363    -6380 
   -6392    -6424    -6482    -6555    -6625    -6700    -6783    -6866 
   -6920    -6930    -6885    -6779    -6615    -6401    -6157    -5919 
   -5725    -5598    -5560    -5614    -5738    -5904    -6081    -6239 
   -6366    -6467    -6535    -6577    -6600    -6600    -6577    -6551 
   -6566    -6656    -6822    -7045    -7298    -7546    -7757    -7897 
