Origin Time       2024/04/02 04:24:00
Lat.              40.133
Long.             141.712
Depth. (km)       71
Mag.              6.0
Station Code      HKD154
Station Lat.      42.0965
Station Long.     140.5636
Station Height(m) 83
Record Time       2024/04/02 04:25:15
Sampling Freq(Hz) 100Hz
Duration Time(s)  95
Dir.              E-W
Scale Factor      7845(gal)/8223790
Max. Acc. (gal)   2.256
Last Correction   2024/04/02 04:25:15
Memo.             
[...]
    6174     6340     6613     6948     7300     7601     7804     7923 
    7992     8028     8056     8095     8135     8154     8131     8010 
    7758     7408     7040     6729     6544     6536     6693     6948 
    7223     7446     7557     7558     7489     7383     7272     7199 
    7198     7257     7326     7349     7318     7276     7290     7406 
    7616     7863     8068     8158     8077     7830     7476     7123 
    6870     6766     6821     7011     7284     7564     7770     7830 
    7685     7321     6795     6199     5629     5171     4869     4719 
    4718     4864     5144     5510     5918     6372     6880     7383 
    7789     8055     8181     8176     8052     7838     7574     7296 
    7036     6833     6712     6693     6785     6966     7167     7304 
    7327     7244     7113     6974     6821     6659     6516     6431 
    6450     6600     6867     7186     7470     7672     7785     7811 
    7765     7646     7410     7032     6563     6110     5800     5726 
    5877     6161     6455     6694     6866     6968     7024     7084 
    7195     7371     7588     7790     7908     7889     7695     7300 
    6732     6104     5570     5219     5073     5131     5364     5709 
    6076     6384     6597     6727     6801     6829     6813     6781 
    6779     6847     7011     7283     7650     8083     8526     8885 
    9059     8992     8729     8388     8050     7730     7429     7168 
    6971     6847     6802     6828     6898     6991     7092     7188 
    7271     7335     7381     7416     7466     7555     7685     7816 
    7893     7874     7754     7572     7366     7167     7014     6952 
    6986     7074     7176     7269     7334     7352     7312     7198 
    7018     6832     6729     6812     7096     7504     7932     8297 
    8532     8598     8496     8272     7966     7588     7146     6669 
    6184     5738     5404     5212     5157     5200     5289     5374 
    5418     5435     5472     5564     5699     5869     6112     6493 
    7007     7582     8148     8634     8949     9018     8815     8351 
    7705     7032     6469     6084     5869     5778     5760     5787 
    5838     5915     6019     6141     6264     6384     6504     6640 
    6818     7037     7272     7522     7771     7978     8133     8248 
    8314     8317     8218     7983     7630     7213     6809     6515 
    6408     6511     6758     7026     7210     7263     7203     7091 
    7002     6972     6974     6963     6943     6960     7060     7256 
    7516     7770     7942     7975     7838     7527     7079     6561 
    6056     5633     5359     5290     5448     5830     6405     7082 
    7723     8214     8488     8518     8336     8025     7685     7356 
    7045     6772     6585     6489     6444     6426     6447     6507 
    6578     6669     6762     6783     6679     6477     6254     6083 
    6019     6085     6262     6521     6809     7040     7145     7125 
    7007     6813     6569     6309     6068     5892     5819     5846 
    5950     6115     6354     6670     7017     7311     7485     7523 
    7452     7322     7196     7138     7196     7371     7573     7677 
    7601     7360     7036     6716     6450     6257     6127     6050 
    6037     6097     6242     6470     6777     7141     7531     7909 
    8233     8468     8618     8722     8812     8880     8884     8791 
    8583     8253     7820     7349     6936     6656     6517     6477 
    6496     6534     6550     6534     6507     6505     6567     6727 
    6987     7314     7649     7965     8286     8607     8868     9008 
    9005     8869     8627     8275     7807     7260     6697     6203 
    5869     5760     5892     6224     6627     6916     6976     6821 
    6563     6366     6335     6463     6687     6925     7102     7188 
    7214     7246     7335     7435     7453     7323     7034     6648 
    6257     5945     5763     5701     5711     5760     5832     5941 
    6149     6502     6968     7453     7848     8082     8140     8048 
    7865     7668     7519     7425     7339     7219     7051     6862 
    6706     6648     6725     6922     7182     7423     7582     7661 
    7697     7692     7631     7535     7445     7408     7452     7562 
    7711     7847     7919     7898     7778     7565     7285     6976 
    6666     6376     6141     6015     6035     6173     6363     6559 
    6744     6917     7101     7322     7577     7808     7951     7971 
    7851     7605     7272     6905     6588     6412     6417     6569 
    6794     7015     7176     7256     7248     7165     7037     6894 
    6747     6575     6362     6150     5991     5918     5960     6115 
    6334     6561     6743     6825     6790     6674     6544     6443 
    6366     6305     6259     6216     6204     6292     6508     6832 
    7194     7485     7630     7607     7429     7156     6852     6578 
    6397     6328     6357     6477     6675     6894     7067     7161 
    7168     7076     6890     6675     6512     6439     6461     6558 
    6686     6779     6824     6868     6978     7173     7458     7804 
    8113     8283     8298     8191     8004     7794     7630     7555 
    7599     7753     7983     8243     8459     8564     8522     8329 
    7982     7496     6929     6365     5881     5536     5344     5304 
    5417     5687     6104     6628     7196     7762     8286     8706 
    8947     8958     8723     8272     7686     7106     6646     6331 
    6156     6102     6133     6195     6228     6191     6092     5946 
    5749     5533     5354     5260     5309     5568     6061     6748 
    7515     8185     8583     8644     8436     8087     7717     7412 
    7196     7049     6948     6868     6763     6579     6315     6027 
    5807     5722     5796     6029     6374     6736     7041     7254 
    7375     7447     7519     7592     7657     7699     7722     7767 
    7890     8101     8363     8596     8708     8631     8356     7921 
    7425     6980     6621     6330     6116     6016     6075     6301 
    6654     7082     7520     7838     7928     7796     7547     7327 
    7242     7303     7434     7526     7516     7425     7292     7142 
    7026     7034     7207     7487     7763     7955     8016     7928 
    7712     7399     7018     6609     6227     5938     5813     5883 
    6123     6475     6852     7132     7215     7094     6831     6524 
    6272     6124     6080     6108     6183     6282     6381     6454 
    6482     6454     6361     6203     6023     5877     5778     5722 
    5732     5819     5952     6070     6185     6342     6523     6651 
    6679     6619     6513     6426     6415     6528     6793     7171 
    7582     7933     8141     8164     8024     7789     7564     7445 
    7454     7533     7568     7468     7200     6806     6385     6061 
    5921     5989     6220     6502     6732     6885     6999     7125 
    7300     7533     7778     7981     8113     8189     8203     8125 
    7958     7751     7558     7419     7348     7306     7249     7177 
    7098     6986     6820     6615     6399     6210     6118     6180 
    6385     6674     6944     7080     7060     6960     6880     6890 
    7013     7219     7476     7749     7994     8203     8383     8476 
    8398     8113     7650     7113     6644     6349     6249     6304 
    6444     6596     6700     6728     6705     6670     6632     6586 
    6590     6716     6986     7368     7769     8073     8202     8158 
    7986     7753     7512     7295     7107     6955     6855     6809 
    6777     6691     6521     6295     6092     6003     6112     6448 
    6930     7404     7758     7969     8071     8137     8241     8382 
    8523     8641     8668     8564     8345     8043     7701     7380 
    7121     6951     6870     6863     6922     7028     7121     7160 
    7159     7183     7269     7384     7489     7596     7728     7867 
    7954     7917     7732     7472     7280     7256     7384     7554 
    7638     7547     7231     6681     5991     5343     4893     4727 
    4864     5273     5887     6581     7184     7554     7634     7443 
    7069     6636     6277     6093     6114     6299     6592     6937 
    7260     7479     7550     7476     7283     7026     6770     6542 
    6336     6108     5807     5441     5094     4861     4833     5050 
    5448     5940     6444     6874     7171     7349     7435     7473 
    7501     7539     7587     7622     7596     7481     7308     7118 
    6933     6764     6615     6488     6388     6301     6242     6282 
    6485     6814     7175     7479     7654     7682     7591     7408 
    7172     6926     6736     6686     6821     7083     7337     7483 
    7495     7380     7172     6941     6770     6697     6725     6822 
    6914     6928     6831     6619     6359     6156     6087     6204 
    6493     6856     7203     7460     7542     7431     7219     7026 
    6910     6872     6889     6945     7056     7227     7395     7458 
    7352     7076     6700     6327     6049     5919     5967     6178 
    6511     6870     7142     7272     7283     7226     7128     7020 
    6943     6910     6909     6914     6922     6948     6988     7034 
    7086     7134     7137     7074     6995     6963     7001     7096 
    7200     7264     7273     7256     7263     7350     7514     7688 
    7789     7774     7642     7430     7194     6999     6895     6898 
    7006     7210     7456     7672     7827     7908     7900     7821 
    7727     7643     7572     7516     7501     7534     7585     7632 
    7636     7550     7366     7138     6925     6768     6704     6762 
    6945     7173     7335     7380     7311     7156     6972     6835 
    6795     6845     6929     6982     6988     6957     6914     6876 
    6845     6826     6833     6858     6899     6963     7045     7130 
    7171     7146     7109     7136     7264     7456     7604     7614 
    7472     7222     6934     6705     6582     6555     6597     6673 
    6739     6772     6783     6806     6858     6945     7068     7206 
    7339     7484     7646     7815     7975     8100     8149     8089 
    7898     7614     7321     7080     6891     6728     6569     6419 
    6308     6265     6312     6462     6656     6804     6872     6891 
    6916     7021     7258     7624     8089     8571     8938     9072 
    8897     8392     7631     6783     6075     5676     5628     5842 
    6201     6601     6976     7271     7415     7371     7173     6912 
    6659     6466     6359     6326     6335     6394     6534     6745 
    6998     7254     7485     7627     7589     7331     6903     6438 
    6066     5875     5876     6003     6146     6228     6242     6250 
    6326     6480     6682     6891     7068     7183     7223     7200 
    7146     7072     6971     6829     6659     6511     6453     6544 
    6793     7105     7334     7389     7292     7142     7034     6991 
    6976     6943     6859     6721     6566     6459     6467     6629 
    6941     7349     7773     8108     8248     8143     7838     7464 
    7167     7028     7045     7192     7393     7551     7620     7630 
    7632     7669     7738     7804     7846     7850     7766     7526 
    7150     6743     6413     6257     6305     6512     6760     6941 
    6999     6937     6795     6636     6525     6546     6729     7047 
    7449     7859     8174     8318     8259     8013     7653     7276 
    6976     6810     6801     6947     7184     7391     7462     7388 
    7230     7065     6953     6960     7101     7290     7392     7323 
    7091     6747     6367     6062     5945     6079     6415     6825 
    7175     7356     7325     7130     6860     6598     6417     6318 
    6255     6189     6116     6052     6003     5964     5941     5964 
    6057     6235     6478     6736     6979     7231     7511     7784 
    8000     8110     8073     7884     7596     7269     6948     6674 
    6480     6365     6300     6261     6235     6199     6137     6050 
    5934     5798     5688     5694     5881     6255     6758     7281 
    7697     7929     7982     7906     7740     7484     7133     6731 
    6372     6150     6116     6238     6430     6610     6760     6918 
    7115     7334     7537     7690     7778     7778     7684     7520 
    7342     7229     7260     7450     7701     7873     7857     7591 
    7071     6401     5761     5312     5143     5250     5540     5906 
    6265     6565     6763     6852     6843     6778     6729     6782 
    6993     7346     7744     8058     8194     8156     8016     7844 
    7689     7538     7349     7118     6882     6682     6547     6469 
    6436     6455     6543     6733     7032     7383     7723     8017 
    8221     8290     8224     8043     7759     7403     7024     6694 
    6471     6354     6305     6284     6247     6166     6043     5937 
    5931     6043     6231     6458     6708     6995     7331     7681 
    7982     8176     8237     8167     7998     7773     7549     7373 
    7244     7138     7034     6891     6670     6351     5949     5535 
    5220     5125     5319     5768     6370     7005     7572     7996 
    8247     8344     8311     8202     8079     7979     7893     7793 
    7647     7464     7277     7094     6905     6748     6675     6675 
    6689     6685     6691     6767     6959     7272     7665     8079 
    8473     8827     9124     9329     9387     9256     8935     8468 
    7935     7429     7021     6752     6632     6631     6669     6659 
    6574     6442     6301     6168     6052     6006     6118     6424 
    6902     7507     8166     8739     9077     9100     8829     8345 
    7769     7238     6839     6594     6523     6620     6852     7128 
    7308     7296     7063     6652     6187     5817     5629     5633 
    5837     6245     6805     7395     7869     8140     8186     8006 
    7643     7194     6789     6544     6496     6597     6772     6932 
    7002     6964     6847     6691     6538     6424     6386     6427 
    6521     6660     6855     7098     7376     7650     7858     7940 
    7893     7792     7724     7689     7612     7452     7252     7082 
    6978     6949     6974     7021     7037     6966     6771     6471 
    6158     5944     5894     6039     6331     6636     6853     6956 
    6966     6948     6983     7095     7226     7277     7175     6926 
    6604     6289     6076     6002     6027     6102     6211     6370 
    6597     6880     7169     7383     7460     7406     7260     7051 
    6822     6623     6485     6427     6447     6532     6663     6822 
    6982     7084     7087     6986     6816     6647     6525     6474 
    6504     6573     6617     6639     6691     6804     6960     7121 
    7234     7253     7142     6916     6644     6403     6266     6272 
    6373     6508     6662     6845     7042     7231     7393     7488 
    7476     7379     7267     7190     7157     7161     7173     7157 
    7107     7042     6959     6855     6743     6642     6582     6562 
    6559     6583     6635     6691     6756     6839     6922     6987 
    7041     7125     7242     7354     7433     7456     7392     7248 
    7067     6912     6829     6837     6941     7105     7250     7326 
    7323     7219     7003     6729     6505     6411     6471     6658 
    6897     7109     7233     7250     7206     7164     7171     7254 
    7399     7541     7604     7530     7295     6963     6646     6442 
    6392     6471     6613     6755     6894     7064     7292     7560 
    7797     7921     7881     7692     7443     7238     7149     7190 
    7325     7474     7560     7542     7430     7248     7056     6948 
    6964     7087     7273     7476     7608     7595     7437     7202 
    6983     6847     6804     6806     6794     6727     6619     6529 
    6520     6635     6849     7074     7210     7192     7017     6783 
    6608     6546     6582     6658     6720     6758     6763     6739 
    6683     6596     6485     6366     6262     6215     6250     6380 
    6637     7021     7464     7878     8186     8340     8334     8182 
    7931     7654     7423     7298     7304     7387     7468     7527 
    7564     7587     7624     7696     7784     7867     7917     7881 
    7704     7383     6978     6601     6361     6347     6583     6994 
    7462     7879     8181     8344     8370     8257     8028     7692 
    7263     6810     6427     6177     6062     6045     6112     6274 
    6532     6874     7242     7554     7720     7680     7439     7107 
    6822     6656     6610     6666     6781     6899     6975     6987 
    6913     6729     6434     6072     5719     5454     5343     5435 
    5715     6110     6542     6960     7338     7655     7878     7985 
    8004     7965     7898     7824     7734     7585     7344     7009 
    6631     6286     6054     5967     6022     6197     6430     6625 
    6740     6793     6832     6897     6983     7080     7186     7299 
    7406     7493     7560     7600     7593     7549     7481     7358 
    7165     6953     6782     6690     6697     6779     6878     6937 
    6941     6905     6853     6831     6879     7007     7176     7321 
    7389     7375     7273     7082     6833     6600     6470     6504 
    6686     6960     7253     7473     7551     7483     7294     7020 
    6732     6507     6385     6358     6390     6436     6462     6457 
    6431     6428     6501     6659     6897     7206     7547     7834 
    7987     7990     7882     7742     7635     7589     7585     7568 
    7473     7277     7010     6759     6615     6602     6701     6853 
    6972     6990     6882     6682     6486     6357     6305     6367 
    6563     6878     7281     7719     8108     8365     8429     8271 
    7923     7462     6995     6617     6380     6284     6280     6305 
    6334     6394     6528     6756     7063     7376     7591     7632 
    7507     7284     7055     6875     6774     6745     6756     6778 
    6805     6810     6771     6690     6570     6417     6261     6146 
    6097     6129     6232     6378     6527     6660     6775     6887 
    7018     7157     7296     7438     7555     7595     7546     7408 
    7186     6928     6704     6558     6505     6527     6578     6633 
    6701     6793     6907     7044     7190     7335     7495     7663 
    7803     7863     7812     7673     7533     7472     7553     7776 
    8039     8182     8100     7789     7331     6855     6502     6353 
    6370     6477     6598     6681     6727     6785     6894     7052 
    7210     7341     7460     7574     7680     7744     7744     7665 
    7474     7165     6772     6355     6003     5821     5830     5973 
    6165     6308     6342     6296     6265     6301     6409     6558 
    6704     6821     6913     7001     7121     7261     7358     7358 
    7272     7156     7098     7142     7249     7337     7353     7299 
    7218     7165     7175     7257     7387     7489     7504     7426 
    7283     7109     6957     6907     7009     7225     7447     7577 
    7574     7441     7202     6934     6724     6612     6610     6702 
    6848     7020     7175     7308     7466     7661     7842     7950 
