Origin Time       2024/04/02 04:24:00
Lat.              40.133
Long.             141.712
Depth. (km)       71
Mag.              6.0
Station Code      HKD144
Station Lat.      42.9059
Station Long.     140.7670
Station Height(m) 180
Record Time       2024/04/02 04:26:05
Sampling Freq(Hz) 100Hz
Duration Time(s)  60
Dir.              U-D
Scale Factor      7845(gal)/8223790
Max. Acc. (gal)   0.639
Last Correction   2024/04/02 04:26:06
Memo.             
   10883    10862    10847    10840    10822    10789    10748    10706 
   10669    10647    10632    10604    10574    10566    10573    10585 
   10601    10620    10638    10655    10687    10728    10744    10748 
   10766    10783    10779    10758    10736    10709    10669    10621 
   10579    10544    10519    10513    10535    10558    10571    10578 
   10574    10552    10513    10465    10426    10392    10373    10386 
   10423    10457    10492    10534    10579    10636    10689    10710 
   10712    10709    10689    10651    10616    10600    10600    10602 
   10606    10606    10592    10581    10589    10594    10584    10570 
   10566    10570    10578    10592    10611    10627    10631    10633 
   10640    10643    10633    10623    10625    10635    10647    10671 
   10713    10755    10793    10827    10839    10825    10806    10795 
   10787    10785    10793    10805    10805    10806    10817    10817 
   10813    10817    10818    10795    10758    10717    10681    10650 
   10620    10612    10642    10693    10741    10794    10851    10891 
   10894    10866    10833    10812    10795    10778    10752    10713 
   10674    10643    10620    10602    10585    10574    10579    10601 
   10627    10654    10678    10700    10724    10747    10770    10793 
   10809    10813    10808    10801    10793    10785    10778    10778 
   10794    10813    10808    10781    10744    10698    10658    10631 
   10606    10585    10584    10597    10606    10604    10598    10600 
   10609    10627    10652    10681    10702    10717    10731    10739 
   10739    10740    10739    10733    10731    10737    10755    10781 
   10813    10839    10847    10840    10833    10828    10817    10809 
   10793    10760    10724    10683    10629    10567    10507    10458 
   10432    10426    10431    10443    10455    10482    10528    10578 
   10619    10644    10652    10652    10651    10642    10605    10544 
   10494    10481    10480    10478    10485    10503    10527    10558 
   10589    10605    10600    10604    10631    10667    10697    10725 
   10758    10786    10797    10786    10764    10746    10732    10719 
   10723    10737    10750    10759    10766    10768    10760    10733 
   10705    10697    10704    10716    10721    10724    10727    10721 
   10710    10708    10709    10706    10714    10739    10764    10794 
   10825    10844    10854    10860    10855    10841    10831    10810 
   10783    10768    10755    10736    10720    10710    10712    10714 
   10708    10693    10681    10675    10673    10674    10677    10683 
   10689    10693    10705    10725    10737    10736    10728    10721 
   10708    10683    10667    10654    10624    10593    10570    10547 
   10524    10503    10481    10467    10469    10480    10492    10503 
   10519    10535    10539    10536    10531    10530    10538    10555 
   10588    10632    10671    10708    10743    10771    10795    10827 
   10851    10858    10858    10858    10844    10809    10766    10731 
   10710    10714    10733    10741    10736    10724    10714    10708 
   10694    10674    10659    10652    10647    10651    10662    10674 
   10689    10705    10714    10719    10724    10748    10786    10812 
   10814    10808    10804    10787    10747    10694    10646    10609 
   10589    10574    10569    10584    10608    10624    10632    10635 
   10629    10613    10585    10554    10531    10505    10478    10466 
   10477    10497    10520    10548    10581    10613    10648    10681 
   10697    10702    10700    10689    10686    10700    10725    10770 
   10821    10858    10887    10922    10951    10959    10956    10955 
   10948    10928    10909    10890    10851    10798    10762    10743 
   10713    10678    10675    10689    10682    10662    10648    10644 
   10631    10615    10627    10667    10710    10758    10800    10814 
   10817    10820    10824    10824    10809    10783    10762    10751 
   10743    10733    10714    10673    10620    10573    10536    10507 
   10488    10477    10467    10457    10459    10476    10481    10480 
   10482    10492    10511    10538    10562    10585    10613    10640 
   10663    10693    10737    10785    10816    10821    10805    10770 
   10724    10673    10617    10571    10550    10539    10532    10531 
   10527    10519    10516    10523    10534    10543    10551    10558 
   10554    10555    10578    10605    10633    10670    10702    10731 
   10752    10762    10760    10752    10741    10739    10746    10752 
   10766    10781    10782    10760    10727    10692    10663    10659 
   10686    10725    10766    10813    10863    10895    10905    10903 
   10902    10908    10925    10955    10980    10986    10974    10948 
   10916    10889    10862    10829    10805    10797    10798    10793 
   10773    10760    10759    10760    10773    10791    10809    10827 
   10849    10866    10863    10847    10820    10794    10768    10731 
   10687    10655    10615    10569    10536    10512    10486    10476 
   10480    10497    10528    10562    10588    10609    10633    10656 
   10660    10651    10629    10602    10584    10574    10573    10575 
   10575    10582    10590    10588    10582    10589    10604    10619 
   10632    10643    10640    10632    10627    10612    10592    10584 
   10586    10585    10582    10585    10598    10623    10659    10698 
   10727    10733    10725    10724    10735    10746    10755    10762 
   10763    10760    10759    10758    10748    10732    10729    10737 
   10752    10775    10800    10814    10816    10822    10835    10833 
   10821    10809    10793    10771    10743    10704    10662    10632 
   10620    10627    10640    10636    10613    10589    10577    10575 
   10589    10615    10642    10665    10683    10697    10709    10708 
   10696    10683    10671    10651    10629    10619    10615    10617 
   10623    10624    10615    10594    10565    10535    10521    10527 
   10543    10561    10577    10584    10586    10601    10629    10660 
   10689    10719    10748    10777    10791    10795    10797    10782 
   10737    10686    10652    10642    10642    10644    10648    10656 
   10659    10659    10658    10650    10638    10632    10638    10646 
   10654    10655    10643    10625    10619    10631    10655    10679 
   10701    10724    10756    10791    10809    10800    10773    10746 
   10724    10705    10689    10667    10638    10620    10612    10588 
   10557    10538    10520    10497    10486    10489    10493    10486 
   10474    10465    10459    10449    10444    10467    10505    10548 
   10589    10613    10621    10628    10631    10617    10594    10575 
   10563    10551    10542    10538    10544    10557    10567    10586 
   10623    10662    10700    10751    10794    10814    10835    10860 
   10874    10879    10881    10879    10878    10878    10875    10862 
   10833    10806    10783    10759    10744    10733    10710    10690 
   10686    10681    10669    10673    10700    10741    10798    10864 
   10935    10991    11017    11021    11013    10995    10984    10983 
   10978    10951    10902    10858    10821    10790    10770    10760 
   10748    10724    10687    10651    10621    10594    10575    10577 
   10596    10628    10669    10709    10743    10760    10754    10735 
   10719    10701    10678    10651    10624    10590    10554    10530 
   10530    10543    10551    10571    10615    10663    10705    10748 
   10791    10818    10816    10800    10781    10756    10723    10689 
   10655    10627    10613    10605    10593    10574    10546    10511 
   10482    10458    10439    10432    10439    10451    10465    10481 
   10512    10551    10588    10623    10663    10701    10729    10741 
   10739    10724    10697    10665    10628    10602    10588    10574 
   10574    10585    10594    10606    10624    10643    10663    10678 
   10690    10702    10712    10716    10727    10741    10747    10732 
   10720    10719    10710    10687    10654    10616    10581    10551 
   10531    10525    10528    10531    10548    10592    10646    10687 
   10697    10686    10683    10690    10697    10702    10700    10694 
   10686    10673    10656    10640    10631    10633    10643    10656 
   10671    10683    10701    10727    10744    10751    10758    10764 
   10767    10763    10763    10775    10789    10794    10802    10814 
   10824    10822    10812    10793    10767    10735    10705    10697 
   10710    10732    10759    10787    10814    10837    10854    10870 
   10897    10933    10978    11030    11074    11094    11088    11061 
   11017    10962    10908    10866    10849    10866    10903    10943 
   10976    10998    10997    10979    10966    10956    10929    10889 
   10841    10787    10736    10694    10643    10579    10515    10457 
   10411    10370    10339    10324    10320    10305    10278    10268 
   10285    10311    10323    10330    10345    10362    10365    10349 
   10326    10305    10312    10362    10426    10465    10480    10500 
   10521    10531    10530    10531    10542    10558    10578    10604 
   10625    10646    10674    10706    10717    10696    10665    10642 
   10621    10594    10557    10509    10465    10430    10415    10426 
   10458    10512    10577    10632    10686    10756    10828    10883 
   10924    10947    10957    10960    10967    10976    10974    10956 
   10925    10882    10836    10800    10771    10754    10741    10740 
   10754    10774    10802    10845    10894    10930    10951    10970 
   10999    11032    11055    11051    11032    11011    10983    10949 
   10930    10922    10916    10921    10932    10935    10922    10891 
   10858    10827    10802    10797    10800    10793    10777    10764 
   10758    10758    10751    10728    10694    10665    10654    10646 
   10619    10582    10558    10538    10520    10521    10527    10508 
   10467    10434    10411    10388    10378    10393    10428    10463 
   10486    10501    10507    10498    10477    10457    10461    10489 
   10521    10554    10594    10640    10678    10719    10760    10775 
   10760    10756    10774    10787    10793    10800    10794    10778 
   10764    10751    10725    10692    10671    10662    10646    10623 
   10602    10582    10569    10567    10563    10551    10527    10500 
   10469    10438    10412    10399    10411    10443    10481    10524 
   10571    10611    10629    10629    10631    10640    10640    10631 
   10625    10619    10609    10613    10633    10647    10651    10648 
   10628    10598    10566    10521    10465    10422    10405    10407 
   10411    10413    10423    10438    10469    10527    10601    10675 
   10743    10793    10817    10821    10812    10793    10764    10729 
   10692    10671    10674    10697    10725    10750    10782    10824 
   10862    10885    10894    10895    10895    10886    10867    10849 
   10822    10798    10800    10813    10814    10806    10808    10828 
   10851    10854    10841    10839    10848    10856    10868    10890 
   10908    10905    10876    10840    10809    10778    10754    10751 
   10768    10802    10836    10851    10837    10810    10790    10785 
   10782    10779    10771    10759    10760    10786    10817    10841 
   10862    10883    10908    10935    10978    11029    11064    11075 
   11074    11068    11053    11018    10970    10929    10901    10854 
   10781    10702    10629    10554    10492    10462    10465    10497 
   10562    10642    10709    10755    10794    10836    10876    10891 
   10871    10833    10785    10720    10652    10582    10508    10442 
   10384    10332    10295    10269    10239    10207    10170    10127 
   10073    10033    10022    10018    10015    10034    10084    10149 
   10208    10251    10282    10314    10346    10378    10405    10416 
   10409    10396    10378    10365    10358    10349    10355    10389 
   10439    10493    10543    10585    10615    10624    10627    10643 
   10682    10737    10797    10843    10890    10948    10994    11011 
   10994    10948    10891    10832    10773    10739    10740    10762 
   10793    10827    10851    10874    10897    10916    10932    10941 
   10944    10960    10990    11021    11044    11041    11013    10972 
   10930    10889    10845    10805    10789    10808    10841    10858 
   10854    10852    10860    10864    10858    10840    10822    10817 
   10813    10797    10770    10752    10743    10728    10714    10719 
   10720    10704    10678    10658    10648    10638    10629    10646 
   10666    10670    10666    10654    10612    10559    10527    10513 
   10513    10542    10589    10643    10708    10766    10800    10804 
   10785    10754    10719    10686    10666    10647    10635    10635 
   10644    10656    10669    10686    10706    10714    10702    10685 
   10670    10642    10598    10567    10558    10555    10554    10574 
   10628    10704    10789    10876    10953    10993    11001    11009 
   11011    10984    10932    10876    10832    10794    10773    10773 
   10785    10817    10863    10893    10898    10893    10864    10787 
   10685    10597    10521    10439    10363    10318    10297    10292 
   10311    10359    10430    10512    10593    10652    10690    10708 
   10701    10670    10616    10555    10492    10435    10405    10415 
   10451    10504    10561    10605    10620    10611    10602    10592 
   10567    10532    10492    10451    10422    10409    10415    10439 
   10477    10524    10558    10563    10561    10571    10588    10601 
   10615    10629    10639    10646    10662    10681    10692    10697 
   10702    10721    10756    10797    10835    10847    10818    10785 
   10768    10762    10763    10793    10849    10912    10967    11011 
   11048    11071    11084    11094    11087    11052    10997    10920 
   10821    10709    10608    10550    10539    10552    10581    10616 
   10643    10648    10643    10648    10662    10665    10673    10686 
   10696    10702    10709    10717    10741    10794    10862    10910 
   10928    10933    10916    10864    10808    10763    10721    10694 
   10687    10687    10683    10678    10685    10697    10692    10659 
   10600    10535    10517    10539    10552    10551    10555    10566 
   10578    10579    10569    10554    10536    10528    10532    10532 
   10531    10546    10577    10608    10621    10623    10633    10655 
   10655    10628    10609    10612    10616    10619    10629    10640 
   10648    10648    10638    10642    10673    10702    10724    10741 
   10764    10795    10840    10886    10924    10945    10947    10929 
   10917    10903    10883    10867    10855    10864    10893    10914 
   10930    10956    10971    10970    10941    10890    10843    10809 
   10778    10733    10679    10640    10640    10650    10631    10589 
   10550    10511    10458    10395    10353    10354    10386    10430 
   10484    10538    10585    10624    10650    10675    10702    10712 
   10700    10670    10619    10569    10538    10509    10474    10450 
   10442    10440    10444    10465    10486    10496    10503    10517 
   10544    10581    10624    10662    10686    10706    10732    10755 
   10770    10789    10825    10871    10909    10933    10944    10932 
   10901    10866    10822    10763    10705    10671    10663    10654 
   10640    10639    10660    10698    10729    10739    10736    10732 
   10721    10712    10708    10708    10712    10739    10777    10810 
   10821    10804    10778    10750    10698    10642    10612    10596 
   10581    10590    10620    10662    10723    10801    10867    10897 
   10897    10883    10855    10816    10777    10731    10671    10616 
   10589    10588    10605    10639    10679    10710    10728    10728 
   10716    10694    10670    10650    10643    10647    10638    10613 
   10596    10590    10581    10561    10525    10484    10461    10457 
   10455    10457    10484    10528    10570    10611    10656    10704 
   10747    10790    10843    10885    10891    10870    10822    10748 
   10669    10600    10544    10493    10454    10440    10438    10436 
   10444    10458    10461    10455    10455    10481    10525    10582 
   10647    10704    10736    10751    10754    10748    10752    10766 
   10783    10798    10801    10798    10794    10787    10779    10774 
   10781    10802    10831    10859    10876    10882    10890    10893 
   10875    10848    10821    10789    10759    10748    10750    10758 
   10770    10782    10786    10778    10760    10743    10717    10683 
   10650    10625    10617    10616    10609    10592    10565    10554 
   10569    10574    10555    10536    10534    10538    10535    10535 
   10554    10585    10617    10652    10685    10702    10721    10755 
   10794    10816    10812    10791    10768    10746    10710    10659 
   10619    10602    10594    10588    10579    10569    10563    10570 
   10585    10604    10617    10627    10655    10694    10720    10735 
   10752    10783    10831    10867    10894    10941    10997    11036 
   11060    11064    11041    11016    11002    10990    10966    10932 
   10902    10868    10825    10791    10756    10702    10647    10594 
   10542    10497    10474    10474    10478    10469    10461    10463 
   10465    10474    10503    10531    10550    10565    10573    10566 
   10551    10534    10516    10503    10496    10509    10540    10575 
   10605    10633    10662    10685    10705    10723    10729    10739 
   10767    10809    10859    10920    10986    11033    11049    11049 
   11034    10987    10924    10868    10808    10731    10665    10620 
   10579    10534    10485    10446    10422    10409    10415    10436 
   10444    10424    10400    10388    10390    10409    10453    10507 
   10552    10592    10623    10639    10642    10647    10640    10602 
   10552    10519    10493    10469    10451    10434    10411    10386 
   10358    10332    10316    10326    10355    10392    10439    10503 
   10570    10624    10663    10696    10729    10750    10755    10767 
   10795    10835    10886    10933    10960    10960    10953    10963 
   10975    10963    10935    10916    10903    10901    10920    10945 
   10960    10976    10990    10998    10999    10995    10995    11001 
   11005    10997    10979    10957    10933    10906    10866    10817 
   10777    10740    10698    10656    10613    10584    10578    10586 
   10590    10590    10585    10573    10554    10521    10484    10457 
   10443    10434    10424    10424    10447    10497    10558    10617 
   10677    10733    10785    10822    10844    10849    10837    10810 
   10787    10778    10779    10795    10821    10845    10868    10889 
   10893    10882    10859    10818    10760    10701    10655    10632 
   10632    10644    10651    10646    10644    10662    10698    10740 
   10762    10774    10789    10785    10754    10706    10663    10629 
   10608    10605    10615    10621    10633    10654    10669    10679 
   10692    10705    10724    10750    10775    10790    10789    10774 
   10744    10708    10674    10646    10627    10625    10635    10643 
