Origin Time       2024/04/02 04:24:00
Lat.              40.133
Long.             141.712
Depth. (km)       71
Mag.              6.0
Station Code      HKD146
Station Lat.      42.8076
Station Long.     140.6878
Station Height(m) 147
Record Time       2024/04/02 04:25:56
Sampling Freq(Hz) 100Hz
Duration Time(s)  60
Dir.              U-D
Scale Factor      7845(gal)/8223790
Max. Acc. (gal)   0.729
Last Correction   2024/04/02 04:25:56
Memo.             
[...]
   -2732    -2714    -2705    -2709    -2716    -2737    -2794    -2878 
   -2963    -3013    -3013    -2998    -2979    -2947    -2910    -2882 
   -2879    -2916    -2959    -2983    -3010    -3049    -3090    -3114 
   -3126    -3137    -3157    -3173    -3179    -3165    -3136    -3107 
   -3086    -3063    -3033    -2992    -2963    -2963    -2980    -2983 
   -2970    -2971    -3003    -3052    -3084    -3088    -3060    -3006 
   -2951    -2921    -2914    -2937    -3002    -3090    -3165    -3199 
   -3183    -3136    -3075    -3018    -2995    -3014    -3041    -3060 
   -3086    -3110    -3115    -3103    -3069    -3018    -2957    -2906 
   -2878    -2860    -2833    -2798    -2778    -2793    -2839    -2887 
   -2918    -2922    -2891    -2839    -2793    -2786    -2826    -2879 
   -2921    -2959    -2995    -3011    -3003    -3002    -3034    -3087 
   -3129    -3142    -3123    -3067    -2978    -2895    -2851    -2848 
   -2875    -2924    -2963    -2961    -2922    -2862    -2801    -2774 
   -2793    -2843    -2897    -2913    -2859    -2759    -2667    -2635 
   -2679    -2781    -2870    -2893    -2859    -2814    -2779    -2767 
   -2793    -2852    -2910    -2940    -2941    -2925    -2905    -2911 
   -2943    -2975    -2995    -2983    -2929    -2859    -2829    -2874 
   -2964    -3048    -3090    -3076    -3006    -2910    -2845    -2848 
   -2907    -2987    -3060    -3103    -3102    -3071    -3025    -2980 
   -2943    -2914    -2909    -2921    -2910    -2857    -2797    -2774 
   -2814    -2909    -3017    -3082    -3067    -2987    -2906    -2870 
   -2901    -2982    -3060    -3092    -3075    -3026    -2968    -2918 
   -2894    -2913    -2964    -2997    -2968    -2884    -2794    -2739 
   -2725    -2735    -2764    -2820    -2871    -2894    -2895    -2889 
   -2889    -2907    -2963    -3057    -3157    -3215    -3223    -3195 
   -3142    -3084    -3060    -3079    -3106    -3113    -3090    -3045 
   -3002    -2971    -2957    -2972    -3014    -3069    -3123    -3148 
   -3129    -3075    -3011    -2965    -2938    -2907    -2860    -2801 
   -2741    -2713    -2721    -2755    -2795    -2822    -2833    -2837 
   -2836    -2825    -2810    -2808    -2817    -2824    -2805    -2767 
   -2747    -2762    -2809    -2875    -2943    -3005    -3049    -3061 
   -3046    -3019    -2990    -2960    -2940    -2926    -2910    -2893 
   -2895    -2918    -2922    -2899    -2871    -2852    -2857    -2894 
   -2941    -2979    -2987    -2947    -2866    -2787    -2748    -2759 
   -2805    -2879    -2975    -3057    -3100    -3122    -3134    -3129 
   -3103    -3055    -3001    -2968    -2963    -2980    -3021    -3072 
   -3123    -3160    -3161    -3126    -3075    -3030    -3015    -3042 
   -3095    -3144    -3156    -3129    -3082    -3036    -3015    -3032 
   -3068    -3111    -3117    -3061    -2982    -2928    -2905    -2891 
   -2866    -2832    -2801    -2776    -2776    -2802    -2833    -2863 
   -2878    -2870    -2843    -2805    -2775    -2768    -2795    -2845 
   -2890    -2898    -2871    -2813    -2732    -2655    -2624    -2636 
   -2667    -2705    -2745    -2771    -2771    -2762    -2774    -2813 
   -2859    -2897    -2918    -2916    -2884    -2840    -2817    -2832 
   -2878    -2934    -2998    -3065    -3113    -3098    -3038    -2978 
   -2937    -2928    -2947    -2979    -3015    -3040    -3049    -3049 
   -3032    -3003    -2982    -2995    -3060    -3133    -3161    -3140 
   -3090    -3021    -2951    -2901    -2884    -2907    -2965    -3032 
   -3075    -3088    -3075    -3037    -2991    -2967    -2979    -3017 
   -3056    -3067    -3030    -2961    -2895    -2863    -2880    -2959 
   -3071    -3152    -3169    -3142    -3088    -3021    -2965    -2940 
   -2928    -2914    -2895    -2855    -2787    -2724    -2698    -2713 
   -2744    -2768    -2776    -2781    -2795    -2817    -2824    -2830 
   -2859    -2905    -2956    -2998    -3017    -3002    -2948    -2879 
   -2849    -2883    -2941    -2970    -2957    -2922    -2889    -2878 
   -2910    -2982    -3053    -3083    -3071    -3048    -3018    -2987 
   -2960    -2934    -2920    -2917    -2910    -2897    -2893    -2899 
   -2921    -2959    -2983    -2971    -2934    -2890    -2851    -2822 
   -2810    -2830    -2895    -2967    -2998    -2995    -2995    -3007 
   -3013    -2998    -2980    -2976    -2980    -2984    -3006    -3040 
   -3056    -3061    -3069    -3067    -3044    -3019    -3015    -3046 
   -3099    -3144    -3173    -3188    -3171    -3110    -3026    -2947 
   -2893    -2872    -2875    -2894    -2914    -2921    -2898    -2845 
   -2789    -2764    -2785    -2813    -2817    -2801    -2794    -2816 
   -2872    -2948    -3006    -3026    -3015    -2991    -2974    -2963 
   -2941    -2907    -2876    -2867    -2876    -2889    -2917    -2972 
   -3028    -3056    -3064    -3052    -3013    -2957    -2909    -2876 
   -2857    -2847    -2839    -2843    -2870    -2911    -2940    -2947 
   -2938    -2936    -2945    -2959    -2968    -2967    -2949    -2922 
   -2907    -2902    -2899    -2901    -2906    -2911    -2920    -2940 
   -2974    -3007    -3011    -2978    -2930    -2899    -2901    -2917 
   -2911    -2889    -2872    -2864    -2867    -2884    -2920    -2960 
   -2980    -2978    -2968    -2955    -2926    -2874    -2808    -2759 
   -2732    -2716    -2706    -2694    -2674    -2636    -2590    -2569 
   -2597    -2673    -2763    -2839    -2880    -2871    -2810    -2741 
   -2718    -2743    -2785    -2821    -2836    -2818    -2770    -2722 
   -2729    -2795    -2879    -2944    -2984    -3001    -3002    -2995 
   -2987    -2986    -2982    -2953    -2906    -2870    -2847    -2820 
   -2790    -2776    -2799    -2862    -2949    -3030    -3078    -3087 
   -3059    -3014    -2980    -2964    -2956    -2955    -2953    -2940 
   -2913    -2880    -2874    -2921    -3010    -3107    -3195    -3254 
   -3272    -3256    -3217    -3163    -3130    -3129    -3141    -3160 
   -3180    -3188    -3176    -3149    -3121    -3099    -3084    -3075 
   -3071    -3067    -3049    -3018    -2994    -2982    -2984    -2988 
   -2976    -2952    -2937    -2947    -2974    -3001    -3017    -3036 
   -3067    -3095    -3113    -3123    -3123    -3109    -3095    -3102 
   -3133    -3171    -3181    -3152    -3083    -3005    -2956    -2952 
   -2982    -3021    -3041    -3030    -2999    -2955    -2917    -2903 
   -2926    -2986    -3057    -3105    -3105    -3063    -2998    -2944 
   -2936    -2980    -3041    -3083    -3094    -3071    -3030    -2987 
   -2947    -2907    -2860    -2797    -2721    -2641    -2583    -2569 
   -2598    -2659    -2713    -2728    -2716    -2706    -2709    -2735 
   -2782    -2830    -2872    -2894    -2890    -2871    -2859    -2875 
   -2911    -2947    -2975    -2994    -3005    -3017    -3017    -3005 
   -2995    -2975    -2933    -2875    -2803    -2740    -2713    -2722 
   -2748    -2781    -2820    -2871    -2930    -2994    -3046    -3069 
   -3068    -3060    -3046    -3034    -3032    -3034    -3049    -3071 
   -3082    -3076    -3061    -3048    -3053    -3082    -3103    -3106 
   -3095    -3065    -3015    -2975    -2968    -2986    -3005    -3011 
   -3007    -2995    -2986    -2987    -3002    -3021    -3034    -3036 
   -3032    -3033    -3057    -3088    -3100    -3087    -3026    -2910 
   -2782    -2687    -2632    -2612    -2628    -2668    -2708    -2712 
   -2690    -2686    -2727    -2793    -2853    -2898    -2928    -2926 
   -2883    -2820    -2760    -2731    -2741    -2766    -2776    -2771 
   -2767    -2767    -2767    -2787    -2844    -2910    -2947    -2930 
   -2886    -2849    -2833    -2844    -2894    -2963    -3009    -3026 
   -3041    -3065    -3096    -3123    -3142    -3154    -3157    -3153 
   -3142    -3121    -3103    -3107    -3129    -3156    -3168    -3154 
   -3123    -3100    -3087    -3072    -3061    -3059    -3068    -3083 
   -3073    -3024    -2965    -2916    -2866    -2818    -2771    -2721 
   -2673    -2637    -2643    -2702    -2791    -2884    -2971    -3038 
   -3076    -3078    -3055    -3042    -3041    -3029    -3006    -2991 
   -2994    -2995    -2992    -3013    -3063    -3117    -3154    -3161 
   -3123    -3040    -2937    -2868    -2862    -2897    -2936    -2971 
   -3006    -3040    -3080    -3137    -3207    -3283    -3327    -3295 
   -3198    -3080    -2972    -2884    -2809    -2735    -2671    -2631 
   -2613    -2613    -2610    -2604    -2610    -2621    -2613    -2587 
   -2570    -2563    -2562    -2570    -2589    -2636    -2716    -2806 
   -2889    -2940    -2938    -2898    -2830    -2754    -2683    -2624 
   -2581    -2579    -2610    -2637    -2652    -2670    -2686    -2693 
   -2701    -2739    -2820    -2922    -3003    -3037    -3037    -3033 
   -3041    -3079    -3153    -3227    -3279    -3311    -3330    -3318 
   -3261    -3169    -3060    -2944    -2828    -2741    -2714    -2740 
   -2791    -2833    -2843    -2826    -2810    -2820    -2862    -2934 
   -3045    -3183    -3325    -3450    -3539    -3576    -3570    -3535 
   -3483    -3412    -3331    -3257    -3202    -3164    -3129    -3099 
   -3094    -3092    -3057    -2991    -2920    -2849    -2778    -2717 
   -2693    -2713    -2741    -2758    -2782    -2829    -2895    -2965 
   -3029    -3078    -3094    -3067    -3007    -2934    -2871    -2839 
   -2852    -2905    -2964    -3014    -3048    -3048    -3009    -2959 
   -2906    -2840    -2752    -2655    -2579    -2532    -2520    -2563 
   -2655    -2779    -2924    -3055    -3136    -3167    -3148    -3092 
   -3032    -2998    -2987    -2957    -2906    -2863    -2833    -2797 
   -2774    -2801    -2883    -2975    -3011    -2965    -2874    -2799 
   -2764    -2763    -2789    -2803    -2778    -2748    -2776    -2883 
   -3028    -3154    -3238    -3279    -3279    -3261    -3264    -3300 
   -3323    -3277    -3163    -3009    -2843    -2697    -2601    -2536 
   -2489    -2471    -2482    -2521    -2587    -2670    -2745    -2822 
   -2921    -3040    -3145    -3211    -3246    -3261    -3277    -3308 
   -3357    -3407    -3424    -3385    -3310    -3225    -3145    -3080 
   -3014    -2926    -2814    -2693    -2582    -2506    -2481    -2500 
   -2532    -2532    -2479    -2421    -2417    -2485    -2596    -2700 
   -2764    -2787    -2793    -2798    -2803    -2806    -2825    -2878 
   -2944    -2980    -2971    -2932    -2855    -2748    -2658    -2640 
   -2710    -2835    -2963    -3053    -3076    -3045    -3010    -3019 
   -3075    -3134    -3164    -3199    -3273    -3357    -3416    -3457 
   -3485    -3477    -3412    -3291    -3148    -3052    -3048    -3115 
   -3203    -3264    -3277    -3257    -3215    -3160    -3114    -3088 
   -3073    -3073    -3075    -3055    -3022    -3005    -2998    -2994 
   -2986    -2963    -2925    -2883    -2860    -2870    -2903    -2930 
   -2936    -2910    -2855    -2779    -2713    -2673    -2647    -2606 
   -2529    -2440    -2396    -2411    -2481    -2590    -2700    -2791 
   -2879    -2965    -3052    -3138    -3211    -3264    -3287    -3277 
   -3238    -3161    -3052    -2949    -2895    -2887    -2880    -2849 
   -2812    -2793    -2803    -2847    -2903    -2947    -2952    -2921 
   -2886    -2884    -2914    -2953    -2995    -3046    -3102    -3130 
   -3113    -3078    -3063    -3091    -3149    -3199    -3221    -3223 
   -3231    -3257    -3284    -3277    -3214    -3115    -3017    -2941 
   -2899    -2887    -2905    -2928    -2913    -2851    -2771    -2727 
   -2752    -2825    -2905    -2967    -3014    -3045    -3036    -2963 
   -2833    -2678    -2519    -2384    -2292    -2246    -2245    -2293 
   -2367    -2430    -2470    -2500    -2531    -2577    -2643    -2706 
   -2756    -2793    -2802    -2783    -2752    -2716    -2687    -2706 
   -2795    -2928    -3064    -3186    -3280    -3314    -3264    -3148 
   -3005    -2875    -2791    -2770    -2810    -2879    -2934    -2957 
   -2952    -2945    -2972    -3033    -3109    -3175    -3213    -3237 
   -3260    -3254    -3203    -3106    -3003    -2951    -2971    -3051 
   -3159    -3254    -3312    -3331    -3300    -3226    -3157    -3141 
   -3186    -3256    -3307    -3341    -3368    -3380    -3368    -3348 
   -3343    -3352    -3357    -3354    -3339    -3315    -3277    -3214 
   -3142    -3100    -3103    -3110    -3078    -2990    -2864    -2743 
   -2637    -2559    -2529    -2551    -2597    -2644    -2682    -2705 
   -2706    -2685    -2651    -2620    -2612    -2647    -2705    -2747 
   -2759    -2745    -2727    -2724    -2737    -2739    -2709    -2662 
   -2635    -2660    -2736    -2835    -2932    -3007    -3052    -3069 
   -3072    -3086    -3118    -3152    -3164    -3130    -3040    -2914 
   -2810    -2783    -2830    -2909    -2979    -3025    -3049    -3034 
   -2967    -2870    -2760    -2643    -2543    -2488    -2490    -2536 
   -2604    -2683    -2766    -2829    -2849    -2822    -2756    -2697 
   -2689    -2731    -2790    -2822    -2813    -2779    -2736    -2687 
   -2650    -2658    -2736    -2884    -3064    -3206    -3275    -3280 
   -3221    -3082    -2891    -2725    -2651    -2683    -2781    -2890 
   -2994    -3078    -3111    -3091    -3021    -2893    -2743    -2632 
   -2577    -2555    -2540    -2542    -2590    -2675    -2752    -2802 
   -2835    -2864    -2918    -3017    -3161    -3315    -3412    -3424 
   -3387    -3364    -3395    -3465    -3543    -3615    -3673    -3704 
   -3690    -3615    -3491    -3350    -3231    -3149    -3099    -3088 
   -3127    -3191    -3242    -3253    -3227    -3180    -3122    -3078 
   -3059    -3067    -3107    -3164    -3176    -3110    -2999    -2879 
   -2790    -2759    -2786    -2867    -2990    -3113    -3211    -3272 
   -3280    -3235    -3165    -3083    -2974    -2845    -2731    -2666 
   -2660    -2679    -2677    -2635    -2571    -2523    -2523    -2569 
   -2621    -2654    -2667    -2666    -2640    -2579    -2482    -2376 
   -2307    -2319    -2425    -2597    -2772    -2901    -2952    -2928 
   -2849    -2747    -2654    -2593    -2560    -2538    -2524    -2536 
   -2567    -2605    -2662    -2735    -2810    -2875    -2929    -2990 
   -3068    -3163    -3257    -3330    -3362    -3338    -3248    -3118 
   -2999    -2913    -2852    -2808    -2774    -2744    -2718    -2704 
   -2710    -2743    -2794    -2868    -2963    -3056    -3137    -3204 
   -3242    -3241    -3211    -3173    -3148    -3150    -3173    -3187 
   -3188    -3194    -3200    -3184    -3148    -3126    -3145    -3207 
   -3287    -3342    -3345    -3308    -3267    -3230    -3213    -3210 
   -3191    -3153    -3123    -3119    -3164    -3234    -3273    -3275 
   -3271    -3275    -3275    -3256    -3217    -3173    -3130    -3086 
   -3030    -2941    -2821    -2713    -2656    -2637    -2633    -2631 
   -2610    -2558    -2494    -2447    -2423    -2411    -2393    -2381 
   -2401    -2457    -2529    -2621    -2718    -2791    -2828    -2843 
   -2848    -2849    -2841    -2812    -2770    -2732    -2690    -2664 
   -2682    -2729    -2775    -2783    -2737    -2666    -2612    -2586 
   -2573    -2544    -2502    -2481    -2494    -2552    -2658    -2786 
   -2906    -2983    -2990    -2934    -2845    -2762    -2721    -2731 
   -2774    -2832    -2895    -2955    -2997    -3018    -3021    -3007 
   -3013    -3052    -3091    -3103    -3103    -3130    -3202    -3306 
   -3420    -3520    -3574    -3566    -3520    -3464    -3423    -3414 
   -3422    -3422    -3406    -3383    -3372    -3376    -3385    -3368 
   -3284    -3140    -2992    -2878    -2799    -2763    -2778    -2829 
   -2884    -2926    -2940    -2909    -2840    -2778    -2756    -2778 
   -2829    -2920    -3044    -3163    -3245    -3312    -3379    -3412 
   -3399    -3358    -3318    -3310    -3346    -3408    -3457    -3462 
   -3416    -3326    -3195    -3042    -2902    -2812    -2787    -2790 
   -2774    -2729    -2648    -2540    -2452    -2421    -2455    -2538 
   -2635    -2721    -2783    -2812    -2820    -2833    -2866    -2911 
   -2929    -2898    -2844    -2803    -2797    -2816    -2828    -2813 
   -2771    -2712    -2668    -2664    -2685    -2708    -2741    -2783 
   -2809    -2810    -2812    -2822    -2844    -2879    -2940    -3011 
   -3072    -3110    -3118    -3106    -3087    -3061    -3030    -2990 
   -2943    -2903    -2868    -2803    -2716    -2647    -2620    -2625 
   -2648    -2681    -2709    -2714    -2687    -2652    -2627    -2605 
   -2593    -2601    -2656    -2763    -2909    -3092    -3288    -3439 
   -3511    -3499    -3423    -3316    -3191    -3065    -2986    -2974 
   -2999    -3015    -2988    -2932    -2883    -2866    -2883    -2918 
   -2943    -2948    -2933    -2895    -2837    -2770    -2721    -2728 
   -2791    -2872    -2941    -2986    -3003    -3002    -3003    -3032 
   -3086    -3134    -3148    -3127    -3098    -3080    -3075    -3078 
   -3099    -3138    -3179    -3200    -3180    -3129    -3083    -3067 
   -3084    -3121    -3163    -3215    -3280    -3333    -3345    -3331 
   -3311    -3277    -3245    -3227    -3223    -3222    -3203    -3165 
   -3121    -3073    -3038    -3028    -3021    -3002    -2968    -2917 
   -2875    -2867    -2880    -2878    -2840    -2774    -2700    -2637 
   -2602    -2604    -2659    -2756    -2844    -2894    -2917    -2917 
   -2882    -2822    -2770    -2743    -2727    -2690    -2621    -2542 
   -2485    -2474    -2500    -2531    -2558    -2583    -2612    -2640 
   -2666    -2683    -2689    -2683    -2668    -2654    -2648    -2648 
   -2660    -2687    -2709    -2710    -2710    -2735    -2782    -2839 
   -2884    -2914    -2916    -2882    -2825    -2778    -2749    -2747 
   -2776    -2828    -2889    -2953    -2991    -2979    -2930    -2879 
   -2848    -2860    -2917    -3001    -3080    -3118    -3125    -3138 
   -3179    -3242    -3303    -3329    -3312    -3267    -3208    -3167 
   -3159    -3169    -3184    -3195    -3180    -3126    -3052    -2990 
   -2945    -2925    -2926    -2947    -2987    -3052    -3121    -3167 
   -3169    -3137    -3098    -3063    -3029    -3007    -3007    -3018 
   -3007    -2965    -2895    -2794    -2668    -2559    -2506    -2525 
   -2598    -2685    -2759    -2813    -2855    -2894    -2934    -2988 
   -3072    -3179    -3265    -3318    -3350    -3370    -3381    -3373 
   -3341    -3299    -3261    -3227    -3206    -3192    -3176    -3157 
   -3138    -3102    -3040    -2961    -2876    -2805    -2755    -2732 
   -2744    -2785    -2839    -2893    -2936    -2970    -3009    -3042 
   -3044    -2999    -2928    -2866    -2833    -2825    -2837    -2878 
   -2949    -3033    -3096    -3114    -3075    -2965    -2817    -2693 
   -2633    -2635    -2675    -2736    -2779    -2779    -2741    -2704 
   -2697    -2709    -2714    -2717    -2725    -2732    -2727    -2709 
   -2689    -2674    -2673    -2685    -2714    -2763    -2828    -2893 
   -2944    -2975    -2982    -2970    -2956    -2960    -2972    -2974 
   -2956    -2933    -2914    -2905    -2897    -2886    -2880    -2895 
   -2947    -3022    -3095    -3132    -3107    -3034    -2952    -2893 
   -2856    -2840    -2849    -2870    -2872    -2839    -2776    -2708 
