Origin Time       2024/04/02 04:24:00
Lat.              40.133
Long.             141.712
Depth. (km)       71
Mag.              6.0
Station Code      HKD109
Station Lat.      42.1678
Station Long.     142.7673
Station Height(m) 4
Record Time       2024/04/02 04:25:41
Sampling Freq(Hz) 100Hz
Duration Time(s)  68
Dir.              U-D
Scale Factor      7845(gal)/8223790
Max. Acc. (gal)   1.097
Last Correction   2024/04/02 04:25:41
Memo.             
[...]
    5281     5113     4684     4279     4166     4291     4413     4456 
    4521     4623     4664     4565     4432     4479     4692     4853 
    4892     4874     4779     4569     4371     4330     4371     4284 
    4075     3981     4089     4228     4320     4422     4513     4527 
    4525     4600     4708     4715     4573     4402     4355     4407 
    4421     4417     4519     4650     4588     4352     4226     4405 
    4764     4959     4833     4618     4544     4552     4563     4633 
    4801     4977     4974     4768     4638     4772     4941     4833 
    4460     4129     4147     4449     4662     4623     4487     4379 
    4294     4234     4256     4428     4702     4876     4814     4685 
    4750     4959     5073     4990     4791     4607     4554     4633 
    4702     4692     4645     4576     4494     4368     4116     3832 
    3775     4004     4305     4480     4476     4310     4117     4129 
    4434     4882     5192     5185     4958     4696     4452     4307 
    4380     4525     4456     4228     4172     4407     4645     4584 
    4349     4314     4576     4872     4959     4880     4842     4904 
    4860     4621     4455     4550     4656     4472     4198     4253 
    4596     4800     4723     4633     4696     4729     4544     4301 
    4297     4513     4602     4396     4162     4189     4414     4637 
    4784     4834     4785     4711     4685     4708     4720     4688 
    4615     4509     4421     4507     4791     4980     4824     4545 
    4449     4415     4240     4071     4171     4495     4731     4725 
    4611     4494     4379     4320     4329     4330     4309     4326 
    4379     4421     4490     4626     4783     4887     4922     4907 
    4878     4876     4893     4866     4706     4437     4186     4089 
    4225     4430     4419     4243     4179     4288     4417     4476 
    4521     4573     4564     4511     4549     4723     4981     5166 
    5066     4753     4579     4677     4849     4928     4908     4793 
    4603     4376     4167     4112     4313     4596     4689     4583 
    4498     4561     4750     4958     5020     4946     4909     4880 
    4680     4405     4361     4625     4901     4835     4433     4099 
    4148     4419     4534     4399     4251     4202     4120     4047 
    4179     4405     4417     4251     4251     4560     4918     4984 
    4716     4356     4149     4155     4272     4440     4696     4951 
    5028     4955     4870     4828     4830     4761     4488     4183 
    4174     4428     4579     4477     4337     4338     4469     4660 
    4776     4648     4286     3912     3811     4074     4450     4650 
    4739     4900     4996     4884     4770     4789     4723     4488 
    4310     4363     4576     4730     4758     4776     4761     4677 
    4681     4761     4707     4541     4445     4477     4581     4658 
    4614     4432     4194     4077     4160     4332     4526     4733 
    4811     4693     4495     4276     4079     4050     4212     4423 
    4623     4791     4842     4777     4675     4522     4371     4392 
    4563     4677     4707     4750     4774     4741     4729     4772 
    4781     4615     4283     4043     4058     4194     4374     4633 
    4787     4639     4364     4253     4317     4324     4153     4072 
    4396     4888     5050     4861     4710     4800     4963     4965 
    4803     4644     4654     4808     4855     4719     4596     4591 
    4590     4509     4403     4425     4602     4729     4662     4514 
    4442     4469     4488     4433     4378     4406     4496     4564 
    4577     4594     4662     4753     4768     4675     4517     4287 
    4031     3966     4214     4611     4923     4974     4715     4380 
    4299     4494     4696     4681     4518     4422     4407     4310 
    4081     3912     4070     4556     5051     5265     5120     4797 
    4564     4455     4356     4360     4595     4846     4752     4305 
    3940     4029     4457     4796     4754     4465     4337     4471 
    4510     4322     4259     4544     4880     4893     4604     4332 
    4320     4459     4449     4318     4415     4826     5211     5275 
    5073     4766     4483     4396     4560     4770     4849     4773 
    4558     4297     4236     4491     4818     4895     4691     4442 
    4364     4452     4572     4603     4521     4430     4419     4456 
    4525     4612     4662     4715     4822     4892     4824     4702 
    4692     4781     4743     4541     4337     4174     4090     4195 
    4409     4557     4584     4506     4425     4437     4542     4754 
    5008     5024     4692     4378     4468     4845     5078     4985 
    4716     4440     4218     4116     4159     4284     4391     4482 
    4625     4729     4611     4322     4117     4195     4576     5026 
    5182     4951     4627     4475     4445     4419     4399     4406 
    4473     4618     4708     4639     4469     4305     4248     4342 
    4492     4563     4540     4486     4433     4380     4326     4263 
    4206     4247     4413     4587     4606     4417     4145     4081 
    4347     4637     4703     4808     5108     5235     5020     4818 
    4803     4737     4571     4549     4669     4637     4391     4275 
    4530     4926     5069     4838     4410     4023     3823     3832 
    3986     4237     4533     4727     4719     4614     4599     4679 
    4652     4449     4367     4650     4989     4947     4664     4591 
    4833     5076     5026     4743     4472     4349     4391     4554 
    4700     4622     4318     4087     4207     4633     5027     5094 
    4855     4523     4290     4259     4429     4685     4824     4666 
    4266     3947     4000     4294     4442     4341     4302     4577 
    4912     4866     4576     4631     5161     5630     5590     5111 
    4579     4340     4376     4398     4349     4410     4444     4124 
    3716     3792     4252     4602     4799     4990     5020     4787 
    4517     4375     4326     4429     4772     5127     5103     4645 
    4166     4054     4234     4437     4644     4889     4947     4652 
    4248     4106     4228     4374     4467     4561     4650     4681 
    4689     4815     5057     5096     4685     4091     3766     3858 
    4206     4507     4542     4364     4170     4140     4307     4499 
    4611     4669     4644     4606     4781     5151     5425     5371 
    5005     4652     4604     4649     4425     4086     4087     4413 
    4540     4270     4105     4453     4965     5076     4846     4765 
    4900     4843     4434     4043     4039     4326     4525     4457 
    4355     4468     4669     4722     4571     4270     3932     3727 
    3765     4035     4386     4572     4509     4374     4293     4229 
    4207     4293     4486     4783     5128     5287     5069     4685 
    4550     4746     5005     5071     4865     4526     4376     4503 
    4644     4715     4835     4865     4612     4247     4031     4031 
    4193     4322     4310     4391     4687     4877     4753     4527 
    4519     4791     5055     5084     5004     4914     4762     4680 
    4769     4830     4630     4279     4106     4178     4241     4229 
    4333     4548     4696     4733     4708     4645     4546     4440 
    4351     4306     4349     4499     4708     4851     4781     4491 
    4217     4203     4417     4634     4687     4619     4626     4772 
    4920     4996     5061     5097     4992     4774     4645     4712 
    4803     4676     4407     4217     4137     4145     4195     4124 
    3963     4012     4334     4675     4868     4928     4924     4862 
    4693     4521     4563     4816     5053     5062     4814     4433 
    4125     4059     4261     4545     4630     4438     4152     3894 
    3597     3406     3670     4333     4905     5094     5063     5089 
    5166     5112     4992     5008     5104     5070     4861     4572 
    4353     4338     4456     4448     4240     4067     4121     4282 
    4330     4272     4251     4320     4486     4762     5050     5090 
    4796     4553     4693     4947     4973     4919     4969     4930 
    4612     4209     4131     4460     4758     4641     4317     4195 
    4214     4059     3801     3834     4260     4706     4803     4685 
    4774     5086     5194     4928     4702     4903     5190     4878 
    4066     3607     3847     4233     4290     4179     4187     4336 
    4482     4557     4654     4746     4604     4282     4152     4279 
    4353     4278     4228     4257     4314     4455     4695     4847 
    4777     4598     4449     4345     4315     4446     4699     4842 
    4796     4818     5034     5170     4973     4639     4549     4683 
    4629     4306     4167     4405     4719     4939     5051     4958 
    4699     4399     4151     4098     4222     4245     4058     3871 
    3947     4324     4680     4689     4531     4548     4588     4422 
    4363     4730     5182     5213     4877     4581     4526     4662 
    4838     4873     4815     4843     4853     4611     4240     4083 
    4174     4299     4409     4558     4687     4710     4645     4537 
    4436     4396     4446     4598     4797     4892     4831     4776 
    4831     4914     4973     5073     5185     5206     5163     5088 
    4870     4525     4260     4097     3877     3720     3951     4540 
    4976     4822     4326     4168     4459     4587     4313     4179 
    4456     4703     4627     4529     4708     4996     4972     4500 
    3943     3824     4247     4666     4608     4391     4432     4453 
    4187     3933     4005     4291     4465     4405     4372     4558 
    4772     4831     4804     4818     4980     5279     5503     5510 
    5413     5235     4779     4131     3728     3719     3850     3955 
    4068     4247     4446     4522     4440     4426     4657     4978 
    5076     4900     4762     4868     5024     5049     5026     4969 
    4743     4375     4090     4064     4243     4413     4471     4538 
    4665     4639     4372     4124     4104     4216     4252     4163 
    4105     4186     4244     4128     4037     4210     4495     4580 
    4521     4607     4801     4801     4549     4267     4140     4171 
    4224     4220     4256     4399     4553     4618     4602     4573 
    4571     4549     4531     4687     5024     5335     5451     5340 
    5109     4968     5043     5193     5139     4901     4807     4882 
    4837     4641     4522     4596     4801     4932     4880     4741 
    4554     4299     4021     3732     3553     3697     4051     4270 
    4315     4361     4401     4345     4297     4438     4729     4916 
    4811     4407     3933     3824     4174     4459     4396     4450 
    4889     5243     5054     4545     4369     4735     4980     4580 
    4029     4025     4460     4664     4374     4155     4558     5238 
    5494     5275     5059     4955     4588     3921     3542     3844 
    4413     4523     4078     3742     4001     4537     4842     4895 
    4926     5047     5250     5364     5259     5140     5217     5309 
    5197     4932     4600     4229     3877     3636     3670     4031 
    4419     4608     4718     4785     4685     4558     4720     5189 
    5578     5482     4973     4572     4577     4703     4572     4237 
    4074     4253     4500     4491     4295     4099     3877     3667 
    3676     3912     4158     4234     4114     3940     3894     4032 
    4338     4711     4969     5076     5120     5093     4992     4884 
    4769     4639     4545     4567     4718     4870     4887     4774 
    4617     4536     4653     4874     4946     4850     4780     4718 
    4542     4398     4407     4422     4348     4307     4388     4491 
    4510     4511     4657     4942     5132     5100     4953     4818 
    4801     4984     5124     4946     4634     4511     4542     4503 
    4318     4148     4158     4253     4257     4141     4044     4147 
    4357     4390     4340     4557     4981     5277     5313     5142 
    4839     4492     4286     4409     4698     4785     4639     4461 
    4336     4216     4032     3823     3712     3713     3738     3724 
    3678     3667     3773     4029     4363     4588     4684     4853 
    5081     5088     4876     4747     4842     5004     5028     4896 
    4773     4746     4703     4544     4355     4244     4193     4212 
    4306     4276     4032     3900     4126     4544     4912     5096 
    5071     5011     5044     5117     5189     5235     5173     5027 
    4891     4823     4855     4892     4797     4592     4418     4365 
    4399     4361     4205     4144     4245     4264     4120     4013 
    4095     4313     4476     4461     4374     4396     4587     4842 
    4978     4957     4936     4918     4752     4545     4552     4737 
    4866     4837     4662     4403     4189     4083     4027     3978 
    3998     4172     4421     4534     4476     4449     4645     4963 
    5140     5189     5273     5277     5030     4681     4500     4549 
    4585     4351     3989     3848     3989     4178     4251     4351 
    4603     4743     4529     4241     4267     4540     4776     4892 
    5011     5193     5282     5147     4884     4611     4328     4028 
    3778     3798     4260     4846     5049     4915     4869     5032 
    5175     5157     5131     5233     5259     4974     4529     4239 
    4170     4077     3755     3411     3402     3739     4145     4407 
    4469     4364     4201     4171     4430     4819     4984     4914 
    4849     4860     4965     5159     5308     5336     5231     4977 
    4830     5039     5248     5027     4618     4415     4302     4027 
    3757     3812     4079     4147     4012     4124     4634     5086 
    5093     4845     4745     4897     5084     5070     4860     4630 
    4480     4399     4392     4414     4328     4133     3990     4071 
    4406     4689     4584     4241     4014     3874     3728     3743 
    3909     4047     4189     4433     4702     4823     4762     4693 
    4739     4752     4530     4178     4027     4203     4483     4638 
    4742     4889     4915     4685     4414     4361     4507     4641 
    4614     4494     4445     4452     4344     4153     4152     4429 
    4734     4891     4968     4982     4945     4977     5071     5086 
    4988     4788     4549     4506     4719     4901     4891     4828 
    4812     4799     4702     4500     4338     4361     4513     4602 
    4475     4256     4271     4480     4521     4375     4332     4457 
    4561     4486     4324     4348     4572     4699     4625     4575 
    4664     4783     4808     4650     4361     4160     4125     4121 
    4094     4151     4326     4494     4515     4426     4363     4322 
    4256     4302     4591     4955     5152     5059     4725     4445 
    4419     4558     4752     4972     5192     5293     5086     4630 
    4282     4302     4590     4845     4885     4823     4827     4820 
    4664     4434     4340     4452     4607     4599     4368     4016 
    3751     3744     3971     4263     4507     4706     4830     4806 
    4631     4426     4318     4320     4305     4191     4037     3927 
    3939     4091     4290     4504     4773     4995     5009     4818 
    4590     4464     4396     4328     4363     4572     4787     4870 
    4931     5031     5071     5042     5005     4936     4884     4936 
    4955     4797     4591     4487     4459     4423     4351     4337 
    4482     4696     4870     4990     5067     5088     5009     4822 
    4662     4673     4783     4788     4610     4419     4444     4615 
    4577     4176     3754     3697     3933     4164     4255     4243 
    4263     4401     4500     4409     4244     4216     4344     4452 
    4391     4290     4306     4307     4148     3986     4027     4270 
    4541     4650     4604     4591     4699     4876     5051     5132 
    5057     4899     4793     4816     4980     5193     5287     5162 
    4864     4583     4461     4407     4341     4284     4194     4125 
    4248     4455     4446     4255     4199     4371     4552     4654 
    4833     5081     5134     4893     4608     4495     4522     4619 
    4733     4707     4394     3905     3623     3788     4180     4453 
    4618     4846     5009     4866     4529     4357     4506     4776 
    4896     4853     4781     4661     4421     4174     4044     3997 
    3904     3692     3496     3546     3838     4144     4279     4260 
    4291     4510     4758     4785     4658     4648     4843     5098 
    5217     5138     4963     4803     4650     4406     4064     3863 
    4043     4483     4816     4846     4718     4637     4567     4450 
    4491     4857     5383     5667     5458     5022     4822     4887 
    4931     4878     4830     4780     4642     4436     4279     4240 
    4253     4191     4018     3835     3758     3850     4064     4276 
    4496     4820     5124     5169     4958     4718     4638     4750 
    4853     4738     4594     4718     4959     5008     4927     4900 
    4815     4504     4128     4006     4190     4441     4504     4326 
    4162     4324     4695     4951     5084     5244     5385     5337 
    5084     4800     4604     4445     4322     4257     4194     4125 
    4104     4159     4330     4572     4764     4882     4935     4877 
    4780     4757     4730     4581     4417     4399     4498     4576 
    4530     4326     4081     4005     4136     4311     4429     4526 
    4604     4602     4486     4383     4488     4819     5162     5277 
    5130     4923     4779     4585     4302     4079     4047     4198 
    4372     4401     4345     4338     4301     4090     3790     3684 
    3940     4374     4645     4677     4615     4573     4649     4864 
    5051     5015     4787     4571     4449     4355     4268     4287 
    4495     4785     4847     4552     4214     4153     4290     4422 
    4506     4553     4585     4596     4511     4344     4212     4182 
    4244     4352     4448     4537     4702     4945     5086     5005 
    4838     4726     4646     4596     4571     4518     4479     4548 
    4633     4622     4622     4753     4930     4993     4868     4637 
    4498     4498     4483     4436     4471     4558     4607     4635 
    4654     4631     4603     4633     4739     4847     4800     4619 
    4585     4762     4864     4796     4779     4864     4872     4719 
    4523     4490     4634     4656     4428     4268     4407     4625 
    4658     4533     4406     4345     4337     4382     4498     4665 
    4777     4750     4677     4698     4801     4891     4909     4926 
    4986     4988     4843     4646     4495     4351     4160     3989 
    3942     4043     4197     4279     4290     4342     4440     4433 
    4353     4449     4719     4872     4758     4494     4357     4527 
    4779     4799     4660     4587     4604     4595     4509     4445 
    4504     4604     4590     4444     4290     4290     4487     4700 
    4739     4657     4664     4820     4922     4787     4521     4365 
    4417     4556     4548     4283     3962     3792     3720     3711 
    3873     4209     4541     4707     4716     4703     4734     4783 
