Origin Time       2024/04/02 04:24:00
Lat.              40.133
Long.             141.712
Depth. (km)       71
Mag.              6.0
Station Code      HKD169
Station Lat.      41.9351
Station Long.     140.3678
Station Height(m) 111
Record Time       2024/04/02 04:25:42
Sampling Freq(Hz) 100Hz
Duration Time(s)  73
Dir.              U-D
Scale Factor      7845(gal)/8223790
Max. Acc. (gal)   1.638
Last Correction   2024/04/02 04:25:44
Memo.             
   -2960    -2790    -2631    -2506    -2382    -2250    -2145    -2070 
   -1949    -1761    -1649    -1706    -1802    -1790    -1715    -1726 
   -1860    -1995    -2030    -2016    -2010    -1984    -1969    -2019 
   -2118    -2219    -2254    -2191    -2097    -2053    -2074    -2123 
   -2089    -1956    -1842    -1777    -1657    -1459    -1243    -1088 
   -1065    -1146    -1286    -1532    -1845    -2107    -2323    -2550 
   -2762    -2918    -3028    -3150    -3294    -3341    -3225    -3060 
   -2951    -2890    -2848    -2785    -2652    -2463    -2299    -2195 
   -2116    -2074    -2118    -2177    -2135    -2022    -1972    -2033 
   -2123    -2145    -2103    -2054    -2010    -1958    -1915    -1883 
   -1875    -1904    -1922    -1891    -1852    -1898    -2033    -2138 
   -2107    -1962    -1794    -1651    -1520    -1381    -1285    -1293 
   -1385    -1491    -1556    -1571    -1584    -1605    -1640    -1783 
   -2069    -2354    -2471    -2425    -2359    -2340    -2308    -2261 
   -2297    -2427    -2556    -2627    -2646    -2647    -2646    -2574 
   -2370    -2133    -2015    -2027    -2068    -2106    -2182    -2295 
   -2366    -2359    -2323    -2280    -2207    -2081    -1925    -1830 
   -1842    -1860    -1788    -1699    -1709    -1786    -1822    -1818 
   -1850    -1933    -1971    -1892    -1800    -1849    -2022    -2181 
   -2242    -2227    -2226    -2285    -2332    -2273    -2126    -1979 
   -1927    -1987    -2015    -1952    -1961    -2138    -2328    -2380 
   -2334    -2340    -2436    -2496    -2444    -2347    -2263    -2181 
   -2116    -2085    -2056    -2002    -1968    -2010    -2110    -2239 
   -2407    -2531    -2489    -2339    -2241    -2226    -2219    -2211 
   -2243    -2300    -2347    -2396    -2444    -2434    -2344    -2247 
   -2203    -2189    -2162    -2120    -2061    -1969    -1877    -1819 
   -1782    -1804    -1941    -2166    -2378    -2451    -2369    -2232 
   -2122    -2062    -2069    -2120    -2191    -2278    -2323    -2254 
   -2131    -2065    -2080    -2104    -2084    -2035    -2008    -2037 
   -2135    -2230    -2236    -2189    -2138    -2069    -1966    -1819 
   -1678    -1633    -1683    -1741    -1788    -1825    -1809    -1709 
   -1564    -1483    -1524    -1625    -1750    -1921    -2110    -2274 
   -2432    -2617    -2778    -2825    -2741    -2583    -2416    -2282 
   -2185    -2151    -2174    -2111    -1895    -1687    -1620    -1621 
   -1628    -1675    -1759    -1819    -1829    -1829    -1877    -1961 
   -2046    -2166    -2338    -2525    -2683    -2713    -2573    -2393 
   -2295    -2251    -2184    -2057    -1931    -1892    -1917    -1908 
   -1846    -1777    -1756    -1787    -1815    -1804    -1786    -1767 
   -1732    -1707    -1719    -1788    -1939    -2119    -2253    -2354 
   -2432    -2420    -2308    -2203    -2230    -2376    -2488    -2516 
   -2560    -2650    -2710    -2737    -2754    -2722    -2605    -2419 
   -2228    -2092    -1991    -1875    -1804    -1891    -2104    -2292 
   -2367    -2409    -2519    -2628    -2598    -2438    -2255    -2080 
   -1888    -1705    -1584    -1580    -1684    -1852    -2047    -2176 
   -2151    -2056    -2011    -2019    -1989    -1857    -1680    -1583 
   -1603    -1703    -1880    -2097    -2266    -2349    -2363    -2378 
   -2470    -2620    -2727    -2733    -2652    -2520    -2369    -2245 
   -2211    -2251    -2285    -2272    -2231    -2184    -2135    -2130 
   -2162    -2139    -2039    -1985    -2022    -2008    -1841    -1617 
   -1490    -1485    -1529    -1595    -1684    -1755    -1757    -1722 
   -1702    -1691    -1684    -1709    -1764    -1856    -2030    -2255 
   -2461    -2663    -2864    -3014    -3064    -2941    -2679    -2446 
   -2338    -2313    -2296    -2254    -2215    -2200    -2182    -2197 
   -2290    -2384    -2386    -2361    -2385    -2428    -2398    -2254 
   -2084    -2010    -2004    -1956    -1867    -1848    -1964    -2153 
   -2305    -2376    -2369    -2268    -2112    -2030    -2093    -2236 
   -2336    -2313    -2235    -2219    -2239    -2188    -2027    -1790 
   -1564    -1449    -1471    -1590    -1721    -1773    -1730    -1651 
   -1570    -1512    -1495    -1509    -1566    -1701    -1860    -1965 
   -2050    -2161    -2236    -2234    -2197    -2208    -2295    -2407 
   -2470    -2436    -2340    -2288    -2286    -2286    -2349    -2515 
   -2628    -2554    -2374    -2265    -2238    -2173    -2077    -2089 
   -2226    -2322    -2238    -2042    -1907    -1895    -1910    -1877 
   -1841    -1842    -1860    -1883    -1902    -1925    -1979    -2057 
   -2114    -2128    -2151    -2228    -2323    -2349    -2257    -2097 
   -1966    -1906    -1891    -1865    -1796    -1705    -1634    -1618 
   -1615    -1572    -1521    -1539    -1633    -1753    -1895    -2103 
   -2371    -2650    -2882    -3018    -3052    -2972    -2806    -2651 
   -2533    -2413    -2367    -2470    -2586    -2579    -2467    -2309 
   -2170    -2077    -1998    -1921    -1850    -1761    -1659    -1568 
   -1537    -1629    -1779    -1831    -1807    -1861    -2031    -2228 
   -2365    -2420    -2421    -2349    -2226    -2145    -2124    -2126 
   -2122    -2083    -2000    -1915    -1875    -1887    -1891    -1819 
   -1706    -1642    -1680    -1830    -2069    -2316    -2475    -2520 
   -2548    -2693    -2925    -3059    -3024    -2903    -2741    -2543 
   -2378    -2297    -2268    -2257    -2257    -2253    -2227    -2201 
   -2201    -2172    -2012    -1773    -1586    -1478    -1410    -1355 
   -1291    -1243    -1259    -1332    -1439    -1602    -1795    -1908 
   -1892    -1818    -1795    -1888    -2073    -2234    -2289    -2320 
   -2458    -2698    -2902    -2976    -2955    -2862    -2650    -2307 
   -1923    -1607    -1422    -1372    -1405    -1452    -1468    -1439 
   -1435    -1544    -1719    -1848    -1935    -2052    -2208    -2376 
   -2539    -2694    -2798    -2825    -2833    -2894    -2983    -3033 
   -3018    -2955    -2848    -2694    -2509    -2330    -2185    -2088 
   -2026    -1923    -1768    -1686    -1726    -1790    -1822    -1840 
   -1849    -1937    -2145    -2343    -2436    -2484    -2523    -2496 
   -2396    -2343    -2424    -2527    -2502    -2398    -2304    -2192 
   -2042    -1918    -1861    -1852    -1872    -1930    -2042    -2157 
   -2177    -2134    -2122    -2112    -2027    -1869    -1723    -1663 
   -1692    -1775    -1861    -1876    -1815    -1810    -1929    -2079 
   -2153    -2130    -2033    -1917    -1837    -1795    -1763    -1737 
   -1750    -1821    -1938    -2104    -2286    -2413    -2470    -2540 
   -2668    -2759    -2706    -2589    -2542    -2573    -2606    -2636 
   -2714    -2801    -2763    -2570    -2340    -2169    -2057    -1979 
   -1923    -1877    -1829    -1777    -1717    -1611    -1417    -1179 
   -1031    -1061    -1242    -1480    -1678    -1837    -2018    -2176 
   -2231    -2234    -2265    -2313    -2336    -2330    -2327    -2336 
   -2304    -2226    -2166    -2153    -2122    -2039    -1968    -1961 
   -1961    -1875    -1682    -1440    -1217    -1082    -1067    -1166 
   -1331    -1518    -1717    -1894    -1992    -2034    -2092    -2189 
   -2296    -2404    -2544    -2732    -2938    -3110    -3226    -3338 
   -3512    -3713    -3831    -3824    -3767    -3708    -3554    -3229 
   -2862    -2647    -2566    -2443    -2219    -1999    -1868    -1807 
   -1718    -1543    -1359    -1212     -993     -715     -568     -589 
    -648     -676     -754     -957    -1201    -1367    -1507    -1728 
   -2000    -2182    -2192    -2126    -2104    -2099    -2096    -2191 
   -2358    -2442    -2386    -2296    -2268    -2285    -2259    -2147 
   -2043    -2068    -2182    -2232    -2161    -2093    -2158    -2285 
   -2332    -2323    -2346    -2394    -2409    -2416    -2493    -2620 
   -2685    -2670    -2663    -2689    -2679    -2592    -2438    -2273 
   -2151    -2061    -1935    -1806    -1746    -1786    -1895    -1981 
   -1957    -1875    -1853    -1887    -1867    -1772    -1713    -1750 
   -1802    -1775    -1699    -1636    -1610    -1645    -1723    -1791 
   -1823    -1831    -1818    -1768    -1684    -1618    -1605    -1638 
   -1718    -1834    -1938    -2004    -2045    -2038    -1973    -1892 
   -1848    -1908    -2087    -2300    -2477    -2590    -2605    -2560 
   -2598    -2771    -2955    -3013    -2941    -2801    -2612    -2378 
   -2155    -1999    -1907    -1831    -1749    -1695    -1675    -1642 
   -1618    -1660    -1761    -1867    -1957    -2031    -2050    -1972 
   -1861    -1831    -1891    -1993    -2110    -2209    -2286    -2373 
   -2519    -2694    -2754    -2651    -2524    -2430    -2299    -2166 
   -2142    -2205    -2259    -2317    -2452    -2621    -2654    -2498 
   -2280    -2073    -1884    -1780    -1829    -1969    -2035    -1998 
   -2011    -2133    -2249    -2301    -2330    -2354    -2308    -2154 
   -2035    -2087    -2219    -2313    -2382    -2479    -2612    -2743 
   -2809    -2793    -2709    -2565    -2423    -2365    -2366    -2361 
   -2338    -2299    -2254    -2214    -2127    -1972    -1817    -1702 
   -1588    -1463    -1355    -1309    -1355    -1422    -1404    -1339 
   -1372    -1536    -1755    -1954    -2124    -2300    -2440    -2488 
   -2496    -2528    -2565    -2619    -2704    -2786    -2825    -2812 
   -2747    -2671    -2623    -2590    -2559    -2467    -2259    -2038 
   -1918    -1873    -1852    -1844    -1852    -1890    -1953    -1984 
   -1952    -1902    -1906    -1952    -1980    -1988    -1999    -1996 
   -1999    -2058    -2181    -2328    -2439    -2484    -2512    -2567 
   -2613    -2590    -2509    -2451    -2454    -2496    -2552    -2605 
   -2644    -2646    -2559    -2389    -2236    -2164    -2128    -2080 
   -2016    -1942    -1861    -1749    -1598    -1490    -1483    -1533 
   -1593    -1690    -1895    -2168    -2323    -2300    -2276    -2342 
   -2398    -2407    -2434    -2500    -2559    -2589    -2614    -2656 
   -2647    -2513    -2315    -2149    -2026    -1935    -1902    -1907 
   -1846    -1678    -1510    -1432    -1397    -1356    -1379    -1536 
   -1750    -1914    -2025    -2134    -2255    -2332    -2323    -2304 
   -2374    -2484    -2540    -2529    -2498    -2490    -2492    -2470 
   -2446    -2440    -2407    -2334    -2277    -2242    -2153    -1987 
   -1831    -1761    -1745    -1722    -1680    -1625    -1582    -1590 
   -1676    -1849    -2049    -2160    -2161    -2153    -2193    -2299 
   -2436    -2508    -2479    -2442    -2474    -2546    -2562    -2502 
   -2419    -2304    -2115    -1891    -1707    -1572    -1467    -1413 
   -1447    -1582    -1761    -1863    -1811    -1667    -1537    -1467 
   -1451    -1513    -1669    -1840    -1898    -1850    -1858    -1993 
   -2142    -2232    -2313    -2396    -2428    -2389    -2296    -2180 
   -2057    -1952    -1888    -1867    -1892    -1949    -1983    -2003 
   -2080    -2211    -2343    -2435    -2454    -2393    -2286    -2158 
   -2015    -1881    -1800    -1784    -1810    -1856    -1915    -1956 
   -1971    -2002    -2064    -2142    -2228    -2303    -2353    -2390 
   -2447    -2539    -2624    -2647    -2613    -2566    -2533    -2547 
   -2602    -2636    -2593    -2471    -2326    -2246    -2273    -2354 
   -2408    -2369    -2220    -2014    -1831    -1703    -1598    -1526 
   -1543    -1633    -1703    -1671    -1543    -1383    -1266    -1270 
   -1422    -1606    -1709    -1768    -1833    -1884    -1906    -1894 
   -1869    -1876    -1917    -1964    -1989    -1983    -1976    -1999 
   -2019    -2023    -2057    -2120    -2143    -2106    -2034    -1950 
   -1860    -1772    -1730    -1772    -1867    -1952    -1991    -2002 
   -2045    -2128    -2204    -2243    -2277    -2357    -2471    -2590 
   -2705    -2752    -2675    -2543    -2452    -2386    -2305    -2239 
   -2228    -2266    -2315    -2326    -2270    -2165    -2030    -1892 
   -1788    -1764    -1840    -1969    -2070    -2112    -2119    -2122 
   -2127    -2114    -2084    -2083    -2128    -2189    -2212    -2184 
   -2135    -2093    -2101    -2189    -2305    -2376    -2373    -2315 
   -2250    -2223    -2257    -2336    -2386    -2366    -2323    -2281 
   -2227    -2173    -2146    -2146    -2147    -2145    -2151    -2139 
   -2069    -1988    -1957    -1960    -1995    -2088    -2184    -2189 
   -2110    -2038    -2019    -2025    -2033    -2074    -2162    -2268 
   -2376    -2469    -2501    -2450    -2327    -2161    -1985    -1841 
   -1788    -1849    -1942    -1985    -1989    -1991    -2006    -2054 
   -2161    -2266    -2268    -2170    -2062    -1953    -1790    -1584 
   -1453    -1483    -1634    -1842    -2079    -2290    -2435    -2520 
   -2543    -2513    -2486    -2461    -2373    -2205    -2015    -1863 
   -1799    -1806    -1802    -1767    -1772    -1883    -2100    -2353 
   -2552    -2658    -2666    -2581    -2408    -2203    -2070    -2046 
   -2070    -2112    -2180    -2253    -2286    -2242    -2130    -2010 
   -1949    -1945    -1953    -1972    -2007    -2022    -2018    -2060 
   -2180    -2334    -2455    -2512    -2524    -2521    -2509    -2506 
   -2525    -2544    -2559    -2573    -2558    -2494    -2412    -2367 
   -2384    -2425    -2446    -2434    -2389    -2282    -2096    -1891 
   -1723    -1597    -1509    -1497    -1563    -1625    -1633    -1632 
   -1652    -1683    -1728    -1790    -1846    -1892    -1981    -2134 
   -2253    -2261    -2226    -2250    -2317    -2374    -2427    -2475 
   -2492    -2505    -2555    -2612    -2639    -2659    -2710    -2745 
   -2673    -2501    -2326    -2168    -2029    -1968    -1998    -2053 
   -2103    -2170    -2254    -2311    -2322    -2308    -2284    -2214 
   -2099    -1992    -1900    -1736    -1468    -1252    -1240    -1355 
   -1466    -1580    -1691    -1717    -1668    -1621    -1584    -1544 
   -1574    -1717    -1864    -1961    -2138    -2447    -2714    -2791 
   -2737    -2687    -2652    -2574    -2474    -2424    -2431    -2467 
   -2525    -2589    -2608    -2558    -2474    -2398    -2330    -2273 
   -2250    -2235    -2158    -2050    -2035    -2124    -2214    -2253 
   -2262    -2257    -2200    -2081    -1933    -1776    -1638    -1563 
   -1539    -1536    -1540    -1556    -1625    -1741    -1823    -1856 
   -1871    -1791    -1566    -1309    -1142    -1086    -1092    -1100 
   -1146    -1290    -1497    -1701    -1884    -2042    -2161    -2235 
   -2272    -2280    -2284    -2303    -2300    -2238    -2170    -2174 
   -2219    -2214    -2154    -2123    -2157    -2239    -2367    -2513 
   -2593    -2570    -2542    -2616    -2739    -2801    -2791    -2735 
   -2621    -2479    -2384    -2389    -2506    -2691    -2866    -2987 
   -3056    -3075    -3019    -2855    -2616    -2411    -2269    -2126 
   -1999    -1961    -1988    -2004    -1958    -1837    -1665    -1459 
   -1235    -1047     -974    -1046    -1179    -1235    -1190    -1177 
   -1258    -1360    -1439    -1545    -1707    -1861    -1939    -1975 
   -2038    -2138    -2255    -2374    -2452    -2500    -2590    -2695 
   -2701    -2589    -2458    -2365    -2323    -2385    -2562    -2724 
   -2774    -2803    -2911    -3028    -3041    -2960    -2862    -2776 
   -2701    -2621    -2535    -2427    -2236    -1950    -1672    -1512 
   -1447    -1382    -1275    -1174    -1127    -1129    -1162    -1237 
   -1350    -1460    -1580    -1721    -1857    -1988    -2112    -2176 
   -2154    -2084    -1984    -1880    -1823    -1819    -1837    -1818 
   -1706    -1552    -1474    -1494    -1566    -1675    -1811    -1953 
   -2064    -2107    -2110    -2111    -2115    -2147    -2227    -2281 
   -2250    -2195    -2180    -2182    -2218    -2336    -2478    -2543 
   -2563    -2639    -2814    -3037    -3176    -3160    -3092    -3073 
   -3060    -3002    -2944    -2894    -2793    -2621    -2436    -2259 
   -2041    -1799    -1661    -1649    -1657    -1679    -1763    -1860 
   -1908    -1952    -2070    -2289    -2535    -2695    -2758    -2786 
   -2778    -2733    -2702    -2675    -2613    -2536    -2455    -2374 
   -2334    -2320    -2269    -2141    -1937    -1709    -1512    -1372 
   -1358    -1479    -1615    -1701    -1779    -1846    -1858    -1840 
   -1868    -1995    -2168    -2307    -2444    -2632    -2779    -2774 
   -2623    -2442    -2342    -2343    -2369    -2317    -2160    -1952 
   -1761    -1636    -1613    -1698    -1848    -2019    -2219    -2436 
   -2579    -2585    -2527    -2467    -2340    -2106    -1865    -1732 
   -1686    -1653    -1634    -1686    -1804    -1942    -2060    -2139 
   -2214    -2332    -2494    -2651    -2772    -2839    -2841    -2822 
   -2806    -2752    -2647    -2523    -2384    -2245    -2145    -2029 
   -1800    -1493    -1232    -1065     -919     -766     -668     -653 
    -689     -776     -897     -993    -1040    -1128    -1333    -1613 
   -1861    -2020    -2107    -2155    -2178    -2215    -2330    -2458 
   -2470    -2361    -2241    -2168    -2120    -2069    -2004    -1934 
   -1864    -1856    -1999    -2239    -2392    -2390    -2347    -2358 
   -2393    -2385    -2307    -2192    -2088    -2027    -2012    -2012 
   -1965    -1807    -1567    -1389    -1351    -1418    -1514    -1567 
   -1564    -1610    -1814    -2122    -2354    -2439    -2493    -2596 
   -2671    -2668    -2650    -2658    -2654    -2616    -2565    -2475 
   -2308    -2103    -1962    -1911    -1883    -1826    -1753    -1680 
   -1591    -1486    -1433    -1460    -1494    -1498    -1547    -1709 
   -1915    -2050    -2103    -2149    -2242    -2366    -2485    -2627 
   -2836    -3069    -3213    -3217    -3121    -2987    -2856    -2756 
   -2744    -2874    -3036    -3063    -3011    -3045    -3169    -3265 
   -3267    -3191    -3059    -2894    -2756    -2685    -2631    -2521 
   -2354    -2164    -1999    -1911    -1925    -1987    -2007    -1975 
   -1960    -2011    -2123    -2227    -2236    -2157    -2077    -2050 
   -2058    -2069    -2069    -2077    -2116    -2169    -2201    -2188 
   -2115    -2014    -1949    -1914    -1823    -1669    -1560    -1568 
   -1652    -1733    -1809    -1941    -2130    -2315    -2438    -2450 
   -2336    -2181    -2092    -2077    -2080    -2072    -2070    -2074 
   -1998    -1773    -1530    -1440    -1517    -1644    -1705    -1667 
   -1599    -1539    -1449    -1360    -1367    -1499    -1682    -1814 
   -1885    -1989    -2122    -2145    -2027    -1895    -1844    -1857 
   -1894    -1934    -1966    -1973    -1958    -1991    -2120    -2299 
   -2393    -2284    -2023    -1804    -1706    -1630    -1506    -1379 
   -1270    -1143    -1040    -1089    -1275    -1433    -1490    -1528 
   -1626    -1776    -1917    -2014    -2080    -2150    -2295    -2543 
   -2812    -3005    -3106    -3142    -3146    -3138    -3144    -3164 
   -3137    -3014    -2866    -2770    -2718    -2643    -2477    -2273 
   -2119    -1961    -1741    -1528    -1399    -1379    -1471    -1652 
   -1865    -2080    -2307    -2543    -2716    -2731    -2616    -2512 
   -2484    -2501    -2532    -2528    -2448    -2332    -2239    -2146 
   -2030    -1941    -1895    -1838    -1765    -1717    -1738    -1842 
