Origin Time       2024/04/02 04:24:00
Lat.              40.133
Long.             141.712
Depth. (km)       71
Mag.              6.0
Station Code      HKD129
Station Lat.      42.6347
Station Long.     141.6057
Station Height(m) 6
Record Time       2024/04/02 04:25:50
Sampling Freq(Hz) 100Hz
Duration Time(s)  60
Dir.              E-W
Scale Factor      7845(gal)/8223790
Max. Acc. (gal)   3.667
Last Correction   2024/04/02 04:25:51
Memo.             
    6843     6859     6816     6741     6654     6565     6455     6369 
    6367     6432     6502     6552     6600     6693     6831     6944 
    7006     7001     6898     6709     6488     6295     6181     6192 
    6353     6605     6791     6839     6804     6736     6639     6515 
    6403     6415     6610     6810     6764     6485     6261     6315 
    6583     6856     6993     6986     6887     6739     6577     6430 
    6319     6255     6262     6403     6666     6883     6907     6791 
    6671     6585     6507     6501     6636     6816     6876     6756 
    6590     6570     6689     6772     6702     6529     6385     6305 
    6247     6216     6241     6303     6369     6380     6309     6291 
    6417     6573     6608     6531     6413     6343     6382     6513 
    6687     6837     6879     6805     6702     6644     6623     6544 
    6369     6242     6328     6544     6679     6693     6669     6625 
    6534     6450     6478     6606     6682     6594     6417     6299 
    6326     6474     6656     6814     6932     6967     6930     6914 
    6941     6929     6844     6766     6731     6664     6542     6465 
    6508     6635     6745     6783     6798     6871     6979     6979 
    6777     6515     6420     6532     6714     6841     6878     6867 
    6863     6840     6724     6543     6416     6409     6477     6528 
    6513     6438     6358     6373     6494     6619     6656     6571 
    6359     6088     5900     5902     6054     6228     6376     6488 
    6505     6420     6330     6257     6130     5985     5940     6015 
    6104     6088     6050     6168     6400     6546     6538     6536 
    6752     7155     7452     7443     7244     7028     6860     6805 
    6901     7068     7171     7098     6879     6655     6480     6277 
    6053     5967     6156     6567     6971     7192     7256     7209 
    7002     6660     6346     6230     6351     6613     6874     7069 
    7169     7155     7071     6976     6906     6909     6939     6930 
    6967     7056     7021     6766     6389     6035     5799     5707 
    5729     5817     5957     6154     6393     6624     6735     6646 
    6415     6188     6095     6149     6234     6254     6215     6189 
    6261     6409     6519     6536     6504     6480     6481     6512 
    6552     6556     6475     6295     6106     6080     6205     6323 
    6411     6574     6820     6998     6990     6858     6735     6619 
    6426     6183     6102     6331     6708     6951     7017     7071 
    7203     7327     7308     7146     7003     6963     6953     6924 
    6894     6914     6978     6982     6916     6905     6995     7118 
    7164     7013     6702     6401     6201     6129     6192     6319 
    6446     6604     6763     6824     6760     6648     6582     6566 
    6486     6296     6080     5940     5921     6037     6289     6636 
    6966     7129     7080     6928     6799     6721     6646     6566 
    6521     6536     6585     6601     6559     6461     6291     6129 
    6139     6346     6601     6752     6767     6700     6582     6405 
    6216     6093     6089     6195     6349     6517     6679     6748 
    6720     6683     6646     6600     6610     6721     6890     7009 
    6994     6899     6824     6739     6577     6416     6385     6465 
    6538     6536     6496     6465     6435     6413     6440     6484 
    6447     6355     6338     6412     6502     6582     6624     6617 
    6585     6516     6440     6428     6470     6516     6546     6608 
    6739     6858     6855     6748     6643     6563     6394     6137 
    6030     6245     6627     6876     6882     6797     6744     6689 
    6642     6756     7048     7244     7101     6735     6455     6334 
    6173     5956     5938     6220     6605     6889     7063     7196 
    7200     6929     6500     6239     6293     6524     6733     6866 
    6990     7074     6982     6689     6347     6162     6204     6336 
    6409     6423     6484     6644     6787     6797     6723     6596 
    6385     6174     6097     6169     6336     6551     6750     6887 
    6974     6975     6845     6610     6300     5979     5827     5999 
    6450     6948     7211     7144     6890     6613     6363     6118 
    5921     5914     6147     6438     6582     6636     6766     6952 
    7069     7114     7145     7144     7030     6831     6683     6648 
    6644     6602     6573     6628     6752     6872     6905     6790 
    6628     6588     6647     6646     6516     6309     6162     6184 
    6323     6432     6447     6439     6492     6590     6664     6685 
    6678     6675     6701     6786     6921     7009     6970     6768 
    6430     6079     5886     5933     6153     6403     6558     6589 
    6590     6623     6628     6569     6473     6407     6465     6648 
    6848     6987     7049     7006     6858     6723     6740     6851 
    6898     6833     6683     6470     6238     6126     6273     6602 
    6886     7024     7068     7044     6979     6872     6669     6442 
    6342     6312     6243     6187     6204     6296     6443     6590 
    6660     6593     6443     6381     6412     6366     6238     6210 
    6393     6686     6897     7021     7150     7198     7010     6640 
    6305     6129     5989     5814     5775     6004     6345     6565 
    6683     6874     7130     7230     7045     6693     6393     6269 
    6235     6189     6218     6420     6720     6932     6960     6898 
    6849     6737     6475     6191     6057     6130     6342     6593 
    6860     7106     7152     6936     6686     6566     6444     6215 
    6026     6088     6378     6681     6864     6984     7111     7188 
    7065     6752     6475     6374     6357     6301     6200     6093 
    6062     6211     6528     6821     6898     6736     6475     6265 
    6147     6145     6278     6519     6810     7060     7190     7248 
    7315     7329     7171     6829     6401     6073     6026     6276 
    6636     6878     6902     6799     6701     6640     6596     6532 
    6409     6254     6149     6133     6218     6419     6697     6945 
    7057     7002     6843     6666     6497     6304     6061     5823 
    5738     5888     6191     6543     6897     7140     7129     6837 
    6417     6088     5945     5956     6058     6208     6390     6579 
    6709     6805     6948     7091     7146     7114     7021     6882 
    6702     6517     6447     6565     6774     6967     7142     7264 
    7236     7051     6806     6566     6328     6075     5891     5961 
    6293     6635     6731     6573     6361     6253     6204     6108 
    5953     5803     5778     5971     6324     6658     6876     7006 
    7026     6889     6654     6461     6435     6561     6678     6729 
    6829     7026     7209     7279     7252     7221     7194     7047 
    6724     6393     6234     6246     6351     6488     6583     6601 
    6581     6566     6574     6602     6631     6651     6666     6662 
    6615     6529     6474     6496     6558     6687     6941     7226 
    7352     7246     7006     6801     6691     6585     6428     6307 
    6339     6543     6752     6808     6710     6523     6293     6096 
    6035     6149     6384     6610     6702     6717     6793     6916 
    6945     6768     6444     6191     6130     6184     6232     6308 
    6513     6781     6920     6875     6718     6536     6394     6288 
    6178     6127     6219     6396     6554     6658     6664     6570 
    6511     6597     6774     6936     7025     7060     7080     7026 
    6828     6604     6536     6643     6808     6897     6813     6621 
    6454     6343     6295     6324     6411     6555     6736     6841 
    6804     6674     6543     6471     6446     6420     6435     6517 
    6590     6590     6542     6490     6515     6681     6851     6816 
    6604     6416     6370     6448     6494     6365     6164     6123 
    6288     6486     6531     6378     6204     6215     6420     6651 
    6733     6643     6558     6586     6621     6602     6585     6592 
    6604     6569     6459     6349     6324     6389     6485     6548 
    6570     6601     6636     6556     6307     6075     6069     6270 
    6551     6852     7118     7236     7145     6926     6747     6660 
    6551     6393     6367     6559     6793     6820     6623     6458 
    6488     6556     6535     6536     6670     6833     6843     6662 
    6484     6489     6620     6694     6671     6644     6670     6687 
    6605     6493     6527     6675     6732     6631     6504     6519 
    6650     6727     6728     6781     6901     6891     6561     6065 
    5811     5938     6169     6255     6272     6415     6683     6922 
    7048     7047     6928     6785     6777     6940     7096     7049 
    6793     6486     6308     6330     6462     6586     6709     6887 
    7069     7138     7061     6967     6934     6872     6706     6494 
    6372     6470     6714     6812     6674     6575     6677     6771 
    6623     6308     6092     6053     6054     6081     6250     6515 
    6664     6578     6388     6273     6193     6033     5886     5935 
    6145     6307     6382     6544     6810     6961     6917     6868 
    6968     7150     7261     7217     7059     6858     6647     6463 
    6400     6527     6747     6836     6705     6498     6373     6366 
    6447     6532     6578     6623     6678     6723     6718     6669 
    6652     6682     6696     6679     6640     6579     6515     6502 
    6627     6847     6953     6852     6666     6515     6394     6311 
    6318     6430     6581     6698     6782     6876     6940     6868 
    6651     6404     6237     6141     6062     6054     6232     6540 
    6721     6631     6420     6303     6323     6397     6458     6512 
    6578     6569     6451     6380     6465     6592     6621     6597 
    6586     6544     6481     6475     6527     6579     6605     6612 
    6632     6682     6763     6885     6987     6976     6837     6643 
    6488     6394     6319     6292     6427     6720     6961     6988 
    6876     6766     6704     6670     6624     6540     6426     6347 
    6399     6571     6736     6772     6673     6507     6340     6200 
    6106     6130     6345     6662     6956     7242     7516     7647 
    7565     7342     7092     6875     6693     6542     6453     6453 
    6490     6520     6577     6706     6921     7118     7101     6912 
    6752     6625     6440     6226     6085     6084     6154     6173 
    6192     6351     6567     6636     6546     6405     6245     6070 
    5938     5944     6177     6559     6879     7049     7144     7199 
    7115     6760     6196     5711     5536     5594     5687     5832 
    6160     6565     6771     6698     6544     6489     6475     6403 
    6354     6454     6609     6586     6339     6050     5956     6203 
    6737     7321     7736     7885     7731     7267     6571     5868 
    5444     5408     5599     5908     6385     6970     7468     7742 
    7755     7584     7307     6943     6633     6556     6670     6829 
    6994     7248     7639     7973     7990     7730     7431     7198 
    6937     6597     6285     6102     6002     5873     5691     5557 
    5607     5844     6107     6316     6602     7022     7350     7335 
    6983     6512     6129     5879     5719     5706     5935     6358 
    6783     7067     7213     7254     7172     6983     6755     6509 
    6266     6104     6039     5953     5776     5663     5799     6150 
    6565     6912     7071     6959     6574     6065     5668     5509 
    5512     5591     5784     6135     6570     6948     7167     7272 
    7345     7326     7110     6712     6214     5717     5360     5260 
    5402     5675     6056     6565     7006     7114     6907     6588 
    6293     6073     5938     5891     5971     6235     6724     7373 
    8013     8482     8711     8661     8317     7695     6859     6006 
    5379     5061     4942     4897     4927     5093     5425     5902 
    6377     6637     6660     6583     6511     6457     6385     6380 
    6625     7121     7695     8191     8429     8299     7919     7445 
    6897     6322     5900     5769     5915     6197     6403     6390 
    6145     5745     5429     5406     5679     6184     6783     7209 
    7221     6756     6003     5368     5208     5580     6354     7377 
    8463     9339     9694     9337     8359     7106     5999     5367 
    5343     5842     6720     7797     8766     9254     9084     8455 
    7736     7155     6772     6606     6714     7110     7614     7928 
    7932     7744     7470     7121     6789     6655     6817     7191 
    7568     7813     7921     7900     7720     7326     6643     5768 
    5004     4618     4661     4962     5224     5248     5036     4677 
    4295     4001     3836     3940     4515     5520     6642     7561 
    8095     8221     8023     7615     7202     7015     7083     7241 
    7350     7330     7157     6833     6303     5522     4546     3547 
    2848     2743     3246     4085     4884     5413     5655     5706 
    5748     5994     6536     7296     8089     8644     8687     8144 
    7264     6446     5972     5903     6253     7025     7997     8718 
    8873     8444     7554     6413     5331     4720     4900     5730 
    6646     7250     7662     8118     8564     8802     8831     8841 
    8873     8723     8255     7624     7096     6804     6736     6859 
    7084     7172     6910     6297     5509     4865     4671     4958 
    5501     5973     6120     5940     5651     5463     5414     5427 
    5481     5629     5826     5884     5652     5192     4720     4457 
    4486     4738     5139     5714     6463     7079     7111     6457 
    5452     4576     4179     4378     5061     5949     6669     6955 
    6737     6133     5410     4868     4700     4978     5636     6485 
    7312     7965     8340     8422     8317     8213     8268     8479 
    8704     8837     8783     8401     7713     7032     6681     6741 
    7084     7489     7757     7738     7326     6551     5652     4936 
    4656     4981     5908     7163     8298     8985     9163     8980 
    8619     8182     7769     7546     7506     7487     7477     7581 
    7778     7869     7603     6998     6412     6127     6100     6168 
    6180     6022     5792     5697     5787     6039     6394     6686 
    6836     6905     6934     6945     6991     7119     7317     7399 
    7126     6525     5899     5518     5490     5778     6200     6635 
    7159     7815     8436     8748     8556     7848     6745     5470 
    4364     3794     3888     4438     5134     5806     6494     7238 
    7875     8230     8360     8364     8112     7437     6513     5775 
    5435     5352     5412     5760     6528     7461     8083     8194 
    8024     7851     7634     7215     6709     6361     6130     5813 
    5432     5206     5297     5679     6187     6708     7165     7369 
    7110     6377     5476     4877     4797     5100     5560     6021 
    6401     6627     6609     6328     5886     5437     5096     5023 
    5412     6151     6837     7177     7140     6859     6492     6126 
    5857     5826     6087     6556     7020     7207     7001     6544 
    6035     5540     5136     4963     5121     5609     6274     6851 
    7096     6925     6435     5887     5590     5709     6234     7021 
    7790     8256     8248     7763     7105     6650     6413     6154 
    5796     5503     5441     5607     5961     6528     7249     7878 
    8183     8163     7939     7565     7063     6535     6184     6145 
    6358     6723     7195     7680     8039     8235     8307     8264 
    8059     7678     7165     6586     6026     5648     5607     5907 
    6413     7048     7808     8602     9186     9378     9243     8928 
    8397     7507     6350     5335     4774     4612     4754     5204 
    5815     6258     6238     5771     5332     5414     5962     6561 
    6952     7067     6903     6513     5988     5606     5737     6396 
    7175     7650     7704     7526     7257     6758     5902     4891 
    4086     3662     3546     3704     4261     5198     6197     7021 
    7650     8051     8106     7753     7099     6373     5744     5350 
    5370     5873     6677     7445     7936     8156     8274     8307 
    8083     7585     7090     6889     7063     7435     7705     7722 
    7496     7033     6397     5842     5678     5925     6246     6324 
    6133     5853     5624     5460     5341     5285     5306     5387 
    5539     5857     6389     6924     7133     6929     6527     6191 
    6033     6075     6288     6555     6755     6856     6899     6898 
    6802     6563     6203     5825     5575     5471     5391     5265 
    5130     5089     5240     5644     6316     7152     7897     8311 
    8290     7850     7110     6255     5494     5053     5109     5606 
    6269     6876     7419     7951     8398     8556     8294     7695 
    6978     6384     6069     5965     5907     5902     6138     6764 
    7680     8559     9113     9294     9174     8812     8276     7642 
    7032     6604     6377     6292     6385     6631     6859     6906 
    6739     6480     6334     6384     6517     6579     6431     5967 
    5324     4877     4827     5004     5105     5054     5004     5031 
    5046     5028     5103     5370     5798     6272     6702     7106 
    7534     7908     8083     8041     7920     7824     7692     7375 
    6783     5965     5200     4878     5170     5895     6693     7237 
    7407     7300     7034     6640     6201     5884     5872     6336 
    7249     8276     9034     9277     8954     8214     7290     6463 
    6025     6065     6451     7003     7582     8090     8460     8665 
    8644     8325     7749     7020     6219     5470     4939     4719 
    4812     5205     5817     6454     7010     7597     8297     8911 
    9043     8425     7167     5698     4475     3728     3465     3627 
    4110     4706     5124     5178     4934     4615     4433     4569 
    5071     5736     6266     6554     6685     6777     6899     7055 
    7234     7530     7951     8311     8533     8712     8841     8741 
    8276     7520     6697     6018     5601     5444     5422     5373 
    5256     5220     5391     5686     5914     6019     6149     6513 
    7113     7661     7921     7916     7716     7325     6847     6477 
    6293     6280     6431     6698     6959     7119     7156     7091 
    6957     6790     6690     6750     6844     6683     6138     5417 
    4880     4735     4928     5325     5865     6502     7173     7863 
    8523     8985     9073     8800     8388     8067     7902     7888 
    8012     8176     8195     7952     7430     6628     5628     4612 
    3750     3145     2891     3127     3928     5100     6251     7136 
    7751     8171     8383     8302     7985     7693     7622     7695 
    7736     7670     7500     7285     7074     6845     6598     6394 
    6261     6158     5958     5506     4824     4141     3747     3842 
    4333     4869     5197     5341     5432     5640     6093     6736 
    7380     7878     8186     8302     8213     7973     7704     7435 
